{
    "type": "FeatureCollection",
    "features": [
        {
            "id": 42387,
            "type": "Feature",
            "geometry": {
                "type": "Point",
                "coordinates": [
                    19.4774299,
                    53.32462
                ]
            },
            "properties": {
                "ref:rspo": 42387,
                "official_name": "Zesp\u00f3\u0142 Szk\u00f3\u0142 w Pokrzydowie",
                "name": "Zesp\u00f3\u0142 Szk\u00f3\u0142 w Pokrzydowie",
                "addr:country": "PL",
                "addr:postcode": "87-312",
                "addr:place": "Pokrzydowo",
                "addr:housenumber": "23",
                "addr:teryt:sym_ul": 850767,
                "contact:phone": "+48 564985913",
                "contact:email": "zspokrzydowo23@o2.pl",
                "contact:website": "http:\/\/www.pokrzydowo.edupage.org",
                "ref:regon": "871643574",
                "ref:vatin": "PL8741647319",
                "operator": "Gmina Zbiczno",
                "operator:type": "government",
                "landuse": "education",
                "fixme": "amenity=school, amenity=college albo landuse=education w zale\u017cno\u015bci od tego, jakie plac\u00f3wki wchodz\u0105 w sk\u0142ad zespo\u0142u. Sprawd\u017a, kiedy stosowa\u0107 amenity=* a kiedy landuse=education.",
                "note": "Children RSPO: 58437;74773"
            }
        },
        {
            "id": 58437,
            "type": "Feature",
            "geometry": {
                "type": "Point",
                "coordinates": [
                    19.4774299,
                    53.32459
                ]
            },
            "properties": {
                "isced:level": "1;2",
                "ref:rspo": 58437,
                "official_name": "Szko\u0142a Podstawowa w Pokrzydowie",
                "name": "Szko\u0142a Podstawowa w Pokrzydowie",
                "addr:country": "PL",
                "addr:postcode": "87-312",
                "addr:place": "Pokrzydowo",
                "addr:housenumber": "23",
                "addr:teryt:sym_ul": 850767,
                "contact:phone": "+48 564985913",
                "contact:email": "zspokrzydowo23@o2.pl",
                "contact:website": "http:\/\/pokrzydowo.edupage.org",
                "ref:regon": "001211791",
                "ref:vatin": "PL8741474037",
                "operator": "Gmina Zbiczno",
                "operator:type": "government",
                "amenity": "school",
                "note": "Parent RSPO: 42387"
            }
        },
        {
            "id": 74773,
            "type": "Feature",
            "geometry": {
                "type": "Point",
                "coordinates": [
                    19.4774299,
                    53.324560000000005
                ]
            },
            "properties": {
                "ref:rspo": 74773,
                "official_name": "Przedszkole w Pokrzydowie",
                "name": "Przedszkole w Pokrzydowie",
                "addr:country": "PL",
                "addr:postcode": "87-312",
                "addr:place": "Pokrzydowo",
                "addr:housenumber": "23",
                "addr:teryt:sym_ul": 850767,
                "contact:phone": "+48 564985913",
                "contact:email": "zspokrzydowo23@o2.pl",
                "contact:website": "http:\/\/www.edupage.org",
                "ref:regon": "341346898",
                "ref:vatin": "PL8741322089",
                "operator": "Gmina Zbiczno",
                "operator:type": "government",
                "amenity": "kindergarten",
                "note": "Parent RSPO: 42387"
            }
        },
        {
            "id": 40055,
            "type": "Feature",
            "geometry": {
                "type": "Point",
                "coordinates": [
                    19.37586,
                    53.33816
                ]
            },
            "properties": {
                "ref:rspo": 40055,
                "official_name": "Zesp\u00f3\u0142 Szk\u00f3\u0142 w Zbicznie",
                "name": "Zesp\u00f3\u0142 Szk\u00f3\u0142 w Zbicznie",
                "addr:country": "PL",
                "addr:postcode": "87-305",
                "addr:city": "Zbiczno",
                "addr:street": "ul. Szosa Brodnicka",
                "addr:housenumber": "77",
                "addr:teryt:simc": 58233,
                "addr:teryt:sym_ul": 850879,
                "contact:phone": "+48 564939310",
                "contact:email": "szkola@zszbiczno.pl",
                "contact:website": "http:\/\/www.zszbiczno.pl",
                "ref:regon": "871654193",
                "ref:vatin": "PL8741647325",
                "operator": "Gmina Zbiczno",
                "operator:type": "government",
                "landuse": "education",
                "fixme": "amenity=school, amenity=college albo landuse=education w zale\u017cno\u015bci od tego, jakie plac\u00f3wki wchodz\u0105 w sk\u0142ad zespo\u0142u. Sprawd\u017a, kiedy stosowa\u0107 amenity=* a kiedy landuse=education.",
                "note": "Children RSPO: 56375;74794"
            }
        },
        {
            "id": 56375,
            "type": "Feature",
            "geometry": {
                "type": "Point",
                "coordinates": [
                    19.37586,
                    53.33813
                ]
            },
            "properties": {
                "isced:level": "1;2",
                "ref:rspo": 56375,
                "official_name": "Szko\u0142a Podstawowa im. Noblist\u00f3w Polskich w Zbicznie",
                "name": "Szko\u0142a Podstawowa",
                "addr:country": "PL",
                "addr:postcode": "87-305",
                "addr:city": "Zbiczno",
                "addr:street": "ul. Szosa Brodnicka",
                "addr:housenumber": "77",
                "addr:teryt:simc": 58233,
                "addr:teryt:sym_ul": 850879,
                "contact:phone": "+48 564939310",
                "contact:email": "szkola@zszbiczno.pl",
                "contact:website": "http:\/\/www.zszbiczno.home.pl",
                "ref:regon": "000272230",
                "ref:vatin": "PL8741475982",
                "operator": "Gmina Zbiczno",
                "operator:type": "government",
                "amenity": "school",
                "note": "Parent RSPO: 40055"
            }
        },
        {
            "id": 74794,
            "type": "Feature",
            "geometry": {
                "type": "Point",
                "coordinates": [
                    19.37586,
                    53.338100000000004
                ]
            },
            "properties": {
                "ref:rspo": 74794,
                "official_name": "Przedszkole w Zbicznie",
                "name": "Przedszkole w Zbicznie",
                "addr:country": "PL",
                "addr:postcode": "87-305",
                "addr:city": "Zbiczno",
                "addr:street": "ul. Szosa Brodnicka",
                "addr:housenumber": "77",
                "addr:teryt:simc": 58233,
                "addr:teryt:sym_ul": 850879,
                "contact:phone": "+48 564939310",
                "contact:email": "szkola@zszbiczno.pl",
                "contact:website": "https:\/\/www.zszbiczno.pl\/",
                "ref:regon": "341346912",
                "ref:vatin": "PL8741322103",
                "operator": "Gmina Zbiczno",
                "operator:type": "government",
                "amenity": "kindergarten",
                "note": "Parent RSPO: 40055"
            }
        }
    ]
}