{
    "type": "FeatureCollection",
    "features": [
        {
            "id": 275646,
            "type": "Feature",
            "geometry": {
                "type": "Point",
                "coordinates": [
                    19.40669,
                    53.24141
                ]
            },
            "properties": {
                "ref:rspo": 275646,
                "official_name": "Przedszkole Niepubliczne Kraina Marze\u0144",
                "name": "Przedszkole Niepubliczne Kraina Marze\u0144",
                "addr:postcode": "87-300",
                "addr:city": "Brodnica",
                "addr:street": "Kazimierza Wielkiego",
                "addr:housenumber": "4a",
                "addr:door": "A",
                "addr:city:simc": 982954,
                "addr:street:sym_ul": 8265,
                "phone": "+48 669406222",
                "email": "krainamarzen@gmail.com",
                "ref:regon": "386934054",
                "operator": "A&Gm Sp\u00f3\u0142ka Z Ograniczon\u0105 Odpowiedzialno\u015bci\u0105",
                "operator:type": "private",
                "amenity": "kindergarten"
            }
        },
        {
            "id": 6042,
            "type": "Feature",
            "geometry": {
                "type": "Point",
                "coordinates": [
                    19.39992,
                    53.24227
                ]
            },
            "properties": {
                "ref:rspo": 6042,
                "official_name": "Zesp\u00f3\u0142 Szkolno-Przedszkolny nr 3 w Brodnicy",
                "name": "Zesp\u00f3\u0142 Szkolno-Przedszkolny nr 3 w Brodnicy",
                "addr:postcode": "87-300",
                "addr:city": "Brodnica",
                "addr:street": "Nowa",
                "addr:housenumber": "34",
                "addr:city:simc": 982954,
                "addr:street:sym_ul": 14330,
                "phone": "+48 564986125",
                "email": "sekretariat@zsp3.brodnica.pl",
                "website": "http:\/\/www.zsp3.brodnica.pl",
                "ref:regon": "341319648",
                "ref:vatin": "PL8741775885",
                "operator": "Gmina Miasta Brodnicy",
                "operator:type": "government",
                "landuse": "education",
                "fixme": "amenity=school, amenity=college albo landuse=education w zale\u017cno\u015bci od tego, jakie plac\u00f3wki wchodz\u0105 w sk\u0142ad zespo\u0142u. Sprawd\u017a, kiedy stosowa\u0107 amenity=* a kiedy landuse=education.",
                "note": "Children RSPO: 3219;3386"
            }
        },
        {
            "id": 3219,
            "type": "Feature",
            "geometry": {
                "type": "Point",
                "coordinates": [
                    19.39992,
                    53.242239999999995
                ]
            },
            "properties": {
                "isced:level": "1;2",
                "ref:rspo": 3219,
                "official_name": "Szko\u0142a Podstawowa nr 4 z Oddzia\u0142ami Integracyjnymi im. 700 - Lecia Brodnicy w Brodnicy",
                "name": "Szko\u0142a Podstawowa nr 4 z Oddzia\u0142ami Integracyjnymi",
                "addr:postcode": "87-300",
                "addr:city": "Brodnica",
                "addr:street": "Nowa",
                "addr:housenumber": "34",
                "addr:city:simc": 982954,
                "addr:street:sym_ul": 14330,
                "phone": "+48 564986125",
                "email": "sekretariat@zsp3.brodnica.pl",
                "website": "http:\/\/www.sp4.brodnica.pl",
                "ref:regon": "000257325",
                "ref:vatin": "PL8741015944",
                "operator": "Gmina Miasta Brodnicy",
                "operator:type": "government",
                "amenity": "school",
                "note": "Parent RSPO: 6042"
            }
        },
        {
            "id": 107333,
            "type": "Feature",
            "geometry": {
                "type": "Point",
                "coordinates": [
                    19.40095,
                    53.24295
                ]
            },
            "properties": {
                "ref:rspo": 107333,
                "official_name": "O\u015brodek Us\u0142ugowo - Szkoleniowy \"Zofsta\" w Brodnicy",
                "name": "O\u015brodek Us\u0142ugowo - Szkoleniowy \"Zofsta\" w Brodnicy",
                "addr:postcode": "87-300",
                "addr:city": "Brodnica",
                "addr:street": "Poprzeczna",
                "addr:housenumber": "16",
                "addr:city:simc": 982954,
                "addr:street:sym_ul": 17171,
                "phone": "+48 564931934",
                "email": "fsu.zofsta@vp.pl",
                "ref:regon": "341384189",
                "ref:vatin": "PL8741027203",
                "operator": "Stanis\u0142aw Stolarczyk",
                "operator:type": "private",
                "fixme": "w zale\u017cno\u015bci od przedmiotu dzia\u0142alno\u015bci (np. amenity=training + training=*, amenity=dancing_school, amenity=language_school, amenity=music_school) albo amenity=school, amenity=college, albo landuse=education w zale\u017cno\u015bci od tego, jakie plac\u00f3wki wchodz\u0105 w sk\u0142ad zespo\u0142u. Sprawd\u017a, kiedy stosowa\u0107 amenity=* a kiedy landuse=education."
            }
        },
        {
            "id": 3386,
            "type": "Feature",
            "geometry": {
                "type": "Point",
                "coordinates": [
                    19.4084499,
                    53.24588
                ]
            },
            "properties": {
                "ref:rspo": 3386,
                "official_name": "Przedszkole im. Marii Konopnickiej w Brodnicy",
                "name": "Przedszkole",
                "addr:postcode": "87-300",
                "addr:city": "Brodnica",
                "addr:street": "Stanis\u0142awa Wyspia\u0144skiego",
                "addr:housenumber": "12a",
                "addr:city:simc": 982954,
                "addr:street:sym_ul": 25084,
                "phone": "+48 564987949",
                "email": "pmk-brodnica@wp.pl",
                "website": "http:\/\/www.pmk.brodnica.pl",
                "ref:regon": "340852719",
                "ref:vatin": "PL8741764261",
                "operator": "Gmina Miasta Brodnicy",
                "operator:type": "government",
                "amenity": "kindergarten",
                "note": "Parent RSPO: 6042"
            }
        },
        {
            "id": 109459,
            "type": "Feature",
            "geometry": {
                "type": "Point",
                "coordinates": [
                    19.40863,
                    53.2463
                ]
            },
            "properties": {
                "ref:rspo": 109459,
                "official_name": "Biuro Komputerowe \n\"Best\" Wojciech P\u0142otka",
                "name": "Biuro Komputerowe \n\"Best\" Wojciech P\u0142otka",
                "addr:postcode": "87-300",
                "addr:city": "Brodnica",
                "addr:street": "Stanis\u0142awa Wyspia\u0144skiego",
                "addr:housenumber": "10a",
                "addr:city:simc": 982954,
                "addr:street:sym_ul": 25084,
                "phone": "+48 512338686",
                "email": "best@adf.pl",
                "website": "http:\/\/www.ebrodnica.eu",
                "ref:regon": "341386892",
                "operator": "Wojciech P\u0142otka",
                "operator:type": "private",
                "fixme": "w zale\u017cno\u015bci od przedmiotu dzia\u0142alno\u015bci (np. amenity=training + training=*, amenity=dancing_school, amenity=language_school, amenity=music_school)"
            }
        },
        {
            "id": 35039,
            "type": "Feature",
            "geometry": {
                "type": "Point",
                "coordinates": [
                    19.40975,
                    53.24659
                ]
            },
            "properties": {
                "ref:rspo": 35039,
                "official_name": "Pa\u0144stwowa Szko\u0142a Muzyczna I St. im. Fryderyka Chopina w Brodnicy",
                "name": "Pa\u0144stwowa Szko\u0142a Muzyczna I St.",
                "addr:postcode": "87-300",
                "addr:city": "Brodnica",
                "addr:street": "Stanis\u0142awa Wyspia\u0144skiego",
                "addr:housenumber": "11",
                "addr:city:simc": 982954,
                "addr:street:sym_ul": 25084,
                "phone": "+48 564986066",
                "email": "psmbrodnica@wp.pl",
                "website": "http:\/\/psmbrodnica.pl",
                "ref:regon": "870216829",
                "operator": "Ministerstwo Kultury I Dziedzictwa Narodowego",
                "operator:type": "public",
                "amenity": "music_school"
            }
        },
        {
            "id": 46567,
            "type": "Feature",
            "geometry": {
                "type": "Point",
                "coordinates": [
                    19.41109,
                    53.24763
                ]
            },
            "properties": {
                "ref:rspo": 46567,
                "official_name": "Us\u0142ugi Bhp Barbara Gibutowska w Brodnicy",
                "name": "Us\u0142ugi Bhp Barbara Gibutowska w Brodnicy",
                "addr:postcode": "87-300",
                "addr:city": "Brodnica",
                "addr:street": "Stanis\u0142awa Wyspia\u0144skiego",
                "addr:housenumber": "5",
                "addr:door": "51",
                "addr:city:simc": 982954,
                "addr:street:sym_ul": 25084,
                "email": "gibutka@wp.pl",
                "ref:regon": "341341441",
                "operator": "Barbara Gibutowska",
                "operator:type": "private",
                "fixme": "w zale\u017cno\u015bci od przedmiotu dzia\u0142alno\u015bci (np. amenity=training + training=*, amenity=dancing_school, amenity=language_school, amenity=music_school)"
            }
        },
        {
            "id": 88143,
            "type": "Feature",
            "geometry": {
                "type": "Point",
                "coordinates": [
                    19.4020699,
                    53.24867
                ]
            },
            "properties": {
                "ref:rspo": 88143,
                "official_name": "Vogelschule Centrum J\u0119zyk\u00f3w Obcych",
                "name": "Vogelschule Centrum J\u0119zyk\u00f3w Obcych",
                "addr:postcode": "87-300",
                "addr:city": "Brodnica",
                "addr:street": "Stefana \u017beromskiego",
                "addr:housenumber": "10B",
                "addr:door": "2",
                "addr:city:simc": 982954,
                "addr:street:sym_ul": 26464,
                "phone": "+48 566974737",
                "email": "sekretariat@vogelschule.pl",
                "website": "http:\/\/www.vogelschule.pl",
                "ref:regon": "341353556",
                "operator": "El\u017cbieta Fogel",
                "operator:type": "private",
                "fixme": "w zale\u017cno\u015bci od przedmiotu dzia\u0142alno\u015bci (np. amenity=training + training=*, amenity=dancing_school, amenity=language_school, amenity=music_school)"
            }
        },
        {
            "id": 3831,
            "type": "Feature",
            "geometry": {
                "type": "Point",
                "coordinates": [
                    19.4116399,
                    53.2494299
                ]
            },
            "properties": {
                "ref:rspo": 3831,
                "official_name": "Zesp\u00f3\u0142 Szk\u00f3\u0142 nr 1 im. Karola Wojty\u0142y-Jana Paw\u0142a II w Brodnicy",
                "name": "Zesp\u00f3\u0142 Szk\u00f3\u0142 nr 1",
                "addr:postcode": "87-300",
                "addr:city": "Brodnica",
                "addr:street": "Jana Matejki",
                "addr:housenumber": "5",
                "addr:city:simc": 982954,
                "addr:street:sym_ul": 12485,
                "phone": "+48 564987851",
                "email": "sekretariat@zs1brodnica.pl",
                "website": "http:\/\/www.zs1brodnica.edu.pl",
                "ref:regon": "870018785",
                "ref:vatin": "PL8741293815",
                "operator": "Gmina Miasta Brodnicy",
                "operator:type": "government",
                "landuse": "education",
                "fixme": "amenity=school, amenity=college albo landuse=education w zale\u017cno\u015bci od tego, jakie plac\u00f3wki wchodz\u0105 w sk\u0142ad zespo\u0142u. Sprawd\u017a, kiedy stosowa\u0107 amenity=* a kiedy landuse=education.",
                "note": "Children RSPO: 6246;6279"
            }
        },
        {
            "id": 6246,
            "type": "Feature",
            "geometry": {
                "type": "Point",
                "coordinates": [
                    19.4116399,
                    53.2493999
                ]
            },
            "properties": {
                "isced:level": "1;2",
                "ref:rspo": 6246,
                "official_name": "Szko\u0142a Podstawowa nr 7 w Brodnicy",
                "name": "Szko\u0142a Podstawowa nr 7 w Brodnicy",
                "addr:postcode": "87-300",
                "addr:city": "Brodnica",
                "addr:street": "Jana Matejki",
                "addr:housenumber": "5",
                "addr:city:simc": 982954,
                "addr:street:sym_ul": 12485,
                "phone": "+48 564987851",
                "email": "sekretariat@zs1brodnica.pl",
                "website": "http:\/\/www.zs1brodnica.edu.pl",
                "ref:regon": "005742210",
                "operator": "Gmina Miasta Brodnicy",
                "operator:type": "government",
                "amenity": "school",
                "note": "Parent RSPO: 3831"
            }
        },
        {
            "id": 6279,
            "type": "Feature",
            "geometry": {
                "type": "Point",
                "coordinates": [
                    19.4116399,
                    53.249369900000005
                ]
            },
            "properties": {
                "isced:level": "3",
                "ref:rspo": 6279,
                "official_name": "Iii Liceum Og\u00f3lnokszta\u0142c\u0105ce w Brodnicy",
                "name": "Iii Liceum Og\u00f3lnokszta\u0142c\u0105ce w Brodnicy",
                "addr:postcode": "87-300",
                "addr:city": "Brodnica",
                "addr:street": "Jana Matejki",
                "addr:housenumber": "5",
                "addr:city:simc": 982954,
                "addr:street:sym_ul": 12485,
                "phone": "+48 564987851",
                "email": "sekretariat@zs1brodnica.pl",
                "website": "http:\/\/www.zs1brodnica.edu.pl",
                "ref:regon": "870019081",
                "operator": "Gmina Miasta Brodnicy",
                "operator:type": "government",
                "amenity": "school",
                "note": "Parent RSPO: 3831"
            }
        },
        {
            "id": 47215,
            "type": "Feature",
            "geometry": {
                "type": "Point",
                "coordinates": [
                    19.40476,
                    53.25015
                ]
            },
            "properties": {
                "isced:level": "4",
                "ref:rspo": 47215,
                "official_name": "Centrum Edukacji Doros\u0142ych Policealne Studium Zawodowe w Brodnicy",
                "name": "Centrum Edukacji Doros\u0142ych Policealne Studium Zawodowe w Brodnicy",
                "addr:postcode": "87-300",
                "addr:city": "Brodnica",
                "addr:street": "Lidzbarska",
                "addr:housenumber": "14",
                "addr:city:simc": 982954,
                "addr:street:sym_ul": 11044,
                "phone": "+48 564932032",
                "email": "cedbrodnica@ced.edu.pl",
                "website": "http:\/\/www.ced.edu.pl",
                "ref:regon": "341341814",
                "operator": "Teresa Synik",
                "operator:type": "private",
                "amenity": "college"
            }
        },
        {
            "id": 53597,
            "type": "Feature",
            "geometry": {
                "type": "Point",
                "coordinates": [
                    19.40476,
                    53.250119999999995
                ]
            },
            "properties": {
                "isced:level": "3",
                "ref:rspo": 53597,
                "official_name": "I Liceum Og\u00f3lnokszta\u0142c\u0105ce im. Filomat\u00f3w Ziemi Micha\u0142owskiej w Brodnicy",
                "name": "I Liceum Og\u00f3lnokszta\u0142c\u0105ce",
                "addr:postcode": "87-300",
                "addr:city": "Brodnica",
                "addr:street": "Lidzbarska",
                "addr:housenumber": "14",
                "addr:city:simc": 982954,
                "addr:street:sym_ul": 11044,
                "phone": "+48 564982016",
                "email": "sekretariat@1lobrodnica.pl",
                "website": "http:\/\/www.1lo-brodnica.edupage.org",
                "ref:regon": "000228246",
                "ref:vatin": "PL8741437119",
                "operator": "Powiat Brodnicki",
                "operator:type": "government",
                "amenity": "school"
            }
        },
        {
            "id": 110449,
            "type": "Feature",
            "geometry": {
                "type": "Point",
                "coordinates": [
                    19.40476,
                    53.25009
                ]
            },
            "properties": {
                "ref:rspo": 110449,
                "official_name": "Centrum Edukacji Doros\u0142ych w Brodnicy",
                "name": "Centrum Edukacji Doros\u0142ych w Brodnicy",
                "addr:postcode": "87-300",
                "addr:city": "Brodnica",
                "addr:street": "Lidzbarska",
                "addr:housenumber": "14",
                "addr:city:simc": 982954,
                "addr:street:sym_ul": 11044,
                "phone": "+48 564932032",
                "email": "biuro@ced.edu.pl",
                "website": "http:\/\/www.ced.edu.pl",
                "ref:regon": "341400860",
                "operator": "Teresa Synik",
                "operator:type": "private",
                "fixme": "w zale\u017cno\u015bci od przedmiotu dzia\u0142alno\u015bci (np. amenity=training + training=*, amenity=dancing_school, amenity=language_school, amenity=music_school)"
            }
        },
        {
            "id": 120308,
            "type": "Feature",
            "geometry": {
                "type": "Point",
                "coordinates": [
                    19.40476,
                    53.25006
                ]
            },
            "properties": {
                "isced:level": "4",
                "ref:rspo": 120308,
                "official_name": "Medyczna Szko\u0142a Ced",
                "name": "Medyczna Szko\u0142a Ced",
                "addr:postcode": "87-300",
                "addr:city": "Brodnica",
                "addr:street": "Lidzbarska",
                "addr:housenumber": "14",
                "addr:door": "-",
                "addr:city:simc": 982954,
                "addr:street:sym_ul": 11044,
                "phone": "+48 564932032",
                "email": "cedbrodnica@ced.edu.pl",
                "website": "http:\/\/www.szkola.medyczna.ced.edu.pl",
                "ref:regon": "341484130",
                "ref:vatin": "PL9561103096",
                "operator": "Teresa Synik",
                "operator:type": "private",
                "amenity": "college"
            }
        },
        {
            "id": 58765,
            "type": "Feature",
            "geometry": {
                "type": "Point",
                "coordinates": [
                    19.41158,
                    53.2507
                ]
            },
            "properties": {
                "ref:rspo": 58765,
                "official_name": "Przedszkole Niepubliczne Bajeczka w Brodnicy",
                "name": "Przedszkole Niepubliczne Bajeczka w Brodnicy",
                "addr:postcode": "87-300",
                "addr:city": "Brodnica",
                "addr:street": "Jagiello\u0144ska",
                "addr:housenumber": "8",
                "addr:city:simc": 982954,
                "addr:street:sym_ul": 7029,
                "phone": "+48 566498382",
                "email": "pnbrodnica@gmail.com",
                "website": "http:\/\/pnbrodnica.pl",
                "ref:regon": "341346102",
                "operator": "Brodnickie Stowarzyszenie O\u015bwiatowe",
                "operator:type": "ngo",
                "amenity": "kindergarten"
            }
        },
        {
            "id": 131165,
            "type": "Feature",
            "geometry": {
                "type": "Point",
                "coordinates": [
                    19.39984,
                    53.25104
                ]
            },
            "properties": {
                "ref:rspo": 131165,
                "official_name": "Centrum Kszta\u0142cenia Zawodowego I Ustawicznego w Brodnicy",
                "name": "Centrum Kszta\u0142cenia Zawodowego I Ustawicznego w Brodnicy",
                "addr:postcode": "87-300",
                "addr:city": "Brodnica",
                "addr:street": "Mazurska",
                "addr:housenumber": "28",
                "addr:city:simc": 982954,
                "addr:street:sym_ul": 12555,
                "phone": "+48 564982466",
                "email": "sekretariat@ckziubrodnica.pl",
                "website": "http:\/\/ckziubrodnica.pl",
                "ref:regon": "364986594",
                "operator": "Powiat Brodnicki",
                "operator:type": "government",
                "landuse": "education",
                "fixme": "amenity=school, amenity=college albo landuse=education w zale\u017cno\u015bci od tego, jakie plac\u00f3wki wchodz\u0105 w sk\u0142ad zespo\u0142u. Sprawd\u017a, kiedy stosowa\u0107 amenity=* a kiedy landuse=education.",
                "note": "Children RSPO: 131392;131394;131395;131449;131451;131452;264143;275931"
            }
        },
        {
            "id": 264143,
            "type": "Feature",
            "geometry": {
                "type": "Point",
                "coordinates": [
                    19.39984,
                    53.25101
                ]
            },
            "properties": {
                "isced:level": "1;2",
                "ref:rspo": 264143,
                "official_name": "Szko\u0142a Podstawowa dla Doros\u0142ych w Brodnicy",
                "name": "Szko\u0142a Podstawowa dla Doros\u0142ych w Brodnicy",
                "addr:postcode": "87-300",
                "addr:city": "Brodnica",
                "addr:street": "Mazurska",
                "addr:housenumber": "28",
                "addr:city:simc": 982954,
                "addr:street:sym_ul": 12555,
                "phone": "+48 564982466",
                "email": "sekretariat@ckziubrodnica.pl",
                "website": "http:\/\/ckziubrodnica.pl",
                "ref:regon": "368271870",
                "operator": "Powiat Brodnicki",
                "operator:type": "government",
                "amenity": "school",
                "note": "Parent RSPO: 131165"
            }
        },
        {
            "id": 275931,
            "type": "Feature",
            "geometry": {
                "type": "Point",
                "coordinates": [
                    19.39984,
                    53.250980000000006
                ]
            },
            "properties": {
                "isced:level": "3",
                "ref:rspo": 275931,
                "official_name": "Bran\u017cowa Szko\u0142a II Stopnia",
                "name": "Bran\u017cowa Szko\u0142a II Stopnia",
                "addr:postcode": "87-300",
                "addr:city": "Brodnica",
                "addr:street": "Mazurska",
                "addr:housenumber": "28",
                "addr:city:simc": 982954,
                "addr:street:sym_ul": 12555,
                "phone": "+48 564982466",
                "email": "sekretariat@ckziubrodnica.pl",
                "website": "http:\/\/www.ckziubrodnica.pl",
                "ref:regon": "386957865",
                "operator": "Powiat Brodnicki",
                "operator:type": "government",
                "amenity": "school",
                "note": "Parent RSPO: 131165"
            }
        },
        {
            "id": 42532,
            "type": "Feature",
            "geometry": {
                "type": "Point",
                "coordinates": [
                    19.41759,
                    53.25121
                ]
            },
            "properties": {
                "ref:rspo": 42532,
                "official_name": "Poradnia Psychologiczno - Pedagogiczna w Brodnicy",
                "name": "Poradnia Psychologiczno - Pedagogiczna w Brodnicy",
                "addr:postcode": "87-300",
                "addr:city": "Brodnica",
                "addr:street": "Jana Kochanowskiego",
                "addr:housenumber": "2",
                "addr:city:simc": 982954,
                "addr:street:sym_ul": 31709,
                "phone": "+48 564944591",
                "email": "sekretariat@pppbrodnica.pl",
                "website": "http:\/\/www.pppbrodnica.pl",
                "ref:regon": "871654371",
                "ref:vatin": "PL8741436918",
                "operator": "Powiat Brodnicki",
                "operator:type": "government",
                "healthcare": "counselling",
                "counselling_type": "education",
                "fixme": "w zale\u017cno\u015bci od przedmiotu dzia\u0142alno\u015bci (np. healthcare=counselling + counselling_type=education albo healthcare=psychotherapist)"
            }
        },
        {
            "id": 42801,
            "type": "Feature",
            "geometry": {
                "type": "Point",
                "coordinates": [
                    19.41759,
                    53.25118
                ]
            },
            "properties": {
                "ref:rspo": 42801,
                "official_name": "Zesp\u00f3\u0142 Szk\u00f3\u0142 Specjalnych w Brodnicy",
                "name": "Zesp\u00f3\u0142 Szk\u00f3\u0142 Specjalnych w Brodnicy",
                "addr:postcode": "87-300",
                "addr:city": "Brodnica",
                "addr:street": "Jana Kochanowskiego",
                "addr:housenumber": "2",
                "addr:city:simc": 982954,
                "addr:street:sym_ul": 31709,
                "phone": "+48 564931617",
                "email": "sekretariat@zssbrodnica.pl",
                "website": "http:\/\/www.zssbrodnica.pl",
                "ref:regon": "871215370",
                "ref:vatin": "PL8741533780",
                "operator": "Powiat Brodnicki",
                "operator:type": "government",
                "landuse": "education",
                "fixme": "amenity=school, amenity=college albo landuse=education w zale\u017cno\u015bci od tego, jakie plac\u00f3wki wchodz\u0105 w sk\u0142ad zespo\u0142u. Sprawd\u017a, kiedy stosowa\u0107 amenity=* a kiedy landuse=education.",
                "note": "Children RSPO: 61645;125856"
            }
        },
        {
            "id": 61645,
            "type": "Feature",
            "geometry": {
                "type": "Point",
                "coordinates": [
                    19.41759,
                    53.25115
                ]
            },
            "properties": {
                "isced:level": "1;2",
                "ref:rspo": 61645,
                "official_name": "Szko\u0142a Podstawowa Specjalna",
                "name": "Szko\u0142a Podstawowa Specjalna",
                "addr:postcode": "87-300",
                "addr:city": "Brodnica",
                "addr:street": "Jana Kochanowskiego",
                "addr:housenumber": "2",
                "addr:city:simc": 982954,
                "addr:street:sym_ul": 31709,
                "phone": "+48 564931617",
                "email": "sekretariat@zssbrodnica.pl",
                "website": "http:\/\/www.zssbrodnica.pl",
                "ref:regon": "000257549",
                "ref:vatin": "PL8741533780",
                "operator": "Powiat Brodnicki",
                "operator:type": "government",
                "amenity": "school",
                "note": "Parent RSPO: 42801"
            }
        },
        {
            "id": 125856,
            "type": "Feature",
            "geometry": {
                "type": "Point",
                "coordinates": [
                    19.41759,
                    53.25112
                ]
            },
            "properties": {
                "ref:rspo": 125856,
                "official_name": "Zesp\u00f3\u0142 Szk\u00f3\u0142 Specjalnych w Brodnicy - Szko\u0142a Specjalna Przysposabiaj\u0105ca do Pracy",
                "name": "Zesp\u00f3\u0142 Szk\u00f3\u0142 Specjalnych w Brodnicy - Szko\u0142a Specjalna Przysposabiaj\u0105ca do Pracy",
                "addr:postcode": "87-300",
                "addr:city": "Brodnica",
                "addr:street": "Jana Kochanowskiego",
                "addr:housenumber": "2",
                "addr:city:simc": 982954,
                "addr:street:sym_ul": 31709,
                "phone": "+48 564931617",
                "email": "sekretariat@zssbrodnica.pl",
                "website": "http:\/\/www.zssbrodnica.pl",
                "ref:regon": "360001176",
                "ref:vatin": "PL8741533780",
                "operator": "Powiat Brodnicki",
                "operator:type": "government",
                "amenity": "school",
                "note": "Parent RSPO: 42801"
            }
        },
        {
            "id": 6048,
            "type": "Feature",
            "geometry": {
                "type": "Point",
                "coordinates": [
                    19.39837,
                    53.25155
                ]
            },
            "properties": {
                "ref:rspo": 6048,
                "official_name": "Zesp\u00f3\u0142 Szkolno-Przedszkolny nr 1 w Brodnicy",
                "name": "Zesp\u00f3\u0142 Szkolno-Przedszkolny nr 1 w Brodnicy",
                "addr:postcode": "87-300",
                "addr:city": "Brodnica",
                "addr:street": "3 Maja",
                "addr:housenumber": "4",
                "addr:city:simc": 982954,
                "addr:street:sym_ul": 11937,
                "phone": "+48 564982343",
                "email": "zsp1brodnica@sp1.pl",
                "website": "https:\/\/sp1brodnica.edupage.org\/",
                "ref:regon": "341319631",
                "ref:vatin": "PL8741775922",
                "operator": "Gmina Miasta Brodnicy",
                "operator:type": "government",
                "landuse": "education",
                "fixme": "amenity=school, amenity=college albo landuse=education w zale\u017cno\u015bci od tego, jakie plac\u00f3wki wchodz\u0105 w sk\u0142ad zespo\u0142u. Sprawd\u017a, kiedy stosowa\u0107 amenity=* a kiedy landuse=education.",
                "note": "Children RSPO: 3205;5736"
            }
        },
        {
            "id": 3205,
            "type": "Feature",
            "geometry": {
                "type": "Point",
                "coordinates": [
                    19.39837,
                    53.25152
                ]
            },
            "properties": {
                "isced:level": "1;2",
                "ref:rspo": 3205,
                "official_name": "Szko\u0142a Podstawowa nr 1 im. Henryka Sienkiewicza w Brodnicy",
                "name": "Szko\u0142a Podstawowa nr 1",
                "addr:postcode": "87-300",
                "addr:city": "Brodnica",
                "addr:street": "3 Maja",
                "addr:housenumber": "4",
                "addr:city:simc": 982954,
                "addr:street:sym_ul": 11937,
                "phone": "+48 564982343",
                "email": "zsp1brodnica@sp1.pl",
                "website": "https:\/\/sp1brodnica.edupage.org\/",
                "ref:regon": "000255651",
                "ref:vatin": "PL8741015938",
                "operator": "Gmina Miasta Brodnicy",
                "operator:type": "government",
                "amenity": "school",
                "note": "Parent RSPO: 6048"
            }
        },
        {
            "id": 268522,
            "type": "Feature",
            "geometry": {
                "type": "Point",
                "coordinates": [
                    19.40726,
                    53.25343
                ]
            },
            "properties": {
                "ref:rspo": 268522,
                "official_name": "Niepubliczne Przedszkole Kangurek",
                "name": "Niepubliczne Przedszkole Kangurek",
                "addr:postcode": "87-300",
                "addr:city": "Brodnica",
                "addr:street": "Ogrodowa",
                "addr:housenumber": "12",
                "addr:city:simc": 982954,
                "addr:street:sym_ul": 14834,
                "phone": "+48 721407802",
                "email": "kangurekbrodnica@wp.pl",
                "ref:regon": "381198892",
                "operator": "Milena Tarka",
                "operator:type": "private",
                "amenity": "kindergarten"
            }
        },
        {
            "id": 107336,
            "type": "Feature",
            "geometry": {
                "type": "Point",
                "coordinates": [
                    19.40097,
                    53.2537499
                ]
            },
            "properties": {
                "ref:rspo": 107336,
                "official_name": "Centrum J\u0119zyk\u00f3w Obcych Speakland w Brodnicy",
                "name": "Centrum J\u0119zyk\u00f3w Obcych Speakland w Brodnicy",
                "addr:postcode": "87-300",
                "addr:city": "Brodnica",
                "addr:street": "Mostowa",
                "addr:housenumber": "14",
                "addr:city:simc": 982954,
                "addr:street:sym_ul": 13379,
                "phone": "+48 564940033",
                "email": "speakland@gmail.com",
                "website": "http:\/\/www.speakland.pl",
                "ref:regon": "341384195",
                "ref:vatin": "PL8741618217",
                "operator": "Monika Nied\u017awiedzka",
                "operator:type": "private",
                "fixme": "w zale\u017cno\u015bci od przedmiotu dzia\u0142alno\u015bci (np. amenity=training + training=*, amenity=dancing_school, amenity=language_school, amenity=music_school)"
            }
        },
        {
            "id": 273362,
            "type": "Feature",
            "geometry": {
                "type": "Point",
                "coordinates": [
                    19.4052806,
                    53.2542993
                ]
            },
            "properties": {
                "ref:rspo": 273362,
                "official_name": "Niepubliczne Przedszkole Happy Kids 2",
                "name": "Niepubliczne Przedszkole Happy Kids 2",
                "addr:postcode": "87-300",
                "addr:city": "Brodnica",
                "addr:street": "Przykop",
                "addr:housenumber": "53",
                "addr:city:simc": 982954,
                "addr:street:sym_ul": 17942,
                "phone": "+48 573345784",
                "email": "delfinek@delfinektorun.pl",
                "ref:regon": "384455289",
                "operator": "Pro-Edu Sp\u00f3\u0142ka Z Ograniczon\u0105 Odpowiedzialno\u015bci\u0105",
                "operator:type": "private",
                "amenity": "kindergarten"
            }
        },
        {
            "id": 120745,
            "type": "Feature",
            "geometry": {
                "type": "Point",
                "coordinates": [
                    19.37793,
                    53.25674
                ]
            },
            "properties": {
                "ref:rspo": 120745,
                "official_name": "Niepubliczne Przedszkole Terapeutyczne \"Zaczarowany O\u0142\u00f3wek\"",
                "name": "Niepubliczne Przedszkole Terapeutyczne \"Zaczarowany O\u0142\u00f3wek\"",
                "addr:postcode": "87-300",
                "addr:city": "Brodnica",
                "addr:street": "Tatrza\u0144ska",
                "addr:housenumber": "6",
                "addr:city:simc": 982954,
                "addr:street:sym_ul": 22717,
                "phone": "+48 502284488",
                "email": "zaczarowanyolowek.przedszkole@gmail.com",
                "website": "http:\/\/www.zaczarowanyolowek.org.pl",
                "ref:regon": "341500900",
                "operator": "Joanna Piotrowska",
                "operator:type": "private",
                "amenity": "kindergarten"
            }
        },
        {
            "id": 272568,
            "type": "Feature",
            "geometry": {
                "type": "Point",
                "coordinates": [
                    19.37793,
                    53.25671
                ]
            },
            "properties": {
                "isced:level": "1;2",
                "ref:rspo": 272568,
                "official_name": "Niepubliczna Szko\u0142a Podstawowa",
                "name": "Niepubliczna Szko\u0142a Podstawowa",
                "addr:postcode": "87-300",
                "addr:city": "Brodnica",
                "addr:street": "Tatrza\u0144ska",
                "addr:housenumber": "6",
                "addr:city:simc": 982954,
                "addr:street:sym_ul": 22717,
                "phone": "+48 502284488",
                "email": "j.piotowska.szkola@gmial.com",
                "ref:regon": "384268274",
                "operator": "Joanna Piotrowska",
                "operator:type": "private",
                "amenity": "school"
            }
        },
        {
            "id": 4578,
            "type": "Feature",
            "geometry": {
                "type": "Point",
                "coordinates": [
                    19.40795,
                    53.257
                ]
            },
            "properties": {
                "ref:rspo": 4578,
                "official_name": "Przedszkole Niepubliczne \"Chatka Puchatka\" w Brodnicy",
                "name": "Przedszkole Niepubliczne \"Chatka Puchatka\" w Brodnicy",
                "addr:postcode": "87-300",
                "addr:city": "Brodnica",
                "addr:street": "\u017bwirki i Wigury",
                "addr:housenumber": "10",
                "addr:city:simc": 982954,
                "addr:street:sym_ul": 26608,
                "phone": "+48 601978968",
                "email": "chatka.puchatka.brodnica@wp.pl",
                "ref:regon": "341316236",
                "operator": "Dominika Fr\u0105czyk",
                "operator:type": "private",
                "amenity": "kindergarten"
            }
        },
        {
            "id": 131395,
            "type": "Feature",
            "geometry": {
                "type": "Point",
                "coordinates": [
                    19.40694,
                    53.25796
                ]
            },
            "properties": {
                "ref:rspo": 131395,
                "official_name": "Centrum Kszta\u0142cenia Zawodowego",
                "name": "Centrum Kszta\u0142cenia Zawodowego",
                "addr:postcode": "87-300",
                "addr:city": "Brodnica",
                "addr:street": "Aleja Le\u015bna",
                "addr:housenumber": "2",
                "addr:city:simc": 982954,
                "addr:street:sym_ul": 193,
                "phone": "+48 564983291",
                "email": "sekretariat@ckziubrodnica.pl",
                "website": "http:\/\/ckziubrodnica.pl",
                "ref:regon": "365155257",
                "operator": "Powiat Brodnicki",
                "operator:type": "government",
                "fixme": "w zale\u017cno\u015bci od przedmiotu dzia\u0142alno\u015bci (np. amenity=training + training=*, amenity=dancing_school, amenity=language_school, amenity=music_school) albo amenity=school, amenity=college, albo landuse=education w zale\u017cno\u015bci od tego, jakie plac\u00f3wki wchodz\u0105 w sk\u0142ad zespo\u0142u. Sprawd\u017a, kiedy stosowa\u0107 amenity=* a kiedy landuse=education.",
                "note": "Parent RSPO: 131165"
            }
        },
        {
            "id": 3896,
            "type": "Feature",
            "geometry": {
                "type": "Point",
                "coordinates": [
                    19.40124,
                    53.25971
                ]
            },
            "properties": {
                "ref:rspo": 3896,
                "official_name": "Przedszkole Niepubliczne w Brodnicy T\u0119gowska Barbara",
                "name": "Przedszkole Niepubliczne w Brodnicy T\u0119gowska Barbara",
                "addr:postcode": "87-300",
                "addr:city": "Brodnica",
                "addr:street": "Kamionka",
                "addr:housenumber": "16",
                "addr:city:simc": 982954,
                "addr:street:sym_ul": 7912,
                "phone": "+48 564982560",
                "email": "btegowska@poczta.onet.pl",
                "ref:regon": "341314361",
                "ref:vatin": "PL8741245584",
                "operator": "Barbara T\u0119gowska",
                "operator:type": "private",
                "amenity": "kindergarten"
            }
        },
        {
            "id": 5736,
            "type": "Feature",
            "geometry": {
                "type": "Point",
                "coordinates": [
                    19.38258,
                    53.25997
                ]
            },
            "properties": {
                "ref:rspo": 5736,
                "official_name": "Przedszkole nr 6 w Brodnicy",
                "name": "Przedszkole nr 6 w Brodnicy",
                "addr:postcode": "87-300",
                "addr:city": "Brodnica",
                "addr:street": "Batalion\u00f3w Ch\u0142opskich",
                "addr:housenumber": "28",
                "addr:city:simc": 982954,
                "addr:street:sym_ul": 868,
                "phone": "+48 564983556",
                "email": "zsp1brodnica@sp1.pl",
                "website": "https:\/\/sp1brodnica.edupage.org\/",
                "ref:regon": "340853067",
                "ref:vatin": "PL8741764367",
                "operator": "Gmina Miasta Brodnicy",
                "operator:type": "government",
                "amenity": "kindergarten",
                "note": "Parent RSPO: 6048"
            }
        },
        {
            "id": 196422,
            "type": "Feature",
            "geometry": {
                "type": "Point",
                "coordinates": [
                    19.39751,
                    53.26101
                ]
            },
            "properties": {
                "isced:level": "1;2",
                "ref:rspo": 196422,
                "official_name": "Szko\u0142a Podstawowa nr 3 im. W\u0142adys\u0142awa Jagie\u0142\u0142y w Brodnicy",
                "name": "Szko\u0142a Podstawowa nr 3",
                "addr:postcode": "87-300",
                "addr:city": "Brodnica",
                "addr:street": "Wiejska",
                "addr:housenumber": "6",
                "addr:city:simc": 982954,
                "addr:street:sym_ul": 24048,
                "phone": "+48 564982410",
                "email": "sekretarz@sp3brodnica.pl",
                "ref:regon": "367992856",
                "operator": "Gmina Miasta Brodnicy",
                "operator:type": "government",
                "amenity": "school"
            }
        },
        {
            "id": 4560,
            "type": "Feature",
            "geometry": {
                "type": "Point",
                "coordinates": [
                    19.38716,
                    53.2618099
                ]
            },
            "properties": {
                "ref:rspo": 4560,
                "official_name": "Przedszkole Niepubliczne \"Basniowa Kraina\" w Brodnicy",
                "name": "Przedszkole Niepubliczne \"Basniowa Kraina\" w Brodnicy",
                "addr:postcode": "87-300",
                "addr:city": "Brodnica",
                "addr:street": "Stefana Czarnieckiego",
                "addr:housenumber": "2",
                "addr:city:simc": 982954,
                "addr:street:sym_ul": 3283,
                "phone": "+48 603125599",
                "email": "kurtbarbara@op.pl",
                "ref:regon": "341316147",
                "operator": "Barbara Kurt",
                "operator:type": "private",
                "amenity": "kindergarten"
            }
        },
        {
            "id": 59605,
            "type": "Feature",
            "geometry": {
                "type": "Point",
                "coordinates": [
                    19.40816,
                    53.26189
                ]
            },
            "properties": {
                "ref:rspo": 59605,
                "official_name": "Bursa Szkolna Caritas Diecezji Toru\u0144skiej im. Bisupa Jana Chrapka w Brodnicy",
                "name": "Bursa Szkolna Caritas Diecezji Toru\u0144skiej",
                "addr:postcode": "87-300",
                "addr:city": "Brodnica",
                "addr:street": "Gajdy",
                "addr:housenumber": "3",
                "addr:city:simc": 982954,
                "addr:street:sym_ul": 5253,
                "phone": "+48 564950282",
                "email": "caritas.brodnica@diecezja.torun.pl",
                "website": "http:\/\/www.caritasbrodnica.diecezja.torun.pl",
                "ref:regon": "341346645",
                "ref:vatin": "PL8741614030",
                "operator": "Diecezja Toru\u0144ska",
                "operator:type": "religious",
                "building": "dormitory"
            }
        },
        {
            "id": 5676,
            "type": "Feature",
            "geometry": {
                "type": "Point",
                "coordinates": [
                    19.40099,
                    53.26653
                ]
            },
            "properties": {
                "ref:rspo": 5676,
                "official_name": "Przedszkole nr 8 w Brodnicy",
                "name": "Przedszkole nr 8 w Brodnicy",
                "addr:postcode": "87-300",
                "addr:city": "Brodnica",
                "addr:street": "Zielona",
                "addr:housenumber": "3",
                "addr:city:simc": 982954,
                "addr:street:sym_ul": 26081,
                "phone": "+48 564934606",
                "email": "p-zielona@wp.pl",
                "ref:regon": "340852932",
                "ref:vatin": "PL8741764404",
                "operator": "Gmina Miasta Brodnicy",
                "operator:type": "government",
                "amenity": "kindergarten",
                "note": "Parent RSPO: 6049"
            }
        },
        {
            "id": 128970,
            "type": "Feature",
            "geometry": {
                "type": "Point",
                "coordinates": [
                    19.40996,
                    53.26731
                ]
            },
            "properties": {
                "ref:rspo": 128970,
                "official_name": "Niepuliczna Poradnia Psychologiczno - Pedagogiczna Novamed w Brodnicy",
                "name": "Niepuliczna Poradnia Psychologiczno - Pedagogiczna Novamed w Brodnicy",
                "addr:postcode": "87-300",
                "addr:city": "Brodnica",
                "addr:street": "Cicha",
                "addr:housenumber": "12",
                "addr:city:simc": 982954,
                "addr:street:sym_ul": 2974,
                "phone": "+48 566970666",
                "email": "nppp@novamed-brodnica.pl",
                "ref:regon": "362438397",
                "ref:vatin": "PL8741774495",
                "operator": "Centrum Rehabilitacji Novamed Sp\u00f3\u0142ka Z Ograniczon\u0105 Odpowiedzialno\u015bci\u0105",
                "operator:type": "private",
                "healthcare": "counselling",
                "counselling_type": "education",
                "fixme": "w zale\u017cno\u015bci od przedmiotu dzia\u0142alno\u015bci (np. healthcare=counselling + counselling_type=education albo healthcare=psychotherapist)"
            }
        },
        {
            "id": 120781,
            "type": "Feature",
            "geometry": {
                "type": "Point",
                "coordinates": [
                    19.39138,
                    53.26746
                ]
            },
            "properties": {
                "ref:rspo": 120781,
                "official_name": "Przedszkole Niepubliczne \"Weso\u0142e Skrzaty\"",
                "name": "Przedszkole Niepubliczne \"Weso\u0142e Skrzaty\"",
                "addr:postcode": "87-300",
                "addr:city": "Brodnica",
                "addr:street": "Wczasowa",
                "addr:housenumber": "2A",
                "addr:city:simc": 982954,
                "addr:street:sym_ul": 23814,
                "email": "wesoleskrzaty@onet.pl",
                "ref:regon": "341504423",
                "operator": "Marzena Scheutz",
                "operator:type": "private",
                "amenity": "kindergarten"
            }
        },
        {
            "id": 120783,
            "type": "Feature",
            "geometry": {
                "type": "Point",
                "coordinates": [
                    19.39103,
                    53.26874
                ]
            },
            "properties": {
                "ref:rspo": 120783,
                "official_name": "Przedszkole Niepubliczne \"Misiaki\"",
                "name": "Przedszkole Niepubliczne \"Misiaki\"",
                "addr:postcode": "87-300",
                "addr:city": "Brodnica",
                "addr:street": "Wczasowa",
                "addr:housenumber": "4B",
                "addr:city:simc": 982954,
                "addr:street:sym_ul": 23814,
                "phone": "+48 606926866",
                "email": "ania_teska@wp.pl",
                "website": "http:\/\/www.misiaki.com.pl",
                "ref:regon": "341504430",
                "operator": "Anna Teska",
                "operator:type": "private",
                "amenity": "kindergarten"
            }
        },
        {
            "id": 129037,
            "type": "Feature",
            "geometry": {
                "type": "Point",
                "coordinates": [
                    19.41195,
                    53.26893
                ]
            },
            "properties": {
                "ref:rspo": 129037,
                "official_name": "Przedszkole Niepubliczne \"Smerfu\u015b\"",
                "name": "Przedszkole Niepubliczne \"Smerfu\u015b\"",
                "addr:postcode": "87-300",
                "addr:city": "Brodnica",
                "addr:street": "Ignacego \u0141yskowskiego",
                "addr:housenumber": "4A",
                "addr:city:simc": 982954,
                "addr:street:sym_ul": 11810,
                "phone": "+48 600500975",
                "email": "ewelinka_idd@wp.pl",
                "website": "http:\/\/www.smerfusbrodnica.pl",
                "ref:regon": "362455757",
                "operator": "Ewelina Dybich",
                "operator:type": "private",
                "amenity": "kindergarten"
            }
        },
        {
            "id": 131392,
            "type": "Feature",
            "geometry": {
                "type": "Point",
                "coordinates": [
                    19.40691,
                    53.27025
                ]
            },
            "properties": {
                "isced:level": "3",
                "ref:rspo": 131392,
                "official_name": "Technikum im. Zes\u0142a\u0144c\u00f3w Sybiru",
                "name": "Technikum",
                "addr:postcode": "87-300",
                "addr:city": "Brodnica",
                "addr:street": "Karbowska",
                "addr:housenumber": "29",
                "addr:city:simc": 982954,
                "addr:street:sym_ul": 8018,
                "phone": "+48 564984901",
                "email": "sekretariat@ckziubrodnica.pl",
                "website": "http:\/\/ckziubrodnica.pl",
                "ref:regon": "365154944",
                "operator": "Powiat Brodnicki",
                "operator:type": "government",
                "amenity": "school",
                "note": "Parent RSPO: 131165"
            }
        },
        {
            "id": 131394,
            "type": "Feature",
            "geometry": {
                "type": "Point",
                "coordinates": [
                    19.40691,
                    53.270219999999995
                ]
            },
            "properties": {
                "isced:level": "3",
                "ref:rspo": 131394,
                "official_name": "Bran\u017cowa Szko\u0142a I Stopnia im. Zes\u0142a\u0144c\u00f3w Sybiru",
                "name": "Bran\u017cowa Szko\u0142a I Stopnia",
                "addr:postcode": "87-300",
                "addr:city": "Brodnica",
                "addr:street": "Karbowska",
                "addr:housenumber": "29",
                "addr:city:simc": 982954,
                "addr:street:sym_ul": 8018,
                "phone": "+48 564984901",
                "email": "sekretariat@ckziubrodnica.pl",
                "website": "http:\/\/ckziubrodnica.pl",
                "ref:regon": "365155085",
                "operator": "Powiat Brodnicki",
                "operator:type": "government",
                "amenity": "school",
                "note": "Parent RSPO: 131165"
            }
        },
        {
            "id": 131449,
            "type": "Feature",
            "geometry": {
                "type": "Point",
                "coordinates": [
                    19.40691,
                    53.27019
                ]
            },
            "properties": {
                "ref:rspo": 131449,
                "official_name": "Centrum Kszta\u0142cenia Ustawicznego",
                "name": "Centrum Kszta\u0142cenia Ustawicznego",
                "addr:postcode": "87-300",
                "addr:city": "Brodnica",
                "addr:street": "Karbowska",
                "addr:housenumber": "29",
                "addr:city:simc": 982954,
                "addr:street:sym_ul": 8018,
                "phone": "+48 564984901",
                "email": "sekretariat@ckziubrodnica.pl",
                "website": "http:\/\/ckziubrodnica.pl",
                "ref:regon": "365180309",
                "operator": "Powiat Brodnicki",
                "operator:type": "government",
                "fixme": "w zale\u017cno\u015bci od przedmiotu dzia\u0142alno\u015bci (np. amenity=training + training=*, amenity=dancing_school, amenity=language_school, amenity=music_school)",
                "note": "Parent RSPO: 131165"
            }
        },
        {
            "id": 131451,
            "type": "Feature",
            "geometry": {
                "type": "Point",
                "coordinates": [
                    19.40691,
                    53.27016
                ]
            },
            "properties": {
                "isced:level": "3",
                "ref:rspo": 131451,
                "official_name": "Liceum Og\u00f3lnokszta\u0142c\u0105ce dla Doros\u0142ych",
                "name": "Liceum Og\u00f3lnokszta\u0142c\u0105ce dla Doros\u0142ych",
                "addr:postcode": "87-300",
                "addr:city": "Brodnica",
                "addr:street": "Karbowska",
                "addr:housenumber": "29",
                "addr:city:simc": 982954,
                "addr:street:sym_ul": 8018,
                "phone": "+48 564984901",
                "email": "sekretariat@ckziubrodnica.pl",
                "website": "http:\/\/www.ckziubrodnica.pl",
                "ref:regon": "365180396",
                "operator": "Powiat Brodnicki",
                "operator:type": "government",
                "amenity": "school",
                "note": "Parent RSPO: 131165"
            }
        },
        {
            "id": 131452,
            "type": "Feature",
            "geometry": {
                "type": "Point",
                "coordinates": [
                    19.40691,
                    53.270129999999995
                ]
            },
            "properties": {
                "isced:level": "4",
                "ref:rspo": 131452,
                "official_name": "Szko\u0142a Policealna w Brodnicy",
                "name": "Szko\u0142a Policealna w Brodnicy",
                "addr:postcode": "87-300",
                "addr:city": "Brodnica",
                "addr:street": "Karbowska",
                "addr:housenumber": "29",
                "addr:city:simc": 982954,
                "addr:street:sym_ul": 8018,
                "phone": "+48 564984901",
                "email": "sekretariat@ckziubrodnica.pl",
                "website": "http:\/\/www.ckziubrodnica.pl",
                "ref:regon": "365180433",
                "operator": "Powiat Brodnicki",
                "operator:type": "government",
                "amenity": "college",
                "note": "Parent RSPO: 131165"
            }
        },
        {
            "id": 265974,
            "type": "Feature",
            "geometry": {
                "type": "Point",
                "coordinates": [
                    19.40419,
                    53.27121
                ]
            },
            "properties": {
                "ref:rspo": 265974,
                "official_name": "Niepubliczne Przedszkole \"Akademia Kota Leonarda\"",
                "name": "Niepubliczne Przedszkole \"Akademia Kota Leonarda\"",
                "addr:postcode": "87-300",
                "addr:city": "Brodnica",
                "addr:street": "Powsta\u0144c\u00f3w Wielkopolskich",
                "addr:housenumber": "10a",
                "addr:city:simc": 982954,
                "addr:street:sym_ul": 17377,
                "phone": "+48 533321477",
                "email": "fundacjakukukotku@gmail.com",
                "website": "http:\/\/www.akademiakotaleonarda.pl",
                "ref:regon": "369100744",
                "operator": "Fundacja Kuku Kotku",
                "operator:type": "ngo",
                "amenity": "kindergarten"
            }
        },
        {
            "id": 268231,
            "type": "Feature",
            "geometry": {
                "type": "Point",
                "coordinates": [
                    19.40832,
                    53.27386
                ]
            },
            "properties": {
                "ref:rspo": 268231,
                "official_name": "Przedszkole Niepubliczne \"Promyczek\"",
                "name": "Przedszkole Niepubliczne \"Promyczek\"",
                "addr:postcode": "87-300",
                "addr:city": "Brodnica",
                "addr:street": "Kolejowa",
                "addr:housenumber": "57\/1A",
                "addr:city:simc": 982954,
                "addr:street:sym_ul": 8828,
                "phone": "+48 691244749",
                "email": "promyczek.brodnica@o2.pl",
                "ref:regon": "381033990",
                "operator": "Ewelina Rozpierska",
                "operator:type": "private",
                "amenity": "kindergarten"
            }
        },
        {
            "id": 6049,
            "type": "Feature",
            "geometry": {
                "type": "Point",
                "coordinates": [
                    19.4095,
                    53.27474
                ]
            },
            "properties": {
                "ref:rspo": 6049,
                "official_name": "Zesp\u00f3\u0142 Szkolno-Przedszkolny nr 2 w Brodnicy",
                "name": "Zesp\u00f3\u0142 Szkolno-Przedszkolny nr 2 w Brodnicy",
                "addr:postcode": "87-300",
                "addr:city": "Brodnica",
                "addr:street": "Kolejowa",
                "addr:housenumber": "62",
                "addr:city:simc": 982954,
                "addr:street:sym_ul": 8828,
                "phone": "+48 564934656",
                "email": "spdwa@poczta.onet.pl",
                "website": "http:\/\/zsp2.brodnica.edu.pl",
                "ref:regon": "341319602",
                "ref:vatin": "PL8741775891",
                "operator": "Gmina Miasta Brodnicy",
                "operator:type": "government",
                "landuse": "education",
                "fixme": "amenity=school, amenity=college albo landuse=education w zale\u017cno\u015bci od tego, jakie plac\u00f3wki wchodz\u0105 w sk\u0142ad zespo\u0142u. Sprawd\u017a, kiedy stosowa\u0107 amenity=* a kiedy landuse=education.",
                "note": "Children RSPO: 3213;5676"
            }
        },
        {
            "id": 3213,
            "type": "Feature",
            "geometry": {
                "type": "Point",
                "coordinates": [
                    19.4095,
                    53.27471
                ]
            },
            "properties": {
                "isced:level": "1;2",
                "ref:rspo": 3213,
                "official_name": "Szko\u0142a Podstawowa nr 2 z Oddzia\u0142ami Integracyjnymi im. Polskich Olimpijczyk\u00f3w w Brodnicy",
                "name": "Szko\u0142a Podstawowa nr 2 z Oddzia\u0142ami Integracyjnymi",
                "addr:postcode": "87-300",
                "addr:city": "Brodnica",
                "addr:street": "Kolejowa",
                "addr:housenumber": "62",
                "addr:city:simc": 982954,
                "addr:street:sym_ul": 8828,
                "phone": "+48 564934656",
                "email": "spdwa@poczta.onet.pl",
                "website": "http:\/\/www.sp2.brodnica.edu.pl",
                "ref:regon": "001223943",
                "ref:vatin": "PL8741033824",
                "operator": "Gmina Miasta Brodnicy",
                "operator:type": "government",
                "amenity": "school",
                "note": "Parent RSPO: 6049"
            }
        }
    ]
}