{"type":"FeatureCollection","features":[{"id":43872,"type":"Feature","geometry":{"type":"Point","coordinates":[19.24654,53.38534]},"properties":{"isced:level":"1;2","ref:rspo":43872,"official_name":"Szko\u0142a Podstawowa im. Ignacego \u0141yskowskiego","name":"Szko\u0142a Podstawowa","addr:country":"PL","addr:postcode":"87-330","addr:place":"G\u00f3rale","addr:housenumber":"11","addr:teryt:sym_ul":844778,"contact:phone":"+48 564957380","contact:email":"goralesp@gmail.com","contact:website":"http:\/\/www.spgorale@edupage.org.","ref:regon":"001224339","ref:vatin":"PL8741558455","operator":"Miasto I Gmina Jab\u0142onowo Pomorskie","operator:type":"government","amenity":"school"}},{"id":130554,"type":"Feature","geometry":{"type":"Point","coordinates":[19.15239,53.38721]},"properties":{"ref:rspo":130554,"official_name":"Niepubliczne Przedszkole Anio\u0142kowo","name":"Niepubliczne Przedszkole Anio\u0142kowo","addr:country":"PL","addr:postcode":"87-330","addr:city":"Jab\u0142onowo Pomorskie","addr:street":"ul. Grudzi\u0105dzka","addr:housenumber":"9A","addr:teryt:simc":6236,"addr:teryt:sym_ul":983474,"contact:phone":"+48 530184815","contact:email":"przedszkole.aniolkowo@op.pl","ref:regon":"364181554","ref:vatin":"PL8741731422","operator":"Anna Jankowska","operator:type":"private","amenity":"kindergarten"}},{"id":43804,"type":"Feature","geometry":{"type":"Point","coordinates":[19.16053,53.38815]},"properties":{"isced:level":"1;2","ref:rspo":43804,"official_name":"Szko\u0142a Podstawowa im.janusza Kusoci\u0144skiego","name":"Szko\u0142a Podstawowa im.janusza Kusoci\u0144skiego","addr:country":"PL","addr:postcode":"87-330","addr:city":"Jab\u0142onowo Pomorskie","addr:street":"ul. S\u0142oneczna","addr:housenumber":"2","addr:teryt:simc":20254,"addr:teryt:sym_ul":983474,"contact:phone":"+48 564959299","contact:email":"spjablonowo@gmail.com","contact:website":"http:\/\/spjablonowo.edupage.org","ref:regon":"000264029","ref:vatin":"PL8741641848","operator":"Miasto I Gmina Jab\u0142onowo Pomorskie","operator:type":"government","amenity":"school"}},{"id":53682,"type":"Feature","geometry":{"type":"Point","coordinates":[19.15997,53.38895]},"properties":{"ref:rspo":53682,"official_name":"Zesp\u00f3\u0142 Szk\u00f3\u0142 w Jab\u0142onowie Pomorskim","name":"Zesp\u00f3\u0142 Szk\u00f3\u0142 w Jab\u0142onowie Pomorskim","addr:country":"PL","addr:postcode":"87-330","addr:city":"Jab\u0142onowo Pomorskie","addr:street":"ul. Nowy Rynek","addr:housenumber":"5","addr:teryt:simc":14532,"addr:teryt:sym_ul":983474,"contact:phone":"+48 564957000","contact:email":"zsjablonowo@poczta.onet.pl","contact:website":"http:\/\/www.liceum-jablonowo.pl","ref:regon":"870001827","ref:vatin":"PL8741445053","operator":"Powiat Brodnicki","operator:type":"government","landuse":"education","fixme":"amenity=school, amenity=college albo landuse=education w zale\u017cno\u015bci od tego, jakie plac\u00f3wki wchodz\u0105 w sk\u0142ad zespo\u0142u. Sprawd\u017a, kiedy stosowa\u0107 amenity=* a kiedy landuse=education.","note":"Children RSPO: 82396;84659;84799;109600;109601"}},{"id":82396,"type":"Feature","geometry":{"type":"Point","coordinates":[19.15997,53.38892]},"properties":{"isced:level":"3","ref:rspo":82396,"official_name":"Bran\u017cowa Szko\u0142a I Stopnia","name":"Bran\u017cowa Szko\u0142a I Stopnia","addr:country":"PL","addr:postcode":"87-330","addr:city":"Jab\u0142onowo Pomorskie","addr:street":"ul. Nowy Rynek","addr:housenumber":"5","addr:teryt:simc":14532,"addr:teryt:sym_ul":983474,"contact:phone":"+48 564957000","contact:email":"zsjablonowo@poczta.onet.pl","contact:website":"http:\/\/www.liceum-jablonowo.pl","ref:regon":"871668338","ref:vatin":"PL8741445053","operator":"Powiat Brodnicki","operator:type":"government","amenity":"school","note":"Parent RSPO: 53682"}},{"id":84659,"type":"Feature","geometry":{"type":"Point","coordinates":[19.15997,53.38889]},"properties":{"isced:level":"3","ref:rspo":84659,"official_name":"Technikum","name":"Technikum","addr:country":"PL","addr:postcode":"87-330","addr:city":"Jab\u0142onowo Pomorskie","addr:street":"ul. Nowy Rynek","addr:housenumber":"5","addr:teryt:simc":14532,"addr:teryt:sym_ul":983474,"contact:phone":"+48 564957000","contact:email":"zsjablonowo@poczta.onet.pl","contact:website":"http:\/\/www.liceum-jablonowo.pl","ref:regon":"871668321","ref:vatin":"PL8741445053","operator":"Powiat Brodnicki","operator:type":"government","amenity":"school","note":"Parent RSPO: 53682"}},{"id":84799,"type":"Feature","geometry":{"type":"Point","coordinates":[19.15997,53.38886]},"properties":{"isced:level":"4","ref:rspo":84799,"official_name":"Szko\u0142a Policealna","name":"Szko\u0142a Policealna","addr:country":"PL","addr:postcode":"87-330","addr:city":"Jab\u0142onowo Pomorskie","addr:street":"ul. Nowy Rynek","addr:housenumber":"5","addr:teryt:simc":14532,"addr:teryt:sym_ul":983474,"contact:phone":"+48 564957000","contact:email":"zsjablonowo@poczta.onet.pl","contact:website":"http:\/\/www.liceum-jablonowo.pl","ref:regon":"340216248","ref:vatin":"PL8741445053","operator":"Powiat Brodnicki","operator:type":"government","amenity":"college","note":"Parent RSPO: 53682"}},{"id":109600,"type":"Feature","geometry":{"type":"Point","coordinates":[19.15997,53.38883]},"properties":{"isced:level":"3","ref:rspo":109600,"official_name":"Liceum Og\u00f3lnokszta\u0142c\u0105ce","name":"Liceum Og\u00f3lnokszta\u0142c\u0105ce","addr:country":"PL","addr:postcode":"87-330","addr:city":"Jab\u0142onowo Pomorskie","addr:street":"ul. Nowy Rynek","addr:housenumber":"5","addr:teryt:simc":14532,"addr:teryt:sym_ul":983474,"contact:phone":"+48 564957000","contact:email":"zsjablonowo@poczta.onet.pl","contact:website":"http:\/\/www.liceum-jablonowo.pl","ref:regon":"871668309","ref:vatin":"PL8741445053","operator":"Powiat Brodnicki","operator:type":"government","amenity":"school","note":"Parent RSPO: 53682"}},{"id":109601,"type":"Feature","geometry":{"type":"Point","coordinates":[19.15997,53.3888]},"properties":{"isced:level":"3","ref:rspo":109601,"official_name":"Liceum Og\u00f3lnokszta\u0142c\u0105ce dla Doros\u0142ych","name":"Liceum Og\u00f3lnokszta\u0142c\u0105ce dla Doros\u0142ych","addr:country":"PL","addr:postcode":"87-330","addr:city":"Jab\u0142onowo Pomorskie","addr:street":"ul. Nowy Rynek","addr:housenumber":"5","addr:teryt:simc":14532,"addr:teryt:sym_ul":983474,"contact:phone":"+48 564957000","contact:email":"zsjablonowo@poczta.onet.pl","contact:website":"http:\/\/www.liceum-jablonowo.pl","ref:regon":"340753182","ref:vatin":"PL8741445053","operator":"Powiat Brodnicki","operator:type":"government","amenity":"school","note":"Parent RSPO: 53682"}},{"id":79400,"type":"Feature","geometry":{"type":"Point","coordinates":[19.15413,53.39179]},"properties":{"ref:rspo":79400,"official_name":"Przedszkole Samorz\u0105dowe","name":"Przedszkole Samorz\u0105dowe","addr:country":"PL","addr:postcode":"87-330","addr:city":"Jab\u0142onowo Pomorskie","addr:street":"ul. Mostowa","addr:housenumber":"4","addr:teryt:simc":13379,"addr:teryt:sym_ul":983474,"contact:phone":"+48 564980143","contact:email":"przedszkole_jablonowo@o2.pl","contact:website":"http:\/\/psjablonowo.szkolnastrona.pl","ref:regon":"000264638","ref:vatin":"PL8741558515","operator":"Miasto I Gmina Jab\u0142onowo Pomorskie","operator:type":"government","amenity":"kindergarten"}},{"id":79205,"type":"Feature","geometry":{"type":"Point","coordinates":[19.22699,53.4412]},"properties":{"isced:level":"1;2","ref:rspo":79205,"official_name":"Szko\u0142a Podstawowa","name":"Szko\u0142a Podstawowa","addr:country":"PL","addr:postcode":"87-330","addr:place":"P\u0142ow\u0119\u017c","addr:housenumber":"16","addr:teryt:sym_ul":844873,"contact:phone":"+48 564858096","contact:email":"szkola.plowez@splowez.pl","contact:website":"http:\/\/splowez.pl","ref:regon":"001224351","ref:vatin":"PL8741558484","operator":"Miasto I Gmina Jab\u0142onowo Pomorskie","operator:type":"government","amenity":"school"}}]}