{
    "type": "FeatureCollection",
    "features": [
        {
            "id": 80007,
            "type": "Feature",
            "geometry": {
                "type": "Point",
                "coordinates": [
                    19.44649,
                    53.21357
                ]
            },
            "properties": {
                "ref:rspo": 80007,
                "official_name": "Przedszkole \"Pod \u015awierkiem\"",
                "name": "Przedszkole \"Pod \u015awierkiem\"",
                "addr:country": "PL",
                "addr:postcode": "87-300",
                "addr:place": "Szczuka",
                "addr:housenumber": "78",
                "addr:teryt:sym_ul": 841231,
                "contact:phone": "+48 661752421",
                "contact:email": "marylaniedbalska@wp.pl",
                "contact:website": "http:\/\/www.pod_swierkiem.republika.pl",
                "ref:regon": "341349750",
                "ref:vatin": "PL8741241681",
                "operator": "Maryla Niedbalska",
                "operator:type": "private",
                "amenity": "kindergarten"
            }
        },
        {
            "id": 80005,
            "type": "Feature",
            "geometry": {
                "type": "Point",
                "coordinates": [
                    19.43558,
                    53.22229
                ]
            },
            "properties": {
                "isced:level": "1;2",
                "ref:rspo": 80005,
                "official_name": "Szko\u0142a Podstawowa im. Ziemi Micha\u0142owskiej w Gortatowie Z Siedzib\u0105 w Szczuce",
                "name": "Szko\u0142a Podstawowa",
                "addr:country": "PL",
                "addr:postcode": "87-300",
                "addr:place": "Szczuka",
                "addr:housenumber": "34",
                "addr:teryt:sym_ul": 841231,
                "contact:phone": "+48 564981293",
                "contact:email": "spgortatowo@poczta.onet.pl",
                "contact:website": "http:\/\/www.spgortatowo.pl",
                "ref:regon": "001211294",
                "ref:vatin": "PL8741436781",
                "operator": "Gmina Brodnica",
                "operator:type": "government",
                "amenity": "school",
                "note": "Children RSPO: 90756"
            }
        },
        {
            "id": 131579,
            "type": "Feature",
            "geometry": {
                "type": "Point",
                "coordinates": [
                    19.3904822,
                    53.2283957
                ]
            },
            "properties": {
                "ref:rspo": 131579,
                "official_name": "Niepubliczne Przedszkole Integracyjne \"Akademia Maluszka\"",
                "name": "Niepubliczne Przedszkole Integracyjne \"Akademia Maluszka\"",
                "addr:country": "PL",
                "addr:postcode": "87-300",
                "addr:place": "Moczad\u0142a",
                "addr:housenumber": "2G",
                "addr:teryt:sym_ul": 841076,
                "contact:phone": "+48 692193645",
                "contact:email": "akademiamaluszka-91@wp.pl",
                "contact:website": "http:\/\/akademiamaluszka.net.pl",
                "ref:regon": "365229961",
                "operator": "Miros\u0142aw Lewandowski",
                "operator:type": "private",
                "amenity": "kindergarten"
            }
        },
        {
            "id": 278180,
            "type": "Feature",
            "geometry": {
                "type": "Point",
                "coordinates": [
                    19.46527,
                    53.23039
                ]
            },
            "properties": {
                "ref:rspo": 278180,
                "official_name": "Przedszkole \"S\u0142oneczko\"",
                "name": "Przedszkole \"S\u0142oneczko\"",
                "addr:country": "PL",
                "addr:postcode": "87-300",
                "addr:place": "Ciel\u0119ta",
                "addr:housenumber": "29",
                "addr:teryt:sym_ul": 840929,
                "contact:email": "przedszkolecieleta29@wp.pl",
                "ref:regon": "389849053",
                "ref:vatin": "PL8741780320",
                "operator": "S\u0142oneczko Sp\u00f3\u0142ka Z Ograniczon\u0105 Odpowiedzialno\u015bci\u0105",
                "operator:type": "private",
                "amenity": "kindergarten"
            }
        },
        {
            "id": 90756,
            "type": "Feature",
            "geometry": {
                "type": "Point",
                "coordinates": [
                    19.4697299,
                    53.24278
                ]
            },
            "properties": {
                "isced:level": "1;2",
                "ref:rspo": 90756,
                "official_name": "Szko\u0142a Filialna w Ciel\u0119tach",
                "name": "Szko\u0142a Filialna w Ciel\u0119tach",
                "addr:country": "PL",
                "addr:postcode": "87-300",
                "addr:place": "Ciel\u0119ta",
                "addr:housenumber": "15",
                "addr:teryt:sym_ul": 840929,
                "contact:phone": "+48 564955007",
                "contact:email": "spcieleta@gmail.com",
                "ref:regon": "121129400",
                "operator": "Gmina Brodnica",
                "operator:type": "government",
                "amenity": "school",
                "note": "Parent RSPO: 80005"
            }
        },
        {
            "id": 80008,
            "type": "Feature",
            "geometry": {
                "type": "Point",
                "coordinates": [
                    19.33651,
                    53.24498
                ]
            },
            "properties": {
                "isced:level": "1;2",
                "ref:rspo": 80008,
                "official_name": "Szko\u0142a Podstawowa im. Janusza Korczaka w Szabdzie",
                "name": "Szko\u0142a Podstawowa",
                "addr:country": "PL",
                "addr:postcode": "87-300",
                "addr:place": "Szabda",
                "addr:housenumber": "59",
                "addr:teryt:sym_ul": 841202,
                "contact:phone": "+48 564981917",
                "contact:email": "spszabda@poczta.onet.pl",
                "contact:website": "http:\/\/www.spszabda.szkolnastrona.pl",
                "ref:regon": "001211302",
                "ref:vatin": "PL8741432062",
                "operator": "Gmina Brodnica",
                "operator:type": "government",
                "amenity": "school"
            }
        },
        {
            "id": 80004,
            "type": "Feature",
            "geometry": {
                "type": "Point",
                "coordinates": [
                    19.428352355957,
                    53.261745452881
                ]
            },
            "properties": {
                "isced:level": "1;2",
                "ref:rspo": 80004,
                "official_name": "Szko\u0142a Podstawowa im. Kr\u00f3lewny Anny Waz\u00f3wny w Gorczenicy",
                "name": "Szko\u0142a Podstawowa",
                "addr:country": "PL",
                "addr:postcode": "87-300",
                "addr:place": "Gorczenica",
                "addr:housenumber": "87",
                "addr:teryt:sym_ul": 840964,
                "contact:phone": "+48 564938515",
                "contact:email": "spgorczenica1@wp.pl",
                "contact:website": "http:\/\/www.spgorczenica.szkolnastrona.pl",
                "ref:regon": "001211288",
                "ref:vatin": "PL8741432263",
                "operator": "Gmina Brodnica",
                "operator:type": "government",
                "amenity": "school"
            }
        },
        {
            "id": 123418,
            "type": "Feature",
            "geometry": {
                "type": "Point",
                "coordinates": [
                    19.40189,
                    53.27353
                ]
            },
            "properties": {
                "ref:rspo": 123418,
                "official_name": "Przedszkole Niepubliczne \"Magiczny Domek\" Dorota Grabowska",
                "name": "Przedszkole Niepubliczne \"Magiczny Domek\" Dorota Grabowska",
                "addr:country": "PL",
                "addr:postcode": "87-300",
                "addr:city": "Karbowo",
                "addr:street": "ul. Graniczna",
                "addr:housenumber": "60",
                "addr:teryt:simc": 6075,
                "addr:teryt:sym_ul": 840993,
                "contact:phone": "+48 692142575",
                "contact:email": "magicznydomek.karbowo@gmail.com",
                "contact:website": "http:\/\/magicznydomek.com.pl",
                "ref:regon": "341594432",
                "ref:vatin": "PL8741643787",
                "operator": "Dorota Grabowska",
                "operator:type": "private",
                "amenity": "kindergarten"
            }
        }
    ]
}