{
    "type": "FeatureCollection",
    "features": [
        {
            "id": 9233,
            "type": "Feature",
            "geometry": {
                "type": "Point",
                "coordinates": [
                    19.58145,
                    53.18244
                ]
            },
            "properties": {
                "isced:level": "1;2",
                "ref:rspo": 9233,
                "official_name": "Niepubliczna Szko\u0142a Podstawowa",
                "name": "Niepubliczna Szko\u0142a Podstawowa",
                "addr:country": "PL",
                "addr:postcode": "87-320",
                "addr:place": "Go\u0142kowo",
                "addr:housenumber": "26",
                "addr:teryt:sym_ul": 843520,
                "contact:email": "sp.gim.golkowo@op.pl",
                "contact:website": "https:\/\/gim-golkowo.pl.tl\/",
                "ref:regon": "341322604",
                "operator": "Stowarzyszenie Na Rzecz Rozwoju Wsi Go\u0142kowo, Szczutowo, Go\u0142k\u00f3wko Oraz Okolic \"Ku\u017ania\"",
                "operator:type": "ngo",
                "amenity": "school"
            }
        },
        {
            "id": 106357,
            "type": "Feature",
            "geometry": {
                "type": "Point",
                "coordinates": [
                    19.65304,
                    53.19541
                ]
            },
            "properties": {
                "ref:rspo": 106357,
                "official_name": "Ognisko Pracy Pozaszkolnej \"Wilga' w G\u00f3rznie",
                "name": "Ognisko Pracy Pozaszkolnej \"Wilga' w G\u00f3rznie",
                "addr:country": "PL",
                "addr:postcode": "87-320",
                "addr:city": "G\u00f3rzno",
                "addr:street": "Le\u015bna",
                "addr:housenumber": "12",
                "addr:teryt:simc": 10898,
                "addr:teryt:sym_ul": 983244,
                "contact:phone": "+48 566789242",
                "ref:regon": "341378616",
                "ref:vatin": "PL8792636573",
                "operator": "Regionalny O\u015brodek Edukacji Ekologicznej W Przysieku Sp\u00f3\u0142ka Z Ograniczon\u0105 Odpowiedzialno\u015bci\u0105",
                "operator:type": "private",
                "fixme": "w zale\u017cno\u015bci od przedmiotu dzia\u0142alno\u015bci (np. amenity=training + training=*, amenity=dancing_school, amenity=language_school, amenity=music_school)"
            }
        },
        {
            "id": 125464,
            "type": "Feature",
            "geometry": {
                "type": "Point",
                "coordinates": [
                    19.6613599,
                    53.19548
                ]
            },
            "properties": {
                "ref:rspo": 125464,
                "official_name": "Bursa Uczniowska \"Jag\u00f3dka\" w G\u00f3rznie",
                "name": "Bursa Uczniowska \"Jag\u00f3dka\" w G\u00f3rznie",
                "addr:country": "PL",
                "addr:postcode": "87-320",
                "addr:city": "G\u00f3rzno",
                "addr:street": "Le\u015bna",
                "addr:housenumber": "31",
                "addr:teryt:simc": 10898,
                "addr:teryt:sym_ul": 983244,
                "contact:phone": "+48 606903009",
                "contact:email": "gbbaler@wp.pl",
                "ref:regon": "341630180",
                "operator": "Stowarzyszenie \"Nowy \u015awit\"",
                "operator:type": "ngo",
                "building": "dormitory"
            }
        },
        {
            "id": 10705,
            "type": "Feature",
            "geometry": {
                "type": "Point",
                "coordinates": [
                    19.64097,
                    53.19553
                ]
            },
            "properties": {
                "ref:rspo": 10705,
                "official_name": "Zesp\u00f3\u0142 Szk\u00f3\u0142",
                "name": "Zesp\u00f3\u0142 Szk\u00f3\u0142",
                "addr:country": "PL",
                "addr:postcode": "87-320",
                "addr:city": "G\u00f3rzno",
                "addr:street": "Fryderyka Chopina",
                "addr:housenumber": "1",
                "addr:teryt:simc": 2849,
                "addr:teryt:sym_ul": 983244,
                "contact:phone": "+48 568989107",
                "contact:email": "zsgorzno@gmail.com",
                "contact:website": "http:\/\/www.spgorzno.edupage.org",
                "ref:regon": "871630880",
                "ref:vatin": "PL8741622845",
                "operator": "Miasto I Gmina G\u00f3rzno",
                "operator:type": "government",
                "landuse": "education",
                "fixme": "amenity=school, amenity=college albo landuse=education w zale\u017cno\u015bci od tego, jakie plac\u00f3wki wchodz\u0105 w sk\u0142ad zespo\u0142u. Sprawd\u017a, kiedy stosowa\u0107 amenity=* a kiedy landuse=education.",
                "note": "Children RSPO: 16480;125956"
            }
        },
        {
            "id": 16480,
            "type": "Feature",
            "geometry": {
                "type": "Point",
                "coordinates": [
                    19.64097,
                    53.195499999999996
                ]
            },
            "properties": {
                "isced:level": "1;2",
                "ref:rspo": 16480,
                "official_name": "Szko\u0142a Podstawowa",
                "name": "Szko\u0142a Podstawowa",
                "addr:country": "PL",
                "addr:postcode": "87-320",
                "addr:city": "G\u00f3rzno",
                "addr:street": "Fryderyka Chopina",
                "addr:housenumber": "1",
                "addr:teryt:simc": 2849,
                "addr:teryt:sym_ul": 983244,
                "contact:phone": "+48 564989107",
                "contact:email": "zsgorzno@gmail.com",
                "contact:website": "http:\/\/www.spgorzno.edupage.org",
                "ref:regon": "000263490",
                "ref:vatin": "PL8741622845",
                "operator": "Miasto I Gmina G\u00f3rzno",
                "operator:type": "government",
                "amenity": "school",
                "note": "Parent RSPO: 10705"
            }
        },
        {
            "id": 53680,
            "type": "Feature",
            "geometry": {
                "type": "Point",
                "coordinates": [
                    19.6463359,
                    53.1971925
                ]
            },
            "properties": {
                "isced:level": "3",
                "ref:rspo": 53680,
                "official_name": "Liceum Og\u00f3lnokszta\u0142c\u0105ce Stowarzyszenia Przyjaci\u00f3\u0142 Szk\u00f3\u0142 Katolickich w G\u00f3rznie",
                "name": "Liceum Og\u00f3lnokszta\u0142c\u0105ce Stowarzyszenia Przyjaci\u00f3\u0142 Szk\u00f3\u0142 Katolickich w G\u00f3rznie",
                "addr:country": "PL",
                "addr:postcode": "87-320",
                "addr:city": "G\u00f3rzno",
                "addr:street": "Ko\u015bcielna",
                "addr:housenumber": "7",
                "addr:teryt:simc": 9546,
                "addr:teryt:sym_ul": 983244,
                "contact:phone": "+48 564989211",
                "contact:email": "logorzno@spsk.info.pl",
                "contact:website": "http:\/\/www.liceumgorzno.pl",
                "ref:regon": "341345960",
                "operator": "Stowarzyszenie Przyjaci\u00f3\u0142 Szk\u00f3\u0142 Katolickich",
                "operator:type": "ngo",
                "amenity": "school"
            }
        },
        {
            "id": 125956,
            "type": "Feature",
            "geometry": {
                "type": "Point",
                "coordinates": [
                    19.6433,
                    53.19815
                ]
            },
            "properties": {
                "ref:rspo": 125956,
                "official_name": "Przedszkole Gminne",
                "name": "Przedszkole Gminne",
                "addr:country": "PL",
                "addr:postcode": "87-320",
                "addr:city": "G\u00f3rzno",
                "addr:street": "Tadeusza Ko\u015bciuszki",
                "addr:housenumber": "3",
                "addr:teryt:simc": 9572,
                "addr:teryt:sym_ul": 983244,
                "contact:phone": "+48 564989266",
                "ref:regon": "340529071",
                "operator": "Miasto I Gmina G\u00f3rzno",
                "operator:type": "government",
                "amenity": "kindergarten",
                "note": "Parent RSPO: 10705"
            }
        },
        {
            "id": 61641,
            "type": "Feature",
            "geometry": {
                "type": "Point",
                "coordinates": [
                    19.6449019,
                    53.1985998
                ]
            },
            "properties": {
                "ref:rspo": 61641,
                "official_name": "Internat Stowarzyszenia Przyjaci\u00f3\u0142 Szk\u00f3\u0142 Katolickich w G\u00f3rznie",
                "name": "Internat Stowarzyszenia Przyjaci\u00f3\u0142 Szk\u00f3\u0142 Katolickich w G\u00f3rznie",
                "addr:country": "PL",
                "addr:postcode": "87-320",
                "addr:city": "G\u00f3rzno",
                "addr:street": "Pocztowa",
                "addr:housenumber": "11",
                "addr:teryt:simc": 16579,
                "addr:teryt:sym_ul": 983244,
                "contact:phone": "+48 564989211",
                "contact:email": "logorzno@spsk.info.pl",
                "contact:website": "http:\/\/liceumgorzno.pl",
                "ref:regon": "341345924",
                "operator": "Stowarzyszenie Przyjaci\u00f3\u0142 Szk\u00f3\u0142 Katolickich",
                "operator:type": "ngo",
                "building": "dormitory"
            }
        },
        {
            "id": 9371,
            "type": "Feature",
            "geometry": {
                "type": "Point",
                "coordinates": [
                    19.60051,
                    53.2286
                ]
            },
            "properties": {
                "isced:level": "1;2",
                "ref:rspo": 9371,
                "official_name": "Szko\u0142a Podstawowa Spsk",
                "name": "Szko\u0142a Podstawowa Spsk",
                "addr:country": "PL",
                "addr:postcode": "87-320",
                "addr:place": "Miesi\u0105czkowo",
                "addr:housenumber": "25",
                "addr:teryt:sym_ul": 843543,
                "contact:phone": "+48 564918230",
                "contact:email": "miesiaczkowo@interia.pl",
                "ref:regon": "341322627",
                "operator": "Stowarzyszenie Przyjaci\u00f3\u0142 Szk\u00f3\u0142 Katolickich",
                "operator:type": "ngo",
                "amenity": "school"
            }
        }
    ]
}