{
    "type": "FeatureCollection",
    "features": [
        {
            "id": 271930,
            "type": "Feature",
            "geometry": {
                "type": "Point",
                "coordinates": [
                    19.51664,
                    53.21256
                ]
            },
            "properties": {
                "isced:level": "1;2",
                "ref:rspo": 271930,
                "official_name": "Szko\u0142a Podstawowa w Jastrz\u0119biu",
                "name": "Szko\u0142a Podstawowa w Jastrz\u0119biu",
                "addr:postcode": "87-322",
                "addr:place": "Jastrz\u0119bie",
                "addr:housenumber": "14",
                "addr:teryt:simc": 843780,
                "phone": "+48 564955712",
                "email": "spjastrzebie14@gmail.com",
                "ref:regon": "383804581",
                "ref:vatin": "PL8741795994",
                "operator": "Gmina Bartniczka",
                "operator:type": "government",
                "amenity": "school"
            }
        },
        {
            "id": 118852,
            "type": "Feature",
            "geometry": {
                "type": "Point",
                "coordinates": [
                    19.54865,
                    53.2482
                ]
            },
            "properties": {
                "ref:rspo": 118852,
                "official_name": "Przedszkole Publiczne w \u0141aszewie",
                "name": "Przedszkole Publiczne w \u0141aszewie",
                "addr:postcode": "87-321",
                "addr:place": "\u0141aszewo",
                "addr:housenumber": "49",
                "addr:teryt:simc": 843856,
                "phone": "+48 564955547",
                "email": "przedszkolelaszewo@wp.pl",
                "website": "http:\/\/przedszkolelaszewo.pl",
                "ref:regon": "341468940",
                "ref:vatin": "PL8741776465",
                "operator": "Gmina Bartniczka",
                "operator:type": "government",
                "amenity": "kindergarten"
            }
        },
        {
            "id": 125218,
            "type": "Feature",
            "geometry": {
                "type": "Point",
                "coordinates": [
                    19.60612,
                    53.24944
                ]
            },
            "properties": {
                "ref:rspo": 125218,
                "official_name": "Punkt Przedszkolny Stowarzyszenia Przyjaci\u00f3\u0142 Szk\u00f3\u0142 Katolickich",
                "name": "Punkt Przedszkolny Stowarzyszenia Przyjaci\u00f3\u0142 Szk\u00f3\u0142 Katolickich",
                "addr:postcode": "87-321",
                "addr:place": "Gr\u0105\u017cawy",
                "addr:housenumber": "33",
                "addr:teryt:simc": 843738,
                "phone": "+48 512328884",
                "email": "miesiaczkowo@interia.pl",
                "ref:regon": "341626296",
                "ref:vatin": "PL8741777536",
                "operator": "Stowarzyszenie Przyjaci\u00f3\u0142 Szk\u00f3\u0142 Katolickich",
                "operator:type": "ngo",
                "amenity": "kindergarten"
            }
        },
        {
            "id": 51944,
            "type": "Feature",
            "geometry": {
                "type": "Point",
                "coordinates": [
                    19.64026,
                    53.2568399
                ]
            },
            "properties": {
                "isced:level": "1;2",
                "ref:rspo": 51944,
                "official_name": "Szko\u0142a Podstawowa im. Janusza Korczaka w Radoszkach",
                "name": "Szko\u0142a Podstawowa",
                "addr:postcode": "87-321",
                "addr:place": "Radoszki",
                "addr:housenumber": "64A",
                "addr:teryt:simc": 843879,
                "phone": "+48 564936646",
                "email": "spradoszki@wp.pl",
                "website": "http:\/\/spradoszki.edupage.org",
                "ref:regon": "001212419",
                "ref:vatin": "PL8741558099",
                "operator": "Gmina Bartniczka",
                "operator:type": "government",
                "amenity": "school"
            }
        }
    ]
}