{"type":"FeatureCollection","features":[{"id":65260,"type":"Feature","geometry":{"type":"Point","coordinates":[19.02524,51.11357]},"properties":{"isced:level":"1;2","ref:rspo":65260,"official_name":"Szko\u0142a Podstawowa im. Jana Brzechwy w Makowiskach","name":"Szko\u0142a Podstawowa","addr:country":"PL","addr:postcode":"98-330","addr:city":"Makowiska","addr:street":"ul. Szkolna","addr:housenumber":"1","addr:teryt:simc":21970,"addr:teryt:sym_ul":141404,"contact:phone":"+48 343112331","contact:email":"szkolamakowiska@o2.pl","ref:regon":"001203946","ref:vatin":"PL7722168534","operator":"Gmina Paj\u0119czno","operator:type":"government","amenity":"school"}},{"id":109542,"type":"Feature","geometry":{"type":"Point","coordinates":[19.00798,51.13637]},"properties":{"ref:rspo":109542,"official_name":"Pphu \"Bapex\"","name":"Pphu \"Bapex\"","addr:country":"PL","addr:postcode":"98-330","addr:city":"Paj\u0119czno","addr:street":"ul. Wrzosowa","addr:housenumber":"7","addr:teryt:simc":24870,"addr:teryt:sym_ul":932330,"contact:phone":"+48 607356626","contact:email":"sekretariat@bapex.pl","contact:website":"http:\/\/www.bapex.pl","ref:regon":"101550314","ref:vatin":"PL5741129184","operator":"Anetta Pe\u0142ka","operator:type":"private","fixme":"w zale\u017cno\u015bci od przedmiotu dzia\u0142alno\u015bci (np. amenity=training + training=*, amenity=dancing_school, amenity=language_school, amenity=music_school) albo amenity=school, amenity=college, albo landuse=education w zale\u017cno\u015bci od tego, jakie plac\u00f3wki wchodz\u0105 w sk\u0142ad zespo\u0142u. Sprawd\u017a, kiedy stosowa\u0107 amenity=* a kiedy landuse=education."}},{"id":126727,"type":"Feature","geometry":{"type":"Point","coordinates":[19.00798,51.13634]},"properties":{"ref:rspo":126727,"official_name":"Polska Akademia Szkole\u0144 I Doradztwa Filip Pe\u0142ka","name":"Polska Akademia Szkole\u0144 I Doradztwa Filip Pe\u0142ka","addr:country":"PL","addr:postcode":"98-330","addr:city":"Paj\u0119czno","addr:street":"ul. Wrzosowa","addr:housenumber":"7","addr:teryt:simc":24870,"addr:teryt:sym_ul":932330,"contact:phone":"+48 695300229","contact:email":"polska_akademia@op.pl","ref:regon":"360673243","ref:vatin":"PL5080049122","operator":"Filip Pe\u0142ka","operator:type":"private","fixme":"w zale\u017cno\u015bci od przedmiotu dzia\u0142alno\u015bci (np. amenity=training + training=*, amenity=dancing_school, amenity=language_school, amenity=music_school) albo amenity=school, amenity=college, albo landuse=education w zale\u017cno\u015bci od tego, jakie plac\u00f3wki wchodz\u0105 w sk\u0142ad zespo\u0142u. Sprawd\u017a, kiedy stosowa\u0107 amenity=* a kiedy landuse=education."}},{"id":268903,"type":"Feature","geometry":{"type":"Point","coordinates":[18.99997,51.14443]},"properties":{"ref:rspo":268903,"official_name":"Przedszkole Niepubliczne Akademia Myszki Miki w Paj\u0119cznie","name":"Przedszkole Niepubliczne Akademia Myszki Miki w Paj\u0119cznie","addr:country":"PL","addr:postcode":"98-330","addr:city":"Paj\u0119czno","addr:street":"ul. Adama Mickiewicza","addr:housenumber":"2","addr:teryt:simc":12740,"addr:teryt:sym_ul":932330,"contact:phone":"+48 698155186","contact:email":"akademiamyszkimikipno@gmail.com","ref:regon":"381279892","operator":"K&K Global Company Sp\u00f3\u0142ka Z Ograniczon\u0105 Odpowiedzialno\u015bci\u0105","operator:type":"private","amenity":"kindergarten"}},{"id":9751,"type":"Feature","geometry":{"type":"Point","coordinates":[18.9993899,51.14715]},"properties":{"ref:rspo":9751,"official_name":"Powiatowa Poradnia Psychologiczno-Pedagogiczna w Paj\u0119cznie","name":"Powiatowa Poradnia Psychologiczno-Pedagogiczna w Paj\u0119cznie","addr:country":"PL","addr:postcode":"98-330","addr:city":"Paj\u0119czno","addr:street":"ul. Wi\u015bniowa","addr:housenumber":"34","addr:teryt:simc":24412,"addr:teryt:sym_ul":932330,"contact:phone":"+48 343112471","contact:email":"poradniapajeczno@op.pl","contact:website":"http:\/\/www.pppp.pajeczno.pl","ref:regon":"000716017","ref:vatin":"PL7722195152","operator":"Powiat Paj\u0119cza\u0144ski","operator:type":"government","healthcare":"councelling","counselling_type":"education","fixme":"w zale\u017cno\u015bci od przedmiotu dzia\u0142alno\u015bci (np. healthcare=councelling + counselling_type=education albo healthcare=psychotherapist)","note":"Children RSPO: 15378"}},{"id":19637,"type":"Feature","geometry":{"type":"Point","coordinates":[18.99827,51.14757]},"properties":{"ref:rspo":19637,"official_name":"Biblioteka Pedagogiczna w Sieradzu Filia w Paj\u0119cznie","name":"Biblioteka Pedagogiczna w Sieradzu Filia w Paj\u0119cznie","addr:country":"PL","addr:postcode":"98-330","addr:city":"Paj\u0119czno","addr:street":"ul. Wi\u015bniowa","addr:housenumber":"5","addr:teryt:simc":24412,"addr:teryt:sym_ul":932330,"contact:phone":"+48 343112089","contact:email":"filiapajeczno@bpsieradz.pl","ref:regon":"734920000","operator":"Wojew\u00f3dztwo \u0141\u00f3dzkie","operator:type":"government","amenity":"library","note":"Parent RSPO: 12847"}},{"id":65258,"type":"Feature","geometry":{"type":"Point","coordinates":[18.99973,51.14775]},"properties":{"isced:level":"1;2","ref:rspo":65258,"official_name":"Szko\u0142a Podstawowa Nr 1 im. Juliana Tuwima w Paj\u0119cznie","name":"Szko\u0142a Podstawowa Nr 1","addr:country":"PL","addr:postcode":"98-330","addr:city":"Paj\u0119czno","addr:street":"ul. Wi\u015bniowa","addr:housenumber":"7","addr:teryt:simc":24412,"addr:teryt:sym_ul":932330,"contact:phone":"+48 343112514","contact:email":"sp1@pajeczno.pl","ref:regon":"000255800","ref:vatin":"PL7722169812","operator":"Gmina Paj\u0119czno","operator:type":"government","amenity":"school"}},{"id":26389,"type":"Feature","geometry":{"type":"Point","coordinates":[18.98576,51.14799]},"properties":{"ref:rspo":26389,"official_name":"Centrum Szkole\u0144, Rzeczoznawstwa I Consultingu \"Rzeczoznawca\"In\u017c. Ryszard Ok\u00f3lewski","name":"Centrum Szkole\u0144, Rzeczoznawstwa I Consultingu \"Rzeczoznawca\"In\u017c. Ryszard Ok\u00f3lewski","addr:country":"PL","addr:postcode":"98-330","addr:city":"Paj\u0119czno","addr:street":"ul. Fryderyka Chopina","addr:housenumber":"14","addr:teryt:simc":2849,"addr:teryt:sym_ul":932330,"contact:phone":"+48 343111361","contact:email":"elaokolewska@o2.pl","ref:regon":"101479800","ref:vatin":"PL5741044884","operator":"Ryszard Ok\u00f3lewski","operator:type":"private","fixme":"w zale\u017cno\u015bci od przedmiotu dzia\u0142alno\u015bci (np. amenity=training + training=*, amenity=dancing_school, amenity=language_school, amenity=music_school) albo amenity=school, amenity=college, albo landuse=education w zale\u017cno\u015bci od tego, jakie plac\u00f3wki wchodz\u0105 w sk\u0142ad zespo\u0142u. Sprawd\u017a, kiedy stosowa\u0107 amenity=* a kiedy landuse=education."}},{"id":65264,"type":"Feature","geometry":{"type":"Point","coordinates":[18.98848,51.14848]},"properties":{"ref:rspo":65264,"official_name":"Publiczne Przedszkole Nr 1","name":"Publiczne Przedszkole Nr 1","addr:country":"PL","addr:postcode":"98-330","addr:city":"Paj\u0119czno","addr:street":"ul. Henryka Sienkiewicza","addr:housenumber":"7","addr:door":"11","addr:teryt:simc":19834,"addr:teryt:sym_ul":932330,"contact:phone":"+48 343112253","contact:email":"publprze1@wp.pl","contact:website":"http:\/\/www.przedszkole1.pajeczno.pl","ref:regon":"150027847","ref:vatin":"PL7722169143","operator":"Gmina Paj\u0119czno","operator:type":"government","amenity":"kindergarten"}},{"id":263521,"type":"Feature","geometry":{"type":"Point","coordinates":[18.98848,51.14845]},"properties":{"isced:level":"1;2","ref:rspo":263521,"official_name":"Szko\u0142a Podstawowa Nr 2 im. Polskich Noblist\u00f3w w Paj\u0119cznie","name":"Szko\u0142a Podstawowa Nr 2","addr:country":"PL","addr:postcode":"98-330","addr:city":"Paj\u0119czno","addr:street":"ul. Henryka Sienkiewicza","addr:housenumber":"7","addr:door":"11","addr:teryt:simc":19834,"addr:teryt:sym_ul":932330,"contact:phone":"+48 343113016","contact:email":"szkolapodstawowa2@pajeczno.pl","contact:website":"http:\/\/sp2pajeczno.stihosting.pl\/","ref:regon":"368197210","operator":"Gmina Paj\u0119czno","operator:type":"government","amenity":"school"}},{"id":65265,"type":"Feature","geometry":{"type":"Point","coordinates":[18.99711,51.14849]},"properties":{"ref:rspo":65265,"official_name":"Publiczne Przedszkole Nr 2","name":"Publiczne Przedszkole Nr 2","addr:country":"PL","addr:postcode":"98-330","addr:city":"Paj\u0119czno","addr:street":"ul. Przemys\u0142owa","addr:housenumber":"7","addr:teryt:simc":17742,"addr:teryt:sym_ul":932330,"contact:phone":"+48 343111792","contact:email":"przedszkole2@pajeczno.pl","ref:regon":"150027824","ref:vatin":"PL7722169806","operator":"Gmina Paj\u0119czno","operator:type":"government","amenity":"kindergarten"}},{"id":9707,"type":"Feature","geometry":{"type":"Point","coordinates":[18.98919,51.1487399]},"properties":{"ref:rspo":9707,"official_name":"Zesp\u00f3\u0142 Szk\u00f3\u0142 im. Henryka Sienkiewicza w Paj\u0119cznie","name":"Zesp\u00f3\u0142 Szk\u00f3\u0142","addr:country":"PL","addr:postcode":"98-330","addr:city":"Paj\u0119czno","addr:street":"ul. Henryka Sienkiewicza","addr:housenumber":"5","addr:teryt:simc":19834,"addr:teryt:sym_ul":932330,"contact:phone":"+48 343112629","contact:email":"zespolszkol-sekretariat@wp.pl","contact:website":"http:\/\/www.zspajeczno.pl","ref:regon":"000771743","ref:vatin":"PL5741037275","operator":"Powiat Paj\u0119cza\u0144ski","operator:type":"government","landuse":"education","fixme":"amenity=school, amenity=college albo landuse=education w zale\u017cno\u015bci od tego, jakie plac\u00f3wki wchodz\u0105 w sk\u0142ad zespo\u0142u. Sprawd\u017a, kiedy stosowa\u0107 amenity=* a kiedy landuse=education.","note":"Children RSPO: 15000;15001;15002;15004"}},{"id":15000,"type":"Feature","geometry":{"type":"Point","coordinates":[18.98919,51.1487099]},"properties":{"isced:level":"3","ref:rspo":15000,"official_name":"Liceum Og\u00f3lnokszta\u0142c\u0105ce w Paj\u0119cznie","name":"Liceum Og\u00f3lnokszta\u0142c\u0105ce w Paj\u0119cznie","addr:country":"PL","addr:postcode":"98-330","addr:city":"Paj\u0119czno","addr:street":"ul. Henryka Sienkiewicza","addr:housenumber":"5","addr:teryt:simc":19834,"addr:teryt:sym_ul":932330,"contact:phone":"+48 343112629","contact:email":"zespolszkol-sekretariat@wp.pl","contact:website":"http:\/\/www.zspajeczno.pl","ref:regon":"000228884","ref:vatin":"PL5741037275","operator":"Powiat Paj\u0119cza\u0144ski","operator:type":"government","amenity":"school","note":"Parent RSPO: 9707"}},{"id":15001,"type":"Feature","geometry":{"type":"Point","coordinates":[18.98919,51.148679900000005]},"properties":{"isced:level":"3","ref:rspo":15001,"official_name":"Technikum w Paj\u0119cznie","name":"Technikum w Paj\u0119cznie","addr:country":"PL","addr:postcode":"98-330","addr:city":"Paj\u0119czno","addr:street":"ul. Henryka Sienkiewicza","addr:housenumber":"5","addr:teryt:simc":19834,"addr:teryt:sym_ul":932330,"contact:phone":"+48 343112629","contact:email":"zespolszkol-sekretariat@wp.pl","contact:website":"http:\/\/www.zspajeczno.pl","ref:regon":"592134101","ref:vatin":"PL5741037275","operator":"Powiat Paj\u0119cza\u0144ski","operator:type":"government","amenity":"school","note":"Parent RSPO: 9707"}},{"id":15002,"type":"Feature","geometry":{"type":"Point","coordinates":[18.98919,51.1486499]},"properties":{"isced:level":"3","ref:rspo":15002,"official_name":"Bran\u017cowa Szko\u0142a I Stopnia w Paj\u0119cznie","name":"Bran\u017cowa Szko\u0142a I Stopnia w Paj\u0119cznie","addr:country":"PL","addr:postcode":"98-330","addr:city":"Paj\u0119czno","addr:street":"ul. Henryka Sienkiewicza","addr:housenumber":"5","addr:teryt:simc":19834,"addr:teryt:sym_ul":932330,"contact:phone":"+48 343112629","contact:email":"zespolszkol-sekretariat@wp.pl","contact:website":"http:\/\/www.zspajeczno.pl","ref:regon":"592134118","ref:vatin":"PL5741037275","operator":"Powiat Paj\u0119cza\u0144ski","operator:type":"government","amenity":"school","note":"Parent RSPO: 9707"}},{"id":15004,"type":"Feature","geometry":{"type":"Point","coordinates":[18.98919,51.1486199]},"properties":{"isced:level":"3","ref:rspo":15004,"official_name":"Liceum Og\u00f3lnokszta\u0142c\u0105ce dla Doros\u0142ych w Paj\u0119cznie","name":"Liceum Og\u00f3lnokszta\u0142c\u0105ce dla Doros\u0142ych w Paj\u0119cznie","addr:country":"PL","addr:postcode":"98-330","addr:city":"Paj\u0119czno","addr:street":"ul. Henryka Sienkiewicza","addr:housenumber":"5","addr:teryt:simc":19834,"addr:teryt:sym_ul":932330,"contact:phone":"+48 343112629","contact:email":"zespolszkol-sekretariat@wp.pl","contact:website":"http:\/\/www.zspajeczno.pl","ref:regon":"101468073","ref:vatin":"PL5741037275","operator":"Powiat Paj\u0119cza\u0144ski","operator:type":"government","amenity":"school","note":"Parent RSPO: 9707"}},{"id":54002,"type":"Feature","geometry":{"type":"Point","coordinates":[18.99276,51.14875]},"properties":{"ref:rspo":54002,"official_name":"Zak\u0142ad Doskonalenia Zawodowego w Katowicach O\u015brodek Kszta\u0142cenia Zawodowego w Paj\u0119cznie","name":"Zak\u0142ad Doskonalenia Zawodowego w Katowicach O\u015brodek Kszta\u0142cenia Zawodowego w Paj\u0119cznie","addr:country":"PL","addr:postcode":"98-330","addr:city":"Paj\u0119czno","addr:street":"ul. Majorat","addr:housenumber":"14","addr:teryt:simc":11985,"addr:teryt:sym_ul":932330,"contact:phone":"+48 343112992","contact:email":"pajeczno@zdz.katowice.pl","contact:website":"http:\/\/www.kursy.pajeczno.zdz.pl","ref:regon":"101495176","ref:vatin":"PL6340135558","operator":"Zak\u0142ad Doskonalenia Zawodowego W Katowicach","operator:type":"ngo","fixme":"w zale\u017cno\u015bci od przedmiotu dzia\u0142alno\u015bci (np. amenity=training + training=*, amenity=dancing_school, amenity=language_school, amenity=music_school) albo amenity=school, amenity=college, albo landuse=education w zale\u017cno\u015bci od tego, jakie plac\u00f3wki wchodz\u0105 w sk\u0142ad zespo\u0142u. Sprawd\u017a, kiedy stosowa\u0107 amenity=* a kiedy landuse=education."}}]}