{
    "type": "FeatureCollection",
    "features": [
        {
            "id": 59844,
            "type": "Feature",
            "geometry": {
                "type": "Point",
                "coordinates": [
                    18.67827,
                    52.96886
                ]
            },
            "properties": {
                "ref:rspo": 59844,
                "official_name": "Punkt Przedszkolny w G\u00f3rsku",
                "name": "Punkt Przedszkolny w G\u00f3rsku",
                "addr:postcode": "87-134",
                "addr:city": "G\u00f3rsk",
                "addr:street": "Le\u015bna",
                "addr:housenumber": "13",
                "addr:door": "1",
                "addr:city:simc": 850980,
                "addr:street:sym_ul": 10898,
                "phone": "+48 504316142",
                "email": "info@skrzatygorsk.eu",
                "website": "http:\/\/www.skrzatygorsk.eu",
                "ref:regon": "341345798",
                "operator": "Copernicus Bagpipes Dariusz Kubicki",
                "operator:type": "consortium",
                "amenity": "kindergarten"
            }
        },
        {
            "id": 119226,
            "type": "Feature",
            "geometry": {
                "type": "Point",
                "coordinates": [
                    18.67827,
                    52.96883
                ]
            },
            "properties": {
                "ref:rspo": 119226,
                "official_name": "Pracownia Wspierania Rozwoju Aim Sp. Z O. O.",
                "name": "Pracownia Wspierania Rozwoju Aim Sp. Z O. O.",
                "addr:postcode": "87-134",
                "addr:city": "G\u00f3rsk",
                "addr:street": "Le\u015bna",
                "addr:housenumber": "13",
                "addr:city:simc": 850980,
                "addr:street:sym_ul": 10898,
                "phone": "+48 601058558",
                "email": "aleksandrafajga@gmail.com",
                "ref:regon": "341473740",
                "operator": "\"Pracownia Wspierania Rozwoju Aim\" Sp\u00f3\u0142ka Z Ograniczon\u0105 Odpowiedzialno\u015bci\u0105",
                "operator:type": "private",
                "amenity": "school"
            }
        },
        {
            "id": 56269,
            "type": "Feature",
            "geometry": {
                "type": "Point",
                "coordinates": [
                    18.87503,
                    52.99484
                ]
            },
            "properties": {
                "isced:level": "1;2",
                "ref:rspo": 56269,
                "official_name": "Szko\u0142a Podstawowa w \u0141\u0105\u017cynie",
                "name": "Szko\u0142a Podstawowa w \u0141\u0105\u017cynie",
                "addr:postcode": "87-133",
                "addr:place": "\u0141\u0105\u017cyn",
                "addr:housenumber": "16",
                "addr:city:simc": 851011,
                "phone": "+48 566780814",
                "email": "szkolalazyn_xl@wp.pl",
                "website": "http:\/\/splazyn.szkolnastrona.pl\/",
                "ref:regon": "001224180",
                "ref:vatin": "PL8792275916",
                "operator": "Gmina Z\u0142awie\u015b Wielka",
                "operator:type": "government",
                "amenity": "school"
            }
        },
        {
            "id": 60899,
            "type": "Feature",
            "geometry": {
                "type": "Point",
                "coordinates": [
                    18.50251,
                    53.03259
                ]
            },
            "properties": {
                "isced:level": "1;2",
                "ref:rspo": 60899,
                "official_name": "Szko\u0142a Podstawowa im. Janusza Korczaka w Przysieku",
                "name": "Szko\u0142a Podstawowa",
                "addr:postcode": "87-134",
                "addr:city": "Przysiek",
                "addr:street": "Le\u015bna",
                "addr:housenumber": "1",
                "addr:city:simc": 851152,
                "addr:street:sym_ul": 10898,
                "phone": "+48 566743745",
                "email": "spprzysiek@zlawies.pl",
                "website": "http:\/\/przysiek.edupage.org\/",
                "ref:regon": "001213057",
                "ref:vatin": "PL8792543417",
                "operator": "Gmina Z\u0142awie\u015b Wielka",
                "operator:type": "government",
                "amenity": "school"
            }
        },
        {
            "id": 109937,
            "type": "Feature",
            "geometry": {
                "type": "Point",
                "coordinates": [
                    18.44795,
                    53.03296
                ]
            },
            "properties": {
                "ref:rspo": 109937,
                "official_name": "Przedszkole Niepubliczne \"Jagoda\"",
                "name": "Przedszkole Niepubliczne \"Jagoda\"",
                "addr:postcode": "87-134",
                "addr:city": "G\u00f3rsk",
                "addr:street": "Nadwi\u015bla\u0144ska",
                "addr:housenumber": "6",
                "addr:city:simc": 850980,
                "addr:street:sym_ul": 13915,
                "phone": "+48 509130360",
                "website": "http:\/\/www.przedszkolejagoda.pl\/",
                "ref:regon": "341395951",
                "operator": "Magdalena Jasi\u0144ska",
                "operator:type": "private",
                "amenity": "kindergarten"
            }
        },
        {
            "id": 127824,
            "type": "Feature",
            "geometry": {
                "type": "Point",
                "coordinates": [
                    18.45175,
                    53.03514
                ]
            },
            "properties": {
                "ref:rspo": 127824,
                "official_name": "Centrum Edukacji M\u0142odzie\u017cy im. Ks. J. Popie\u0142uszki",
                "name": "Centrum Edukacji M\u0142odzie\u017cy",
                "addr:postcode": "87-134",
                "addr:city": "G\u00f3rsk",
                "addr:street": "ks. Bronis\u0142awa Markiewicza",
                "addr:housenumber": "10",
                "addr:city:simc": 850980,
                "addr:street:sym_ul": 12367,
                "phone": "+48 669681028",
                "email": "szwajanosik@wp.pl",
                "website": "http:\/\/www.gorsk.org.pl",
                "ref:regon": "361864330",
                "operator": "Zgromadzenie \u015awi\u0119tego Micha\u0142a Archanio\u0142a Z Siedzib\u0105 W Markach",
                "operator:type": "religious",
                "fixme": "w zale\u017cno\u015bci od przedmiotu dzia\u0142alno\u015bci (np. amenity=training + training=*, amenity=dancing_school, amenity=language_school, amenity=music_school)"
            }
        },
        {
            "id": 127164,
            "type": "Feature",
            "geometry": {
                "type": "Point",
                "coordinates": [
                    18.4964799,
                    53.03902
                ]
            },
            "properties": {
                "ref:rspo": 127164,
                "official_name": "Ognisko Pracy Pozaszkolnej \"Daglezja\"",
                "name": "Ognisko Pracy Pozaszkolnej \"Daglezja\"",
                "addr:postcode": "87-134",
                "addr:city": "Przysiek",
                "addr:street": "Parkowa",
                "addr:housenumber": "2",
                "addr:city:simc": 851152,
                "addr:street:sym_ul": 15710,
                "phone": "+48 566789242",
                "ref:regon": "361151713",
                "operator": "Regionalny O\u015brodek Edukacji Ekologicznej W Przysieku Sp\u00f3\u0142ka Z Ograniczon\u0105 Odpowiedzialno\u015bci\u0105",
                "operator:type": "private",
                "fixme": "w zale\u017cno\u015bci od przedmiotu dzia\u0142alno\u015bci (np. amenity=training + training=*, amenity=dancing_school, amenity=language_school, amenity=music_school)"
            }
        },
        {
            "id": 4556,
            "type": "Feature",
            "geometry": {
                "type": "Point",
                "coordinates": [
                    18.47246,
                    53.04103
                ]
            },
            "properties": {
                "ref:rspo": 4556,
                "official_name": "Przedszkole Dwuj\u0119zyczne Smerfu\u015b",
                "name": "Przedszkole Dwuj\u0119zyczne Smerfu\u015b",
                "addr:postcode": "87-134",
                "addr:city": "Stary Toru\u0144",
                "addr:street": "Liliowa",
                "addr:housenumber": "21",
                "addr:city:simc": 851130,
                "addr:street:sym_ul": 11067,
                "phone": "+48 695917097",
                "email": "magda.dudziak@interia.eu",
                "ref:regon": "341316220",
                "operator": "Edu Kids&Fun Sp\u00f3\u0142ka Z Ograniczon\u0105 Odpowiedzialno\u015bci\u0105",
                "operator:type": "private",
                "amenity": "kindergarten"
            }
        },
        {
            "id": 130939,
            "type": "Feature",
            "geometry": {
                "type": "Point",
                "coordinates": [
                    18.47246,
                    53.041
                ]
            },
            "properties": {
                "ref:rspo": 130939,
                "official_name": "Ognisko Pracy Pozaszkolnej \"Od Marzenia Do Spe\u0142nienia\" w Starym Toruniu",
                "name": "Ognisko Pracy Pozaszkolnej \"Od Marzenia Do Spe\u0142nienia\" w Starym Toruniu",
                "addr:postcode": "87-134",
                "addr:city": "Stary Toru\u0144",
                "addr:street": "So\u0142ecka",
                "addr:housenumber": "11",
                "addr:city:simc": 851130,
                "addr:street:sym_ul": 20556,
                "phone": "+48 566528035",
                "email": "euroexpert@centrumdofinansowania.pl",
                "website": "http:\/\/www.centrumdofinansowania.pl",
                "ref:regon": "364737885",
                "ref:vatin": "PL7451354554",
                "operator": "S\u0142awomir Zdziarski",
                "operator:type": "private",
                "fixme": "w zale\u017cno\u015bci od przedmiotu dzia\u0142alno\u015bci (np. amenity=training + training=*, amenity=dancing_school, amenity=language_school, amenity=music_school)"
            }
        },
        {
            "id": 92132,
            "type": "Feature",
            "geometry": {
                "type": "Point",
                "coordinates": [
                    18.41697,
                    53.0611
                ]
            },
            "properties": {
                "isced:level": "1;2",
                "ref:rspo": 92132,
                "official_name": "Szko\u0142a Podstawowa im. Ks. Jerzego Popie\u0142uszki w G\u00f3rsku",
                "name": "Szko\u0142a Podstawowa",
                "addr:postcode": "87-134",
                "addr:city": "G\u00f3rsk",
                "addr:street": "Szkolna",
                "addr:housenumber": "2",
                "addr:city:simc": 850980,
                "addr:street:sym_ul": 21970,
                "phone": "+48 566781307",
                "email": "spgorsk@poczta.onet.pl",
                "website": "http:\/\/www.zsgorsk.pl",
                "ref:regon": "001213063",
                "ref:vatin": "PL8792209049",
                "operator": "Gmina Z\u0142awie\u015b Wielka",
                "operator:type": "government",
                "amenity": "school"
            }
        },
        {
            "id": 119316,
            "type": "Feature",
            "geometry": {
                "type": "Point",
                "coordinates": [
                    18.41697,
                    53.06107
                ]
            },
            "properties": {
                "ref:rspo": 119316,
                "official_name": "Publiczna Szko\u0142a Muzyczna I Stopnia w G\u00f3rsku",
                "name": "Publiczna Szko\u0142a Muzyczna I Stopnia w G\u00f3rsku",
                "addr:postcode": "87-134",
                "addr:city": "G\u00f3rsk",
                "addr:street": "Szkolna",
                "addr:housenumber": "2",
                "addr:city:simc": 850980,
                "addr:street:sym_ul": 21970,
                "phone": "+48 693926356",
                "email": "psmgorsk@o2.pl",
                "website": "http:\/\/www.zsgorsk.pl\/muzyczna",
                "ref:regon": "341473958",
                "ref:vatin": "PL8792671405",
                "operator": "Gmina Z\u0142awie\u015b Wielka",
                "operator:type": "government",
                "amenity": "music_school"
            }
        },
        {
            "id": 103460,
            "type": "Feature",
            "geometry": {
                "type": "Point",
                "coordinates": [
                    18.32836,
                    53.0986
                ]
            },
            "properties": {
                "isced:level": "1;2",
                "ref:rspo": 103460,
                "official_name": "Szko\u0142a Podstawowa im. Kornela Makuszy\u0144skiego w Z\u0142ejwsi Wielkiej",
                "name": "Szko\u0142a Podstawowa",
                "addr:postcode": "87-134",
                "addr:city": "Z\u0142awie\u015b Wielka",
                "addr:street": "Szkolna",
                "addr:housenumber": "6",
                "addr:city:simc": 851212,
                "addr:street:sym_ul": 21970,
                "phone": "+48 566780927",
                "email": "sekretariat@szkolazlawies.pl",
                "website": "http:\/\/szkolazlawies.pl",
                "ref:regon": "001213040",
                "ref:vatin": "PL8792198050",
                "operator": "Gmina Z\u0142awie\u015b Wielka",
                "operator:type": "government",
                "amenity": "school",
                "note": "Children RSPO: 104538"
            }
        },
        {
            "id": 104538,
            "type": "Feature",
            "geometry": {
                "type": "Point",
                "coordinates": [
                    18.24713,
                    53.10253
                ]
            },
            "properties": {
                "isced:level": "1;2",
                "ref:rspo": 104538,
                "official_name": "Filia Szko\u0142y Podstawowej im. Kornela Makuszy\u0144skiego w Z\u0142ejwsi Wielkiej",
                "name": "Filia Szko\u0142y Podstawowej",
                "addr:postcode": "87-134",
                "addr:place": "Czarnowo",
                "addr:housenumber": "29",
                "addr:city:simc": 850968,
                "phone": "+48 566224771",
                "email": "szkolaczarnowo@wp.pl",
                "website": "http:\/\/zszw.internetdsl.pl\/czarnowo\/spczarnowo\/",
                "ref:regon": "121304000",
                "operator": "Gmina Z\u0142awie\u015b Wielka",
                "operator:type": "government",
                "amenity": "school",
                "note": "Parent RSPO: 103460"
            }
        },
        {
            "id": 56223,
            "type": "Feature",
            "geometry": {
                "type": "Point",
                "coordinates": [
                    18.3402299,
                    53.10523
                ]
            },
            "properties": {
                "ref:rspo": 56223,
                "official_name": "Przedszkole Mali Odkrywcy w Z\u0142ejwsi Ma\u0142ej",
                "name": "Przedszkole Mali Odkrywcy w Z\u0142ejwsi Ma\u0142ej",
                "addr:postcode": "87-134",
                "addr:city": "Z\u0142awie\u015b Ma\u0142a",
                "addr:street": "Osiedlowa",
                "addr:housenumber": "6",
                "addr:city:simc": 851206,
                "addr:street:sym_ul": 15300,
                "phone": "+48 566780987",
                "email": "maliodkrywcy@zlawies.pl",
                "website": "http:\/\/przedszkolezm.edupage.org",
                "ref:regon": "340441130",
                "ref:vatin": "PL8792554059",
                "operator": "Gmina Z\u0142awie\u015b Wielka",
                "operator:type": "government",
                "amenity": "kindergarten"
            }
        },
        {
            "id": 93195,
            "type": "Feature",
            "geometry": {
                "type": "Point",
                "coordinates": [
                    18.36158,
                    53.1298699
                ]
            },
            "properties": {
                "isced:level": "1;2",
                "ref:rspo": 93195,
                "official_name": "Szko\u0142a Podstawowa w Rz\u0119czkowie",
                "name": "Szko\u0142a Podstawowa w Rz\u0119czkowie",
                "addr:postcode": "87-133",
                "addr:place": "Rz\u0119czkowo",
                "addr:housenumber": "59",
                "addr:city:simc": 851070,
                "phone": "+48 566781591",
                "email": "sekretariat@zsrzeczkowo.szkolnastrona.pl",
                "website": "http:\/\/www.zsrzeczkowo.szkolnastrona.pl",
                "ref:regon": "000272299",
                "ref:vatin": "PL8792215883",
                "operator": "Gmina Z\u0142awie\u015b Wielka",
                "operator:type": "government",
                "amenity": "school",
                "note": "Children RSPO: 275609"
            }
        },
        {
            "id": 130409,
            "type": "Feature",
            "geometry": {
                "type": "Point",
                "coordinates": [
                    18.3935,
                    53.16746
                ]
            },
            "properties": {
                "ref:rspo": 130409,
                "official_name": "S\u0142oneczko",
                "name": "S\u0142oneczko",
                "addr:postcode": "87-133",
                "addr:place": "Siemo\u0144",
                "addr:housenumber": "89a",
                "addr:city:simc": 851100,
                "email": "sekretariat@zsrzeczkowo.szkolnastrona.pl",
                "ref:regon": "363982200",
                "operator": "Gmina Z\u0142awie\u015b Wielka",
                "operator:type": "government",
                "amenity": "kindergarten"
            }
        },
        {
            "id": 275609,
            "type": "Feature",
            "geometry": {
                "type": "Point",
                "coordinates": [
                    18.3935,
                    53.167429999999996
                ]
            },
            "properties": {
                "isced:level": "1;2",
                "ref:rspo": 275609,
                "official_name": "Filia Szko\u0142y Podstawowej w Rz\u0119czkowie",
                "name": "Filia Szko\u0142y Podstawowej w Rz\u0119czkowie",
                "addr:postcode": "87-134",
                "addr:place": "Siemo\u0144",
                "addr:housenumber": "89a",
                "addr:city:simc": 851100,
                "email": "sekretariat@zsrzeczkowo.szkolnastrona.pl",
                "ref:regon": "272299000",
                "operator": "Gmina Z\u0142awie\u015b Wielka",
                "operator:type": "government",
                "amenity": "school",
                "note": "Parent RSPO: 93195"
            }
        }
    ]
}