{
    "type": "FeatureCollection",
    "features": [
        {
            "id": 25096,
            "type": "Feature",
            "geometry": {
                "type": "Point",
                "coordinates": [
                    18.5929499,
                    53.17869
                ]
            },
            "properties": {
                "ref:rspo": 25096,
                "official_name": "Zesp\u00f3\u0142 Szk\u00f3\u0142 im. Unii Europejskiej w Che\u0142m\u017cy",
                "name": "Zesp\u00f3\u0142 Szk\u00f3\u0142",
                "addr:country": "PL",
                "addr:postcode": "87-140",
                "addr:city": "Che\u0142m\u017ca",
                "addr:street": "Stefana Kardyna\u0142a Wyszy\u0144skiego",
                "addr:housenumber": "7",
                "addr:teryt:simc": 983126,
                "addr:teryt:sym_ul": 38408,
                "contact:email": "sekretariat@zsuechelmza.pl",
                "contact:website": "http:\/\/www.zsschelmza.edupage.org",
                "ref:regon": "870267844",
                "ref:vatin": "PL8792198133",
                "operator": "Powiat Toru\u0144ski",
                "operator:type": "government",
                "landuse": "education",
                "fixme": "amenity=school, amenity=college albo landuse=education w zale\u017cno\u015bci od tego, jakie plac\u00f3wki wchodz\u0105 w sk\u0142ad zespo\u0142u. Sprawd\u017a, kiedy stosowa\u0107 amenity=* a kiedy landuse=education.",
                "note": "Children RSPO: 30765;30859;30886;131511"
            }
        },
        {
            "id": 30765,
            "type": "Feature",
            "geometry": {
                "type": "Point",
                "coordinates": [
                    18.5929499,
                    53.17866
                ]
            },
            "properties": {
                "isced:level": "1;2",
                "ref:rspo": 30765,
                "official_name": "Szko\u0142a Podstawowa Nr 4 Specjalna w Che\u0142m\u017cy",
                "name": "Szko\u0142a Podstawowa Nr 4 Specjalna w Che\u0142m\u017cy",
                "addr:country": "PL",
                "addr:postcode": "87-140",
                "addr:city": "Che\u0142m\u017ca",
                "addr:street": "Stefana Kardyna\u0142a Wyszy\u0144skiego",
                "addr:housenumber": "7",
                "addr:teryt:simc": 983126,
                "addr:teryt:sym_ul": 38408,
                "contact:email": "sekretariat@zsuechelmza.pl",
                "contact:website": "https:\/\/zsschelmza.edupage.org\/",
                "ref:regon": "001018835",
                "operator": "Powiat Toru\u0144ski",
                "operator:type": "government",
                "amenity": "school",
                "note": "Parent RSPO: 25096"
            }
        },
        {
            "id": 30859,
            "type": "Feature",
            "geometry": {
                "type": "Point",
                "coordinates": [
                    18.5929499,
                    53.178630000000005
                ]
            },
            "properties": {
                "isced:level": "3",
                "ref:rspo": 30859,
                "official_name": "Bran\u017cowa Szko\u0142a I Stopnia Nr 2 w Che\u0142m\u017cy",
                "name": "Bran\u017cowa Szko\u0142a I Stopnia Nr 2 w Che\u0142m\u017cy",
                "addr:country": "PL",
                "addr:postcode": "87-140",
                "addr:city": "Che\u0142m\u017ca",
                "addr:street": "Stefana Kardyna\u0142a Wyszy\u0144skiego",
                "addr:housenumber": "7",
                "addr:teryt:simc": 983126,
                "addr:teryt:sym_ul": 38408,
                "contact:email": "sekretariat@zsuechelmza.pl",
                "contact:website": "https:\/\/zsschelmza.edupage.org\/",
                "ref:regon": "001018829",
                "operator": "Powiat Toru\u0144ski",
                "operator:type": "government",
                "amenity": "school",
                "note": "Parent RSPO: 25096"
            }
        },
        {
            "id": 30886,
            "type": "Feature",
            "geometry": {
                "type": "Point",
                "coordinates": [
                    18.5929499,
                    53.1786
                ]
            },
            "properties": {
                "ref:rspo": 30886,
                "official_name": "Szko\u0142a Specjalna Przysposabiaj\u0105ca Do Pracy w Che\u0142m\u017cy",
                "name": "Szko\u0142a Specjalna Przysposabiaj\u0105ca Do Pracy w Che\u0142m\u017cy",
                "addr:country": "PL",
                "addr:postcode": "87-140",
                "addr:city": "Che\u0142m\u017ca",
                "addr:street": "Stefana Kardyna\u0142a Wyszy\u0144skiego",
                "addr:housenumber": "7",
                "addr:teryt:simc": 983126,
                "addr:teryt:sym_ul": 38408,
                "contact:email": "sekretariat@zsuechelmza.pl",
                "contact:website": "https:\/\/zsschelmza.edupage.org\/",
                "ref:regon": "340477026",
                "operator": "Powiat Toru\u0144ski",
                "operator:type": "government",
                "amenity": "school",
                "note": "Parent RSPO: 25096"
            }
        },
        {
            "id": 131511,
            "type": "Feature",
            "geometry": {
                "type": "Point",
                "coordinates": [
                    18.5929499,
                    53.17857
                ]
            },
            "properties": {
                "ref:rspo": 131511,
                "official_name": "O\u015brodek dla Dzieci I M\u0142odziezy Z Autyzmem w Che\u0142mzy",
                "name": "O\u015brodek dla Dzieci I M\u0142odziezy Z Autyzmem w Che\u0142mzy",
                "addr:country": "PL",
                "addr:postcode": "87-140",
                "addr:city": "Che\u0142m\u017ca",
                "addr:street": "Stefana Kardyna\u0142a Wyszy\u0144skiego",
                "addr:housenumber": "7",
                "addr:teryt:simc": 983126,
                "addr:teryt:sym_ul": 38408,
                "contact:email": "sekretariat@zsuechelmza.pl",
                "contact:website": "https:\/\/zsschelmza.edupage.org\/",
                "ref:regon": "365203980",
                "operator": "Powiat Toru\u0144ski",
                "operator:type": "government",
                "amenity": "school",
                "note": "Parent RSPO: 25096"
            }
        },
        {
            "id": 85011,
            "type": "Feature",
            "geometry": {
                "type": "Point",
                "coordinates": [
                    18.59335,
                    53.17928
                ]
            },
            "properties": {
                "isced:level": "1;2",
                "ref:rspo": 85011,
                "official_name": "Szko\u0142a Podstawowa Nr 5 im. Papie\u017ca Jana Paw\u0142a Ii",
                "name": "Szko\u0142a Podstawowa Nr 5",
                "addr:country": "PL",
                "addr:postcode": "87-140",
                "addr:city": "Che\u0142m\u017ca",
                "addr:street": "Stefana Kardyna\u0142a Wyszy\u0144skiego",
                "addr:housenumber": "5",
                "addr:teryt:simc": 983126,
                "addr:teryt:sym_ul": 38408,
                "contact:phone": "+48 566755733",
                "contact:email": "dyrektor@sp5chelmza.szkolnastrona.pl",
                "contact:website": "http:\/\/sp5chelmza.szkolnastrona.pl",
                "ref:regon": "870017018",
                "ref:vatin": "PL8792197719",
                "operator": "Miasto Che\u0142m\u017ca",
                "operator:type": "government",
                "amenity": "school"
            }
        },
        {
            "id": 84984,
            "type": "Feature",
            "geometry": {
                "type": "Point",
                "coordinates": [
                    18.5995,
                    53.18265
                ]
            },
            "properties": {
                "ref:rspo": 84984,
                "official_name": "Przedszkole Nr 1",
                "name": "Przedszkole Nr 1",
                "addr:country": "PL",
                "addr:postcode": "87-140",
                "addr:city": "Che\u0142m\u017ca",
                "addr:street": "Bydgoska",
                "addr:housenumber": "9",
                "addr:teryt:simc": 983126,
                "addr:teryt:sym_ul": 2498,
                "contact:phone": "+48 566752445",
                "contact:email": "pmnr1ch@wp.pl",
                "contact:website": "http:\/\/pm1chelmza.szkolnastrona.pl",
                "ref:regon": "340853044",
                "ref:vatin": "PL8792645129",
                "operator": "Miasto Che\u0142m\u017ca",
                "operator:type": "government",
                "amenity": "kindergarten"
            }
        },
        {
            "id": 86760,
            "type": "Feature",
            "geometry": {
                "type": "Point",
                "coordinates": [
                    18.60565,
                    53.18605
                ]
            },
            "properties": {
                "ref:rspo": 86760,
                "official_name": "Ma\u0142e Przedszkole",
                "name": "Ma\u0142e Przedszkole",
                "addr:country": "PL",
                "addr:postcode": "87-140",
                "addr:city": "Che\u0142m\u017ca",
                "addr:street": "Ignacego Paderewskiego",
                "addr:housenumber": "11",
                "addr:teryt:simc": 983126,
                "addr:teryt:sym_ul": 15529,
                "contact:phone": "+48 503334343",
                "contact:email": "plotorun@o2.pl",
                "ref:regon": "341353390",
                "operator": "Artur Wojciechowski",
                "operator:type": "private",
                "amenity": "kindergarten"
            }
        },
        {
            "id": 18718,
            "type": "Feature",
            "geometry": {
                "type": "Point",
                "coordinates": [
                    18.607200622559,
                    53.187198638916
                ]
            },
            "properties": {
                "ref:rspo": 18718,
                "official_name": "Poradnia Psychologiczno-Pedagogiczna w Che\u0142m\u017cy",
                "name": "Poradnia Psychologiczno-Pedagogiczna w Che\u0142m\u017cy",
                "addr:country": "PL",
                "addr:postcode": "87-140",
                "addr:city": "Che\u0142m\u017ca",
                "addr:street": "\u015awi\u0119tego Jana",
                "addr:housenumber": "18",
                "addr:teryt:simc": 983126,
                "addr:teryt:sym_ul": 7113,
                "contact:phone": "+48 566756727",
                "contact:email": "sekretariat@poradnia-chelmza.pl",
                "contact:website": "http:\/\/www.poradnia-chelmza.pl",
                "ref:regon": "001069896",
                "ref:vatin": "PL8792200775",
                "operator": "Powiat Toru\u0144ski",
                "operator:type": "government",
                "healthcare": "counselling",
                "counselling_type": "education",
                "fixme": "w zale\u017cno\u015bci od przedmiotu dzia\u0142alno\u015bci (np. healthcare=counselling + counselling_type=education albo healthcare=psychotherapist)",
                "note": "Children RSPO: 88512"
            }
        },
        {
            "id": 85008,
            "type": "Feature",
            "geometry": {
                "type": "Point",
                "coordinates": [
                    18.60603,
                    53.18785
                ]
            },
            "properties": {
                "isced:level": "1;2",
                "ref:rspo": 85008,
                "official_name": "Szko\u0142a Podstawowa Nr 3",
                "name": "Szko\u0142a Podstawowa Nr 3",
                "addr:country": "PL",
                "addr:postcode": "87-140",
                "addr:city": "Che\u0142m\u017ca",
                "addr:street": "Ksi\u0119dza Piotra Skargi",
                "addr:housenumber": "1",
                "addr:teryt:simc": 983126,
                "addr:teryt:sym_ul": 20010,
                "contact:email": "sekretariat@sp3chelmza.szkolnastrona.pl",
                "contact:website": "http:\/\/sp3chelmza.szkolnastrona.pl",
                "ref:regon": "000255680",
                "ref:vatin": "PL8792197725",
                "operator": "Miasto Che\u0142m\u017ca",
                "operator:type": "government",
                "amenity": "school"
            }
        },
        {
            "id": 85009,
            "type": "Feature",
            "geometry": {
                "type": "Point",
                "coordinates": [
                    18.60755,
                    53.18813
                ]
            },
            "properties": {
                "isced:level": "1;2",
                "ref:rspo": 85009,
                "official_name": "Szko\u0142a Podstawowa Nr 2",
                "name": "Szko\u0142a Podstawowa Nr 2",
                "addr:country": "PL",
                "addr:postcode": "87-140",
                "addr:city": "Che\u0142m\u017ca",
                "addr:street": "Genera\u0142a J\u00f3zefa Hallera",
                "addr:housenumber": "17",
                "addr:teryt:simc": 983126,
                "addr:teryt:sym_ul": 6485,
                "contact:email": "sekretariat@sp2chelmza.szkolnastrona.pl",
                "contact:website": "http:\/\/sp2chelmza.szkolnastrona.pl",
                "ref:regon": "001248788",
                "ref:vatin": "PL8792197671",
                "operator": "Miasto Che\u0142m\u017ca",
                "operator:type": "government",
                "amenity": "school"
            }
        },
        {
            "id": 274346,
            "type": "Feature",
            "geometry": {
                "type": "Point",
                "coordinates": [
                    18.60755,
                    53.1881
                ]
            },
            "properties": {
                "ref:rspo": 274346,
                "official_name": "Centrum Kszta\u0142cenia Zawodowego \"Centrum Szkole\u0144 Jumi\"",
                "name": "Centrum Kszta\u0142cenia Zawodowego \"Centrum Szkole\u0144 Jumi\"",
                "addr:country": "PL",
                "addr:postcode": "87-140",
                "addr:city": "Che\u0142m\u017ca",
                "addr:street": "Genera\u0142a J\u00f3zefa Hallera",
                "addr:housenumber": "17",
                "addr:teryt:simc": 983126,
                "addr:teryt:sym_ul": 6485,
                "contact:email": "robertbaginski@tlen.pl",
                "ref:regon": "385592918",
                "operator": "Robert Bagi\u0144ski",
                "operator:type": "private",
                "fixme": "w zale\u017cno\u015bci od przedmiotu dzia\u0142alno\u015bci (np. amenity=training + training=*, amenity=dancing_school, amenity=language_school, amenity=music_school) albo amenity=school, amenity=college, albo landuse=education w zale\u017cno\u015bci od tego, jakie plac\u00f3wki wchodz\u0105 w sk\u0142ad zespo\u0142u. Sprawd\u017a, kiedy stosowa\u0107 amenity=* a kiedy landuse=education."
            }
        },
        {
            "id": 85012,
            "type": "Feature",
            "geometry": {
                "type": "Point",
                "coordinates": [
                    18.6071,
                    53.1885199
                ]
            },
            "properties": {
                "ref:rspo": 85012,
                "official_name": "Przedszkole Miejskie Nr 2",
                "name": "Przedszkole Miejskie Nr 2",
                "addr:country": "PL",
                "addr:postcode": "87-140",
                "addr:city": "Che\u0142m\u017ca",
                "addr:street": "Genera\u0142a J\u00f3zefa Hallera",
                "addr:housenumber": "21",
                "addr:teryt:simc": 983126,
                "addr:teryt:sym_ul": 6485,
                "contact:phone": "+48 566752541",
                "contact:email": "sekretariat@pm2chelmza.szkolnastrona.pl",
                "contact:website": "http:\/\/pm2chelmza.szkolanstrona.pl",
                "ref:regon": "340853021",
                "ref:vatin": "PL8792645112",
                "operator": "Miasto Che\u0142m\u017ca",
                "operator:type": "government",
                "amenity": "kindergarten"
            }
        },
        {
            "id": 25097,
            "type": "Feature",
            "geometry": {
                "type": "Point",
                "coordinates": [
                    18.60675,
                    53.18878
                ]
            },
            "properties": {
                "ref:rspo": 25097,
                "official_name": "Zesp\u00f3\u0142 Szk\u00f3\u0142 Ponadpodstawowych w Che\u0142m\u017cy",
                "name": "Zesp\u00f3\u0142 Szk\u00f3\u0142 Ponadpodstawowych w Che\u0142m\u017cy",
                "addr:country": "PL",
                "addr:postcode": "87-140",
                "addr:city": "Che\u0142m\u017ca",
                "addr:street": "Genera\u0142a J\u00f3zefa Hallera",
                "addr:housenumber": "23",
                "addr:teryt:simc": 983126,
                "addr:teryt:sym_ul": 6485,
                "contact:phone": "+48 566752419",
                "contact:email": "sekretariat.dyrektor@zsp-chelmza.pl",
                "contact:website": "http:\/\/zsp-chelmza.pl",
                "ref:regon": "000835443",
                "ref:vatin": "PL8791818303",
                "operator": "Powiat Toru\u0144ski",
                "operator:type": "government",
                "landuse": "education",
                "fixme": "amenity=school, amenity=college albo landuse=education w zale\u017cno\u015bci od tego, jakie plac\u00f3wki wchodz\u0105 w sk\u0142ad zespo\u0142u. Sprawd\u017a, kiedy stosowa\u0107 amenity=* a kiedy landuse=education.",
                "note": "Children RSPO: 30976;31058;31193;31214;31222;130924"
            }
        },
        {
            "id": 30976,
            "type": "Feature",
            "geometry": {
                "type": "Point",
                "coordinates": [
                    18.60675,
                    53.18875
                ]
            },
            "properties": {
                "isced:level": "3",
                "ref:rspo": 30976,
                "official_name": "Liceum Og\u00f3lnokszta\u0142c\u0105ce im. Komisji Edukacji Narodowej w Che\u0142m\u017cy",
                "name": "Liceum Og\u00f3lnokszta\u0142c\u0105ce",
                "addr:country": "PL",
                "addr:postcode": "87-140",
                "addr:city": "Che\u0142m\u017ca",
                "addr:street": "Genera\u0142a J\u00f3zefa Hallera",
                "addr:housenumber": "23",
                "addr:teryt:simc": 983126,
                "addr:teryt:sym_ul": 6485,
                "contact:phone": "+48 566752419",
                "contact:email": "sekretariat.dyrektor@zsp-chelmza.pl",
                "contact:website": "http:\/\/www.zsp-chelmza.pl",
                "ref:regon": "007005532",
                "operator": "Powiat Toru\u0144ski",
                "operator:type": "government",
                "amenity": "school",
                "note": "Parent RSPO: 25097"
            }
        },
        {
            "id": 31058,
            "type": "Feature",
            "geometry": {
                "type": "Point",
                "coordinates": [
                    18.60675,
                    53.18872
                ]
            },
            "properties": {
                "isced:level": "3",
                "ref:rspo": 31058,
                "official_name": "Bran\u017cowa Szko\u0142a I Stopnia Nr 1 w Che\u0142m\u017cy",
                "name": "Bran\u017cowa Szko\u0142a I Stopnia Nr 1 w Che\u0142m\u017cy",
                "addr:country": "PL",
                "addr:postcode": "87-140",
                "addr:city": "Che\u0142m\u017ca",
                "addr:street": "Genera\u0142a J\u00f3zefa Hallera",
                "addr:housenumber": "23",
                "addr:teryt:simc": 983126,
                "addr:teryt:sym_ul": 6485,
                "contact:phone": "+48 566752419",
                "contact:email": "sekretariat.dyrektor@zsp-chelmza.pl",
                "contact:website": "http:\/\/www.zsp-chelmza.pl",
                "ref:regon": "001070110",
                "operator": "Powiat Toru\u0144ski",
                "operator:type": "government",
                "amenity": "school",
                "note": "Parent RSPO: 25097"
            }
        },
        {
            "id": 31193,
            "type": "Feature",
            "geometry": {
                "type": "Point",
                "coordinates": [
                    18.60675,
                    53.18869
                ]
            },
            "properties": {
                "isced:level": "4",
                "ref:rspo": 31193,
                "official_name": "Szko\u0142a Policealna w Che\u0142m\u017cy",
                "name": "Szko\u0142a Policealna w Che\u0142m\u017cy",
                "addr:country": "PL",
                "addr:postcode": "87-140",
                "addr:city": "Che\u0142m\u017ca",
                "addr:street": "Genera\u0142a J\u00f3zefa Hallera",
                "addr:housenumber": "23",
                "addr:teryt:simc": 983126,
                "addr:teryt:sym_ul": 6485,
                "contact:phone": "+48 566752419",
                "contact:email": "sekretariat.dyrektor@zsp-chelmza.pl",
                "contact:website": "http:\/\/www.zsp-chelmza.pl",
                "ref:regon": "871674623",
                "operator": "Powiat Toru\u0144ski",
                "operator:type": "government",
                "amenity": "college",
                "note": "Parent RSPO: 25097"
            }
        },
        {
            "id": 31214,
            "type": "Feature",
            "geometry": {
                "type": "Point",
                "coordinates": [
                    18.60675,
                    53.18866
                ]
            },
            "properties": {
                "isced:level": "3",
                "ref:rspo": 31214,
                "official_name": "Liceum Og\u00f3lnokszta\u0142c\u0105ce dla Doros\u0142ych w Che\u0142m\u017cy",
                "name": "Liceum Og\u00f3lnokszta\u0142c\u0105ce dla Doros\u0142ych w Che\u0142m\u017cy",
                "addr:country": "PL",
                "addr:postcode": "87-140",
                "addr:city": "Che\u0142m\u017ca",
                "addr:street": "Genera\u0142a J\u00f3zefa Hallera",
                "addr:housenumber": "23",
                "addr:teryt:simc": 983126,
                "addr:teryt:sym_ul": 6485,
                "contact:phone": "+48 566752419",
                "contact:email": "sekretariat.dyrektor@zsp-chelmza.pl",
                "contact:website": "http:\/\/www.zsp-chelmza.pl",
                "ref:regon": "341339332",
                "operator": "Powiat Toru\u0144ski",
                "operator:type": "government",
                "amenity": "school",
                "note": "Parent RSPO: 25097"
            }
        },
        {
            "id": 31222,
            "type": "Feature",
            "geometry": {
                "type": "Point",
                "coordinates": [
                    18.60675,
                    53.18863
                ]
            },
            "properties": {
                "isced:level": "3",
                "ref:rspo": 31222,
                "official_name": "Technikum w Che\u0142m\u017cy",
                "name": "Technikum w Che\u0142m\u017cy",
                "addr:country": "PL",
                "addr:postcode": "87-140",
                "addr:city": "Che\u0142m\u017ca",
                "addr:street": "Genera\u0142a J\u00f3zefa Hallera",
                "addr:housenumber": "23",
                "addr:teryt:simc": 983126,
                "addr:teryt:sym_ul": 6485,
                "contact:phone": "+48 566752419",
                "contact:email": "sekretariat.dyrektor@zsp-chelmza.pl",
                "contact:website": "http:\/\/www.zsp-chelmza.pl",
                "ref:regon": "871626819",
                "operator": "Powiat Toru\u0144ski",
                "operator:type": "government",
                "amenity": "school",
                "note": "Parent RSPO: 25097"
            }
        },
        {
            "id": 130924,
            "type": "Feature",
            "geometry": {
                "type": "Point",
                "coordinates": [
                    18.60675,
                    53.1886
                ]
            },
            "properties": {
                "ref:rspo": 130924,
                "official_name": "Centrum Kszta\u0142cenia Ustawicznego w Che\u0142m\u017cy",
                "name": "Centrum Kszta\u0142cenia Ustawicznego w Che\u0142m\u017cy",
                "addr:country": "PL",
                "addr:postcode": "87-140",
                "addr:city": "Che\u0142m\u017ca",
                "addr:street": "Genera\u0142a J\u00f3zefa Hallera",
                "addr:housenumber": "23",
                "addr:teryt:simc": 983126,
                "addr:teryt:sym_ul": 6485,
                "contact:phone": "+48 566752419",
                "contact:email": "sekretariat.dyrektor@zsp-chelmza.pl",
                "contact:website": "http:\/\/www.zsp-chelmza.pl\/",
                "ref:regon": "364732557",
                "operator": "Powiat Toru\u0144ski",
                "operator:type": "government",
                "fixme": "w zale\u017cno\u015bci od przedmiotu dzia\u0142alno\u015bci (np. amenity=training + training=*, amenity=dancing_school, amenity=language_school, amenity=music_school)",
                "note": "Parent RSPO: 25097"
            }
        },
        {
            "id": 18609,
            "type": "Feature",
            "geometry": {
                "type": "Point",
                "coordinates": [
                    18.60612,
                    53.1893
                ]
            },
            "properties": {
                "ref:rspo": 18609,
                "official_name": "Szko\u0142a Muzyczna I Stopnia w Che\u0142m\u017cy",
                "name": "Szko\u0142a Muzyczna I Stopnia w Che\u0142m\u017cy",
                "addr:country": "PL",
                "addr:postcode": "87-140",
                "addr:city": "Che\u0142m\u017ca",
                "addr:street": "Genera\u0142a J\u00f3zefa Hallera",
                "addr:housenumber": "25",
                "addr:teryt:simc": 983126,
                "addr:teryt:sym_ul": 6485,
                "contact:phone": "+48 566752176",
                "contact:email": "sm.chelmza@powiattorunski.pl",
                "contact:website": "http:\/\/szkolamuzycznachelmza.pl",
                "ref:regon": "871258451",
                "ref:vatin": "PL8792232060",
                "operator": "Powiat Toru\u0144ski",
                "operator:type": "government",
                "amenity": "music_school",
                "note": "Children RSPO: 26968"
            }
        }
    ]
}