{
    "type": "FeatureCollection",
    "features": [
        {
            "id": 90180,
            "type": "Feature",
            "geometry": {
                "type": "Point",
                "coordinates": [
                    18.61241,
                    53.15393
                ]
            },
            "properties": {
                "isced:level": "1;2",
                "ref:rspo": 90180,
                "official_name": "Szko\u0142a Podstawowa w Grzywnie",
                "name": "Szko\u0142a Podstawowa w Grzywnie",
                "addr:country": "PL",
                "addr:postcode": "87-140",
                "addr:place": "Grzywna",
                "addr:housenumber": "110 A",
                "addr:teryt:sym_ul": 841892,
                "contact:phone": "+48 566757144",
                "contact:email": "spgrzywna@gminachelmza.pl",
                "ref:regon": "001211058",
                "ref:vatin": "PL8792199902",
                "operator": "Gmina Che\u0142m\u017ca",
                "operator:type": "government",
                "amenity": "school"
            }
        },
        {
            "id": 130523,
            "type": "Feature",
            "geometry": {
                "type": "Point",
                "coordinates": [
                    18.61241,
                    53.1539
                ]
            },
            "properties": {
                "ref:rspo": 130523,
                "official_name": "Punkt Przedszkolny w Grzywnie",
                "name": "Punkt Przedszkolny w Grzywnie",
                "addr:country": "PL",
                "addr:postcode": "87-140",
                "addr:place": "Grzywna",
                "addr:housenumber": "110",
                "addr:teryt:sym_ul": 841892,
                "contact:phone": "+48 566757144",
                "contact:email": "sp_grzywna@poczta.onet.pl",
                "ref:regon": "364147988",
                "operator": "Gmina Che\u0142m\u017ca",
                "operator:type": "government",
                "amenity": "kindergarten"
            }
        },
        {
            "id": 79389,
            "type": "Feature",
            "geometry": {
                "type": "Point",
                "coordinates": [
                    18.55739,
                    53.18233
                ]
            },
            "properties": {
                "isced:level": "1;2",
                "ref:rspo": 79389,
                "official_name": "Szko\u0142a Podstawowa w Ko\u0144czewicach",
                "name": "Szko\u0142a Podstawowa w Ko\u0144czewicach",
                "addr:country": "PL",
                "addr:postcode": "87-140",
                "addr:place": "Ko\u0144czewice",
                "addr:housenumber": "12 A",
                "addr:teryt:sym_ul": 841998,
                "contact:phone": "+48 566759236",
                "contact:email": "spkonczewice@onet.pl",
                "contact:website": "http:\/\/spkonczewice.szkolnastrona.pl",
                "ref:regon": "001223914",
                "ref:vatin": "PL8792199919",
                "operator": "Gmina Che\u0142m\u017ca",
                "operator:type": "government",
                "amenity": "school"
            }
        },
        {
            "id": 79714,
            "type": "Feature",
            "geometry": {
                "type": "Point",
                "coordinates": [
                    18.71287,
                    53.20878
                ]
            },
            "properties": {
                "isced:level": "1;2",
                "ref:rspo": 79714,
                "official_name": "Szko\u0142a Podstawowa im. W\u0142. Broniewskiego w Zelgnie",
                "name": "Szko\u0142a Podstawowa",
                "addr:country": "PL",
                "addr:postcode": "87-140",
                "addr:place": "Zelgno",
                "addr:housenumber": "12",
                "addr:teryt:sym_ul": 842265,
                "contact:phone": "+48 566759824",
                "contact:email": "sekretariat@spzelgno.pl",
                "contact:website": "http:\/\/spzelgno.edupage.org",
                "ref:regon": "000598256",
                "ref:vatin": "PL8792199954",
                "operator": "Gmina Che\u0142m\u017ca",
                "operator:type": "government",
                "amenity": "school"
            }
        },
        {
            "id": 269089,
            "type": "Feature",
            "geometry": {
                "type": "Point",
                "coordinates": [
                    18.6107799,
                    53.2215599
                ]
            },
            "properties": {
                "ref:rspo": 269089,
                "official_name": "Punkt Przedszkolny w Sk\u0105pem",
                "name": "Punkt Przedszkolny w Sk\u0105pem",
                "addr:country": "PL",
                "addr:postcode": "87-140",
                "addr:place": "Sk\u0105pe",
                "addr:housenumber": "26a",
                "addr:teryt:sym_ul": 842176,
                "contact:phone": "+48 566759824",
                "contact:email": "szkolazelgno@wp.pl",
                "ref:regon": "381361866",
                "operator": "Gmina Che\u0142m\u017ca",
                "operator:type": "government",
                "amenity": "kindergarten"
            }
        }
    ]
}