{
    "type": "FeatureCollection",
    "features": [
        {
            "id": 83925,
            "type": "Feature",
            "geometry": {
                "type": "Point",
                "coordinates": [
                    18.6155,
                    53.07081
                ]
            },
            "properties": {
                "ref:rspo": 83925,
                "official_name": "Poradnia Psychologiczno-Pedagogiczna w \u0141ysomicach",
                "name": "Poradnia Psychologiczno-Pedagogiczna w \u0141ysomicach",
                "addr:postcode": "87-148",
                "addr:city": "\u0141ysomice",
                "addr:street": "Toru\u0144ska",
                "addr:housenumber": "10",
                "addr:teryt:simc": 846926,
                "addr:teryt:sym_ul": 22902,
                "phone": "+48 566783609",
                "email": "pp-p-lysomice@wp.pl",
                "website": "http:\/\/www.lysomice.pl",
                "ref:regon": "871569642",
                "ref:vatin": "PL8792294569",
                "operator": "Gmina \u0141ysomice",
                "operator:type": "government",
                "healthcare": "counselling",
                "counselling_type": "education",
                "fixme": "w zale\u017cno\u015bci od przedmiotu dzia\u0142alno\u015bci (np. healthcare=counselling + counselling_type=education albo healthcare=psychotherapist)"
            }
        },
        {
            "id": 119083,
            "type": "Feature",
            "geometry": {
                "type": "Point",
                "coordinates": [
                    18.6561999,
                    53.07965
                ]
            },
            "properties": {
                "ref:rspo": 119083,
                "official_name": "Przedszkole Publiczne Jelonek w Papowie Toru\u0144skim",
                "name": "Przedszkole Publiczne Jelonek w Papowie Toru\u0144skim",
                "addr:postcode": "87-148",
                "addr:city": "Papowo Toru\u0144skie",
                "addr:street": "Warszawska",
                "addr:housenumber": "24",
                "addr:teryt:simc": 846949,
                "addr:teryt:sym_ul": 23682,
                "phone": "+48 566783283",
                "email": "przedszkole@przedszkole-jelonek.pl",
                "ref:regon": "341471356",
                "operator": "Gmina \u0141ysomice",
                "operator:type": "government",
                "amenity": "kindergarten"
            }
        },
        {
            "id": 106637,
            "type": "Feature",
            "geometry": {
                "type": "Point",
                "coordinates": [
                    18.6500999,
                    53.08243
                ]
            },
            "properties": {
                "isced:level": "1;2",
                "ref:rspo": 106637,
                "official_name": "Szko\u0142a Podstawowa w \u0141ysomicach Z Fili\u0105 w Papowie Toru\u0144skim",
                "name": "Szko\u0142a Podstawowa w \u0141ysomicach Z Fili\u0105 w Papowie Toru\u0144skim",
                "addr:postcode": "87-148",
                "addr:city": "\u0141ysomice",
                "addr:street": "Warszawska",
                "addr:housenumber": "5",
                "addr:teryt:simc": 846926,
                "addr:teryt:sym_ul": 23682,
                "phone": "+48 566783223",
                "email": "sekretariat@splysomice.pl",
                "website": "http:\/\/splysomice.pl",
                "ref:regon": "000270099",
                "ref:vatin": "PL8792369764",
                "operator": "Gmina \u0141ysomice",
                "operator:type": "government",
                "amenity": "school"
            }
        },
        {
            "id": 128739,
            "type": "Feature",
            "geometry": {
                "type": "Point",
                "coordinates": [
                    18.61021,
                    53.08922
                ]
            },
            "properties": {
                "ref:rspo": 128739,
                "official_name": "Dwuj\u0119zyczne Przedszkole Pod Klonowym Listkiem",
                "name": "Dwuj\u0119zyczne Przedszkole Pod Klonowym Listkiem",
                "addr:postcode": "87-148",
                "addr:city": "\u0141ysomice",
                "addr:street": "\u0141\u0105kowa",
                "addr:housenumber": "15",
                "addr:teryt:simc": 846926,
                "addr:teryt:sym_ul": 11596,
                "phone": "+48 566783720",
                "email": "poczta@klonowy.pl",
                "website": "http:\/\/www.klonowy.pl\/przedszkole",
                "ref:regon": "362375389",
                "operator": "Zoila Gaulin-Dembek",
                "operator:type": "private",
                "amenity": "kindergarten"
            }
        },
        {
            "id": 83924,
            "type": "Feature",
            "geometry": {
                "type": "Point",
                "coordinates": [
                    18.52914,
                    53.09793
                ]
            },
            "properties": {
                "isced:level": "1;2",
                "ref:rspo": 83924,
                "official_name": "Szko\u0142a Podstawowa im. Leona Filcka w \u015awierczynkach",
                "name": "Szko\u0142a Podstawowa",
                "addr:postcode": "87-148",
                "addr:place": "\u015awierczynki",
                "addr:housenumber": "7",
                "addr:teryt:simc": 846990,
                "phone": "+48 566740906",
                "email": "sp_swierczynki@wp.pl",
                "website": "http:\/\/www.spswierczynki.edupage.org",
                "ref:regon": "001212922",
                "ref:vatin": "PL8792201148",
                "operator": "Gmina \u0141ysomice",
                "operator:type": "government",
                "amenity": "school"
            }
        },
        {
            "id": 107120,
            "type": "Feature",
            "geometry": {
                "type": "Point",
                "coordinates": [
                    18.7234,
                    53.1072
                ]
            },
            "properties": {
                "isced:level": "1;2",
                "ref:rspo": 107120,
                "official_name": "Szko\u0142a Podstawowa w Turznie",
                "name": "Szko\u0142a Podstawowa w Turznie",
                "addr:postcode": "87-148",
                "addr:city": "Turzno",
                "addr:street": "Parkowa",
                "addr:housenumber": "4",
                "addr:teryt:simc": 847015,
                "addr:teryt:sym_ul": 15710,
                "phone": "+48 566459842",
                "email": "zsturzno@wp.pl",
                "website": "http:\/\/www.zsturzno.pl",
                "ref:regon": "001212891",
                "ref:vatin": "PL8792370141",
                "operator": "Gmina \u0141ysomice",
                "operator:type": "government",
                "amenity": "school"
            }
        },
        {
            "id": 83923,
            "type": "Feature",
            "geometry": {
                "type": "Point",
                "coordinates": [
                    18.63082,
                    53.1166399
                ]
            },
            "properties": {
                "isced:level": "1;2",
                "ref:rspo": 83923,
                "official_name": "Szko\u0142a Podstawowa w Ostaszewie",
                "name": "Szko\u0142a Podstawowa w Ostaszewie",
                "addr:postcode": "87-148",
                "addr:place": "Ostaszewo",
                "addr:housenumber": "42",
                "addr:teryt:simc": 846932,
                "phone": "+48 566740031",
                "email": "spostaszewo@wp.pl",
                "website": "http:\/\/www.spostaszewo.pl",
                "ref:regon": "001212916",
                "ref:vatin": "PL8792213045",
                "operator": "Gmina \u0141ysomice",
                "operator:type": "government",
                "amenity": "school"
            }
        }
    ]
}