{
    "type": "FeatureCollection",
    "features": [
        {
            "id": 274653,
            "type": "Feature",
            "geometry": {
                "type": "Point",
                "coordinates": [
                    18.7075299,
                    52.99431
                ]
            },
            "properties": {
                "ref:rspo": 274653,
                "official_name": "Przedszkole Niepubliczne \"Abeec\" w Z\u0142otorii",
                "name": "Przedszkole Niepubliczne \"Abeec\" w Z\u0142otorii",
                "addr:postcode": "87-162",
                "addr:city": "Z\u0142otoria",
                "addr:street": "Szkolna",
                "addr:housenumber": "5",
                "addr:city:simc": 846441,
                "addr:street:sym_ul": 21970,
                "phone": "+48 563070144",
                "ref:regon": "386140331",
                "ref:vatin": "PL8792716243",
                "operator": "Monika Ditrich",
                "operator:type": "private",
                "amenity": "kindergarten"
            }
        },
        {
            "id": 52961,
            "type": "Feature",
            "geometry": {
                "type": "Point",
                "coordinates": [
                    18.70243,
                    52.99528
                ]
            },
            "properties": {
                "isced:level": "1;2",
                "ref:rspo": 52961,
                "official_name": "Szko\u0142a Podstawowa w Z\u0142otorii",
                "name": "Szko\u0142a Podstawowa w Z\u0142otorii",
                "addr:postcode": "87-124",
                "addr:city": "Z\u0142otoria",
                "addr:street": "Pomorska",
                "addr:housenumber": "11",
                "addr:city:simc": 846441,
                "addr:street:sym_ul": 17088,
                "phone": "+48 566489823",
                "email": "spzlotoria@op.pl",
                "website": "http:\/\/www.spzlotoria.eu",
                "ref:regon": "001212856",
                "ref:vatin": "PL8791786879",
                "operator": "Gmina Lubicz",
                "operator:type": "government",
                "amenity": "school"
            }
        },
        {
            "id": 127922,
            "type": "Feature",
            "geometry": {
                "type": "Point",
                "coordinates": [
                    18.78774,
                    53.01973
                ]
            },
            "properties": {
                "ref:rspo": 127922,
                "official_name": "Prywatne Przedszkole \u015alimaczek w Krobii",
                "name": "Prywatne Przedszkole \u015alimaczek w Krobii",
                "addr:postcode": "87-162",
                "addr:city": "Krobia",
                "addr:street": "Osikowa",
                "addr:housenumber": "2",
                "addr:city:simc": 846346,
                "addr:street:sym_ul": 15307,
                "phone": "+48 664456757",
                "email": "przedszkole@slimaczek.com",
                "ref:regon": "361970635",
                "operator": "Justyna Gosk",
                "operator:type": "private",
                "amenity": "kindergarten"
            }
        },
        {
            "id": 13802,
            "type": "Feature",
            "geometry": {
                "type": "Point",
                "coordinates": [
                    18.76536,
                    53.023
                ]
            },
            "properties": {
                "ref:rspo": 13802,
                "official_name": "Przedszkole Publiczne Chatka Puchatka w Lubiczu G\u00f3rnym",
                "name": "Przedszkole Publiczne Chatka Puchatka w Lubiczu G\u00f3rnym",
                "addr:postcode": "87-162",
                "addr:city": "Lubicz G\u00f3rny",
                "addr:street": "Piaskowa",
                "addr:housenumber": "2",
                "addr:city:simc": 846375,
                "addr:street:sym_ul": 16033,
                "phone": "+48 566785146",
                "email": "puchatek@lubicz.pl",
                "ref:regon": "340853096",
                "ref:vatin": "PL8792643863",
                "operator": "Gmina Lubicz",
                "operator:type": "government",
                "amenity": "kindergarten"
            }
        },
        {
            "id": 55655,
            "type": "Feature",
            "geometry": {
                "type": "Point",
                "coordinates": [
                    18.77054,
                    53.02346
                ]
            },
            "properties": {
                "isced:level": "1;2",
                "ref:rspo": 55655,
                "official_name": "Szko\u0142a Podstawowa im. Tadeusza Ko\u015bciuszki w Lubiczu",
                "name": "Szko\u0142a Podstawowa",
                "addr:postcode": "87-162",
                "addr:city": "Lubicz G\u00f3rny",
                "addr:street": "Piaskowa",
                "addr:housenumber": "23",
                "addr:city:simc": 846375,
                "addr:street:sym_ul": 16033,
                "phone": "+48 566785200",
                "email": "sekretariat@splubicz.szkolnastrona.pl",
                "website": "http:\/\/www.splubicz.szkolnastrona.pl",
                "ref:regon": "000267803",
                "ref:vatin": "PL8792325494",
                "operator": "Gmina Lubicz",
                "operator:type": "government",
                "amenity": "school"
            }
        },
        {
            "id": 26968,
            "type": "Feature",
            "geometry": {
                "type": "Point",
                "coordinates": [
                    18.77054,
                    53.02343
                ]
            },
            "properties": {
                "ref:rspo": 26968,
                "official_name": "Szko\u0142a Muzyczna I Stopnia w Che\u0142m\u017cy Filia w Lubiczu",
                "name": "Szko\u0142a Muzyczna I Stopnia w Che\u0142m\u017cy Filia w Lubiczu",
                "addr:postcode": "87-126",
                "addr:city": "Lubicz G\u00f3rny",
                "addr:street": "Piaskowa",
                "addr:housenumber": "23",
                "addr:city:simc": 846375,
                "addr:street:sym_ul": 16033,
                "phone": "+48 566752176",
                "email": "sm.chelmza@powiattorunski.pl",
                "ref:regon": "871258451",
                "operator": "Powiat Toru\u0144ski",
                "operator:type": "government",
                "amenity": "music_school",
                "note": "Parent RSPO: 18609"
            }
        },
        {
            "id": 13691,
            "type": "Feature",
            "geometry": {
                "type": "Point",
                "coordinates": [
                    18.77496,
                    53.02515
                ]
            },
            "properties": {
                "ref:rspo": 13691,
                "official_name": "Przedszkole Niepubliczne Niezapominajka w Lubiczu G\u00f3rnym",
                "name": "Przedszkole Niepubliczne Niezapominajka w Lubiczu G\u00f3rnym",
                "addr:postcode": "87-162",
                "addr:city": "Lubicz G\u00f3rny",
                "addr:street": "Lipnowska",
                "addr:housenumber": "86",
                "addr:city:simc": 846375,
                "addr:street:sym_ul": 11136,
                "phone": "+48 737623133",
                "email": "niezapominajkaedu@gmail.com",
                "ref:regon": "341344899",
                "ref:vatin": "PL8792436561",
                "operator": "Karolina Sk\u00f3lmowska",
                "operator:type": "private",
                "amenity": "kindergarten"
            }
        },
        {
            "id": 61589,
            "type": "Feature",
            "geometry": {
                "type": "Point",
                "coordinates": [
                    18.7526699,
                    53.02992
                ]
            },
            "properties": {
                "ref:rspo": 61589,
                "official_name": "Niepubliczny Punkt Przedszkolny \"\u017byrafa\" w Lubiczu Dolnym",
                "name": "Niepubliczny Punkt Przedszkolny \"\u017byrafa\" w Lubiczu Dolnym",
                "addr:postcode": "87-162",
                "addr:city": "Lubicz Dolny",
                "addr:street": "Toru\u0144ska",
                "addr:housenumber": "15",
                "addr:city:simc": 846369,
                "addr:street:sym_ul": 22902,
                "phone": "+48 783993309",
                "email": "mada1111@interia.pl",
                "ref:regon": "341346071",
                "ref:vatin": "PL8791067529",
                "operator": "Adam Manelski",
                "operator:type": "private",
                "amenity": "kindergarten"
            }
        },
        {
            "id": 52962,
            "type": "Feature",
            "geometry": {
                "type": "Point",
                "coordinates": [
                    18.75308,
                    53.02998
                ]
            },
            "properties": {
                "isced:level": "1;2",
                "ref:rspo": 52962,
                "official_name": "Szko\u0142a Podstawowa w Lubiczu Dolnym im. B\u0142. Ks. W\u0142adys\u0142awa Bukowi\u0144skiego",
                "name": "Szko\u0142a Podstawowa w Lubiczu Dolnym",
                "addr:postcode": "87-162",
                "addr:city": "Lubicz Dolny",
                "addr:street": "Szkolna",
                "addr:housenumber": "7",
                "addr:city:simc": 846369,
                "addr:street:sym_ul": 21970,
                "phone": "+48 566782115",
                "email": "sekretariat@splubiczdolny.szkolnastrona.pl",
                "website": "http:\/\/www.splubiczdolny.szkolnastrona.pl",
                "ref:regon": "001212810",
                "ref:vatin": "PL8791766753",
                "operator": "Gmina Lubicz",
                "operator:type": "government",
                "amenity": "school"
            }
        },
        {
            "id": 70924,
            "type": "Feature",
            "geometry": {
                "type": "Point",
                "coordinates": [
                    18.7611,
                    53.03248
                ]
            },
            "properties": {
                "ref:rspo": 70924,
                "official_name": "Przedszkole Niepubliczne \"T\u0119czowa Kraina\" w Lubiczu Dolnym",
                "name": "Przedszkole Niepubliczne \"T\u0119czowa Kraina\" w Lubiczu Dolnym",
                "addr:postcode": "87-162",
                "addr:city": "Lubicz Dolny",
                "addr:street": "Dworcowa",
                "addr:housenumber": "11c",
                "addr:city:simc": 846369,
                "addr:street:sym_ul": 4434,
                "phone": "+48 601732799",
                "ref:regon": "341346792",
                "ref:vatin": "PL8781533680",
                "operator": "Robert Borkowski",
                "operator:type": "private",
                "amenity": "kindergarten"
            }
        },
        {
            "id": 89819,
            "type": "Feature",
            "geometry": {
                "type": "Point",
                "coordinates": [
                    18.7673,
                    53.0374399
                ]
            },
            "properties": {
                "ref:rspo": 89819,
                "official_name": "Centrum Nauki Zawodu",
                "name": "Centrum Nauki Zawodu",
                "addr:postcode": "87-162",
                "addr:place": "Jedwabno",
                "addr:housenumber": "1",
                "addr:city:simc": 846300,
                "phone": "+48 566993355",
                "email": "bartlomiej.hadzicki@cargomaster.pl",
                "ref:regon": "341355029",
                "operator": "Cargo Master Sp\u00f3\u0142ka Z Ograniczon\u0105 Odpowiedzialno\u015bci\u0105",
                "operator:type": "private",
                "fixme": "w zale\u017cno\u015bci od przedmiotu dzia\u0142alno\u015bci (np. amenity=training + training=*, amenity=dancing_school, amenity=language_school, amenity=music_school)"
            }
        },
        {
            "id": 82375,
            "type": "Feature",
            "geometry": {
                "type": "Point",
                "coordinates": [
                    18.71145,
                    53.05334
                ]
            },
            "properties": {
                "ref:rspo": 82375,
                "official_name": "Prywatne Przedszkole Angloj\u0119zyczne \"Ma\u0142y Mi\u015b\" Sp Z O.o. w Gr\u0119bocinie",
                "name": "Prywatne Przedszkole Angloj\u0119zyczne \"Ma\u0142y Mi\u015b\" Sp Z O.o. w Gr\u0119bocinie",
                "addr:postcode": "87-162",
                "addr:city": "Gr\u0119bocin",
                "addr:street": "Toru\u0144ska",
                "addr:housenumber": "4A",
                "addr:city:simc": 846270,
                "addr:street:sym_ul": 22902,
                "phone": "+48 566558330",
                "email": "biuro@przedszkolemalymis.pl",
                "website": "http:\/\/przedszkolemalymis.pl",
                "ref:regon": "341350411",
                "ref:vatin": "PL8792644294",
                "operator": "Prywatne Przedszkole Angloj\u0119zyczne Ma\u0142y Mi\u015b Sp\u00f3\u0142ka Z Ograniczon\u0105 Odpowiedzialno\u015bci\u0105",
                "operator:type": "consortium",
                "amenity": "kindergarten"
            }
        },
        {
            "id": 59714,
            "type": "Feature",
            "geometry": {
                "type": "Point",
                "coordinates": [
                    18.717,
                    53.05506
                ]
            },
            "properties": {
                "ref:rspo": 59714,
                "official_name": "Przedszkole Niepubliczne \"S\u0142oneczko\" S.c. Monika Kiszewska, Lucyna Jaroszewska w Gr\u0119bocinie",
                "name": "Przedszkole Niepubliczne \"S\u0142oneczko\" S.c. Monika Kiszewska, Lucyna Jaroszewska w Gr\u0119bocinie",
                "addr:postcode": "87-122",
                "addr:city": "Gr\u0119bocin",
                "addr:street": "Szkolna",
                "addr:housenumber": "4",
                "addr:city:simc": 846270,
                "addr:street:sym_ul": 21970,
                "phone": "+48 566486563",
                "email": "biuro@przedszkolesloneczko.com",
                "ref:regon": "341345723",
                "ref:vatin": "PL8792497410",
                "operator": "Monika Kiszewska",
                "operator:type": "private",
                "amenity": "kindergarten"
            }
        },
        {
            "id": 75080,
            "type": "Feature",
            "geometry": {
                "type": "Point",
                "coordinates": [
                    18.717,
                    53.055029999999995
                ]
            },
            "properties": {
                "isced:level": "1;2",
                "ref:rspo": 75080,
                "official_name": "Szko\u0142a Podstawowa im. Jana Paw\u0142a II w Gr\u0119bocinie",
                "name": "Szko\u0142a Podstawowa",
                "addr:postcode": "87-122",
                "addr:city": "Gr\u0119bocin",
                "addr:street": "Szkolna",
                "addr:housenumber": "4",
                "addr:city:simc": 846270,
                "addr:street:sym_ul": 21970,
                "phone": "+48 566459112",
                "email": "sp-sekretariat@grebocin.com",
                "website": "http:\/\/www.grebocin.com\/",
                "ref:regon": "001212827",
                "ref:vatin": "PL8792322219",
                "operator": "Gmina Lubicz",
                "operator:type": "government",
                "amenity": "school"
            }
        },
        {
            "id": 52996,
            "type": "Feature",
            "geometry": {
                "type": "Point",
                "coordinates": [
                    18.81393,
                    53.07004
                ]
            },
            "properties": {
                "isced:level": "1;2",
                "ref:rspo": 52996,
                "official_name": "Szko\u0142a Podstawowa w M\u0142y\u0144cu Pierwszym",
                "name": "Szko\u0142a Podstawowa w M\u0142y\u0144cu Pierwszym",
                "addr:postcode": "87-162",
                "addr:city": "M\u0142yniec Pierwszy",
                "addr:street": "Toru\u0144ska",
                "addr:housenumber": "10",
                "addr:city:simc": 846406,
                "addr:street:sym_ul": 22902,
                "phone": "+48 566782869",
                "email": "mlyniecszkola@gazeta.pl",
                "website": "http:\/\/spmlyniec.edupage.org",
                "ref:regon": "001212840",
                "ref:vatin": "PL8791766747",
                "operator": "Gmina Lubicz",
                "operator:type": "government",
                "amenity": "school"
            }
        },
        {
            "id": 8454,
            "type": "Feature",
            "geometry": {
                "type": "Point",
                "coordinates": [
                    18.79339,
                    53.10393
                ]
            },
            "properties": {
                "ref:rspo": 8454,
                "official_name": "Zesp\u00f3\u0142 Szk\u00f3\u0142,Centrum Kszta\u0142cenia Ustawicznego w Gronowie",
                "name": "Zesp\u00f3\u0142 Szk\u00f3\u0142,Centrum Kszta\u0142cenia Ustawicznego w Gronowie",
                "addr:postcode": "87-162",
                "addr:place": "Gronowo",
                "addr:housenumber": "128",
                "addr:city:simc": 846286,
                "phone": "+48 566784125",
                "email": "szkola@zsgronowo.edu.pl",
                "website": "http:\/\/www.zsgronowo.edu.pl",
                "ref:regon": "000095822",
                "ref:vatin": "PL8791006918",
                "operator": "Powiat Toru\u0144ski",
                "operator:type": "government",
                "landuse": "education",
                "fixme": "amenity=school, amenity=college albo landuse=education w zale\u017cno\u015bci od tego, jakie plac\u00f3wki wchodz\u0105 w sk\u0142ad zespo\u0142u. Sprawd\u017a, kiedy stosowa\u0107 amenity=* a kiedy landuse=education.",
                "note": "Children RSPO: 18945;18952;18969;18973;18978;18988;25098"
            }
        },
        {
            "id": 274909,
            "type": "Feature",
            "geometry": {
                "type": "Point",
                "coordinates": [
                    18.79339,
                    53.103899999999996
                ]
            },
            "properties": {
                "isced:level": "3",
                "ref:rspo": 274909,
                "official_name": "Bran\u017cowa Szko\u0142a II Stopnia w Gronowie",
                "name": "Bran\u017cowa Szko\u0142a II Stopnia w Gronowie",
                "addr:postcode": "87-162",
                "addr:place": "Gronowo",
                "addr:housenumber": "128",
                "addr:city:simc": 846286,
                "phone": "+48 566784125",
                "email": "szkola@zsgronowo.edu.pl",
                "website": "http:\/\/www.zsgronowo.edu.pl",
                "ref:regon": "386392765",
                "operator": "Powiat Toru\u0144ski",
                "operator:type": "government",
                "amenity": "school"
            }
        },
        {
            "id": 18945,
            "type": "Feature",
            "geometry": {
                "type": "Point",
                "coordinates": [
                    18.79339,
                    53.10387
                ]
            },
            "properties": {
                "ref:rspo": 18945,
                "official_name": "Centrum Kszta\u0142cenia Ustawicznego w Gronowie",
                "name": "Centrum Kszta\u0142cenia Ustawicznego w Gronowie",
                "addr:postcode": "87-162",
                "addr:place": "Gronowo",
                "addr:housenumber": "128",
                "addr:city:simc": 846286,
                "phone": "+48 566784166",
                "email": "szkola@zsgronowo.edu.pl",
                "website": "http:\/\/www.zsgronowo.edu.pl",
                "ref:regon": "871715523",
                "operator": "Powiat Toru\u0144ski",
                "operator:type": "government",
                "fixme": "w zale\u017cno\u015bci od przedmiotu dzia\u0142alno\u015bci (np. amenity=training + training=*, amenity=dancing_school, amenity=language_school, amenity=music_school)",
                "note": "Parent RSPO: 8454"
            }
        },
        {
            "id": 18952,
            "type": "Feature",
            "geometry": {
                "type": "Point",
                "coordinates": [
                    18.79339,
                    53.10384
                ]
            },
            "properties": {
                "isced:level": "3",
                "ref:rspo": 18952,
                "official_name": "Liceum Og\u00f3lnokszta\u0142c\u0105ce w Gronowie",
                "name": "Liceum Og\u00f3lnokszta\u0142c\u0105ce w Gronowie",
                "addr:postcode": "87-162",
                "addr:place": "Gronowo",
                "addr:housenumber": "128",
                "addr:city:simc": 846286,
                "phone": "+48 566784118",
                "email": "szkola@zsgronowo.edu.pl",
                "website": "http:\/\/www.zsgronowo.edu.pl",
                "ref:regon": "871633529",
                "operator": "Powiat Toru\u0144ski",
                "operator:type": "government",
                "amenity": "school",
                "note": "Parent RSPO: 8454"
            }
        },
        {
            "id": 18969,
            "type": "Feature",
            "geometry": {
                "type": "Point",
                "coordinates": [
                    18.79339,
                    53.103809999999996
                ]
            },
            "properties": {
                "isced:level": "3",
                "ref:rspo": 18969,
                "official_name": "Technikum w Gronowie",
                "name": "Technikum w Gronowie",
                "addr:postcode": "87-162",
                "addr:place": "Gronowo",
                "addr:housenumber": "128",
                "addr:city:simc": 846286,
                "phone": "+48 566784118",
                "email": "szkola@zsgronowo.edu.pl",
                "website": "http:\/\/www.zsgronowo.edu.pl",
                "ref:regon": "871633512",
                "operator": "Powiat Toru\u0144ski",
                "operator:type": "government",
                "amenity": "school",
                "note": "Parent RSPO: 8454"
            }
        },
        {
            "id": 18973,
            "type": "Feature",
            "geometry": {
                "type": "Point",
                "coordinates": [
                    18.79339,
                    53.10378
                ]
            },
            "properties": {
                "isced:level": "3",
                "ref:rspo": 18973,
                "official_name": "Bran\u017cowa Szko\u0142a I Stopnia w Gronowie",
                "name": "Bran\u017cowa Szko\u0142a I Stopnia w Gronowie",
                "addr:postcode": "87-162",
                "addr:place": "Gronowo",
                "addr:housenumber": "128",
                "addr:city:simc": 846286,
                "phone": "+48 566784118",
                "email": "szkola@zsgronowo.edu.pl",
                "website": "http:\/\/www.zsgronowo.edu.pl",
                "ref:regon": "871633506",
                "operator": "Powiat Toru\u0144ski",
                "operator:type": "government",
                "amenity": "school",
                "note": "Parent RSPO: 8454"
            }
        },
        {
            "id": 18978,
            "type": "Feature",
            "geometry": {
                "type": "Point",
                "coordinates": [
                    18.79339,
                    53.10375
                ]
            },
            "properties": {
                "isced:level": "3",
                "ref:rspo": 18978,
                "official_name": "Liceum Og\u00f3lnokszta\u0142c\u0105ce dla Doros\u0142ych w Gronowie",
                "name": "Liceum Og\u00f3lnokszta\u0142c\u0105ce dla Doros\u0142ych w Gronowie",
                "addr:postcode": "87-162",
                "addr:place": "Gronowo",
                "addr:housenumber": "128",
                "addr:city:simc": 846286,
                "phone": "+48 566784118",
                "email": "szkola@zsgronowo.edu.pl",
                "website": "http:\/\/www.zsgronowo.edu.pl",
                "ref:regon": "871633535",
                "operator": "Powiat Toru\u0144ski",
                "operator:type": "government",
                "amenity": "school",
                "note": "Parent RSPO: 8454"
            }
        },
        {
            "id": 18988,
            "type": "Feature",
            "geometry": {
                "type": "Point",
                "coordinates": [
                    18.79339,
                    53.103719999999996
                ]
            },
            "properties": {
                "isced:level": "4",
                "ref:rspo": 18988,
                "official_name": "Szko\u0142a Policealna w Gronowie",
                "name": "Szko\u0142a Policealna w Gronowie",
                "addr:postcode": "87-162",
                "addr:place": "Gronowo",
                "addr:housenumber": "128",
                "addr:city:simc": 846286,
                "phone": "+48 566784118",
                "email": "szkola@zsgronowo.edu.pl",
                "website": "http:\/\/www.zsgronowo.edu.pl",
                "ref:regon": "340066317",
                "operator": "Powiat Toru\u0144ski",
                "operator:type": "government",
                "amenity": "college",
                "note": "Parent RSPO: 8454"
            }
        },
        {
            "id": 25098,
            "type": "Feature",
            "geometry": {
                "type": "Point",
                "coordinates": [
                    18.79339,
                    53.10369
                ]
            },
            "properties": {
                "ref:rspo": 25098,
                "official_name": "Internat Zespo\u0142u Szk\u00f3\u0142, Centrum Kszta\u0142cenia Ustawicznego w Gronowie",
                "name": "Internat Zespo\u0142u Szk\u00f3\u0142, Centrum Kszta\u0142cenia Ustawicznego w Gronowie",
                "addr:postcode": "87-162",
                "addr:place": "Gronowo",
                "addr:housenumber": "128",
                "addr:city:simc": 846286,
                "phone": "+48 566784166",
                "email": "szkola@zsgronowo.edu.pl",
                "website": "http:\/\/www.zsgronowo.edu.pl",
                "ref:regon": "341337304",
                "operator": "Powiat Toru\u0144ski",
                "operator:type": "government",
                "building": "dormitory",
                "note": "Parent RSPO: 8454"
            }
        }
    ]
}