{
    "type": "FeatureCollection",
    "features": [
        {
            "id": 17693,
            "type": "Feature",
            "geometry": {
                "type": "Point",
                "coordinates": [
                    18.48973,
                    52.9863799
                ]
            },
            "properties": {
                "isced:level": "1;2",
                "ref:rspo": 17693,
                "official_name": "Szko\u0142a Podstawowa im. Kornela Makuszy\u0144skiego w Cierpicach",
                "name": "Szko\u0142a Podstawowa",
                "addr:postcode": "87-165",
                "addr:city": "Cierpice",
                "addr:street": "Szkolna",
                "addr:housenumber": "9",
                "addr:city:simc": 850477,
                "addr:street:sym_ul": 21970,
                "phone": "+48 566781894",
                "email": "sekretariat@spcierpice.pl",
                "website": "http:\/\/www.spcierpice.pl",
                "ref:regon": "005742060",
                "ref:vatin": "PL9561936399",
                "operator": "Gmina Wielka Nieszawka",
                "operator:type": "government",
                "amenity": "school"
            }
        },
        {
            "id": 17692,
            "type": "Feature",
            "geometry": {
                "type": "Point",
                "coordinates": [
                    18.54772,
                    52.99028
                ]
            },
            "properties": {
                "isced:level": "1;2",
                "ref:rspo": 17692,
                "official_name": "Szko\u0142a Podstawowa im. Jana Paw\u0142a II w Ma\u0142ej Nieszawce",
                "name": "Szko\u0142a Podstawowa",
                "addr:postcode": "87-103",
                "addr:city": "Ma\u0142a Nieszawka",
                "addr:street": "Toru\u0144ska",
                "addr:housenumber": "64",
                "addr:city:simc": 850537,
                "addr:street:sym_ul": 22902,
                "phone": "+48 566781067",
                "email": "sekretariat@spmalanieszawka.pl",
                "website": "http:\/\/www.spmalanieszawka.edupage.org",
                "ref:regon": "000744120",
                "ref:vatin": "PL9561931551",
                "operator": "Gmina Wielka Nieszawka",
                "operator:type": "government",
                "amenity": "school"
            }
        },
        {
            "id": 263426,
            "type": "Feature",
            "geometry": {
                "type": "Point",
                "coordinates": [
                    18.5473,
                    52.99105
                ]
            },
            "properties": {
                "ref:rspo": 263426,
                "official_name": "Przedszkole w Ma\u0142ej Nieszawce",
                "name": "Przedszkole w Ma\u0142ej Nieszawce",
                "addr:postcode": "87-103",
                "addr:city": "Ma\u0142a Nieszawka",
                "addr:street": "Kr\u0119ta",
                "addr:housenumber": "4",
                "addr:city:simc": 850537,
                "addr:street:sym_ul": 9925,
                "phone": "+48 566194858",
                "email": "sekretariat@przedszkolemalanieszawka.pl",
                "website": "http:\/\/www.przedszkolemalanieszawka.pl",
                "ref:regon": "368187677",
                "operator": "Gmina Wielka Nieszawka",
                "operator:type": "government",
                "amenity": "kindergarten"
            }
        }
    ]
}