{
    "type": "FeatureCollection",
    "features": [
        {
            "id": 58317,
            "type": "Feature",
            "geometry": {
                "type": "Point",
                "coordinates": [
                    18.81404,
                    52.92315
                ]
            },
            "properties": {
                "ref:rspo": 58317,
                "official_name": "Zesp\u00f3\u0142 Szk\u00f3\u0142 w Osieku Nad Wis\u0142\u0105",
                "name": "Zesp\u00f3\u0142 Szk\u00f3\u0142 w Osieku Nad Wis\u0142\u0105",
                "addr:country": "PL",
                "addr:postcode": "87-125",
                "addr:city": "Osiek nad Wis\u0142\u0105",
                "addr:street": "Le\u015bna",
                "addr:housenumber": "1",
                "addr:teryt:simc": 847587,
                "addr:teryt:sym_ul": 10898,
                "contact:phone": "+48 566786529",
                "contact:email": "sekretariat@zsosieknadwisla.pl",
                "ref:regon": "340222734",
                "ref:vatin": "PL8792642326",
                "operator": "Gmina Obrowo",
                "operator:type": "government",
                "landuse": "education",
                "fixme": "amenity=school, amenity=college albo landuse=education w zale\u017cno\u015bci od tego, jakie plac\u00f3wki wchodz\u0105 w sk\u0142ad zespo\u0142u. Sprawd\u017a, kiedy stosowa\u0107 amenity=* a kiedy landuse=education.",
                "note": "Children RSPO: 83885;88198"
            }
        },
        {
            "id": 119193,
            "type": "Feature",
            "geometry": {
                "type": "Point",
                "coordinates": [
                    18.81404,
                    52.92312
                ]
            },
            "properties": {
                "ref:rspo": 119193,
                "official_name": "Publiczna Szko\u0142a Muzyczna I Stopnia w Osieku Nad Wis\u0142\u0105",
                "name": "Publiczna Szko\u0142a Muzyczna I Stopnia w Osieku Nad Wis\u0142\u0105",
                "addr:country": "PL",
                "addr:postcode": "87-125",
                "addr:place": "Osiek nad Wis\u0142\u0105",
                "addr:housenumber": "63",
                "addr:teryt:simc": 847587,
                "contact:phone": "+48 566786530",
                "contact:email": "kontakt@muzycznaosiek.pl",
                "contact:website": "http:\/\/www.muzycznaosiek.pl",
                "ref:regon": "341472580",
                "operator": "Gmina Obrowo",
                "operator:type": "government",
                "amenity": "music_school"
            }
        },
        {
            "id": 83885,
            "type": "Feature",
            "geometry": {
                "type": "Point",
                "coordinates": [
                    18.81404,
                    52.92309
                ]
            },
            "properties": {
                "isced:level": "1;2",
                "ref:rspo": 83885,
                "official_name": "Szko\u0142a Podstawowa im.mjr H.sucharskiego w Osieku Nad Wis\u0142\u0105",
                "name": "Szko\u0142a Podstawowa im.mjr H.sucharskiego w Osieku Nad Wis\u0142\u0105",
                "addr:country": "PL",
                "addr:postcode": "87-125",
                "addr:city": "Osiek nad Wis\u0142\u0105",
                "addr:street": "Le\u015bna",
                "addr:housenumber": "1",
                "addr:teryt:simc": 847587,
                "addr:teryt:sym_ul": 10898,
                "contact:phone": "+48 566786529",
                "contact:email": "sekretariat@zsosieknadwisla.pl",
                "ref:regon": "001211414",
                "operator": "Gmina Obrowo",
                "operator:type": "government",
                "amenity": "school",
                "note": "Parent RSPO: 58317"
            }
        },
        {
            "id": 88198,
            "type": "Feature",
            "geometry": {
                "type": "Point",
                "coordinates": [
                    18.81404,
                    52.92306
                ]
            },
            "properties": {
                "ref:rspo": 88198,
                "official_name": "Przedszkole Samorz\u0105dowe w Osieku Nad Wis\u0142\u0105",
                "name": "Przedszkole Samorz\u0105dowe w Osieku Nad Wis\u0142\u0105",
                "addr:country": "PL",
                "addr:postcode": "87-125",
                "addr:place": "Osiek nad Wis\u0142\u0105",
                "addr:housenumber": "64",
                "addr:teryt:simc": 847587,
                "contact:phone": "+48 566211720",
                "contact:email": "sekretariat@zsosieknadwisla.pl",
                "ref:regon": "341354120",
                "operator": "Gmina Obrowo",
                "operator:type": "government",
                "amenity": "kindergarten",
                "note": "Parent RSPO: 58317"
            }
        },
        {
            "id": 132111,
            "type": "Feature",
            "geometry": {
                "type": "Point",
                "coordinates": [
                    18.83883,
                    52.92527
                ]
            },
            "properties": {
                "ref:rspo": 132111,
                "official_name": "Niepubliczna Plac\u00f3wka Kszta\u0142cenia Ustawicznego Nr 1 w Osieku Nad Wis\u0142\u0105",
                "name": "Niepubliczna Plac\u00f3wka Kszta\u0142cenia Ustawicznego Nr 1 w Osieku Nad Wis\u0142\u0105",
                "addr:country": "PL",
                "addr:postcode": "87-125",
                "addr:place": "Stajenczynki",
                "addr:housenumber": "27",
                "addr:teryt:simc": 847707,
                "contact:phone": "+48 666176177",
                "contact:email": "biuro@dejot.pl",
                "ref:regon": "365464142",
                "operator": "Dawid Jasi\u0144ski",
                "operator:type": "private",
                "fixme": "w zale\u017cno\u015bci od przedmiotu dzia\u0142alno\u015bci (np. amenity=training + training=*, amenity=dancing_school, amenity=language_school, amenity=music_school)"
            }
        },
        {
            "id": 83881,
            "type": "Feature",
            "geometry": {
                "type": "Point",
                "coordinates": [
                    18.87634,
                    52.97007
                ]
            },
            "properties": {
                "isced:level": "1;2",
                "ref:rspo": 83881,
                "official_name": "Szko\u0142a Podstawowa w Obrowie im.jana Paw\u0142a Ii",
                "name": "Szko\u0142a Podstawowa w Obrowie im.jana Paw\u0142a Ii",
                "addr:country": "PL",
                "addr:postcode": "87-126",
                "addr:city": "Obrowo",
                "addr:street": "Szkolna",
                "addr:housenumber": "4",
                "addr:teryt:simc": 847558,
                "addr:teryt:sym_ul": 21970,
                "contact:phone": "+48 566747030",
                "contact:email": "szkolaobrowo@wp.pl",
                "ref:regon": "001212997",
                "operator": "Gmina Obrowo",
                "operator:type": "government",
                "amenity": "school"
            }
        },
        {
            "id": 77618,
            "type": "Feature",
            "geometry": {
                "type": "Point",
                "coordinates": [
                    18.95513,
                    52.97092
                ]
            },
            "properties": {
                "ref:rspo": 77618,
                "official_name": "Ma\u0142e Przedszkole w Skrzypkowie",
                "name": "Ma\u0142e Przedszkole w Skrzypkowie",
                "addr:country": "PL",
                "addr:postcode": "87-126",
                "addr:place": "Skrzypkowo",
                "addr:housenumber": "41",
                "addr:teryt:simc": 847660,
                "contact:phone": "+48 504439393",
                "ref:regon": "341351474",
                "ref:vatin": "PL8792282968",
                "operator": "Stowarzyszenie Na Rzecz Rozwoju Wsi Skrzypkowo",
                "operator:type": "ngo",
                "amenity": "kindergarten"
            }
        },
        {
            "id": 58323,
            "type": "Feature",
            "geometry": {
                "type": "Point",
                "coordinates": [
                    18.87098,
                    52.97984
                ]
            },
            "properties": {
                "ref:rspo": 58323,
                "official_name": "Niepubliczne Przedszkole\"Za Jordanem\" w Kaw\u0119czynie",
                "name": "Niepubliczne Przedszkole\"Za Jordanem\" w Kaw\u0119czynie",
                "addr:country": "PL",
                "addr:postcode": "87-123",
                "addr:place": "Kaw\u0119czyn",
                "addr:housenumber": "101",
                "addr:teryt:simc": 847446,
                "contact:phone": "+48 604951874",
                "contact:email": "tomek@kaminski.net.pl",
                "ref:regon": "341345433",
                "operator": "Barbara Kami\u0144ska",
                "operator:type": "private",
                "amenity": "kindergarten"
            }
        },
        {
            "id": 88512,
            "type": "Feature",
            "geometry": {
                "type": "Point",
                "coordinates": [
                    18.8385,
                    52.99841
                ]
            },
            "properties": {
                "ref:rspo": 88512,
                "official_name": "Filia w Dobrzejewicach Poradni Psychologiczno-Pedagogicznej w Che\u0142m\u017cy",
                "name": "Filia w Dobrzejewicach Poradni Psychologiczno-Pedagogicznej w Che\u0142m\u017cy",
                "addr:country": "PL",
                "addr:postcode": "87-123",
                "addr:place": "Dobrzejewice",
                "addr:housenumber": "1",
                "addr:teryt:simc": 847363,
                "contact:phone": "+48 566756727",
                "contact:email": "porpsych@wp.pl",
                "contact:website": "http:\/\/www.poradniachelmza.pl",
                "ref:regon": "106989600",
                "operator": "Powiat Toru\u0144ski",
                "operator:type": "government",
                "healthcare": "counselling",
                "counselling_type": "education",
                "fixme": "w zale\u017cno\u015bci od przedmiotu dzia\u0142alno\u015bci (np. healthcare=counselling + counselling_type=education albo healthcare=psychotherapist)",
                "note": "Parent RSPO: 18718"
            }
        },
        {
            "id": 58316,
            "type": "Feature",
            "geometry": {
                "type": "Point",
                "coordinates": [
                    18.89232,
                    53.00014
                ]
            },
            "properties": {
                "isced:level": "1;2",
                "ref:rspo": 58316,
                "official_name": "Szko\u0142a Podstawowa im.miko\u0142aja Kopernika w \u0141\u0105\u017cynie Ii",
                "name": "Szko\u0142a Podstawowa im.miko\u0142aja Kopernika w \u0141\u0105\u017cynie Ii",
                "addr:country": "PL",
                "addr:postcode": "87-123",
                "addr:place": "\u0141\u0105\u017cyn",
                "addr:housenumber": "43",
                "addr:teryt:simc": 847481,
                "contact:phone": "+48 566746934",
                "contact:email": "lazyn2@poczta.onet.pl",
                "contact:website": "http:\/\/www.splazyn2.szkolnastrona.pl",
                "ref:regon": "001211420",
                "ref:vatin": "PL8791974090",
                "operator": "Gmina Obrowo",
                "operator:type": "government",
                "amenity": "school"
            }
        },
        {
            "id": 58320,
            "type": "Feature",
            "geometry": {
                "type": "Point",
                "coordinates": [
                    18.83515,
                    53.00553
                ]
            },
            "properties": {
                "isced:level": "1;2",
                "ref:rspo": 58320,
                "official_name": "Szko\u0142a Podstawowa im.gen.j.h.d\u0105browskiego w Dobrzejewicach",
                "name": "Szko\u0142a Podstawowa im.gen.j.h.d\u0105browskiego w Dobrzejewicach",
                "addr:country": "PL",
                "addr:postcode": "87-123",
                "addr:place": "Dobrzejewice",
                "addr:housenumber": "57A",
                "addr:teryt:simc": 847363,
                "contact:phone": "+48 566744615",
                "contact:email": "zs@zsdobrzejewice.pl",
                "contact:website": "http:\/\/zsdobrzejewice.pl",
                "ref:regon": "000598351",
                "ref:vatin": "PL8792642355",
                "operator": "Gmina Obrowo",
                "operator:type": "government",
                "amenity": "school",
                "note": "Parent RSPO: 58319"
            }
        },
        {
            "id": 58319,
            "type": "Feature",
            "geometry": {
                "type": "Point",
                "coordinates": [
                    18.83538,
                    53.0062
                ]
            },
            "properties": {
                "ref:rspo": 58319,
                "official_name": "Zesp\u00f3\u0142 Szk\u00f3\u0142 w Dobrzejewicach",
                "name": "Zesp\u00f3\u0142 Szk\u00f3\u0142 w Dobrzejewicach",
                "addr:country": "PL",
                "addr:postcode": "87-123",
                "addr:place": "Dobrzejewice",
                "addr:housenumber": "57B",
                "addr:teryt:simc": 847363,
                "contact:phone": "+48 566744615",
                "contact:email": "zs@zsdobrzejewice.pl",
                "contact:website": "http:\/\/zsdobrzejewice.pl",
                "ref:regon": "871718013",
                "ref:vatin": "PL8792642504",
                "operator": "Gmina Obrowo",
                "operator:type": "government",
                "landuse": "education",
                "fixme": "amenity=school, amenity=college albo landuse=education w zale\u017cno\u015bci od tego, jakie plac\u00f3wki wchodz\u0105 w sk\u0142ad zespo\u0142u. Sprawd\u017a, kiedy stosowa\u0107 amenity=* a kiedy landuse=education.",
                "note": "Children RSPO: 58320;83884"
            }
        },
        {
            "id": 83884,
            "type": "Feature",
            "geometry": {
                "type": "Point",
                "coordinates": [
                    18.83538,
                    53.00617
                ]
            },
            "properties": {
                "isced:level": "3",
                "ref:rspo": 83884,
                "official_name": "Liceum Og\u00f3lnokszta\u0142ac\u0105ce im.prymasa Stefana Kardyna\u0142a Wyszy\u0144skiego",
                "name": "Liceum Og\u00f3lnokszta\u0142ac\u0105ce im.prymasa Stefana Kardyna\u0142a Wyszy\u0144skiego",
                "addr:country": "PL",
                "addr:postcode": "87-123",
                "addr:place": "Dobrzejewice",
                "addr:housenumber": "57B",
                "addr:teryt:simc": 847363,
                "contact:phone": "+48 566744615",
                "contact:email": "zs@zsdobrzejewice.pl",
                "contact:website": "http:\/\/zsdobrzejewice.pl",
                "ref:regon": "871679738",
                "operator": "Gmina Obrowo",
                "operator:type": "government",
                "amenity": "school",
                "note": "Parent RSPO: 58319"
            }
        },
        {
            "id": 88197,
            "type": "Feature",
            "geometry": {
                "type": "Point",
                "coordinates": [
                    18.92216,
                    53.0078
                ]
            },
            "properties": {
                "isced:level": "1;2",
                "ref:rspo": 88197,
                "official_name": "Szko\u0142a Podstawowa w Z\u0119bowie",
                "name": "Szko\u0142a Podstawowa w Z\u0119bowie",
                "addr:country": "PL",
                "addr:postcode": "87-126",
                "addr:place": "Z\u0119bowo",
                "addr:housenumber": "59",
                "addr:teryt:simc": 847788,
                "contact:phone": "+48 566379460",
                "contact:email": "mala_szkola_zebowo@wp.pl",
                "contact:website": "https:\/\/szkolapodstawowazebowo.edupage.org\/",
                "ref:regon": "341354107",
                "operator": "Wiejskie Stowarzyszenie Kulturalno-O\u015bwiatowe \"Edukacja Dla Demokracji\" W Z\u0119bowie",
                "operator:type": "ngo",
                "amenity": "school"
            }
        },
        {
            "id": 269247,
            "type": "Feature",
            "geometry": {
                "type": "Point",
                "coordinates": [
                    18.80884,
                    53.01547
                ]
            },
            "properties": {
                "ref:rspo": 269247,
                "official_name": "Niepubliczne Przedszkole \"T\u0119czowa Kraina\"",
                "name": "Niepubliczne Przedszkole \"T\u0119czowa Kraina\"",
                "addr:country": "PL",
                "addr:postcode": "87-123",
                "addr:city": "G\u0142ogowo",
                "addr:street": "Borsukowa",
                "addr:housenumber": "12",
                "addr:teryt:simc": 847430,
                "addr:teryt:sym_ul": 39713,
                "contact:phone": "+48 601732799",
                "contact:email": "przedszkole@teczowa-kraina.pl",
                "ref:regon": "381413110",
                "ref:vatin": "PL8781533680",
                "operator": "Robert Borkowski",
                "operator:type": "private",
                "amenity": "kindergarten"
            }
        },
        {
            "id": 263940,
            "type": "Feature",
            "geometry": {
                "type": "Point",
                "coordinates": [
                    18.82414,
                    53.01576
                ]
            },
            "properties": {
                "ref:rspo": 263940,
                "official_name": "Niepubliczne Przedszkole \"U Jasia I Agatki\" w G\u0142ogowie",
                "name": "Niepubliczne Przedszkole \"U Jasia I Agatki\" w G\u0142ogowie",
                "addr:country": "PL",
                "addr:postcode": "87-123",
                "addr:city": "G\u0142ogowo",
                "addr:street": "M\u0142odzie\u017cowa",
                "addr:housenumber": "28A",
                "addr:teryt:simc": 847430,
                "addr:teryt:sym_ul": 13096,
                "contact:email": "poplawska.agata@wp.pl",
                "ref:regon": "368244145",
                "operator": "Agnieszka Pop\u0142awska",
                "operator:type": "private",
                "amenity": "kindergarten"
            }
        },
        {
            "id": 58321,
            "type": "Feature",
            "geometry": {
                "type": "Point",
                "coordinates": [
                    18.80492,
                    53.02337
                ]
            },
            "properties": {
                "ref:rspo": 58321,
                "official_name": "Zesp\u00f3\u0142 Szk\u00f3\u0142 w Brzoz\u00f3wce",
                "name": "Zesp\u00f3\u0142 Szk\u00f3\u0142 w Brzoz\u00f3wce",
                "addr:country": "PL",
                "addr:postcode": "87-123",
                "addr:city": "Brzoz\u00f3wka",
                "addr:street": "Szkolna",
                "addr:housenumber": "38",
                "addr:teryt:simc": 847340,
                "addr:teryt:sym_ul": 21970,
                "contact:phone": "+48 566786779",
                "contact:email": "spbrzozowka@wp.pl",
                "ref:regon": "340493404",
                "ref:vatin": "PL8792642585",
                "operator": "Gmina Obrowo",
                "operator:type": "government",
                "landuse": "education",
                "fixme": "amenity=school, amenity=college albo landuse=education w zale\u017cno\u015bci od tego, jakie plac\u00f3wki wchodz\u0105 w sk\u0142ad zespo\u0142u. Sprawd\u017a, kiedy stosowa\u0107 amenity=* a kiedy landuse=education.",
                "note": "Children RSPO: 83889;88199"
            }
        },
        {
            "id": 83889,
            "type": "Feature",
            "geometry": {
                "type": "Point",
                "coordinates": [
                    18.80492,
                    53.02334
                ]
            },
            "properties": {
                "isced:level": "1;2",
                "ref:rspo": 83889,
                "official_name": "Szko\u0142a Podstawowa im. Janusza Korczaka w Brzoz\u00f3wce",
                "name": "Szko\u0142a Podstawowa",
                "addr:country": "PL",
                "addr:postcode": "87-123",
                "addr:city": "Brzoz\u00f3wka",
                "addr:street": "Szkolna",
                "addr:housenumber": "38",
                "addr:teryt:simc": 847340,
                "addr:teryt:sym_ul": 21970,
                "contact:phone": "+48 566786779",
                "contact:email": "spbrzozowka@wp.pl",
                "ref:regon": "001212980",
                "operator": "Gmina Obrowo",
                "operator:type": "government",
                "amenity": "school",
                "note": "Parent RSPO: 58321"
            }
        },
        {
            "id": 88199,
            "type": "Feature",
            "geometry": {
                "type": "Point",
                "coordinates": [
                    18.80492,
                    53.02331
                ]
            },
            "properties": {
                "ref:rspo": 88199,
                "official_name": "Przedszkole Samorz\u0105dowe im.kr\u00f3la Maciusia I w Brzoz\u00f3wce",
                "name": "Przedszkole Samorz\u0105dowe im.kr\u00f3la Maciusia I w Brzoz\u00f3wce",
                "addr:country": "PL",
                "addr:postcode": "87-123",
                "addr:city": "Brzoz\u00f3wka",
                "addr:street": "Szkolna",
                "addr:housenumber": "38",
                "addr:teryt:simc": 847340,
                "addr:teryt:sym_ul": 21970,
                "contact:email": "spbrzozowka@wp.pl",
                "ref:regon": "340493350",
                "operator": "Gmina Obrowo",
                "operator:type": "government",
                "amenity": "kindergarten",
                "note": "Parent RSPO: 58321"
            }
        },
        {
            "id": 127222,
            "type": "Feature",
            "geometry": {
                "type": "Point",
                "coordinates": [
                    18.8426577,
                    53.0432758
                ]
            },
            "properties": {
                "ref:rspo": 127222,
                "official_name": "Niepubliczne Przedszkole \"Bajka\" w Szembekowie Ul.bajkowa 25",
                "name": "Niepubliczne Przedszkole \"Bajka\" w Szembekowie Ul.bajkowa 25",
                "addr:country": "PL",
                "addr:postcode": "87-123",
                "addr:city": "Szembekowo",
                "addr:street": "Bajkowa",
                "addr:housenumber": "25",
                "addr:teryt:simc": 847736,
                "addr:teryt:sym_ul": 608,
                "contact:phone": "+48 600398610",
                "contact:email": "jolasonnenberg@onet.pl",
                "ref:regon": "361232222",
                "ref:vatin": "PL8791494792",
                "operator": "Jolanta Sonnenberg",
                "operator:type": "private",
                "amenity": "kindergarten"
            }
        }
    ]
}