{
    "type": "FeatureCollection",
    "features": [
        {
            "id": 55130,
            "type": "Feature",
            "geometry": {
                "type": "Point",
                "coordinates": [
                    18.46452,
                    53.10481
                ]
            },
            "properties": {
                "ref:rspo": 55130,
                "official_name": "Przedszkole Niepubliczne \"Zamkolandia\"",
                "name": "Przedszkole Niepubliczne \"Zamkolandia\"",
                "addr:country": "PL",
                "addr:postcode": "87-152",
                "addr:city": "Zamek Bierzg\u0142owski",
                "addr:street": "ul. Jagiello\u0144ska",
                "addr:housenumber": "10",
                "addr:teryt:simc": 7029,
                "addr:teryt:sym_ul": 846837,
                "contact:phone": "+48 602749438",
                "contact:email": "zamkolandia@gmail.com",
                "contact:website": "http:\/\/www.zamkolandia.eu",
                "ref:regon": "341344907",
                "operator": "Rafa\u0142 Wasilewski",
                "operator:type": "private",
                "amenity": "kindergarten"
            }
        },
        {
            "id": 75319,
            "type": "Feature",
            "geometry": {
                "type": "Point",
                "coordinates": [
                    18.52504,
                    53.11483
                ]
            },
            "properties": {
                "isced:level": "1;2",
                "ref:rspo": 75319,
                "official_name": "Szko\u0142a Podstawowa im.prof. Wilhelminy Iwanowskiej w Pig\u017cy",
                "name": "Szko\u0142a Podstawowa im.prof. Wilhelminy Iwanowskiej w Pig\u017cy",
                "addr:country": "PL",
                "addr:postcode": "87-152",
                "addr:city": "Pig\u017ca",
                "addr:street": "ul. Szkolna",
                "addr:housenumber": "14",
                "addr:teryt:simc": 21970,
                "addr:teryt:sym_ul": 846760,
                "contact:phone": "+48 566740828",
                "contact:email": "sppigza@lubianka.pl",
                "contact:website": "http:\/\/www.sppigza.edupage.org",
                "ref:regon": "871186094",
                "operator": "Gmina \u0141ubianka",
                "operator:type": "government",
                "amenity": "school"
            }
        },
        {
            "id": 196408,
            "type": "Feature",
            "geometry": {
                "type": "Point",
                "coordinates": [
                    18.53862,
                    53.13591
                ]
            },
            "properties": {
                "isced:level": "1;2",
                "ref:rspo": 196408,
                "official_name": "Szko\u0142a Podstawowa im. \u015aw. Jana Paw\u0142a II w Br\u0105chnowie",
                "name": "Szko\u0142a Podstawowa",
                "addr:country": "PL",
                "addr:postcode": "87-152",
                "addr:city": "Br\u0105chnowo",
                "addr:street": "ul. Gimnazjalna",
                "addr:housenumber": "1",
                "addr:teryt:simc": 5527,
                "addr:teryt:sym_ul": 846731,
                "contact:phone": "+48 566788815",
                "contact:email": "spbrachnowo@lubianka.pl",
                "ref:regon": "367993258",
                "ref:vatin": "PL8792694352",
                "operator": "Gmina \u0141ubianka",
                "operator:type": "government",
                "amenity": "school"
            }
        },
        {
            "id": 75466,
            "type": "Feature",
            "geometry": {
                "type": "Point",
                "coordinates": [
                    18.48075,
                    53.13863
                ]
            },
            "properties": {
                "isced:level": "1;2",
                "ref:rspo": 75466,
                "official_name": "Szko\u0142a Podstawowa im. Janusza Korczaka w \u0141ubiance",
                "name": "Szko\u0142a Podstawowa",
                "addr:country": "PL",
                "addr:postcode": "87-152",
                "addr:city": "\u0141ubianka",
                "addr:street": "ul. Che\u0142mi\u0144ska",
                "addr:housenumber": "1",
                "addr:teryt:simc": 2700,
                "addr:teryt:sym_ul": 846754,
                "contact:phone": "+48 566748030",
                "contact:email": "splubianka@lubianka.pl",
                "contact:website": "http:\/\/www.zslubianka.szkolna.net",
                "ref:regon": "000268910",
                "operator": "Gmina \u0141ubianka",
                "operator:type": "government",
                "amenity": "school"
            }
        },
        {
            "id": 119103,
            "type": "Feature",
            "geometry": {
                "type": "Point",
                "coordinates": [
                    18.5027,
                    53.16236
                ]
            },
            "properties": {
                "ref:rspo": 119103,
                "official_name": "Niepubliczne Przedszkole Promyczek",
                "name": "Niepubliczne Przedszkole Promyczek",
                "addr:country": "PL",
                "addr:postcode": "87-152",
                "addr:city": "\u0141ubianka",
                "addr:street": "ul. Wichrowa",
                "addr:housenumber": "1",
                "addr:teryt:simc": 23989,
                "addr:teryt:sym_ul": 846754,
                "contact:phone": "+48 606835771",
                "contact:email": "ania_soczek@o2.pl",
                "ref:regon": "341471913",
                "ref:vatin": "PL9561930267",
                "operator": "Anna Soczy\u0144ska",
                "operator:type": "private",
                "amenity": "kindergarten"
            }
        },
        {
            "id": 75318,
            "type": "Feature",
            "geometry": {
                "type": "Point",
                "coordinates": [
                    18.53695,
                    53.17254
                ]
            },
            "properties": {
                "isced:level": "1;2",
                "ref:rspo": 75318,
                "official_name": "Szko\u0142a Podstawowa im. Zawiszy Czarnego Z Garbowa w Warszewicach",
                "name": "Szko\u0142a Podstawowa",
                "addr:country": "PL",
                "addr:postcode": "87-152",
                "addr:city": "Warszewice",
                "addr:street": "ul. Zawiszy Czarnego",
                "addr:housenumber": "2",
                "addr:teryt:simc": 25857,
                "addr:teryt:sym_ul": 846790,
                "contact:phone": "+48 566759301",
                "contact:email": "spwarszewice@lubianka.pl",
                "ref:regon": "871255688",
                "operator": "Gmina \u0141ubianka",
                "operator:type": "government",
                "amenity": "school"
            }
        },
        {
            "id": 42137,
            "type": "Feature",
            "geometry": {
                "type": "Point",
                "coordinates": [
                    18.45544,
                    53.1801699
                ]
            },
            "properties": {
                "isced:level": "1;2",
                "ref:rspo": 42137,
                "official_name": "Szko\u0142a Podstawowa im.ks.stanis\u0142awa Kujota w Wybczu",
                "name": "Szko\u0142a Podstawowa im.ks.stanis\u0142awa Kujota w Wybczu",
                "addr:country": "PL",
                "addr:postcode": "87-152",
                "addr:city": "Wybcz",
                "addr:street": "ul. M. Konopnickiej",
                "addr:housenumber": "4",
                "addr:teryt:simc": 27348,
                "addr:teryt:sym_ul": 846808,
                "contact:phone": "+48 566788690",
                "contact:email": "spwybcz@lubianka.pl",
                "contact:website": "http:\/\/www.spwybcz.edupage.org",
                "ref:regon": "871255843",
                "operator": "Gmina \u0141ubianka",
                "operator:type": "government",
                "amenity": "school"
            }
        }
    ]
}