{"type":"FeatureCollection","features":[{"id":266565,"type":"Feature","geometry":{"type":"Point","coordinates":[17.059209823608,54.418060302734]},"properties":{"ref:rspo":266565,"official_name":"Nied\u017awiadkowe Przedszkole","name":"Nied\u017awiadkowe Przedszkole","addr:country":"PL","addr:postcode":"76-200","addr:city":"Kr\u0119pa S\u0142upska","addr:street":"ul. Kwiat\u00f3w Polnych","addr:housenumber":"1a","addr:teryt:simc":10567,"addr:teryt:sym_ul":750712,"contact:email":"marcihoo@wp.pl","contact:website":"http:\/\/niedzwiadek.slupsk.pl\/przedszkole","ref:regon":"369566980","operator":"Marcin Urbanowicz","operator:type":"private","amenity":"kindergarten"}},{"id":43348,"type":"Feature","geometry":{"type":"Point","coordinates":[17.10692,54.43901]},"properties":{"isced:level":"1;2","ref:rspo":43348,"official_name":"Szko\u0142a Podstawowa im. Henryka Sienkiewicza w G\u0142obinie","name":"Szko\u0142a Podstawowa","addr:country":"PL","addr:postcode":"76-200","addr:city":"G\u0142obino","addr:street":"ul. G\u0142\u00f3wna","addr:housenumber":"47","addr:teryt:simc":5635,"addr:teryt:sym_ul":750669,"contact:phone":"+48 598471050","contact:email":"spglobino@gminaslupsk.pl","contact:website":"http:\/\/www.spglobino.hg.pl","ref:regon":"001141292","ref:vatin":"PL8392007419","operator":"Gmina S\u0142upsk","operator:type":"government","amenity":"school"}},{"id":70400,"type":"Feature","geometry":{"type":"Point","coordinates":[17.10692,54.43898]},"properties":{"ref:rspo":70400,"official_name":"Punkt Przedszkolny w G\u0142obinie","name":"Punkt Przedszkolny w G\u0142obinie","addr:country":"PL","addr:postcode":"76-200","addr:place":"G\u0142obino","addr:housenumber":"47","addr:teryt:sym_ul":750669,"contact:phone":"+48 598471050","contact:email":"spglobino@gminaslupsk.pl","ref:regon":"221771545","operator":"Gmina S\u0142upsk","operator:type":"government","amenity":"kindergarten"}},{"id":262524,"type":"Feature","geometry":{"type":"Point","coordinates":[17.1176,54.47252]},"properties":{"ref:rspo":262524,"official_name":"Zesp\u00f3\u0142 Szkolno-Przedszkolny w Redzikowie","name":"Zesp\u00f3\u0142 Szkolno-Przedszkolny w Redzikowie","addr:country":"PL","addr:postcode":"76-200","addr:place":"Redzikowo","addr:housenumber":"16a","addr:teryt:sym_ul":1015044,"contact:phone":"+48 598118257","contact:email":"zsredzikowo_sekr@gminaslupsk.pl","ref:regon":"368028306","operator":"Gmina S\u0142upsk","operator:type":"government","landuse":"education","fixme":"amenity=school, amenity=college albo landuse=education w zale\u017cno\u015bci od tego, jakie plac\u00f3wki wchodz\u0105 w sk\u0142ad zespo\u0142u. Sprawd\u017a, kiedy stosowa\u0107 amenity=* a kiedy landuse=education.","note":"Children RSPO: 82469;85018;263525"}},{"id":82469,"type":"Feature","geometry":{"type":"Point","coordinates":[17.1176,54.47249]},"properties":{"ref:rspo":82469,"official_name":"Punkt Przedszkolny w Redzikowie","name":"Punkt Przedszkolny w Redzikowie","addr:country":"PL","addr:postcode":"76-200","addr:place":"Redzikowo","addr:housenumber":"16a","addr:teryt:sym_ul":1015044,"contact:phone":"+48 598118257","contact:email":"zsredzikowo_sekr@gminaslupsk.pl","contact:website":"http:\/\/szkola-redzikowo.edupage.org","ref:regon":"221777312","operator":"Gmina S\u0142upsk","operator:type":"government","amenity":"kindergarten","note":"Parent RSPO: 262524"}},{"id":85018,"type":"Feature","geometry":{"type":"Point","coordinates":[17.1176,54.472460000000005]},"properties":{"isced:level":"1;2","ref:rspo":85018,"official_name":"Szko\u0142a Podstawowa w Redzikowie","name":"Szko\u0142a Podstawowa w Redzikowie","addr:country":"PL","addr:postcode":"76-200","addr:place":"Redzikowo","addr:housenumber":"16a","addr:teryt:sym_ul":1015044,"contact:phone":"+48 598118257","contact:email":"zsredzikowo_sekr@gminaslupsk.pl","contact:website":"http:\/\/szkola-redzikowo.edupage.org","ref:regon":"770758462","ref:vatin":"PL8392007129","operator":"Gmina S\u0142upsk","operator:type":"government","amenity":"school","note":"Parent RSPO: 262524"}},{"id":263525,"type":"Feature","geometry":{"type":"Point","coordinates":[17.1176,54.47243]},"properties":{"isced:level":"3","ref:rspo":263525,"official_name":"Liceum Og\u00f3lnokszta\u0142c\u0105ce w Redzikowie","name":"Liceum Og\u00f3lnokszta\u0142c\u0105ce w Redzikowie","addr:country":"PL","addr:postcode":"76-200","addr:place":"Redzikowo","addr:housenumber":"16a","addr:teryt:sym_ul":1015044,"contact:phone":"+48 598118257","contact:email":"zsredzikowo_sekr@gminaslupsk.pl","ref:regon":"368199640","operator":"Gmina S\u0142upsk","operator:type":"government","amenity":"school","note":"Parent RSPO: 262524"}},{"id":52363,"type":"Feature","geometry":{"type":"Point","coordinates":[16.92979,54.47678]},"properties":{"isced:level":"1;2","ref:rspo":52363,"official_name":"Szko\u0142a Podstawowa im. Wincentego Witosa w Bierkowie","name":"Szko\u0142a Podstawowa","addr:country":"PL","addr:postcode":"76-200","addr:city":"Bierkowo","addr:street":"ul. Grodzka","addr:housenumber":"89","addr:teryt:simc":6163,"addr:teryt:sym_ul":750570,"contact:phone":"+48 598119130","contact:email":"spbierkowo@gminaslupsk.pl","contact:website":"http:\/\/spbierkowo.pl\/","ref:regon":"001141323","ref:vatin":"PL8392006621","operator":"Gmina S\u0142upsk","operator:type":"government","amenity":"school"}},{"id":70398,"type":"Feature","geometry":{"type":"Point","coordinates":[16.92979,54.476749999999996]},"properties":{"ref:rspo":70398,"official_name":"Punkt Przedszkolny w Bierkowie","name":"Punkt Przedszkolny w Bierkowie","addr:country":"PL","addr:postcode":"76-200","addr:city":"Bierkowo","addr:street":"ul. Grodzka","addr:housenumber":"89","addr:teryt:simc":6163,"addr:teryt:sym_ul":750570,"contact:phone":"+48 598119130","contact:email":"spbierkowo@gminaslupsk.pl","ref:regon":"221771522","operator":"Gmina S\u0142upsk","operator:type":"government","amenity":"kindergarten"}},{"id":123469,"type":"Feature","geometry":{"type":"Point","coordinates":[17.06099,54.49524]},"properties":{"ref:rspo":123469,"official_name":"Niepubliczne Przedszkole \"Kolorowe Przedszkole\"","name":"Niepubliczne Przedszkole \"Kolorowe Przedszkole\"","addr:country":"PL","addr:postcode":"76-200","addr:city":"Siemianice","addr:street":"ul. Spacerowa","addr:housenumber":"2","addr:teryt:simc":20641,"addr:teryt:sym_ul":750830,"contact:phone":"+48 603111574","contact:email":"przedszkolekolorowe@gmail.com","ref:regon":"222119806","operator":"Ma\u0142gorzata Ja\u017cd\u017cewska","operator:type":"private","amenity":"kindergarten"}},{"id":196436,"type":"Feature","geometry":{"type":"Point","coordinates":[17.0624499,54.50294]},"properties":{"ref:rspo":196436,"official_name":"Zesp\u00f3\u0142 Szkolno-Przedszkolny w Siemianicach","name":"Zesp\u00f3\u0142 Szkolno-Przedszkolny w Siemianicach","addr:country":"PL","addr:postcode":"76-200","addr:city":"Siemianice","addr:street":"ul. S\u0142upska","addr:housenumber":"42","addr:teryt:simc":20316,"addr:teryt:sym_ul":750830,"contact:phone":"+48 598471856","contact:email":"zssiemianice@gminaslupsk.pl","ref:regon":"367993956","operator":"Gmina S\u0142upsk","operator:type":"government","landuse":"education","fixme":"amenity=school, amenity=college albo landuse=education w zale\u017cno\u015bci od tego, jakie plac\u00f3wki wchodz\u0105 w sk\u0142ad zespo\u0142u. Sprawd\u017a, kiedy stosowa\u0107 amenity=* a kiedy landuse=education.","note":"Children RSPO: 85496"}},{"id":85496,"type":"Feature","geometry":{"type":"Point","coordinates":[17.0624499,54.50291]},"properties":{"isced:level":"1;2","ref:rspo":85496,"official_name":"Szko\u0142a Podstawowa w Siemianicach","name":"Szko\u0142a Podstawowa w Siemianicach","addr:country":"PL","addr:postcode":"76-200","addr:city":"Siemianice","addr:street":"ul. S\u0142upska","addr:housenumber":"42","addr:teryt:simc":20316,"addr:teryt:sym_ul":750830,"contact:phone":"+48 598471856","contact:email":"zssiemianice@gminaslupsk.pl","contact:website":"http:\/\/zssiemianice.edupage.org\/","ref:regon":"001277620","ref:vatin":"PL8392007916","operator":"Gmina S\u0142upsk","operator:type":"government","amenity":"school","note":"Parent RSPO: 196436"}},{"id":82467,"type":"Feature","geometry":{"type":"Point","coordinates":[17.00651,54.50485]},"properties":{"ref:rspo":82467,"official_name":"Przedszkole Ekologiczno-J\u0119zykowe \"Poziomka\" we W\u0142ynk\u00f3wku","name":"Przedszkole Ekologiczno-J\u0119zykowe \"Poziomka\" we W\u0142ynk\u00f3wku","addr:country":"PL","addr:postcode":"76-200","addr:city":"W\u0142ynk\u00f3wko","addr:street":"ul. Aleja nad Rzek\u0105","addr:housenumber":"9","addr:teryt:simc":37345,"addr:teryt:sym_ul":751002,"contact:phone":"+48 601220610","contact:email":"biuro@przedszkolepoziomka.pl","contact:website":"http:\/\/www.przedszkolepoziomka.pl","ref:regon":"221778843","ref:vatin":"PL8392449991","operator":"Monika Meyer","operator:type":"private","amenity":"kindergarten"}},{"id":70401,"type":"Feature","geometry":{"type":"Point","coordinates":[17.0014,54.50643]},"properties":{"ref:rspo":70401,"official_name":"Punkt Przedszkolny we W\u0142ynk\u00f3wku","name":"Punkt Przedszkolny we W\u0142ynk\u00f3wku","addr:country":"PL","addr:postcode":"76-200","addr:city":"W\u0142ynk\u00f3wko","addr:street":"ul. B\u0142\u0119kitna","addr:housenumber":"17","addr:teryt:simc":1458,"addr:teryt:sym_ul":751002,"contact:phone":"+48 598112736","contact:email":"spwlynkowko@gminaslupsk.pl","ref:regon":"221771485","operator":"Gmina S\u0142upsk","operator:type":"government","amenity":"kindergarten"}},{"id":76175,"type":"Feature","geometry":{"type":"Point","coordinates":[17.0014,54.5064]},"properties":{"isced:level":"1;2","ref:rspo":76175,"official_name":"Szko\u0142a Podstawowa im. Leopolda Staffa we W\u0142ynk\u00f3wku","name":"Szko\u0142a Podstawowa","addr:country":"PL","addr:postcode":"76-200","addr:city":"W\u0142ynk\u00f3wko","addr:street":"ul. B\u0142\u0119kitna","addr:housenumber":"17","addr:teryt:simc":1458,"addr:teryt:sym_ul":751002,"contact:phone":"+48 598112736","contact:email":"spwlynkowko@gminaslupsk.pl","contact:website":"http:\/\/spwlynkowko.edupage.org","ref:regon":"001141317","ref:vatin":"PL8392006791","operator":"Gmina S\u0142upsk","operator:type":"government","amenity":"school"}},{"id":52362,"type":"Feature","geometry":{"type":"Point","coordinates":[17.11734,54.50665]},"properties":{"ref:rspo":52362,"official_name":"Przedszkole Gminne \"Bajka\" w Jezierzycach","name":"Przedszkole Gminne \"Bajka\" w Jezierzycach","addr:country":"PL","addr:postcode":"76-200","addr:city":"Jezierzyce","addr:street":"ul. Parkowa","addr:housenumber":"4","addr:teryt:simc":15710,"addr:teryt:sym_ul":750681,"contact:phone":"+48 598112551","contact:email":"przedszkolejez@gminaslupsk.pl","contact:website":"http:\/\/przedszkole-jezierzyce.szkolnastrona.pl\/","ref:regon":"000908596","ref:vatin":"PL8392000044","operator":"Gmina S\u0142upsk","operator:type":"government","amenity":"kindergarten"}},{"id":85519,"type":"Feature","geometry":{"type":"Point","coordinates":[17.11887,54.50667]},"properties":{"isced:level":"1;2","ref:rspo":85519,"official_name":"Szko\u0142a Podstawowa im. Mjra Henryka Sucharskiego w Jezierzycach","name":"Szko\u0142a Podstawowa","addr:country":"PL","addr:postcode":"76-200","addr:city":"Jezierzyce","addr:street":"ul. Szkolna","addr:housenumber":"3","addr:teryt:simc":21970,"addr:teryt:sym_ul":750681,"contact:phone":"+48 598112527","contact:email":"zsjezierzyce@gminaslupsk.pl","contact:website":"http:\/\/spjezierzyce.pl","ref:regon":"000273790","ref:vatin":"PL8392006696","operator":"Gmina S\u0142upsk","operator:type":"government","amenity":"school"}},{"id":70404,"type":"Feature","geometry":{"type":"Point","coordinates":[17.10595,54.54433]},"properties":{"ref:rspo":70404,"official_name":"Punkt Przedszkolny we Wrze\u015bciu","name":"Punkt Przedszkolny we Wrze\u015bciu","addr:country":"PL","addr:postcode":"76-200","addr:place":"Wrze\u015bcie","addr:housenumber":"44","addr:teryt:sym_ul":751019,"contact:phone":"+48 598462613","contact:email":"spwrzescie@gminaslupsk.pl","contact:website":"http:\/\/spwrzescie.kylos.pl","ref:regon":"221771380","operator":"Gmina S\u0142upsk","operator:type":"government","amenity":"kindergarten"}},{"id":76176,"type":"Feature","geometry":{"type":"Point","coordinates":[17.10595,54.5443]},"properties":{"isced:level":"1;2","ref:rspo":76176,"official_name":"Szko\u0142a Podstawowa im. Gen. Stefana Roweckiego \"Grota\" we Wrze\u015bciu","name":"Szko\u0142a Podstawowa","addr:country":"PL","addr:postcode":"76-200","addr:place":"Wrze\u015bcie","addr:housenumber":"44","addr:teryt:sym_ul":751019,"contact:phone":"+48 598462613","contact:email":"spwrzescie@gminaslupsk.pl","contact:website":"http:\/\/www.spwrzescie.kylos.pl\/","ref:regon":"001141300","ref:vatin":"PL8392044981","operator":"Gmina S\u0142upsk","operator:type":"government","amenity":"school"}}]}