{
    "type": "FeatureCollection",
    "features": [
        {
            "id": 75517,
            "type": "Feature",
            "geometry": {
                "type": "Point",
                "coordinates": [
                    17.42016,
                    54.41983
                ]
            },
            "properties": {
                "isced:level": "1;2",
                "ref:rspo": 75517,
                "official_name": "Szko\u0142a Podstawowa im. Adama Mickiewicza w \u0141upawie",
                "name": "Szko\u0142a Podstawowa",
                "addr:postcode": "76-242",
                "addr:place": "\u0141upawa",
                "addr:housenumber": "22",
                "addr:teryt:simc": 749465,
                "phone": "+48 598463566",
                "email": "szkolalupawa@wp.pl",
                "website": "http:\/\/splupawa.pl\/",
                "ref:regon": "000563648",
                "ref:vatin": "PL8393197735",
                "operator": "Gmina Pot\u0119gowo",
                "operator:type": "government",
                "amenity": "school"
            }
        },
        {
            "id": 53413,
            "type": "Feature",
            "geometry": {
                "type": "Point",
                "coordinates": [
                    17.4837,
                    54.48013
                ]
            },
            "properties": {
                "isced:level": "1;2",
                "ref:rspo": 53413,
                "official_name": "Szko\u0142a Podstawowa im. Marii Konopnickiej w Pot\u0119gowie",
                "name": "Szko\u0142a Podstawowa",
                "addr:postcode": "76-230",
                "addr:city": "Pot\u0119gowo",
                "addr:street": "Szeroka",
                "addr:housenumber": "16",
                "addr:teryt:simc": 749531,
                "addr:teryt:sym_ul": 21925,
                "phone": "+48 598115321",
                "email": "sekretariat@zspotegowo.pl",
                "website": "http:\/\/zspotegowo.pl\/",
                "ref:regon": "001141211",
                "ref:vatin": "PL8393197675",
                "operator": "Gmina Pot\u0119gowo",
                "operator:type": "government",
                "amenity": "school"
            }
        },
        {
            "id": 52346,
            "type": "Feature",
            "geometry": {
                "type": "Point",
                "coordinates": [
                    17.48668,
                    54.4829
                ]
            },
            "properties": {
                "ref:rspo": 52346,
                "official_name": "Przedszkole w Pot\u0119gowie",
                "name": "Przedszkole w Pot\u0119gowie",
                "addr:postcode": "76-230",
                "addr:city": "Pot\u0119gowo",
                "addr:street": "Dar\u017cy\u0144ska",
                "addr:housenumber": "16",
                "addr:teryt:simc": 749531,
                "addr:teryt:sym_ul": 3629,
                "phone": "+48 598115061",
                "email": "przedszkolepotegowo@vp.pl",
                "ref:regon": "000908550",
                "ref:vatin": "PL8392855484",
                "operator": "Gmina Pot\u0119gowo",
                "operator:type": "government",
                "amenity": "kindergarten"
            }
        },
        {
            "id": 10052,
            "type": "Feature",
            "geometry": {
                "type": "Point",
                "coordinates": [
                    17.52856,
                    54.50509
                ]
            },
            "properties": {
                "isced:level": "1;2",
                "ref:rspo": 10052,
                "official_name": "Szko\u0142a Podstawowa w Sk\u00f3rowie im. Lucjana Kowalskiego",
                "name": "Szko\u0142a Podstawowa w Sk\u00f3rowie",
                "addr:postcode": "76-230",
                "addr:place": "Sk\u00f3rowo",
                "addr:housenumber": "13a",
                "addr:teryt:simc": 749590,
                "phone": "+48 598115168",
                "email": "sekretariat@spopskorowo.pl",
                "website": "http:\/\/www.spopskorowo.pl\/",
                "ref:regon": "001141205",
                "ref:vatin": "PL8392855426",
                "operator": "Gmina Pot\u0119gowo",
                "operator:type": "government",
                "amenity": "school"
            }
        }
    ]
}