{
    "type": "FeatureCollection",
    "features": [
        {
            "id": 272194,
            "type": "Feature",
            "geometry": {
                "type": "Point",
                "coordinates": [
                    16.85367,
                    54.57171
                ]
            },
            "properties": {
                "ref:rspo": 272194,
                "official_name": "O\u015brodek Szkolenia Zawodowego Gospodarki Morskiej w Szczecinie, Filia w Ustce",
                "name": "O\u015brodek Szkolenia Zawodowego Gospodarki Morskiej w Szczecinie, Filia w Ustce",
                "addr:country": "PL",
                "addr:postcode": "76-270",
                "addr:city": "Ustka",
                "addr:street": "Gabriela Narutowicza",
                "addr:housenumber": "10",
                "addr:teryt:simc": 14018,
                "addr:teryt:sym_ul": 977427,
                "contact:phone": "+48 593330009",
                "contact:email": "ustka@oszgm.pl",
                "contact:website": "http:\/\/www.kursymorskie.pl",
                "ref:regon": "384013427",
                "operator": "O\u015brodek Szkolenia Zawodowego Gospodarki Morskiej Sp\u00f3\u0142ka Z Ograniczon\u0105 Odpowiedzialno\u015bci\u0105",
                "operator:type": "private",
                "fixme": "w zale\u017cno\u015bci od przedmiotu dzia\u0142alno\u015bci (np. amenity=training + training=*, amenity=dancing_school, amenity=language_school, amenity=music_school) albo amenity=school, amenity=college, albo landuse=education w zale\u017cno\u015bci od tego, jakie plac\u00f3wki wchodz\u0105 w sk\u0142ad zespo\u0142u. Sprawd\u017a, kiedy stosowa\u0107 amenity=* a kiedy landuse=education."
            }
        },
        {
            "id": 9902,
            "type": "Feature",
            "geometry": {
                "type": "Point",
                "coordinates": [
                    16.85125,
                    54.57346
                ]
            },
            "properties": {
                "isced:level": "1;2",
                "ref:rspo": 9902,
                "official_name": "Szko\u0142a Podstawowa Nr 1 im. Kapitana Leonida Teligi",
                "name": "Szko\u0142a Podstawowa Nr 1",
                "addr:country": "PL",
                "addr:postcode": "76-270",
                "addr:city": "Ustka",
                "addr:street": "Dar\u0142owska",
                "addr:housenumber": "18",
                "addr:teryt:simc": 3616,
                "addr:teryt:sym_ul": 977427,
                "contact:phone": "+48 598144624",
                "contact:email": "spnr1ustka@wp.pl",
                "contact:website": "http:\/\/www.sp1ustka.pl",
                "ref:regon": "000908219",
                "ref:vatin": "PL8392012981",
                "operator": "Miasto Ustka",
                "operator:type": "government",
                "amenity": "school"
            }
        },
        {
            "id": 66228,
            "type": "Feature",
            "geometry": {
                "type": "Point",
                "coordinates": [
                    16.84782,
                    54.57386
                ]
            },
            "properties": {
                "ref:rspo": 66228,
                "official_name": "Pomorskie Centrum Szkoleniowo - Doradcze w Ustce",
                "name": "Pomorskie Centrum Szkoleniowo - Doradcze w Ustce",
                "addr:country": "PL",
                "addr:postcode": "76-270",
                "addr:city": "Ustka",
                "addr:street": "R\u00f3\u017cana",
                "addr:housenumber": "8",
                "addr:teryt:simc": 19000,
                "addr:teryt:sym_ul": 977427,
                "contact:phone": "+48 669998128",
                "contact:email": "robertsmyslo@op.pl",
                "ref:regon": "221770273",
                "ref:vatin": "PL8391006702",
                "operator": "Robert Smys\u0142o",
                "operator:type": "private",
                "fixme": "w zale\u017cno\u015bci od przedmiotu dzia\u0142alno\u015bci (np. amenity=training + training=*, amenity=dancing_school, amenity=language_school, amenity=music_school)"
            }
        },
        {
            "id": 10225,
            "type": "Feature",
            "geometry": {
                "type": "Point",
                "coordinates": [
                    16.85615,
                    54.57604
                ]
            },
            "properties": {
                "ref:rspo": 10225,
                "official_name": "Miejskie Przedszkole Nr 3 w Ustce",
                "name": "Miejskie Przedszkole Nr 3 w Ustce",
                "addr:country": "PL",
                "addr:postcode": "76-270",
                "addr:city": "Ustka",
                "addr:street": "Polna",
                "addr:housenumber": "12",
                "addr:teryt:simc": 17011,
                "addr:teryt:sym_ul": 977427,
                "contact:phone": "+48 792900295",
                "contact:email": "mp3ustka@wp.pl",
                "contact:website": "http:\/\/www.przedszkole3.ustka.pl",
                "ref:regon": "221147982",
                "ref:vatin": "PL8393144319",
                "operator": "Miasto Ustka",
                "operator:type": "government",
                "amenity": "kindergarten"
            }
        },
        {
            "id": 4233,
            "type": "Feature",
            "geometry": {
                "type": "Point",
                "coordinates": [
                    16.87261,
                    54.57652
                ]
            },
            "properties": {
                "ref:rspo": 4233,
                "official_name": "Zesp\u00f3\u0142 Szk\u00f3\u0142 Og\u00f3lnokszta\u0142c\u0105cych I Technicznych w Ustce",
                "name": "Zesp\u00f3\u0142 Szk\u00f3\u0142 Og\u00f3lnokszta\u0142c\u0105cych I Technicznych w Ustce",
                "addr:country": "PL",
                "addr:postcode": "76-270",
                "addr:city": "Ustka",
                "addr:street": "Bursztynowa",
                "addr:housenumber": "12",
                "addr:teryt:simc": 2462,
                "addr:teryt:sym_ul": 977427,
                "contact:phone": "+48 598147106",
                "contact:email": "zsoitustka@wp.pl",
                "contact:website": "http:\/\/www.zsoitustka.edu.pl",
                "ref:regon": "221725321",
                "ref:vatin": "PL8393170305",
                "operator": "Powiat S\u0142upski",
                "operator:type": "government",
                "landuse": "education",
                "fixme": "amenity=school, amenity=college albo landuse=education w zale\u017cno\u015bci od tego, jakie plac\u00f3wki wchodz\u0105 w sk\u0142ad zespo\u0142u. Sprawd\u017a, kiedy stosowa\u0107 amenity=* a kiedy landuse=education.",
                "note": "Children RSPO: 17427;63421;68441;68590;68658"
            }
        },
        {
            "id": 17427,
            "type": "Feature",
            "geometry": {
                "type": "Point",
                "coordinates": [
                    16.87261,
                    54.57649
                ]
            },
            "properties": {
                "isced:level": "4",
                "ref:rspo": 17427,
                "official_name": "Szko\u0142a Policealna dla Doros\u0142ych w Ustce",
                "name": "Szko\u0142a Policealna dla Doros\u0142ych w Ustce",
                "addr:country": "PL",
                "addr:postcode": "76-270",
                "addr:city": "Ustka",
                "addr:street": "Bursztynowa",
                "addr:housenumber": "12",
                "addr:teryt:simc": 2462,
                "addr:teryt:sym_ul": 977427,
                "contact:phone": "+48 598147106",
                "contact:email": "zsoitustka@wp.pl",
                "ref:regon": "221746429",
                "operator": "Powiat S\u0142upski",
                "operator:type": "government",
                "amenity": "college",
                "note": "Parent RSPO: 4233"
            }
        },
        {
            "id": 63421,
            "type": "Feature",
            "geometry": {
                "type": "Point",
                "coordinates": [
                    16.87261,
                    54.576460000000004
                ]
            },
            "properties": {
                "isced:level": "3",
                "ref:rspo": 63421,
                "official_name": "Zesp\u00f3\u0142 Szk\u00f3\u0142 Og\u00f3lnokszta\u0142c\u0105cych I Technicznych w Ustce - Bran\u017cowa Szko\u0142a I Stopnia w Ustce",
                "name": "Zesp\u00f3\u0142 Szk\u00f3\u0142 Og\u00f3lnokszta\u0142c\u0105cych I Technicznych w Ustce - Bran\u017cowa Szko\u0142a I Stopnia w Ustce",
                "addr:country": "PL",
                "addr:postcode": "76-270",
                "addr:city": "Ustka",
                "addr:street": "Bursztynowa",
                "addr:housenumber": "12",
                "addr:teryt:simc": 2462,
                "addr:teryt:sym_ul": 977427,
                "contact:phone": "+48 598147106",
                "contact:email": "zsoitustka@wp.pl",
                "contact:website": "http:\/\/www.zsoitustka.edu.pl",
                "ref:regon": "771597140",
                "operator": "Powiat S\u0142upski",
                "operator:type": "government",
                "amenity": "school",
                "note": "Parent RSPO: 4233"
            }
        },
        {
            "id": 68441,
            "type": "Feature",
            "geometry": {
                "type": "Point",
                "coordinates": [
                    16.87261,
                    54.57643
                ]
            },
            "properties": {
                "isced:level": "3",
                "ref:rspo": 68441,
                "official_name": "Zesp\u00f3\u0142 Szk\u00f3\u0142 Og\u00f3lnokszta\u0142c\u0105cych I Technicznych w Ustce - Technikum",
                "name": "Zesp\u00f3\u0142 Szk\u00f3\u0142 Og\u00f3lnokszta\u0142c\u0105cych I Technicznych w Ustce - Technikum",
                "addr:country": "PL",
                "addr:postcode": "76-270",
                "addr:city": "Ustka",
                "addr:street": "Bursztynowa",
                "addr:housenumber": "12",
                "addr:teryt:simc": 2462,
                "addr:teryt:sym_ul": 977427,
                "contact:phone": "+48 598147106",
                "contact:email": "zsoitustka@wp.pl",
                "contact:website": "http:\/\/www.zsoitustka.edu.pl",
                "ref:regon": "771597127",
                "operator": "Powiat S\u0142upski",
                "operator:type": "government",
                "amenity": "school",
                "note": "Parent RSPO: 4233"
            }
        },
        {
            "id": 68590,
            "type": "Feature",
            "geometry": {
                "type": "Point",
                "coordinates": [
                    16.87261,
                    54.5764
                ]
            },
            "properties": {
                "isced:level": "3",
                "ref:rspo": 68590,
                "official_name": "Zesp\u00f3\u0142 Szk\u00f3\u0142 Og\u00f3lnokszta\u0142c\u0105cych I Technicznych w Ustce - Liceum Og\u00f3lnokszta\u0142c\u0105ce im. Miko\u0142aja Kopernika",
                "name": "Zesp\u00f3\u0142 Szk\u00f3\u0142 Og\u00f3lnokszta\u0142c\u0105cych I Technicznych w Ustce - Liceum Og\u00f3lnokszta\u0142c\u0105ce",
                "addr:country": "PL",
                "addr:postcode": "76-270",
                "addr:city": "Ustka",
                "addr:street": "Bursztynowa",
                "addr:housenumber": "12",
                "addr:teryt:simc": 2462,
                "addr:teryt:sym_ul": 977427,
                "contact:phone": "+48 598147106",
                "contact:email": "zsoitustka@wp.pl",
                "contact:website": "http:\/\/zsoitustka.edu.pl",
                "ref:regon": "000908231",
                "operator": "Powiat S\u0142upski",
                "operator:type": "government",
                "amenity": "school",
                "note": "Parent RSPO: 4233"
            }
        },
        {
            "id": 68658,
            "type": "Feature",
            "geometry": {
                "type": "Point",
                "coordinates": [
                    16.87261,
                    54.576370000000004
                ]
            },
            "properties": {
                "isced:level": "3",
                "ref:rspo": 68658,
                "official_name": "Zesp\u00f3\u0142 Szk\u00f3\u0142 Og\u00f3lnokszta\u0142c\u0105cych I Technicznych w Ustce - Liceum Og\u00f3lnokszta\u0142c\u0105ce dla Doros\u0142ych",
                "name": "Zesp\u00f3\u0142 Szk\u00f3\u0142 Og\u00f3lnokszta\u0142c\u0105cych I Technicznych w Ustce - Liceum Og\u00f3lnokszta\u0142c\u0105ce dla Doros\u0142ych",
                "addr:country": "PL",
                "addr:postcode": "76-270",
                "addr:city": "Ustka",
                "addr:street": "Bursztynowa",
                "addr:housenumber": "12",
                "addr:teryt:simc": 2462,
                "addr:teryt:sym_ul": 977427,
                "contact:phone": "+48 598147106",
                "contact:email": "zsoitustka@wp.pl",
                "contact:website": "http:\/\/www.zsoitustka.edu.pl",
                "ref:regon": "771628780",
                "operator": "Powiat S\u0142upski",
                "operator:type": "government",
                "amenity": "school",
                "note": "Parent RSPO: 4233"
            }
        },
        {
            "id": 10239,
            "type": "Feature",
            "geometry": {
                "type": "Point",
                "coordinates": [
                    16.86809,
                    54.57812
                ]
            },
            "properties": {
                "isced:level": "1;2",
                "ref:rspo": 10239,
                "official_name": "Szko\u0142a Podstawowa Nr 2 im. Kmdra Boles\u0142awa Romanowskiego w Ustce",
                "name": "Szko\u0142a Podstawowa Nr 2",
                "addr:country": "PL",
                "addr:postcode": "76-270",
                "addr:city": "Ustka",
                "addr:street": "Jagiello\u0144ska",
                "addr:housenumber": "1",
                "addr:teryt:simc": 7029,
                "addr:teryt:sym_ul": 977427,
                "contact:phone": "+48 598145081",
                "contact:email": "sekretariat@sp2.ustka.pl",
                "contact:website": "http:\/\/www.sp2ustka.edupage.org",
                "ref:regon": "000579649",
                "ref:vatin": "PL8391987456",
                "operator": "Miasto Ustka",
                "operator:type": "government",
                "amenity": "school"
            }
        },
        {
            "id": 124316,
            "type": "Feature",
            "geometry": {
                "type": "Point",
                "coordinates": [
                    16.85668,
                    54.57874
                ]
            },
            "properties": {
                "isced:level": "1;2",
                "ref:rspo": 124316,
                "official_name": "Niepubliczna Szko\u0142a Podstawowa Adventure w Ustce",
                "name": "Niepubliczna Szko\u0142a Podstawowa Adventure w Ustce",
                "addr:country": "PL",
                "addr:postcode": "76-270",
                "addr:city": "Ustka",
                "addr:street": "Dar\u0142owska",
                "addr:housenumber": "3B",
                "addr:teryt:simc": 3616,
                "addr:teryt:sym_ul": 977427,
                "contact:email": "szkola@adventure.edu.pl",
                "contact:website": "http:\/\/adventure.edu.pl",
                "ref:regon": "222148268",
                "ref:vatin": "PL8392903651",
                "operator": "Kaszubskie S\u0142oneczniki",
                "operator:type": "ngo",
                "amenity": "school"
            }
        },
        {
            "id": 126017,
            "type": "Feature",
            "geometry": {
                "type": "Point",
                "coordinates": [
                    16.85668,
                    54.57871
                ]
            },
            "properties": {
                "ref:rspo": 126017,
                "official_name": "S\u0142onecznikowe Przedszkole w Ustce",
                "name": "S\u0142onecznikowe Przedszkole w Ustce",
                "addr:country": "PL",
                "addr:postcode": "76-270",
                "addr:city": "Ustka",
                "addr:street": "Dar\u0142owska",
                "addr:housenumber": "3B",
                "addr:teryt:simc": 3616,
                "addr:teryt:sym_ul": 977427,
                "contact:phone": "+48 794567646",
                "contact:email": "ustka@sloneczniki.org",
                "contact:website": "http:\/\/www.przedszkola.sloneczniki.org",
                "ref:regon": "360134842",
                "operator": "Kaszubskie S\u0142oneczniki",
                "operator:type": "ngo",
                "amenity": "kindergarten"
            }
        },
        {
            "id": 196286,
            "type": "Feature",
            "geometry": {
                "type": "Point",
                "coordinates": [
                    16.86769,
                    54.5801
                ]
            },
            "properties": {
                "isced:level": "1;2",
                "ref:rspo": 196286,
                "official_name": "Szko\u0142a Podstawowa Nr 3 im. Genera\u0142a Mariusza Zaruskiego w Ustce",
                "name": "Szko\u0142a Podstawowa Nr 3",
                "addr:country": "PL",
                "addr:postcode": "76-270",
                "addr:city": "Ustka",
                "addr:street": "Walerego Wr\u00f3blewskiego",
                "addr:housenumber": "7",
                "addr:teryt:simc": 24838,
                "addr:teryt:sym_ul": 977427,
                "contact:phone": "+48 598144413",
                "contact:email": "sekretariat@sp3-ustka.pl",
                "contact:website": "http:\/\/sp3-ustka.pl",
                "ref:regon": "367991555",
                "operator": "Miasto Ustka",
                "operator:type": "government",
                "amenity": "school"
            }
        },
        {
            "id": 277755,
            "type": "Feature",
            "geometry": {
                "type": "Point",
                "coordinates": [
                    16.86784,
                    54.58044
                ]
            },
            "properties": {
                "ref:rspo": 277755,
                "official_name": "Zesp\u00f3\u0142 Plac\u00f3wek O\u015bwiatowych w Ustce",
                "name": "Zesp\u00f3\u0142 Plac\u00f3wek O\u015bwiatowych w Ustce",
                "addr:country": "PL",
                "addr:postcode": "76-270",
                "addr:city": "Ustka",
                "addr:street": "Walerego Wr\u00f3blewskiego",
                "addr:housenumber": "5",
                "addr:teryt:simc": 24838,
                "addr:teryt:sym_ul": 977427,
                "contact:phone": "+48 598144049",
                "contact:email": "mos@mos.ustka.pl",
                "contact:website": "http:\/\/www.mos.ustka.pl",
                "ref:regon": "389467825",
                "ref:vatin": "PL8393223823",
                "operator": "Powiat S\u0142upski",
                "operator:type": "government",
                "landuse": "education",
                "fixme": "amenity=school, amenity=college albo landuse=education w zale\u017cno\u015bci od tego, jakie plac\u00f3wki wchodz\u0105 w sk\u0142ad zespo\u0142u. Sprawd\u017a, kiedy stosowa\u0107 amenity=* a kiedy landuse=education.",
                "note": "Children RSPO: 63418;277754"
            }
        },
        {
            "id": 262260,
            "type": "Feature",
            "geometry": {
                "type": "Point",
                "coordinates": [
                    16.86784,
                    54.58041
                ]
            },
            "properties": {
                "isced:level": "1;2",
                "ref:rspo": 262260,
                "official_name": "M\u0142odzie\u017cowy O\u015brodek Socjoterapii w Ustce - Szko\u0142a Podstawowa Nr 4 w Ustce",
                "name": "M\u0142odzie\u017cowy O\u015brodek Socjoterapii w Ustce - Szko\u0142a Podstawowa Nr 4 w Ustce",
                "addr:country": "PL",
                "addr:postcode": "76-270",
                "addr:city": "Ustka",
                "addr:street": "Walerego Wr\u00f3blewskiego",
                "addr:housenumber": "5",
                "addr:teryt:simc": 24838,
                "addr:teryt:sym_ul": 977427,
                "contact:phone": "+48 598144049",
                "contact:email": "mos@mos.ustka.pl",
                "contact:website": "http:\/\/www.mos.ustka.pl",
                "ref:regon": "367994192",
                "operator": "Powiat S\u0142upski",
                "operator:type": "government",
                "amenity": "school",
                "note": "Parent RSPO: 63418"
            }
        },
        {
            "id": 63418,
            "type": "Feature",
            "geometry": {
                "type": "Point",
                "coordinates": [
                    16.86784,
                    54.580380000000005
                ]
            },
            "properties": {
                "ref:rspo": 63418,
                "official_name": "M\u0142odzie\u017cowy O\u015brodek Socjoterapii w Ustce",
                "name": "M\u0142odzie\u017cowy O\u015brodek Socjoterapii w Ustce",
                "addr:country": "PL",
                "addr:postcode": "76-270",
                "addr:city": "Ustka",
                "addr:street": "Walerego Wr\u00f3blewskiego",
                "addr:housenumber": "5",
                "addr:teryt:simc": 24838,
                "addr:teryt:sym_ul": 977427,
                "contact:phone": "+48 598144049",
                "contact:email": "mos@mos.ustka.pl",
                "contact:website": "http:\/\/mos.ustka.pl",
                "ref:regon": "771619426",
                "ref:vatin": "PL8393105118",
                "operator": "Powiat S\u0142upski",
                "operator:type": "government",
                "fixme": "amenity=social_facility + social_facility=group_home + social_facility:for=juvenile",
                "note": "Children RSPO: 262260Parent RSPO: 277755"
            }
        },
        {
            "id": 277754,
            "type": "Feature",
            "geometry": {
                "type": "Point",
                "coordinates": [
                    16.86784,
                    54.58035
                ]
            },
            "properties": {
                "ref:rspo": 277754,
                "official_name": "Powiatowa Bursa M\u0142odzie\u017cowa",
                "name": "Powiatowa Bursa M\u0142odzie\u017cowa",
                "addr:country": "PL",
                "addr:postcode": "76-270",
                "addr:city": "Ustka",
                "addr:street": "Walerego Wr\u00f3blewskiego",
                "addr:housenumber": "5",
                "addr:teryt:simc": 24838,
                "addr:teryt:sym_ul": 977427,
                "contact:phone": "+48 598144049",
                "contact:email": "mos@mos.ustka.pl",
                "contact:website": "http:\/\/www.mos.ustka.pl",
                "ref:regon": "389467765",
                "operator": "Powiat S\u0142upski",
                "operator:type": "government",
                "building": "dormitory",
                "note": "Parent RSPO: 277755"
            }
        },
        {
            "id": 113458,
            "type": "Feature",
            "geometry": {
                "type": "Point",
                "coordinates": [
                    16.85152,
                    54.58183
                ]
            },
            "properties": {
                "ref:rspo": 113458,
                "official_name": "Niepubliczne Przedszkole \"Na Wydmie\" w Ustce",
                "name": "Niepubliczne Przedszkole \"Na Wydmie\" w Ustce",
                "addr:country": "PL",
                "addr:postcode": "76-270",
                "addr:city": "Ustka",
                "addr:street": "Na Wydmie",
                "addr:housenumber": "10",
                "addr:teryt:simc": 35373,
                "addr:teryt:sym_ul": 977427,
                "contact:phone": "+48 536236135",
                "contact:email": "biuro@przedszkolenawydmie.pl",
                "contact:website": "http:\/\/przedszkolenawydmie.pl",
                "ref:regon": "221860600",
                "ref:vatin": "PL6421128249",
                "operator": "Dane Do Uzupe\u0142nienia",
                "operator:type": "private",
                "amenity": "kindergarten"
            }
        },
        {
            "id": 10219,
            "type": "Feature",
            "geometry": {
                "type": "Point",
                "coordinates": [
                    16.86126,
                    54.58419
                ]
            },
            "properties": {
                "ref:rspo": 10219,
                "official_name": "Miejskie Przedszkole Nr 1 w Ustce",
                "name": "Miejskie Przedszkole Nr 1 w Ustce",
                "addr:country": "PL",
                "addr:postcode": "76-270",
                "addr:city": "Ustka",
                "addr:street": "J\u00f3zefa Pi\u0142sudskiego",
                "addr:housenumber": "2",
                "addr:teryt:simc": 16264,
                "addr:teryt:sym_ul": 977427,
                "contact:phone": "+48 598144209",
                "contact:email": "przedszkole1.ustka@wp.pl",
                "contact:website": "https:\/\/przedszkole1ustka.edupage.org",
                "ref:regon": "221140626",
                "ref:vatin": "PL8393143805",
                "operator": "Miasto Ustka",
                "operator:type": "government",
                "amenity": "kindergarten"
            }
        },
        {
            "id": 10222,
            "type": "Feature",
            "geometry": {
                "type": "Point",
                "coordinates": [
                    16.86126,
                    54.58543
                ]
            },
            "properties": {
                "ref:rspo": 10222,
                "official_name": "Miejskie Przedszkole Nr 2 \"Delfinki\"",
                "name": "Miejskie Przedszkole Nr 2 \"Delfinki\"",
                "addr:country": "PL",
                "addr:postcode": "76-270",
                "addr:city": "Ustka",
                "addr:street": "Stefana \u017beromskiego",
                "addr:housenumber": "13",
                "addr:teryt:simc": 26469,
                "addr:teryt:sym_ul": 977427,
                "contact:phone": "+48 598144993",
                "contact:email": "mp2ustka@op.pl",
                "contact:website": "http:\/\/www.delfinki.ustka.pl",
                "ref:regon": "221140632",
                "ref:vatin": "PL8393143857",
                "operator": "Miasto Ustka",
                "operator:type": "government",
                "amenity": "kindergarten"
            }
        }
    ]
}