{
    "type": "FeatureCollection",
    "features": [
        {
            "id": 127373,
            "type": "Feature",
            "geometry": {
                "type": "Point",
                "coordinates": [
                    16.84202,
                    54.12123
                ]
            },
            "properties": {
                "ref:rspo": 127373,
                "official_name": "Niepubliczny Zesp\u00f3\u0142 Szkolno-Przedszkolny",
                "name": "Niepubliczny Zesp\u00f3\u0142 Szkolno-Przedszkolny",
                "addr:postcode": "77-230",
                "addr:place": "Przytocko",
                "addr:housenumber": "17",
                "addr:city:simc": 745183,
                "phone": "+48 598583828",
                "email": "szkola@szkola-przytocko.pl",
                "website": "http:\/\/szkola-przytocko.pl",
                "ref:regon": "361460704",
                "operator": "Stowarzyszenie \"My Dla Was\"",
                "operator:type": "ngo",
                "landuse": "education",
                "fixme": "amenity=school, amenity=college albo landuse=education w zale\u017cno\u015bci od tego, jakie plac\u00f3wki wchodz\u0105 w sk\u0142ad zespo\u0142u. Sprawd\u017a, kiedy stosowa\u0107 amenity=* a kiedy landuse=education.",
                "note": "Children RSPO: 118948;118950"
            }
        },
        {
            "id": 118948,
            "type": "Feature",
            "geometry": {
                "type": "Point",
                "coordinates": [
                    16.84202,
                    54.121199999999995
                ]
            },
            "properties": {
                "isced:level": "1;2",
                "ref:rspo": 118948,
                "official_name": "Niepubliczna Szko\u0142a Podstawowa im. Andrzeja Grubby w Przytocku",
                "name": "Niepubliczna Szko\u0142a Podstawowa",
                "addr:postcode": "77-230",
                "addr:place": "Przytocko",
                "addr:housenumber": "17",
                "addr:city:simc": 745183,
                "phone": "+48 598583828",
                "email": "sp.przytocko@wp.pl",
                "website": "http:\/\/szkola-przytocko.pl",
                "ref:regon": "221938241",
                "operator": "Stowarzyszenie \"My Dla Was\"",
                "operator:type": "ngo",
                "amenity": "school",
                "note": "Parent RSPO: 127373"
            }
        },
        {
            "id": 118950,
            "type": "Feature",
            "geometry": {
                "type": "Point",
                "coordinates": [
                    16.84202,
                    54.12117
                ]
            },
            "properties": {
                "ref:rspo": 118950,
                "official_name": "Niepubliczne Przedszkole w Przytocku",
                "name": "Niepubliczne Przedszkole w Przytocku",
                "addr:postcode": "77-230",
                "addr:place": "Przytocko",
                "addr:housenumber": "17",
                "addr:city:simc": 745183,
                "phone": "+48 598583828",
                "email": "sp.przytocko@wp.pl",
                "ref:regon": "221938264",
                "operator": "Stowarzyszenie \"My Dla Was\"",
                "operator:type": "ngo",
                "amenity": "kindergarten",
                "note": "Parent RSPO: 127373"
            }
        },
        {
            "id": 62357,
            "type": "Feature",
            "geometry": {
                "type": "Point",
                "coordinates": [
                    16.87607,
                    54.191
                ]
            },
            "properties": {
                "isced:level": "1;2",
                "ref:rspo": 62357,
                "official_name": "Szko\u0142a Podstawowa im. Janiny I Cyryla Zalewskich w Biesowicach",
                "name": "Szko\u0142a Podstawowa",
                "addr:postcode": "77-230",
                "addr:place": "Biesowice",
                "addr:housenumber": "38",
                "addr:city:simc": 744953,
                "phone": "+48 598577815",
                "email": "spbies@poczta.onet.pl",
                "website": "http:\/\/www.zs-biesowice.pl",
                "ref:regon": "771602845",
                "operator": "Gmina K\u0119pice",
                "operator:type": "government",
                "amenity": "school"
            }
        },
        {
            "id": 26711,
            "type": "Feature",
            "geometry": {
                "type": "Point",
                "coordinates": [
                    16.8527,
                    54.21868
                ]
            },
            "properties": {
                "isced:level": "3",
                "ref:rspo": 26711,
                "official_name": "Technikum Le\u015bne w Warcinie im. Prof. Stanis\u0142awa Soko\u0142owskiego",
                "name": "Technikum Le\u015bne w Warcinie",
                "addr:postcode": "77-230",
                "addr:place": "Warcino",
                "addr:housenumber": "1",
                "addr:city:simc": 745208,
                "phone": "+48 518961051",
                "email": "sekretariat@tlwarcino.pl",
                "website": "http:\/\/www.tlwarcino.pl",
                "ref:regon": "771598405",
                "operator": "Ministerstwo \u015arodowiska",
                "operator:type": "public",
                "amenity": "school"
            }
        },
        {
            "id": 42240,
            "type": "Feature",
            "geometry": {
                "type": "Point",
                "coordinates": [
                    16.85708,
                    54.22544
                ]
            },
            "properties": {
                "isced:level": "1;2",
                "ref:rspo": 42240,
                "official_name": "Szko\u0142a Podstawowa w Warcinie im. Ks. Pra\u0142ata Alfreda Osipowicza",
                "name": "Szko\u0142a Podstawowa w Warcinie",
                "addr:postcode": "77-230",
                "addr:place": "Warcino",
                "addr:housenumber": "21",
                "addr:city:simc": 745208,
                "phone": "+48 598576519",
                "email": "sekretariat@spwarcino.pl",
                "website": "http:\/\/spwarcino.pl",
                "ref:regon": "001126186",
                "ref:vatin": "PL8391036583",
                "operator": "Gmina K\u0119pice",
                "operator:type": "government",
                "amenity": "school"
            }
        },
        {
            "id": 42236,
            "type": "Feature",
            "geometry": {
                "type": "Point",
                "coordinates": [
                    16.88707,
                    54.24283
                ]
            },
            "properties": {
                "ref:rspo": 42236,
                "official_name": "Zesp\u00f3\u0142 Szk\u00f3\u0142 w K\u0119picach",
                "name": "Zesp\u00f3\u0142 Szk\u00f3\u0142 w K\u0119picach",
                "addr:postcode": "77-230",
                "addr:city": "K\u0119pice",
                "addr:street": "Szkolna",
                "addr:housenumber": "1",
                "addr:city:simc": 977344,
                "addr:street:sym_ul": 21970,
                "phone": "+48 598576631",
                "email": "spke@op.pl",
                "website": "http:\/\/zskepice.pl",
                "ref:regon": "221578914",
                "ref:vatin": "PL8393168917",
                "operator": "Gmina K\u0119pice",
                "operator:type": "government",
                "landuse": "education",
                "fixme": "amenity=school, amenity=college albo landuse=education w zale\u017cno\u015bci od tego, jakie plac\u00f3wki wchodz\u0105 w sk\u0142ad zespo\u0142u. Sprawd\u017a, kiedy stosowa\u0107 amenity=* a kiedy landuse=education.",
                "note": "Children RSPO: 62358;62359"
            }
        },
        {
            "id": 62359,
            "type": "Feature",
            "geometry": {
                "type": "Point",
                "coordinates": [
                    16.88707,
                    54.242799999999995
                ]
            },
            "properties": {
                "isced:level": "1;2",
                "ref:rspo": 62359,
                "official_name": "Szko\u0142a Podstawowa im. Ppor. Tadeusza Bielaka w K\u0119picach",
                "name": "Szko\u0142a Podstawowa",
                "addr:postcode": "77-230",
                "addr:city": "K\u0119pice",
                "addr:street": "Szkolna",
                "addr:housenumber": "1",
                "addr:city:simc": 977344,
                "addr:street:sym_ul": 21970,
                "phone": "+48 598576631",
                "email": "spke@op.pl",
                "ref:regon": "000262800",
                "ref:vatin": "PL8391036620",
                "operator": "Gmina K\u0119pice",
                "operator:type": "government",
                "amenity": "school",
                "note": "Parent RSPO: 42236"
            }
        },
        {
            "id": 62358,
            "type": "Feature",
            "geometry": {
                "type": "Point",
                "coordinates": [
                    16.88558,
                    54.24618
                ]
            },
            "properties": {
                "ref:rspo": 62358,
                "official_name": "Przedszkole Samorz\u0105dowe w K\u0119picach",
                "name": "Przedszkole Samorz\u0105dowe w K\u0119picach",
                "addr:postcode": "77-230",
                "addr:city": "K\u0119pice",
                "addr:street": "Plac Wolno\u015bci",
                "addr:housenumber": "21",
                "addr:city:simc": 977344,
                "addr:street:sym_ul": 16414,
                "phone": "+48 598576738",
                "email": "spke@op.pl",
                "ref:regon": "221578950",
                "operator": "Gmina K\u0119pice",
                "operator:type": "government",
                "amenity": "kindergarten",
                "note": "Parent RSPO: 42236"
            }
        },
        {
            "id": 62355,
            "type": "Feature",
            "geometry": {
                "type": "Point",
                "coordinates": [
                    16.95983,
                    54.2774
                ]
            },
            "properties": {
                "isced:level": "1;2",
                "ref:rspo": 62355,
                "official_name": "Szko\u0142a Podstawowa im. Kawaler\u00f3w Orderu U\u015bmiechu w Barcinie",
                "name": "Szko\u0142a Podstawowa",
                "addr:postcode": "77-230",
                "addr:place": "Barcino",
                "addr:housenumber": "59",
                "addr:city:simc": 744887,
                "phone": "+48 598577415",
                "email": "zsbarcino@op.pl",
                "ref:regon": "771602868",
                "operator": "Gmina K\u0119pice",
                "operator:type": "government",
                "amenity": "school"
            }
        },
        {
            "id": 62352,
            "type": "Feature",
            "geometry": {
                "type": "Point",
                "coordinates": [
                    16.87904,
                    54.29794
                ]
            },
            "properties": {
                "isced:level": "1;2",
                "ref:rspo": 62352,
                "official_name": "Szko\u0142a Podstawowa w Korzybiu",
                "name": "Szko\u0142a Podstawowa w Korzybiu",
                "addr:postcode": "77-230",
                "addr:city": "Korzybie",
                "addr:street": "Dworcowa",
                "addr:housenumber": "6",
                "addr:city:simc": 745042,
                "addr:street:sym_ul": 4434,
                "phone": "+48 598577326",
                "email": "spkorzybie@poczta.onet.pl",
                "ref:regon": "771602880",
                "operator": "Gmina K\u0119pice",
                "operator:type": "government",
                "amenity": "school"
            }
        }
    ]
}