{
    "type": "FeatureCollection",
    "features": [
        {
            "id": 34502,
            "type": "Feature",
            "geometry": {
                "type": "Point",
                "coordinates": [
                    17.02303,
                    54.36583
                ]
            },
            "properties": {
                "isced:level": "1;2",
                "ref:rspo": 34502,
                "official_name": "Szko\u0142a Podstawowa im. Polskich Olimpijczyk\u00f3w w Kwakowie",
                "name": "Szko\u0142a Podstawowa",
                "addr:postcode": "76-251",
                "addr:city": "Kwakowo",
                "addr:street": "S\u0142upska",
                "addr:housenumber": "5",
                "addr:city:simc": 745361,
                "addr:street:sym_ul": 20316,
                "phone": "+48 598462080",
                "email": "sekretariat@sp-kwakowo.pl",
                "website": "http:\/\/www.sp-kwakowo.pl",
                "ref:regon": "001277376",
                "ref:vatin": "PL8391323905",
                "operator": "Gmina Kobylnica",
                "operator:type": "government",
                "amenity": "school"
            }
        },
        {
            "id": 34500,
            "type": "Feature",
            "geometry": {
                "type": "Point",
                "coordinates": [
                    16.9645,
                    54.383
                ]
            },
            "properties": {
                "isced:level": "1;2",
                "ref:rspo": 34500,
                "official_name": "Szko\u0142a Podstawowa im. Jana Kochanowskiego w Ko\u0144czewie",
                "name": "Szko\u0142a Podstawowa",
                "addr:postcode": "76-251",
                "addr:city": "Ko\u0144czewo",
                "addr:street": "Szkolna",
                "addr:housenumber": "1",
                "addr:city:simc": 745310,
                "addr:street:sym_ul": 21970,
                "phone": "+48 598462385",
                "email": "spkonczewo@kobylnica.pl",
                "website": "http:\/\/www.spkonczewo.edupage.org",
                "ref:regon": "001140938",
                "ref:vatin": "PL8391036548",
                "operator": "Gmina Kobylnica",
                "operator:type": "government",
                "amenity": "school"
            }
        },
        {
            "id": 34498,
            "type": "Feature",
            "geometry": {
                "type": "Point",
                "coordinates": [
                    16.9042299,
                    54.38991
                ]
            },
            "properties": {
                "isced:level": "1;2",
                "ref:rspo": 34498,
                "official_name": "Szko\u0142a Podstawowa im. Ksi\u0105\u017c\u0105t Pomorskich w S\u0142onowicach",
                "name": "Szko\u0142a Podstawowa",
                "addr:postcode": "76-251",
                "addr:place": "S\u0142onowice",
                "addr:housenumber": "4",
                "addr:city:simc": 745480,
                "phone": "+48 598462759",
                "email": "spslonowice@kobylnica.pl",
                "website": "http:\/\/spslonowice.edupage.org",
                "ref:regon": "001277360",
                "ref:vatin": "PL8391721787",
                "operator": "Gmina Kobylnica",
                "operator:type": "government",
                "amenity": "school"
            }
        },
        {
            "id": 48142,
            "type": "Feature",
            "geometry": {
                "type": "Point",
                "coordinates": [
                    16.86633,
                    54.42378
                ]
            },
            "properties": {
                "isced:level": "1;2",
                "ref:rspo": 48142,
                "official_name": "Szko\u0142a Podstawowa im. Polskich Noblist\u00f3w w Sycewicach",
                "name": "Szko\u0142a Podstawowa",
                "addr:postcode": "76-251",
                "addr:city": "Sycewice",
                "addr:street": "Szkolna",
                "addr:housenumber": "1",
                "addr:city:simc": 745504,
                "addr:street:sym_ul": 21970,
                "phone": "+48 598111421",
                "email": "sekretariat@spsycewice.pl",
                "website": "http:\/\/www.gims.one.pl",
                "ref:regon": "001141895",
                "ref:vatin": "PL8393197936",
                "operator": "Gmina Kobylnica",
                "operator:type": "government",
                "amenity": "school"
            }
        },
        {
            "id": 48403,
            "type": "Feature",
            "geometry": {
                "type": "Point",
                "coordinates": [
                    17.0001,
                    54.43369
                ]
            },
            "properties": {
                "ref:rspo": 48403,
                "official_name": "Niepubliczny Dom Przedszkolaka \"Pluszowy Zak\u0105tek\"",
                "name": "Niepubliczny Dom Przedszkolaka \"Pluszowy Zak\u0105tek\"",
                "addr:postcode": "76-251",
                "addr:city": "Kobylnica",
                "addr:street": "G\u0142\u00f3wna",
                "addr:housenumber": "70",
                "addr:city:simc": 745289,
                "addr:street:sym_ul": 5635,
                "email": "pluszowyzakatek@interia.pl",
                "ref:regon": "221763468",
                "ref:vatin": "PL8391393538",
                "operator": "Halina Ko\u017cluk",
                "operator:type": "private",
                "amenity": "kindergarten"
            }
        },
        {
            "id": 121371,
            "type": "Feature",
            "geometry": {
                "type": "Point",
                "coordinates": [
                    16.99811,
                    54.43905
                ]
            },
            "properties": {
                "ref:rspo": 121371,
                "official_name": "S\u0142onecznikowe Przedszkole w Kobylnicy",
                "name": "S\u0142onecznikowe Przedszkole w Kobylnicy",
                "addr:postcode": "76-251",
                "addr:city": "Kobylnica",
                "addr:street": "G\u0142\u00f3wna",
                "addr:housenumber": "65",
                "addr:city:simc": 745289,
                "addr:street:sym_ul": 5635,
                "phone": "+48 608857171",
                "email": "m.cieslicka@sloneczniki.org",
                "ref:regon": "222013568",
                "ref:vatin": "PL8392903651",
                "operator": "Kaszubskie S\u0142oneczniki",
                "operator:type": "ngo",
                "amenity": "kindergarten"
            }
        },
        {
            "id": 40173,
            "type": "Feature",
            "geometry": {
                "type": "Point",
                "coordinates": [
                    16.99823,
                    54.44021
                ]
            },
            "properties": {
                "isced:level": "1;2",
                "ref:rspo": 40173,
                "official_name": "Szko\u0142a Podstawowa im. Kornela Makuszy\u0144skiego w Kobylnicy",
                "name": "Szko\u0142a Podstawowa",
                "addr:postcode": "76-251",
                "addr:city": "Kobylnica",
                "addr:street": "G\u0142\u00f3wna",
                "addr:housenumber": "63",
                "addr:city:simc": 745289,
                "addr:street:sym_ul": 5635,
                "phone": "+48 598415212",
                "email": "sekretariat@spkobylnica.pl",
                "website": "http:\/\/www.spkobylnica.pl",
                "ref:regon": "000647463",
                "ref:vatin": "PL8393197913",
                "operator": "Gmina Kobylnica",
                "operator:type": "government",
                "amenity": "school"
            }
        },
        {
            "id": 126864,
            "type": "Feature",
            "geometry": {
                "type": "Point",
                "coordinates": [
                    16.94699,
                    54.44469
                ]
            },
            "properties": {
                "ref:rspo": 126864,
                "official_name": "Niepubliczne Przedszkole Franio",
                "name": "Niepubliczne Przedszkole Franio",
                "addr:postcode": "76-251",
                "addr:city": "Boles\u0142awice",
                "addr:street": "Morelowa",
                "addr:housenumber": "1",
                "addr:city:simc": 745237,
                "addr:street:sym_ul": 13283,
                "phone": "+48 662685808",
                "email": "franionp@wp.pl",
                "website": "http:\/\/przedszkole-franio.pl\/",
                "ref:regon": "360825010",
                "ref:vatin": "PL8393042435",
                "operator": "Angelika Opali\u0144ska",
                "operator:type": "private",
                "amenity": "kindergarten"
            }
        },
        {
            "id": 129920,
            "type": "Feature",
            "geometry": {
                "type": "Point",
                "coordinates": [
                    16.95454,
                    54.44799
                ]
            },
            "properties": {
                "ref:rspo": 129920,
                "official_name": "O\u015brodek Szkoleniowy Opali\u0144ski",
                "name": "O\u015brodek Szkoleniowy Opali\u0144ski",
                "addr:postcode": "76-251",
                "addr:city": "Boles\u0142awice",
                "addr:street": "S\u0142upska",
                "addr:housenumber": "5",
                "addr:city:simc": 745237,
                "addr:street:sym_ul": 20316,
                "phone": "+48 598415332",
                "email": "opalinski12@wp.pl",
                "ref:regon": "363093204",
                "ref:vatin": "PL8392662590",
                "operator": "\"Opali\u0144ski\" Sp\u00f3\u0142ka Z Ograniczon\u0105 Odpowiedzialno\u015bci\u0105",
                "operator:type": "private",
                "fixme": "w zale\u017cno\u015bci od przedmiotu dzia\u0142alno\u015bci (np. amenity=training + training=*, amenity=dancing_school, amenity=language_school, amenity=music_school)"
            }
        }
    ]
}