{
    "type": "FeatureCollection",
    "features": [
        {
            "id": 19516,
            "type": "Feature",
            "geometry": {
                "type": "Point",
                "coordinates": [
                    17.84504,
                    50.30369
                ]
            },
            "properties": {
                "isced:level": "1;2",
                "ref:rspo": 19516,
                "official_name": "Szko\u0142a Podstawowa im.adama Mickiewicza Z Oddzia\u0142em Przedszkolnym w Szonowie w Szonowie",
                "name": "Szko\u0142a Podstawowa im.adama Mickiewicza Z Oddzia\u0142em Przedszkolnym w Szonowie w Szonowie",
                "addr:country": "PL",
                "addr:postcode": "48-250",
                "addr:place": "Szon\u00f3w",
                "addr:housenumber": "46",
                "addr:teryt:sym_ul": 493913,
                "contact:phone": "+48 774371827",
                "contact:email": "spszonow@glogowek.pl",
                "contact:website": "http:\/\/www.pspszonow.superszkolna.pl",
                "ref:regon": "001166300",
                "ref:vatin": "PL7551716672",
                "operator": "Gmina G\u0142og\u00f3wek",
                "operator:type": "government",
                "amenity": "school"
            }
        },
        {
            "id": 109198,
            "type": "Feature",
            "geometry": {
                "type": "Point",
                "coordinates": [
                    17.77138,
                    50.3115
                ]
            },
            "properties": {
                "isced:level": "1;2",
                "ref:rspo": 109198,
                "official_name": "Szko\u0142a Podstawowa im. Jana Paw\u0142a II w Rac\u0142awicach \u015aL\u0105skich",
                "name": "Szko\u0142a Podstawowa",
                "addr:country": "PL",
                "addr:postcode": "48-250",
                "addr:city": "Rac\u0142awice \u015al\u0105skie",
                "addr:street": "Zwyci\u0119stwa",
                "addr:housenumber": "21",
                "addr:teryt:simc": 26326,
                "addr:teryt:sym_ul": 493882,
                "contact:phone": "+48 774376517",
                "contact:email": "spraclawice@glogowek.pl",
                "contact:website": "http:\/\/www.sp.raclawice.net",
                "ref:regon": "001165795",
                "ref:vatin": "PL7551812476",
                "operator": "Gmina G\u0142og\u00f3wek",
                "operator:type": "government",
                "amenity": "school"
            }
        },
        {
            "id": 19599,
            "type": "Feature",
            "geometry": {
                "type": "Point",
                "coordinates": [
                    17.77381,
                    50.31267
                ]
            },
            "properties": {
                "ref:rspo": 19599,
                "official_name": "Przedszkole Publiczne w Rac\u0142awicach \u015aL\u0105skich",
                "name": "Przedszkole Publiczne w Rac\u0142awicach \u015aL\u0105skich",
                "addr:country": "PL",
                "addr:postcode": "48-250",
                "addr:city": "Rac\u0142awice \u015al\u0105skie",
                "addr:street": "Ko\u015bcielna",
                "addr:housenumber": "3",
                "addr:teryt:simc": 9546,
                "addr:teryt:sym_ul": 493882,
                "contact:phone": "+48 774376525",
                "contact:email": "ppraclawice@glogowek.pl",
                "ref:regon": "530587578",
                "ref:vatin": "PL7551716471",
                "operator": "Gmina G\u0142og\u00f3wek",
                "operator:type": "government",
                "amenity": "kindergarten"
            }
        },
        {
            "id": 19446,
            "type": "Feature",
            "geometry": {
                "type": "Point",
                "coordinates": [
                    17.93857,
                    50.33709
                ]
            },
            "properties": {
                "isced:level": "1;2",
                "ref:rspo": 19446,
                "official_name": "Szko\u0142a Podstawowa w Biedrzychowicach",
                "name": "Szko\u0142a Podstawowa w Biedrzychowicach",
                "addr:country": "PL",
                "addr:postcode": "48-250",
                "addr:place": "Biedrzychowice",
                "addr:housenumber": "110",
                "addr:teryt:sym_ul": 493729,
                "contact:phone": "+48 774371726",
                "contact:email": "spbiedrzychowice@glogowek.pl",
                "contact:website": "http:\/\/spbiedrzychowice.szkolnastrona.pl",
                "ref:regon": "001165803",
                "ref:vatin": "PL7551716436",
                "operator": "Gmina G\u0142og\u00f3wek",
                "operator:type": "government",
                "amenity": "school"
            }
        },
        {
            "id": 19468,
            "type": "Feature",
            "geometry": {
                "type": "Point",
                "coordinates": [
                    17.99017,
                    50.34201
                ]
            },
            "properties": {
                "isced:level": "1;2",
                "ref:rspo": 19468,
                "official_name": "Szko\u0142a Podstawowa Z Oddzia\u0142em Przedszkolnym w Twardawie",
                "name": "Szko\u0142a Podstawowa Z Oddzia\u0142em Przedszkolnym w Twardawie",
                "addr:country": "PL",
                "addr:postcode": "48-250",
                "addr:city": "Twardawa",
                "addr:street": "Kozielska",
                "addr:housenumber": "6",
                "addr:teryt:simc": 9714,
                "addr:teryt:sym_ul": 493936,
                "contact:phone": "+48 774371026",
                "contact:email": "sptwardawa@glogowek.pl",
                "contact:website": "http:\/\/sp-twardawa.pl",
                "ref:regon": "001166292",
                "ref:vatin": "PL7551716577",
                "operator": "Gmina G\u0142og\u00f3wek",
                "operator:type": "government",
                "amenity": "school"
            }
        },
        {
            "id": 19325,
            "type": "Feature",
            "geometry": {
                "type": "Point",
                "coordinates": [
                    17.86666,
                    50.34643
                ]
            },
            "properties": {
                "isced:level": "1;2",
                "ref:rspo": 19325,
                "official_name": "Szko\u0142a Podstawowa Nr2 im. Henryka Sienkiewicza w G\u0142og\u00f3wku",
                "name": "Szko\u0142a Podstawowa Nr2",
                "addr:country": "PL",
                "addr:postcode": "48-250",
                "addr:city": "G\u0142og\u00f3wek",
                "addr:street": "Sobieskiego",
                "addr:housenumber": "6",
                "addr:teryt:simc": 20421,
                "addr:teryt:sym_ul": 965281,
                "contact:phone": "+48 774069290",
                "contact:email": "sp2glogowek@glogowek.pl",
                "ref:regon": "001166317",
                "ref:vatin": "PL7551716608",
                "operator": "Gmina G\u0142og\u00f3wek",
                "operator:type": "government",
                "amenity": "school"
            }
        },
        {
            "id": 6268,
            "type": "Feature",
            "geometry": {
                "type": "Point",
                "coordinates": [
                    17.86476,
                    50.35514
                ]
            },
            "properties": {
                "ref:rspo": 6268,
                "official_name": "Szkolne Schronisko M\u0142odzie\u017cowe w G\u0142og\u00f3wku",
                "name": "Szkolne Schronisko M\u0142odzie\u017cowe w G\u0142og\u00f3wku",
                "addr:country": "PL",
                "addr:postcode": "48-250",
                "addr:city": "G\u0142og\u00f3wek",
                "addr:street": "Tadeusza Ko\u015bciuszki",
                "addr:housenumber": "12",
                "addr:teryt:simc": 9572,
                "addr:teryt:sym_ul": 965281,
                "contact:phone": "+48 774373207",
                "contact:email": "oswglogowek@glogowek.pl",
                "ref:regon": "161477987",
                "operator": "Gmina G\u0142og\u00f3wek",
                "operator:type": "government",
                "tourism": "hostel"
            }
        },
        {
            "id": 19288,
            "type": "Feature",
            "geometry": {
                "type": "Point",
                "coordinates": [
                    17.86927,
                    50.3553799
                ]
            },
            "properties": {
                "isced:level": "1;2",
                "ref:rspo": 19288,
                "official_name": "Szko\u0142a Podstawowa Nr 1 im.marii Sk\u0142odowskiej-Curie w G\u0142og\u00f3wku",
                "name": "Szko\u0142a Podstawowa Nr 1 im.marii Sk\u0142odowskiej-Curie w G\u0142og\u00f3wku",
                "addr:country": "PL",
                "addr:postcode": "48-250",
                "addr:city": "G\u0142og\u00f3wek",
                "addr:street": "Jana Paw\u0142a II",
                "addr:housenumber": "1",
                "addr:teryt:simc": 7123,
                "addr:teryt:sym_ul": 965281,
                "contact:phone": "+48 774373420",
                "contact:email": "sp1glogowek@glogowek.pl",
                "ref:regon": "000645174",
                "ref:vatin": "PL7551716583",
                "operator": "Gmina G\u0142og\u00f3wek",
                "operator:type": "government",
                "amenity": "school"
            }
        },
        {
            "id": 19549,
            "type": "Feature",
            "geometry": {
                "type": "Point",
                "coordinates": [
                    17.86623,
                    50.35551
                ]
            },
            "properties": {
                "ref:rspo": 19549,
                "official_name": "Przedszkole Publiczne Nr3 w G\u0142og\u00f3wku",
                "name": "Przedszkole Publiczne Nr3 w G\u0142og\u00f3wku",
                "addr:country": "PL",
                "addr:postcode": "48-250",
                "addr:city": "G\u0142og\u00f3wek",
                "addr:street": "Korfantego",
                "addr:housenumber": "3",
                "addr:teryt:simc": 9353,
                "addr:teryt:sym_ul": 965281,
                "contact:phone": "+48 774373732",
                "contact:email": "pp3glogowek@glogowek.pl",
                "ref:regon": "530587420",
                "ref:vatin": "PL7551716689",
                "operator": "Gmina G\u0142og\u00f3wek",
                "operator:type": "government",
                "amenity": "kindergarten"
            }
        },
        {
            "id": 3853,
            "type": "Feature",
            "geometry": {
                "type": "Point",
                "coordinates": [
                    17.86499,
                    50.35569
                ]
            },
            "properties": {
                "ref:rspo": 3853,
                "official_name": "Specjalny O\u015brodek Szkolno_Wychowawczy w G\u0142og\u00f3wku",
                "name": "Specjalny O\u015brodek Szkolno_Wychowawczy w G\u0142og\u00f3wku",
                "addr:country": "PL",
                "addr:postcode": "48-250",
                "addr:city": "G\u0142og\u00f3wek",
                "addr:street": "Batorego",
                "addr:housenumber": "2",
                "addr:teryt:simc": 886,
                "addr:teryt:sym_ul": 965281,
                "contact:phone": "+48 774372929",
                "contact:email": "oswglogowek@glogowek.pl",
                "contact:website": "http:\/\/www.osw-glogowek.pl",
                "ref:regon": "530518258",
                "operator": "Gmina G\u0142og\u00f3wek",
                "operator:type": "government",
                "amenity": "school",
                "note": "Children RSPO: 6272;6274"
            }
        },
        {
            "id": 6272,
            "type": "Feature",
            "geometry": {
                "type": "Point",
                "coordinates": [
                    17.86499,
                    50.35566
                ]
            },
            "properties": {
                "isced:level": "1;2",
                "ref:rspo": 6272,
                "official_name": "Szko\u0142a Podstawowa Nr 4 Specjalna w G\u0142og\u00f3wku",
                "name": "Szko\u0142a Podstawowa Nr 4 Specjalna w G\u0142og\u00f3wku",
                "addr:country": "PL",
                "addr:postcode": "48-250",
                "addr:city": "G\u0142og\u00f3wek",
                "addr:street": "Batorego",
                "addr:housenumber": "2",
                "addr:teryt:simc": 886,
                "addr:teryt:sym_ul": 965281,
                "contact:phone": "+48 774372929",
                "contact:email": "oswglogowek@glogowek.pl",
                "ref:regon": "532209886",
                "operator": "Gmina G\u0142og\u00f3wek",
                "operator:type": "government",
                "amenity": "school",
                "note": "Parent RSPO: 3853"
            }
        },
        {
            "id": 6274,
            "type": "Feature",
            "geometry": {
                "type": "Point",
                "coordinates": [
                    17.86499,
                    50.355630000000005
                ]
            },
            "properties": {
                "ref:rspo": 6274,
                "official_name": "Szko\u0142a Specjalna Przysposabiaj\u0105ca Do Pracy w G\u0142og\u00f3wku",
                "name": "Szko\u0142a Specjalna Przysposabiaj\u0105ca Do Pracy w G\u0142og\u00f3wku",
                "addr:country": "PL",
                "addr:postcode": "48-250",
                "addr:city": "G\u0142og\u00f3wek",
                "addr:street": "Batorego",
                "addr:housenumber": "2",
                "addr:teryt:simc": 886,
                "addr:teryt:sym_ul": 965281,
                "contact:phone": "+48 774372929",
                "contact:email": "oswglogowek@glogowek.pl",
                "ref:regon": "160149420",
                "operator": "Gmina G\u0142og\u00f3wek",
                "operator:type": "government",
                "amenity": "school",
                "note": "Parent RSPO: 3853"
            }
        },
        {
            "id": 19572,
            "type": "Feature",
            "geometry": {
                "type": "Point",
                "coordinates": [
                    17.8642499,
                    50.35765
                ]
            },
            "properties": {
                "ref:rspo": 19572,
                "official_name": "Przedszkole Publiczne Nr4 w G\u0142og\u00f3wku",
                "name": "Przedszkole Publiczne Nr4 w G\u0142og\u00f3wku",
                "addr:country": "PL",
                "addr:postcode": "48-250",
                "addr:city": "G\u0142og\u00f3wek",
                "addr:street": "Powsta\u0144c\u00f3w",
                "addr:housenumber": "16",
                "addr:teryt:simc": 17354,
                "addr:teryt:sym_ul": 965281,
                "contact:phone": "+48 774373288",
                "contact:email": "pp4glogowek@glogowek.pl",
                "contact:website": "http:\/\/ppnr4glogowek.szkolnastrona.pl",
                "ref:regon": "530587450",
                "ref:vatin": "PL7551716560",
                "operator": "Gmina G\u0142og\u00f3wek",
                "operator:type": "government",
                "amenity": "kindergarten"
            }
        },
        {
            "id": 3855,
            "type": "Feature",
            "geometry": {
                "type": "Point",
                "coordinates": [
                    17.8681899,
                    50.35937
                ]
            },
            "properties": {
                "ref:rspo": 3855,
                "official_name": "Zesp\u00f3\u0142 Szk\u00f3\u0142 w G\u0142og\u00f3wku",
                "name": "Zesp\u00f3\u0142 Szk\u00f3\u0142 w G\u0142og\u00f3wku",
                "addr:country": "PL",
                "addr:postcode": "48-250",
                "addr:city": "G\u0142og\u00f3wek",
                "addr:street": "Powsta\u0144c\u00f3w",
                "addr:housenumber": "34",
                "addr:teryt:simc": 17354,
                "addr:teryt:sym_ul": 965281,
                "contact:phone": "+48 773373301",
                "contact:email": "sekretariat@zsglogowek.pl",
                "contact:website": "http:\/\/www.zsglogowek.pl",
                "ref:regon": "000743126",
                "operator": "Powiat Prudnicki",
                "operator:type": "government",
                "landuse": "education",
                "fixme": "amenity=school, amenity=college albo landuse=education w zale\u017cno\u015bci od tego, jakie plac\u00f3wki wchodz\u0105 w sk\u0142ad zespo\u0142u. Sprawd\u017a, kiedy stosowa\u0107 amenity=* a kiedy landuse=education.",
                "note": "Children RSPO: 7831;7832;7870;7872;8687"
            }
        },
        {
            "id": 7831,
            "type": "Feature",
            "geometry": {
                "type": "Point",
                "coordinates": [
                    17.8681899,
                    50.359339999999996
                ]
            },
            "properties": {
                "isced:level": "3",
                "ref:rspo": 7831,
                "official_name": "Liceum Og\u00f3lnokszta\u0142c\u0105ce w G\u0142og\u00f3wku",
                "name": "Liceum Og\u00f3lnokszta\u0142c\u0105ce w G\u0142og\u00f3wku",
                "addr:country": "PL",
                "addr:postcode": "48-250",
                "addr:city": "G\u0142og\u00f3wek",
                "addr:street": "Powsta\u0144c\u00f3w",
                "addr:housenumber": "34",
                "addr:teryt:simc": 17354,
                "addr:teryt:sym_ul": 965281,
                "contact:phone": "+48 774373301",
                "contact:email": "sekretariat@zsglogowek.pl",
                "contact:website": "http:\/\/www.zsglogowek.pl",
                "ref:regon": "532385650",
                "operator": "Powiat Prudnicki",
                "operator:type": "government",
                "amenity": "school",
                "note": "Parent RSPO: 3855"
            }
        },
        {
            "id": 7832,
            "type": "Feature",
            "geometry": {
                "type": "Point",
                "coordinates": [
                    17.8681899,
                    50.35931
                ]
            },
            "properties": {
                "isced:level": "3",
                "ref:rspo": 7832,
                "official_name": "Liceum Og\u00f3lnokszta\u0142c\u0105ce dla Doros\u0142ych w G\u0142og\u00f3wku",
                "name": "Liceum Og\u00f3lnokszta\u0142c\u0105ce dla Doros\u0142ych w G\u0142og\u00f3wku",
                "addr:country": "PL",
                "addr:postcode": "48-250",
                "addr:city": "G\u0142og\u00f3wek",
                "addr:street": "Powsta\u0144c\u00f3w",
                "addr:housenumber": "34",
                "addr:teryt:simc": 17354,
                "addr:teryt:sym_ul": 965281,
                "contact:phone": "+48 774373301",
                "contact:email": "sekretariat@zsglogowek.pl",
                "contact:website": "http:\/\/www.zsglogowek.pl",
                "ref:regon": "161478509",
                "operator": "Powiat Prudnicki",
                "operator:type": "government",
                "amenity": "school",
                "note": "Parent RSPO: 3855"
            }
        },
        {
            "id": 7870,
            "type": "Feature",
            "geometry": {
                "type": "Point",
                "coordinates": [
                    17.8681899,
                    50.35928
                ]
            },
            "properties": {
                "isced:level": "4",
                "ref:rspo": 7870,
                "official_name": "Szko\u0142a Policealna w G\u0142og\u00f3wku",
                "name": "Szko\u0142a Policealna w G\u0142og\u00f3wku",
                "addr:country": "PL",
                "addr:postcode": "48-250",
                "addr:city": "G\u0142og\u00f3wek",
                "addr:street": "Powsta\u0144c\u00f3w",
                "addr:housenumber": "34",
                "addr:teryt:simc": 17354,
                "addr:teryt:sym_ul": 965281,
                "contact:phone": "+48 774373301",
                "contact:email": "sekretariat@zsglogowek.pl",
                "contact:website": "http:\/\/www.zsglogowek.pl",
                "ref:regon": "160208200",
                "operator": "Powiat Prudnicki",
                "operator:type": "government",
                "amenity": "college",
                "note": "Parent RSPO: 3855"
            }
        },
        {
            "id": 7872,
            "type": "Feature",
            "geometry": {
                "type": "Point",
                "coordinates": [
                    17.8681899,
                    50.359249999999996
                ]
            },
            "properties": {
                "isced:level": "3",
                "ref:rspo": 7872,
                "official_name": "Technikum w G\u0142og\u00f3wku",
                "name": "Technikum w G\u0142og\u00f3wku",
                "addr:country": "PL",
                "addr:postcode": "48-250",
                "addr:city": "G\u0142og\u00f3wek",
                "addr:street": "Powsta\u0144c\u00f3w",
                "addr:housenumber": "34",
                "addr:teryt:simc": 17354,
                "addr:teryt:sym_ul": 965281,
                "contact:phone": "+48 774373301",
                "contact:email": "sekretariat@zsglogowek.pl",
                "contact:website": "http:\/\/zsglogowek.pl",
                "ref:regon": "532336975",
                "operator": "Powiat Prudnicki",
                "operator:type": "government",
                "amenity": "school",
                "note": "Parent RSPO: 3855"
            }
        },
        {
            "id": 8687,
            "type": "Feature",
            "geometry": {
                "type": "Point",
                "coordinates": [
                    17.8681899,
                    50.35922
                ]
            },
            "properties": {
                "isced:level": "3",
                "ref:rspo": 8687,
                "official_name": "Bran\u017cowa Szko\u0142a I Stopnia w G\u0142og\u00f3wku",
                "name": "Bran\u017cowa Szko\u0142a I Stopnia w G\u0142og\u00f3wku",
                "addr:country": "PL",
                "addr:postcode": "48-250",
                "addr:city": "G\u0142og\u00f3wek",
                "addr:street": "Powsta\u0144c\u00f3w",
                "addr:housenumber": "34",
                "addr:teryt:simc": 17354,
                "addr:teryt:sym_ul": 965281,
                "contact:phone": "+48 774373301",
                "contact:email": "sekretariat@zsglogowek.pl",
                "contact:website": "http:\/\/www.zsglogowek.pl",
                "ref:regon": "532336952",
                "operator": "Powiat Prudnicki",
                "operator:type": "government",
                "amenity": "school",
                "note": "Parent RSPO: 3855"
            }
        }
    ]
}