{
    "type": "FeatureCollection",
    "features": [
        {
            "id": 16219,
            "type": "Feature",
            "geometry": {
                "type": "Point",
                "coordinates": [
                    17.48361,
                    50.29562
                ]
            },
            "properties": {
                "ref:rspo": 16219,
                "official_name": "Zesp\u00f3\u0142 Szkolno-Przedszkolny w Moszczance",
                "name": "Zesp\u00f3\u0142 Szkolno-Przedszkolny w Moszczance",
                "addr:postcode": "48-200",
                "addr:place": "Moszczanka",
                "addr:housenumber": "166a",
                "addr:city:simc": 502670,
                "phone": "+48 774366423",
                "email": "szkolamoszczanka@wp.pl",
                "website": "http:\/\/szkolamoszczanka.pl",
                "ref:regon": "532406397",
                "ref:vatin": "PL7551829867",
                "operator": "Gmina Prudnik",
                "operator:type": "government",
                "landuse": "education",
                "fixme": "amenity=school, amenity=college albo landuse=education w zale\u017cno\u015bci od tego, jakie plac\u00f3wki wchodz\u0105 w sk\u0142ad zespo\u0142u. Sprawd\u017a, kiedy stosowa\u0107 amenity=* a kiedy landuse=education.",
                "note": "Children RSPO: 16215;48322;48323"
            }
        },
        {
            "id": 48322,
            "type": "Feature",
            "geometry": {
                "type": "Point",
                "coordinates": [
                    17.48361,
                    50.29559
                ]
            },
            "properties": {
                "isced:level": "1;2",
                "ref:rspo": 48322,
                "official_name": "Publiczna Szko\u0142a Podstawowa im.haliny Semenowicz w Moszczance",
                "name": "Publiczna Szko\u0142a Podstawowa im.haliny Semenowicz w Moszczance",
                "addr:postcode": "48-200",
                "addr:place": "Moszczanka",
                "addr:housenumber": "166A",
                "addr:city:simc": 502670,
                "phone": "+48 774366423",
                "email": "szkolamoszczanka@wp.pl",
                "website": "http:\/\/szkolamoszczanka.pl",
                "ref:regon": "000698199",
                "ref:vatin": "PL7551712800",
                "operator": "Gmina Prudnik",
                "operator:type": "government",
                "amenity": "school",
                "note": "Parent RSPO: 16219"
            }
        },
        {
            "id": 48323,
            "type": "Feature",
            "geometry": {
                "type": "Point",
                "coordinates": [
                    17.48361,
                    50.29556
                ]
            },
            "properties": {
                "ref:rspo": 48323,
                "official_name": "Publiczne Przedszkole w Moszczance",
                "name": "Publiczne Przedszkole w Moszczance",
                "addr:postcode": "48-200",
                "addr:place": "Moszczanka",
                "addr:housenumber": "166A",
                "addr:city:simc": 502670,
                "phone": "+48 774366423",
                "email": "szkolamoszczanka@wp.pl",
                "ref:regon": "531071865",
                "ref:vatin": "PL7551590946",
                "operator": "Gmina Prudnik",
                "operator:type": "government",
                "amenity": "kindergarten",
                "note": "Parent RSPO: 16219"
            }
        },
        {
            "id": 16215,
            "type": "Feature",
            "geometry": {
                "type": "Point",
                "coordinates": [
                    17.52576,
                    50.31022
                ]
            },
            "properties": {
                "ref:rspo": 16215,
                "official_name": "Publiczne Przedszkole \"Pod Kasztanem\" w \u0141\u0105ce Prudnickiej",
                "name": "Publiczne Przedszkole \"Pod Kasztanem\" w \u0141\u0105ce Prudnickiej",
                "addr:postcode": "48-200",
                "addr:city": "\u0141\u0105ka Prudnicka",
                "addr:street": "Nad Z\u0142otym Potokiem",
                "addr:housenumber": "52",
                "addr:door": "1",
                "addr:city:simc": 502641,
                "addr:street:sym_ul": 36438,
                "phone": "+48 774068930",
                "email": "szkolamoszczanka@wp.pl",
                "ref:regon": "531071871",
                "ref:vatin": "PL7551571908",
                "operator": "Gmina Prudnik",
                "operator:type": "government",
                "amenity": "kindergarten",
                "note": "Parent RSPO: 16219"
            }
        },
        {
            "id": 17487,
            "type": "Feature",
            "geometry": {
                "type": "Point",
                "coordinates": [
                    17.5285,
                    50.3134
                ]
            },
            "properties": {
                "isced:level": "1;2",
                "ref:rspo": 17487,
                "official_name": "Szko\u0142a Podstawowa Stowarzyszenia \"Z\u0142oty Potok\" w \u0141\u0105ce Prudnickiej",
                "name": "Szko\u0142a Podstawowa Stowarzyszenia \"Z\u0142oty Potok\" w \u0141\u0105ce Prudnickiej",
                "addr:postcode": "48-200",
                "addr:city": "\u0141\u0105ka Prudnicka",
                "addr:street": "G\u0142ucho\u0142aska",
                "addr:housenumber": "13",
                "addr:city:simc": 502641,
                "addr:street:sym_ul": 5643,
                "phone": "+48 774068920",
                "email": "sekretariat@splakaprudnicka.pl",
                "website": "http:\/\/www.splakaprudnicka.superszkolna.pl",
                "ref:regon": "161482540",
                "ref:vatin": "PL7551843815",
                "operator": "Stowarzyszenie Rozwoju I Promocji Wsi \u0141\u0105ka Prudnicka \"Z\u0142oty Potok\"",
                "operator:type": "ngo",
                "amenity": "school"
            }
        },
        {
            "id": 16209,
            "type": "Feature",
            "geometry": {
                "type": "Point",
                "coordinates": [
                    17.5691099,
                    50.31363
                ]
            },
            "properties": {
                "ref:rspo": 16209,
                "official_name": "Szkolne Schronisko M\u0142odzie\u017cowe \"D\u0105br\u00f3wka\"",
                "name": "Szkolne Schronisko M\u0142odzie\u017cowe \"D\u0105br\u00f3wka\"",
                "addr:postcode": "48-200",
                "addr:city": "Prudnik",
                "addr:street": "D\u0105browskiego",
                "addr:housenumber": "26",
                "addr:city:simc": 965878,
                "addr:street:sym_ul": 3667,
                "phone": "+48 778870200",
                "ref:regon": "161446403",
                "ref:vatin": "PL7551929497",
                "operator": "Gmina Prudnik",
                "operator:type": "government",
                "tourism": "hostel"
            }
        },
        {
            "id": 75578,
            "type": "Feature",
            "geometry": {
                "type": "Point",
                "coordinates": [
                    17.57735,
                    50.3164299
                ]
            },
            "properties": {
                "ref:rspo": 75578,
                "official_name": "Pa\u0144stwowa Szko\u0142a Muzyczna I St. im. Karola Szymanowskiego w Prudniku",
                "name": "Pa\u0144stwowa Szko\u0142a Muzyczna I St.",
                "addr:postcode": "48-200",
                "addr:city": "Prudnik",
                "addr:street": "Romualda Traugutta",
                "addr:housenumber": "36",
                "addr:city:simc": 965878,
                "addr:street:sym_ul": 22961,
                "phone": "+48 774363589",
                "email": "szkola@psmprudnik.edu.pl",
                "website": "http:\/\/psmprudnik.edu.pl",
                "ref:regon": "000646570",
                "operator": "Ministerstwo Kultury I Dziedzictwa Narodowego",
                "operator:type": "government",
                "amenity": "music_school"
            }
        },
        {
            "id": 3676,
            "type": "Feature",
            "geometry": {
                "type": "Point",
                "coordinates": [
                    17.57951,
                    50.3174599
                ]
            },
            "properties": {
                "ref:rspo": 3676,
                "official_name": "Zesp\u00f3\u0142 Szkolno-Przedszkolny nr 2 w Prudniku",
                "name": "Zesp\u00f3\u0142 Szkolno-Przedszkolny nr 2 w Prudniku",
                "addr:postcode": "48-200",
                "addr:city": "Prudnik",
                "addr:street": "Szkolna",
                "addr:housenumber": "12",
                "addr:city:simc": 965878,
                "addr:street:sym_ul": 21970,
                "phone": "+48 774067980",
                "email": "sp3prudnik@gmail.com",
                "ref:regon": "161475439",
                "operator": "Gmina Prudnik",
                "operator:type": "government",
                "landuse": "education",
                "fixme": "amenity=school, amenity=college albo landuse=education w zale\u017cno\u015bci od tego, jakie plac\u00f3wki wchodz\u0105 w sk\u0142ad zespo\u0142u. Sprawd\u017a, kiedy stosowa\u0107 amenity=* a kiedy landuse=education.",
                "note": "Children RSPO: 16210;16211;16213"
            }
        },
        {
            "id": 16210,
            "type": "Feature",
            "geometry": {
                "type": "Point",
                "coordinates": [
                    17.57951,
                    50.3174299
                ]
            },
            "properties": {
                "isced:level": "1;2",
                "ref:rspo": 16210,
                "official_name": "Publiczna Szko\u0142a Podstawowa nr 3 im. Powsta\u0144c\u00f3w \u015aL\u0105skich",
                "name": "Publiczna Szko\u0142a Podstawowa nr 3",
                "addr:postcode": "48-200",
                "addr:city": "Prudnik",
                "addr:street": "Szkolna",
                "addr:housenumber": "12",
                "addr:city:simc": 965878,
                "addr:street:sym_ul": 21970,
                "phone": "+48 774067980",
                "email": "sp3prudnik@gmail.com",
                "ref:regon": "000698160",
                "ref:vatin": "PL7551712846",
                "operator": "Gmina Prudnik",
                "operator:type": "government",
                "amenity": "school",
                "note": "Parent RSPO: 3676"
            }
        },
        {
            "id": 17489,
            "type": "Feature",
            "geometry": {
                "type": "Point",
                "coordinates": [
                    17.56448,
                    50.31777
                ]
            },
            "properties": {
                "ref:rspo": 17489,
                "official_name": "Niepubliczne Przedszkole \"Skrzat\" w Prudniku",
                "name": "Niepubliczne Przedszkole \"Skrzat\" w Prudniku",
                "addr:postcode": "48-200",
                "addr:city": "Prudnik",
                "addr:street": "Grunwaldzka",
                "addr:housenumber": "66",
                "addr:city:simc": 965878,
                "addr:street:sym_ul": 6260,
                "phone": "+48 660763488",
                "email": "joanaro@poczta.onet.pl",
                "ref:regon": "161482557",
                "ref:vatin": "PL7551504131",
                "operator": "Joanna Rola",
                "operator:type": "private",
                "amenity": "kindergarten"
            }
        },
        {
            "id": 16211,
            "type": "Feature",
            "geometry": {
                "type": "Point",
                "coordinates": [
                    17.5765,
                    50.3179299
                ]
            },
            "properties": {
                "ref:rspo": 16211,
                "official_name": "Publiczne Przedszkole nr 4",
                "name": "Publiczne Przedszkole nr 4",
                "addr:postcode": "48-200",
                "addr:city": "Prudnik",
                "addr:street": "Adama Mickiewicza",
                "addr:housenumber": "9",
                "addr:city:simc": 965878,
                "addr:street:sym_ul": 12734,
                "phone": "+48 774068170",
                "ref:regon": "531071836",
                "ref:vatin": "PL7551571966",
                "operator": "Gmina Prudnik",
                "operator:type": "government",
                "amenity": "kindergarten",
                "note": "Parent RSPO: 3676"
            }
        },
        {
            "id": 16213,
            "type": "Feature",
            "geometry": {
                "type": "Point",
                "coordinates": [
                    17.57663,
                    50.31848
                ]
            },
            "properties": {
                "ref:rspo": 16213,
                "official_name": "Publiczne Przedszkole nr 1 im. Jana Brzechwy w Prudniku",
                "name": "Publiczne Przedszkole nr 1",
                "addr:postcode": "48-200",
                "addr:city": "Prudnik",
                "addr:street": "Adama Mickiewicza",
                "addr:housenumber": "5",
                "addr:city:simc": 965878,
                "addr:street:sym_ul": 12734,
                "phone": "+48 774068255",
                "email": "pp1pk@interia.pl",
                "ref:regon": "531071813",
                "ref:vatin": "PL7551573209",
                "operator": "Gmina Prudnik",
                "operator:type": "government",
                "amenity": "kindergarten",
                "note": "Parent RSPO: 3676"
            }
        },
        {
            "id": 3857,
            "type": "Feature",
            "geometry": {
                "type": "Point",
                "coordinates": [
                    17.5825,
                    50.31926
                ]
            },
            "properties": {
                "ref:rspo": 3857,
                "official_name": "Specjalny O\u015brodek Szkolno-Wychowawczy w Prudniku",
                "name": "Specjalny O\u015brodek Szkolno-Wychowawczy w Prudniku",
                "addr:postcode": "48-200",
                "addr:city": "Prudnik",
                "addr:street": "M\u0142y\u0144ska",
                "addr:housenumber": "1",
                "addr:city:simc": 965878,
                "addr:street:sym_ul": 13132,
                "phone": "+48 774363530",
                "email": "zss_prudnik@wodip.opole.pl",
                "website": "http:\/\/www.zss_prudnik.wodip.opole.pl",
                "ref:regon": "160272065",
                "operator": "Powiat Prudnicki",
                "operator:type": "government",
                "amenity": "school",
                "note": "Children RSPO: 8012;8014;8015;8016"
            }
        },
        {
            "id": 8012,
            "type": "Feature",
            "geometry": {
                "type": "Point",
                "coordinates": [
                    17.5825,
                    50.31923
                ]
            },
            "properties": {
                "isced:level": "1;2",
                "ref:rspo": 8012,
                "official_name": "Publiczna Szko\u0142a Podstawowa nr 5 Specjalna w Prudniku",
                "name": "Publiczna Szko\u0142a Podstawowa nr 5 Specjalna w Prudniku",
                "addr:postcode": "48-200",
                "addr:city": "Prudnik",
                "addr:street": "M\u0142y\u0144ska",
                "addr:housenumber": "1",
                "addr:city:simc": 965878,
                "addr:street:sym_ul": 13132,
                "phone": "+48 774363530",
                "email": "zss_prudnik@wodip.opole.pl",
                "website": "http:\/\/www.soswprudnik.szkolna.net\/",
                "ref:regon": "532178766",
                "operator": "Powiat Prudnicki",
                "operator:type": "government",
                "amenity": "school",
                "note": "Parent RSPO: 3857"
            }
        },
        {
            "id": 8014,
            "type": "Feature",
            "geometry": {
                "type": "Point",
                "coordinates": [
                    17.5825,
                    50.3192
                ]
            },
            "properties": {
                "ref:rspo": 8014,
                "official_name": "Publiczne Przedszkole nr 5 Specjalne w Prudniku",
                "name": "Publiczne Przedszkole nr 5 Specjalne w Prudniku",
                "addr:postcode": "48-200",
                "addr:city": "Prudnik",
                "addr:street": "M\u0142y\u0144ska",
                "addr:housenumber": "1",
                "addr:city:simc": 965878,
                "addr:street:sym_ul": 13132,
                "phone": "+48 774363530",
                "email": "zss_prudnik@wodip.opole.pl",
                "website": "http:\/\/www.soswprudnik.szkolna.net\/",
                "ref:regon": "160272036",
                "operator": "Powiat Prudnicki",
                "operator:type": "government",
                "amenity": "kindergarten",
                "note": "Parent RSPO: 3857"
            }
        },
        {
            "id": 8015,
            "type": "Feature",
            "geometry": {
                "type": "Point",
                "coordinates": [
                    17.5825,
                    50.31917
                ]
            },
            "properties": {
                "ref:rspo": 8015,
                "official_name": "Szko\u0142a Specjalna Przysposabiaj\u0105ca do Pracy w Prudniku",
                "name": "Szko\u0142a Specjalna Przysposabiaj\u0105ca do Pracy w Prudniku",
                "addr:postcode": "48-200",
                "addr:city": "Prudnik",
                "addr:street": "M\u0142y\u0144ska",
                "addr:housenumber": "1",
                "addr:city:simc": 965878,
                "addr:street:sym_ul": 13132,
                "phone": "+48 774363530",
                "email": "zss_prudnik@wodip.opole.pl",
                "website": "http:\/\/www.soswprudnik.szkolna.net\/",
                "ref:regon": "160210101",
                "operator": "Powiat Prudnicki",
                "operator:type": "government",
                "amenity": "school",
                "note": "Parent RSPO: 3857"
            }
        },
        {
            "id": 8016,
            "type": "Feature",
            "geometry": {
                "type": "Point",
                "coordinates": [
                    17.5825,
                    50.31914
                ]
            },
            "properties": {
                "isced:level": "3",
                "ref:rspo": 8016,
                "official_name": "Bran\u017cowa Szko\u0142a I Stopnia nr 4 Specjalna w Prudniku",
                "name": "Bran\u017cowa Szko\u0142a I Stopnia nr 4 Specjalna w Prudniku",
                "addr:postcode": "48-200",
                "addr:city": "Prudnik",
                "addr:street": "M\u0142y\u0144ska",
                "addr:housenumber": "1",
                "addr:city:simc": 965878,
                "addr:street:sym_ul": 13132,
                "phone": "+48 774363530",
                "email": "zss_prudnik@wodip.opole.pl",
                "website": "http:\/\/www.soswprudnik.szkolna.net\/",
                "ref:regon": "160406525",
                "operator": "Powiat Prudnicki",
                "operator:type": "government",
                "amenity": "school",
                "note": "Parent RSPO: 3857"
            }
        },
        {
            "id": 3856,
            "type": "Feature",
            "geometry": {
                "type": "Point",
                "coordinates": [
                    17.57701,
                    50.31969
                ]
            },
            "properties": {
                "ref:rspo": 3856,
                "official_name": "Zesp\u00f3\u0142 Szk\u00f3\u0142 Og\u00f3lnokszta\u0142c\u0105cych nr 1 w Prudniku",
                "name": "Zesp\u00f3\u0142 Szk\u00f3\u0142 Og\u00f3lnokszta\u0142c\u0105cych nr 1 w Prudniku",
                "addr:postcode": "48-200",
                "addr:city": "Prudnik",
                "addr:street": "Gimnazjalna",
                "addr:housenumber": "2",
                "addr:city:simc": 965878,
                "addr:street:sym_ul": 5527,
                "phone": "+48 774362316",
                "email": "lo1prudnik@wodip.opole.pl",
                "website": "http:\/\/www.lo1prudnik.wodip.opole.pl",
                "ref:regon": "000716856",
                "operator": "Powiat Prudnicki",
                "operator:type": "government",
                "landuse": "education",
                "fixme": "amenity=school, amenity=college albo landuse=education w zale\u017cno\u015bci od tego, jakie plac\u00f3wki wchodz\u0105 w sk\u0142ad zespo\u0142u. Sprawd\u017a, kiedy stosowa\u0107 amenity=* a kiedy landuse=education.",
                "note": "Children RSPO: 6275;7165;90388"
            }
        },
        {
            "id": 6275,
            "type": "Feature",
            "geometry": {
                "type": "Point",
                "coordinates": [
                    17.57701,
                    50.31966
                ]
            },
            "properties": {
                "isced:level": "3",
                "ref:rspo": 6275,
                "official_name": "I Liceum Ogolnokszta\u0142c\u0105ce w Prudniku",
                "name": "I Liceum Ogolnokszta\u0142c\u0105ce w Prudniku",
                "addr:postcode": "48-200",
                "addr:city": "Prudnik",
                "addr:street": "Gimnazjalna",
                "addr:housenumber": "2",
                "addr:city:simc": 965878,
                "addr:street:sym_ul": 5527,
                "phone": "+48 774362316",
                "email": "lo1prudnik@wodip.opole.pl",
                "website": "http:\/\/www.lo1prudnik.wodip.opole.pl",
                "ref:regon": "532385525",
                "operator": "Powiat Prudnicki",
                "operator:type": "government",
                "amenity": "school",
                "note": "Parent RSPO: 3856"
            }
        },
        {
            "id": 7165,
            "type": "Feature",
            "geometry": {
                "type": "Point",
                "coordinates": [
                    17.57701,
                    50.319630000000004
                ]
            },
            "properties": {
                "isced:level": "3",
                "ref:rspo": 7165,
                "official_name": "Liceum Og\u00f3lnokszta\u0142c\u0105ce dla Doros\u0142ych w Prudniku",
                "name": "Liceum Og\u00f3lnokszta\u0142c\u0105ce dla Doros\u0142ych w Prudniku",
                "addr:postcode": "48-200",
                "addr:city": "Prudnik",
                "addr:street": "Gimnazjalna",
                "addr:housenumber": "2",
                "addr:city:simc": 965878,
                "addr:street:sym_ul": 5527,
                "phone": "+48 774362316",
                "email": "lo1prudnik@wodip.opole.pl",
                "ref:regon": "532218218",
                "operator": "Powiat Prudnicki",
                "operator:type": "government",
                "amenity": "school",
                "note": "Parent RSPO: 3856"
            }
        },
        {
            "id": 90388,
            "type": "Feature",
            "geometry": {
                "type": "Point",
                "coordinates": [
                    17.57701,
                    50.3196
                ]
            },
            "properties": {
                "ref:rspo": 90388,
                "official_name": "Centrum Kszta\u0142cenia Ustawicznego w Prudniku",
                "name": "Centrum Kszta\u0142cenia Ustawicznego w Prudniku",
                "addr:postcode": "48-200",
                "addr:city": "Prudnik",
                "addr:street": "Gimnazjalna",
                "addr:housenumber": "2",
                "addr:city:simc": 965878,
                "addr:street:sym_ul": 5527,
                "phone": "+48 774362316",
                "email": "lo1prudnik@wodip.opole.pl",
                "ref:regon": "160189312",
                "operator": "Powiat Prudnicki",
                "operator:type": "government",
                "fixme": "w zale\u017cno\u015bci od przedmiotu dzia\u0142alno\u015bci (np. amenity=training + training=*, amenity=dancing_school, amenity=language_school, amenity=music_school)",
                "note": "Parent RSPO: 3856"
            }
        },
        {
            "id": 3899,
            "type": "Feature",
            "geometry": {
                "type": "Point",
                "coordinates": [
                    17.564,
                    50.31992
                ]
            },
            "properties": {
                "ref:rspo": 3899,
                "official_name": "Poradnia Psychologiczno-Pedagogiczna w Prudniku",
                "name": "Poradnia Psychologiczno-Pedagogiczna w Prudniku",
                "addr:postcode": "48-200",
                "addr:city": "Prudnik",
                "addr:street": "Tadeusza Ko\u015bciuszki",
                "addr:housenumber": "55a",
                "addr:city:simc": 965878,
                "addr:street:sym_ul": 9572,
                "phone": "+48 774363862",
                "email": "sekretariat@poradniaprudnik.pl",
                "website": "http:\/\/www.poradniaprudnik.pl",
                "ref:regon": "000743008",
                "operator": "Powiat Prudnicki",
                "operator:type": "government",
                "healthcare": "counselling",
                "counselling_type": "education",
                "fixme": "w zale\u017cno\u015bci od przedmiotu dzia\u0142alno\u015bci (np. healthcare=counselling + counselling_type=education albo healthcare=psychotherapist)"
            }
        },
        {
            "id": 6441,
            "type": "Feature",
            "geometry": {
                "type": "Point",
                "coordinates": [
                    17.564,
                    50.31989
                ]
            },
            "properties": {
                "isced:level": "3",
                "ref:rspo": 6441,
                "official_name": "Ii Liceum Og\u00f3lnokszta\u0142c\u0105ce w Prudniku",
                "name": "Ii Liceum Og\u00f3lnokszta\u0142c\u0105ce w Prudniku",
                "addr:postcode": "48-200",
                "addr:city": "Prudnik",
                "addr:street": "Tadeusza Ko\u015bciuszki",
                "addr:housenumber": "55",
                "addr:city:simc": 965878,
                "addr:street:sym_ul": 9572,
                "phone": "+48 774362095",
                "email": "zsr_prudnik@wodip.opole.pl",
                "ref:regon": "532407847",
                "operator": "Powiat Prudnicki",
                "operator:type": "government",
                "amenity": "school",
                "note": "Parent RSPO: 3858"
            }
        },
        {
            "id": 6442,
            "type": "Feature",
            "geometry": {
                "type": "Point",
                "coordinates": [
                    17.564,
                    50.319860000000006
                ]
            },
            "properties": {
                "ref:rspo": 6442,
                "official_name": "Mi\u0119dzyszkolna Bursa w Prudniku",
                "name": "Mi\u0119dzyszkolna Bursa w Prudniku",
                "addr:postcode": "48-200",
                "addr:city": "Prudnik",
                "addr:street": "Tadeusza Ko\u015bciuszki",
                "addr:housenumber": "55",
                "addr:city:simc": 965878,
                "addr:street:sym_ul": 9572,
                "phone": "+48 774362095",
                "email": "zsr_prudnik@wodip.opole.pl",
                "ref:regon": "160282359",
                "operator": "Powiat Prudnicki",
                "operator:type": "government",
                "building": "dormitory",
                "note": "Parent RSPO: 3858"
            }
        },
        {
            "id": 3858,
            "type": "Feature",
            "geometry": {
                "type": "Point",
                "coordinates": [
                    17.56474,
                    50.32082
                ]
            },
            "properties": {
                "ref:rspo": 3858,
                "official_name": "Zesp\u00f3\u0142 Szk\u00f3\u0142 Rolniczych w Prudniku",
                "name": "Zesp\u00f3\u0142 Szk\u00f3\u0142 Rolniczych w Prudniku",
                "addr:postcode": "48-200",
                "addr:city": "Prudnik",
                "addr:street": "Tadeusza Ko\u015bciuszki",
                "addr:housenumber": "76",
                "addr:city:simc": 965878,
                "addr:street:sym_ul": 9572,
                "phone": "+48 774362095",
                "email": "zsr_prudnik@wodip.opole.pl",
                "website": "http:\/\/www.zsr_prudnik.wodip.opole.pl",
                "ref:regon": "000098832",
                "operator": "Powiat Prudnicki",
                "operator:type": "government",
                "landuse": "education",
                "fixme": "amenity=school, amenity=college albo landuse=education w zale\u017cno\u015bci od tego, jakie plac\u00f3wki wchodz\u0105 w sk\u0142ad zespo\u0142u. Sprawd\u017a, kiedy stosowa\u0107 amenity=* a kiedy landuse=education.",
                "note": "Children RSPO: 6441;6442;6443"
            }
        },
        {
            "id": 6443,
            "type": "Feature",
            "geometry": {
                "type": "Point",
                "coordinates": [
                    17.56474,
                    50.320789999999995
                ]
            },
            "properties": {
                "isced:level": "3",
                "ref:rspo": 6443,
                "official_name": "Technikum nr 2 w Prudniku",
                "name": "Technikum nr 2 w Prudniku",
                "addr:postcode": "48-200",
                "addr:city": "Prudnik",
                "addr:street": "Tadeusza Ko\u015bciuszki",
                "addr:housenumber": "76",
                "addr:city:simc": 965878,
                "addr:street:sym_ul": 9572,
                "phone": "+48 774362095",
                "email": "zsr_prudnik@wodip.opole.pl",
                "ref:regon": "532335295",
                "operator": "Powiat Prudnicki",
                "operator:type": "government",
                "amenity": "school",
                "note": "Parent RSPO: 3858"
            }
        },
        {
            "id": 3659,
            "type": "Feature",
            "geometry": {
                "type": "Point",
                "coordinates": [
                    17.59317,
                    50.3209457
                ]
            },
            "properties": {
                "ref:rspo": 3659,
                "official_name": "Zesp\u00f3\u0142 Szkolno-Przedszkolny nr 1 w Prudniku",
                "name": "Zesp\u00f3\u0142 Szkolno-Przedszkolny nr 1 w Prudniku",
                "addr:postcode": "48-200",
                "addr:city": "Prudnik",
                "addr:street": "Podg\u00f3rna",
                "addr:housenumber": "9",
                "addr:city:simc": 965878,
                "addr:street:sym_ul": 16742,
                "phone": "+48 774067565",
                "email": "sp1prudnik@interia.eu",
                "ref:regon": "161475422",
                "operator": "Gmina Prudnik",
                "operator:type": "government",
                "landuse": "education",
                "fixme": "amenity=school, amenity=college albo landuse=education w zale\u017cno\u015bci od tego, jakie plac\u00f3wki wchodz\u0105 w sk\u0142ad zespo\u0142u. Sprawd\u017a, kiedy stosowa\u0107 amenity=* a kiedy landuse=education.",
                "note": "Children RSPO: 16221;16222"
            }
        },
        {
            "id": 16221,
            "type": "Feature",
            "geometry": {
                "type": "Point",
                "coordinates": [
                    17.59317,
                    50.3209157
                ]
            },
            "properties": {
                "isced:level": "1;2",
                "ref:rspo": 16221,
                "official_name": "Publiczna Szko\u0142a Podstawowa nr 1 im.bohater\u00f3w Westerplatte w Prudniku",
                "name": "Publiczna Szko\u0142a Podstawowa nr 1 im.bohater\u00f3w Westerplatte w Prudniku",
                "addr:postcode": "48-200",
                "addr:city": "Prudnik",
                "addr:street": "Podg\u00f3rna",
                "addr:housenumber": "9",
                "addr:city:simc": 965878,
                "addr:street:sym_ul": 16742,
                "phone": "+48 774067565",
                "email": "sp1prudnik@interia.eu",
                "ref:regon": "000698147",
                "ref:vatin": "PL7551712869",
                "operator": "Gmina Prudnik",
                "operator:type": "government",
                "amenity": "school",
                "note": "Parent RSPO: 3659"
            }
        },
        {
            "id": 16222,
            "type": "Feature",
            "geometry": {
                "type": "Point",
                "coordinates": [
                    17.59317,
                    50.320885700000005
                ]
            },
            "properties": {
                "ref:rspo": 16222,
                "official_name": "Publiczne Przedszkole nr 6 w Prudniku",
                "name": "Publiczne Przedszkole nr 6 w Prudniku",
                "addr:postcode": "48-200",
                "addr:city": "Prudnik",
                "addr:street": "Podg\u00f3rna",
                "addr:housenumber": "9a",
                "addr:city:simc": 965878,
                "addr:street:sym_ul": 16742,
                "phone": "+48 774067060",
                "email": "sp1prudnik@interia.eu",
                "ref:regon": "531071842",
                "ref:vatin": "PL7551584644",
                "operator": "Gmina Prudnik",
                "operator:type": "government",
                "amenity": "kindergarten",
                "note": "Parent RSPO: 3659"
            }
        },
        {
            "id": 16220,
            "type": "Feature",
            "geometry": {
                "type": "Point",
                "coordinates": [
                    17.5715,
                    50.32101
                ]
            },
            "properties": {
                "ref:rspo": 16220,
                "official_name": "Zesp\u00f3\u0142 Szk\u00f3\u0142 w Prudniku",
                "name": "Zesp\u00f3\u0142 Szk\u00f3\u0142 w Prudniku",
                "addr:postcode": "48-200",
                "addr:city": "Prudnik",
                "addr:street": "D\u0105browskiego",
                "addr:housenumber": "2",
                "addr:city:simc": 965878,
                "addr:street:sym_ul": 3667,
                "phone": "+48 774068925",
                "email": "sekretariat@zsprudnik.pl",
                "ref:regon": "160270758",
                "ref:vatin": "PL7551909017",
                "operator": "Gmina Prudnik",
                "operator:type": "government",
                "landuse": "education",
                "fixme": "amenity=school, amenity=college albo landuse=education w zale\u017cno\u015bci od tego, jakie plac\u00f3wki wchodz\u0105 w sk\u0142ad zespo\u0142u. Sprawd\u017a, kiedy stosowa\u0107 amenity=* a kiedy landuse=education.",
                "note": "Children RSPO: 16214;16216;49367"
            }
        },
        {
            "id": 49367,
            "type": "Feature",
            "geometry": {
                "type": "Point",
                "coordinates": [
                    17.5715,
                    50.32098
                ]
            },
            "properties": {
                "isced:level": "1;2",
                "ref:rspo": 49367,
                "official_name": "Publiczna Szko\u0142a Podstawowa nr 4, im. Marii Konopnickiej w Prudniku",
                "name": "Publiczna Szko\u0142a Podstawowa nr 4,",
                "addr:postcode": "48-200",
                "addr:city": "Prudnik",
                "addr:street": "D\u0105browskiego",
                "addr:housenumber": "2",
                "addr:city:simc": 965878,
                "addr:street:sym_ul": 3667,
                "phone": "+48 774068925",
                "email": "sekretariat@zsprudnik.pl",
                "ref:regon": "000698176",
                "ref:vatin": "PL7551712823",
                "operator": "Gmina Prudnik",
                "operator:type": "government",
                "amenity": "school",
                "note": "Parent RSPO: 16220"
            }
        },
        {
            "id": 119134,
            "type": "Feature",
            "geometry": {
                "type": "Point",
                "coordinates": [
                    17.59112,
                    50.3211
                ]
            },
            "properties": {
                "ref:rspo": 119134,
                "official_name": "Centrum Kszta\u0142cenia Zawodowego I Ustawicznego w Prudniku",
                "name": "Centrum Kszta\u0142cenia Zawodowego I Ustawicznego w Prudniku",
                "addr:postcode": "48-200",
                "addr:city": "Prudnik",
                "addr:street": "Podg\u00f3rna",
                "addr:housenumber": "5",
                "addr:city:simc": 965878,
                "addr:street:sym_ul": 16742,
                "phone": "+48 774362995",
                "email": "centrum@ckziu-prudnik.pl",
                "website": "http:\/\/www.ckziu-prudnik.pl",
                "ref:regon": "161547908",
                "operator": "Powiat Prudnicki",
                "operator:type": "government",
                "amenity": "school",
                "fixme": "amenity=school lub amenity=college",
                "note": "Children RSPO: 6852;6853;6855;6858"
            }
        },
        {
            "id": 6852,
            "type": "Feature",
            "geometry": {
                "type": "Point",
                "coordinates": [
                    17.59112,
                    50.32107
                ]
            },
            "properties": {
                "isced:level": "4",
                "ref:rspo": 6852,
                "official_name": "Szko\u0142a Policealna Nr1 w Prudniku",
                "name": "Szko\u0142a Policealna Nr1 w Prudniku",
                "addr:postcode": "48-200",
                "addr:city": "Prudnik",
                "addr:street": "Podg\u00f3rna",
                "addr:housenumber": "5",
                "addr:city:simc": 965878,
                "addr:street:sym_ul": 16742,
                "phone": "+48 774362995",
                "email": "centrum@ckziu-prudnik.pl",
                "ref:regon": "532217615",
                "operator": "Powiat Prudnicki",
                "operator:type": "government",
                "amenity": "college",
                "note": "Parent RSPO: 119134"
            }
        },
        {
            "id": 6853,
            "type": "Feature",
            "geometry": {
                "type": "Point",
                "coordinates": [
                    17.59112,
                    50.32104
                ]
            },
            "properties": {
                "isced:level": "3",
                "ref:rspo": 6853,
                "official_name": "Technikum nr 1 w Prudniku",
                "name": "Technikum nr 1 w Prudniku",
                "addr:postcode": "48-200",
                "addr:city": "Prudnik",
                "addr:street": "Podg\u00f3rna",
                "addr:housenumber": "5",
                "addr:city:simc": 965878,
                "addr:street:sym_ul": 16742,
                "phone": "+48 774362995",
                "email": "centrum@ckziu-prudnik.pl",
                "ref:regon": "532335734",
                "operator": "Powiat Prudnicki",
                "operator:type": "government",
                "amenity": "school",
                "note": "Parent RSPO: 119134"
            }
        },
        {
            "id": 6855,
            "type": "Feature",
            "geometry": {
                "type": "Point",
                "coordinates": [
                    17.59112,
                    50.32101
                ]
            },
            "properties": {
                "isced:level": "3",
                "ref:rspo": 6855,
                "official_name": "Bran\u017cowa Szko\u0142a I Stopnia nr 1 w Prudniku",
                "name": "Bran\u017cowa Szko\u0142a I Stopnia nr 1 w Prudniku",
                "addr:postcode": "48-200",
                "addr:city": "Prudnik",
                "addr:street": "Podg\u00f3rna",
                "addr:housenumber": "5",
                "addr:city:simc": 965878,
                "addr:street:sym_ul": 16742,
                "phone": "+48 774362995",
                "email": "centrum@ckziu-prudnik.pl",
                "ref:regon": "532335763",
                "operator": "Powiat Prudnicki",
                "operator:type": "government",
                "amenity": "school",
                "note": "Parent RSPO: 119134"
            }
        },
        {
            "id": 6858,
            "type": "Feature",
            "geometry": {
                "type": "Point",
                "coordinates": [
                    17.59112,
                    50.32098
                ]
            },
            "properties": {
                "isced:level": "3",
                "ref:rspo": 6858,
                "official_name": "Ii Liceum Og\u00f3lnokszta\u0142c\u0105ce dla Doros\u0142ych w Prudniku",
                "name": "Ii Liceum Og\u00f3lnokszta\u0142c\u0105ce dla Doros\u0142ych w Prudniku",
                "addr:postcode": "48-200",
                "addr:city": "Prudnik",
                "addr:street": "Podg\u00f3rna",
                "addr:housenumber": "5",
                "addr:city:simc": 965878,
                "addr:street:sym_ul": 16742,
                "phone": "+48 774362995",
                "email": "centrum@ckziu-prudnik.pl",
                "ref:regon": "161478120",
                "operator": "Powiat Prudnicki",
                "operator:type": "government",
                "amenity": "school",
                "note": "Parent RSPO: 119134"
            }
        },
        {
            "id": 16214,
            "type": "Feature",
            "geometry": {
                "type": "Point",
                "coordinates": [
                    17.57,
                    50.3223399
                ]
            },
            "properties": {
                "ref:rspo": 16214,
                "official_name": "Publiczne Przedszkole nr 3 w Prudniku",
                "name": "Publiczne Przedszkole nr 3 w Prudniku",
                "addr:postcode": "48-200",
                "addr:city": "Prudnik",
                "addr:street": "Piastowska",
                "addr:housenumber": "69",
                "addr:city:simc": 965878,
                "addr:street:sym_ul": 16046,
                "phone": "+48 774068905",
                "email": "rajdziecka@op.pl",
                "ref:regon": "531071820",
                "ref:vatin": "PL7551568154",
                "operator": "Gmina Prudnik",
                "operator:type": "government",
                "amenity": "kindergarten",
                "note": "Parent RSPO: 16220"
            }
        },
        {
            "id": 48437,
            "type": "Feature",
            "geometry": {
                "type": "Point",
                "coordinates": [
                    17.5749,
                    50.32297
                ]
            },
            "properties": {
                "ref:rspo": 48437,
                "official_name": "Zesp\u00f3\u0142 Szk\u00f3\u0142 Medycznych im. Janusza Korczaka w Prudniku",
                "name": "Zesp\u00f3\u0142 Szk\u00f3\u0142 Medycznych",
                "addr:postcode": "48-200",
                "addr:city": "Prudnik",
                "addr:street": "Piastowska",
                "addr:housenumber": "26",
                "addr:city:simc": 965878,
                "addr:street:sym_ul": 16046,
                "phone": "+48 774362784",
                "email": "medyk@zskorczak-prudnik.pl",
                "website": "http:\/\/www.zskorczak-prudnik.pl",
                "ref:regon": "000312811",
                "operator": "Wojew\u00f3dztwo Opolskie",
                "operator:type": "government",
                "landuse": "education",
                "fixme": "amenity=school, amenity=college albo landuse=education w zale\u017cno\u015bci od tego, jakie plac\u00f3wki wchodz\u0105 w sk\u0142ad zespo\u0142u. Sprawd\u017a, kiedy stosowa\u0107 amenity=* a kiedy landuse=education.",
                "note": "Children RSPO: 91966;92871;118933"
            }
        },
        {
            "id": 91966,
            "type": "Feature",
            "geometry": {
                "type": "Point",
                "coordinates": [
                    17.5749,
                    50.322939999999996
                ]
            },
            "properties": {
                "isced:level": "4",
                "ref:rspo": 91966,
                "official_name": "Wojew\u00f3dzka Szko\u0142a Policealna Dzienna w Prudniku",
                "name": "Wojew\u00f3dzka Szko\u0142a Policealna Dzienna w Prudniku",
                "addr:postcode": "48-200",
                "addr:city": "Prudnik",
                "addr:street": "Piastowska",
                "addr:housenumber": "26",
                "addr:city:simc": 965878,
                "addr:street:sym_ul": 16046,
                "phone": "+48 774362784",
                "email": "medyk@zskorczak-prudnik.pl",
                "website": "http:\/\/www.zskorczak-prudnik.pl",
                "ref:regon": "532220304",
                "operator": "Wojew\u00f3dztwo Opolskie",
                "operator:type": "government",
                "amenity": "college",
                "note": "Parent RSPO: 48437"
            }
        },
        {
            "id": 92871,
            "type": "Feature",
            "geometry": {
                "type": "Point",
                "coordinates": [
                    17.5749,
                    50.32291
                ]
            },
            "properties": {
                "isced:level": "4",
                "ref:rspo": 92871,
                "official_name": "Wojew\u00f3dzka Szko\u0142a Policealna Stacjonarna I Zaoczna w Prudniku",
                "name": "Wojew\u00f3dzka Szko\u0142a Policealna Stacjonarna I Zaoczna w Prudniku",
                "addr:postcode": "48-200",
                "addr:city": "Prudnik",
                "addr:street": "Piastowska",
                "addr:housenumber": "26",
                "addr:city:simc": 965878,
                "addr:street:sym_ul": 16046,
                "phone": "+48 774362784",
                "email": "medyk@zskorczak-prudnik.pl",
                "website": "http:\/\/www.zskorczak-prudnik.pl",
                "ref:regon": "532458307",
                "operator": "Wojew\u00f3dztwo Opolskie",
                "operator:type": "government",
                "amenity": "college",
                "note": "Parent RSPO: 48437"
            }
        },
        {
            "id": 118933,
            "type": "Feature",
            "geometry": {
                "type": "Point",
                "coordinates": [
                    17.5749,
                    50.32288
                ]
            },
            "properties": {
                "isced:level": "3",
                "ref:rspo": 118933,
                "official_name": "Publiczne Technikum",
                "name": "Publiczne Technikum",
                "addr:postcode": "48-200",
                "addr:city": "Prudnik",
                "addr:street": "Piastowska",
                "addr:housenumber": "26",
                "addr:city:simc": 965878,
                "addr:street:sym_ul": 16046,
                "phone": "+48 774362784",
                "email": "medyk@zskorczak-prudnik.pl",
                "website": "http:\/\/www.zskorczak-prudnik.pl",
                "ref:regon": "161546850",
                "operator": "Wojew\u00f3dztwo Opolskie",
                "operator:type": "government",
                "amenity": "school",
                "note": "Parent RSPO: 48437"
            }
        },
        {
            "id": 16216,
            "type": "Feature",
            "geometry": {
                "type": "Point",
                "coordinates": [
                    17.5748,
                    50.32443
                ]
            },
            "properties": {
                "ref:rspo": 16216,
                "official_name": "Publiczne Przedszkole nr 7 w Prudniku",
                "name": "Publiczne Przedszkole nr 7 w Prudniku",
                "addr:postcode": "48-200",
                "addr:city": "Prudnik",
                "addr:street": "Ogrodowa",
                "addr:housenumber": "1",
                "addr:city:simc": 965878,
                "addr:street:sym_ul": 14834,
                "phone": "+48 774068460",
                "email": "siodemka_prudnik@onet.pl",
                "ref:regon": "531071859",
                "ref:vatin": "PL7551584650",
                "operator": "Gmina Prudnik",
                "operator:type": "government",
                "amenity": "kindergarten",
                "note": "Parent RSPO: 16220"
            }
        },
        {
            "id": 130019,
            "type": "Feature",
            "geometry": {
                "type": "Point",
                "coordinates": [
                    17.59183,
                    50.32475
                ]
            },
            "properties": {
                "ref:rspo": 130019,
                "official_name": "Centrum Kszta\u0142cenia Vip Plac\u00f3wa Kszta\u0142cenia Ustawicznego",
                "name": "Centrum Kszta\u0142cenia Vip Plac\u00f3wa Kszta\u0142cenia Ustawicznego",
                "addr:postcode": "48-200",
                "addr:city": "Prudnik",
                "addr:street": "J\u00f3zefa Wybickiego",
                "addr:housenumber": "2",
                "addr:city:simc": 965878,
                "addr:street:sym_ul": 24908,
                "phone": "+48 606599346",
                "email": "kravvipsystem@gmail.com",
                "ref:regon": "363306290",
                "operator": "Artur Buczek",
                "operator:type": "private",
                "fixme": "w zale\u017cno\u015bci od przedmiotu dzia\u0142alno\u015bci (np. amenity=training + training=*, amenity=dancing_school, amenity=language_school, amenity=music_school)"
            }
        },
        {
            "id": 6857,
            "type": "Feature",
            "geometry": {
                "type": "Point",
                "coordinates": [
                    17.58703,
                    50.32632
                ]
            },
            "properties": {
                "ref:rspo": 6857,
                "official_name": "Centrum Kszta\u0142cenia Zawodowego w Prudniku",
                "name": "Centrum Kszta\u0142cenia Zawodowego w Prudniku",
                "addr:postcode": "48-200",
                "addr:city": "Prudnik",
                "addr:street": "Pr\u0119\u017cy\u0144ska",
                "addr:housenumber": "3,5,7",
                "addr:city:simc": 965878,
                "addr:street:sym_ul": 38290,
                "phone": "+48 774361357",
                "email": "zsz1prudnik@wp.pl",
                "ref:regon": "161370350",
                "operator": "Powiat Prudnicki",
                "operator:type": "government",
                "fixme": "w zale\u017cno\u015bci od przedmiotu dzia\u0142alno\u015bci (np. amenity=training + training=*, amenity=dancing_school, amenity=language_school, amenity=music_school) albo amenity=school, amenity=college, albo landuse=education w zale\u017cno\u015bci od tego, jakie plac\u00f3wki wchodz\u0105 w sk\u0142ad zespo\u0142u. Sprawd\u017a, kiedy stosowa\u0107 amenity=* a kiedy landuse=education."
            }
        },
        {
            "id": 16217,
            "type": "Feature",
            "geometry": {
                "type": "Point",
                "coordinates": [
                    17.4837,
                    50.35181
                ]
            },
            "properties": {
                "ref:rspo": 16217,
                "official_name": "Zesp\u00f3\u0142 Szkolno-Przedszkolny w Szybowicach",
                "name": "Zesp\u00f3\u0142 Szkolno-Przedszkolny w Szybowicach",
                "addr:postcode": "48-200",
                "addr:place": "Szybowice",
                "addr:housenumber": "72",
                "addr:city:simc": 502747,
                "phone": "+48 774366729",
                "email": "spszybowice@poczta.onet.pl",
                "ref:regon": "532406411",
                "ref:vatin": "PL7551829873",
                "operator": "Gmina Prudnik",
                "operator:type": "government",
                "landuse": "education",
                "fixme": "amenity=school, amenity=college albo landuse=education w zale\u017cno\u015bci od tego, jakie plac\u00f3wki wchodz\u0105 w sk\u0142ad zespo\u0142u. Sprawd\u017a, kiedy stosowa\u0107 amenity=* a kiedy landuse=education.",
                "note": "Children RSPO: 48324;48325"
            }
        },
        {
            "id": 48324,
            "type": "Feature",
            "geometry": {
                "type": "Point",
                "coordinates": [
                    17.4837,
                    50.35178
                ]
            },
            "properties": {
                "isced:level": "1;2",
                "ref:rspo": 48324,
                "official_name": "Publiczna Szko\u0142a Podstawowa im. Orl\u0105t Lwowskich w Szybowicach",
                "name": "Publiczna Szko\u0142a Podstawowa",
                "addr:postcode": "48-200",
                "addr:place": "Szybowice",
                "addr:housenumber": "72",
                "addr:city:simc": 502747,
                "phone": "+48 774366729",
                "email": "spszybowice@poczta.onet.pl",
                "ref:regon": "000697811",
                "ref:vatin": "PL7551712817",
                "operator": "Gmina Prudnik",
                "operator:type": "government",
                "amenity": "school",
                "note": "Parent RSPO: 16217"
            }
        },
        {
            "id": 48325,
            "type": "Feature",
            "geometry": {
                "type": "Point",
                "coordinates": [
                    17.4837,
                    50.35175
                ]
            },
            "properties": {
                "ref:rspo": 48325,
                "official_name": "Publiczne Przedszkole w Szybowicach",
                "name": "Publiczne Przedszkole w Szybowicach",
                "addr:postcode": "48-200",
                "addr:place": "Szybowice",
                "addr:housenumber": "72",
                "addr:city:simc": 502747,
                "phone": "+48 774366729",
                "email": "spszybowice@poczta.onet.pl",
                "ref:regon": "531071902",
                "ref:vatin": "PL7551712763",
                "operator": "Gmina Prudnik",
                "operator:type": "government",
                "amenity": "kindergarten",
                "note": "Parent RSPO: 16217"
            }
        },
        {
            "id": 17604,
            "type": "Feature",
            "geometry": {
                "type": "Point",
                "coordinates": [
                    17.5527,
                    50.35287
                ]
            },
            "properties": {
                "ref:rspo": 17604,
                "official_name": "Publiczne Stowarzyszeniowe Przedszkole \"Chatka Puchatka\" w Niemys\u0142owicach",
                "name": "Publiczne Stowarzyszeniowe Przedszkole \"Chatka Puchatka\" w Niemys\u0142owicach",
                "addr:postcode": "48-200",
                "addr:place": "Niemys\u0142owice",
                "addr:housenumber": "66",
                "addr:city:simc": 502687,
                "phone": "+48 505041584",
                "email": "sylwiai_9@tlen.pl",
                "ref:regon": "161482238",
                "operator": "Stowarzyszenie Odnowy Wsi Niemys\u0142owice - \"Bukowy Las\"",
                "operator:type": "ngo",
                "amenity": "kindergarten"
            }
        },
        {
            "id": 16218,
            "type": "Feature",
            "geometry": {
                "type": "Point",
                "coordinates": [
                    17.52706,
                    50.38046
                ]
            },
            "properties": {
                "ref:rspo": 16218,
                "official_name": "Zesp\u00f3\u0142 Szkolno-Przedszkolny w Rudziczce",
                "name": "Zesp\u00f3\u0142 Szkolno-Przedszkolny w Rudziczce",
                "addr:postcode": "48-200",
                "addr:place": "Rudziczka",
                "addr:housenumber": "266A",
                "addr:city:simc": 502701,
                "phone": "+48 774376676",
                "email": "sprudziczka@poczta.onet.pl",
                "ref:regon": "532406434",
                "ref:vatin": "PL7551829850",
                "operator": "Gmina Prudnik",
                "operator:type": "government",
                "landuse": "education",
                "fixme": "amenity=school, amenity=college albo landuse=education w zale\u017cno\u015bci od tego, jakie plac\u00f3wki wchodz\u0105 w sk\u0142ad zespo\u0142u. Sprawd\u017a, kiedy stosowa\u0107 amenity=* a kiedy landuse=education.",
                "note": "Children RSPO: 48326;48327"
            }
        },
        {
            "id": 48326,
            "type": "Feature",
            "geometry": {
                "type": "Point",
                "coordinates": [
                    17.52706,
                    50.38043
                ]
            },
            "properties": {
                "isced:level": "1;2",
                "ref:rspo": 48326,
                "official_name": "Publiczna Szko\u0142a Podstawowa im. Przyjaci\u00f3\u0142 Dzieci w Rudziczce",
                "name": "Publiczna Szko\u0142a Podstawowa",
                "addr:postcode": "48-200",
                "addr:place": "Rudziczka",
                "addr:housenumber": "266A",
                "addr:city:simc": 502701,
                "phone": "+48 774376676",
                "email": "sprudziczka@poczta.onet.pl",
                "ref:regon": "000697828",
                "ref:vatin": "PL7551712705",
                "operator": "Gmina Prudnik",
                "operator:type": "government",
                "amenity": "school",
                "note": "Parent RSPO: 16218"
            }
        },
        {
            "id": 48327,
            "type": "Feature",
            "geometry": {
                "type": "Point",
                "coordinates": [
                    17.52706,
                    50.3804
                ]
            },
            "properties": {
                "ref:rspo": 48327,
                "official_name": "Publiczne Przedszkole w Rudziczce",
                "name": "Publiczne Przedszkole w Rudziczce",
                "addr:postcode": "48-200",
                "addr:place": "Rudziczka",
                "addr:housenumber": "266A",
                "addr:city:simc": 502701,
                "phone": "+48 774376676",
                "ref:regon": "531071782",
                "ref:vatin": "PL7551571920",
                "operator": "Gmina Prudnik",
                "operator:type": "government",
                "amenity": "kindergarten",
                "note": "Parent RSPO: 16218"
            }
        }
    ]
}