{
    "type": "FeatureCollection",
    "features": [
        {
            "id": 13139,
            "type": "Feature",
            "geometry": {
                "type": "Point",
                "coordinates": [
                    17.56375,
                    50.31316
                ]
            },
            "properties": {
                "ref:rspo": 13139,
                "official_name": "Zesp\u00f3\u0142 Szkolno-Przedszkolny w Bia\u0142ej",
                "name": "Zesp\u00f3\u0142 Szkolno-Przedszkolny w Bia\u0142ej",
                "addr:country": "PL",
                "addr:postcode": "48-210",
                "addr:city": "Bia\u0142a",
                "addr:street": "Tysi\u0105clecia",
                "addr:housenumber": "16",
                "addr:teryt:simc": 23270,
                "addr:teryt:sym_ul": 965223,
                "contact:phone": "+48 774387047",
                "contact:email": "pspb1@o2.pl",
                "ref:regon": "160811533",
                "ref:vatin": "PL7551928931",
                "operator": "Gmina Bia\u0142a",
                "operator:type": "government",
                "landuse": "education",
                "fixme": "amenity=school, amenity=college albo landuse=education w zale\u017cno\u015bci od tego, jakie plac\u00f3wki wchodz\u0105 w sk\u0142ad zespo\u0142u. Sprawd\u017a, kiedy stosowa\u0107 amenity=* a kiedy landuse=education.",
                "note": "Children RSPO: 42515;42516"
            }
        },
        {
            "id": 42515,
            "type": "Feature",
            "geometry": {
                "type": "Point",
                "coordinates": [
                    17.56375,
                    50.31313
                ]
            },
            "properties": {
                "ref:rspo": 42515,
                "official_name": "Publiczne Przedszkole w Bia\u0142ej",
                "name": "Publiczne Przedszkole w Bia\u0142ej",
                "addr:country": "PL",
                "addr:postcode": "48-210",
                "addr:city": "Bia\u0142a",
                "addr:street": "Tysi\u0105clecia",
                "addr:housenumber": "16",
                "addr:teryt:simc": 23270,
                "addr:teryt:sym_ul": 965223,
                "contact:phone": "+48 774387143",
                "contact:email": "pspb1@o2.pl",
                "ref:regon": "530571755",
                "ref:vatin": "PL7551928931",
                "operator": "Gmina Bia\u0142a",
                "operator:type": "government",
                "amenity": "kindergarten",
                "note": "Parent RSPO: 13139"
            }
        },
        {
            "id": 42516,
            "type": "Feature",
            "geometry": {
                "type": "Point",
                "coordinates": [
                    17.56375,
                    50.313100000000006
                ]
            },
            "properties": {
                "isced:level": "1;2",
                "ref:rspo": 42516,
                "official_name": "Publiczna Szko\u0142a Podstawowa im. Jaros\u0142awa Iwaszkiewicza w Bia\u0142ej",
                "name": "Publiczna Szko\u0142a Podstawowa",
                "addr:country": "PL",
                "addr:postcode": "48-210",
                "addr:city": "Bia\u0142a",
                "addr:street": "Tysi\u0105clecia",
                "addr:housenumber": "16",
                "addr:teryt:simc": 23270,
                "addr:teryt:sym_ul": 965223,
                "contact:phone": "+48 774387047",
                "contact:email": "pspb1@o2.pl",
                "ref:regon": "000261663",
                "ref:vatin": "PL7551928931",
                "operator": "Gmina Bia\u0142a",
                "operator:type": "government",
                "amenity": "school",
                "note": "Children RSPO: 109520;109522Parent RSPO: 13139"
            }
        },
        {
            "id": 109520,
            "type": "Feature",
            "geometry": {
                "type": "Point",
                "coordinates": [
                    17.73718,
                    50.38694
                ]
            },
            "properties": {
                "isced:level": "1;2",
                "ref:rspo": 109520,
                "official_name": "Publiczna Szko\u0142a Podstawowa im. Jaros\u0142awa Iwaszkiewicza w Bia\u0142ej - Filia w Gostomi",
                "name": "Publiczna Szko\u0142a Podstawowa",
                "addr:country": "PL",
                "addr:postcode": "48-210",
                "addr:place": "Gostomia",
                "addr:housenumber": "46a",
                "addr:teryt:sym_ul": 491239,
                "contact:phone": "+48 774387047",
                "contact:email": "pspb1@o2.pl",
                "ref:regon": "261663000",
                "ref:vatin": "PL7551928931",
                "operator": "Gmina Bia\u0142a",
                "operator:type": "government",
                "amenity": "school",
                "note": "Parent RSPO: 42516"
            }
        },
        {
            "id": 109522,
            "type": "Feature",
            "geometry": {
                "type": "Point",
                "coordinates": [
                    17.6162,
                    50.41153
                ]
            },
            "properties": {
                "isced:level": "1;2",
                "ref:rspo": 109522,
                "official_name": "Publiczna Szko\u0142a Podstawowa im. Jaros\u0142awa Iwaszkiewicza w Bia\u0142ej - Filia w \u015amiczu",
                "name": "Publiczna Szko\u0142a Podstawowa",
                "addr:country": "PL",
                "addr:postcode": "48-210",
                "addr:place": "\u015amicz",
                "addr:housenumber": "106",
                "addr:teryt:sym_ul": 491558,
                "contact:phone": "+48 774387047",
                "contact:email": "pspb1@o2.pl",
                "ref:regon": "261663000",
                "ref:vatin": "PL7551928931",
                "operator": "Gmina Bia\u0142a",
                "operator:type": "government",
                "amenity": "school",
                "note": "Parent RSPO: 42516"
            }
        },
        {
            "id": 263596,
            "type": "Feature",
            "geometry": {
                "type": "Point",
                "coordinates": [
                    17.65242,
                    50.43922
                ]
            },
            "properties": {
                "isced:level": "1;2",
                "ref:rspo": 263596,
                "official_name": "Niepubliczna Szko\u0142a Podstawowa w Grabinie Z Oddzia\u0142em Przedszkolnym",
                "name": "Niepubliczna Szko\u0142a Podstawowa w Grabinie Z Oddzia\u0142em Przedszkolnym",
                "addr:country": "PL",
                "addr:postcode": "48-210",
                "addr:place": "Grabina",
                "addr:housenumber": "63",
                "addr:teryt:sym_ul": 491268,
                "contact:phone": "+48 775531278",
                "contact:email": "szkolagrabina@gmail.com",
                "contact:website": "http:\/\/www.szkolagrabina.pl",
                "ref:regon": "368206699",
                "operator": "Stowarzyszenie Rozwoju Edukacji W Grabinie",
                "operator:type": "ngo",
                "amenity": "school"
            }
        },
        {
            "id": 42795,
            "type": "Feature",
            "geometry": {
                "type": "Point",
                "coordinates": [
                    17.72577,
                    50.45516
                ]
            },
            "properties": {
                "ref:rspo": 42795,
                "official_name": "Publiczne Przedszkole w \u0141\u0105czniku",
                "name": "Publiczne Przedszkole w \u0141\u0105czniku",
                "addr:country": "PL",
                "addr:postcode": "48-220",
                "addr:city": "\u0141\u0105cznik",
                "addr:street": "Fabryczna",
                "addr:housenumber": "4b",
                "addr:teryt:simc": 4863,
                "addr:teryt:sym_ul": 491370,
                "contact:phone": "+48 774371292",
                "contact:email": "psplacznik@o2.pl",
                "ref:regon": "530583511",
                "ref:vatin": "PL7551928948",
                "operator": "Gmina Bia\u0142a",
                "operator:type": "government",
                "amenity": "kindergarten",
                "note": "Parent RSPO: 13070"
            }
        },
        {
            "id": 13070,
            "type": "Feature",
            "geometry": {
                "type": "Point",
                "coordinates": [
                    17.7255,
                    50.45543
                ]
            },
            "properties": {
                "ref:rspo": 13070,
                "official_name": "Zesp\u00f3\u0142 Szkolno-Przedszkolny w \u0141\u0105czniku",
                "name": "Zesp\u00f3\u0142 Szkolno-Przedszkolny w \u0141\u0105czniku",
                "addr:country": "PL",
                "addr:postcode": "48-220",
                "addr:city": "\u0141\u0105cznik",
                "addr:street": "Fabryczna",
                "addr:housenumber": "4a",
                "addr:teryt:simc": 4863,
                "addr:teryt:sym_ul": 491370,
                "contact:phone": "+48 774371292",
                "contact:email": "psplacznik@o2.pl",
                "contact:website": "https:\/\/psplacznik.edupage.org\/",
                "ref:regon": "160811504",
                "ref:vatin": "PL7551928948",
                "operator": "Gmina Bia\u0142a",
                "operator:type": "government",
                "landuse": "education",
                "fixme": "amenity=school, amenity=college albo landuse=education w zale\u017cno\u015bci od tego, jakie plac\u00f3wki wchodz\u0105 w sk\u0142ad zespo\u0142u. Sprawd\u017a, kiedy stosowa\u0107 amenity=* a kiedy landuse=education.",
                "note": "Children RSPO: 42795;55750"
            }
        },
        {
            "id": 55750,
            "type": "Feature",
            "geometry": {
                "type": "Point",
                "coordinates": [
                    17.7255,
                    50.4554
                ]
            },
            "properties": {
                "isced:level": "1;2",
                "ref:rspo": 55750,
                "official_name": "Publiczna Szko\u0142a Podstawowa im. Filipa Roboty w \u0141\u0105czniku",
                "name": "Publiczna Szko\u0142a Podstawowa",
                "addr:country": "PL",
                "addr:postcode": "48-220",
                "addr:city": "\u0141\u0105cznik",
                "addr:street": "Fabryczna",
                "addr:housenumber": "4a",
                "addr:teryt:simc": 4863,
                "addr:teryt:sym_ul": 491370,
                "contact:phone": "+48 774371292",
                "contact:email": "psplacznik@o2.pl",
                "ref:regon": "001166607",
                "ref:vatin": "PL7551928948",
                "operator": "Gmina Bia\u0142a",
                "operator:type": "government",
                "amenity": "school",
                "note": "Children RSPO: 109517Parent RSPO: 13070"
            }
        },
        {
            "id": 109517,
            "type": "Feature",
            "geometry": {
                "type": "Point",
                "coordinates": [
                    17.69564,
                    50.462
                ]
            },
            "properties": {
                "isced:level": "1;2",
                "ref:rspo": 109517,
                "official_name": "Publiczna Szko\u0142a Podstawowa im. Filipa Roboty w \u0141\u0105czniku - Filia w Pog\u00f3rzu",
                "name": "Publiczna Szko\u0142a Podstawowa",
                "addr:country": "PL",
                "addr:postcode": "48-220",
                "addr:place": "Pog\u00f3rze",
                "addr:housenumber": "162",
                "addr:teryt:sym_ul": 491469,
                "contact:phone": "+48 774371292",
                "contact:email": "psplacznik@o2.pl",
                "ref:regon": "116660700",
                "ref:vatin": "PL7551928948",
                "operator": "Gmina Bia\u0142a",
                "operator:type": "government",
                "amenity": "school",
                "note": "Parent RSPO: 55750"
            }
        }
    ]
}