{"type":"FeatureCollection","features":[{"id":107103,"type":"Feature","geometry":{"type":"Point","coordinates":[15.25216,52.68814]},"properties":{"ref:rspo":107103,"official_name":"Przedszkole Niepubliczne Dzieci\u0119cy Raj","name":"Przedszkole Niepubliczne Dzieci\u0119cy Raj","addr:country":"PL","addr:postcode":"66-400","addr:city":"Gorz\u00f3w Wielkopolski","addr:street":"ul. Osadnicza","addr:housenumber":"3","addr:teryt:simc":15227,"addr:teryt:sym_ul":935140,"contact:phone":"+48 535355292","contact:email":"przedszkole@montessori.gorzow.com","contact:website":"http:\/\/www.razem.edu.pl","ref:regon":"081106422","operator":"Stowarzyszenie Edukacyjne \"Razem\"","operator:type":"ngo","amenity":"kindergarten"}},{"id":12306,"type":"Feature","geometry":{"type":"Point","coordinates":[15.26235,52.70178]},"properties":{"ref:rspo":12306,"official_name":"Zesp\u00f3\u0142 Szk\u00f3\u0142 Ogrodniczych w Gorzowie Wlkp.","name":"Zesp\u00f3\u0142 Szk\u00f3\u0142 Ogrodniczych w Gorzowie Wlkp.","addr:country":"PL","addr:postcode":"66-400","addr:city":"Gorz\u00f3w Wielkopolski","addr:street":"ul. Pozna\u0144ska","addr:housenumber":"23","addr:teryt:simc":17394,"addr:teryt:sym_ul":935140,"contact:phone":"+48 957239524","contact:email":"zsog@edu.gorzow.pl","contact:website":"http:\/\/zsogorzow.pl","ref:regon":"000094797","ref:vatin":"PL5991101531","operator":"Miasto Gorz\u00f3w Wielkopolski","operator:type":"government","landuse":"education","fixme":"amenity=school, amenity=college albo landuse=education w zale\u017cno\u015bci od tego, jakie plac\u00f3wki wchodz\u0105 w sk\u0142ad zespo\u0142u. Sprawd\u017a, kiedy stosowa\u0107 amenity=* a kiedy landuse=education.","note":"Children RSPO: 83235;83236"}},{"id":83235,"type":"Feature","geometry":{"type":"Point","coordinates":[15.26235,52.70175]},"properties":{"isced:level":"3","ref:rspo":83235,"official_name":"Technikum Nr 9 w Zespole Szk\u00f3\u0142 Ogrodniczych Gorzowie Wielkopolskim","name":"Technikum Nr 9 w Zespole Szk\u00f3\u0142 Ogrodniczych Gorzowie Wielkopolskim","addr:country":"PL","addr:postcode":"66-400","addr:city":"Gorz\u00f3w Wielkopolski","addr:street":"ul. Pozna\u0144ska","addr:housenumber":"23","addr:teryt:simc":17394,"addr:teryt:sym_ul":935140,"contact:phone":"+48 957239524","contact:email":"zsog@edu.gorzow.pl","contact:website":"http:\/\/zsogorzow.pl","ref:regon":"211262455","operator":"Miasto Gorz\u00f3w Wielkopolski","operator:type":"government","amenity":"school","note":"Parent RSPO: 12306"}},{"id":83236,"type":"Feature","geometry":{"type":"Point","coordinates":[15.26235,52.70172]},"properties":{"isced:level":"3","ref:rspo":83236,"official_name":"Bran\u017cowa Szko\u0142a I Stopnia Nr 9 w Zespole Szk\u00f3\u0142 Ogrodniczych Gorzowie Wielkopolskim","name":"Bran\u017cowa Szko\u0142a I Stopnia Nr 9 w Zespole Szk\u00f3\u0142 Ogrodniczych Gorzowie Wielkopolskim","addr:country":"PL","addr:postcode":"66-400","addr:city":"Gorz\u00f3w Wielkopolski","addr:street":"ul. Pozna\u0144ska","addr:housenumber":"23","addr:teryt:simc":17394,"addr:teryt:sym_ul":935140,"contact:phone":"+48 957239524","contact:email":"zsog@edu.gorzow.pl","contact:website":"http:\/\/zsogorzow.pl","ref:regon":"211262432","operator":"Miasto Gorz\u00f3w Wielkopolski","operator:type":"government","amenity":"school","note":"Parent RSPO: 12306"}},{"id":115414,"type":"Feature","geometry":{"type":"Point","coordinates":[15.25316,52.71723]},"properties":{"ref:rspo":115414,"official_name":"Bursa Si\u00f3str Maryi Niepokalanej dla Dziewcz\u0105t","name":"Bursa Si\u00f3str Maryi Niepokalanej dla Dziewcz\u0105t","addr:country":"PL","addr:postcode":"66-400","addr:city":"Gorz\u00f3w Wielkopolski","addr:street":"ul. Koniawska","addr:housenumber":"51","addr:teryt:simc":9142,"addr:teryt:sym_ul":935140,"contact:phone":"+48 957239677","contact:email":"bursa@bursasmi.gorzow.pl","contact:website":"http:\/\/www.bursasmi.gorzow.pl","ref:regon":"081146060","operator":"Zgromadzenie Si\u00f3str Maryi Niepokalanej Prowincja Polska","operator:type":"religious","building":"dormitory"}},{"id":86843,"type":"Feature","geometry":{"type":"Point","coordinates":[15.17657,52.7182]},"properties":{"ref:rspo":86843,"official_name":"Prywatne Przedszkole Elemelek","name":"Prywatne Przedszkole Elemelek","addr:country":"PL","addr:postcode":"66-400","addr:city":"Gorz\u00f3w Wielkopolski","addr:street":"ul. Kostrzy\u0144ska","addr:housenumber":"64","addr:teryt:simc":9495,"addr:teryt:sym_ul":935140,"contact:phone":"+48 692447160","contact:email":"info@elemelek.net","contact:website":"http:\/\/www.elemelek.net","ref:regon":"081088718","operator":"Marta Sobieszek","operator:type":"private","amenity":"kindergarten"}},{"id":61819,"type":"Feature","geometry":{"type":"Point","coordinates":[15.25761,52.71824]},"properties":{"ref:rspo":61819,"official_name":"Przedszkole Miejskie Nr 4 im. Ma\u0142ych Odkrywc\u00f3w w Gorzowie Wlkp.","name":"Przedszkole Miejskie Nr 4","addr:country":"PL","addr:postcode":"66-400","addr:city":"Gorz\u00f3w Wielkopolski","addr:street":"ul. Kobylog\u00f3rska","addr:housenumber":"107","addr:teryt:simc":8707,"addr:teryt:sym_ul":935140,"contact:phone":"+48 957226452","contact:email":"p4@edu.gorzow.pl","contact:website":"http:\/\/www.pm4-gorzow.pl","ref:regon":"080488752","ref:vatin":"PL5993137875","operator":"Miasto Gorz\u00f3w Wielkopolski","operator:type":"government","amenity":"kindergarten"}},{"id":68544,"type":"Feature","geometry":{"type":"Point","coordinates":[15.25589,52.7186499]},"properties":{"isced:level":"1;2","ref:rspo":68544,"official_name":"Szko\u0142a Podstawowa Nr 4 im. Henryka Sienkiewicza w Gorzowie Wlkp.","name":"Szko\u0142a Podstawowa Nr 4","addr:country":"PL","addr:postcode":"66-400","addr:city":"Gorz\u00f3w Wielkopolski","addr:street":"ul. Kobylog\u00f3rska","addr:housenumber":"110","addr:teryt:simc":8707,"addr:teryt:sym_ul":935140,"contact:phone":"+48 957239621","contact:email":"sp4@edu.gorzow.pl","contact:website":"https:\/\/sp4-gorzow.edupage.org","ref:regon":"211192565","ref:vatin":"PL5992725570","operator":"Miasto Gorz\u00f3w Wielkopolski","operator:type":"government","amenity":"school"}},{"id":71657,"type":"Feature","geometry":{"type":"Point","coordinates":[15.20931,52.71958]},"properties":{"ref:rspo":71657,"official_name":"Mi\u0119dzyszkolny O\u015brodek Sportowy w Gorzowie Wlkp.","name":"Mi\u0119dzyszkolny O\u015brodek Sportowy w Gorzowie Wlkp.","addr:country":"PL","addr:postcode":"66-400","addr:city":"Gorz\u00f3w Wielkopolski","addr:street":"ul. Fabryczna","addr:housenumber":"177","addr:teryt:simc":4863,"addr:teryt:sym_ul":935140,"contact:phone":"+48 957223982","contact:email":"mos@edu.gorzow.pl","contact:website":"http:\/\/www.mosgorzow.pl\/","ref:regon":"210203373","ref:vatin":"PL5992491379","operator":"Miasto Gorz\u00f3w Wielkopolski","operator:type":"government","leisure":"sports_centre"}},{"id":53997,"type":"Feature","geometry":{"type":"Point","coordinates":[15.23521,52.7204]},"properties":{"ref:rspo":53997,"official_name":"Przedszkole Miejskie Nr 13 im. Bolka I Lolka w Gorzowie Wlkp.","name":"Przedszkole Miejskie Nr 13","addr:country":"PL","addr:postcode":"66-400","addr:city":"Gorz\u00f3w Wielkopolski","addr:street":"ul. Bracka","addr:housenumber":"67","addr:teryt:simc":2009,"addr:teryt:sym_ul":935140,"contact:phone":"+48 957228737","contact:email":"p13@edu.gorzow.pl","contact:website":"http:\/\/www.przedszkolebolkailolka.edupage.org","ref:regon":"080488195","ref:vatin":"PL5993137533","operator":"Miasto Gorz\u00f3w Wielkopolski","operator:type":"government","amenity":"kindergarten"}},{"id":61832,"type":"Feature","geometry":{"type":"Point","coordinates":[15.22446,52.72082]},"properties":{"ref:rspo":61832,"official_name":"Miejskie Przedszkole Integracyjne Nr 27 im. Weso\u0142ych Krasnali w Gorzowie Wlkp.","name":"Miejskie Przedszkole Integracyjne Nr 27","addr:country":"PL","addr:postcode":"66-400","addr:city":"Gorz\u00f3w Wielkopolski","addr:street":"ul. \u015al\u0105ska","addr:housenumber":"42","addr:teryt:simc":22308,"addr:teryt:sym_ul":935140,"contact:phone":"+48 957369606","contact:email":"p27@edu.gorzow.pl","contact:website":"http:\/\/www.mpi27-gorzow.pl","ref:regon":"080487132","ref:vatin":"PL5993138202","operator":"Miasto Gorz\u00f3w Wielkopolski","operator:type":"government","amenity":"kindergarten"}},{"id":13935,"type":"Feature","geometry":{"type":"Point","coordinates":[15.22391,52.72125]},"properties":{"ref:rspo":13935,"official_name":"Zesp\u00f3\u0142 Szk\u00f3\u0142 Odzie\u017cowych im. Krzysztofa Kie\u015blowskiego w Gorzowie Wlkp.","name":"Zesp\u00f3\u0142 Szk\u00f3\u0142 Odzie\u017cowych","addr:country":"PL","addr:postcode":"66-400","addr:city":"Gorz\u00f3w Wielkopolski","addr:street":"ul. \u015al\u0105ska","addr:housenumber":"64c","addr:teryt:simc":22308,"addr:teryt:sym_ul":935140,"contact:phone":"+48 957280892","contact:email":"zsod@edu.gorzow.pl","contact:website":"http:\/\/www.odziezowka.gorzow.pl","ref:regon":"210203278","ref:vatin":"PL5991080415","operator":"Miasto Gorz\u00f3w Wielkopolski","operator:type":"government","landuse":"education","fixme":"amenity=school, amenity=college albo landuse=education w zale\u017cno\u015bci od tego, jakie plac\u00f3wki wchodz\u0105 w sk\u0142ad zespo\u0142u. Sprawd\u017a, kiedy stosowa\u0107 amenity=* a kiedy landuse=education.","note":"Children RSPO: 83237;83239"}},{"id":83237,"type":"Feature","geometry":{"type":"Point","coordinates":[15.22391,52.721219999999995]},"properties":{"isced:level":"3","ref:rspo":83237,"official_name":"Technikum Nr 4 w Zespole Szk\u00f3\u0142 Odzie\u017cowych im. Krzysztofa Kie\u015blowskiego w Gorzowie Wielkopolskim","name":"Technikum Nr 4 w Zespole Szk\u00f3\u0142 Odzie\u017cowych","addr:country":"PL","addr:postcode":"66-400","addr:city":"Gorz\u00f3w Wielkopolski","addr:street":"ul. \u015al\u0105ska","addr:housenumber":"64c","addr:teryt:simc":22308,"addr:teryt:sym_ul":935140,"contact:phone":"+48 957280892","contact:email":"zsod@edu.gorzow.pl","contact:website":"http:\/\/www.odziezowka.gorzow.pl","ref:regon":"211271253","operator":"Miasto Gorz\u00f3w Wielkopolski","operator:type":"government","amenity":"school","note":"Parent RSPO: 13935"}},{"id":83239,"type":"Feature","geometry":{"type":"Point","coordinates":[15.22391,52.72119]},"properties":{"isced:level":"3","ref:rspo":83239,"official_name":"Bran\u017cowa Szko\u0142a I Stopnia Nr 4 w Zespole Szk\u00f3\u0142 Odzie\u017cowych im. Krzysztofa Kie\u015blowskiego w Gorzowie Wielkopolskim","name":"Bran\u017cowa Szko\u0142a I Stopnia Nr 4 w Zespole Szk\u00f3\u0142 Odzie\u017cowych","addr:country":"PL","addr:postcode":"66-400","addr:city":"Gorz\u00f3w Wielkopolski","addr:street":"ul. \u015al\u0105ska","addr:housenumber":"64c","addr:teryt:simc":22308,"addr:teryt:sym_ul":935140,"contact:phone":"+48 957280892","contact:email":"zsod@edu.gorzow.pl","contact:website":"http:\/\/www.odziezowka.gorzow.pl","ref:regon":"211271230","operator":"Miasto Gorz\u00f3w Wielkopolski","operator:type":"government","amenity":"school","note":"Parent RSPO: 13935"}},{"id":267273,"type":"Feature","geometry":{"type":"Point","coordinates":[15.16926,52.7216499]},"properties":{"ref:rspo":267273,"official_name":"Akademia Msp Ochrony Zdrowia I Urody","name":"Akademia Msp Ochrony Zdrowia I Urody","addr:country":"PL","addr:postcode":"66-400","addr:city":"Gorz\u00f3w Wielkopolski","addr:street":"ul. D\u0105broszy\u0144ska","addr:housenumber":"60","addr:teryt:simc":3659,"addr:teryt:sym_ul":935140,"contact:phone":"+48 506615971","contact:email":"dyrektor@akademiamsp.eu","ref:regon":"380052413","ref:vatin":"PL5991257368","operator":"Monika Sekita - Pilch","operator:type":"private","fixme":"w zale\u017cno\u015bci od przedmiotu dzia\u0142alno\u015bci (np. amenity=training + training=*, amenity=dancing_school, amenity=language_school, amenity=music_school)"}},{"id":68543,"type":"Feature","geometry":{"type":"Point","coordinates":[15.17861,52.72246]},"properties":{"isced:level":"1;2","ref:rspo":68543,"official_name":"Szko\u0142a Podstawowa Nr 12 im. Kornela Makuszy\u0144skiego w Gorzowie Wlkp.","name":"Szko\u0142a Podstawowa Nr 12","addr:country":"PL","addr:postcode":"66-400","addr:city":"Gorz\u00f3w Wielkopolski","addr:street":"ul. Dobra","addr:housenumber":"16","addr:teryt:simc":3928,"addr:teryt:sym_ul":935140,"contact:phone":"+48 957226693","contact:email":"sp12@edu.gorzow.pl","contact:website":"http:\/\/www.sp12gorzow.edupage.org","ref:regon":"210202965","ref:vatin":"PL5991101264","operator":"Miasto Gorz\u00f3w Wielkopolski","operator:type":"government","amenity":"school"}},{"id":71656,"type":"Feature","geometry":{"type":"Point","coordinates":[15.23154,52.72249]},"properties":{"ref:rspo":71656,"official_name":"M\u0142odzie\u017cowy Dom Kultury w Gorzowie Wlkp.","name":"M\u0142odzie\u017cowy Dom Kultury w Gorzowie Wlkp.","addr:country":"PL","addr:postcode":"66-400","addr:city":"Gorz\u00f3w Wielkopolski","addr:street":"ul. \u015al\u0105ska","addr:housenumber":"20","addr:teryt:simc":22308,"addr:teryt:sym_ul":935140,"contact:phone":"+48 957228575","contact:email":"mdk@edu.gorzow.pl","contact:website":"http:\/\/www.mdk.gorzow.pl","ref:regon":"210203083","ref:vatin":"PL5991113770","operator":"Miasto Gorz\u00f3w Wielkopolski","operator:type":"government","amenity":"community_centre","community_centre:for":"juvenile"}},{"id":12300,"type":"Feature","geometry":{"type":"Point","coordinates":[15.24564,52.72292]},"properties":{"ref:rspo":12300,"official_name":"Zesp\u00f3\u0142 Szk\u00f3\u0142 Og\u00f3lnokszta\u0142c\u0105cych Nr 2 w Gorzowie Wlkp.","name":"Zesp\u00f3\u0142 Szk\u00f3\u0142 Og\u00f3lnokszta\u0142c\u0105cych Nr 2 w Gorzowie Wlkp.","addr:country":"PL","addr:postcode":"66-400","addr:city":"Gorz\u00f3w Wielkopolski","addr:street":"ul. Przemys\u0142owa","addr:housenumber":"22","addr:teryt:simc":17742,"addr:teryt:sym_ul":935140,"contact:phone":"+48 957228438","contact:email":"2lo@edu.gorzow.pl","contact:website":"http:\/\/www.2lo.gorzow.pl","ref:regon":"210203166","ref:vatin":"PL5992296850","operator":"Miasto Gorz\u00f3w Wielkopolski","operator:type":"government","landuse":"education","fixme":"amenity=school, amenity=college albo landuse=education w zale\u017cno\u015bci od tego, jakie plac\u00f3wki wchodz\u0105 w sk\u0142ad zespo\u0142u. Sprawd\u017a, kiedy stosowa\u0107 amenity=* a kiedy landuse=education.","note":"Children RSPO: 83255;84261"}},{"id":83255,"type":"Feature","geometry":{"type":"Point","coordinates":[15.24564,52.72289]},"properties":{"isced:level":"3","ref:rspo":83255,"official_name":"Ii Liceum Og\u00f3lnokszta\u0142c\u0105ce im. Marii Sk\u0142odowskiej - Curie w Gorzowie Wielkopolskim w Zespole Szk\u00f3\u0142 Og\u00f3lnokszta\u0142c\u0105cych Nr 2","name":"Ii Liceum Og\u00f3lnokszta\u0142c\u0105ce","addr:country":"PL","addr:postcode":"66-400","addr:city":"Gorz\u00f3w Wielkopolski","addr:street":"ul. Przemys\u0142owa","addr:housenumber":"22","addr:teryt:simc":17742,"addr:teryt:sym_ul":935140,"contact:phone":"+48 957228438","contact:email":"2lo@edu.gorzow.pl","contact:website":"http:\/\/2lo.gorzow.pl","ref:regon":"081087558","operator":"Miasto Gorz\u00f3w Wielkopolski","operator:type":"government","amenity":"school","note":"Parent RSPO: 12300"}},{"id":84261,"type":"Feature","geometry":{"type":"Point","coordinates":[15.24564,52.722860000000004]},"properties":{"isced:level":"3","ref:rspo":84261,"official_name":"Ii Liceum Og\u00f3lnokszta\u0142c\u0105ce dla Doros\u0142ych w Gorzowie Wielkopolskim w Zespole Szk\u00f3\u0142 Og\u00f3lnokszta\u0142c\u0105cych Nr 2","name":"Ii Liceum Og\u00f3lnokszta\u0142c\u0105ce dla Doros\u0142ych w Gorzowie Wielkopolskim w Zespole Szk\u00f3\u0142 Og\u00f3lnokszta\u0142c\u0105cych Nr 2","addr:country":"PL","addr:postcode":"66-400","addr:city":"Gorz\u00f3w Wielkopolski","addr:street":"ul. Przemys\u0142owa","addr:housenumber":"22","addr:teryt:simc":17742,"addr:teryt:sym_ul":935140,"contact:phone":"+48 957228438","contact:email":"2lo@edu.gorzow.pl","ref:regon":"081088428","operator":"Miasto Gorz\u00f3w Wielkopolski","operator:type":"government","amenity":"school","note":"Parent RSPO: 12300"}},{"id":68542,"type":"Feature","geometry":{"type":"Point","coordinates":[15.23477,52.7249]},"properties":{"isced:level":"1;2","ref:rspo":68542,"official_name":"Szko\u0142a Podstawowa Nr 10 Z Oddzia\u0142ami Integracyjnymi im. Tadeusza Kosciuszki w Gorzowie Wlkp.","name":"Szko\u0142a Podstawowa Nr 10 Z Oddzia\u0142ami Integracyjnymi","addr:country":"PL","addr:postcode":"66-400","addr:city":"Gorz\u00f3w Wielkopolski","addr:street":"ul. Towarowa","addr:housenumber":"21","addr:teryt:simc":22907,"addr:teryt:sym_ul":935140,"contact:phone":"+48 957225392","contact:email":"sp10@edu.gorzow.pl","contact:website":"http:\/\/www.sp10gorzow.pl","ref:regon":"210202942","ref:vatin":"PL5991101519","operator":"Miasto Gorz\u00f3w Wielkopolski","operator:type":"government","amenity":"school"}},{"id":125968,"type":"Feature","geometry":{"type":"Point","coordinates":[15.24517,52.72557]},"properties":{"isced:level":"4","ref:rspo":125968,"official_name":"Akademia Msp Ochrony Zdrowia I Urody Szko\u0142a Policealna","name":"Akademia Msp Ochrony Zdrowia I Urody Szko\u0142a Policealna","addr:country":"PL","addr:postcode":"66-400","addr:city":"Gorz\u00f3w Wielkopolski","addr:street":"ul. Targowa","addr:housenumber":"9","addr:teryt:simc":22659,"addr:teryt:sym_ul":935140,"contact:phone":"+48 791538038","contact:email":"dyrektor@akademiamsp.eu","contact:website":"http:\/\/www.akademiamsp.eu","ref:regon":"360139740","operator":"Monika Sekita - Pilch","operator:type":"private","amenity":"college"}},{"id":57376,"type":"Feature","geometry":{"type":"Point","coordinates":[15.20135,52.72594]},"properties":{"ref:rspo":57376,"official_name":"Przedszkole Miejskie Nr 3 im. Krasnala Ha\u0142aba\u0142y w Gorzowie Wlkp.","name":"Przedszkole Miejskie Nr 3","addr:country":"PL","addr:postcode":"66-400","addr:city":"Gorz\u00f3w Wielkopolski","addr:street":"ul. S\u0142oneczna","addr:housenumber":"11","addr:teryt:simc":20254,"addr:teryt:sym_ul":935140,"contact:phone":"+48 957223363","contact:email":"p3@edu.gorzow.pl","contact:website":"http:\/\/www.p3.edu.gorzow.pl","ref:regon":"080478742","ref:vatin":"PL5993136841","operator":"Miasto Gorz\u00f3w Wielkopolski","operator:type":"government","amenity":"kindergarten"}},{"id":80867,"type":"Feature","geometry":{"type":"Point","coordinates":[15.20496,52.72719]},"properties":{"isced:level":"1;2","ref:rspo":80867,"official_name":"Szko\u0142a Podstawowa Nr 6 Z Oddzia\u0142ami Sportowymi im. W\u0142adys\u0142awa Broniewskiego w Gorzowie Wlkp.","name":"Szko\u0142a Podstawowa Nr 6 Z Oddzia\u0142ami Sportowymi","addr:country":"PL","addr:postcode":"66-400","addr:city":"Gorz\u00f3w Wielkopolski","addr:street":"ul. Gwia\u017adzista","addr:housenumber":"14","addr:teryt:simc":6422,"addr:teryt:sym_ul":935140,"contact:phone":"+48 957202715","contact:email":"sp6@edu.gorzow.pl","contact:website":"http:\/\/www.sp6.edu.gorzow.pl","ref:regon":"211260781","ref:vatin":"PL5992564055","operator":"Miasto Gorz\u00f3w Wielkopolski","operator:type":"government","amenity":"school"}},{"id":53985,"type":"Feature","geometry":{"type":"Point","coordinates":[15.229169845581,52.728210449219]},"properties":{"ref:rspo":53985,"official_name":"Przedszkole Miejskie Nr 10 im. Jasia I Ma\u0142gosi w Gorzowie Wlkp.","name":"Przedszkole Miejskie Nr 10","addr:country":"PL","addr:postcode":"66-400","addr:city":"Gorz\u00f3w Wielkopolski","addr:street":"ul. Joachima Lelewela","addr:housenumber":"1","addr:teryt:simc":10793,"addr:teryt:sym_ul":935140,"contact:phone":"+48 957213279","contact:email":"p10@edu.gorzow.pl","contact:website":"http:\/\/www.p10.gorzow.com.pl","ref:regon":"080488769","ref:vatin":"PL5993137869","operator":"Miasto Gorz\u00f3w Wielkopolski","operator:type":"government","amenity":"kindergarten"}},{"id":56676,"type":"Feature","geometry":{"type":"Point","coordinates":[15.229169845581,52.728180449218996]},"properties":{"ref:rspo":56676,"official_name":"Przedszkole Miejskie Nr 17 w Gorzowie Wlkp.","name":"Przedszkole Miejskie Nr 17 w Gorzowie Wlkp.","addr:country":"PL","addr:postcode":"66-400","addr:city":"Gorz\u00f3w Wielkopolski","addr:street":"ul. gen. Stanis\u0142awa Maczka","addr:housenumber":"21","addr:teryt:simc":11862,"addr:teryt:sym_ul":935140,"contact:phone":"+48 957364100","contact:email":"p17@edu.gorzow.pl","contact:website":"http:\/\/p17.edu.gorzow.pl","ref:regon":"080484435","ref:vatin":"PL5993137510","operator":"Miasto Gorz\u00f3w Wielkopolski","operator:type":"government","amenity":"kindergarten"}},{"id":114114,"type":"Feature","geometry":{"type":"Point","coordinates":[15.229169845581,52.728150449219]},"properties":{"isced:level":"1;2","ref:rspo":114114,"official_name":"Katolicka Szko\u0142a Podstawowa im. \u015aw. Jana Paw\u0142a Ii","name":"Katolicka Szko\u0142a Podstawowa","addr:country":"PL","addr:postcode":"66-400","addr:city":"Gorz\u00f3w Wielkopolski","addr:street":"ul. Waldemara Ku\u0107ki","addr:housenumber":"1","addr:teryt:simc":26729,"addr:teryt:sym_ul":935140,"contact:phone":"+48 957205736","contact:email":"ksp-gorzow@wp.pl","contact:website":"http:\/\/www.kspgorzow.pl\/","ref:regon":"081129044","operator":"Centrum Edukacyjne Diecezji Zielonog\u00f3rsko-Gorzowskiej","operator:type":"religious","amenity":"school"}},{"id":132165,"type":"Feature","geometry":{"type":"Point","coordinates":[15.229169845581,52.728120449219]},"properties":{"ref:rspo":132165,"official_name":"Niepubliczne Przedszkole \"Nibylandia\"","name":"Niepubliczne Przedszkole \"Nibylandia\"","addr:country":"PL","addr:postcode":"66-400","addr:city":"Gorz\u00f3w Wielkopolski","addr:street":"ul. Folwarczna","addr:housenumber":"10","addr:teryt:simc":5109,"addr:teryt:sym_ul":935140,"contact:phone":"+48 691724551","contact:email":"biuro@nibylandia.gorzow.pl","contact:website":"http:\/\/www.nibylandia.gorzow.pl","ref:regon":"365492049","ref:vatin":"PL5991220514","operator":"Agnieszka Cwojdzi\u0144ska","operator:type":"private","amenity":"kindergarten"}},{"id":108936,"type":"Feature","geometry":{"type":"Point","coordinates":[15.23344,52.72867]},"properties":{"isced:level":"4","ref:rspo":108936,"official_name":"Eduatut Policealna Szko\u0142a Medyczna w Gorzowie Wielkopolskim","name":"Eduatut Policealna Szko\u0142a Medyczna w Gorzowie Wielkopolskim","addr:country":"PL","addr:postcode":"66-400","addr:city":"Gorz\u00f3w Wielkopolski","addr:street":"ul. Garbary","addr:housenumber":"9","addr:teryt:simc":5321,"addr:teryt:sym_ul":935140,"contact:phone":"+48 570011266","contact:email":"w.dlugosz-bujak@eduatut.pl","contact:website":"http:\/\/www.eduatut.pl","ref:regon":"081109515","operator":"Gelino Gw Sp\u00f3\u0142ka Z Ograniczon\u0105 Odpowiedzialno\u015bci\u0105","operator:type":"private","amenity":"college"}},{"id":276006,"type":"Feature","geometry":{"type":"Point","coordinates":[15.23344,52.72864]},"properties":{"isced:level":"3","ref:rspo":276006,"official_name":"Eduatut Szko\u0142a Bran\u017cowa II St. w Gorzowie Wielkopolskim","name":"Eduatut Szko\u0142a Bran\u017cowa II St. w Gorzowie Wielkopolskim","addr:country":"PL","addr:postcode":"66-400","addr:city":"Gorz\u00f3w Wielkopolski","addr:street":"ul. Garbary","addr:housenumber":"9","addr:teryt:simc":5321,"addr:teryt:sym_ul":935140,"contact:phone":"+48 570011266","contact:email":"sekretariat@eduatut.pl","ref:regon":"386965126","operator":"Gelino Gw Sp\u00f3\u0142ka Z Ograniczon\u0105 Odpowiedzialno\u015bci\u0105","operator:type":"private","amenity":"school"}},{"id":279079,"type":"Feature","geometry":{"type":"Point","coordinates":[15.23344,52.72861]},"properties":{"ref:rspo":279079,"official_name":"Edugorz\u00f3w Centrum Szkoleniowe","name":"Edugorz\u00f3w Centrum Szkoleniowe","addr:country":"PL","addr:postcode":"66-400","addr:city":"Gorz\u00f3w Wielkopolski","addr:street":"ul. Garbary","addr:housenumber":"9","addr:teryt:simc":5321,"addr:teryt:sym_ul":935140,"contact:phone":"+48 510600772","contact:email":"skrypt@edugorzow.pl","ref:regon":"520574767","operator":"Skrypt  Sp\u00f3\u0142ka Z Ograniczon\u0105 Odpowiedzialno\u015bci\u0105","operator:type":"private","fixme":"w zale\u017cno\u015bci od przedmiotu dzia\u0142alno\u015bci (np. amenity=training + training=*, amenity=dancing_school, amenity=language_school, amenity=music_school)"}},{"id":279150,"type":"Feature","geometry":{"type":"Point","coordinates":[15.23344,52.72858]},"properties":{"isced:level":"3","ref:rspo":279150,"official_name":"Edugorz\u00f3w Liceum Og\u00f3lnokszta\u0142c\u0105ce dla Doros\u0142ych","name":"Edugorz\u00f3w Liceum Og\u00f3lnokszta\u0142c\u0105ce dla Doros\u0142ych","addr:country":"PL","addr:postcode":"66-400","addr:city":"Gorz\u00f3w Wielkopolski","addr:street":"ul. Garbary","addr:housenumber":"9","addr:teryt:simc":5321,"addr:teryt:sym_ul":935140,"contact:phone":"+48 510600772","contact:email":"skrypt@edugorzow.pl","ref:regon":"520762836","operator":"Skrypt  Sp\u00f3\u0142ka Z Ograniczon\u0105 Odpowiedzialno\u015bci\u0105","operator:type":"private","amenity":"school"}},{"id":279151,"type":"Feature","geometry":{"type":"Point","coordinates":[15.23344,52.72855]},"properties":{"isced:level":"3","ref:rspo":279151,"official_name":"Edugorz\u00f3w Bran\u017cowa Szko\u0142a II Stopnia","name":"Edugorz\u00f3w Bran\u017cowa Szko\u0142a II Stopnia","addr:country":"PL","addr:postcode":"66-400","addr:city":"Gorz\u00f3w Wielkopolski","addr:street":"ul. Garbary","addr:housenumber":"9","addr:teryt:simc":5321,"addr:teryt:sym_ul":935140,"contact:phone":"+48 510600772","contact:email":"skrypt@edugorzow.pl","ref:regon":"520763014","operator":"Skrypt  Sp\u00f3\u0142ka Z Ograniczon\u0105 Odpowiedzialno\u015bci\u0105","operator:type":"private","amenity":"school"}},{"id":279234,"type":"Feature","geometry":{"type":"Point","coordinates":[15.23344,52.72852]},"properties":{"isced:level":"4","ref:rspo":279234,"official_name":"Edugorz\u00f3w Policealna Szko\u0142a Zawodowa","name":"Edugorz\u00f3w Policealna Szko\u0142a Zawodowa","addr:country":"PL","addr:postcode":"66-400","addr:city":"Gorz\u00f3w Wielkopolski","addr:street":"ul. Garbary","addr:housenumber":"9","addr:teryt:simc":5321,"addr:teryt:sym_ul":935140,"contact:phone":"+48 510600772","contact:email":"skrypt@edugorzow.pl","ref:regon":"520917500","operator":"Skrypt  Sp\u00f3\u0142ka Z Ograniczon\u0105 Odpowiedzialno\u015bci\u0105","operator:type":"private","amenity":"college"}},{"id":279280,"type":"Feature","geometry":{"type":"Point","coordinates":[15.23344,52.72849]},"properties":{"isced:level":"4","ref:rspo":279280,"official_name":"Edugorz\u00f3w Policealna Szko\u0142a Medyczna","name":"Edugorz\u00f3w Policealna Szko\u0142a Medyczna","addr:country":"PL","addr:postcode":"66-400","addr:city":"Gorz\u00f3w Wielkopolski","addr:street":"ul. Garbary","addr:housenumber":"9","addr:teryt:simc":5321,"addr:teryt:sym_ul":935140,"contact:phone":"+48 510600772","contact:email":"skrypt@edugorzow.pl","ref:regon":"521096181","operator":"Skrypt  Sp\u00f3\u0142ka Z Ograniczon\u0105 Odpowiedzialno\u015bci\u0105","operator:type":"private","amenity":"college"}},{"id":107028,"type":"Feature","geometry":{"type":"Point","coordinates":[15.22191,52.72899]},"properties":{"ref:rspo":107028,"official_name":"Stowarzyszenie Ksi\u0119gowych w Polsce Niepubliczna Plac\u00f3wka Kszta\u0142cenia Ustawicznego Oddzia\u0142u Okr\u0119gowego w Gorzowie Wlkp.","name":"Stowarzyszenie Ksi\u0119gowych w Polsce Niepubliczna Plac\u00f3wka Kszta\u0142cenia Ustawicznego Oddzia\u0142u Okr\u0119gowego w Gorzowie Wlkp.","addr:country":"PL","addr:postcode":"66-400","addr:city":"Gorz\u00f3w Wielkopolski","addr:street":"ul. gen. W\u0142adys\u0142awa Sikorskiego","addr:housenumber":"81","addr:teryt:simc":19907,"addr:teryt:sym_ul":935140,"contact:phone":"+48 957225391","contact:email":"biuro@gorzow.skwp.pl","ref:regon":"081106221","operator":"Stowarzyszenie Ksi\u0119gowych W Polsce","operator:type":"ngo","fixme":"w zale\u017cno\u015bci od przedmiotu dzia\u0142alno\u015bci (np. amenity=training + training=*, amenity=dancing_school, amenity=language_school, amenity=music_school)"}},{"id":125982,"type":"Feature","geometry":{"type":"Point","coordinates":[15.22634,52.72917]},"properties":{"isced:level":"3","ref:rspo":125982,"official_name":"Liceum Og\u00f3lnokszta\u0142c\u0105ce Teb Edukacja dla Doros\u0142ych","name":"Liceum Og\u00f3lnokszta\u0142c\u0105ce Teb Edukacja dla Doros\u0142ych","addr:country":"PL","addr:postcode":"66-400","addr:city":"Gorz\u00f3w Wielkopolski","addr:street":"ul. gen. W\u0142adys\u0142awa Sikorskiego","addr:housenumber":"48","addr:teryt:simc":19907,"addr:teryt:sym_ul":935140,"contact:phone":"+48 957201737","contact:email":"gorzow@teb-edukacja.pl","contact:website":"http:\/\/www.teb.pl","ref:regon":"360149045","operator":"Teb Edukacja Sp\u00f3\u0142ka Z Ograniczon\u0105 Odpowiedzialno\u015bci\u0105","operator:type":"private","amenity":"school"}},{"id":125988,"type":"Feature","geometry":{"type":"Point","coordinates":[15.22634,52.72914]},"properties":{"isced:level":"4","ref:rspo":125988,"official_name":"Niepubliczna Szko\u0142a Policealna Teb Edukacja w Gorzowie Wielkopolskim","name":"Niepubliczna Szko\u0142a Policealna Teb Edukacja w Gorzowie Wielkopolskim","addr:country":"PL","addr:postcode":"66-400","addr:city":"Gorz\u00f3w Wielkopolski","addr:street":"ul. gen. W\u0142adys\u0142awa Sikorskiego","addr:housenumber":"48","addr:teryt:simc":19907,"addr:teryt:sym_ul":935140,"contact:phone":"+48 957881910","contact:email":"gorzow@teb-edukacja.pl","contact:website":"http:\/\/www.teb.pl","ref:regon":"360148873","operator":"Teb Edukacja Sp\u00f3\u0142ka Z Ograniczon\u0105 Odpowiedzialno\u015bci\u0105","operator:type":"private","amenity":"college"}},{"id":126002,"type":"Feature","geometry":{"type":"Point","coordinates":[15.22634,52.729110000000006]},"properties":{"ref:rspo":126002,"official_name":"Teb Edukacja Studium Kszta\u0142cenia Praktycznego","name":"Teb Edukacja Studium Kszta\u0142cenia Praktycznego","addr:country":"PL","addr:postcode":"66-400","addr:city":"Gorz\u00f3w Wielkopolski","addr:street":"ul. gen. W\u0142adys\u0142awa Sikorskiego","addr:housenumber":"48","addr:teryt:simc":19907,"addr:teryt:sym_ul":935140,"contact:phone":"+48 957201737","contact:email":"gorzow@teb-edukacja.pl","ref:regon":"360148034","operator":"Teb Edukacja Sp\u00f3\u0142ka Z Ograniczon\u0105 Odpowiedzialno\u015bci\u0105","operator:type":"private","fixme":"w zale\u017cno\u015bci od przedmiotu dzia\u0142alno\u015bci (np. amenity=training + training=*, amenity=dancing_school, amenity=language_school, amenity=music_school)"}},{"id":263744,"type":"Feature","geometry":{"type":"Point","coordinates":[15.22634,52.72908]},"properties":{"isced:level":"3","ref:rspo":263744,"official_name":"Technikum Teb Edukacja w Gorzowie Wielkopolskim","name":"Technikum Teb Edukacja w Gorzowie Wielkopolskim","addr:country":"PL","addr:postcode":"66-400","addr:city":"Gorz\u00f3w Wielkopolski","addr:street":"ul. gen. W\u0142adys\u0142awa Sikorskiego","addr:housenumber":"48","addr:teryt:simc":19907,"addr:teryt:sym_ul":935140,"contact:phone":"+48 957881910","contact:email":"gorzow@teb-edukacja.pl","contact:website":"http:\/\/www.teb.pl","ref:regon":"368221180","operator":"Teb Edukacja Sp\u00f3\u0142ka Z Ograniczon\u0105 Odpowiedzialno\u015bci\u0105","operator:type":"private","amenity":"school"}},{"id":131388,"type":"Feature","geometry":{"type":"Point","coordinates":[15.23616,52.72944]},"properties":{"isced:level":"1;2","ref:rspo":131388,"official_name":"Szko\u0142a Podstawowa Sowa w Gorzowie Wlkp.","name":"Szko\u0142a Podstawowa Sowa w Gorzowie Wlkp.","addr:country":"PL","addr:postcode":"66-400","addr:city":"Gorz\u00f3w Wielkopolski","addr:street":"ul. M\u0142y\u0144ska","addr:housenumber":"4","addr:teryt:simc":13132,"addr:teryt:sym_ul":935140,"contact:phone":"+48 885021872","contact:email":"spsowa@wp.pl","contact:website":"http:\/\/www.autyzm-gorzow.org\/","ref:regon":"365157428","ref:vatin":"PL5993206576","operator":"Stowarzyszenie Na Rzecz Os\u00f3b Z Autyzmem","operator:type":"ngo","amenity":"school"}},{"id":110070,"type":"Feature","geometry":{"type":"Point","coordinates":[15.22677,52.72974]},"properties":{"isced:level":"3","ref:rspo":110070,"official_name":"Liceum Og\u00f3lnokszta\u0142c\u0105ce dla Doros\u0142ych Wzdz w Gorzowie Wlkp","name":"Liceum Og\u00f3lnokszta\u0142c\u0105ce dla Doros\u0142ych Wzdz w Gorzowie Wlkp","addr:country":"PL","addr:postcode":"66-400","addr:city":"Gorz\u00f3w Wielkopolski","addr:street":"ul. gen. W\u0142adys\u0142awa Sikorskiego","addr:housenumber":"95","addr:teryt:simc":19907,"addr:teryt:sym_ul":935140,"contact:phone":"+48 957223747","contact:email":"zswzdz@gmail.com","contact:website":"http:\/\/zdz.gorzow.pl","ref:regon":"081114315","operator":"Wojew\u00f3dzki Zak\u0142ad Doskonalenia Zawodowego W Gorzowie Wlkp.","operator:type":"ngo","amenity":"school"}},{"id":114133,"type":"Feature","geometry":{"type":"Point","coordinates":[15.22677,52.72971]},"properties":{"isced:level":"3","ref:rspo":114133,"official_name":"Bran\u017cowa Szko\u0142a I Stopnia Wzdz","name":"Bran\u017cowa Szko\u0142a I Stopnia Wzdz","addr:country":"PL","addr:postcode":"66-400","addr:city":"Gorz\u00f3w Wielkopolski","addr:street":"ul. gen. W\u0142adys\u0142awa Sikorskiego","addr:housenumber":"95","addr:teryt:simc":19907,"addr:teryt:sym_ul":935140,"contact:phone":"+48 957223747","contact:email":"zswzdz@gmail.com","contact:website":"http:\/\/zdz.gorzow.pl","ref:regon":"081129162","operator":"Wojew\u00f3dzki Zak\u0142ad Doskonalenia Zawodowego W Gorzowie Wlkp.","operator:type":"ngo","amenity":"school"}},{"id":129602,"type":"Feature","geometry":{"type":"Point","coordinates":[15.22677,52.72968]},"properties":{"ref:rspo":129602,"official_name":"Centrum Doskonalenia Nauczycieli","name":"Centrum Doskonalenia Nauczycieli","addr:country":"PL","addr:postcode":"66-400","addr:city":"Gorz\u00f3w Wielkopolski","addr:street":"ul. gen. W\u0142adys\u0142awa Sikorskiego","addr:housenumber":"95","addr:teryt:simc":19907,"addr:teryt:sym_ul":935140,"contact:phone":"+48 957223747","contact:email":"zswzdz@gmail.com","ref:regon":"362681123","ref:vatin":"PL5992794335","operator":"Wojew\u00f3dzki Zak\u0142ad Doskonalenia Zawodowego W Gorzowie Wlkp.","operator:type":"ngo","amenity":"training"}},{"id":57364,"type":"Feature","geometry":{"type":"Point","coordinates":[15.23752,52.73001]},"properties":{"ref:rspo":57364,"official_name":"Przedszkole Miejskie Nr 18 w Gorzowie Wlkp.","name":"Przedszkole Miejskie Nr 18 w Gorzowie Wlkp.","addr:country":"PL","addr:postcode":"66-400","addr:city":"Gorz\u00f3w Wielkopolski","addr:street":"ul. \u0141u\u017cycka","addr:housenumber":"8","addr:teryt:simc":11793,"addr:teryt:sym_ul":935140,"contact:phone":"+48 957227135","contact:email":"p18@edu.gorzow.pl","contact:website":"http:\/\/www.p18.edu.gorzow.pl","ref:regon":"080481738","ref:vatin":"PL5993136640","operator":"Miasto Gorz\u00f3w Wielkopolski","operator:type":"government","amenity":"kindergarten"}},{"id":12252,"type":"Feature","geometry":{"type":"Point","coordinates":[15.2252,52.73006]},"properties":{"ref:rspo":12252,"official_name":"Zesp\u00f3\u0142 Szk\u00f3\u0142 Og\u00f3lnokszta\u0142c\u0105cych Nr 3 w Gorzowie Wlkp.","name":"Zesp\u00f3\u0142 Szk\u00f3\u0142 Og\u00f3lnokszta\u0142c\u0105cych Nr 3 w Gorzowie Wlkp.","addr:country":"PL","addr:postcode":"66-400","addr:city":"Gorz\u00f3w Wielkopolski","addr:street":"ul. Ewarysta Estkowskiego","addr:housenumber":"3","addr:teryt:simc":4832,"addr:teryt:sym_ul":935140,"contact:phone":"+48 957202400","contact:email":"zso3@edu.gorzow.pl","contact:website":"http:\/\/3lo.gorzow.pl","ref:regon":"210203172","ref:vatin":"PL5991113729","operator":"Miasto Gorz\u00f3w Wielkopolski","operator:type":"government","landuse":"education","fixme":"amenity=school, amenity=college albo landuse=education w zale\u017cno\u015bci od tego, jakie plac\u00f3wki wchodz\u0105 w sk\u0142ad zespo\u0142u. Sprawd\u017a, kiedy stosowa\u0107 amenity=* a kiedy landuse=education.","note":"Children RSPO: 80878;262598"}},{"id":114130,"type":"Feature","geometry":{"type":"Point","coordinates":[15.2252,52.73003]},"properties":{"isced:level":"3","ref:rspo":114130,"official_name":"Technikum Us\u0142ug Fryzjerskich Wzdz","name":"Technikum Us\u0142ug Fryzjerskich Wzdz","addr:country":"PL","addr:postcode":"66-400","addr:city":"Gorz\u00f3w Wielkopolski","addr:street":"ul. Ewarysta Estkowskiego","addr:housenumber":"3","addr:teryt:simc":4832,"addr:teryt:sym_ul":935140,"contact:phone":"+48 957223747","contact:email":"zswzdz@gmail.com","contact:website":"http:\/\/zdz.gorzow.pl","ref:regon":"081129133","operator":"Wojew\u00f3dzki Zak\u0142ad Doskonalenia Zawodowego W Gorzowie Wlkp.","operator:type":"ngo","amenity":"school"}},{"id":80878,"type":"Feature","geometry":{"type":"Point","coordinates":[15.2252,52.730000000000004]},"properties":{"isced:level":"3","ref:rspo":80878,"official_name":"Iii Liceum Og\u00f3lnokszta\u0142c\u0105ce im. W\u0142adys\u0142awa Szafera w Gorzowie Wielkopolskim w Zespole Szk\u00f3\u0142 Og\u00f3lnokszta\u0142c\u0105cych Nr 3","name":"Iii Liceum Og\u00f3lnokszta\u0142c\u0105ce","addr:country":"PL","addr:postcode":"66-400","addr:city":"Gorz\u00f3w Wielkopolski","addr:street":"ul. Ewarysta Estkowskiego","addr:housenumber":"3","addr:teryt:simc":4832,"addr:teryt:sym_ul":935140,"contact:phone":"+48 957202400","contact:email":"zso3@edu.gorzow.pl","contact:website":"http:\/\/3lo.gorzow.pl","ref:regon":"211055874","operator":"Miasto Gorz\u00f3w Wielkopolski","operator:type":"government","amenity":"school","note":"Parent RSPO: 12252"}},{"id":262598,"type":"Feature","geometry":{"type":"Point","coordinates":[15.2252,52.72997]},"properties":{"isced:level":"1;2","ref:rspo":262598,"official_name":"Szko\u0142a Podstawowa Nr 7 w Gorzowie Wlkp.","name":"Szko\u0142a Podstawowa Nr 7 w Gorzowie Wlkp.","addr:country":"PL","addr:postcode":"66-400","addr:city":"Gorz\u00f3w Wielkopolski","addr:street":"ul. Ewarysta Estkowskiego","addr:housenumber":"3","addr:teryt:simc":4832,"addr:teryt:sym_ul":935140,"contact:phone":"+48 957202404","contact:email":"zso3@edu.gorzow.pl","contact:website":"http:\/\/3lo.gorzow.pl","ref:regon":"368039540","ref:vatin":"PL5993207759","operator":"Miasto Gorz\u00f3w Wielkopolski","operator:type":"government","amenity":"school","note":"Parent RSPO: 12252"}},{"id":125838,"type":"Feature","geometry":{"type":"Point","coordinates":[15.24118,52.73087]},"properties":{"ref:rspo":125838,"official_name":"O\u015brodek Szkoleniowy Centrum Nauki I Biznesu \"\u017bak\" w Gorzowie Wielkopolskim","name":"O\u015brodek Szkoleniowy Centrum Nauki I Biznesu \"\u017bak\" w Gorzowie Wielkopolskim","addr:country":"PL","addr:postcode":"66-400","addr:city":"Gorz\u00f3w Wielkopolski","addr:street":"ul. Obotrycka","addr:housenumber":"11","addr:teryt:simc":14596,"addr:teryt:sym_ul":935140,"contact:phone":"+48 957352653","contact:email":"gorzow@zak.edu.pl","ref:regon":"081246666","operator":"Centrum Nauki I Biznesu \"\u017bak\" Sp\u00f3\u0142ka Z Ograniczon\u0105 Odpowiedzialno\u015bci\u0105","operator:type":"private","fixme":"w zale\u017cno\u015bci od przedmiotu dzia\u0142alno\u015bci (np. amenity=training + training=*, amenity=dancing_school, amenity=language_school, amenity=music_school)"}},{"id":125842,"type":"Feature","geometry":{"type":"Point","coordinates":[15.24118,52.73084]},"properties":{"isced:level":"4","ref:rspo":125842,"official_name":"Dwuletnia Szko\u0142a Policealna \"\u017bak\"","name":"Dwuletnia Szko\u0142a Policealna \"\u017bak\"","addr:country":"PL","addr:postcode":"66-400","addr:city":"Gorz\u00f3w Wielkopolski","addr:street":"ul. Obotrycka","addr:housenumber":"11","addr:teryt:simc":14596,"addr:teryt:sym_ul":935140,"contact:phone":"+48 957352653","contact:email":"gorzow@zak.edu.pl","ref:regon":"081246672","operator":"Centrum Nauki I Biznesu \"\u017bak\" Sp\u00f3\u0142ka Z Ograniczon\u0105 Odpowiedzialno\u015bci\u0105","operator:type":"private","amenity":"college"}},{"id":125887,"type":"Feature","geometry":{"type":"Point","coordinates":[15.24118,52.730810000000005]},"properties":{"isced:level":"3","ref:rspo":125887,"official_name":"Liceum Og\u00f3lnokszta\u0142c\u0105ce dla Doros\u0142ych \"\u017bak\"","name":"Liceum Og\u00f3lnokszta\u0142c\u0105ce dla Doros\u0142ych \"\u017bak\"","addr:country":"PL","addr:postcode":"66-400","addr:city":"Gorz\u00f3w Wielkopolski","addr:street":"ul. Obotrycka","addr:housenumber":"11","addr:teryt:simc":14596,"addr:teryt:sym_ul":935140,"contact:phone":"+48 957352653","contact:email":"gorzow@zak.edu.pl","ref:regon":"360089018","operator":"Centrum Nauki I Biznesu \"\u017bak\" Sp\u00f3\u0142ka Z Ograniczon\u0105 Odpowiedzialno\u015bci\u0105","operator:type":"private","amenity":"school"}},{"id":263761,"type":"Feature","geometry":{"type":"Point","coordinates":[15.24118,52.73078]},"properties":{"isced:level":"4","ref:rspo":263761,"official_name":"Szko\u0142a Policealna Opieki Medycznej \u017bak w Gorzowie Wielkopolskim","name":"Szko\u0142a Policealna Opieki Medycznej \u017bak w Gorzowie Wielkopolskim","addr:country":"PL","addr:postcode":"66-400","addr:city":"Gorz\u00f3w Wielkopolski","addr:street":"ul. Obotrycka","addr:housenumber":"11","addr:teryt:simc":14596,"addr:teryt:sym_ul":935140,"contact:phone":"+48 957352653","contact:email":"gorzow@zak.edu.pl","contact:website":"http:\/\/www.zak.edu.pl","ref:regon":"368221240","operator":"Centrum Nauki I Biznesu \"\u017bak\" Sp\u00f3\u0142ka Z Ograniczon\u0105 Odpowiedzialno\u015bci\u0105","operator:type":"private","amenity":"college"}},{"id":264707,"type":"Feature","geometry":{"type":"Point","coordinates":[15.242420196533,52.731998443604]},"properties":{"ref:rspo":264707,"official_name":"Plac\u00f3wka Kszta\u0142cenia Ustawicznego Puls","name":"Plac\u00f3wka Kszta\u0142cenia Ustawicznego Puls","addr:country":"PL","addr:postcode":"66-400","addr:city":"Gorz\u00f3w Wielkopolski","addr:street":"ul. Poleska","addr:housenumber":"19","addr:door":"D","addr:teryt:simc":16989,"addr:teryt:sym_ul":935140,"contact:phone":"+48 957252604","contact:email":"puls@impuls24.pl","ref:regon":"368429560","operator":"Puls Sp\u00f3\u0142ka Z Ograniczon\u0105 Odpowiedzialnosci\u0105","operator:type":"private","fixme":"w zale\u017cno\u015bci od przedmiotu dzia\u0142alno\u015bci (np. amenity=training + training=*, amenity=dancing_school, amenity=language_school, amenity=music_school)"}},{"id":71610,"type":"Feature","geometry":{"type":"Point","coordinates":[15.24718,52.73233]},"properties":{"ref:rspo":71610,"official_name":"Pa\u0144stwowa Szko\u0142a Muzyczna I Stopnia im. W\u0142adys\u0142awa Jana Ciesielskiego w Gorzowie Wielkopolskim","name":"Pa\u0144stwowa Szko\u0142a Muzyczna I Stopnia","addr:country":"PL","addr:postcode":"66-400","addr:city":"Gorz\u00f3w Wielkopolski","addr:street":"ul. Teatralna","addr:housenumber":"8","addr:teryt:simc":22723,"addr:teryt:sym_ul":935140,"contact:phone":"+48 957352489","contact:email":"sekretariat@psmgorzow.pl","contact:website":"http:\/\/psmgorzow.pl","ref:regon":"211194498","ref:vatin":"PL5992725860","operator":"Ministerstwo Kultury I Dziedzictwa Narodowego","operator:type":"public","amenity":"music_school"}},{"id":53995,"type":"Feature","geometry":{"type":"Point","coordinates":[15.21265,52.73298]},"properties":{"ref:rspo":53995,"official_name":"Przedszkole Miejskie Nr 12 im. Pod Topol\u0105 w Gorzowie Wlkp.","name":"Przedszkole Miejskie Nr 12","addr:country":"PL","addr:postcode":"66-400","addr:city":"Gorz\u00f3w Wielkopolski","addr:street":"ul. Sportowa","addr:housenumber":"2","addr:teryt:simc":20683,"addr:teryt:sym_ul":935140,"contact:phone":"+48 957224193","contact:email":"p12@edu.gorzow.pl","contact:website":"http:\/\/www.przedszkole12.eu","ref:regon":"080485156","ref:vatin":"PL5993137378","operator":"Miasto Gorz\u00f3w Wielkopolski","operator:type":"government","amenity":"kindergarten"}},{"id":71269,"type":"Feature","geometry":{"type":"Point","coordinates":[15.24656,52.73303]},"properties":{"isced:level":"3","ref:rspo":71269,"official_name":"Pa\u0144stwowe Liceum Sztuk Plastycznych w Gorzowie Wielkopolskim","name":"Pa\u0144stwowe Liceum Sztuk Plastycznych w Gorzowie Wielkopolskim","addr:country":"PL","addr:postcode":"66-400","addr:city":"Gorz\u00f3w Wielkopolski","addr:street":"ul. Warszawska","addr:housenumber":"18","addr:teryt:simc":23682,"addr:teryt:sym_ul":935140,"contact:phone":"+48 957320098","contact:email":"sekretariat@plspgorzow.edu.pl","ref:regon":"210234439","ref:vatin":"PL5992289531","operator":"Ministerstwo Kultury I Dziedzictwa Narodowego","operator:type":"public","amenity":"school"}},{"id":49087,"type":"Feature","geometry":{"type":"Point","coordinates":[15.23105,52.73316]},"properties":{"isced:level":"3","ref:rspo":49087,"official_name":"Iv Liceum Og\u00f3lnokszta\u0142c\u0105ce im. Tadeusza Kotarbi\u0144skiego w Gorzowie Wielkopolskim","name":"Iv Liceum Og\u00f3lnokszta\u0142c\u0105ce","addr:country":"PL","addr:postcode":"66-400","addr:city":"Gorz\u00f3w Wielkopolski","addr:street":"ul. Kosynier\u00f3w Gdy\u0144skich","addr:housenumber":"8","addr:teryt:simc":9503,"addr:teryt:sym_ul":935140,"contact:phone":"+48 957203060","contact:email":"lo4.gorzow@wp.pl","contact:website":"http:\/\/www.4lo.gorzow.pl","ref:regon":"210203367","ref:vatin":"PL5991101732","operator":"Miasto Gorz\u00f3w Wielkopolski","operator:type":"government","amenity":"school"}},{"id":71571,"type":"Feature","geometry":{"type":"Point","coordinates":[15.23675,52.73332]},"properties":{"ref:rspo":71571,"official_name":"Pa\u0144stwowa Szko\u0142a Muzyczna I I II Stopnia im. Tadeusza Szeligowskiego w Gorzowie Wielkopolskim","name":"Pa\u0144stwowa Szko\u0142a Muzyczna I I II Stopnia","addr:country":"PL","addr:postcode":"66-400","addr:city":"Gorz\u00f3w Wielkopolski","addr:street":"ul. Boles\u0142awa Chrobrego","addr:housenumber":"3","addr:teryt:simc":1742,"addr:teryt:sym_ul":935140,"contact:phone":"+48 957227537","contact:email":"smgorzow@op.pl","ref:regon":"000280784","ref:vatin":"PL5991024859","operator":"Ministerstwo Kultury I Dziedzictwa Narodowego","operator:type":"public","landuse":"education","fixme":"amenity=school, amenity=college albo landuse=education w zale\u017cno\u015bci od tego, jakie plac\u00f3wki wchodz\u0105 w sk\u0142ad zespo\u0142u. Sprawd\u017a, kiedy stosowa\u0107 amenity=* a kiedy landuse=education.","note":"Children RSPO: 83257;83258"}},{"id":83257,"type":"Feature","geometry":{"type":"Point","coordinates":[15.23675,52.73329]},"properties":{"ref:rspo":83257,"official_name":"Pa\u0144stwowa Szko\u0142a Muzyczna I Stopnia im. Tadeusza Szeligowskiego w Gorzowie Wielkopolskim","name":"Pa\u0144stwowa Szko\u0142a Muzyczna I Stopnia","addr:country":"PL","addr:postcode":"66-400","addr:city":"Gorz\u00f3w Wielkopolski","addr:street":"ul. Boles\u0142awa Chrobrego","addr:housenumber":"3","addr:teryt:simc":1742,"addr:teryt:sym_ul":935140,"contact:phone":"+48 957227537","contact:email":"sm1@edu.gorzow.pl","ref:regon":"081087481","operator":"Ministerstwo Kultury I Dziedzictwa Narodowego","operator:type":"public","amenity":"music_school","note":"Parent RSPO: 71571"}},{"id":83258,"type":"Feature","geometry":{"type":"Point","coordinates":[15.23675,52.73326]},"properties":{"ref:rspo":83258,"official_name":"Pa\u0144stwowa Szko\u0142a Muzyczna II Stopnia im. Tadeusza Szeligowskiego w Gorzowie Wlkp.","name":"Pa\u0144stwowa Szko\u0142a Muzyczna II Stopnia","addr:country":"PL","addr:postcode":"66-400","addr:city":"Gorz\u00f3w Wielkopolski","addr:street":"ul. Boles\u0142awa Chrobrego","addr:housenumber":"3","addr:teryt:simc":1742,"addr:teryt:sym_ul":935140,"contact:phone":"+48 957227537","contact:email":"smgorzow@op.pl","ref:regon":"081087498","operator":"Ministerstwo Kultury I Dziedzictwa Narodowego","operator:type":"public","amenity":"music_school","note":"Parent RSPO: 71571"}},{"id":55072,"type":"Feature","geometry":{"type":"Point","coordinates":[15.22985,52.7334699]},"properties":{"ref:rspo":55072,"official_name":"Przedszkole Miejskie Nr 15 im. Ba\u015bniowy Dom w Gorzowie Wlkp.","name":"Przedszkole Miejskie Nr 15","addr:country":"PL","addr:postcode":"66-400","addr:city":"Gorz\u00f3w Wielkopolski","addr:street":"ul. Bohater\u00f3w Warszawy","addr:housenumber":"5","addr:teryt:simc":1679,"addr:teryt:sym_ul":935140,"contact:phone":"+48 957385993","contact:email":"p15@edu.gorzow.pl","contact:website":"http:\/\/p15.edu.gorzow.pl","ref:regon":"080478736","ref:vatin":"PL5993136835","operator":"Miasto Gorz\u00f3w Wielkopolski","operator:type":"government","amenity":"kindergarten"}},{"id":4485,"type":"Feature","geometry":{"type":"Point","coordinates":[15.23859,52.73368]},"properties":{"ref:rspo":4485,"official_name":"Zesp\u00f3\u0142 Szk\u00f3\u0142 Elektrycznych im. Majora Henryka Sucharskiego w Gorzowie Wlkp.","name":"Zesp\u00f3\u0142 Szk\u00f3\u0142 Elektrycznych","addr:country":"PL","addr:postcode":"66-400","addr:city":"Gorz\u00f3w Wielkopolski","addr:street":"ul. gen. Jaros\u0142awa D\u0105browskiego","addr:housenumber":"33","addr:teryt:simc":3676,"addr:teryt:sym_ul":935140,"contact:phone":"+48 957223639","contact:email":"zsel@edu.gorzow.pl","contact:website":"http:\/\/www.zsel.edu.gorzow.pl","ref:regon":"210203249","ref:vatin":"PL5991101784","operator":"Miasto Gorz\u00f3w Wielkopolski","operator:type":"government","landuse":"education","fixme":"amenity=school, amenity=college albo landuse=education w zale\u017cno\u015bci od tego, jakie plac\u00f3wki wchodz\u0105 w sk\u0142ad zespo\u0142u. Sprawd\u017a, kiedy stosowa\u0107 amenity=* a kiedy landuse=education.","note":"Children RSPO: 79158;79160"}},{"id":79158,"type":"Feature","geometry":{"type":"Point","coordinates":[15.23859,52.73365]},"properties":{"isced:level":"3","ref:rspo":79158,"official_name":"Technikum Nr 7 im. Mjr. Henryka Sucharskiego w Zespole Szk\u00f3\u0142 Elektrycznych w Gorzowie Wielkopolskim","name":"Technikum Nr 7","addr:country":"PL","addr:postcode":"66-400","addr:city":"Gorz\u00f3w Wielkopolski","addr:street":"ul. gen. Jaros\u0142awa D\u0105browskiego","addr:housenumber":"33","addr:teryt:simc":3676,"addr:teryt:sym_ul":935140,"contact:phone":"+48 957223639","contact:email":"zsel@edu.gorzow.pl","contact:website":"http:\/\/www.zsel.edu.gorzow.pl","ref:regon":"211264075","operator":"Miasto Gorz\u00f3w Wielkopolski","operator:type":"government","amenity":"school","note":"Parent RSPO: 4485"}},{"id":79160,"type":"Feature","geometry":{"type":"Point","coordinates":[15.23859,52.73362]},"properties":{"isced:level":"3","ref:rspo":79160,"official_name":"Bran\u017cowa Szko\u0142a I Stopnia Nr 7 w Zespole Szk\u00f3\u0142 Elektrycznych w Gorzowie Wielkopolskim","name":"Bran\u017cowa Szko\u0142a I Stopnia Nr 7 w Zespole Szk\u00f3\u0142 Elektrycznych w Gorzowie Wielkopolskim","addr:country":"PL","addr:postcode":"66-400","addr:city":"Gorz\u00f3w Wielkopolski","addr:street":"ul. gen. Jaros\u0142awa D\u0105browskiego","addr:housenumber":"33","addr:teryt:simc":3676,"addr:teryt:sym_ul":935140,"contact:phone":"+48 957223639","contact:email":"zsel@edu.gorzow.pl","contact:website":"http:\/\/www.zsel.edu.gorzow.pl","ref:regon":"080123460","operator":"Miasto Gorz\u00f3w Wielkopolski","operator:type":"government","amenity":"school","note":"Parent RSPO: 4485"}},{"id":71142,"type":"Feature","geometry":{"type":"Point","coordinates":[15.21257,52.73372]},"properties":{"isced:level":"1;2","ref:rspo":71142,"official_name":"Szko\u0142a Podstawowa Nr 5 im. Bohater\u00f3w 12 Ko\u0142obrzeskiego Pu\u0142ku Piechoty w Gorzowie Wlkp.","name":"Szko\u0142a Podstawowa Nr 5","addr:country":"PL","addr:postcode":"66-400","addr:city":"Gorz\u00f3w Wielkopolski","addr:street":"al. Aleja Konstytucji 3 Maja","addr:housenumber":"44","addr:teryt:simc":41128,"addr:teryt:sym_ul":935140,"contact:phone":"+48 957226589","contact:email":"sp5@edu.gorzow.pl","contact:website":"http:\/\/sp5gorzow.pl\/","ref:regon":"210202882","ref:vatin":"PL5991234657","operator":"Miasto Gorz\u00f3w Wielkopolski","operator:type":"government","amenity":"school"}},{"id":92679,"type":"Feature","geometry":{"type":"Point","coordinates":[15.2384,52.73389]},"properties":{"isced:level":"3","ref:rspo":92679,"official_name":"Technikum Mechaniczne Nr 5 im. Zes\u0142a\u0144c\u00f3w Sybiru w Gorzowie Wielkopolskim","name":"Technikum Mechaniczne Nr 5","addr:country":"PL","addr:postcode":"66-400","addr:city":"Gorz\u00f3w Wielkopolski","addr:street":"ul. gen. Jaros\u0142awa D\u0105browskiego","addr:housenumber":"32","addr:teryt:simc":3676,"addr:teryt:sym_ul":935140,"contact:phone":"+48 957227527","contact:email":"zsm@edu.gorzow.pl","contact:website":"http:\/\/www.zsm.edu.gorzow.pl","ref:regon":"211271141","operator":"Miasto Gorz\u00f3w Wielkopolski","operator:type":"government","amenity":"school","note":"Parent RSPO: 277798"}},{"id":92680,"type":"Feature","geometry":{"type":"Point","coordinates":[15.2384,52.73386]},"properties":{"isced:level":"3","ref:rspo":92680,"official_name":"Bran\u017cowa Szko\u0142a I Stopnia Nr 5 w Gorzowie Wielkopolskim","name":"Bran\u017cowa Szko\u0142a I Stopnia Nr 5 w Gorzowie Wielkopolskim","addr:country":"PL","addr:postcode":"66-400","addr:city":"Gorz\u00f3w Wielkopolski","addr:street":"ul. gen. Jaros\u0142awa D\u0105browskiego","addr:housenumber":"32","addr:teryt:simc":3676,"addr:teryt:sym_ul":935140,"contact:phone":"+48 957227527","contact:email":"zsm@edu.gorzow.pl","contact:website":"http:\/\/www.zsm.edu.gorzow.pl","ref:regon":"211271112","operator":"Miasto Gorz\u00f3w Wielkopolski","operator:type":"government","amenity":"school","note":"Parent RSPO: 277798"}},{"id":107052,"type":"Feature","geometry":{"type":"Point","coordinates":[15.24385,52.73403]},"properties":{"ref:rspo":107052,"official_name":"O\u015brodek Rehabilitacyjno -Edukacyjno-Wychowawczy","name":"O\u015brodek Rehabilitacyjno -Edukacyjno-Wychowawczy","addr:country":"PL","addr:postcode":"66-400","addr:city":"Gorz\u00f3w Wielkopolski","addr:street":"ul. Franciszka Walczaka","addr:housenumber":"1 a","addr:teryt:simc":23519,"addr:teryt:sym_ul":935140,"contact:phone":"+48 697982126","contact:email":"orewgw@psonigorzow.org.pl","contact:website":"http:\/\/www.psonigorzow.org.pl","ref:regon":"081106528","operator":"Polskie Stowarzyszenie Na Rzecz Os\u00f3b Z Niepe\u0142nosprawno\u015bci\u0105 Intelektualn\u0105 Ko\u0142o W Gorzowie Wlkp.","operator:type":"ngo","amenity":"school"}},{"id":107542,"type":"Feature","geometry":{"type":"Point","coordinates":[15.25072,52.7341]},"properties":{"ref:rspo":107542,"official_name":"Niepubliczne Przedszkole Zgromadzenia Si\u00f3str Mi\u0142osierdzia \u015aw. Wincentego A Paulo w Gorzowie Wlkp. \"Wincentynskie Dzieci","name":"Niepubliczne Przedszkole Zgromadzenia Si\u00f3str Mi\u0142osierdzia \u015aw. Wincentego A Paulo w Gorzowie Wlkp. \"Wincentynskie Dzieci","addr:country":"PL","addr:postcode":"66-400","addr:city":"Gorz\u00f3w Wielkopolski","addr:street":"ul. Warszawska","addr:housenumber":"45","addr:teryt:simc":23682,"addr:teryt:sym_ul":935140,"contact:phone":"+48 957322692","contact:email":"smprzedszkole45@wp.pl","contact:website":"http:\/\/www.przedszkole.szarytki.pl","ref:regon":"081108303","operator":"Zg.ss.mi\u0142osierdzia \u015aw.wincentego A Paulo, Prowincja Krakowska","operator:type":"religious","amenity":"kindergarten"}},{"id":80879,"type":"Feature","geometry":{"type":"Point","coordinates":[15.24746,52.73426]},"properties":{"isced:level":"1;2","ref:rspo":80879,"official_name":"Szko\u0142a Podstawowa Nr 17 Z Oddzia\u0142ami Sportowymi im. Adama Mickiewicza w Gorzowie Wlkp.","name":"Szko\u0142a Podstawowa Nr 17 Z Oddzia\u0142ami Sportowymi","addr:country":"PL","addr:postcode":"66-400","addr:city":"Gorz\u00f3w Wielkopolski","addr:street":"ul. Warszawska","addr:housenumber":"19","addr:teryt:simc":23682,"addr:teryt:sym_ul":935140,"contact:phone":"+48 957320347","contact:email":"sp17@edu.gorzow.pl","contact:website":"http:\/\/sp-17.pl","ref:regon":"210203002","ref:vatin":"PL5993243198","operator":"Miasto Gorz\u00f3w Wielkopolski","operator:type":"government","amenity":"school"}},{"id":88355,"type":"Feature","geometry":{"type":"Point","coordinates":[15.23866,52.73431]},"properties":{"ref:rspo":88355,"official_name":"Wojew\u00f3dzki O\u015brodek Metodyczny","name":"Wojew\u00f3dzki O\u015brodek Metodyczny","addr:country":"PL","addr:postcode":"66-400","addr:city":"Gorz\u00f3w Wielkopolski","addr:street":"ul. W\u0142adys\u0142awa \u0141okietka","addr:housenumber":"23","addr:teryt:simc":11653,"addr:teryt:sym_ul":935140,"contact:phone":"+48 957216111","contact:email":"wom@womgorz.edu.pl","contact:website":"http:\/\/www.womgorz.edu.pl","ref:regon":"000806810","ref:vatin":"PL5991079671","operator":"Wojew\u00f3dztwo Lubuskie","operator:type":"government","amenity":"training"}},{"id":114107,"type":"Feature","geometry":{"type":"Point","coordinates":[15.23987,52.73436]},"properties":{"isced:level":"3","ref:rspo":114107,"official_name":"Katolickie Liceum \u015aw. Tomasza Z Akwinu","name":"Katolickie Liceum \u015aw. Tomasza Z Akwinu","addr:country":"PL","addr:postcode":"66-400","addr:city":"Gorz\u00f3w Wielkopolski","addr:street":"ul. Micha\u0142a Drzyma\u0142y","addr:housenumber":"36","addr:teryt:simc":4317,"addr:teryt:sym_ul":935140,"contact:phone":"+48 957225091","contact:email":"katolik@swtomasz.edu.pl","contact:website":"http:\/\/www.swtomasz.edu.pl","ref:regon":"081128978","operator":"Towarzystwo Szko\u0142y Katolickiej","operator:type":"ngo","amenity":"school"}},{"id":126142,"type":"Feature","geometry":{"type":"Point","coordinates":[15.22484,52.73447]},"properties":{"isced:level":"3","ref:rspo":126142,"official_name":"Eduatut Liceum Og\u00f3lnokszta\u0142c\u0105ce dla Doros\u0142ych w Gorzowie Wielkopolskim","name":"Eduatut Liceum Og\u00f3lnokszta\u0142c\u0105ce dla Doros\u0142ych w Gorzowie Wielkopolskim","addr:country":"PL","addr:postcode":"66-400","addr:city":"Gorz\u00f3w Wielkopolski","addr:street":"ul. Fryderyka Chopina","addr:housenumber":"52","addr:teryt:simc":2849,"addr:teryt:sym_ul":935140,"contact:phone":"+48 570011266","contact:email":"w.dlugosz-bujak@eduatut.pl","contact:website":"http:\/\/www.eduatut.pl","ref:regon":"360169540","operator":"Gelino Gw Sp\u00f3\u0142ka Z Ograniczon\u0105 Odpowiedzialno\u015bci\u0105","operator:type":"private","amenity":"school"}},{"id":126174,"type":"Feature","geometry":{"type":"Point","coordinates":[15.22484,52.73444]},"properties":{"isced:level":"4","ref:rspo":126174,"official_name":"Eduatut Policealna Szko\u0142a Zawodowa w Gorzowie Wielkopopskim","name":"Eduatut Policealna Szko\u0142a Zawodowa w Gorzowie Wielkopopskim","addr:country":"PL","addr:postcode":"66-400","addr:city":"Gorz\u00f3w Wielkopolski","addr:street":"ul. Fryderyka Chopina","addr:housenumber":"52","addr:teryt:simc":2849,"addr:teryt:sym_ul":935140,"contact:phone":"+48 570011266","contact:email":"w.dlugosz-bujak@eduatut.pl","contact:website":"http:\/\/www.eduatut.pl","ref:regon":"360166115","operator":"Gelino Gw Sp\u00f3\u0142ka Z Ograniczon\u0105 Odpowiedzialno\u015bci\u0105","operator:type":"private","amenity":"college"}},{"id":126185,"type":"Feature","geometry":{"type":"Point","coordinates":[15.22484,52.734410000000004]},"properties":{"ref:rspo":126185,"official_name":"Eduatut Centrum Szkoleniowe w Gorzowie Wielkopolskim","name":"Eduatut Centrum Szkoleniowe w Gorzowie Wielkopolskim","addr:country":"PL","addr:postcode":"66-400","addr:city":"Gorz\u00f3w Wielkopolski","addr:street":"ul. Fryderyka Chopina","addr:housenumber":"52","addr:teryt:simc":2849,"addr:teryt:sym_ul":935140,"contact:phone":"+48 733012400","contact:email":"w.dlugosz-bujak@eduatut.pl","contact:website":"http:\/\/www.eduatut.pl","ref:regon":"360166747","operator":"Gelino Gw Sp\u00f3\u0142ka Z Ograniczon\u0105 Odpowiedzialno\u015bci\u0105","operator:type":"private","fixme":"w zale\u017cno\u015bci od przedmiotu dzia\u0142alno\u015bci (np. amenity=training + training=*, amenity=dancing_school, amenity=language_school, amenity=music_school)"}},{"id":133300,"type":"Feature","geometry":{"type":"Point","coordinates":[15.22484,52.73438]},"properties":{"isced:level":"3","ref:rspo":133300,"official_name":"Akademickie Liceum Mistrzostwa Sportowego w Gorzowie Wielkopolskim","name":"Akademickie Liceum Mistrzostwa Sportowego w Gorzowie Wielkopolskim","addr:country":"PL","addr:postcode":"66-400","addr:city":"Gorz\u00f3w Wielkopolski","addr:street":"ul. Fryderyka Chopina","addr:housenumber":"52","addr:teryt:simc":2849,"addr:teryt:sym_ul":935140,"contact:phone":"+48 957216007","contact:email":"sekretariat.alms@ajp.edu.pl","contact:website":"http:\/\/www.alms.ajp.edu.pl","ref:regon":"366972834","operator":"Akademia Im. Jakuba Z Parady\u017ca","operator:type":"public","amenity":"school"}},{"id":264271,"type":"Feature","geometry":{"type":"Point","coordinates":[15.22484,52.73435]},"properties":{"isced:level":"1;2","ref:rspo":264271,"official_name":"Eduatut Szko\u0142a Podstawowa dla Doros\u0142ych w Gorzowie Wielkopolskim","name":"Eduatut Szko\u0142a Podstawowa dla Doros\u0142ych w Gorzowie Wielkopolskim","addr:country":"PL","addr:postcode":"66-400","addr:city":"Gorz\u00f3w Wielkopolski","addr:street":"ul. Fryderyka Chopina","addr:housenumber":"52","addr:teryt:simc":2849,"addr:teryt:sym_ul":935140,"contact:phone":"+48 570011266","contact:email":"sekretariat@eduatut.pl","contact:website":"http:\/\/www.eduvision.pl","ref:regon":"368299040","operator":"Gelino Gw Sp\u00f3\u0142ka Z Ograniczon\u0105 Odpowiedzialno\u015bci\u0105","operator:type":"private","amenity":"school"}},{"id":274431,"type":"Feature","geometry":{"type":"Point","coordinates":[15.22484,52.734320000000004]},"properties":{"ref:rspo":274431,"official_name":"Con - Tra Akademia Strzelectwa","name":"Con - Tra Akademia Strzelectwa","addr:country":"PL","addr:postcode":"66-400","addr:city":"Gorz\u00f3w Wielkopolski","addr:street":"ul. Fryderyka Chopina","addr:housenumber":"52","addr:teryt:simc":2849,"addr:teryt:sym_ul":935140,"contact:phone":"+48 536300030","contact:email":"biuro@con-tra.pl","contact:website":"http:\/\/www.con-tra.pl","ref:regon":"385781826","operator":"Con-Tra Sp\u00f3\u0142ka Z Ograniczon\u0105 Odpowiedzialno\u015bci\u0105","operator:type":"private","fixme":"w zale\u017cno\u015bci od przedmiotu dzia\u0142alno\u015bci (np. amenity=training + training=*, amenity=dancing_school, amenity=language_school, amenity=music_school)"}},{"id":61831,"type":"Feature","geometry":{"type":"Point","coordinates":[15.21916,52.73461]},"properties":{"ref:rspo":61831,"official_name":"Miejskie Przedszkole Integracyjne Nr 14 im. Przyjaci\u00f3\u0142 Dzieci w Gorzowie Wlkp.","name":"Miejskie Przedszkole Integracyjne Nr 14","addr:country":"PL","addr:postcode":"66-400","addr:city":"Gorz\u00f3w Wielkopolski","addr:street":"ul. Jana Kasprowicza","addr:housenumber":"10","addr:teryt:simc":8153,"addr:teryt:sym_ul":935140,"contact:phone":"+48 957226287","contact:email":"p14@edu.gorzow.pl","contact:website":"http:\/\/www.przedszkole-gorzow.pl","ref:regon":"080480816","ref:vatin":"PL5993137556","operator":"Miasto Gorz\u00f3w Wielkopolski","operator:type":"government","amenity":"kindergarten"}},{"id":88394,"type":"Feature","geometry":{"type":"Point","coordinates":[15.23926,52.73468]},"properties":{"ref:rspo":88394,"official_name":"Wojew\u00f3dzki O\u015brodek Metodyczny Biblioteka Pedagogiczna","name":"Wojew\u00f3dzki O\u015brodek Metodyczny Biblioteka Pedagogiczna","addr:country":"PL","addr:postcode":"66-400","addr:city":"Gorz\u00f3w Wielkopolski","addr:street":"ul. W\u0142adys\u0142awa \u0141okietka","addr:housenumber":"20A","addr:teryt:simc":11653,"addr:teryt:sym_ul":935140,"contact:phone":"+48 957216135","contact:email":"barbara.tymszan@womgorz.edu.pl","contact:website":"http:\/\/www.womgorz.edu.pl","ref:regon":"081089528","ref:vatin":"PL5991079671","operator":"Wojew\u00f3dztwo Lubuskie","operator:type":"government","amenity":"library"}},{"id":61818,"type":"Feature","geometry":{"type":"Point","coordinates":[15.24206,52.73476]},"properties":{"ref:rspo":61818,"official_name":"Przedszkole Miejskie Nr 33 w Gorzowie Wlkp.","name":"Przedszkole Miejskie Nr 33 w Gorzowie Wlkp.","addr:country":"PL","addr:postcode":"66-400","addr:city":"Gorz\u00f3w Wielkopolski","addr:street":"ul. Franciszka Walczaka","addr:housenumber":"4","addr:teryt:simc":23519,"addr:teryt:sym_ul":935140,"contact:phone":"+48 957226899","contact:email":"p33@edu.gorzow.pl","contact:website":"http:\/\/www.p33.edu.gorzow.pl","ref:regon":"080482264","ref:vatin":"PL5993138432","operator":"Miasto Gorz\u00f3w Wielkopolski","operator:type":"government","amenity":"kindergarten"}},{"id":61821,"type":"Feature","geometry":{"type":"Point","coordinates":[15.25356,52.73555]},"properties":{"ref:rspo":61821,"official_name":"Przedszkole Miejskie Nr 7 im. Bajkowy \u015awiat w Gorzowie Wlkp.","name":"Przedszkole Miejskie Nr 7","addr:country":"PL","addr:postcode":"66-400","addr:city":"Gorz\u00f3w Wielkopolski","addr:street":"ul. Wojciecha G\u0142owackiego","addr:housenumber":"4","addr:teryt:simc":5629,"addr:teryt:sym_ul":935140,"contact:phone":"+48 957320953","contact:email":"p7@edu.gorzow.pl","contact:website":"http:\/\/www.p7.edu.gorzow.pl","ref:regon":"080483619","ref:vatin":"PL5993136775","operator":"Miasto Gorz\u00f3w Wielkopolski","operator:type":"government","amenity":"kindergarten"}},{"id":266923,"type":"Feature","geometry":{"type":"Point","coordinates":[15.2307,52.73571]},"properties":{"ref:rspo":266923,"official_name":"Seka Sp\u00f3\u0142ka Akcyjna w Warszawie Oddzia\u0142 w Gorzowie Wlkp.","name":"Seka Sp\u00f3\u0142ka Akcyjna w Warszawie Oddzia\u0142 w Gorzowie Wlkp.","addr:country":"PL","addr:postcode":"66-400","addr:city":"Gorz\u00f3w Wielkopolski","addr:street":"ul. Kosynier\u00f3w Gdy\u0144skich","addr:housenumber":"82","addr:teryt:simc":9503,"addr:teryt:sym_ul":935140,"contact:phone":"+48 957374620","contact:email":"gorzow@seka.pl","contact:website":"http:\/\/www.seka.pl","ref:regon":"369744513","operator":"\"Seka\" Sp\u00f3\u0142ka Akcyjna","operator:type":"private","fixme":"w zale\u017cno\u015bci od przedmiotu dzia\u0142alno\u015bci (np. amenity=training + training=*, amenity=dancing_school, amenity=language_school, amenity=music_school)"}},{"id":61820,"type":"Feature","geometry":{"type":"Point","coordinates":[15.23905,52.73583]},"properties":{"ref:rspo":61820,"official_name":"Przedszkole Miejskie Nr 6 w Gorzowie Wlkp.","name":"Przedszkole Miejskie Nr 6 w Gorzowie Wlkp.","addr:country":"PL","addr:postcode":"66-400","addr:city":"Gorz\u00f3w Wielkopolski","addr:street":"ul. Micha\u0142a Drzyma\u0142y","addr:housenumber":"18","addr:teryt:simc":4317,"addr:teryt:sym_ul":935140,"contact:phone":"+48 957224899","contact:email":"p6@edu.gorzow.pl","contact:website":"http:\/\/www.przedszkolegorzow.pl","ref:regon":"080481744","ref:vatin":"PL5993138136","operator":"Miasto Gorz\u00f3w Wielkopolski","operator:type":"government","amenity":"kindergarten"}},{"id":277708,"type":"Feature","geometry":{"type":"Point","coordinates":[15.2297,52.73589]},"properties":{"ref:rspo":277708,"official_name":"Centrum Ta\u0144ca Fan Dance Anna Depta, Grzegorz Depta","name":"Centrum Ta\u0144ca Fan Dance Anna Depta, Grzegorz Depta","addr:country":"PL","addr:postcode":"66-400","addr:city":"Gorz\u00f3w Wielkopolski","addr:street":"ul. Kosynier\u00f3w Gdy\u0144skich","addr:housenumber":"21 B","addr:teryt:simc":9503,"addr:teryt:sym_ul":935140,"contact:phone":"+48 602403273","contact:email":"fandance@op.pl","contact:website":"http:\/\/www.fandance.pl","ref:regon":"389367383","ref:vatin":"PL5991039619","operator":"Anna Depta","operator:type":"private","fixme":"w zale\u017cno\u015bci od przedmiotu dzia\u0142alno\u015bci (np. amenity=training + training=*, amenity=dancing_school, amenity=language_school, amenity=music_school)"}},{"id":4486,"type":"Feature","geometry":{"type":"Point","coordinates":[15.23757,52.73589]},"properties":{"ref:rspo":4486,"official_name":"Zesp\u00f3\u0142 Szk\u00f3\u0142 Ekonomicznych im. Stefana Starzy\u0144skiego w Gorzowie Wlkp.","name":"Zesp\u00f3\u0142 Szk\u00f3\u0142 Ekonomicznych","addr:country":"PL","addr:postcode":"66-400","addr:city":"Gorz\u00f3w Wielkopolski","addr:street":"ul. 30 Stycznia","addr:housenumber":"29","addr:teryt:simc":21465,"addr:teryt:sym_ul":935140,"contact:phone":"+48 957223595","contact:email":"zsek@edu.gorzow.pl","contact:website":"http:\/\/ekonomik.gorzow.pl","ref:regon":"210203226","ref:vatin":"PL5990112969","operator":"Miasto Gorz\u00f3w Wielkopolski","operator:type":"government","landuse":"education","fixme":"amenity=school, amenity=college albo landuse=education w zale\u017cno\u015bci od tego, jakie plac\u00f3wki wchodz\u0105 w sk\u0142ad zespo\u0142u. Sprawd\u017a, kiedy stosowa\u0107 amenity=* a kiedy landuse=education.","note":"Children RSPO: 83240"}},{"id":83240,"type":"Feature","geometry":{"type":"Point","coordinates":[15.23757,52.735859999999995]},"properties":{"isced:level":"3","ref:rspo":83240,"official_name":"Technikum Nr 2 w Zespole Szk\u00f3\u0142 Ekonomicznych im. Stefana Starzy\u0144skiego w Gorzowie Wielkopolskim","name":"Technikum Nr 2 w Zespole Szk\u00f3\u0142 Ekonomicznych","addr:country":"PL","addr:postcode":"66-400","addr:city":"Gorz\u00f3w Wielkopolski","addr:street":"ul. 30 Stycznia","addr:housenumber":"29","addr:teryt:simc":21465,"addr:teryt:sym_ul":935140,"contact:phone":"+48 957223595","contact:email":"zsek@edu.gorzow.pl","contact:website":"http:\/\/www.ekonomik.gorzow.pl\/","ref:regon":"211260717","operator":"Miasto Gorz\u00f3w Wielkopolski","operator:type":"government","amenity":"school","note":"Parent RSPO: 4486"}},{"id":68540,"type":"Feature","geometry":{"type":"Point","coordinates":[15.23623,52.7367599]},"properties":{"isced:level":"1;2","ref:rspo":68540,"official_name":"Szko\u0142a Podstawowa Nr 1 im. Marii Konopnickiej w Gorzowie Wlkp.","name":"Szko\u0142a Podstawowa Nr 1","addr:country":"PL","addr:postcode":"66-400","addr:city":"Gorz\u00f3w Wielkopolski","addr:street":"ul. gen. Jaros\u0142awa D\u0105browskiego","addr:housenumber":"23","addr:teryt:simc":3676,"addr:teryt:sym_ul":935140,"contact:phone":"+48 957226423","contact:email":"sp1@edu.gorzow.pl","contact:website":"http:\/\/szkolajedynka.edu.pl\/","ref:regon":"210202847","ref:vatin":"PL5991376179","operator":"Miasto Gorz\u00f3w Wielkopolski","operator:type":"government","amenity":"school"}},{"id":278088,"type":"Feature","geometry":{"type":"Point","coordinates":[15.196394133656,52.736818095724]},"properties":{"ref:rspo":278088,"official_name":"Przedszkole \"Przyjazny Zak\u0105tek\"","name":"Przedszkole \"Przyjazny Zak\u0105tek\"","addr:country":"PL","addr:postcode":"66-400","addr:city":"Gorz\u00f3w Wielkopolski","addr:street":"ul. Londy\u0144ska","addr:housenumber":"9","addr:teryt:simc":11251,"addr:teryt:sym_ul":935140,"contact:phone":"+48 663571134","contact:email":"biuro@przyjazny-zakatek.com.pl","ref:regon":"389764569","operator":"Remigiusz Stein","operator:type":"private","amenity":"kindergarten"}},{"id":57368,"type":"Feature","geometry":{"type":"Point","coordinates":[15.23914,52.73707]},"properties":{"ref:rspo":57368,"official_name":"Przedszkole Miejskie Nr 2 w Gorzowie Wlkp.","name":"Przedszkole Miejskie Nr 2 w Gorzowie Wlkp.","addr:country":"PL","addr:postcode":"66-400","addr:city":"Gorz\u00f3w Wielkopolski","addr:street":"ul. Micha\u0142a Drzyma\u0142y","addr:housenumber":"26a","addr:teryt:simc":4317,"addr:teryt:sym_ul":935140,"contact:phone":"+48 953030012","contact:email":"p2@edu.gorzow.pl","contact:website":"http:\/\/pm2.edu.pl","ref:regon":"080483223","ref:vatin":"PL5993137013","operator":"Miasto Gorz\u00f3w Wielkopolski","operator:type":"government","amenity":"kindergarten"}},{"id":53559,"type":"Feature","geometry":{"type":"Point","coordinates":[15.22836,52.73795]},"properties":{"ref:rspo":53559,"official_name":"Przedszkole Miejskie Nr 1 im. \u015awiat Bajeczki Jedyneczki w Gorzowie Wlkp.","name":"Przedszkole Miejskie Nr 1","addr:country":"PL","addr:postcode":"66-400","addr:city":"Gorz\u00f3w Wielkopolski","addr:street":"ul. Kosynier\u00f3w Gdy\u0144skich","addr:housenumber":"29","addr:teryt:simc":9503,"addr:teryt:sym_ul":935140,"contact:phone":"+48 957223773","contact:email":"p1@edu.gorzow.pl","contact:website":"http:\/\/www.p1.edu.gorzow.pl","ref:regon":"080482910","ref:vatin":"PL5993136410","operator":"Miasto Gorz\u00f3w Wielkopolski","operator:type":"government","amenity":"kindergarten"}},{"id":29182,"type":"Feature","geometry":{"type":"Point","coordinates":[15.20516,52.73797]},"properties":{"ref:rspo":29182,"official_name":"Poradnia Psychologiczno-Pedagogiczna Nr 1 w Gorzowie Wlkp.","name":"Poradnia Psychologiczno-Pedagogiczna Nr 1 w Gorzowie Wlkp.","addr:country":"PL","addr:postcode":"66-400","addr:city":"Gorz\u00f3w Wielkopolski","addr:street":"ul. J\u00f3zefa Pankiewicza","addr:housenumber":"5-7","addr:teryt:simc":15633,"addr:teryt:sym_ul":935140,"contact:phone":"+48 957330468","contact:email":"porpsychped1@powiatgorzowski.pl","contact:website":"http:\/\/www.ppp1.powiatgorzowski.pl","ref:regon":"210240894","operator":"Powiat Gorzowski","operator:type":"government","healthcare":"councelling","counselling_type":"education","fixme":"w zale\u017cno\u015bci od przedmiotu dzia\u0142alno\u015bci (np. healthcare=councelling + counselling_type=education albo healthcare=psychotherapist)"}},{"id":12244,"type":"Feature","geometry":{"type":"Point","coordinates":[15.21535,52.7382599]},"properties":{"ref:rspo":12244,"official_name":"Zesp\u00f3\u0142 Szk\u00f3\u0142 Og\u00f3lnokszta\u0142c\u0105cych Nr 16 w Gorzowie Wlkp.","name":"Zesp\u00f3\u0142 Szk\u00f3\u0142 Og\u00f3lnokszta\u0142c\u0105cych Nr 16 w Gorzowie Wlkp.","addr:country":"PL","addr:postcode":"66-400","addr:city":"Gorz\u00f3w Wielkopolski","addr:street":"ul. Ksawerego Dunikowskiego","addr:housenumber":"5","addr:teryt:simc":4399,"addr:teryt:sym_ul":935140,"contact:phone":"+48 957213624","contact:email":"zso16@edu.gorzow.pl","ref:regon":"210202994","ref:vatin":"PL5991087156","operator":"Miasto Gorz\u00f3w Wielkopolski","operator:type":"government","landuse":"education","fixme":"amenity=school, amenity=college albo landuse=education w zale\u017cno\u015bci od tego, jakie plac\u00f3wki wchodz\u0105 w sk\u0142ad zespo\u0142u. Sprawd\u017a, kiedy stosowa\u0107 amenity=* a kiedy landuse=education.","note":"Children RSPO: 80874;80875"}},{"id":50246,"type":"Feature","geometry":{"type":"Point","coordinates":[15.21535,52.7382299]},"properties":{"ref:rspo":50246,"official_name":"Zesp\u00f3\u0142 Kszta\u0142cenia Specjalnego Nr 1 im. Karola Wojty\u0142y w Gorzowie Wlkp.","name":"Zesp\u00f3\u0142 Kszta\u0142cenia Specjalnego Nr 1","addr:country":"PL","addr:postcode":"66-400","addr:city":"Gorz\u00f3w Wielkopolski","addr:street":"ul. Ksawerego Dunikowskiego","addr:housenumber":"5","addr:teryt:simc":4399,"addr:teryt:sym_ul":935140,"contact:phone":"+48 957228466","contact:email":"zks@edu.gorzow.pl","contact:website":"http:\/\/www.zks.edu.gorzow.pl","ref:regon":"210203491","ref:vatin":"PL5992011095","operator":"Miasto Gorz\u00f3w Wielkopolski","operator:type":"government","landuse":"education","fixme":"amenity=school, amenity=college albo landuse=education w zale\u017cno\u015bci od tego, jakie plac\u00f3wki wchodz\u0105 w sk\u0142ad zespo\u0142u. Sprawd\u017a, kiedy stosowa\u0107 amenity=* a kiedy landuse=education.","note":"Children RSPO: 83245;83246;268503"}},{"id":80874,"type":"Feature","geometry":{"type":"Point","coordinates":[15.21535,52.738199900000005]},"properties":{"isced:level":"1;2","ref:rspo":80874,"official_name":"Szko\u0142a Podstawowa Nr 16 Z Oddzia\u0142ami Integracyjnymi im. J\u00f3zefa Pi\u0142sudskiego w Gorzowie Wlkp.","name":"Szko\u0142a Podstawowa Nr 16 Z Oddzia\u0142ami Integracyjnymi","addr:country":"PL","addr:postcode":"66-400","addr:city":"Gorz\u00f3w Wielkopolski","addr:street":"ul. Ksawerego Dunikowskiego","addr:housenumber":"5","addr:teryt:simc":4399,"addr:teryt:sym_ul":935140,"contact:phone":"+48 957213624","contact:email":"zso16@edu.gorzow.pl","contact:website":"http:\/\/www.zso16.gorzow.pl","ref:regon":"210407970","operator":"Miasto Gorz\u00f3w Wielkopolski","operator:type":"government","amenity":"school","note":"Parent RSPO: 12244"}},{"id":80875,"type":"Feature","geometry":{"type":"Point","coordinates":[15.21535,52.7381699]},"properties":{"isced:level":"3","ref:rspo":80875,"official_name":"Viii Liceum Og\u00f3lnokszta\u0142c\u0105ce Z Oddzia\u0142ami Integracyjnymi im. J\u00f3zefa Pi\u0142sudskiego w Zespole Szk\u00f3\u0142 Og\u00f3lnokszta\u0142c\u0105cych Nr 16 w Gorzowie Wielkopolskim","name":"Viii Liceum Og\u00f3lnokszta\u0142c\u0105ce Z Oddzia\u0142ami Integracyjnymi","addr:country":"PL","addr:postcode":"66-400","addr:city":"Gorz\u00f3w Wielkopolski","addr:street":"ul. Ksawerego Dunikowskiego","addr:housenumber":"5","addr:teryt:simc":4399,"addr:teryt:sym_ul":935140,"contact:phone":"+48 957213624","contact:email":"zso16@edu.gorzow.pl","contact:website":"http:\/\/www.zso16.gorzow.pl","ref:regon":"211260953","operator":"Miasto Gorz\u00f3w Wielkopolski","operator:type":"government","amenity":"school","note":"Parent RSPO: 12244"}},{"id":83245,"type":"Feature","geometry":{"type":"Point","coordinates":[15.21535,52.7381399]},"properties":{"isced:level":"1;2","ref:rspo":83245,"official_name":"Szko\u0142a Podstawowa Specjalna Nr 18 im. Karola Wojty\u0142y w Gorzowie Wielkopolskim w Zespole Kszta\u0142cenia Specjalnego Nr 1","name":"Szko\u0142a Podstawowa Specjalna Nr 18","addr:country":"PL","addr:postcode":"66-400","addr:city":"Gorz\u00f3w Wielkopolski","addr:street":"ul. Ksawerego Dunikowskiego","addr:housenumber":"5","addr:teryt:simc":4399,"addr:teryt:sym_ul":935140,"contact:phone":"+48 957228466","contact:email":"zks@edu.gorzow.pl","contact:website":"http:\/\/www.zks.edu.gorzow.pl","ref:regon":"211268593","operator":"Miasto Gorz\u00f3w Wielkopolski","operator:type":"government","amenity":"school","note":"Parent RSPO: 50246"}},{"id":83246,"type":"Feature","geometry":{"type":"Point","coordinates":[15.21535,52.738109900000005]},"properties":{"ref:rspo":83246,"official_name":"Przedszkole Specjalne Nr 34 im. Karola Wojty\u0142y w Gorzowie Wlkp.","name":"Przedszkole Specjalne Nr 34","addr:country":"PL","addr:postcode":"66-400","addr:city":"Gorz\u00f3w Wielkopolski","addr:street":"ul. Ksawerego Dunikowskiego","addr:housenumber":"5","addr:teryt:simc":4399,"addr:teryt:sym_ul":935140,"contact:phone":"+48 957228466","contact:email":"zks@edu.gorzow.pl","contact:website":"http:\/\/www.zks.edu.gorzow.pl","ref:regon":"211268601","operator":"Miasto Gorz\u00f3w Wielkopolski","operator:type":"government","amenity":"kindergarten","note":"Parent RSPO: 50246"}},{"id":268503,"type":"Feature","geometry":{"type":"Point","coordinates":[15.21535,52.7380799]},"properties":{"ref:rspo":268503,"official_name":"Szko\u0142a Specjalna Przysposabiaj\u0105ca Do Pracy Nr 2 w Gorzowie Wielkopolskim w Zespole Kszta\u0142cenia Specjalnego Nr 1","name":"Szko\u0142a Specjalna Przysposabiaj\u0105ca Do Pracy Nr 2 w Gorzowie Wielkopolskim w Zespole Kszta\u0142cenia Specjalnego Nr 1","addr:country":"PL","addr:postcode":"66-400","addr:city":"Gorz\u00f3w Wielkopolski","addr:street":"ul. Ksawerego Dunikowskiego","addr:housenumber":"5","addr:teryt:simc":4399,"addr:teryt:sym_ul":935140,"contact:phone":"+48 957228466","contact:email":"zks@edu.gorzow.pl","contact:website":"http:\/\/www.zks.edu.gorzow.pl","ref:regon":"381200324","operator":"Miasto Gorz\u00f3w Wielkopolski","operator:type":"government","amenity":"school","note":"Parent RSPO: 50246"}},{"id":4489,"type":"Feature","geometry":{"type":"Point","coordinates":[15.25409,52.73833]},"properties":{"ref:rspo":4489,"official_name":"Zesp\u00f3\u0142 Szk\u00f3\u0142 Gastronomicznych im. Febronii Gajewskiej-Karama\u0107 w Gorzowie Wlkp.","name":"Zesp\u00f3\u0142 Szk\u00f3\u0142 Gastronomicznych","addr:country":"PL","addr:postcode":"66-400","addr:city":"Gorz\u00f3w Wielkopolski","addr:street":"ul. Ok\u00f3lna","addr:housenumber":"35","addr:teryt:simc":14890,"addr:teryt:sym_ul":935140,"contact:phone":"+48 957225242","contact:email":"zsg@edu.gorzow.pl","contact:website":"http:\/\/gastronomik.gorzow.pl","ref:regon":"210203232","ref:vatin":"PL5991113333","operator":"Miasto Gorz\u00f3w Wielkopolski","operator:type":"government","landuse":"education","fixme":"amenity=school, amenity=college albo landuse=education w zale\u017cno\u015bci od tego, jakie plac\u00f3wki wchodz\u0105 w sk\u0142ad zespo\u0142u. Sprawd\u017a, kiedy stosowa\u0107 amenity=* a kiedy landuse=education.","note":"Children RSPO: 83242;83243"}},{"id":83242,"type":"Feature","geometry":{"type":"Point","coordinates":[15.25409,52.738299999999995]},"properties":{"isced:level":"3","ref:rspo":83242,"official_name":"Technikum Nr 3 w Zespole Szk\u00f3\u0142 Gastronomicznych im. Febronii Gajewskiej \u2013 Karama\u0107 w Gorzowie Wielkopolskim","name":"Technikum Nr 3 w Zespole Szk\u00f3\u0142 Gastronomicznych","addr:country":"PL","addr:postcode":"66-400","addr:city":"Gorz\u00f3w Wielkopolski","addr:street":"ul. Ok\u00f3lna","addr:housenumber":"35","addr:teryt:simc":14890,"addr:teryt:sym_ul":935140,"contact:phone":"+48 957225242","contact:email":"zsg@edu.gorzow.pl","contact:website":"http:\/\/www.gastronomik.gorzow.pl","ref:regon":"211261763","operator":"Miasto Gorz\u00f3w Wielkopolski","operator:type":"government","amenity":"school","note":"Parent RSPO: 4489"}},{"id":83243,"type":"Feature","geometry":{"type":"Point","coordinates":[15.25409,52.73827]},"properties":{"isced:level":"3","ref:rspo":83243,"official_name":"Bran\u017cowa Szko\u0142a I Stopnia Nr 3 w Zespole Szk\u00f3\u0142 Gastronomicznych im. Febronii Gajewskiej \u2013 Karama\u0107 w Gorzowie Wielkopolskim","name":"Bran\u017cowa Szko\u0142a I Stopnia Nr 3 w Zespole Szk\u00f3\u0142 Gastronomicznych","addr:country":"PL","addr:postcode":"66-400","addr:city":"Gorz\u00f3w Wielkopolski","addr:street":"ul. Ok\u00f3lna","addr:housenumber":"35","addr:teryt:simc":14890,"addr:teryt:sym_ul":935140,"contact:phone":"+48 957225242","contact:email":"zsg@edu.gorzow.pl","contact:website":"http:\/\/www.gastronomik.gorzow.pl","ref:regon":"211261770","operator":"Miasto Gorz\u00f3w Wielkopolski","operator:type":"government","amenity":"school","note":"Parent RSPO: 4489"}},{"id":53994,"type":"Feature","geometry":{"type":"Point","coordinates":[15.2088845,52.7386151]},"properties":{"ref:rspo":53994,"official_name":"Przedszkole Miejskie Nr 11 im. Marii Kownackiej w Gorzowie Wlkp.","name":"Przedszkole Miejskie Nr 11","addr:country":"PL","addr:postcode":"66-400","addr:city":"Gorz\u00f3w Wielkopolski","addr:street":"ul. Jacka Malczewskiego","addr:housenumber":"2","addr:teryt:simc":12037,"addr:teryt:sym_ul":935140,"contact:phone":"+48 957213253","contact:email":"p11@edu.gorzow.pl","contact:website":"http:\/\/www.p11.edu.gorzow.pl","ref:regon":"080481750","ref:vatin":"PL5993136806","operator":"Miasto Gorz\u00f3w Wielkopolski","operator:type":"government","amenity":"kindergarten"}},{"id":57370,"type":"Feature","geometry":{"type":"Point","coordinates":[15.21503,52.73863]},"properties":{"ref:rspo":57370,"official_name":"Przedszkole Miejskie Nr 21 im. Misia Uszatka w Gorzowie Wlkp.","name":"Przedszkole Miejskie Nr 21","addr:country":"PL","addr:postcode":"66-400","addr:city":"Gorz\u00f3w Wielkopolski","addr:street":"ul. Ksawerego Dunikowskiego","addr:housenumber":"5a","addr:teryt:simc":4399,"addr:teryt:sym_ul":935140,"contact:phone":"+48 957291511","contact:email":"p21@edu.gorzow.pl","contact:website":"http:\/\/www.p21.edu.gorzow.pl","ref:regon":"080482904","ref:vatin":"PL5993136427","operator":"Miasto Gorz\u00f3w Wielkopolski","operator:type":"government","amenity":"kindergarten"}},{"id":278724,"type":"Feature","geometry":{"type":"Point","coordinates":[15.23271,52.73878]},"properties":{"ref:rspo":278724,"official_name":"Niepubliczne Przedszkole Edukacji Niezale\u017cnej \u015awietliki","name":"Niepubliczne Przedszkole Edukacji Niezale\u017cnej \u015awietliki","addr:country":"PL","addr:postcode":"66-400","addr:city":"Gorz\u00f3w Wielkopolski","addr:street":"ul. Mieszka I","addr:housenumber":"61","addr:teryt:simc":12832,"addr:teryt:sym_ul":935140,"contact:phone":"+48 603188520","contact:email":"centrumrozwojudziecka@klekle.com.pl","ref:regon":"520047387","operator":"Urszula Bardon","operator:type":"private","amenity":"kindergarten"}},{"id":68541,"type":"Feature","geometry":{"type":"Point","coordinates":[15.22213,52.73895]},"properties":{"isced:level":"1;2","ref:rspo":68541,"official_name":"Szko\u0142a Podstawowa Nr 15 im. Wojska Polskiego w Gorzowie Wlkp.","name":"Szko\u0142a Podstawowa Nr 15","addr:country":"PL","addr:postcode":"66-400","addr:city":"Gorz\u00f3w Wielkopolski","addr:street":"ul. Aleksandra Kotsisa","addr:housenumber":"1","addr:teryt:simc":9634,"addr:teryt:sym_ul":935140,"contact:phone":"+48 957228729","contact:email":"sp15@edu.gorzow.pl","contact:website":"http:\/\/www.sp15.gorzow.pl\/","ref:regon":"210202988","ref:vatin":"PL5991101755","operator":"Miasto Gorz\u00f3w Wielkopolski","operator:type":"government","amenity":"school"}},{"id":68539,"type":"Feature","geometry":{"type":"Point","coordinates":[15.24927,52.73919]},"properties":{"isced:level":"1;2","ref:rspo":68539,"official_name":"Szko\u0142a Podstawowa Nr 9 im. Jana Kochanowskiego w Gorzowie Wlkp.","name":"Szko\u0142a Podstawowa Nr 9","addr:country":"PL","addr:postcode":"66-400","addr:city":"Gorz\u00f3w Wielkopolski","addr:street":"ul. Nowa","addr:housenumber":"7","addr:teryt:simc":14330,"addr:teryt:sym_ul":935140,"contact:phone":"+48 957364597","contact:email":"sp9@edu.gorzow.pl","contact:website":"http:\/\/www.sp9.gorzow.pl","ref:regon":"210202936","ref:vatin":"PL5991031687","operator":"Miasto Gorz\u00f3w Wielkopolski","operator:type":"government","amenity":"school"}},{"id":13914,"type":"Feature","geometry":{"type":"Point","coordinates":[15.2261,52.73934]},"properties":{"ref:rspo":13914,"official_name":"Zesp\u00f3\u0142 Szk\u00f3\u0142 Specjalnych Nr 14 w Gorzowie Wlkp.","name":"Zesp\u00f3\u0142 Szk\u00f3\u0142 Specjalnych Nr 14 w Gorzowie Wlkp.","addr:country":"PL","addr:postcode":"66-400","addr:city":"Gorz\u00f3w Wielkopolski","addr:street":"ul. Ignacego Mo\u015bcickiego","addr:housenumber":"3","addr:teryt:simc":13390,"addr:teryt:sym_ul":935140,"contact:phone":"+48 957835281","contact:email":"zss14@edu.gorzow.pl","contact:website":"http:\/\/zs14.gorzow.pl\/","ref:regon":"210203456","ref:vatin":"PL5991132572","operator":"Miasto Gorz\u00f3w Wielkopolski","operator:type":"government","landuse":"education","fixme":"amenity=school, amenity=college albo landuse=education w zale\u017cno\u015bci od tego, jakie plac\u00f3wki wchodz\u0105 w sk\u0142ad zespo\u0142u. Sprawd\u017a, kiedy stosowa\u0107 amenity=* a kiedy landuse=education.","note":"Children RSPO: 83232;83233;83234"}},{"id":83232,"type":"Feature","geometry":{"type":"Point","coordinates":[15.2261,52.739309999999996]},"properties":{"isced:level":"1;2","ref:rspo":83232,"official_name":"Szko\u0142a Podstawowa Specjalna Nr 14 im. Ambasador\u00f3w Praw Cz\u0142owieka w Gorzowie Wielkopolskim w Zespole Szk\u00f3\u0142 Specjalnych Nr 14","name":"Szko\u0142a Podstawowa Specjalna Nr 14","addr:country":"PL","addr:postcode":"66-400","addr:city":"Gorz\u00f3w Wielkopolski","addr:street":"ul. Ignacego Mo\u015bcickiego","addr:housenumber":"3","addr:teryt:simc":13390,"addr:teryt:sym_ul":935140,"contact:phone":"+48 957835281","contact:email":"zss14@edu.gorzow.pl","contact:website":"http:\/\/zs14.gorzow.pl\/","ref:regon":"211260634","operator":"Miasto Gorz\u00f3w Wielkopolski","operator:type":"government","amenity":"school","note":"Parent RSPO: 13914"}},{"id":83233,"type":"Feature","geometry":{"type":"Point","coordinates":[15.2261,52.73928]},"properties":{"ref:rspo":83233,"official_name":"Szko\u0142a Specjalna Przysposabiaj\u0105ca Do Pracy im. Ambasador\u00f3w Praw Cz\u0142owieka w Gorzowie Wielkopolskim w Zespole Szk\u00f3\u0142 Specjalnych Nr 14","name":"Szko\u0142a Specjalna Przysposabiaj\u0105ca Do Pracy","addr:country":"PL","addr:postcode":"66-400","addr:city":"Gorz\u00f3w Wielkopolski","addr:street":"ul. Ignacego Mo\u015bcickiego","addr:housenumber":"3","addr:teryt:simc":13390,"addr:teryt:sym_ul":935140,"contact:phone":"+48 957225569","contact:email":"zss14@edu.gorzow.pl","contact:website":"http:\/\/zs14.gorzow.pl\/","ref:regon":"080033419","operator":"Miasto Gorz\u00f3w Wielkopolski","operator:type":"government","amenity":"school","note":"Parent RSPO: 13914"}},{"id":83234,"type":"Feature","geometry":{"type":"Point","coordinates":[15.2261,52.73925]},"properties":{"isced:level":"3","ref:rspo":83234,"official_name":"Bran\u017cowa Szko\u0142a I Stopnia Specjalna Nr 14 im. Ambasador\u00f3w Praw Cz\u0142owieka w Gorzowie Wielkopolskim w Zespole Szk\u00f3\u0142 Specjalnych Nr 14","name":"Bran\u017cowa Szko\u0142a I Stopnia Specjalna Nr 14","addr:country":"PL","addr:postcode":"66-400","addr:city":"Gorz\u00f3w Wielkopolski","addr:street":"ul. Ignacego Mo\u015bcickiego","addr:housenumber":"3","addr:teryt:simc":13390,"addr:teryt:sym_ul":935140,"contact:phone":"+48 957835281","contact:email":"zss14@edu.gorzow.pl","contact:website":"http:\/\/zs14.gorzow.pl\/","ref:regon":"211260670","operator":"Miasto Gorz\u00f3w Wielkopolski","operator:type":"government","amenity":"school","note":"Parent RSPO: 13914"}},{"id":114100,"type":"Feature","geometry":{"type":"Point","coordinates":[15.1694,52.73943]},"properties":{"ref:rspo":114100,"official_name":"Przedszkole Specjalne dla Dzieci Z Autyzmem","name":"Przedszkole Specjalne dla Dzieci Z Autyzmem","addr:country":"PL","addr:postcode":"66-400","addr:city":"Gorz\u00f3w Wielkopolski","addr:street":"ul. Ma\u0142yszy\u0144ska","addr:housenumber":"8","addr:teryt:simc":12217,"addr:teryt:sym_ul":935140,"contact:phone":"+48 885021923","contact:email":"autyzm_malyszyn@wp.pl","contact:website":"http:\/\/www.autyzm-gorzow.org","ref:regon":"081128949","ref:vatin":"PL5993100197","operator":"Stowarzyszenie Na Rzecz Os\u00f3b Z Autyzmem","operator:type":"ngo","amenity":"kindergarten"}},{"id":268079,"type":"Feature","geometry":{"type":"Point","coordinates":[15.1694,52.739399999999996]},"properties":{"ref:rspo":268079,"official_name":"Niepubliczna Szko\u0142a Specjalna Przysposabiaj\u0105ca Do Pracy","name":"Niepubliczna Szko\u0142a Specjalna Przysposabiaj\u0105ca Do Pracy","addr:country":"PL","addr:postcode":"66-400","addr:city":"Gorz\u00f3w Wielkopolski","addr:street":"ul. Ma\u0142yszy\u0144ska","addr:housenumber":"8","addr:teryt:simc":12217,"addr:teryt:sym_ul":935140,"contact:phone":"+48 885021925","contact:email":"autyzm_malyszyn@wp.pl","contact:website":"http:\/\/www.autyzm-gorzow.org","ref:regon":"380924570","operator":"Stowarzyszenie Na Rzecz Os\u00f3b Z Autyzmem","operator:type":"ngo","amenity":"school"}},{"id":12311,"type":"Feature","geometry":{"type":"Point","coordinates":[15.20851,52.7395]},"properties":{"ref:rspo":12311,"official_name":"Zesp\u00f3\u0142 Szk\u00f3\u0142 Mistrzostwa Sportowego w Gorzowie Wlkp.","name":"Zesp\u00f3\u0142 Szk\u00f3\u0142 Mistrzostwa Sportowego w Gorzowie Wlkp.","addr:country":"PL","addr:postcode":"66-400","addr:city":"Gorz\u00f3w Wielkopolski","addr:street":"ul. Jana Stanis\u0142awskiego","addr:housenumber":"2","addr:teryt:simc":20834,"addr:teryt:sym_ul":935140,"contact:phone":"+48 957224404","contact:email":"zsspo@edu.gorzow.pl","contact:website":"http:\/\/szkolasportowa.pl","ref:regon":"080023289","ref:vatin":"PL5992919512","operator":"Miasto Gorz\u00f3w Wielkopolski","operator:type":"government","landuse":"education","fixme":"amenity=school, amenity=college albo landuse=education w zale\u017cno\u015bci od tego, jakie plac\u00f3wki wchodz\u0105 w sk\u0142ad zespo\u0142u. Sprawd\u017a, kiedy stosowa\u0107 amenity=* a kiedy landuse=education.","note":"Children RSPO: 83217;83223;83225"}},{"id":83217,"type":"Feature","geometry":{"type":"Point","coordinates":[15.20851,52.73947]},"properties":{"isced:level":"1;2","ref:rspo":83217,"official_name":"Szko\u0142a Podstawowa Nr 11 im. Krzysztofa Kamila Baczy\u0144skiego w Gorzowie Wlkp.","name":"Szko\u0142a Podstawowa Nr 11","addr:country":"PL","addr:postcode":"66-400","addr:city":"Gorz\u00f3w Wielkopolski","addr:street":"ul. Jana Stanis\u0142awskiego","addr:housenumber":"2","addr:teryt:simc":20834,"addr:teryt:sym_ul":935140,"contact:phone":"+48 957224404","contact:email":"zsspo@edu.gorzow.pl","contact:website":"http:\/\/www.szkolasportowa.pl","ref:regon":"210202959","operator":"Miasto Gorz\u00f3w Wielkopolski","operator:type":"government","amenity":"school","note":"Parent RSPO: 12311"}},{"id":83223,"type":"Feature","geometry":{"type":"Point","coordinates":[15.20851,52.73944]},"properties":{"isced:level":"3","ref:rspo":83223,"official_name":"Vii Liceum Og\u00f3lnokszta\u0142c\u0105ce Mistrzostwa Sportowego w Zespole Szk\u00f3\u0142 Mistrzostwa Sportowego w Gorzowie Wielkopolskim","name":"Vii Liceum Og\u00f3lnokszta\u0142c\u0105ce Mistrzostwa Sportowego w Zespole Szk\u00f3\u0142 Mistrzostwa Sportowego w Gorzowie Wielkopolskim","addr:country":"PL","addr:postcode":"66-400","addr:city":"Gorz\u00f3w Wielkopolski","addr:street":"ul. Jana Stanis\u0142awskiego","addr:housenumber":"2","addr:teryt:simc":20834,"addr:teryt:sym_ul":935140,"contact:phone":"+48 957224404","contact:email":"zsspo@edu.gorzow.pl","contact:website":"http:\/\/www.szkolasportowa.pl","ref:regon":"080113727","operator":"Miasto Gorz\u00f3w Wielkopolski","operator:type":"government","amenity":"school","note":"Parent RSPO: 12311"}},{"id":83225,"type":"Feature","geometry":{"type":"Point","coordinates":[15.20851,52.73941]},"properties":{"isced:level":"1;2","ref:rspo":83225,"official_name":"Szko\u0142a Podstawowa Nr 3 Mistrzostwa Sportowego Z Oddzia\u0142ami Sportowymi w Gorzowie Wlkp.","name":"Szko\u0142a Podstawowa Nr 3 Mistrzostwa Sportowego Z Oddzia\u0142ami Sportowymi w Gorzowie Wlkp.","addr:country":"PL","addr:postcode":"66-400","addr:city":"Gorz\u00f3w Wielkopolski","addr:street":"ul. Jana Stanis\u0142awskiego","addr:housenumber":"2","addr:teryt:simc":20834,"addr:teryt:sym_ul":935140,"contact:phone":"+48 957224404","contact:email":"zsspo@edu.gorzow.pl","contact:website":"http:\/\/www.szkolasportowa.pl","ref:regon":"080023295","operator":"Miasto Gorz\u00f3w Wielkopolski","operator:type":"government","amenity":"school","note":"Parent RSPO: 12311"}},{"id":125095,"type":"Feature","geometry":{"type":"Point","coordinates":[15.24358,52.7395799]},"properties":{"ref:rspo":125095,"official_name":"Niepubliczna Poradnia Psychologiczno - Pedagogiczna","name":"Niepubliczna Poradnia Psychologiczno - Pedagogiczna","addr:country":"PL","addr:postcode":"66-400","addr:city":"Gorz\u00f3w Wielkopolski","addr:street":"ul. Franciszka Walczaka","addr:housenumber":"12c","addr:door":"5","addr:teryt:simc":23519,"addr:teryt:sym_ul":935140,"contact:phone":"+48 957835181","contact:email":"p.psychologicznopedagogiczna@gmail.com","ref:regon":"081238307","ref:vatin":"PL5993042005","operator":"Weronika Strzelecka","operator:type":"private","healthcare":"councelling","counselling_type":"education","fixme":"w zale\u017cno\u015bci od przedmiotu dzia\u0142alno\u015bci (np. healthcare=councelling + counselling_type=education albo healthcare=psychotherapist)"}},{"id":61833,"type":"Feature","geometry":{"type":"Point","coordinates":[15.24716,52.73998]},"properties":{"ref:rspo":61833,"official_name":"Miejskie Przedszkole Integracyjne Nr 9 im. Na Zielonym Wzg\u00f3rzu w Gorzowie Wlkp.","name":"Miejskie Przedszkole Integracyjne Nr 9","addr:country":"PL","addr:postcode":"66-400","addr:city":"Gorz\u00f3w Wielkopolski","addr:street":"ul. Widok","addr:housenumber":"25","addr:teryt:simc":24011,"addr:teryt:sym_ul":935140,"contact:phone":"+48 957321880","contact:email":"p9@edu.gorzow.pl","contact:website":"https:\/\/p9gorzow.pl\/kontakt","ref:regon":"080485653","ref:vatin":"PL5993137154","operator":"Miasto Gorz\u00f3w Wielkopolski","operator:type":"government","amenity":"kindergarten"}},{"id":61816,"type":"Feature","geometry":{"type":"Point","coordinates":[15.24787,52.7401399]},"properties":{"ref:rspo":61816,"official_name":"Przedszkole Miejskie Nr 31 im. Kubusia Puchatka w Gorzowie Wlkp.","name":"Przedszkole Miejskie Nr 31","addr:country":"PL","addr:postcode":"66-400","addr:city":"Gorz\u00f3w Wielkopolski","addr:street":"ul. Chmielna","addr:housenumber":"7","addr:teryt:simc":2768,"addr:teryt:sym_ul":935140,"contact:phone":"+48 957356146","contact:email":"p31@edu.gorzow.pl","contact:website":"http:\/\/www.p31.edu.gorzow.pl","ref:regon":"080480213","ref:vatin":"PL5993136812","operator":"Miasto Gorz\u00f3w Wielkopolski","operator:type":"government","amenity":"kindergarten"}},{"id":109803,"type":"Feature","geometry":{"type":"Point","coordinates":[15.208,52.74031]},"properties":{"isced:level":"1;2","ref:rspo":109803,"official_name":"Szko\u0142a Podstawowa Katolickiego Stowarzyszenia Wychowawc\u00f3w","name":"Szko\u0142a Podstawowa Katolickiego Stowarzyszenia Wychowawc\u00f3w","addr:country":"PL","addr:postcode":"66-400","addr:city":"Gorz\u00f3w Wielkopolski","addr:street":"ul. Jana Stanis\u0142awskiego","addr:housenumber":"3","addr:teryt:simc":20834,"addr:teryt:sym_ul":935140,"contact:phone":"+48 957213163","contact:email":"sekretariat@spigksw.pl","contact:website":"http:\/\/www.spigksw.pl","ref:regon":"081112724","operator":"Katolickie Stowarzyszenie Wychowawc\u00f3w Oddzia\u0142 W Gorzowie Wielkopolskim","operator:type":"ngo","amenity":"school"}},{"id":126235,"type":"Feature","geometry":{"type":"Point","coordinates":[15.27646,52.74082]},"properties":{"ref:rspo":126235,"official_name":"Przedszkole Niepubliczne \"Akademia Smyka\"","name":"Przedszkole Niepubliczne \"Akademia Smyka\"","addr:country":"PL","addr:postcode":"66-400","addr:city":"Gorz\u00f3w Wielkopolski","addr:street":"ul. Sybirak\u00f3w","addr:housenumber":"27","addr:teryt:simc":21641,"addr:teryt:sym_ul":935140,"contact:phone":"+48 500068769","contact:email":"akademia_smyka@wp.pl","contact:website":"http:\/\/www.akademia-smyka.cba.pl","ref:regon":"360199988","operator":"Renata Szostak","operator:type":"private","amenity":"kindergarten"}},{"id":262591,"type":"Feature","geometry":{"type":"Point","coordinates":[15.25151,52.7410799]},"properties":{"isced:level":"1;2","ref:rspo":262591,"official_name":"Szko\u0142a Podstawowa Nr 2 Z Oddzia\u0142ami Sportowymi im. Szarych Szereg\u00f3w w Gorzowie Wlkp.","name":"Szko\u0142a Podstawowa Nr 2 Z Oddzia\u0142ami Sportowymi","addr:country":"PL","addr:postcode":"66-400","addr:city":"Gorz\u00f3w Wielkopolski","addr:street":"ul. Ludwika Zamenhofa","addr:housenumber":"2a","addr:teryt:simc":25536,"addr:teryt:sym_ul":935140,"contact:phone":"+48 957289295","contact:email":"sp2@edu.gorzow.pl","contact:website":"http:\/\/www.sp2.gorzow.pl","ref:regon":"368039497","ref:vatin":"PL5993207742","operator":"Miasto Gorz\u00f3w Wielkopolski","operator:type":"government","amenity":"school"}},{"id":57374,"type":"Feature","geometry":{"type":"Point","coordinates":[15.21538,52.74159]},"properties":{"ref:rspo":57374,"official_name":"Przedszkole Miejskie Nr 25 w Gorzowie Wlkp.","name":"Przedszkole Miejskie Nr 25 w Gorzowie Wlkp.","addr:country":"PL","addr:postcode":"66-400","addr:city":"Gorz\u00f3w Wielkopolski","addr:street":"ul. Jana D\u0142ugosza","addr:housenumber":"34","addr:teryt:simc":3851,"addr:teryt:sym_ul":935140,"contact:phone":"+48 957291510","contact:email":"p25@edu.gorzow.pl","contact:website":"http:\/\/www.pm25.gorzow.pl","ref:regon":"080484441","ref:vatin":"PL5993137148","operator":"Miasto Gorz\u00f3w Wielkopolski","operator:type":"government","amenity":"kindergarten"}},{"id":274072,"type":"Feature","geometry":{"type":"Point","coordinates":[15.23091,52.74168]},"properties":{"ref:rspo":274072,"official_name":"Punkt Przedszkolny Przy Przedszkolu Nr 2","name":"Punkt Przedszkolny Przy Przedszkolu Nr 2","addr:country":"PL","addr:postcode":"66-400","addr:city":"Gorz\u00f3w Wielkopolski","addr:street":"ul. Mieszka I","addr:housenumber":"50","addr:teryt:simc":12832,"addr:teryt:sym_ul":935140,"contact:phone":"+48 536047619","contact:email":"p2@edu.gorzow.pl","contact:website":"http:\/\/pm2.edu.pl","ref:regon":"385152148","operator":"Miasto Gorz\u00f3w Wielkopolski","operator:type":"government","amenity":"kindergarten"}},{"id":61817,"type":"Feature","geometry":{"type":"Point","coordinates":[15.25097,52.7419]},"properties":{"ref:rspo":61817,"official_name":"Przedszkole Miejskie Nr 32 im. Kr\u00f3la Maciusia I w Gorzowie Wlkp.","name":"Przedszkole Miejskie Nr 32","addr:country":"PL","addr:postcode":"66-400","addr:city":"Gorz\u00f3w Wielkopolski","addr:street":"ul. Stilonowa","addr:housenumber":"20","addr:teryt:simc":21181,"addr:teryt:sym_ul":935140,"contact:phone":"+48 957323595","contact:email":"p32@edu.gorzow.pl","contact:website":"http:\/\/www.p32.edu.gorzow.pl","ref:regon":"080486049","ref:vatin":"PL5993137007","operator":"Miasto Gorz\u00f3w Wielkopolski","operator:type":"government","amenity":"kindergarten"}},{"id":107480,"type":"Feature","geometry":{"type":"Point","coordinates":[15.25305,52.7451999]},"properties":{"isced:level":"3","ref:rspo":107480,"official_name":"Zaoczne Liceum Og\u00f3lnokszta\u0142c\u0105ce Cosinus w Gorzowie Wlkp.","name":"Zaoczne Liceum Og\u00f3lnokszta\u0142c\u0105ce Cosinus w Gorzowie Wlkp.","addr:country":"PL","addr:postcode":"66-400","addr:city":"Gorz\u00f3w Wielkopolski","addr:street":"ul. Franciszka Walczaka","addr:housenumber":"25","addr:teryt:simc":23519,"addr:teryt:sym_ul":935140,"contact:phone":"+48 957258544","contact:email":"gorzow@cosinus.pl","contact:website":"http:\/\/www.cosinus.pl","ref:regon":"081108533","operator":"Fundacja Rideton","operator:type":"ngo","amenity":"school"}},{"id":107489,"type":"Feature","geometry":{"type":"Point","coordinates":[15.25305,52.7451699]},"properties":{"isced:level":"4","ref:rspo":107489,"official_name":"Szko\u0142a Policealna Cosinus w Gorzowie Wielkopolskim","name":"Szko\u0142a Policealna Cosinus w Gorzowie Wielkopolskim","addr:country":"PL","addr:postcode":"66-400","addr:city":"Gorz\u00f3w Wielkopolski","addr:street":"ul. Franciszka Walczaka","addr:housenumber":"25","addr:teryt:simc":23519,"addr:teryt:sym_ul":935140,"contact:phone":"+48 957258544","contact:email":"gorzow@cosinus.pl","contact:website":"http:\/\/www.cosinus.pl","ref:regon":"081108562","operator":"Fundacja Rideton","operator:type":"ngo","amenity":"college"}},{"id":263796,"type":"Feature","geometry":{"type":"Point","coordinates":[15.25305,52.745139900000005]},"properties":{"isced:level":"4","ref:rspo":263796,"official_name":"Policealna Szko\u0142a dla Doros\u0142ych Cosinus Plus w Gorzowie Wielkopolskim","name":"Policealna Szko\u0142a dla Doros\u0142ych Cosinus Plus w Gorzowie Wielkopolskim","addr:country":"PL","addr:postcode":"66-400","addr:city":"Gorz\u00f3w Wielkopolski","addr:street":"ul. Franciszka Walczaka","addr:housenumber":"25","addr:teryt:simc":23519,"addr:teryt:sym_ul":935140,"contact:phone":"+48 957258544","contact:email":"gorzow@cosinus.pl","contact:website":"http:\/\/www.cosinus.pl","ref:regon":"368224987","operator":"Fundacja Rideton","operator:type":"ngo","amenity":"college"}},{"id":263802,"type":"Feature","geometry":{"type":"Point","coordinates":[15.25305,52.7451099]},"properties":{"isced:level":"3","ref:rspo":263802,"official_name":"Zaoczne Liceum Og\u00f3lnokszta\u0142c\u0105ce dla Doros\u0142ych Cosinus Plus w Gorzowie Wielkopolskim","name":"Zaoczne Liceum Og\u00f3lnokszta\u0142c\u0105ce dla Doros\u0142ych Cosinus Plus w Gorzowie Wielkopolskim","addr:country":"PL","addr:postcode":"66-400","addr:city":"Gorz\u00f3w Wielkopolski","addr:street":"ul. Franciszka Walczaka","addr:housenumber":"25","addr:teryt:simc":23519,"addr:teryt:sym_ul":935140,"contact:phone":"+48 957358544","contact:email":"gorzow@cosinus.pl","contact:website":"http:\/\/www.cosinus.pl","ref:regon":"368225001","operator":"Fundacja Rideton","operator:type":"ngo","amenity":"school"}},{"id":276802,"type":"Feature","geometry":{"type":"Point","coordinates":[15.25305,52.7450799]},"properties":{"ref:rspo":276802,"official_name":"O\u015brodek Kszta\u0142cenia Polana","name":"O\u015brodek Kszta\u0142cenia Polana","addr:country":"PL","addr:postcode":"66-400","addr:city":"Gorz\u00f3w Wielkopolski","addr:street":"ul. Franciszka Walczaka","addr:housenumber":"25","addr:teryt:simc":23519,"addr:teryt:sym_ul":935140,"contact:phone":"+48 784916876","contact:email":"edupolana@gmail.com","ref:regon":"387599971","ref:vatin":"PL8511728250","operator":"Ewa Rutkowska","operator:type":"private","amenity":"training"}},{"id":132524,"type":"Feature","geometry":{"type":"Point","coordinates":[15.28474,52.74589]},"properties":{"ref:rspo":132524,"official_name":"Niepubliczna Plac\u00f3wka Kszta\u0142cenia Ustawicznego P.w. \"Joanna\" Andrzej Skawi\u0144ski","name":"Niepubliczna Plac\u00f3wka Kszta\u0142cenia Ustawicznego P.w. \"Joanna\" Andrzej Skawi\u0144ski","addr:country":"PL","addr:postcode":"66-400","addr:city":"Gorz\u00f3w Wielkopolski","addr:street":"ul. Podmiejska","addr:housenumber":"17 B","addr:teryt:simc":16816,"addr:teryt:sym_ul":935140,"contact:phone":"+48 957362678","contact:email":"aa.skawinski@gmail.com","ref:regon":"365721372","operator":"Andrzej Skawi\u0144ski","operator:type":"private","fixme":"w zale\u017cno\u015bci od przedmiotu dzia\u0142alno\u015bci (np. amenity=training + training=*, amenity=dancing_school, amenity=language_school, amenity=music_school)"}},{"id":122972,"type":"Feature","geometry":{"type":"Point","coordinates":[15.20881,52.74602]},"properties":{"isced:level":"1;2","ref:rspo":122972,"official_name":"Pierwsza Szko\u0142a Podstawowa Montessori w Gorzowie Wlkp.","name":"Pierwsza Szko\u0142a Podstawowa Montessori w Gorzowie Wlkp.","addr:country":"PL","addr:postcode":"66-400","addr:city":"Gorz\u00f3w Wielkopolski","addr:street":"ul. S\u0142owia\u0144ska","addr:housenumber":"1","addr:teryt:simc":20294,"addr:teryt:sym_ul":935140,"contact:phone":"+48 733100133","contact:email":"szkola@montessori.gorzow.com","contact:website":"http:\/\/www.montessorigorzow.com","ref:regon":"081207896","operator":"Stowarzyszenie Edukacyjne \"Razem\"","operator:type":"ngo","amenity":"school"}},{"id":57375,"type":"Feature","geometry":{"type":"Point","coordinates":[15.23997,52.74662]},"properties":{"ref:rspo":57375,"official_name":"Przedszkole Miejskie Nr 29 im. Kasztanowa Kraina w Gorzowie Wlkp.","name":"Przedszkole Miejskie Nr 29","addr:country":"PL","addr:postcode":"66-400","addr:city":"Gorz\u00f3w Wielkopolski","addr:street":"ul. Walerego Wr\u00f3blewskiego","addr:housenumber":"48","addr:teryt:simc":24838,"addr:teryt:sym_ul":935140,"contact:phone":"+48 957353777","contact:email":"p29@edu.gorzow.pl","contact:website":"http:\/\/p29.edu.gorzow.pl","ref:regon":"080485660","ref:vatin":"PL5993137160","operator":"Miasto Gorz\u00f3w Wielkopolski","operator:type":"government","amenity":"kindergarten"}},{"id":277798,"type":"Feature","geometry":{"type":"Point","coordinates":[15.26413,52.74666]},"properties":{"ref:rspo":277798,"official_name":"Centrum Edukacji Zawodowej I Biznesu","name":"Centrum Edukacji Zawodowej I Biznesu","addr:country":"PL","addr:postcode":"66-400","addr:city":"Gorz\u00f3w Wielkopolski","addr:street":"ul. Pomorska","addr:housenumber":"67","addr:teryt:simc":17088,"addr:teryt:sym_ul":935140,"contact:phone":"+48 957822060","contact:email":"cezib@edu.gorzow.pl","ref:regon":"389524440","ref:vatin":"PL5993258047","operator":"Miasto Gorz\u00f3w Wielkopolski","operator:type":"government","landuse":"education","fixme":"amenity=school, amenity=college albo landuse=education w zale\u017cno\u015bci od tego, jakie plac\u00f3wki wchodz\u0105 w sk\u0142ad zespo\u0142u. Sprawd\u017a, kiedy stosowa\u0107 amenity=* a kiedy landuse=education.","note":"Children RSPO: 83248;83249;91325;91328;92679;92680;262611;275508"}},{"id":91325,"type":"Feature","geometry":{"type":"Point","coordinates":[15.26413,52.746629999999996]},"properties":{"isced:level":"4","ref:rspo":91325,"official_name":"Policealna Szko\u0142a Nr 6 w Gorzowie Wielkopolskim","name":"Policealna Szko\u0142a Nr 6 w Gorzowie Wielkopolskim","addr:country":"PL","addr:postcode":"66-400","addr:city":"Gorz\u00f3w Wielkopolski","addr:street":"ul. Pomorska","addr:housenumber":"67","addr:teryt:simc":17088,"addr:teryt:sym_ul":935140,"contact:phone":"+48 957332060","contact:email":"ckz@edu.gorzow.pl","contact:website":"http:\/\/www.ckz.gorzow.pl","ref:regon":"080437074","operator":"Miasto Gorz\u00f3w Wielkopolski","operator:type":"government","amenity":"college","note":"Parent RSPO: 277798"}},{"id":91328,"type":"Feature","geometry":{"type":"Point","coordinates":[15.26413,52.7466]},"properties":{"ref:rspo":91328,"official_name":"Centrum Kszta\u0142cenia Zawodowego w Gorzowie Wlkp.","name":"Centrum Kszta\u0142cenia Zawodowego w Gorzowie Wlkp.","addr:country":"PL","addr:postcode":"66-400","addr:city":"Gorz\u00f3w Wielkopolski","addr:street":"ul. Pomorska","addr:housenumber":"67","addr:teryt:simc":17088,"addr:teryt:sym_ul":935140,"contact:phone":"+48 957822060","contact:email":"ckz@edu.gorzow.pl","contact:website":"http:\/\/www.ckz.gorzow.pl","ref:regon":"081092192","operator":"Miasto Gorz\u00f3w Wielkopolski","operator:type":"government","fixme":"w zale\u017cno\u015bci od przedmiotu dzia\u0142alno\u015bci (np. amenity=training + training=*, amenity=dancing_school, amenity=language_school, amenity=music_school) albo amenity=school, amenity=college, albo landuse=education w zale\u017cno\u015bci od tego, jakie plac\u00f3wki wchodz\u0105 w sk\u0142ad zespo\u0142u. Sprawd\u017a, kiedy stosowa\u0107 amenity=* a kiedy landuse=education.","note":"Parent RSPO: 277798"}},{"id":275508,"type":"Feature","geometry":{"type":"Point","coordinates":[15.26413,52.74657]},"properties":{"isced:level":"3","ref:rspo":275508,"official_name":"Bran\u017cowa Szko\u0142a II Stopnia Nr 1 w Gorzowie Wielkopolskim","name":"Bran\u017cowa Szko\u0142a II Stopnia Nr 1 w Gorzowie Wielkopolskim","addr:country":"PL","addr:postcode":"66-400","addr:city":"Gorz\u00f3w Wielkopolski","addr:street":"ul. Pomorska","addr:housenumber":"67","addr:teryt:simc":17088,"addr:teryt:sym_ul":935140,"contact:phone":"+48 957332060","contact:email":"ckz@edu.gorzow.pl","contact:website":"http:\/\/www.ckz.gorzow.pl","ref:regon":"386923263","operator":"Miasto Gorz\u00f3w Wielkopolski","operator:type":"government","amenity":"school","note":"Parent RSPO: 277798"}},{"id":89442,"type":"Feature","geometry":{"type":"Point","coordinates":[15.22409,52.74819]},"properties":{"ref:rspo":89442,"official_name":"Przedszkole Niepubliczne \"Chatka Kubusia Puchatka\"","name":"Przedszkole Niepubliczne \"Chatka Kubusia Puchatka\"","addr:country":"PL","addr:postcode":"66-400","addr:city":"Gorz\u00f3w Wielkopolski","addr:street":"ul. Saska","addr:housenumber":"8","addr:teryt:simc":19551,"addr:teryt:sym_ul":935140,"contact:phone":"+48 957352671","contact:email":"jacekkur4@wp.pl","contact:website":"http:\/\/przedszkole.gorzow.pl","ref:regon":"081089882","operator":"Jacek Kurowski","operator:type":"private","amenity":"kindergarten"}},{"id":130545,"type":"Feature","geometry":{"type":"Point","coordinates":[15.22409,52.74816]},"properties":{"ref:rspo":130545,"official_name":"Niepubliczna Poradnia Psychologiczno - Pedagogiczna Mentis w Gorzowie Wlkp.","name":"Niepubliczna Poradnia Psychologiczno - Pedagogiczna Mentis w Gorzowie Wlkp.","addr:country":"PL","addr:postcode":"66-400","addr:city":"Gorz\u00f3w Wielkopolski","addr:street":"ul. Saska","addr:housenumber":"8","addr:teryt:simc":19551,"addr:teryt:sym_ul":935140,"contact:phone":"+48 600422299","contact:email":"mentis66400@gmail.com","ref:regon":"364163540","ref:vatin":"PL5991488501","operator":"Urszula Onichowska","operator:type":"private","healthcare":"councelling","counselling_type":"education","fixme":"w zale\u017cno\u015bci od przedmiotu dzia\u0142alno\u015bci (np. healthcare=councelling + counselling_type=education albo healthcare=psychotherapist)"}},{"id":83248,"type":"Feature","geometry":{"type":"Point","coordinates":[15.2293411,52.7487878]},"properties":{"isced:level":"3","ref:rspo":83248,"official_name":"Technikum Budowlane I Samochodowe Nr 1 im. Miko\u0142aja Kopernika w Gorzowie Wielkopolskim","name":"Technikum Budowlane I Samochodowe Nr 1","addr:country":"PL","addr:postcode":"66-400","addr:city":"Gorz\u00f3w Wielkopolski","addr:street":"ul. Stefana Okrzei","addr:housenumber":"42","addr:teryt:simc":14914,"addr:teryt:sym_ul":935140,"contact:phone":"+48 957201733","contact:email":"zsb@edu.gorzow.pl","contact:website":"http:\/\/zsbgorzow.pl","ref:regon":"211261958","operator":"Miasto Gorz\u00f3w Wielkopolski","operator:type":"government","amenity":"school","note":"Parent RSPO: 277798"}},{"id":83249,"type":"Feature","geometry":{"type":"Point","coordinates":[15.2293411,52.7487578]},"properties":{"isced:level":"3","ref:rspo":83249,"official_name":"Bran\u017cowa Szko\u0142a I Stopnia Nr 1 w Gorzowie Wielkopolskim","name":"Bran\u017cowa Szko\u0142a I Stopnia Nr 1 w Gorzowie Wielkopolskim","addr:country":"PL","addr:postcode":"66-400","addr:city":"Gorz\u00f3w Wielkopolski","addr:street":"ul. Stefana Okrzei","addr:housenumber":"42","addr:teryt:simc":14914,"addr:teryt:sym_ul":935140,"contact:phone":"+48 957201733","contact:email":"zsb@edu.gorzow.pl","contact:website":"http:\/\/zsbgorzow.pl","ref:regon":"211261929","operator":"Miasto Gorz\u00f3w Wielkopolski","operator:type":"government","amenity":"school","note":"Parent RSPO: 277798"}},{"id":262611,"type":"Feature","geometry":{"type":"Point","coordinates":[15.2293411,52.748727800000005]},"properties":{"isced:level":"1;2","ref:rspo":262611,"official_name":"Szko\u0142a Podstawowa dla Doros\u0142ych w Gorzowie Wlkp.","name":"Szko\u0142a Podstawowa dla Doros\u0142ych w Gorzowie Wlkp.","addr:country":"PL","addr:postcode":"66-400","addr:city":"Gorz\u00f3w Wielkopolski","addr:street":"ul. Stefana Okrzei","addr:housenumber":"42","addr:teryt:simc":14914,"addr:teryt:sym_ul":935140,"contact:phone":"+48 957201733","contact:email":"zsb@edu.gorzow.pl","contact:website":"http:\/\/zsbgorzow.pl","ref:regon":"368041399","operator":"Miasto Gorz\u00f3w Wielkopolski","operator:type":"government","amenity":"school","note":"Parent RSPO: 277798"}},{"id":12314,"type":"Feature","geometry":{"type":"Point","coordinates":[15.24507,52.74913]},"properties":{"ref:rspo":12314,"official_name":"Zesp\u00f3\u0142 Szk\u00f3\u0142 Technicznych I Og\u00f3lnokszta\u0142c\u0105cych w Gorzowie Wlkp.","name":"Zesp\u00f3\u0142 Szk\u00f3\u0142 Technicznych I Og\u00f3lnokszta\u0142c\u0105cych w Gorzowie Wlkp.","addr:country":"PL","addr:postcode":"66-400","addr:city":"Gorz\u00f3w Wielkopolski","addr:street":"ul. Czere\u015bniowa","addr:housenumber":"4e","addr:teryt:simc":3376,"addr:teryt:sym_ul":935140,"contact:phone":"+48 957320309","contact:email":"zstio@edu.gorzow.pl","contact:website":"http:\/\/www.zstio-gorzow.pl","ref:regon":"210203143","ref:vatin":"PL5991174553","operator":"Miasto Gorz\u00f3w Wielkopolski","operator:type":"government","landuse":"education","fixme":"amenity=school, amenity=college albo landuse=education w zale\u017cno\u015bci od tego, jakie plac\u00f3wki wchodz\u0105 w sk\u0142ad zespo\u0142u. Sprawd\u017a, kiedy stosowa\u0107 amenity=* a kiedy landuse=education.","note":"Children RSPO: 83227;83230"}},{"id":71609,"type":"Feature","geometry":{"type":"Point","coordinates":[15.24507,52.7491]},"properties":{"ref:rspo":71609,"official_name":"Zesp\u00f3\u0142 Poradni Psychologiczno-Pedagogicznych w Gorzowie Wlkp.","name":"Zesp\u00f3\u0142 Poradni Psychologiczno-Pedagogicznych w Gorzowie Wlkp.","addr:country":"PL","addr:postcode":"66-400","addr:city":"Gorz\u00f3w Wielkopolski","addr:street":"ul. Czere\u015bniowa","addr:housenumber":"4i","addr:teryt:simc":3376,"addr:teryt:sym_ul":935140,"contact:phone":"+48 957320736","contact:email":"zpppgorzow@wp.pl","contact:website":"http:\/\/www.zppp-gorzow.pl\/","ref:regon":"080035677","ref:vatin":"PL5992930815","operator":"Miasto Gorz\u00f3w Wielkopolski","operator:type":"government","healthcare":"councelling","counselling_type":"education","fixme":"w zale\u017cno\u015bci od przedmiotu dzia\u0142alno\u015bci (np. healthcare=councelling + counselling_type=education albo healthcare=psychotherapist)"}},{"id":83227,"type":"Feature","geometry":{"type":"Point","coordinates":[15.24507,52.74907]},"properties":{"isced:level":"3","ref:rspo":83227,"official_name":"Vi Liceum Og\u00f3lnokszta\u0142c\u0105ce Z Oddzia\u0142ami Sportowymi w Gorzowie Wielkopolskim w Zespole Szk\u00f3\u0142 Technicznych I Og\u00f3lnokszta\u0142c\u0105cych","name":"Vi Liceum Og\u00f3lnokszta\u0142c\u0105ce Z Oddzia\u0142ami Sportowymi w Gorzowie Wielkopolskim w Zespole Szk\u00f3\u0142 Technicznych I Og\u00f3lnokszta\u0142c\u0105cych","addr:country":"PL","addr:postcode":"66-400","addr:city":"Gorz\u00f3w Wielkopolski","addr:street":"ul. Czere\u015bniowa","addr:housenumber":"4e","addr:teryt:simc":3376,"addr:teryt:sym_ul":935140,"contact:phone":"+48 957320309","contact:email":"zstio@edu.gorzow.pl","contact:website":"http:\/\/www.zstio-gorzow.pl","ref:regon":"211261059","operator":"Miasto Gorz\u00f3w Wielkopolski","operator:type":"government","amenity":"school","note":"Parent RSPO: 12314"}},{"id":83230,"type":"Feature","geometry":{"type":"Point","coordinates":[15.24507,52.74904]},"properties":{"isced:level":"3","ref:rspo":83230,"official_name":"Technikum Nr 6 w Zespole Szk\u00f3\u0142 Technicznych I Og\u00f3lnokszta\u0142c\u0105cych w Gorzowie Wielkopolskim","name":"Technikum Nr 6 w Zespole Szk\u00f3\u0142 Technicznych I Og\u00f3lnokszta\u0142c\u0105cych w Gorzowie Wielkopolskim","addr:country":"PL","addr:postcode":"66-400","addr:city":"Gorz\u00f3w Wielkopolski","addr:street":"ul. Czere\u015bniowa","addr:housenumber":"4e","addr:teryt:simc":3376,"addr:teryt:sym_ul":935140,"contact:phone":"+48 957320309","contact:email":"zstio@edu.gorzow.pl","contact:website":"http:\/\/www.zstio-gorzow.pl","ref:regon":"211261036","operator":"Miasto Gorz\u00f3w Wielkopolski","operator:type":"government","amenity":"school","note":"Parent RSPO: 12314"}},{"id":57366,"type":"Feature","geometry":{"type":"Point","coordinates":[15.25213,52.74981]},"properties":{"ref:rspo":57366,"official_name":"Przedszkole Miejskie Nr 19 im. Jana Brzechwy w Gorzowie Wlkp.","name":"Przedszkole Miejskie Nr 19","addr:country":"PL","addr:postcode":"66-400","addr:city":"Gorz\u00f3w Wielkopolski","addr:street":"ul. 8 Maja","addr:housenumber":"7","addr:teryt:simc":11938,"addr:teryt:sym_ul":935140,"contact:phone":"+48 957288680","contact:email":"p19@edu.gorzow.pl","contact:website":"http:\/\/www.p19.edu.gorzow.pl","ref:regon":"080483507","ref:vatin":"PL5993136700","operator":"Miasto Gorz\u00f3w Wielkopolski","operator:type":"government","amenity":"kindergarten"}},{"id":57381,"type":"Feature","geometry":{"type":"Point","coordinates":[15.24321,52.75026]},"properties":{"ref:rspo":57381,"official_name":"Przedszkole Miejskie Nr 23 im. Ma\u0142y Tygrysek Pietrek w Gorzowie Wlkp.","name":"Przedszkole Miejskie Nr 23","addr:country":"PL","addr:postcode":"66-400","addr:city":"Gorz\u00f3w Wielkopolski","addr:street":"ul. Walerego Wr\u00f3blewskiego","addr:housenumber":"32","addr:teryt:simc":24838,"addr:teryt:sym_ul":935140,"contact:phone":"+48 957350678","contact:email":"p23@edu.gorzow.pl","contact:website":"http:\/\/www.tygrysek.gorzow.pl","ref:regon":"080485890","ref:vatin":"PL5993136999","operator":"Miasto Gorz\u00f3w Wielkopolski","operator:type":"government","amenity":"kindergarten"}},{"id":61814,"type":"Feature","geometry":{"type":"Point","coordinates":[15.22381,52.75126]},"properties":{"ref:rspo":61814,"official_name":"Przedszkole Miejskie Nr 30 w Gorzowie Wlkp.","name":"Przedszkole Miejskie Nr 30 w Gorzowie Wlkp.","addr:country":"PL","addr:postcode":"66-400","addr:city":"Gorz\u00f3w Wielkopolski","addr:street":"ul. Stanis\u0142awa Taczaka","addr:housenumber":"1a","addr:teryt:simc":22597,"addr:teryt:sym_ul":935140,"contact:phone":"+48 957214209","contact:email":"p30@edu.gorzow.pl","contact:website":"http:\/\/www.p30.edu.gorzow.pl","ref:regon":"080485104","ref:vatin":"PL5993136798","operator":"Miasto Gorz\u00f3w Wielkopolski","operator:type":"government","amenity":"kindergarten"}},{"id":118536,"type":"Feature","geometry":{"type":"Point","coordinates":[15.21705,52.75135]},"properties":{"ref:rspo":118536,"official_name":"Przedszkole Niepubliczne \"Weso\u0142a Gromadka\"","name":"Przedszkole Niepubliczne \"Weso\u0142a Gromadka\"","addr:country":"PL","addr:postcode":"66-400","addr:city":"Gorz\u00f3w Wielkopolski","addr:street":"ul. \u017bwirowa","addr:housenumber":"93 A","addr:teryt:simc":26611,"addr:teryt:sym_ul":935140,"contact:phone":"+48 601775309","contact:email":"info.wesolagromadka@gmail.com","contact:website":"http:\/\/www.wesolagromadka.pl","ref:regon":"081152238","operator":"Teresa Skowron","operator:type":"private","amenity":"kindergarten"}},{"id":80871,"type":"Feature","geometry":{"type":"Point","coordinates":[15.22362,52.7517]},"properties":{"isced:level":"1;2","ref:rspo":80871,"official_name":"Szko\u0142a Podstawowa Nr 21 Z Oddzia\u0142ami Integracyjnymi I Z Oddzia\u0142ami Sportowymi im.orl\u0105t Lwowskich w Gorzowie Wlkp.","name":"Szko\u0142a Podstawowa Nr 21 Z Oddzia\u0142ami Integracyjnymi I Z Oddzia\u0142ami Sportowymi im.orl\u0105t Lwowskich w Gorzowie Wlkp.","addr:country":"PL","addr:postcode":"66-400","addr:city":"Gorz\u00f3w Wielkopolski","addr:street":"ul. Stanis\u0142awa Taczaka","addr:housenumber":"1","addr:teryt:simc":22597,"addr:teryt:sym_ul":935140,"contact:phone":"+48 957231322","contact:email":"sp21@edu.gorzow.pl","contact:website":"http:\/\/www.sp21gorzow.pl","ref:regon":"211260829","ref:vatin":"PL5992541568","operator":"Miasto Gorz\u00f3w Wielkopolski","operator:type":"government","amenity":"school"}},{"id":12237,"type":"Feature","geometry":{"type":"Point","coordinates":[15.23446,52.75177]},"properties":{"ref:rspo":12237,"official_name":"Zesp\u00f3\u0142 Szk\u00f3\u0142 Og\u00f3lnokszta\u0142c\u0105cych Nr 1 w Gorzowie Wlkp.","name":"Zesp\u00f3\u0142 Szk\u00f3\u0142 Og\u00f3lnokszta\u0142c\u0105cych Nr 1 w Gorzowie Wlkp.","addr:country":"PL","addr:postcode":"66-400","addr:city":"Gorz\u00f3w Wielkopolski","addr:street":"ul. Aleksandra Puszkina","addr:housenumber":"31","addr:teryt:simc":18209,"addr:teryt:sym_ul":935140,"contact:phone":"+48 957204842","contact:email":"1lo@edu.gorzow.pl","contact:website":"http:\/\/www.1lo.gorzow.pl","ref:regon":"210203150","ref:vatin":"PL5991101844","operator":"Miasto Gorz\u00f3w Wielkopolski","operator:type":"government","landuse":"education","fixme":"amenity=school, amenity=college albo landuse=education w zale\u017cno\u015bci od tego, jakie plac\u00f3wki wchodz\u0105 w sk\u0142ad zespo\u0142u. Sprawd\u017a, kiedy stosowa\u0107 amenity=* a kiedy landuse=education.","note":"Children RSPO: 83251;83252"}},{"id":83251,"type":"Feature","geometry":{"type":"Point","coordinates":[15.23446,52.75174]},"properties":{"isced:level":"3","ref:rspo":83251,"official_name":"I Liceum Og\u00f3lnokszta\u0142c\u0105ce im. Tadeusza Ko\u015bciuszki w Gorzowie Wielkopolskim w Zespole Szk\u00f3\u0142 Og\u00f3lnokszta\u0142c\u0105cych Nr 1","name":"I Liceum Og\u00f3lnokszta\u0142c\u0105ce","addr:country":"PL","addr:postcode":"66-400","addr:city":"Gorz\u00f3w Wielkopolski","addr:street":"ul. Aleksandra Puszkina","addr:housenumber":"31","addr:teryt:simc":18209,"addr:teryt:sym_ul":935140,"contact:phone":"+48 957204842","contact:email":"1lo@edu.gorzow.pl","contact:website":"http:\/\/www.1lo.gorzow.pl","ref:regon":"081087512","operator":"Miasto Gorz\u00f3w Wielkopolski","operator:type":"government","amenity":"school","note":"Parent RSPO: 12237"}},{"id":83252,"type":"Feature","geometry":{"type":"Point","coordinates":[15.23446,52.75171]},"properties":{"isced:level":"3","ref:rspo":83252,"official_name":"I Liceum Og\u00f3lnokszta\u0142c\u0105ce dla Doros\u0142ych w Gorzowie Wielkopolskim w Zespole Szk\u00f3\u0142 Og\u00f3lnokszta\u0142c\u0105cych Nr 1","name":"I Liceum Og\u00f3lnokszta\u0142c\u0105ce dla Doros\u0142ych w Gorzowie Wielkopolskim w Zespole Szk\u00f3\u0142 Og\u00f3lnokszta\u0142c\u0105cych Nr 1","addr:country":"PL","addr:postcode":"66-400","addr:city":"Gorz\u00f3w Wielkopolski","addr:street":"ul. Aleksandra Puszkina","addr:housenumber":"31","addr:teryt:simc":18209,"addr:teryt:sym_ul":935140,"contact:phone":"+48 957204842","contact:email":"1lo@edu.gorzow.pl","contact:website":"http:\/\/www.1lo.gorzow.pl","ref:regon":"081087535","operator":"Miasto Gorz\u00f3w Wielkopolski","operator:type":"government","amenity":"school","note":"Parent RSPO: 12237"}},{"id":110476,"type":"Feature","geometry":{"type":"Point","coordinates":[15.24338,52.75189]},"properties":{"ref:rspo":110476,"official_name":"Poradnia Diagnostyczno-Terapeutyczna Wioletta Ma\u015bluk-G\u0105siorowska","name":"Poradnia Diagnostyczno-Terapeutyczna Wioletta Ma\u015bluk-G\u0105siorowska","addr:country":"PL","addr:postcode":"66-400","addr:city":"Gorz\u00f3w Wielkopolski","addr:street":"rondo marsz. J\u00f3zefa Pi\u0142sudskiego","addr:housenumber":"47","addr:teryt:simc":30062,"addr:teryt:sym_ul":935140,"contact:phone":"+48 600896893","contact:email":"wioletta.gasiorowska@wp.pl","ref:regon":"081116969","operator":"Wioletta Ma\u015bluk - G\u0105siorowska","operator:type":"private","healthcare":"councelling","counselling_type":"education","fixme":"w zale\u017cno\u015bci od przedmiotu dzia\u0142alno\u015bci (np. healthcare=councelling + counselling_type=education albo healthcare=psychotherapist)"}},{"id":114126,"type":"Feature","geometry":{"type":"Point","coordinates":[15.23199,52.7524]},"properties":{"isced:level":"1;2","ref:rspo":114126,"official_name":"Spo\u0142eczna Szko\u0142a Podstawowa Stowarzyszenia Edukacyjnego","name":"Spo\u0142eczna Szko\u0142a Podstawowa Stowarzyszenia Edukacyjnego","addr:country":"PL","addr:postcode":"66-400","addr:city":"Gorz\u00f3w Wielkopolski","addr:street":"ul. Kazimierza Wielkiego","addr:housenumber":"65","addr:door":"B","addr:teryt:simc":8265,"addr:teryt:sym_ul":935140,"contact:phone":"+48 957214076","contact:email":"sekretariat@spolecznaszkola.pl","contact:website":"http:\/\/www.spolecznaszkola.pl","ref:regon":"081129073","operator":"Stowarzyszenie Edukacyjne W Gorzowie Wlkp.","operator:type":"ngo","amenity":"school"}},{"id":126970,"type":"Feature","geometry":{"type":"Point","coordinates":[15.23199,52.75237]},"properties":{"isced:level":"1;2","ref:rspo":126970,"official_name":"I Spo\u0142eczna Szko\u0142a Podstawowa w Gorzowie Wlkp.","name":"I Spo\u0142eczna Szko\u0142a Podstawowa w Gorzowie Wlkp.","addr:country":"PL","addr:postcode":"66-400","addr:city":"Gorz\u00f3w Wielkopolski","addr:street":"ul. Kazimierza Wielkiego","addr:housenumber":"65","addr:door":"A","addr:teryt:simc":8265,"addr:teryt:sym_ul":935140,"contact:phone":"+48 957214952","contact:email":"gorzow1ssp@onet.pl","contact:website":"http:\/\/www.1sspgorzow.edupage.org","ref:regon":"360988768","ref:vatin":"PL5993175982","operator":"Stowarzyszenie Przyjaci\u00f3\u0142 Kszta\u0142cenia I Wychowania M\u0142odzie\u017cy","operator:type":"ngo","amenity":"school"}},{"id":266379,"type":"Feature","geometry":{"type":"Point","coordinates":[15.23199,52.752340000000004]},"properties":{"ref:rspo":266379,"official_name":"Centrum Kszta\u0142cenia Ustawicznego O\u015brodek Szkole\u0144 Specjalnych Atex","name":"Centrum Kszta\u0142cenia Ustawicznego O\u015brodek Szkole\u0144 Specjalnych Atex","addr:country":"PL","addr:postcode":"66-400","addr:city":"Gorz\u00f3w Wielkopolski","addr:street":"ul. Kazimierza Wielkiego","addr:housenumber":"65 A","addr:teryt:simc":8265,"addr:teryt:sym_ul":935140,"contact:phone":"+48 697060624","contact:email":"r.mruczyk@tlen.pl","ref:regon":"369451700","ref:vatin":"PL5993206079","operator":"Atex Sp\u00f3\u0142ka Z Ograniczon\u0105 Odpowiedzialno\u015bci\u0105","operator:type":"private","fixme":"w zale\u017cno\u015bci od przedmiotu dzia\u0142alno\u015bci (np. amenity=training + training=*, amenity=dancing_school, amenity=language_school, amenity=music_school)"}},{"id":114105,"type":"Feature","geometry":{"type":"Point","coordinates":[15.2595,52.75336]},"properties":{"ref:rspo":114105,"official_name":"O\u015brodek Rewalidacyjno - Edukacyjno - Wychowawczy dla Dzieci I M\u0142odzie\u017cy Z Autyzmem","name":"O\u015brodek Rewalidacyjno - Edukacyjno - Wychowawczy dla Dzieci I M\u0142odzie\u017cy Z Autyzmem","addr:country":"PL","addr:postcode":"66-400","addr:city":"Gorz\u00f3w Wielkopolski","addr:street":"ul. Franciszka Walczaka","addr:housenumber":"42","addr:teryt:simc":23519,"addr:teryt:sym_ul":935140,"contact:phone":"+48 957226097","contact:email":"autyzm.orew@gmail.com","contact:website":"http:\/\/www.autyzm-gorzow.org","ref:regon":"081128955","ref:vatin":"PL5992679203","operator":"Stowarzyszenie Na Rzecz Os\u00f3b Z Autyzmem","operator:type":"ngo","amenity":"school"}},{"id":131155,"type":"Feature","geometry":{"type":"Point","coordinates":[15.25723,52.75349]},"properties":{"ref:rspo":131155,"official_name":"Centrum Kszta\u0142cenia Zawodowego I Ustawicznego \"Medyk\"","name":"Centrum Kszta\u0142cenia Zawodowego I Ustawicznego \"Medyk\"","addr:country":"PL","addr:postcode":"66-400","addr:city":"Gorz\u00f3w Wielkopolski","addr:street":"ul. Ireny Dowgielewiczowej","addr:housenumber":"5","addr:teryt:simc":26734,"addr:teryt:sym_ul":935140,"contact:phone":"+48 957359015","contact:email":"sekretariat@ckziumedyk.pl","contact:website":"http:\/\/www.ckziumedyk.pl","ref:regon":"364981349","ref:vatin":"PL5991024871","operator":"Wojew\u00f3dztwo Lubuskie","operator:type":"government","landuse":"education","fixme":"amenity=school, amenity=college albo landuse=education w zale\u017cno\u015bci od tego, jakie plac\u00f3wki wchodz\u0105 w sk\u0142ad zespo\u0142u. Sprawd\u017a, kiedy stosowa\u0107 amenity=* a kiedy landuse=education.","note":"Children RSPO: 78010;131269"}},{"id":78010,"type":"Feature","geometry":{"type":"Point","coordinates":[15.25723,52.75346]},"properties":{"isced:level":"4","ref:rspo":78010,"official_name":"Medyczne Studium Zawodowe","name":"Medyczne Studium Zawodowe","addr:country":"PL","addr:postcode":"66-400","addr:city":"Gorz\u00f3w Wielkopolski","addr:street":"ul. Ireny Dowgielewiczowej","addr:housenumber":"5","addr:teryt:simc":26734,"addr:teryt:sym_ul":935140,"contact:phone":"+48 957359015","contact:email":"sekretariat@ckziumedyk.pl","contact:website":"http:\/\/www.ckziumedyk.pl","ref:regon":"210228806","ref:vatin":"PL5991024871","operator":"Wojew\u00f3dztwo Lubuskie","operator:type":"government","amenity":"college","note":"Parent RSPO: 131155"}},{"id":131269,"type":"Feature","geometry":{"type":"Point","coordinates":[15.25723,52.75343]},"properties":{"isced:level":"4","ref:rspo":131269,"official_name":"Szko\u0142a Policealna Nr 1 \"Medyk\" w Gorzowie Wielkopolskim","name":"Szko\u0142a Policealna Nr 1 \"Medyk\" w Gorzowie Wielkopolskim","addr:country":"PL","addr:postcode":"66-400","addr:city":"Gorz\u00f3w Wielkopolski","addr:street":"ul. Ireny Dowgielewiczowej","addr:housenumber":"5","addr:teryt:simc":26734,"addr:teryt:sym_ul":935140,"contact:phone":"+48 957359015","contact:email":"sekretariat@ckziumedyk.pl","contact:website":"http:\/\/www.ckziumedyk.pl","ref:regon":"365079361","ref:vatin":"PL5991024871","operator":"Wojew\u00f3dztwo Lubuskie","operator:type":"government","amenity":"college","note":"Parent RSPO: 131155"}},{"id":80870,"type":"Feature","geometry":{"type":"Point","coordinates":[15.24342,52.75405]},"properties":{"isced:level":"1;2","ref:rspo":80870,"official_name":"Szko\u0142a Podstawowa Nr 13 Z Oddzia\u0142ami Integracyjnymi I Oddzia\u0142ami Sportowymi im. Arkadego Fiedlera w Gorzowie Wlkp.","name":"Szko\u0142a Podstawowa Nr 13 Z Oddzia\u0142ami Integracyjnymi I Oddzia\u0142ami Sportowymi","addr:country":"PL","addr:postcode":"66-400","addr:city":"Gorz\u00f3w Wielkopolski","addr:street":"ul. Szwole\u017cer\u00f3w","addr:housenumber":"2","addr:teryt:simc":22183,"addr:teryt:sym_ul":935140,"contact:phone":"+48 957322237","contact:email":"sp13@edu.gorzow.pl","contact:website":"http:\/\/zs13gorzow.nazwa.pl","ref:regon":"211261438","ref:vatin":"PL5992546838","operator":"Miasto Gorz\u00f3w Wielkopolski","operator:type":"government","amenity":"school"}},{"id":110477,"type":"Feature","geometry":{"type":"Point","coordinates":[15.22798,52.75465]},"properties":{"isced:level":"1;2","ref:rspo":110477,"official_name":"Prywatna Szko\u0142a Podstawowa O Profilu Artystycznym","name":"Prywatna Szko\u0142a Podstawowa O Profilu Artystycznym","addr:country":"PL","addr:postcode":"66-400","addr:city":"Gorz\u00f3w Wielkopolski","addr:street":"ul. Bohater\u00f3w Westerplatte","addr:housenumber":"10","addr:teryt:simc":1681,"addr:teryt:sym_ul":935140,"contact:phone":"+48 957230664","contact:email":"szkola@artszkpodst.gorzow.pl","contact:website":"http:\/\/www.artszkpodst.gorzow.pl","ref:regon":"081116840","operator":"Bo\u017cena Go\u0142acka","operator:type":"private","amenity":"school"}},{"id":55077,"type":"Feature","geometry":{"type":"Point","coordinates":[15.23606,52.75584]},"properties":{"ref:rspo":55077,"official_name":"Przedszkole Miejskie Nr 16 w Gorzowie Wlkp.","name":"Przedszkole Miejskie Nr 16 w Gorzowie Wlkp.","addr:country":"PL","addr:postcode":"66-400","addr:city":"Gorz\u00f3w Wielkopolski","addr:street":"ul. Wiejska","addr:housenumber":"6","addr:teryt:simc":24048,"addr:teryt:sym_ul":935140,"contact:phone":"+48 957350706","contact:email":"p16@edu.gorzow.pl","contact:website":"http:\/\/www.p16.edu.gorzow.pl","ref:regon":"080480220","ref:vatin":"PL5993136829","operator":"Miasto Gorz\u00f3w Wielkopolski","operator:type":"government","amenity":"kindergarten"}},{"id":133303,"type":"Feature","geometry":{"type":"Point","coordinates":[15.25156,52.75757]},"properties":{"ref:rspo":133303,"official_name":"Prywatna Szko\u0142a Muzyczna Zbiorczyk","name":"Prywatna Szko\u0142a Muzyczna Zbiorczyk","addr:country":"PL","addr:postcode":"66-400","addr:city":"Gorz\u00f3w Wielkopolski","addr:street":"ul. G\u00f3rczy\u0144ska","addr:housenumber":"23","addr:teryt:simc":5927,"addr:teryt:sym_ul":935140,"contact:phone":"+48 502637362","contact:email":"muzycznazbiorczyk@o2.pl","ref:regon":"366980816","ref:vatin":"PL5991022441","operator":"Mieczys\u0142aw Zbiorczyka","operator:type":"private","fixme":"w zale\u017cno\u015bci od przedmiotu dzia\u0142alno\u015bci (np. amenity=training + training=*, amenity=dancing_school, amenity=language_school, amenity=music_school)"}},{"id":278877,"type":"Feature","geometry":{"type":"Point","coordinates":[15.25156,52.75754]},"properties":{"ref:rspo":278877,"official_name":"Platforma Szkoleniowo Edukacyjna","name":"Platforma Szkoleniowo Edukacyjna","addr:country":"PL","addr:postcode":"66-400","addr:city":"Gorz\u00f3w Wielkopolski","addr:street":"ul. G\u00f3rczy\u0144ska","addr:housenumber":"23","addr:door":"339","addr:teryt:simc":5927,"addr:teryt:sym_ul":935140,"contact:phone":"+48 504088005","contact:email":"agata@ole.edu.pl","contact:website":"https:\/\/pes.edu.pl","ref:regon":"520136926","operator":"Ole Sp\u00f3\u0142ka Z Ograniczon\u0105 Odpowiedzialno\u015bci\u0105","operator:type":"private","fixme":"w zale\u017cno\u015bci od przedmiotu dzia\u0142alno\u015bci (np. amenity=training + training=*, amenity=dancing_school, amenity=language_school, amenity=music_school)"}},{"id":57369,"type":"Feature","geometry":{"type":"Point","coordinates":[15.27519,52.76061]},"properties":{"ref:rspo":57369,"official_name":"Przedszkole Miejskie Nr 20 im. Przyjaci\u00f3\u0142 Przyrody w Gorzowie Wlkp.","name":"Przedszkole Miejskie Nr 20","addr:country":"PL","addr:postcode":"66-400","addr:city":"Gorz\u00f3w Wielkopolski","addr:street":"ul. Franciszka Walczaka","addr:housenumber":"47","addr:teryt:simc":23519,"addr:teryt:sym_ul":935140,"contact:phone":"+48 957323770","contact:email":"p20@edu.gorzow.pl","contact:website":"http:\/\/pm20-gorzow.pl","ref:regon":"080485110","ref:vatin":"PL5993136769","operator":"Miasto Gorz\u00f3w Wielkopolski","operator:type":"government","amenity":"kindergarten"}},{"id":131550,"type":"Feature","geometry":{"type":"Point","coordinates":[15.26349,52.76067]},"properties":{"ref:rspo":131550,"official_name":"Niepubliczny Punkt Przedszkolny Ma\u0142y Sztukmistrz","name":"Niepubliczny Punkt Przedszkolny Ma\u0142y Sztukmistrz","addr:country":"PL","addr:postcode":"66-400","addr:city":"Gorz\u00f3w Wielkopolski","addr:street":"ul. Armii Krajowej","addr:housenumber":"27 D","addr:teryt:simc":432,"addr:teryt:sym_ul":935140,"contact:phone":"+48 603133543","contact:email":"jagoda1365@wp.pl","ref:regon":"365219098","operator":"Jadwiga Majewska","operator:type":"private","amenity":"kindergarten"}},{"id":57371,"type":"Feature","geometry":{"type":"Point","coordinates":[15.27149,52.76148]},"properties":{"ref:rspo":57371,"official_name":"Przedszkole Miejskie Nr 22 im. T\u0119czowe Przedszkole w Gorzowie Wlkp.","name":"Przedszkole Miejskie Nr 22","addr:country":"PL","addr:postcode":"66-400","addr:city":"Gorz\u00f3w Wielkopolski","addr:street":"ul. Szarych Szereg\u00f3w","addr:housenumber":"2","addr:teryt:simc":21787,"addr:teryt:sym_ul":935140,"contact:phone":"+48 957321190","contact:email":"p22@edu.gorzow.pl","contact:website":"http:\/\/www.p22.edu.gorzow.pl","ref:regon":"080481767","ref:vatin":"PL5993137674","operator":"Miasto Gorz\u00f3w Wielkopolski","operator:type":"government","amenity":"kindergarten"}},{"id":79847,"type":"Feature","geometry":{"type":"Point","coordinates":[15.26511,52.76199]},"properties":{"isced:level":"1;2","ref:rspo":79847,"official_name":"Szko\u0142a Podstawowa Nr 20 Z Oddzia\u0142ami Integracyjnymi im. Bohater\u00f3w Westerplatte w Gorzowie Wlkp.","name":"Szko\u0142a Podstawowa Nr 20 Z Oddzia\u0142ami Integracyjnymi","addr:country":"PL","addr:postcode":"66-400","addr:city":"Gorz\u00f3w Wielkopolski","addr:street":"ul. Szarych Szereg\u00f3w","addr:housenumber":"7","addr:teryt:simc":21787,"addr:teryt:sym_ul":935140,"contact:phone":"+48 957229455","contact:email":"sp20@edu.gorzow.pl","contact:website":"http:\/\/www.sp20gorzow.pl","ref:regon":"211260516","ref:vatin":"PL5992546815","operator":"Miasto Gorz\u00f3w Wielkopolski","operator:type":"government","amenity":"school"}},{"id":125253,"type":"Feature","geometry":{"type":"Point","coordinates":[15.26511,52.761959999999995]},"properties":{"ref:rspo":125253,"official_name":"Centrum Hajdasz Jacek Hajdasz","name":"Centrum Hajdasz Jacek Hajdasz","addr:country":"PL","addr:postcode":"66-400","addr:city":"Gorz\u00f3w Wielkopolski","addr:street":"ul. Szarych Szereg\u00f3w","addr:housenumber":"7","addr:teryt:simc":21787,"addr:teryt:sym_ul":935140,"contact:phone":"+48 507040770","contact:email":"hajdasz@hajdasz.pl","contact:website":"http:\/\/www.hajdasz.pl","ref:regon":"081239382","operator":"Jacek Hajdasz","operator:type":"private","fixme":"w zale\u017cno\u015bci od przedmiotu dzia\u0142alno\u015bci (np. amenity=training + training=*, amenity=dancing_school, amenity=language_school, amenity=music_school)"}},{"id":126071,"type":"Feature","geometry":{"type":"Point","coordinates":[15.24178,52.76412]},"properties":{"ref:rspo":126071,"official_name":"Dwuj\u0119zyczne Przedszkole Integracyjne Kolorowe Motyle","name":"Dwuj\u0119zyczne Przedszkole Integracyjne Kolorowe Motyle","addr:country":"PL","addr:postcode":"66-400","addr:city":"Gorz\u00f3w Wielkopolski","addr:street":"ul. Jana Dekerta","addr:housenumber":"53","addr:teryt:simc":3730,"addr:teryt:sym_ul":935140,"contact:phone":"+48 793389454","contact:email":"biuro@kolorowemotyle.pl","contact:website":"http:\/\/www.kolorowemotyle.pl","ref:regon":"360149654","operator":"Kolorowe Motyle Sp\u00f3\u0142ka Z Ograniczon\u0105 Odpowiedzialno\u015bci\u0105","operator:type":"private","amenity":"kindergarten"}},{"id":132170,"type":"Feature","geometry":{"type":"Point","coordinates":[15.246,52.76538]},"properties":{"ref:rspo":132170,"official_name":"Niepubliczne Przedszkole Z Oddzia\u0142ami Integracyjnymi \"Chatka Ma\u0142olatka\"","name":"Niepubliczne Przedszkole Z Oddzia\u0142ami Integracyjnymi \"Chatka Ma\u0142olatka\"","addr:country":"PL","addr:postcode":"66-400","addr:city":"Gorz\u00f3w Wielkopolski","addr:street":"ul. Jana Dekerta","addr:housenumber":"93","addr:teryt:simc":3730,"addr:teryt:sym_ul":935140,"contact:phone":"+48 724343434","contact:email":"przedszkole.chatka@gmail.com","contact:website":"http:\/\/www.chatkamalolatka.edu.pl","ref:regon":"365491831","operator":"Ma\u0142gorzata Starzy\u0144ska","operator:type":"private","amenity":"kindergarten"}}]}