{
    "type": "FeatureCollection",
    "features": [
        {
            "id": 87238,
            "type": "Feature",
            "geometry": {
                "type": "Point",
                "coordinates": [
                    19.0063102,
                    49.5383342
                ]
            },
            "properties": {
                "isced:level": "1;2",
                "ref:rspo": 87238,
                "official_name": "Szko\u0142a Podstwawowa w Lalikach im.ks.jana Twardowskiego",
                "name": "Szko\u0142a Podstwawowa w Lalikach im.ks.jana Twardowskiego",
                "addr:postcode": "37-373",
                "addr:place": "Laliki",
                "addr:housenumber": "356",
                "addr:city:simc": 62283,
                "phone": "+48 338646188",
                "email": "splaliki@op.pl",
                "ref:regon": "070449151",
                "ref:vatin": "PL5531772347",
                "operator": "Gmina Mil\u00f3wka",
                "operator:type": "government",
                "amenity": "school"
            }
        },
        {
            "id": 80506,
            "type": "Feature",
            "geometry": {
                "type": "Point",
                "coordinates": [
                    19.06743,
                    49.53881
                ]
            },
            "properties": {
                "isced:level": "1;2",
                "ref:rspo": 80506,
                "official_name": "Szko\u0142a Podstawowa im. Jana Brzechwy w Nieledwi",
                "name": "Szko\u0142a Podstawowa",
                "addr:postcode": "34-360",
                "addr:city": "Nieledwia",
                "addr:street": "G\u00f3rska",
                "addr:housenumber": "297",
                "addr:city:simc": 62567,
                "addr:street:sym_ul": 5989,
                "phone": "+48 338625143",
                "email": "sp-nieledwia@o2.pl",
                "website": "http:\/\/spnieledwia.szkolnastrona.pl",
                "ref:regon": "070449174",
                "ref:vatin": "PL5531772436",
                "operator": "Gmina Mil\u00f3wka",
                "operator:type": "government",
                "amenity": "school"
            }
        },
        {
            "id": 80505,
            "type": "Feature",
            "geometry": {
                "type": "Point",
                "coordinates": [
                    19.0404265,
                    49.5572794
                ]
            },
            "properties": {
                "isced:level": "1;2",
                "ref:rspo": 80505,
                "official_name": "Szko\u0142a Podstawowa w Szarem",
                "name": "Szko\u0142a Podstawowa w Szarem",
                "addr:postcode": "34-383",
                "addr:place": "Szare",
                "addr:housenumber": "51",
                "addr:city:simc": 62662,
                "phone": "+48 338624754",
                "email": "sp.szare1@op.pl",
                "ref:regon": "070449180",
                "ref:vatin": "PL5531780016",
                "operator": "Gmina Mil\u00f3wka",
                "operator:type": "government",
                "amenity": "school"
            }
        },
        {
            "id": 81321,
            "type": "Feature",
            "geometry": {
                "type": "Point",
                "coordinates": [
                    19.08443,
                    49.55735
                ]
            },
            "properties": {
                "ref:rspo": 81321,
                "official_name": "Przedszkole w Mil\u00f3wce",
                "name": "Przedszkole w Mil\u00f3wce",
                "addr:postcode": "34-360",
                "addr:city": "Mil\u00f3wka",
                "addr:street": "Sportowa",
                "addr:housenumber": "15",
                "addr:city:simc": 62478,
                "addr:street:sym_ul": 20683,
                "phone": "+48 338637617",
                "email": "milowka-przedszkole@o2.pl",
                "ref:regon": "072356703",
                "ref:vatin": "PL5531772471",
                "operator": "Gmina Mil\u00f3wka",
                "operator:type": "government",
                "amenity": "kindergarten"
            }
        },
        {
            "id": 16929,
            "type": "Feature",
            "geometry": {
                "type": "Point",
                "coordinates": [
                    19.0873199,
                    49.55783
                ]
            },
            "properties": {
                "ref:rspo": 16929,
                "official_name": "O\u015brodek Rehabilitacyjno-Edukacyjno- Wychowawczy \u201ePromyk\u201d",
                "name": "O\u015brodek Rehabilitacyjno-Edukacyjno- Wychowawczy \u201ePromyk\u201d",
                "addr:postcode": "34-360",
                "addr:city": "Mil\u00f3wka",
                "addr:street": "Jana Kazimierza",
                "addr:housenumber": "128",
                "addr:city:simc": 62478,
                "addr:street:sym_ul": 7117,
                "phone": "+48 338637744",
                "email": "promyk128@milowkapromyk.pl",
                "ref:regon": "243052282",
                "ref:vatin": "PL5531848659",
                "operator": "Milowieckie Stowarzyszenie Na Rzecz Dzieci I M\u0142odzie\u017cy Niepe\u0142nosprawnej \"Promyk\"",
                "operator:type": "ngo",
                "amenity": "school"
            }
        },
        {
            "id": 276107,
            "type": "Feature",
            "geometry": {
                "type": "Point",
                "coordinates": [
                    19.0873199,
                    49.5578
                ]
            },
            "properties": {
                "ref:rspo": 276107,
                "official_name": "Terapeutyczny Punkt Przedszkolny \"Kraina Przyg\u00f3d\"",
                "name": "Terapeutyczny Punkt Przedszkolny \"Kraina Przyg\u00f3d\"",
                "addr:postcode": "34-360",
                "addr:city": "Mil\u00f3wka",
                "addr:street": "Jana Kazimierza",
                "addr:housenumber": "128",
                "addr:city:simc": 62478,
                "addr:street:sym_ul": 7117,
                "phone": "+48 338637744",
                "ref:regon": "386992896",
                "operator": "Milowieckie Stowarzyszenie Na Rzecz Dzieci I M\u0142odzie\u017cy Niepe\u0142nosprawnej \"Promyk\"",
                "operator:type": "ngo",
                "amenity": "kindergarten"
            }
        },
        {
            "id": 86925,
            "type": "Feature",
            "geometry": {
                "type": "Point",
                "coordinates": [
                    19.0916,
                    49.55812
                ]
            },
            "properties": {
                "ref:rspo": 86925,
                "official_name": "Poradnia Psychologiczno Pedagogiczna w Mil\u00f3wce",
                "name": "Poradnia Psychologiczno Pedagogiczna w Mil\u00f3wce",
                "addr:postcode": "34-360",
                "addr:city": "Mil\u00f3wka",
                "addr:street": "Dworcowa",
                "addr:housenumber": "17",
                "addr:city:simc": 62478,
                "addr:street:sym_ul": 4434,
                "phone": "+48 338642125",
                "email": "sekretariat@poradniamilowka.pl",
                "website": "https:\/\/poradniamilowka.pl\/",
                "ref:regon": "071009490",
                "ref:vatin": "PL5532126862",
                "operator": "Powiat \u017bywiecki",
                "operator:type": "government",
                "healthcare": "counselling",
                "counselling_type": "education",
                "fixme": "w zale\u017cno\u015bci od przedmiotu dzia\u0142alno\u015bci (np. healthcare=counselling + counselling_type=education albo healthcare=psychotherapist)"
            }
        },
        {
            "id": 92396,
            "type": "Feature",
            "geometry": {
                "type": "Point",
                "coordinates": [
                    19.0916,
                    49.55809
                ]
            },
            "properties": {
                "ref:rspo": 92396,
                "official_name": "Zesp\u00f3\u0142 Szk\u00f3\u0142 Og\u00f3lnokszta\u0142c\u0105cych I Technicznych im. Marii Konopnickiej w Mil\u00f3wce",
                "name": "Zesp\u00f3\u0142 Szk\u00f3\u0142 Og\u00f3lnokszta\u0142c\u0105cych I Technicznych",
                "addr:postcode": "34-370",
                "addr:city": "Mil\u00f3wka",
                "addr:street": "Dworcowa",
                "addr:housenumber": "17",
                "addr:city:simc": 62478,
                "addr:street:sym_ul": 4434,
                "phone": "+48 338637555",
                "email": "dyrekcja@zsoitmilowka.pl",
                "website": "http:\/\/zsoitmilowka.pl\/",
                "ref:regon": "072924277",
                "ref:vatin": "PL5532124981",
                "operator": "Powiat \u017bywiecki",
                "operator:type": "government",
                "landuse": "education",
                "fixme": "amenity=school, amenity=college albo landuse=education w zale\u017cno\u015bci od tego, jakie plac\u00f3wki wchodz\u0105 w sk\u0142ad zespo\u0142u. Sprawd\u017a, kiedy stosowa\u0107 amenity=* a kiedy landuse=education.",
                "note": "Children RSPO: 106656;106660;106662;111477;115558"
            }
        },
        {
            "id": 126138,
            "type": "Feature",
            "geometry": {
                "type": "Point",
                "coordinates": [
                    19.0916,
                    49.558060000000005
                ]
            },
            "properties": {
                "ref:rspo": 126138,
                "official_name": "O\u015brodek Szkolenia I Doradztwa Zak\u0142ad Us\u0142ug Bhp I P. Po\u017c. Wasio\u0142ka Barbara",
                "name": "O\u015brodek Szkolenia I Doradztwa Zak\u0142ad Us\u0142ug Bhp I P. Po\u017c. Wasio\u0142ka Barbara",
                "addr:postcode": "34-360",
                "addr:city": "Mil\u00f3wka",
                "addr:street": "Dworcowa",
                "addr:housenumber": "17",
                "addr:city:simc": 62478,
                "addr:street:sym_ul": 4434,
                "phone": "+48 338637938",
                "email": "wasiolka@wp.pl",
                "ref:regon": "360159032",
                "ref:vatin": "PL5531580866",
                "operator": "Barbara Wasio\u0142ka",
                "operator:type": "private",
                "fixme": "w zale\u017cno\u015bci od przedmiotu dzia\u0142alno\u015bci (np. amenity=training + training=*, amenity=dancing_school, amenity=language_school, amenity=music_school)"
            }
        },
        {
            "id": 106656,
            "type": "Feature",
            "geometry": {
                "type": "Point",
                "coordinates": [
                    19.0916,
                    49.55803
                ]
            },
            "properties": {
                "isced:level": "3",
                "ref:rspo": 106656,
                "official_name": "Technikum",
                "name": "Technikum",
                "addr:postcode": "34-360",
                "addr:city": "Mil\u00f3wka",
                "addr:street": "Dworcowa",
                "addr:housenumber": "17",
                "addr:city:simc": 62478,
                "addr:street:sym_ul": 4434,
                "phone": "+48 338637555",
                "email": "dyrekcja@lomilowka.pl",
                "ref:regon": "072805124",
                "ref:vatin": "PL5532124981",
                "operator": "Powiat \u017bywiecki",
                "operator:type": "government",
                "amenity": "school",
                "note": "Parent RSPO: 92396"
            }
        },
        {
            "id": 106660,
            "type": "Feature",
            "geometry": {
                "type": "Point",
                "coordinates": [
                    19.0916,
                    49.558
                ]
            },
            "properties": {
                "isced:level": "3",
                "ref:rspo": 106660,
                "official_name": "Liceum Og\u00f3lnokszta\u0142cace dla Doros\u0142ych",
                "name": "Liceum Og\u00f3lnokszta\u0142cace dla Doros\u0142ych",
                "addr:postcode": "34-360",
                "addr:city": "Mil\u00f3wka",
                "addr:street": "Dworcowa",
                "addr:housenumber": "17",
                "addr:city:simc": 62478,
                "addr:street:sym_ul": 4434,
                "phone": "+48 338637555",
                "email": "dyrekcja@lomilowka.pl",
                "ref:regon": "072308851",
                "ref:vatin": "PL5532124981",
                "operator": "Powiat \u017bywiecki",
                "operator:type": "government",
                "amenity": "school",
                "note": "Parent RSPO: 92396"
            }
        },
        {
            "id": 106662,
            "type": "Feature",
            "geometry": {
                "type": "Point",
                "coordinates": [
                    19.0916,
                    49.557970000000005
                ]
            },
            "properties": {
                "isced:level": "3",
                "ref:rspo": 106662,
                "official_name": "Bran\u017cowa Szko\u0142a I Stopnia",
                "name": "Bran\u017cowa Szko\u0142a I Stopnia",
                "addr:postcode": "34-360",
                "addr:city": "Mil\u00f3wka",
                "addr:street": "Dworcowa",
                "addr:housenumber": "17",
                "addr:city:simc": 62478,
                "addr:street:sym_ul": 4434,
                "phone": "+48 338637555",
                "email": "dyrekcja@lomilowka.pl",
                "ref:regon": "072805147",
                "ref:vatin": "PL5532124981",
                "operator": "Powiat \u017bywiecki",
                "operator:type": "government",
                "amenity": "school",
                "note": "Parent RSPO: 92396"
            }
        },
        {
            "id": 111477,
            "type": "Feature",
            "geometry": {
                "type": "Point",
                "coordinates": [
                    19.0916,
                    49.55794
                ]
            },
            "properties": {
                "isced:level": "4",
                "ref:rspo": 111477,
                "official_name": "Szko\u0142a Policealna dla Doros\u0142ych w Mil\u00f3wce",
                "name": "Szko\u0142a Policealna dla Doros\u0142ych w Mil\u00f3wce",
                "addr:postcode": "34-360",
                "addr:city": "Mil\u00f3wka",
                "addr:street": "Dworcowa",
                "addr:housenumber": "17",
                "addr:city:simc": 62478,
                "addr:street:sym_ul": 4434,
                "phone": "+48 338637555",
                "email": "dyrekcja@lomilowka.pl",
                "ref:regon": "243207201",
                "ref:vatin": "PL5532124981",
                "operator": "Powiat \u017bywiecki",
                "operator:type": "government",
                "amenity": "college",
                "note": "Parent RSPO: 92396"
            }
        },
        {
            "id": 115558,
            "type": "Feature",
            "geometry": {
                "type": "Point",
                "coordinates": [
                    19.0916,
                    49.55791
                ]
            },
            "properties": {
                "isced:level": "3",
                "ref:rspo": 115558,
                "official_name": "Liceum Og\u00f3lnokszta\u0142c\u0105ce im. Marii Konopnickiej",
                "name": "Liceum Og\u00f3lnokszta\u0142c\u0105ce",
                "addr:postcode": "34-360",
                "addr:city": "Mil\u00f3wka",
                "addr:street": "Dworcowa",
                "addr:housenumber": "17",
                "addr:city:simc": 62478,
                "addr:street:sym_ul": 4434,
                "phone": "+48 338637555",
                "email": "dyrekcja@lomilowka.pl",
                "website": "http:\/\/zsoitmilowka.pl",
                "ref:regon": "000755419",
                "ref:vatin": "PL5532124981",
                "operator": "Powiat \u017bywiecki",
                "operator:type": "government",
                "amenity": "school",
                "note": "Parent RSPO: 92396"
            }
        },
        {
            "id": 80281,
            "type": "Feature",
            "geometry": {
                "type": "Point",
                "coordinates": [
                    19.08855,
                    49.55838
                ]
            },
            "properties": {
                "isced:level": "1;2",
                "ref:rspo": 80281,
                "official_name": "Szko\u0142a Podstawowa im. Miko\u0142aja Kopernika w Mil\u00f3wce",
                "name": "Szko\u0142a Podstawowa",
                "addr:postcode": "34-360",
                "addr:city": "Mil\u00f3wka",
                "addr:street": "Dworcowa",
                "addr:housenumber": "3",
                "addr:city:simc": 62478,
                "addr:street:sym_ul": 4434,
                "phone": "+48 338637536",
                "email": "sp.milowka@wp.pl",
                "website": "http:\/\/spmilowka.pl",
                "ref:regon": "070449234",
                "ref:vatin": "PL5531772353",
                "operator": "Gmina Mil\u00f3wka",
                "operator:type": "government",
                "amenity": "school"
            }
        },
        {
            "id": 26310,
            "type": "Feature",
            "geometry": {
                "type": "Point",
                "coordinates": [
                    19.08855,
                    49.55835
                ]
            },
            "properties": {
                "ref:rspo": 26310,
                "official_name": "Pedagogiczna Biblioteka Wojew\u00f3dzka w Bielsku-Bia\u0142ej Filia w Mil\u00f3wce",
                "name": "Pedagogiczna Biblioteka Wojew\u00f3dzka w Bielsku-Bia\u0142ej Filia w Mil\u00f3wce",
                "addr:postcode": "34-360",
                "addr:city": "Mil\u00f3wka",
                "addr:street": "Dworcowa",
                "addr:housenumber": "3",
                "addr:city:simc": 62478,
                "addr:street:sym_ul": 4434,
                "phone": "+48 338637838",
                "email": "filia_milowka@pbw.bielsko.pl",
                "ref:regon": "787224000",
                "ref:vatin": "PL9371820914",
                "operator": "Wojew\u00f3dztwo \u015al\u0105skie",
                "operator:type": "government",
                "amenity": "library",
                "note": "Parent RSPO: 14886"
            }
        },
        {
            "id": 132119,
            "type": "Feature",
            "geometry": {
                "type": "Point",
                "coordinates": [
                    19.07625,
                    49.56378
                ]
            },
            "properties": {
                "ref:rspo": 132119,
                "official_name": "Niepubliczne Przedszkole \"Zabawa\"",
                "name": "Niepubliczne Przedszkole \"Zabawa\"",
                "addr:postcode": "34-360",
                "addr:city": "Mil\u00f3wka",
                "addr:street": "Grunwaldzka",
                "addr:housenumber": "50",
                "addr:city:simc": 62478,
                "addr:street:sym_ul": 6260,
                "phone": "+48 798420625",
                "ref:regon": "365470510",
                "operator": "Micha\u0142 K\u0105kol",
                "operator:type": "private",
                "amenity": "kindergarten"
            }
        },
        {
            "id": 87237,
            "type": "Feature",
            "geometry": {
                "type": "Point",
                "coordinates": [
                    19.01875,
                    49.56416
                ]
            },
            "properties": {
                "isced:level": "1;2",
                "ref:rspo": 87237,
                "official_name": "Szko\u0142a Podstawowa Nr 2 w Kamesznicy",
                "name": "Szko\u0142a Podstawowa Nr 2 w Kamesznicy",
                "addr:postcode": "34-383",
                "addr:city": "Kamesznica",
                "addr:street": "Sportowa",
                "addr:housenumber": "382",
                "addr:city:simc": 62053,
                "addr:street:sym_ul": 20683,
                "phone": "+48 338625052",
                "email": "sp2kamesznica@o2.pl",
                "ref:regon": "070449197",
                "ref:vatin": "PL5531780039",
                "operator": "Gmina Mil\u00f3wka",
                "operator:type": "government",
                "amenity": "school"
            }
        },
        {
            "id": 119004,
            "type": "Feature",
            "geometry": {
                "type": "Point",
                "coordinates": [
                    19.06064,
                    49.57792
                ]
            },
            "properties": {
                "ref:rspo": 119004,
                "official_name": "Zesp\u00f3\u0142 Szkolno-Przedszkolny w Kamesznicy",
                "name": "Zesp\u00f3\u0142 Szkolno-Przedszkolny w Kamesznicy",
                "addr:postcode": "34-383",
                "addr:city": "Kamesznica",
                "addr:street": "Parkowa",
                "addr:housenumber": "70",
                "addr:city:simc": 62053,
                "addr:street:sym_ul": 15710,
                "phone": "+48 338637534",
                "email": "sp1kamesznica@o2.pl",
                "website": "http:\/\/sp1kamesznica.szkolnastrona.pl",
                "ref:regon": "243346345",
                "operator": "Gmina Mil\u00f3wka",
                "operator:type": "government",
                "landuse": "education",
                "fixme": "amenity=school, amenity=college albo landuse=education w zale\u017cno\u015bci od tego, jakie plac\u00f3wki wchodz\u0105 w sk\u0142ad zespo\u0142u. Sprawd\u017a, kiedy stosowa\u0107 amenity=* a kiedy landuse=education.",
                "note": "Children RSPO: 80282;81322"
            }
        },
        {
            "id": 80282,
            "type": "Feature",
            "geometry": {
                "type": "Point",
                "coordinates": [
                    19.06064,
                    49.57789
                ]
            },
            "properties": {
                "ref:rspo": 80282,
                "official_name": "Przedszkole Nr 1 w Kamesznicy",
                "name": "Przedszkole Nr 1 w Kamesznicy",
                "addr:postcode": "34-383",
                "addr:city": "Kamesznica",
                "addr:street": "Parkowa",
                "addr:housenumber": "70",
                "addr:city:simc": 62053,
                "addr:street:sym_ul": 15710,
                "phone": "+48 338624964",
                "email": "przedszkolekamesznica@op.pl",
                "ref:regon": "072356689",
                "ref:vatin": "PL5532126945",
                "operator": "Gmina Mil\u00f3wka",
                "operator:type": "government",
                "amenity": "kindergarten",
                "note": "Parent RSPO: 119004"
            }
        },
        {
            "id": 81322,
            "type": "Feature",
            "geometry": {
                "type": "Point",
                "coordinates": [
                    19.06064,
                    49.57786
                ]
            },
            "properties": {
                "isced:level": "1;2",
                "ref:rspo": 81322,
                "official_name": "Szko\u0142a Podstawowa Nr 1 w Kamesznicy",
                "name": "Szko\u0142a Podstawowa Nr 1 w Kamesznicy",
                "addr:postcode": "34-383",
                "addr:city": "Kamesznica",
                "addr:street": "Parkowa",
                "addr:housenumber": "70",
                "addr:city:simc": 62053,
                "addr:street:sym_ul": 15710,
                "phone": "+48 338637534",
                "email": "sp1kamesznica@o2.pl",
                "ref:regon": "070449211",
                "ref:vatin": "PL5531779987",
                "operator": "Gmina Mil\u00f3wka",
                "operator:type": "government",
                "amenity": "school",
                "note": "Parent RSPO: 119004"
            }
        }
    ]
}