{
    "type": "FeatureCollection",
    "features": [
        {
            "id": 84377,
            "type": "Feature",
            "geometry": {
                "type": "Point",
                "coordinates": [
                    19.27051,
                    49.6995999
                ]
            },
            "properties": {
                "isced:level": "1;2",
                "ref:rspo": 84377,
                "official_name": "Szko\u0142a Podstawowa im. Jana Paw\u0142a II w Rychwa\u0142dzie",
                "name": "Szko\u0142a Podstawowa",
                "addr:postcode": "34-322",
                "addr:city": "Rychwa\u0142d",
                "addr:street": "Beskidzka",
                "addr:housenumber": "43",
                "addr:teryt:simc": 51931,
                "addr:teryt:sym_ul": 1103,
                "phone": "+48 338651002",
                "email": "zswrychwaldzie@op.pl",
                "ref:regon": "070431530",
                "ref:vatin": "PL5531788756",
                "operator": "Gmina Gilowice",
                "operator:type": "government",
                "amenity": "school"
            }
        },
        {
            "id": 65285,
            "type": "Feature",
            "geometry": {
                "type": "Point",
                "coordinates": [
                    19.26976,
                    49.6997
                ]
            },
            "properties": {
                "ref:rspo": 65285,
                "official_name": "Przedszkole Publiczne im.krasnala Ha\u0142aba\u0142y",
                "name": "Przedszkole Publiczne im.krasnala Ha\u0142aba\u0142y",
                "addr:postcode": "34-322",
                "addr:city": "Rychwa\u0142d",
                "addr:street": "Beskidzka",
                "addr:housenumber": "41",
                "addr:teryt:simc": 51931,
                "addr:teryt:sym_ul": 1103,
                "phone": "+48 338638685",
                "email": "przedszkole_rychwald2@o2.pl",
                "ref:regon": "072357401",
                "ref:vatin": "PL5531749839",
                "operator": "Gmina Gilowice",
                "operator:type": "government",
                "amenity": "kindergarten"
            }
        },
        {
            "id": 273723,
            "type": "Feature",
            "geometry": {
                "type": "Point",
                "coordinates": [
                    19.32282,
                    49.70973
                ]
            },
            "properties": {
                "ref:rspo": 273723,
                "official_name": "Przedszkole Niepubliczne \"Akuku\" Z Oddzia\u0142ami Integracyjnymi w Gilowicach",
                "name": "Przedszkole Niepubliczne \"Akuku\" Z Oddzia\u0142ami Integracyjnymi w Gilowicach",
                "addr:postcode": "34-322",
                "addr:city": "Gilowice",
                "addr:street": "Krakowska",
                "addr:housenumber": "102",
                "addr:door": "a",
                "addr:teryt:simc": 51747,
                "addr:teryt:sym_ul": 9796,
                "email": "kontakt@akukuwg.pl",
                "ref:regon": "384585371",
                "ref:vatin": "PL5532166778",
                "operator": "Nowatorownia Benedykt Biegun; Przedszkole Niepubliczne \"Akuku\"",
                "operator:type": "consortium",
                "amenity": "kindergarten"
            }
        },
        {
            "id": 84279,
            "type": "Feature",
            "geometry": {
                "type": "Point",
                "coordinates": [
                    19.31403,
                    49.71067
                ]
            },
            "properties": {
                "ref:rspo": 84279,
                "official_name": "Przedszkole w Gilowicach",
                "name": "Przedszkole w Gilowicach",
                "addr:postcode": "34-322",
                "addr:city": "Gilowice",
                "addr:street": "Krakowska",
                "addr:housenumber": "62",
                "addr:teryt:simc": 51747,
                "addr:teryt:sym_ul": 9796,
                "phone": "+48 338653024",
                "email": "przedszkolegilowice@op.pl",
                "website": "http:\/\/www.ppgilowice.przedszkolna.net",
                "ref:regon": "072357424",
                "ref:vatin": "PL5531749851",
                "operator": "Gmina Gilowice",
                "operator:type": "government",
                "amenity": "kindergarten"
            }
        },
        {
            "id": 64990,
            "type": "Feature",
            "geometry": {
                "type": "Point",
                "coordinates": [
                    19.3092599,
                    49.72051
                ]
            },
            "properties": {
                "ref:rspo": 64990,
                "official_name": "Zesp\u00f3\u0142 Szk\u00f3\u0142 w Gilowicach",
                "name": "Zesp\u00f3\u0142 Szk\u00f3\u0142 w Gilowicach",
                "addr:postcode": "34-322",
                "addr:city": "Gilowice",
                "addr:street": "Siedlak\u00f3wka",
                "addr:housenumber": "37",
                "addr:teryt:simc": 51747,
                "addr:teryt:sym_ul": 31504,
                "phone": "+48 338653242",
                "email": "zsgilowice@wp.pl",
                "ref:regon": "242632340",
                "ref:vatin": "PL5532503827",
                "operator": "Gmina Gilowice",
                "operator:type": "government",
                "landuse": "education",
                "fixme": "amenity=school, amenity=college albo landuse=education w zale\u017cno\u015bci od tego, jakie plac\u00f3wki wchodz\u0105 w sk\u0142ad zespo\u0142u. Sprawd\u017a, kiedy stosowa\u0107 amenity=* a kiedy landuse=education.",
                "note": "Children RSPO: 84334;128984"
            }
        },
        {
            "id": 84334,
            "type": "Feature",
            "geometry": {
                "type": "Point",
                "coordinates": [
                    19.3092599,
                    49.720479999999995
                ]
            },
            "properties": {
                "isced:level": "1;2",
                "ref:rspo": 84334,
                "official_name": "Zesp\u00f3\u0142 Szk\u00f3\u0142 w Gilowicach - Szko\u0142a Podstawowa Nr 1 im. Tadeusza Ko\u015bciuszki",
                "name": "Zesp\u00f3\u0142 Szk\u00f3\u0142 w Gilowicach - Szko\u0142a Podstawowa Nr 1",
                "addr:postcode": "34-322",
                "addr:city": "Gilowice",
                "addr:street": "Siedlak\u00f3wka",
                "addr:housenumber": "37",
                "addr:teryt:simc": 51747,
                "addr:teryt:sym_ul": 31504,
                "phone": "+48 338653041",
                "email": "zsgilowice@wp.pl",
                "ref:regon": "070431518",
                "ref:vatin": "PL5531788650",
                "operator": "Gmina Gilowice",
                "operator:type": "government",
                "amenity": "school",
                "note": "Parent RSPO: 64990"
            }
        },
        {
            "id": 128984,
            "type": "Feature",
            "geometry": {
                "type": "Point",
                "coordinates": [
                    19.3092599,
                    49.72045
                ]
            },
            "properties": {
                "ref:rspo": 128984,
                "official_name": "Szkolne Schronisko M\u0142odzie\u017cowe w Gilowicach",
                "name": "Szkolne Schronisko M\u0142odzie\u017cowe w Gilowicach",
                "addr:postcode": "34-322",
                "addr:city": "Gilowice",
                "addr:street": "Siedlak\u00f3wka",
                "addr:housenumber": "37",
                "addr:teryt:simc": 51747,
                "addr:teryt:sym_ul": 31504,
                "phone": "+48 338653242",
                "email": "schroniskogilowice@wp.pl",
                "ref:regon": "362439698",
                "operator": "Gmina Gilowice",
                "operator:type": "government",
                "tourism": "hostel",
                "note": "Parent RSPO: 64990"
            }
        }
    ]
}