{
    "type": "FeatureCollection",
    "features": [
        {
            "id": 122162,
            "type": "Feature",
            "geometry": {
                "type": "Point",
                "coordinates": [
                    19.34367,
                    49.5826
                ]
            },
            "properties": {
                "ref:rspo": 122162,
                "official_name": "Zesp\u00f3\u0142 Szk\u00f3\u0142 Nr 5 w Korbielowie",
                "name": "Zesp\u00f3\u0142 Szk\u00f3\u0142 Nr 5 w Korbielowie",
                "addr:country": "PL",
                "addr:postcode": "34-335",
                "addr:city": "Korbiel\u00f3w",
                "addr:street": "Beskidzka",
                "addr:housenumber": "40",
                "addr:teryt:simc": 1103,
                "addr:teryt:sym_ul": 55521,
                "contact:phone": "+48 338636536",
                "contact:email": "zsnr5wkorbielowie@vp.pl",
                "ref:regon": "072807548",
                "operator": "Gmina Jele\u015bnia",
                "operator:type": "government",
                "landuse": "education",
                "fixme": "amenity=school, amenity=college albo landuse=education w zale\u017cno\u015bci od tego, jakie plac\u00f3wki wchodz\u0105 w sk\u0142ad zespo\u0142u. Sprawd\u017a, kiedy stosowa\u0107 amenity=* a kiedy landuse=education.",
                "note": "Children RSPO: 122195;122243"
            }
        },
        {
            "id": 122195,
            "type": "Feature",
            "geometry": {
                "type": "Point",
                "coordinates": [
                    19.34367,
                    49.58257
                ]
            },
            "properties": {
                "ref:rspo": 122195,
                "official_name": "Zesp\u00f3\u0142 Szk\u00f3\u0142 Nr 5 w Korbielowie-Przedszkole w Korbielowie",
                "name": "Zesp\u00f3\u0142 Szk\u00f3\u0142 Nr 5 w Korbielowie-Przedszkole w Korbielowie",
                "addr:country": "PL",
                "addr:postcode": "34-335",
                "addr:city": "Korbiel\u00f3w",
                "addr:street": "Beskidzka",
                "addr:housenumber": "40",
                "addr:teryt:simc": 1103,
                "addr:teryt:sym_ul": 55521,
                "contact:phone": "+48 338636536",
                "contact:email": "przedszkole.korbielow2@gmail.com",
                "ref:regon": "072358949",
                "ref:vatin": "PL5532126715",
                "operator": "Gmina Jele\u015bnia",
                "operator:type": "government",
                "amenity": "kindergarten",
                "note": "Parent RSPO: 122162"
            }
        },
        {
            "id": 122243,
            "type": "Feature",
            "geometry": {
                "type": "Point",
                "coordinates": [
                    19.34367,
                    49.58254
                ]
            },
            "properties": {
                "isced:level": "1;2",
                "ref:rspo": 122243,
                "official_name": "Zesp\u00f3\u0142 Szk\u00f3\u0142 Nr5-Szko\u0142a Podstawowa w Korbielowie",
                "name": "Zesp\u00f3\u0142 Szk\u00f3\u0142 Nr5-Szko\u0142a Podstawowa w Korbielowie",
                "addr:country": "PL",
                "addr:postcode": "34-335",
                "addr:city": "Korbiel\u00f3w",
                "addr:street": "Beskidzka",
                "addr:housenumber": "40",
                "addr:teryt:simc": 1103,
                "addr:teryt:sym_ul": 55521,
                "contact:phone": "+48 338636536",
                "contact:email": "zsnr5wkorbielowie@vp.pl",
                "contact:website": "http:\/\/szkola-korbielow.pl\/",
                "ref:regon": "070397490",
                "ref:vatin": "PL5532126721",
                "operator": "Gmina Jele\u015bnia",
                "operator:type": "government",
                "amenity": "school",
                "note": "Parent RSPO: 122162"
            }
        },
        {
            "id": 133286,
            "type": "Feature",
            "geometry": {
                "type": "Point",
                "coordinates": [
                    19.34352,
                    49.5828599
                ]
            },
            "properties": {
                "ref:rspo": 133286,
                "official_name": "Szkolne Schronisko M\u0142odzie\u017cowe w Korbielowie",
                "name": "Szkolne Schronisko M\u0142odzie\u017cowe w Korbielowie",
                "addr:country": "PL",
                "addr:postcode": "34-335",
                "addr:city": "Korbiel\u00f3w",
                "addr:street": "Beskidzka",
                "addr:housenumber": "38",
                "addr:teryt:simc": 1103,
                "addr:teryt:sym_ul": 55521,
                "contact:email": "przystanekkorbielow@gmail.com",
                "contact:website": "http:\/\/www.przystanekkorbielo.wixsite.com",
                "ref:regon": "366927704",
                "operator": "Wojciech Jele\u0144",
                "operator:type": "private",
                "tourism": "hostel"
            }
        },
        {
            "id": 123260,
            "type": "Feature",
            "geometry": {
                "type": "Point",
                "coordinates": [
                    19.301336,
                    49.5841629
                ]
            },
            "properties": {
                "ref:rspo": 123260,
                "official_name": "Zesp\u00f3\u0142 Szk\u00f3\u0142 Nr 4 w Sopotni Wielkiej",
                "name": "Zesp\u00f3\u0142 Szk\u00f3\u0142 Nr 4 w Sopotni Wielkiej",
                "addr:country": "PL",
                "addr:postcode": "34-340",
                "addr:place": "Sopotnia Wielka",
                "addr:housenumber": "298",
                "addr:teryt:sym_ul": 56153,
                "contact:phone": "+48 338634667",
                "contact:email": "zs4sw@poczta.onet.pl",
                "ref:regon": "072807519",
                "operator": "Gmina Jele\u015bnia",
                "operator:type": "government",
                "landuse": "education",
                "fixme": "amenity=school, amenity=college albo landuse=education w zale\u017cno\u015bci od tego, jakie plac\u00f3wki wchodz\u0105 w sk\u0142ad zespo\u0142u. Sprawd\u017a, kiedy stosowa\u0107 amenity=* a kiedy landuse=education.",
                "note": "Children RSPO: 59962;123347"
            }
        },
        {
            "id": 59962,
            "type": "Feature",
            "geometry": {
                "type": "Point",
                "coordinates": [
                    19.301336,
                    49.5841329
                ]
            },
            "properties": {
                "ref:rspo": 59962,
                "official_name": "Zesp\u00f3\u0142 Szk\u00f3\u0142 Nr 4 w Sopotni Wielkiej-Przedszkole w Sopotni Wielkiej",
                "name": "Zesp\u00f3\u0142 Szk\u00f3\u0142 Nr 4 w Sopotni Wielkiej-Przedszkole w Sopotni Wielkiej",
                "addr:country": "PL",
                "addr:postcode": "34-340",
                "addr:place": "Sopotnia Wielka",
                "addr:housenumber": "298",
                "addr:teryt:sym_ul": 56153,
                "contact:phone": "+48 338634667",
                "contact:email": "przedszkolesopotnia@gmail.com",
                "ref:regon": "072358961",
                "ref:vatin": "PL5532126767",
                "operator": "Gmina Jele\u015bnia",
                "operator:type": "government",
                "amenity": "kindergarten",
                "note": "Parent RSPO: 123260"
            }
        },
        {
            "id": 123347,
            "type": "Feature",
            "geometry": {
                "type": "Point",
                "coordinates": [
                    19.301336,
                    49.584102900000005
                ]
            },
            "properties": {
                "isced:level": "1;2",
                "ref:rspo": 123347,
                "official_name": "Zesp\u00f3\u0142 Szk\u00f3\u0142 Nr4-Szko\u0142a Podstawowa w Sopotni Wielkiej",
                "name": "Zesp\u00f3\u0142 Szk\u00f3\u0142 Nr4-Szko\u0142a Podstawowa w Sopotni Wielkiej",
                "addr:country": "PL",
                "addr:postcode": "34-340",
                "addr:place": "Sopotnia Wielka",
                "addr:housenumber": "298",
                "addr:teryt:sym_ul": 56153,
                "contact:phone": "+48 338634667",
                "contact:email": "zs4sw@poczta.onet.pl",
                "ref:regon": "070397520",
                "ref:vatin": "PL5532126141",
                "operator": "Gmina Jele\u015bnia",
                "operator:type": "government",
                "amenity": "school",
                "note": "Parent RSPO: 123260"
            }
        },
        {
            "id": 122194,
            "type": "Feature",
            "geometry": {
                "type": "Point",
                "coordinates": [
                    19.33899,
                    49.59818
                ]
            },
            "properties": {
                "ref:rspo": 122194,
                "official_name": "Zep\u00f3\u0142 Szk\u00f3\u0142 Nr 3 w Krzy\u017cowej-Przedszkole w Krzy\u017cowej",
                "name": "Zep\u00f3\u0142 Szk\u00f3\u0142 Nr 3 w Krzy\u017cowej-Przedszkole w Krzy\u017cowej",
                "addr:country": "PL",
                "addr:postcode": "34-335",
                "addr:city": "Krzy\u017cowa",
                "addr:street": "Jana Paw\u0142a II",
                "addr:housenumber": "228",
                "addr:teryt:simc": 7123,
                "addr:teryt:sym_ul": 55580,
                "contact:phone": "+48 338636099",
                "contact:email": "przedszkolekrzyzowa@wp.pl",
                "ref:regon": "072358903",
                "ref:vatin": "PL5532128708",
                "operator": "Gmina Jele\u015bnia",
                "operator:type": "government",
                "amenity": "kindergarten",
                "note": "Parent RSPO: 122156"
            }
        },
        {
            "id": 122156,
            "type": "Feature",
            "geometry": {
                "type": "Point",
                "coordinates": [
                    19.33163,
                    49.60037
                ]
            },
            "properties": {
                "ref:rspo": 122156,
                "official_name": "Zesp\u00f3\u0142 Szk\u00f3\u0142 Nr 3 w Krzy\u017cowej",
                "name": "Zesp\u00f3\u0142 Szk\u00f3\u0142 Nr 3 w Krzy\u017cowej",
                "addr:country": "PL",
                "addr:postcode": "34-335",
                "addr:city": "Krzy\u017cowa",
                "addr:street": "Szkolna",
                "addr:housenumber": "13",
                "addr:teryt:simc": 21970,
                "addr:teryt:sym_ul": 55580,
                "contact:phone": "+48 338633133",
                "contact:email": "szkolakrzyzowa@o2.pl",
                "contact:website": "http:\/\/krzyzowa.edu.pl\/",
                "ref:regon": "072807488",
                "operator": "Gmina Jele\u015bnia",
                "operator:type": "government",
                "landuse": "education",
                "fixme": "amenity=school, amenity=college albo landuse=education w zale\u017cno\u015bci od tego, jakie plac\u00f3wki wchodz\u0105 w sk\u0142ad zespo\u0142u. Sprawd\u017a, kiedy stosowa\u0107 amenity=* a kiedy landuse=education.",
                "note": "Children RSPO: 122194;123323"
            }
        },
        {
            "id": 123323,
            "type": "Feature",
            "geometry": {
                "type": "Point",
                "coordinates": [
                    19.33163,
                    49.600339999999996
                ]
            },
            "properties": {
                "isced:level": "1;2",
                "ref:rspo": 123323,
                "official_name": "Zesp\u00f3\u0142 Szk\u00f3\u0142 Nr 3 - Szko\u0142a Podstawowa w Krzy\u017cowej",
                "name": "Zesp\u00f3\u0142 Szk\u00f3\u0142 Nr 3 - Szko\u0142a Podstawowa w Krzy\u017cowej",
                "addr:country": "PL",
                "addr:postcode": "34-335",
                "addr:city": "Krzy\u017cowa",
                "addr:street": "Szkolna",
                "addr:housenumber": "13",
                "addr:teryt:simc": 21970,
                "addr:teryt:sym_ul": 55580,
                "contact:email": "szkolakrzyzowa@o2.pl",
                "ref:regon": "070397483",
                "ref:vatin": "PL5532126218",
                "operator": "Gmina Jele\u015bnia",
                "operator:type": "government",
                "amenity": "school",
                "note": "Parent RSPO: 122156"
            }
        },
        {
            "id": 122197,
            "type": "Feature",
            "geometry": {
                "type": "Point",
                "coordinates": [
                    19.3271,
                    49.61587
                ]
            },
            "properties": {
                "ref:rspo": 122197,
                "official_name": "\"Akademia Ma\u0142ego Cz\u0142owieka\"",
                "name": "\"Akademia Ma\u0142ego Cz\u0142owieka\"",
                "addr:country": "PL",
                "addr:postcode": "34-335",
                "addr:city": "Krzy\u017cowa",
                "addr:street": "Jana Paw\u0142a II",
                "addr:housenumber": "1",
                "addr:teryt:simc": 7123,
                "addr:teryt:sym_ul": 55580,
                "contact:email": "lucyna.krzyzowska@opoczta.pl",
                "ref:regon": "243499379",
                "ref:vatin": "PL5531433237",
                "operator": "Lucyna Krzy\u017cowska",
                "operator:type": "private",
                "amenity": "kindergarten"
            }
        },
        {
            "id": 122164,
            "type": "Feature",
            "geometry": {
                "type": "Point",
                "coordinates": [
                    19.277178,
                    49.616755
                ]
            },
            "properties": {
                "ref:rspo": 122164,
                "official_name": "Zesp\u00f3\u0142 Szk\u00f3\u0142 Nr 6 w Sopotni Ma\u0142ej",
                "name": "Zesp\u00f3\u0142 Szk\u00f3\u0142 Nr 6 w Sopotni Ma\u0142ej",
                "addr:country": "PL",
                "addr:postcode": "34-340",
                "addr:place": "Sopotnia Ma\u0142a",
                "addr:housenumber": "201",
                "addr:teryt:sym_ul": 56006,
                "contact:phone": "+48 338634511",
                "contact:email": "zsnr6@onet.eu",
                "contact:website": "http:\/\/www.zsnr6sopotniamala.szkolna.net",
                "ref:regon": "072807525",
                "operator": "Gmina Jele\u015bnia",
                "operator:type": "government",
                "landuse": "education",
                "fixme": "amenity=school, amenity=college albo landuse=education w zale\u017cno\u015bci od tego, jakie plac\u00f3wki wchodz\u0105 w sk\u0142ad zespo\u0142u. Sprawd\u017a, kiedy stosowa\u0107 amenity=* a kiedy landuse=education.",
                "note": "Children RSPO: 59734;122219"
            }
        },
        {
            "id": 59734,
            "type": "Feature",
            "geometry": {
                "type": "Point",
                "coordinates": [
                    19.277178,
                    49.616724999999995
                ]
            },
            "properties": {
                "ref:rspo": 59734,
                "official_name": "Zesp\u00f3\u0142 Szk\u00f3\u0142 Nr 6 w Sopotni Ma\u0142ej-Przedszkole w Sopotni Ma\u0142ej",
                "name": "Zesp\u00f3\u0142 Szk\u00f3\u0142 Nr 6 w Sopotni Ma\u0142ej-Przedszkole w Sopotni Ma\u0142ej",
                "addr:country": "PL",
                "addr:postcode": "34-340",
                "addr:place": "Sopotnia Ma\u0142a",
                "addr:housenumber": "201",
                "addr:teryt:sym_ul": 56006,
                "contact:phone": "+48 338634511",
                "contact:email": "zsnr6@onet.eu",
                "contact:website": "http:\/\/www.zsnr6sopotniamala.szkolna.net",
                "ref:regon": "072358955",
                "ref:vatin": "PL5532126678",
                "operator": "Gmina Jele\u015bnia",
                "operator:type": "government",
                "amenity": "kindergarten",
                "note": "Parent RSPO: 122164"
            }
        },
        {
            "id": 122219,
            "type": "Feature",
            "geometry": {
                "type": "Point",
                "coordinates": [
                    19.277178,
                    49.616695
                ]
            },
            "properties": {
                "isced:level": "1;2",
                "ref:rspo": 122219,
                "official_name": "Zesp\u00f3\u0142 Szk\u00f3\u0142 Nr6-Szko\u0142a Podstawowa w Sopotni Ma\u0142ej",
                "name": "Zesp\u00f3\u0142 Szk\u00f3\u0142 Nr6-Szko\u0142a Podstawowa w Sopotni Ma\u0142ej",
                "addr:country": "PL",
                "addr:postcode": "34-340",
                "addr:place": "Sopotnia Ma\u0142a",
                "addr:housenumber": "201",
                "addr:teryt:sym_ul": 56006,
                "contact:phone": "+48 338634511",
                "contact:email": "zsnr6@onet.eu",
                "contact:website": "http:\/\/www.zsnr6sopotniamala.szkolna.net",
                "ref:regon": "070397514",
                "ref:vatin": "PL5532126684",
                "operator": "Gmina Jele\u015bnia",
                "operator:type": "government",
                "amenity": "school",
                "note": "Parent RSPO: 122164"
            }
        },
        {
            "id": 121849,
            "type": "Feature",
            "geometry": {
                "type": "Point",
                "coordinates": [
                    19.33137,
                    49.6284599
                ]
            },
            "properties": {
                "ref:rspo": 121849,
                "official_name": "Zesp\u00f3\u0142 Szk\u00f3\u0142 Nr 1 w Jele\u015bni",
                "name": "Zesp\u00f3\u0142 Szk\u00f3\u0142 Nr 1 w Jele\u015bni",
                "addr:country": "PL",
                "addr:postcode": "34-340",
                "addr:city": "Jele\u015bnia",
                "addr:street": "Rynek",
                "addr:housenumber": "11",
                "addr:teryt:simc": 19253,
                "addr:teryt:sym_ul": 55372,
                "contact:phone": "+48 338636116",
                "contact:email": "sp1jel@op.pl",
                "ref:regon": "072807494",
                "operator": "Gmina Jele\u015bnia",
                "operator:type": "government",
                "landuse": "education",
                "fixme": "amenity=school, amenity=college albo landuse=education w zale\u017cno\u015bci od tego, jakie plac\u00f3wki wchodz\u0105 w sk\u0142ad zespo\u0142u. Sprawd\u017a, kiedy stosowa\u0107 amenity=* a kiedy landuse=education.",
                "note": "Children RSPO: 122192;123345"
            }
        },
        {
            "id": 122192,
            "type": "Feature",
            "geometry": {
                "type": "Point",
                "coordinates": [
                    19.33137,
                    49.6284299
                ]
            },
            "properties": {
                "ref:rspo": 122192,
                "official_name": "Zesp\u00f3\u0142 Szk\u00f3\u0142 Nr 1 w Jele\u015bni-Przedszkole Nr 1 w Jele\u015bni",
                "name": "Zesp\u00f3\u0142 Szk\u00f3\u0142 Nr 1 w Jele\u015bni-Przedszkole Nr 1 w Jele\u015bni",
                "addr:country": "PL",
                "addr:postcode": "34-340",
                "addr:city": "Jele\u015bnia",
                "addr:street": "Rynek",
                "addr:housenumber": "11",
                "addr:teryt:simc": 19253,
                "addr:teryt:sym_ul": 55372,
                "contact:phone": "+48 338636220",
                "contact:email": "przedszkole1jelesnia@onet.pl",
                "ref:regon": "072358978",
                "ref:vatin": "PL5532126543",
                "operator": "Gmina Jele\u015bnia",
                "operator:type": "government",
                "amenity": "kindergarten",
                "note": "Parent RSPO: 121849"
            }
        },
        {
            "id": 123345,
            "type": "Feature",
            "geometry": {
                "type": "Point",
                "coordinates": [
                    19.33137,
                    49.628399900000005
                ]
            },
            "properties": {
                "isced:level": "1;2",
                "ref:rspo": 123345,
                "official_name": "Zesp\u00f3\u0142 Szk\u00f3\u0142 Nr1 -Szko\u0142a Podstawowa Nr1 w Jele\u015bni",
                "name": "Zesp\u00f3\u0142 Szk\u00f3\u0142 Nr1 -Szko\u0142a Podstawowa Nr1 w Jele\u015bni",
                "addr:country": "PL",
                "addr:postcode": "34-340",
                "addr:city": "Jele\u015bnia",
                "addr:street": "Rynek",
                "addr:housenumber": "11",
                "addr:teryt:simc": 19253,
                "addr:teryt:sym_ul": 55372,
                "contact:phone": "+48 338636116",
                "contact:email": "sp1jel@op.pl",
                "ref:regon": "070397448",
                "ref:vatin": "PL5532126690",
                "operator": "Gmina Jele\u015bnia",
                "operator:type": "government",
                "amenity": "school",
                "note": "Parent RSPO: 121849"
            }
        },
        {
            "id": 127798,
            "type": "Feature",
            "geometry": {
                "type": "Point",
                "coordinates": [
                    19.33198,
                    49.63354
                ]
            },
            "properties": {
                "ref:rspo": 127798,
                "official_name": "Niepubliczne Przedszkole Sportowo-Artystyczne Aktive Kids",
                "name": "Niepubliczne Przedszkole Sportowo-Artystyczne Aktive Kids",
                "addr:country": "PL",
                "addr:postcode": "34-340",
                "addr:city": "Jele\u015bnia",
                "addr:street": "Jana Kazimierza",
                "addr:housenumber": "228",
                "addr:teryt:simc": 7117,
                "addr:teryt:sym_ul": 55372,
                "contact:phone": "+48 667575326",
                "contact:email": "aktivekids@onet.pl",
                "contact:website": "http:\/\/aktivekids.com.pl",
                "ref:regon": "361877172",
                "ref:vatin": "PL5532514446",
                "operator": "Gabriel Sucho\u0144",
                "operator:type": "private",
                "amenity": "kindergarten"
            }
        },
        {
            "id": 122166,
            "type": "Feature",
            "geometry": {
                "type": "Point",
                "coordinates": [
                    19.33242,
                    49.63356
                ]
            },
            "properties": {
                "ref:rspo": 122166,
                "official_name": "Zesp\u00f3\u0142 Szk\u00f3\u0142 Nr 7 w Przyborowie",
                "name": "Zesp\u00f3\u0142 Szk\u00f3\u0142 Nr 7 w Przyborowie",
                "addr:country": "PL",
                "addr:postcode": "34-340",
                "addr:city": "Przybor\u00f3w",
                "addr:street": "Jana Kazimierza",
                "addr:housenumber": "217",
                "addr:teryt:simc": 7117,
                "addr:teryt:sym_ul": 57922,
                "contact:phone": "+48 338639418",
                "contact:email": "gimnazjum_przyborow@op.pl",
                "contact:website": "http:\/\/zs7przyborow.szkolnastrona.pl",
                "ref:regon": "072807502",
                "operator": "Gmina Jele\u015bnia",
                "operator:type": "government",
                "landuse": "education",
                "fixme": "amenity=school, amenity=college albo landuse=education w zale\u017cno\u015bci od tego, jakie plac\u00f3wki wchodz\u0105 w sk\u0142ad zespo\u0142u. Sprawd\u017a, kiedy stosowa\u0107 amenity=* a kiedy landuse=education.",
                "note": "Children RSPO: 60153;122216"
            }
        },
        {
            "id": 122216,
            "type": "Feature",
            "geometry": {
                "type": "Point",
                "coordinates": [
                    19.33242,
                    49.63353
                ]
            },
            "properties": {
                "isced:level": "1;2",
                "ref:rspo": 122216,
                "official_name": "Zesp\u00f3\u0142 Szk\u00f3\u0142 Nr7-Szko\u0142a Podstawowa w Przyborowie",
                "name": "Zesp\u00f3\u0142 Szk\u00f3\u0142 Nr7-Szko\u0142a Podstawowa w Przyborowie",
                "addr:country": "PL",
                "addr:postcode": "34-340",
                "addr:city": "Przybor\u00f3w",
                "addr:street": "Jana Kazimierza",
                "addr:housenumber": "217",
                "addr:teryt:simc": 7117,
                "addr:teryt:sym_ul": 57922,
                "contact:phone": "+48 338639418",
                "contact:email": "zs7przyborow@poczta.onet.pl",
                "contact:website": "http:\/\/zs7przyborow.szkolnastrona.pl",
                "ref:regon": "070690993",
                "ref:vatin": "PL5532001209",
                "operator": "Gmina Jele\u015bnia",
                "operator:type": "government",
                "amenity": "school",
                "note": "Parent RSPO: 122166"
            }
        },
        {
            "id": 60153,
            "type": "Feature",
            "geometry": {
                "type": "Point",
                "coordinates": [
                    19.33027,
                    49.63564
                ]
            },
            "properties": {
                "ref:rspo": 60153,
                "official_name": "Zesp\u00f3\u0142 Szk\u00f3\u0142 Nr 7 w Przyborowie-Przedszkole w Przyborowie",
                "name": "Zesp\u00f3\u0142 Szk\u00f3\u0142 Nr 7 w Przyborowie-Przedszkole w Przyborowie",
                "addr:country": "PL",
                "addr:postcode": "34-340",
                "addr:city": "Przybor\u00f3w",
                "addr:street": "Jana Kazimierza",
                "addr:housenumber": "202",
                "addr:teryt:simc": 7117,
                "addr:teryt:sym_ul": 57922,
                "contact:phone": "+48 338639412",
                "contact:email": "przedszkoleprzyborow16@gmail.com",
                "ref:regon": "072358240",
                "ref:vatin": "PL5531999335",
                "operator": "Gmina Jele\u015bnia",
                "operator:type": "government",
                "amenity": "kindergarten",
                "note": "Parent RSPO: 122166"
            }
        },
        {
            "id": 122152,
            "type": "Feature",
            "geometry": {
                "type": "Point",
                "coordinates": [
                    19.31448,
                    49.6561
                ]
            },
            "properties": {
                "ref:rspo": 122152,
                "official_name": "Zesp\u00f3\u0142 Szk\u00f3\u0142 Nr 2 w Jele\u015bni",
                "name": "Zesp\u00f3\u0142 Szk\u00f3\u0142 Nr 2 w Jele\u015bni",
                "addr:country": "PL",
                "addr:postcode": "34-340",
                "addr:city": "Jele\u015bnia",
                "addr:street": "\u017bywiecka",
                "addr:housenumber": "17",
                "addr:teryt:simc": 26640,
                "addr:teryt:sym_ul": 55372,
                "contact:phone": "+48 338636211",
                "contact:email": "gimn2@wp.pl",
                "ref:regon": "072807554",
                "operator": "Gmina Jele\u015bnia",
                "operator:type": "government",
                "landuse": "education",
                "fixme": "amenity=school, amenity=college albo landuse=education w zale\u017cno\u015bci od tego, jakie plac\u00f3wki wchodz\u0105 w sk\u0142ad zespo\u0142u. Sprawd\u017a, kiedy stosowa\u0107 amenity=* a kiedy landuse=education.",
                "note": "Children RSPO: 122193;123349"
            }
        },
        {
            "id": 122193,
            "type": "Feature",
            "geometry": {
                "type": "Point",
                "coordinates": [
                    19.31448,
                    49.65607
                ]
            },
            "properties": {
                "ref:rspo": 122193,
                "official_name": "Zesp\u00f3\u0142 Szk\u00f3\u0142 Nr 2 w Jele\u015bni- Przedszkole Nr 2 im. Magdaleny Zawady w Jele\u015bni",
                "name": "Zesp\u00f3\u0142 Szk\u00f3\u0142 Nr 2 w Jele\u015bni- Przedszkole Nr 2",
                "addr:country": "PL",
                "addr:postcode": "34-340",
                "addr:city": "Jele\u015bnia",
                "addr:street": "\u017bywiecka",
                "addr:housenumber": "17",
                "addr:teryt:simc": 26640,
                "addr:teryt:sym_ul": 55372,
                "contact:phone": "+48 338636118",
                "contact:email": "przedszkole2.jelesnia@gmail.com",
                "ref:regon": "072358932",
                "ref:vatin": "PL5532126709",
                "operator": "Gmina Jele\u015bnia",
                "operator:type": "government",
                "amenity": "kindergarten",
                "note": "Parent RSPO: 122152"
            }
        },
        {
            "id": 123349,
            "type": "Feature",
            "geometry": {
                "type": "Point",
                "coordinates": [
                    19.31448,
                    49.656040000000004
                ]
            },
            "properties": {
                "isced:level": "1;2",
                "ref:rspo": 123349,
                "official_name": "Zesp\u00f3\u0142 Szk\u00f3\u0142 Nr2-Szko\u0142a Podstawowa Nr2 w Jele\u015bni",
                "name": "Zesp\u00f3\u0142 Szk\u00f3\u0142 Nr2-Szko\u0142a Podstawowa Nr2 w Jele\u015bni",
                "addr:country": "PL",
                "addr:postcode": "34-340",
                "addr:city": "Jele\u015bnia",
                "addr:street": "\u017bywiecka",
                "addr:housenumber": "17",
                "addr:teryt:simc": 26640,
                "addr:teryt:sym_ul": 55372,
                "contact:phone": "+48 338636211",
                "contact:email": "gimn2@wp.pl",
                "contact:website": "http:\/\/www.zs2jelesnia.szkolnastrona.pl",
                "ref:regon": "070397454",
                "ref:vatin": "PL5532126649",
                "operator": "Gmina Jele\u015bnia",
                "operator:type": "government",
                "amenity": "school",
                "note": "Parent RSPO: 122152"
            }
        },
        {
            "id": 60473,
            "type": "Feature",
            "geometry": {
                "type": "Point",
                "coordinates": [
                    19.3769978,
                    49.6595474
                ]
            },
            "properties": {
                "ref:rspo": 60473,
                "official_name": "Katolickie Przedszkole Niepubliczne",
                "name": "Katolickie Przedszkole Niepubliczne",
                "addr:country": "PL",
                "addr:postcode": "34-340",
                "addr:place": "Pewel Wielka",
                "addr:housenumber": "485",
                "addr:teryt:sym_ul": 55774,
                "contact:phone": "+48 338600979",
                "contact:email": "przedszkolepw@wp.pl",
                "ref:regon": "243085778",
                "ref:vatin": "PL5531618942",
                "operator": "Parafia Rzymsko-Katolicka P.w. \u015aw. Maksymiliana Marii Kolbego",
                "operator:type": "religious",
                "amenity": "kindergarten"
            }
        },
        {
            "id": 110298,
            "type": "Feature",
            "geometry": {
                "type": "Point",
                "coordinates": [
                    19.284012,
                    49.661843
                ]
            },
            "properties": {
                "ref:rspo": 110298,
                "official_name": "Zep\u00f3\u0142 Szkolno-Przedszkolny w Pewli Wielkiej",
                "name": "Zep\u00f3\u0142 Szkolno-Przedszkolny w Pewli Wielkiej",
                "addr:country": "PL",
                "addr:postcode": "34-340",
                "addr:place": "Pewel Wielka",
                "addr:housenumber": "100",
                "addr:teryt:sym_ul": 55774,
                "contact:phone": "+48 338636063",
                "contact:email": "zs8pewelw@o2.pl",
                "contact:website": "http:\/\/www.zs8pewel.superszkolna.pl",
                "ref:regon": "072807531",
                "operator": "Gmina Jele\u015bnia",
                "operator:type": "government",
                "landuse": "education",
                "fixme": "amenity=school, amenity=college albo landuse=education w zale\u017cno\u015bci od tego, jakie plac\u00f3wki wchodz\u0105 w sk\u0142ad zespo\u0142u. Sprawd\u017a, kiedy stosowa\u0107 amenity=* a kiedy landuse=education.",
                "note": "Children RSPO: 122201;265501"
            }
        },
        {
            "id": 122201,
            "type": "Feature",
            "geometry": {
                "type": "Point",
                "coordinates": [
                    19.284012,
                    49.661812999999995
                ]
            },
            "properties": {
                "isced:level": "1;2",
                "ref:rspo": 122201,
                "official_name": "Zesp\u00f3\u0142 Szkolno-Przedszkolny -Szko\u0142a Podstawowa Nr2 w Pewli Wielkiej",
                "name": "Zesp\u00f3\u0142 Szkolno-Przedszkolny -Szko\u0142a Podstawowa Nr2 w Pewli Wielkiej",
                "addr:country": "PL",
                "addr:postcode": "34-340",
                "addr:place": "Pewel Wielka",
                "addr:housenumber": "100",
                "addr:teryt:sym_ul": 55774,
                "contact:phone": "+48 338636063",
                "contact:email": "zs8pewelw@o2.pl",
                "ref:regon": "070397477",
                "ref:vatin": "PL5532128542",
                "operator": "Gmina Jele\u015bnia",
                "operator:type": "government",
                "amenity": "school",
                "note": "Parent RSPO: 110298"
            }
        },
        {
            "id": 265501,
            "type": "Feature",
            "geometry": {
                "type": "Point",
                "coordinates": [
                    19.284012,
                    49.661783
                ]
            },
            "properties": {
                "ref:rspo": 265501,
                "official_name": "Zesp\u00f3\u0142 Szkolno-Przedszkolny-Przedszkole Publiczne w Pewli Wielkiej",
                "name": "Zesp\u00f3\u0142 Szkolno-Przedszkolny-Przedszkole Publiczne w Pewli Wielkiej",
                "addr:country": "PL",
                "addr:postcode": "34-340",
                "addr:place": "Pewel Wielka",
                "addr:housenumber": "100",
                "addr:teryt:sym_ul": 55774,
                "contact:phone": "+48 338636063",
                "contact:email": "zs8pewelw@o2.pl",
                "ref:regon": "368758111",
                "operator": "Gmina Jele\u015bnia",
                "operator:type": "government",
                "amenity": "kindergarten",
                "note": "Parent RSPO: 110298"
            }
        },
        {
            "id": 56502,
            "type": "Feature",
            "geometry": {
                "type": "Point",
                "coordinates": [
                    19.37351,
                    49.6737259
                ]
            },
            "properties": {
                "isced:level": "1;2",
                "ref:rspo": 56502,
                "official_name": "Szko\u0142a Podstawowa Nr 1 w Pewli Wielkiej",
                "name": "Szko\u0142a Podstawowa Nr 1 w Pewli Wielkiej",
                "addr:country": "PL",
                "addr:postcode": "34-340",
                "addr:place": "Pewel Wielka",
                "addr:housenumber": "355",
                "addr:teryt:sym_ul": 55774,
                "contact:phone": "+48 338636083",
                "contact:email": "spnr1pw1@op.pl",
                "contact:website": "http:\/\/www.sp1pewelw.szkolnastrona.pl",
                "ref:regon": "070397460",
                "ref:vatin": "PL5532126224",
                "operator": "Gmina Jele\u015bnia",
                "operator:type": "government",
                "amenity": "school"
            }
        }
    ]
}