{
    "type": "FeatureCollection",
    "features": [
        {
            "id": 30062,
            "type": "Feature",
            "geometry": {
                "type": "Point",
                "coordinates": [
                    19.0325689,
                    49.4710663
                ]
            },
            "properties": {
                "isced:level": "1;2",
                "ref:rspo": 30062,
                "official_name": "Szko\u0142a Podstawowa im. Karola Wojty\u0142y Rycerce G\u00f3rnej",
                "name": "Szko\u0142a Podstawowa",
                "addr:postcode": "34-370",
                "addr:place": "Rycerka G\u00f3rna",
                "addr:housenumber": "183",
                "addr:city:simc": 66430,
                "phone": "+48 338644133",
                "email": "sekretariat@sprycerka.pl",
                "website": "http:\/\/sprycerka.pl",
                "ref:regon": "070448884",
                "ref:vatin": "PL5531746769",
                "operator": "Gmina Rajcza",
                "operator:type": "government",
                "amenity": "school"
            }
        },
        {
            "id": 31819,
            "type": "Feature",
            "geometry": {
                "type": "Point",
                "coordinates": [
                    19.0325689,
                    49.471036299999994
                ]
            },
            "properties": {
                "ref:rspo": 31819,
                "official_name": "Punkt Przedszkolny Przy Szkole Podstawowej w Rycerce G\u00f3rnej",
                "name": "Punkt Przedszkolny Przy Szkole Podstawowej w Rycerce G\u00f3rnej",
                "addr:postcode": "34-370",
                "addr:place": "Rycerka G\u00f3rna",
                "addr:housenumber": "183",
                "addr:city:simc": 66430,
                "phone": "+48 338644133",
                "email": "zs.rycerka@wp.pl",
                "ref:regon": "243073947",
                "operator": "Gmina Rajcza",
                "operator:type": "government",
                "amenity": "kindergarten"
            }
        },
        {
            "id": 16445,
            "type": "Feature",
            "geometry": {
                "type": "Point",
                "coordinates": [
                    19.08417,
                    49.48455
                ]
            },
            "properties": {
                "isced:level": "1;2",
                "ref:rspo": 16445,
                "official_name": "Szko\u0142a Podstawowa im. Kr\u00f3la Jana III Sobieskiego w Rycerce Dolnej",
                "name": "Szko\u0142a Podstawowa",
                "addr:postcode": "34-370",
                "addr:place": "Rycerka Dolna",
                "addr:housenumber": "134B",
                "addr:city:simc": 66312,
                "phone": "+48 338644050",
                "email": "sp@rycerkadolna.dlaedu.pl",
                "ref:regon": "070448861",
                "ref:vatin": "PL5531746812",
                "operator": "Gmina Rajcza",
                "operator:type": "government",
                "amenity": "school"
            }
        },
        {
            "id": 103655,
            "type": "Feature",
            "geometry": {
                "type": "Point",
                "coordinates": [
                    19.08417,
                    49.484519999999996
                ]
            },
            "properties": {
                "ref:rspo": 103655,
                "official_name": "Punkt Przedszkolny Przy Szkole Podstawowej w Rycerce Dolnej",
                "name": "Punkt Przedszkolny Przy Szkole Podstawowej w Rycerce Dolnej",
                "addr:postcode": "34-370",
                "addr:place": "Rycerka Dolna",
                "addr:housenumber": "134b",
                "addr:city:simc": 66312,
                "phone": "+48 338644050",
                "email": "sprycerkadolna@op.pl",
                "ref:regon": "243125756",
                "operator": "Gmina Rajcza",
                "operator:type": "government",
                "amenity": "kindergarten"
            }
        },
        {
            "id": 34213,
            "type": "Feature",
            "geometry": {
                "type": "Point",
                "coordinates": [
                    19.09821,
                    49.50093
                ]
            },
            "properties": {
                "ref:rspo": 34213,
                "official_name": "Dom Wczas\u00f3w Dzieci\u0119cych \"G\u00f3ral\" Towarzystwa Przyjaci\u00f3\u0142 Dzieci Oddzia\u0142u Miejskiego Krakowskiego",
                "name": "Dom Wczas\u00f3w Dzieci\u0119cych \"G\u00f3ral\" Towarzystwa Przyjaci\u00f3\u0142 Dzieci Oddzia\u0142u Miejskiego Krakowskiego",
                "addr:postcode": "34-370",
                "addr:city": "Rajcza",
                "addr:street": "Polna",
                "addr:housenumber": "2c",
                "addr:city:simc": 66051,
                "addr:street:sym_ul": 17011,
                "phone": "+48 338645343",
                "email": "dwdtpd@wp.pl",
                "ref:regon": "243070268",
                "ref:vatin": "PL6762257462",
                "operator": "Oddzia\u0142 Miejski Krakowski Towarzystwa Przyjaci\u00f3\u0142 Dzieci",
                "operator:type": "ngo",
                "leisure": "resort"
            }
        },
        {
            "id": 55919,
            "type": "Feature",
            "geometry": {
                "type": "Point",
                "coordinates": [
                    19.10284,
                    49.50303
                ]
            },
            "properties": {
                "ref:rspo": 55919,
                "official_name": "Niepubliczne Przedszkole J\u0119zykowe \"English House\" Mgr El\u017cbieta Bana\u015b",
                "name": "Niepubliczne Przedszkole J\u0119zykowe \"English House\" Mgr El\u017cbieta Bana\u015b",
                "addr:postcode": "34-370",
                "addr:city": "Rajcza",
                "addr:street": "Ujsolska",
                "addr:housenumber": "3B",
                "addr:city:simc": 66051,
                "addr:street:sym_ul": 23323,
                "phone": "+48 501624054",
                "email": "e.banas@edukacjairozwoj.pl",
                "website": "http:\/\/www.edukacjairozwoj.pl",
                "ref:regon": "243089279",
                "operator": "El\u017cbieta Bana\u015b",
                "operator:type": "private",
                "amenity": "kindergarten"
            }
        },
        {
            "id": 267715,
            "type": "Feature",
            "geometry": {
                "type": "Point",
                "coordinates": [
                    19.1394582,
                    49.503091
                ]
            },
            "properties": {
                "ref:rspo": 267715,
                "official_name": "Szkolne Schronisko M\u0142odzie\u017cowe w Rajczy",
                "name": "Szkolne Schronisko M\u0142odzie\u017cowe w Rajczy",
                "addr:postcode": "34-370",
                "addr:place": "Rajcza",
                "addr:housenumber": "374",
                "addr:city:simc": 66051,
                "phone": "+48 338643355",
                "email": "recepcja@schroniska-ptsm.pl",
                "ref:regon": "380538268",
                "operator": "Fundacja Edukacji Przyrodniczej \"Poznaj Beskidy\"",
                "operator:type": "ngo",
                "tourism": "hostel"
            }
        },
        {
            "id": 267716,
            "type": "Feature",
            "geometry": {
                "type": "Point",
                "coordinates": [
                    19.1394582,
                    49.503060999999995
                ]
            },
            "properties": {
                "ref:rspo": 267716,
                "official_name": "Dom Wczas\u00f3w Dzieci\u0119cych w Rajczy",
                "name": "Dom Wczas\u00f3w Dzieci\u0119cych w Rajczy",
                "addr:postcode": "34-370",
                "addr:place": "Rajcza",
                "addr:housenumber": "374",
                "addr:city:simc": 66051,
                "phone": "+48 338643355",
                "email": "recepcja@schroniska-ptsm.pl",
                "ref:regon": "380538417",
                "operator": "Fundacja Edukacji Przyrodniczej \"Poznaj Beskidy\"",
                "operator:type": "ngo",
                "leisure": "resort"
            }
        },
        {
            "id": 27249,
            "type": "Feature",
            "geometry": {
                "type": "Point",
                "coordinates": [
                    19.0994382,
                    49.5033568
                ]
            },
            "properties": {
                "ref:rspo": 27249,
                "official_name": "Przedszkole w Soli",
                "name": "Przedszkole w Soli",
                "addr:postcode": "34-370",
                "addr:place": "S\u00f3l",
                "addr:housenumber": "202",
                "addr:city:simc": 66714,
                "phone": "+48 338645098",
                "email": "przedszkole.sol@gmail.com",
                "ref:regon": "072359050",
                "ref:vatin": "PL5531746781",
                "operator": "Gmina Rajcza",
                "operator:type": "government",
                "amenity": "kindergarten"
            }
        },
        {
            "id": 29969,
            "type": "Feature",
            "geometry": {
                "type": "Point",
                "coordinates": [
                    19.0994382,
                    49.503326799999996
                ]
            },
            "properties": {
                "isced:level": "1;2",
                "ref:rspo": 29969,
                "official_name": "Szko\u0142a Podstawowa im. Tadeusza Ko\u015bciuszki w Soli",
                "name": "Szko\u0142a Podstawowa",
                "addr:postcode": "34-370",
                "addr:place": "S\u00f3l",
                "addr:housenumber": "111",
                "addr:city:simc": 66714,
                "phone": "+48 338645344",
                "email": "solszkola@gmail.com",
                "ref:regon": "070448950",
                "ref:vatin": "PL5531757589",
                "operator": "Gmina Rajcza",
                "operator:type": "government",
                "amenity": "school"
            }
        },
        {
            "id": 27315,
            "type": "Feature",
            "geometry": {
                "type": "Point",
                "coordinates": [
                    19.10333,
                    49.50464
                ]
            },
            "properties": {
                "isced:level": "1;2",
                "ref:rspo": 27315,
                "official_name": "Szko\u0142a Podstawowa nr 1 im. Ks. J\u00f3zefa Tischnera w Rajczy",
                "name": "Szko\u0142a Podstawowa nr 1",
                "addr:postcode": "34-370",
                "addr:city": "Rajcza",
                "addr:street": "Rynek",
                "addr:housenumber": "2",
                "addr:city:simc": 66051,
                "addr:street:sym_ul": 19252,
                "phone": "+48 338643024",
                "email": "poczta@szkola.rajcza.pl",
                "website": "http:\/\/szkola.rajcza.pl",
                "ref:regon": "070448810",
                "ref:vatin": "PL5531746806",
                "operator": "Gmina Rajcza",
                "operator:type": "government",
                "amenity": "school"
            }
        },
        {
            "id": 27269,
            "type": "Feature",
            "geometry": {
                "type": "Point",
                "coordinates": [
                    19.1023299,
                    49.50518
                ]
            },
            "properties": {
                "ref:rspo": 27269,
                "official_name": "Przedszkole w Rajczy",
                "name": "Przedszkole w Rajczy",
                "addr:postcode": "34-370",
                "addr:city": "Rajcza",
                "addr:street": "Rynek",
                "addr:housenumber": "2A",
                "addr:city:simc": 66051,
                "addr:street:sym_ul": 19252,
                "phone": "+48 338643174",
                "email": "sekretariat@przedszkolerajcza.pl",
                "ref:regon": "072359239",
                "ref:vatin": "PL5531953965",
                "operator": "Gmina Rajcza",
                "operator:type": "government",
                "amenity": "kindergarten"
            }
        },
        {
            "id": 29986,
            "type": "Feature",
            "geometry": {
                "type": "Point",
                "coordinates": [
                    18.9846415,
                    49.5076201
                ]
            },
            "properties": {
                "isced:level": "1;2",
                "ref:rspo": 29986,
                "official_name": "Szko\u0142a Podstawowa im. Kr\u00f3lowej Jadwigi w Zwardoniu",
                "name": "Szko\u0142a Podstawowa",
                "addr:postcode": "34-373",
                "addr:place": "Zwardo\u0144",
                "addr:housenumber": "2b",
                "addr:city:simc": 67010,
                "phone": "+48 338646306",
                "email": "sp@zwardon.dlaedu.pl",
                "ref:regon": "070448980",
                "ref:vatin": "PL5531746864",
                "operator": "Gmina Rajcza",
                "operator:type": "government",
                "amenity": "school"
            }
        },
        {
            "id": 30093,
            "type": "Feature",
            "geometry": {
                "type": "Point",
                "coordinates": [
                    18.9846415,
                    49.507590099999994
                ]
            },
            "properties": {
                "ref:rspo": 30093,
                "official_name": "Przedszkole w Zwardoniu",
                "name": "Przedszkole w Zwardoniu",
                "addr:postcode": "34-373",
                "addr:place": "Zwardo\u0144",
                "addr:housenumber": "18",
                "addr:city:simc": 67010,
                "phone": "+48 338646320",
                "email": "przedszkole_zwardon@poczta.onet.pl",
                "ref:regon": "072359222",
                "ref:vatin": "PL5531953959",
                "operator": "Gmina Rajcza",
                "operator:type": "government",
                "amenity": "kindergarten"
            }
        },
        {
            "id": 52551,
            "type": "Feature",
            "geometry": {
                "type": "Point",
                "coordinates": [
                    19.0331944,
                    49.5190986
                ]
            },
            "properties": {
                "ref:rspo": 52551,
                "official_name": "Zesp\u00f3\u0142 Wychowania Przedszkolnego",
                "name": "Zesp\u00f3\u0142 Wychowania Przedszkolnego",
                "addr:postcode": "34-370",
                "addr:place": "S\u00f3l-Kiczora",
                "addr:housenumber": "297",
                "addr:city:simc": 66766,
                "phone": "+48 338643887",
                "email": "sp.kiczora@gmail.com",
                "ref:regon": "243090578",
                "operator": "Fundacja Ekologiczna - Wychowanie I Sztuka \"Elementarz\"",
                "operator:type": "ngo",
                "amenity": "kindergarten"
            }
        },
        {
            "id": 55920,
            "type": "Feature",
            "geometry": {
                "type": "Point",
                "coordinates": [
                    19.0331944,
                    49.5190686
                ]
            },
            "properties": {
                "isced:level": "1;2",
                "ref:rspo": 55920,
                "official_name": "Szko\u0142a Podstawowa Fundacji \"Elementarz\"",
                "name": "Szko\u0142a Podstawowa Fundacji \"Elementarz\"",
                "addr:postcode": "34-370",
                "addr:place": "S\u00f3l-Kiczora",
                "addr:housenumber": "297",
                "addr:city:simc": 66766,
                "phone": "+48 338645348",
                "email": "sp.kiczora@gmail.com",
                "ref:regon": "243089150",
                "operator": "Fundacja Ekologiczna - Wychowanie I Sztuka \"Elementarz\"",
                "operator:type": "ngo",
                "amenity": "school"
            }
        }
    ]
}