{
    "type": "FeatureCollection",
    "features": [
        {
            "id": 196240,
            "type": "Feature",
            "geometry": {
                "type": "Point",
                "coordinates": [
                    19.15907,
                    49.70033
                ]
            },
            "properties": {
                "ref:rspo": 196240,
                "official_name": "Zesp\u00f3\u0142 Szkolno-Przedszkolny w Pietrzykowicach",
                "name": "Zesp\u00f3\u0142 Szkolno-Przedszkolny w Pietrzykowicach",
                "addr:postcode": "34-326",
                "addr:city": "Pietrzykowice",
                "addr:street": "Tadeusza Ko\u015bciuszki",
                "addr:housenumber": "120",
                "addr:city:simc": 59826,
                "addr:street:sym_ul": 9572,
                "phone": "+48 338632283",
                "email": "sppietrzykowice@poczta.onet.pl",
                "ref:regon": "367991012",
                "ref:vatin": "PL5532541199",
                "operator": "Gmina \u0141odygowice",
                "operator:type": "government",
                "landuse": "education",
                "fixme": "amenity=school, amenity=college albo landuse=education w zale\u017cno\u015bci od tego, jakie plac\u00f3wki wchodz\u0105 w sk\u0142ad zespo\u0142u. Sprawd\u017a, kiedy stosowa\u0107 amenity=* a kiedy landuse=education.",
                "note": "Children RSPO: 107152;262439"
            }
        },
        {
            "id": 107152,
            "type": "Feature",
            "geometry": {
                "type": "Point",
                "coordinates": [
                    19.15907,
                    49.7003
                ]
            },
            "properties": {
                "isced:level": "1;2",
                "ref:rspo": 107152,
                "official_name": "Szko\u0142a Podstawowa im. Jana Paw\u0142a II w Pietrzykowicach",
                "name": "Szko\u0142a Podstawowa",
                "addr:postcode": "34-326",
                "addr:city": "Pietrzykowice",
                "addr:street": "Tadeusza Ko\u015bciuszki",
                "addr:housenumber": "120",
                "addr:city:simc": 59826,
                "addr:street:sym_ul": 9572,
                "phone": "+48 338632283",
                "email": "sppietrzykowice@poczta.onet.pl",
                "website": "http:\/\/www.zspietrzykowice.szkolnastrona.pl",
                "ref:regon": "070688571",
                "operator": "Gmina \u0141odygowice",
                "operator:type": "government",
                "amenity": "school",
                "note": "Parent RSPO: 196240"
            }
        },
        {
            "id": 262439,
            "type": "Feature",
            "geometry": {
                "type": "Point",
                "coordinates": [
                    19.15907,
                    49.70027
                ]
            },
            "properties": {
                "ref:rspo": 262439,
                "official_name": "Przedszkole Publiczne nr 2 w Pietrzykowicach",
                "name": "Przedszkole Publiczne nr 2 w Pietrzykowicach",
                "addr:postcode": "34-326",
                "addr:city": "Pietrzykowice",
                "addr:street": "Tadeusza Ko\u015bciuszki",
                "addr:housenumber": "120",
                "addr:city:simc": 59826,
                "addr:street:sym_ul": 9572,
                "phone": "+48 338632283",
                "email": "sppietrzykowice@poczta.onet.pl",
                "ref:regon": "368013530",
                "operator": "Gmina \u0141odygowice",
                "operator:type": "government",
                "amenity": "kindergarten",
                "note": "Parent RSPO: 196240"
            }
        },
        {
            "id": 55425,
            "type": "Feature",
            "geometry": {
                "type": "Point",
                "coordinates": [
                    19.15915,
                    49.70076
                ]
            },
            "properties": {
                "ref:rspo": 55425,
                "official_name": "Przedszkole Publiczne nr 1 w Pietrzykowicach",
                "name": "Przedszkole Publiczne nr 1 w Pietrzykowicach",
                "addr:postcode": "34-326",
                "addr:city": "Pietrzykowice",
                "addr:street": "Szkolna",
                "addr:housenumber": "1",
                "addr:city:simc": 59826,
                "addr:street:sym_ul": 21970,
                "phone": "+48 338632008",
                "email": "ppietrzykowice@o2.pl",
                "ref:regon": "071014700",
                "ref:vatin": "PL5531999424",
                "operator": "Gmina \u0141odygowice",
                "operator:type": "government",
                "amenity": "kindergarten"
            }
        },
        {
            "id": 107170,
            "type": "Feature",
            "geometry": {
                "type": "Point",
                "coordinates": [
                    19.15728,
                    49.71564
                ]
            },
            "properties": {
                "isced:level": "1;2",
                "ref:rspo": 107170,
                "official_name": "Szko\u0142a Podstawowa nr 3 Specjalna w \u0141odygowicach",
                "name": "Szko\u0142a Podstawowa nr 3 Specjalna w \u0141odygowicach",
                "addr:postcode": "34-325",
                "addr:city": "\u0141odygowice",
                "addr:street": "\u017bywiecka",
                "addr:housenumber": "210",
                "addr:city:simc": 59559,
                "addr:street:sym_ul": 26640,
                "phone": "+48 338631326",
                "email": "sekretariat@zsslodygowice.pl",
                "website": "http:\/\/www.zsslodygowice.pl",
                "ref:regon": "240463688",
                "ref:vatin": "PL5532394781",
                "operator": "Gmina \u0141odygowice",
                "operator:type": "government",
                "amenity": "school"
            }
        },
        {
            "id": 131400,
            "type": "Feature",
            "geometry": {
                "type": "Point",
                "coordinates": [
                    19.15728,
                    49.71561
                ]
            },
            "properties": {
                "ref:rspo": 131400,
                "official_name": "Terapeutyczny Punkt Przedszkolny \"Serduszkowa Kraina\"",
                "name": "Terapeutyczny Punkt Przedszkolny \"Serduszkowa Kraina\"",
                "addr:postcode": "34-325",
                "addr:city": "\u0141odygowice",
                "addr:street": "\u017bywiecka",
                "addr:housenumber": "210",
                "addr:city:simc": 59559,
                "addr:street:sym_ul": 26640,
                "phone": "+48 338631326",
                "email": "sekretariat@zsslodygowice.pl",
                "ref:regon": "365160100",
                "operator": "Gmina \u0141odygowice",
                "operator:type": "government",
                "amenity": "kindergarten"
            }
        },
        {
            "id": 7523,
            "type": "Feature",
            "geometry": {
                "type": "Point",
                "coordinates": [
                    19.1720599,
                    49.71757
                ]
            },
            "properties": {
                "ref:rspo": 7523,
                "official_name": "Szkolne Schronisko M\u0142odzie\u017cowe w Zarzeczu",
                "name": "Szkolne Schronisko M\u0142odzie\u017cowe w Zarzeczu",
                "addr:postcode": "34-325",
                "addr:city": "Zarzecze",
                "addr:street": "Beskidzka",
                "addr:housenumber": "80",
                "addr:city:simc": 59921,
                "addr:street:sym_ul": 1103,
                "phone": "+48 338633581",
                "email": "ssm-zarzecze@zywiec.powiat.pl",
                "website": "http:\/\/www.ssmzarzecze.pl\/",
                "ref:regon": "072641527",
                "ref:vatin": "PL5532201411",
                "operator": "Powiat \u017bywiecki",
                "operator:type": "government",
                "tourism": "hostel"
            }
        },
        {
            "id": 54271,
            "type": "Feature",
            "geometry": {
                "type": "Point",
                "coordinates": [
                    19.16927,
                    49.71854
                ]
            },
            "properties": {
                "ref:rspo": 54271,
                "official_name": "Zesp\u00f3\u0142 Szkolno - Przedszkolny w Zarzeczu",
                "name": "Zesp\u00f3\u0142 Szkolno - Przedszkolny w Zarzeczu",
                "addr:postcode": "34-326",
                "addr:city": "Zarzecze",
                "addr:street": "Stanis\u0142awa Staszica",
                "addr:housenumber": "8",
                "addr:city:simc": 59921,
                "addr:street:sym_ul": 21065,
                "phone": "+48 338633583",
                "email": "spzarzecze@wp.pl",
                "ref:regon": "240813869",
                "ref:vatin": "PL5532410474",
                "operator": "Gmina \u0141odygowice",
                "operator:type": "government",
                "landuse": "education",
                "fixme": "amenity=school, amenity=college albo landuse=education w zale\u017cno\u015bci od tego, jakie plac\u00f3wki wchodz\u0105 w sk\u0142ad zespo\u0142u. Sprawd\u017a, kiedy stosowa\u0107 amenity=* a kiedy landuse=education.",
                "note": "Children RSPO: 107159;107160"
            }
        },
        {
            "id": 107159,
            "type": "Feature",
            "geometry": {
                "type": "Point",
                "coordinates": [
                    19.16927,
                    49.718509999999995
                ]
            },
            "properties": {
                "isced:level": "1;2",
                "ref:rspo": 107159,
                "official_name": "Szko\u0142a Podstawowa im. Kornela Makuszy\u0144skiego w Zarzeczu",
                "name": "Szko\u0142a Podstawowa",
                "addr:postcode": "34-326",
                "addr:city": "Zarzecze",
                "addr:street": "Stanis\u0142awa Staszica",
                "addr:housenumber": "8",
                "addr:city:simc": 59921,
                "addr:street:sym_ul": 21065,
                "phone": "+48 338633583",
                "email": "spzarzecze@wp.pl",
                "ref:regon": "070688542",
                "operator": "Gmina \u0141odygowice",
                "operator:type": "government",
                "amenity": "school",
                "note": "Parent RSPO: 54271"
            }
        },
        {
            "id": 107160,
            "type": "Feature",
            "geometry": {
                "type": "Point",
                "coordinates": [
                    19.16927,
                    49.71848
                ]
            },
            "properties": {
                "ref:rspo": 107160,
                "official_name": "Przedszkole Publiczne w Zarzeczu",
                "name": "Przedszkole Publiczne w Zarzeczu",
                "addr:postcode": "34-326",
                "addr:city": "Zarzecze",
                "addr:street": "Stanis\u0142awa Staszica",
                "addr:housenumber": "8",
                "addr:city:simc": 59921,
                "addr:street:sym_ul": 21065,
                "phone": "+48 338633583",
                "email": "spzarzecze@wp.pl",
                "ref:regon": "071014716",
                "operator": "Gmina \u0141odygowice",
                "operator:type": "government",
                "amenity": "kindergarten",
                "note": "Parent RSPO: 54271"
            }
        },
        {
            "id": 55306,
            "type": "Feature",
            "geometry": {
                "type": "Point",
                "coordinates": [
                    19.14808,
                    49.7224999
                ]
            },
            "properties": {
                "ref:rspo": 55306,
                "official_name": "Przedszkole Publiczne nr 1 im. Ottona Klobusa w \u0141odygowicach",
                "name": "Przedszkole Publiczne nr 1",
                "addr:postcode": "34-325",
                "addr:city": "\u0141odygowice",
                "addr:street": "J\u00f3zefa Pi\u0142sudskiego",
                "addr:housenumber": "4",
                "addr:city:simc": 59559,
                "addr:street:sym_ul": 16252,
                "phone": "+48 338631853",
                "email": "prz1ottonklobus@op.pl",
                "ref:regon": "071014685",
                "ref:vatin": "PL5531999418",
                "operator": "Gmina \u0141odygowice",
                "operator:type": "government",
                "amenity": "kindergarten"
            }
        },
        {
            "id": 277837,
            "type": "Feature",
            "geometry": {
                "type": "Point",
                "coordinates": [
                    19.14132,
                    49.72442
                ]
            },
            "properties": {
                "ref:rspo": 277837,
                "official_name": "Niepubliczne Przedszkole Pluszowy Zak\u0105tek",
                "name": "Niepubliczne Przedszkole Pluszowy Zak\u0105tek",
                "addr:postcode": "34-325",
                "addr:city": "\u0141odygowice",
                "addr:street": "Kolejowa",
                "addr:housenumber": "24",
                "addr:city:simc": 59559,
                "addr:street:sym_ul": 8828,
                "phone": "+48 607532520",
                "email": "pluszowyzakatek1@gmail.com",
                "ref:regon": "389578051",
                "ref:vatin": "PL5532493632",
                "operator": "Anna Bistyga",
                "operator:type": "private",
                "amenity": "kindergarten"
            }
        },
        {
            "id": 107060,
            "type": "Feature",
            "geometry": {
                "type": "Point",
                "coordinates": [
                    19.14484,
                    49.72534
                ]
            },
            "properties": {
                "isced:level": "1;2",
                "ref:rspo": 107060,
                "official_name": "Szko\u0142a Podstawowa nr 1 im. Kr\u00f3lowej Jadwigi w \u0141odygowicach",
                "name": "Szko\u0142a Podstawowa nr 1",
                "addr:postcode": "34-325",
                "addr:city": "\u0141odygowice",
                "addr:street": "Okr\u0119\u017cna",
                "addr:housenumber": "1",
                "addr:city:simc": 59559,
                "addr:street:sym_ul": 14907,
                "phone": "+48 338620627",
                "email": "zs1lodygowice@interia.pl",
                "website": "http:\/\/www.lodygowice.edu.pl",
                "ref:regon": "070688559",
                "ref:vatin": "PL5532426848",
                "operator": "Gmina \u0141odygowice",
                "operator:type": "government",
                "amenity": "school"
            }
        },
        {
            "id": 107198,
            "type": "Feature",
            "geometry": {
                "type": "Point",
                "coordinates": [
                    19.1289,
                    49.73433
                ]
            },
            "properties": {
                "isced:level": "1;2",
                "ref:rspo": 107198,
                "official_name": "Szko\u0142a Podstawowa nr 2 im. W\u0142adys\u0142awa Jagie\u0142\u0142y w \u0141odygowicach",
                "name": "Szko\u0142a Podstawowa nr 2",
                "addr:postcode": "34-325",
                "addr:city": "\u0141odygowice",
                "addr:street": "J\u00f3zefa Pi\u0142sudskiego",
                "addr:housenumber": "121",
                "addr:city:simc": 59559,
                "addr:street:sym_ul": 16252,
                "phone": "+48 338631581",
                "email": "zso_lodygowice@poczta.onet.pl",
                "ref:regon": "070688565",
                "ref:vatin": "PL5532572975",
                "operator": "Gmina \u0141odygowice",
                "operator:type": "government",
                "amenity": "school"
            }
        },
        {
            "id": 124094,
            "type": "Feature",
            "geometry": {
                "type": "Point",
                "coordinates": [
                    19.1289,
                    49.7343
                ]
            },
            "properties": {
                "ref:rspo": 124094,
                "official_name": "Prywatne Przedszkole Elf Mgr Agnieszka Bujakowska",
                "name": "Prywatne Przedszkole Elf Mgr Agnieszka Bujakowska",
                "addr:postcode": "34-325",
                "addr:city": "\u0141odygowice",
                "addr:street": "J\u00f3zefa Pi\u0142sudskiego",
                "addr:housenumber": "121",
                "addr:city:simc": 59559,
                "addr:street:sym_ul": 16252,
                "phone": "+48 502132765",
                "email": "agabuj43@interia.pl",
                "website": "http:\/\/www.przedszkole-elf.pl",
                "ref:regon": "243643244",
                "ref:vatin": "PL5471952599",
                "operator": "Agnieszka Bujakowska",
                "operator:type": "private",
                "amenity": "kindergarten"
            }
        },
        {
            "id": 55363,
            "type": "Feature",
            "geometry": {
                "type": "Point",
                "coordinates": [
                    19.1284199,
                    49.73447
                ]
            },
            "properties": {
                "ref:rspo": 55363,
                "official_name": "Przedszkole Publiczne nr 2 w \u0141odygowicach",
                "name": "Przedszkole Publiczne nr 2 w \u0141odygowicach",
                "addr:postcode": "34-325",
                "addr:city": "\u0141odygowice",
                "addr:street": "J\u00f3zefa Pi\u0142sudskiego",
                "addr:housenumber": "127",
                "addr:city:simc": 59559,
                "addr:street:sym_ul": 16252,
                "phone": "+48 338631585",
                "email": "przedszkole_2@onet.eu",
                "ref:regon": "071014691",
                "ref:vatin": "PL5531999370",
                "operator": "Gmina \u0141odygowice",
                "operator:type": "government",
                "amenity": "kindergarten"
            }
        }
    ]
}