{
    "type": "FeatureCollection",
    "features": [
        {
            "id": 131005,
            "type": "Feature",
            "geometry": {
                "type": "Point",
                "coordinates": [
                    19.1266,
                    49.6644099
                ]
            },
            "properties": {
                "ref:rspo": 131005,
                "official_name": "Zesp\u00f3\u0142 Szkolno-Przedszkolny w Twardorzeczce",
                "name": "Zesp\u00f3\u0142 Szkolno-Przedszkolny w Twardorzeczce",
                "addr:country": "PL",
                "addr:postcode": "34-324",
                "addr:city": "Twardorzeczka",
                "addr:street": "Widokowa",
                "addr:housenumber": "204",
                "addr:teryt:simc": 59097,
                "addr:teryt:sym_ul": 24012,
                "contact:phone": "+48 338671252",
                "contact:email": "gm-twardorzeczka@oswiata.org.pl",
                "contact:website": "http:\/\/www.gm-twardorzeczka.pl",
                "ref:regon": "364858838",
                "ref:vatin": "PL5532527650",
                "operator": "Gmina Lipowa",
                "operator:type": "government",
                "landuse": "education",
                "fixme": "amenity=school, amenity=college albo landuse=education w zale\u017cno\u015bci od tego, jakie plac\u00f3wki wchodz\u0105 w sk\u0142ad zespo\u0142u. Sprawd\u017a, kiedy stosowa\u0107 amenity=* a kiedy landuse=education.",
                "note": "Children RSPO: 61801;75413"
            }
        },
        {
            "id": 61801,
            "type": "Feature",
            "geometry": {
                "type": "Point",
                "coordinates": [
                    19.1266,
                    49.6643799
                ]
            },
            "properties": {
                "ref:rspo": 61801,
                "official_name": "Przedszkole w Twardorzeczce",
                "name": "Przedszkole w Twardorzeczce",
                "addr:country": "PL",
                "addr:postcode": "34-324",
                "addr:city": "Twardorzeczka",
                "addr:street": "Widokowa",
                "addr:housenumber": "204",
                "addr:teryt:simc": 59097,
                "addr:teryt:sym_ul": 24012,
                "contact:phone": "+48 338671252",
                "contact:email": "gm-twardorzeczka@oswiata.org.pl",
                "contact:website": "http:\/\/www.gm-twardorzeczka.pl",
                "ref:regon": "072352020",
                "ref:vatin": "PL5532126282",
                "operator": "Gmina Lipowa",
                "operator:type": "government",
                "amenity": "kindergarten",
                "note": "Parent RSPO: 131005"
            }
        },
        {
            "id": 75413,
            "type": "Feature",
            "geometry": {
                "type": "Point",
                "coordinates": [
                    19.1266,
                    49.664349900000005
                ]
            },
            "properties": {
                "isced:level": "1;2",
                "ref:rspo": 75413,
                "official_name": "Szko\u0142a Podstawowa im.jana Paw\u0142a II w Twardorzeczce",
                "name": "Szko\u0142a Podstawowa im.jana Paw\u0142a II w Twardorzeczce",
                "addr:country": "PL",
                "addr:postcode": "34-324",
                "addr:city": "Twardorzeczka",
                "addr:street": "Widokowa",
                "addr:housenumber": "204",
                "addr:teryt:simc": 59097,
                "addr:teryt:sym_ul": 24012,
                "contact:phone": "+48 338671252",
                "contact:email": "gm-twardorzeczka@oswiata.org.pl",
                "contact:website": "http:\/\/www.gm-twardorzeczka.pl",
                "ref:regon": "070449056",
                "ref:vatin": "PL5532126170",
                "operator": "Gmina Lipowa",
                "operator:type": "government",
                "amenity": "school",
                "note": "Parent RSPO: 131005"
            }
        },
        {
            "id": 267215,
            "type": "Feature",
            "geometry": {
                "type": "Point",
                "coordinates": [
                    19.13663,
                    49.67134
                ]
            },
            "properties": {
                "ref:rspo": 267215,
                "official_name": "Zesp\u00f3\u0142 Szkolno-Przedszkolny w Lipowej",
                "name": "Zesp\u00f3\u0142 Szkolno-Przedszkolny w Lipowej",
                "addr:country": "PL",
                "addr:postcode": "34-324",
                "addr:city": "Lipowa",
                "addr:street": "Jana Paw\u0142a II",
                "addr:housenumber": "3",
                "addr:teryt:simc": 58821,
                "addr:teryt:sym_ul": 7123,
                "contact:phone": "+48 338671379",
                "contact:email": "sp_lipowa@interia.pl",
                "contact:website": "http:\/\/www.zsplipowa.pl",
                "ref:regon": "380015091",
                "ref:vatin": "PL5532555072",
                "operator": "Gmina Lipowa",
                "operator:type": "government",
                "landuse": "education",
                "fixme": "amenity=school, amenity=college albo landuse=education w zale\u017cno\u015bci od tego, jakie plac\u00f3wki wchodz\u0105 w sk\u0142ad zespo\u0142u. Sprawd\u017a, kiedy stosowa\u0107 amenity=* a kiedy landuse=education.",
                "note": "Children RSPO: 61798;75415"
            }
        },
        {
            "id": 61798,
            "type": "Feature",
            "geometry": {
                "type": "Point",
                "coordinates": [
                    19.13663,
                    49.67131
                ]
            },
            "properties": {
                "ref:rspo": 61798,
                "official_name": "Przedszkole w Lipowej",
                "name": "Przedszkole w Lipowej",
                "addr:country": "PL",
                "addr:postcode": "34-324",
                "addr:city": "Lipowa",
                "addr:street": "Jana Paw\u0142a II",
                "addr:housenumber": "3",
                "addr:teryt:simc": 58821,
                "addr:teryt:sym_ul": 7123,
                "contact:phone": "+48 338671675",
                "contact:email": "przed.lipowa@wp.pl",
                "contact:website": "http:\/\/www.zsplipowa.pl",
                "ref:regon": "072347348",
                "ref:vatin": "PL5532126299",
                "operator": "Gmina Lipowa",
                "operator:type": "government",
                "amenity": "kindergarten",
                "note": "Parent RSPO: 267215"
            }
        },
        {
            "id": 75415,
            "type": "Feature",
            "geometry": {
                "type": "Point",
                "coordinates": [
                    19.13663,
                    49.67128
                ]
            },
            "properties": {
                "isced:level": "1;2",
                "ref:rspo": 75415,
                "official_name": "Szko\u0142a Podstawowa im.krzysztofa Kamila Baczy\u0144skiego w Lipowej",
                "name": "Szko\u0142a Podstawowa im.krzysztofa Kamila Baczy\u0144skiego w Lipowej",
                "addr:country": "PL",
                "addr:postcode": "34-324",
                "addr:city": "Lipowa",
                "addr:street": "Jana Paw\u0142a II",
                "addr:housenumber": "3",
                "addr:teryt:simc": 58821,
                "addr:teryt:sym_ul": 7123,
                "contact:phone": "+48 338671379",
                "contact:email": "sp_lipowa@interia.pl",
                "contact:website": "http:\/\/www.zsplipowa.pl",
                "ref:regon": "070449228",
                "ref:vatin": "PL5532126856",
                "operator": "Gmina Lipowa",
                "operator:type": "government",
                "amenity": "school",
                "note": "Parent RSPO: 267215"
            }
        },
        {
            "id": 262261,
            "type": "Feature",
            "geometry": {
                "type": "Point",
                "coordinates": [
                    19.136079788208,
                    49.671409606934
                ]
            },
            "properties": {
                "ref:rspo": 262261,
                "official_name": "Zesp\u00f3\u0142 Szkolno-Przedszkolny w Le\u015bnej",
                "name": "Zesp\u00f3\u0142 Szkolno-Przedszkolny w Le\u015bnej",
                "addr:country": "PL",
                "addr:postcode": "34-300",
                "addr:city": "Le\u015bna",
                "addr:street": "\u015awi\u0119tego Micha\u0142a Archanio\u0142a",
                "addr:housenumber": "140",
                "addr:teryt:simc": 58790,
                "addr:teryt:sym_ul": 45683,
                "contact:phone": "+48 338671092",
                "contact:email": "kontakt@lesna.edu.pl",
                "contact:website": "http:\/\/www.lesna.edu.pl",
                "ref:regon": "367993436",
                "ref:vatin": "PL5532540969",
                "operator": "Gmina Lipowa",
                "operator:type": "government",
                "landuse": "education",
                "fixme": "amenity=school, amenity=college albo landuse=education w zale\u017cno\u015bci od tego, jakie plac\u00f3wki wchodz\u0105 w sk\u0142ad zespo\u0142u. Sprawd\u017a, kiedy stosowa\u0107 amenity=* a kiedy landuse=education.",
                "note": "Children RSPO: 61800;75417"
            }
        },
        {
            "id": 61800,
            "type": "Feature",
            "geometry": {
                "type": "Point",
                "coordinates": [
                    19.136079788208,
                    49.671379606933996
                ]
            },
            "properties": {
                "ref:rspo": 61800,
                "official_name": "Przedszkole w Le\u015bnej",
                "name": "Przedszkole w Le\u015bnej",
                "addr:country": "PL",
                "addr:postcode": "34-300",
                "addr:city": "Le\u015bna",
                "addr:street": "\u015awi\u0119tego Micha\u0142a Archanio\u0142a",
                "addr:housenumber": "140",
                "addr:teryt:simc": 58790,
                "addr:teryt:sym_ul": 45683,
                "contact:phone": "+48 338671092",
                "contact:email": "kontakt@lesna.edu.pl",
                "contact:website": "http:\/\/www.lesna.edu.pl",
                "ref:regon": "072353225",
                "ref:vatin": "PL5532126253",
                "operator": "Gmina Lipowa",
                "operator:type": "government",
                "amenity": "kindergarten",
                "note": "Parent RSPO: 262261"
            }
        },
        {
            "id": 75417,
            "type": "Feature",
            "geometry": {
                "type": "Point",
                "coordinates": [
                    19.136079788208,
                    49.671349606934
                ]
            },
            "properties": {
                "isced:level": "1;2",
                "ref:rspo": 75417,
                "official_name": "Szko\u0142a Podstawowa im.kornela Makuszy\u0144skiego w Le\u015bnej",
                "name": "Szko\u0142a Podstawowa im.kornela Makuszy\u0144skiego w Le\u015bnej",
                "addr:country": "PL",
                "addr:postcode": "34-300",
                "addr:city": "Le\u015bna",
                "addr:street": "\u015awi\u0119tego Micha\u0142a Archanio\u0142a",
                "addr:housenumber": "140",
                "addr:teryt:simc": 58790,
                "addr:teryt:sym_ul": 45683,
                "contact:phone": "+48 338671092",
                "contact:email": "kontakt@lesna.edu.pl",
                "contact:website": "http:\/\/www.lesna.edu.pl",
                "ref:regon": "070449100",
                "ref:vatin": "PL5532126193",
                "operator": "Gmina Lipowa",
                "operator:type": "government",
                "amenity": "school",
                "note": "Parent RSPO: 262261"
            }
        },
        {
            "id": 133999,
            "type": "Feature",
            "geometry": {
                "type": "Point",
                "coordinates": [
                    19.143730163574,
                    49.675811767578
                ]
            },
            "properties": {
                "ref:rspo": 133999,
                "official_name": "Zesp\u00f3\u0142 Szkolno-Przedszkolny w Siennej",
                "name": "Zesp\u00f3\u0142 Szkolno-Przedszkolny w Siennej",
                "addr:country": "PL",
                "addr:postcode": "34-300",
                "addr:city": "Sienna",
                "addr:street": "\u015awi\u0119tej Jadwigi \u015al\u0105skiej",
                "addr:housenumber": "50",
                "addr:teryt:simc": 58979,
                "addr:teryt:sym_ul": 42237,
                "contact:phone": "+48 338671859",
                "contact:email": "sekretariat@spsienna.pl",
                "contact:website": "http:\/\/spsienna.pl",
                "ref:regon": "367769696",
                "ref:vatin": "PL5532540975",
                "operator": "Gmina Lipowa",
                "operator:type": "government",
                "landuse": "education",
                "fixme": "amenity=school, amenity=college albo landuse=education w zale\u017cno\u015bci od tego, jakie plac\u00f3wki wchodz\u0105 w sk\u0142ad zespo\u0142u. Sprawd\u017a, kiedy stosowa\u0107 amenity=* a kiedy landuse=education.",
                "note": "Children RSPO: 61799;75412"
            }
        },
        {
            "id": 61799,
            "type": "Feature",
            "geometry": {
                "type": "Point",
                "coordinates": [
                    19.143730163574,
                    49.675781767577995
                ]
            },
            "properties": {
                "ref:rspo": 61799,
                "official_name": "Przedszkole w Siennej",
                "name": "Przedszkole w Siennej",
                "addr:country": "PL",
                "addr:postcode": "34-300",
                "addr:city": "Sienna",
                "addr:street": "\u015awi\u0119tej Jadwigi \u015al\u0105skiej",
                "addr:housenumber": "50",
                "addr:teryt:simc": 58979,
                "addr:teryt:sym_ul": 42237,
                "contact:phone": "+48 338671859",
                "contact:email": "sekretariat@spsienna.pl",
                "ref:regon": "072346308",
                "ref:vatin": "PL5532126276",
                "operator": "Gmina Lipowa",
                "operator:type": "government",
                "amenity": "kindergarten",
                "note": "Parent RSPO: 133999"
            }
        },
        {
            "id": 75412,
            "type": "Feature",
            "geometry": {
                "type": "Point",
                "coordinates": [
                    19.143730163574,
                    49.675751767578
                ]
            },
            "properties": {
                "isced:level": "1;2",
                "ref:rspo": 75412,
                "official_name": "Szko\u0142a Podstawowa im. Ks.jana Twardowskiego w Siennej",
                "name": "Szko\u0142a Podstawowa",
                "addr:country": "PL",
                "addr:postcode": "34-300",
                "addr:city": "Sienna",
                "addr:street": "\u015awi\u0119tej Jadwigi \u015al\u0105skiej",
                "addr:housenumber": "50",
                "addr:teryt:simc": 58979,
                "addr:teryt:sym_ul": 42237,
                "contact:phone": "+48 338671859",
                "contact:email": "sekretariat@spsienna.pl",
                "contact:website": "http:\/\/www.spsienna.pl",
                "ref:regon": "070449085",
                "ref:vatin": "PL5532126201",
                "operator": "Gmina Lipowa",
                "operator:type": "government",
                "amenity": "school",
                "note": "Parent RSPO: 133999"
            }
        },
        {
            "id": 3815,
            "type": "Feature",
            "geometry": {
                "type": "Point",
                "coordinates": [
                    19.073059082031,
                    49.69794845581
                ]
            },
            "properties": {
                "ref:rspo": 3815,
                "official_name": "Zesp\u00f3\u0142 Szkolno-Przedszkolny w S\u0142otwinie",
                "name": "Zesp\u00f3\u0142 Szkolno-Przedszkolny w S\u0142otwinie",
                "addr:country": "PL",
                "addr:postcode": "34-324",
                "addr:city": "S\u0142otwina",
                "addr:street": "Ksi\u0119dza Ferdynanda Sznajdrowicza",
                "addr:housenumber": "11",
                "addr:teryt:simc": 58985,
                "addr:teryt:sym_ul": 50839,
                "contact:phone": "+48 338671325",
                "contact:email": "sekretariat@spslotwina.edu.pl",
                "contact:website": "http:\/\/spslotwina.edu.pl",
                "ref:regon": "243012058",
                "ref:vatin": "PL5532511347",
                "operator": "Gmina Lipowa",
                "operator:type": "government",
                "landuse": "education",
                "fixme": "amenity=school, amenity=college albo landuse=education w zale\u017cno\u015bci od tego, jakie plac\u00f3wki wchodz\u0105 w sk\u0142ad zespo\u0142u. Sprawd\u017a, kiedy stosowa\u0107 amenity=* a kiedy landuse=education.",
                "note": "Children RSPO: 5338;5339"
            }
        },
        {
            "id": 5338,
            "type": "Feature",
            "geometry": {
                "type": "Point",
                "coordinates": [
                    19.073059082031,
                    49.69791845581
                ]
            },
            "properties": {
                "isced:level": "1;2",
                "ref:rspo": 5338,
                "official_name": "Szko\u0142a Podstawowa im.or\u0142a Bia\u0142ego w S\u0142otwinie",
                "name": "Szko\u0142a Podstawowa im.or\u0142a Bia\u0142ego w S\u0142otwinie",
                "addr:country": "PL",
                "addr:postcode": "34-324",
                "addr:city": "S\u0142otwina",
                "addr:street": "Ksi\u0119dza Ferdynanda Sznajdrowicza",
                "addr:housenumber": "11",
                "addr:teryt:simc": 58985,
                "addr:teryt:sym_ul": 50839,
                "contact:phone": "+48 338671325",
                "contact:email": "sekretariat@spslotwina.edu.pl",
                "contact:website": "http:\/\/spslotwina.edu.pl",
                "ref:regon": "070449079",
                "ref:vatin": "PL5532126164",
                "operator": "Gmina Lipowa",
                "operator:type": "government",
                "amenity": "school",
                "note": "Parent RSPO: 3815"
            }
        },
        {
            "id": 5339,
            "type": "Feature",
            "geometry": {
                "type": "Point",
                "coordinates": [
                    19.073059082031,
                    49.69788845581
                ]
            },
            "properties": {
                "ref:rspo": 5339,
                "official_name": "Przedszkole w S\u0142otwinie",
                "name": "Przedszkole w S\u0142otwinie",
                "addr:country": "PL",
                "addr:postcode": "34-324",
                "addr:city": "S\u0142otwina",
                "addr:street": "Ksi\u0119dza Ferdynanda Sznajdrowicza",
                "addr:housenumber": "11",
                "addr:teryt:simc": 58985,
                "addr:teryt:sym_ul": 50839,
                "contact:phone": "+48 338671325",
                "contact:email": "sekretariat@spslotwina.edu.pl",
                "contact:website": "http:\/\/spslotwina.edu.pl",
                "ref:regon": "072346952",
                "ref:vatin": "PL5532126247",
                "operator": "Gmina Lipowa",
                "operator:type": "government",
                "amenity": "kindergarten",
                "note": "Parent RSPO: 3815"
            }
        }
    ]
}