{
    "type": "FeatureCollection",
    "features": [
        {
            "id": 28206,
            "type": "Feature",
            "geometry": {
                "type": "Point",
                "coordinates": [
                    19.09519,
                    49.57692
                ]
            },
            "properties": {
                "ref:rspo": 28206,
                "official_name": "Publiczne Przedszkole nr 2 w Ci\u015bcu",
                "name": "Publiczne Przedszkole nr 2 w Ci\u015bcu",
                "addr:postcode": "34-350",
                "addr:city": "Cisiec",
                "addr:street": "Cisowa",
                "addr:housenumber": "49",
                "addr:city:simc": 75216,
                "addr:street:sym_ul": 3098,
                "phone": "+48 338641306",
                "email": "przedszkole2cisiec@gmail.com",
                "website": "http:\/\/www.cisiec2.e-przedszkolak.eu",
                "ref:regon": "070560629",
                "ref:vatin": "PL5532167482",
                "operator": "Gmina W\u0119gierska G\u00f3rka",
                "operator:type": "government",
                "amenity": "kindergarten"
            }
        },
        {
            "id": 79961,
            "type": "Feature",
            "geometry": {
                "type": "Point",
                "coordinates": [
                    19.10249,
                    49.5813
                ]
            },
            "properties": {
                "isced:level": "1;2",
                "ref:rspo": 79961,
                "official_name": "Szko\u0142a Podstawowa im.jana Paw\u0142a II z Siedzib\u0105 w Ci\u015bcu",
                "name": "Szko\u0142a Podstawowa im.jana Paw\u0142a II z Siedzib\u0105 w Ci\u015bcu",
                "addr:postcode": "34-350",
                "addr:city": "Cisiec",
                "addr:street": "Szkolna",
                "addr:housenumber": "6",
                "addr:city:simc": 75216,
                "addr:street:sym_ul": 21970,
                "phone": "+48 338641416",
                "email": "spcisiec@poczta.onet.pl",
                "website": "http:\/\/www.zspcisiec.com",
                "ref:regon": "070448789",
                "ref:vatin": "PL5532265931",
                "operator": "Gmina W\u0119gierska G\u00f3rka",
                "operator:type": "government",
                "amenity": "school"
            }
        },
        {
            "id": 28180,
            "type": "Feature",
            "geometry": {
                "type": "Point",
                "coordinates": [
                    19.10256,
                    49.58402
                ]
            },
            "properties": {
                "ref:rspo": 28180,
                "official_name": "Przedszkole Nr1 w Ci\u015bcu",
                "name": "Przedszkole Nr1 w Ci\u015bcu",
                "addr:postcode": "34-350",
                "addr:city": "Cisiec",
                "addr:street": "Prymasa Stefana Wyszy\u0144skiego",
                "addr:housenumber": "197",
                "addr:city:simc": 75216,
                "addr:street:sym_ul": 25119,
                "phone": "+48 338641585",
                "email": "cisiec_p@wp.pl",
                "ref:regon": "070560612",
                "ref:vatin": "PL5532167499",
                "operator": "Gmina W\u0119gierska G\u00f3rka",
                "operator:type": "government",
                "amenity": "kindergarten"
            }
        },
        {
            "id": 28159,
            "type": "Feature",
            "geometry": {
                "type": "Point",
                "coordinates": [
                    19.14572,
                    49.5841
                ]
            },
            "properties": {
                "ref:rspo": 28159,
                "official_name": "Przedszkole w \u017babnicy",
                "name": "Przedszkole w \u017babnicy",
                "addr:postcode": "34-350",
                "addr:city": "\u017babnica",
                "addr:street": "Szkolna",
                "addr:housenumber": "3",
                "addr:city:simc": 75274,
                "addr:street:sym_ul": 21970,
                "phone": "+48 338641303",
                "ref:regon": "070397313",
                "operator": "Gmina W\u0119gierska G\u00f3rka",
                "operator:type": "government",
                "amenity": "kindergarten"
            }
        },
        {
            "id": 79755,
            "type": "Feature",
            "geometry": {
                "type": "Point",
                "coordinates": [
                    19.1461,
                    49.5848299
                ]
            },
            "properties": {
                "isced:level": "1;2",
                "ref:rspo": 79755,
                "official_name": "Szko\u0142a Podstawowa im.partyzant\u00f3w Polskich w \u017babnicy",
                "name": "Szko\u0142a Podstawowa im.partyzant\u00f3w Polskich w \u017babnicy",
                "addr:postcode": "34-350",
                "addr:city": "\u017babnica",
                "addr:street": "Szkolna",
                "addr:housenumber": "6",
                "addr:city:simc": 75274,
                "addr:street:sym_ul": 21970,
                "phone": "+48 338641418",
                "email": "spzabnica@poczta.onet.pl",
                "website": "http:\/\/www.spzabnica.pl",
                "ref:regon": "070448803",
                "ref:vatin": "PL5532167565",
                "operator": "Gmina W\u0119gierska G\u00f3rka",
                "operator:type": "government",
                "amenity": "school"
            }
        },
        {
            "id": 28158,
            "type": "Feature",
            "geometry": {
                "type": "Point",
                "coordinates": [
                    19.15826,
                    49.5937
                ]
            },
            "properties": {
                "isced:level": "1;2",
                "ref:rspo": 28158,
                "official_name": "Szko\u0142a Podstawowa nr 2 im. \u015aw. Franciszka z Asy\u017cu w Ci\u0119cinie",
                "name": "Szko\u0142a Podstawowa nr 2",
                "addr:postcode": "34-350",
                "addr:city": "Ci\u0119cina",
                "addr:street": "\u015awi\u0119tej Katarzyny",
                "addr:housenumber": "246",
                "addr:city:simc": 75127,
                "addr:street:sym_ul": 40375,
                "phone": "+48 338641415",
                "email": "spnr2-ciecina@o2.pl",
                "website": "http:\/\/www.sp2ciecina.szkolnastrona.pl",
                "ref:regon": "070448772",
                "operator": "Gmina W\u0119gierska G\u00f3rka",
                "operator:type": "government",
                "amenity": "school"
            }
        },
        {
            "id": 28489,
            "type": "Feature",
            "geometry": {
                "type": "Point",
                "coordinates": [
                    19.1134999,
                    49.60404
                ]
            },
            "properties": {
                "ref:rspo": 28489,
                "official_name": "Przedszkole \"Zaczarowany Las\" w W\u0119gierskiej G\u00f3rce",
                "name": "Przedszkole \"Zaczarowany Las\" w W\u0119gierskiej G\u00f3rce",
                "addr:postcode": "34-350",
                "addr:city": "W\u0119gierska G\u00f3rka",
                "addr:street": "Zielona",
                "addr:housenumber": "39",
                "addr:city:simc": 75268,
                "addr:street:sym_ul": 26081,
                "phone": "+48 338641167",
                "email": "u.kakol@gmail.com",
                "website": "http:\/\/www.przedszkole_wg.przedszkolowo.pl",
                "ref:regon": "070560641",
                "ref:vatin": "PL5532167476",
                "operator": "Gmina W\u0119gierska G\u00f3rka",
                "operator:type": "government",
                "amenity": "kindergarten"
            }
        },
        {
            "id": 86052,
            "type": "Feature",
            "geometry": {
                "type": "Point",
                "coordinates": [
                    19.11422,
                    49.60433
                ]
            },
            "properties": {
                "isced:level": "1;2",
                "ref:rspo": 86052,
                "official_name": "Szko\u0142a Podstawowa im.obro\u0144c\u00f3w W\u0119gierskiej G\u00f3rki w W\u0119gierskiej G\u00f3rce",
                "name": "Szko\u0142a Podstawowa im.obro\u0144c\u00f3w W\u0119gierskiej G\u00f3rki w W\u0119gierskiej G\u00f3rce",
                "addr:postcode": "34-350",
                "addr:city": "W\u0119gierska G\u00f3rka",
                "addr:street": "Zielona",
                "addr:housenumber": "41",
                "addr:city:simc": 75268,
                "addr:street:sym_ul": 26081,
                "phone": "+48 338641417",
                "email": "spwg@vp.pl",
                "website": "http:\/\/szkolawg.2ap.pl",
                "ref:regon": "070448795",
                "ref:vatin": "PL5532167588",
                "operator": "Gmina W\u0119gierska G\u00f3rka",
                "operator:type": "government",
                "amenity": "school"
            }
        },
        {
            "id": 79825,
            "type": "Feature",
            "geometry": {
                "type": "Point",
                "coordinates": [
                    19.11948,
                    49.6061
                ]
            },
            "properties": {
                "ref:rspo": 79825,
                "official_name": "Nowatorownia Benedykt Biegun",
                "name": "Nowatorownia Benedykt Biegun",
                "addr:postcode": "34-350",
                "addr:city": "W\u0119gierska G\u00f3rka",
                "addr:street": "Tadeusza Ko\u015bciuszki",
                "addr:housenumber": "35",
                "addr:city:simc": 75268,
                "addr:street:sym_ul": 9572,
                "phone": "+48 531591956",
                "email": "kontakt@akukuwg.pl",
                "website": "http:\/\/www.akukuwg.pl",
                "ref:regon": "243099651",
                "ref:vatin": "PL5532166778",
                "operator": "Nowatorownia Benedykt Biegun; Przedszkole Niepubliczne \"Akuku\"",
                "operator:type": "consortium",
                "amenity": "kindergarten"
            }
        },
        {
            "id": 7522,
            "type": "Feature",
            "geometry": {
                "type": "Point",
                "coordinates": [
                    19.12355,
                    49.60808
                ]
            },
            "properties": {
                "ref:rspo": 7522,
                "official_name": "Zesp\u00f3\u0142 Szk\u00f3\u0142 Zawodowych im. Prof. Jerzego Buzka w W\u0119gierskiej G\u00f3rce",
                "name": "Zesp\u00f3\u0142 Szk\u00f3\u0142 Zawodowych",
                "addr:postcode": "34-350",
                "addr:city": "W\u0119gierska G\u00f3rka",
                "addr:street": "Tadeusza Ko\u015bciuszki",
                "addr:housenumber": "14",
                "addr:city:simc": 75268,
                "addr:street:sym_ul": 9572,
                "phone": "+48 338641420",
                "email": "zsz-gorka@wp.pl",
                "website": "http:\/\/zszwg.edu.pl\/",
                "ref:regon": "072333659",
                "ref:vatin": "PL5531226076",
                "operator": "Powiat \u017bywiecki",
                "operator:type": "government",
                "landuse": "education",
                "fixme": "amenity=school, amenity=college albo landuse=education w zale\u017cno\u015bci od tego, jakie plac\u00f3wki wchodz\u0105 w sk\u0142ad zespo\u0142u. Sprawd\u017a, kiedy stosowa\u0107 amenity=* a kiedy landuse=education.",
                "note": "Children RSPO: 10441;10442"
            }
        },
        {
            "id": 10441,
            "type": "Feature",
            "geometry": {
                "type": "Point",
                "coordinates": [
                    19.12355,
                    49.60805
                ]
            },
            "properties": {
                "isced:level": "3",
                "ref:rspo": 10441,
                "official_name": "Technikum w W\u0119gierskiej G\u00f3rce",
                "name": "Technikum w W\u0119gierskiej G\u00f3rce",
                "addr:postcode": "34-350",
                "addr:city": "W\u0119gierska G\u00f3rka",
                "addr:street": "Tadeusza Ko\u015bciuszki",
                "addr:housenumber": "14",
                "addr:door": "-",
                "addr:city:simc": 75268,
                "addr:street:sym_ul": 9572,
                "phone": "+48 338641420",
                "email": "zsz-gorka@wp.pl",
                "ref:regon": "072333725",
                "ref:vatin": "PL5531226076",
                "operator": "Powiat \u017bywiecki",
                "operator:type": "government",
                "amenity": "school",
                "note": "Parent RSPO: 7522"
            }
        },
        {
            "id": 10442,
            "type": "Feature",
            "geometry": {
                "type": "Point",
                "coordinates": [
                    19.12355,
                    49.60802
                ]
            },
            "properties": {
                "isced:level": "3",
                "ref:rspo": 10442,
                "official_name": "Bran\u017cowa Szko\u0142a I Stopnia w W\u0119gierskiej G\u00f3rce",
                "name": "Bran\u017cowa Szko\u0142a I Stopnia w W\u0119gierskiej G\u00f3rce",
                "addr:postcode": "34-350",
                "addr:city": "W\u0119gierska G\u00f3rka",
                "addr:street": "Tadeusza Ko\u015bciuszki",
                "addr:housenumber": "14",
                "addr:city:simc": 75268,
                "addr:street:sym_ul": 9572,
                "phone": "+48 338611420",
                "email": "zsz-gorka@wp.pl",
                "ref:regon": "072333760",
                "ref:vatin": "PL5531226076",
                "operator": "Powiat \u017bywiecki",
                "operator:type": "government",
                "amenity": "school",
                "note": "Parent RSPO: 7522"
            }
        },
        {
            "id": 28221,
            "type": "Feature",
            "geometry": {
                "type": "Point",
                "coordinates": [
                    19.13649,
                    49.61349
                ]
            },
            "properties": {
                "ref:rspo": 28221,
                "official_name": "Przedszkole w Ci\u0119cinie",
                "name": "Przedszkole w Ci\u0119cinie",
                "addr:postcode": "34-350",
                "addr:city": "Ci\u0119cina",
                "addr:street": "\u015awi\u0119tej Katarzyny",
                "addr:housenumber": "20 B",
                "addr:city:simc": 75127,
                "addr:street:sym_ul": 40375,
                "phone": "+48 338641684",
                "email": "przedszkole.ciecina@wp.pl",
                "ref:regon": "070560635",
                "ref:vatin": "PL5532167507",
                "operator": "Gmina W\u0119gierska G\u00f3rka",
                "operator:type": "government",
                "amenity": "kindergarten"
            }
        },
        {
            "id": 86048,
            "type": "Feature",
            "geometry": {
                "type": "Point",
                "coordinates": [
                    19.13649,
                    49.613459999999996
                ]
            },
            "properties": {
                "isced:level": "1;2",
                "ref:rspo": 86048,
                "official_name": "Szko\u0142a Podstawowa nr 1 w Ci\u0119cinie im. Konstytucji 3 Maja",
                "name": "Szko\u0142a Podstawowa nr 1 w Ci\u0119cinie",
                "addr:postcode": "34-350",
                "addr:city": "Ci\u0119cina",
                "addr:street": "\u015awi\u0119tej Katarzyny",
                "addr:housenumber": "20",
                "addr:city:simc": 75127,
                "addr:street:sym_ul": 40375,
                "phone": "+48 338641414",
                "email": "sp1ciecina@wp.pl",
                "website": "http:\/\/www.sp1ciecina.pl",
                "ref:regon": "070448750",
                "operator": "Gmina W\u0119gierska G\u00f3rka",
                "operator:type": "government",
                "amenity": "school"
            }
        }
    ]
}