{"type":"FeatureCollection","features":[{"id":128996,"type":"Feature","geometry":{"type":"Point","coordinates":[19.1428229,49.4375807]},"properties":{"isced:level":"1;2","ref:rspo":128996,"official_name":"Szko\u0142a Podstawowa im. Tadeusza Sygiety\u0144skiego w Ujso\u0142ach Filia w Sobl\u00f3wce","name":"Szko\u0142a Podstawowa","addr:country":"PL","addr:postcode":"34-371","addr:place":"Sobl\u00f3wka","addr:housenumber":"191","addr:teryt:sym_ul":73358,"contact:phone":"+48 338647007","ref:regon":"706892400","operator":"Gmina Ujso\u0142y","operator:type":"government","amenity":"school","note":"Parent RSPO: 60963"}},{"id":72443,"type":"Feature","geometry":{"type":"Point","coordinates":[19.1667709,49.462198]},"properties":{"isced:level":"1;2","ref:rspo":72443,"official_name":"Szko\u0142a Podstawowa w Glince","name":"Szko\u0142a Podstawowa w Glince","addr:country":"PL","addr:postcode":"34-371","addr:place":"Glinka","addr:housenumber":"68","addr:teryt:sym_ul":73163,"contact:phone":"+48 338647010","contact:email":"szkolaglinka1@op.pl","ref:regon":"070689234","ref:vatin":"PL5531746545","operator":"Gmina Ujso\u0142y","operator:type":"government","amenity":"school"}},{"id":60963,"type":"Feature","geometry":{"type":"Point","coordinates":[19.14362,49.4784999]},"properties":{"isced:level":"1;2","ref:rspo":60963,"official_name":"Szko\u0142a Podstawowa im. Tadeusza Sygiety\u0144skiego w Ujso\u0142ach","name":"Szko\u0142a Podstawowa","addr:country":"PL","addr:postcode":"34-371","addr:city":"Ujso\u0142y","addr:street":"ul. Ksi\u0119dza Pra\u0142ata Piotrowskiego","addr:housenumber":"6","addr:teryt:simc":47066,"addr:teryt:sym_ul":73499,"contact:phone":"+48 338647003","contact:email":"szkolaujs.1@wp.pl","contact:website":"http:\/\/www.spujsoly.szkolnastrona.pl","ref:regon":"070689240","ref:vatin":"PL5531746373","operator":"Gmina Ujso\u0142y","operator:type":"government","amenity":"school","note":"Children RSPO: 128995;128996"}},{"id":72546,"type":"Feature","geometry":{"type":"Point","coordinates":[19.142658,49.47945]},"properties":{"ref:rspo":72546,"official_name":"Przedszkole w Ujso\u0142ach","name":"Przedszkole w Ujso\u0142ach","addr:country":"PL","addr:postcode":"34-371","addr:place":"Ujso\u0142y","addr:housenumber":"4a","addr:teryt:sym_ul":73499,"contact:phone":"+48 338647053","contact:email":"przedszkole.ujs.1@wp.pl","ref:regon":"072357097","ref:vatin":"PL5531746597","operator":"Gmina Ujso\u0142y","operator:type":"government","amenity":"kindergarten"}},{"id":128995,"type":"Feature","geometry":{"type":"Point","coordinates":[19.178165,49.495743]},"properties":{"isced:level":"1;2","ref:rspo":128995,"official_name":"Szko\u0142a Podstawowa im. Tadeusza Sygiety\u0144skiego w Ujso\u0142ach Filia w Z\u0142atnej","name":"Szko\u0142a Podstawowa","addr:country":"PL","addr:postcode":"34-371","addr:place":"Z\u0142atna","addr:housenumber":"95","addr:teryt:sym_ul":73565,"contact:phone":"+48 338647009","ref:regon":"706892400","operator":"Gmina Ujso\u0142y","operator:type":"government","amenity":"school","note":"Parent RSPO: 60963"}}]}