{
    "type": "FeatureCollection",
    "features": [
        {
            "id": 7267,
            "type": "Feature",
            "geometry": {
                "type": "Point",
                "coordinates": [
                    19.25348,
                    49.63831
                ]
            },
            "properties": {
                "isced:level": "1;2",
                "ref:rspo": 7267,
                "official_name": "Niepubliczna Szko\u0142a Podstawowa Fundacji Kr\u00f3lowej \u015awi\u0119tej Jadwigi w Przy\u0142\u0119kowie",
                "name": "Niepubliczna Szko\u0142a Podstawowa Fundacji Kr\u00f3lowej \u015awi\u0119tej Jadwigi w Przy\u0142\u0119kowie",
                "addr:country": "PL",
                "addr:postcode": "34-331",
                "addr:city": "Przy\u0142\u0119k\u00f3w",
                "addr:street": "ul. Wsp\u00f3lna",
                "addr:housenumber": "56",
                "addr:teryt:simc": 24885,
                "addr:teryt:sym_ul": 72229,
                "contact:phone": "+48 334454533",
                "contact:email": "biuromms@szkolamontessori.com.pl",
                "contact:website": "http:\/\/www.szkolamontessori.com.pl",
                "ref:regon": "243025530",
                "ref:vatin": "PL1181504258",
                "operator": "Fundacja Kr\u00f3lowej \u015awi\u0119tej Jadwigi",
                "operator:type": "ngo",
                "amenity": "school"
            }
        },
        {
            "id": 10716,
            "type": "Feature",
            "geometry": {
                "type": "Point",
                "coordinates": [
                    19.22253,
                    49.65044
                ]
            },
            "properties": {
                "ref:rspo": 10716,
                "official_name": "Zesp\u00f3\u0142 Szkolno-Przedszkolny w Trzebini",
                "name": "Zesp\u00f3\u0142 Szkolno-Przedszkolny w Trzebini",
                "addr:country": "PL",
                "addr:postcode": "34-300",
                "addr:city": "Trzebinia",
                "addr:street": "ul. Beskidzka",
                "addr:housenumber": "158",
                "addr:teryt:simc": 1103,
                "addr:teryt:sym_ul": 72525,
                "contact:phone": "+48 338611500",
                "contact:email": "zsp.trz@swinna.pl",
                "contact:website": "http:\/\/www.trzebinia.zsp.edupage.org",
                "ref:regon": "072872422",
                "ref:vatin": "PL5532266008",
                "operator": "Gmina \u015awinna",
                "operator:type": "government",
                "landuse": "education",
                "fixme": "amenity=school, amenity=college albo landuse=education w zale\u017cno\u015bci od tego, jakie plac\u00f3wki wchodz\u0105 w sk\u0142ad zespo\u0142u. Sprawd\u017a, kiedy stosowa\u0107 amenity=* a kiedy landuse=education.",
                "note": "Children RSPO: 11918;11919"
            }
        },
        {
            "id": 11918,
            "type": "Feature",
            "geometry": {
                "type": "Point",
                "coordinates": [
                    19.22253,
                    49.65041
                ]
            },
            "properties": {
                "isced:level": "1;2",
                "ref:rspo": 11918,
                "official_name": "Szko\u0142a Podstawowa w Trzebini",
                "name": "Szko\u0142a Podstawowa w Trzebini",
                "addr:country": "PL",
                "addr:postcode": "34-331",
                "addr:city": "Trzebinia",
                "addr:street": "ul. Beskidzka",
                "addr:housenumber": "158",
                "addr:teryt:simc": 1103,
                "addr:teryt:sym_ul": 72525,
                "contact:phone": "+48 338611500",
                "contact:email": "zsp.trz@swinna.pl",
                "contact:website": "http:\/\/www.trzebiniazsp.edupage.org",
                "ref:regon": "070666606",
                "ref:vatin": "PL5532266008",
                "operator": "Gmina \u015awinna",
                "operator:type": "government",
                "amenity": "school",
                "note": "Parent RSPO: 10716"
            }
        },
        {
            "id": 11919,
            "type": "Feature",
            "geometry": {
                "type": "Point",
                "coordinates": [
                    19.22253,
                    49.650380000000006
                ]
            },
            "properties": {
                "ref:rspo": 11919,
                "official_name": "Przedszkole w Trzebini",
                "name": "Przedszkole w Trzebini",
                "addr:country": "PL",
                "addr:postcode": "34-331",
                "addr:city": "Trzebinia",
                "addr:street": "ul. Beskidzka",
                "addr:housenumber": "158",
                "addr:teryt:simc": 1103,
                "addr:teryt:sym_ul": 72525,
                "contact:phone": "+48 338611500",
                "ref:regon": "072373015",
                "ref:vatin": "PL5532266008",
                "operator": "Gmina \u015awinna",
                "operator:type": "government",
                "amenity": "kindergarten",
                "note": "Parent RSPO: 10716"
            }
        },
        {
            "id": 115308,
            "type": "Feature",
            "geometry": {
                "type": "Point",
                "coordinates": [
                    19.25465,
                    49.66089
                ]
            },
            "properties": {
                "ref:rspo": 115308,
                "official_name": "Zesp\u00f3\u0142 Szkolno-Przedszkolny w \u015awinnej",
                "name": "Zesp\u00f3\u0142 Szkolno-Przedszkolny w \u015awinnej",
                "addr:country": "PL",
                "addr:postcode": "34-331",
                "addr:city": "\u015awinna",
                "addr:street": "ul. Wsp\u00f3lna",
                "addr:housenumber": "58",
                "addr:teryt:simc": 24885,
                "addr:teryt:sym_ul": 72376,
                "contact:email": "zsp.swi@swinna.pl",
                "ref:regon": "243307546",
                "operator": "Gmina \u015awinna",
                "operator:type": "government",
                "landuse": "education",
                "fixme": "amenity=school, amenity=college albo landuse=education w zale\u017cno\u015bci od tego, jakie plac\u00f3wki wchodz\u0105 w sk\u0142ad zespo\u0142u. Sprawd\u017a, kiedy stosowa\u0107 amenity=* a kiedy landuse=education.",
                "note": "Children RSPO: 9978;11499"
            }
        },
        {
            "id": 9978,
            "type": "Feature",
            "geometry": {
                "type": "Point",
                "coordinates": [
                    19.25465,
                    49.66086
                ]
            },
            "properties": {
                "isced:level": "1;2",
                "ref:rspo": 9978,
                "official_name": "Szko\u0142a Podstawowa im. Marii Sk\u0142odowskiej - Curie w \u015awinnej",
                "name": "Szko\u0142a Podstawowa",
                "addr:country": "PL",
                "addr:postcode": "34-331",
                "addr:city": "\u015awinna",
                "addr:street": "ul. Wsp\u00f3lna",
                "addr:housenumber": "58",
                "addr:teryt:simc": 24885,
                "addr:teryt:sym_ul": 72376,
                "contact:phone": "+48 338638159",
                "contact:email": "zsp.swi@swinna.pl",
                "contact:website": "http:\/\/spswinna.szkolnastrona.pl",
                "ref:regon": "242983647",
                "ref:vatin": "PL5532511301",
                "operator": "Gmina \u015awinna",
                "operator:type": "government",
                "amenity": "school",
                "note": "Parent RSPO: 115308"
            }
        },
        {
            "id": 11499,
            "type": "Feature",
            "geometry": {
                "type": "Point",
                "coordinates": [
                    19.25454,
                    49.66107
                ]
            },
            "properties": {
                "ref:rspo": 11499,
                "official_name": "Przedszkole Publiczne w \u015awinnej",
                "name": "Przedszkole Publiczne w \u015awinnej",
                "addr:country": "PL",
                "addr:postcode": "34-331",
                "addr:city": "\u015awinna",
                "addr:street": "ul. Przedszkolna",
                "addr:housenumber": "1",
                "addr:teryt:simc": 17683,
                "addr:teryt:sym_ul": 72376,
                "contact:phone": "+48 338638097",
                "ref:regon": "072372978",
                "ref:vatin": "PL5531717532",
                "operator": "Gmina \u015awinna",
                "operator:type": "government",
                "amenity": "kindergarten",
                "note": "Parent RSPO: 115308"
            }
        },
        {
            "id": 128624,
            "type": "Feature",
            "geometry": {
                "type": "Point",
                "coordinates": [
                    19.26841,
                    49.66302
                ]
            },
            "properties": {
                "ref:rspo": 128624,
                "official_name": "Niepubliczne Przedszkole J\u0119zykowo-Artystyczne \u201eRainbow\u201d",
                "name": "Niepubliczne Przedszkole J\u0119zykowo-Artystyczne \u201eRainbow\u201d",
                "addr:country": "PL",
                "addr:postcode": "34-331",
                "addr:city": "\u015awinna",
                "addr:street": "ul. \u017bywiecka",
                "addr:housenumber": "36",
                "addr:teryt:simc": 26640,
                "addr:teryt:sym_ul": 72376,
                "contact:phone": "+48 507533688",
                "contact:email": "bryjka@wp.pl",
                "ref:regon": "362334893",
                "operator": "Karolina Szlachta",
                "operator:type": "private",
                "amenity": "kindergarten"
            }
        },
        {
            "id": 10715,
            "type": "Feature",
            "geometry": {
                "type": "Point",
                "coordinates": [
                    19.2777299,
                    49.66717
                ]
            },
            "properties": {
                "ref:rspo": 10715,
                "official_name": "Zesp\u00f3\u0142 Szkolno-Przedszkolny w Pewli Ma\u0142ej",
                "name": "Zesp\u00f3\u0142 Szkolno-Przedszkolny w Pewli Ma\u0142ej",
                "addr:country": "PL",
                "addr:postcode": "34-331",
                "addr:city": "Pewel Ma\u0142a",
                "addr:street": "ul. Jana Paw\u0142a II",
                "addr:housenumber": "15",
                "addr:teryt:simc": 7123,
                "addr:teryt:sym_ul": 72063,
                "contact:phone": "+48 338638012",
                "contact:email": "zsp.pem@swinna.pl",
                "ref:regon": "072872050",
                "ref:vatin": "PL5532266037",
                "operator": "Gmina \u015awinna",
                "operator:type": "government",
                "landuse": "education",
                "fixme": "amenity=school, amenity=college albo landuse=education w zale\u017cno\u015bci od tego, jakie plac\u00f3wki wchodz\u0105 w sk\u0142ad zespo\u0142u. Sprawd\u017a, kiedy stosowa\u0107 amenity=* a kiedy landuse=education.",
                "note": "Children RSPO: 17087;17088"
            }
        },
        {
            "id": 17087,
            "type": "Feature",
            "geometry": {
                "type": "Point",
                "coordinates": [
                    19.2777299,
                    49.667139999999996
                ]
            },
            "properties": {
                "isced:level": "1;2",
                "ref:rspo": 17087,
                "official_name": "Szko\u0142a Podstawowa w Pewli Ma\u0142ej",
                "name": "Szko\u0142a Podstawowa w Pewli Ma\u0142ej",
                "addr:country": "PL",
                "addr:postcode": "34-331",
                "addr:city": "Pewel Ma\u0142a",
                "addr:street": "ul. Jana Paw\u0142a II",
                "addr:housenumber": "15",
                "addr:teryt:simc": 7123,
                "addr:teryt:sym_ul": 72063,
                "contact:phone": "+48 338638012",
                "contact:email": "zsp.pem@swinna.pl",
                "ref:regon": "070666530",
                "ref:vatin": "PL5531746634",
                "operator": "Gmina \u015awinna",
                "operator:type": "government",
                "amenity": "school",
                "note": "Parent RSPO: 10715"
            }
        },
        {
            "id": 17088,
            "type": "Feature",
            "geometry": {
                "type": "Point",
                "coordinates": [
                    19.2777299,
                    49.66711
                ]
            },
            "properties": {
                "ref:rspo": 17088,
                "official_name": "Przedszkole Publiczne w Pewli Ma\u0142ej",
                "name": "Przedszkole Publiczne w Pewli Ma\u0142ej",
                "addr:country": "PL",
                "addr:postcode": "34-331",
                "addr:city": "Pewel Ma\u0142a",
                "addr:street": "ul. Jana Paw\u0142a II",
                "addr:housenumber": "15",
                "addr:teryt:simc": 7123,
                "addr:teryt:sym_ul": 72063,
                "contact:phone": "+48 338638294",
                "contact:email": "zsp.pem@swinna.pl",
                "ref:regon": "072372990",
                "ref:vatin": "PL5531717549",
                "operator": "Gmina \u015awinna",
                "operator:type": "government",
                "amenity": "kindergarten",
                "note": "Parent RSPO: 10715"
            }
        },
        {
            "id": 7266,
            "type": "Feature",
            "geometry": {
                "type": "Point",
                "coordinates": [
                    19.28445,
                    49.67998
                ]
            },
            "properties": {
                "isced:level": "1;2",
                "ref:rspo": 7266,
                "official_name": "Szko\u0142a Podstawowa Stowarzyszenia Przyjaci\u00f3\u0142 Szk\u00f3\u0142 Katolickich im. Franciszka\u0144skich M\u0119czennik\u00f3w Z Peru B\u0142. Micha\u0142a Tomaszka I B\u0142. Zbigniewa Strza\u0142kowskiego w Rychwa\u0142dku",
                "name": "Szko\u0142a Podstawowa Stowarzyszenia Przyjaci\u00f3\u0142 Szk\u00f3\u0142 Katolickich",
                "addr:country": "PL",
                "addr:postcode": "34-331",
                "addr:city": "Rychwa\u0142dek",
                "addr:street": "ul. Szkolna",
                "addr:housenumber": "46",
                "addr:teryt:simc": 21970,
                "addr:teryt:sym_ul": 72287,
                "contact:phone": "+48 338638537",
                "contact:email": "sp.rychwaldek@gmail.com",
                "ref:regon": "243025279",
                "operator": "Stowarzyszenie Przyjaci\u00f3\u0142 Szk\u00f3\u0142 Katolickich",
                "operator:type": "ngo",
                "amenity": "school"
            }
        },
        {
            "id": 7268,
            "type": "Feature",
            "geometry": {
                "type": "Point",
                "coordinates": [
                    19.28445,
                    49.67995
                ]
            },
            "properties": {
                "ref:rspo": 7268,
                "official_name": "Przedszkole Stowarzyszenia Przyjaci\u00f3\u0142 Szk\u00f3\u0142 Katolickich",
                "name": "Przedszkole Stowarzyszenia Przyjaci\u00f3\u0142 Szk\u00f3\u0142 Katolickich",
                "addr:country": "PL",
                "addr:postcode": "34-331",
                "addr:city": "Rychwa\u0142dek",
                "addr:street": "ul. Szkolna",
                "addr:housenumber": "46",
                "addr:teryt:simc": 21970,
                "addr:teryt:sym_ul": 72287,
                "contact:email": "spsk.rychwaldek@gmail.com",
                "ref:regon": "243025598",
                "operator": "Stowarzyszenie Przyjaci\u00f3\u0142 Szk\u00f3\u0142 Katolickich",
                "operator:type": "ngo",
                "amenity": "kindergarten"
            }
        },
        {
            "id": 10714,
            "type": "Feature",
            "geometry": {
                "type": "Point",
                "coordinates": [
                    19.33016,
                    49.68817
                ]
            },
            "properties": {
                "ref:rspo": 10714,
                "official_name": "Zesp\u00f3\u0142 Szkolno-Przedszkolny w Pewli \u015alemie\u0144skiej",
                "name": "Zesp\u00f3\u0142 Szkolno-Przedszkolny w Pewli \u015alemie\u0144skiej",
                "addr:country": "PL",
                "addr:postcode": "34-331",
                "addr:city": "Pewel \u015alemie\u0144ska",
                "addr:street": "ul. Krakowska",
                "addr:housenumber": "169",
                "addr:teryt:simc": 9796,
                "addr:teryt:sym_ul": 72117,
                "contact:phone": "+48 338638016",
                "contact:email": "zsp.pes@swinna.pl",
                "ref:regon": "072872066",
                "ref:vatin": "PL5532265954",
                "operator": "Gmina \u015awinna",
                "operator:type": "government",
                "landuse": "education",
                "fixme": "amenity=school, amenity=college albo landuse=education w zale\u017cno\u015bci od tego, jakie plac\u00f3wki wchodz\u0105 w sk\u0142ad zespo\u0142u. Sprawd\u017a, kiedy stosowa\u0107 amenity=* a kiedy landuse=education.",
                "note": "Children RSPO: 11935;11936"
            }
        },
        {
            "id": 11935,
            "type": "Feature",
            "geometry": {
                "type": "Point",
                "coordinates": [
                    19.33016,
                    49.68814
                ]
            },
            "properties": {
                "isced:level": "1;2",
                "ref:rspo": 11935,
                "official_name": "Szko\u0142a Podstawowa w Pewli \u015alemie\u0144skiej",
                "name": "Szko\u0142a Podstawowa w Pewli \u015alemie\u0144skiej",
                "addr:country": "PL",
                "addr:postcode": "34-331",
                "addr:city": "Pewel \u015alemie\u0144ska",
                "addr:street": "ul. Krakowska",
                "addr:housenumber": "169",
                "addr:teryt:simc": 9796,
                "addr:teryt:sym_ul": 72117,
                "contact:phone": "+48 338638016",
                "contact:email": "zsp.pes@swinna.pl",
                "ref:regon": "070666500",
                "ref:vatin": "PL5532009151",
                "operator": "Gmina \u015awinna",
                "operator:type": "government",
                "amenity": "school",
                "note": "Parent RSPO: 10714"
            }
        },
        {
            "id": 11936,
            "type": "Feature",
            "geometry": {
                "type": "Point",
                "coordinates": [
                    19.33016,
                    49.68811
                ]
            },
            "properties": {
                "ref:rspo": 11936,
                "official_name": "Przedszkole w Pewli \u015alemie\u0144skiej",
                "name": "Przedszkole w Pewli \u015alemie\u0144skiej",
                "addr:country": "PL",
                "addr:postcode": "34-331",
                "addr:city": "Pewel \u015alemie\u0144ska",
                "addr:street": "ul. Krakowska",
                "addr:housenumber": "169",
                "addr:teryt:simc": 9796,
                "addr:teryt:sym_ul": 72117,
                "contact:phone": "+48 338638023",
                "ref:regon": "072372984",
                "ref:vatin": "PL5531713586",
                "operator": "Gmina \u015awinna",
                "operator:type": "government",
                "amenity": "kindergarten",
                "note": "Parent RSPO: 10714"
            }
        }
    ]
}