{
    "type": "FeatureCollection",
    "features": [
        {
            "id": 19143,
            "type": "Feature",
            "geometry": {
                "type": "Point",
                "coordinates": [
                    19.3983989,
                    49.640001
                ]
            },
            "properties": {
                "ref:rspo": 19143,
                "official_name": "Niepubliczna Plac\u00f3wka Doskonalenia Nauczycieli w Koszarawie Bystrej",
                "name": "Niepubliczna Plac\u00f3wka Doskonalenia Nauczycieli w Koszarawie Bystrej",
                "addr:country": "PL",
                "addr:postcode": "34-322",
                "addr:place": "Koszarawa",
                "addr:housenumber": "74",
                "addr:teryt:simc": 57610,
                "contact:phone": "+48 506109007",
                "contact:email": "biuro@szkolamontessori.com.pl",
                "contact:website": "http:\/\/www.szkolamontessori.com.pl",
                "ref:regon": "243052721",
                "ref:vatin": "PL1180870452",
                "operator": "Marcin Sawicki",
                "operator:type": "private",
                "amenity": "training"
            }
        },
        {
            "id": 4084,
            "type": "Feature",
            "geometry": {
                "type": "Point",
                "coordinates": [
                    19.400655,
                    49.6434949
                ]
            },
            "properties": {
                "ref:rspo": 4084,
                "official_name": "Przedszkole Nr 1 w Koszarawie",
                "name": "Przedszkole Nr 1 w Koszarawie",
                "addr:country": "PL",
                "addr:postcode": "34-332",
                "addr:place": "Koszarawa",
                "addr:housenumber": "142",
                "addr:teryt:simc": 57610,
                "contact:phone": "+48 338611018",
                "contact:email": "spkoszarawa@gmail.com",
                "ref:regon": "072357944",
                "ref:vatin": "PL5532001221",
                "operator": "Gmina Koszarawa",
                "operator:type": "government",
                "amenity": "kindergarten",
                "note": "Parent RSPO: 4055"
            }
        },
        {
            "id": 4055,
            "type": "Feature",
            "geometry": {
                "type": "Point",
                "coordinates": [
                    19.4158579,
                    49.7199976
                ]
            },
            "properties": {
                "ref:rspo": 4055,
                "official_name": "Zesp\u00f3\u0142 Szkolno Przedszkolny w Koszarawie",
                "name": "Zesp\u00f3\u0142 Szkolno Przedszkolny w Koszarawie",
                "addr:country": "PL",
                "addr:postcode": "34-332",
                "addr:place": "Koszarawa",
                "addr:housenumber": "434",
                "addr:teryt:simc": 57610,
                "contact:phone": "+48 338639416",
                "contact:email": "spkoszarawa@gmail.com",
                "ref:regon": "243012897",
                "operator": "Gmina Koszarawa",
                "operator:type": "government",
                "landuse": "education",
                "fixme": "amenity=school, amenity=college albo landuse=education w zale\u017cno\u015bci od tego, jakie plac\u00f3wki wchodz\u0105 w sk\u0142ad zespo\u0142u. Sprawd\u017a, kiedy stosowa\u0107 amenity=* a kiedy landuse=education.",
                "note": "Children RSPO: 4084;265062"
            }
        },
        {
            "id": 6163,
            "type": "Feature",
            "geometry": {
                "type": "Point",
                "coordinates": [
                    19.4158579,
                    49.7199676
                ]
            },
            "properties": {
                "isced:level": "3",
                "ref:rspo": 6163,
                "official_name": "Niepubliczne Liceum Og\u00f3lnokszta\u0142c\u0105ce Fundacji Kr\u00f3lowej \u015awi\u0119tej Jadwigi w Koszarawie Bystrej",
                "name": "Niepubliczne Liceum Og\u00f3lnokszta\u0142c\u0105ce Fundacji Kr\u00f3lowej \u015awi\u0119tej Jadwigi w Koszarawie Bystrej",
                "addr:country": "PL",
                "addr:postcode": "34-332",
                "addr:place": "Koszarawa",
                "addr:housenumber": "675",
                "addr:door": "-",
                "addr:teryt:simc": 57610,
                "contact:phone": "+48 334454533",
                "contact:email": "biuromms@szkolamontessori.com.pl",
                "ref:regon": "243024067",
                "ref:vatin": "PL1181504258",
                "operator": "Fundacja Kr\u00f3lowej \u015awi\u0119tej Jadwigi",
                "operator:type": "ngo",
                "amenity": "school"
            }
        },
        {
            "id": 121870,
            "type": "Feature",
            "geometry": {
                "type": "Point",
                "coordinates": [
                    19.4158579,
                    49.7199376
                ]
            },
            "properties": {
                "isced:level": "1;2",
                "ref:rspo": 121870,
                "official_name": "Niepubliczna Szko\u0142a Podstawowa Fundacji Kr\u00f3lowej \u015awi\u0119tej Jadwigi w Koszarawie Bystrej",
                "name": "Niepubliczna Szko\u0142a Podstawowa Fundacji Kr\u00f3lowej \u015awi\u0119tej Jadwigi w Koszarawie Bystrej",
                "addr:country": "PL",
                "addr:postcode": "34-332",
                "addr:place": "Koszarawa",
                "addr:housenumber": "675",
                "addr:teryt:simc": 57610,
                "contact:phone": "+48 334454533",
                "contact:email": "biuromms@szkolamontessori.com.pl",
                "contact:website": "http:\/\/www.szkolamontessori.com.pl",
                "ref:regon": "243484171",
                "operator": "Fundacja Kr\u00f3lowej \u015awi\u0119tej Jadwigi",
                "operator:type": "ngo",
                "amenity": "school"
            }
        },
        {
            "id": 265062,
            "type": "Feature",
            "geometry": {
                "type": "Point",
                "coordinates": [
                    19.4158579,
                    49.7199076
                ]
            },
            "properties": {
                "isced:level": "1;2",
                "ref:rspo": 265062,
                "official_name": "Szko\u0142a Podstawowa im.tadeusza Ko\u015bciuszki w Koszarawie",
                "name": "Szko\u0142a Podstawowa im.tadeusza Ko\u015bciuszki w Koszarawie",
                "addr:country": "PL",
                "addr:postcode": "34-332",
                "addr:place": "Koszarawa",
                "addr:housenumber": "434",
                "addr:teryt:simc": 57610,
                "contact:phone": "+48 338639416",
                "contact:email": "spkoszarawa@gmail.com",
                "ref:regon": "070691018",
                "operator": "Gmina Koszarawa",
                "operator:type": "government",
                "amenity": "school",
                "note": "Parent RSPO: 4055"
            }
        }
    ]
}