{
    "type": "FeatureCollection",
    "features": [
        {
            "id": 4538,
            "type": "Feature",
            "geometry": {
                "type": "Point",
                "coordinates": [
                    19.20596,
                    49.75167
                ]
            },
            "properties": {
                "ref:rspo": 4538,
                "official_name": "Zesp\u00f3\u0142 Szkolno - Przedszkolny w Czernichowie",
                "name": "Zesp\u00f3\u0142 Szkolno - Przedszkolny w Czernichowie",
                "addr:postcode": "34-311",
                "addr:city": "Czernich\u00f3w",
                "addr:street": "Turystyczna",
                "addr:housenumber": "8",
                "addr:teryt:simc": 51010,
                "addr:teryt:sym_ul": 23184,
                "phone": "+48 338661212",
                "email": "sp.czernichow@wp.pl",
                "ref:regon": "241364617",
                "ref:vatin": "PL5532461454",
                "operator": "Gmina Czernich\u00f3w",
                "operator:type": "government",
                "landuse": "education",
                "fixme": "amenity=school, amenity=college albo landuse=education w zale\u017cno\u015bci od tego, jakie plac\u00f3wki wchodz\u0105 w sk\u0142ad zespo\u0142u. Sprawd\u017a, kiedy stosowa\u0107 amenity=* a kiedy landuse=education.",
                "note": "Children RSPO: 12350;12351"
            }
        },
        {
            "id": 12350,
            "type": "Feature",
            "geometry": {
                "type": "Point",
                "coordinates": [
                    19.20596,
                    49.751639999999995
                ]
            },
            "properties": {
                "ref:rspo": 12350,
                "official_name": "Zesp\u00f3\u0142 Szkolno Przedszkolny w Czernichowie-Publiczne Przedszkole w Czernichowie",
                "name": "Zesp\u00f3\u0142 Szkolno Przedszkolny w Czernichowie-Publiczne Przedszkole w Czernichowie",
                "addr:postcode": "34-311",
                "addr:city": "Czernich\u00f3w",
                "addr:street": "Turystyczna",
                "addr:housenumber": "8",
                "addr:teryt:simc": 51010,
                "addr:teryt:sym_ul": 23184,
                "phone": "+48 338661212",
                "ref:regon": "072357507",
                "operator": "Gmina Czernich\u00f3w",
                "operator:type": "government",
                "amenity": "kindergarten",
                "note": "Parent RSPO: 4538"
            }
        },
        {
            "id": 12351,
            "type": "Feature",
            "geometry": {
                "type": "Point",
                "coordinates": [
                    19.20596,
                    49.75161
                ]
            },
            "properties": {
                "isced:level": "1;2",
                "ref:rspo": 12351,
                "official_name": "Zesp\u00f3\u0142 Szkolno - Przedszkolny w Czernichowie - Szko\u0142a Podstawowa im. J\u00f3zefa Pi\u0142sudskiego w Czernichowie",
                "name": "Zesp\u00f3\u0142 Szkolno - Przedszkolny w Czernichowie - Szko\u0142a Podstawowa",
                "addr:postcode": "34-311",
                "addr:city": "Czernich\u00f3w",
                "addr:street": "Turystyczna",
                "addr:housenumber": "8",
                "addr:teryt:simc": 51010,
                "addr:teryt:sym_ul": 23184,
                "phone": "+48 338661212",
                "email": "sp.czernichow@wp.pl",
                "website": "http:\/\/www.spczernichow.eu",
                "ref:regon": "070447749",
                "operator": "Gmina Czernich\u00f3w",
                "operator:type": "government",
                "amenity": "school",
                "note": "Parent RSPO: 4538"
            }
        },
        {
            "id": 4878,
            "type": "Feature",
            "geometry": {
                "type": "Point",
                "coordinates": [
                    19.21315,
                    49.7668899
                ]
            },
            "properties": {
                "ref:rspo": 4878,
                "official_name": "Przedszkole im. Ks. Jana Hojdysa w Mi\u0119dzybrodziu \u017bywieckim",
                "name": "Przedszkole",
                "addr:postcode": "34-312",
                "addr:city": "Mi\u0119dzybrodzie \u017bywieckie",
                "addr:street": "Beskidzka",
                "addr:housenumber": "27",
                "addr:teryt:simc": 51374,
                "addr:teryt:sym_ul": 1103,
                "phone": "+48 338661116",
                "email": "przedszkolemz@wp.pl",
                "website": "http:\/\/www.przedszkole.blizej.info",
                "ref:regon": "072357513",
                "ref:vatin": "PL5531756041",
                "operator": "Gmina Czernich\u00f3w",
                "operator:type": "government",
                "amenity": "kindergarten"
            }
        },
        {
            "id": 12352,
            "type": "Feature",
            "geometry": {
                "type": "Point",
                "coordinates": [
                    19.21315,
                    49.7668599
                ]
            },
            "properties": {
                "isced:level": "1;2",
                "ref:rspo": 12352,
                "official_name": "Szko\u0142a Podstawowa im. \u015aw. Kr\u00f3lowej Jadwigi w Mi\u0119dzybrodziu \u017bywieckim",
                "name": "Szko\u0142a Podstawowa",
                "addr:postcode": "34-312",
                "addr:city": "Mi\u0119dzybrodzie \u017bywieckie",
                "addr:street": "Beskidzka",
                "addr:housenumber": "27",
                "addr:teryt:simc": 51374,
                "addr:teryt:sym_ul": 1103,
                "phone": "+48 338661225",
                "email": "gimzar@op.pl",
                "ref:regon": "070447809",
                "ref:vatin": "PL5532461448",
                "operator": "Gmina Czernich\u00f3w",
                "operator:type": "government",
                "amenity": "school"
            }
        },
        {
            "id": 5362,
            "type": "Feature",
            "geometry": {
                "type": "Point",
                "coordinates": [
                    19.20121,
                    49.77779
                ]
            },
            "properties": {
                "isced:level": "1;2",
                "ref:rspo": 5362,
                "official_name": "Szko\u0142a Podstawowa Nr 2 im. Tadeusza Ko\u015bciuszki w Mi\u0119dzybrodziu Bialskim",
                "name": "Szko\u0142a Podstawowa Nr 2",
                "addr:postcode": "34-312",
                "addr:city": "Mi\u0119dzybrodzie Bialskie",
                "addr:street": "Kasperk\u00f3w",
                "addr:housenumber": "8",
                "addr:teryt:simc": 51090,
                "addr:teryt:sym_ul": 36044,
                "phone": "+48 338661844",
                "email": "sp2mbz@op.pl",
                "ref:regon": "070447778",
                "ref:vatin": "PL5532047111",
                "operator": "Gmina Czernich\u00f3w",
                "operator:type": "government",
                "amenity": "school"
            }
        },
        {
            "id": 4877,
            "type": "Feature",
            "geometry": {
                "type": "Point",
                "coordinates": [
                    19.19353,
                    49.7875
                ]
            },
            "properties": {
                "ref:rspo": 4877,
                "official_name": "Przedszkole w Mi\u0119dzybrodziu Bialskim",
                "name": "Przedszkole w Mi\u0119dzybrodziu Bialskim",
                "addr:postcode": "34-312",
                "addr:city": "Mi\u0119dzybrodzie Bialskie",
                "addr:street": "Bielska",
                "addr:housenumber": "2",
                "addr:teryt:simc": 51090,
                "addr:teryt:sym_ul": 1279,
                "phone": "+48 338661837",
                "email": "puchatkowo1@op.pl",
                "ref:regon": "072357460",
                "ref:vatin": "PL5531749360",
                "operator": "Gmina Czernich\u00f3w",
                "operator:type": "government",
                "amenity": "kindergarten"
            }
        },
        {
            "id": 8413,
            "type": "Feature",
            "geometry": {
                "type": "Point",
                "coordinates": [
                    19.19353,
                    49.78747
                ]
            },
            "properties": {
                "isced:level": "1;2",
                "ref:rspo": 8413,
                "official_name": "Szko\u0142a Podstawowa Nr 1 im. \u015aw. Jana Kantego w Mi\u0119dzybrodziu Bialskim",
                "name": "Szko\u0142a Podstawowa Nr 1",
                "addr:postcode": "34-312",
                "addr:city": "Mi\u0119dzybrodzie Bialskie",
                "addr:street": "Bielska",
                "addr:housenumber": "2",
                "addr:teryt:simc": 51090,
                "addr:teryt:sym_ul": 1279,
                "phone": "+48 338661801",
                "email": "sp1gmmb@op.pl",
                "website": "https:\/\/bialskiezs.edupage.org\/",
                "ref:regon": "070447755",
                "ref:vatin": "PL5532461595",
                "operator": "Gmina Czernich\u00f3w",
                "operator:type": "government",
                "amenity": "school"
            }
        }
    ]
}