{
    "type": "FeatureCollection",
    "features": [
        {
            "id": 3451,
            "type": "Feature",
            "geometry": {
                "type": "Point",
                "coordinates": [
                    19.17361,
                    49.65936
                ]
            },
            "properties": {
                "ref:rspo": 3451,
                "official_name": "Przedszkole nr 10 w \u017bywcu",
                "name": "Przedszkole nr 10 w \u017bywcu",
                "addr:postcode": "34-300",
                "addr:city": "\u017bywiec",
                "addr:street": "Browar Kolonia",
                "addr:housenumber": "44",
                "addr:city:simc": 927642,
                "addr:street:sym_ul": 38890,
                "phone": "+48 338615592",
                "email": "kasia.p6@interia.pl",
                "ref:regon": "070397276",
                "ref:vatin": "PL5532124863",
                "operator": "Miasto \u017bywiec",
                "operator:type": "government",
                "amenity": "kindergarten"
            }
        },
        {
            "id": 3493,
            "type": "Feature",
            "geometry": {
                "type": "Point",
                "coordinates": [
                    19.1744478,
                    49.6603329
                ]
            },
            "properties": {
                "ref:rspo": 3493,
                "official_name": "Anio\u0142kowo Gabriela Grzesiak - G\u0142owacka",
                "name": "Anio\u0142kowo Gabriela Grzesiak - G\u0142owacka",
                "addr:postcode": "34-300",
                "addr:city": "\u017bywiec",
                "addr:street": "Browar Kolonia",
                "addr:housenumber": "7a",
                "addr:city:simc": 927642,
                "addr:street:sym_ul": 38890,
                "phone": "+48 668341995",
                "email": "aniolkowo@poczta.onet.pl",
                "ref:regon": "243010390",
                "ref:vatin": "PL5532014181",
                "operator": "Gabriela Grzesiak-G\u0142owacka",
                "operator:type": "private",
                "amenity": "kindergarten"
            }
        },
        {
            "id": 3434,
            "type": "Feature",
            "geometry": {
                "type": "Point",
                "coordinates": [
                    19.1877299,
                    49.66796
                ]
            },
            "properties": {
                "ref:rspo": 3434,
                "official_name": "Przedszkole nr 1 z Oddzia\u0142ami Integracyjnymi w \u017bywcu",
                "name": "Przedszkole nr 1 z Oddzia\u0142ami Integracyjnymi w \u017bywcu",
                "addr:postcode": "34-300",
                "addr:city": "\u017bywiec",
                "addr:street": "Kazimierza Tetmajera",
                "addr:housenumber": "77",
                "addr:city:simc": 927642,
                "addr:street:sym_ul": 22771,
                "phone": "+48 338612717",
                "email": "przedszkole1zywiec@op.pl",
                "ref:regon": "071007969",
                "ref:vatin": "PL5532123473",
                "operator": "Miasto \u017bywiec",
                "operator:type": "government",
                "amenity": "kindergarten"
            }
        },
        {
            "id": 3442,
            "type": "Feature",
            "geometry": {
                "type": "Point",
                "coordinates": [
                    19.21495,
                    49.67214
                ]
            },
            "properties": {
                "ref:rspo": 3442,
                "official_name": "Przedszkole nr 6 w \u017bywcu",
                "name": "Przedszkole nr 6 w \u017bywcu",
                "addr:postcode": "34-300",
                "addr:city": "\u017bywiec",
                "addr:street": "Sporyska",
                "addr:housenumber": "39",
                "addr:city:simc": 927642,
                "addr:street:sym_ul": 20688,
                "phone": "+48 338613596",
                "email": "przedszkole_6@poczta.onet.eu",
                "ref:regon": "071008012",
                "ref:vatin": "PL5532124946",
                "operator": "Miasto \u017bywiec",
                "operator:type": "government",
                "amenity": "kindergarten"
            }
        },
        {
            "id": 7525,
            "type": "Feature",
            "geometry": {
                "type": "Point",
                "coordinates": [
                    19.22849,
                    49.67266
                ]
            },
            "properties": {
                "ref:rspo": 7525,
                "official_name": "Specjalny O\u015brodek Szkolno-Wychowawczy w \u017bywcu",
                "name": "Specjalny O\u015brodek Szkolno-Wychowawczy w \u017bywcu",
                "addr:postcode": "34-300",
                "addr:city": "\u017bywiec",
                "addr:street": "Miko\u0142aja Kopernika",
                "addr:housenumber": "77",
                "addr:city:simc": 927642,
                "addr:street:sym_ul": 9276,
                "phone": "+48 338613271",
                "email": "sekretariat@sosw.zywiec.pl",
                "website": "http:\/\/www.sosw.zywiec.pl\/",
                "ref:regon": "000196598",
                "ref:vatin": "PL5531672396",
                "operator": "Powiat \u017bywiecki",
                "operator:type": "government",
                "amenity": "school",
                "note": "Children RSPO: 113897;113969;113973"
            }
        },
        {
            "id": 113897,
            "type": "Feature",
            "geometry": {
                "type": "Point",
                "coordinates": [
                    19.22849,
                    49.67263
                ]
            },
            "properties": {
                "isced:level": "1;2",
                "ref:rspo": 113897,
                "official_name": "Szko\u0142a Podstawowa nr 10",
                "name": "Szko\u0142a Podstawowa nr 10",
                "addr:postcode": "34-300",
                "addr:city": "\u017bywiec",
                "addr:street": "Miko\u0142aja Kopernika",
                "addr:housenumber": "77",
                "addr:city:simc": 927642,
                "addr:street:sym_ul": 9276,
                "phone": "+48 338613271",
                "email": "sekretariat@sosw.zywiec.pl",
                "ref:regon": "240081350",
                "ref:vatin": "PL5531672396",
                "operator": "Powiat \u017bywiecki",
                "operator:type": "government",
                "amenity": "school",
                "note": "Parent RSPO: 7525"
            }
        },
        {
            "id": 113969,
            "type": "Feature",
            "geometry": {
                "type": "Point",
                "coordinates": [
                    19.22849,
                    49.6726
                ]
            },
            "properties": {
                "isced:level": "3",
                "ref:rspo": 113969,
                "official_name": "Bran\u017cowa Szko\u0142a I Stopnia nr 6",
                "name": "Bran\u017cowa Szko\u0142a I Stopnia nr 6",
                "addr:postcode": "34-300",
                "addr:city": "\u017bywiec",
                "addr:street": "Miko\u0142aja Kopernika",
                "addr:housenumber": "77",
                "addr:city:simc": 927642,
                "addr:street:sym_ul": 9276,
                "phone": "+48 338613271",
                "email": "sekretariat@sosw.zywiec.pl",
                "ref:regon": "240081372",
                "ref:vatin": "PL5531672396",
                "operator": "Powiat \u017bywiecki",
                "operator:type": "government",
                "amenity": "school",
                "note": "Parent RSPO: 7525"
            }
        },
        {
            "id": 113973,
            "type": "Feature",
            "geometry": {
                "type": "Point",
                "coordinates": [
                    19.22849,
                    49.67257
                ]
            },
            "properties": {
                "ref:rspo": 113973,
                "official_name": "Szko\u0142a Przysposabiaj\u0105ca do Pracy nr 1",
                "name": "Szko\u0142a Przysposabiaj\u0105ca do Pracy nr 1",
                "addr:postcode": "34-300",
                "addr:city": "\u017bywiec",
                "addr:street": "Miko\u0142aja Kopernika",
                "addr:housenumber": "77",
                "addr:city:simc": 927642,
                "addr:street:sym_ul": 9276,
                "phone": "+48 338613271",
                "email": "sekretariat@sosw.zywiec.pl",
                "ref:regon": "241000714",
                "ref:vatin": "PL5531672396",
                "operator": "Powiat \u017bywiecki",
                "operator:type": "government",
                "amenity": "school",
                "note": "Parent RSPO: 7525"
            }
        },
        {
            "id": 3446,
            "type": "Feature",
            "geometry": {
                "type": "Point",
                "coordinates": [
                    19.23224,
                    49.6738799
                ]
            },
            "properties": {
                "ref:rspo": 3446,
                "official_name": "Przedszkole nr 8 im. Marii Krystyny Habsburg w \u017bywcu",
                "name": "Przedszkole nr 8",
                "addr:postcode": "34-300",
                "addr:city": "\u017bywiec",
                "addr:street": "Grunwaldzka",
                "addr:housenumber": "17",
                "addr:city:simc": 927642,
                "addr:street:sym_ul": 6260,
                "phone": "+48 338613825",
                "email": "8przedszkole@gmail.com",
                "ref:regon": "070397253",
                "ref:vatin": "PL5532124857",
                "operator": "Miasto \u017bywiec",
                "operator:type": "government",
                "amenity": "kindergarten"
            }
        },
        {
            "id": 7257,
            "type": "Feature",
            "geometry": {
                "type": "Point",
                "coordinates": [
                    19.22894,
                    49.67481
                ]
            },
            "properties": {
                "ref:rspo": 7257,
                "official_name": "Zesp\u00f3\u0142 Szk\u00f3\u0142 Technicznych I Le\u015bnych w \u017bywcu",
                "name": "Zesp\u00f3\u0142 Szk\u00f3\u0142 Technicznych I Le\u015bnych w \u017bywcu",
                "addr:postcode": "34-300",
                "addr:city": "\u017bywiec",
                "addr:street": "Grunwaldzka",
                "addr:housenumber": "9",
                "addr:city:simc": 927642,
                "addr:street:sym_ul": 6260,
                "phone": "+48 338612840",
                "email": "sekretariat@zsdil.pl",
                "website": "http:\/\/www.zsdil.pl\/",
                "ref:regon": "072336480",
                "ref:vatin": "PL5531119156",
                "operator": "Powiat \u017bywiecki",
                "operator:type": "government",
                "landuse": "education",
                "fixme": "amenity=school, amenity=college albo landuse=education w zale\u017cno\u015bci od tego, jakie plac\u00f3wki wchodz\u0105 w sk\u0142ad zespo\u0142u. Sprawd\u017a, kiedy stosowa\u0107 amenity=* a kiedy landuse=education.",
                "note": "Children RSPO: 11298;11300"
            }
        },
        {
            "id": 11298,
            "type": "Feature",
            "geometry": {
                "type": "Point",
                "coordinates": [
                    19.22894,
                    49.67478
                ]
            },
            "properties": {
                "isced:level": "3",
                "ref:rspo": 11298,
                "official_name": "Technikum nr 4 w \u017bywcu",
                "name": "Technikum nr 4 w \u017bywcu",
                "addr:postcode": "34-300",
                "addr:city": "\u017bywiec",
                "addr:street": "Grunwaldzka",
                "addr:housenumber": "9",
                "addr:city:simc": 927642,
                "addr:street:sym_ul": 6260,
                "phone": "+48 338612840",
                "email": "sekretariat@zsdil.pl",
                "ref:regon": "072798281",
                "ref:vatin": "PL5531119156",
                "operator": "Powiat \u017bywiecki",
                "operator:type": "government",
                "amenity": "school",
                "note": "Parent RSPO: 7257"
            }
        },
        {
            "id": 11300,
            "type": "Feature",
            "geometry": {
                "type": "Point",
                "coordinates": [
                    19.22894,
                    49.67475
                ]
            },
            "properties": {
                "isced:level": "4",
                "ref:rspo": 11300,
                "official_name": "Szko\u0142a Policealna nr 5 w \u017bywcu",
                "name": "Szko\u0142a Policealna nr 5 w \u017bywcu",
                "addr:postcode": "34-300",
                "addr:city": "\u017bywiec",
                "addr:street": "Grunwaldzka",
                "addr:housenumber": "9",
                "addr:city:simc": 927642,
                "addr:street:sym_ul": 6260,
                "phone": "+48 338612840",
                "email": "sekretariat@zsdil.pl",
                "website": "http:\/\/www.zsdil.pl\/",
                "ref:regon": "072336391",
                "ref:vatin": "PL5531119156",
                "operator": "Powiat \u017bywiecki",
                "operator:type": "government",
                "amenity": "college",
                "note": "Parent RSPO: 7257"
            }
        },
        {
            "id": 268002,
            "type": "Feature",
            "geometry": {
                "type": "Point",
                "coordinates": [
                    19.24729,
                    49.6759
                ]
            },
            "properties": {
                "isced:level": "1;2",
                "ref:rspo": 268002,
                "official_name": "Niepubliczna Szko\u0142a Podstawowa Fundacji Kr\u00f3lowej \u015awi\u0119tej Jadwigi w \u017bywcu",
                "name": "Niepubliczna Szko\u0142a Podstawowa Fundacji Kr\u00f3lowej \u015awi\u0119tej Jadwigi w \u017bywcu",
                "addr:postcode": "34-300",
                "addr:city": "\u017bywiec",
                "addr:street": "Pod \u0141ysk\u0105",
                "addr:housenumber": "36",
                "addr:city:simc": 927642,
                "addr:street:sym_ul": 29177,
                "phone": "+48 334454533",
                "email": "biuromms@szkolamontessori.com.pl",
                "website": "http:\/\/www.szkolamontessori.com.pl",
                "ref:regon": "380838579",
                "operator": "Fundacja Kr\u00f3lowej \u015awi\u0119tej Jadwigi",
                "operator:type": "ngo",
                "amenity": "school"
            }
        },
        {
            "id": 25015,
            "type": "Feature",
            "geometry": {
                "type": "Point",
                "coordinates": [
                    19.22533,
                    49.67596
                ]
            },
            "properties": {
                "isced:level": "3",
                "ref:rspo": 25015,
                "official_name": "Liceum Og\u00f3lnokszta\u0142c\u0105ce Mistrzostwa Sportowego",
                "name": "Liceum Og\u00f3lnokszta\u0142c\u0105ce Mistrzostwa Sportowego",
                "addr:postcode": "34-300",
                "addr:city": "\u017bywiec",
                "addr:street": "Grunwaldzka",
                "addr:housenumber": "5",
                "addr:city:simc": 927642,
                "addr:street:sym_ul": 6260,
                "phone": "+48 502500760",
                "email": "sekretariat@e-smszapn.pl",
                "ref:regon": "243063239",
                "operator": "\u017bywiecka Akademia Pi\u0142ki No\u017cnej Sp\u00f3\u0142ka Z Ograniczon\u0105 Odpowiedzialno\u015bci\u0105",
                "operator:type": "private",
                "amenity": "school"
            }
        },
        {
            "id": 133320,
            "type": "Feature",
            "geometry": {
                "type": "Point",
                "coordinates": [
                    19.22533,
                    49.67593
                ]
            },
            "properties": {
                "isced:level": "1;2",
                "ref:rspo": 133320,
                "official_name": "Szko\u0142a Podstawowa Mistrzostwa Sportowego w \u017bywcu",
                "name": "Szko\u0142a Podstawowa Mistrzostwa Sportowego w \u017bywcu",
                "addr:postcode": "34-300",
                "addr:city": "\u017bywiec",
                "addr:street": "Grunwaldzka",
                "addr:housenumber": "5",
                "addr:city:simc": 927642,
                "addr:street:sym_ul": 6260,
                "phone": "+48 338637008",
                "email": "izabela.kubik@smszapn.pl",
                "website": "http:\/\/sms-zapn.pl\/",
                "ref:regon": "367012378",
                "operator": "\u017bywiecka Akademia Pi\u0142ki No\u017cnej Sp\u00f3\u0142ka Z Ograniczon\u0105 Odpowiedzialno\u015bci\u0105",
                "operator:type": "private",
                "amenity": "school"
            }
        },
        {
            "id": 278889,
            "type": "Feature",
            "geometry": {
                "type": "Point",
                "coordinates": [
                    19.22533,
                    49.675900000000006
                ]
            },
            "properties": {
                "isced:level": "1;2",
                "ref:rspo": 278889,
                "official_name": "Szko\u0142a Podstawowa Mistrzostwa Sportowego w \u017bywcu",
                "name": "Szko\u0142a Podstawowa Mistrzostwa Sportowego w \u017bywcu",
                "addr:postcode": "34-300",
                "addr:city": "\u017bywiec",
                "addr:street": "Grunwaldzka",
                "addr:housenumber": "5",
                "addr:city:simc": 927642,
                "addr:street:sym_ul": 6260,
                "email": "zywiec@smsw.pl",
                "ref:regon": "520152546",
                "operator": "Junior Sp\u00f3\u0142ka Z Ograniczon\u0105 Odpowiedzialno\u015bci\u0105",
                "operator:type": "private",
                "amenity": "school"
            }
        },
        {
            "id": 278890,
            "type": "Feature",
            "geometry": {
                "type": "Point",
                "coordinates": [
                    19.22533,
                    49.67587
                ]
            },
            "properties": {
                "isced:level": "3",
                "ref:rspo": 278890,
                "official_name": "Liceum Og\u00f3lnokszta\u0142c\u0105ce Mistrzostwa Sportowego w \u017bywcu",
                "name": "Liceum Og\u00f3lnokszta\u0142c\u0105ce Mistrzostwa Sportowego w \u017bywcu",
                "addr:postcode": "34-300",
                "addr:city": "\u017bywiec",
                "addr:street": "Grunwaldzka",
                "addr:housenumber": "5",
                "addr:city:simc": 927642,
                "addr:street:sym_ul": 6260,
                "phone": "+48 504609568",
                "email": "zywiec@smsw.pl",
                "ref:regon": "520152575",
                "operator": "Junior Sp\u00f3\u0142ka Z Ograniczon\u0105 Odpowiedzialno\u015bci\u0105",
                "operator:type": "private",
                "amenity": "school"
            }
        },
        {
            "id": 20816,
            "type": "Feature",
            "geometry": {
                "type": "Point",
                "coordinates": [
                    19.22098,
                    49.6776
                ]
            },
            "properties": {
                "isced:level": "3",
                "ref:rspo": 20816,
                "official_name": "Niepubliczne Liceum Og\u00f3lnokszta\u0142c\u0105ce Szko\u0142a Mistrzostwa Sportowego im. \u017bywieckich Habsburg\u00f3w",
                "name": "Niepubliczne Liceum Og\u00f3lnokszta\u0142c\u0105ce Szko\u0142a Mistrzostwa Sportowego",
                "addr:postcode": "34-300",
                "addr:city": "\u017bywiec",
                "addr:street": "Grunwaldzka",
                "addr:housenumber": "3",
                "addr:city:simc": 927642,
                "addr:street:sym_ul": 6260,
                "phone": "+48 338666811",
                "email": "smszywiec@interia.pl",
                "ref:regon": "243056506",
                "ref:vatin": "PL5531196754",
                "operator": "Ludowy Klub Sportowy \"\u0141ucznik\"",
                "operator:type": "ngo",
                "amenity": "school"
            }
        },
        {
            "id": 7260,
            "type": "Feature",
            "geometry": {
                "type": "Point",
                "coordinates": [
                    19.21963,
                    49.67792
                ]
            },
            "properties": {
                "ref:rspo": 7260,
                "official_name": "Zesp\u00f3\u0142 Szk\u00f3\u0142 Samochodowych w \u017bywcu",
                "name": "Zesp\u00f3\u0142 Szk\u00f3\u0142 Samochodowych w \u017bywcu",
                "addr:postcode": "34-300",
                "addr:city": "\u017bywiec",
                "addr:street": "Grunwaldzka",
                "addr:housenumber": "10",
                "addr:door": "-",
                "addr:city:simc": 927642,
                "addr:street:sym_ul": 6260,
                "phone": "+48 338615281",
                "email": "zss@poczta.fm",
                "website": "http:\/\/www.zss-zywiec.edu.pl",
                "ref:regon": "000580612",
                "ref:vatin": "PL5531250169",
                "operator": "Powiat \u017bywiecki",
                "operator:type": "government",
                "landuse": "education",
                "fixme": "amenity=school, amenity=college albo landuse=education w zale\u017cno\u015bci od tego, jakie plac\u00f3wki wchodz\u0105 w sk\u0142ad zespo\u0142u. Sprawd\u017a, kiedy stosowa\u0107 amenity=* a kiedy landuse=education.",
                "note": "Children RSPO: 9893;9894"
            }
        },
        {
            "id": 7526,
            "type": "Feature",
            "geometry": {
                "type": "Point",
                "coordinates": [
                    19.21963,
                    49.67789
                ]
            },
            "properties": {
                "ref:rspo": 7526,
                "official_name": "Poradnia Psychologiczno-Pedagogiczna w \u017bywcu",
                "name": "Poradnia Psychologiczno-Pedagogiczna w \u017bywcu",
                "addr:postcode": "34-300",
                "addr:city": "\u017bywiec",
                "addr:street": "Grunwaldzka",
                "addr:housenumber": "10",
                "addr:door": "-",
                "addr:city:simc": 927642,
                "addr:street:sym_ul": 6260,
                "phone": "+48 338613309",
                "email": "pppzywiec@interia.pl",
                "website": "http:\/\/www.pppzywiec.org",
                "ref:regon": "000745622",
                "ref:vatin": "PL5532126342",
                "operator": "Powiat \u017bywiecki",
                "operator:type": "government",
                "healthcare": "counselling",
                "counselling_type": "education",
                "fixme": "w zale\u017cno\u015bci od przedmiotu dzia\u0142alno\u015bci (np. healthcare=counselling + counselling_type=education albo healthcare=psychotherapist)"
            }
        },
        {
            "id": 9893,
            "type": "Feature",
            "geometry": {
                "type": "Point",
                "coordinates": [
                    19.21963,
                    49.67786
                ]
            },
            "properties": {
                "isced:level": "3",
                "ref:rspo": 9893,
                "official_name": "Technikum nr 5",
                "name": "Technikum nr 5",
                "addr:postcode": "34-300",
                "addr:city": "\u017bywiec",
                "addr:street": "Grunwaldzka",
                "addr:housenumber": "10",
                "addr:door": "-",
                "addr:city:simc": 927642,
                "addr:street:sym_ul": 6260,
                "phone": "+48 338615281",
                "email": "zss@poczta.fm.pl",
                "website": "http:\/\/zss-zywiec.edu.pl\/",
                "ref:regon": "072801600",
                "ref:vatin": "PL5531250169",
                "operator": "Powiat \u017bywiecki",
                "operator:type": "government",
                "amenity": "school",
                "note": "Parent RSPO: 7260"
            }
        },
        {
            "id": 9894,
            "type": "Feature",
            "geometry": {
                "type": "Point",
                "coordinates": [
                    19.21963,
                    49.67783
                ]
            },
            "properties": {
                "isced:level": "3",
                "ref:rspo": 9894,
                "official_name": "Bran\u017cowa Szko\u0142a I Stopnia nr 4 w \u017bywcu",
                "name": "Bran\u017cowa Szko\u0142a I Stopnia nr 4 w \u017bywcu",
                "addr:postcode": "34-300",
                "addr:city": "\u017bywiec",
                "addr:street": "Grunwaldzka",
                "addr:housenumber": "10",
                "addr:city:simc": 927642,
                "addr:street:sym_ul": 6260,
                "phone": "+48 338615281",
                "email": "zss@poczta.fm.pl",
                "website": "http:\/\/zss-zywiec.edu.pl\/",
                "ref:regon": "072801592",
                "ref:vatin": "PL5531250169",
                "operator": "Powiat \u017bywiecki",
                "operator:type": "government",
                "amenity": "school",
                "note": "Parent RSPO: 7260"
            }
        },
        {
            "id": 3317,
            "type": "Feature",
            "geometry": {
                "type": "Point",
                "coordinates": [
                    19.21859,
                    49.67825
                ]
            },
            "properties": {
                "isced:level": "1;2",
                "ref:rspo": 3317,
                "official_name": "Szko\u0142a Podstawowa nr 3 im. Adama Mickiewicza w \u017bywcu",
                "name": "Szko\u0142a Podstawowa nr 3",
                "addr:postcode": "34-300",
                "addr:city": "\u017bywiec",
                "addr:street": "Marii Sk\u0142odowskiej-Curie",
                "addr:housenumber": "2",
                "addr:city:simc": 927642,
                "addr:street:sym_ul": 20068,
                "phone": "+48 338612013",
                "email": "sp3zywiec@poczta.onet.pl",
                "website": "http:\/\/www.sp3zywiec.superszkolna.pl",
                "ref:regon": "070397394",
                "ref:vatin": "PL5532124886",
                "operator": "Miasto \u017bywiec",
                "operator:type": "government",
                "amenity": "school"
            }
        },
        {
            "id": 3349,
            "type": "Feature",
            "geometry": {
                "type": "Point",
                "coordinates": [
                    19.1887,
                    49.68176
                ]
            },
            "properties": {
                "isced:level": "1;2",
                "ref:rspo": 3349,
                "official_name": "Szko\u0142a Podstawowa nr 9 im. Jana Paw\u0142a II w \u017bywcu",
                "name": "Szko\u0142a Podstawowa nr 9",
                "addr:postcode": "34-300",
                "addr:city": "\u017bywiec",
                "addr:street": "Dworcowa",
                "addr:housenumber": "26",
                "addr:city:simc": 927642,
                "addr:street:sym_ul": 4434,
                "phone": "+48 334756869",
                "email": "sp9zywiec@poczta.onet.pl",
                "website": "http:\/\/www.sp9zywiec.edu.pl",
                "ref:regon": "070688588",
                "ref:vatin": "PL5532000150",
                "operator": "Miasto \u017bywiec",
                "operator:type": "government",
                "amenity": "school"
            }
        },
        {
            "id": 13483,
            "type": "Feature",
            "geometry": {
                "type": "Point",
                "coordinates": [
                    19.1887,
                    49.681729999999995
                ]
            },
            "properties": {
                "isced:level": "3",
                "ref:rspo": 13483,
                "official_name": "Niepubliczne Liceum Og\u00f3lnokszta\u0142c\u0105ce dla Doros\u0142ych",
                "name": "Niepubliczne Liceum Og\u00f3lnokszta\u0142c\u0105ce dla Doros\u0142ych",
                "addr:postcode": "34-300",
                "addr:city": "\u017bywiec",
                "addr:street": "Dworcowa",
                "addr:housenumber": "26",
                "addr:city:simc": 927642,
                "addr:street:sym_ul": 4434,
                "phone": "+48 334756300",
                "email": "sekretariat@nsdd.pl",
                "ref:regon": "243074160",
                "ref:vatin": "PL5531053109",
                "operator": "Renata Kozie\u0142",
                "operator:type": "private",
                "amenity": "school"
            }
        },
        {
            "id": 34212,
            "type": "Feature",
            "geometry": {
                "type": "Point",
                "coordinates": [
                    19.1887,
                    49.6817
                ]
            },
            "properties": {
                "isced:level": "4",
                "ref:rspo": 34212,
                "official_name": "Niepubliczna Policealna Szko\u0142a dla Doros\u0142ych",
                "name": "Niepubliczna Policealna Szko\u0142a dla Doros\u0142ych",
                "addr:postcode": "34-300",
                "addr:city": "\u017bywiec",
                "addr:street": "Dworcowa",
                "addr:housenumber": "26",
                "addr:city:simc": 927642,
                "addr:street:sym_ul": 4434,
                "phone": "+48 334756300",
                "email": "sekretariat@nsdd.pl",
                "ref:regon": "243073893",
                "ref:vatin": "PL5531053109",
                "operator": "Renata Kozie\u0142",
                "operator:type": "private",
                "amenity": "college"
            }
        },
        {
            "id": 34214,
            "type": "Feature",
            "geometry": {
                "type": "Point",
                "coordinates": [
                    19.2010599,
                    49.6833
                ]
            },
            "properties": {
                "ref:rspo": 34214,
                "official_name": "Centrum Rehabilitacyjno Edukacyjne dla Dzieci",
                "name": "Centrum Rehabilitacyjno Edukacyjne dla Dzieci",
                "addr:postcode": "34-300",
                "addr:city": "\u017bywiec",
                "addr:street": "Wincentego Witosa",
                "addr:housenumber": "3",
                "addr:city:simc": 927642,
                "addr:street:sym_ul": 24459,
                "phone": "+48 338602513",
                "email": "fundacjapm@go2.pl",
                "ref:regon": "243070392",
                "ref:vatin": "PL5532324941",
                "operator": "Fundacja Pomocy Dzieciom",
                "operator:type": "ngo",
                "amenity": "school"
            }
        },
        {
            "id": 3473,
            "type": "Feature",
            "geometry": {
                "type": "Point",
                "coordinates": [
                    19.20731,
                    49.68345
                ]
            },
            "properties": {
                "ref:rspo": 3473,
                "official_name": "Akademia Malucha",
                "name": "Akademia Malucha",
                "addr:postcode": "34-300",
                "addr:city": "\u017bywiec",
                "addr:street": "Komorowskich",
                "addr:housenumber": "97",
                "addr:city:simc": 927642,
                "addr:street:sym_ul": 9076,
                "phone": "+48 516135088",
                "email": "akademiamalucha@kaprys.com.pl",
                "ref:regon": "243010326",
                "ref:vatin": "PL5471126097",
                "operator": "Marzena Dybek",
                "operator:type": "private",
                "amenity": "kindergarten"
            }
        },
        {
            "id": 3456,
            "type": "Feature",
            "geometry": {
                "type": "Point",
                "coordinates": [
                    19.20582,
                    49.68425
                ]
            },
            "properties": {
                "ref:rspo": 3456,
                "official_name": "Przedszkole nr 11 im. Rodziny Komorowskich w \u017bywcu",
                "name": "Przedszkole nr 11",
                "addr:postcode": "34-300",
                "addr:city": "\u017bywiec",
                "addr:street": "Osiedle Osiedle Parkowe",
                "addr:housenumber": "16",
                "addr:city:simc": 927642,
                "addr:street:sym_ul": 39469,
                "phone": "+48 334754850",
                "email": "p11zywiec@gmail.com",
                "website": "http:\/\/www.parkowe.edupage.org",
                "ref:regon": "071008041",
                "ref:vatin": "PL5532124952",
                "operator": "Miasto \u017bywiec",
                "operator:type": "government",
                "amenity": "kindergarten"
            }
        },
        {
            "id": 130762,
            "type": "Feature",
            "geometry": {
                "type": "Point",
                "coordinates": [
                    19.21141,
                    49.68482
                ]
            },
            "properties": {
                "ref:rspo": 130762,
                "official_name": "Przedszkole Niepubliczne \"Akuku\" z Oddzia\u0142ami Integracyjnymi w \u017bywcu",
                "name": "Przedszkole Niepubliczne \"Akuku\" z Oddzia\u0142ami Integracyjnymi w \u017bywcu",
                "addr:postcode": "34-300",
                "addr:city": "\u017bywiec",
                "addr:street": "Komisji Edukacji Narodowej",
                "addr:housenumber": "15",
                "addr:city:simc": 927642,
                "addr:street:sym_ul": 9066,
                "phone": "+48 531361131",
                "email": "kontakt@akukuzywiec.pl",
                "website": "http:\/\/www.akukuzywiec.pl",
                "ref:regon": "364484390",
                "ref:vatin": "PL5532166778",
                "operator": "Nowatorownia Benedykt Biegun; Przedszkole Niepubliczne \"Akuku\"",
                "operator:type": "consortium",
                "amenity": "kindergarten"
            }
        },
        {
            "id": 6873,
            "type": "Feature",
            "geometry": {
                "type": "Point",
                "coordinates": [
                    19.1896099,
                    49.68518
                ]
            },
            "properties": {
                "ref:rspo": 6873,
                "official_name": "Zesp\u00f3\u0142 Szk\u00f3\u0142 Budowlano Drzewnych im. Armii Krajowej w \u017bywcu",
                "name": "Zesp\u00f3\u0142 Szk\u00f3\u0142 Budowlano Drzewnych",
                "addr:postcode": "34-300",
                "addr:city": "\u017bywiec",
                "addr:street": "Szkolna",
                "addr:housenumber": "2",
                "addr:door": "-",
                "addr:city:simc": 927642,
                "addr:street:sym_ul": 21970,
                "phone": "+48 338612175",
                "email": "sekretariat@zsbd.edu.pl",
                "website": "http:\/\/zsbd.edu.pl",
                "ref:regon": "000199510",
                "ref:vatin": "PL5531735725",
                "operator": "Powiat \u017bywiecki",
                "operator:type": "government",
                "landuse": "education",
                "fixme": "amenity=school, amenity=college albo landuse=education w zale\u017cno\u015bci od tego, jakie plac\u00f3wki wchodz\u0105 w sk\u0142ad zespo\u0142u. Sprawd\u017a, kiedy stosowa\u0107 amenity=* a kiedy landuse=education.",
                "note": "Children RSPO: 7588;11650;11651;274785"
            }
        },
        {
            "id": 7588,
            "type": "Feature",
            "geometry": {
                "type": "Point",
                "coordinates": [
                    19.1896099,
                    49.68515
                ]
            },
            "properties": {
                "ref:rspo": 7588,
                "official_name": "Centrum Kszta\u0142cenia Zawodowego w \u017bywcu",
                "name": "Centrum Kszta\u0142cenia Zawodowego w \u017bywcu",
                "addr:postcode": "34-300",
                "addr:city": "\u017bywiec",
                "addr:street": "Szkolna",
                "addr:housenumber": "2",
                "addr:door": "-",
                "addr:city:simc": 927642,
                "addr:street:sym_ul": 21970,
                "phone": "+48 338612175",
                "email": "sekretariat@zsbd.edu.pl",
                "website": "http:\/\/www.zsbd.edu.pl",
                "ref:regon": "243026540",
                "operator": "Powiat \u017bywiecki",
                "operator:type": "government",
                "fixme": "w zale\u017cno\u015bci od przedmiotu dzia\u0142alno\u015bci (np. amenity=training + training=*, amenity=dancing_school, amenity=language_school, amenity=music_school)",
                "note": "Parent RSPO: 6873"
            }
        },
        {
            "id": 11650,
            "type": "Feature",
            "geometry": {
                "type": "Point",
                "coordinates": [
                    19.1896099,
                    49.685120000000005
                ]
            },
            "properties": {
                "isced:level": "3",
                "ref:rspo": 11650,
                "official_name": "Technikum nr 2 w \u017bywcu",
                "name": "Technikum nr 2 w \u017bywcu",
                "addr:postcode": "34-300",
                "addr:city": "\u017bywiec",
                "addr:street": "Szkolna",
                "addr:housenumber": "2",
                "addr:door": "-",
                "addr:city:simc": 927642,
                "addr:street:sym_ul": 21970,
                "phone": "+48 338612175",
                "email": "sekretariat@zsbd.edu.pl",
                "website": "http:\/\/www.zsbd.edu.pl",
                "ref:regon": "070454206",
                "ref:vatin": "PL5531735725",
                "operator": "Powiat \u017bywiecki",
                "operator:type": "government",
                "amenity": "school",
                "note": "Parent RSPO: 6873"
            }
        },
        {
            "id": 11651,
            "type": "Feature",
            "geometry": {
                "type": "Point",
                "coordinates": [
                    19.1896099,
                    49.68509
                ]
            },
            "properties": {
                "isced:level": "3",
                "ref:rspo": 11651,
                "official_name": "Bran\u017cowa Szko\u0142a I Stopnia nr 2 w \u017bywcu",
                "name": "Bran\u017cowa Szko\u0142a I Stopnia nr 2 w \u017bywcu",
                "addr:postcode": "34-300",
                "addr:city": "\u017bywiec",
                "addr:street": "Szkolna",
                "addr:housenumber": "2",
                "addr:city:simc": 927642,
                "addr:street:sym_ul": 21970,
                "phone": "+48 338612175",
                "email": "sekretariat@zsbd.edu.pl",
                "website": "http:\/\/www.zsbd.edu.pl",
                "ref:regon": "070454235",
                "ref:vatin": "PL5531735725",
                "operator": "Powiat \u017bywiecki",
                "operator:type": "government",
                "amenity": "school",
                "note": "Parent RSPO: 6873"
            }
        },
        {
            "id": 274785,
            "type": "Feature",
            "geometry": {
                "type": "Point",
                "coordinates": [
                    19.1896099,
                    49.68506
                ]
            },
            "properties": {
                "isced:level": "3",
                "ref:rspo": 274785,
                "official_name": "Bran\u017cowa Szko\u0142a II Stopnia nr 2 w \u017bywcu",
                "name": "Bran\u017cowa Szko\u0142a II Stopnia nr 2 w \u017bywcu",
                "addr:postcode": "34-300",
                "addr:city": "\u017bywiec",
                "addr:street": "Szkolna",
                "addr:housenumber": "2",
                "addr:city:simc": 927642,
                "addr:street:sym_ul": 21970,
                "phone": "+48 338612175",
                "email": "sekretariat@zsbd.edu.pl",
                "website": "http:\/\/www.zsbd.edu.pl",
                "ref:regon": "386297340",
                "operator": "Powiat \u017bywiecki",
                "operator:type": "government",
                "amenity": "school",
                "note": "Parent RSPO: 6873"
            }
        },
        {
            "id": 262814,
            "type": "Feature",
            "geometry": {
                "type": "Point",
                "coordinates": [
                    19.2057259,
                    49.6855349
                ]
            },
            "properties": {
                "ref:rspo": 262814,
                "official_name": "Niepubliczne Przedszkole Integracyjno - Terapeutyczne \"Niebieski Motyl\"",
                "name": "Niepubliczne Przedszkole Integracyjno - Terapeutyczne \"Niebieski Motyl\"",
                "addr:postcode": "34-300",
                "addr:city": "\u017bywiec",
                "addr:street": "Komorowskich",
                "addr:housenumber": "53",
                "addr:city:simc": 927642,
                "addr:street:sym_ul": 9076,
                "phone": "+48 574235947",
                "email": "niebieski.motyl.zywiec@wp.pl",
                "ref:regon": "368061290",
                "operator": "Bekabe Sp\u00f3\u0142ka Z Ograniczon\u0105 Odpowiedzialno\u015bci\u0105",
                "operator:type": "private",
                "amenity": "kindergarten"
            }
        },
        {
            "id": 15510,
            "type": "Feature",
            "geometry": {
                "type": "Point",
                "coordinates": [
                    19.17963,
                    49.68554
                ]
            },
            "properties": {
                "ref:rspo": 15510,
                "official_name": "Beskidzkie Centrum Edukacyjne",
                "name": "Beskidzkie Centrum Edukacyjne",
                "addr:postcode": "34-300",
                "addr:city": "\u017bywiec",
                "addr:street": "Kabaty",
                "addr:housenumber": "2",
                "addr:city:simc": 927642,
                "addr:street:sym_ul": 7711,
                "phone": "+48 338611687",
                "email": "kontakt@centrumedukacyjne.eu",
                "website": "http:\/\/www.centrumedukacyjne.eu",
                "ref:regon": "243041717",
                "ref:vatin": "PL5532443545",
                "operator": "Beskidzkie Centrum Edukacyjne Sp\u00f3\u0142ka Z Ograniczon\u0105 Odpowiedzialno\u015bci\u0105",
                "operator:type": "private",
                "fixme": "w zale\u017cno\u015bci od przedmiotu dzia\u0142alno\u015bci (np. amenity=training + training=*, amenity=dancing_school, amenity=language_school, amenity=music_school)"
            }
        },
        {
            "id": 34217,
            "type": "Feature",
            "geometry": {
                "type": "Point",
                "coordinates": [
                    19.17963,
                    49.68551
                ]
            },
            "properties": {
                "ref:rspo": 34217,
                "official_name": "Plac\u00f3wka Wychowania Pozaszkolnego Bce",
                "name": "Plac\u00f3wka Wychowania Pozaszkolnego Bce",
                "addr:postcode": "34-300",
                "addr:city": "\u017bywiec",
                "addr:street": "Kabaty",
                "addr:housenumber": "2",
                "addr:city:simc": 927642,
                "addr:street:sym_ul": 7711,
                "phone": "+48 338611687",
                "email": "kontakt@centrumedukacyjne.eu",
                "ref:regon": "243070191",
                "ref:vatin": "PL5532443545",
                "operator": "Beskidzkie Centrum Edukacyjne Sp\u00f3\u0142ka Z Ograniczon\u0105 Odpowiedzialno\u015bci\u0105",
                "operator:type": "private",
                "fixme": "w zale\u017cno\u015bci od przedmiotu dzia\u0142alno\u015bci (np. amenity=training + training=*, amenity=dancing_school, amenity=language_school, amenity=music_school)"
            }
        },
        {
            "id": 7256,
            "type": "Feature",
            "geometry": {
                "type": "Point",
                "coordinates": [
                    19.21115,
                    49.68567
                ]
            },
            "properties": {
                "ref:rspo": 7256,
                "official_name": "Zesp\u00f3\u0142 Szk\u00f3\u0142 Mechaniczno-Elektrycznych w \u017bywcu",
                "name": "Zesp\u00f3\u0142 Szk\u00f3\u0142 Mechaniczno-Elektrycznych w \u017bywcu",
                "addr:postcode": "34-300",
                "addr:city": "\u017bywiec",
                "addr:street": "Komisji Edukacji Narodowej",
                "addr:housenumber": "3",
                "addr:city:simc": 927642,
                "addr:street:sym_ul": 9066,
                "phone": "+48 338613428",
                "email": "biuro@zsme.zywiec.pl",
                "website": "http:\/\/www.zsme.zywiec.pl\/",
                "ref:regon": "000187837",
                "ref:vatin": "PL5531607855",
                "operator": "Powiat \u017bywiecki",
                "operator:type": "government",
                "landuse": "education",
                "fixme": "amenity=school, amenity=college albo landuse=education w zale\u017cno\u015bci od tego, jakie plac\u00f3wki wchodz\u0105 w sk\u0142ad zespo\u0142u. Sprawd\u017a, kiedy stosowa\u0107 amenity=* a kiedy landuse=education.",
                "note": "Children RSPO: 8877;8878;8879;8880;8952;131944;274786"
            }
        },
        {
            "id": 21447,
            "type": "Feature",
            "geometry": {
                "type": "Point",
                "coordinates": [
                    19.21115,
                    49.68564
                ]
            },
            "properties": {
                "isced:level": "3",
                "ref:rspo": 21447,
                "official_name": "Liceum Og\u00f3lnokszta\u0142c\u0105ce dla M\u0142odzie\u017cy nr 7",
                "name": "Liceum Og\u00f3lnokszta\u0142c\u0105ce dla M\u0142odzie\u017cy nr 7",
                "addr:postcode": "34-300",
                "addr:city": "\u017bywiec",
                "addr:street": "Komisji Edukacji Narodowej",
                "addr:housenumber": "3",
                "addr:city:simc": 927642,
                "addr:street:sym_ul": 9066,
                "phone": "+48 338618959",
                "email": "nsoiz@poczta.onet.pl",
                "ref:regon": "243094642",
                "ref:vatin": "PL5531384361",
                "operator": "Maria Szwed",
                "operator:type": "private",
                "amenity": "school"
            }
        },
        {
            "id": 21450,
            "type": "Feature",
            "geometry": {
                "type": "Point",
                "coordinates": [
                    19.21115,
                    49.685610000000004
                ]
            },
            "properties": {
                "isced:level": "3",
                "ref:rspo": 21450,
                "official_name": "Liceum Og\u00f3lnokszta\u0142c\u0105ce dla Doros\u0142ych nr 1",
                "name": "Liceum Og\u00f3lnokszta\u0142c\u0105ce dla Doros\u0142ych nr 1",
                "addr:postcode": "34-300",
                "addr:city": "\u017bywiec",
                "addr:street": "Komisji Edukacji Narodowej",
                "addr:housenumber": "3",
                "addr:city:simc": 927642,
                "addr:street:sym_ul": 9066,
                "phone": "+48 338618959",
                "email": "nsoiz@poczta.onet.pl",
                "ref:regon": "243057084",
                "ref:vatin": "PL5531384361",
                "operator": "Maria Szwed",
                "operator:type": "private",
                "amenity": "school"
            }
        },
        {
            "id": 25021,
            "type": "Feature",
            "geometry": {
                "type": "Point",
                "coordinates": [
                    19.21115,
                    49.68558
                ]
            },
            "properties": {
                "isced:level": "4",
                "ref:rspo": 25021,
                "official_name": "Policealna Szko\u0142a Zawodowa",
                "name": "Policealna Szko\u0142a Zawodowa",
                "addr:postcode": "34-300",
                "addr:city": "\u017bywiec",
                "addr:street": "Komisji Edukacji Narodowej",
                "addr:housenumber": "3",
                "addr:city:simc": 927642,
                "addr:street:sym_ul": 9066,
                "phone": "+48 338618959",
                "email": "nsoiz@poczta.onet.pl",
                "ref:regon": "243061690",
                "ref:vatin": "PL5531384361",
                "operator": "Maria Szwed",
                "operator:type": "private",
                "amenity": "college"
            }
        },
        {
            "id": 34208,
            "type": "Feature",
            "geometry": {
                "type": "Point",
                "coordinates": [
                    19.21115,
                    49.68555
                ]
            },
            "properties": {
                "isced:level": "4",
                "ref:rspo": 34208,
                "official_name": "Policealna Szko\u0142a Medyczna",
                "name": "Policealna Szko\u0142a Medyczna",
                "addr:postcode": "34-300",
                "addr:city": "\u017bywiec",
                "addr:street": "Komisji Edukacji Narodowej",
                "addr:housenumber": "3",
                "addr:city:simc": 927642,
                "addr:street:sym_ul": 9066,
                "phone": "+48 338618959",
                "email": "nsoiz@poczta.onet.pl",
                "website": "http:\/\/www.nsoiz.edu.pl",
                "ref:regon": "243073841",
                "ref:vatin": "PL5531384361",
                "operator": "Maria Szwed",
                "operator:type": "private",
                "amenity": "college"
            }
        },
        {
            "id": 8877,
            "type": "Feature",
            "geometry": {
                "type": "Point",
                "coordinates": [
                    19.21115,
                    49.685520000000004
                ]
            },
            "properties": {
                "isced:level": "3",
                "ref:rspo": 8877,
                "official_name": "Technikum nr 1",
                "name": "Technikum nr 1",
                "addr:postcode": "34-300",
                "addr:city": "\u017bywiec",
                "addr:street": "Komisji Edukacji Narodowej",
                "addr:housenumber": "3",
                "addr:city:simc": 927642,
                "addr:street:sym_ul": 9066,
                "phone": "+48 338613428",
                "email": "biuro@zsme.zywiec.pl",
                "website": "http:\/\/www.zsme.zywiec.pl\/",
                "ref:regon": "070453313",
                "ref:vatin": "PL5531607855",
                "operator": "Powiat \u017bywiecki",
                "operator:type": "government",
                "amenity": "school",
                "note": "Parent RSPO: 7256"
            }
        },
        {
            "id": 8878,
            "type": "Feature",
            "geometry": {
                "type": "Point",
                "coordinates": [
                    19.21115,
                    49.68549
                ]
            },
            "properties": {
                "isced:level": "3",
                "ref:rspo": 8878,
                "official_name": "Iii Liceum Og\u00f3lnokszta\u0142c\u0105ce - Szko\u0142a Sportowa",
                "name": "Iii Liceum Og\u00f3lnokszta\u0142c\u0105ce - Szko\u0142a Sportowa",
                "addr:postcode": "34-300",
                "addr:city": "\u017bywiec",
                "addr:street": "Komisji Edukacji Narodowej",
                "addr:housenumber": "3",
                "addr:door": "-",
                "addr:city:simc": 927642,
                "addr:street:sym_ul": 9066,
                "phone": "+48 338613428",
                "email": "biuro@zsme.zywiec.pl",
                "ref:regon": "072810527",
                "ref:vatin": "PL5531607855",
                "operator": "Powiat \u017bywiecki",
                "operator:type": "government",
                "amenity": "school",
                "note": "Parent RSPO: 7256"
            }
        },
        {
            "id": 8879,
            "type": "Feature",
            "geometry": {
                "type": "Point",
                "coordinates": [
                    19.21115,
                    49.68546
                ]
            },
            "properties": {
                "isced:level": "3",
                "ref:rspo": 8879,
                "official_name": "Bran\u017cowa Szko\u0142a I Stopnia nr 1",
                "name": "Bran\u017cowa Szko\u0142a I Stopnia nr 1",
                "addr:postcode": "34-300",
                "addr:city": "\u017bywiec",
                "addr:street": "Komisji Edukacji Narodowej",
                "addr:housenumber": "3",
                "addr:city:simc": 927642,
                "addr:street:sym_ul": 9066,
                "phone": "+48 338613428",
                "email": "biuro@zsme.zywiec.pl",
                "website": "http:\/\/www.zsme.zywiec.pl\/",
                "ref:regon": "070453276",
                "ref:vatin": "PL5531607855",
                "operator": "Powiat \u017bywiecki",
                "operator:type": "government",
                "amenity": "school",
                "note": "Parent RSPO: 7256"
            }
        },
        {
            "id": 8880,
            "type": "Feature",
            "geometry": {
                "type": "Point",
                "coordinates": [
                    19.21115,
                    49.685430000000004
                ]
            },
            "properties": {
                "ref:rspo": 8880,
                "official_name": "Szkolne Schronisko M\u0142odzie\u017cowe",
                "name": "Szkolne Schronisko M\u0142odzie\u017cowe",
                "addr:postcode": "34-300",
                "addr:city": "\u017bywiec",
                "addr:street": "Komisji Edukacji Narodowej",
                "addr:housenumber": "3",
                "addr:door": "-",
                "addr:city:simc": 927642,
                "addr:street:sym_ul": 9066,
                "phone": "+48 338613428",
                "email": "biuro@zsme.zywiec.pl",
                "ref:regon": "000981357",
                "ref:vatin": "PL5531607855",
                "operator": "Powiat \u017bywiecki",
                "operator:type": "government",
                "tourism": "hostel",
                "note": "Parent RSPO: 7256"
            }
        },
        {
            "id": 8952,
            "type": "Feature",
            "geometry": {
                "type": "Point",
                "coordinates": [
                    19.21115,
                    49.6854
                ]
            },
            "properties": {
                "ref:rspo": 8952,
                "official_name": "Powiatowe Centrum Kszta\u0142cenia Zawodowego w \u017bywcu",
                "name": "Powiatowe Centrum Kszta\u0142cenia Zawodowego w \u017bywcu",
                "addr:postcode": "34-300",
                "addr:city": "\u017bywiec",
                "addr:street": "Komisji Edukacji Narodowej",
                "addr:housenumber": "3",
                "addr:door": "-",
                "addr:city:simc": 927642,
                "addr:street:sym_ul": 9066,
                "phone": "+48 338613428",
                "email": "biuro@zsme.zywiec.pl",
                "ref:regon": "072715020",
                "ref:vatin": "PL5531607855",
                "operator": "Powiat \u017bywiecki",
                "operator:type": "government",
                "fixme": "w zale\u017cno\u015bci od przedmiotu dzia\u0142alno\u015bci (np. amenity=training + training=*, amenity=dancing_school, amenity=language_school, amenity=music_school) albo amenity=school, amenity=college, albo landuse=education w zale\u017cno\u015bci od tego, jakie plac\u00f3wki wchodz\u0105 w sk\u0142ad zespo\u0142u. Sprawd\u017a, kiedy stosowa\u0107 amenity=* a kiedy landuse=education.",
                "note": "Parent RSPO: 7256"
            }
        },
        {
            "id": 131944,
            "type": "Feature",
            "geometry": {
                "type": "Point",
                "coordinates": [
                    19.21115,
                    49.68537
                ]
            },
            "properties": {
                "ref:rspo": 131944,
                "official_name": "Bursa nr 1 w \u017bywcu",
                "name": "Bursa nr 1 w \u017bywcu",
                "addr:postcode": "34-300",
                "addr:city": "\u017bywiec",
                "addr:street": "Komisji Edukacji Narodowej",
                "addr:housenumber": "3",
                "addr:city:simc": 927642,
                "addr:street:sym_ul": 9066,
                "phone": "+48 338613428",
                "email": "biuro@zsme.zywiec.pl",
                "ref:regon": "365386301",
                "operator": "Powiat \u017bywiecki",
                "operator:type": "government",
                "building": "dormitory",
                "note": "Parent RSPO: 7256"
            }
        },
        {
            "id": 274786,
            "type": "Feature",
            "geometry": {
                "type": "Point",
                "coordinates": [
                    19.21115,
                    49.685340000000004
                ]
            },
            "properties": {
                "isced:level": "3",
                "ref:rspo": 274786,
                "official_name": "Bran\u017cowa Szko\u0142a II Stopnia nr 1 w \u017bywcu",
                "name": "Bran\u017cowa Szko\u0142a II Stopnia nr 1 w \u017bywcu",
                "addr:postcode": "34-300",
                "addr:city": "\u017bywiec",
                "addr:street": "Komisji Edukacji Narodowej",
                "addr:housenumber": "3",
                "addr:city:simc": 927642,
                "addr:street:sym_ul": 9066,
                "phone": "+48 338613428",
                "email": "biuro@zsme.zywiec.pl",
                "website": "http:\/\/www.zsme.zywiec.pl\/",
                "ref:regon": "386297601",
                "operator": "Powiat \u017bywiecki",
                "operator:type": "government",
                "amenity": "school",
                "note": "Parent RSPO: 7256"
            }
        },
        {
            "id": 263510,
            "type": "Feature",
            "geometry": {
                "type": "Point",
                "coordinates": [
                    19.20658,
                    49.6858999
                ]
            },
            "properties": {
                "isced:level": "1;2",
                "ref:rspo": 263510,
                "official_name": "Niepubliczna Szko\u0142a Podstawowa Da Vinci",
                "name": "Niepubliczna Szko\u0142a Podstawowa Da Vinci",
                "addr:postcode": "34-300",
                "addr:city": "\u017bywiec",
                "addr:street": "S\u0142owicza",
                "addr:housenumber": "4",
                "addr:city:simc": 927642,
                "addr:street:sym_ul": 20298,
                "phone": "+48 667575326",
                "email": "davinci.zywiec@gmail.com",
                "website": "http:\/\/www.davincizywiec.pl",
                "ref:regon": "368195547",
                "ref:vatin": "PL5532212225",
                "operator": "New Edu Sp\u00f3\u0142ka Z Ograniczon\u0105 Odpowiedzialno\u015bci\u0105",
                "operator:type": "private",
                "amenity": "school"
            }
        },
        {
            "id": 129610,
            "type": "Feature",
            "geometry": {
                "type": "Point",
                "coordinates": [
                    19.19716,
                    49.68607
                ]
            },
            "properties": {
                "ref:rspo": 129610,
                "official_name": "Niepubliczne Przedszkole Ekologiczno - J\u0119zykowe \"Ma\u0142y Naukowiec\"",
                "name": "Niepubliczne Przedszkole Ekologiczno - J\u0119zykowe \"Ma\u0142y Naukowiec\"",
                "addr:postcode": "34-300",
                "addr:city": "\u017bywiec",
                "addr:street": "W\u0119glowa",
                "addr:housenumber": "19",
                "addr:city:simc": 927642,
                "addr:street:sym_ul": 23934,
                "phone": "+48 605446113",
                "email": "malynaukowiec.zywiec@gmail.com",
                "ref:regon": "362681181",
                "operator": "Jan Dra\u017cyk",
                "operator:type": "private",
                "amenity": "kindergarten"
            }
        },
        {
            "id": 128593,
            "type": "Feature",
            "geometry": {
                "type": "Point",
                "coordinates": [
                    19.2057,
                    49.68617
                ]
            },
            "properties": {
                "isced:level": "1;2",
                "ref:rspo": 128593,
                "official_name": "Niepubliczna Szko\u0142a Podstawowa",
                "name": "Niepubliczna Szko\u0142a Podstawowa",
                "addr:postcode": "34-300",
                "addr:city": "\u017bywiec",
                "addr:street": "Powsta\u0144c\u00f3w \u015al\u0105skich",
                "addr:housenumber": "2a",
                "addr:city:simc": 927642,
                "addr:street:sym_ul": 17366,
                "phone": "+48 338610201",
                "email": "biuro@szkolycervantes.pl",
                "website": "http:\/\/www.szkolycervantes.pl",
                "ref:regon": "362328697",
                "operator": "Dorota Pielesz",
                "operator:type": "private",
                "amenity": "school"
            }
        },
        {
            "id": 3336,
            "type": "Feature",
            "geometry": {
                "type": "Point",
                "coordinates": [
                    19.21073,
                    49.6873
                ]
            },
            "properties": {
                "isced:level": "1;2",
                "ref:rspo": 3336,
                "official_name": "Szko\u0142a Podstawowa nr 5 im. Hugona Ko\u0142\u0142\u0105taja",
                "name": "Szko\u0142a Podstawowa nr 5",
                "addr:postcode": "34-300",
                "addr:city": "\u017bywiec",
                "addr:street": "Powsta\u0144c\u00f3w \u015al\u0105skich",
                "addr:housenumber": "4",
                "addr:city:simc": 927642,
                "addr:street:sym_ul": 17366,
                "phone": "+48 338614256",
                "email": "sp5_zywiec@poczta.onet.pl",
                "ref:regon": "070397431",
                "ref:vatin": "PL5532125012",
                "operator": "Miasto \u017bywiec",
                "operator:type": "government",
                "amenity": "school"
            }
        },
        {
            "id": 7258,
            "type": "Feature",
            "geometry": {
                "type": "Point",
                "coordinates": [
                    19.20402,
                    49.68793
                ]
            },
            "properties": {
                "ref:rspo": 7258,
                "official_name": "Zesp\u00f3\u0142 Szk\u00f3\u0142 Ekonomiczno-Gastronomicznych w \u017bywcu",
                "name": "Zesp\u00f3\u0142 Szk\u00f3\u0142 Ekonomiczno-Gastronomicznych w \u017bywcu",
                "addr:postcode": "34-300",
                "addr:city": "\u017bywiec",
                "addr:street": "Adama Mickiewicza",
                "addr:housenumber": "6",
                "addr:city:simc": 927642,
                "addr:street:sym_ul": 12734,
                "phone": "+48 338612196",
                "email": "zseg@zseg.zywiec.pl",
                "website": "http:\/\/www.zseg.zywiec.pl\/",
                "ref:regon": "000184856",
                "ref:vatin": "PL5531118671",
                "operator": "Powiat \u017bywiecki",
                "operator:type": "government",
                "landuse": "education",
                "fixme": "amenity=school, amenity=college albo landuse=education w zale\u017cno\u015bci od tego, jakie plac\u00f3wki wchodz\u0105 w sk\u0142ad zespo\u0142u. Sprawd\u017a, kiedy stosowa\u0107 amenity=* a kiedy landuse=education.",
                "note": "Children RSPO: 10215;10216;274784"
            }
        },
        {
            "id": 10215,
            "type": "Feature",
            "geometry": {
                "type": "Point",
                "coordinates": [
                    19.20402,
                    49.6879
                ]
            },
            "properties": {
                "isced:level": "3",
                "ref:rspo": 10215,
                "official_name": "Technikum nr 3 w \u017bywcu",
                "name": "Technikum nr 3 w \u017bywcu",
                "addr:postcode": "34-300",
                "addr:city": "\u017bywiec",
                "addr:street": "Adama Mickiewicza",
                "addr:housenumber": "6",
                "addr:city:simc": 927642,
                "addr:street:sym_ul": 12734,
                "phone": "+48 338612196",
                "email": "zseg@zseg.zywiec.pl",
                "website": "http:\/\/www.zseg.zywiec.pl",
                "ref:regon": "070454347",
                "ref:vatin": "PL5531118671",
                "operator": "Powiat \u017bywiecki",
                "operator:type": "government",
                "amenity": "school",
                "note": "Parent RSPO: 7258"
            }
        },
        {
            "id": 10216,
            "type": "Feature",
            "geometry": {
                "type": "Point",
                "coordinates": [
                    19.20402,
                    49.687870000000004
                ]
            },
            "properties": {
                "isced:level": "3",
                "ref:rspo": 10216,
                "official_name": "Bran\u017cowa Szko\u0142a I Stopnia nr 3 w \u017bywcu",
                "name": "Bran\u017cowa Szko\u0142a I Stopnia nr 3 w \u017bywcu",
                "addr:postcode": "34-300",
                "addr:city": "\u017bywiec",
                "addr:street": "Adama Mickiewicza",
                "addr:housenumber": "6",
                "addr:city:simc": 927642,
                "addr:street:sym_ul": 12734,
                "phone": "+48 338612196",
                "email": "zseg@zseg.zywiec.pl",
                "website": "http:\/\/www.zseg.zywiec.pl",
                "ref:regon": "070454318",
                "ref:vatin": "PL5531118671",
                "operator": "Powiat \u017bywiecki",
                "operator:type": "government",
                "amenity": "school",
                "note": "Parent RSPO: 7258"
            }
        },
        {
            "id": 274784,
            "type": "Feature",
            "geometry": {
                "type": "Point",
                "coordinates": [
                    19.20402,
                    49.68784
                ]
            },
            "properties": {
                "isced:level": "3",
                "ref:rspo": 274784,
                "official_name": "Bran\u017cowa Szko\u0142a II Stopnia nr 3 w \u017bywcu",
                "name": "Bran\u017cowa Szko\u0142a II Stopnia nr 3 w \u017bywcu",
                "addr:postcode": "34-300",
                "addr:city": "\u017bywiec",
                "addr:street": "Adama Mickiewicza",
                "addr:housenumber": "6",
                "addr:city:simc": 927642,
                "addr:street:sym_ul": 12734,
                "phone": "+48 338612196",
                "email": "zseg@zseg.zywiec.pl",
                "website": "http:\/\/www.zseg.zywiec.pl",
                "ref:regon": "386297009",
                "operator": "Powiat \u017bywiecki",
                "operator:type": "government",
                "amenity": "school",
                "note": "Parent RSPO: 7258"
            }
        },
        {
            "id": 4706,
            "type": "Feature",
            "geometry": {
                "type": "Point",
                "coordinates": [
                    19.19421,
                    49.68834
                ]
            },
            "properties": {
                "isced:level": "1;2",
                "ref:rspo": 4706,
                "official_name": "Szko\u0142a Podstawowa Stowarzyszenia Przyjaci\u00f3\u0142 Szk\u00f3\u0142 Katolickich im. Stefana Kardyna\u0142a Wyszy\u0144skiego w \u017bywcu",
                "name": "Szko\u0142a Podstawowa Stowarzyszenia Przyjaci\u00f3\u0142 Szk\u00f3\u0142 Katolickich",
                "addr:postcode": "34-300",
                "addr:city": "\u017bywiec",
                "addr:street": "Aleja Legion\u00f3w",
                "addr:housenumber": "47",
                "addr:city:simc": 927642,
                "addr:street:sym_ul": 192,
                "phone": "+48 338602318",
                "email": "zywiec@spsk.pl",
                "ref:regon": "243016174",
                "ref:vatin": "PL5532562698",
                "operator": "Stowarzyszenie Przyjaci\u00f3\u0142 Szk\u00f3\u0142 Katolickich",
                "operator:type": "ngo",
                "amenity": "school"
            }
        },
        {
            "id": 7254,
            "type": "Feature",
            "geometry": {
                "type": "Point",
                "coordinates": [
                    19.20549,
                    49.68837
                ]
            },
            "properties": {
                "isced:level": "3",
                "ref:rspo": 7254,
                "official_name": "I Liceum Og\u00f3lnokszta\u0142c\u0105ce im. Miko\u0142aja Kopernika w \u017bywcu",
                "name": "I Liceum Og\u00f3lnokszta\u0142c\u0105ce",
                "addr:postcode": "34-300",
                "addr:city": "\u017bywiec",
                "addr:street": "Juliusza S\u0142owackiego",
                "addr:housenumber": "2",
                "addr:city:simc": 927642,
                "addr:street:sym_ul": 20286,
                "phone": "+48 338612113",
                "email": "biuro@lo-zywiec.pl",
                "website": "http:\/\/www.lo-zywiec.pl\/",
                "ref:regon": "072729038",
                "ref:vatin": "PL5532455241",
                "operator": "Powiat \u017bywiecki",
                "operator:type": "government",
                "amenity": "school"
            }
        },
        {
            "id": 131244,
            "type": "Feature",
            "geometry": {
                "type": "Point",
                "coordinates": [
                    19.20549,
                    49.68834
                ]
            },
            "properties": {
                "isced:level": "3",
                "ref:rspo": 131244,
                "official_name": "Liceum Og\u00f3lnokszta\u0142c\u0105ce dla Doros\u0142ych w \u017bywcu",
                "name": "Liceum Og\u00f3lnokszta\u0142c\u0105ce dla Doros\u0142ych w \u017bywcu",
                "addr:postcode": "34-300",
                "addr:city": "\u017bywiec",
                "addr:street": "Juliusza S\u0142owackiego",
                "addr:housenumber": "2",
                "addr:city:simc": 927642,
                "addr:street:sym_ul": 20286,
                "phone": "+48 338612113",
                "email": "biuro@lo-zywiec.pl",
                "ref:regon": "365056762",
                "operator": "Powiat \u017bywiecki",
                "operator:type": "government",
                "amenity": "school"
            }
        },
        {
            "id": 86013,
            "type": "Feature",
            "geometry": {
                "type": "Point",
                "coordinates": [
                    19.20054,
                    49.68982
                ]
            },
            "properties": {
                "ref:rspo": 86013,
                "official_name": "Przedszkole Si\u00f3str Serafitek w \u017bywcu",
                "name": "Przedszkole Si\u00f3str Serafitek w \u017bywcu",
                "addr:postcode": "34-300",
                "addr:city": "\u017bywiec",
                "addr:street": "Jana III Sobieskiego",
                "addr:housenumber": "6",
                "addr:city:simc": 927642,
                "addr:street:sym_ul": 20431,
                "phone": "+48 338614387",
                "email": "przedszkole6@poczta.onet.pl",
                "ref:regon": "243098628",
                "ref:vatin": "PL5531737807",
                "operator": "Zgromadzenie C\u00f3rek Matki Bo\u017cej Bolesnej (Siostry Serafitki) Prowincja O\u015bwi\u0119cimska",
                "operator:type": "religious",
                "amenity": "kindergarten"
            }
        },
        {
            "id": 3039,
            "type": "Feature",
            "geometry": {
                "type": "Point",
                "coordinates": [
                    19.205730438232,
                    49.690238952637
                ]
            },
            "properties": {
                "isced:level": "1;2",
                "ref:rspo": 3039,
                "official_name": "Szko\u0142a Podstawowa nr 1 im. Wojska Polskiego w \u017bywcu",
                "name": "Szko\u0142a Podstawowa nr 1",
                "addr:postcode": "34-300",
                "addr:city": "\u017bywiec",
                "addr:street": "Ksi\u0119dza Pra\u0142ata Stanis\u0142awa S\u0142onki",
                "addr:housenumber": "14",
                "addr:city:simc": 927642,
                "addr:street:sym_ul": 30109,
                "phone": "+48 693821227",
                "email": "jedynka@poczta.onet.pl",
                "website": "http:\/\/www.sp1.zywiec.pl",
                "ref:regon": "070397402",
                "ref:vatin": "PL5532125236",
                "operator": "Miasto \u017bywiec",
                "operator:type": "government",
                "amenity": "school"
            }
        },
        {
            "id": 262554,
            "type": "Feature",
            "geometry": {
                "type": "Point",
                "coordinates": [
                    19.20013,
                    49.69025
                ]
            },
            "properties": {
                "isced:level": "1;2",
                "ref:rspo": 262554,
                "official_name": "Szko\u0142a Podstawowa nr 2 im. Stanis\u0142awa Staszica w \u017bywcu",
                "name": "Szko\u0142a Podstawowa nr 2",
                "addr:postcode": "34-300",
                "addr:city": "\u017bywiec",
                "addr:street": "Zielona",
                "addr:housenumber": "1",
                "addr:city:simc": 927642,
                "addr:street:sym_ul": 26081,
                "phone": "+48 338611216",
                "email": "gim2.zywiec@interia.pl",
                "ref:regon": "368038569",
                "operator": "Miasto \u017bywiec",
                "operator:type": "government",
                "amenity": "school"
            }
        },
        {
            "id": 268879,
            "type": "Feature",
            "geometry": {
                "type": "Point",
                "coordinates": [
                    19.20013,
                    49.69022
                ]
            },
            "properties": {
                "isced:level": "3",
                "ref:rspo": 268879,
                "official_name": "Niepubliczne Liceum Og\u00f3lnokszta\u0142c\u0105ce Cogito w \u017bywcu",
                "name": "Niepubliczne Liceum Og\u00f3lnokszta\u0142c\u0105ce Cogito w \u017bywcu",
                "addr:postcode": "34-300",
                "addr:city": "\u017bywiec",
                "addr:street": "Zielona",
                "addr:housenumber": "1",
                "addr:city:simc": 927642,
                "addr:street:sym_ul": 26081,
                "phone": "+48 334454533",
                "email": "biuromms@szkolamontessori.com.pl",
                "website": "http:\/\/liceumcogito.pl",
                "ref:regon": "381272246",
                "operator": "Fundacja Kr\u00f3lowej \u015awi\u0119tej Jadwigi",
                "operator:type": "ngo",
                "amenity": "school"
            }
        },
        {
            "id": 26311,
            "type": "Feature",
            "geometry": {
                "type": "Point",
                "coordinates": [
                    19.20242,
                    49.69027
                ]
            },
            "properties": {
                "ref:rspo": 26311,
                "official_name": "Pedagogiczna Biblioteka Wojew\u00f3dzka w Bielsku-Bia\u0142ej Filia w \u017bywcu",
                "name": "Pedagogiczna Biblioteka Wojew\u00f3dzka w Bielsku-Bia\u0142ej Filia w \u017bywcu",
                "addr:postcode": "34-300",
                "addr:city": "\u017bywiec",
                "addr:street": "Jagiello\u0144ska",
                "addr:housenumber": "15",
                "addr:city:simc": 927642,
                "addr:street:sym_ul": 7029,
                "phone": "+48 338613564",
                "email": "filia_zywiec@pbw.bielsko.pl",
                "ref:regon": "787224000",
                "ref:vatin": "PL9371820914",
                "operator": "Wojew\u00f3dztwo \u015al\u0105skie",
                "operator:type": "government",
                "amenity": "library",
                "note": "Parent RSPO: 14886"
            }
        },
        {
            "id": 3449,
            "type": "Feature",
            "geometry": {
                "type": "Point",
                "coordinates": [
                    19.20618,
                    49.69029
                ]
            },
            "properties": {
                "ref:rspo": 3449,
                "official_name": "Przedszkole nr 9 w \u017bywcu im. Andrzeja Komonieckiego",
                "name": "Przedszkole nr 9 w \u017bywcu",
                "addr:postcode": "34-300",
                "addr:city": "\u017bywiec",
                "addr:street": "Poniatowskiego",
                "addr:housenumber": "12",
                "addr:city:simc": 927642,
                "addr:street:sym_ul": 17100,
                "phone": "+48 338614338",
                "email": "przedszkolenr9@poczta.fm",
                "ref:regon": "071008035",
                "ref:vatin": "PL5532123496",
                "operator": "Miasto \u017bywiec",
                "operator:type": "government",
                "amenity": "kindergarten"
            }
        },
        {
            "id": 44001,
            "type": "Feature",
            "geometry": {
                "type": "Point",
                "coordinates": [
                    19.20523,
                    49.69066
                ]
            },
            "properties": {
                "ref:rspo": 44001,
                "official_name": "Niepubliczne Przedszkole Sportowo - Artystyczne Aktive Kids",
                "name": "Niepubliczne Przedszkole Sportowo - Artystyczne Aktive Kids",
                "addr:postcode": "34-300",
                "addr:city": "\u017bywiec",
                "addr:street": "Aleja Pi\u0142sudskiego",
                "addr:housenumber": "22",
                "addr:city:simc": 927642,
                "addr:street:sym_ul": 44098,
                "phone": "+48 667575326",
                "email": "davinci.zywiec@gmail.com",
                "website": "http:\/\/www.aktivekids.com.pl",
                "ref:regon": "243074958",
                "ref:vatin": "PL9441809511",
                "operator": "New Edu Sp\u00f3\u0142ka Z Ograniczon\u0105 Odpowiedzialno\u015bci\u0105",
                "operator:type": "private",
                "amenity": "kindergarten"
            }
        },
        {
            "id": 7524,
            "type": "Feature",
            "geometry": {
                "type": "Point",
                "coordinates": [
                    19.20308,
                    49.69076
                ]
            },
            "properties": {
                "ref:rspo": 7524,
                "official_name": "Samorz\u0105dowa Szko\u0142a Muzyczna II Stopnia",
                "name": "Samorz\u0105dowa Szko\u0142a Muzyczna II Stopnia",
                "addr:postcode": "34-300",
                "addr:city": "\u017bywiec",
                "addr:street": "Henryka Sienkiewicza",
                "addr:housenumber": "19",
                "addr:city:simc": 927642,
                "addr:street:sym_ul": 19830,
                "phone": "+48 338614332",
                "email": "sz.muzyczna@tenit.com.pl",
                "website": "http:\/\/www.muzyczna-zywiec.pl",
                "ref:regon": "072375422",
                "ref:vatin": "PL5532195030",
                "operator": "Powiat \u017bywiecki",
                "operator:type": "government",
                "amenity": "music_school"
            }
        },
        {
            "id": 75062,
            "type": "Feature",
            "geometry": {
                "type": "Point",
                "coordinates": [
                    19.20308,
                    49.690729999999995
                ]
            },
            "properties": {
                "ref:rspo": 75062,
                "official_name": "Pa\u0144stwowa Szko\u0142a Muzyczna I St. im. Witolda Rowickiego w \u017bywcu",
                "name": "Pa\u0144stwowa Szko\u0142a Muzyczna I St.",
                "addr:postcode": "34-300",
                "addr:city": "\u017bywiec",
                "addr:street": "Henryka Sienkiewicza",
                "addr:housenumber": "19",
                "addr:city:simc": 927642,
                "addr:street:sym_ul": 19830,
                "phone": "+48 338614332",
                "email": "sz.muzyczna@tenit.com.pl",
                "website": "http:\/\/www.muzyczna-zywiec.pl",
                "ref:regon": "000636666",
                "operator": "Ministerstwo Kultury I Dziedzictwa Narodowego",
                "operator:type": "public",
                "amenity": "music_school"
            }
        },
        {
            "id": 268885,
            "type": "Feature",
            "geometry": {
                "type": "Point",
                "coordinates": [
                    19.1744,
                    49.69077
                ]
            },
            "properties": {
                "isced:level": "1;2",
                "ref:rspo": 268885,
                "official_name": "Niepubliczna Szko\u0142a Podstawowa Mistrzostwa Sportowego im. Jana Paw\u0142a II Wraz z Internatem w \u017bywcu",
                "name": "Niepubliczna Szko\u0142a Podstawowa Mistrzostwa Sportowego",
                "addr:postcode": "34-300",
                "addr:city": "\u017bywiec",
                "addr:street": "Podlesie",
                "addr:housenumber": "63",
                "addr:city:simc": 927642,
                "addr:street:sym_ul": 16795,
                "email": "smskoszarawa@gmail.com",
                "ref:regon": "381274216",
                "operator": "Ludowy Klub Sportowy \"\u0141ucznik\"",
                "operator:type": "ngo",
                "amenity": "school"
            }
        },
        {
            "id": 16930,
            "type": "Feature",
            "geometry": {
                "type": "Point",
                "coordinates": [
                    19.20239,
                    49.69424
                ]
            },
            "properties": {
                "ref:rspo": 16930,
                "official_name": "Zesp\u00f3\u0142 Szk\u00f3\u0142 w \u017bywcu Zdz w Katowicach",
                "name": "Zesp\u00f3\u0142 Szk\u00f3\u0142 w \u017bywcu Zdz w Katowicach",
                "addr:postcode": "34-300",
                "addr:city": "\u017bywiec",
                "addr:street": "Henryka Sienkiewicza",
                "addr:housenumber": "65",
                "addr:city:simc": 927642,
                "addr:street:sym_ul": 19830,
                "phone": "+48 338612373",
                "email": "s-zywiec@zdz.katowice.pl",
                "website": "http:\/\/www.szkoly.zywiec.zdz.pl",
                "ref:regon": "243052313",
                "operator": "Zak\u0142ad Doskonalenia Zawodowego W Katowicach",
                "operator:type": "ngo",
                "landuse": "education",
                "fixme": "amenity=school, amenity=college albo landuse=education w zale\u017cno\u015bci od tego, jakie plac\u00f3wki wchodz\u0105 w sk\u0142ad zespo\u0142u. Sprawd\u017a, kiedy stosowa\u0107 amenity=* a kiedy landuse=education.",
                "note": "Children RSPO: 22250;22251;22258;277690"
            }
        },
        {
            "id": 43532,
            "type": "Feature",
            "geometry": {
                "type": "Point",
                "coordinates": [
                    19.20239,
                    49.69421
                ]
            },
            "properties": {
                "ref:rspo": 43532,
                "official_name": "Centrum Kszta\u0142cenia Zawodowego w \u017bywcu Zak\u0142ad Doskonalenia Zawodowego Katowice",
                "name": "Centrum Kszta\u0142cenia Zawodowego w \u017bywcu Zak\u0142ad Doskonalenia Zawodowego Katowice",
                "addr:postcode": "34-300",
                "addr:city": "\u017bywiec",
                "addr:street": "Henryka Sienkiewicza",
                "addr:housenumber": "65",
                "addr:city:simc": 927642,
                "addr:street:sym_ul": 19830,
                "phone": "+48 338612373",
                "email": "zywiec@zdz.katowice.pl",
                "ref:regon": "243079915",
                "ref:vatin": "PL6340135558",
                "operator": "Zak\u0142ad Doskonalenia Zawodowego W Katowicach",
                "operator:type": "ngo",
                "fixme": "w zale\u017cno\u015bci od przedmiotu dzia\u0142alno\u015bci (np. amenity=training + training=*, amenity=dancing_school, amenity=language_school, amenity=music_school)"
            }
        },
        {
            "id": 22250,
            "type": "Feature",
            "geometry": {
                "type": "Point",
                "coordinates": [
                    19.20239,
                    49.69418
                ]
            },
            "properties": {
                "isced:level": "3",
                "ref:rspo": 22250,
                "official_name": "Bran\u017cowa Szko\u0142a I Stopnia w \u017bywcu Zak\u0142adu Doskonalenia Zawodowego Katowicach",
                "name": "Bran\u017cowa Szko\u0142a I Stopnia w \u017bywcu Zak\u0142adu Doskonalenia Zawodowego Katowicach",
                "addr:postcode": "34-300",
                "addr:city": "\u017bywiec",
                "addr:street": "Henryka Sienkiewicza",
                "addr:housenumber": "65",
                "addr:city:simc": 927642,
                "addr:street:sym_ul": 19830,
                "phone": "+48 338612373",
                "email": "s-zywiec@zdz.katowice.pl",
                "ref:regon": "243058155",
                "ref:vatin": "PL6340135558",
                "operator": "Zak\u0142ad Doskonalenia Zawodowego W Katowicach",
                "operator:type": "ngo",
                "amenity": "school",
                "note": "Parent RSPO: 16930"
            }
        },
        {
            "id": 22251,
            "type": "Feature",
            "geometry": {
                "type": "Point",
                "coordinates": [
                    19.20239,
                    49.69415
                ]
            },
            "properties": {
                "isced:level": "3",
                "ref:rspo": 22251,
                "official_name": "Technikum w \u017bywcu Zak\u0142adu Doskonalenia Zawodowego w Katowicach",
                "name": "Technikum w \u017bywcu Zak\u0142adu Doskonalenia Zawodowego w Katowicach",
                "addr:postcode": "34-300",
                "addr:city": "\u017bywiec",
                "addr:street": "Henryka Sienkiewicza",
                "addr:housenumber": "65",
                "addr:city:simc": 927642,
                "addr:street:sym_ul": 19830,
                "phone": "+48 338612373",
                "email": "s-zywiec@zdz.katowice.pl",
                "ref:regon": "243058209",
                "ref:vatin": "PL6340135558",
                "operator": "Zak\u0142ad Doskonalenia Zawodowego W Katowicach",
                "operator:type": "ngo",
                "amenity": "school",
                "note": "Parent RSPO: 16930"
            }
        },
        {
            "id": 22258,
            "type": "Feature",
            "geometry": {
                "type": "Point",
                "coordinates": [
                    19.20239,
                    49.69412
                ]
            },
            "properties": {
                "isced:level": "4",
                "ref:rspo": 22258,
                "official_name": "Policealne Studium Zawodowe w \u017bywcu Zak\u0142adu Doskonalenia Zawodowego w Katowicach",
                "name": "Policealne Studium Zawodowe w \u017bywcu Zak\u0142adu Doskonalenia Zawodowego w Katowicach",
                "addr:postcode": "34-300",
                "addr:city": "\u017bywiec",
                "addr:street": "Henryka Sienkiewicza",
                "addr:housenumber": "65",
                "addr:city:simc": 927642,
                "addr:street:sym_ul": 19830,
                "phone": "+48 338612373",
                "email": "zywiec@zdz.katowice.pl",
                "website": "http:\/\/www.szkoly.zywiec.zdz.pl\/",
                "ref:regon": "243058178",
                "ref:vatin": "PL6340135558",
                "operator": "Zak\u0142ad Doskonalenia Zawodowego W Katowicach",
                "operator:type": "ngo",
                "amenity": "college",
                "note": "Parent RSPO: 16930"
            }
        },
        {
            "id": 277690,
            "type": "Feature",
            "geometry": {
                "type": "Point",
                "coordinates": [
                    19.20239,
                    49.69409
                ]
            },
            "properties": {
                "isced:level": "3",
                "ref:rspo": 277690,
                "official_name": "Bran\u017cowa Szko\u0142a II Stopnia",
                "name": "Bran\u017cowa Szko\u0142a II Stopnia",
                "addr:postcode": "34-300",
                "addr:city": "\u017bywiec",
                "addr:street": "Henryka Sienkiewicza",
                "addr:housenumber": "65",
                "addr:city:simc": 927642,
                "addr:street:sym_ul": 19830,
                "phone": "+48 338612373",
                "email": "s-zywiec@zdz.katowice.pl",
                "website": "http:\/\/www.szkoly.zywiec.zdz.pl\/",
                "ref:regon": "389344146",
                "operator": "Zak\u0142ad Doskonalenia Zawodowego W Katowicach",
                "operator:type": "ngo",
                "amenity": "school",
                "note": "Parent RSPO: 16930"
            }
        },
        {
            "id": 7259,
            "type": "Feature",
            "geometry": {
                "type": "Point",
                "coordinates": [
                    19.22999,
                    49.69495
                ]
            },
            "properties": {
                "ref:rspo": 7259,
                "official_name": "Zesp\u00f3\u0142 Szk\u00f3\u0142 Agrotechnicznych I Og\u00f3lnokszta\u0142c\u0105cych im. J.pi\u0142sudskiego w \u017bywcu",
                "name": "Zesp\u00f3\u0142 Szk\u00f3\u0142 Agrotechnicznych I Og\u00f3lnokszta\u0142c\u0105cych",
                "addr:postcode": "34-300",
                "addr:city": "\u017bywiec",
                "addr:street": "Moszczanicka",
                "addr:housenumber": "9",
                "addr:city:simc": 927642,
                "addr:street:sym_ul": 27609,
                "phone": "+48 334750570",
                "email": "zsaio@moszczanica.pl",
                "website": "http:\/\/www.moszczanica.pl\/",
                "ref:regon": "000744150",
                "ref:vatin": "PL5531463362",
                "operator": "Powiat \u017bywiecki",
                "operator:type": "government",
                "landuse": "education",
                "fixme": "amenity=school, amenity=college albo landuse=education w zale\u017cno\u015bci od tego, jakie plac\u00f3wki wchodz\u0105 w sk\u0142ad zespo\u0142u. Sprawd\u017a, kiedy stosowa\u0107 amenity=* a kiedy landuse=education.",
                "note": "Children RSPO: 11271;11272;11273;11274;129288;131945;266649;277099"
            }
        },
        {
            "id": 11271,
            "type": "Feature",
            "geometry": {
                "type": "Point",
                "coordinates": [
                    19.22999,
                    49.694919999999996
                ]
            },
            "properties": {
                "isced:level": "3",
                "ref:rspo": 11271,
                "official_name": "Technikum nr 6 w \u017bywcu",
                "name": "Technikum nr 6 w \u017bywcu",
                "addr:postcode": "34-300",
                "addr:city": "\u017bywiec",
                "addr:street": "Moszczanicka",
                "addr:housenumber": "9",
                "addr:door": "-",
                "addr:city:simc": 927642,
                "addr:street:sym_ul": 27609,
                "phone": "+48 334750570",
                "email": "zsaio@moszczanica.pl",
                "ref:regon": "070454548",
                "ref:vatin": "PL5531463362",
                "operator": "Powiat \u017bywiecki",
                "operator:type": "government",
                "amenity": "school",
                "note": "Parent RSPO: 7259"
            }
        },
        {
            "id": 11272,
            "type": "Feature",
            "geometry": {
                "type": "Point",
                "coordinates": [
                    19.22999,
                    49.69489
                ]
            },
            "properties": {
                "isced:level": "3",
                "ref:rspo": 11272,
                "official_name": "Bran\u017cowa Szko\u0142a I Stopnia nr 5 w \u017bywcu",
                "name": "Bran\u017cowa Szko\u0142a I Stopnia nr 5 w \u017bywcu",
                "addr:postcode": "34-300",
                "addr:city": "\u017bywiec",
                "addr:street": "Moszczanicka",
                "addr:housenumber": "9",
                "addr:city:simc": 927642,
                "addr:street:sym_ul": 27609,
                "phone": "+48 334750570",
                "email": "zsaio@moszczanica.pl",
                "ref:regon": "070454525",
                "ref:vatin": "PL5531463362",
                "operator": "Powiat \u017bywiecki",
                "operator:type": "government",
                "amenity": "school",
                "note": "Parent RSPO: 7259"
            }
        },
        {
            "id": 11273,
            "type": "Feature",
            "geometry": {
                "type": "Point",
                "coordinates": [
                    19.22999,
                    49.69486
                ]
            },
            "properties": {
                "isced:level": "3",
                "ref:rspo": 11273,
                "official_name": "V Liceum Og\u00f3lnokszta\u0142c\u0105ce w \u017bywcu",
                "name": "V Liceum Og\u00f3lnokszta\u0142c\u0105ce w \u017bywcu",
                "addr:postcode": "34-300",
                "addr:city": "\u017bywiec",
                "addr:street": "Moszczanicka",
                "addr:housenumber": "9",
                "addr:door": "-",
                "addr:city:simc": 927642,
                "addr:street:sym_ul": 27609,
                "phone": "+48 334750570",
                "email": "zsaio@moszczanica.pl",
                "ref:regon": "072381486",
                "ref:vatin": "PL5531463362",
                "operator": "Powiat \u017bywiecki",
                "operator:type": "government",
                "amenity": "school",
                "note": "Parent RSPO: 7259"
            }
        },
        {
            "id": 11274,
            "type": "Feature",
            "geometry": {
                "type": "Point",
                "coordinates": [
                    19.22999,
                    49.694829999999996
                ]
            },
            "properties": {
                "isced:level": "3",
                "ref:rspo": 11274,
                "official_name": "Liceum Og\u00f3lnokszta\u0142c\u0105ce Szko\u0142a Mistrzostwa Sportowego",
                "name": "Liceum Og\u00f3lnokszta\u0142c\u0105ce Szko\u0142a Mistrzostwa Sportowego",
                "addr:postcode": "34-300",
                "addr:city": "\u017bywiec",
                "addr:street": "Moszczanicka",
                "addr:housenumber": "9",
                "addr:door": "-",
                "addr:city:simc": 927642,
                "addr:street:sym_ul": 27609,
                "phone": "+48 334750570",
                "email": "zsaio@moszczanica.pl",
                "ref:regon": "240161651",
                "ref:vatin": "PL5531463362",
                "operator": "Powiat \u017bywiecki",
                "operator:type": "government",
                "amenity": "school",
                "note": "Parent RSPO: 7259"
            }
        },
        {
            "id": 129288,
            "type": "Feature",
            "geometry": {
                "type": "Point",
                "coordinates": [
                    19.22999,
                    49.6948
                ]
            },
            "properties": {
                "ref:rspo": 129288,
                "official_name": "Dom Wczas\u00f3w Dzieci\u0119cych",
                "name": "Dom Wczas\u00f3w Dzieci\u0119cych",
                "addr:postcode": "34-300",
                "addr:city": "\u017bywiec",
                "addr:street": "Moszczanicka",
                "addr:housenumber": "9",
                "addr:city:simc": 927642,
                "addr:street:sym_ul": 27609,
                "phone": "+48 334750571",
                "email": "zsaio@moszczanica.pl",
                "ref:regon": "362546632",
                "ref:vatin": "PL5531463362",
                "operator": "Powiat \u017bywiecki",
                "operator:type": "government",
                "leisure": "resort",
                "note": "Parent RSPO: 7259"
            }
        },
        {
            "id": 131945,
            "type": "Feature",
            "geometry": {
                "type": "Point",
                "coordinates": [
                    19.22999,
                    49.69477
                ]
            },
            "properties": {
                "ref:rspo": 131945,
                "official_name": "Bursa nr 2 w \u017bywcu",
                "name": "Bursa nr 2 w \u017bywcu",
                "addr:postcode": "34-300",
                "addr:city": "\u017bywiec",
                "addr:street": "Moszczanicka",
                "addr:housenumber": "9",
                "addr:city:simc": 927642,
                "addr:street:sym_ul": 27609,
                "phone": "+48 334750570",
                "email": "zsaio@moszczanica.pl",
                "ref:regon": "365386560",
                "operator": "Powiat \u017bywiecki",
                "operator:type": "government",
                "building": "dormitory",
                "note": "Parent RSPO: 7259"
            }
        },
        {
            "id": 266649,
            "type": "Feature",
            "geometry": {
                "type": "Point",
                "coordinates": [
                    19.22999,
                    49.694739999999996
                ]
            },
            "properties": {
                "isced:level": "3",
                "ref:rspo": 266649,
                "official_name": "Liceum Og\u00f3lnokszta\u0142c\u0105ce dla Doros\u0142ych",
                "name": "Liceum Og\u00f3lnokszta\u0142c\u0105ce dla Doros\u0142ych",
                "addr:postcode": "34-300",
                "addr:city": "\u017bywiec",
                "addr:street": "Moszczanicka",
                "addr:housenumber": "9",
                "addr:city:simc": 927642,
                "addr:street:sym_ul": 27609,
                "phone": "+48 334750570",
                "email": "zsaio@moszczanica.pl",
                "ref:regon": "369636002",
                "operator": "Powiat \u017bywiecki",
                "operator:type": "government",
                "amenity": "school",
                "note": "Parent RSPO: 7259"
            }
        },
        {
            "id": 277099,
            "type": "Feature",
            "geometry": {
                "type": "Point",
                "coordinates": [
                    19.22999,
                    49.69471
                ]
            },
            "properties": {
                "isced:level": "4",
                "ref:rspo": 277099,
                "official_name": "Szko\u0142a Policealna nr 4 w \u017bywcu",
                "name": "Szko\u0142a Policealna nr 4 w \u017bywcu",
                "addr:postcode": "34-300",
                "addr:city": "\u017bywiec",
                "addr:street": "Moszczanicka",
                "addr:housenumber": "9",
                "addr:city:simc": 927642,
                "addr:street:sym_ul": 27609,
                "phone": "+48 334750570",
                "email": "zsaio@moszczanica.pl",
                "ref:regon": "388157577",
                "operator": "Powiat \u017bywiecki",
                "operator:type": "government",
                "amenity": "college",
                "note": "Parent RSPO: 7259"
            }
        },
        {
            "id": 128745,
            "type": "Feature",
            "geometry": {
                "type": "Point",
                "coordinates": [
                    19.19911,
                    49.6963099
                ]
            },
            "properties": {
                "ref:rspo": 128745,
                "official_name": "Niepubliczne Przedszkole \"W Ogrodzie\"",
                "name": "Niepubliczne Przedszkole \"W Ogrodzie\"",
                "addr:postcode": "34-300",
                "addr:city": "\u017bywiec",
                "addr:street": "\u015awi\u0119tokrzyska",
                "addr:housenumber": "45",
                "addr:city:simc": 927642,
                "addr:street:sym_ul": 22552,
                "phone": "+48 793942632",
                "email": "marzennakogut@wp.pl",
                "website": "http:\/\/przedszkolezywiec.com\/przedszkolezywiec.html",
                "ref:regon": "362380947",
                "operator": "Marzenna Kogut",
                "operator:type": "private",
                "amenity": "kindergarten"
            }
        },
        {
            "id": 3414,
            "type": "Feature",
            "geometry": {
                "type": "Point",
                "coordinates": [
                    19.23321,
                    49.70172
                ]
            },
            "properties": {
                "ref:rspo": 3414,
                "official_name": "Zesp\u00f3\u0142 Szkolno-Przedszkolny nr 1 im. Janusza Korczaka w \u017bywcu",
                "name": "Zesp\u00f3\u0142 Szkolno-Przedszkolny nr 1",
                "addr:postcode": "34-300",
                "addr:city": "\u017bywiec",
                "addr:street": "Moszczanicka",
                "addr:housenumber": "26",
                "addr:city:simc": 927642,
                "addr:street:sym_ul": 27609,
                "phone": "+48 338652197",
                "email": "zsp1zywiec@wp.pl",
                "website": "http:\/\/zsp1zywiec.edupage.org",
                "ref:regon": "072875136",
                "ref:vatin": "PL5532269478",
                "operator": "Miasto \u017bywiec",
                "operator:type": "government",
                "landuse": "education",
                "fixme": "amenity=school, amenity=college albo landuse=education w zale\u017cno\u015bci od tego, jakie plac\u00f3wki wchodz\u0105 w sk\u0142ad zespo\u0142u. Sprawd\u017a, kiedy stosowa\u0107 amenity=* a kiedy landuse=education.",
                "note": "Children RSPO: 44126;44454"
            }
        },
        {
            "id": 44126,
            "type": "Feature",
            "geometry": {
                "type": "Point",
                "coordinates": [
                    19.23321,
                    49.70169
                ]
            },
            "properties": {
                "isced:level": "1;2",
                "ref:rspo": 44126,
                "official_name": "Szko\u0142a Podstawowa nr 6 w \u017bywcu",
                "name": "Szko\u0142a Podstawowa nr 6 w \u017bywcu",
                "addr:postcode": "34-300",
                "addr:city": "\u017bywiec",
                "addr:street": "Moszczanicka",
                "addr:housenumber": "26",
                "addr:city:simc": 927642,
                "addr:street:sym_ul": 27609,
                "phone": "+48 338652197",
                "email": "zsp1zywiec@wp.pl",
                "ref:regon": "070397371",
                "ref:vatin": "PL5532124811",
                "operator": "Miasto \u017bywiec",
                "operator:type": "government",
                "amenity": "school",
                "note": "Parent RSPO: 3414"
            }
        },
        {
            "id": 44454,
            "type": "Feature",
            "geometry": {
                "type": "Point",
                "coordinates": [
                    19.23321,
                    49.701660000000004
                ]
            },
            "properties": {
                "ref:rspo": 44454,
                "official_name": "Przedszkole nr 12 w \u017bywcu",
                "name": "Przedszkole nr 12 w \u017bywcu",
                "addr:postcode": "34-300",
                "addr:city": "\u017bywiec",
                "addr:street": "Moszczanicka",
                "addr:housenumber": "26",
                "addr:city:simc": 927642,
                "addr:street:sym_ul": 27609,
                "phone": "+48 338652177",
                "email": "zsp1zywiec@wp.pl",
                "ref:regon": "071008058",
                "ref:vatin": "PL5532124828",
                "operator": "Miasto \u017bywiec",
                "operator:type": "government",
                "amenity": "kindergarten",
                "note": "Parent RSPO: 3414"
            }
        },
        {
            "id": 4222,
            "type": "Feature",
            "geometry": {
                "type": "Point",
                "coordinates": [
                    19.20884,
                    49.70406
                ]
            },
            "properties": {
                "ref:rspo": 4222,
                "official_name": "Niepubliczne Przedszkole Polsko - Angielskie Oxford House",
                "name": "Niepubliczne Przedszkole Polsko - Angielskie Oxford House",
                "addr:postcode": "34-300",
                "addr:city": "\u017bywiec",
                "addr:street": "Pogodna",
                "addr:housenumber": "12",
                "addr:city:simc": 927642,
                "addr:street:sym_ul": 16900,
                "phone": "+48 725973947",
                "email": "oxfordhouse@op.pl",
                "ref:regon": "243013320",
                "ref:vatin": "PL5531597677",
                "operator": "Ryszard S\u0142apa",
                "operator:type": "private",
                "amenity": "kindergarten"
            }
        },
        {
            "id": 3416,
            "type": "Feature",
            "geometry": {
                "type": "Point",
                "coordinates": [
                    19.24171,
                    49.7284099
                ]
            },
            "properties": {
                "ref:rspo": 3416,
                "official_name": "Zesp\u00f3\u0142 Szkolno-Przedszkolny nr 2 im. Or\u0142a Bia\u0142ego w \u017bywcu",
                "name": "Zesp\u00f3\u0142 Szkolno-Przedszkolny nr 2",
                "addr:postcode": "34-300",
                "addr:city": "\u017bywiec",
                "addr:street": "Niezapominajki",
                "addr:housenumber": "14",
                "addr:city:simc": 927642,
                "addr:street:sym_ul": 14247,
                "phone": "+48 338652579",
                "email": "zsp2zywiec@gmail.com",
                "website": "http:\/\/oczkowzsp.edupage.org",
                "ref:regon": "072875142",
                "ref:vatin": "PL5532269461",
                "operator": "Miasto \u017bywiec",
                "operator:type": "government",
                "landuse": "education",
                "fixme": "amenity=school, amenity=college albo landuse=education w zale\u017cno\u015bci od tego, jakie plac\u00f3wki wchodz\u0105 w sk\u0142ad zespo\u0142u. Sprawd\u017a, kiedy stosowa\u0107 amenity=* a kiedy landuse=education.",
                "note": "Children RSPO: 44375;44456"
            }
        },
        {
            "id": 44375,
            "type": "Feature",
            "geometry": {
                "type": "Point",
                "coordinates": [
                    19.24171,
                    49.7283799
                ]
            },
            "properties": {
                "isced:level": "1;2",
                "ref:rspo": 44375,
                "official_name": "Szko\u0142a Podstawowa nr 8 w \u017bywcu",
                "name": "Szko\u0142a Podstawowa nr 8 w \u017bywcu",
                "addr:postcode": "34-300",
                "addr:city": "\u017bywiec",
                "addr:street": "Niezapominajki",
                "addr:housenumber": "14",
                "addr:city:simc": 927642,
                "addr:street:sym_ul": 14247,
                "phone": "+48 338652579",
                "email": "zsp2zywiec@gmail.com",
                "website": "http:\/\/oczkowzsp.edupage.org",
                "ref:regon": "070422560",
                "ref:vatin": "PL5532124969",
                "operator": "Miasto \u017bywiec",
                "operator:type": "government",
                "amenity": "school",
                "note": "Parent RSPO: 3416"
            }
        },
        {
            "id": 44456,
            "type": "Feature",
            "geometry": {
                "type": "Point",
                "coordinates": [
                    19.24171,
                    49.728349900000005
                ]
            },
            "properties": {
                "ref:rspo": 44456,
                "official_name": "Przedszkole nr 13 w \u017bywcu",
                "name": "Przedszkole nr 13 w \u017bywcu",
                "addr:postcode": "34-300",
                "addr:city": "\u017bywiec",
                "addr:street": "Niezapominajki",
                "addr:housenumber": "14",
                "addr:city:simc": 927642,
                "addr:street:sym_ul": 14247,
                "phone": "+48 338652579",
                "email": "zsp2zywiec@gmail.com",
                "ref:regon": "071008064",
                "ref:vatin": "PL5532125242",
                "operator": "Miasto \u017bywiec",
                "operator:type": "government",
                "amenity": "kindergarten",
                "note": "Parent RSPO: 3416"
            }
        }
    ]
}