{"type":"FeatureCollection","features":[{"id":26707,"type":"Feature","geometry":{"type":"Point","coordinates":[20.2745239,54.203066]},"properties":{"isced:level":"1;2","ref:rspo":26707,"official_name":"Szko\u0142a Podstawowa im.\u015bwi\u0119tego Jana Paw\u0142a II w Lechowie","name":"Szko\u0142a Podstawowa im.\u015bwi\u0119tego Jana Paw\u0142a II w Lechowie","addr:country":"PL","addr:postcode":"14-520","addr:place":"Lechowo","addr:housenumber":"72","addr:teryt:sym_ul":155010,"contact:phone":"+48 552445706","contact:email":"splechowo@tlen.pl","ref:regon":"001144089","ref:vatin":"PL5821553240","operator":"Gmina Pieni\u0119\u017cno","operator:type":"government","amenity":"school"}},{"id":16687,"type":"Feature","geometry":{"type":"Point","coordinates":[20.12534,54.22925]},"properties":{"ref:rspo":16687,"official_name":"Zesp\u00f3\u0142 Szkolno-Przedszkolny w Pieni\u0119\u017cnie","name":"Zesp\u00f3\u0142 Szkolno-Przedszkolny w Pieni\u0119\u017cnie","addr:country":"PL","addr:postcode":"14-520","addr:city":"Pieni\u0119\u017cno","addr:street":"ul. Ornecka","addr:housenumber":"8","addr:teryt:simc":15189,"addr:teryt:sym_ul":932956,"contact:phone":"+48 552436015","contact:email":"sekretariat@zsp-pieniezno.pl","ref:regon":"281408772","ref:vatin":"PL5821625146","operator":"Gmina Pieni\u0119\u017cno","operator:type":"government","landuse":"education","fixme":"amenity=school, amenity=college albo landuse=education w zale\u017cno\u015bci od tego, jakie plac\u00f3wki wchodz\u0105 w sk\u0142ad zespo\u0142u. Sprawd\u017a, kiedy stosowa\u0107 amenity=* a kiedy landuse=education.","note":"Children RSPO: 26709;28747"}},{"id":26709,"type":"Feature","geometry":{"type":"Point","coordinates":[20.12534,54.22922]},"properties":{"isced:level":"1;2","ref:rspo":26709,"official_name":"Szko\u0142a Podstawowa im. Ziemi Warmi\u0144skiej w Pieni\u0119\u017cnie","name":"Szko\u0142a Podstawowa","addr:country":"PL","addr:postcode":"14-520","addr:city":"Pieni\u0119\u017cno","addr:street":"ul. Ornecka","addr:housenumber":"8","addr:teryt:simc":15189,"addr:teryt:sym_ul":932956,"contact:phone":"+48 552436015","contact:email":"sekretariat@zsp-pieniezno.pl","ref:regon":"000645323","operator":"Gmina Pieni\u0119\u017cno","operator:type":"government","amenity":"school","note":"Parent RSPO: 16687"}},{"id":28747,"type":"Feature","geometry":{"type":"Point","coordinates":[20.12812,54.24092]},"properties":{"ref:rspo":28747,"official_name":"Przedszkole Publiczne w Pieni\u0119\u017cnie","name":"Przedszkole Publiczne w Pieni\u0119\u017cnie","addr:country":"PL","addr:postcode":"14-520","addr:city":"Pieni\u0119\u017cno","addr:street":"ul. Sadowa","addr:housenumber":"3","addr:teryt:simc":19404,"addr:teryt:sym_ul":932956,"contact:phone":"+48 552436044","contact:email":"ppno@o2.pl","ref:regon":"170008018","operator":"Gmina Pieni\u0119\u017cno","operator:type":"government","amenity":"kindergarten","note":"Parent RSPO: 16687"}},{"id":16688,"type":"Feature","geometry":{"type":"Point","coordinates":[20.022023,54.24391]},"properties":{"isced:level":"1;2","ref:rspo":16688,"official_name":"Szko\u0142a Podstawowa w Pakoszach","name":"Szko\u0142a Podstawowa w Pakoszach","addr:country":"PL","addr:postcode":"14-520","addr:place":"Pakosze","addr:housenumber":"22","addr:teryt:sym_ul":155079,"contact:phone":"+48 552447008","contact:email":"sppakosze22@wp.pl","ref:regon":"001144072","ref:vatin":"PL5821553286","operator":"Gmina Pieni\u0119\u017cno","operator:type":"government","amenity":"school"}},{"id":26708,"type":"Feature","geometry":{"type":"Point","coordinates":[20.102079,54.304395]},"properties":{"isced:level":"1;2","ref:rspo":26708,"official_name":"Szko\u0142a Podstawowa w Piotrowcu","name":"Szko\u0142a Podstawowa w Piotrowcu","addr:country":"PL","addr:postcode":"14-520","addr:place":"Piotrowiec","addr:housenumber":"10","addr:teryt:sym_ul":155139,"contact:phone":"+48 552447785","contact:email":"sppiotrowiec@poczta.onet.pl","ref:regon":"001144066","ref:vatin":"PL5821553257","operator":"Gmina Pieni\u0119\u017cno","operator:type":"government","amenity":"school"}}]}