{
    "type": "FeatureCollection",
    "features": [
        {
            "id": 133343,
            "type": "Feature",
            "geometry": {
                "type": "Point",
                "coordinates": [
                    19.82411,
                    54.37224
                ]
            },
            "properties": {
                "ref:rspo": 133343,
                "official_name": "Przedszkole Miejskie Nr 4 w Braniewie",
                "name": "Przedszkole Miejskie Nr 4 w Braniewie",
                "addr:country": "PL",
                "addr:postcode": "14-500",
                "addr:city": "Braniewo",
                "addr:street": "ul. Sucharskiego",
                "addr:housenumber": "19A",
                "addr:teryt:simc": 21495,
                "addr:teryt:sym_ul": 932710,
                "contact:phone": "+48 556491181",
                "contact:email": "pmiejskie4@wp.pl",
                "ref:regon": "367074971",
                "operator": "Gmina Miasto Braniewo",
                "operator:type": "government",
                "amenity": "kindergarten"
            }
        },
        {
            "id": 5581,
            "type": "Feature",
            "geometry": {
                "type": "Point",
                "coordinates": [
                    19.82459,
                    54.37517
                ]
            },
            "properties": {
                "ref:rspo": 5581,
                "official_name": "Specjalny O\u015brodek Szkolno- Wychowawczy w Braniewie",
                "name": "Specjalny O\u015brodek Szkolno- Wychowawczy w Braniewie",
                "addr:country": "PL",
                "addr:postcode": "14-500",
                "addr:city": "Braniewo",
                "addr:street": "ul. Moniuszki",
                "addr:housenumber": "22E",
                "addr:teryt:simc": 13242,
                "addr:teryt:sym_ul": 932710,
                "contact:phone": "+48 555065300",
                "contact:email": "oswbraniewo@o2.pl",
                "contact:website": "http:\/\/www.sosw-braniewo.pl",
                "ref:regon": "001255417",
                "ref:vatin": "PL5821157024",
                "operator": "Powiat Braniewski",
                "operator:type": "government",
                "amenity": "school",
                "note": "Children RSPO: 64523;64525;64526"
            }
        },
        {
            "id": 64523,
            "type": "Feature",
            "geometry": {
                "type": "Point",
                "coordinates": [
                    19.82459,
                    54.375139999999995
                ]
            },
            "properties": {
                "isced:level": "1;2",
                "ref:rspo": 64523,
                "official_name": "Szko\u0142a Podstawowa Specjalna",
                "name": "Szko\u0142a Podstawowa Specjalna",
                "addr:country": "PL",
                "addr:postcode": "14-500",
                "addr:city": "Braniewo",
                "addr:street": "ul. Moniuszki",
                "addr:housenumber": "22E",
                "addr:teryt:simc": 13242,
                "addr:teryt:sym_ul": 932710,
                "contact:phone": "+48 555065300",
                "contact:email": "oswbraniewo@o2.pl",
                "contact:website": "http:\/\/www.sosw-braniewo.pl",
                "ref:regon": "001070095",
                "operator": "Powiat Braniewski",
                "operator:type": "government",
                "amenity": "school",
                "note": "Parent RSPO: 5581"
            }
        },
        {
            "id": 64525,
            "type": "Feature",
            "geometry": {
                "type": "Point",
                "coordinates": [
                    19.82459,
                    54.37511
                ]
            },
            "properties": {
                "isced:level": "3",
                "ref:rspo": 64525,
                "official_name": "Bran\u017cowa Szko\u0142a I Stopnia Specjalna",
                "name": "Bran\u017cowa Szko\u0142a I Stopnia Specjalna",
                "addr:country": "PL",
                "addr:postcode": "14-500",
                "addr:city": "Braniewo",
                "addr:street": "ul. Moniuszki",
                "addr:housenumber": "22E",
                "addr:teryt:simc": 13242,
                "addr:teryt:sym_ul": 932710,
                "contact:phone": "+48 555065300",
                "contact:email": "oswbraniewo@o2.pl",
                "contact:website": "http:\/\/www.sosw-braniewo.pl",
                "ref:regon": "280057187",
                "operator": "Powiat Braniewski",
                "operator:type": "government",
                "amenity": "school",
                "note": "Parent RSPO: 5581"
            }
        },
        {
            "id": 64526,
            "type": "Feature",
            "geometry": {
                "type": "Point",
                "coordinates": [
                    19.82459,
                    54.37508
                ]
            },
            "properties": {
                "ref:rspo": 64526,
                "official_name": "Szko\u0142a Specjalna Przysposabiaj\u0105ca Do Pracy",
                "name": "Szko\u0142a Specjalna Przysposabiaj\u0105ca Do Pracy",
                "addr:country": "PL",
                "addr:postcode": "14-500",
                "addr:city": "Braniewo",
                "addr:street": "ul. Moniuszki",
                "addr:housenumber": "22E",
                "addr:teryt:simc": 13242,
                "addr:teryt:sym_ul": 932710,
                "contact:phone": "+48 555065300",
                "contact:email": "oswbraniewo@o2.pl",
                "contact:website": "http:\/\/www.sosw-braniewo.pl",
                "ref:regon": "280057218",
                "operator": "Powiat Braniewski",
                "operator:type": "government",
                "amenity": "school",
                "note": "Parent RSPO: 5581"
            }
        },
        {
            "id": 46539,
            "type": "Feature",
            "geometry": {
                "type": "Point",
                "coordinates": [
                    19.82439,
                    54.37694
                ]
            },
            "properties": {
                "isced:level": "1;2",
                "ref:rspo": 46539,
                "official_name": "Szko\u0142a Podstawowa Nr 5 w Braniewie im. Ziemi Braniewskiej",
                "name": "Szko\u0142a Podstawowa Nr 5 w Braniewie",
                "addr:country": "PL",
                "addr:postcode": "14-500",
                "addr:city": "Braniewo",
                "addr:street": "ul. Moniuszki",
                "addr:housenumber": "22a",
                "addr:teryt:simc": 13242,
                "addr:teryt:sym_ul": 932710,
                "contact:phone": "+48 556445352",
                "contact:email": "sekretariat@sp5braniewo.pl",
                "ref:regon": "170284267",
                "ref:vatin": "PL5821020319",
                "operator": "Gmina Miasto Braniewo",
                "operator:type": "government",
                "amenity": "school"
            }
        },
        {
            "id": 5580,
            "type": "Feature",
            "geometry": {
                "type": "Point",
                "coordinates": [
                    19.81968,
                    54.37749
                ]
            },
            "properties": {
                "isced:level": "3",
                "ref:rspo": 5580,
                "official_name": "Liceum Og\u00f3lnokszta\u0142c\u0105ce im. Feliksa Nowowiejskiego w Braniewie",
                "name": "Liceum Og\u00f3lnokszta\u0142c\u0105ce",
                "addr:country": "PL",
                "addr:postcode": "14-500",
                "addr:city": "Braniewo",
                "addr:street": "ul. Sikorskiego",
                "addr:housenumber": "15",
                "addr:teryt:simc": 19900,
                "addr:teryt:sym_ul": 932710,
                "contact:phone": "+48 552432362",
                "contact:email": "sekretariat@lobraniewo.pl",
                "contact:website": "http:\/\/www.lobraniewo.pl",
                "ref:regon": "170989648",
                "ref:vatin": "PL5821031760",
                "operator": "Powiat Braniewski",
                "operator:type": "government",
                "amenity": "school"
            }
        },
        {
            "id": 8964,
            "type": "Feature",
            "geometry": {
                "type": "Point",
                "coordinates": [
                    19.8378799,
                    54.38111
                ]
            },
            "properties": {
                "ref:rspo": 8964,
                "official_name": "Poradnia Psychologiczno-Pedagogiczna w Braniewie",
                "name": "Poradnia Psychologiczno-Pedagogiczna w Braniewie",
                "addr:country": "PL",
                "addr:postcode": "14-500",
                "addr:city": "Braniewo",
                "addr:street": "ul. Ko\u015bciuszki",
                "addr:housenumber": "105A",
                "addr:teryt:simc": 9572,
                "addr:teryt:sym_ul": 932710,
                "contact:phone": "+48 552432639",
                "contact:email": "sekretariat@pppbraniewo.edu.pl",
                "contact:website": "http:\/\/www.pppbraniewo.edu.pl",
                "ref:regon": "001011715",
                "ref:vatin": "PL5821475770",
                "operator": "Powiat Braniewski",
                "operator:type": "government",
                "healthcare": "counselling",
                "counselling_type": "education",
                "fixme": "w zale\u017cno\u015bci od przedmiotu dzia\u0142alno\u015bci (np. healthcare=counselling + counselling_type=education albo healthcare=psychotherapist)"
            }
        },
        {
            "id": 4624,
            "type": "Feature",
            "geometry": {
                "type": "Point",
                "coordinates": [
                    19.82283,
                    54.38141
                ]
            },
            "properties": {
                "ref:rspo": 4624,
                "official_name": "Zesp\u00f3\u0142 Szk\u00f3\u0142 Zawodowych im. Jana Liszewskiego w Braniewie",
                "name": "Zesp\u00f3\u0142 Szk\u00f3\u0142 Zawodowych",
                "addr:country": "PL",
                "addr:postcode": "14-500",
                "addr:city": "Braniewo",
                "addr:street": "ul. Gda\u0144ska",
                "addr:housenumber": "19",
                "addr:teryt:simc": 5431,
                "addr:teryt:sym_ul": 932710,
                "contact:phone": "+48 552432606",
                "contact:email": "sekretariat.zszbraniewo@gmail.com",
                "contact:website": "http:\/\/www.zszbraniewo.pl",
                "ref:regon": "000179708",
                "ref:vatin": "PL5821274161",
                "operator": "Powiat Braniewski",
                "operator:type": "government",
                "landuse": "education",
                "fixme": "amenity=school, amenity=college albo landuse=education w zale\u017cno\u015bci od tego, jakie plac\u00f3wki wchodz\u0105 w sk\u0142ad zespo\u0142u. Sprawd\u017a, kiedy stosowa\u0107 amenity=* a kiedy landuse=education.",
                "note": "Children RSPO: 8965;31416;31417;31419;279290"
            }
        },
        {
            "id": 8965,
            "type": "Feature",
            "geometry": {
                "type": "Point",
                "coordinates": [
                    19.82283,
                    54.38138
                ]
            },
            "properties": {
                "isced:level": "3",
                "ref:rspo": 8965,
                "official_name": "Liceum Og\u00f3lnokszta\u0142c\u0105ce dla Doros\u0142ych",
                "name": "Liceum Og\u00f3lnokszta\u0142c\u0105ce dla Doros\u0142ych",
                "addr:country": "PL",
                "addr:postcode": "14-500",
                "addr:city": "Braniewo",
                "addr:street": "ul. Gda\u0144ska",
                "addr:housenumber": "19",
                "addr:teryt:simc": 5431,
                "addr:teryt:sym_ul": 932710,
                "contact:phone": "+48 552432606",
                "contact:email": "sekretariat.zszbraniewo@gmail.com",
                "contact:website": "http:\/\/www.zszbraniewo.pl",
                "ref:regon": "281427723",
                "operator": "Powiat Braniewski",
                "operator:type": "government",
                "amenity": "school",
                "note": "Parent RSPO: 4624"
            }
        },
        {
            "id": 31416,
            "type": "Feature",
            "geometry": {
                "type": "Point",
                "coordinates": [
                    19.82283,
                    54.381350000000005
                ]
            },
            "properties": {
                "isced:level": "3",
                "ref:rspo": 31416,
                "official_name": "Bran\u017cowa Szko\u0142a I Stopnia",
                "name": "Bran\u017cowa Szko\u0142a I Stopnia",
                "addr:country": "PL",
                "addr:postcode": "14-500",
                "addr:city": "Braniewo",
                "addr:street": "ul. Gda\u0144ska",
                "addr:housenumber": "19",
                "addr:teryt:simc": 5431,
                "addr:teryt:sym_ul": 932710,
                "contact:phone": "+48 552432606",
                "contact:email": "sekretariat.zszbraniewo@gmail.com",
                "contact:website": "http:\/\/www.zszbraniewo.pl",
                "ref:regon": "170990172",
                "operator": "Powiat Braniewski",
                "operator:type": "government",
                "amenity": "school",
                "note": "Parent RSPO: 4624"
            }
        },
        {
            "id": 31417,
            "type": "Feature",
            "geometry": {
                "type": "Point",
                "coordinates": [
                    19.82283,
                    54.38132
                ]
            },
            "properties": {
                "isced:level": "3",
                "ref:rspo": 31417,
                "official_name": "Technikum",
                "name": "Technikum",
                "addr:country": "PL",
                "addr:postcode": "14-500",
                "addr:city": "Braniewo",
                "addr:street": "ul. Gda\u0144ska",
                "addr:housenumber": "19",
                "addr:teryt:simc": 5431,
                "addr:teryt:sym_ul": 932710,
                "contact:phone": "+48 552432606",
                "contact:email": "sekretariat.zszbraniewo@gmail.com",
                "contact:website": "http:\/\/www.zszbraniewo.pl",
                "ref:regon": "171009675",
                "operator": "Powiat Braniewski",
                "operator:type": "government",
                "amenity": "school",
                "note": "Parent RSPO: 4624"
            }
        },
        {
            "id": 31419,
            "type": "Feature",
            "geometry": {
                "type": "Point",
                "coordinates": [
                    19.82283,
                    54.38129
                ]
            },
            "properties": {
                "ref:rspo": 31419,
                "official_name": "Centrum Kszta\u0142cenia Zawodowego",
                "name": "Centrum Kszta\u0142cenia Zawodowego",
                "addr:country": "PL",
                "addr:postcode": "14-500",
                "addr:city": "Braniewo",
                "addr:street": "ul. Gda\u0144ska",
                "addr:housenumber": "19",
                "addr:teryt:simc": 5431,
                "addr:teryt:sym_ul": 932710,
                "contact:phone": "+48 552432606",
                "contact:email": "sekretariat.zszbraniewo@gmail.com",
                "contact:website": "http:\/\/www.zszbraniewo.pl",
                "ref:regon": "280545662",
                "operator": "Powiat Braniewski",
                "operator:type": "government",
                "fixme": "w zale\u017cno\u015bci od przedmiotu dzia\u0142alno\u015bci (np. amenity=training + training=*, amenity=dancing_school, amenity=language_school, amenity=music_school) albo amenity=school, amenity=college, albo landuse=education w zale\u017cno\u015bci od tego, jakie plac\u00f3wki wchodz\u0105 w sk\u0142ad zespo\u0142u. Sprawd\u017a, kiedy stosowa\u0107 amenity=* a kiedy landuse=education.",
                "note": "Parent RSPO: 4624"
            }
        },
        {
            "id": 279290,
            "type": "Feature",
            "geometry": {
                "type": "Point",
                "coordinates": [
                    19.82283,
                    54.381260000000005
                ]
            },
            "properties": {
                "ref:rspo": 279290,
                "official_name": "O\u015brodek Doskonalenia Nauczycieli",
                "name": "O\u015brodek Doskonalenia Nauczycieli",
                "addr:country": "PL",
                "addr:postcode": "14-500",
                "addr:city": "Braniewo",
                "addr:street": "ul. Gda\u0144ska",
                "addr:housenumber": "19",
                "addr:teryt:simc": 5431,
                "addr:teryt:sym_ul": 932710,
                "contact:phone": "+48 552432606",
                "contact:email": "sekretariat.zszbraniewo@gmail.com",
                "contact:website": "http:\/\/www.zszbraniewo.pl",
                "ref:regon": "521152933",
                "operator": "Powiat Braniewski",
                "operator:type": "government",
                "amenity": "training",
                "note": "Parent RSPO: 4624"
            }
        },
        {
            "id": 64521,
            "type": "Feature",
            "geometry": {
                "type": "Point",
                "coordinates": [
                    19.83355,
                    54.38322
                ]
            },
            "properties": {
                "ref:rspo": 64521,
                "official_name": "Zak\u0142ad Szkole\u0144 \"Hossa\"",
                "name": "Zak\u0142ad Szkole\u0144 \"Hossa\"",
                "addr:country": "PL",
                "addr:postcode": "14-500",
                "addr:city": "Braniewo",
                "addr:street": "ul. Rzemie\u015blnicza",
                "addr:housenumber": "4",
                "addr:teryt:simc": 19335,
                "addr:teryt:sym_ul": 932710,
                "contact:phone": "+48 605032489",
                "contact:email": "magda.rebell@gmail.com",
                "ref:regon": "281440853",
                "operator": "Magdalena Kodrzycka-Rebell",
                "operator:type": "private",
                "fixme": "w zale\u017cno\u015bci od przedmiotu dzia\u0142alno\u015bci (np. amenity=training + training=*, amenity=dancing_school, amenity=language_school, amenity=music_school)"
            }
        },
        {
            "id": 14160,
            "type": "Feature",
            "geometry": {
                "type": "Point",
                "coordinates": [
                    19.8187,
                    54.38352
                ]
            },
            "properties": {
                "isced:level": "3",
                "ref:rspo": 14160,
                "official_name": "Liceum Og\u00f3lnokszta\u0142c\u0105ce dla Doros\u0142ych w Braniewie",
                "name": "Liceum Og\u00f3lnokszta\u0142c\u0105ce dla Doros\u0142ych w Braniewie",
                "addr:country": "PL",
                "addr:postcode": "14-500",
                "addr:city": "Braniewo",
                "addr:street": "ul. Morska",
                "addr:housenumber": "7",
                "addr:teryt:simc": 13296,
                "addr:teryt:sym_ul": 932710,
                "contact:phone": "+48 552304296",
                "contact:email": "braniewo@wmzdz.pl",
                "contact:website": "http:\/\/www.szkolabraniewo.pl",
                "ref:regon": "281428579",
                "ref:vatin": "PL7390100344",
                "operator": "Warmi\u0144sko - Mazurski Zak\u0142ad Doskonalenia Zawodowego W Olsztynie",
                "operator:type": "ngo",
                "amenity": "school"
            }
        },
        {
            "id": 73541,
            "type": "Feature",
            "geometry": {
                "type": "Point",
                "coordinates": [
                    19.8187,
                    54.383489999999995
                ]
            },
            "properties": {
                "ref:rspo": 73541,
                "official_name": "Centrum Edukacji w Braniewie",
                "name": "Centrum Edukacji w Braniewie",
                "addr:country": "PL",
                "addr:postcode": "14-500",
                "addr:city": "Braniewo",
                "addr:street": "ul. Morska",
                "addr:housenumber": "7",
                "addr:teryt:simc": 13296,
                "addr:teryt:sym_ul": 932710,
                "contact:phone": "+48 552304296",
                "contact:email": "braniewo@wmzdz.pl",
                "contact:website": "http:\/\/www.szkolabraniewo.pl",
                "ref:regon": "281442817",
                "operator": "Warmi\u0144sko - Mazurski Zak\u0142ad Doskonalenia Zawodowego W Olsztynie",
                "operator:type": "ngo",
                "fixme": "w zale\u017cno\u015bci od przedmiotu dzia\u0142alno\u015bci (np. amenity=training + training=*, amenity=dancing_school, amenity=language_school, amenity=music_school)"
            }
        },
        {
            "id": 127921,
            "type": "Feature",
            "geometry": {
                "type": "Point",
                "coordinates": [
                    19.8187,
                    54.38346
                ]
            },
            "properties": {
                "isced:level": "4",
                "ref:rspo": 127921,
                "official_name": "Szko\u0142a Policealna w Braniewie",
                "name": "Szko\u0142a Policealna w Braniewie",
                "addr:country": "PL",
                "addr:postcode": "14-500",
                "addr:city": "Braniewo",
                "addr:street": "ul. Morska",
                "addr:housenumber": "7",
                "addr:teryt:simc": 13296,
                "addr:teryt:sym_ul": 932710,
                "contact:phone": "+48 552304296",
                "contact:email": "braniewo@wmzdz.pl",
                "contact:website": "http:\/\/www.szkolabraniewo.pl",
                "ref:regon": "361970167",
                "operator": "Warmi\u0144sko - Mazurski Zak\u0142ad Doskonalenia Zawodowego W Olsztynie",
                "operator:type": "ngo",
                "amenity": "college"
            }
        },
        {
            "id": 2881,
            "type": "Feature",
            "geometry": {
                "type": "Point",
                "coordinates": [
                    19.83836,
                    54.38376
                ]
            },
            "properties": {
                "ref:rspo": 2881,
                "official_name": "Przedszkole Niepubliczne \"Kubu\u015b Puchatek\"",
                "name": "Przedszkole Niepubliczne \"Kubu\u015b Puchatek\"",
                "addr:country": "PL",
                "addr:postcode": "14-500",
                "addr:city": "Braniewo",
                "addr:street": "ul. Ko\u0142\u0142\u0105taja",
                "addr:housenumber": "16",
                "addr:teryt:simc": 9000,
                "addr:teryt:sym_ul": 932710,
                "contact:phone": "+48 556200254",
                "contact:email": "puchatek2013@wp.pl",
                "contact:website": "http:\/\/www.przedszkolebraniewo.pl",
                "ref:regon": "281416151",
                "operator": "Sylwia Pawlukowska",
                "operator:type": "private",
                "amenity": "kindergarten"
            }
        },
        {
            "id": 46543,
            "type": "Feature",
            "geometry": {
                "type": "Point",
                "coordinates": [
                    19.81287,
                    54.38386
                ]
            },
            "properties": {
                "ref:rspo": 46543,
                "official_name": "Przedszkole Miejskie Nr 2 w Braniewie",
                "name": "Przedszkole Miejskie Nr 2 w Braniewie",
                "addr:country": "PL",
                "addr:postcode": "14-500",
                "addr:city": "Braniewo",
                "addr:street": "ul. R\u00f3\u017cana",
                "addr:housenumber": "14",
                "addr:teryt:simc": 19000,
                "addr:teryt:sym_ul": 932710,
                "contact:phone": "+48 556445444",
                "contact:email": "pmiejskie@wp.pl",
                "ref:regon": "170006924",
                "ref:vatin": "PL5821020101",
                "operator": "Gmina Miasto Braniewo",
                "operator:type": "government",
                "amenity": "kindergarten"
            }
        },
        {
            "id": 46538,
            "type": "Feature",
            "geometry": {
                "type": "Point",
                "coordinates": [
                    19.8149,
                    54.38418
                ]
            },
            "properties": {
                "isced:level": "1;2",
                "ref:rspo": 46538,
                "official_name": "Szko\u0142a Podstawowa Nr 3 im. Senatu Rzeczypospolitej Polskiej w Braniewie",
                "name": "Szko\u0142a Podstawowa Nr 3",
                "addr:country": "PL",
                "addr:postcode": "14-500",
                "addr:city": "Braniewo",
                "addr:street": "ul. PCK",
                "addr:housenumber": "4",
                "addr:teryt:simc": 15905,
                "addr:teryt:sym_ul": 932710,
                "contact:phone": "+48 556442858",
                "contact:email": "sp3braniewo@interia.pl",
                "contact:website": "http:\/\/www.sp3braniewo",
                "ref:regon": "170284244",
                "ref:vatin": "PL5821030950",
                "operator": "Gmina Miasto Braniewo",
                "operator:type": "government",
                "amenity": "school"
            }
        },
        {
            "id": 46540,
            "type": "Feature",
            "geometry": {
                "type": "Point",
                "coordinates": [
                    19.83172,
                    54.38463
                ]
            },
            "properties": {
                "isced:level": "1;2",
                "ref:rspo": 46540,
                "official_name": "Szko\u0142a Podstawowa Sportowa Nr 6 im. Jana Paw\u0142a II Z Oddzia\u0142ami Przedszkolnymi w Braniewie",
                "name": "Szko\u0142a Podstawowa Sportowa Nr 6",
                "addr:country": "PL",
                "addr:postcode": "14-500",
                "addr:city": "Braniewo",
                "addr:street": "ul. Konarskiego",
                "addr:housenumber": "13",
                "addr:teryt:simc": 9106,
                "addr:teryt:sym_ul": 932710,
                "contact:phone": "+48 556442497",
                "contact:email": "sekretariat-sp6braniewo@wp.pl",
                "contact:website": "http:\/\/www.sp6braniewo.pl",
                "ref:regon": "170389397",
                "operator": "Gmina Miasto Braniewo",
                "operator:type": "government",
                "amenity": "school"
            }
        },
        {
            "id": 46547,
            "type": "Feature",
            "geometry": {
                "type": "Point",
                "coordinates": [
                    19.83069,
                    54.38475
                ]
            },
            "properties": {
                "ref:rspo": 46547,
                "official_name": "Przedszkole Niepubliczne \"Stokrotka\"",
                "name": "Przedszkole Niepubliczne \"Stokrotka\"",
                "addr:country": "PL",
                "addr:postcode": "14-500",
                "addr:city": "Braniewo",
                "addr:street": "ul. Konarskiego",
                "addr:housenumber": "4",
                "addr:teryt:simc": 9106,
                "addr:teryt:sym_ul": 932710,
                "contact:phone": "+48 556441500",
                "contact:email": "emysiakowska@braniewo.waw.pl",
                "ref:regon": "281437897",
                "ref:vatin": "PL5821175921",
                "operator": "El\u017cbieta Mysiakowska",
                "operator:type": "private",
                "amenity": "kindergarten"
            }
        },
        {
            "id": 46548,
            "type": "Feature",
            "geometry": {
                "type": "Point",
                "coordinates": [
                    19.82982,
                    54.38507
                ]
            },
            "properties": {
                "ref:rspo": 46548,
                "official_name": "Przedszkole Niepubliczne Nr 3 \"Bajka\"",
                "name": "Przedszkole Niepubliczne Nr 3 \"Bajka\"",
                "addr:country": "PL",
                "addr:postcode": "14-500",
                "addr:city": "Braniewo",
                "addr:street": "ul. Konarskiego",
                "addr:housenumber": "2",
                "addr:teryt:simc": 9106,
                "addr:teryt:sym_ul": 932710,
                "contact:phone": "+48 556441616",
                "contact:email": "npbajka@poczta.onet.pl",
                "contact:website": "http:\/\/www.bajka.szkolnastrona.pl",
                "ref:regon": "281437880",
                "ref:vatin": "PL5821259434",
                "operator": "Miros\u0142awa Niska",
                "operator:type": "private",
                "amenity": "kindergarten"
            }
        },
        {
            "id": 75725,
            "type": "Feature",
            "geometry": {
                "type": "Point",
                "coordinates": [
                    19.82963,
                    54.38546
                ]
            },
            "properties": {
                "ref:rspo": 75725,
                "official_name": "Katolicka Specjalistyczna Poradnia Rodzina",
                "name": "Katolicka Specjalistyczna Poradnia Rodzina",
                "addr:country": "PL",
                "addr:postcode": "14-500",
                "addr:city": "Braniewo",
                "addr:street": "ul. Kr\u00f3lewiecka",
                "addr:housenumber": "24",
                "addr:teryt:simc": 9983,
                "addr:teryt:sym_ul": 932710,
                "contact:phone": "+48 552432381",
                "ref:regon": "170945310",
                "operator": "Dane Do Uzupe\u0142nienia",
                "operator:type": "private",
                "fixme": "w zale\u017cno\u015bci od przedmiotu dzia\u0142alno\u015bci (np. healthcare=counselling + counselling_type=education albo healthcare=psychotherapist)"
            }
        },
        {
            "id": 4611,
            "type": "Feature",
            "geometry": {
                "type": "Point",
                "coordinates": [
                    19.82857,
                    54.38584
                ]
            },
            "properties": {
                "ref:rspo": 4611,
                "official_name": "Zesp\u00f3\u0142 Szk\u00f3\u0142 Budowlanych w Braniewie",
                "name": "Zesp\u00f3\u0142 Szk\u00f3\u0142 Budowlanych w Braniewie",
                "addr:country": "PL",
                "addr:postcode": "14-500",
                "addr:city": "Braniewo",
                "addr:street": "ul. Wiejska",
                "addr:housenumber": "2",
                "addr:teryt:simc": 24048,
                "addr:teryt:sym_ul": 932710,
                "contact:phone": "+48 552432350",
                "contact:email": "sekret@zsb.iq.pl",
                "contact:website": "http:\/\/www.zsb.iq.pl",
                "ref:regon": "001072817",
                "ref:vatin": "PL5820004643",
                "operator": "Powiat Braniewski",
                "operator:type": "government",
                "landuse": "education",
                "fixme": "amenity=school, amenity=college albo landuse=education w zale\u017cno\u015bci od tego, jakie plac\u00f3wki wchodz\u0105 w sk\u0142ad zespo\u0142u. Sprawd\u017a, kiedy stosowa\u0107 amenity=* a kiedy landuse=education.",
                "note": "Children RSPO: 31415;59861;59864;59867"
            }
        },
        {
            "id": 31415,
            "type": "Feature",
            "geometry": {
                "type": "Point",
                "coordinates": [
                    19.82857,
                    54.38581
                ]
            },
            "properties": {
                "isced:level": "3",
                "ref:rspo": 31415,
                "official_name": "Liceum Og\u00f3lnokszta\u0142c\u0105ce im. 9 Braniewskiej Brygady Kawalerii Pancernej im. Kr\u00f3la Stefana Batorego",
                "name": "Liceum Og\u00f3lnokszta\u0142c\u0105ce",
                "addr:country": "PL",
                "addr:postcode": "14-500",
                "addr:city": "Braniewo",
                "addr:street": "ul. Wiejska",
                "addr:housenumber": "2",
                "addr:teryt:simc": 24048,
                "addr:teryt:sym_ul": 932710,
                "contact:phone": "+48 552432350",
                "contact:email": "sekretariat@zsb.iq.pl",
                "contact:website": "http:\/\/www.zsb.iq.pl",
                "ref:regon": "280014396",
                "operator": "Powiat Braniewski",
                "operator:type": "government",
                "amenity": "school",
                "note": "Parent RSPO: 4611"
            }
        },
        {
            "id": 59861,
            "type": "Feature",
            "geometry": {
                "type": "Point",
                "coordinates": [
                    19.82857,
                    54.385780000000004
                ]
            },
            "properties": {
                "isced:level": "3",
                "ref:rspo": 59861,
                "official_name": "Technikum im. 9 Braniewskiej Brygady Kawalerii Pancernej im. Kr\u00f3la Stefana Batorego",
                "name": "Technikum",
                "addr:country": "PL",
                "addr:postcode": "14-500",
                "addr:city": "Braniewo",
                "addr:street": "ul. Wiejska",
                "addr:housenumber": "2",
                "addr:teryt:simc": 24048,
                "addr:teryt:sym_ul": 932710,
                "contact:phone": "+48 552432350",
                "contact:email": "sekretariat@zsb.iq.pl",
                "contact:website": "http:\/\/www.zsb.iq.pl",
                "ref:regon": "281439643",
                "operator": "Powiat Braniewski",
                "operator:type": "government",
                "amenity": "school",
                "note": "Parent RSPO: 4611"
            }
        },
        {
            "id": 59864,
            "type": "Feature",
            "geometry": {
                "type": "Point",
                "coordinates": [
                    19.82857,
                    54.38575
                ]
            },
            "properties": {
                "isced:level": "3",
                "ref:rspo": 59864,
                "official_name": "Liceum Og\u00f3lnokszta\u0142c\u0105ce dla Doros\u0142ych",
                "name": "Liceum Og\u00f3lnokszta\u0142c\u0105ce dla Doros\u0142ych",
                "addr:country": "PL",
                "addr:postcode": "14-500",
                "addr:city": "Braniewo",
                "addr:street": "ul. Wiejska",
                "addr:housenumber": "2",
                "addr:teryt:simc": 24048,
                "addr:teryt:sym_ul": 932710,
                "contact:phone": "+48 552432350",
                "contact:email": "sekretariat@zsb.iq.pl",
                "contact:website": "http:\/\/www.zsb.iq.pl",
                "ref:regon": "281439703",
                "operator": "Powiat Braniewski",
                "operator:type": "government",
                "amenity": "school",
                "note": "Parent RSPO: 4611"
            }
        },
        {
            "id": 59867,
            "type": "Feature",
            "geometry": {
                "type": "Point",
                "coordinates": [
                    19.82857,
                    54.38572
                ]
            },
            "properties": {
                "isced:level": "4",
                "ref:rspo": 59867,
                "official_name": "Szko\u0142a Policealna",
                "name": "Szko\u0142a Policealna",
                "addr:country": "PL",
                "addr:postcode": "14-500",
                "addr:city": "Braniewo",
                "addr:street": "ul. Wiejska",
                "addr:housenumber": "2",
                "addr:teryt:simc": 24048,
                "addr:teryt:sym_ul": 932710,
                "contact:phone": "+48 552432350",
                "contact:email": "sekretariat@zsb.iq.pl",
                "contact:website": "http:\/\/www.zsb.iq.pl",
                "ref:regon": "281439761",
                "operator": "Powiat Braniewski",
                "operator:type": "government",
                "amenity": "college",
                "note": "Parent RSPO: 4611"
            }
        },
        {
            "id": 46546,
            "type": "Feature",
            "geometry": {
                "type": "Point",
                "coordinates": [
                    19.82448,
                    54.38733
                ]
            },
            "properties": {
                "ref:rspo": 46546,
                "official_name": "Przedszkole Niepubliczne Nr 1",
                "name": "Przedszkole Niepubliczne Nr 1",
                "addr:country": "PL",
                "addr:postcode": "14-500",
                "addr:city": "Braniewo",
                "addr:street": "ul. Wiejska",
                "addr:housenumber": "11",
                "addr:teryt:simc": 24048,
                "addr:teryt:sym_ul": 932710,
                "contact:phone": "+48 556441414",
                "contact:email": "ewa-grudzka@wp.pl",
                "ref:regon": "281437874",
                "ref:vatin": "PL5821229002",
                "operator": "Ewa Grudzka",
                "operator:type": "private",
                "amenity": "kindergarten"
            }
        }
    ]
}