{
    "type": "FeatureCollection",
    "features": [
        {
            "id": 61397,
            "type": "Feature",
            "geometry": {
                "type": "Point",
                "coordinates": [
                    17.15048,
                    53.2678299
                ]
            },
            "properties": {
                "isced:level": "1;2",
                "ref:rspo": 61397,
                "official_name": "Szko\u0142a Podstawowa w S\u0142awianowie",
                "name": "Szko\u0142a Podstawowa w S\u0142awianowie",
                "addr:country": "PL",
                "addr:postcode": "77-400",
                "addr:place": "S\u0142awianowo",
                "addr:housenumber": "1",
                "addr:teryt:sym_ul": 534279,
                "contact:phone": "+48 672631194",
                "contact:email": "spslawianowo@wp.pl",
                "ref:regon": "001149106",
                "ref:vatin": "PL7671505713",
                "operator": "Gmina Z\u0142ot\u00f3w",
                "operator:type": "government",
                "amenity": "school"
            }
        },
        {
            "id": 61404,
            "type": "Feature",
            "geometry": {
                "type": "Point",
                "coordinates": [
                    17.13359,
                    53.30592
                ]
            },
            "properties": {
                "isced:level": "1;2",
                "ref:rspo": 61404,
                "official_name": "Szko\u0142a Podstawowa im. Marii Kilar w Kleszczynie",
                "name": "Szko\u0142a Podstawowa",
                "addr:country": "PL",
                "addr:postcode": "77-400",
                "addr:place": "Kleszczyna",
                "addr:housenumber": "28",
                "addr:teryt:sym_ul": 534121,
                "contact:phone": "+48 672631127",
                "contact:email": "spkleszczyna@interia.pl",
                "contact:website": "http:\/\/spkleszczyna.edu.pl",
                "ref:regon": "000781658",
                "ref:vatin": "PL7671505937",
                "operator": "Gmina Z\u0142ot\u00f3w",
                "operator:type": "government",
                "amenity": "school"
            }
        },
        {
            "id": 61400,
            "type": "Feature",
            "geometry": {
                "type": "Point",
                "coordinates": [
                    17.08958,
                    53.33285
                ]
            },
            "properties": {
                "isced:level": "1;2",
                "ref:rspo": 61400,
                "official_name": "Szko\u0142a Podstawowa im. Marii Konopnickiej w \u015awi\u0119tej",
                "name": "Szko\u0142a Podstawowa",
                "addr:country": "PL",
                "addr:postcode": "77-400",
                "addr:place": "\u015awi\u0119ta",
                "addr:housenumber": "40",
                "addr:teryt:sym_ul": 534316,
                "contact:phone": "+48 672631678",
                "contact:email": "spswieta@interia.pl",
                "contact:website": "http:\/\/spswieta.w.interia.pl",
                "ref:regon": "001149112",
                "ref:vatin": "PL7671706966",
                "operator": "Gmina Z\u0142ot\u00f3w",
                "operator:type": "government",
                "amenity": "school"
            }
        },
        {
            "id": 118706,
            "type": "Feature",
            "geometry": {
                "type": "Point",
                "coordinates": [
                    16.95128,
                    53.3627899
                ]
            },
            "properties": {
                "isced:level": "1;2",
                "ref:rspo": 118706,
                "official_name": "Spo\u0142eczna Szko\u0142a Podstawowa w Zalesiu",
                "name": "Spo\u0142eczna Szko\u0142a Podstawowa w Zalesiu",
                "addr:country": "PL",
                "addr:postcode": "77-400",
                "addr:place": "Zalesie",
                "addr:housenumber": "22",
                "addr:teryt:sym_ul": 534345,
                "contact:phone": "+48 511988155",
                "contact:email": "sspzalesie@wp.pl",
                "ref:regon": "302499336",
                "ref:vatin": "PL7671698416",
                "operator": "Stowarzyszenie \"Wsp\u00f3lnie Mo\u017cemy Wi\u0119cej\"",
                "operator:type": "ngo",
                "amenity": "school"
            }
        },
        {
            "id": 61412,
            "type": "Feature",
            "geometry": {
                "type": "Point",
                "coordinates": [
                    16.9495,
                    53.39802
                ]
            },
            "properties": {
                "isced:level": "1;2",
                "ref:rspo": 61412,
                "official_name": "Szko\u0142a Podstawowa im. Tony'ego Halika w G\u00f3rznej",
                "name": "Szko\u0142a Podstawowa",
                "addr:country": "PL",
                "addr:postcode": "77-400",
                "addr:place": "G\u00f3rzna",
                "addr:housenumber": "22",
                "addr:teryt:sym_ul": 534090,
                "contact:phone": "+48 672631423",
                "contact:email": "szkolagorzna3@wp.pl",
                "contact:website": "http:\/\/www.spgorzna.pl",
                "ref:regon": "001149299",
                "ref:vatin": "PL7671505699",
                "operator": "Gmina Z\u0142ot\u00f3w",
                "operator:type": "government",
                "amenity": "school"
            }
        },
        {
            "id": 118686,
            "type": "Feature",
            "geometry": {
                "type": "Point",
                "coordinates": [
                    17.06913,
                    53.40475
                ]
            },
            "properties": {
                "isced:level": "1;2",
                "ref:rspo": 118686,
                "official_name": "Niepubliczna Szko\u0142a Podstawowa w Stawnicy",
                "name": "Niepubliczna Szko\u0142a Podstawowa w Stawnicy",
                "addr:country": "PL",
                "addr:postcode": "77-400",
                "addr:place": "Stawnica",
                "addr:housenumber": "11",
                "addr:teryt:sym_ul": 534300,
                "contact:phone": "+48 672632476",
                "contact:email": "spstawnica@gmail.com",
                "ref:regon": "302499098",
                "ref:vatin": "PL7671698422",
                "operator": "Stowarzyszenie Dla Rozwoju Wsi Stawnica I Okolic \"Blisko Siebie\"",
                "operator:type": "ngo",
                "amenity": "school"
            }
        },
        {
            "id": 17372,
            "type": "Feature",
            "geometry": {
                "type": "Point",
                "coordinates": [
                    16.985660552979,
                    53.447170257568
                ]
            },
            "properties": {
                "ref:rspo": 17372,
                "official_name": "M\u0142odzie\u017cowy O\u015brodek Socjoterapii w Radawnicy",
                "name": "M\u0142odzie\u017cowy O\u015brodek Socjoterapii w Radawnicy",
                "addr:country": "PL",
                "addr:postcode": "77-400",
                "addr:city": "Radawnica",
                "addr:street": "ul. Uniwersytecka",
                "addr:housenumber": "6",
                "addr:teryt:simc": 23375,
                "addr:teryt:sym_ul": 534227,
                "contact:phone": "+48 672631310",
                "contact:email": "mosradawnica@poczta.onet.pl",
                "ref:regon": "302222221",
                "operator": "Polskie Uniwersytety Ludowe",
                "operator:type": "ngo",
                "fixme": "amenity=social_facility + social_facility=group_home + social_facility:for=juvenile",
                "note": "Children RSPO: 22604"
            }
        },
        {
            "id": 17436,
            "type": "Feature",
            "geometry": {
                "type": "Point",
                "coordinates": [
                    16.985660552979,
                    53.447140257567995
                ]
            },
            "properties": {
                "isced:level": "4",
                "ref:rspo": 17436,
                "official_name": "Szko\u0142a Policealna Nr 2 w Radawnicy",
                "name": "Szko\u0142a Policealna Nr 2 w Radawnicy",
                "addr:country": "PL",
                "addr:postcode": "77-400",
                "addr:city": "Radawnica",
                "addr:street": "ul. Uniwersytecka",
                "addr:housenumber": "6",
                "addr:teryt:simc": 23375,
                "addr:teryt:sym_ul": 534227,
                "contact:phone": "+48 672631393",
                "contact:email": "ul_radawnica@pro.onet.pl",
                "contact:website": "http:\/\/www.ul-radawnica.pl",
                "ref:regon": "302222296",
                "operator": "Polskie Uniwersytety Ludowe",
                "operator:type": "ngo",
                "amenity": "college"
            }
        },
        {
            "id": 17538,
            "type": "Feature",
            "geometry": {
                "type": "Point",
                "coordinates": [
                    16.985660552979,
                    53.447110257568
                ]
            },
            "properties": {
                "ref:rspo": 17538,
                "official_name": "Uniwersytet Ludowy w Radawnicy",
                "name": "Uniwersytet Ludowy w Radawnicy",
                "addr:country": "PL",
                "addr:postcode": "77-400",
                "addr:city": "Radawnica",
                "addr:street": "ul. Uniwersytecka",
                "addr:housenumber": "6",
                "addr:teryt:simc": 23375,
                "addr:teryt:sym_ul": 534227,
                "contact:phone": "+48 672631393",
                "contact:email": "ul_radawnica@pro.onet.pl",
                "contact:website": "http:\/\/www.ul-radawnica.pl",
                "ref:regon": "302222391",
                "ref:vatin": "PL7671490153",
                "operator": "Polskie Uniwersytety Ludowe",
                "operator:type": "ngo",
                "fixme": "w zale\u017cno\u015bci od przedmiotu dzia\u0142alno\u015bci (np. amenity=training + training=*, amenity=dancing_school, amenity=language_school, amenity=music_school)"
            }
        },
        {
            "id": 17564,
            "type": "Feature",
            "geometry": {
                "type": "Point",
                "coordinates": [
                    16.985660552979,
                    53.447080257568
                ]
            },
            "properties": {
                "isced:level": "4",
                "ref:rspo": 17564,
                "official_name": "Szko\u0142a Policealna Nr 1 w Radawnicy",
                "name": "Szko\u0142a Policealna Nr 1 w Radawnicy",
                "addr:country": "PL",
                "addr:postcode": "77-400",
                "addr:city": "Radawnica",
                "addr:street": "ul. Uniwersytecka",
                "addr:housenumber": "6",
                "addr:teryt:simc": 23375,
                "addr:teryt:sym_ul": 534227,
                "contact:phone": "+48 672631393",
                "contact:email": "ul_radawnica@pro.onet.pl",
                "contact:website": "http:\/\/www.ul-radawnica.pl",
                "ref:regon": "302222379",
                "operator": "Polskie Uniwersytety Ludowe",
                "operator:type": "ngo",
                "amenity": "college"
            }
        },
        {
            "id": 17702,
            "type": "Feature",
            "geometry": {
                "type": "Point",
                "coordinates": [
                    16.985660552979,
                    53.447050257567994
                ]
            },
            "properties": {
                "ref:rspo": 17702,
                "official_name": "Niepubliczne Centrum Kszta\u0142cenia Zawodowego w Radawnicy",
                "name": "Niepubliczne Centrum Kszta\u0142cenia Zawodowego w Radawnicy",
                "addr:country": "PL",
                "addr:postcode": "77-400",
                "addr:city": "Radawnica",
                "addr:street": "ul. Uniwersytecka",
                "addr:housenumber": "6",
                "addr:teryt:simc": 23375,
                "addr:teryt:sym_ul": 534227,
                "contact:phone": "+48 672631393",
                "contact:email": "ul_radawnica@pro.onet.pl",
                "contact:website": "http:\/\/www.ul-radawnica.pl",
                "ref:regon": "302225834",
                "operator": "Polskie Uniwersytety Ludowe",
                "operator:type": "ngo",
                "fixme": "w zale\u017cno\u015bci od przedmiotu dzia\u0142alno\u015bci (np. amenity=training + training=*, amenity=dancing_school, amenity=language_school, amenity=music_school)"
            }
        },
        {
            "id": 61394,
            "type": "Feature",
            "geometry": {
                "type": "Point",
                "coordinates": [
                    16.985660552979,
                    53.447020257568
                ]
            },
            "properties": {
                "isced:level": "1;2",
                "ref:rspo": 61394,
                "official_name": "Szko\u0142a Podstawowa im. Jana Brzechwy w Radawnicy",
                "name": "Szko\u0142a Podstawowa",
                "addr:country": "PL",
                "addr:postcode": "77-400",
                "addr:city": "Radawnica",
                "addr:street": "ul. Szkolna",
                "addr:housenumber": "2",
                "addr:teryt:simc": 21970,
                "addr:teryt:sym_ul": 534227,
                "contact:phone": "+48 672659297",
                "contact:email": "spradawnica@op.pl",
                "contact:website": "http:\/\/www.spradawnica.pl",
                "ref:regon": "001238703",
                "ref:vatin": "PL7671706972",
                "operator": "Gmina Z\u0142ot\u00f3w",
                "operator:type": "government",
                "amenity": "school"
            }
        },
        {
            "id": 22604,
            "type": "Feature",
            "geometry": {
                "type": "Point",
                "coordinates": [
                    16.985660552979,
                    53.446990257568
                ]
            },
            "properties": {
                "isced:level": "1;2",
                "ref:rspo": 22604,
                "official_name": "Szko\u0142a Podstawowa w Radawnicy",
                "name": "Szko\u0142a Podstawowa w Radawnicy",
                "addr:country": "PL",
                "addr:postcode": "77-400",
                "addr:city": "Radawnica",
                "addr:street": "ul. Uniwersytecka",
                "addr:housenumber": "6",
                "addr:teryt:simc": 23375,
                "addr:teryt:sym_ul": 534227,
                "contact:phone": "+48 672631310",
                "contact:email": "mosradawnica@poczta.onet.pl",
                "ref:regon": "302231600",
                "operator": "Polskie Uniwersytety Ludowe",
                "operator:type": "ngo",
                "amenity": "school",
                "note": "Parent RSPO: 17372"
            }
        }
    ]
}