{
    "type": "FeatureCollection",
    "features": [
        {
            "id": 70728,
            "type": "Feature",
            "geometry": {
                "type": "Point",
                "coordinates": [
                    16.79384,
                    53.45156
                ]
            },
            "properties": {
                "isced:level": "1;2",
                "ref:rspo": 70728,
                "official_name": "Szko\u0142a Podstawowa w Pniewie",
                "name": "Szko\u0142a Podstawowa w Pniewie",
                "addr:postcode": "64-965",
                "addr:place": "Pniewo",
                "addr:housenumber": "18",
                "addr:teryt:simc": 528592,
                "phone": "+48 672660920",
                "email": "sppniewo@wp.pl",
                "website": "http:\/\/www.aktywnatrojwies.szkolnastrona.pl",
                "ref:regon": "302256042",
                "operator": "Stowarzyszenie Przyjaci\u00f3\u0142 Szko\u0142y \"Aktywna Tr\u00f3jwie\u015b\"",
                "operator:type": "ngo",
                "amenity": "school"
            }
        },
        {
            "id": 70730,
            "type": "Feature",
            "geometry": {
                "type": "Point",
                "coordinates": [
                    16.79384,
                    53.45153
                ]
            },
            "properties": {
                "ref:rspo": 70730,
                "official_name": "Przedszkole w Pniewie",
                "name": "Przedszkole w Pniewie",
                "addr:postcode": "64-965",
                "addr:place": "Pniewo",
                "addr:housenumber": "18",
                "addr:teryt:simc": 528592,
                "phone": "+48 672660920",
                "email": "sppniewo@wp.pl",
                "website": "http:\/\/www.aktywnatrojwies.szkolnastrona.pl",
                "ref:regon": "302255605",
                "operator": "Stowarzyszenie Przyjaci\u00f3\u0142 Szko\u0142y \"Aktywna Tr\u00f3jwie\u015b\"",
                "operator:type": "ngo",
                "amenity": "kindergarten"
            }
        },
        {
            "id": 128270,
            "type": "Feature",
            "geometry": {
                "type": "Point",
                "coordinates": [
                    16.84277,
                    53.53192
                ]
            },
            "properties": {
                "ref:rspo": 128270,
                "official_name": "Niepubliczne Przedszkole \"Delfinek\"",
                "name": "Niepubliczne Przedszkole \"Delfinek\"",
                "addr:postcode": "64-965",
                "addr:city": "Okonek",
                "addr:street": "Wodna",
                "addr:housenumber": "30",
                "addr:teryt:simc": 967044,
                "addr:teryt:sym_ul": 24550,
                "phone": "+48 697023047",
                "email": "przedszkoledelfinek01@gmail.com",
                "ref:regon": "362211340",
                "operator": "Dagmara Tarnowska-Baran",
                "operator:type": "private",
                "amenity": "kindergarten"
            }
        },
        {
            "id": 58383,
            "type": "Feature",
            "geometry": {
                "type": "Point",
                "coordinates": [
                    16.84239,
                    53.53322
                ]
            },
            "properties": {
                "isced:level": "1;2",
                "ref:rspo": 58383,
                "official_name": "Szko\u0142a Podstawowa w Okonku",
                "name": "Szko\u0142a Podstawowa w Okonku",
                "addr:postcode": "64-965",
                "addr:city": "Okonek",
                "addr:street": "Le\u015bna",
                "addr:housenumber": "45",
                "addr:teryt:simc": 967044,
                "addr:teryt:sym_ul": 10898,
                "phone": "+48 672669017",
                "email": "spokonek@okonek-edukacja.pl",
                "website": "http:\/\/www.spokonek.pl",
                "ref:regon": "000264609",
                "ref:vatin": "PL7671540885",
                "operator": "Gmina Okonek",
                "operator:type": "government",
                "amenity": "school"
            }
        },
        {
            "id": 70732,
            "type": "Feature",
            "geometry": {
                "type": "Point",
                "coordinates": [
                    16.84588,
                    53.53391
                ]
            },
            "properties": {
                "ref:rspo": 70732,
                "official_name": "Niepubliczne Przedszkole \"Pszcz\u00f3\u0142ka Maja\"",
                "name": "Niepubliczne Przedszkole \"Pszcz\u00f3\u0142ka Maja\"",
                "addr:postcode": "64-965",
                "addr:city": "Okonek",
                "addr:street": "Le\u015bna",
                "addr:housenumber": "40",
                "addr:teryt:simc": 967044,
                "addr:teryt:sym_ul": 10898,
                "phone": "+48 604796304",
                "email": "rys7007@wp.pl",
                "website": "http:\/\/www.okonek-maja.pl",
                "ref:regon": "302255628",
                "operator": "Anna Mikiety\u0144ska",
                "operator:type": "private",
                "amenity": "kindergarten"
            }
        },
        {
            "id": 128634,
            "type": "Feature",
            "geometry": {
                "type": "Point",
                "coordinates": [
                    16.85622,
                    53.53504
                ]
            },
            "properties": {
                "ref:rspo": 128634,
                "official_name": "Niepubliczne Przedszkole Tw\u00f3rcze \"Jedyneczka\"",
                "name": "Niepubliczne Przedszkole Tw\u00f3rcze \"Jedyneczka\"",
                "addr:postcode": "64-965",
                "addr:city": "Okonek",
                "addr:street": "Sp\u00f3\u0142dzielc\u00f3w",
                "addr:housenumber": "3",
                "addr:teryt:simc": 967044,
                "addr:teryt:sym_ul": 20695,
                "phone": "+48 662196065",
                "email": "jedyneczka.okonek@gmail.com",
                "ref:regon": "362336248",
                "operator": "Ewa \u017berko",
                "operator:type": "private",
                "amenity": "kindergarten"
            }
        },
        {
            "id": 130270,
            "type": "Feature",
            "geometry": {
                "type": "Point",
                "coordinates": [
                    16.84769,
                    53.5371
                ]
            },
            "properties": {
                "ref:rspo": 130270,
                "official_name": "Przedszkole Miejskie Imienia Marii Konopnickiej w Okonku",
                "name": "Przedszkole Miejskie Imienia Marii Konopnickiej w Okonku",
                "addr:postcode": "64-965",
                "addr:city": "Okonek",
                "addr:street": "Spokojna",
                "addr:housenumber": "1",
                "addr:teryt:simc": 967044,
                "addr:teryt:sym_ul": 20677,
                "phone": "+48 672669215",
                "email": "sppniewo@wp.pl",
                "website": "http:\/\/przedszkoleokonek.edupage.org",
                "ref:regon": "363740922",
                "operator": "Stowarzyszenie Przyjaci\u00f3\u0142 Szko\u0142y \"Aktywna Tr\u00f3jwie\u015b\"",
                "operator:type": "ngo",
                "amenity": "kindergarten"
            }
        },
        {
            "id": 58391,
            "type": "Feature",
            "geometry": {
                "type": "Point",
                "coordinates": [
                    16.80329,
                    53.60607
                ]
            },
            "properties": {
                "ref:rspo": 58391,
                "official_name": "Zesp\u00f3\u0142 Szk\u00f3\u0142 w Lotyniu",
                "name": "Zesp\u00f3\u0142 Szk\u00f3\u0142 w Lotyniu",
                "addr:postcode": "64-918",
                "addr:city": "Loty\u0144",
                "addr:street": "Polna",
                "addr:housenumber": "9",
                "addr:teryt:simc": 528505,
                "addr:teryt:sym_ul": 17011,
                "phone": "+48 672660410",
                "email": "szkolalotyn@interia.pl",
                "website": "http:\/\/www.zslotyn.edupage.org",
                "ref:regon": "300872423",
                "ref:vatin": "PL7671657067",
                "operator": "Gmina Okonek",
                "operator:type": "government",
                "landuse": "education",
                "fixme": "amenity=school, amenity=college albo landuse=education w zale\u017cno\u015bci od tego, jakie plac\u00f3wki wchodz\u0105 w sk\u0142ad zespo\u0142u. Sprawd\u017a, kiedy stosowa\u0107 amenity=* a kiedy landuse=education.",
                "note": "Children RSPO: 58395;132748"
            }
        },
        {
            "id": 58395,
            "type": "Feature",
            "geometry": {
                "type": "Point",
                "coordinates": [
                    16.80329,
                    53.60604
                ]
            },
            "properties": {
                "isced:level": "1;2",
                "ref:rspo": 58395,
                "official_name": "Szko\u0142a Podstawowa w Lotyniu",
                "name": "Szko\u0142a Podstawowa w Lotyniu",
                "addr:postcode": "64-918",
                "addr:city": "Loty\u0144",
                "addr:street": "Polna",
                "addr:housenumber": "9",
                "addr:teryt:simc": 528505,
                "addr:teryt:sym_ul": 17011,
                "phone": "+48 672660410",
                "email": "szkolalotyn@interia.pl",
                "website": "http:\/\/www.zslotyn.edupage.org",
                "ref:regon": "001130466",
                "ref:vatin": "PL7671542393",
                "operator": "Gmina Okonek",
                "operator:type": "government",
                "amenity": "school",
                "note": "Parent RSPO: 58391"
            }
        },
        {
            "id": 132748,
            "type": "Feature",
            "geometry": {
                "type": "Point",
                "coordinates": [
                    16.80329,
                    53.606010000000005
                ]
            },
            "properties": {
                "ref:rspo": 132748,
                "official_name": "Przedszkole w Lotyniu",
                "name": "Przedszkole w Lotyniu",
                "addr:postcode": "64-918",
                "addr:city": "Loty\u0144",
                "addr:street": "Polna",
                "addr:housenumber": "9",
                "addr:teryt:simc": 528505,
                "addr:teryt:sym_ul": 17011,
                "phone": "+48 672660410",
                "email": "szkolalotyn@interia.pl",
                "website": "http:\/\/www.zslotyn.edupage.org",
                "ref:regon": "366176340",
                "operator": "Gmina Okonek",
                "operator:type": "government",
                "amenity": "kindergarten",
                "note": "Parent RSPO: 58391"
            }
        }
    ]
}