{
    "type": "FeatureCollection",
    "features": [
        {
            "id": 264210,
            "type": "Feature",
            "geometry": {
                "type": "Point",
                "coordinates": [
                    17.04601,
                    53.35659
                ]
            },
            "properties": {
                "ref:rspo": 264210,
                "official_name": "Niepubliczne Przedszkole Ekoludki",
                "name": "Niepubliczne Przedszkole Ekoludki",
                "addr:country": "PL",
                "addr:postcode": "77-400",
                "addr:city": "Z\u0142ot\u00f3w",
                "addr:street": "Nieznanego \u017bo\u0142nierza",
                "addr:housenumber": "42",
                "addr:door": "11a",
                "addr:teryt:simc": 967423,
                "addr:teryt:sym_ul": 14253,
                "contact:phone": "+48 515633055",
                "contact:email": "biuro@ekoludki.pl",
                "ref:regon": "368286698",
                "operator": "Patryk Kowalski",
                "operator:type": "private",
                "amenity": "kindergarten"
            }
        },
        {
            "id": 18566,
            "type": "Feature",
            "geometry": {
                "type": "Point",
                "coordinates": [
                    17.06561,
                    53.35907
                ]
            },
            "properties": {
                "ref:rspo": 18566,
                "official_name": "Firma Us\u0142ugowo - Szkoleniowa \"Bezpiecze\u0144stwo\" w Z\u0142otowie",
                "name": "Firma Us\u0142ugowo - Szkoleniowa \"Bezpiecze\u0144stwo\" w Z\u0142otowie",
                "addr:country": "PL",
                "addr:postcode": "77-400",
                "addr:city": "Z\u0142ot\u00f3w",
                "addr:street": "Piaskowa",
                "addr:housenumber": "11",
                "addr:teryt:simc": 967423,
                "addr:teryt:sym_ul": 16033,
                "contact:phone": "+48 601942516",
                "contact:email": "bezpieczenstwo.stankiewicz@wp.pl",
                "ref:regon": "302222563",
                "ref:vatin": "PL7671269098",
                "operator": "Wies\u0142aw Stankiewicz",
                "operator:type": "private"
            }
        },
        {
            "id": 90518,
            "type": "Feature",
            "geometry": {
                "type": "Point",
                "coordinates": [
                    17.04564,
                    53.35963
                ]
            },
            "properties": {
                "ref:rspo": 90518,
                "official_name": "Wielkopolskie Samorz\u0105dowe Centrum Kszta\u0142cenia Zawodowego I Ustawicznego w Z\u0142otowie",
                "name": "Wielkopolskie Samorz\u0105dowe Centrum Kszta\u0142cenia Zawodowego I Ustawicznego w Z\u0142otowie",
                "addr:country": "PL",
                "addr:postcode": "77-400",
                "addr:city": "Z\u0142ot\u00f3w",
                "addr:street": "Cypriana Kamila Norwida",
                "addr:housenumber": "5",
                "addr:teryt:simc": 967423,
                "addr:teryt:sym_ul": 14317,
                "contact:phone": "+48 672650185",
                "contact:email": "sekretariat@wsckziu-zlotow.pl",
                "ref:regon": "302278782",
                "operator": "Wojew\u00f3dztwo Wielkopolskie",
                "operator:type": "government",
                "landuse": "education",
                "fixme": "amenity=school, amenity=college albo landuse=education w zale\u017cno\u015bci od tego, jakie plac\u00f3wki wchodz\u0105 w sk\u0142ad zespo\u0142u. Sprawd\u017a, kiedy stosowa\u0107 amenity=* a kiedy landuse=education.",
                "note": "Children RSPO: 111555;264049"
            }
        },
        {
            "id": 121317,
            "type": "Feature",
            "geometry": {
                "type": "Point",
                "coordinates": [
                    17.03653,
                    53.3598799
                ]
            },
            "properties": {
                "ref:rspo": 121317,
                "official_name": "Sunny Days - Angloj\u0119zyczny Punkt Przedszkolny",
                "name": "Sunny Days - Angloj\u0119zyczny Punkt Przedszkolny",
                "addr:country": "PL",
                "addr:postcode": "77-400",
                "addr:city": "Z\u0142ot\u00f3w",
                "addr:street": "Aleja Mickiewicza",
                "addr:housenumber": "14a",
                "addr:teryt:simc": 967423,
                "addr:teryt:sym_ul": 12730,
                "contact:phone": "+48 693383110",
                "contact:email": "info@skillsforlife.edu.pl",
                "ref:regon": "302613849",
                "operator": "Przemys\u0142aw Czarnecki",
                "operator:type": "private",
                "amenity": "kindergarten"
            }
        },
        {
            "id": 23836,
            "type": "Feature",
            "geometry": {
                "type": "Point",
                "coordinates": [
                    17.05146,
                    53.36006
                ]
            },
            "properties": {
                "ref:rspo": 23836,
                "official_name": "Zesp\u00f3\u0142 Szk\u00f3\u0142 Katolickich im. \u015aw. Wojciecha",
                "name": "Zesp\u00f3\u0142 Szk\u00f3\u0142 Katolickich",
                "addr:country": "PL",
                "addr:postcode": "77-400",
                "addr:city": "Z\u0142ot\u00f3w",
                "addr:street": "Stanis\u0142awa Moniuszki",
                "addr:housenumber": "18",
                "addr:teryt:simc": 967423,
                "addr:teryt:sym_ul": 13242,
                "contact:phone": "+48 672633198",
                "contact:email": "sekretariat@zskzlotow.pl",
                "contact:website": "http:\/\/www.zskzlotow.pl",
                "ref:regon": "302234052",
                "ref:vatin": "PL7671562964",
                "operator": "Stowarzyszenie Rodzin Katolickich W Z\u0142otowie",
                "operator:type": "ngo",
                "landuse": "education",
                "fixme": "amenity=school, amenity=college albo landuse=education w zale\u017cno\u015bci od tego, jakie plac\u00f3wki wchodz\u0105 w sk\u0142ad zespo\u0142u. Sprawd\u017a, kiedy stosowa\u0107 amenity=* a kiedy landuse=education.",
                "note": "Children RSPO: 118980;130176"
            }
        },
        {
            "id": 118980,
            "type": "Feature",
            "geometry": {
                "type": "Point",
                "coordinates": [
                    17.05146,
                    53.360029999999995
                ]
            },
            "properties": {
                "isced:level": "1;2",
                "ref:rspo": 118980,
                "official_name": "Katolicka Szko\u0142a Podstawowa im. \u015aw. Wojciecha w Z\u0142otowie",
                "name": "Katolicka Szko\u0142a Podstawowa",
                "addr:country": "PL",
                "addr:postcode": "77-400",
                "addr:city": "Z\u0142ot\u00f3w",
                "addr:street": "Stanis\u0142awa Moniuszki",
                "addr:housenumber": "18",
                "addr:teryt:simc": 967423,
                "addr:teryt:sym_ul": 13242,
                "contact:phone": "+48 672633198",
                "contact:email": "sekretariat@zskzlotow.pl",
                "contact:website": "http:\/\/www.zskzlotow.pl",
                "ref:regon": "302507567",
                "ref:vatin": "PL7671562964",
                "operator": "Stowarzyszenie Rodzin Katolickich W Z\u0142otowie",
                "operator:type": "ngo",
                "amenity": "school",
                "note": "Parent RSPO: 23836"
            }
        },
        {
            "id": 130176,
            "type": "Feature",
            "geometry": {
                "type": "Point",
                "coordinates": [
                    17.05146,
                    53.36
                ]
            },
            "properties": {
                "ref:rspo": 130176,
                "official_name": "Katolickie Przedszkole im. \u015aw. Wojciecha w Z\u0142otowie",
                "name": "Katolickie Przedszkole",
                "addr:country": "PL",
                "addr:postcode": "77-400",
                "addr:city": "Z\u0142ot\u00f3w",
                "addr:street": "Stanis\u0142awa Moniuszki",
                "addr:housenumber": "18",
                "addr:teryt:simc": 967423,
                "addr:teryt:sym_ul": 13242,
                "contact:phone": "+48 672633198",
                "contact:email": "sekretariat@zskzlotow.pl",
                "contact:website": "http:\/\/www.zskzlotow.pl",
                "ref:regon": "363586591",
                "ref:vatin": "PL7671562964",
                "operator": "Stowarzyszenie Rodzin Katolickich W Z\u0142otowie",
                "operator:type": "ngo",
                "amenity": "kindergarten",
                "note": "Parent RSPO: 23836"
            }
        },
        {
            "id": 122274,
            "type": "Feature",
            "geometry": {
                "type": "Point",
                "coordinates": [
                    17.03694,
                    53.36025
                ]
            },
            "properties": {
                "ref:rspo": 122274,
                "official_name": "Publiczne Przedszkole Nr 3 w Z\u0142otowie",
                "name": "Publiczne Przedszkole Nr 3 w Z\u0142otowie",
                "addr:country": "PL",
                "addr:postcode": "77-400",
                "addr:city": "Z\u0142ot\u00f3w",
                "addr:street": "Plac Wolno\u015bci",
                "addr:housenumber": "12",
                "addr:teryt:simc": 967423,
                "addr:teryt:sym_ul": 24685,
                "contact:phone": "+48 672633266",
                "contact:email": "p3@przedszkola-zlotow.pl",
                "ref:regon": "301584270",
                "ref:vatin": "PL7671698882",
                "operator": "Gmina Miasto Z\u0142ot\u00f3w",
                "operator:type": "government",
                "amenity": "kindergarten"
            }
        },
        {
            "id": 13053,
            "type": "Feature",
            "geometry": {
                "type": "Point",
                "coordinates": [
                    17.04473,
                    53.36065
                ]
            },
            "properties": {
                "isced:level": "3",
                "ref:rspo": 13053,
                "official_name": "I Liceum Og\u00f3lnokszta\u0142c\u0105ce im. Marii Sk\u0142odowskiej - Curie w Z\u0142otowie",
                "name": "I Liceum Og\u00f3lnokszta\u0142c\u0105ce",
                "addr:country": "PL",
                "addr:postcode": "77-400",
                "addr:city": "Z\u0142ot\u00f3w",
                "addr:street": "Bohater\u00f3w Westerplatte",
                "addr:housenumber": "9",
                "addr:teryt:simc": 967423,
                "addr:teryt:sym_ul": 1681,
                "contact:phone": "+48 672632599",
                "contact:email": "kontakt@lozlotow.pl",
                "contact:website": "http:\/\/www.lozlotow.pl",
                "ref:regon": "000816954",
                "ref:vatin": "PL7671048670",
                "operator": "Powiat Z\u0142otowski",
                "operator:type": "government",
                "amenity": "school"
            }
        },
        {
            "id": 17728,
            "type": "Feature",
            "geometry": {
                "type": "Point",
                "coordinates": [
                    17.04473,
                    53.36062
                ]
            },
            "properties": {
                "isced:level": "1;2",
                "ref:rspo": 17728,
                "official_name": "Szko\u0142a Podstawowa Nr 1 im. Stanis\u0142awa Staszica",
                "name": "Szko\u0142a Podstawowa Nr 1",
                "addr:country": "PL",
                "addr:postcode": "77-400",
                "addr:city": "Z\u0142ot\u00f3w",
                "addr:street": "Bohater\u00f3w Westerplatte",
                "addr:housenumber": "9",
                "addr:teryt:simc": 967423,
                "addr:teryt:sym_ul": 1681,
                "contact:phone": "+48 672650036",
                "contact:email": "szkpod1@pi.onet.pl",
                "contact:website": "http:\/\/www.jedynka-zlotow.pl",
                "ref:regon": "000701406",
                "ref:vatin": "PL7671320729",
                "operator": "Gmina Miasto Z\u0142ot\u00f3w",
                "operator:type": "government",
                "amenity": "school"
            }
        },
        {
            "id": 114998,
            "type": "Feature",
            "geometry": {
                "type": "Point",
                "coordinates": [
                    17.04019,
                    53.36102
                ]
            },
            "properties": {
                "ref:rspo": 114998,
                "official_name": "Bhp Konsulting Jan Flisikowski w Z\u0142otowie",
                "name": "Bhp Konsulting Jan Flisikowski w Z\u0142otowie",
                "addr:country": "PL",
                "addr:postcode": "77-400",
                "addr:city": "Z\u0142ot\u00f3w",
                "addr:street": "Bohater\u00f3w Westerplatte",
                "addr:housenumber": "2",
                "addr:door": "48",
                "addr:teryt:simc": 967423,
                "addr:teryt:sym_ul": 1681,
                "contact:phone": "+48 603078777",
                "contact:email": "janef1@wp.pl",
                "ref:regon": "302450198",
                "operator": "Jan Flisikowski",
                "operator:type": "private"
            }
        },
        {
            "id": 18708,
            "type": "Feature",
            "geometry": {
                "type": "Point",
                "coordinates": [
                    17.03666,
                    53.36109
                ]
            },
            "properties": {
                "ref:rspo": 18708,
                "official_name": "Centrum Integracji Europejskiej Szko\u0142a J\u0119zyk\u00f3w Obcych I Rozwoju Przedsi\u0119biorczo\u015bci w Z\u0142otowie",
                "name": "Centrum Integracji Europejskiej Szko\u0142a J\u0119zyk\u00f3w Obcych I Rozwoju Przedsi\u0119biorczo\u015bci w Z\u0142otowie",
                "addr:country": "PL",
                "addr:postcode": "77-400",
                "addr:city": "Z\u0142ot\u00f3w",
                "addr:street": "Garncarska",
                "addr:housenumber": "4a",
                "addr:teryt:simc": 967423,
                "addr:teryt:sym_ul": 5345,
                "contact:phone": "+48 672632069",
                "contact:email": "cieszkola@tlen.pl",
                "contact:website": "http:\/\/www.ciezlotow.pl",
                "ref:regon": "302223918",
                "ref:vatin": "PL7671003348",
                "operator": "Anna Reczulska",
                "operator:type": "private"
            }
        },
        {
            "id": 105222,
            "type": "Feature",
            "geometry": {
                "type": "Point",
                "coordinates": [
                    17.03666,
                    53.361059999999995
                ]
            },
            "properties": {
                "ref:rspo": 105222,
                "official_name": "Centrum Integracji Europejskiej Szko\u0142a J\u0119zyk\u00f3w Obcych I Rozwoju Przedsi\u0119biorczo\u015bci w Z\u0142otowie Anna Reczulska",
                "name": "Centrum Integracji Europejskiej Szko\u0142a J\u0119zyk\u00f3w Obcych I Rozwoju Przedsi\u0119biorczo\u015bci w Z\u0142otowie Anna Reczulska",
                "addr:country": "PL",
                "addr:postcode": "77-400",
                "addr:city": "Z\u0142ot\u00f3w",
                "addr:street": "Garncarska",
                "addr:housenumber": "4a",
                "addr:teryt:simc": 967423,
                "addr:teryt:sym_ul": 5345,
                "contact:phone": "+48 672632069",
                "contact:email": "cieszkola@tlen.pl",
                "contact:website": "http:\/\/www.ciezlotow.pl",
                "ref:regon": "302304315",
                "operator": "Anna Reczulska",
                "operator:type": "private",
                "fixme": "w zale\u017cno\u015bci od przedmiotu dzia\u0142alno\u015bci (np. amenity=training + training=*, amenity=dancing_school, amenity=language_school, amenity=music_school)"
            }
        },
        {
            "id": 13102,
            "type": "Feature",
            "geometry": {
                "type": "Point",
                "coordinates": [
                    17.03886,
                    53.36125
                ]
            },
            "properties": {
                "ref:rspo": 13102,
                "official_name": "Zesp\u00f3\u0142 Szk\u00f3\u0142 Ekonomicznych im. Jana Paw\u0142a II w Z\u0142otowie",
                "name": "Zesp\u00f3\u0142 Szk\u00f3\u0142 Ekonomicznych",
                "addr:country": "PL",
                "addr:postcode": "77-400",
                "addr:city": "Z\u0142ot\u00f3w",
                "addr:street": "Plac Wolno\u015bci",
                "addr:housenumber": "1\/2",
                "addr:teryt:simc": 967423,
                "addr:teryt:sym_ul": 24685,
                "contact:phone": "+48 672650060",
                "contact:email": "sekretariat@zsezlotow.edu.pl",
                "contact:website": "http:\/\/www.zsezlotow.edu.pl",
                "ref:regon": "000807760",
                "ref:vatin": "PL7671295500",
                "operator": "Powiat Z\u0142otowski",
                "operator:type": "government",
                "landuse": "education",
                "fixme": "amenity=school, amenity=college albo landuse=education w zale\u017cno\u015bci od tego, jakie plac\u00f3wki wchodz\u0105 w sk\u0142ad zespo\u0142u. Sprawd\u017a, kiedy stosowa\u0107 amenity=* a kiedy landuse=education.",
                "note": "Children RSPO: 78217;78220;78222;80019"
            }
        },
        {
            "id": 78217,
            "type": "Feature",
            "geometry": {
                "type": "Point",
                "coordinates": [
                    17.03886,
                    53.361219999999996
                ]
            },
            "properties": {
                "isced:level": "3",
                "ref:rspo": 78217,
                "official_name": "Ii Liceum Og\u00f3lnokszta\u0142c\u0105ce im. Jana Paw\u0142a II w Z\u0142otowie",
                "name": "Ii Liceum Og\u00f3lnokszta\u0142c\u0105ce",
                "addr:country": "PL",
                "addr:postcode": "77-400",
                "addr:city": "Z\u0142ot\u00f3w",
                "addr:street": "Plac Wolno\u015bci",
                "addr:housenumber": "1\/2",
                "addr:teryt:simc": 967423,
                "addr:teryt:sym_ul": 24685,
                "contact:phone": "+48 672650060",
                "contact:email": "sekretariat@zsezlotow.edu.pl",
                "contact:website": "http:\/\/www.zsezlotow.edu.pl",
                "ref:regon": "570876038",
                "operator": "Powiat Z\u0142otowski",
                "operator:type": "government",
                "amenity": "school",
                "note": "Parent RSPO: 13102"
            }
        },
        {
            "id": 78220,
            "type": "Feature",
            "geometry": {
                "type": "Point",
                "coordinates": [
                    17.03886,
                    53.36119
                ]
            },
            "properties": {
                "isced:level": "3",
                "ref:rspo": 78220,
                "official_name": "Technikum Nr 2 im. Jana Paw\u0142a II w Z\u0142otowie",
                "name": "Technikum Nr 2",
                "addr:country": "PL",
                "addr:postcode": "77-400",
                "addr:city": "Z\u0142ot\u00f3w",
                "addr:street": "Plac Wolno\u015bci",
                "addr:housenumber": "1\/2",
                "addr:teryt:simc": 967423,
                "addr:teryt:sym_ul": 24685,
                "contact:phone": "+48 672650060",
                "contact:email": "sekretariat@zsezlotow.edu.pl",
                "contact:website": "http:\/\/www.zsezlotow.edu.pl",
                "ref:regon": "572083313",
                "operator": "Powiat Z\u0142otowski",
                "operator:type": "government",
                "amenity": "school",
                "note": "Parent RSPO: 13102"
            }
        },
        {
            "id": 78222,
            "type": "Feature",
            "geometry": {
                "type": "Point",
                "coordinates": [
                    17.03886,
                    53.36116
                ]
            },
            "properties": {
                "isced:level": "3",
                "ref:rspo": 78222,
                "official_name": "Liceum Og\u00f3lnokszta\u0142c\u0105ce dla Doros\u0142ych im. Jana Paw\u0142a II w Z\u0142otowie",
                "name": "Liceum Og\u00f3lnokszta\u0142c\u0105ce dla Doros\u0142ych",
                "addr:country": "PL",
                "addr:postcode": "77-400",
                "addr:city": "Z\u0142ot\u00f3w",
                "addr:street": "Plac Wolno\u015bci",
                "addr:housenumber": "1\/2",
                "addr:teryt:simc": 967423,
                "addr:teryt:sym_ul": 24685,
                "contact:phone": "+48 672650060",
                "contact:email": "sekretariat@zsezlotow.edu.pl",
                "contact:website": "http:\/\/www.zsezlotow.edu.pl",
                "ref:regon": "572137718",
                "operator": "Powiat Z\u0142otowski",
                "operator:type": "government",
                "amenity": "school",
                "note": "Parent RSPO: 13102"
            }
        },
        {
            "id": 80019,
            "type": "Feature",
            "geometry": {
                "type": "Point",
                "coordinates": [
                    17.03886,
                    53.361129999999996
                ]
            },
            "properties": {
                "isced:level": "4",
                "ref:rspo": 80019,
                "official_name": "Szko\u0142a Policealna Nr 2 im. Jana Paw\u0142a II w Z\u0142otowie",
                "name": "Szko\u0142a Policealna Nr 2",
                "addr:country": "PL",
                "addr:postcode": "77-400",
                "addr:city": "Z\u0142ot\u00f3w",
                "addr:street": "Plac Wolno\u015bci",
                "addr:housenumber": "1\/2",
                "addr:teryt:simc": 967423,
                "addr:teryt:sym_ul": 24685,
                "contact:phone": "+48 672650060",
                "contact:email": "sekretariat@zsezlotow.edu.pl",
                "contact:website": "http:\/\/www.zsezlotow.edu.pl",
                "ref:regon": "300098432",
                "operator": "Powiat Z\u0142otowski",
                "operator:type": "government",
                "amenity": "college",
                "note": "Parent RSPO: 13102"
            }
        },
        {
            "id": 18828,
            "type": "Feature",
            "geometry": {
                "type": "Point",
                "coordinates": [
                    17.0347,
                    53.36179
                ]
            },
            "properties": {
                "ref:rspo": 18828,
                "official_name": "Centrum Szkoleniowe \"Dedal\" S.c. w Z\u0142otowie",
                "name": "Centrum Szkoleniowe \"Dedal\" S.c. w Z\u0142otowie",
                "addr:country": "PL",
                "addr:postcode": "77-400",
                "addr:city": "Z\u0142ot\u00f3w",
                "addr:street": "Wawrzyniaka",
                "addr:housenumber": "8",
                "addr:teryt:simc": 967423,
                "addr:teryt:sym_ul": 23757,
                "contact:phone": "+48 501774957",
                "contact:email": "biuro@dedal.szkola.pl",
                "contact:website": "http:\/\/www.dedal.szkola.pl",
                "ref:regon": "302224250",
                "ref:vatin": "PL7671556030",
                "operator": "Andrzej Mirr",
                "operator:type": "private"
            }
        },
        {
            "id": 18636,
            "type": "Feature",
            "geometry": {
                "type": "Point",
                "coordinates": [
                    17.05373,
                    53.36203
                ]
            },
            "properties": {
                "ref:rspo": 18636,
                "official_name": "Zak\u0142ad Rob\u00f3t I Pomiar\u00f3w Elektrycznych w Z\u0142otowie",
                "name": "Zak\u0142ad Rob\u00f3t I Pomiar\u00f3w Elektrycznych w Z\u0142otowie",
                "addr:country": "PL",
                "addr:postcode": "77-400",
                "addr:city": "Z\u0142ot\u00f3w",
                "addr:street": "Szkolna",
                "addr:housenumber": "14",
                "addr:door": "10",
                "addr:teryt:simc": 967423,
                "addr:teryt:sym_ul": 21970,
                "contact:phone": "+48 672652040",
                "contact:email": "zripe@poczta.onet.pl",
                "ref:regon": "302223893",
                "ref:vatin": "PL7670009254",
                "operator": "Roman Urba\u0144ski",
                "operator:type": "private"
            }
        },
        {
            "id": 122272,
            "type": "Feature",
            "geometry": {
                "type": "Point",
                "coordinates": [
                    17.04083,
                    53.36207
                ]
            },
            "properties": {
                "ref:rspo": 122272,
                "official_name": "Publiczne Przedszkolr Nr 1 w Z\u0142otowie",
                "name": "Publiczne Przedszkolr Nr 1 w Z\u0142otowie",
                "addr:country": "PL",
                "addr:postcode": "77-400",
                "addr:city": "Z\u0142ot\u00f3w",
                "addr:street": "Grochowskiego",
                "addr:housenumber": "14",
                "addr:teryt:simc": 967423,
                "addr:teryt:sym_ul": 6138,
                "contact:phone": "+48 672633358",
                "contact:email": "p1@przedszkola-zlotow.pl",
                "contact:website": "http:\/\/www.przedszkola-zlotow.pl\/p1\/page.php?idd=13",
                "ref:regon": "301584212",
                "ref:vatin": "PL7671698876",
                "operator": "Gmina Miasto Z\u0142ot\u00f3w",
                "operator:type": "government",
                "amenity": "kindergarten"
            }
        },
        {
            "id": 31626,
            "type": "Feature",
            "geometry": {
                "type": "Point",
                "coordinates": [
                    17.04853,
                    53.36217
                ]
            },
            "properties": {
                "ref:rspo": 31626,
                "official_name": "Szko\u0142a Muzyczna I St. w Z\u0142otowie",
                "name": "Szko\u0142a Muzyczna I St. w Z\u0142otowie",
                "addr:country": "PL",
                "addr:postcode": "77-400",
                "addr:city": "Z\u0142ot\u00f3w",
                "addr:street": "Aleja Piasta",
                "addr:housenumber": "31",
                "addr:teryt:simc": 967423,
                "addr:teryt:sym_ul": 16040,
                "contact:phone": "+48 672632992",
                "contact:email": "sekretariat@muzycznazlotow.pl",
                "ref:regon": "000777119",
                "operator": "Ministerstwo Kultury I Dziedzictwa Narodowego",
                "operator:type": "public",
                "amenity": "music_school"
            }
        },
        {
            "id": 12074,
            "type": "Feature",
            "geometry": {
                "type": "Point",
                "coordinates": [
                    17.0509099,
                    53.36228
                ]
            },
            "properties": {
                "ref:rspo": 12074,
                "official_name": "Powiatowa Poradnia Psychologiczno - Pedagogiczna w Z\u0142otowie",
                "name": "Powiatowa Poradnia Psychologiczno - Pedagogiczna w Z\u0142otowie",
                "addr:country": "PL",
                "addr:postcode": "77-400",
                "addr:city": "Z\u0142ot\u00f3w",
                "addr:street": "Szkolna",
                "addr:housenumber": "3",
                "addr:teryt:simc": 967423,
                "addr:teryt:sym_ul": 21970,
                "contact:phone": "+48 672632103",
                "contact:email": "pppzlotow@interia.pl",
                "contact:website": "http:\/\/www.pppp-zlotow.pl",
                "ref:regon": "001238761",
                "ref:vatin": "PL7671514149",
                "operator": "Powiat Z\u0142otowski",
                "operator:type": "government",
                "healthcare": "counselling",
                "counselling_type": "education",
                "fixme": "w zale\u017cno\u015bci od przedmiotu dzia\u0142alno\u015bci (np. healthcare=counselling + counselling_type=education albo healthcare=psychotherapist)"
            }
        },
        {
            "id": 111555,
            "type": "Feature",
            "geometry": {
                "type": "Point",
                "coordinates": [
                    17.0509099,
                    53.362249999999996
                ]
            },
            "properties": {
                "isced:level": "4",
                "ref:rspo": 111555,
                "official_name": "Policealna Szko\u0142a S\u0142u\u017cb Spo\u0142ecznych w Z\u0142otowie",
                "name": "Policealna Szko\u0142a S\u0142u\u017cb Spo\u0142ecznych w Z\u0142otowie",
                "addr:country": "PL",
                "addr:postcode": "77-400",
                "addr:city": "Z\u0142ot\u00f3w",
                "addr:street": "Szkolna",
                "addr:housenumber": "3",
                "addr:teryt:simc": 967423,
                "addr:teryt:sym_ul": 21970,
                "contact:phone": "+48 672650185",
                "contact:email": "sekretariat@wsckziu-zlotow.pl",
                "contact:website": "http:\/\/www.wsckziu-zlotow.pl",
                "ref:regon": "302374681",
                "operator": "Wojew\u00f3dztwo Wielkopolskie",
                "operator:type": "government",
                "amenity": "college",
                "note": "Parent RSPO: 90518"
            }
        },
        {
            "id": 264049,
            "type": "Feature",
            "geometry": {
                "type": "Point",
                "coordinates": [
                    17.0509099,
                    53.36222
                ]
            },
            "properties": {
                "ref:rspo": 264049,
                "official_name": "Centrum Kszta\u0142cenia Ustawicznego w Z\u0142otowie",
                "name": "Centrum Kszta\u0142cenia Ustawicznego w Z\u0142otowie",
                "addr:country": "PL",
                "addr:postcode": "77-400",
                "addr:city": "Z\u0142ot\u00f3w",
                "addr:street": "Szkolna",
                "addr:housenumber": "3",
                "addr:teryt:simc": 967423,
                "addr:teryt:sym_ul": 21970,
                "contact:phone": "+48 672650185",
                "ref:regon": "368254787",
                "operator": "Wojew\u00f3dztwo Wielkopolskie",
                "operator:type": "government",
                "fixme": "w zale\u017cno\u015bci od przedmiotu dzia\u0142alno\u015bci (np. amenity=training + training=*, amenity=dancing_school, amenity=language_school, amenity=music_school)",
                "note": "Parent RSPO: 90518"
            }
        },
        {
            "id": 129080,
            "type": "Feature",
            "geometry": {
                "type": "Point",
                "coordinates": [
                    17.0509099,
                    53.36219
                ]
            },
            "properties": {
                "ref:rspo": 129080,
                "official_name": "Centrum Doskonalenia Nauczycieli Publiczna Biblioteka Pedagogiczna w Pile Filia im. P\u0142k Zbigniewa Za\u0142uskiego w Z\u0142otowie",
                "name": "Centrum Doskonalenia Nauczycieli Publiczna Biblioteka Pedagogiczna w Pile Filia",
                "addr:country": "PL",
                "addr:postcode": "77-400",
                "addr:city": "Z\u0142ot\u00f3w",
                "addr:street": "Szkolna",
                "addr:housenumber": "3",
                "addr:teryt:simc": 967423,
                "addr:teryt:sym_ul": 21970,
                "contact:phone": "+48 672632142",
                "contact:email": "zlotow@cdn.pila.pl",
                "contact:website": "http:\/\/www.zlotow.bp.pila.pl",
                "ref:regon": "674276000",
                "operator": "Wojew\u00f3dztwo Wielkopolskie",
                "operator:type": "government",
                "amenity": "library",
                "note": "Parent RSPO: 112145"
            }
        },
        {
            "id": 130368,
            "type": "Feature",
            "geometry": {
                "type": "Point",
                "coordinates": [
                    17.03574,
                    53.36244
                ]
            },
            "properties": {
                "ref:rspo": 130368,
                "official_name": "Zesp\u00f3\u0142 Szk\u00f3\u0142 I Plac\u00f3wek Terapeutycznych \"Ja\u015b I Ma\u0142gosia\" w Z\u0142otowie",
                "name": "Zesp\u00f3\u0142 Szk\u00f3\u0142 I Plac\u00f3wek Terapeutycznych \"Ja\u015b I Ma\u0142gosia\" w Z\u0142otowie",
                "addr:country": "PL",
                "addr:postcode": "77-400",
                "addr:city": "Z\u0142ot\u00f3w",
                "addr:street": "Boles\u0142awa Chrobrego",
                "addr:housenumber": "2a",
                "addr:teryt:simc": 967423,
                "addr:teryt:sym_ul": 1742,
                "contact:phone": "+48 534722927",
                "contact:email": "biuro@fikk.pl",
                "ref:regon": "363921374",
                "operator": "\"Ja\u015b I Ma\u0142gosia\" Szko\u0142y I Plac\u00f3wki Terapeutyczne",
                "operator:type": "ngo",
                "landuse": "education",
                "fixme": "amenity=school, amenity=college albo landuse=education w zale\u017cno\u015bci od tego, jakie plac\u00f3wki wchodz\u0105 w sk\u0142ad zespo\u0142u. Sprawd\u017a, kiedy stosowa\u0107 amenity=* a kiedy landuse=education.",
                "note": "Children RSPO: 119699;125880"
            }
        },
        {
            "id": 119699,
            "type": "Feature",
            "geometry": {
                "type": "Point",
                "coordinates": [
                    17.03574,
                    53.36241
                ]
            },
            "properties": {
                "ref:rspo": 119699,
                "official_name": "Niepubliczna Poradnia Psychologiczno - Pedagogiczna \"Ja\u015b I Ma\u0142gosia\" w Z\u0142otowie",
                "name": "Niepubliczna Poradnia Psychologiczno - Pedagogiczna \"Ja\u015b I Ma\u0142gosia\" w Z\u0142otowie",
                "addr:country": "PL",
                "addr:postcode": "77-400",
                "addr:city": "Z\u0142ot\u00f3w",
                "addr:street": "Boles\u0142awa Chrobrego",
                "addr:housenumber": "2a",
                "addr:teryt:simc": 967423,
                "addr:teryt:sym_ul": 1742,
                "contact:phone": "+48 531740007",
                "contact:email": "biuro@fikk.pl",
                "contact:website": "http:\/\/www.fikk.pl",
                "ref:regon": "302521633",
                "ref:vatin": "PL6731788371",
                "operator": "\"Ja\u015b I Ma\u0142gosia\" Szko\u0142y I Plac\u00f3wki Terapeutyczne",
                "operator:type": "ngo",
                "healthcare": "counselling",
                "counselling_type": "education",
                "fixme": "w zale\u017cno\u015bci od przedmiotu dzia\u0142alno\u015bci (np. healthcare=counselling + counselling_type=education albo healthcare=psychotherapist)",
                "note": "Parent RSPO: 130368"
            }
        },
        {
            "id": 125880,
            "type": "Feature",
            "geometry": {
                "type": "Point",
                "coordinates": [
                    17.03574,
                    53.36238
                ]
            },
            "properties": {
                "ref:rspo": 125880,
                "official_name": "O\u015brodek Rehabilitacyjno - Edukacyjno - Wychowawczy w Z\u0142otowie",
                "name": "O\u015brodek Rehabilitacyjno - Edukacyjno - Wychowawczy w Z\u0142otowie",
                "addr:country": "PL",
                "addr:postcode": "77-400",
                "addr:city": "Z\u0142ot\u00f3w",
                "addr:street": "Boles\u0142awa Chrobrego",
                "addr:housenumber": "2a",
                "addr:teryt:simc": 967423,
                "addr:teryt:sym_ul": 1742,
                "contact:phone": "+48 531740007",
                "contact:email": "biuro@fikk.pl",
                "ref:regon": "360071716",
                "operator": "\"Ja\u015b I Ma\u0142gosia\" Szko\u0142y I Plac\u00f3wki Terapeutyczne",
                "operator:type": "ngo",
                "amenity": "school",
                "note": "Parent RSPO: 130368"
            }
        },
        {
            "id": 263698,
            "type": "Feature",
            "geometry": {
                "type": "Point",
                "coordinates": [
                    17.0345799,
                    53.36251
                ]
            },
            "properties": {
                "ref:rspo": 263698,
                "official_name": "Niepubliczne Przedszkole Motylek",
                "name": "Niepubliczne Przedszkole Motylek",
                "addr:country": "PL",
                "addr:postcode": "77-400",
                "addr:city": "Z\u0142ot\u00f3w",
                "addr:street": "Wawrzyniaka",
                "addr:housenumber": "2",
                "addr:teryt:simc": 967423,
                "addr:teryt:sym_ul": 23757,
                "contact:phone": "+48 721312741",
                "contact:email": "zlobekmotylek@gmail.com",
                "ref:regon": "368214032",
                "ref:vatin": "PL7671574499",
                "operator": "Dorota Ludewicz",
                "operator:type": "private",
                "amenity": "kindergarten"
            }
        },
        {
            "id": 18614,
            "type": "Feature",
            "geometry": {
                "type": "Point",
                "coordinates": [
                    17.03875,
                    53.36274
                ]
            },
            "properties": {
                "ref:rspo": 18614,
                "official_name": "O\u015brodek Szkolenia Kursowego Przy Cechu Rzemios\u0142 R\u00f3znych w Z\u0142otowie",
                "name": "O\u015brodek Szkolenia Kursowego Przy Cechu Rzemios\u0142 R\u00f3znych w Z\u0142otowie",
                "addr:country": "PL",
                "addr:postcode": "77-400",
                "addr:city": "Z\u0142ot\u00f3w",
                "addr:street": "Cechowa",
                "addr:housenumber": "11",
                "addr:teryt:simc": 967423,
                "addr:teryt:sym_ul": 2559,
                "contact:phone": "+48 672633231",
                "contact:email": "crzr_zlotow@wp.pl",
                "contact:website": "http:\/\/www.cech-zlotow.pl",
                "ref:regon": "302223887",
                "ref:vatin": "PL7671211880",
                "operator": "Cech Rzemios\u0142 R\u00f3\u017cnych W Z\u0142otowie",
                "operator:type": "cooperative"
            }
        },
        {
            "id": 110113,
            "type": "Feature",
            "geometry": {
                "type": "Point",
                "coordinates": [
                    17.05159,
                    53.36388
                ]
            },
            "properties": {
                "isced:level": "1;2",
                "ref:rspo": 110113,
                "official_name": "Szko\u0142a Podstawowa Nr 3 w Z\u0142otowie",
                "name": "Szko\u0142a Podstawowa Nr 3 w Z\u0142otowie",
                "addr:country": "PL",
                "addr:postcode": "77-400",
                "addr:city": "Z\u0142ot\u00f3w",
                "addr:street": "Kr\u00f3lowej Jadwigi",
                "addr:housenumber": "54",
                "addr:teryt:simc": 967423,
                "addr:teryt:sym_ul": 10003,
                "contact:phone": "+48 672633486",
                "contact:email": "kancelaria@sp3zlotow.pl",
                "contact:website": "http:\/\/www.sp3zlotow.pl",
                "ref:regon": "000701412",
                "ref:vatin": "PL7671542737",
                "operator": "Gmina Miasto Z\u0142ot\u00f3w",
                "operator:type": "government",
                "amenity": "school"
            }
        },
        {
            "id": 122275,
            "type": "Feature",
            "geometry": {
                "type": "Point",
                "coordinates": [
                    17.05159,
                    53.36385
                ]
            },
            "properties": {
                "ref:rspo": 122275,
                "official_name": "Publiczne Przedszkole Nr 4 w Z\u0142otowie",
                "name": "Publiczne Przedszkole Nr 4 w Z\u0142otowie",
                "addr:country": "PL",
                "addr:postcode": "77-400",
                "addr:city": "Z\u0142ot\u00f3w",
                "addr:street": "Kr\u00f3lowej Jadwigi",
                "addr:housenumber": "54",
                "addr:teryt:simc": 967423,
                "addr:teryt:sym_ul": 10003,
                "contact:phone": "+48 672632705",
                "contact:email": "p4@przedszkola-zlotow.pl",
                "contact:website": "http:\/\/www.przedszkola-zlotow.pl",
                "ref:regon": "301584258",
                "ref:vatin": "PL7671698907",
                "operator": "Gmina Miasto Z\u0142ot\u00f3w",
                "operator:type": "government",
                "amenity": "kindergarten"
            }
        },
        {
            "id": 17518,
            "type": "Feature",
            "geometry": {
                "type": "Point",
                "coordinates": [
                    17.02462,
                    53.36945
                ]
            },
            "properties": {
                "isced:level": "1;2",
                "ref:rspo": 17518,
                "official_name": "Szko\u0142a Podstawowa Nr 2 im. Adama Mickiewicza",
                "name": "Szko\u0142a Podstawowa Nr 2",
                "addr:country": "PL",
                "addr:postcode": "77-400",
                "addr:city": "Z\u0142ot\u00f3w",
                "addr:street": "8 Marca",
                "addr:housenumber": "16",
                "addr:teryt:simc": 967423,
                "addr:teryt:sym_ul": 12270,
                "contact:phone": "+48 672635008",
                "contact:email": "sekretariat@sp2zlotow.pl",
                "contact:website": "http:\/\/www.sp2zlotow.pl",
                "ref:regon": "000701429",
                "ref:vatin": "PL7671615318",
                "operator": "Gmina Miasto Z\u0142ot\u00f3w",
                "operator:type": "government",
                "amenity": "school"
            }
        },
        {
            "id": 4695,
            "type": "Feature",
            "geometry": {
                "type": "Point",
                "coordinates": [
                    17.04421,
                    53.36988
                ]
            },
            "properties": {
                "ref:rspo": 4695,
                "official_name": "Niepubliczny Punkt Przedszkolny Specjalny \"Marcinek\"",
                "name": "Niepubliczny Punkt Przedszkolny Specjalny \"Marcinek\"",
                "addr:country": "PL",
                "addr:postcode": "77-400",
                "addr:city": "Z\u0142ot\u00f3w",
                "addr:street": "Ksi\u0119dza Doktora Boles\u0142awa Doma\u0144skiego",
                "addr:housenumber": "54",
                "addr:teryt:simc": 967423,
                "addr:teryt:sym_ul": 4085,
                "contact:phone": "+48 608692830",
                "contact:email": "tadeuszlukasik@wp.pl",
                "ref:regon": "302190892",
                "operator": "Tadeusz \u0141ukasik",
                "operator:type": "private",
                "amenity": "kindergarten"
            }
        },
        {
            "id": 122273,
            "type": "Feature",
            "geometry": {
                "type": "Point",
                "coordinates": [
                    17.0233199,
                    53.37043
                ]
            },
            "properties": {
                "ref:rspo": 122273,
                "official_name": "Publiczne Przedszkole Nr 2 w Z\u0142otowie",
                "name": "Publiczne Przedszkole Nr 2 w Z\u0142otowie",
                "addr:country": "PL",
                "addr:postcode": "77-400",
                "addr:city": "Z\u0142ot\u00f3w",
                "addr:street": "8 Marca",
                "addr:housenumber": "18",
                "addr:teryt:simc": 967423,
                "addr:teryt:sym_ul": 12270,
                "contact:phone": "+48 730018008",
                "contact:email": "p2@przedszkola-zlotow.pl",
                "ref:regon": "301584235",
                "ref:vatin": "PL7671698899",
                "operator": "Gmina Miasto Z\u0142ot\u00f3w",
                "operator:type": "government",
                "amenity": "kindergarten"
            }
        },
        {
            "id": 18500,
            "type": "Feature",
            "geometry": {
                "type": "Point",
                "coordinates": [
                    17.03399,
                    53.37299
                ]
            },
            "properties": {
                "ref:rspo": 18500,
                "official_name": "Zak\u0142ad Us\u0142ugowo-Szkoleniowy \"Behapowiec\" w Z\u0142otowie",
                "name": "Zak\u0142ad Us\u0142ugowo-Szkoleniowy \"Behapowiec\" w Z\u0142otowie",
                "addr:country": "PL",
                "addr:postcode": "77-400",
                "addr:city": "Z\u0142ot\u00f3w",
                "addr:street": "Okr\u0119\u017cna",
                "addr:housenumber": "14",
                "addr:teryt:simc": 967423,
                "addr:teryt:sym_ul": 14907,
                "contact:phone": "+48 600946733",
                "contact:email": "behapowiec@wp.pl",
                "ref:regon": "302222416",
                "ref:vatin": "PL7671035940",
                "operator": "Rafa\u0142 Chojnacki",
                "operator:type": "private"
            }
        },
        {
            "id": 13013,
            "type": "Feature",
            "geometry": {
                "type": "Point",
                "coordinates": [
                    17.02064,
                    53.37419
                ]
            },
            "properties": {
                "ref:rspo": 13013,
                "official_name": "Powiatowe Ognisko Pracy Pozaszkolnej w Z\u0142otowie",
                "name": "Powiatowe Ognisko Pracy Pozaszkolnej w Z\u0142otowie",
                "addr:country": "PL",
                "addr:postcode": "77-400",
                "addr:city": "Z\u0142ot\u00f3w",
                "addr:street": "8 Marca",
                "addr:housenumber": "5",
                "addr:teryt:simc": 967423,
                "addr:teryt:sym_ul": 12270,
                "contact:phone": "+48 728497538",
                "contact:email": "oppzlotow1@wp.pl",
                "contact:website": "http:\/\/www.opp.e-zlotow.pl\/",
                "ref:regon": "570274428",
                "ref:vatin": "PL7671513813",
                "operator": "Powiat Z\u0142otowski",
                "operator:type": "government",
                "amenity": "community_centre",
                "community_centre:for": "child;juvenile"
            }
        },
        {
            "id": 24712,
            "type": "Feature",
            "geometry": {
                "type": "Point",
                "coordinates": [
                    17.02064,
                    53.374159999999996
                ]
            },
            "properties": {
                "isced:level": "3",
                "ref:rspo": 24712,
                "official_name": "Bran\u017cowa Szko\u0142a I Stopnia Nr 2 im. Hipolita Cegielskiego w Z\u0142otowie",
                "name": "Bran\u017cowa Szko\u0142a I Stopnia Nr 2",
                "addr:country": "PL",
                "addr:postcode": "77-400",
                "addr:city": "Z\u0142ot\u00f3w",
                "addr:street": "8 Marca",
                "addr:housenumber": "5",
                "addr:teryt:simc": 967423,
                "addr:teryt:sym_ul": 12270,
                "contact:phone": "+48 672632231",
                "contact:email": "sekretarz.8marca@ckziu-zlotow.pl",
                "contact:website": "http:\/\/www.ckziu-zlotow.pl",
                "ref:regon": "570878534",
                "operator": "Powiat Z\u0142otowski",
                "operator:type": "government",
                "amenity": "school",
                "note": "Parent RSPO: 104870"
            }
        },
        {
            "id": 24746,
            "type": "Feature",
            "geometry": {
                "type": "Point",
                "coordinates": [
                    17.02064,
                    53.37413
                ]
            },
            "properties": {
                "isced:level": "3",
                "ref:rspo": 24746,
                "official_name": "Technikum Nr 3 im. Hipolita Cegielskiego w Z\u0142otowie",
                "name": "Technikum Nr 3",
                "addr:country": "PL",
                "addr:postcode": "77-400",
                "addr:city": "Z\u0142ot\u00f3w",
                "addr:street": "8 Marca",
                "addr:housenumber": "5",
                "addr:teryt:simc": 967423,
                "addr:teryt:sym_ul": 12270,
                "contact:phone": "+48 672632231",
                "contact:email": "sekretarz.8marca@ckziu-zlotow.pl",
                "contact:website": "http:\/\/www.ckziu-zlotow.pl",
                "ref:regon": "570878511",
                "operator": "Powiat Z\u0142otowski",
                "operator:type": "government",
                "amenity": "school",
                "note": "Parent RSPO: 104870"
            }
        },
        {
            "id": 27231,
            "type": "Feature",
            "geometry": {
                "type": "Point",
                "coordinates": [
                    17.02567,
                    53.3754
                ]
            },
            "properties": {
                "ref:rspo": 27231,
                "official_name": "Niepubliczne Przedszkole \"Mali Odkrywcy\"",
                "name": "Niepubliczne Przedszkole \"Mali Odkrywcy\"",
                "addr:country": "PL",
                "addr:postcode": "77-400",
                "addr:city": "Z\u0142ot\u00f3w",
                "addr:street": "Potulickich",
                "addr:housenumber": "25",
                "addr:teryt:simc": 967423,
                "addr:teryt:sym_ul": 17306,
                "contact:phone": "+48 604588434",
                "contact:email": "mirelakelpinska@tlen.pl",
                "contact:website": "http:\/\/www.mali-odkrywcy.com\/",
                "ref:regon": "302239782",
                "ref:vatin": "PL5551378760",
                "operator": "Mirela Kelpinska-Pianka",
                "operator:type": "private",
                "amenity": "kindergarten"
            }
        },
        {
            "id": 104870,
            "type": "Feature",
            "geometry": {
                "type": "Point",
                "coordinates": [
                    16.9845599,
                    53.4421
                ]
            },
            "properties": {
                "ref:rspo": 104870,
                "official_name": "Centrum Kszta\u0142cenia Zawodowego I Ustawicznego w Z\u0142otowie",
                "name": "Centrum Kszta\u0142cenia Zawodowego I Ustawicznego w Z\u0142otowie",
                "addr:country": "PL",
                "addr:postcode": "77-400",
                "addr:city": "Z\u0142ot\u00f3w",
                "addr:street": "Cypriana Kamila Norwida",
                "addr:housenumber": "10",
                "addr:teryt:simc": 967423,
                "addr:teryt:sym_ul": 14317,
                "contact:phone": "+48 672633041",
                "contact:email": "sekretariat@ckziu-zlotow.pl",
                "contact:website": "http:\/\/www.ckziu-zlotow.pl",
                "ref:regon": "302301096",
                "ref:vatin": "PL7671697084",
                "operator": "Powiat Z\u0142otowski",
                "operator:type": "government",
                "landuse": "education",
                "fixme": "amenity=school, amenity=college albo landuse=education w zale\u017cno\u015bci od tego, jakie plac\u00f3wki wchodz\u0105 w sk\u0142ad zespo\u0142u. Sprawd\u017a, kiedy stosowa\u0107 amenity=* a kiedy landuse=education.",
                "note": "Children RSPO: 22893;22926;24459;24497;24712;24746;105634;105637;131861;275521"
            }
        },
        {
            "id": 22893,
            "type": "Feature",
            "geometry": {
                "type": "Point",
                "coordinates": [
                    16.9845599,
                    53.44207
                ]
            },
            "properties": {
                "isced:level": "3",
                "ref:rspo": 22893,
                "official_name": "Bran\u017cowa Szko\u0142a I Stopnia Nr 1 im. Hipolita Cegielskiego w Z\u0142otowie",
                "name": "Bran\u017cowa Szko\u0142a I Stopnia Nr 1",
                "addr:country": "PL",
                "addr:postcode": "77-400",
                "addr:city": "Z\u0142ot\u00f3w",
                "addr:street": "Cypriana Kamila Norwida",
                "addr:housenumber": "10",
                "addr:teryt:simc": 967423,
                "addr:teryt:sym_ul": 14317,
                "contact:phone": "+48 672633041",
                "contact:email": "sekretarz.norwida@ckziu-zlotow.pl",
                "contact:website": "http:\/\/www.ckziu-zlotow.pl",
                "ref:regon": "570875783",
                "operator": "Powiat Z\u0142otowski",
                "operator:type": "government",
                "amenity": "school",
                "note": "Parent RSPO: 104870"
            }
        },
        {
            "id": 22926,
            "type": "Feature",
            "geometry": {
                "type": "Point",
                "coordinates": [
                    16.9845599,
                    53.442040000000006
                ]
            },
            "properties": {
                "isced:level": "3",
                "ref:rspo": 22926,
                "official_name": "Technikum Nr 1 im. Hipolita Cegielskiego w Z\u0142otowie",
                "name": "Technikum Nr 1",
                "addr:country": "PL",
                "addr:postcode": "77-400",
                "addr:city": "Z\u0142ot\u00f3w",
                "addr:street": "Cypriana Kamila Norwida",
                "addr:housenumber": "10",
                "addr:teryt:simc": 967423,
                "addr:teryt:sym_ul": 14317,
                "contact:phone": "+48 672633041",
                "contact:email": "sekretarz.norwida@ckziu-zlotow.pl",
                "contact:website": "http:\/\/www.ckziu-zlotow.pl",
                "ref:regon": "570875790",
                "operator": "Powiat Z\u0142otowski",
                "operator:type": "government",
                "amenity": "school",
                "note": "Parent RSPO: 104870"
            }
        },
        {
            "id": 24459,
            "type": "Feature",
            "geometry": {
                "type": "Point",
                "coordinates": [
                    16.9845599,
                    53.44201
                ]
            },
            "properties": {
                "isced:level": "4",
                "ref:rspo": 24459,
                "official_name": "Szko\u0142a Policealna Nr 1 im. Hipolita Cegielskiego w Z\u0142otowie",
                "name": "Szko\u0142a Policealna Nr 1",
                "addr:country": "PL",
                "addr:postcode": "77-400",
                "addr:city": "Z\u0142ot\u00f3w",
                "addr:street": "Cypriana Kamila Norwida",
                "addr:housenumber": "10",
                "addr:teryt:simc": 967423,
                "addr:teryt:sym_ul": 14317,
                "contact:phone": "+48 672633041",
                "contact:email": "sekretarz.norwida@ckziu-zlotow.pl",
                "contact:website": "http:\/\/www.ckziu-zlotow.pl",
                "ref:regon": "302234359",
                "operator": "Powiat Z\u0142otowski",
                "operator:type": "government",
                "amenity": "college",
                "note": "Parent RSPO: 104870"
            }
        },
        {
            "id": 24497,
            "type": "Feature",
            "geometry": {
                "type": "Point",
                "coordinates": [
                    16.9845599,
                    53.44198
                ]
            },
            "properties": {
                "isced:level": "3",
                "ref:rspo": 24497,
                "official_name": "Iii Liceum Og\u00f3lnokszta\u0142c\u0105ce im. Hipolita Cegielskiego w Z\u0142otowie",
                "name": "Iii Liceum Og\u00f3lnokszta\u0142c\u0105ce",
                "addr:country": "PL",
                "addr:postcode": "77-400",
                "addr:city": "Z\u0142ot\u00f3w",
                "addr:street": "Cypriana Kamila Norwida",
                "addr:housenumber": "10",
                "addr:teryt:simc": 967423,
                "addr:teryt:sym_ul": 14317,
                "contact:phone": "+48 672633041",
                "contact:email": "sekretarz.norwida@ckziu-zlotow.pl",
                "contact:website": "http:\/\/www.ckziu-zlotow.pl",
                "ref:regon": "572083448",
                "operator": "Powiat Z\u0142otowski",
                "operator:type": "government",
                "amenity": "school",
                "note": "Parent RSPO: 104870"
            }
        },
        {
            "id": 105634,
            "type": "Feature",
            "geometry": {
                "type": "Point",
                "coordinates": [
                    16.9845599,
                    53.441950000000006
                ]
            },
            "properties": {
                "ref:rspo": 105634,
                "official_name": "Centrum Kszta\u0142cenia Ustawicznego w Z\u0142otowie",
                "name": "Centrum Kszta\u0142cenia Ustawicznego w Z\u0142otowie",
                "addr:country": "PL",
                "addr:postcode": "77-400",
                "addr:city": "Z\u0142ot\u00f3w",
                "addr:street": "Cypriana Kamila Norwida",
                "addr:housenumber": "10",
                "addr:teryt:simc": 967423,
                "addr:teryt:sym_ul": 14317,
                "contact:phone": "+48 672633041",
                "contact:email": "sekretariat@ckziu-zlotow.pl",
                "contact:website": "http:\/\/www.ckziu-zlotow.pl",
                "ref:regon": "302309034",
                "operator": "Powiat Z\u0142otowski",
                "operator:type": "government",
                "fixme": "w zale\u017cno\u015bci od przedmiotu dzia\u0142alno\u015bci (np. amenity=training + training=*, amenity=dancing_school, amenity=language_school, amenity=music_school)",
                "note": "Parent RSPO: 104870"
            }
        },
        {
            "id": 105637,
            "type": "Feature",
            "geometry": {
                "type": "Point",
                "coordinates": [
                    16.9845599,
                    53.44192
                ]
            },
            "properties": {
                "ref:rspo": 105637,
                "official_name": "Centrum Kszta\u0142cenia Zawodowego w Z\u0142otowie",
                "name": "Centrum Kszta\u0142cenia Zawodowego w Z\u0142otowie",
                "addr:country": "PL",
                "addr:postcode": "77-400",
                "addr:city": "Z\u0142ot\u00f3w",
                "addr:street": "Cypriana Kamila Norwida",
                "addr:housenumber": "10",
                "addr:teryt:simc": 967423,
                "addr:teryt:sym_ul": 14317,
                "contact:phone": "+48 672633041",
                "contact:email": "sekretariat@ckziu-zlotow.pl",
                "contact:website": "http:\/\/www.ckziu-zlotow.pl",
                "ref:regon": "302309040",
                "operator": "Powiat Z\u0142otowski",
                "operator:type": "government",
                "fixme": "w zale\u017cno\u015bci od przedmiotu dzia\u0142alno\u015bci (np. amenity=training + training=*, amenity=dancing_school, amenity=language_school, amenity=music_school) albo amenity=school, amenity=college, albo landuse=education w zale\u017cno\u015bci od tego, jakie plac\u00f3wki wchodz\u0105 w sk\u0142ad zespo\u0142u. Sprawd\u017a, kiedy stosowa\u0107 amenity=* a kiedy landuse=education.",
                "note": "Parent RSPO: 104870"
            }
        },
        {
            "id": 131861,
            "type": "Feature",
            "geometry": {
                "type": "Point",
                "coordinates": [
                    16.9845599,
                    53.44189
                ]
            },
            "properties": {
                "isced:level": "3",
                "ref:rspo": 131861,
                "official_name": "Liceum Og\u00f3lnokszta\u0142c\u0105ce dla Doros\u0142ych im. Hipolita Cegielskiego w Z\u0142otowie",
                "name": "Liceum Og\u00f3lnokszta\u0142c\u0105ce dla Doros\u0142ych",
                "addr:country": "PL",
                "addr:postcode": "77-400",
                "addr:city": "Z\u0142ot\u00f3w",
                "addr:street": "Cypriana Kamila Norwida",
                "addr:housenumber": "10",
                "addr:teryt:simc": 967423,
                "addr:teryt:sym_ul": 14317,
                "contact:phone": "+48 672633041",
                "contact:email": "sekretariat@ckziu-zlotow.pl",
                "contact:website": "http:\/\/www.ckziu-zlotow.pl",
                "ref:regon": "365363903",
                "operator": "Powiat Z\u0142otowski",
                "operator:type": "government",
                "amenity": "school",
                "note": "Parent RSPO: 104870"
            }
        },
        {
            "id": 275521,
            "type": "Feature",
            "geometry": {
                "type": "Point",
                "coordinates": [
                    16.9845599,
                    53.441860000000005
                ]
            },
            "properties": {
                "isced:level": "3",
                "ref:rspo": 275521,
                "official_name": "Bran\u017cowa Szko\u0142a II Stopnia w Z\u0142otowie",
                "name": "Bran\u017cowa Szko\u0142a II Stopnia w Z\u0142otowie",
                "addr:country": "PL",
                "addr:postcode": "77-400",
                "addr:city": "Z\u0142ot\u00f3w",
                "addr:street": "Cypriana Kamila Norwida",
                "addr:housenumber": "10",
                "addr:teryt:simc": 967423,
                "addr:teryt:sym_ul": 14317,
                "contact:phone": "+48 672633041",
                "contact:email": "sekretariat@ckziu-zlotow.pl",
                "contact:website": "http:\/\/www.ckziu-zlotow.pl",
                "ref:regon": "386923317",
                "operator": "Powiat Z\u0142otowski",
                "operator:type": "government",
                "amenity": "school",
                "note": "Parent RSPO: 104870"
            }
        }
    ]
}