{
    "type": "FeatureCollection",
    "features": [
        {
            "id": 128129,
            "type": "Feature",
            "geometry": {
                "type": "Point",
                "coordinates": [
                    16.06812,
                    53.52497
                ]
            },
            "properties": {
                "ref:rspo": 128129,
                "official_name": "Zesp\u00f3\u0142 Plac\u00f3wek Edukacyjno-Terapeutycznych",
                "name": "Zesp\u00f3\u0142 Plac\u00f3wek Edukacyjno-Terapeutycznych",
                "addr:country": "PL",
                "addr:postcode": "78-520",
                "addr:place": "Bobrowo",
                "addr:housenumber": "7",
                "addr:teryt:sym_ul": 314253,
                "contact:phone": "+48 943671463",
                "contact:email": "sekretariat@zpetbobrowo.dlaedu.pl",
                "contact:website": "http:\/\/www.soswbobrowo.edupage.org",
                "ref:regon": "362116430",
                "operator": "Powiat Drawski",
                "operator:type": "government",
                "landuse": "education",
                "fixme": "amenity=school, amenity=college albo landuse=education w zale\u017cno\u015bci od tego, jakie plac\u00f3wki wchodz\u0105 w sk\u0142ad zespo\u0142u. Sprawd\u017a, kiedy stosowa\u0107 amenity=* a kiedy landuse=education.",
                "note": "Children RSPO: 53090;128142;128143;272591;272699"
            }
        },
        {
            "id": 79283,
            "type": "Feature",
            "geometry": {
                "type": "Point",
                "coordinates": [
                    16.06812,
                    53.52494
                ]
            },
            "properties": {
                "isced:level": "1;2",
                "ref:rspo": 79283,
                "official_name": "Szko\u0142a Podstawowa Specjalna",
                "name": "Szko\u0142a Podstawowa Specjalna",
                "addr:country": "PL",
                "addr:postcode": "78-520",
                "addr:place": "Bobrowo",
                "addr:housenumber": "7",
                "addr:teryt:sym_ul": 314253,
                "contact:phone": "+48 943671463",
                "contact:email": "sekretariat@zpetbobrowo.dlaedu.pl",
                "contact:website": "http:\/\/soswbobrowo.edupage.org",
                "ref:regon": "321298123",
                "operator": "Powiat Drawski",
                "operator:type": "government",
                "amenity": "school",
                "note": "Children RSPO: 263496;268009Parent RSPO: 53090"
            }
        },
        {
            "id": 86041,
            "type": "Feature",
            "geometry": {
                "type": "Point",
                "coordinates": [
                    16.06812,
                    53.524910000000006
                ]
            },
            "properties": {
                "ref:rspo": 86041,
                "official_name": "Szko\u0142a Specjalna Przysposabiaj\u0105ca Do Pracy",
                "name": "Szko\u0142a Specjalna Przysposabiaj\u0105ca Do Pracy",
                "addr:country": "PL",
                "addr:postcode": "78-520",
                "addr:place": "Bobrowo",
                "addr:housenumber": "7",
                "addr:teryt:sym_ul": 314253,
                "contact:phone": "+48 943671463",
                "contact:email": "sekretariat@zpetbobrowo.dlaedu.pl",
                "ref:regon": "321301552",
                "operator": "Powiat Drawski",
                "operator:type": "government",
                "amenity": "school",
                "note": "Parent RSPO: 53090"
            }
        },
        {
            "id": 53090,
            "type": "Feature",
            "geometry": {
                "type": "Point",
                "coordinates": [
                    16.06812,
                    53.52488
                ]
            },
            "properties": {
                "ref:rspo": 53090,
                "official_name": "Specjalny O\u015brodek Szkolno-Wychowawczy w Bobrowie",
                "name": "Specjalny O\u015brodek Szkolno-Wychowawczy w Bobrowie",
                "addr:country": "PL",
                "addr:postcode": "78-520",
                "addr:place": "Bobrowo",
                "addr:housenumber": "7",
                "addr:teryt:sym_ul": 314253,
                "contact:phone": "+48 943671463",
                "contact:email": "sekretariat@zpetbobrowo.dlaedu.pl",
                "ref:regon": "000194085",
                "ref:vatin": "PL6741299455",
                "operator": "Powiat Drawski",
                "operator:type": "government",
                "amenity": "school",
                "note": "Children RSPO: 79283;86041Parent RSPO: 128129"
            }
        },
        {
            "id": 41915,
            "type": "Feature",
            "geometry": {
                "type": "Point",
                "coordinates": [
                    16.01332,
                    53.53084
                ]
            },
            "properties": {
                "ref:rspo": 41915,
                "official_name": "Zesp\u00f3\u0142 Szk\u00f3\u0142 im. Gen. W\u0142adys\u0142awa Andersa",
                "name": "Zesp\u00f3\u0142 Szk\u00f3\u0142",
                "addr:country": "PL",
                "addr:postcode": "78-520",
                "addr:city": "Z\u0142ocieniec",
                "addr:street": "ul. Stefana Okrzei",
                "addr:housenumber": "9",
                "addr:teryt:simc": 14914,
                "addr:teryt:sym_ul": 950374,
                "contact:phone": "+48 943671850",
                "contact:email": "zsp.anders@wp.pl",
                "contact:website": "http:\/\/www.zspanders.edu.pl",
                "ref:regon": "000333374",
                "ref:vatin": "PL6741084424",
                "operator": "Powiat Drawski",
                "operator:type": "government",
                "landuse": "education",
                "fixme": "amenity=school, amenity=college albo landuse=education w zale\u017cno\u015bci od tego, jakie plac\u00f3wki wchodz\u0105 w sk\u0142ad zespo\u0142u. Sprawd\u017a, kiedy stosowa\u0107 amenity=* a kiedy landuse=education.",
                "note": "Children RSPO: 53180;53325;53591;55987;66203;86122;118458"
            }
        },
        {
            "id": 53180,
            "type": "Feature",
            "geometry": {
                "type": "Point",
                "coordinates": [
                    16.01332,
                    53.530809999999995
                ]
            },
            "properties": {
                "isced:level": "3",
                "ref:rspo": 53180,
                "official_name": "Liceum Og\u00f3lnokszta\u0142c\u0105ce",
                "name": "Liceum Og\u00f3lnokszta\u0142c\u0105ce",
                "addr:country": "PL",
                "addr:postcode": "78-520",
                "addr:city": "Z\u0142ocieniec",
                "addr:street": "ul. Stefana Okrzei",
                "addr:housenumber": "9",
                "addr:teryt:simc": 14914,
                "addr:teryt:sym_ul": 950374,
                "contact:phone": "+48 943671850",
                "contact:email": "zsp.anders@wp.pl",
                "ref:regon": "331357438",
                "ref:vatin": "PL6741084424",
                "operator": "Powiat Drawski",
                "operator:type": "government",
                "amenity": "school",
                "note": "Parent RSPO: 41915"
            }
        },
        {
            "id": 53325,
            "type": "Feature",
            "geometry": {
                "type": "Point",
                "coordinates": [
                    16.01332,
                    53.53078
                ]
            },
            "properties": {
                "isced:level": "3",
                "ref:rspo": 53325,
                "official_name": "Bran\u017cowa Szko\u0142a I Stopnia",
                "name": "Bran\u017cowa Szko\u0142a I Stopnia",
                "addr:country": "PL",
                "addr:postcode": "78-520",
                "addr:city": "Z\u0142ocieniec",
                "addr:street": "ul. Stefana Okrzei",
                "addr:housenumber": "9",
                "addr:teryt:simc": 14914,
                "addr:teryt:sym_ul": 950374,
                "contact:phone": "+48 943671850",
                "contact:email": "zsp.anders@wp.pl",
                "contact:website": "http:\/\/zspanders.edu.pl\/",
                "ref:regon": "331357467",
                "ref:vatin": "PL6741084424",
                "operator": "Powiat Drawski",
                "operator:type": "government",
                "amenity": "school",
                "note": "Parent RSPO: 41915"
            }
        },
        {
            "id": 53591,
            "type": "Feature",
            "geometry": {
                "type": "Point",
                "coordinates": [
                    16.01332,
                    53.53075
                ]
            },
            "properties": {
                "isced:level": "3",
                "ref:rspo": 53591,
                "official_name": "Liceum Og\u00f3lnokszta\u0142c\u0105ce dla Doros\u0142ych",
                "name": "Liceum Og\u00f3lnokszta\u0142c\u0105ce dla Doros\u0142ych",
                "addr:country": "PL",
                "addr:postcode": "78-520",
                "addr:city": "Z\u0142ocieniec",
                "addr:street": "ul. Stefana Okrzei",
                "addr:housenumber": "9",
                "addr:teryt:simc": 14914,
                "addr:teryt:sym_ul": 950374,
                "contact:phone": "+48 943671850",
                "contact:email": "zsp.anders@wp.pl",
                "contact:website": "http:\/\/www.zspanders.edu.pl",
                "ref:regon": "320622952",
                "ref:vatin": "PL6741084424",
                "operator": "Powiat Drawski",
                "operator:type": "government",
                "amenity": "school",
                "note": "Parent RSPO: 41915"
            }
        },
        {
            "id": 86122,
            "type": "Feature",
            "geometry": {
                "type": "Point",
                "coordinates": [
                    16.01332,
                    53.530719999999995
                ]
            },
            "properties": {
                "isced:level": "4",
                "ref:rspo": 86122,
                "official_name": "Szko\u0142a Policealna",
                "name": "Szko\u0142a Policealna",
                "addr:country": "PL",
                "addr:postcode": "78-520",
                "addr:city": "Z\u0142ocieniec",
                "addr:street": "ul. Stefana Okrzei",
                "addr:housenumber": "9",
                "addr:teryt:simc": 14914,
                "addr:teryt:sym_ul": 950374,
                "contact:phone": "+48 943671850",
                "contact:email": "zsp.anders@wp.pl",
                "contact:website": "http:\/\/www.zspanders.edu.pl",
                "ref:regon": "321301658",
                "operator": "Powiat Drawski",
                "operator:type": "government",
                "amenity": "college",
                "note": "Parent RSPO: 41915"
            }
        },
        {
            "id": 118458,
            "type": "Feature",
            "geometry": {
                "type": "Point",
                "coordinates": [
                    16.01332,
                    53.53069
                ]
            },
            "properties": {
                "isced:level": "3",
                "ref:rspo": 118458,
                "official_name": "Technikum w Z\u0142ocie\u0144cu",
                "name": "Technikum w Z\u0142ocie\u0144cu",
                "addr:country": "PL",
                "addr:postcode": "78-520",
                "addr:city": "Z\u0142ocieniec",
                "addr:street": "ul. Stefana Okrzei",
                "addr:housenumber": "9",
                "addr:teryt:simc": 14914,
                "addr:teryt:sym_ul": 950374,
                "contact:phone": "+48 943671850",
                "contact:email": "zsp.anders@wp.pl",
                "contact:website": "http:\/\/www.zspanders.edu.pl",
                "ref:regon": "321408764",
                "operator": "Powiat Drawski",
                "operator:type": "government",
                "amenity": "school",
                "note": "Parent RSPO: 41915"
            }
        },
        {
            "id": 59134,
            "type": "Feature",
            "geometry": {
                "type": "Point",
                "coordinates": [
                    16.02194,
                    53.53229
                ]
            },
            "properties": {
                "ref:rspo": 59134,
                "official_name": "Prywatne Przedszkole w Z\u0142ocie\u0144cu Ul.zdobywc\u00f3w Wa\u0142u Pomorskiego 2",
                "name": "Prywatne Przedszkole w Z\u0142ocie\u0144cu Ul.zdobywc\u00f3w Wa\u0142u Pomorskiego 2",
                "addr:country": "PL",
                "addr:postcode": "78-520",
                "addr:city": "Z\u0142ocieniec",
                "addr:street": "ul. Zdobywc\u00f3w Wa\u0142u Pomorskiego",
                "addr:housenumber": "2",
                "addr:teryt:simc": 25938,
                "addr:teryt:sym_ul": 950374,
                "contact:phone": "+48 505112907",
                "contact:email": "prywprzed@interia.pl",
                "ref:regon": "321295461",
                "ref:vatin": "PL6741008883",
                "operator": "Stanis\u0142awa Rak-Lisowska",
                "operator:type": "private",
                "amenity": "kindergarten"
            }
        },
        {
            "id": 59109,
            "type": "Feature",
            "geometry": {
                "type": "Point",
                "coordinates": [
                    16.01579,
                    53.53445
                ]
            },
            "properties": {
                "isced:level": "1;2",
                "ref:rspo": 59109,
                "official_name": "Szko\u0142a Podstawowa Nr 1 im.janusza Kusoci\u0144skiego Ul.I Dywizji Wojska Polskiego 4A w Z\u0142ocie\u0144cu",
                "name": "Szko\u0142a Podstawowa Nr 1 im.janusza Kusoci\u0144skiego Ul.I Dywizji Wojska Polskiego 4A w Z\u0142ocie\u0144cu",
                "addr:country": "PL",
                "addr:postcode": "78-520",
                "addr:city": "Z\u0142ocieniec",
                "addr:street": "ul. I Dywizji Wojska Polskiego",
                "addr:housenumber": "4a",
                "addr:teryt:simc": 4556,
                "addr:teryt:sym_ul": 950374,
                "contact:phone": "+48 943671242",
                "contact:email": "sp1zlocieniec@gmail.com",
                "contact:website": "http:\/\/www.sp1zlocieniec.edupage.org",
                "ref:regon": "330388230",
                "ref:vatin": "PL6741016078",
                "operator": "Gmina Z\u0142ocieniec",
                "operator:type": "government",
                "amenity": "school"
            }
        },
        {
            "id": 55987,
            "type": "Feature",
            "geometry": {
                "type": "Point",
                "coordinates": [
                    16.01579,
                    53.53442
                ]
            },
            "properties": {
                "ref:rspo": 55987,
                "official_name": "Szkolne Schronisko M\u0142odzie\u017cowe w Z\u0142ocie\u0144cu",
                "name": "Szkolne Schronisko M\u0142odzie\u017cowe w Z\u0142ocie\u0144cu",
                "addr:country": "PL",
                "addr:postcode": "78-520",
                "addr:city": "Z\u0142ocieniec",
                "addr:street": "ul. I Dywizji Wojska Polskiego",
                "addr:housenumber": "4",
                "addr:teryt:simc": 4556,
                "addr:teryt:sym_ul": 950374,
                "contact:phone": "+48 943671835",
                "contact:email": "zsp.anders@wp.pl",
                "contact:website": "http:\/\/www.anders.edu.pl",
                "ref:regon": "321297046",
                "operator": "Powiat Drawski",
                "operator:type": "government",
                "tourism": "hostel",
                "note": "Parent RSPO: 41915"
            }
        },
        {
            "id": 66203,
            "type": "Feature",
            "geometry": {
                "type": "Point",
                "coordinates": [
                    16.01528,
                    53.5351799
                ]
            },
            "properties": {
                "ref:rspo": 66203,
                "official_name": "Internat Zespo\u0142u Szk\u00f3\u0142 Ponadgimnazjalnych im. Gen.w\u0142. Andersa",
                "name": "Internat Zespo\u0142u Szk\u00f3\u0142 Ponadgimnazjalnych",
                "addr:country": "PL",
                "addr:postcode": "78-520",
                "addr:city": "Z\u0142ocieniec",
                "addr:street": "ul. I Dywizji Wojska Polskiego",
                "addr:housenumber": "8",
                "addr:teryt:simc": 4556,
                "addr:teryt:sym_ul": 950374,
                "contact:phone": "+48 943671835",
                "contact:email": "zsp.anders@wp.pl",
                "contact:website": "http:\/\/www.zspanders.edu.pl",
                "ref:regon": "321297951",
                "operator": "Powiat Drawski",
                "operator:type": "government",
                "building": "dormitory",
                "note": "Parent RSPO: 41915"
            }
        },
        {
            "id": 59127,
            "type": "Feature",
            "geometry": {
                "type": "Point",
                "coordinates": [
                    16.01261,
                    53.53583
                ]
            },
            "properties": {
                "ref:rspo": 59127,
                "official_name": "Przedszkole im.zaj\u0105czka Z\u0142ocieniaszka w Z\u0142ocie\u0144cu",
                "name": "Przedszkole im.zaj\u0105czka Z\u0142ocieniaszka w Z\u0142ocie\u0144cu",
                "addr:country": "PL",
                "addr:postcode": "78-520",
                "addr:city": "Z\u0142ocieniec",
                "addr:street": "ul. Elizy Orzeszkowej",
                "addr:housenumber": "2",
                "addr:teryt:simc": 15211,
                "addr:teryt:sym_ul": 950374,
                "contact:phone": "+48 943671153",
                "contact:email": "przedszkolezlocieniec@wp.pl",
                "contact:website": "http:\/\/www.zlocieniaszek.edupage.org",
                "ref:regon": "330604343",
                "ref:vatin": "PL2530026474",
                "operator": "Gmina Z\u0142ocieniec",
                "operator:type": "government",
                "amenity": "kindergarten"
            }
        },
        {
            "id": 85266,
            "type": "Feature",
            "geometry": {
                "type": "Point",
                "coordinates": [
                    16.00638,
                    53.5416
                ]
            },
            "properties": {
                "ref:rspo": 85266,
                "official_name": "Partes Ognisko Artystyczne Ewa Gadzina",
                "name": "Partes Ognisko Artystyczne Ewa Gadzina",
                "addr:country": "PL",
                "addr:postcode": "78-520",
                "addr:city": "Z\u0142ocieniec",
                "addr:street": "ul. Parkowa",
                "addr:housenumber": "55",
                "addr:teryt:simc": 15710,
                "addr:teryt:sym_ul": 950374,
                "contact:phone": "+48 943673191",
                "ref:regon": "321300854",
                "ref:vatin": "PL6741121148",
                "operator": "Dane Do Uzupe\u0142nienia",
                "operator:type": "private",
                "fixme": "w zale\u017cno\u015bci od przedmiotu dzia\u0142alno\u015bci (np. amenity=community_centre + community_centre:for=child;juvenile, amenity=training + training=*, amenity=dancing_school, amenity=music_school),"
            }
        },
        {
            "id": 59119,
            "type": "Feature",
            "geometry": {
                "type": "Point",
                "coordinates": [
                    16.04652,
                    53.54329
                ]
            },
            "properties": {
                "isced:level": "1;2",
                "ref:rspo": 59119,
                "official_name": "Szko\u0142a Podstawowa Nr 3 im.\u017co\u0142nierza Polskiego Ul.czwartak\u00f3w 2 w Z\u0142ocie\u0144cu",
                "name": "Szko\u0142a Podstawowa Nr 3 im.\u017co\u0142nierza Polskiego Ul.czwartak\u00f3w 2 w Z\u0142ocie\u0144cu",
                "addr:country": "PL",
                "addr:postcode": "78-524",
                "addr:city": "Z\u0142ocieniec",
                "addr:street": "ul. Czwartak\u00f3w",
                "addr:housenumber": "2",
                "addr:teryt:simc": 3496,
                "addr:teryt:sym_ul": 950374,
                "contact:phone": "+48 943670450",
                "contact:email": "sp3zlocieniec@gmail.com",
                "contact:website": "http:\/\/www.sp3zlocieniec.pl",
                "ref:regon": "330388218",
                "ref:vatin": "PL2530336884",
                "operator": "Gmina Z\u0142ocieniec",
                "operator:type": "government",
                "amenity": "school"
            }
        },
        {
            "id": 92342,
            "type": "Feature",
            "geometry": {
                "type": "Point",
                "coordinates": [
                    16.08782,
                    53.64941
                ]
            },
            "properties": {
                "isced:level": "1;2",
                "ref:rspo": 92342,
                "official_name": "Szko\u0142a Podstawowa w Nowym Worowie",
                "name": "Szko\u0142a Podstawowa w Nowym Worowie",
                "addr:country": "PL",
                "addr:postcode": "78-523",
                "addr:city": "Nowe Worowo",
                "addr:street": "ul. Chopina",
                "addr:housenumber": "9",
                "addr:teryt:simc": 2844,
                "addr:teryt:sym_ul": 308548,
                "contact:phone": "+48 943615770",
                "contact:email": "zs.noweworowo@post.pl",
                "contact:website": "http:\/\/www.zsnoweworowo.cba.pl",
                "ref:regon": "001176095",
                "operator": "Gmina Z\u0142ocieniec",
                "operator:type": "government",
                "amenity": "school"
            }
        },
        {
            "id": 124897,
            "type": "Feature",
            "geometry": {
                "type": "Point",
                "coordinates": [
                    16.08782,
                    53.64938
                ]
            },
            "properties": {
                "ref:rspo": 124897,
                "official_name": "Punkt Przedszkolny w Nowym Worowie",
                "name": "Punkt Przedszkolny w Nowym Worowie",
                "addr:country": "PL",
                "addr:postcode": "78-523",
                "addr:city": "Nowe Worowo",
                "addr:street": "ul. Chopina",
                "addr:housenumber": "9",
                "addr:teryt:simc": 2844,
                "addr:teryt:sym_ul": 308548,
                "contact:phone": "+48 943615770",
                "contact:email": "zs.noweworowo@post.pl",
                "ref:regon": "321570737",
                "operator": "Gmina Z\u0142ocieniec",
                "operator:type": "government",
                "amenity": "kindergarten"
            }
        }
    ]
}