{
    "type": "FeatureCollection",
    "features": [
        {
            "id": 123093,
            "type": "Feature",
            "geometry": {
                "type": "Point",
                "coordinates": [
                    15.8540656,
                    53.2586178
                ]
            },
            "properties": {
                "ref:rspo": 123093,
                "official_name": "Przedszkole \"Weso\u0142e Nutki\"",
                "name": "Przedszkole \"Weso\u0142e Nutki\"",
                "addr:postcode": "78-540",
                "addr:place": "D\u0119bsko",
                "addr:housenumber": "62",
                "addr:city:simc": 306779,
                "phone": "+48 661645222",
                "ref:regon": "321522454",
                "ref:vatin": "PL2530185215",
                "operator": "Agnieszka Chwastek",
                "operator:type": "private",
                "amenity": "kindergarten"
            }
        },
        {
            "id": 72744,
            "type": "Feature",
            "geometry": {
                "type": "Point",
                "coordinates": [
                    15.9606881,
                    53.265821
                ]
            },
            "properties": {
                "ref:rspo": 72744,
                "official_name": "O\u015brodek Doskonalenia Kadr - Bhp",
                "name": "O\u015brodek Doskonalenia Kadr - Bhp",
                "addr:postcode": "78-540",
                "addr:place": "Bia\u0142y Zdr\u00f3j",
                "addr:housenumber": "43",
                "addr:door": "2",
                "addr:city:simc": 306740,
                "phone": "+48 694545375",
                "ref:regon": "321298070",
                "ref:vatin": "PL6741122900",
                "operator": "Dane Do Uzupe\u0142nienia",
                "operator:type": "private"
            }
        },
        {
            "id": 35099,
            "type": "Feature",
            "geometry": {
                "type": "Point",
                "coordinates": [
                    15.90111,
                    53.29196
                ]
            },
            "properties": {
                "ref:rspo": 35099,
                "official_name": "Przedszkole Miejskie \"Bajkolandia\"",
                "name": "Przedszkole Miejskie \"Bajkolandia\"",
                "addr:postcode": "78-540",
                "addr:city": "Kalisz Pomorski",
                "addr:street": "Janowiecka",
                "addr:housenumber": "2A",
                "addr:city:simc": 949916,
                "addr:street:sym_ul": 7201,
                "phone": "+48 943616277",
                "email": "przedszkole@bajkolandia.dlaedu.pl",
                "website": "http:\/\/bajkolandia-kaliszpomorski.edupage.org",
                "ref:regon": "331091762",
                "ref:vatin": "PL2530088908",
                "operator": "Gmina Kalisz Pomorski",
                "operator:type": "government",
                "amenity": "kindergarten"
            }
        },
        {
            "id": 75063,
            "type": "Feature",
            "geometry": {
                "type": "Point",
                "coordinates": [
                    15.90391,
                    53.2956999
                ]
            },
            "properties": {
                "ref:rspo": 75063,
                "official_name": "Internat Zespo\u0142u Szk\u00f3\u0142 Ponadgimnazjalnych im. Pami\u0119ci Ofiar Terroryzmu 11 Wrze\u015bnia 2001R.",
                "name": "Internat Zespo\u0142u Szk\u00f3\u0142 Ponadgimnazjalnych",
                "addr:postcode": "78-540",
                "addr:city": "Kalisz Pomorski",
                "addr:street": "Wolno\u015bci",
                "addr:housenumber": "16",
                "addr:city:simc": 949916,
                "addr:street:sym_ul": 24687,
                "phone": "+48 943616387",
                "email": "zsp.kalisz@wp.pl",
                "website": "http:\/\/www.zsp.kalisz.pl",
                "ref:regon": "321298710",
                "operator": "Powiat Drawski",
                "operator:type": "government",
                "building": "dormitory",
                "note": "Parent RSPO: 57246"
            }
        },
        {
            "id": 57246,
            "type": "Feature",
            "geometry": {
                "type": "Point",
                "coordinates": [
                    15.9044,
                    53.29613
                ]
            },
            "properties": {
                "ref:rspo": 57246,
                "official_name": "Zesp\u00f3\u0142 Szk\u00f3\u0142 im. Pami\u0119ci Ofiar Terroryzmu 11 Wrze\u015bnia 2001 Roku",
                "name": "Zesp\u00f3\u0142 Szk\u00f3\u0142",
                "addr:postcode": "78-540",
                "addr:city": "Kalisz Pomorski",
                "addr:street": "Wolno\u015bci",
                "addr:housenumber": "20",
                "addr:city:simc": 949916,
                "addr:street:sym_ul": 24687,
                "phone": "+48 943616356",
                "email": "sekretariat@zspkaliszpom.dlaedu.pl",
                "website": "http:\/\/www.zsp.kalisz.pl",
                "ref:regon": "331282781",
                "ref:vatin": "PL2530100762",
                "operator": "Powiat Drawski",
                "operator:type": "government",
                "landuse": "education",
                "fixme": "amenity=school, amenity=college albo landuse=education w zale\u017cno\u015bci od tego, jakie plac\u00f3wki wchodz\u0105 w sk\u0142ad zespo\u0142u. Sprawd\u017a, kiedy stosowa\u0107 amenity=* a kiedy landuse=education.",
                "note": "Children RSPO: 74313;74386;74907;75063;122206"
            }
        },
        {
            "id": 74313,
            "type": "Feature",
            "geometry": {
                "type": "Point",
                "coordinates": [
                    15.9044,
                    53.296099999999996
                ]
            },
            "properties": {
                "isced:level": "3",
                "ref:rspo": 74313,
                "official_name": "Liceum Og\u00f3lnokszta\u0142c\u0105ce z Oddzia\u0142ami Dwuj\u0119zycznymi",
                "name": "Liceum Og\u00f3lnokszta\u0142c\u0105ce z Oddzia\u0142ami Dwuj\u0119zycznymi",
                "addr:postcode": "78-540",
                "addr:city": "Kalisz Pomorski",
                "addr:street": "Wolno\u015bci",
                "addr:housenumber": "20",
                "addr:city:simc": 949916,
                "addr:street:sym_ul": 24687,
                "phone": "+48 943616356",
                "email": "sekretariat@zspkaliszpom.dlaedu.pl",
                "website": "http:\/\/www.zsp.kalisz.pl",
                "ref:regon": "331355959",
                "operator": "Powiat Drawski",
                "operator:type": "government",
                "amenity": "school",
                "note": "Parent RSPO: 57246"
            }
        },
        {
            "id": 74386,
            "type": "Feature",
            "geometry": {
                "type": "Point",
                "coordinates": [
                    15.9044,
                    53.29607
                ]
            },
            "properties": {
                "isced:level": "3",
                "ref:rspo": 74386,
                "official_name": "Liceum Og\u00f3lnokszta\u0142c\u0105ce dla Doros\u0142ych",
                "name": "Liceum Og\u00f3lnokszta\u0142c\u0105ce dla Doros\u0142ych",
                "addr:postcode": "78-540",
                "addr:city": "Kalisz Pomorski",
                "addr:street": "Wolno\u015bci",
                "addr:housenumber": "20",
                "addr:city:simc": 949916,
                "addr:street:sym_ul": 24687,
                "phone": "+48 943616356",
                "email": "sekretariat@zspkaliszpom.dlaedu.pl",
                "website": "http:\/\/www.zsp.kalisz.pl",
                "ref:regon": "321296236",
                "operator": "Powiat Drawski",
                "operator:type": "government",
                "amenity": "school",
                "note": "Parent RSPO: 57246"
            }
        },
        {
            "id": 74907,
            "type": "Feature",
            "geometry": {
                "type": "Point",
                "coordinates": [
                    15.9044,
                    53.29604
                ]
            },
            "properties": {
                "isced:level": "4",
                "ref:rspo": 74907,
                "official_name": "Szko\u0142a Policealna",
                "name": "Szko\u0142a Policealna",
                "addr:postcode": "78-540",
                "addr:city": "Kalisz Pomorski",
                "addr:street": "Wolno\u015bci",
                "addr:housenumber": "20",
                "addr:city:simc": 949916,
                "addr:street:sym_ul": 24687,
                "phone": "+48 943616356",
                "email": "zsp.kalisz@wp.pl",
                "website": "http:\/\/www.zsp.kalisz.pl",
                "ref:regon": "331282812",
                "operator": "Powiat Drawski",
                "operator:type": "government",
                "amenity": "college",
                "note": "Parent RSPO: 57246"
            }
        },
        {
            "id": 122206,
            "type": "Feature",
            "geometry": {
                "type": "Point",
                "coordinates": [
                    15.9044,
                    53.296009999999995
                ]
            },
            "properties": {
                "isced:level": "3",
                "ref:rspo": 122206,
                "official_name": "Technikum w Kaliszu Pomorskim",
                "name": "Technikum w Kaliszu Pomorskim",
                "addr:postcode": "78-540",
                "addr:city": "Kalisz Pomorski",
                "addr:street": "Wolno\u015bci",
                "addr:housenumber": "20",
                "addr:city:simc": 949916,
                "addr:street:sym_ul": 24687,
                "phone": "+48 943616356",
                "email": "sekretariat@zspkaliszpom.dlaedu.pl",
                "ref:regon": "321487887",
                "operator": "Powiat Drawski",
                "operator:type": "government",
                "amenity": "school",
                "note": "Parent RSPO: 57246"
            }
        },
        {
            "id": 35103,
            "type": "Feature",
            "geometry": {
                "type": "Point",
                "coordinates": [
                    15.91271,
                    53.30104
                ]
            },
            "properties": {
                "isced:level": "1;2",
                "ref:rspo": 35103,
                "official_name": "Szko\u0142a Podstawowa im. Kornela Makuszy\u0144skiego",
                "name": "Szko\u0142a Podstawowa",
                "addr:postcode": "78-540",
                "addr:city": "Kalisz Pomorski",
                "addr:street": "B\u0142onie Kaszubskie",
                "addr:housenumber": "2",
                "addr:city:simc": 949916,
                "addr:street:sym_ul": 1466,
                "phone": "+48 943617492",
                "email": "sekretariat@spkaliszpom.dlaedu.pl",
                "website": "https:\/\/spkaliszpom.edupage.org\/",
                "ref:regon": "330362791",
                "ref:vatin": "PL6741236609",
                "operator": "Gmina Kalisz Pomorski",
                "operator:type": "government",
                "amenity": "school"
            }
        },
        {
            "id": 35098,
            "type": "Feature",
            "geometry": {
                "type": "Point",
                "coordinates": [
                    15.887073,
                    53.337637
                ]
            },
            "properties": {
                "isced:level": "1;2",
                "ref:rspo": 35098,
                "official_name": "Szko\u0142a Podstawowa",
                "name": "Szko\u0142a Podstawowa",
                "addr:postcode": "78-540",
                "addr:place": "Pomierzyn",
                "addr:housenumber": "10",
                "addr:city:simc": 306897,
                "phone": "+48 943616583",
                "email": "sekretariat@sppomierzyn.dlaedu.pl",
                "website": "http:\/\/www.sppomierzyn.edupage.org",
                "ref:regon": "330362785",
                "ref:vatin": "PL2530088920",
                "operator": "Gmina Kalisz Pomorski",
                "operator:type": "government",
                "amenity": "school"
            }
        }
    ]
}