{
    "type": "FeatureCollection",
    "features": [
        {
            "id": 42060,
            "type": "Feature",
            "geometry": {
                "type": "Point",
                "coordinates": [
                    15.796292,
                    53.49086
                ]
            },
            "properties": {
                "isced:level": "1;2",
                "ref:rspo": 42060,
                "official_name": "Szko\u0142a Podstawowa im. Or\u0142a Bia\u0142ego w Mielenku Drawskim",
                "name": "Szko\u0142a Podstawowa",
                "addr:postcode": "78-500",
                "addr:place": "Mielenko Drawskie",
                "addr:housenumber": "47",
                "addr:city:simc": 305722,
                "phone": "+48 943067777",
                "email": "sp-mielenko@oswiata.org.pl",
                "website": "http:\/\/www.mielenko.edu.pl",
                "ref:regon": "001175003",
                "ref:vatin": "PL2530142298",
                "operator": "Gmina Drawsko Pomorskie",
                "operator:type": "government",
                "amenity": "school"
            }
        },
        {
            "id": 53096,
            "type": "Feature",
            "geometry": {
                "type": "Point",
                "coordinates": [
                    15.85993,
                    53.492678
                ]
            },
            "properties": {
                "ref:rspo": 53096,
                "official_name": "O\u015brodek Rehabilitacyjno-Edukacyjno-Wychowawczy w Gudowie",
                "name": "O\u015brodek Rehabilitacyjno-Edukacyjno-Wychowawczy w Gudowie",
                "addr:postcode": "78-500",
                "addr:place": "Gudowo",
                "addr:housenumber": "15",
                "addr:city:simc": 305662,
                "phone": "+48 667288227",
                "ref:regon": "321290340",
                "ref:vatin": "PL2530332863",
                "operator": "Stowarzyszenie Pomocy Dzieciom Niepe\u0142nosprawnym \"Rado\u015b\u0107 Z \u017bycia\"",
                "operator:type": "ngo",
                "amenity": "school"
            }
        },
        {
            "id": 123837,
            "type": "Feature",
            "geometry": {
                "type": "Point",
                "coordinates": [
                    15.85993,
                    53.492647999999996
                ]
            },
            "properties": {
                "ref:rspo": 123837,
                "official_name": "Niepubliczne Przedszkole Specjalne w Gudowie",
                "name": "Niepubliczne Przedszkole Specjalne w Gudowie",
                "addr:postcode": "78-500",
                "addr:place": "Gudowo",
                "addr:housenumber": "15",
                "addr:city:simc": 305662,
                "phone": "+48 943632586",
                "ref:regon": "321555011",
                "operator": "Stowarzyszenie Pomocy Dzieciom Niepe\u0142nosprawnym \"Rado\u015b\u0107 Z \u017bycia\"",
                "operator:type": "ngo",
                "amenity": "kindergarten"
            }
        },
        {
            "id": 273454,
            "type": "Feature",
            "geometry": {
                "type": "Point",
                "coordinates": [
                    15.85993,
                    53.492618
                ]
            },
            "properties": {
                "ref:rspo": 273454,
                "official_name": "Niepubliczna Szko\u0142a Przysposabiaj\u0105ca Do Pracy",
                "name": "Niepubliczna Szko\u0142a Przysposabiaj\u0105ca Do Pracy",
                "addr:postcode": "78-500",
                "addr:place": "Gudowo",
                "addr:housenumber": "15",
                "addr:city:simc": 305662,
                "phone": "+48 943632586",
                "email": "radosc_z_zycia@wp.pl",
                "ref:regon": "384472170",
                "operator": "Stowarzyszenie Pomocy Dzieciom Niepe\u0142nosprawnym \"Rado\u015b\u0107 Z \u017bycia\"",
                "operator:type": "ngo",
                "amenity": "school"
            }
        },
        {
            "id": 273456,
            "type": "Feature",
            "geometry": {
                "type": "Point",
                "coordinates": [
                    15.85993,
                    53.492588
                ]
            },
            "properties": {
                "isced:level": "1;2",
                "ref:rspo": 273456,
                "official_name": "Niepubliczna Szko\u0142a Podstawowa Specjalna w Gudowie",
                "name": "Niepubliczna Szko\u0142a Podstawowa Specjalna w Gudowie",
                "addr:postcode": "78-500",
                "addr:place": "Gudowo",
                "addr:housenumber": "15",
                "addr:city:simc": 305662,
                "phone": "+48 943632586",
                "email": "radosc_z_zycia@wp.pl",
                "website": "http:\/\/www.radosczzycia.org",
                "ref:regon": "384472253",
                "operator": "Stowarzyszenie Pomocy Dzieciom Niepe\u0142nosprawnym \"Rado\u015b\u0107 Z \u017bycia\"",
                "operator:type": "ngo",
                "amenity": "school"
            }
        },
        {
            "id": 262724,
            "type": "Feature",
            "geometry": {
                "type": "Point",
                "coordinates": [
                    15.81807,
                    53.52463
                ]
            },
            "properties": {
                "isced:level": "1;2",
                "ref:rspo": 262724,
                "official_name": "Szko\u0142a Podstawowa Nr 2 im. Adama Mickiewicza w Drawsku Pomorskim",
                "name": "Szko\u0142a Podstawowa Nr 2",
                "addr:postcode": "78-500",
                "addr:city": "Drawsko Pomorskie",
                "addr:street": "Dworcowa",
                "addr:housenumber": "2 a",
                "addr:city:simc": 949862,
                "addr:street:sym_ul": 4434,
                "phone": "+48 943632548",
                "email": "drawsko@interia.pl",
                "website": "http:\/\/www.sp2drawsko.pl",
                "ref:regon": "368053244",
                "ref:vatin": "PL2530141519",
                "operator": "Gmina Drawsko Pomorskie",
                "operator:type": "government",
                "amenity": "school"
            }
        },
        {
            "id": 3313,
            "type": "Feature",
            "geometry": {
                "type": "Point",
                "coordinates": [
                    15.8006,
                    53.52584
                ]
            },
            "properties": {
                "ref:rspo": 3313,
                "official_name": "Powiatowe Centrum Kszta\u0142cenia Zawodowego I Ustawicznego",
                "name": "Powiatowe Centrum Kszta\u0142cenia Zawodowego I Ustawicznego",
                "addr:postcode": "78-500",
                "addr:city": "Drawsko Pomorskie",
                "addr:street": "Warmi\u0144ska",
                "addr:housenumber": "1",
                "addr:city:simc": 949862,
                "addr:street:sym_ul": 23663,
                "phone": "+48 943632420",
                "email": "sekretariat@pckziu.pl",
                "website": "http:\/\/www.pckziu.pl",
                "ref:regon": "321260511",
                "ref:vatin": "PL2530333265",
                "operator": "Powiat Drawski",
                "operator:type": "government",
                "landuse": "education",
                "fixme": "amenity=school, amenity=college albo landuse=education w zale\u017cno\u015bci od tego, jakie plac\u00f3wki wchodz\u0105 w sk\u0142ad zespo\u0142u. Sprawd\u017a, kiedy stosowa\u0107 amenity=* a kiedy landuse=education.",
                "note": "Children RSPO: 111224;111581"
            }
        },
        {
            "id": 111224,
            "type": "Feature",
            "geometry": {
                "type": "Point",
                "coordinates": [
                    15.79975,
                    53.5267
                ]
            },
            "properties": {
                "ref:rspo": 111224,
                "official_name": "Bursa w Drawsku Pomorskim",
                "name": "Bursa w Drawsku Pomorskim",
                "addr:postcode": "78-500",
                "addr:city": "Drawsko Pomorskie",
                "addr:street": "Warmi\u0144ska",
                "addr:housenumber": "2",
                "addr:city:simc": 949862,
                "addr:street:sym_ul": 23663,
                "phone": "+48 943630051",
                "ref:regon": "321346945",
                "operator": "Powiat Drawski",
                "operator:type": "government",
                "building": "dormitory",
                "note": "Parent RSPO: 3313"
            }
        },
        {
            "id": 111581,
            "type": "Feature",
            "geometry": {
                "type": "Point",
                "coordinates": [
                    15.79975,
                    53.526669999999996
                ]
            },
            "properties": {
                "ref:rspo": 111581,
                "official_name": "Szkolne Schronisko M\u0142odzie\u017cowe Nr 1 w Drawsku Pomorskim",
                "name": "Szkolne Schronisko M\u0142odzie\u017cowe Nr 1 w Drawsku Pomorskim",
                "addr:postcode": "78-500",
                "addr:city": "Drawsko Pomorskie",
                "addr:street": "Warmi\u0144ska",
                "addr:housenumber": "2",
                "addr:city:simc": 949862,
                "addr:street:sym_ul": 23663,
                "phone": "+48 943630051",
                "ref:regon": "321349458",
                "operator": "Powiat Drawski",
                "operator:type": "government",
                "tourism": "hostel",
                "note": "Parent RSPO: 3313"
            }
        },
        {
            "id": 54118,
            "type": "Feature",
            "geometry": {
                "type": "Point",
                "coordinates": [
                    15.82946,
                    53.52678
                ]
            },
            "properties": {
                "isced:level": "3",
                "ref:rspo": 54118,
                "official_name": "Liceum Og\u00f3lnokszta\u0142c\u0105ce im. I Armii Wojska Polskiego",
                "name": "Liceum Og\u00f3lnokszta\u0142c\u0105ce",
                "addr:postcode": "78-500",
                "addr:city": "Drawsko Pomorskie",
                "addr:street": "Z\u0142ocieniecka",
                "addr:housenumber": "25",
                "addr:city:simc": 949862,
                "addr:street:sym_ul": 26182,
                "phone": "+48 943632642",
                "email": "sekretariat@zspdrawsko.dlaedu.pl",
                "website": "http:\/\/zspdrawsko.edupage.org",
                "ref:regon": "000228565",
                "ref:vatin": "PL6741220689",
                "operator": "Powiat Drawski",
                "operator:type": "government",
                "amenity": "school",
                "note": "Parent RSPO: 3869"
            }
        },
        {
            "id": 272591,
            "type": "Feature",
            "geometry": {
                "type": "Point",
                "coordinates": [
                    15.82946,
                    53.52675
                ]
            },
            "properties": {
                "isced:level": "3",
                "ref:rspo": 272591,
                "official_name": "Liceum Og\u00f3lnokszta\u0142c\u0105ce Specjalne",
                "name": "Liceum Og\u00f3lnokszta\u0142c\u0105ce Specjalne",
                "addr:postcode": "78-500",
                "addr:city": "Drawsko Pomorskie",
                "addr:street": "Z\u0142ocieniecka",
                "addr:housenumber": "25",
                "addr:city:simc": 949862,
                "addr:street:sym_ul": 26182,
                "phone": "+48 943671463",
                "email": "sekretariat@zpetbobrowo.dlaedu.pl",
                "website": "http:\/\/www.soswbobrowo.edupage.org",
                "ref:regon": "384270319",
                "operator": "Powiat Drawski",
                "operator:type": "government",
                "amenity": "school",
                "note": "Parent RSPO: 128129"
            }
        },
        {
            "id": 263496,
            "type": "Feature",
            "geometry": {
                "type": "Point",
                "coordinates": [
                    15.80415,
                    53.52836
                ]
            },
            "properties": {
                "isced:level": "1;2",
                "ref:rspo": 263496,
                "official_name": "Szko\u0142a Podstawowa Specjalna Filia w Drawsku Pomorskim",
                "name": "Szko\u0142a Podstawowa Specjalna Filia w Drawsku Pomorskim",
                "addr:postcode": "78-500",
                "addr:city": "Drawsko Pomorskie",
                "addr:street": "Seminaryjna",
                "addr:housenumber": "2",
                "addr:city:simc": 949862,
                "addr:street:sym_ul": 19665,
                "phone": "+48 943425009",
                "email": "sekretariat@zpetbobrowo.dlaedu.pl",
                "website": "http:\/\/www.soswbobrowo.edupage.org",
                "ref:regon": "321298123",
                "operator": "Powiat Drawski",
                "operator:type": "government",
                "amenity": "school",
                "note": "Parent RSPO: 79283"
            }
        },
        {
            "id": 128142,
            "type": "Feature",
            "geometry": {
                "type": "Point",
                "coordinates": [
                    15.80415,
                    53.52833
                ]
            },
            "properties": {
                "ref:rspo": 128142,
                "official_name": "Przedszkole Specjalne w Drawsku Pomorskim",
                "name": "Przedszkole Specjalne w Drawsku Pomorskim",
                "addr:postcode": "78-500",
                "addr:city": "Drawsko Pomorskie",
                "addr:street": "Seminaryjna",
                "addr:housenumber": "2",
                "addr:city:simc": 949862,
                "addr:street:sym_ul": 19665,
                "phone": "+48 943671463",
                "email": "sekretariat@zpetbobrowo.dlaedu.pl",
                "ref:regon": "362120258",
                "operator": "Powiat Drawski",
                "operator:type": "government",
                "amenity": "kindergarten",
                "note": "Parent RSPO: 128129"
            }
        },
        {
            "id": 128143,
            "type": "Feature",
            "geometry": {
                "type": "Point",
                "coordinates": [
                    15.80415,
                    53.5283
                ]
            },
            "properties": {
                "ref:rspo": 128143,
                "official_name": "O\u015brodek Rewalidacyjno-Wychowawczy w Drawsku Pomorskim",
                "name": "O\u015brodek Rewalidacyjno-Wychowawczy w Drawsku Pomorskim",
                "addr:postcode": "78-500",
                "addr:city": "Drawsko Pomorskie",
                "addr:street": "Seminaryjna",
                "addr:housenumber": "2",
                "addr:city:simc": 949862,
                "addr:street:sym_ul": 19665,
                "phone": "+48 943671463",
                "email": "sekretariat@zpetbobrowo.dlaedu.pl",
                "ref:regon": "362119864",
                "operator": "Powiat Drawski",
                "operator:type": "government",
                "amenity": "school",
                "note": "Parent RSPO: 128129"
            }
        },
        {
            "id": 272699,
            "type": "Feature",
            "geometry": {
                "type": "Point",
                "coordinates": [
                    15.80415,
                    53.52827
                ]
            },
            "properties": {
                "isced:level": "3",
                "ref:rspo": 272699,
                "official_name": "Bran\u017cowa Szko\u0142a I Stopnia Specjalna Nr 2",
                "name": "Bran\u017cowa Szko\u0142a I Stopnia Specjalna Nr 2",
                "addr:postcode": "78-500",
                "addr:city": "Drawsko Pomorskie",
                "addr:street": "Seminaryjna",
                "addr:housenumber": "2",
                "addr:city:simc": 949862,
                "addr:street:sym_ul": 19665,
                "phone": "+48 943671463",
                "email": "sekretariat@zpetbobrowo.dlaedu.pl",
                "website": "http:\/\/www.soswbobrowo.edupage.org",
                "ref:regon": "384277333",
                "operator": "Powiat Drawski",
                "operator:type": "government",
                "amenity": "school",
                "note": "Parent RSPO: 128129"
            }
        },
        {
            "id": 53095,
            "type": "Feature",
            "geometry": {
                "type": "Point",
                "coordinates": [
                    15.81195,
                    53.52845
                ]
            },
            "properties": {
                "ref:rspo": 53095,
                "official_name": "Poradnia Psychologiczno-Pedagogiczna",
                "name": "Poradnia Psychologiczno-Pedagogiczna",
                "addr:postcode": "78-500",
                "addr:city": "Drawsko Pomorskie",
                "addr:street": "Obro\u0144c\u00f3w Westerplatte",
                "addr:housenumber": "11",
                "addr:city:simc": 949862,
                "addr:street:sym_ul": 14655,
                "phone": "+48 576658764",
                "email": "ppp.drawsko@poczta.onet.pl",
                "website": "http:\/\/www.poradnia.drawsko.pl",
                "ref:regon": "331351111",
                "ref:vatin": "PL2530118615",
                "operator": "Powiat Drawski",
                "operator:type": "government",
                "healthcare": "counselling",
                "counselling_type": "education",
                "fixme": "w zale\u017cno\u015bci od przedmiotu dzia\u0142alno\u015bci (np. healthcare=counselling + counselling_type=education albo healthcare=psychotherapist)"
            }
        },
        {
            "id": 42062,
            "type": "Feature",
            "geometry": {
                "type": "Point",
                "coordinates": [
                    15.81109,
                    53.52923
                ]
            },
            "properties": {
                "isced:level": "1;2",
                "ref:rspo": 42062,
                "official_name": "Szko\u0142a Podstawowa Nr 1 Im Mjra Henryka Sucharskiego w Drawsku Pomorskim",
                "name": "Szko\u0142a Podstawowa Nr 1 Im Mjra Henryka Sucharskiego w Drawsku Pomorskim",
                "addr:postcode": "78-500",
                "addr:city": "Drawsko Pomorskie",
                "addr:street": "Obro\u0144c\u00f3w Westerplatte",
                "addr:housenumber": "13",
                "addr:city:simc": 949862,
                "addr:street:sym_ul": 14655,
                "phone": "+48 943632312",
                "email": "kontakt@spdrawsko.pl",
                "website": "http:\/\/www.spdrawsko.pl",
                "ref:regon": "001174966",
                "ref:vatin": "PL2530141494",
                "operator": "Gmina Drawsko Pomorskie",
                "operator:type": "government",
                "amenity": "school"
            }
        },
        {
            "id": 66699,
            "type": "Feature",
            "geometry": {
                "type": "Point",
                "coordinates": [
                    15.81398,
                    53.5293599
                ]
            },
            "properties": {
                "ref:rspo": 66699,
                "official_name": "Prywatna Szko\u0142a J\u0119zyk\u00f3w Obcych \"Help\" Kamila Worsowicz",
                "name": "Prywatna Szko\u0142a J\u0119zyk\u00f3w Obcych \"Help\" Kamila Worsowicz",
                "addr:postcode": "78-500",
                "addr:city": "Drawsko Pomorskie",
                "addr:street": "J\u00f3zefa Pi\u0142sudskiego",
                "addr:housenumber": "21",
                "addr:city:simc": 949862,
                "addr:street:sym_ul": 16264,
                "phone": "+48 943636072",
                "ref:regon": "321294059",
                "ref:vatin": "PL4990422988",
                "operator": "Dane Do Uzupe\u0142nienia",
                "operator:type": "private"
            }
        },
        {
            "id": 276735,
            "type": "Feature",
            "geometry": {
                "type": "Point",
                "coordinates": [
                    15.81092,
                    53.53069
                ]
            },
            "properties": {
                "ref:rspo": 276735,
                "official_name": "Przedszkole \"U Cioci Uli\" Urszula Chilko",
                "name": "Przedszkole \"U Cioci Uli\" Urszula Chilko",
                "addr:postcode": "78-500",
                "addr:city": "Drawsko Pomorskie",
                "addr:street": "Ratuszowa",
                "addr:housenumber": "3",
                "addr:city:simc": 949862,
                "addr:street:sym_ul": 18489,
                "email": "ula-chilko@wp.pl",
                "website": "http:\/\/www.przedszkoleuuli.pl",
                "ref:regon": "387441738",
                "operator": "Urszula Chilko",
                "operator:type": "private",
                "amenity": "kindergarten"
            }
        },
        {
            "id": 272701,
            "type": "Feature",
            "geometry": {
                "type": "Point",
                "coordinates": [
                    15.81102,
                    53.53095
                ]
            },
            "properties": {
                "ref:rspo": 272701,
                "official_name": "Przedszkole \"Weso\u0142e Nutki\"",
                "name": "Przedszkole \"Weso\u0142e Nutki\"",
                "addr:postcode": "78-500",
                "addr:city": "Drawsko Pomorskie",
                "addr:street": "Genera\u0142a W\u0142adys\u0142awa Sikorskiego",
                "addr:housenumber": "9u",
                "addr:door": "1",
                "addr:city:simc": 949862,
                "addr:street:sym_ul": 19907,
                "email": "wesole.nutki@o2.pl",
                "ref:regon": "384277400",
                "ref:vatin": "PL2530185215",
                "operator": "Agnieszka Chwastek",
                "operator:type": "private",
                "amenity": "kindergarten"
            }
        },
        {
            "id": 278982,
            "type": "Feature",
            "geometry": {
                "type": "Point",
                "coordinates": [
                    15.81113,
                    53.53099
                ]
            },
            "properties": {
                "ref:rspo": 278982,
                "official_name": "Niepubliczne Przedszkole \"Bajkowa Kraina\" w Drawsku Pomorskim",
                "name": "Niepubliczne Przedszkole \"Bajkowa Kraina\" w Drawsku Pomorskim",
                "addr:postcode": "78-500",
                "addr:city": "Drawsko Pomorskie",
                "addr:street": "Genera\u0142a W\u0142adys\u0142awa Sikorskiego",
                "addr:housenumber": "9",
                "addr:door": "U1",
                "addr:city:simc": 949862,
                "addr:street:sym_ul": 19907,
                "phone": "+48 943632053",
                "email": "przedszkole@bajkowakrainadrawsko.pl",
                "website": "http:\/\/www.bajkowakrainadrawsko.pl",
                "ref:regon": "520344990",
                "ref:vatin": "PL2530071463",
                "operator": "\u0141ukasz Pietrzak",
                "operator:type": "private",
                "amenity": "kindergarten"
            }
        },
        {
            "id": 91288,
            "type": "Feature",
            "geometry": {
                "type": "Point",
                "coordinates": [
                    15.81044,
                    53.53102
                ]
            },
            "properties": {
                "ref:rspo": 91288,
                "official_name": "Zak\u0142ad Doskonalenia Zawodowego w S\u0142upsku O\u015brodek Kszta\u0142cenia Zawodowego w Drawsku Pomorskim",
                "name": "Zak\u0142ad Doskonalenia Zawodowego w S\u0142upsku O\u015brodek Kszta\u0142cenia Zawodowego w Drawsku Pomorskim",
                "addr:postcode": "78-500",
                "addr:city": "Drawsko Pomorskie",
                "addr:street": "Genera\u0142a W\u0142adys\u0142awa Sikorskiego",
                "addr:housenumber": "4",
                "addr:city:simc": 949862,
                "addr:street:sym_ul": 19907,
                "phone": "+48 943632721",
                "ref:regon": "321306319",
                "operator": "Zak\u0142ad Doskonalenia Zawodowego W S\u0142upsku",
                "operator:type": "ngo"
            }
        },
        {
            "id": 66442,
            "type": "Feature",
            "geometry": {
                "type": "Point",
                "coordinates": [
                    15.81221,
                    53.53187
                ]
            },
            "properties": {
                "ref:rspo": 66442,
                "official_name": "\"Bhp-Szkolenia-Obs\u0142uga-Nadz\u00f3r\" J\u00f3zef Choroba",
                "name": "\"Bhp-Szkolenia-Obs\u0142uga-Nadz\u00f3r\" J\u00f3zef Choroba",
                "addr:postcode": "78-500",
                "addr:city": "Drawsko Pomorskie",
                "addr:street": "Sybirak\u00f3w",
                "addr:housenumber": "4",
                "addr:door": "22",
                "addr:city:simc": 949862,
                "addr:street:sym_ul": 21641,
                "phone": "+48 600757862",
                "email": "szkoleniabhp@tlen.pl",
                "ref:regon": "321293628",
                "ref:vatin": "PL6741121266",
                "operator": "J\u00f3zef Choroba",
                "operator:type": "private"
            }
        },
        {
            "id": 42541,
            "type": "Feature",
            "geometry": {
                "type": "Point",
                "coordinates": [
                    15.80928,
                    53.53205
                ]
            },
            "properties": {
                "ref:rspo": 42541,
                "official_name": "Przedszkole w Drawsku Pomorskim",
                "name": "Przedszkole w Drawsku Pomorskim",
                "addr:postcode": "78-500",
                "addr:city": "Drawsko Pomorskie",
                "addr:street": "Obro\u0144c\u00f3w Westerplatte",
                "addr:housenumber": "49",
                "addr:city:simc": 949862,
                "addr:street:sym_ul": 14655,
                "phone": "+48 943632723",
                "email": "przedszkole.drawsko@o2.pl",
                "website": "http:\/\/www.przedszkole-drawsko.edupage.org",
                "ref:regon": "330540726",
                "ref:vatin": "PL2530141525",
                "operator": "Gmina Drawsko Pomorskie",
                "operator:type": "government",
                "amenity": "kindergarten"
            }
        },
        {
            "id": 60268,
            "type": "Feature",
            "geometry": {
                "type": "Point",
                "coordinates": [
                    15.80569,
                    53.53337
                ]
            },
            "properties": {
                "ref:rspo": 60268,
                "official_name": "O\u015brodek Kurs\u00f3w I Szkole\u0144 Przy Europejskim Centrum Edukacji I Turystyki w Drawsku Pomorskim",
                "name": "O\u015brodek Kurs\u00f3w I Szkole\u0144 Przy Europejskim Centrum Edukacji I Turystyki w Drawsku Pomorskim",
                "addr:postcode": "78-500",
                "addr:city": "Drawsko Pomorskie",
                "addr:street": "Gdy\u0144ska",
                "addr:housenumber": "16",
                "addr:city:simc": 949862,
                "addr:street:sym_ul": 5441,
                "phone": "+48 943634706",
                "email": "sekretariat@eceit.pl",
                "ref:regon": "321298695",
                "ref:vatin": "PL6741010816",
                "operator": "Leszek Czubi\u0144ski",
                "operator:type": "private"
            }
        },
        {
            "id": 127312,
            "type": "Feature",
            "geometry": {
                "type": "Point",
                "coordinates": [
                    15.80154,
                    53.53457
                ]
            },
            "properties": {
                "ref:rspo": 127312,
                "official_name": "Niepubliczna Plac\u00f3wka O\u015bwiatowa \"Edukacja\" Mgr Ko\u0142odziej-Wrona Barbara",
                "name": "Niepubliczna Plac\u00f3wka O\u015bwiatowa \"Edukacja\" Mgr Ko\u0142odziej-Wrona Barbara",
                "addr:postcode": "78-500",
                "addr:city": "Drawsko Pomorskie",
                "addr:street": "\u015awi\u0119tokrzyska",
                "addr:housenumber": "8",
                "addr:city:simc": 949862,
                "addr:street:sym_ul": 22552,
                "phone": "+48 504256952",
                "ref:regon": "361336565",
                "operator": "Barbara Ko\u0142odziej - Wrona",
                "operator:type": "private"
            }
        },
        {
            "id": 66517,
            "type": "Feature",
            "geometry": {
                "type": "Point",
                "coordinates": [
                    15.8095,
                    53.5364999
                ]
            },
            "properties": {
                "ref:rspo": 66517,
                "official_name": "Tompol-Biuro Bezpiecze\u0144stwa I Higieny Pracy Tomasz Wrona",
                "name": "Tompol-Biuro Bezpiecze\u0144stwa I Higieny Pracy Tomasz Wrona",
                "addr:postcode": "78-500",
                "addr:city": "Drawsko Pomorskie",
                "addr:street": "Boles\u0142awa Prusa",
                "addr:housenumber": "5",
                "addr:door": "35",
                "addr:city:simc": 949862,
                "addr:street:sym_ul": 17577,
                "phone": "+48 504256929",
                "ref:regon": "321293657",
                "ref:vatin": "PL2530050484",
                "operator": "Dane Do Uzupe\u0142nienia",
                "operator:type": "private"
            }
        },
        {
            "id": 72743,
            "type": "Feature",
            "geometry": {
                "type": "Point",
                "coordinates": [
                    15.81521,
                    53.54379
                ]
            },
            "properties": {
                "ref:rspo": 72743,
                "official_name": "Centrum Nauki J\u0119zyka Angielskiego \"Rainbow School Of English\" Joanna Pedrycz",
                "name": "Centrum Nauki J\u0119zyka Angielskiego \"Rainbow School Of English\" Joanna Pedrycz",
                "addr:postcode": "78-500",
                "addr:city": "Drawsko Pomorskie",
                "addr:street": "Po\u0142czy\u0144ska",
                "addr:housenumber": "2c",
                "addr:city:simc": 949862,
                "addr:street:sym_ul": 17059,
                "phone": "+48 606266408",
                "ref:regon": "321298057",
                "ref:vatin": "PL2530022855",
                "operator": "Dane Do Uzupe\u0142nienia",
                "operator:type": "private"
            }
        },
        {
            "id": 3869,
            "type": "Feature",
            "geometry": {
                "type": "Point",
                "coordinates": [
                    15.82177,
                    53.55033
                ]
            },
            "properties": {
                "ref:rspo": 3869,
                "official_name": "Zesp\u00f3\u0142 Szk\u00f3\u0142",
                "name": "Zesp\u00f3\u0142 Szk\u00f3\u0142",
                "addr:postcode": "78-500",
                "addr:city": "Drawsko Pomorskie",
                "addr:street": "Po\u0142czy\u0144ska",
                "addr:housenumber": "7",
                "addr:city:simc": 949862,
                "addr:street:sym_ul": 17059,
                "phone": "+48 943632642",
                "email": "sekretariat@zspdrawsko.dlaedu.pl",
                "website": "http:\/\/zspdrawsko.edupage.org",
                "ref:regon": "321262190",
                "ref:vatin": "PL2530333236",
                "operator": "Powiat Drawski",
                "operator:type": "government",
                "landuse": "education",
                "fixme": "amenity=school, amenity=college albo landuse=education w zale\u017cno\u015bci od tego, jakie plac\u00f3wki wchodz\u0105 w sk\u0142ad zespo\u0142u. Sprawd\u017a, kiedy stosowa\u0107 amenity=* a kiedy landuse=education.",
                "note": "Children RSPO: 7644;54118;54339;55235;56264"
            }
        },
        {
            "id": 7644,
            "type": "Feature",
            "geometry": {
                "type": "Point",
                "coordinates": [
                    15.82177,
                    53.5503
                ]
            },
            "properties": {
                "isced:level": "3",
                "ref:rspo": 7644,
                "official_name": "Technikum",
                "name": "Technikum",
                "addr:postcode": "78-500",
                "addr:city": "Drawsko Pomorskie",
                "addr:street": "Po\u0142czy\u0144ska",
                "addr:housenumber": "7",
                "addr:city:simc": 949862,
                "addr:street:sym_ul": 17059,
                "phone": "+48 943632642",
                "email": "sekretariat@zspdrawsko.dlaedu.pl",
                "website": "http:\/\/zspdrawsko.edupage.org",
                "ref:regon": "321268582",
                "ref:vatin": "PL2530333182",
                "operator": "Powiat Drawski",
                "operator:type": "government",
                "amenity": "school",
                "note": "Parent RSPO: 3869"
            }
        },
        {
            "id": 54339,
            "type": "Feature",
            "geometry": {
                "type": "Point",
                "coordinates": [
                    15.82177,
                    53.550270000000005
                ]
            },
            "properties": {
                "isced:level": "3",
                "ref:rspo": 54339,
                "official_name": "Bran\u017cowa Szko\u0142a I Stopnia",
                "name": "Bran\u017cowa Szko\u0142a I Stopnia",
                "addr:postcode": "78-500",
                "addr:city": "Drawsko Pomorskie",
                "addr:street": "Po\u0142czy\u0144ska",
                "addr:housenumber": "7",
                "addr:city:simc": 949862,
                "addr:street:sym_ul": 17059,
                "phone": "+48 943632642",
                "email": "sekretariat@zspdrawsko.dlaedu.pl",
                "website": "http:\/\/zspdrawsko.edupage.org",
                "ref:regon": "331357243",
                "ref:vatin": "PL2530333199",
                "operator": "Powiat Drawski",
                "operator:type": "government",
                "amenity": "school",
                "note": "Parent RSPO: 3869"
            }
        },
        {
            "id": 55235,
            "type": "Feature",
            "geometry": {
                "type": "Point",
                "coordinates": [
                    15.82177,
                    53.55024
                ]
            },
            "properties": {
                "isced:level": "4",
                "ref:rspo": 55235,
                "official_name": "Szko\u0142a Policealna",
                "name": "Szko\u0142a Policealna",
                "addr:postcode": "78-500",
                "addr:city": "Drawsko Pomorskie",
                "addr:street": "Po\u0142czy\u0144ska",
                "addr:housenumber": "7",
                "addr:city:simc": 949862,
                "addr:street:sym_ul": 17059,
                "phone": "+48 943632642",
                "ref:regon": "321289578",
                "ref:vatin": "PL2530333242",
                "operator": "Powiat Drawski",
                "operator:type": "government",
                "amenity": "college",
                "note": "Parent RSPO: 3869"
            }
        },
        {
            "id": 56264,
            "type": "Feature",
            "geometry": {
                "type": "Point",
                "coordinates": [
                    15.82177,
                    53.55021
                ]
            },
            "properties": {
                "isced:level": "3",
                "ref:rspo": 56264,
                "official_name": "Bran\u017cowa Szko\u0142a I Stopnia Specjalna",
                "name": "Bran\u017cowa Szko\u0142a I Stopnia Specjalna",
                "addr:postcode": "78-500",
                "addr:city": "Drawsko Pomorskie",
                "addr:street": "Po\u0142czy\u0144ska",
                "addr:housenumber": "7",
                "addr:city:simc": 949862,
                "addr:street:sym_ul": 17059,
                "phone": "+48 943632642",
                "email": "sekretariat@zspdrawsko.dlaedu.pl",
                "website": "http:\/\/zspdrawsko.edupage.org",
                "ref:regon": "331357250",
                "ref:vatin": "PL2530333207",
                "operator": "Powiat Drawski",
                "operator:type": "government",
                "amenity": "school",
                "note": "Parent RSPO: 3869"
            }
        },
        {
            "id": 42059,
            "type": "Feature",
            "geometry": {
                "type": "Point",
                "coordinates": [
                    15.812394,
                    53.61833
                ]
            },
            "properties": {
                "isced:level": "1;2",
                "ref:rspo": 42059,
                "official_name": "Szko\u0142a Podstawowa im.jana Paw\u0142a II w N\u0119tnie",
                "name": "Szko\u0142a Podstawowa im.jana Paw\u0142a II w N\u0119tnie",
                "addr:postcode": "78-500",
                "addr:place": "N\u0119tno",
                "addr:housenumber": "38",
                "addr:city:simc": 305768,
                "phone": "+48 943611322",
                "email": "sekretariat@spnetno.dlaedu.pl",
                "website": "http:\/\/www.spnetno.szkolnastrona.pl",
                "ref:regon": "001175010",
                "ref:vatin": "PL2530142281",
                "operator": "Gmina Drawsko Pomorskie",
                "operator:type": "government",
                "amenity": "school"
            }
        },
        {
            "id": 92340,
            "type": "Feature",
            "geometry": {
                "type": "Point",
                "coordinates": [
                    15.9796709,
                    53.640502
                ]
            },
            "properties": {
                "isced:level": "1;2",
                "ref:rspo": 92340,
                "official_name": "Szko\u0142a Podstawowa w Ostrowicach",
                "name": "Szko\u0142a Podstawowa w Ostrowicach",
                "addr:postcode": "78-506",
                "addr:place": "Ostrowice",
                "addr:housenumber": "3",
                "addr:city:simc": 308590,
                "phone": "+48 943615293",
                "email": "sekretariat@szkolaostrowice.pl",
                "website": "http:\/\/spostrowice3.edupage.org",
                "ref:regon": "331061353",
                "ref:vatin": "PL2530052359",
                "operator": "Gmina Drawsko Pomorskie",
                "operator:type": "government",
                "amenity": "school"
            }
        },
        {
            "id": 124895,
            "type": "Feature",
            "geometry": {
                "type": "Point",
                "coordinates": [
                    15.9796709,
                    53.640471999999995
                ]
            },
            "properties": {
                "ref:rspo": 124895,
                "official_name": "Punkt Przedszkolny w Ostrowicach",
                "name": "Punkt Przedszkolny w Ostrowicach",
                "addr:postcode": "78-506",
                "addr:place": "Ostrowice",
                "addr:housenumber": "3",
                "addr:city:simc": 308590,
                "phone": "+48 943615293",
                "email": "zsostrowice@poczta.onet.pl",
                "ref:regon": "321570720",
                "operator": "Gmina Drawsko Pomorskie",
                "operator:type": "government",
                "amenity": "kindergarten"
            }
        }
    ]
}