{
    "type": "FeatureCollection",
    "features": [
        {
            "id": 53097,
            "type": "Feature",
            "geometry": {
                "type": "Point",
                "coordinates": [
                    16.3053083,
                    53.5049783
                ]
            },
            "properties": {
                "ref:rspo": 53097,
                "official_name": "Salezja\u0144ski O\u015brodek Wychowawczy",
                "name": "Salezja\u0144ski O\u015brodek Wychowawczy",
                "addr:country": "PL",
                "addr:postcode": "78-550",
                "addr:place": "Trzciniec",
                "addr:housenumber": "25",
                "addr:teryt:sym_ul": 305142,
                "contact:phone": "+48 943758726",
                "contact:email": "mow-46@wp.pl",
                "contact:website": "http:\/\/trzciniec.esalezjanie.pl",
                "ref:regon": "321296733",
                "ref:vatin": "PL6741084476",
                "operator": "Towarzystwo Salezja\u0144skie Inspektoria P.w. \u015aw. Wojciecha",
                "operator:type": "religious",
                "fixme": "amenity=social_facility + social_facility=group_home + social_facility:for=juvenile",
                "note": "Children RSPO: 263781;267905"
            }
        },
        {
            "id": 91183,
            "type": "Feature",
            "geometry": {
                "type": "Point",
                "coordinates": [
                    16.3053083,
                    53.504948299999995
                ]
            },
            "properties": {
                "ref:rspo": 91183,
                "official_name": "Bursa Towarzystwa Salezja\u0144skiego",
                "name": "Bursa Towarzystwa Salezja\u0144skiego",
                "addr:country": "PL",
                "addr:postcode": "78-550",
                "addr:place": "Trzciniec",
                "addr:housenumber": "26",
                "addr:teryt:sym_ul": 305142,
                "contact:phone": "+48 943758743",
                "ref:regon": "321306874",
                "operator": "Towarzystwo Salezja\u0144skie Inspektoria P.w. \u015aw. Wojciecha",
                "operator:type": "religious",
                "building": "dormitory"
            }
        },
        {
            "id": 263781,
            "type": "Feature",
            "geometry": {
                "type": "Point",
                "coordinates": [
                    16.3053083,
                    53.5049183
                ]
            },
            "properties": {
                "isced:level": "1;2",
                "ref:rspo": 263781,
                "official_name": "Szko\u0142a Podstawowa Specjalna",
                "name": "Szko\u0142a Podstawowa Specjalna",
                "addr:country": "PL",
                "addr:postcode": "78-550",
                "addr:place": "Trzciniec",
                "addr:housenumber": "25",
                "addr:teryt:sym_ul": 305142,
                "contact:phone": "+48 943758726",
                "contact:email": "mow-46@wp.pl",
                "contact:website": "http:\/\/www.trzciniec.esalezjanie.pl",
                "ref:regon": "368221440",
                "ref:vatin": "PL2530052098",
                "operator": "Towarzystwo Salezja\u0144skie Inspektoria P.w. \u015aw. Wojciecha",
                "operator:type": "religious",
                "amenity": "school",
                "note": "Parent RSPO: 53097"
            }
        },
        {
            "id": 267905,
            "type": "Feature",
            "geometry": {
                "type": "Point",
                "coordinates": [
                    16.3053083,
                    53.5048883
                ]
            },
            "properties": {
                "isced:level": "3",
                "ref:rspo": 267905,
                "official_name": "Specjalna Szko\u0142a Bran\u017cowa I Stopnia Towarzystwa Salezja\u0144skiego im.\u015bw. Jana Bosko w Trzci\u0144cu",
                "name": "Specjalna Szko\u0142a Bran\u017cowa I Stopnia Towarzystwa Salezja\u0144skiego im.\u015bw. Jana Bosko w Trzci\u0144cu",
                "addr:country": "PL",
                "addr:postcode": "78-550",
                "addr:place": "Trzciniec",
                "addr:housenumber": "25",
                "addr:teryt:sym_ul": 305142,
                "contact:phone": "+48 943758726",
                "contact:email": "mow-46@wp.pl",
                "ref:regon": "380742997",
                "operator": "Towarzystwo Salezja\u0144skie Inspektoria P.w. \u015aw. Wojciecha",
                "operator:type": "religious",
                "amenity": "school",
                "note": "Parent RSPO: 53097"
            }
        },
        {
            "id": 53063,
            "type": "Feature",
            "geometry": {
                "type": "Point",
                "coordinates": [
                    16.3106124,
                    53.5234755
                ]
            },
            "properties": {
                "isced:level": "1;2",
                "ref:rspo": 53063,
                "official_name": "Szko\u0142a Podstawowa w Broczynie",
                "name": "Szko\u0142a Podstawowa w Broczynie",
                "addr:country": "PL",
                "addr:postcode": "78-553",
                "addr:place": "Broczyno",
                "addr:housenumber": "73",
                "addr:teryt:sym_ul": 304728,
                "contact:phone": "+48 943758718",
                "contact:email": "szkolabroczyno@wp.pl",
                "contact:website": "http:\/\/www.spbroczyno.edupage.org",
                "ref:regon": "001174788",
                "ref:vatin": "PL6741008937",
                "operator": "Gmina Czaplinek",
                "operator:type": "government",
                "amenity": "school"
            }
        },
        {
            "id": 53065,
            "type": "Feature",
            "geometry": {
                "type": "Point",
                "coordinates": [
                    16.2358,
                    53.55365
                ]
            },
            "properties": {
                "ref:rspo": 53065,
                "official_name": "Przedszkole Publiczne w Czaplinku",
                "name": "Przedszkole Publiczne w Czaplinku",
                "addr:country": "PL",
                "addr:postcode": "78-550",
                "addr:city": "Czaplinek",
                "addr:street": "Grunwaldzka",
                "addr:housenumber": "5b",
                "addr:teryt:simc": 6260,
                "addr:teryt:sym_ul": 949810,
                "contact:phone": "+48 943755103",
                "contact:email": "przedszkole.czaplinek@onet.pl",
                "contact:website": "http:\/\/www.przedszkolewczaplinku.jimdo.com",
                "ref:regon": "320936159",
                "ref:vatin": "PL2530322540",
                "operator": "Gmina Czaplinek",
                "operator:type": "government",
                "amenity": "kindergarten"
            }
        },
        {
            "id": 53086,
            "type": "Feature",
            "geometry": {
                "type": "Point",
                "coordinates": [
                    16.23414,
                    53.55464
                ]
            },
            "properties": {
                "ref:rspo": 53086,
                "official_name": "Zesp\u00f3\u0142 Szk\u00f3\u0142",
                "name": "Zesp\u00f3\u0142 Szk\u00f3\u0142",
                "addr:country": "PL",
                "addr:postcode": "78-550",
                "addr:city": "Czaplinek",
                "addr:street": "Grunwaldzka",
                "addr:housenumber": "1",
                "addr:teryt:simc": 6260,
                "addr:teryt:sym_ul": 949810,
                "contact:phone": "+48 943755265",
                "contact:email": "sekretariat@zsczaplinek.edu.pl",
                "contact:website": "http:\/\/www.zspczaplinek.edu.pl",
                "ref:regon": "331284461",
                "ref:vatin": "PL2530104820",
                "operator": "Powiat Drawski",
                "operator:type": "government",
                "landuse": "education",
                "fixme": "amenity=school, amenity=college albo landuse=education w zale\u017cno\u015bci od tego, jakie plac\u00f3wki wchodz\u0105 w sk\u0142ad zespo\u0142u. Sprawd\u017a, kiedy stosowa\u0107 amenity=* a kiedy landuse=education.",
                "note": "Children RSPO: 86042;86170;86194;118457;122207"
            }
        },
        {
            "id": 53093,
            "type": "Feature",
            "geometry": {
                "type": "Point",
                "coordinates": [
                    16.23414,
                    53.55461
                ]
            },
            "properties": {
                "isced:level": "4",
                "ref:rspo": 53093,
                "official_name": "Prywatna Szko\u0142a Policealna \"Edukacja\"",
                "name": "Prywatna Szko\u0142a Policealna \"Edukacja\"",
                "addr:country": "PL",
                "addr:postcode": "78-500",
                "addr:city": "Czaplinek",
                "addr:street": "Grunwaldzka",
                "addr:housenumber": "1",
                "addr:teryt:simc": 6260,
                "addr:teryt:sym_ul": 949810,
                "contact:phone": "+48 943755992",
                "contact:email": "jk1945@o2.pl",
                "contact:website": "http:\/\/www.edukacjaczaplinek.pl",
                "ref:regon": "321296779",
                "ref:vatin": "PL6741128191",
                "operator": "Halina Kaniewska",
                "operator:type": "private",
                "amenity": "college"
            }
        },
        {
            "id": 61796,
            "type": "Feature",
            "geometry": {
                "type": "Point",
                "coordinates": [
                    16.23414,
                    53.55458
                ]
            },
            "properties": {
                "isced:level": "3",
                "ref:rspo": 61796,
                "official_name": "Prywatne Liceum Og\u00f3lnokszta\u0142c\u0105ce \"Edukacja\"",
                "name": "Prywatne Liceum Og\u00f3lnokszta\u0142c\u0105ce \"Edukacja\"",
                "addr:country": "PL",
                "addr:postcode": "78-550",
                "addr:city": "Czaplinek",
                "addr:street": "Grunwaldzka",
                "addr:housenumber": "1",
                "addr:teryt:simc": 6260,
                "addr:teryt:sym_ul": 949810,
                "contact:phone": "+48 943755265",
                "contact:email": "jk1945@o2.pl",
                "contact:website": "http:\/\/edukacjaczaplinek.pl",
                "ref:regon": "321298229",
                "ref:vatin": "PL6741128191",
                "operator": "Halina Kaniewska",
                "operator:type": "private",
                "amenity": "school"
            }
        },
        {
            "id": 86170,
            "type": "Feature",
            "geometry": {
                "type": "Point",
                "coordinates": [
                    16.23414,
                    53.55455
                ]
            },
            "properties": {
                "isced:level": "3",
                "ref:rspo": 86170,
                "official_name": "Bran\u017cowa Szko\u0142a I Stopnia im. Stefana Czarnieckiego",
                "name": "Bran\u017cowa Szko\u0142a I Stopnia",
                "addr:country": "PL",
                "addr:postcode": "78-550",
                "addr:city": "Czaplinek",
                "addr:street": "Grunwaldzka",
                "addr:housenumber": "1",
                "addr:teryt:simc": 6260,
                "addr:teryt:sym_ul": 949810,
                "contact:phone": "+48 943755265",
                "contact:email": "sekretariat@zsczaplinek.edu.pl",
                "contact:website": "http:\/\/www.zspczaplinek.edu.pl",
                "ref:regon": "331356350",
                "operator": "Powiat Drawski",
                "operator:type": "government",
                "amenity": "school",
                "note": "Parent RSPO: 53086"
            }
        },
        {
            "id": 86194,
            "type": "Feature",
            "geometry": {
                "type": "Point",
                "coordinates": [
                    16.23414,
                    53.55452
                ]
            },
            "properties": {
                "isced:level": "3",
                "ref:rspo": 86194,
                "official_name": "Bran\u017cowa Szko\u0142a I Stopnia Specjalna Nr 1",
                "name": "Bran\u017cowa Szko\u0142a I Stopnia Specjalna Nr 1",
                "addr:country": "PL",
                "addr:postcode": "78-550",
                "addr:city": "Czaplinek",
                "addr:street": "Grunwaldzka",
                "addr:housenumber": "1",
                "addr:teryt:simc": 6260,
                "addr:teryt:sym_ul": 949810,
                "contact:phone": "+48 943755265",
                "contact:email": "sekretariat@zspczaplinek.edu.pl",
                "contact:website": "http:\/\/www.zspczaplinek.edu.pl",
                "ref:regon": "331356404",
                "operator": "Powiat Drawski",
                "operator:type": "government",
                "amenity": "school",
                "note": "Parent RSPO: 53086"
            }
        },
        {
            "id": 118457,
            "type": "Feature",
            "geometry": {
                "type": "Point",
                "coordinates": [
                    16.23414,
                    53.55449
                ]
            },
            "properties": {
                "isced:level": "3",
                "ref:rspo": 118457,
                "official_name": "Technikum w Czaplinku",
                "name": "Technikum w Czaplinku",
                "addr:country": "PL",
                "addr:postcode": "78-550",
                "addr:city": "Czaplinek",
                "addr:street": "Grunwaldzka",
                "addr:housenumber": "1",
                "addr:teryt:simc": 6260,
                "addr:teryt:sym_ul": 949810,
                "contact:phone": "+48 943655265",
                "contact:email": "sekretariat@zsczaplinek.edu.pl",
                "contact:website": "http:\/\/www.zspczaplinek.edu.pl",
                "ref:regon": "321408770",
                "operator": "Powiat Drawski",
                "operator:type": "government",
                "amenity": "school",
                "note": "Parent RSPO: 53086"
            }
        },
        {
            "id": 3310,
            "type": "Feature",
            "geometry": {
                "type": "Point",
                "coordinates": [
                    16.23251,
                    53.55478
                ]
            },
            "properties": {
                "ref:rspo": 3310,
                "official_name": "M\u0142odzie\u017cowy O\u015brodek Wychowawczy",
                "name": "M\u0142odzie\u017cowy O\u015brodek Wychowawczy",
                "addr:country": "PL",
                "addr:postcode": "78-550",
                "addr:city": "Czaplinek",
                "addr:street": "P\u0142awie\u0144ska",
                "addr:housenumber": "4-6",
                "addr:teryt:simc": 16498,
                "addr:teryt:sym_ul": 949810,
                "contact:phone": "+48 943751550",
                "contact:email": "mow.czaplinek@wp.pl",
                "contact:website": "http:\/\/www.mow.czaplinek.pl",
                "ref:regon": "321260528",
                "ref:vatin": "PL2530333259",
                "operator": "Powiat Drawski",
                "operator:type": "government",
                "fixme": "amenity=social_facility + social_facility=group_home + social_facility:for=juvenile",
                "note": "Children RSPO: 7838;263385"
            }
        },
        {
            "id": 7838,
            "type": "Feature",
            "geometry": {
                "type": "Point",
                "coordinates": [
                    16.23251,
                    53.55475
                ]
            },
            "properties": {
                "isced:level": "3",
                "ref:rspo": 7838,
                "official_name": "Bran\u017cowa Szko\u0142a I Stopnia Specjalna Nr 2",
                "name": "Bran\u017cowa Szko\u0142a I Stopnia Specjalna Nr 2",
                "addr:country": "PL",
                "addr:postcode": "78-550",
                "addr:city": "Czaplinek",
                "addr:street": "P\u0142awie\u0144ska",
                "addr:housenumber": "4-6",
                "addr:teryt:simc": 16498,
                "addr:teryt:sym_ul": 949810,
                "contact:phone": "+48 943751550",
                "contact:email": "mow.czaplinek@wp.pl",
                "contact:website": "http:\/\/www.mow.czaplinek.pl",
                "ref:regon": "321268910",
                "operator": "Powiat Drawski",
                "operator:type": "government",
                "amenity": "school",
                "note": "Parent RSPO: 3310"
            }
        },
        {
            "id": 263385,
            "type": "Feature",
            "geometry": {
                "type": "Point",
                "coordinates": [
                    16.23251,
                    53.55472
                ]
            },
            "properties": {
                "isced:level": "1;2",
                "ref:rspo": 263385,
                "official_name": "Szko\u0142a Podstawowa Specjalna",
                "name": "Szko\u0142a Podstawowa Specjalna",
                "addr:country": "PL",
                "addr:postcode": "78-550",
                "addr:city": "Czaplinek",
                "addr:street": "P\u0142awie\u0144ska",
                "addr:housenumber": "4-6",
                "addr:teryt:simc": 16498,
                "addr:teryt:sym_ul": 949810,
                "contact:phone": "+48 943751550",
                "contact:email": "mow.czaplinek@wp.pl",
                "contact:website": "http:\/\/www.mow.czaplinek.pl",
                "ref:regon": "368185454",
                "operator": "Powiat Drawski",
                "operator:type": "government",
                "amenity": "school",
                "note": "Parent RSPO: 3310"
            }
        },
        {
            "id": 53062,
            "type": "Feature",
            "geometry": {
                "type": "Point",
                "coordinates": [
                    16.2372233,
                    53.5550097
                ]
            },
            "properties": {
                "isced:level": "1;2",
                "ref:rspo": 53062,
                "official_name": "Szko\u0142a Podstawowa w Czaplinku",
                "name": "Szko\u0142a Podstawowa w Czaplinku",
                "addr:country": "PL",
                "addr:postcode": "78-550",
                "addr:city": "Czaplinek",
                "addr:street": "Wa\u0142ecka",
                "addr:housenumber": "49",
                "addr:teryt:simc": 23584,
                "addr:teryt:sym_ul": 949810,
                "contact:phone": "+48 943755655",
                "contact:email": "sp-czaplinek@wp.pl",
                "contact:website": "http:\/\/www.spczaplinek.edupage.org",
                "ref:regon": "330014311",
                "ref:vatin": "PL6741008937",
                "operator": "Gmina Czaplinek",
                "operator:type": "government",
                "amenity": "school"
            }
        },
        {
            "id": 124036,
            "type": "Feature",
            "geometry": {
                "type": "Point",
                "coordinates": [
                    16.23167,
                    53.5599599
                ]
            },
            "properties": {
                "ref:rspo": 124036,
                "official_name": "O\u015brodek Rehabilitacyjno-Edukacyjno-Wychowawczy w Czaplinku",
                "name": "O\u015brodek Rehabilitacyjno-Edukacyjno-Wychowawczy w Czaplinku",
                "addr:country": "PL",
                "addr:postcode": "78-550",
                "addr:city": "Czaplinek",
                "addr:street": "Genera\u0142a W\u0142adys\u0142awa Sikorskiego",
                "addr:housenumber": "25",
                "addr:teryt:simc": 19907,
                "addr:teryt:sym_ul": 949810,
                "contact:phone": "+48 943070124",
                "ref:regon": "321558624",
                "ref:vatin": "PL6731788371",
                "operator": "Instytut Kszta\u0142cenia Kadr W Likwidacji",
                "operator:type": "ngo",
                "amenity": "school"
            }
        },
        {
            "id": 132258,
            "type": "Feature",
            "geometry": {
                "type": "Point",
                "coordinates": [
                    16.23167,
                    53.5599299
                ]
            },
            "properties": {
                "ref:rspo": 132258,
                "official_name": "O\u015brodek Rehabilitacyjno-Edukacyjno-Wychowawczy \"Ja\u015b I Ma\u0142gosia\" w Czaplinku",
                "name": "O\u015brodek Rehabilitacyjno-Edukacyjno-Wychowawczy \"Ja\u015b I Ma\u0142gosia\" w Czaplinku",
                "addr:country": "PL",
                "addr:postcode": "78-550",
                "addr:city": "Czaplinek",
                "addr:street": "Genera\u0142a W\u0142adys\u0142awa Sikorskiego",
                "addr:housenumber": "25",
                "addr:teryt:simc": 19907,
                "addr:teryt:sym_ul": 949810,
                "contact:phone": "+48 503395265",
                "ref:regon": "365522299",
                "ref:vatin": "PL6731898622",
                "operator": "\"Ja\u015b I Ma\u0142gosia\" Szko\u0142y I Plac\u00f3wki Terapeutyczne",
                "operator:type": "ngo",
                "amenity": "school"
            }
        },
        {
            "id": 53066,
            "type": "Feature",
            "geometry": {
                "type": "Point",
                "coordinates": [
                    16.2319,
                    53.56103
                ]
            },
            "properties": {
                "ref:rspo": 53066,
                "official_name": "Niepubliczne Przedszkole Si\u00f3str Salezjanek",
                "name": "Niepubliczne Przedszkole Si\u00f3str Salezjanek",
                "addr:country": "PL",
                "addr:postcode": "78-550",
                "addr:city": "Czaplinek",
                "addr:street": "Stanis\u0142awa Moniuszki",
                "addr:housenumber": "28",
                "addr:teryt:simc": 13242,
                "addr:teryt:sym_ul": 949810,
                "contact:phone": "+48 943755450",
                "contact:email": "czaplinekp@cmw.osw.pl",
                "ref:regon": "321298175",
                "ref:vatin": "PL2530000368",
                "operator": "Zgromadzenie C\u00f3rek Maryi Wspomo\u017cycielki (Siostry Salezjanki) Inspektoria Wroc\u0142awska",
                "operator:type": "religious",
                "amenity": "kindergarten"
            }
        },
        {
            "id": 119857,
            "type": "Feature",
            "geometry": {
                "type": "Point",
                "coordinates": [
                    16.22852,
                    53.56115
                ]
            },
            "properties": {
                "ref:rspo": 119857,
                "official_name": "Niepubliczna Poradnia Psychologiczno-Pedagogiczna \"Ja\u015b I Ma\u0142gosia\"",
                "name": "Niepubliczna Poradnia Psychologiczno-Pedagogiczna \"Ja\u015b I Ma\u0142gosia\"",
                "addr:country": "PL",
                "addr:postcode": "78-550",
                "addr:city": "Czaplinek",
                "addr:street": "D\u0142uga",
                "addr:housenumber": "65",
                "addr:teryt:simc": 3839,
                "addr:teryt:sym_ul": 949810,
                "contact:phone": "+48 943070124",
                "ref:regon": "321424875",
                "operator": "\"Ja\u015b I Ma\u0142gosia\" Szko\u0142y I Plac\u00f3wki Terapeutyczne",
                "operator:type": "ngo",
                "healthcare": "counselling",
                "counselling_type": "education",
                "fixme": "w zale\u017cno\u015bci od przedmiotu dzia\u0142alno\u015bci (np. healthcare=counselling + counselling_type=education albo healthcare=psychotherapist)"
            }
        },
        {
            "id": 272762,
            "type": "Feature",
            "geometry": {
                "type": "Point",
                "coordinates": [
                    16.23215,
                    53.56269
                ]
            },
            "properties": {
                "ref:rspo": 272762,
                "official_name": "Niepubliczne Przedszkole Bajkowo",
                "name": "Niepubliczne Przedszkole Bajkowo",
                "addr:country": "PL",
                "addr:postcode": "78-550",
                "addr:city": "Czaplinek",
                "addr:street": "S\u0142oneczna",
                "addr:housenumber": "27a",
                "addr:teryt:simc": 20254,
                "addr:teryt:sym_ul": 949810,
                "contact:phone": "+48 609556751",
                "contact:email": "anna-proniuk@wp.pl",
                "contact:website": "http:\/\/www.bajkowoczaplinek.wordpress.com",
                "ref:regon": "384284570",
                "ref:vatin": "PL8431421325",
                "operator": "Anna Proniuk",
                "operator:type": "private",
                "amenity": "kindergarten"
            }
        },
        {
            "id": 53067,
            "type": "Feature",
            "geometry": {
                "type": "Point",
                "coordinates": [
                    16.23411,
                    53.56482
                ]
            },
            "properties": {
                "ref:rspo": 53067,
                "official_name": "Niepubliczne Przedszkole \"Edukacja\"",
                "name": "Niepubliczne Przedszkole \"Edukacja\"",
                "addr:country": "PL",
                "addr:postcode": "78-550",
                "addr:city": "Czaplinek",
                "addr:street": "Akacjowa",
                "addr:housenumber": "6",
                "addr:teryt:simc": 157,
                "addr:teryt:sym_ul": 949810,
                "contact:phone": "+48 606483438",
                "contact:email": "edukacjaczaplinek@gmail.com",
                "contact:website": "http:\/\/edukacjaczaplinek.pl",
                "ref:regon": "321296756",
                "ref:vatin": "PL6741128191",
                "operator": "Halina Kaniewska",
                "operator:type": "private",
                "amenity": "kindergarten"
            }
        },
        {
            "id": 86042,
            "type": "Feature",
            "geometry": {
                "type": "Point",
                "coordinates": [
                    16.22908,
                    53.56864
                ]
            },
            "properties": {
                "isced:level": "3",
                "ref:rspo": 86042,
                "official_name": "Liceum Og\u00f3lnokszta\u0142c\u0105ce im. 3 Dywizji Strzelc\u00f3w Karpackich w Czaplinku",
                "name": "Liceum Og\u00f3lnokszta\u0142c\u0105ce",
                "addr:country": "PL",
                "addr:postcode": "78-550",
                "addr:city": "Czaplinek",
                "addr:street": "Parkowa",
                "addr:housenumber": "2",
                "addr:teryt:simc": 15710,
                "addr:teryt:sym_ul": 949810,
                "contact:phone": "+48 943755265",
                "contact:email": "sekretariat@zsczaplinek.edu.pl",
                "contact:website": "http:\/\/www.zsczaplinek.edu.pl",
                "ref:regon": "331356338",
                "operator": "Powiat Drawski",
                "operator:type": "government",
                "amenity": "school",
                "note": "Parent RSPO: 53086"
            }
        },
        {
            "id": 122207,
            "type": "Feature",
            "geometry": {
                "type": "Point",
                "coordinates": [
                    16.22908,
                    53.56861
                ]
            },
            "properties": {
                "ref:rspo": 122207,
                "official_name": "Szkolne Schronisko M\u0142odzie\u017cowe",
                "name": "Szkolne Schronisko M\u0142odzie\u017cowe",
                "addr:country": "PL",
                "addr:postcode": "78-550",
                "addr:city": "Czaplinek",
                "addr:street": "Parkowa",
                "addr:housenumber": "2",
                "addr:teryt:simc": 15710,
                "addr:teryt:sym_ul": 949810,
                "contact:phone": "+48 943755265",
                "ref:regon": "321487924",
                "operator": "Powiat Drawski",
                "operator:type": "government",
                "tourism": "hostel",
                "note": "Parent RSPO: 53086"
            }
        },
        {
            "id": 268009,
            "type": "Feature",
            "geometry": {
                "type": "Point",
                "coordinates": [
                    16.22908,
                    53.568580000000004
                ]
            },
            "properties": {
                "isced:level": "1;2",
                "ref:rspo": 268009,
                "official_name": "Szko\u0142a Podstawowa Specjalna Filia w Czaplinku",
                "name": "Szko\u0142a Podstawowa Specjalna Filia w Czaplinku",
                "addr:country": "PL",
                "addr:postcode": "78-550",
                "addr:city": "Czaplinek",
                "addr:street": "Parkowa",
                "addr:housenumber": "2",
                "addr:teryt:simc": 15710,
                "addr:teryt:sym_ul": 949810,
                "contact:email": "sekretariat@zpetbobrowo.dlaedu.pl",
                "contact:website": "http:\/\/www.soswbobrowo.edupage.org",
                "ref:regon": "321298123",
                "operator": "Powiat Drawski",
                "operator:type": "government",
                "amenity": "school",
                "note": "Parent RSPO: 79283"
            }
        },
        {
            "id": 120952,
            "type": "Feature",
            "geometry": {
                "type": "Point",
                "coordinates": [
                    16.1906,
                    53.65106
                ]
            },
            "properties": {
                "ref:rspo": 120952,
                "official_name": "Niepubliczny O\u015brodek Kszta\u0142cenia Zawodowego Pn. Famona Innowacyjny O\u015brodek Kszta\u0142cenia im. \u015aw. J\u00f3zefa Robotnika w Kluczewie - Gmina Czaplinek",
                "name": "Niepubliczny O\u015brodek Kszta\u0142cenia Zawodowego Pn. Famona Innowacyjny O\u015brodek Kszta\u0142cenia",
                "addr:country": "PL",
                "addr:postcode": "78-550",
                "addr:city": "Kluczewo",
                "addr:street": "Bia\u0142ego Or\u0142a",
                "addr:housenumber": "11",
                "addr:teryt:simc": 1154,
                "addr:teryt:sym_ul": 304800,
                "contact:phone": "+48 604565777",
                "ref:regon": "321455226",
                "operator": "Dane Do Uzupe\u0142nienia",
                "operator:type": "private",
                "fixme": "w zale\u017cno\u015bci od przedmiotu dzia\u0142alno\u015bci (np. amenity=training + training=*, amenity=dancing_school, amenity=language_school, amenity=music_school) albo amenity=school, amenity=college, albo landuse=education w zale\u017cno\u015bci od tego, jakie plac\u00f3wki wchodz\u0105 w sk\u0142ad zespo\u0142u. Sprawd\u017a, kiedy stosowa\u0107 amenity=* a kiedy landuse=education."
            }
        }
    ]
}