{
    "type": "FeatureCollection",
    "features": [
        {
            "id": 72437,
            "type": "Feature",
            "geometry": {
                "type": "Point",
                "coordinates": [
                    19.27605,
                    50.6289299
                ]
            },
            "properties": {
                "isced:level": "1;2",
                "ref:rspo": 72437,
                "official_name": "Szko\u0142a Podstawowa im.pokoju 42-311 \u017barki Letnisko Ul.szkolna 20",
                "name": "Szko\u0142a Podstawowa im.pokoju 42-311 \u017barki Letnisko Ul.szkolna 20",
                "addr:country": "PL",
                "addr:postcode": "42-311",
                "addr:city": "\u017barki-Letnisko",
                "addr:street": "Szkolna",
                "addr:housenumber": "20",
                "addr:teryt:simc": 143254,
                "addr:teryt:sym_ul": 21970,
                "contact:phone": "+48 343146315",
                "contact:email": "spzarkiletnisko@wp.pl",
                "contact:website": "http:\/\/spzarkiletnisko.szkolnastrona.pl\/",
                "ref:regon": "001199765",
                "ref:vatin": "PL5771778071",
                "operator": "Gmina Poraj",
                "operator:type": "government",
                "amenity": "school"
            }
        },
        {
            "id": 71576,
            "type": "Feature",
            "geometry": {
                "type": "Point",
                "coordinates": [
                    19.27406,
                    50.62911
                ]
            },
            "properties": {
                "ref:rspo": 71576,
                "official_name": "Samorz\u0105dowe Przedszkole Publiczne Ul.cicha 12 B 42-311 \u017barki Letnisko",
                "name": "Samorz\u0105dowe Przedszkole Publiczne Ul.cicha 12 B 42-311 \u017barki Letnisko",
                "addr:country": "PL",
                "addr:postcode": "42-311",
                "addr:city": "\u017barki-Letnisko",
                "addr:street": "Cicha",
                "addr:housenumber": "12 B",
                "addr:teryt:simc": 143254,
                "addr:teryt:sym_ul": 2974,
                "contact:phone": "+48 343146128",
                "contact:email": "przedszkole.zarkiletnisko@wp.pl",
                "contact:website": "http:\/\/www.przedszkole-zarkiletnisko.pl",
                "ref:regon": "151005546",
                "ref:vatin": "PL5771778355",
                "operator": "Gmina Poraj",
                "operator:type": "government",
                "amenity": "kindergarten"
            }
        },
        {
            "id": 132028,
            "type": "Feature",
            "geometry": {
                "type": "Point",
                "coordinates": [
                    19.215858,
                    50.6402669
                ]
            },
            "properties": {
                "isced:level": "1;2",
                "ref:rspo": 132028,
                "official_name": "Szko\u0142a Podstawowa im.dywizji J.h.d\u0105browskiego w Ku\u017anicy Starej",
                "name": "Szko\u0142a Podstawowa im.dywizji J.h.d\u0105browskiego w Ku\u017anicy Starej",
                "addr:country": "PL",
                "addr:postcode": "42-360",
                "addr:place": "Ku\u017anica Stara",
                "addr:housenumber": "34",
                "addr:teryt:simc": 143231,
                "contact:phone": "+48 343145046",
                "contact:email": "spkuznica@gmail.com",
                "ref:regon": "365423479",
                "ref:vatin": "PL5771980559",
                "operator": "Stowarzyszenie \"Przyjazna Szko\u0142a\"",
                "operator:type": "ngo",
                "amenity": "school"
            }
        },
        {
            "id": 81658,
            "type": "Feature",
            "geometry": {
                "type": "Point",
                "coordinates": [
                    19.24339,
                    50.6421599
                ]
            },
            "properties": {
                "isced:level": "1;2",
                "ref:rspo": 81658,
                "official_name": "Niepubliczna Szko\u0142a Podstawowa",
                "name": "Niepubliczna Szko\u0142a Podstawowa",
                "addr:country": "PL",
                "addr:postcode": "42-360",
                "addr:city": "Mas\u0142o\u0144skie",
                "addr:street": "Sportowa",
                "addr:housenumber": "11",
                "addr:teryt:simc": 143219,
                "addr:teryt:sym_ul": 20683,
                "contact:phone": "+48 343145349",
                "contact:email": "nspmaslonskie@wp.pl",
                "contact:website": "http:\/\/www.nspmaslonskie.pl\/",
                "ref:regon": "243092554",
                "ref:vatin": "PL5771837626",
                "operator": "Stowarzyszenie Rozwoju Wsi Mas\u0142o\u0144skie",
                "operator:type": "ngo",
                "amenity": "school"
            }
        },
        {
            "id": 277958,
            "type": "Feature",
            "geometry": {
                "type": "Point",
                "coordinates": [
                    19.20962,
                    50.65604
                ]
            },
            "properties": {
                "ref:rspo": 277958,
                "official_name": "Niepubliczna Bursa M\u0142odzie\u017cowa Rks Rak\u00f3w",
                "name": "Niepubliczna Bursa M\u0142odzie\u017cowa Rks Rak\u00f3w",
                "addr:country": "PL",
                "addr:postcode": "42-360",
                "addr:city": "Jastrz\u0105b",
                "addr:street": "Wojska Polskiego",
                "addr:housenumber": "79",
                "addr:teryt:simc": 143202,
                "addr:teryt:sym_ul": 24628,
                "contact:phone": "+48 695629320",
                "contact:email": "sekretariat.sms@rakow.com",
                "contact:website": "http:\/\/www.rakow.com",
                "ref:regon": "389703993",
                "operator": "Fundacja Przyjaciele Rakowa",
                "operator:type": "ngo",
                "building": "dormitory"
            }
        },
        {
            "id": 71575,
            "type": "Feature",
            "geometry": {
                "type": "Point",
                "coordinates": [
                    19.21407,
                    50.67336
                ]
            },
            "properties": {
                "ref:rspo": 71575,
                "official_name": "Samorz\u0105dowe Publiczne Przedszkole w Poraju Le\u015bne Skrzaty \n42-360 Poraj Ul.jasna 14",
                "name": "Samorz\u0105dowe Publiczne Przedszkole w Poraju Le\u015bne Skrzaty \n42-360 Poraj Ul.jasna 14",
                "addr:country": "PL",
                "addr:postcode": "42-360",
                "addr:city": "Poraj",
                "addr:street": "Jasna",
                "addr:housenumber": "14",
                "addr:teryt:simc": 143225,
                "addr:teryt:sym_ul": 7335,
                "contact:phone": "+48 343145086",
                "contact:email": "przedszkoleporaj@wp.pl",
                "contact:website": "http:\/\/www.przedszkoleporaj.pl",
                "ref:regon": "151005552",
                "ref:vatin": "PL5771781038",
                "operator": "Gmina Poraj",
                "operator:type": "government",
                "amenity": "kindergarten"
            }
        },
        {
            "id": 70319,
            "type": "Feature",
            "geometry": {
                "type": "Point",
                "coordinates": [
                    19.21137,
                    50.677
                ]
            },
            "properties": {
                "isced:level": "1;2",
                "ref:rspo": 70319,
                "official_name": "Szko\u0142a Podstawowa im.kpt.leonida Teligi w Poraju \n42-360 Poraju Ul.g\u00f3rnicza 18",
                "name": "Szko\u0142a Podstawowa im.kpt.leonida Teligi w Poraju \n42-360 Poraju Ul.g\u00f3rnicza 18",
                "addr:country": "PL",
                "addr:postcode": "42-360",
                "addr:city": "Poraj",
                "addr:street": "G\u00f3rnicza",
                "addr:housenumber": "18",
                "addr:teryt:simc": 143225,
                "addr:teryt:sym_ul": 5962,
                "contact:phone": "+48 343145729",
                "contact:email": "sp.poraj@op.pl",
                "contact:website": "http:\/\/spporaj.wixsite.com",
                "ref:regon": "000271489",
                "ref:vatin": "PL5771778088",
                "operator": "Gmina Poraj",
                "operator:type": "government",
                "amenity": "school"
            }
        },
        {
            "id": 71573,
            "type": "Feature",
            "geometry": {
                "type": "Point",
                "coordinates": [
                    19.18935,
                    50.68016
                ]
            },
            "properties": {
                "isced:level": "1;2",
                "ref:rspo": 71573,
                "official_name": "Szko\u0142a Podstawowa im.kazimierza Wielkiego w Jastrz\u0119biu Ul.mickiewicza 1, 42-360 Poraj",
                "name": "Szko\u0142a Podstawowa im.kazimierza Wielkiego w Jastrz\u0119biu Ul.mickiewicza 1, 42-360 Poraj",
                "addr:country": "PL",
                "addr:postcode": "42-360",
                "addr:city": "Jastrz\u0105b",
                "addr:street": "Adama Mickiewicza",
                "addr:housenumber": "1",
                "addr:teryt:simc": 143202,
                "addr:teryt:sym_ul": 12734,
                "contact:phone": "+48 343145045",
                "contact:email": "spjastrzab@o2.pl",
                "contact:website": "https:\/\/spjastrzab.wixsite.com\/spjastrzab",
                "ref:regon": "001199771",
                "ref:vatin": "PL5771778042",
                "operator": "Gmina Poraj",
                "operator:type": "government",
                "amenity": "school"
            }
        },
        {
            "id": 72400,
            "type": "Feature",
            "geometry": {
                "type": "Point",
                "coordinates": [
                    19.25036,
                    50.6843
                ]
            },
            "properties": {
                "isced:level": "1;2",
                "ref:rspo": 72400,
                "official_name": "Szko\u0142a Podstawowa im.marii Konopnickiej w Choroniu Ul.szkolna 9 42-360 Poraj",
                "name": "Szko\u0142a Podstawowa im.marii Konopnickiej w Choroniu Ul.szkolna 9 42-360 Poraj",
                "addr:country": "PL",
                "addr:postcode": "42-360",
                "addr:city": "Choro\u0144",
                "addr:street": "Szkolna",
                "addr:housenumber": "9",
                "addr:teryt:simc": 143113,
                "addr:teryt:sym_ul": 21970,
                "contact:phone": "+48 343145033",
                "contact:email": "spchoron@poczta.fm",
                "contact:website": "https:\/\/spchoron.wixsite.com\/",
                "ref:regon": "001199788",
                "ref:vatin": "PL5771781050",
                "operator": "Gmina Poraj",
                "operator:type": "government",
                "amenity": "school"
            }
        }
    ]
}