{"type":"FeatureCollection","features":[{"id":23159,"type":"Feature","geometry":{"type":"Point","coordinates":[19.36762,50.54088]},"properties":{"ref:rspo":23159,"official_name":"Zesp\u00f3\u0142 Szkolno-Przedszkolny Nr 4 w Myszkowie","name":"Zesp\u00f3\u0142 Szkolno-Przedszkolny Nr 4 w Myszkowie","addr:country":"PL","addr:postcode":"42-300","addr:city":"Myszk\u00f3w","addr:street":"ul. Traugutta","addr:housenumber":"43","addr:teryt:simc":22961,"addr:teryt:sym_ul":932057,"contact:phone":"+48 343139295","contact:email":"zsp4myszkow@wp.pl","ref:regon":"152174535","ref:vatin":"PL5771879524","operator":"Gmina  Myszk\u00f3w","operator:type":"government","landuse":"education","fixme":"amenity=school, amenity=college albo landuse=education w zale\u017cno\u015bci od tego, jakie plac\u00f3wki wchodz\u0105 w sk\u0142ad zespo\u0142u. Sprawd\u017a, kiedy stosowa\u0107 amenity=* a kiedy landuse=education.","note":"Children RSPO: 48692;48696"}},{"id":48692,"type":"Feature","geometry":{"type":"Point","coordinates":[19.36762,50.54085]},"properties":{"isced:level":"1;2","ref:rspo":48692,"official_name":"Zesp\u00f3\u0142 Szkolno-Przedszkolny Nr 4 Szko\u0142a Podstawowa Nr 8 im. Noblist\u00f3w Polskich w Myszkowie","name":"Zesp\u00f3\u0142 Szkolno-Przedszkolny Nr 4 Szko\u0142a Podstawowa Nr 8","addr:country":"PL","addr:postcode":"42-300","addr:city":"Myszk\u00f3w","addr:street":"ul. Traugutta","addr:housenumber":"43","addr:teryt:simc":22961,"addr:teryt:sym_ul":932057,"contact:phone":"+48 343139295","contact:email":"zsp4myszkow@wp.pl","ref:regon":"001101105","ref:vatin":"PL5771879524","operator":"Gmina  Myszk\u00f3w","operator:type":"government","amenity":"school","note":"Parent RSPO: 23159"}},{"id":48696,"type":"Feature","geometry":{"type":"Point","coordinates":[19.36762,50.540820000000004]},"properties":{"ref:rspo":48696,"official_name":"Zesp\u00f3\u0142 Szkolno-Przedszkolny Nr 4 Przedszkole Nr 6 w Myszkowie","name":"Zesp\u00f3\u0142 Szkolno-Przedszkolny Nr 4 Przedszkole Nr 6 w Myszkowie","addr:country":"PL","addr:postcode":"42-300","addr:city":"Myszk\u00f3w","addr:street":"ul. Traugutta","addr:housenumber":"43","addr:teryt:simc":22961,"addr:teryt:sym_ul":932057,"contact:phone":"+48 343139295","contact:email":"zsp4myszkow@wp.pl","ref:regon":"241969214","ref:vatin":"PL5771879524","operator":"Gmina  Myszk\u00f3w","operator:type":"government","amenity":"kindergarten","note":"Parent RSPO: 23159"}},{"id":23917,"type":"Feature","geometry":{"type":"Point","coordinates":[19.2919899,50.54922]},"properties":{"isced:level":"1;2","ref:rspo":23917,"official_name":"Szko\u0142a Podstawowa Nr 7 im. Jana Brzechwy","name":"Szko\u0142a Podstawowa Nr 7","addr:country":"PL","addr:postcode":"42-300","addr:city":"Myszk\u00f3w","addr:street":"ul. Pi\u0144czycka","addr:housenumber":"2","addr:teryt:simc":16285,"addr:teryt:sym_ul":932057,"contact:phone":"+48 343138237","contact:email":"sp7myszkow@onet.eu","contact:website":"http:\/\/www.sp7myszkow.pl","ref:regon":"000815363","ref:vatin":"PL5771808085","operator":"Gmina  Myszk\u00f3w","operator:type":"government","amenity":"school"}},{"id":21099,"type":"Feature","geometry":{"type":"Point","coordinates":[19.29719,50.55466]},"properties":{"ref:rspo":21099,"official_name":"Zesp\u00f3\u0142 Szk\u00f3\u0142 Nr 2 im.h.ko\u0142\u0142\u0105taja w Myszkowie","name":"Zesp\u00f3\u0142 Szk\u00f3\u0142 Nr 2 im.h.ko\u0142\u0142\u0105taja w Myszkowie","addr:country":"PL","addr:postcode":"42-300","addr:city":"Myszk\u00f3w","addr:street":"ul. Pu\u0142askiego","addr:housenumber":"70","addr:teryt:simc":18091,"addr:teryt:sym_ul":932057,"contact:phone":"+48 343138181","contact:email":"zs2myszkow_bedusz@op.pl","contact:website":"http:\/\/www.zs2bedusz.pl","ref:regon":"000094403","ref:vatin":"PL5771022433","operator":"Powiat Myszkowski","operator:type":"government","landuse":"education","fixme":"amenity=school, amenity=college albo landuse=education w zale\u017cno\u015bci od tego, jakie plac\u00f3wki wchodz\u0105 w sk\u0142ad zespo\u0142u. Sprawd\u017a, kiedy stosowa\u0107 amenity=* a kiedy landuse=education.","note":"Children RSPO: 23221;23275;23288"}},{"id":23221,"type":"Feature","geometry":{"type":"Point","coordinates":[19.29719,50.554629999999996]},"properties":{"isced:level":"3","ref:rspo":23221,"official_name":"Zesp\u00f3\u0142 Szk\u00f3\u0142 Nr 2 im. H. Ko\u0142\u0142\u0105taja Technikum Nr 2 w Myszkowie","name":"Zesp\u00f3\u0142 Szk\u00f3\u0142 Nr 2","addr:country":"PL","addr:postcode":"42-300","addr:city":"Myszk\u00f3w","addr:street":"ul. Pu\u0142askiego","addr:housenumber":"70","addr:teryt:simc":18091,"addr:teryt:sym_ul":932057,"contact:phone":"+48 343138181","contact:email":"zs2myszkow_bedusz@op.pl","contact:website":"http:\/\/www.zs2bedusz.pl","ref:regon":"152070600","ref:vatin":"PL5771022433","operator":"Powiat Myszkowski","operator:type":"government","amenity":"school","note":"Parent RSPO: 21099"}},{"id":23275,"type":"Feature","geometry":{"type":"Point","coordinates":[19.29719,50.5546]},"properties":{"isced:level":"4","ref:rspo":23275,"official_name":"Zesp\u00f3\u0142 Szk\u00f3\u0142 Nr 2 im. H. Ko\u0142\u0142\u0105taja Szko\u0142a Policealna w Myszkowie","name":"Zesp\u00f3\u0142 Szk\u00f3\u0142 Nr 2","addr:country":"PL","addr:postcode":"42-300","addr:city":"Myszk\u00f3w","addr:street":"ul. Pu\u0142askiego","addr:housenumber":"70","addr:teryt:simc":18091,"addr:teryt:sym_ul":932057,"contact:phone":"+48 343138181","contact:email":"zs2myszkow_bedusz@op.pl","contact:website":"http:\/\/www.zs2bedusz.pl","ref:regon":"240949451","ref:vatin":"PL5771022433","operator":"Powiat Myszkowski","operator:type":"government","amenity":"college","note":"Parent RSPO: 21099"}},{"id":23288,"type":"Feature","geometry":{"type":"Point","coordinates":[19.29719,50.55457]},"properties":{"isced:level":"3","ref:rspo":23288,"official_name":"Zesp\u00f3\u0142 Szk\u00f3\u0142 Nr 2 im. H. Ko\u0142\u0142\u0105taja II Liceum Og\u00f3lnokszta\u0142c\u0105ce dla Doros\u0142ych w Myszkowie","name":"Zesp\u00f3\u0142 Szk\u00f3\u0142 Nr 2","addr:country":"PL","addr:postcode":"42-300","addr:city":"Myszk\u00f3w","addr:street":"ul. Pu\u0142askiego","addr:housenumber":"70","addr:teryt:simc":18091,"addr:teryt:sym_ul":932057,"contact:phone":"+48 343138181","contact:email":"zs2myszkow_bedusz@op.pl","contact:website":"http:\/\/www.zs2bedusz.pl","ref:regon":"241652291","ref:vatin":"PL5771022433","operator":"Powiat Myszkowski","operator:type":"government","amenity":"school","note":"Parent RSPO: 21099"}},{"id":20668,"type":"Feature","geometry":{"type":"Point","coordinates":[19.35682,50.56398]},"properties":{"ref:rspo":20668,"official_name":"Publiczna Poradnia Psychologiczno-Pedagogiczna w Myszkowie","name":"Publiczna Poradnia Psychologiczno-Pedagogiczna w Myszkowie","addr:country":"PL","addr:postcode":"42-300","addr:city":"Myszk\u00f3w","addr:street":"ul. Partyzant\u00f3w","addr:housenumber":"21","addr:teryt:simc":15733,"addr:teryt:sym_ul":932057,"contact:phone":"+48 343130367","contact:email":"ppppmysz@interia.pl","contact:website":"http:\/\/www.ppppmyszkow.czt.pl","ref:regon":"000715992","ref:vatin":"PL5771752835","operator":"Powiat Myszkowski","operator:type":"government","healthcare":"councelling","counselling_type":"education","fixme":"w zale\u017cno\u015bci od przedmiotu dzia\u0142alno\u015bci (np. healthcare=councelling + counselling_type=education albo healthcare=psychotherapist)"}},{"id":28251,"type":"Feature","geometry":{"type":"Point","coordinates":[19.34282,50.56697]},"properties":{"isced:level":"1;2","ref:rspo":28251,"official_name":"Szko\u0142a Podstawowa Nr 4","name":"Szko\u0142a Podstawowa Nr 4","addr:country":"PL","addr:postcode":"42-300","addr:city":"Myszk\u00f3w","addr:street":"ul. Jedwabna","addr:housenumber":"93","addr:teryt:simc":7447,"addr:teryt:sym_ul":932057,"contact:phone":"+48 343130755","contact:email":"nauka4@interia.pl","contact:website":"http:\/\/sp4myszkow.pl","ref:regon":"000710782","ref:vatin":"PL5771808079","operator":"Gmina  Myszk\u00f3w","operator:type":"government","amenity":"school"}},{"id":277092,"type":"Feature","geometry":{"type":"Point","coordinates":[19.31556,50.57047]},"properties":{"ref:rspo":277092,"official_name":"Niepubliczna Poradnia Psychologiczno-Pedagogiczna \"Marysia\"","name":"Niepubliczna Poradnia Psychologiczno-Pedagogiczna \"Marysia\"","addr:country":"PL","addr:postcode":"42-300","addr:city":"Myszk\u00f3w","addr:street":"ul. Krasickiego","addr:housenumber":"1","addr:teryt:simc":9826,"addr:teryt:sym_ul":932057,"contact:email":"centrum.terapii.marysia@op.pl","ref:regon":"388148288","ref:vatin":"PL6491617700","operator":"Edyta Garas","operator:type":"private","healthcare":"councelling","counselling_type":"education","fixme":"w zale\u017cno\u015bci od przedmiotu dzia\u0142alno\u015bci (np. healthcare=councelling + counselling_type=education albo healthcare=psychotherapist)"}},{"id":130324,"type":"Feature","geometry":{"type":"Point","coordinates":[19.31636,50.57183]},"properties":{"ref:rspo":130324,"official_name":"Publiczna Biblioteka Pedagogiczna Regionalnego O\u015brodka Doskonalenia Nauczycieli \"Wom\" w Cz\u0119stochowie Filia w Myszkowie","name":"Publiczna Biblioteka Pedagogiczna Regionalnego O\u015brodka Doskonalenia Nauczycieli \"Wom\" w Cz\u0119stochowie Filia w Myszkowie","addr:country":"PL","addr:postcode":"42-300","addr:city":"Myszk\u00f3w","addr:street":"ul. Pu\u0142askiego","addr:housenumber":"7","addr:door":"210","addr:teryt:simc":18091,"addr:teryt:sym_ul":932057,"contact:phone":"+48 343134494","contact:email":"mybp@womczest.edu.pl","contact:website":"http:\/\/www.womczest.edu.pl","ref:regon":"716023000","operator":"Wojew\u00f3dztwo \u015al\u0105skie","operator:type":"government","amenity":"library","note":"Parent RSPO: 111624"}},{"id":25781,"type":"Feature","geometry":{"type":"Point","coordinates":[19.36226,50.57198]},"properties":{"ref:rspo":25781,"official_name":"Przedszkole Nr 3 Z Oddzia\u0142ami Integracyjnymi","name":"Przedszkole Nr 3 Z Oddzia\u0142ami Integracyjnymi","addr:country":"PL","addr:postcode":"42-300","addr:city":"Myszk\u00f3w","addr:street":"ul. Millenium","addr:housenumber":"19D","addr:teryt:simc":12940,"addr:teryt:sym_ul":932057,"contact:phone":"+48 343130801","contact:email":"p3integra@o2.pl","contact:website":"http:\/\/www.przedszkole3myszkow.edu.pl","ref:regon":"241969154","ref:vatin":"PL5771808062","operator":"Gmina  Myszk\u00f3w","operator:type":"government","amenity":"kindergarten"}},{"id":25780,"type":"Feature","geometry":{"type":"Point","coordinates":[19.3174199,50.57215]},"properties":{"ref:rspo":25780,"official_name":"Przedszkole Nr 2","name":"Przedszkole Nr 2","addr:country":"PL","addr:postcode":"42-300","addr:city":"Myszk\u00f3w","addr:street":"ul. Pu\u0142askiego","addr:housenumber":"7A","addr:teryt:simc":18091,"addr:teryt:sym_ul":932057,"contact:phone":"+48 343134866","contact:email":"przedszkole.nr2@gmail.com","contact:website":"http:\/\/www.przedszkole-myszkow.pl","ref:regon":"241969102","ref:vatin":"PL5771808168","operator":"Gmina  Myszk\u00f3w","operator:type":"government","amenity":"kindergarten"}},{"id":26334,"type":"Feature","geometry":{"type":"Point","coordinates":[19.33794,50.5723]},"properties":{"ref:rspo":26334,"official_name":"Niepubliczne Przedszkole \"Puchatek\"","name":"Niepubliczne Przedszkole \"Puchatek\"","addr:country":"PL","addr:postcode":"42-300","addr:city":"Myszk\u00f3w","addr:street":"ul. 3 Maja","addr:housenumber":"30","addr:teryt:simc":11937,"addr:teryt:sym_ul":932057,"contact:phone":"+48 500562284","contact:email":"mmazur46@wp.pl","ref:regon":"243063245","ref:vatin":"PL5771002181","operator":"Marian Mazur","operator:type":"private","amenity":"kindergarten"}},{"id":48683,"type":"Feature","geometry":{"type":"Point","coordinates":[19.30665,50.5739]},"properties":{"isced:level":"1;2","ref:rspo":48683,"official_name":"Szko\u0142a Podstawowa Nr 1 im. Adama Mickiewicza w Myszkowie","name":"Szko\u0142a Podstawowa Nr 1","addr:country":"PL","addr:postcode":"42-300","addr:city":"Myszk\u00f3w","addr:street":"ul. Le\u015bna","addr:housenumber":"1","addr:teryt:simc":10898,"addr:teryt:sym_ul":932057,"contact:phone":"+48 343131091","contact:email":"sp1_mickiewicz@wp.pl","contact:website":"http:\/\/www.zsp1myszkow.szkolnastrona.pl","ref:regon":"007013230","ref:vatin":"PL5771865798","operator":"Gmina  Myszk\u00f3w","operator:type":"government","amenity":"school"}},{"id":48685,"type":"Feature","geometry":{"type":"Point","coordinates":[19.35545,50.5745999]},"properties":{"isced:level":"1;2","ref:rspo":48685,"official_name":"Szko\u0142a Podstawowa Nr 2 im. Jana Paw\u0142a II w Myszkowie","name":"Szko\u0142a Podstawowa Nr 2","addr:country":"PL","addr:postcode":"42-300","addr:city":"Myszk\u00f3w","addr:street":"ul. Jaworznicka","addr:housenumber":"34","addr:teryt:simc":7407,"addr:teryt:sym_ul":932057,"contact:phone":"+48 343130601","contact:email":"gim2myszkow@poczta.fm","ref:regon":"000710760","ref:vatin":"PL5771879518","operator":"Gmina  Myszk\u00f3w","operator:type":"government","amenity":"school"}},{"id":48697,"type":"Feature","geometry":{"type":"Point","coordinates":[19.34044,50.57611]},"properties":{"isced:level":"1;2","ref:rspo":48697,"official_name":"Szko\u0142a Podstawowa Z Oddzia\u0142ami Integracyjnymi Nr 5 im. Henryka Sienkiewicza w Myszkowie","name":"Szko\u0142a Podstawowa Z Oddzia\u0142ami Integracyjnymi Nr 5","addr:country":"PL","addr:postcode":"42-300","addr:city":"Myszk\u00f3w","addr:street":"ul. Sikorskiego","addr:housenumber":"20a","addr:teryt:simc":19900,"addr:teryt:sym_ul":932057,"contact:phone":"+48 343132546","contact:email":"sienkiewicz5@go2.pl","contact:website":"http:\/\/www.itware.pl\/sp5","ref:regon":"007008460","ref:vatin":"PL5771865806","operator":"Gmina  Myszk\u00f3w","operator:type":"government","amenity":"school"}},{"id":20703,"type":"Feature","geometry":{"type":"Point","coordinates":[19.33698,50.57683]},"properties":{"isced:level":"3","ref:rspo":20703,"official_name":"Liceum Og\u00f3lnokszta\u0142c\u0105ce im.mjr.h.sucharskiego w Myszkowie","name":"Liceum Og\u00f3lnokszta\u0142c\u0105ce im.mjr.h.sucharskiego w Myszkowie","addr:country":"PL","addr:postcode":"42-300","addr:city":"Myszk\u00f3w","addr:street":"ul. 11 Listopada","addr:housenumber":"19","addr:teryt:simc":11205,"addr:teryt:sym_ul":932057,"contact:phone":"+48 343132238","contact:email":"sekretariat@lomyszkow.edu.pl","contact:website":"http:\/\/lomyszkow.edu.pl","ref:regon":"007008499","ref:vatin":"PL5771348206","operator":"Powiat Myszkowski","operator:type":"government","amenity":"school"}},{"id":23156,"type":"Feature","geometry":{"type":"Point","coordinates":[19.33164,50.57735]},"properties":{"ref:rspo":23156,"official_name":"Zesp\u00f3\u0142 Szk\u00f3\u0142 Publicznych Nr 3 w Myszkowie","name":"Zesp\u00f3\u0142 Szk\u00f3\u0142 Publicznych Nr 3 w Myszkowie","addr:country":"PL","addr:postcode":"42-300","addr:city":"Myszk\u00f3w","addr:street":"ul. Ko\u015bciuszki","addr:housenumber":"30","addr:teryt:simc":9572,"addr:teryt:sym_ul":932057,"contact:phone":"+48 343132856","contact:email":"zspmyszkownr3@o2.pl","contact:website":"http:\/\/zspmyszkow3.edupage.org","ref:regon":"152134493","ref:vatin":"PL5771865781","operator":"Gmina  Myszk\u00f3w","operator:type":"government","landuse":"education","fixme":"amenity=school, amenity=college albo landuse=education w zale\u017cno\u015bci od tego, jakie plac\u00f3wki wchodz\u0105 w sk\u0142ad zespo\u0142u. Sprawd\u017a, kiedy stosowa\u0107 amenity=* a kiedy landuse=education.","note":"Children RSPO: 48689;48691"}},{"id":124220,"type":"Feature","geometry":{"type":"Point","coordinates":[19.33164,50.57732]},"properties":{"ref:rspo":124220,"official_name":"Szko\u0142a Muzyczna I Stopnia w Myszkowie","name":"Szko\u0142a Muzyczna I Stopnia w Myszkowie","addr:country":"PL","addr:postcode":"42-300","addr:city":"Myszk\u00f3w","addr:street":"ul. Ko\u015bciuszki","addr:housenumber":"30","addr:teryt:simc":9572,"addr:teryt:sym_ul":932057,"contact:phone":"+48 668088111","contact:email":"szkola@smmyszkow.edu.pl","contact:website":"http:\/\/www.smmyszkow.edu.pl","ref:regon":"243647644","ref:vatin":"PL5771977209","operator":"Gmina  Myszk\u00f3w","operator:type":"government","amenity":"music_school"}},{"id":48689,"type":"Feature","geometry":{"type":"Point","coordinates":[19.33164,50.577290000000005]},"properties":{"isced:level":"1;2","ref:rspo":48689,"official_name":"Zesp\u00f3\u0142 Szk\u00f3\u0142 Publicznych Nr 3 Szko\u0142a Podstawowa Z Oddzia\u0142ami Integracyjnymi Nr 3 im. Tadeusza Ko\u015bciuszki w Myszkowie","name":"Zesp\u00f3\u0142 Szk\u00f3\u0142 Publicznych Nr 3 Szko\u0142a Podstawowa Z Oddzia\u0142ami Integracyjnymi Nr 3","addr:country":"PL","addr:postcode":"42-300","addr:city":"Myszk\u00f3w","addr:street":"ul. Ko\u015bciuszki","addr:housenumber":"30","addr:teryt:simc":9572,"addr:teryt:sym_ul":932057,"contact:phone":"+48 343132856","contact:email":"zspmyszkownr3@o2.pl","contact:website":"http:\/\/zspmyszkow3.edupage.org","ref:regon":"000710776","ref:vatin":"PL5771865781","operator":"Gmina  Myszk\u00f3w","operator:type":"government","amenity":"school","note":"Parent RSPO: 23156"}},{"id":48691,"type":"Feature","geometry":{"type":"Point","coordinates":[19.33164,50.57726]},"properties":{"ref:rspo":48691,"official_name":"Zesp\u00f3\u0142 Szk\u00f3\u0142 Publicznych Nr 3 Szko\u0142a Specjalna Przysposabiaj\u0105ca Do Pracy w Myszkowie","name":"Zesp\u00f3\u0142 Szk\u00f3\u0142 Publicznych Nr 3 Szko\u0142a Specjalna Przysposabiaj\u0105ca Do Pracy w Myszkowie","addr:country":"PL","addr:postcode":"42-300","addr:city":"Myszk\u00f3w","addr:street":"ul. Ko\u015bciuszki","addr:housenumber":"30","addr:teryt:simc":9572,"addr:teryt:sym_ul":932057,"contact:phone":"+48 343132856","contact:email":"zspmyszkownr3@o2.pl","ref:regon":"241697827","ref:vatin":"PL5771865781","operator":"Gmina  Myszk\u00f3w","operator:type":"government","amenity":"school","note":"Parent RSPO: 23156"}},{"id":21901,"type":"Feature","geometry":{"type":"Point","coordinates":[19.32646,50.57811]},"properties":{"ref:rspo":21901,"official_name":"Zesp\u00f3\u0142 Szk\u00f3\u0142 Nr 1 im. Eugeniusza Kwiatkowskiego w Myszkowie","name":"Zesp\u00f3\u0142 Szk\u00f3\u0142 Nr 1","addr:country":"PL","addr:postcode":"42-300","addr:city":"Myszk\u00f3w","addr:street":"ul. Kwiatkowskiego","addr:housenumber":"18","addr:teryt:simc":10557,"addr:teryt:sym_ul":932057,"contact:phone":"+48 343132840","contact:email":"zs1.kwiatkowski@gmail.com","contact:website":"http:\/\/www.zs1kwiatkowski.com","ref:regon":"000199177","ref:vatin":"PL5771366210","operator":"Powiat Myszkowski","operator:type":"government","landuse":"education","fixme":"amenity=school, amenity=college albo landuse=education w zale\u017cno\u015bci od tego, jakie plac\u00f3wki wchodz\u0105 w sk\u0142ad zespo\u0142u. Sprawd\u017a, kiedy stosowa\u0107 amenity=* a kiedy landuse=education.","note":"Children RSPO: 23339;23379;23394;115352;275395"}},{"id":23339,"type":"Feature","geometry":{"type":"Point","coordinates":[19.32646,50.57808]},"properties":{"isced:level":"3","ref:rspo":23339,"official_name":"Zesp\u00f3\u0142 Szk\u00f3\u0142 Nr 1 im. E. Kwiatkowskiego Technikum Nr 1 w Myszkowie","name":"Zesp\u00f3\u0142 Szk\u00f3\u0142 Nr 1","addr:country":"PL","addr:postcode":"42-300","addr:city":"Myszk\u00f3w","addr:street":"ul. Kwiatkowskiego","addr:housenumber":"18","addr:teryt:simc":10557,"addr:teryt:sym_ul":932057,"contact:phone":"+48 343132840","contact:email":"zs1.kwiatkowski@gmail.com","contact:website":"http:\/\/www.zs1kwiatkowski.com","ref:regon":"152071433","operator":"Powiat Myszkowski","operator:type":"government","amenity":"school","note":"Parent RSPO: 21901"}},{"id":23379,"type":"Feature","geometry":{"type":"Point","coordinates":[19.32646,50.578050000000005]},"properties":{"isced:level":"3","ref:rspo":23379,"official_name":"Bran\u017cowa Szko\u0142a I Stopnia w Myszkowie w Zespole Szk\u00f3\u0142 Nr 1 im. E. Kwiatkowskiego w Myszkowie","name":"Bran\u017cowa Szko\u0142a I Stopnia w Myszkowie w Zespole Szk\u00f3\u0142 Nr 1","addr:country":"PL","addr:postcode":"42-300","addr:city":"Myszk\u00f3w","addr:street":"ul. Kwiatkowskiego","addr:housenumber":"18","addr:teryt:simc":10557,"addr:teryt:sym_ul":932057,"contact:phone":"+48 343132840","contact:email":"zs1.kwiatkowski@gmail.com","contact:website":"http:\/\/www.zs1kwiatkowski.com","ref:regon":"152071462","operator":"Powiat Myszkowski","operator:type":"government","amenity":"school","note":"Parent RSPO: 21901"}},{"id":23394,"type":"Feature","geometry":{"type":"Point","coordinates":[19.32646,50.57802]},"properties":{"isced:level":"3","ref:rspo":23394,"official_name":"Specjalna Bran\u017cowa Szko\u0142a I Stopnia w Myszkowie w Zespole Szk\u00f3\u0142 Nr 1 im.e.kwiatkowskiego w Myszkowie","name":"Specjalna Bran\u017cowa Szko\u0142a I Stopnia w Myszkowie w Zespole Szk\u00f3\u0142 Nr 1 im.e.kwiatkowskiego w Myszkowie","addr:country":"PL","addr:postcode":"42-300","addr:city":"Myszk\u00f3w","addr:street":"ul. Kwiatkowskiego","addr:housenumber":"18","addr:teryt:simc":10557,"addr:teryt:sym_ul":932057,"contact:phone":"+48 343132840","contact:email":"zs1.kwiatkowski@gmail.com","contact:website":"http:\/\/www.zs1kwiatkowski.com","ref:regon":"001215406","operator":"Powiat Myszkowski","operator:type":"government","amenity":"school","note":"Parent RSPO: 21901"}},{"id":115352,"type":"Feature","geometry":{"type":"Point","coordinates":[19.32646,50.57799]},"properties":{"isced:level":"3","ref:rspo":115352,"official_name":"Zesp\u00f3\u0142 Szk\u00f3\u0142 Nr 1 im. Eugeniusza Kwiatkowskiego I Liceum Og\u00f3lnokszta\u0142c\u0105ce dla Doros\u0142ych w Myszkowie","name":"Zesp\u00f3\u0142 Szk\u00f3\u0142 Nr 1","addr:country":"PL","addr:postcode":"42-300","addr:city":"Myszk\u00f3w","addr:street":"ul. Kwiatkowskiego","addr:housenumber":"18","addr:teryt:simc":10557,"addr:teryt:sym_ul":932057,"contact:phone":"+48 343132840","contact:email":"zs1.kwiatkowski@gmail.com","contact:website":"http:\/\/zs1kwiatkowski.com","ref:regon":"243305004","operator":"Powiat Myszkowski","operator:type":"government","amenity":"school","note":"Parent RSPO: 21901"}},{"id":275395,"type":"Feature","geometry":{"type":"Point","coordinates":[19.32646,50.577960000000004]},"properties":{"isced:level":"3","ref:rspo":275395,"official_name":"Bran\u017cowa Szko\u0142a II Stopnia w Myszkowie w Zespole Szk\u00f3\u0142 Nr 1 im. Eugeniusza Kwiatkowskiego w Myszkowie","name":"Bran\u017cowa Szko\u0142a II Stopnia w Myszkowie w Zespole Szk\u00f3\u0142 Nr 1","addr:country":"PL","addr:postcode":"42-300","addr:city":"Myszk\u00f3w","addr:street":"ul. Kwiatkowskiego","addr:housenumber":"18","addr:teryt:simc":10557,"addr:teryt:sym_ul":932057,"contact:phone":"+48 343132840","contact:email":"zs1.kwiatkowski@gmail.com","contact:website":"http:\/\/www.zs1kwiatkowski.com","ref:regon":"386914755","operator":"Powiat Myszkowski","operator:type":"government","amenity":"school","note":"Parent RSPO: 21901"}},{"id":25782,"type":"Feature","geometry":{"type":"Point","coordinates":[19.33637,50.57811]},"properties":{"ref:rspo":25782,"official_name":"Przedszkole Nr 4","name":"Przedszkole Nr 4","addr:country":"PL","addr:postcode":"42-300","addr:city":"Myszk\u00f3w","addr:street":"ul. Sk\u0142odowskiej","addr:housenumber":"7","addr:teryt:simc":20064,"addr:teryt:sym_ul":932057,"contact:phone":"+48 343131940","contact:email":"przedszkole4myszkow@interia.pl","ref:regon":"241969183","ref:vatin":"PL5771808197","operator":"Gmina  Myszk\u00f3w","operator:type":"government","amenity":"kindergarten"}},{"id":25783,"type":"Feature","geometry":{"type":"Point","coordinates":[19.32509,50.57848]},"properties":{"ref:rspo":25783,"official_name":"Przedszkole Nr 5 im. Marii Konopnickiej","name":"Przedszkole Nr 5","addr:country":"PL","addr:postcode":"42-300","addr:city":"Myszk\u00f3w","addr:street":"ul. Stalowa","addr:housenumber":"1","addr:teryt:simc":20808,"addr:teryt:sym_ul":932057,"contact:phone":"+48 343132114","contact:email":"przedszkole5myszkow@interia.pl","ref:regon":"241969208","ref:vatin":"PL5771808151","operator":"Gmina  Myszk\u00f3w","operator:type":"government","amenity":"kindergarten"}},{"id":126691,"type":"Feature","geometry":{"type":"Point","coordinates":[19.32067,50.57935]},"properties":{"ref:rspo":126691,"official_name":"Niepubliczne Przedszkole Z Kluczem","name":"Niepubliczne Przedszkole Z Kluczem","addr:country":"PL","addr:postcode":"42-300","addr:city":"Myszk\u00f3w","addr:street":"ul. S\u0142owackiego","addr:housenumber":"17B","addr:teryt:simc":20286,"addr:teryt:sym_ul":932057,"contact:phone":"+48 533312661","contact:email":"kluczmyszkow@gmail.com","ref:regon":"360619901","ref:vatin":"PL5771951842","operator":"Firma Handlowo-Us\u0142ugowa S.c. Barbara Pa\u0142\u0119ga, Justyna Czerwi\u0144ska","operator:type":"private","amenity":"kindergarten"}},{"id":25778,"type":"Feature","geometry":{"type":"Point","coordinates":[19.3432902,50.5797896]},"properties":{"ref:rspo":25778,"official_name":"Przedszkole Nr 1 \"Bajka\"","name":"Przedszkole Nr 1 \"Bajka\"","addr:country":"PL","addr:postcode":"42-300","addr:city":"Myszk\u00f3w","addr:street":"ul. Majora Sucharskiego","addr:housenumber":"32","addr:teryt:simc":38369,"addr:teryt:sym_ul":932057,"contact:phone":"+48 343132145","contact:email":"przed149@wp.pl","contact:website":"http:\/\/www.przedszkole1myszkow.edu.pl","ref:regon":"241969094","ref:vatin":"PL5771808056","operator":"Gmina  Myszk\u00f3w","operator:type":"government","amenity":"kindergarten"}},{"id":28252,"type":"Feature","geometry":{"type":"Point","coordinates":[19.30268,50.5993]},"properties":{"isced:level":"1;2","ref:rspo":28252,"official_name":"Szko\u0142a Podstawowa Nr 6","name":"Szko\u0142a Podstawowa Nr 6","addr:country":"PL","addr:postcode":"42-300","addr:city":"Myszk\u00f3w","addr:street":"ul. Wapienna","addr:housenumber":"2","addr:teryt:simc":23624,"addr:teryt:sym_ul":932057,"contact:phone":"+48 343139540","contact:email":"sp6myszkow@o2.pl","contact:website":"http:\/\/www.sp6myszkow.interia.pl","ref:regon":"000710799","ref:vatin":"PL5771808205","operator":"Gmina  Myszk\u00f3w","operator:type":"government","amenity":"school"}}]}