{
    "type": "FeatureCollection",
    "features": [
        {
            "id": 91960,
            "type": "Feature",
            "geometry": {
                "type": "Point",
                "coordinates": [
                    17.19822,
                    52.79346
                ]
            },
            "properties": {
                "ref:rspo": 91960,
                "official_name": "O\u015brodek Rewalidacyjno - Wychowawczy \"Rehabilitacyjno - Edukacyjno - Wychowawczy\" w W\u0105growcu",
                "name": "O\u015brodek Rewalidacyjno - Wychowawczy \"Rehabilitacyjno - Edukacyjno - Wychowawczy\" w W\u0105growcu",
                "addr:postcode": "62-100",
                "addr:city": "W\u0105growiec",
                "addr:street": "Taszarowo",
                "addr:housenumber": "9",
                "addr:city:simc": 967297,
                "addr:street:sym_ul": 22697,
                "phone": "+48 505056778",
                "email": "bonafides1@gmail.com",
                "ref:regon": "302284512",
                "ref:vatin": "PL7661927430",
                "operator": "Stowarzyszenie Na Rzecz Dzieci I M\u0142odzie\u017cy Niepe\u0142nosprawnej \"Bona Fides\"",
                "operator:type": "ngo",
                "amenity": "school"
            }
        },
        {
            "id": 48967,
            "type": "Feature",
            "geometry": {
                "type": "Point",
                "coordinates": [
                    17.19143,
                    52.79899
                ]
            },
            "properties": {
                "ref:rspo": 48967,
                "official_name": "Ognisko Pracy Pozaszkolnej w W\u0105growcu",
                "name": "Ognisko Pracy Pozaszkolnej w W\u0105growcu",
                "addr:postcode": "62-100",
                "addr:city": "W\u0105growiec",
                "addr:street": "Wierzbowa",
                "addr:housenumber": "1",
                "addr:city:simc": 967297,
                "addr:street:sym_ul": 24170,
                "phone": "+48 672626227",
                "email": "ogniskopp@poczta.onet.pl",
                "website": "http:\/\/www.ogniskoppwagrowiec.pl",
                "ref:regon": "570271364",
                "ref:vatin": "PL7661730561",
                "operator": "Powiat W\u0105growiecki",
                "operator:type": "government",
                "amenity": "community_centre",
                "community_centre:for": "child;juvenile"
            }
        },
        {
            "id": 48968,
            "type": "Feature",
            "geometry": {
                "type": "Point",
                "coordinates": [
                    17.19143,
                    52.79896
                ]
            },
            "properties": {
                "ref:rspo": 48968,
                "official_name": "Poradnia Psychologiczno - Pedagogiczna w W\u0105growcu",
                "name": "Poradnia Psychologiczno - Pedagogiczna w W\u0105growcu",
                "addr:postcode": "62-100",
                "addr:city": "W\u0105growiec",
                "addr:street": "Wierzbowa",
                "addr:housenumber": "1",
                "addr:city:simc": 967297,
                "addr:street:sym_ul": 24170,
                "phone": "+48 672622380",
                "email": "poradnia@pppwagrowiec.pl",
                "ref:regon": "001238778",
                "ref:vatin": "PL7661730549",
                "operator": "Powiat W\u0105growiecki",
                "operator:type": "government",
                "healthcare": "counselling",
                "counselling_type": "education",
                "fixme": "w zale\u017cno\u015bci od przedmiotu dzia\u0142alno\u015bci (np. healthcare=counselling + counselling_type=education albo healthcare=psychotherapist)"
            }
        },
        {
            "id": 129079,
            "type": "Feature",
            "geometry": {
                "type": "Point",
                "coordinates": [
                    17.19143,
                    52.798930000000006
                ]
            },
            "properties": {
                "ref:rspo": 129079,
                "official_name": "Centrum Doskonalenia Nauczycieli Publiczna Biblioteka Pedagogiczna w Pile Filia im. Piotra Pali\u0144skiego w W\u0105growcu",
                "name": "Centrum Doskonalenia Nauczycieli Publiczna Biblioteka Pedagogiczna w Pile Filia",
                "addr:postcode": "62-100",
                "addr:city": "W\u0105growiec",
                "addr:street": "Wierzbowa",
                "addr:housenumber": "1",
                "addr:city:simc": 967297,
                "addr:street:sym_ul": 24170,
                "phone": "+48 672621263",
                "email": "wagrowiec@cdn.pila.pl",
                "website": "http:\/\/www.wagrowiec.bp.pila.pl",
                "ref:regon": "674276000",
                "operator": "Wojew\u00f3dztwo Wielkopolskie",
                "operator:type": "government",
                "amenity": "library",
                "note": "Parent RSPO: 112145"
            }
        },
        {
            "id": 44449,
            "type": "Feature",
            "geometry": {
                "type": "Point",
                "coordinates": [
                    17.19498,
                    52.80464
                ]
            },
            "properties": {
                "isced:level": "3",
                "ref:rspo": 44449,
                "official_name": "I Liceum Og\u00f3lnokszta\u0142c\u0105ce im. Powsta\u0144c\u00f3w Wielkopolskich w W\u0105growcu",
                "name": "I Liceum Og\u00f3lnokszta\u0142c\u0105ce",
                "addr:postcode": "62-100",
                "addr:city": "W\u0105growiec",
                "addr:street": "Klasztorna",
                "addr:housenumber": "17",
                "addr:door": "A",
                "addr:city:simc": 967297,
                "addr:street:sym_ul": 8485,
                "phone": "+48 672621140",
                "email": "lo_wagrowiec@poczta.onet.pl",
                "website": "http:\/\/liceum.1lowagrowiec.eu",
                "ref:regon": "000231490",
                "ref:vatin": "PL7661434526",
                "operator": "Powiat W\u0105growiecki",
                "operator:type": "government",
                "amenity": "school"
            }
        },
        {
            "id": 40567,
            "type": "Feature",
            "geometry": {
                "type": "Point",
                "coordinates": [
                    17.19379,
                    52.80474
                ]
            },
            "properties": {
                "isced:level": "1;2",
                "ref:rspo": 40567,
                "official_name": "Szko\u0142a Podstawowa nr 3 im. Miko\u0142aja Kopernika",
                "name": "Szko\u0142a Podstawowa nr 3",
                "addr:postcode": "62-100",
                "addr:city": "W\u0105growiec",
                "addr:street": "Klasztorna",
                "addr:housenumber": "19",
                "addr:city:simc": 967297,
                "addr:street:sym_ul": 8485,
                "phone": "+48 672621289",
                "email": "szkola3@sp3.wagrowiec.eu",
                "ref:regon": "000701375",
                "ref:vatin": "PL7661611460",
                "operator": "Gmina Miejska W\u0105growiec",
                "operator:type": "government",
                "amenity": "school"
            }
        },
        {
            "id": 119818,
            "type": "Feature",
            "geometry": {
                "type": "Point",
                "coordinates": [
                    17.20097,
                    52.80652
                ]
            },
            "properties": {
                "ref:rspo": 119818,
                "official_name": "Niepubliczne Przedszkole Dwuj\u0119zyczne \"My Story\" w W\u0105gowcu",
                "name": "Niepubliczne Przedszkole Dwuj\u0119zyczne \"My Story\" w W\u0105gowcu",
                "addr:postcode": "62-100",
                "addr:city": "W\u0105growiec",
                "addr:street": "Rynek",
                "addr:housenumber": "16",
                "addr:city:simc": 967297,
                "addr:street:sym_ul": 19252,
                "phone": "+48 663755959",
                "email": "my_story@op.pl",
                "ref:regon": "302524146",
                "ref:vatin": "PL7661613217",
                "operator": "Izabela Adamska",
                "operator:type": "private",
                "amenity": "kindergarten"
            }
        },
        {
            "id": 40221,
            "type": "Feature",
            "geometry": {
                "type": "Point",
                "coordinates": [
                    17.20823,
                    52.80699
                ]
            },
            "properties": {
                "isced:level": "1;2",
                "ref:rspo": 40221,
                "official_name": "Szko\u0142a Podstawowa nr 2 im. Cysters\u00f3w W\u0105growieckich",
                "name": "Szko\u0142a Podstawowa nr 2",
                "addr:postcode": "62-100",
                "addr:city": "W\u0105growiec",
                "addr:street": "Kr\u00f3tka",
                "addr:housenumber": "4",
                "addr:city:simc": 967297,
                "addr:street:sym_ul": 10009,
                "phone": "+48 672685767",
                "email": "szkola2@sp2.wagrowiec.eu",
                "website": "http:\/\/dwojkawagrowiec.pl",
                "ref:regon": "000701369",
                "ref:vatin": "PL7661611454",
                "operator": "Gmina Miejska W\u0105growiec",
                "operator:type": "government",
                "amenity": "school"
            }
        },
        {
            "id": 42030,
            "type": "Feature",
            "geometry": {
                "type": "Point",
                "coordinates": [
                    17.2098,
                    52.8074299
                ]
            },
            "properties": {
                "ref:rspo": 42030,
                "official_name": "Akademia Talentow Przedszkole Niepubliczne",
                "name": "Akademia Talentow Przedszkole Niepubliczne",
                "addr:postcode": "62-100",
                "addr:city": "W\u0105growiec",
                "addr:street": "\u0141\u0105kowa",
                "addr:housenumber": "2",
                "addr:city:simc": 967297,
                "addr:street:sym_ul": 11596,
                "phone": "+48 731616773",
                "email": "akademiatalentow1@wp.pl",
                "website": "http:\/\/www.akademiatalentow.eu",
                "ref:regon": "302245950",
                "ref:vatin": "PL7661775925",
                "operator": "Artur Skr\u0119tny",
                "operator:type": "private",
                "amenity": "kindergarten"
            }
        },
        {
            "id": 40578,
            "type": "Feature",
            "geometry": {
                "type": "Point",
                "coordinates": [
                    17.19762,
                    52.80766
                ]
            },
            "properties": {
                "ref:rspo": 40578,
                "official_name": "Przedszkole Niepubliczne Taneczno-Muzyczne \"Do-Re-Mi\"",
                "name": "Przedszkole Niepubliczne Taneczno-Muzyczne \"Do-Re-Mi\"",
                "addr:postcode": "62-100",
                "addr:city": "W\u0105growiec",
                "addr:street": "Pozna\u0144ska",
                "addr:housenumber": "4",
                "addr:city:simc": 967297,
                "addr:street:sym_ul": 17394,
                "phone": "+48 508088569",
                "email": "doremi.przedszkole@interia.pl",
                "ref:regon": "302244731",
                "ref:vatin": "PL7661960278",
                "operator": "Ewelina Rybarczyk",
                "operator:type": "private",
                "amenity": "kindergarten"
            }
        },
        {
            "id": 40570,
            "type": "Feature",
            "geometry": {
                "type": "Point",
                "coordinates": [
                    17.1938299,
                    52.80794
                ]
            },
            "properties": {
                "ref:rspo": 40570,
                "official_name": "Przedszkole nr 3 w W\u0105growcu",
                "name": "Przedszkole nr 3 w W\u0105growcu",
                "addr:postcode": "62-100",
                "addr:city": "W\u0105growiec",
                "addr:street": "Cysterska",
                "addr:housenumber": "28",
                "addr:city:simc": 967297,
                "addr:street:sym_ul": 3204,
                "phone": "+48 672621164",
                "email": "trojkawagrowiec@gmail.com",
                "ref:regon": "570325367",
                "ref:vatin": "PL7661611402",
                "operator": "Gmina Miejska W\u0105growiec",
                "operator:type": "government",
                "amenity": "kindergarten"
            }
        },
        {
            "id": 86146,
            "type": "Feature",
            "geometry": {
                "type": "Point",
                "coordinates": [
                    17.20816,
                    52.80803
                ]
            },
            "properties": {
                "isced:level": "1;2",
                "ref:rspo": 86146,
                "official_name": "Szko\u0142a Podstawowa Specjalna w W\u0105growcu",
                "name": "Szko\u0142a Podstawowa Specjalna w W\u0105growcu",
                "addr:postcode": "62-100",
                "addr:city": "W\u0105growiec",
                "addr:street": "Janowiecka",
                "addr:housenumber": "22",
                "addr:city:simc": 967297,
                "addr:street:sym_ul": 7201,
                "phone": "+48 672622445",
                "email": "sosw@post.pl",
                "ref:regon": "302270059",
                "operator": "Powiat W\u0105growiecki",
                "operator:type": "government",
                "amenity": "school",
                "note": "Parent RSPO: 83337"
            }
        },
        {
            "id": 86248,
            "type": "Feature",
            "geometry": {
                "type": "Point",
                "coordinates": [
                    17.20816,
                    52.808
                ]
            },
            "properties": {
                "ref:rspo": 86248,
                "official_name": "Szko\u0142a Specjalna Przysposabiaj\u0105ca do Pracy w W\u0105growcu",
                "name": "Szko\u0142a Specjalna Przysposabiaj\u0105ca do Pracy w W\u0105growcu",
                "addr:postcode": "62-100",
                "addr:city": "W\u0105growiec",
                "addr:street": "Janowiecka",
                "addr:housenumber": "22",
                "addr:city:simc": 967297,
                "addr:street:sym_ul": 7201,
                "phone": "+48 672622445",
                "email": "zss@wagrowiec.pl",
                "ref:regon": "302270102",
                "operator": "Powiat W\u0105growiecki",
                "operator:type": "government",
                "amenity": "school",
                "note": "Parent RSPO: 83337"
            }
        },
        {
            "id": 85483,
            "type": "Feature",
            "geometry": {
                "type": "Point",
                "coordinates": [
                    17.20598,
                    52.80825
                ]
            },
            "properties": {
                "ref:rspo": 85483,
                "official_name": "Niepubliczne Centrum Kszta\u0142cenia Zawodowego Przy Cechu Rzemios\u0142 R\u00f3\u017cnych w W\u0105growcu",
                "name": "Niepubliczne Centrum Kszta\u0142cenia Zawodowego Przy Cechu Rzemios\u0142 R\u00f3\u017cnych w W\u0105growcu",
                "addr:postcode": "62-100",
                "addr:city": "W\u0105growiec",
                "addr:street": "Janowiecka",
                "addr:housenumber": "1",
                "addr:city:simc": 967297,
                "addr:street:sym_ul": 7201,
                "phone": "+48 672620120",
                "email": "cech@pro.onet.pl",
                "website": "http:\/\/www.wagrowiec.icech.pl",
                "ref:regon": "302270042",
                "ref:vatin": "PL7661023912",
                "operator": "Cech Rzemios\u0142 R\u00f3\u017cnych W W\u0105growcu",
                "operator:type": "cooperative",
                "fixme": "w zale\u017cno\u015bci od przedmiotu dzia\u0142alno\u015bci (np. amenity=training + training=*, amenity=dancing_school, amenity=language_school, amenity=music_school) albo amenity=school, amenity=college, albo landuse=education w zale\u017cno\u015bci od tego, jakie plac\u00f3wki wchodz\u0105 w sk\u0142ad zespo\u0142u. Sprawd\u017a, kiedy stosowa\u0107 amenity=* a kiedy landuse=education."
            }
        },
        {
            "id": 123573,
            "type": "Feature",
            "geometry": {
                "type": "Point",
                "coordinates": [
                    17.20598,
                    52.80822
                ]
            },
            "properties": {
                "isced:level": "3",
                "ref:rspo": 123573,
                "official_name": "Rzemie\u015blnicza Szko\u0142a Bran\u017cowa I Stopnia w W\u0105growcu",
                "name": "Rzemie\u015blnicza Szko\u0142a Bran\u017cowa I Stopnia w W\u0105growcu",
                "addr:postcode": "62-100",
                "addr:city": "W\u0105growiec",
                "addr:street": "Janowiecka",
                "addr:housenumber": "1",
                "addr:city:simc": 967297,
                "addr:street:sym_ul": 7201,
                "phone": "+48 672620120",
                "email": "szkola@szkola.icech.pl",
                "website": "http:\/\/szkola.icech.pl",
                "ref:regon": "302774370",
                "ref:vatin": "PL7661023912",
                "operator": "Cech Rzemios\u0142 R\u00f3\u017cnych W W\u0105growcu",
                "operator:type": "cooperative",
                "amenity": "school"
            }
        },
        {
            "id": 40566,
            "type": "Feature",
            "geometry": {
                "type": "Point",
                "coordinates": [
                    17.201139450073,
                    52.808559417725
                ]
            },
            "properties": {
                "isced:level": "1;2",
                "ref:rspo": 40566,
                "official_name": "Szko\u0142a Podstawowa nr 4 im. Marii Sk\u0142odowskiej-Curie",
                "name": "Szko\u0142a Podstawowa nr 4",
                "addr:postcode": "62-100",
                "addr:city": "W\u0105growiec",
                "addr:street": "Miko\u0142aja Reja",
                "addr:housenumber": "10",
                "addr:city:simc": 967297,
                "addr:street:sym_ul": 18562,
                "phone": "+48 672621021",
                "email": "sp4wagrowiec@interia.pl",
                "website": "http:\/\/www.czworkawagrowiec.pl",
                "ref:regon": "000701398",
                "ref:vatin": "PL7661611477",
                "operator": "Gmina Miejska W\u0105growiec",
                "operator:type": "government",
                "amenity": "school"
            }
        },
        {
            "id": 40568,
            "type": "Feature",
            "geometry": {
                "type": "Point",
                "coordinates": [
                    17.201139450073,
                    52.808529417725
                ]
            },
            "properties": {
                "ref:rspo": 40568,
                "official_name": "Przedszkole nr 2 w W\u0105growcu im. Marii Konopnickiej",
                "name": "Przedszkole nr 2 w W\u0105growcu",
                "addr:postcode": "62-100",
                "addr:city": "W\u0105growiec",
                "addr:street": "Powsta\u0144c\u00f3w Wielkopolskich",
                "addr:housenumber": "30",
                "addr:city:simc": 967297,
                "addr:street:sym_ul": 17379,
                "phone": "+48 672620723",
                "email": "przedszkole2@przedszkole2.wagrowiec.eu",
                "website": "http:\/\/przedszkole2.wagrowiec.eu",
                "ref:regon": "570325309",
                "ref:vatin": "PL7661821157",
                "operator": "Gmina Miejska W\u0105growiec",
                "operator:type": "government",
                "amenity": "kindergarten"
            }
        },
        {
            "id": 262262,
            "type": "Feature",
            "geometry": {
                "type": "Point",
                "coordinates": [
                    17.20222,
                    52.80856
                ]
            },
            "properties": {
                "isced:level": "1;2",
                "ref:rspo": 262262,
                "official_name": "Szko\u0142a Podstawowa im. Marii Konopnickiej w W\u0105growcu",
                "name": "Szko\u0142a Podstawowa",
                "addr:postcode": "62-100",
                "addr:city": "W\u0105growiec",
                "addr:street": "Kolejowa",
                "addr:housenumber": "14",
                "addr:city:simc": 967297,
                "addr:street:sym_ul": 8828,
                "phone": "+48 693782882",
                "email": "spkolejowa@gmail.com",
                "website": "https:\/\/spkonopnicka.edupage.org\/",
                "ref:regon": "367992885",
                "ref:vatin": "PL7661996885",
                "operator": "Gmina W\u0105growiec",
                "operator:type": "government",
                "amenity": "school"
            }
        },
        {
            "id": 277562,
            "type": "Feature",
            "geometry": {
                "type": "Point",
                "coordinates": [
                    17.20722,
                    52.80913
                ]
            },
            "properties": {
                "isced:level": "1;2",
                "ref:rspo": 277562,
                "official_name": "Niepubliczna Szko\u0142a Podstawowa Progressio z Oddzia\u0142ami Integracyjnymi",
                "name": "Niepubliczna Szko\u0142a Podstawowa Progressio z Oddzia\u0142ami Integracyjnymi",
                "addr:postcode": "62-100",
                "addr:city": "W\u0105growiec",
                "addr:street": "Przemys\u0142owa",
                "addr:housenumber": "14",
                "addr:city:simc": 967297,
                "addr:street:sym_ul": 17742,
                "phone": "+48 884002079",
                "email": "biuro@centrum-progressio.eu",
                "website": "http:\/\/www.centrum-progressio.eu",
                "ref:regon": "389120872",
                "ref:vatin": "PL7661646205",
                "operator": "Hubert Paluch",
                "operator:type": "private",
                "amenity": "school"
            }
        },
        {
            "id": 196426,
            "type": "Feature",
            "geometry": {
                "type": "Point",
                "coordinates": [
                    17.20324,
                    52.8113699
                ]
            },
            "properties": {
                "ref:rspo": 196426,
                "official_name": "Centrum Wspomagania Rozwoju I Terapii Dziecka Progressio",
                "name": "Centrum Wspomagania Rozwoju I Terapii Dziecka Progressio",
                "addr:postcode": "62-100",
                "addr:city": "W\u0105growiec",
                "addr:street": "\u015arednia",
                "addr:housenumber": "35",
                "addr:door": "20",
                "addr:city:simc": 967297,
                "addr:street:sym_ul": 22409,
                "phone": "+48 884002079",
                "email": "biuro@centrum-progressio.eu",
                "ref:regon": "367991785",
                "operator": "Hubert Paluch",
                "operator:type": "private",
                "amenity": "kindergarten"
            }
        },
        {
            "id": 31612,
            "type": "Feature",
            "geometry": {
                "type": "Point",
                "coordinates": [
                    17.1999299,
                    52.81166
                ]
            },
            "properties": {
                "ref:rspo": 31612,
                "official_name": "Pa\u0144stwowa Szko\u0142a Muzyczna I St. im. Bronis\u0142awa Zieli\u0144skiego w W\u0105growcu",
                "name": "Pa\u0144stwowa Szko\u0142a Muzyczna I St.",
                "addr:postcode": "62-100",
                "addr:city": "W\u0105growiec",
                "addr:street": "Tadeusza Ko\u015bciuszki",
                "addr:housenumber": "19",
                "addr:city:simc": 967297,
                "addr:street:sym_ul": 9572,
                "phone": "+48 672685495",
                "email": "szkmuzwc@poczta.onet.pl",
                "website": "http:\/\/psmwagrowiec.com",
                "ref:regon": "000847200",
                "operator": "Ministerstwo Kultury I Dziedzictwa Narodowego",
                "operator:type": "public",
                "amenity": "music_school"
            }
        },
        {
            "id": 44479,
            "type": "Feature",
            "geometry": {
                "type": "Point",
                "coordinates": [
                    17.21697,
                    52.8134299
                ]
            },
            "properties": {
                "ref:rspo": 44479,
                "official_name": "Zesp\u00f3\u0142 Szk\u00f3\u0142 nr 1 w W\u0105growcu",
                "name": "Zesp\u00f3\u0142 Szk\u00f3\u0142 nr 1 w W\u0105growcu",
                "addr:postcode": "62-100",
                "addr:city": "W\u0105growiec",
                "addr:street": "Kcy\u0144ska",
                "addr:housenumber": "48",
                "addr:city:simc": 967297,
                "addr:street:sym_ul": 8306,
                "phone": "+48 672621224",
                "email": "zsp1wagrowiec@post.pl",
                "website": "http:\/\/www.giganci.pl",
                "ref:regon": "000705321",
                "ref:vatin": "PL7661432533",
                "operator": "Powiat W\u0105growiecki",
                "operator:type": "government",
                "landuse": "education",
                "fixme": "amenity=school, amenity=college albo landuse=education w zale\u017cno\u015bci od tego, jakie plac\u00f3wki wchodz\u0105 w sk\u0142ad zespo\u0142u. Sprawd\u017a, kiedy stosowa\u0107 amenity=* a kiedy landuse=education.",
                "note": "Children RSPO: 58150;59843;62320;85306;85423;85836;275758"
            }
        },
        {
            "id": 48965,
            "type": "Feature",
            "geometry": {
                "type": "Point",
                "coordinates": [
                    17.21697,
                    52.8133999
                ]
            },
            "properties": {
                "ref:rspo": 48965,
                "official_name": "Bursa Szkolna nr 1 w W\u0105growcu",
                "name": "Bursa Szkolna nr 1 w W\u0105growcu",
                "addr:postcode": "62-100",
                "addr:city": "W\u0105growiec",
                "addr:street": "Kcy\u0144ska",
                "addr:housenumber": "48",
                "addr:city:simc": 967297,
                "addr:street:sym_ul": 8306,
                "phone": "+48 672620186",
                "email": "sekretariat@bursawagrowiec.pl",
                "website": "http:\/\/www.bursawagrowiec.pl",
                "ref:regon": "570887496",
                "ref:vatin": "PL7661749750",
                "operator": "Powiat W\u0105growiecki",
                "operator:type": "government",
                "building": "dormitory"
            }
        },
        {
            "id": 83337,
            "type": "Feature",
            "geometry": {
                "type": "Point",
                "coordinates": [
                    17.21697,
                    52.813369900000005
                ]
            },
            "properties": {
                "ref:rspo": 83337,
                "official_name": "Specjalny O\u015brodek Szkolno - Wychowawczy im. Janusza Korczaka w W\u0105growcu",
                "name": "Specjalny O\u015brodek Szkolno - Wychowawczy",
                "addr:postcode": "62-100",
                "addr:city": "W\u0105growiec",
                "addr:street": "Kcy\u0144ska",
                "addr:housenumber": "48",
                "addr:city:simc": 967297,
                "addr:street:sym_ul": 8306,
                "phone": "+48 672620421",
                "email": "sosw@post.pl",
                "website": "http:\/\/www.sosw.wagrowiec.pl",
                "ref:regon": "000701487",
                "ref:vatin": "PL7661598682",
                "operator": "Powiat W\u0105growiecki",
                "operator:type": "government",
                "amenity": "school",
                "note": "Children RSPO: 86146;86248"
            }
        },
        {
            "id": 58150,
            "type": "Feature",
            "geometry": {
                "type": "Point",
                "coordinates": [
                    17.21697,
                    52.8133399
                ]
            },
            "properties": {
                "isced:level": "3",
                "ref:rspo": 58150,
                "official_name": "Bran\u017cowa Szko\u0142a I Stopnia Specjalna im. Stanis\u0142awa Miko\u0142ajczyka w W\u0105growcu",
                "name": "Bran\u017cowa Szko\u0142a I Stopnia Specjalna",
                "addr:postcode": "62-100",
                "addr:city": "W\u0105growiec",
                "addr:street": "Kcy\u0144ska",
                "addr:housenumber": "48",
                "addr:city:simc": 967297,
                "addr:street:sym_ul": 8306,
                "phone": "+48 672620108",
                "email": "zsp1wagrowiec@post.pl",
                "website": "http:\/\/www.giganci.pl",
                "ref:regon": "572051431",
                "operator": "Powiat W\u0105growiecki",
                "operator:type": "government",
                "amenity": "school",
                "note": "Parent RSPO: 44479"
            }
        },
        {
            "id": 59843,
            "type": "Feature",
            "geometry": {
                "type": "Point",
                "coordinates": [
                    17.21697,
                    52.8133099
                ]
            },
            "properties": {
                "isced:level": "3",
                "ref:rspo": 59843,
                "official_name": "Liceum Og\u00f3lnokszta\u0142c\u0105ce dla Doros\u0142ych im. Stanis\u0142awa Miko\u0142ajczyka w W\u0105growcu",
                "name": "Liceum Og\u00f3lnokszta\u0142c\u0105ce dla Doros\u0142ych",
                "addr:postcode": "62-100",
                "addr:city": "W\u0105growiec",
                "addr:street": "Kcy\u0144ska",
                "addr:housenumber": "48",
                "addr:city:simc": 967297,
                "addr:street:sym_ul": 8306,
                "phone": "+48 672620108",
                "email": "zsp1wagrowiec@post.pl",
                "website": "http:\/\/www.giganci.pl",
                "ref:regon": "572118483",
                "operator": "Powiat W\u0105growiecki",
                "operator:type": "government",
                "amenity": "school",
                "note": "Parent RSPO: 44479"
            }
        },
        {
            "id": 62320,
            "type": "Feature",
            "geometry": {
                "type": "Point",
                "coordinates": [
                    17.21697,
                    52.813279900000005
                ]
            },
            "properties": {
                "isced:level": "4",
                "ref:rspo": 62320,
                "official_name": "Szko\u0142a Policealna im. Stanis\u0142awa Miko\u0142ajczyka w W\u0105growcu",
                "name": "Szko\u0142a Policealna",
                "addr:postcode": "62-100",
                "addr:city": "W\u0105growiec",
                "addr:street": "Kcy\u0144ska",
                "addr:housenumber": "48",
                "addr:city:simc": 967297,
                "addr:street:sym_ul": 8306,
                "phone": "+48 672620108",
                "email": "zsp1wagrowiec@post.pl",
                "website": "http:\/\/www.giganci.pl",
                "ref:regon": "302251560",
                "operator": "Powiat W\u0105growiecki",
                "operator:type": "government",
                "amenity": "college",
                "note": "Parent RSPO: 44479"
            }
        },
        {
            "id": 85306,
            "type": "Feature",
            "geometry": {
                "type": "Point",
                "coordinates": [
                    17.21697,
                    52.8132499
                ]
            },
            "properties": {
                "isced:level": "3",
                "ref:rspo": 85306,
                "official_name": "Bran\u017cowa Szko\u0142a I Stopnia im. Stanis\u0142awa Miko\u0142ajczyka w W\u0105growcu",
                "name": "Bran\u017cowa Szko\u0142a I Stopnia",
                "addr:postcode": "62-100",
                "addr:city": "W\u0105growiec",
                "addr:street": "Kcy\u0144ska",
                "addr:housenumber": "48",
                "addr:city:simc": 967297,
                "addr:street:sym_ul": 8306,
                "phone": "+48 672620108",
                "email": "zsp1wagrowiec@post.pl",
                "website": "http:\/\/www.giganci.pl",
                "ref:regon": "572051448",
                "operator": "Powiat W\u0105growiecki",
                "operator:type": "government",
                "amenity": "school",
                "note": "Parent RSPO: 44479"
            }
        },
        {
            "id": 85423,
            "type": "Feature",
            "geometry": {
                "type": "Point",
                "coordinates": [
                    17.21697,
                    52.8132199
                ]
            },
            "properties": {
                "ref:rspo": 85423,
                "official_name": "Centrum Kszta\u0142cenia Zawodowego w W\u0105growcu",
                "name": "Centrum Kszta\u0142cenia Zawodowego w W\u0105growcu",
                "addr:postcode": "62-100",
                "addr:city": "W\u0105growiec",
                "addr:street": "Kcy\u0144ska",
                "addr:housenumber": "48",
                "addr:city:simc": 967297,
                "addr:street:sym_ul": 8306,
                "phone": "+48 672620781",
                "email": "odidz@giganci.pl",
                "website": "http:\/\/www.giganci.pl",
                "ref:regon": "000670232",
                "operator": "Powiat W\u0105growiecki",
                "operator:type": "government",
                "fixme": "w zale\u017cno\u015bci od przedmiotu dzia\u0142alno\u015bci (np. amenity=training + training=*, amenity=dancing_school, amenity=language_school, amenity=music_school) albo amenity=school, amenity=college, albo landuse=education w zale\u017cno\u015bci od tego, jakie plac\u00f3wki wchodz\u0105 w sk\u0142ad zespo\u0142u. Sprawd\u017a, kiedy stosowa\u0107 amenity=* a kiedy landuse=education.",
                "note": "Parent RSPO: 44479"
            }
        },
        {
            "id": 85836,
            "type": "Feature",
            "geometry": {
                "type": "Point",
                "coordinates": [
                    17.21697,
                    52.813189900000005
                ]
            },
            "properties": {
                "isced:level": "3",
                "ref:rspo": 85836,
                "official_name": "Technikum im. Stanis\u0142awa Miko\u0142ajczyka w W\u0105growcu",
                "name": "Technikum",
                "addr:postcode": "62-100",
                "addr:city": "W\u0105growiec",
                "addr:street": "Kcy\u0144ska",
                "addr:housenumber": "48",
                "addr:city:simc": 967297,
                "addr:street:sym_ul": 8306,
                "phone": "+48 672620108",
                "email": "zsp1wagrowiec@post.pl",
                "website": "http:\/\/www.giganci.pl",
                "ref:regon": "302269435",
                "operator": "Powiat W\u0105growiecki",
                "operator:type": "government",
                "amenity": "school",
                "note": "Parent RSPO: 44479"
            }
        },
        {
            "id": 275758,
            "type": "Feature",
            "geometry": {
                "type": "Point",
                "coordinates": [
                    17.21697,
                    52.8131599
                ]
            },
            "properties": {
                "isced:level": "3",
                "ref:rspo": 275758,
                "official_name": "Bran\u017cowa Szko\u0142a II Stopnia dla Doros\u0142ych w W\u0105growcu",
                "name": "Bran\u017cowa Szko\u0142a II Stopnia dla Doros\u0142ych w W\u0105growcu",
                "addr:postcode": "62-100",
                "addr:city": "W\u0105growiec",
                "addr:street": "Kcy\u0144ska",
                "addr:housenumber": "48",
                "addr:city:simc": 967297,
                "addr:street:sym_ul": 8306,
                "phone": "+48 672620108",
                "email": "sekretariat@giganci.pl",
                "ref:regon": "386933770",
                "operator": "Powiat W\u0105growiecki",
                "operator:type": "government",
                "amenity": "school",
                "note": "Parent RSPO: 44479"
            }
        },
        {
            "id": 40573,
            "type": "Feature",
            "geometry": {
                "type": "Point",
                "coordinates": [
                    17.20441,
                    52.81454
                ]
            },
            "properties": {
                "ref:rspo": 40573,
                "official_name": "Przedszkole nr 7 w W\u0105growcu",
                "name": "Przedszkole nr 7 w W\u0105growcu",
                "addr:postcode": "62-100",
                "addr:city": "W\u0105growiec",
                "addr:street": "Libelta",
                "addr:housenumber": "12",
                "addr:city:simc": 967297,
                "addr:street:sym_ul": 11020,
                "phone": "+48 672621123",
                "email": "przedszkole7@przedszkole7.wagrowiec.eu",
                "ref:regon": "570325321",
                "ref:vatin": "PL7661611431",
                "operator": "Gmina Miejska W\u0105growiec",
                "operator:type": "government",
                "amenity": "kindergarten"
            }
        },
        {
            "id": 40575,
            "type": "Feature",
            "geometry": {
                "type": "Point",
                "coordinates": [
                    17.2154,
                    52.8148399
                ]
            },
            "properties": {
                "ref:rspo": 40575,
                "official_name": "Przedszkole nr 1 w W\u0105growcu im. Jana Brzechwy",
                "name": "Przedszkole nr 1 w W\u0105growcu",
                "addr:postcode": "62-100",
                "addr:city": "W\u0105growiec",
                "addr:street": "Kcy\u0144ska",
                "addr:housenumber": "61",
                "addr:city:simc": 967297,
                "addr:street:sym_ul": 8306,
                "phone": "+48 672621000",
                "email": "przedszkole1@przedszkole1.wagrowiec.eu",
                "website": "http:\/\/przedszkolejedynka.eu",
                "ref:regon": "570325315",
                "ref:vatin": "PL7661611394",
                "operator": "Gmina Miejska W\u0105growiec",
                "operator:type": "government",
                "amenity": "kindergarten"
            }
        },
        {
            "id": 35247,
            "type": "Feature",
            "geometry": {
                "type": "Point",
                "coordinates": [
                    17.20736,
                    52.81593
                ]
            },
            "properties": {
                "ref:rspo": 35247,
                "official_name": "Przedszkolenr 6 w W\u0105growcu im. Czerwonego Kapturka",
                "name": "Przedszkolenr 6 w W\u0105growcu",
                "addr:postcode": "62-100",
                "addr:city": "W\u0105growiec",
                "addr:street": "Lipowa",
                "addr:housenumber": "36",
                "addr:city:simc": 967297,
                "addr:street:sym_ul": 11139,
                "phone": "+48 672621225",
                "email": "p6.wagrowiec@gmail.com",
                "website": "http:\/\/przedszkole6wagrowiec.eu",
                "ref:regon": "570325338",
                "ref:vatin": "PL7661611425",
                "operator": "Gmina Miejska W\u0105growiec",
                "operator:type": "government",
                "amenity": "kindergarten"
            }
        },
        {
            "id": 44483,
            "type": "Feature",
            "geometry": {
                "type": "Point",
                "coordinates": [
                    17.2026,
                    52.81726
                ]
            },
            "properties": {
                "ref:rspo": 44483,
                "official_name": "Zesp\u00f3\u0142 Szk\u00f3\u0142 nr 2 im. Pp\u0142k. Dr. Stanis\u0142awa Kuli\u0144skiego w W\u0105growcu",
                "name": "Zesp\u00f3\u0142 Szk\u00f3\u0142 nr 2",
                "addr:postcode": "62-100",
                "addr:city": "W\u0105growiec",
                "addr:street": "Tadeusza Ko\u015bciuszki",
                "addr:housenumber": "49",
                "addr:city:simc": 967297,
                "addr:street:sym_ul": 9572,
                "phone": "+48 672620347",
                "email": "zsp2@wagrowiec.pl",
                "website": "http:\/\/www.zsp2wagrowiec.pl",
                "ref:regon": "000767411",
                "ref:vatin": "PL7661593532",
                "operator": "Powiat W\u0105growiecki",
                "operator:type": "government",
                "landuse": "education",
                "fixme": "amenity=school, amenity=college albo landuse=education w zale\u017cno\u015bci od tego, jakie plac\u00f3wki wchodz\u0105 w sk\u0142ad zespo\u0142u. Sprawd\u017a, kiedy stosowa\u0107 amenity=* a kiedy landuse=education.",
                "note": "Children RSPO: 85307;85396;85403;85406"
            }
        },
        {
            "id": 85307,
            "type": "Feature",
            "geometry": {
                "type": "Point",
                "coordinates": [
                    17.2026,
                    52.817229999999995
                ]
            },
            "properties": {
                "isced:level": "3",
                "ref:rspo": 85307,
                "official_name": "Technikum nr 2 w W\u0105growcu",
                "name": "Technikum nr 2 w W\u0105growcu",
                "addr:postcode": "62-100",
                "addr:city": "W\u0105growiec",
                "addr:street": "Tadeusza Ko\u015bciuszki",
                "addr:housenumber": "49",
                "addr:city:simc": 967297,
                "addr:street:sym_ul": 9572,
                "phone": "+48 672620347",
                "email": "zsp2@wagrowiec.pl",
                "website": "http:\/\/www.zsp2wagrowiec.pl",
                "ref:regon": "300581884",
                "operator": "Powiat W\u0105growiecki",
                "operator:type": "government",
                "amenity": "school",
                "note": "Parent RSPO: 44483"
            }
        },
        {
            "id": 85396,
            "type": "Feature",
            "geometry": {
                "type": "Point",
                "coordinates": [
                    17.2026,
                    52.8172
                ]
            },
            "properties": {
                "isced:level": "4",
                "ref:rspo": 85396,
                "official_name": "Szko\u0142a Policealna nr 2 w W\u0105growcu",
                "name": "Szko\u0142a Policealna nr 2 w W\u0105growcu",
                "addr:postcode": "62-100",
                "addr:city": "W\u0105growiec",
                "addr:street": "Tadeusza Ko\u015bciuszki",
                "addr:housenumber": "49",
                "addr:city:simc": 967297,
                "addr:street:sym_ul": 9572,
                "phone": "+48 672620347",
                "email": "zsp2@wagrowiec.pl",
                "ref:regon": "300118531",
                "operator": "Powiat W\u0105growiecki",
                "operator:type": "government",
                "amenity": "college",
                "note": "Parent RSPO: 44483"
            }
        },
        {
            "id": 85403,
            "type": "Feature",
            "geometry": {
                "type": "Point",
                "coordinates": [
                    17.2026,
                    52.81717
                ]
            },
            "properties": {
                "isced:level": "3",
                "ref:rspo": 85403,
                "official_name": "Ii Liceum Og\u00f3lnokszta\u0142c\u0105ce w W\u0105growcu",
                "name": "Ii Liceum Og\u00f3lnokszta\u0142c\u0105ce w W\u0105growcu",
                "addr:postcode": "62-100",
                "addr:city": "W\u0105growiec",
                "addr:street": "Tadeusza Ko\u015bciuszki",
                "addr:housenumber": "49",
                "addr:city:simc": 967297,
                "addr:street:sym_ul": 9572,
                "phone": "+48 672620347",
                "email": "zsp2@wagrowiec.pl",
                "website": "http:\/\/www.zsp2wagrowiec.pl",
                "ref:regon": "572087363",
                "operator": "Powiat W\u0105growiecki",
                "operator:type": "government",
                "amenity": "school",
                "note": "Parent RSPO: 44483"
            }
        },
        {
            "id": 85406,
            "type": "Feature",
            "geometry": {
                "type": "Point",
                "coordinates": [
                    17.2026,
                    52.817139999999995
                ]
            },
            "properties": {
                "isced:level": "3",
                "ref:rspo": 85406,
                "official_name": "Ii Liceum Og\u00f3lnokszta\u0142c\u0105ce dla Doros\u0142ych w W\u0105growcu",
                "name": "Ii Liceum Og\u00f3lnokszta\u0142c\u0105ce dla Doros\u0142ych w W\u0105growcu",
                "addr:postcode": "62-100",
                "addr:city": "W\u0105growiec",
                "addr:street": "Tadeusza Ko\u015bciuszki",
                "addr:housenumber": "49",
                "addr:city:simc": 967297,
                "addr:street:sym_ul": 9572,
                "phone": "+48 672620347",
                "email": "zsp2@wagrowiec.pl",
                "ref:regon": "302269429",
                "operator": "Powiat W\u0105growiecki",
                "operator:type": "government",
                "amenity": "school",
                "note": "Parent RSPO: 44483"
            }
        },
        {
            "id": 133831,
            "type": "Feature",
            "geometry": {
                "type": "Point",
                "coordinates": [
                    17.21566,
                    52.81741
                ]
            },
            "properties": {
                "isced:level": "1;2",
                "ref:rspo": 133831,
                "official_name": "Szko\u0142a Podstawowa nr 1",
                "name": "Szko\u0142a Podstawowa nr 1",
                "addr:postcode": "62-100",
                "addr:city": "W\u0105growiec",
                "addr:street": "\u015awi\u0119tego Wojciecha",
                "addr:housenumber": "20",
                "addr:city:simc": 967297,
                "addr:street:sym_ul": 48123,
                "phone": "+48 672621500",
                "email": "szkola1@sp1.wagrowiec.eu",
                "website": "http:\/\/www.sp1wagrowiec.pl",
                "ref:regon": "367687403",
                "operator": "Gmina Miejska W\u0105growiec",
                "operator:type": "government",
                "amenity": "school"
            }
        }
    ]
}