{
    "type": "FeatureCollection",
    "features": [
        {
            "id": 83493,
            "type": "Feature",
            "geometry": {
                "type": "Point",
                "coordinates": [
                    17.13153,
                    52.75804
                ]
            },
            "properties": {
                "ref:rspo": 83493,
                "official_name": "Zesp\u00f3\u0142 Szkolno-Przedszkolny w Wiatrowie",
                "name": "Zesp\u00f3\u0142 Szkolno-Przedszkolny w Wiatrowie",
                "addr:country": "PL",
                "addr:postcode": "62-100",
                "addr:place": "Wiatrowo",
                "addr:housenumber": "1",
                "addr:teryt:sym_ul": 532270,
                "contact:phone": "+48 672689779",
                "contact:email": "sekretariat@zspwiatrowo.szkolnastrona.pl",
                "contact:website": "http:\/\/zspwiatrowo.szkolnastrona.pl",
                "ref:regon": "300911258",
                "ref:vatin": "PL7661990032",
                "operator": "Gmina W\u0105growiec",
                "operator:type": "government",
                "landuse": "education",
                "fixme": "amenity=school, amenity=college albo landuse=education w zale\u017cno\u015bci od tego, jakie plac\u00f3wki wchodz\u0105 w sk\u0142ad zespo\u0142u. Sprawd\u017a, kiedy stosowa\u0107 amenity=* a kiedy landuse=education.",
                "note": "Children RSPO: 92469;93115"
            }
        },
        {
            "id": 92469,
            "type": "Feature",
            "geometry": {
                "type": "Point",
                "coordinates": [
                    17.13153,
                    52.75801
                ]
            },
            "properties": {
                "ref:rspo": 92469,
                "official_name": "Przedszkole w Wiatrowie",
                "name": "Przedszkole w Wiatrowie",
                "addr:country": "PL",
                "addr:postcode": "62-100",
                "addr:place": "Wiatrowo",
                "addr:housenumber": "1",
                "addr:teryt:sym_ul": 532270,
                "contact:phone": "+48 672689804",
                "contact:email": "sekretariat@zspwiatrowo.szkolnastrona.pl",
                "contact:website": "https:\/\/zspwiatrowo.szkolnastrona.pl\/",
                "ref:regon": "301055761",
                "operator": "Gmina W\u0105growiec",
                "operator:type": "government",
                "amenity": "kindergarten",
                "note": "Parent RSPO: 83493"
            }
        },
        {
            "id": 93115,
            "type": "Feature",
            "geometry": {
                "type": "Point",
                "coordinates": [
                    17.13153,
                    52.75798
                ]
            },
            "properties": {
                "isced:level": "1;2",
                "ref:rspo": 93115,
                "official_name": "Szko\u0142a Podstawowa w Wiatrowie",
                "name": "Szko\u0142a Podstawowa w Wiatrowie",
                "addr:country": "PL",
                "addr:postcode": "62-100",
                "addr:place": "Wiatrowo",
                "addr:housenumber": "1",
                "addr:teryt:sym_ul": 532270,
                "contact:phone": "+48 672689779",
                "contact:email": "spwiatrowo@wp.pl",
                "contact:website": "https:\/\/zspwiatrowo.szkolnastrona.pl\/",
                "ref:regon": "001148510",
                "operator": "Gmina W\u0105growiec",
                "operator:type": "government",
                "amenity": "school",
                "note": "Parent RSPO: 83493"
            }
        },
        {
            "id": 83499,
            "type": "Feature",
            "geometry": {
                "type": "Point",
                "coordinates": [
                    17.20319,
                    52.75836
                ]
            },
            "properties": {
                "isced:level": "1;2",
                "ref:rspo": 83499,
                "official_name": "Szko\u0142a Podstawowa im. Ks. Jakuba Wujka w Siennie",
                "name": "Szko\u0142a Podstawowa",
                "addr:country": "PL",
                "addr:postcode": "62-100",
                "addr:place": "Sienno",
                "addr:housenumber": "27",
                "addr:teryt:sym_ul": 532180,
                "contact:phone": "+48 672620689",
                "contact:email": "sp_sienno@wp.pl",
                "contact:website": "http:\/\/spsienno.szkolnastrona.pl",
                "ref:regon": "001148561",
                "ref:vatin": "PL7661989997",
                "operator": "Gmina W\u0105growiec",
                "operator:type": "government",
                "amenity": "school"
            }
        },
        {
            "id": 83496,
            "type": "Feature",
            "geometry": {
                "type": "Point",
                "coordinates": [
                    17.2495,
                    52.78084
                ]
            },
            "properties": {
                "isced:level": "1;2",
                "ref:rspo": 83496,
                "official_name": "Szko\u0142a Podstawowa im. Franciszka \u0141aki\u0144skiego w \u0141aziskach",
                "name": "Szko\u0142a Podstawowa",
                "addr:country": "PL",
                "addr:postcode": "62-100",
                "addr:place": "\u0141aziska",
                "addr:housenumber": "51",
                "addr:teryt:sym_ul": 531861,
                "contact:phone": "+48 672622991",
                "contact:email": "sp.laziska@op.pl",
                "contact:website": "https:\/\/splaziska.edupage.org\/",
                "ref:regon": "001148526",
                "ref:vatin": "PL7661990026",
                "operator": "Gmina W\u0105growiec",
                "operator:type": "government",
                "amenity": "school"
            }
        },
        {
            "id": 92357,
            "type": "Feature",
            "geometry": {
                "type": "Point",
                "coordinates": [
                    17.06534,
                    52.83335
                ]
            },
            "properties": {
                "isced:level": "1;2",
                "ref:rspo": 92357,
                "official_name": "Szko\u0142a Podstawowa im. Stanis\u0142awa Staszica w \u017belicach",
                "name": "Szko\u0142a Podstawowa",
                "addr:country": "PL",
                "addr:postcode": "62-113",
                "addr:place": "\u017belice",
                "addr:housenumber": "14A",
                "addr:teryt:sym_ul": 532292,
                "contact:phone": "+48 672616887",
                "contact:email": "sekretariat@spzelice.szkolnastrona.pl",
                "contact:website": "http:\/\/spzelice.szkolnastrona.pl",
                "ref:regon": "001148555",
                "operator": "Gmina W\u0105growiec",
                "operator:type": "government",
                "amenity": "school"
            }
        },
        {
            "id": 83492,
            "type": "Feature",
            "geometry": {
                "type": "Point",
                "coordinates": [
                    17.30473,
                    52.83975
                ]
            },
            "properties": {
                "ref:rspo": 83492,
                "official_name": "Zesp\u00f3\u0142 Szkolno-Przedszkolny w \u0141eknie",
                "name": "Zesp\u00f3\u0142 Szkolno-Przedszkolny w \u0141eknie",
                "addr:country": "PL",
                "addr:postcode": "62-105",
                "addr:city": "\u0141ekno",
                "addr:street": "ul. Pocztowa",
                "addr:housenumber": "7",
                "addr:teryt:simc": 16579,
                "addr:teryt:sym_ul": 531909,
                "contact:phone": "+48 672616017",
                "contact:email": "splekno@poczta.onet.pl",
                "ref:regon": "300655890",
                "ref:vatin": "PL7661990049",
                "operator": "Gmina W\u0105growiec",
                "operator:type": "government",
                "landuse": "education",
                "fixme": "amenity=school, amenity=college albo landuse=education w zale\u017cno\u015bci od tego, jakie plac\u00f3wki wchodz\u0105 w sk\u0142ad zespo\u0142u. Sprawd\u017a, kiedy stosowa\u0107 amenity=* a kiedy landuse=education.",
                "note": "Children RSPO: 92470;92471"
            }
        },
        {
            "id": 92470,
            "type": "Feature",
            "geometry": {
                "type": "Point",
                "coordinates": [
                    17.30473,
                    52.83972
                ]
            },
            "properties": {
                "isced:level": "1;2",
                "ref:rspo": 92470,
                "official_name": "Szko\u0142a Podstawowa im. Powsta\u0144c\u00f3w Wielkopolskich w \u0141eknie",
                "name": "Szko\u0142a Podstawowa",
                "addr:country": "PL",
                "addr:postcode": "62-105",
                "addr:city": "\u0141ekno",
                "addr:street": "ul. Pocztowa",
                "addr:housenumber": "7",
                "addr:teryt:simc": 16579,
                "addr:teryt:sym_ul": 531909,
                "contact:phone": "+48 672616017",
                "contact:email": "leknozsp@gmail.com",
                "contact:website": "http:\/\/www.zsplekno.szkolnastrona.pl",
                "ref:regon": "001148549",
                "operator": "Gmina W\u0105growiec",
                "operator:type": "government",
                "amenity": "school",
                "note": "Parent RSPO: 83492"
            }
        },
        {
            "id": 92471,
            "type": "Feature",
            "geometry": {
                "type": "Point",
                "coordinates": [
                    17.30473,
                    52.839690000000004
                ]
            },
            "properties": {
                "ref:rspo": 92471,
                "official_name": "Przedszkole w \u0141eknie",
                "name": "Przedszkole w \u0141eknie",
                "addr:country": "PL",
                "addr:postcode": "62-105",
                "addr:city": "\u0141ekno",
                "addr:street": "ul. Pocztowa",
                "addr:housenumber": "7",
                "addr:teryt:simc": 16579,
                "addr:teryt:sym_ul": 531909,
                "contact:phone": "+48 672616017",
                "contact:email": "leknozsp@gmail.com",
                "contact:website": "http:\/\/www.zsplekno.szkolnastrona.pl",
                "ref:regon": "570139707",
                "operator": "Gmina W\u0105growiec",
                "operator:type": "government",
                "amenity": "kindergarten",
                "note": "Parent RSPO: 83492"
            }
        },
        {
            "id": 273443,
            "type": "Feature",
            "geometry": {
                "type": "Point",
                "coordinates": [
                    17.19885,
                    52.8501
                ]
            },
            "properties": {
                "ref:rspo": 273443,
                "official_name": "Punkt Rozwoju I Terapii Dziecka \"Niebieska Wyspa\" Niepubliczne Przedszkole dla Dzieci Z Autyzmem",
                "name": "Punkt Rozwoju I Terapii Dziecka \"Niebieska Wyspa\" Niepubliczne Przedszkole dla Dzieci Z Autyzmem",
                "addr:country": "PL",
                "addr:postcode": "62-100",
                "addr:city": "Kobylec",
                "addr:street": "ul. Cedrowa",
                "addr:housenumber": "11",
                "addr:teryt:simc": 2566,
                "addr:teryt:sym_ul": 531795,
                "contact:email": "punkt.nw@gmail.com",
                "ref:regon": "384470863",
                "operator": "Magdalena Kupidura",
                "operator:type": "private",
                "amenity": "kindergarten"
            }
        },
        {
            "id": 267801,
            "type": "Feature",
            "geometry": {
                "type": "Point",
                "coordinates": [
                    17.17348,
                    52.90872
                ]
            },
            "properties": {
                "ref:rspo": 267801,
                "official_name": "Zesp\u00f3\u0142 Szkolno - Przedszkolny w Paw\u0142owie \u017bo\u0144skim",
                "name": "Zesp\u00f3\u0142 Szkolno - Przedszkolny w Paw\u0142owie \u017bo\u0144skim",
                "addr:country": "PL",
                "addr:postcode": "62-104",
                "addr:place": "Paw\u0142owo \u017bo\u0144skie",
                "addr:housenumber": "18",
                "addr:teryt:sym_ul": 531967,
                "contact:phone": "+48 672612727",
                "contact:email": "sppawlowo@wp.pl",
                "contact:website": "http:\/\/www.sppawlowozonskie.szkolnastrona.pl\/",
                "ref:regon": "380659718",
                "ref:vatin": "PL7661998306",
                "operator": "Gmina W\u0105growiec",
                "operator:type": "government",
                "landuse": "education",
                "fixme": "amenity=school, amenity=college albo landuse=education w zale\u017cno\u015bci od tego, jakie plac\u00f3wki wchodz\u0105 w sk\u0142ad zespo\u0142u. Sprawd\u017a, kiedy stosowa\u0107 amenity=* a kiedy landuse=education.",
                "note": "Children RSPO: 83494;267813"
            }
        },
        {
            "id": 83494,
            "type": "Feature",
            "geometry": {
                "type": "Point",
                "coordinates": [
                    17.17348,
                    52.90869
                ]
            },
            "properties": {
                "isced:level": "1;2",
                "ref:rspo": 83494,
                "official_name": "Szko\u0142a Podstawowa w Paw\u0142owie \u017bo\u0144skim",
                "name": "Szko\u0142a Podstawowa w Paw\u0142owie \u017bo\u0144skim",
                "addr:country": "PL",
                "addr:postcode": "62-104",
                "addr:place": "Paw\u0142owo \u017bo\u0144skie",
                "addr:housenumber": "18",
                "addr:teryt:sym_ul": 531967,
                "contact:phone": "+48 672612727",
                "contact:email": "sppawlowo@wp.pl",
                "ref:regon": "001148584",
                "ref:vatin": "PL7661990055",
                "operator": "Gmina W\u0105growiec",
                "operator:type": "government",
                "amenity": "school",
                "note": "Parent RSPO: 267801"
            }
        },
        {
            "id": 267813,
            "type": "Feature",
            "geometry": {
                "type": "Point",
                "coordinates": [
                    17.17348,
                    52.908660000000005
                ]
            },
            "properties": {
                "ref:rspo": 267813,
                "official_name": "Przedszkole w Paw\u0142owie \u017bo\u0144skim",
                "name": "Przedszkole w Paw\u0142owie \u017bo\u0144skim",
                "addr:country": "PL",
                "addr:postcode": "62-104",
                "addr:place": "Paw\u0142owo \u017bo\u0144skie",
                "addr:housenumber": "18",
                "addr:teryt:sym_ul": 531967,
                "contact:phone": "+48 672612727",
                "contact:email": "sppawlowo@wp.pl",
                "contact:website": "http:\/\/www.sppawlowozonskie.szkolnastrona.pl\/",
                "ref:regon": "380672937",
                "operator": "Gmina W\u0105growiec",
                "operator:type": "government",
                "amenity": "kindergarten",
                "note": "Parent RSPO: 267801"
            }
        }
    ]
}