{
    "type": "FeatureCollection",
    "features": [
        {
            "id": 22887,
            "type": "Feature",
            "geometry": {
                "type": "Point",
                "coordinates": [
                    17.34106,
                    52.91951
                ]
            },
            "properties": {
                "isced:level": "1;2",
                "ref:rspo": 22887,
                "official_name": "Szko\u0142a Podstawowa im.stanis\u0142awa Staszica",
                "name": "Szko\u0142a Podstawowa im.stanis\u0142awa Staszica",
                "addr:postcode": "62-130",
                "addr:place": "Morakowo",
                "addr:housenumber": "54",
                "addr:teryt:simc": 526110,
                "phone": "+48 672615328",
                "email": "spmorakowo@wp.pl",
                "website": "http:\/\/www.spmorakowo.pl",
                "ref:regon": "001130791",
                "ref:vatin": "PL7661793923",
                "operator": "Miasto I Gmina Go\u0142a\u0144cz",
                "operator:type": "government",
                "amenity": "school"
            }
        },
        {
            "id": 83228,
            "type": "Feature",
            "geometry": {
                "type": "Point",
                "coordinates": [
                    17.2930199,
                    52.94117
                ]
            },
            "properties": {
                "ref:rspo": 83228,
                "official_name": "M\u0142odzie\u017cowy O\u015brodek Socjoterapii im. Kompanii Go\u0142anieckiej w Go\u0142a\u0144czy",
                "name": "M\u0142odzie\u017cowy O\u015brodek Socjoterapii",
                "addr:postcode": "62-130",
                "addr:city": "Go\u0142a\u0144cz",
                "addr:street": "Walki M\u0142odych",
                "addr:housenumber": "35d",
                "addr:teryt:simc": 966820,
                "addr:teryt:sym_ul": 23550,
                "phone": "+48 672169158",
                "email": "mosgolancz@onet.pl",
                "ref:regon": "301305821",
                "ref:vatin": "PL7661971508",
                "operator": "Powiat W\u0105growiecki",
                "operator:type": "government",
                "fixme": "amenity=social_facility + social_facility=group_home + social_facility:for=juvenile",
                "note": "Children RSPO: 133709"
            }
        },
        {
            "id": 133709,
            "type": "Feature",
            "geometry": {
                "type": "Point",
                "coordinates": [
                    17.2930199,
                    52.94114
                ]
            },
            "properties": {
                "isced:level": "1;2",
                "ref:rspo": 133709,
                "official_name": "Szko\u0142a Podstawowa Specjalna w Go\u0142a\u0144czy",
                "name": "Szko\u0142a Podstawowa Specjalna w Go\u0142a\u0144czy",
                "addr:postcode": "62-130",
                "addr:city": "Go\u0142a\u0144cz",
                "addr:street": "Walki M\u0142odych",
                "addr:housenumber": "35d",
                "addr:teryt:simc": 966820,
                "addr:teryt:sym_ul": 23550,
                "phone": "+48 672169158",
                "email": "mosgolancz@onet.pl",
                "website": "http:\/\/www.mosgolancz.pl",
                "ref:regon": "367557853",
                "operator": "Powiat W\u0105growiecki",
                "operator:type": "government",
                "amenity": "school",
                "note": "Parent RSPO: 83228"
            }
        },
        {
            "id": 84959,
            "type": "Feature",
            "geometry": {
                "type": "Point",
                "coordinates": [
                    17.2933652,
                    52.9413361
                ]
            },
            "properties": {
                "ref:rspo": 84959,
                "official_name": "Zesp\u00f3\u0142 Szk\u00f3\u0142 im. Karola Libelta w Go\u0142a\u0144czy",
                "name": "Zesp\u00f3\u0142 Szk\u00f3\u0142",
                "addr:postcode": "62-130",
                "addr:city": "Go\u0142a\u0144cz",
                "addr:street": "Walki M\u0142odych",
                "addr:housenumber": "35",
                "addr:teryt:simc": 966820,
                "addr:teryt:sym_ul": 23550,
                "phone": "+48 672683156",
                "email": "zsp_golancz@onet.pl",
                "website": "http:\/\/www.zspgolancz.szkolnastrona.pl",
                "ref:regon": "000100167",
                "ref:vatin": "PL7661437499",
                "operator": "Powiat W\u0105growiecki",
                "operator:type": "government",
                "landuse": "education",
                "fixme": "amenity=school, amenity=college albo landuse=education w zale\u017cno\u015bci od tego, jakie plac\u00f3wki wchodz\u0105 w sk\u0142ad zespo\u0142u. Sprawd\u017a, kiedy stosowa\u0107 amenity=* a kiedy landuse=education.",
                "note": "Children RSPO: 87071;87094;87117;88173;88277"
            }
        },
        {
            "id": 87071,
            "type": "Feature",
            "geometry": {
                "type": "Point",
                "coordinates": [
                    17.2933652,
                    52.9413061
                ]
            },
            "properties": {
                "isced:level": "3",
                "ref:rspo": 87071,
                "official_name": "Liceum Og\u00f3lnokszta\u0142c\u0105ce w Go\u0142a\u0144czy",
                "name": "Liceum Og\u00f3lnokszta\u0142c\u0105ce w Go\u0142a\u0144czy",
                "addr:postcode": "62-130",
                "addr:city": "Go\u0142a\u0144cz",
                "addr:street": "Walki M\u0142odych",
                "addr:housenumber": "35",
                "addr:teryt:simc": 966820,
                "addr:teryt:sym_ul": 23550,
                "phone": "+48 672683156",
                "email": "zsp_golancz@onet.pl",
                "website": "http:\/\/www.zspgolancz.szkolnastrona.pl",
                "ref:regon": "572043437",
                "operator": "Powiat W\u0105growiecki",
                "operator:type": "government",
                "amenity": "school",
                "note": "Parent RSPO: 84959"
            }
        },
        {
            "id": 87094,
            "type": "Feature",
            "geometry": {
                "type": "Point",
                "coordinates": [
                    17.2933652,
                    52.9412761
                ]
            },
            "properties": {
                "isced:level": "3",
                "ref:rspo": 87094,
                "official_name": "Bran\u017cowa Szko\u0142a I Stopnia w Go\u0142a\u0144czy",
                "name": "Bran\u017cowa Szko\u0142a I Stopnia w Go\u0142a\u0144czy",
                "addr:postcode": "62-130",
                "addr:city": "Go\u0142a\u0144cz",
                "addr:street": "Walki M\u0142odych",
                "addr:housenumber": "35",
                "addr:teryt:simc": 966820,
                "addr:teryt:sym_ul": 23550,
                "phone": "+48 672683156",
                "email": "zsp_golancz@onet.pl",
                "website": "http:\/\/www.zspgolancz.szkolnastrona.pl",
                "ref:regon": "572043420",
                "operator": "Powiat W\u0105growiecki",
                "operator:type": "government",
                "amenity": "school",
                "note": "Parent RSPO: 84959"
            }
        },
        {
            "id": 87117,
            "type": "Feature",
            "geometry": {
                "type": "Point",
                "coordinates": [
                    17.2933652,
                    52.9412461
                ]
            },
            "properties": {
                "isced:level": "3",
                "ref:rspo": 87117,
                "official_name": "Technikum w Go\u0142a\u0144czy",
                "name": "Technikum w Go\u0142a\u0144czy",
                "addr:postcode": "62-130",
                "addr:city": "Go\u0142a\u0144cz",
                "addr:street": "Walki M\u0142odych",
                "addr:housenumber": "35",
                "addr:teryt:simc": 966820,
                "addr:teryt:sym_ul": 23550,
                "phone": "+48 672683156",
                "email": "zsp_golancz@onet.pl",
                "website": "http:\/\/www.zspgolancz.szkolnastrona.pl",
                "ref:regon": "300118867",
                "operator": "Powiat W\u0105growiecki",
                "operator:type": "government",
                "amenity": "school",
                "note": "Parent RSPO: 84959"
            }
        },
        {
            "id": 88173,
            "type": "Feature",
            "geometry": {
                "type": "Point",
                "coordinates": [
                    17.2933652,
                    52.9412161
                ]
            },
            "properties": {
                "isced:level": "3",
                "ref:rspo": 88173,
                "official_name": "Liceum Og\u00f3lnokszta\u0142c\u0105ce dla Doros\u0142ych w Go\u0142a\u0144czy",
                "name": "Liceum Og\u00f3lnokszta\u0142c\u0105ce dla Doros\u0142ych w Go\u0142a\u0144czy",
                "addr:postcode": "62-130",
                "addr:city": "Go\u0142a\u0144cz",
                "addr:street": "Walki M\u0142odych",
                "addr:housenumber": "35",
                "addr:teryt:simc": 966820,
                "addr:teryt:sym_ul": 23550,
                "phone": "+48 672683156",
                "email": "zsp_golancz@onet.pl",
                "website": "http:\/\/www.zspgolancz.szkolnastrona.pl",
                "ref:regon": "302272897",
                "operator": "Powiat W\u0105growiecki",
                "operator:type": "government",
                "amenity": "school",
                "note": "Parent RSPO: 84959"
            }
        },
        {
            "id": 88277,
            "type": "Feature",
            "geometry": {
                "type": "Point",
                "coordinates": [
                    17.2933652,
                    52.9411861
                ]
            },
            "properties": {
                "isced:level": "4",
                "ref:rspo": 88277,
                "official_name": "Szko\u0142a Policealna w Go\u0142a\u0144czy",
                "name": "Szko\u0142a Policealna w Go\u0142a\u0144czy",
                "addr:postcode": "62-130",
                "addr:city": "Go\u0142a\u0144cz",
                "addr:street": "Walki M\u0142odych",
                "addr:housenumber": "35",
                "addr:teryt:simc": 966820,
                "addr:teryt:sym_ul": 23550,
                "phone": "+48 672683156",
                "email": "zsp_golancz@onet.pl",
                "website": "http:\/\/www.zspgolancz.szkolnastrona.pl",
                "ref:regon": "572116573",
                "operator": "Powiat W\u0105growiecki",
                "operator:type": "government",
                "amenity": "college",
                "note": "Parent RSPO: 84959"
            }
        },
        {
            "id": 20458,
            "type": "Feature",
            "geometry": {
                "type": "Point",
                "coordinates": [
                    17.30216,
                    52.94141
                ]
            },
            "properties": {
                "ref:rspo": 20458,
                "official_name": "Przedszkole Publiczne w Go\u0142a\u0144czy",
                "name": "Przedszkole Publiczne w Go\u0142a\u0144czy",
                "addr:postcode": "62-130",
                "addr:city": "Go\u0142a\u0144cz",
                "addr:street": "Karola Libelta",
                "addr:housenumber": "1",
                "addr:teryt:simc": 966820,
                "addr:teryt:sym_ul": 11021,
                "phone": "+48 672615073",
                "email": "przedszkolegolancz@wp.pl",
                "ref:regon": "570900185",
                "ref:vatin": "PL7661793917",
                "operator": "Miasto I Gmina Go\u0142a\u0144cz",
                "operator:type": "government",
                "amenity": "kindergarten"
            }
        },
        {
            "id": 24635,
            "type": "Feature",
            "geometry": {
                "type": "Point",
                "coordinates": [
                    17.30263,
                    52.9455
                ]
            },
            "properties": {
                "isced:level": "1;2",
                "ref:rspo": 24635,
                "official_name": "Szko\u0142a Podstawowa im.pp\u0142ka.w\u0142 Kowalskiego\nW Go\u0142a\u0144czy",
                "name": "Szko\u0142a Podstawowa im.pp\u0142ka.w\u0142 Kowalskiego\nW Go\u0142a\u0144czy",
                "addr:postcode": "62-130",
                "addr:city": "Go\u0142a\u0144cz",
                "addr:street": "Klasztorna",
                "addr:housenumber": "3",
                "addr:teryt:simc": 966820,
                "addr:teryt:sym_ul": 8485,
                "phone": "+48 672615027",
                "email": "gimgolancz@szkola.wp.pl",
                "ref:regon": "000600579",
                "ref:vatin": "PL7661793975",
                "operator": "Miasto I Gmina Go\u0142a\u0144cz",
                "operator:type": "government",
                "amenity": "school"
            }
        },
        {
            "id": 22889,
            "type": "Feature",
            "geometry": {
                "type": "Point",
                "coordinates": [
                    17.39899,
                    52.95715
                ]
            },
            "properties": {
                "isced:level": "1;2",
                "ref:rspo": 22889,
                "official_name": "Szko\u0142a Podstawowa im.miko\u0142aja Kopernika",
                "name": "Szko\u0142a Podstawowa im.miko\u0142aja Kopernika",
                "addr:postcode": "62-130",
                "addr:place": "Panigr\u00f3dz",
                "addr:housenumber": "24",
                "addr:teryt:simc": 526140,
                "phone": "+48 672615839",
                "email": "szkola.panigrodz@wp.pl",
                "ref:regon": "001130360",
                "ref:vatin": "PL7661793946",
                "operator": "Miasto I Gmina Go\u0142a\u0144cz",
                "operator:type": "government",
                "amenity": "school"
            }
        },
        {
            "id": 22891,
            "type": "Feature",
            "geometry": {
                "type": "Point",
                "coordinates": [
                    17.32797,
                    53.02947
                ]
            },
            "properties": {
                "isced:level": "1;2",
                "ref:rspo": 22891,
                "official_name": "Szko\u0142a Podstawowa im.dyrektora Norberta Przybylskiego",
                "name": "Szko\u0142a Podstawowa im.dyrektora Norberta Przybylskiego",
                "addr:postcode": "62-130",
                "addr:place": "Smogulec",
                "addr:housenumber": "13",
                "addr:teryt:simc": 526191,
                "phone": "+48 672682058",
                "email": "spsmogulec@wp.pl",
                "ref:regon": "001130377",
                "ref:vatin": "PL7661793969",
                "operator": "Miasto I Gmina Go\u0142a\u0144cz",
                "operator:type": "government",
                "amenity": "school"
            }
        }
    ]
}