{
    "type": "FeatureCollection",
    "features": [
        {
            "id": 114892,
            "type": "Feature",
            "geometry": {
                "type": "Point",
                "coordinates": [
                    17.19982,
                    52.59958
                ]
            },
            "properties": {
                "isced:level": "1;2",
                "ref:rspo": 114892,
                "official_name": "Szko\u0142a Podstawowa w Jab\u0142kowie - Filia w Paw\u0142owie Skockim",
                "name": "Szko\u0142a Podstawowa w Jab\u0142kowie - Filia w Paw\u0142owie Skockim",
                "addr:country": "PL",
                "addr:postcode": "62-093",
                "addr:place": "Paw\u0142owo Skockie",
                "addr:housenumber": "5",
                "addr:teryt:sym_ul": 594778,
                "contact:phone": "+48 607706018",
                "contact:email": "sekretariat@stowarzyszenietecza.pl",
                "ref:regon": "302301423",
                "operator": "Stowarzyszenie Edukacyjne T\u0119cza",
                "operator:type": "ngo",
                "amenity": "school",
                "note": "Parent RSPO: 104751"
            }
        },
        {
            "id": 114890,
            "type": "Feature",
            "geometry": {
                "type": "Point",
                "coordinates": [
                    17.16862,
                    52.62288
                ]
            },
            "properties": {
                "isced:level": "1;2",
                "ref:rspo": 114890,
                "official_name": "Szko\u0142a Podstawowa w Jab\u0142kowie -Filia Rejowiec",
                "name": "Szko\u0142a Podstawowa w Jab\u0142kowie -Filia Rejowiec",
                "addr:country": "PL",
                "addr:postcode": "62-093",
                "addr:place": "Rejowiec",
                "addr:housenumber": "12",
                "addr:teryt:sym_ul": 594873,
                "contact:phone": "+48 607706774",
                "contact:email": "sekretariat@stowarzyszenietecza.pl",
                "ref:regon": "302301423",
                "operator": "Stowarzyszenie Edukacyjne T\u0119cza",
                "operator:type": "ngo",
                "amenity": "school",
                "note": "Parent RSPO: 104751"
            }
        },
        {
            "id": 60370,
            "type": "Feature",
            "geometry": {
                "type": "Point",
                "coordinates": [
                    17.19923,
                    52.6547399
                ]
            },
            "properties": {
                "ref:rspo": 60370,
                "official_name": "M\u0142odzie\u017cowy O\u015brodek Wychowawczy im. Janusza Korczaka w Antoniewie",
                "name": "M\u0142odzie\u017cowy O\u015brodek Wychowawczy",
                "addr:country": "PL",
                "addr:postcode": "62-085",
                "addr:place": "Antoniewo",
                "addr:housenumber": "11",
                "addr:teryt:sym_ul": 594590,
                "contact:phone": "+48 618124251",
                "contact:email": "mow@antoniewo.pl",
                "ref:regon": "000239818",
                "ref:vatin": "PL7841560014",
                "operator": "Powiat W\u0105growiecki",
                "operator:type": "government",
                "fixme": "amenity=social_facility + social_facility=group_home + social_facility:for=juvenile",
                "note": "Children RSPO: 72684;75526;133655"
            }
        },
        {
            "id": 72684,
            "type": "Feature",
            "geometry": {
                "type": "Point",
                "coordinates": [
                    17.19923,
                    52.6547099
                ]
            },
            "properties": {
                "isced:level": "1;2",
                "ref:rspo": 72684,
                "official_name": "Szko\u0142a Podstawowa Specjalna w Antoniewie",
                "name": "Szko\u0142a Podstawowa Specjalna w Antoniewie",
                "addr:country": "PL",
                "addr:postcode": "62-085",
                "addr:place": "Antoniewo",
                "addr:housenumber": "11",
                "addr:teryt:sym_ul": 594590,
                "contact:phone": "+48 618124251",
                "contact:email": "mow@antoniewo.pl",
                "ref:regon": "572046565",
                "operator": "Powiat W\u0105growiecki",
                "operator:type": "government",
                "amenity": "school",
                "note": "Parent RSPO: 60370"
            }
        },
        {
            "id": 75526,
            "type": "Feature",
            "geometry": {
                "type": "Point",
                "coordinates": [
                    17.19923,
                    52.654679900000005
                ]
            },
            "properties": {
                "isced:level": "3",
                "ref:rspo": 75526,
                "official_name": "Bran\u017cowa Szko\u0142a I Stopnia Specjalna w Antoniewie",
                "name": "Bran\u017cowa Szko\u0142a I Stopnia Specjalna w Antoniewie",
                "addr:country": "PL",
                "addr:postcode": "62-085",
                "addr:place": "Antoniewo",
                "addr:housenumber": "11",
                "addr:teryt:sym_ul": 594590,
                "contact:phone": "+48 618124251",
                "contact:email": "mow@antoniewo.pl",
                "ref:regon": "572046571",
                "operator": "Powiat W\u0105growiecki",
                "operator:type": "government",
                "amenity": "school",
                "note": "Parent RSPO: 60370"
            }
        },
        {
            "id": 133655,
            "type": "Feature",
            "geometry": {
                "type": "Point",
                "coordinates": [
                    17.19923,
                    52.6546499
                ]
            },
            "properties": {
                "isced:level": "3",
                "ref:rspo": 133655,
                "official_name": "Liceum Og\u00f3lnokszta\u0142c\u0105ce Specjalne w Antoniewie",
                "name": "Liceum Og\u00f3lnokszta\u0142c\u0105ce Specjalne w Antoniewie",
                "addr:country": "PL",
                "addr:postcode": "62-085",
                "addr:place": "Antoniewo",
                "addr:housenumber": "11",
                "addr:teryt:sym_ul": 594590,
                "contact:phone": "+48 618124251",
                "contact:email": "mow@antoniewo.pl",
                "contact:website": "http:\/\/www.antoniewo.pl",
                "ref:regon": "367515783",
                "operator": "Powiat W\u0105growiecki",
                "operator:type": "government",
                "amenity": "school",
                "note": "Parent RSPO: 60370"
            }
        },
        {
            "id": 104751,
            "type": "Feature",
            "geometry": {
                "type": "Point",
                "coordinates": [
                    17.30523,
                    52.65773
                ]
            },
            "properties": {
                "isced:level": "1;2",
                "ref:rspo": 104751,
                "official_name": "Szko\u0142a Podstawowa w Jab\u0142kowie",
                "name": "Szko\u0142a Podstawowa w Jab\u0142kowie",
                "addr:country": "PL",
                "addr:postcode": "62-285",
                "addr:place": "Jab\u0142kowo",
                "addr:housenumber": "16",
                "addr:teryt:sym_ul": 594650,
                "contact:phone": "+48 614278843",
                "contact:email": "s.kedziora@stowarzyszenietecza.pl",
                "contact:website": "http:\/\/www.stowarzyszenietecza.pl",
                "ref:regon": "302301423",
                "operator": "Stowarzyszenie Edukacyjne T\u0119cza",
                "operator:type": "ngo",
                "amenity": "school",
                "note": "Children RSPO: 114890;114891;114892"
            }
        },
        {
            "id": 104774,
            "type": "Feature",
            "geometry": {
                "type": "Point",
                "coordinates": [
                    17.30523,
                    52.6577
                ]
            },
            "properties": {
                "ref:rspo": 104774,
                "official_name": "Przedszkole Publiczne Imienia T\u0119czowa \u0141\u0105ka w Jab\u0142kowie",
                "name": "Przedszkole Publiczne Imienia T\u0119czowa \u0141\u0105ka w Jab\u0142kowie",
                "addr:country": "PL",
                "addr:postcode": "62-285",
                "addr:place": "Jab\u0142kowo",
                "addr:housenumber": "16",
                "addr:teryt:sym_ul": 594650,
                "contact:phone": "+48 614278843",
                "contact:email": "sekretariat@stowarzyszenietecza.pl",
                "ref:regon": "302301400",
                "operator": "Stowarzyszenie Edukacyjne T\u0119cza",
                "operator:type": "ngo",
                "amenity": "kindergarten"
            }
        },
        {
            "id": 104780,
            "type": "Feature",
            "geometry": {
                "type": "Point",
                "coordinates": [
                    17.1141599,
                    52.66883
                ]
            },
            "properties": {
                "ref:rspo": 104780,
                "official_name": "Niepubliczne Przedszkole Artystyczne w Potrzanowie",
                "name": "Niepubliczne Przedszkole Artystyczne w Potrzanowie",
                "addr:country": "PL",
                "addr:postcode": "62-085",
                "addr:city": "Potrzanowo",
                "addr:street": "ul. Szkolna",
                "addr:housenumber": "1",
                "addr:teryt:simc": 21970,
                "addr:teryt:sym_ul": 594821,
                "contact:phone": "+48 618256707",
                "contact:email": "przedszkole.potrzanowo@onet.pl",
                "ref:regon": "302299821",
                "operator": "Mieczys\u0142aw Jarzembowski",
                "operator:type": "private",
                "amenity": "kindergarten"
            }
        },
        {
            "id": 27980,
            "type": "Feature",
            "geometry": {
                "type": "Point",
                "coordinates": [
                    17.1454099,
                    52.67089
                ]
            },
            "properties": {
                "isced:level": "1;2",
                "ref:rspo": 27980,
                "official_name": "Szko\u0142a Podstawowa Imienia Adama Mickiewicza w Skokach",
                "name": "Szko\u0142a Podstawowa Imienia Adama Mickiewicza w Skokach",
                "addr:country": "PL",
                "addr:postcode": "62-085",
                "addr:city": "Skoki",
                "addr:street": "ul. Pozna\u0144ska",
                "addr:housenumber": "2",
                "addr:teryt:simc": 17394,
                "addr:teryt:sym_ul": 971459,
                "contact:phone": "+48 618124021",
                "contact:email": "skokisp@poczta.onet.pl",
                "contact:website": "http:\/\/www.szp-skoki.pl",
                "ref:regon": "000600556",
                "ref:vatin": "PL7661756891",
                "operator": "Gmina Skoki",
                "operator:type": "government",
                "amenity": "school"
            }
        },
        {
            "id": 127400,
            "type": "Feature",
            "geometry": {
                "type": "Point",
                "coordinates": [
                    17.15963,
                    52.67174
                ]
            },
            "properties": {
                "ref:rspo": 127400,
                "official_name": "Niepubliczne Przedszkole J\u0119zykowe \n\" Akademia Rozwoju \"",
                "name": "Niepubliczne Przedszkole J\u0119zykowe \n\" Akademia Rozwoju \"",
                "addr:country": "PL",
                "addr:postcode": "62-085",
                "addr:city": "Skoki",
                "addr:street": "ul. Kazimierza Wielkiego",
                "addr:housenumber": "19",
                "addr:teryt:simc": 8265,
                "addr:teryt:sym_ul": 971459,
                "contact:phone": "+48 604140973",
                "contact:email": "agnieszka.fertsch@interia.pl",
                "ref:regon": "361525250",
                "operator": "Agnieszka Fertsch",
                "operator:type": "private",
                "amenity": "kindergarten"
            }
        },
        {
            "id": 104739,
            "type": "Feature",
            "geometry": {
                "type": "Point",
                "coordinates": [
                    17.15867,
                    52.67639
                ]
            },
            "properties": {
                "ref:rspo": 104739,
                "official_name": "Przedszkole Samorz\u0105dowe Imienia Kubusia Puchatka w Skokach",
                "name": "Przedszkole Samorz\u0105dowe Imienia Kubusia Puchatka w Skokach",
                "addr:country": "PL",
                "addr:postcode": "62-085",
                "addr:city": "Skoki",
                "addr:street": "ul. Henryka Sienkiewicza",
                "addr:housenumber": "19",
                "addr:teryt:simc": 19834,
                "addr:teryt:sym_ul": 971459,
                "contact:phone": "+48 618124982",
                "contact:email": "dyrprzedszkolaskoki@wp.pl",
                "ref:regon": "630970370",
                "ref:vatin": "PL7661756945",
                "operator": "Gmina Skoki",
                "operator:type": "government",
                "amenity": "kindergarten"
            }
        },
        {
            "id": 114891,
            "type": "Feature",
            "geometry": {
                "type": "Point",
                "coordinates": [
                    17.14943,
                    52.70683
                ]
            },
            "properties": {
                "isced:level": "1;2",
                "ref:rspo": 114891,
                "official_name": "Szko\u0142a Podstawowa w Jab\u0142kowie - Filia w Lechlinie",
                "name": "Szko\u0142a Podstawowa w Jab\u0142kowie - Filia w Lechlinie",
                "addr:country": "PL",
                "addr:postcode": "62-085",
                "addr:place": "Lechlin",
                "addr:housenumber": "9",
                "addr:teryt:sym_ul": 594695,
                "contact:phone": "+48 607709822",
                "contact:email": "sekretariat@stowarzyszenietecza.pl",
                "ref:regon": "302301423",
                "operator": "Stowarzyszenie Edukacyjne T\u0119cza",
                "operator:type": "ngo",
                "amenity": "school",
                "note": "Parent RSPO: 104751"
            }
        }
    ]
}