{"type":"FeatureCollection","features":[{"id":23580,"type":"Feature","geometry":{"type":"Point","coordinates":[18.1952,50.05735]},"properties":{"isced:level":"1;2","ref:rspo":23580,"official_name":"Katolicka Niepubliczna Szko\u0142a Podstawowa im. B\u0142. Jana Paw\u0142a Ii","name":"Katolicka Niepubliczna Szko\u0142a Podstawowa","addr:country":"PL","addr:postcode":"47-400","addr:city":"Racib\u00f3rz","addr:street":"ul. Kornela Makuszy\u0144skiego","addr:housenumber":"1","addr:teryt:simc":12024,"addr:teryt:sym_ul":942469,"contact:phone":"+48 324152224","contact:email":"katolicka.niepublicznaszkolapodstawowa@op.pl","contact:website":"http:\/\/www.katolickasp.pl","ref:regon":"243058617","operator":"Stowarzyszenie Rozwoju Dzielnicy Sud\u00f3\u0142","operator:type":"ngo","amenity":"school"}},{"id":24392,"type":"Feature","geometry":{"type":"Point","coordinates":[18.1952,50.05732]},"properties":{"ref:rspo":24392,"official_name":"Niepubliczne Przedszkole Kubusia Puchatka","name":"Niepubliczne Przedszkole Kubusia Puchatka","addr:country":"PL","addr:postcode":"47-400","addr:city":"Racib\u00f3rz","addr:street":"ul. Kornela Makuszy\u0144skiego","addr:housenumber":"1","addr:teryt:simc":12024,"addr:teryt:sym_ul":942469,"contact:phone":"+48 324191896","contact:email":"przedszkolesudol@gmail.com","ref:regon":"243061424","ref:vatin":"PL6391950653","operator":"Stowarzyszenie Rozwoju Dzielnicy Sud\u00f3\u0142","operator:type":"ngo","amenity":"kindergarten"}},{"id":129101,"type":"Feature","geometry":{"type":"Point","coordinates":[18.19376,50.06763]},"properties":{"ref:rspo":129101,"official_name":"Zesp\u00f3\u0142 Szkolno - Przedszkolny Nr 4","name":"Zesp\u00f3\u0142 Szkolno - Przedszkolny Nr 4","addr:country":"PL","addr:postcode":"47-400","addr:city":"Racib\u00f3rz","addr:street":"ul. Bojanowska","addr:housenumber":"5","addr:teryt:simc":1703,"addr:teryt:sym_ul":942469,"contact:phone":"+48 324155048","contact:email":"zsp4raciborz@poczta.onet.pl","contact:website":"http:\/\/zsp4-raciborz.pl","ref:regon":"362471584","operator":"Miasto Racib\u00f3rz","operator:type":"government","landuse":"education","fixme":"amenity=school, amenity=college albo landuse=education w zale\u017cno\u015bci od tego, jakie plac\u00f3wki wchodz\u0105 w sk\u0142ad zespo\u0142u. Sprawd\u017a, kiedy stosowa\u0107 amenity=* a kiedy landuse=education.","note":"Children RSPO: 19787;25234"}},{"id":25234,"type":"Feature","geometry":{"type":"Point","coordinates":[18.19376,50.0676]},"properties":{"isced:level":"1;2","ref:rspo":25234,"official_name":"Szko\u0142a Podstawowa Nr 5 im. Jana Brzechwy Z J\u0119zykiem Mniejszo\u015bci Niemieckiej","name":"Szko\u0142a Podstawowa Nr 5","addr:country":"PL","addr:postcode":"47-400","addr:city":"Racib\u00f3rz","addr:street":"ul. Bojanowska","addr:housenumber":"5","addr:teryt:simc":1703,"addr:teryt:sym_ul":942469,"contact:phone":"+48 324155048","contact:email":"zsp4raciborz@poczta.onet.pl","contact:website":"http:\/\/zsp4-raciborz.pl","ref:regon":"000724005","ref:vatin":"PL6391771873","operator":"Miasto Racib\u00f3rz","operator:type":"government","amenity":"school","note":"Parent RSPO: 129101"}},{"id":19787,"type":"Feature","geometry":{"type":"Point","coordinates":[18.19328,50.06777]},"properties":{"ref:rspo":19787,"official_name":"Przedszkole Nr 5","name":"Przedszkole Nr 5","addr:country":"PL","addr:postcode":"47-400","addr:city":"Racib\u00f3rz","addr:street":"ul. Bojanowska","addr:housenumber":"7","addr:teryt:simc":1703,"addr:teryt:sym_ul":942469,"contact:phone":"+48 324155048","contact:email":"zsp4raciborz@poczta.onet.pl","contact:website":"http:\/\/zsp4-raciborz.pl","ref:regon":"271507861","ref:vatin":"PL6391791166","operator":"Miasto Racib\u00f3rz","operator:type":"government","amenity":"kindergarten","note":"Parent RSPO: 129101"}},{"id":19794,"type":"Feature","geometry":{"type":"Point","coordinates":[18.26291,50.0707499]},"properties":{"ref:rspo":19794,"official_name":"Przedszkole Nr 16","name":"Przedszkole Nr 16","addr:country":"PL","addr:postcode":"47-400","addr:city":"Racib\u00f3rz","addr:street":"ul. Brzeska","addr:housenumber":"54","addr:teryt:simc":2230,"addr:teryt:sym_ul":942469,"contact:phone":"+48 324156816","contact:email":"p-16@o2.pl","ref:regon":"271507973","ref:vatin":"PL6391791108","operator":"Miasto Racib\u00f3rz","operator:type":"government","amenity":"kindergarten"}},{"id":25172,"type":"Feature","geometry":{"type":"Point","coordinates":[18.26382,50.0744]},"properties":{"isced:level":"1;2","ref:rspo":25172,"official_name":"Szko\u0142a Podstawowa Nr 3 im.krzysztofa Kamila Baczy\u0144skiego","name":"Szko\u0142a Podstawowa Nr 3 im.krzysztofa Kamila Baczy\u0144skiego","addr:country":"PL","addr:postcode":"47-400","addr:city":"Racib\u00f3rz","addr:street":"ul. Kapitana Serafina My\u015bliwca","addr:housenumber":"16","addr:teryt:simc":47837,"addr:teryt:sym_ul":942469,"contact:phone":"+48 324153920","contact:email":"szkola@sp3raciborz.pl","ref:regon":"000723980","ref:vatin":"PL6391771146","operator":"Miasto Racib\u00f3rz","operator:type":"government","amenity":"school"}},{"id":19795,"type":"Feature","geometry":{"type":"Point","coordinates":[18.20288,50.07859]},"properties":{"ref:rspo":19795,"official_name":"Przedszkole Nr 20 im. Janusza Korczaka","name":"Przedszkole Nr 20","addr:country":"PL","addr:postcode":"47-400","addr:city":"Racib\u00f3rz","addr:street":"ul. Polna","addr:housenumber":"25a","addr:teryt:simc":17011,"addr:teryt:sym_ul":942469,"contact:phone":"+48 324155520","contact:email":"p20@ostrog.net","ref:regon":"271508004","ref:vatin":"PL6391791054","operator":"Miasto Racib\u00f3rz","operator:type":"government","amenity":"kindergarten"}},{"id":21851,"type":"Feature","geometry":{"type":"Point","coordinates":[18.17195,50.07891]},"properties":{"ref:rspo":21851,"official_name":"Zesp\u00f3\u0142 Szkolno-Przedszkolny Nr 2","name":"Zesp\u00f3\u0142 Szkolno-Przedszkolny Nr 2","addr:country":"PL","addr:postcode":"47-400","addr:city":"Racib\u00f3rz","addr:street":"ul. Juliana Tuwima","addr:housenumber":"1","addr:teryt:simc":23196,"addr:teryt:sym_ul":942469,"contact:phone":"+48 324155636","contact:email":"zsp2rac@poczta.onet.pl","ref:regon":"240155679","ref:vatin":"PL6391874691","operator":"Miasto Racib\u00f3rz","operator:type":"government","landuse":"education","fixme":"amenity=school, amenity=college albo landuse=education w zale\u017cno\u015bci od tego, jakie plac\u00f3wki wchodz\u0105 w sk\u0142ad zespo\u0142u. Sprawd\u017a, kiedy stosowa\u0107 amenity=* a kiedy landuse=education.","note":"Children RSPO: 25409;25416"}},{"id":25409,"type":"Feature","geometry":{"type":"Point","coordinates":[18.17195,50.07888]},"properties":{"isced:level":"1;2","ref:rspo":25409,"official_name":"Szko\u0142a Podstawowa Nr 7 im. Tadeusza Ko\u015bciuszki","name":"Szko\u0142a Podstawowa Nr 7","addr:country":"PL","addr:postcode":"47-400","addr:city":"Racib\u00f3rz","addr:street":"ul. Juliana Tuwima","addr:housenumber":"1","addr:teryt:simc":23196,"addr:teryt:sym_ul":942469,"contact:phone":"+48 324155636","contact:email":"zsp2rac@poczta.onet.pl","contact:website":"http:\/\/zs2raciborz.szkoly.interklasa.pl\/","ref:regon":"000724028","operator":"Miasto Racib\u00f3rz","operator:type":"government","amenity":"school","note":"Parent RSPO: 21851"}},{"id":25416,"type":"Feature","geometry":{"type":"Point","coordinates":[18.17195,50.07885]},"properties":{"ref:rspo":25416,"official_name":"Przedszkole Nr 9","name":"Przedszkole Nr 9","addr:country":"PL","addr:postcode":"47-400","addr:city":"Racib\u00f3rz","addr:street":"ul. Juliana Tuwima","addr:housenumber":"1","addr:teryt:simc":23196,"addr:teryt:sym_ul":942469,"contact:phone":"+48 324155636","contact:email":"zsp2rac@poczta.onet.pl","ref:regon":"271507909","operator":"Miasto Racib\u00f3rz","operator:type":"government","amenity":"kindergarten","note":"Parent RSPO: 21851"}},{"id":19792,"type":"Feature","geometry":{"type":"Point","coordinates":[18.20887,50.07935]},"properties":{"ref:rspo":19792,"official_name":"Przedszkole Nr 14","name":"Przedszkole Nr 14","addr:country":"PL","addr:postcode":"47-400","addr:city":"Racib\u00f3rz","addr:street":"ul. S\u0142oneczna","addr:housenumber":"31","addr:teryt:simc":20254,"addr:teryt:sym_ul":942469,"contact:phone":"+48 324155269","contact:email":"p14raciborz@op.pl","ref:regon":"271507950","ref:vatin":"PL6391791203","operator":"Miasto Racib\u00f3rz","operator:type":"government","amenity":"kindergarten"}},{"id":278295,"type":"Feature","geometry":{"type":"Point","coordinates":[18.20779,50.0812]},"properties":{"ref:rspo":278295,"official_name":"Terapeutyczny Punkt Przedszkolny \"Gucio\"","name":"Terapeutyczny Punkt Przedszkolny \"Gucio\"","addr:country":"PL","addr:postcode":"47-400","addr:city":"Racib\u00f3rz","addr:street":"ul. Opawska","addr:housenumber":"90","addr:door":"9","addr:teryt:simc":15075,"addr:teryt:sym_ul":942469,"contact:phone":"+48 693414046","contact:email":"kalinkabeata@wp.pl","ref:regon":"389858767","operator":"Beata Kalinka-Ka\u0142do\u0144ska","operator:type":"private","amenity":"kindergarten"}},{"id":105127,"type":"Feature","geometry":{"type":"Point","coordinates":[18.23628,50.08141]},"properties":{"ref:rspo":105127,"official_name":"Zak\u0142ad Poprawczy I Schronisko dla Nieletnich w Raciborzu","name":"Zak\u0142ad Poprawczy I Schronisko dla Nieletnich w Raciborzu","addr:country":"PL","addr:postcode":"47-400","addr:city":"Racib\u00f3rz","addr:street":"ul. Kaspra Adamczyka","addr:housenumber":"14","addr:teryt:simc":30220,"addr:teryt:sym_ul":942469,"contact:phone":"+48 324153003","contact:email":"sekretariat@raciborz.zpisdn.gov.pl","contact:website":"http:\/\/www.raciborz.zpisdn.gov.pl","ref:regon":"000323832","operator":"Ministerstwo Sprawiedliwo\u015bci","operator:type":"public","note":"Children RSPO: 124764;124768"}},{"id":124764,"type":"Feature","geometry":{"type":"Point","coordinates":[18.23628,50.081379999999996]},"properties":{"isced:level":"1;2","ref:rspo":124764,"official_name":"Szko\u0142a Podstawowa Nr 16 w Zak\u0142adzie Poprawczym I Schronisku dla Nieletnich w Raciborzu","name":"Szko\u0142a Podstawowa Nr 16 w Zak\u0142adzie Poprawczym I Schronisku dla Nieletnich w Raciborzu","addr:country":"PL","addr:postcode":"47-400","addr:city":"Racib\u00f3rz","addr:street":"ul. Kaspra Adamczyka","addr:housenumber":"14","addr:teryt:simc":30220,"addr:teryt:sym_ul":942469,"contact:phone":"+48 324153474","contact:email":"sekretariat@raciborz.zpisdn.gov.pl","contact:website":"http:\/\/www.raciborz.zpisdn.gov.pl","ref:regon":"243663672","operator":"Ministerstwo Sprawiedliwo\u015bci","operator:type":"public","amenity":"school","note":"Parent RSPO: 105127"}},{"id":124768,"type":"Feature","geometry":{"type":"Point","coordinates":[18.23628,50.08135]},"properties":{"isced:level":"3","ref:rspo":124768,"official_name":"Bran\u017cowa Szko\u0142a I Stopnia Nr 5 w Zak\u0142adzie Poprawczym I Schronisku dla Niletnich w Raciborzu","name":"Bran\u017cowa Szko\u0142a I Stopnia Nr 5 w Zak\u0142adzie Poprawczym I Schronisku dla Niletnich w Raciborzu","addr:country":"PL","addr:postcode":"47-400","addr:city":"Racib\u00f3rz","addr:street":"ul. Kaspra Adamczyka","addr:housenumber":"14","addr:teryt:simc":30220,"addr:teryt:sym_ul":942469,"contact:phone":"+48 324153474","contact:email":"sekretariat@raciborz.zpisdn.gov.pl","contact:website":"http:\/\/www.raciborz.zpisdn.gov.pl","ref:regon":"243663732","operator":"Ministerstwo Sprawiedliwo\u015bci","operator:type":"public","amenity":"school","note":"Parent RSPO: 105127"}},{"id":19796,"type":"Feature","geometry":{"type":"Point","coordinates":[18.19883,50.0820099]},"properties":{"ref:rspo":19796,"official_name":"Przedszkole Nr 23 im.stefana Vajdy","name":"Przedszkole Nr 23 im.stefana Vajdy","addr:country":"PL","addr:postcode":"47-400","addr:city":"Racib\u00f3rz","addr:street":"ul. Mys\u0142owicka","addr:housenumber":"28","addr:teryt:simc":13542,"addr:teryt:sym_ul":942469,"contact:phone":"+48 324152025","contact:email":"przedszkole23@op.pl","contact:website":"http:\/\/www.p23raciborz.szkolnastrona.pl","ref:regon":"271508033","ref:vatin":"PL6391791019","operator":"Miasto Racib\u00f3rz","operator:type":"government","amenity":"kindergarten"}},{"id":27296,"type":"Feature","geometry":{"type":"Point","coordinates":[18.20999,50.08266]},"properties":{"ref:rspo":27296,"official_name":"Zesp\u00f3\u0142 Szk\u00f3\u0142 Spo\u0142ecznych Raciborskiego Towarzystwa O\u015bwiatowego \"Szko\u0142a\"","name":"Zesp\u00f3\u0142 Szk\u00f3\u0142 Spo\u0142ecznych Raciborskiego Towarzystwa O\u015bwiatowego \"Szko\u0142a\"","addr:country":"PL","addr:postcode":"47-400","addr:city":"Racib\u00f3rz","addr:street":"ul. Opawska","addr:housenumber":"81","addr:teryt:simc":15075,"addr:teryt:sym_ul":942469,"contact:phone":"+48 324159917","contact:email":"sekretariat@rtoszkola.eu","contact:website":"http:\/\/www.rtoszkola.eu","ref:regon":"243066947","operator":"Raciborskie Towarzystwo O\u015bwiatowe \"Szko\u0142a\" W Raciborzu","operator:type":"ngo","landuse":"education","fixme":"amenity=school, amenity=college albo landuse=education w zale\u017cno\u015bci od tego, jakie plac\u00f3wki wchodz\u0105 w sk\u0142ad zespo\u0142u. Sprawd\u017a, kiedy stosowa\u0107 amenity=* a kiedy landuse=education.","note":"Children RSPO: 262476"}},{"id":264713,"type":"Feature","geometry":{"type":"Point","coordinates":[18.20999,50.082629999999995]},"properties":{"isced:level":"3","ref:rspo":264713,"official_name":"Diecezjalne Liceum Og\u00f3lnokszta\u0142c\u0105ce w Raciborzu","name":"Diecezjalne Liceum Og\u00f3lnokszta\u0142c\u0105ce w Raciborzu","addr:country":"PL","addr:postcode":"47-400","addr:city":"Racib\u00f3rz","addr:street":"ul. Opawska","addr:housenumber":"81","addr:teryt:simc":15075,"addr:teryt:sym_ul":942469,"contact:phone":"+48 324005000","contact:email":"kontakt@dloraciborz.pl","contact:website":"http:\/\/www.dloraciborz.pl","ref:regon":"368429755","operator":"Diecezja Opolska","operator:type":"religious","amenity":"school"}},{"id":262476,"type":"Feature","geometry":{"type":"Point","coordinates":[18.20999,50.0826]},"properties":{"isced:level":"1;2","ref:rspo":262476,"official_name":"Spo\u0142eczna Szko\u0142a Podstawowa dla Doros\u0142ych","name":"Spo\u0142eczna Szko\u0142a Podstawowa dla Doros\u0142ych","addr:country":"PL","addr:postcode":"47-400","addr:city":"Racib\u00f3rz","addr:street":"ul. Opawska","addr:housenumber":"81","addr:teryt:simc":15075,"addr:teryt:sym_ul":942469,"contact:phone":"+48 324159917","contact:email":"rtoszkola@rapi.pl","ref:regon":"368021340","operator":"Raciborskie Towarzystwo O\u015bwiatowe \"Szko\u0142a\" W Raciborzu","operator:type":"ngo","amenity":"school","note":"Parent RSPO: 27296"}},{"id":53380,"type":"Feature","geometry":{"type":"Point","coordinates":[18.20495,50.08305]},"properties":{"isced:level":"3","ref:rspo":53380,"official_name":"Ii Liceum Og\u00f3lnokszta\u0142cace im. Adama Mickiewicza w Raciborzu","name":"Ii Liceum Og\u00f3lnokszta\u0142cace","addr:country":"PL","addr:postcode":"47-400","addr:city":"Racib\u00f3rz","addr:street":"ul. kard. Stefana Wyszy\u0144skiego","addr:housenumber":"3","addr:teryt:simc":25107,"addr:teryt:sym_ul":942469,"contact:phone":"+48 324155657","contact:email":"drugieloraciborz@poczta.onet.pl","contact:website":"http:\/\/2loraciborz.pl","ref:regon":"000724123","ref:vatin":"PL6391849523","operator":"Powiat Raciborski","operator:type":"government","amenity":"school"}},{"id":279157,"type":"Feature","geometry":{"type":"Point","coordinates":[18.21818,50.08327]},"properties":{"ref:rspo":279157,"official_name":"Instytut Rozwoju Inspiraton","name":"Instytut Rozwoju Inspiraton","addr:country":"PL","addr:postcode":"47-400","addr:city":"Racib\u00f3rz","addr:street":"ul. Tadeusza Ko\u015bciuszki","addr:housenumber":"32A","addr:teryt:simc":9582,"addr:teryt:sym_ul":942469,"contact:phone":"+48 324140480","contact:email":"kursy@instytutrozwojuinspiraton.pl","contact:website":"http:\/\/www.instytutrozwojuinspiraton.pl","ref:regon":"520789321","operator":"Instytut Rozwoju Inspiraton Sp\u00f3\u0142ka Z Ograniczon\u0105 Odpowiedzialno\u015bci\u0105","operator:type":"private","fixme":"w zale\u017cno\u015bci od przedmiotu dzia\u0142alno\u015bci (np. amenity=training + training=*, amenity=dancing_school, amenity=language_school, amenity=music_school)"}},{"id":74543,"type":"Feature","geometry":{"type":"Point","coordinates":[18.19643,50.08341]},"properties":{"ref:rspo":74543,"official_name":"Yamaha Szko\u0142a Muzyczna w Raciborzu","name":"Yamaha Szko\u0142a Muzyczna w Raciborzu","addr:country":"PL","addr:postcode":"47-400","addr:city":"Racib\u00f3rz","addr:street":"ul. \u017borska","addr:housenumber":"2","addr:teryt:simc":26520,"addr:teryt:sym_ul":942469,"contact:phone":"+48 606610533","contact:email":"roman@anderski.pl","contact:website":"http:\/\/www.yamaharaciborz.pl","ref:regon":"243094240","ref:vatin":"PL6470521308","operator":"Roman Anderski","operator:type":"private","fixme":"w zale\u017cno\u015bci od przedmiotu dzia\u0142alno\u015bci (np. amenity=training + training=*, amenity=dancing_school, amenity=language_school, amenity=music_school)"}},{"id":31818,"type":"Feature","geometry":{"type":"Point","coordinates":[18.19684,50.08418]},"properties":{"isced:level":"1;2","ref:rspo":31818,"official_name":"Szko\u0142a Podstawowa Nr 18 im.ksi\u0105\u017c\u0105t Raciborskich","name":"Szko\u0142a Podstawowa Nr 18 im.ksi\u0105\u017c\u0105t Raciborskich","addr:country":"PL","addr:postcode":"47-400","addr:city":"Racib\u00f3rz","addr:street":"ul. Ocicka","addr:housenumber":"52","addr:teryt:simc":14703,"addr:teryt:sym_ul":942469,"contact:phone":"+48 324150825","contact:email":"sp18@op.pl","contact:website":"http:\/\/www.sp18.pl","ref:regon":"271862852","ref:vatin":"PL6391771838","operator":"Miasto Racib\u00f3rz","operator:type":"government","amenity":"school"}},{"id":19791,"type":"Feature","geometry":{"type":"Point","coordinates":[18.21479,50.08423]},"properties":{"ref:rspo":19791,"official_name":"Przedszkole Nr 13","name":"Przedszkole Nr 13","addr:country":"PL","addr:postcode":"47-400","addr:city":"Racib\u00f3rz","addr:street":"ul. Jana Kochanowskiego","addr:housenumber":"4","addr:teryt:simc":8728,"addr:teryt:sym_ul":942469,"contact:phone":"+48 324153314","contact:email":"p-13@tlen.pl","contact:website":"http:\/\/przedszkole13raciborz.szkolnastrona.pl","ref:regon":"271507944","ref:vatin":"PL6391791048","operator":"Miasto Racib\u00f3rz","operator:type":"government","amenity":"kindergarten"}},{"id":115555,"type":"Feature","geometry":{"type":"Point","coordinates":[18.21086,50.08629]},"properties":{"ref:rspo":115555,"official_name":"Centrum Kszta\u0142cenia Zawodowego I Ustawicznego Wojew\u00f3dztwa \u015aL\u0105skiego w Raciborzu","name":"Centrum Kszta\u0142cenia Zawodowego I Ustawicznego Wojew\u00f3dztwa \u015aL\u0105skiego w Raciborzu","addr:country":"PL","addr:postcode":"47-400","addr:city":"Racib\u00f3rz","addr:street":"ul. Warszawska","addr:housenumber":"7","addr:teryt:simc":23682,"addr:teryt:sym_ul":942469,"contact:phone":"+48 324153244","contact:email":"medyk.raciborz@interia.pl","contact:website":"http:\/\/www.medykraciborz.com.pl","ref:regon":"243313067","operator":"Wojew\u00f3dztwo \u015al\u0105skie","operator:type":"government","amenity":"school","fixme":"amenity=school lub amenity=college","note":"Children RSPO: 87035;119153"}},{"id":87035,"type":"Feature","geometry":{"type":"Point","coordinates":[18.21086,50.086259999999996]},"properties":{"isced:level":"4","ref:rspo":87035,"official_name":"Medyczna Szko\u0142a Policealna Wojew\u00f3dztwa \u015aL\u0105skiego Nr 1 w Raciborzu","name":"Medyczna Szko\u0142a Policealna Wojew\u00f3dztwa \u015aL\u0105skiego Nr 1 w Raciborzu","addr:country":"PL","addr:postcode":"47-400","addr:city":"Racib\u00f3rz","addr:street":"ul. Warszawska","addr:housenumber":"7","addr:teryt:simc":23682,"addr:teryt:sym_ul":942469,"contact:phone":"+48 324153244","contact:email":"medyk.raciborz@interia.pl","contact:website":"http:\/\/www.medykraciborz.com.pl","ref:regon":"272178796","ref:vatin":"PL6391448994","operator":"Wojew\u00f3dztwo \u015al\u0105skie","operator:type":"government","amenity":"college","note":"Parent RSPO: 115555"}},{"id":119153,"type":"Feature","geometry":{"type":"Point","coordinates":[18.21086,50.08623]},"properties":{"isced:level":"4","ref:rspo":119153,"official_name":"Szko\u0142a Policealna w Raciborzu","name":"Szko\u0142a Policealna w Raciborzu","addr:country":"PL","addr:postcode":"47-400","addr:city":"Racib\u00f3rz","addr:street":"ul. Warszawska","addr:housenumber":"7","addr:teryt:simc":23682,"addr:teryt:sym_ul":942469,"contact:phone":"+48 324153244","contact:email":"medyk.raciborz@interia.pl","ref:regon":"243353776","operator":"Wojew\u00f3dztwo \u015al\u0105skie","operator:type":"government","amenity":"college","note":"Parent RSPO: 115555"}},{"id":28691,"type":"Feature","geometry":{"type":"Point","coordinates":[18.20691,50.08636]},"properties":{"isced:level":"1;2","ref:rspo":28691,"official_name":"Szko\u0142a Podstawowa Nr 15 Z Oddzia\u0142ami Sportowymi w Raciborzu im. Jana III Sobieskiego","name":"Szko\u0142a Podstawowa Nr 15 Z Oddzia\u0142ami Sportowymi w Raciborzu","addr:country":"PL","addr:postcode":"47-400","addr:city":"Racib\u00f3rz","addr:street":"ul. Juliusza S\u0142owackiego","addr:housenumber":"48","addr:teryt:simc":20291,"addr:teryt:sym_ul":942469,"contact:phone":"+48 324155644","contact:email":"sp15@op.pl","contact:website":"http:\/\/sp15raciborz.edupage.org","ref:regon":"001073024","ref:vatin":"PL6391772246","operator":"Miasto Racib\u00f3rz","operator:type":"government","amenity":"school"}},{"id":19798,"type":"Feature","geometry":{"type":"Point","coordinates":[18.19982,50.08661]},"properties":{"ref:rspo":19798,"official_name":"Przedszkole Nr 26","name":"Przedszkole Nr 26","addr:country":"PL","addr:postcode":"47-400","addr:city":"Racib\u00f3rz","addr:street":"ul. Hetmana Stanis\u0142awa \u017b\u00f3\u0142kiewskiego","addr:housenumber":"26","addr:teryt:simc":26526,"addr:teryt:sym_ul":942469,"contact:phone":"+48 327409174","contact:email":"p26-raciborz@wp.pl","ref:regon":"271508062","ref:vatin":"PL6391791114","operator":"Miasto Racib\u00f3rz","operator:type":"government","amenity":"kindergarten"}},{"id":25346,"type":"Feature","geometry":{"type":"Point","coordinates":[18.21903,50.08716]},"properties":{"isced:level":"1;2","ref:rspo":25346,"official_name":"Szko\u0142a Podstawowa Nr 13 im.stanis\u0142awa Staszica","name":"Szko\u0142a Podstawowa Nr 13 im.stanis\u0142awa Staszica","addr:country":"PL","addr:postcode":"47-400","addr:city":"Racib\u00f3rz","addr:street":"ul. ks. Stanis\u0142awa Staszica","addr:housenumber":"12","addr:teryt:simc":21068,"addr:teryt:sym_ul":942469,"contact:phone":"+48 324153324","contact:email":"sp13raciborz@poczta.onet.pl","contact:website":"http:\/\/www.sp13raciborz.szkolnastrona.pl","ref:regon":"000724086","ref:vatin":"PL6391699207","operator":"Miasto Racib\u00f3rz","operator:type":"government","amenity":"school"}},{"id":21852,"type":"Feature","geometry":{"type":"Point","coordinates":[18.2372,50.08768]},"properties":{"ref:rspo":21852,"official_name":"Zesp\u00f3\u0142 Szkolno-Przedszkolny Nr 3","name":"Zesp\u00f3\u0142 Szkolno-Przedszkolny Nr 3","addr:country":"PL","addr:postcode":"47-400","addr:city":"Racib\u00f3rz","addr:street":"ul. Sudecka","addr:housenumber":"2","addr:teryt:simc":21525,"addr:teryt:sym_ul":942469,"contact:phone":"+48 324153329","contact:email":"zsp3raciborz@poczta.onet.pl","contact:website":"http:\/\/www.zsp3raciborz.szkolnastrona.pl\/","ref:regon":"240713783","ref:vatin":"PL6391921835","operator":"Miasto Racib\u00f3rz","operator:type":"government","landuse":"education","fixme":"amenity=school, amenity=college albo landuse=education w zale\u017cno\u015bci od tego, jakie plac\u00f3wki wchodz\u0105 w sk\u0142ad zespo\u0142u. Sprawd\u017a, kiedy stosowa\u0107 amenity=* a kiedy landuse=education.","note":"Children RSPO: 26329;26423"}},{"id":26329,"type":"Feature","geometry":{"type":"Point","coordinates":[18.2372,50.08765]},"properties":{"ref:rspo":26329,"official_name":"Przedszkole Nr 2","name":"Przedszkole Nr 2","addr:country":"PL","addr:postcode":"47-400","addr:city":"Racib\u00f3rz","addr:street":"ul. Sudecka","addr:housenumber":"2","addr:teryt:simc":21525,"addr:teryt:sym_ul":942469,"contact:phone":"+48 324153329","contact:email":"zsp3raciborz@poczta.onet.pl","contact:website":"http:\/\/www.zsp3raciborz.szkolnastrona.pl","ref:regon":"271507832","operator":"Miasto Racib\u00f3rz","operator:type":"government","amenity":"kindergarten","note":"Parent RSPO: 21852"}},{"id":26423,"type":"Feature","geometry":{"type":"Point","coordinates":[18.2372,50.08762]},"properties":{"isced:level":"1;2","ref:rspo":26423,"official_name":"Szko\u0142a Podstawowa Nr 2 im. Noblist\u00f3w Polskich","name":"Szko\u0142a Podstawowa Nr 2","addr:country":"PL","addr:postcode":"47-400","addr:city":"Racib\u00f3rz","addr:street":"ul. Sudecka","addr:housenumber":"2","addr:teryt:simc":21525,"addr:teryt:sym_ul":942469,"contact:phone":"+48 324153329","contact:email":"zsp3raciborz@poczta.onet.pl","contact:website":"http:\/\/www.zsp3raciborz.szkolnastrona.pl","ref:regon":"000723974","operator":"Miasto Racib\u00f3rz","operator:type":"government","amenity":"school","note":"Parent RSPO: 21852"}},{"id":53894,"type":"Feature","geometry":{"type":"Point","coordinates":[18.21503,50.08855]},"properties":{"isced:level":"3","ref:rspo":53894,"official_name":"Technikum Nr 3 w Raciborzu","name":"Technikum Nr 3 w Raciborzu","addr:country":"PL","addr:postcode":"47-400","addr:city":"Racib\u00f3rz","addr:street":"ul. Wile\u0144ska","addr:housenumber":"8","addr:teryt:simc":24289,"addr:teryt:sym_ul":942469,"contact:phone":"+48 324154654","contact:email":"sek@ckziu1.idsl.pl","contact:website":"http:\/\/www.ckziu1raciborz.idsl.pl","ref:regon":"272125558","operator":"Powiat Raciborski","operator:type":"government","amenity":"school","note":"Parent RSPO: 127948"}},{"id":74548,"type":"Feature","geometry":{"type":"Point","coordinates":[18.21503,50.088519999999995]},"properties":{"isced:level":"3","ref:rspo":74548,"official_name":"Bran\u017cowa Szko\u0142a I Stopnia Nr 3 w Raciborzu","name":"Bran\u017cowa Szko\u0142a I Stopnia Nr 3 w Raciborzu","addr:country":"PL","addr:postcode":"47-400","addr:city":"Racib\u00f3rz","addr:street":"ul. Wile\u0144ska","addr:housenumber":"8","addr:teryt:simc":24289,"addr:teryt:sym_ul":942469,"contact:phone":"+48 324154654","contact:email":"sek@ckziu1.idsl.pl","contact:website":"http:\/\/www.ckziu1raciborz.idsl.pl","ref:regon":"000836550","operator":"Powiat Raciborski","operator:type":"government","amenity":"school","note":"Parent RSPO: 127948"}},{"id":127948,"type":"Feature","geometry":{"type":"Point","coordinates":[18.21611,50.08917]},"properties":{"ref:rspo":127948,"official_name":"Centrum Kszta\u0142cenia Zawodowego I Ustawicznego Nr 1 w Raciborzu","name":"Centrum Kszta\u0142cenia Zawodowego I Ustawicznego Nr 1 w Raciborzu","addr:country":"PL","addr:postcode":"47-400","addr:city":"Racib\u00f3rz","addr:street":"ul. Wile\u0144ska","addr:housenumber":"6","addr:teryt:simc":24289,"addr:teryt:sym_ul":942469,"contact:phone":"+48 324154654","contact:email":"sek@ckziu1.idsl.pl","contact:website":"http:\/\/www.ckziu1raciborz.idsl.pl","ref:regon":"361987682","operator":"Powiat Raciborski","operator:type":"government","landuse":"education","fixme":"amenity=school, amenity=college albo landuse=education w zale\u017cno\u015bci od tego, jakie plac\u00f3wki wchodz\u0105 w sk\u0142ad zespo\u0142u. Sprawd\u017a, kiedy stosowa\u0107 amenity=* a kiedy landuse=education.","note":"Children RSPO: 53894;60128;74548;74556;74557;130691;272730;275752"}},{"id":74556,"type":"Feature","geometry":{"type":"Point","coordinates":[18.21611,50.08914]},"properties":{"isced:level":"3","ref:rspo":74556,"official_name":"Technikum Nr 2 w Raciborzu","name":"Technikum Nr 2 w Raciborzu","addr:country":"PL","addr:postcode":"47-400","addr:city":"Racib\u00f3rz","addr:street":"ul. Wile\u0144ska","addr:housenumber":"6","addr:teryt:simc":24289,"addr:teryt:sym_ul":942469,"contact:phone":"+48 324154654","contact:email":"sek@ckziu1.idsl.pl","contact:website":"http:\/\/www.ckziu1raciborz.idsl.pl","ref:regon":"272125788","operator":"Powiat Raciborski","operator:type":"government","amenity":"school","note":"Parent RSPO: 127948"}},{"id":74557,"type":"Feature","geometry":{"type":"Point","coordinates":[18.21611,50.089110000000005]},"properties":{"isced:level":"3","ref:rspo":74557,"official_name":"Bran\u017cowa Szko\u0142a I Stopnia Nr 2 w Raciborzu","name":"Bran\u017cowa Szko\u0142a I Stopnia Nr 2 w Raciborzu","addr:country":"PL","addr:postcode":"47-400","addr:city":"Racib\u00f3rz","addr:street":"ul. Wile\u0144ska","addr:housenumber":"6","addr:teryt:simc":24289,"addr:teryt:sym_ul":942469,"contact:phone":"+48 324154890","contact:email":"sek@ckziu1.idsl.pl","contact:website":"http:\/\/www.ckziu1raciborz.idsl.pl","ref:regon":"272125660","operator":"Powiat Raciborski","operator:type":"government","amenity":"school","note":"Parent RSPO: 127948"}},{"id":130691,"type":"Feature","geometry":{"type":"Point","coordinates":[18.21611,50.08908]},"properties":{"isced:level":"3","ref:rspo":130691,"official_name":"Liceum Og\u00f3lnokszta\u0142c\u0105ce Nr 1 dla Doros\u0142ych w Raciborzu","name":"Liceum Og\u00f3lnokszta\u0142c\u0105ce Nr 1 dla Doros\u0142ych w Raciborzu","addr:country":"PL","addr:postcode":"47-400","addr:city":"Racib\u00f3rz","addr:street":"ul. Wile\u0144ska","addr:housenumber":"6","addr:teryt:simc":24289,"addr:teryt:sym_ul":942469,"contact:phone":"+48 324154654","contact:email":"sek@ckziu1.idsl.pl","contact:website":"http:\/\/www.ckziu1raciborz.idsl.pl","ref:regon":"364351737","operator":"Powiat Raciborski","operator:type":"government","amenity":"school","note":"Parent RSPO: 127948"}},{"id":272730,"type":"Feature","geometry":{"type":"Point","coordinates":[18.21611,50.08905]},"properties":{"ref:rspo":272730,"official_name":"Centrum Kszta\u0142cenia Zawodowego Nr 1","name":"Centrum Kszta\u0142cenia Zawodowego Nr 1","addr:country":"PL","addr:postcode":"47-400","addr:city":"Racib\u00f3rz","addr:street":"ul. Wile\u0144ska","addr:housenumber":"6","addr:teryt:simc":24289,"addr:teryt:sym_ul":942469,"contact:phone":"+48 324154654","contact:email":"sek@ckziu1.idsl.pl","contact:website":"http:\/\/www.ckziu1raciborz.idsl.pl","ref:regon":"384292195","operator":"Powiat Raciborski","operator:type":"government","fixme":"w zale\u017cno\u015bci od przedmiotu dzia\u0142alno\u015bci (np. amenity=training + training=*, amenity=dancing_school, amenity=language_school, amenity=music_school) albo amenity=school, amenity=college, albo landuse=education w zale\u017cno\u015bci od tego, jakie plac\u00f3wki wchodz\u0105 w sk\u0142ad zespo\u0142u. Sprawd\u017a, kiedy stosowa\u0107 amenity=* a kiedy landuse=education.","note":"Parent RSPO: 127948"}},{"id":275752,"type":"Feature","geometry":{"type":"Point","coordinates":[18.21611,50.089020000000005]},"properties":{"isced:level":"3","ref:rspo":275752,"official_name":"Bran\u017cowa Szko\u0142a II Stopnia Nr 1","name":"Bran\u017cowa Szko\u0142a II Stopnia Nr 1","addr:country":"PL","addr:postcode":"47-400","addr:city":"Racib\u00f3rz","addr:street":"ul. Wile\u0144ska","addr:housenumber":"6","addr:teryt:simc":24289,"addr:teryt:sym_ul":942469,"contact:phone":"+48 324154654","ref:regon":"386942579","operator":"Powiat Raciborski","operator:type":"government","amenity":"school","note":"Parent RSPO: 127948"}},{"id":106570,"type":"Feature","geometry":{"type":"Point","coordinates":[18.21564,50.0893299]},"properties":{"ref:rspo":106570,"official_name":"O\u015brodek Kszta\u0142cenia Zawodowego \"Rzemios\u0142o\" Przy Cechu Rzemios\u0142 R\u00f3\u017cnych w Raciborzu","name":"O\u015brodek Kszta\u0142cenia Zawodowego \"Rzemios\u0142o\" Przy Cechu Rzemios\u0142 R\u00f3\u017cnych w Raciborzu","addr:country":"PL","addr:postcode":"47-400","addr:city":"Racib\u00f3rz","addr:street":"ul. Jana Kili\u0144skiego","addr:housenumber":"2","addr:teryt:simc":8435,"addr:teryt:sym_ul":942469,"contact:phone":"+48 324152931","contact:email":"cech@cechraciborz.com.pl","contact:website":"http:\/\/www.cechraciborz.com.pl","ref:regon":"243150607","ref:vatin":"PL6391052983","operator":"Cech Rzemios\u0142 R\u00f3\u017cnych W Raciborzu","operator:type":"cooperative","fixme":"w zale\u017cno\u015bci od przedmiotu dzia\u0142alno\u015bci (np. amenity=training + training=*, amenity=dancing_school, amenity=language_school, amenity=music_school)"}},{"id":75582,"type":"Feature","geometry":{"type":"Point","coordinates":[18.21359,50.08935]},"properties":{"ref:rspo":75582,"official_name":"Pa\u0144stwowa Szko\u0142a Muzyczna I St. im. Stanis\u0142awa Moniuszki w Raciborzu","name":"Pa\u0144stwowa Szko\u0142a Muzyczna I St.","addr:country":"PL","addr:postcode":"47-400","addr:city":"Racib\u00f3rz","addr:street":"ul. Ogrodowa","addr:housenumber":"7","addr:teryt:simc":14834,"addr:teryt:sym_ul":942469,"contact:phone":"+48 324152409","contact:email":"psmraciborz@psmraciborz.pl","contact:website":"http:\/\/psmraciborz.pl","ref:regon":"000739060","operator":"Ministerstwo Kultury I Dziedzictwa Narodowego","operator:type":"public","amenity":"music_school"}},{"id":74544,"type":"Feature","geometry":{"type":"Point","coordinates":[18.21857,50.09075]},"properties":{"ref:rspo":74544,"official_name":"M\u0142odzie\u017cowa Szko\u0142a Tenisa","name":"M\u0142odzie\u017cowa Szko\u0142a Tenisa","addr:country":"PL","addr:postcode":"47-400","addr:city":"Racib\u00f3rz","addr:street":"ul. Solna","addr:housenumber":"5","addr:door":"8","addr:teryt:simc":20541,"addr:teryt:sym_ul":942469,"contact:phone":"+48 502242548","contact:email":"mieczswadzba@op.pl","contact:website":"http:\/\/www.mszt.rze.net","ref:regon":"243094205","ref:vatin":"PL6391058098","operator":"Mieczys\u0142aw Swad\u017aba","operator:type":"private","fixme":"w zale\u017cno\u015bci od przedmiotu dzia\u0142alno\u015bci (np. amenity=training + training=*, amenity=dancing_school, amenity=language_school, amenity=music_school)"}},{"id":90319,"type":"Feature","geometry":{"type":"Point","coordinates":[18.21963,50.09144]},"properties":{"isced:level":"4","ref:rspo":90319,"official_name":"Niepubliczna Szko\u0142a Policealna Teb Edukacja w Raciborzu","name":"Niepubliczna Szko\u0142a Policealna Teb Edukacja w Raciborzu","addr:country":"PL","addr:postcode":"47-400","addr:city":"Racib\u00f3rz","addr:street":"ul. Rynek","addr:housenumber":"6a","addr:teryt:simc":19253,"addr:teryt:sym_ul":942469,"contact:phone":"+48 326614280","contact:email":"raciborz@teb-edukacja.pl","contact:website":"http:\/\/www.teb.pl","ref:regon":"243126164","operator":"Teb Edukacja Sp\u00f3\u0142ka Z Ograniczon\u0105 Odpowiedzialno\u015bci\u0105","operator:type":"private","amenity":"college"}},{"id":92837,"type":"Feature","geometry":{"type":"Point","coordinates":[18.21963,50.091409999999996]},"properties":{"ref:rspo":92837,"official_name":"Teb Edukacja Studium Kszta\u0142cenia Praktycznego","name":"Teb Edukacja Studium Kszta\u0142cenia Praktycznego","addr:country":"PL","addr:postcode":"47-400","addr:city":"Racib\u00f3rz","addr:street":"ul. Rynek","addr:housenumber":"6A","addr:teryt:simc":19253,"addr:teryt:sym_ul":942469,"contact:phone":"+48 326614280","contact:email":"raciborz@teb-edukacja.pl","contact:website":"http:\/\/www.teb.pl","ref:regon":"243118532","ref:vatin":"PL7781456499","operator":"Teb Edukacja Sp\u00f3\u0142ka Z Ograniczon\u0105 Odpowiedzialno\u015bci\u0105","operator:type":"private","fixme":"w zale\u017cno\u015bci od przedmiotu dzia\u0142alno\u015bci (np. amenity=training + training=*, amenity=dancing_school, amenity=language_school, amenity=music_school)"}},{"id":118810,"type":"Feature","geometry":{"type":"Point","coordinates":[18.21963,50.09138]},"properties":{"isced:level":"3","ref:rspo":118810,"official_name":"Liceum Og\u00f3lnokszta\u0142c\u0105ce Teb Edukacja dla Doros\u0142ych","name":"Liceum Og\u00f3lnokszta\u0142c\u0105ce Teb Edukacja dla Doros\u0142ych","addr:country":"PL","addr:postcode":"47-400","addr:city":"Racib\u00f3rz","addr:street":"ul. Rynek","addr:housenumber":"6A","addr:teryt:simc":19253,"addr:teryt:sym_ul":942469,"contact:phone":"+48 326614280","contact:email":"raciborz@teb-edukacja.pl","contact:website":"http:\/\/www.teb.pl","ref:regon":"243342583","ref:vatin":"PL7781456499","operator":"Teb Edukacja Sp\u00f3\u0142ka Z Ograniczon\u0105 Odpowiedzialno\u015bci\u0105","operator:type":"private","amenity":"school"}},{"id":120920,"type":"Feature","geometry":{"type":"Point","coordinates":[18.21963,50.09135]},"properties":{"isced:level":"3","ref:rspo":120920,"official_name":"Technikum Teb Edukacja w Raciborzu","name":"Technikum Teb Edukacja w Raciborzu","addr:country":"PL","addr:postcode":"47-400","addr:city":"Racib\u00f3rz","addr:street":"ul. Rynek","addr:housenumber":"6A","addr:teryt:simc":19253,"addr:teryt:sym_ul":942469,"contact:phone":"+48 326614280","contact:email":"raciborz@teb.pl","contact:website":"http:\/\/www.teb.pl","ref:regon":"243427227","ref:vatin":"PL7781456499","operator":"Teb Edukacja Sp\u00f3\u0142ka Z Ograniczon\u0105 Odpowiedzialno\u015bci\u0105","operator:type":"private","amenity":"school"}},{"id":19788,"type":"Feature","geometry":{"type":"Point","coordinates":[18.21104,50.09154]},"properties":{"ref:rspo":19788,"official_name":"Przedszkole Nr 10","name":"Przedszkole Nr 10","addr:country":"PL","addr:postcode":"47-400","addr:city":"Racib\u00f3rz","addr:street":"ul. Ogrodowa","addr:housenumber":"31","addr:teryt:simc":14834,"addr:teryt:sym_ul":942469,"contact:phone":"+48 324152815","contact:email":"p10raciborz@op.pl","ref:regon":"271507915","ref:vatin":"PL6391791232","operator":"Miasto Racib\u00f3rz","operator:type":"government","amenity":"kindergarten"}},{"id":25219,"type":"Feature","geometry":{"type":"Point","coordinates":[18.21594,50.09162]},"properties":{"isced:level":"1;2","ref:rspo":25219,"official_name":"Szko\u0142a Podstawowa Nr 4 im. Ks.stefana Pieczki","name":"Szko\u0142a Podstawowa Nr 4","addr:country":"PL","addr:postcode":"47-400","addr:city":"Racib\u00f3rz","addr:street":"ul. Wojska Polskiego","addr:housenumber":"8","addr:teryt:simc":24628,"addr:teryt:sym_ul":942469,"contact:phone":"+48 324152084","contact:email":"sp4rac@poczta.fm","ref:regon":"000723997","ref:vatin":"PL6391771169","operator":"Miasto Racib\u00f3rz","operator:type":"government","amenity":"school"}},{"id":263402,"type":"Feature","geometry":{"type":"Point","coordinates":[18.21594,50.09159]},"properties":{"isced:level":"3","ref:rspo":263402,"official_name":"Liceum Og\u00f3lnokszta\u0142c\u0105ce dla Doros\u0142ych w Raciborzu","name":"Liceum Og\u00f3lnokszta\u0142c\u0105ce dla Doros\u0142ych w Raciborzu","addr:country":"PL","addr:postcode":"47-400","addr:city":"Racib\u00f3rz","addr:street":"ul. Wojska Polskiego","addr:housenumber":"8","addr:teryt:simc":24628,"addr:teryt:sym_ul":942469,"contact:phone":"+48 531315151","contact:email":"europejskie.centrum.edukacji@interia.pl","contact:website":"http:\/\/www.europejskiecentrumraciborz.pl","ref:regon":"368186749","operator":"Irena \u017bo\u0142y\u0144ska","operator:type":"private","amenity":"school"}},{"id":263409,"type":"Feature","geometry":{"type":"Point","coordinates":[18.21594,50.09156]},"properties":{"isced:level":"4","ref:rspo":263409,"official_name":"Szko\u0142a Policealna w Raciborzu","name":"Szko\u0142a Policealna w Raciborzu","addr:country":"PL","addr:postcode":"47-400","addr:city":"Racib\u00f3rz","addr:street":"ul. Wojska Polskiego","addr:housenumber":"8","addr:teryt:simc":24628,"addr:teryt:sym_ul":942469,"contact:phone":"+48 531315151","contact:email":"europejskie.centrum.edukacji@interia.pl","contact:website":"http:\/\/www.europejskiecentrumraciborz.pl","ref:regon":"368186844","operator":"Irena \u017bo\u0142y\u0144ska","operator:type":"private","amenity":"college"}},{"id":266569,"type":"Feature","geometry":{"type":"Point","coordinates":[18.21594,50.09153]},"properties":{"ref:rspo":266569,"official_name":"Europejskie Centrum Edukacji w Raciborzu","name":"Europejskie Centrum Edukacji w Raciborzu","addr:country":"PL","addr:postcode":"47-400","addr:city":"Racib\u00f3rz","addr:street":"ul. Wojska Polskiego","addr:housenumber":"8","addr:teryt:simc":24628,"addr:teryt:sym_ul":942469,"contact:phone":"+48 531315151","contact:email":"europejskie.centrum.edukacja@interia.pl","contact:website":"http:\/\/europejskiecentrumraciborz.pl","ref:regon":"369568252","operator":"Irena \u017bo\u0142y\u0144ska","operator:type":"private","fixme":"w zale\u017cno\u015bci od przedmiotu dzia\u0142alno\u015bci (np. amenity=training + training=*, amenity=dancing_school, amenity=language_school, amenity=music_school)"}},{"id":29226,"type":"Feature","geometry":{"type":"Point","coordinates":[18.21258,50.09193]},"properties":{"ref:rspo":29226,"official_name":"Zesp\u00f3\u0142 Szk\u00f3\u0142 Og\u00f3lnokszta\u0142c\u0105cych Nr 1","name":"Zesp\u00f3\u0142 Szk\u00f3\u0142 Og\u00f3lnokszta\u0142c\u0105cych Nr 1","addr:country":"PL","addr:postcode":"47-400","addr:city":"Racib\u00f3rz","addr:street":"ul. Jana Kasprowicza","addr:housenumber":"11","addr:teryt:simc":8153,"addr:teryt:sym_ul":942469,"contact:phone":"+48 324154453","contact:email":"lo1@raciborz.com.pl","contact:website":"http:\/\/www.lo1.raciborz.com.pl","ref:regon":"276131024","ref:vatin":"PL6391698596","operator":"Powiat Raciborski","operator:type":"government","landuse":"education","fixme":"amenity=school, amenity=college albo landuse=education w zale\u017cno\u015bci od tego, jakie plac\u00f3wki wchodz\u0105 w sk\u0142ad zespo\u0142u. Sprawd\u017a, kiedy stosowa\u0107 amenity=* a kiedy landuse=education.","note":"Children RSPO: 55745;74550"}},{"id":55745,"type":"Feature","geometry":{"type":"Point","coordinates":[18.21258,50.091899999999995]},"properties":{"isced:level":"3","ref:rspo":55745,"official_name":"Liceum Sztuk Plastycznych w Raciborzu","name":"Liceum Sztuk Plastycznych w Raciborzu","addr:country":"PL","addr:postcode":"47-400","addr:city":"Racib\u00f3rz","addr:street":"ul. Jana Kasprowicza","addr:housenumber":"11","addr:teryt:simc":8153,"addr:teryt:sym_ul":942469,"contact:phone":"+48 324154453","contact:email":"lo1@raciborz.com.pl","ref:regon":"241974422","operator":"Powiat Raciborski","operator:type":"government","amenity":"school","note":"Parent RSPO: 29226"}},{"id":74550,"type":"Feature","geometry":{"type":"Point","coordinates":[18.21258,50.09187]},"properties":{"isced:level":"3","ref:rspo":74550,"official_name":"I Liceum Og\u00f3lnokszta\u0142cace im. Jana Kasprowicza w Raciborzu","name":"I Liceum Og\u00f3lnokszta\u0142cace","addr:country":"PL","addr:postcode":"47-400","addr:city":"Racib\u00f3rz","addr:street":"ul. Jana Kasprowicza","addr:housenumber":"11","addr:teryt:simc":8153,"addr:teryt:sym_ul":942469,"contact:phone":"+48 324154453","contact:email":"lo1@raciborz.com.pl","ref:regon":"000816546","operator":"Powiat Raciborski","operator:type":"government","amenity":"school","note":"Parent RSPO: 29226"}},{"id":24354,"type":"Feature","geometry":{"type":"Point","coordinates":[18.20173,50.09246]},"properties":{"ref:rspo":24354,"official_name":"Przedszkole Stokrotka","name":"Przedszkole Stokrotka","addr:country":"PL","addr:postcode":"47-400","addr:city":"Racib\u00f3rz","addr:street":"ul. Starowiejska","addr:housenumber":"60","addr:teryt:simc":20998,"addr:teryt:sym_ul":942469,"contact:phone":"+48 883936323","contact:email":"anetasmaz@gmail.com","contact:website":"http:\/\/www.przedszkole-raciborz.pl","ref:regon":"243060838","ref:vatin":"PL6391779946","operator":"Aneta Sma\u017a","operator:type":"private","amenity":"kindergarten"}},{"id":267772,"type":"Feature","geometry":{"type":"Point","coordinates":[18.21047,50.09277]},"properties":{"isced:level":"1;2","ref:rspo":267772,"official_name":"Spo\u0142eczna Szko\u0142a Podstawowa","name":"Spo\u0142eczna Szko\u0142a Podstawowa","addr:country":"PL","addr:postcode":"47-400","addr:city":"Racib\u00f3rz","addr:street":"pl. Plac Bohater\u00f3w Westerplatte","addr:housenumber":"1","addr:door":"4","addr:teryt:simc":38796,"addr:teryt:sym_ul":942469,"contact:phone":"+48 660433817","contact:email":"raciborz.szkoladobra@gmail.com","ref:regon":"380653437","operator":"\"Szko\u0142a Dobra\"","operator:type":"ngo","amenity":"school"}},{"id":18299,"type":"Feature","geometry":{"type":"Point","coordinates":[18.21494,50.09284]},"properties":{"ref:rspo":18299,"official_name":"Precursor Instytut Doskonalenia Nauczycieli","name":"Precursor Instytut Doskonalenia Nauczycieli","addr:country":"PL","addr:postcode":"47-400","addr:city":"Racib\u00f3rz","addr:street":"ul. Wojska Polskiego","addr:housenumber":"2","addr:door":"1","addr:teryt:simc":24628,"addr:teryt:sym_ul":942469,"contact:phone":"+48 324150797","contact:email":"kancelaria@precursor.pl","contact:website":"http:\/\/www.edukacjanauczycieli.pl","ref:regon":"243048961","ref:vatin":"PL6411785773","operator":"Jakub J\u0119drzejak","operator:type":"private","amenity":"training"}},{"id":41116,"type":"Feature","geometry":{"type":"Point","coordinates":[18.21494,50.09281]},"properties":{"ref:rspo":41116,"official_name":"Polska Edukacja Instytut Promocji Ratownictwa","name":"Polska Edukacja Instytut Promocji Ratownictwa","addr:country":"PL","addr:postcode":"47-400","addr:city":"Racib\u00f3rz","addr:street":"ul. Wojska Polskiego","addr:housenumber":"2","addr:door":"1","addr:teryt:simc":24628,"addr:teryt:sym_ul":942469,"contact:phone":"+48 324150797","contact:email":"dyrektor@polskaedukacja.pl","contact:website":"http:\/\/www.polskaedukacja.pl","ref:regon":"243072669","ref:vatin":"PL6411785773","operator":"Ireneusz Wojaczek","operator:type":"private","fixme":"w zale\u017cno\u015bci od przedmiotu dzia\u0142alno\u015bci (np. amenity=training + training=*, amenity=dancing_school, amenity=language_school, amenity=music_school)"}},{"id":41200,"type":"Feature","geometry":{"type":"Point","coordinates":[18.21494,50.092780000000005]},"properties":{"ref:rspo":41200,"official_name":"Polska Edukacja Instytut Kszta\u0142cenia Podyplomowego","name":"Polska Edukacja Instytut Kszta\u0142cenia Podyplomowego","addr:country":"PL","addr:postcode":"47-400","addr:city":"Racib\u00f3rz","addr:street":"ul. Wojska Polskiego","addr:housenumber":"2","addr:door":"1","addr:teryt:simc":24628,"addr:teryt:sym_ul":942469,"contact:phone":"+48 324150797","contact:email":"kontakt@polskaedukacja.pl","contact:website":"http:\/\/www.polskaedukacja.pl","ref:regon":"243072681","ref:vatin":"PL6411785773","operator":"Ireneusz Wojaczek","operator:type":"private","fixme":"w zale\u017cno\u015bci od przedmiotu dzia\u0142alno\u015bci (np. amenity=training + training=*, amenity=dancing_school, amenity=language_school, amenity=music_school)"}},{"id":41896,"type":"Feature","geometry":{"type":"Point","coordinates":[18.22238,50.09299]},"properties":{"ref:rspo":41896,"official_name":"Zak\u0142ad Doskonalenia Zawodowego w Katowicach O\u015brodek Kszta\u0142cenia Zawodowego w Raciborzu","name":"Zak\u0142ad Doskonalenia Zawodowego w Katowicach O\u015brodek Kszta\u0142cenia Zawodowego w Raciborzu","addr:country":"PL","addr:postcode":"47-400","addr:city":"Racib\u00f3rz","addr:street":"ul. Podwale","addr:housenumber":"12","addr:teryt:simc":16874,"addr:teryt:sym_ul":942469,"contact:phone":"+48 324152617","contact:email":"raciborz@zdz.katowice.pl","contact:website":"http:\/\/www.kursy.raciborz.zdz.pl","ref:regon":"243090880","ref:vatin":"PL6340135558","operator":"Zak\u0142ad Doskonalenia Zawodowego W Katowicach","operator:type":"ngo","fixme":"w zale\u017cno\u015bci od przedmiotu dzia\u0142alno\u015bci (np. amenity=training + training=*, amenity=dancing_school, amenity=language_school, amenity=music_school)"}},{"id":20647,"type":"Feature","geometry":{"type":"Point","coordinates":[18.21338,50.09302]},"properties":{"ref:rspo":20647,"official_name":"Specjalny O\u015brodek Szkolno-Wychowawczy dla Nies\u0142ysz\u0105cych I S\u0142abos\u0142ysz\u0105cych w Raciborzu","name":"Specjalny O\u015brodek Szkolno-Wychowawczy dla Nies\u0142ysz\u0105cych I S\u0142abos\u0142ysz\u0105cych w Raciborzu","addr:country":"PL","addr:postcode":"47-400","addr:city":"Racib\u00f3rz","addr:street":"ul. Karola Miarki","addr:housenumber":"4","addr:teryt:simc":12674,"addr:teryt:sym_ul":942469,"contact:phone":"+48 324153001","contact:email":"sekretariat@oswnis.pl","contact:website":"http:\/\/www.oswnis.pl","ref:regon":"000193074","ref:vatin":"PL6391698314","operator":"Wojew\u00f3dztwo \u015al\u0105skie","operator:type":"government","amenity":"school","note":"Children RSPO: 84337;111116;111122;111145"}},{"id":84337,"type":"Feature","geometry":{"type":"Point","coordinates":[18.21338,50.09299]},"properties":{"isced:level":"1;2","ref:rspo":84337,"official_name":"Szko\u0142a Podstawowa Specjalna w Raciborzu","name":"Szko\u0142a Podstawowa Specjalna w Raciborzu","addr:country":"PL","addr:postcode":"47-400","addr:city":"Racib\u00f3rz","addr:street":"ul. Karola Miarki","addr:housenumber":"4","addr:teryt:simc":12674,"addr:teryt:sym_ul":942469,"contact:phone":"+48 324153001","contact:email":"sekretariat@oswnis.pl","ref:regon":"000844809","operator":"Wojew\u00f3dztwo \u015al\u0105skie","operator:type":"government","amenity":"school","note":"Parent RSPO: 20647"}},{"id":111116,"type":"Feature","geometry":{"type":"Point","coordinates":[18.21338,50.092960000000005]},"properties":{"isced:level":"3","ref:rspo":111116,"official_name":"Bran\u017cowa Szko\u0142a I Stopnia Specjalna Nr 5 w Raciborzu","name":"Bran\u017cowa Szko\u0142a I Stopnia Specjalna Nr 5 w Raciborzu","addr:country":"PL","addr:postcode":"47-400","addr:city":"Racib\u00f3rz","addr:street":"ul. Karola Miarki","addr:housenumber":"4","addr:teryt:simc":12674,"addr:teryt:sym_ul":942469,"contact:phone":"+48 324153001","contact:email":"sekretariat@oswnis.pl","contact:website":"http:\/\/www.oswnis.pl","ref:regon":"000844790","operator":"Wojew\u00f3dztwo \u015al\u0105skie","operator:type":"government","amenity":"school","note":"Parent RSPO: 20647"}},{"id":111122,"type":"Feature","geometry":{"type":"Point","coordinates":[18.21338,50.09293]},"properties":{"isced:level":"3","ref:rspo":111122,"official_name":"Technikum Specjalne Nr 5","name":"Technikum Specjalne Nr 5","addr:country":"PL","addr:postcode":"47-400","addr:city":"Racib\u00f3rz","addr:street":"ul. Karola Miarki","addr:housenumber":"4","addr:teryt:simc":12674,"addr:teryt:sym_ul":942469,"contact:phone":"+48 324153001","contact:email":"sekretariat@oswnis.pl","contact:website":"http:\/\/www.oswnis.pl","ref:regon":"272715768","operator":"Wojew\u00f3dztwo \u015al\u0105skie","operator:type":"government","amenity":"school","note":"Parent RSPO: 20647"}},{"id":111145,"type":"Feature","geometry":{"type":"Point","coordinates":[18.21338,50.0929]},"properties":{"isced:level":"4","ref:rspo":111145,"official_name":"Szko\u0142a Policealna Wojew\u00f3dztwa \u015aL\u0105skiego Nr 2 Specjalna w Raciborzu","name":"Szko\u0142a Policealna Wojew\u00f3dztwa \u015aL\u0105skiego Nr 2 Specjalna w Raciborzu","addr:country":"PL","addr:postcode":"47-400","addr:city":"Racib\u00f3rz","addr:street":"ul. Karola Miarki","addr:housenumber":"4","addr:teryt:simc":12674,"addr:teryt:sym_ul":942469,"contact:phone":"+48 324153001","contact:email":"sekretariat@oswnis.pl","contact:website":"http:\/\/www.oswnis.pl","ref:regon":"240166329","operator":"Wojew\u00f3dztwo \u015al\u0105skie","operator:type":"government","amenity":"college","note":"Parent RSPO: 20647"}},{"id":30237,"type":"Feature","geometry":{"type":"Point","coordinates":[18.2161,50.0933]},"properties":{"isced:level":"4","ref:rspo":30237,"official_name":"Szko\u0142a Policealna Centrum Nauki I Biznesu \"\u017bak\" w Raciborzu","name":"Szko\u0142a Policealna Centrum Nauki I Biznesu \"\u017bak\" w Raciborzu","addr:country":"PL","addr:postcode":"47-400","addr:city":"Racib\u00f3rz","addr:street":"ul. D\u0142uga","addr:housenumber":"45","addr:teryt:simc":3839,"addr:teryt:sym_ul":942469,"contact:phone":"+48 324140254","contact:email":"raciborz@zak.edu.pl","contact:website":"http:\/\/www.zak.edu.pl","ref:regon":"243077810","ref:vatin":"PL7292597869","operator":"Centrum Nauki I Biznesu \"\u017bak\" Sp\u00f3\u0142ka Z Ograniczon\u0105 Odpowiedzialno\u015bci\u0105","operator:type":"private","amenity":"college"}},{"id":74533,"type":"Feature","geometry":{"type":"Point","coordinates":[18.2161,50.09327]},"properties":{"isced:level":"3","ref:rspo":74533,"official_name":"Liceum Og\u00f3lnokszta\u0142c\u0105ce dla Doros\u0142ych \"\u017bak\" w Raciborzu","name":"Liceum Og\u00f3lnokszta\u0142c\u0105ce dla Doros\u0142ych \"\u017bak\" w Raciborzu","addr:country":"PL","addr:postcode":"47-400","addr:city":"Racib\u00f3rz","addr:street":"ul. D\u0142uga","addr:housenumber":"45","addr:teryt:simc":3839,"addr:teryt:sym_ul":942469,"contact:phone":"+48 324140254","contact:email":"raciborz@zak.edu.pl","contact:website":"http:\/\/www.zak.edu.pl","ref:regon":"243090644","ref:vatin":"PL7292597869","operator":"Centrum Nauki I Biznesu \"\u017bak\" Sp\u00f3\u0142ka Z Ograniczon\u0105 Odpowiedzialno\u015bci\u0105","operator:type":"private","amenity":"school"}},{"id":78026,"type":"Feature","geometry":{"type":"Point","coordinates":[18.2161,50.09324]},"properties":{"ref:rspo":78026,"official_name":"O\u015brodek Szkoleniowy Centrum Nauki I Biznesu \"\u017bak\" w Raciborzu","name":"O\u015brodek Szkoleniowy Centrum Nauki I Biznesu \"\u017bak\" w Raciborzu","addr:country":"PL","addr:postcode":"47-400","addr:city":"Racib\u00f3rz","addr:street":"ul. D\u0142uga","addr:housenumber":"45","addr:teryt:simc":3839,"addr:teryt:sym_ul":942469,"contact:phone":"+48 324140254","contact:email":"raciborz@zak.edu.pl","contact:website":"http:\/\/www.zak.edu.pl","ref:regon":"243095920","ref:vatin":"PL7292597869","operator":"Centrum Nauki I Biznesu \"\u017bak\" Sp\u00f3\u0142ka Z Ograniczon\u0105 Odpowiedzialno\u015bci\u0105","operator:type":"private","fixme":"w zale\u017cno\u015bci od przedmiotu dzia\u0142alno\u015bci (np. amenity=training + training=*, amenity=dancing_school, amenity=language_school, amenity=music_school)"}},{"id":129862,"type":"Feature","geometry":{"type":"Point","coordinates":[18.2161,50.09321]},"properties":{"isced:level":"4","ref:rspo":129862,"official_name":"Szko\u0142a Policealna Medyczna \"\u017bak\" w Raciborzu","name":"Szko\u0142a Policealna Medyczna \"\u017bak\" w Raciborzu","addr:country":"PL","addr:postcode":"47-400","addr:city":"Racib\u00f3rz","addr:street":"ul. D\u0142uga","addr:housenumber":"45","addr:teryt:simc":3839,"addr:teryt:sym_ul":942469,"contact:phone":"+48 324140254","contact:email":"raciborz@zak.edu.pl","contact:website":"http:\/\/www.zak.edu.pl","ref:regon":"363026490","ref:vatin":"PL7292597869","operator":"Centrum Nauki I Biznesu \"\u017bak\" Sp\u00f3\u0142ka Z Ograniczon\u0105 Odpowiedzialno\u015bci\u0105","operator:type":"private","amenity":"college"}},{"id":267688,"type":"Feature","geometry":{"type":"Point","coordinates":[18.21649,50.09352]},"properties":{"ref:rspo":267688,"official_name":"Zesp\u00f3\u0142 Szk\u00f3\u0142 Ekonomicznych","name":"Zesp\u00f3\u0142 Szk\u00f3\u0142 Ekonomicznych","addr:country":"PL","addr:postcode":"47-400","addr:city":"Racib\u00f3rz","addr:street":"ul. Gimnazjalna","addr:housenumber":"3","addr:teryt:simc":5527,"addr:teryt:sym_ul":942469,"contact:phone":"+48 324154890","contact:email":"sekretariat@ekonomikraciborz.pl","contact:website":"http:\/\/ekonomikraciborz.pl\/","ref:regon":"380512530","operator":"Powiat Raciborski","operator:type":"government","landuse":"education","fixme":"amenity=school, amenity=college albo landuse=education w zale\u017cno\u015bci od tego, jakie plac\u00f3wki wchodz\u0105 w sk\u0142ad zespo\u0142u. Sprawd\u017a, kiedy stosowa\u0107 amenity=* a kiedy landuse=education.","note":"Children RSPO: 74552;74554"}},{"id":60128,"type":"Feature","geometry":{"type":"Point","coordinates":[18.21649,50.093489999999996]},"properties":{"isced:level":"4","ref:rspo":60128,"official_name":"Szko\u0142a Policealna Nr 1 w Raciborzu","name":"Szko\u0142a Policealna Nr 1 w Raciborzu","addr:country":"PL","addr:postcode":"47-400","addr:city":"Racib\u00f3rz","addr:street":"ul. Gimnazjalna","addr:housenumber":"3","addr:teryt:simc":5527,"addr:teryt:sym_ul":942469,"contact:phone":"+48 324154654","contact:email":"sek@ckziu1.idsl.pl","contact:website":"http:\/\/www.ckziu1raciborz.idsl.pl","ref:regon":"277882560","operator":"Powiat Raciborski","operator:type":"government","amenity":"college","note":"Parent RSPO: 127948"}},{"id":74552,"type":"Feature","geometry":{"type":"Point","coordinates":[18.21649,50.09346]},"properties":{"isced:level":"3","ref:rspo":74552,"official_name":"Technikum Nr 1 w Raciborzu im.ksi\u0119\u017cnej Eufemii Raciborskiej","name":"Technikum Nr 1 w Raciborzu im.ksi\u0119\u017cnej Eufemii Raciborskiej","addr:country":"PL","addr:postcode":"47-400","addr:city":"Racib\u00f3rz","addr:street":"ul. Gimnazjalna","addr:housenumber":"3","addr:teryt:simc":5527,"addr:teryt:sym_ul":942469,"contact:phone":"+48 324154890","contact:email":"sekretariat@ekonomikraciborz.pl","contact:website":"http:\/\/www.ekonomiraciborz.pl","ref:regon":"272125989","operator":"Powiat Raciborski","operator:type":"government","amenity":"school","note":"Parent RSPO: 267688"}},{"id":74554,"type":"Feature","geometry":{"type":"Point","coordinates":[18.21649,50.09343]},"properties":{"isced:level":"3","ref:rspo":74554,"official_name":"Bran\u017cowa Szko\u0142a I Stopnia Nr 1 w Raciborzu","name":"Bran\u017cowa Szko\u0142a I Stopnia Nr 1 w Raciborzu","addr:country":"PL","addr:postcode":"47-400","addr:city":"Racib\u00f3rz","addr:street":"ul. Gimnazjalna","addr:housenumber":"3","addr:teryt:simc":5527,"addr:teryt:sym_ul":942469,"contact:phone":"+48 324154890","contact:email":"sekretariat@ekonomikraciborz.pl","contact:website":"http:\/\/www.ekonomikraciborz.pl","ref:regon":"272125877","operator":"Powiat Raciborski","operator:type":"government","amenity":"school","note":"Parent RSPO: 267688"}},{"id":74536,"type":"Feature","geometry":{"type":"Point","coordinates":[18.21285,50.09397]},"properties":{"ref:rspo":74536,"official_name":"M\u0142odzie\u017cowy Dom Kultury w Raciborzu","name":"M\u0142odzie\u017cowy Dom Kultury w Raciborzu","addr:country":"PL","addr:postcode":"47-400","addr:city":"Racib\u00f3rz","addr:street":"ul. Paw\u0142a Stalmacha","addr:housenumber":"12","addr:teryt:simc":20807,"addr:teryt:sym_ul":942469,"contact:phone":"+48 324152328","contact:email":"biuro@mdk-raciborz.pl","ref:regon":"000722182","ref:vatin":"PL6391704902","operator":"Powiat Raciborski","operator:type":"government","amenity":"community_centre","community_centre:for":"juvenile"}},{"id":121243,"type":"Feature","geometry":{"type":"Point","coordinates":[18.23988,50.09397]},"properties":{"ref:rspo":121243,"official_name":"Domowe Przedszkole","name":"Domowe Przedszkole","addr:country":"PL","addr:postcode":"47-400","addr:city":"Racib\u00f3rz","addr:street":"ul. Rybnicka","addr:housenumber":"37","addr:teryt:simc":19179,"addr:teryt:sym_ul":942469,"contact:phone":"+48 882184290","contact:email":"przedszkole.biuro@interia.pl","ref:regon":"243440914","operator":"Justyna Oszust","operator:type":"private","amenity":"kindergarten"}},{"id":19793,"type":"Feature","geometry":{"type":"Point","coordinates":[18.21928,50.094]},"properties":{"ref:rspo":19793,"official_name":"Przedszkole Nr 15 im. Jana Brzechwy","name":"Przedszkole Nr 15","addr:country":"PL","addr:postcode":"47-400","addr:city":"Racib\u00f3rz","addr:street":"ul. Kowalska","addr:housenumber":"1","addr:teryt:simc":9665,"addr:teryt:sym_ul":942469,"contact:phone":"+48 324152830","contact:email":"przedszkole15rac@o2.pl","ref:regon":"271507967","ref:vatin":"PL6391790959","operator":"Miasto Racib\u00f3rz","operator:type":"government","amenity":"kindergarten"}},{"id":119019,"type":"Feature","geometry":{"type":"Point","coordinates":[18.2131599,50.09531]},"properties":{"ref:rspo":119019,"official_name":"Raciborskie Centrum Opieki Nad Dzie\u0107mi - Przedszkole","name":"Raciborskie Centrum Opieki Nad Dzie\u0107mi - Przedszkole","addr:country":"PL","addr:postcode":"47-400","addr:city":"Racib\u00f3rz","addr:street":"ul. ks. J\u00f3zefa Londzina","addr:housenumber":"16","addr:door":"2","addr:teryt:simc":11254,"addr:teryt:sym_ul":942469,"contact:phone":"+48 326660041","contact:email":"przedszkole@dzieciraciborz.pl","contact:website":"http:\/\/www.dzieciraciborz.pl","ref:regon":"243347735","operator":"Raciborskie Centrum Opieki Nad Dzie\u0107mi Sp\u00f3\u0142ka Z Ograniczon\u0105 Odpowiedzialno\u015bci\u0105","operator:type":"private","amenity":"kindergarten"}},{"id":277027,"type":"Feature","geometry":{"type":"Point","coordinates":[18.20912,50.09585]},"properties":{"ref:rspo":277027,"official_name":"Akademia Nauki, Biznesu I Bezpiecze\u0144stwa","name":"Akademia Nauki, Biznesu I Bezpiecze\u0144stwa","addr:country":"PL","addr:postcode":"47-400","addr:city":"Racib\u00f3rz","addr:street":"ul. Maria\u0144ska","addr:housenumber":"22b","addr:teryt:simc":12336,"addr:teryt:sym_ul":942469,"contact:phone":"+48 737424808","contact:email":"marshall.investments.company@gmail.com","contact:website":"http:\/\/www.marshallworkservice.pl","ref:regon":"388033013","operator":"Marshall Investments Company Sp\u00f3\u0142ka Z Ograniczon\u0105 Odpowiedzialno\u015bci\u0105","operator:type":"private","fixme":"w zale\u017cno\u015bci od przedmiotu dzia\u0142alno\u015bci (np. amenity=training + training=*, amenity=dancing_school, amenity=language_school, amenity=music_school)"}},{"id":127942,"type":"Feature","geometry":{"type":"Point","coordinates":[18.22218,50.09601]},"properties":{"ref:rspo":127942,"official_name":"Centrum Kszta\u0142cenia Zawodowego I Ustawicznego Nr 2 \"Mechanik\" w Raciborzu","name":"Centrum Kszta\u0142cenia Zawodowego I Ustawicznego Nr 2 \"Mechanik\" w Raciborzu","addr:country":"PL","addr:postcode":"47-400","addr:city":"Racib\u00f3rz","addr:street":"ul. Zamkowa","addr:housenumber":"1","addr:teryt:simc":25547,"addr:teryt:sym_ul":942469,"contact:phone":"+48 324153388","contact:email":"sekretariat@zsm.slask.pl","contact:website":"http:\/\/www.mechanik.rac.pl","ref:regon":"361977198","operator":"Powiat Raciborski","operator:type":"government","landuse":"education","fixme":"amenity=school, amenity=college albo landuse=education w zale\u017cno\u015bci od tego, jakie plac\u00f3wki wchodz\u0105 w sk\u0142ad zespo\u0142u. Sprawd\u017a, kiedy stosowa\u0107 amenity=* a kiedy landuse=education.","note":"Children RSPO: 7298;8836;47605;68236;74545;74564;275743"}},{"id":7298,"type":"Feature","geometry":{"type":"Point","coordinates":[18.22218,50.09598]},"properties":{"ref:rspo":7298,"official_name":"Centrum Kszta\u0142cenia Ustawicznego w Raciborzu","name":"Centrum Kszta\u0142cenia Ustawicznego w Raciborzu","addr:country":"PL","addr:postcode":"47-400","addr:city":"Racib\u00f3rz","addr:street":"ul. Zamkowa","addr:housenumber":"1","addr:teryt:simc":25547,"addr:teryt:sym_ul":942469,"contact:phone":"+48 324153388","contact:email":"sekretariat2@zsm.slask.pl","contact:website":"http:\/\/www.ckuraciborz.pl","ref:regon":"277627891","ref:vatin":"PL6391788690","operator":"Powiat Raciborski","operator:type":"government","fixme":"w zale\u017cno\u015bci od przedmiotu dzia\u0142alno\u015bci (np. amenity=training + training=*, amenity=dancing_school, amenity=language_school, amenity=music_school)","note":"Parent RSPO: 127942"}},{"id":8836,"type":"Feature","geometry":{"type":"Point","coordinates":[18.22218,50.09595]},"properties":{"isced:level":"3","ref:rspo":8836,"official_name":"Liceum Og\u00f3lnokszta\u0142c\u0105ce dla Doros\u0142ych w Raciborzu","name":"Liceum Og\u00f3lnokszta\u0142c\u0105ce dla Doros\u0142ych w Raciborzu","addr:country":"PL","addr:postcode":"47-400","addr:city":"Racib\u00f3rz","addr:street":"ul. Zamkowa","addr:housenumber":"1","addr:teryt:simc":25547,"addr:teryt:sym_ul":942469,"contact:phone":"+48 324153388","contact:email":"ckpraciborz4154489@poczta.onet.pl","contact:website":"http:\/\/www.ckuraciborz.pl","ref:regon":"243028875","ref:vatin":"PL6391788690","operator":"Powiat Raciborski","operator:type":"government","amenity":"school","note":"Parent RSPO: 127942"}},{"id":47605,"type":"Feature","geometry":{"type":"Point","coordinates":[18.22218,50.09592]},"properties":{"isced:level":"3","ref:rspo":47605,"official_name":"Bran\u017cowa Szko\u0142a I Stopnia Nr 4","name":"Bran\u017cowa Szko\u0142a I Stopnia Nr 4","addr:country":"PL","addr:postcode":"47-400","addr:city":"Racib\u00f3rz","addr:street":"ul. Zamkowa","addr:housenumber":"1","addr:teryt:simc":25547,"addr:teryt:sym_ul":942469,"contact:phone":"+48 324153388","contact:email":"sekretariat@zsm.slask.pl","contact:website":"http:\/\/www.mechanik.rac.pl","ref:regon":"272125096","operator":"Powiat Raciborski","operator:type":"government","amenity":"school","note":"Parent RSPO: 127942"}},{"id":68236,"type":"Feature","geometry":{"type":"Point","coordinates":[18.22218,50.09589]},"properties":{"isced:level":"4","ref:rspo":68236,"official_name":"Szko\u0142a Policealna Nr 2 w Raciborzu","name":"Szko\u0142a Policealna Nr 2 w Raciborzu","addr:country":"PL","addr:postcode":"47-400","addr:city":"Racib\u00f3rz","addr:street":"ul. Zamkowa","addr:housenumber":"1","addr:teryt:simc":25547,"addr:teryt:sym_ul":942469,"contact:phone":"+48 324153388","contact:email":"sekretariat@zsm.slask.pl","contact:website":"http:\/\/www.mechanik.rac.pl","ref:regon":"277627922","operator":"Powiat Raciborski","operator:type":"government","amenity":"college","note":"Parent RSPO: 127942"}},{"id":74545,"type":"Feature","geometry":{"type":"Point","coordinates":[18.22218,50.09586]},"properties":{"isced:level":"3","ref:rspo":74545,"official_name":"Technikum Nr 4 w Raciborzu","name":"Technikum Nr 4 w Raciborzu","addr:country":"PL","addr:postcode":"47-400","addr:city":"Racib\u00f3rz","addr:street":"ul. Zamkowa","addr:housenumber":"1","addr:teryt:simc":25547,"addr:teryt:sym_ul":942469,"contact:phone":"+48 324153388","contact:email":"sekretariat@zsm.slask.pl","contact:website":"http:\/\/www.mechanik.rac.pl","ref:regon":"272125133","operator":"Powiat Raciborski","operator:type":"government","amenity":"school","note":"Parent RSPO: 127942"}},{"id":74564,"type":"Feature","geometry":{"type":"Point","coordinates":[18.22218,50.09583]},"properties":{"ref:rspo":74564,"official_name":"Centrum Kszta\u0142cenia Zawodowego w Raciborzu","name":"Centrum Kszta\u0142cenia Zawodowego w Raciborzu","addr:country":"PL","addr:postcode":"47-400","addr:city":"Racib\u00f3rz","addr:street":"ul. Zamkowa","addr:housenumber":"1","addr:teryt:simc":25547,"addr:teryt:sym_ul":942469,"contact:phone":"+48 324153388","contact:email":"sekretariat@zsm.slask.pl","contact:website":"http:\/\/www.mechnik.rac.pl","ref:regon":"276644440","operator":"Powiat Raciborski","operator:type":"government","fixme":"w zale\u017cno\u015bci od przedmiotu dzia\u0142alno\u015bci (np. amenity=training + training=*, amenity=dancing_school, amenity=language_school, amenity=music_school) albo amenity=school, amenity=college, albo landuse=education w zale\u017cno\u015bci od tego, jakie plac\u00f3wki wchodz\u0105 w sk\u0142ad zespo\u0142u. Sprawd\u017a, kiedy stosowa\u0107 amenity=* a kiedy landuse=education.","note":"Parent RSPO: 127942"}},{"id":275743,"type":"Feature","geometry":{"type":"Point","coordinates":[18.22218,50.0958]},"properties":{"isced:level":"3","ref:rspo":275743,"official_name":"Bran\u017cowa Szko\u0142a II Stopnia Nr 2","name":"Bran\u017cowa Szko\u0142a II Stopnia Nr 2","addr:country":"PL","addr:postcode":"47-400","addr:city":"Racib\u00f3rz","addr:street":"ul. Zamkowa","addr:housenumber":"1","addr:teryt:simc":25547,"addr:teryt:sym_ul":942469,"contact:phone":"+48 324153388","ref:regon":"386942177","operator":"Powiat Raciborski","operator:type":"government","amenity":"school","note":"Parent RSPO: 127942"}},{"id":19789,"type":"Feature","geometry":{"type":"Point","coordinates":[18.2270499,50.09632]},"properties":{"ref:rspo":19789,"official_name":"Przedszkole Nr 11 im. Marii Konopnickiej","name":"Przedszkole Nr 11","addr:country":"PL","addr:postcode":"47-400","addr:city":"Racib\u00f3rz","addr:street":"ul. Jana","addr:housenumber":"20","addr:teryt:simc":7109,"addr:teryt:sym_ul":942469,"contact:phone":"+48 324153732","contact:email":"przedszkole11rac@o2.pl","contact:website":"http:\/\/www.p11raciborz.edupage.org","ref:regon":"271507921","ref:vatin":"PL6391791025","operator":"Miasto Racib\u00f3rz","operator:type":"government","amenity":"kindergarten"}},{"id":74531,"type":"Feature","geometry":{"type":"Point","coordinates":[18.22561,50.09653]},"properties":{"ref:rspo":74531,"official_name":"Poradnia Psychologiczno- Pedagogiczna w Raciborzu","name":"Poradnia Psychologiczno- Pedagogiczna w Raciborzu","addr:country":"PL","addr:postcode":"47-400","addr:city":"Racib\u00f3rz","addr:street":"ul. Jana","addr:housenumber":"14","addr:teryt:simc":7109,"addr:teryt:sym_ul":942469,"contact:phone":"+48 324153547","contact:email":"pppraciborz@op.pl","ref:regon":"000722199","ref:vatin":"PL6391698432","operator":"Powiat Raciborski","operator:type":"government","healthcare":"councelling","counselling_type":"education","fixme":"w zale\u017cno\u015bci od przedmiotu dzia\u0142alno\u015bci (np. healthcare=councelling + counselling_type=education albo healthcare=psychotherapist)"}},{"id":19797,"type":"Feature","geometry":{"type":"Point","coordinates":[18.22594,50.09689]},"properties":{"ref:rspo":19797,"official_name":"Przedszkole Nr 24 Z Oddzia\u0142ami: Integracyjnymi I Specjalnym","name":"Przedszkole Nr 24 Z Oddzia\u0142ami: Integracyjnymi I Specjalnym","addr:country":"PL","addr:postcode":"47-400","addr:city":"Racib\u00f3rz","addr:street":"ul. Bielska","addr:housenumber":"2","addr:teryt:simc":1279,"addr:teryt:sym_ul":942469,"contact:phone":"+48 324153275","contact:email":"p24@raciborz.com.pl","contact:website":"http:\/\/www.p24.raciborz.com.pl","ref:regon":"271508040","ref:vatin":"PL6391791077","operator":"Miasto Racib\u00f3rz","operator:type":"government","amenity":"kindergarten"}},{"id":19790,"type":"Feature","geometry":{"type":"Point","coordinates":[18.206729888916,50.097839355469]},"properties":{"ref:rspo":19790,"official_name":"Przedszkole Nr 12","name":"Przedszkole Nr 12","addr:country":"PL","addr:postcode":"47-400","addr:city":"Racib\u00f3rz","addr:street":"ul. gen. J\u00f3zefa Bema","addr:housenumber":"6","addr:teryt:simc":1014,"addr:teryt:sym_ul":942469,"contact:phone":"+48 324153241","contact:email":"p_12przedszkole@wp.pl","contact:website":"http:\/\/www.p12raciborz.szkolnastrona.pl","ref:regon":"271507938","ref:vatin":"PL6391790988","operator":"Miasto Racib\u00f3rz","operator:type":"government","amenity":"kindergarten"}},{"id":29443,"type":"Feature","geometry":{"type":"Point","coordinates":[18.2293999,50.09893]},"properties":{"ref:rspo":29443,"official_name":"Zesp\u00f3\u0142 Szk\u00f3\u0142 Specjalnych w Raciborzu","name":"Zesp\u00f3\u0142 Szk\u00f3\u0142 Specjalnych w Raciborzu","addr:country":"PL","addr:postcode":"47-400","addr:city":"Racib\u00f3rz","addr:street":"ul. Kr\u00f3lewska","addr:housenumber":"19","addr:teryt:simc":9987,"addr:teryt:sym_ul":942469,"contact:phone":"+48 324154991","contact:email":"zssraciborz@poczta.onet.pl","contact:website":"http:\/\/www.e-zssraciborz.pl","ref:regon":"276985200","ref:vatin":"PL6391772720","operator":"Powiat Raciborski","operator:type":"government","landuse":"education","fixme":"amenity=school, amenity=college albo landuse=education w zale\u017cno\u015bci od tego, jakie plac\u00f3wki wchodz\u0105 w sk\u0142ad zespo\u0142u. Sprawd\u017a, kiedy stosowa\u0107 amenity=* a kiedy landuse=education.","note":"Children RSPO: 74559;74561;74563"}},{"id":74559,"type":"Feature","geometry":{"type":"Point","coordinates":[18.2293999,50.0989]},"properties":{"isced:level":"1;2","ref:rspo":74559,"official_name":"Szko\u0142a Podstawowa Specjalna Nr 10 w Raciborzu","name":"Szko\u0142a Podstawowa Specjalna Nr 10 w Raciborzu","addr:country":"PL","addr:postcode":"47-400","addr:city":"Racib\u00f3rz","addr:street":"ul. Kr\u00f3lewska","addr:housenumber":"19","addr:teryt:simc":9987,"addr:teryt:sym_ul":942469,"contact:phone":"+48 324154991","contact:email":"zssraciborz@poczta.onet.pl","ref:regon":"000724057","operator":"Powiat Raciborski","operator:type":"government","amenity":"school","note":"Parent RSPO: 29443"}},{"id":74561,"type":"Feature","geometry":{"type":"Point","coordinates":[18.2293999,50.098870000000005]},"properties":{"ref:rspo":74561,"official_name":"Szko\u0142a Specjalna Przyspasabiaj\u0105ca Do Pracy w Raciborzu","name":"Szko\u0142a Specjalna Przyspasabiaj\u0105ca Do Pracy w Raciborzu","addr:country":"PL","addr:postcode":"47-400","addr:city":"Racib\u00f3rz","addr:street":"ul. Kr\u00f3lewska","addr:housenumber":"19","addr:teryt:simc":9987,"addr:teryt:sym_ul":942469,"contact:phone":"+48 324154991","contact:email":"zssraciborz@poczta.onet.pl","ref:regon":"240122131","operator":"Powiat Raciborski","operator:type":"government","amenity":"school","note":"Parent RSPO: 29443"}},{"id":74563,"type":"Feature","geometry":{"type":"Point","coordinates":[18.2293999,50.09884]},"properties":{"isced:level":"3","ref:rspo":74563,"official_name":"Bran\u017cowa Szko\u0142a I Stopnia Specjalna Nr 1 w Raciborzu","name":"Bran\u017cowa Szko\u0142a I Stopnia Specjalna Nr 1 w Raciborzu","addr:country":"PL","addr:postcode":"47-400","addr:city":"Racib\u00f3rz","addr:street":"ul. Kr\u00f3lewska","addr:housenumber":"19","addr:teryt:simc":9987,"addr:teryt:sym_ul":942469,"contact:phone":"+48 324154991","contact:email":"zssraciborz@poczta.onet.pl","ref:regon":"240972059","operator":"Powiat Raciborski","operator:type":"government","amenity":"school","note":"Parent RSPO: 29443"}},{"id":20503,"type":"Feature","geometry":{"type":"Point","coordinates":[18.21121,50.09932]},"properties":{"ref:rspo":20503,"official_name":"Zesp\u00f3\u0142 Szk\u00f3\u0142 Og\u00f3lnokszta\u0142c\u0105cych Mistrzostwa Sportowego im. J. Kusoci\u0144skiego","name":"Zesp\u00f3\u0142 Szk\u00f3\u0142 Og\u00f3lnokszta\u0142c\u0105cych Mistrzostwa Sportowego","addr:country":"PL","addr:postcode":"47-400","addr:city":"Racib\u00f3rz","addr:street":"ul. Kozielska","addr:housenumber":"19","addr:teryt:simc":9714,"addr:teryt:sym_ul":942469,"contact:phone":"+48 324154459","contact:email":"zsoms@smsraciborz.pl","contact:website":"http:\/\/www.smsraciborz.pl","ref:regon":"000836201","ref:vatin":"PL6391706338","operator":"Wojew\u00f3dztwo \u015al\u0105skie","operator:type":"government","landuse":"education","fixme":"amenity=school, amenity=college albo landuse=education w zale\u017cno\u015bci od tego, jakie plac\u00f3wki wchodz\u0105 w sk\u0142ad zespo\u0142u. Sprawd\u017a, kiedy stosowa\u0107 amenity=* a kiedy landuse=education.","note":"Children RSPO: 24648;24775"}},{"id":24648,"type":"Feature","geometry":{"type":"Point","coordinates":[18.21121,50.099289999999996]},"properties":{"isced:level":"1;2","ref:rspo":24648,"official_name":"Szko\u0142a Podstawowa Nr 8 w Raciborzu","name":"Szko\u0142a Podstawowa Nr 8 w Raciborzu","addr:country":"PL","addr:postcode":"47-400","addr:city":"Racib\u00f3rz","addr:street":"ul. Kozielska","addr:housenumber":"19","addr:teryt:simc":9714,"addr:teryt:sym_ul":942469,"contact:phone":"+48 324154459","contact:email":"zsoms@smsraciborz.pl","contact:website":"http:\/\/www.smraciborz.pl","ref:regon":"000724034","ref:vatin":"PL6391706338","operator":"Wojew\u00f3dztwo \u015al\u0105skie","operator:type":"government","amenity":"school","note":"Parent RSPO: 20503"}},{"id":24775,"type":"Feature","geometry":{"type":"Point","coordinates":[18.21121,50.09926]},"properties":{"isced:level":"3","ref:rspo":24775,"official_name":"Liceum Og\u00f3lnokszta\u0142c\u0105ce Mistrzostwa Sportowego","name":"Liceum Og\u00f3lnokszta\u0142c\u0105ce Mistrzostwa Sportowego","addr:country":"PL","addr:postcode":"47-400","addr:city":"Racib\u00f3rz","addr:street":"ul. Kozielska","addr:housenumber":"19","addr:teryt:simc":9714,"addr:teryt:sym_ul":942469,"contact:phone":"+48 324154459","contact:email":"zsoms@smraciborz.pl","contact:website":"http:\/\/www.smsraciborz.pl","ref:regon":"272125831","ref:vatin":"PL6391706338","operator":"Wojew\u00f3dztwo \u015al\u0105skie","operator:type":"government","amenity":"school","note":"Parent RSPO: 20503"}},{"id":132861,"type":"Feature","geometry":{"type":"Point","coordinates":[18.2317,50.0993799]},"properties":{"isced:level":"1;2","ref:rspo":132861,"official_name":"Niepubliczna Szko\u0142a Podstawowa Specjalna \"Umiem Racib\u00f3rz\"","name":"Niepubliczna Szko\u0142a Podstawowa Specjalna \"Umiem Racib\u00f3rz\"","addr:country":"PL","addr:postcode":"47-400","addr:city":"Racib\u00f3rz","addr:street":"ul. Cecylii","addr:housenumber":"28","addr:teryt:simc":2562,"addr:teryt:sym_ul":942469,"contact:email":"szkola-raciborz@umiem.org","ref:regon":"366310197","operator":"Polskie Stowarzyszenie Terapii Behawioralnej","operator:type":"ngo","amenity":"school"}},{"id":19786,"type":"Feature","geometry":{"type":"Point","coordinates":[18.21211,50.0997]},"properties":{"ref:rspo":19786,"official_name":"Przedszkole Nr 3 im.matki Polki","name":"Przedszkole Nr 3 im.matki Polki","addr:country":"PL","addr:postcode":"47-400","addr:city":"Racib\u00f3rz","addr:street":"ul. Kozielska","addr:housenumber":"27","addr:teryt:simc":9714,"addr:teryt:sym_ul":942469,"contact:phone":"+48 324152481","contact:email":"p3raciborz@o2.pl","ref:regon":"271507849","ref:vatin":"PL6391791031","operator":"Miasto Racib\u00f3rz","operator:type":"government","amenity":"kindergarten"}},{"id":6961,"type":"Feature","geometry":{"type":"Point","coordinates":[18.23205,50.09995]},"properties":{"isced:level":"3","ref:rspo":6961,"official_name":"Prywatne Liceum Og\u00f3lnokszta\u0142c\u0105ce dla Doros\u0142ych \"Edukacja\" w Raciborzu","name":"Prywatne Liceum Og\u00f3lnokszta\u0142c\u0105ce dla Doros\u0142ych \"Edukacja\" w Raciborzu","addr:country":"PL","addr:postcode":"47-400","addr:city":"Racib\u00f3rz","addr:street":"ul. Cecylii","addr:housenumber":"30","addr:teryt:simc":2562,"addr:teryt:sym_ul":942469,"contact:phone":"+48 531204000","contact:email":"witekszkola@op.pl","ref:regon":"243024512","ref:vatin":"PL7471702627","operator":"Jolanta Pietruk","operator:type":"private","amenity":"school"}},{"id":24474,"type":"Feature","geometry":{"type":"Point","coordinates":[18.23205,50.09992]},"properties":{"isced:level":"1;2","ref:rspo":24474,"official_name":"Szko\u0142a Podstawowa Nr 1 Z Oddzia\u0142ami Integracyjnymi","name":"Szko\u0142a Podstawowa Nr 1 Z Oddzia\u0142ami Integracyjnymi","addr:country":"PL","addr:postcode":"47-400","addr:city":"Racib\u00f3rz","addr:street":"ul. Cecylii","addr:housenumber":"30","addr:teryt:simc":2562,"addr:teryt:sym_ul":942469,"contact:phone":"+48 324155017","contact:email":"szkolanaostrogu@op.pl","contact:website":"http:\/\/www.sp1raciborz.pl","ref:regon":"000723968","ref:vatin":"PL6391771117","operator":"Miasto Racib\u00f3rz","operator:type":"government","amenity":"school"}},{"id":32116,"type":"Feature","geometry":{"type":"Point","coordinates":[18.23205,50.09989]},"properties":{"isced:level":"4","ref:rspo":32116,"official_name":"Prywatna Szko\u0142a Policealna w Raciborzu","name":"Prywatna Szko\u0142a Policealna w Raciborzu","addr:country":"PL","addr:postcode":"47-400","addr:city":"Racib\u00f3rz","addr:street":"ul. Cecylii","addr:housenumber":"30","addr:teryt:simc":2562,"addr:teryt:sym_ul":942469,"contact:phone":"+48 531204000","contact:email":"witekszkola@op.pl","ref:regon":"243075870","ref:vatin":"PL7471702627","operator":"Jolanta Pietruk","operator:type":"private","amenity":"college"}},{"id":21850,"type":"Feature","geometry":{"type":"Point","coordinates":[18.27497,50.11323]},"properties":{"ref:rspo":21850,"official_name":"Zesp\u00f3\u0142 Szkolno-Rzedszkolny Nr 1","name":"Zesp\u00f3\u0142 Szkolno-Rzedszkolny Nr 1","addr:country":"PL","addr:postcode":"47-400","addr:city":"Racib\u00f3rz","addr:street":"ul. Henryka Jordana","addr:housenumber":"6","addr:teryt:simc":7606,"addr:teryt:sym_ul":942469,"contact:phone":"+48 324156195","contact:email":"zspraciborz@poczta.fm","ref:regon":"277458365","ref:vatin":"PL6391775954","operator":"Miasto Racib\u00f3rz","operator:type":"government","landuse":"education","fixme":"amenity=school, amenity=college albo landuse=education w zale\u017cno\u015bci od tego, jakie plac\u00f3wki wchodz\u0105 w sk\u0142ad zespo\u0142u. Sprawd\u017a, kiedy stosowa\u0107 amenity=* a kiedy landuse=education.","note":"Children RSPO: 53298;53299"}},{"id":53298,"type":"Feature","geometry":{"type":"Point","coordinates":[18.27497,50.1132]},"properties":{"ref:rspo":53298,"official_name":"Przedszkole Nr 17","name":"Przedszkole Nr 17","addr:country":"PL","addr:postcode":"47-400","addr:city":"Racib\u00f3rz","addr:street":"ul. Henryka Jordana","addr:housenumber":"6","addr:teryt:simc":7606,"addr:teryt:sym_ul":942469,"contact:phone":"+48 324156195","contact:email":"zspraciborz@poczta.fm","ref:regon":"271507980","operator":"Miasto Racib\u00f3rz","operator:type":"government","amenity":"kindergarten","note":"Parent RSPO: 21850"}},{"id":53299,"type":"Feature","geometry":{"type":"Point","coordinates":[18.27497,50.113170000000004]},"properties":{"isced:level":"1;2","ref:rspo":53299,"official_name":"Szko\u0142a Podstawowa Nr 14 im.arki Bo\u017cka","name":"Szko\u0142a Podstawowa Nr 14 im.arki Bo\u017cka","addr:country":"PL","addr:postcode":"47-400","addr:city":"Racib\u00f3rz","addr:street":"ul. Henryka Jordana","addr:housenumber":"6","addr:teryt:simc":7606,"addr:teryt:sym_ul":942469,"contact:phone":"+48 324156195","contact:email":"zspraciborz@poczta.fm","ref:regon":"000724092","operator":"Miasto Racib\u00f3rz","operator:type":"government","amenity":"school","note":"Parent RSPO: 21850"}}]}