{
    "type": "FeatureCollection",
    "features": [
        {
            "id": 74530,
            "type": "Feature",
            "geometry": {
                "type": "Point",
                "coordinates": [
                    18.4637,
                    50.18965
                ]
            },
            "properties": {
                "ref:rspo": 74530,
                "official_name": "M\u0142odzie\u017cowy O\u015brodek Wychowawczy w Rudach",
                "name": "M\u0142odzie\u017cowy O\u015brodek Wychowawczy w Rudach",
                "addr:country": "PL",
                "addr:postcode": "47-430",
                "addr:city": "Rudy",
                "addr:street": "Szkolna",
                "addr:housenumber": "2",
                "addr:teryt:simc": 21970,
                "addr:teryt:sym_ul": 215746,
                "contact:phone": "+48 324104820",
                "contact:email": "mowrudy@interia.pl",
                "ref:regon": "240920157",
                "ref:vatin": "PL6391942352",
                "operator": "Powiat Raciborski",
                "operator:type": "government",
                "fixme": "amenity=social_facility + social_facility=group_home + social_facility:for=juvenile",
                "note": "Children RSPO: 122823;263544"
            }
        },
        {
            "id": 122823,
            "type": "Feature",
            "geometry": {
                "type": "Point",
                "coordinates": [
                    18.4637,
                    50.18962
                ]
            },
            "properties": {
                "isced:level": "3",
                "ref:rspo": 122823,
                "official_name": "Bran\u017cowa Szko\u0142a I Stopnia Specjalna Nr 2 im. Janusza Korczaka w Rudach",
                "name": "Bran\u017cowa Szko\u0142a I Stopnia Specjalna Nr 2",
                "addr:country": "PL",
                "addr:postcode": "47-430",
                "addr:city": "Rudy",
                "addr:street": "Szkolna",
                "addr:housenumber": "2",
                "addr:teryt:simc": 21970,
                "addr:teryt:sym_ul": 215746,
                "contact:phone": "+48 324104820",
                "contact:email": "mowrudy@interia.pl",
                "ref:regon": "240920170",
                "operator": "Powiat Raciborski",
                "operator:type": "government",
                "amenity": "school",
                "note": "Parent RSPO: 74530"
            }
        },
        {
            "id": 263544,
            "type": "Feature",
            "geometry": {
                "type": "Point",
                "coordinates": [
                    18.4637,
                    50.18959
                ]
            },
            "properties": {
                "isced:level": "1;2",
                "ref:rspo": 263544,
                "official_name": "Szko\u0142a Podstawowa Specjalna",
                "name": "Szko\u0142a Podstawowa Specjalna",
                "addr:country": "PL",
                "addr:postcode": "47-430",
                "addr:city": "Rudy",
                "addr:street": "Szkolna",
                "addr:housenumber": "2",
                "addr:teryt:simc": 21970,
                "addr:teryt:sym_ul": 215746,
                "contact:phone": "+48 324103006",
                "contact:email": "mowrudy@interia.pl",
                "ref:regon": "368198652",
                "operator": "Powiat Raciborski",
                "operator:type": "government",
                "amenity": "school",
                "note": "Parent RSPO: 74530"
            }
        },
        {
            "id": 29904,
            "type": "Feature",
            "geometry": {
                "type": "Point",
                "coordinates": [
                    18.44939994812,
                    50.192440032959
                ]
            },
            "properties": {
                "ref:rspo": 29904,
                "official_name": "Przedszkole w Rudach",
                "name": "Przedszkole w Rudach",
                "addr:country": "PL",
                "addr:postcode": "47-430",
                "addr:city": "Rudy",
                "addr:street": "Raciborska",
                "addr:housenumber": "17",
                "addr:teryt:simc": 18263,
                "addr:teryt:sym_ul": 215746,
                "contact:phone": "+48 324103025",
                "contact:email": "przedszkole.rudy@gmail.com",
                "contact:website": "http:\/\/przedszkolerudy.szkolnastrona.pl\/",
                "ref:regon": "271504667",
                "ref:vatin": "PL6391802409",
                "operator": "Gmina Ku\u017ania Raciborska",
                "operator:type": "government",
                "amenity": "kindergarten"
            }
        },
        {
            "id": 24611,
            "type": "Feature",
            "geometry": {
                "type": "Point",
                "coordinates": [
                    18.4488869,
                    50.1924638
                ]
            },
            "properties": {
                "isced:level": "1;2",
                "ref:rspo": 24611,
                "official_name": "Szko\u0142a Podstawowa im. Jana III Sobieskiego w Rudach",
                "name": "Szko\u0142a Podstawowa",
                "addr:country": "PL",
                "addr:postcode": "47-430",
                "addr:city": "Rudy",
                "addr:street": "Rogera",
                "addr:housenumber": "2",
                "addr:teryt:simc": 31794,
                "addr:teryt:sym_ul": 215746,
                "contact:phone": "+48 324103024",
                "contact:email": "szkolarudy@gmail.com",
                "contact:website": "http:\/\/www.zsorudy.szkolnastrona.pl",
                "ref:regon": "001205879",
                "ref:vatin": "PL6392013689",
                "operator": "Gmina Ku\u017ania Raciborska",
                "operator:type": "government",
                "amenity": "school"
            }
        },
        {
            "id": 10820,
            "type": "Feature",
            "geometry": {
                "type": "Point",
                "coordinates": [
                    18.3154,
                    50.19621
                ]
            },
            "properties": {
                "isced:level": "1;2",
                "ref:rspo": 10820,
                "official_name": "Szko\u0142a Podstawowa im. Jana Wawrzynka w Ku\u017ani Raciborskiej",
                "name": "Szko\u0142a Podstawowa",
                "addr:country": "PL",
                "addr:postcode": "47-420",
                "addr:city": "Ku\u017ania Raciborska",
                "addr:street": "Piaskowa",
                "addr:housenumber": "28",
                "addr:teryt:simc": 16033,
                "addr:teryt:sym_ul": 940884,
                "contact:phone": "+48 324191318",
                "contact:email": "sp1kuzniar@poczta.onet.pl",
                "contact:website": "https:\/\/spkuzniar.szkolna.net\/",
                "ref:regon": "001205862",
                "ref:vatin": "PL6392013519",
                "operator": "Gmina Ku\u017ania Raciborska",
                "operator:type": "government",
                "amenity": "school"
            }
        },
        {
            "id": 29647,
            "type": "Feature",
            "geometry": {
                "type": "Point",
                "coordinates": [
                    18.32018,
                    50.19685
                ]
            },
            "properties": {
                "ref:rspo": 29647,
                "official_name": "Przedszkole Nr 2 w Ku\u017ani Raciborskiej",
                "name": "Przedszkole Nr 2 w Ku\u017ani Raciborskiej",
                "addr:country": "PL",
                "addr:postcode": "47-420",
                "addr:city": "Ku\u017ania Raciborska",
                "addr:street": "Bohater\u00f3w Westerplatte",
                "addr:housenumber": "1",
                "addr:teryt:simc": 1681,
                "addr:teryt:sym_ul": 940884,
                "contact:phone": "+48 324191312",
                "contact:email": "przedszkolenr2kr@o2.pl",
                "contact:website": "http:\/\/p2kuzniaraciborska.szkolnastrona.pl\/",
                "ref:regon": "271504733",
                "ref:vatin": "PL6391802384",
                "operator": "Gmina Ku\u017ania Raciborska",
                "operator:type": "government",
                "amenity": "kindergarten"
            }
        },
        {
            "id": 20556,
            "type": "Feature",
            "geometry": {
                "type": "Point",
                "coordinates": [
                    18.31372,
                    50.20036
                ]
            },
            "properties": {
                "ref:rspo": 20556,
                "official_name": "M\u0142odzie\u017cowy O\u015brodek Wychowawczy w Ku\u017ani Raciborskiej",
                "name": "M\u0142odzie\u017cowy O\u015brodek Wychowawczy w Ku\u017ani Raciborskiej",
                "addr:country": "PL",
                "addr:postcode": "47-420",
                "addr:city": "Ku\u017ania Raciborska",
                "addr:street": "Klasztorna",
                "addr:housenumber": "1",
                "addr:teryt:simc": 8485,
                "addr:teryt:sym_ul": 940884,
                "contact:phone": "+48 324191117",
                "contact:email": "sekretariat@mowkuzniaraciborska.pl",
                "contact:website": "http:\/\/www.mowkr.pl",
                "ref:regon": "000204790",
                "ref:vatin": "PL6391696321",
                "operator": "Wojew\u00f3dztwo \u015al\u0105skie",
                "operator:type": "government",
                "fixme": "amenity=social_facility + social_facility=group_home + social_facility:for=juvenile",
                "note": "Children RSPO: 111275;277853"
            }
        },
        {
            "id": 111275,
            "type": "Feature",
            "geometry": {
                "type": "Point",
                "coordinates": [
                    18.31372,
                    50.20033
                ]
            },
            "properties": {
                "isced:level": "1;2",
                "ref:rspo": 111275,
                "official_name": "Szko\u0142a Podstawowa Specjalna Nr 2 w Ku\u017ani Raciborskiej",
                "name": "Szko\u0142a Podstawowa Specjalna Nr 2 w Ku\u017ani Raciborskiej",
                "addr:country": "PL",
                "addr:postcode": "47-420",
                "addr:city": "Ku\u017ania Raciborska",
                "addr:street": "Klasztorna",
                "addr:housenumber": "1",
                "addr:teryt:simc": 8485,
                "addr:teryt:sym_ul": 940884,
                "contact:phone": "+48 324191117",
                "contact:email": "sekretariat@mowkuzniaraciborska.pl",
                "contact:website": "http:\/\/www.mowkr.pl",
                "ref:regon": "001029454",
                "operator": "Wojew\u00f3dztwo \u015al\u0105skie",
                "operator:type": "government",
                "amenity": "school",
                "note": "Parent RSPO: 20556"
            }
        },
        {
            "id": 277853,
            "type": "Feature",
            "geometry": {
                "type": "Point",
                "coordinates": [
                    18.31372,
                    50.200300000000006
                ]
            },
            "properties": {
                "isced:level": "3",
                "ref:rspo": 277853,
                "official_name": "Szko\u0142a Bran\u017cowa I Stopnia Specjalna w Ku\u017ani Raciborskiej",
                "name": "Szko\u0142a Bran\u017cowa I Stopnia Specjalna w Ku\u017ani Raciborskiej",
                "addr:country": "PL",
                "addr:postcode": "47-420",
                "addr:city": "Ku\u017ania Raciborska",
                "addr:street": "Klasztorna",
                "addr:housenumber": "1",
                "addr:teryt:simc": 8485,
                "addr:teryt:sym_ul": 940884,
                "contact:phone": "+48 324191117",
                "contact:email": "sekretariat@mowkuzniaraciborska.pl",
                "contact:website": "http:\/\/www.mowkr.pl",
                "ref:regon": "389599455",
                "operator": "Wojew\u00f3dztwo \u015al\u0105skie",
                "operator:type": "government",
                "amenity": "school",
                "note": "Parent RSPO: 20556"
            }
        },
        {
            "id": 29644,
            "type": "Feature",
            "geometry": {
                "type": "Point",
                "coordinates": [
                    18.3053199,
                    50.20225
                ]
            },
            "properties": {
                "ref:rspo": 29644,
                "official_name": "Przedszkole Nr 1 w Ku\u017ani Raciborskiej Z Oddzia\u0142em Zamiejscowym w Turzu",
                "name": "Przedszkole Nr 1 w Ku\u017ani Raciborskiej Z Oddzia\u0142em Zamiejscowym w Turzu",
                "addr:country": "PL",
                "addr:postcode": "47-420",
                "addr:city": "Ku\u017ania Raciborska",
                "addr:street": "Juliusza S\u0142owackiego",
                "addr:housenumber": "18",
                "addr:teryt:simc": 20286,
                "addr:teryt:sym_ul": 940884,
                "contact:phone": "+48 324191262",
                "contact:email": "przedszkolenr1kr@gmail.com",
                "contact:website": "http:\/\/www.przedszkolenr1kuzniar.szkolnastrona.pl",
                "ref:regon": "271504710",
                "ref:vatin": "PL6391802444",
                "operator": "Gmina Ku\u017ania Raciborska",
                "operator:type": "government",
                "amenity": "kindergarten"
            }
        },
        {
            "id": 29642,
            "type": "Feature",
            "geometry": {
                "type": "Point",
                "coordinates": [
                    18.27574,
                    50.20435
                ]
            },
            "properties": {
                "isced:level": "1;2",
                "ref:rspo": 29642,
                "official_name": "Spo\u0142eczna Szko\u0142a Podstawowa w Budziskach",
                "name": "Spo\u0142eczna Szko\u0142a Podstawowa w Budziskach",
                "addr:country": "PL",
                "addr:postcode": "47-420",
                "addr:city": "Budziska",
                "addr:street": "Szkolna",
                "addr:housenumber": "14",
                "addr:teryt:simc": 21970,
                "addr:teryt:sym_ul": 215657,
                "contact:phone": "+48 324191150",
                "contact:email": "spbudziska@interia.pl",
                "contact:website": "http:\/\/sspbudziska.szkolnastrona.pl",
                "ref:regon": "243067088",
                "operator": "Stowarzyszenie Rozwoju Wsi Budziska",
                "operator:type": "ngo",
                "amenity": "school"
            }
        },
        {
            "id": 58555,
            "type": "Feature",
            "geometry": {
                "type": "Point",
                "coordinates": [
                    18.27574,
                    50.204319999999996
                ]
            },
            "properties": {
                "ref:rspo": 58555,
                "official_name": "Spo\u0142eczne Przedszkole w Budziskach",
                "name": "Spo\u0142eczne Przedszkole w Budziskach",
                "addr:country": "PL",
                "addr:postcode": "47-420",
                "addr:city": "Budziska",
                "addr:street": "Szkolna",
                "addr:housenumber": "14",
                "addr:teryt:simc": 21970,
                "addr:teryt:sym_ul": 215657,
                "contact:phone": "+48 324191150",
                "contact:email": "przedszkole.budziska@gmail.com",
                "contact:website": "http:\/\/przedszkole.budziska@gmail.com",
                "ref:regon": "243090868",
                "operator": "Stowarzyszenie Rozwoju Wsi Budziska",
                "operator:type": "ngo",
                "amenity": "kindergarten"
            }
        }
    ]
}