{"type":"FeatureCollection","features":[{"id":82514,"type":"Feature","geometry":{"type":"Point","coordinates":[18.12581,50.05879]},"properties":{"ref:rspo":82514,"official_name":"Zesp\u00f3\u0142 Szkolno-Przedszkolny w Samborowicach","name":"Zesp\u00f3\u0142 Szkolno-Przedszkolny w Samborowicach","addr:country":"PL","addr:postcode":"47-470","addr:city":"Samborowice","addr:street":"ul. Szkolna","addr:housenumber":"1","addr:teryt:simc":21970,"addr:teryt:sym_ul":218970,"contact:phone":"+48 324198109","contact:email":"zspsamborowice@op.pl","ref:regon":"277947650","ref:vatin":"PL6391814772","operator":"Gmina Pietrowice Wielkie","operator:type":"government","landuse":"education","fixme":"amenity=school, amenity=college albo landuse=education w zale\u017cno\u015bci od tego, jakie plac\u00f3wki wchodz\u0105 w sk\u0142ad zespo\u0142u. Sprawd\u017a, kiedy stosowa\u0107 amenity=* a kiedy landuse=education.","note":"Children RSPO: 87633;90658"}},{"id":87633,"type":"Feature","geometry":{"type":"Point","coordinates":[18.12581,50.05876]},"properties":{"isced:level":"1;2","ref:rspo":87633,"official_name":"Szko\u0142a Podstawowa w Samborowicach","name":"Szko\u0142a Podstawowa w Samborowicach","addr:country":"PL","addr:postcode":"47-470","addr:city":"Samborowice","addr:street":"ul. Szkolna","addr:housenumber":"1","addr:teryt:simc":21970,"addr:teryt:sym_ul":218970,"contact:phone":"+48 324198109","contact:email":"zspsamborowice@op.pl","contact:website":"http:\/\/www.zsp-samborowice.eu","ref:regon":"001191232","operator":"Gmina Pietrowice Wielkie","operator:type":"government","amenity":"school","note":"Parent RSPO: 82514"}},{"id":90658,"type":"Feature","geometry":{"type":"Point","coordinates":[18.12581,50.058730000000004]},"properties":{"ref:rspo":90658,"official_name":"Przedszkole w Samborowicach","name":"Przedszkole w Samborowicach","addr:country":"PL","addr:postcode":"47-470","addr:city":"Samborowice","addr:street":"ul. Szkolna","addr:housenumber":"1","addr:teryt:simc":21970,"addr:teryt:sym_ul":218970,"contact:phone":"+48 324198109","contact:email":"zspsamborowice@op.pl","ref:regon":"270559531","operator":"Gmina Pietrowice Wielkie","operator:type":"government","amenity":"kindergarten","note":"Parent RSPO: 82514"}},{"id":82511,"type":"Feature","geometry":{"type":"Point","coordinates":[18.11448,50.08518]},"properties":{"ref:rspo":82511,"official_name":"Przedszkole Pietrowice Wielkie","name":"Przedszkole Pietrowice Wielkie","addr:country":"PL","addr:postcode":"47-480","addr:city":"Pietrowice Wielkie","addr:street":"ul. Krawiecka","addr:housenumber":"11","addr:teryt:simc":9894,"addr:teryt:sym_ul":218963,"contact:phone":"+48 324198086","contact:email":"przedszkolepietrowice@op.pl","contact:website":"http:\/\/www.przedszkolepietrowice.przedszkolna.net\/","ref:regon":"270559525","operator":"Gmina Pietrowice Wielkie","operator:type":"government","amenity":"kindergarten"}},{"id":87604,"type":"Feature","geometry":{"type":"Point","coordinates":[18.0991706,50.0857931]},"properties":{"isced:level":"1;2","ref:rspo":87604,"official_name":"Szko\u0142a Podstawowa Im Marii Sk\u0142odowskiej-Curie w Pietrowicach Wielkich","name":"Szko\u0142a Podstawowa Im Marii Sk\u0142odowskiej-Curie w Pietrowicach Wielkich","addr:country":"PL","addr:postcode":"47-480","addr:city":"Pietrowice Wielkie","addr:street":"ul. Konopnickiej","addr:housenumber":"28","addr:teryt:simc":9182,"addr:teryt:sym_ul":218963,"contact:phone":"+48 324198013","contact:email":"zespolpietr@gmail.com","contact:website":"http:\/\/www.szkolapietrowice.pl","ref:regon":"000270596","ref:vatin":"PL6392013620","operator":"Gmina Pietrowice Wielkie","operator:type":"government","amenity":"school"}},{"id":82512,"type":"Feature","geometry":{"type":"Point","coordinates":[18.12609,50.10808]},"properties":{"ref:rspo":82512,"official_name":"Zesp\u00f3\u0142 Szkolno-Przedszkolny w Paw\u0142owie","name":"Zesp\u00f3\u0142 Szkolno-Przedszkolny w Paw\u0142owie","addr:country":"PL","addr:postcode":"47-480","addr:city":"Paw\u0142\u00f3w","addr:street":"ul. Pietrowicka","addr:housenumber":"16","addr:teryt:simc":16174,"addr:teryt:sym_ul":218957,"contact:phone":"+48 324198005","contact:email":"zsp_pawlow@op.pl","contact:website":"http:\/\/www.zsppawlow.pietrowicewielkie.pl","ref:regon":"278094037","ref:vatin":"PL6391825592","operator":"Gmina Pietrowice Wielkie","operator:type":"government","landuse":"education","fixme":"amenity=school, amenity=college albo landuse=education w zale\u017cno\u015bci od tego, jakie plac\u00f3wki wchodz\u0105 w sk\u0142ad zespo\u0142u. Sprawd\u017a, kiedy stosowa\u0107 amenity=* a kiedy landuse=education.","note":"Children RSPO: 87603;89914"}},{"id":87603,"type":"Feature","geometry":{"type":"Point","coordinates":[18.12609,50.10805]},"properties":{"isced:level":"1;2","ref:rspo":87603,"official_name":"Szko\u0142a Podstawowa w Paw\u0142owie","name":"Szko\u0142a Podstawowa w Paw\u0142owie","addr:country":"PL","addr:postcode":"47-480","addr:city":"Paw\u0142\u00f3w","addr:street":"ul. Pietrowicka","addr:housenumber":"16","addr:teryt:simc":16174,"addr:teryt:sym_ul":218957,"contact:phone":"+48 324198005","contact:email":"zsp_pawlow@op.pl","contact:website":"http:\/\/www.zsppawlow.szkolna.net","ref:regon":"001191210","operator":"Gmina Pietrowice Wielkie","operator:type":"government","amenity":"school","note":"Parent RSPO: 82512"}},{"id":89914,"type":"Feature","geometry":{"type":"Point","coordinates":[18.12609,50.10802]},"properties":{"ref:rspo":89914,"official_name":"Przedszkole w Paw\u0142owie","name":"Przedszkole w Paw\u0142owie","addr:country":"PL","addr:postcode":"47-480","addr:city":"Paw\u0142\u00f3w","addr:street":"ul. Pietrowicka","addr:housenumber":"16","addr:teryt:simc":16174,"addr:teryt:sym_ul":218957,"contact:phone":"+48 324198005","contact:email":"zsp_pawlow@op.pl","ref:regon":"270559519","operator":"Gmina Pietrowice Wielkie","operator:type":"government","amenity":"kindergarten","note":"Parent RSPO: 82512"}},{"id":82513,"type":"Feature","geometry":{"type":"Point","coordinates":[18.07795,50.13697]},"properties":{"ref:rspo":82513,"official_name":"Zesp\u00f3\u0142 Szkolno-Przedszkolny w Krowiarkach","name":"Zesp\u00f3\u0142 Szkolno-Przedszkolny w Krowiarkach","addr:country":"PL","addr:postcode":"47-480","addr:city":"Krowiarki","addr:street":"ul. Szkolna","addr:housenumber":"19","addr:teryt:simc":21970,"addr:teryt:sym_ul":218905,"contact:phone":"+48 324198377","contact:email":"spkrowiarki1@wp.pl","contact:website":"http:\/\/www.szkolakrowiarki.pl","ref:regon":"278105769","ref:vatin":"PL6391826048","operator":"Gmina Pietrowice Wielkie","operator:type":"government","landuse":"education","fixme":"amenity=school, amenity=college albo landuse=education w zale\u017cno\u015bci od tego, jakie plac\u00f3wki wchodz\u0105 w sk\u0142ad zespo\u0142u. Sprawd\u017a, kiedy stosowa\u0107 amenity=* a kiedy landuse=education.","note":"Children RSPO: 86418;89792"}},{"id":86418,"type":"Feature","geometry":{"type":"Point","coordinates":[18.07795,50.136939999999996]},"properties":{"isced:level":"1;2","ref:rspo":86418,"official_name":"Szko\u0142a Podstawowa w Krowiarkach","name":"Szko\u0142a Podstawowa w Krowiarkach","addr:country":"PL","addr:postcode":"47-480","addr:city":"Krowiarki","addr:street":"ul. Szkolna","addr:housenumber":"19","addr:teryt:simc":21970,"addr:teryt:sym_ul":218905,"contact:phone":"+48 324198377","contact:email":"spkrowiarki1@wp.pl","ref:regon":"001191226","operator":"Gmina Pietrowice Wielkie","operator:type":"government","amenity":"school","note":"Parent RSPO: 82513"}},{"id":89792,"type":"Feature","geometry":{"type":"Point","coordinates":[18.07795,50.13691]},"properties":{"ref:rspo":89792,"official_name":"Przedszkole w Krowiarkach","name":"Przedszkole w Krowiarkach","addr:country":"PL","addr:postcode":"47-480","addr:city":"Krowiarki","addr:street":"ul. Szkolna","addr:housenumber":"19","addr:teryt:simc":21970,"addr:teryt:sym_ul":218905,"contact:phone":"+48 324198377","contact:email":"spkrowiarki1@wp.pl","ref:regon":"270559471","operator":"Gmina Pietrowice Wielkie","operator:type":"government","amenity":"kindergarten","note":"Parent RSPO: 82513"}}]}