{
    "type": "FeatureCollection",
    "features": [
        {
            "id": 23099,
            "type": "Feature",
            "geometry": {
                "type": "Point",
                "coordinates": [
                    17.77166,
                    53.75292
                ]
            },
            "properties": {
                "ref:rspo": 23099,
                "official_name": "Zesp\u00f3\u0142 Szk\u00f3\u0142 Przedszkole Samorz\u0105dowe w Rytlu",
                "name": "Zesp\u00f3\u0142 Szk\u00f3\u0142 Przedszkole Samorz\u0105dowe w Rytlu",
                "addr:postcode": "89-642",
                "addr:city": "Rytel",
                "addr:street": "Ksi\u0119dza Antoniego Kowalkowskiego",
                "addr:housenumber": "11",
                "addr:city:simc": 83233,
                "addr:street:sym_ul": 27171,
                "phone": "+48 523985124",
                "email": "zsrytel@o2.pl",
                "website": "http:\/\/zsrytel.edupage.org",
                "ref:regon": "771490435",
                "ref:vatin": "PL5551868240",
                "operator": "Gmina Czersk",
                "operator:type": "government",
                "amenity": "kindergarten",
                "note": "Parent RSPO: 12809"
            }
        },
        {
            "id": 12809,
            "type": "Feature",
            "geometry": {
                "type": "Point",
                "coordinates": [
                    17.77363,
                    53.75382
                ]
            },
            "properties": {
                "ref:rspo": 12809,
                "official_name": "Zesp\u00f3\u0142 Szk\u00f3\u0142 w Rytlu",
                "name": "Zesp\u00f3\u0142 Szk\u00f3\u0142 w Rytlu",
                "addr:postcode": "89-642",
                "addr:city": "Rytel",
                "addr:street": "Ksi\u0119dza Antoniego Kowalkowskiego",
                "addr:housenumber": "6",
                "addr:city:simc": 83233,
                "addr:street:sym_ul": 27171,
                "phone": "+48 523985198",
                "email": "zsrytel@o2.pl",
                "website": "http:\/\/zsrytel.edupage.org",
                "ref:regon": "771554879",
                "ref:vatin": "PL5551892304",
                "operator": "Gmina Czersk",
                "operator:type": "government",
                "landuse": "education",
                "fixme": "amenity=school, amenity=college albo landuse=education w zale\u017cno\u015bci od tego, jakie plac\u00f3wki wchodz\u0105 w sk\u0142ad zespo\u0142u. Sprawd\u017a, kiedy stosowa\u0107 amenity=* a kiedy landuse=education.",
                "note": "Children RSPO: 23099;30614;131841"
            }
        },
        {
            "id": 30614,
            "type": "Feature",
            "geometry": {
                "type": "Point",
                "coordinates": [
                    17.77363,
                    53.753789999999995
                ]
            },
            "properties": {
                "isced:level": "1;2",
                "ref:rspo": 30614,
                "official_name": "Zesp\u00f3\u0142 Szk\u00f3\u0142 Szko\u0142a Podstawowa w Rytlu",
                "name": "Zesp\u00f3\u0142 Szk\u00f3\u0142 Szko\u0142a Podstawowa w Rytlu",
                "addr:postcode": "89-642",
                "addr:city": "Rytel",
                "addr:street": "Ksi\u0119dza Antoniego Kowalkowskiego",
                "addr:housenumber": "6",
                "addr:city:simc": 83233,
                "addr:street:sym_ul": 27171,
                "phone": "+48 523985198",
                "email": "zsrytel@o2.pl",
                "website": "http:\/\/zsrytel.edupage.org",
                "ref:regon": "001144304",
                "ref:vatin": "PL5551868228",
                "operator": "Gmina Czersk",
                "operator:type": "government",
                "amenity": "school",
                "note": "Children RSPO: 104591Parent RSPO: 12809"
            }
        },
        {
            "id": 131841,
            "type": "Feature",
            "geometry": {
                "type": "Point",
                "coordinates": [
                    17.86124,
                    53.77183
                ]
            },
            "properties": {
                "ref:rspo": 131841,
                "official_name": "Punkt Przedszkolny w Gutowcu Przy Zespole Szk\u00f3\u0142 w Rytlu",
                "name": "Punkt Przedszkolny w Gutowcu Przy Zespole Szk\u00f3\u0142 w Rytlu",
                "addr:postcode": "89-642",
                "addr:city": "Gutowiec",
                "addr:street": "Czerska",
                "addr:housenumber": "3a",
                "addr:city:simc": 82720,
                "addr:street:sym_ul": 3403,
                "phone": "+48 523341552",
                "email": "zsrytel@o2.pl",
                "website": "http:\/\/zsrytel.edupage.org",
                "ref:regon": "365368562",
                "operator": "Gmina Czersk",
                "operator:type": "government",
                "amenity": "kindergarten",
                "note": "Parent RSPO: 12809"
            }
        },
        {
            "id": 126937,
            "type": "Feature",
            "geometry": {
                "type": "Point",
                "coordinates": [
                    17.9723,
                    53.78929
                ]
            },
            "properties": {
                "ref:rspo": 126937,
                "official_name": "Niepubliczne Przedszkole \"Anio\u0142a Str\u00f3\u017ca\"",
                "name": "Niepubliczne Przedszkole \"Anio\u0142a Str\u00f3\u017ca\"",
                "addr:postcode": "89-650",
                "addr:city": "Czersk",
                "addr:street": "Aleja 1000-lecia",
                "addr:housenumber": "15a",
                "addr:city:simc": 928920,
                "addr:street:sym_ul": 4,
                "phone": "+48 533206396",
                "email": "dyrektor@aniolowoczersk.pl",
                "website": "http:\/\/www.aniolowoczersk.pl",
                "ref:regon": "360976096",
                "operator": "Niepubliczne Przedszkole Anio\u0142a Str\u00f3\u017ca Sp\u00f3\u0142ka Z Ograniczon\u0105 Odpowiedzialno\u015bci\u0105",
                "operator:type": "private",
                "amenity": "kindergarten"
            }
        },
        {
            "id": 107409,
            "type": "Feature",
            "geometry": {
                "type": "Point",
                "coordinates": [
                    17.97781,
                    53.79437
                ]
            },
            "properties": {
                "isced:level": "3",
                "ref:rspo": 107409,
                "official_name": "Liceum Og\u00f3lnokszta\u0142c\u0105ce im. Wincentego Pola w Czersku",
                "name": "Liceum Og\u00f3lnokszta\u0142c\u0105ce",
                "addr:postcode": "89-650",
                "addr:city": "Czersk",
                "addr:street": "Szkolna",
                "addr:housenumber": "3",
                "addr:city:simc": 928920,
                "addr:street:sym_ul": 21970,
                "phone": "+48 523984221",
                "email": "loczersk1@wp.pl",
                "website": "http:\/\/www.loczersk.pl",
                "ref:regon": "000230958",
                "ref:vatin": "PL5552107046",
                "operator": "Powiat Chojnicki",
                "operator:type": "government",
                "amenity": "school"
            }
        },
        {
            "id": 262359,
            "type": "Feature",
            "geometry": {
                "type": "Point",
                "coordinates": [
                    17.97781,
                    53.79434
                ]
            },
            "properties": {
                "isced:level": "1;2",
                "ref:rspo": 262359,
                "official_name": "Akademia Sukcesu \"Nasza Szko\u0142a\" Spo\u0142eczna Szko\u0142a Podstawowa",
                "name": "Akademia Sukcesu \"Nasza Szko\u0142a\" Spo\u0142eczna Szko\u0142a Podstawowa",
                "addr:postcode": "89-650",
                "addr:city": "Czersk",
                "addr:street": "Szkolna",
                "addr:housenumber": "3",
                "addr:city:simc": 928920,
                "addr:street:sym_ul": 21970,
                "email": "hieronim.kucharski@gmail.com",
                "website": "http:\/\/asczersk.pl",
                "ref:regon": "367990248",
                "operator": "Spo\u0142eczne Towarzystwo Edukacyjne",
                "operator:type": "ngo",
                "amenity": "school"
            }
        },
        {
            "id": 104591,
            "type": "Feature",
            "geometry": {
                "type": "Point",
                "coordinates": [
                    17.871978,
                    53.795187
                ]
            },
            "properties": {
                "isced:level": "1;2",
                "ref:rspo": 104591,
                "official_name": "Szko\u0142a Podstawowa w Rytlu Filia w Krzy\u017cu",
                "name": "Szko\u0142a Podstawowa w Rytlu Filia w Krzy\u017cu",
                "addr:postcode": "89-642",
                "addr:place": "Krzy\u017c",
                "addr:housenumber": "12",
                "addr:city:simc": 82682,
                "phone": "+48 523986228",
                "email": "zsrytel@o2.pl",
                "website": "http:\/\/zsrytel.edupage.org",
                "ref:regon": "114430400",
                "operator": "Gmina Czersk",
                "operator:type": "government",
                "amenity": "school",
                "note": "Parent RSPO: 30614"
            }
        },
        {
            "id": 9263,
            "type": "Feature",
            "geometry": {
                "type": "Point",
                "coordinates": [
                    17.9699,
                    53.79541
                ]
            },
            "properties": {
                "isced:level": "3",
                "ref:rspo": 9263,
                "official_name": "Prestige Liceum Og\u00f3lnokszta\u0142c\u0105ce w Czersku",
                "name": "Prestige Liceum Og\u00f3lnokszta\u0142c\u0105ce w Czersku",
                "addr:postcode": "89-650",
                "addr:city": "Czersk",
                "addr:street": "Tadeusza Ko\u015bciuszki",
                "addr:housenumber": "6",
                "addr:city:simc": 928920,
                "addr:street:sym_ul": 9572,
                "phone": "+48 788717092",
                "email": "kontakt@zsprestige.pl",
                "ref:regon": "221734975",
                "ref:vatin": "PL5562751599",
                "operator": "Tw\u00f3j Prestige Sp\u00f3\u0142ka Z Ograniczon\u0105 Odpowiedzialno\u015bci\u0105",
                "operator:type": "private",
                "amenity": "school"
            }
        },
        {
            "id": 20983,
            "type": "Feature",
            "geometry": {
                "type": "Point",
                "coordinates": [
                    17.9699,
                    53.795379999999994
                ]
            },
            "properties": {
                "isced:level": "1;2",
                "ref:rspo": 20983,
                "official_name": "Szko\u0142a Podstawowa Nr 2 im. Jana Paw\u0142a II w Czersku",
                "name": "Szko\u0142a Podstawowa Nr 2",
                "addr:postcode": "89-650",
                "addr:city": "Czersk",
                "addr:street": "Tadeusza Ko\u015bciuszki",
                "addr:housenumber": "6",
                "addr:city:simc": 928920,
                "addr:street:sym_ul": 9572,
                "phone": "+48 523984233",
                "email": "czersksp@poczta.onet.pl",
                "ref:regon": "771601567",
                "operator": "Gmina Czersk",
                "operator:type": "government",
                "amenity": "school"
            }
        },
        {
            "id": 120466,
            "type": "Feature",
            "geometry": {
                "type": "Point",
                "coordinates": [
                    17.9699,
                    53.79535
                ]
            },
            "properties": {
                "isced:level": "4",
                "ref:rspo": 120466,
                "official_name": "Prestige Szko\u0142a Policealna w Czersku",
                "name": "Prestige Szko\u0142a Policealna w Czersku",
                "addr:postcode": "89-650",
                "addr:city": "Czersk",
                "addr:street": "Tadeusza Ko\u015bciuszki",
                "addr:housenumber": "6",
                "addr:city:simc": 928920,
                "addr:street:sym_ul": 9572,
                "phone": "+48 788717092",
                "email": "kontakt@zsprestige.pl",
                "ref:regon": "221967691",
                "ref:vatin": "PL5562751599",
                "operator": "Tw\u00f3j Prestige Sp\u00f3\u0142ka Z Ograniczon\u0105 Odpowiedzialno\u015bci\u0105",
                "operator:type": "private",
                "amenity": "college"
            }
        },
        {
            "id": 14956,
            "type": "Feature",
            "geometry": {
                "type": "Point",
                "coordinates": [
                    17.96731,
                    53.79551
                ]
            },
            "properties": {
                "ref:rspo": 14956,
                "official_name": "Przedszkole Samorz\u0105dowe Nr 2 im. Jana Brzechwy w Czersku",
                "name": "Przedszkole Samorz\u0105dowe Nr 2",
                "addr:postcode": "89-650",
                "addr:city": "Czersk",
                "addr:street": "Chojnicka",
                "addr:housenumber": "5",
                "addr:city:simc": 928920,
                "addr:street:sym_ul": 2826,
                "phone": "+48 523984420",
                "email": "przedszkole2czersk1@wp.pl",
                "ref:regon": "771484245",
                "ref:vatin": "PL5551866459",
                "operator": "Gmina Czersk",
                "operator:type": "government",
                "amenity": "kindergarten"
            }
        },
        {
            "id": 14921,
            "type": "Feature",
            "geometry": {
                "type": "Point",
                "coordinates": [
                    17.97265,
                    53.7973
                ]
            },
            "properties": {
                "isced:level": "1;2",
                "ref:rspo": 14921,
                "official_name": "Szko\u0142a Podstawowa Nr 1 im. Janusza Korczaka w Czersku",
                "name": "Szko\u0142a Podstawowa Nr 1",
                "addr:postcode": "89-650",
                "addr:city": "Czersk",
                "addr:street": "Dworcowa",
                "addr:housenumber": "8",
                "addr:city:simc": 928920,
                "addr:street:sym_ul": 4434,
                "phone": "+48 523989117",
                "email": "biuro@sp1.czersk.pl",
                "ref:regon": "000263811",
                "ref:vatin": "PL5551866703",
                "operator": "Gmina Czersk",
                "operator:type": "government",
                "amenity": "school",
                "note": "Children RSPO: 71660"
            }
        },
        {
            "id": 14922,
            "type": "Feature",
            "geometry": {
                "type": "Point",
                "coordinates": [
                    17.96955,
                    53.7984
                ]
            },
            "properties": {
                "ref:rspo": 14922,
                "official_name": "Przedszkole Samorz\u0105dowe Nr 1 im. Kubusia Puchatka w Czersku",
                "name": "Przedszkole Samorz\u0105dowe Nr 1",
                "addr:postcode": "89-650",
                "addr:city": "Czersk",
                "addr:street": "D\u0105browskiego",
                "addr:housenumber": "4",
                "addr:city:simc": 928920,
                "addr:street:sym_ul": 3667,
                "phone": "+48 523984272",
                "email": "przedszkole.czersk@wp.pl",
                "website": "http:\/\/www.kubuspuchatekczersk.pl",
                "ref:regon": "000263231",
                "ref:vatin": "PL5551868725",
                "operator": "Gmina Czersk",
                "operator:type": "government",
                "amenity": "kindergarten"
            }
        },
        {
            "id": 25799,
            "type": "Feature",
            "geometry": {
                "type": "Point",
                "coordinates": [
                    17.9687899,
                    53.79873
                ]
            },
            "properties": {
                "ref:rspo": 25799,
                "official_name": "Zesp\u00f3\u0142 Szk\u00f3\u0142 Specjalnych w Czersku",
                "name": "Zesp\u00f3\u0142 Szk\u00f3\u0142 Specjalnych w Czersku",
                "addr:postcode": "89-650",
                "addr:city": "Czersk",
                "addr:street": "Batorego",
                "addr:housenumber": "15",
                "addr:city:simc": 928920,
                "addr:street:sym_ul": 886,
                "phone": "+48 523984805",
                "email": "zssczersk@wp.pl",
                "website": "http:\/\/www.zssczersk.pl",
                "ref:regon": "771296928",
                "ref:vatin": "PL5551838701",
                "operator": "Powiat Chojnicki",
                "operator:type": "government",
                "landuse": "education",
                "fixme": "amenity=school, amenity=college albo landuse=education w zale\u017cno\u015bci od tego, jakie plac\u00f3wki wchodz\u0105 w sk\u0142ad zespo\u0142u. Sprawd\u017a, kiedy stosowa\u0107 amenity=* a kiedy landuse=education.",
                "note": "Children RSPO: 86288;86489"
            }
        },
        {
            "id": 86288,
            "type": "Feature",
            "geometry": {
                "type": "Point",
                "coordinates": [
                    17.9687899,
                    53.7987
                ]
            },
            "properties": {
                "ref:rspo": 86288,
                "official_name": "Szko\u0142a Specjalna Przysposabiaj\u0105ca Do Pracy w Czersku",
                "name": "Szko\u0142a Specjalna Przysposabiaj\u0105ca Do Pracy w Czersku",
                "addr:postcode": "89-650",
                "addr:city": "Czersk",
                "addr:street": "Batorego",
                "addr:housenumber": "15",
                "addr:city:simc": 928920,
                "addr:street:sym_ul": 886,
                "phone": "+48 523984805",
                "email": "sekretariat@wp.pl",
                "ref:regon": "221496530",
                "ref:vatin": "PL5551838701",
                "operator": "Powiat Chojnicki",
                "operator:type": "government",
                "amenity": "school",
                "note": "Parent RSPO: 25799"
            }
        },
        {
            "id": 86489,
            "type": "Feature",
            "geometry": {
                "type": "Point",
                "coordinates": [
                    17.9687899,
                    53.79867
                ]
            },
            "properties": {
                "isced:level": "1;2",
                "ref:rspo": 86489,
                "official_name": "Szko\u0142a Podstawowa Specjalna Nr 3 w Czersku",
                "name": "Szko\u0142a Podstawowa Specjalna Nr 3 w Czersku",
                "addr:postcode": "89-650",
                "addr:city": "Czersk",
                "addr:street": "Batorego",
                "addr:housenumber": "15",
                "addr:city:simc": 928920,
                "addr:street:sym_ul": 886,
                "phone": "+48 523984805",
                "email": "zssczersk@wp.pl",
                "website": "http:\/\/www.zssczersk.pl",
                "ref:regon": "771602288",
                "ref:vatin": "PL5551838701",
                "operator": "Powiat Chojnicki",
                "operator:type": "government",
                "amenity": "school",
                "note": "Parent RSPO: 25799"
            }
        },
        {
            "id": 25779,
            "type": "Feature",
            "geometry": {
                "type": "Point",
                "coordinates": [
                    17.95559,
                    53.81478
                ]
            },
            "properties": {
                "ref:rspo": 25779,
                "official_name": "Zesp\u00f3\u0142 Szk\u00f3\u0142 w Malachinie",
                "name": "Zesp\u00f3\u0142 Szk\u00f3\u0142 w Malachinie",
                "addr:postcode": "89-650",
                "addr:city": "Malachin",
                "addr:street": "G\u0142\u00f3wna",
                "addr:housenumber": "11",
                "addr:city:simc": 83121,
                "addr:street:sym_ul": 5635,
                "phone": "+48 523986088",
                "email": "zsp_malachin@o2.pl",
                "website": "http:\/\/malachin.edu.pl",
                "ref:regon": "771317731",
                "ref:vatin": "PL5551849863",
                "operator": "Powiat Chojnicki",
                "operator:type": "government",
                "landuse": "education",
                "fixme": "amenity=school, amenity=college albo landuse=education w zale\u017cno\u015bci od tego, jakie plac\u00f3wki wchodz\u0105 w sk\u0142ad zespo\u0142u. Sprawd\u017a, kiedy stosowa\u0107 amenity=* a kiedy landuse=education.",
                "note": "Children RSPO: 77922;86428;86487"
            }
        },
        {
            "id": 70928,
            "type": "Feature",
            "geometry": {
                "type": "Point",
                "coordinates": [
                    17.95559,
                    53.81475
                ]
            },
            "properties": {
                "isced:level": "4",
                "ref:rspo": 70928,
                "official_name": "Czerska Szko\u0142a Realna - Policealne Studium Zawodowe w Malachinie",
                "name": "Czerska Szko\u0142a Realna - Policealne Studium Zawodowe w Malachinie",
                "addr:postcode": "89-650",
                "addr:city": "Malachin",
                "addr:street": "G\u0142\u00f3wna",
                "addr:housenumber": "11",
                "addr:city:simc": 83121,
                "addr:street:sym_ul": 5635,
                "phone": "+48 523986088",
                "email": "csrmalachin@gmail.com",
                "ref:regon": "221776790",
                "ref:vatin": "PL5541116751",
                "operator": "Spo\u0142eczne Towarzystwo Edukacyjne",
                "operator:type": "ngo",
                "amenity": "college"
            }
        },
        {
            "id": 86279,
            "type": "Feature",
            "geometry": {
                "type": "Point",
                "coordinates": [
                    17.95559,
                    53.81472
                ]
            },
            "properties": {
                "isced:level": "3",
                "ref:rspo": 86279,
                "official_name": "Czerska Szko\u0142a Realna - Liceum Og\u00f3lnokszta\u0142c\u0105ce dla Doros\u0142ych w Malachinie",
                "name": "Czerska Szko\u0142a Realna - Liceum Og\u00f3lnokszta\u0142c\u0105ce dla Doros\u0142ych w Malachinie",
                "addr:postcode": "89-650",
                "addr:city": "Malachin",
                "addr:street": "G\u0142\u00f3wna",
                "addr:housenumber": "11",
                "addr:city:simc": 83121,
                "addr:street:sym_ul": 5635,
                "phone": "+48 523986088",
                "email": "csrmalachin@gmail.com",
                "ref:regon": "221784230",
                "ref:vatin": "PL5541116751",
                "operator": "Spo\u0142eczne Towarzystwo Edukacyjne",
                "operator:type": "ngo",
                "amenity": "school"
            }
        },
        {
            "id": 71660,
            "type": "Feature",
            "geometry": {
                "type": "Point",
                "coordinates": [
                    17.95559,
                    53.81469
                ]
            },
            "properties": {
                "isced:level": "1;2",
                "ref:rspo": 71660,
                "official_name": "Szko\u0142a Podstawowa Nr 1 im. Janusza Korczaka w Czersku Filia Malachin",
                "name": "Szko\u0142a Podstawowa Nr 1",
                "addr:postcode": "89-650",
                "addr:city": "Malachin",
                "addr:street": "G\u0142\u00f3wna",
                "addr:housenumber": "11",
                "addr:city:simc": 83121,
                "addr:street:sym_ul": 5635,
                "phone": "+48 523989117",
                "email": "biuro@sp1.czersk.pl",
                "ref:regon": "263811000",
                "operator": "Gmina Czersk",
                "operator:type": "government",
                "amenity": "school",
                "note": "Parent RSPO: 14921"
            }
        },
        {
            "id": 77922,
            "type": "Feature",
            "geometry": {
                "type": "Point",
                "coordinates": [
                    17.95559,
                    53.814659999999996
                ]
            },
            "properties": {
                "isced:level": "3",
                "ref:rspo": 77922,
                "official_name": "Bran\u017cowa Szko\u0142a I Stopnia im. Augustyna Szpr\u0119gi",
                "name": "Bran\u017cowa Szko\u0142a I Stopnia",
                "addr:postcode": "89-650",
                "addr:city": "Malachin",
                "addr:street": "G\u0142\u00f3wna",
                "addr:housenumber": "11",
                "addr:city:simc": 83121,
                "addr:street:sym_ul": 5635,
                "phone": "+48 523986088",
                "email": "zsp_malachin@o2.pl",
                "website": "http:\/\/www.malachin.edu.pl",
                "ref:regon": "771602466",
                "ref:vatin": "PL5551849863",
                "operator": "Powiat Chojnicki",
                "operator:type": "government",
                "amenity": "school",
                "note": "Parent RSPO: 25779"
            }
        },
        {
            "id": 86428,
            "type": "Feature",
            "geometry": {
                "type": "Point",
                "coordinates": [
                    17.95559,
                    53.81463
                ]
            },
            "properties": {
                "isced:level": "3",
                "ref:rspo": 86428,
                "official_name": "Bran\u017cowa Szko\u0142a I Stopnia Specjalna",
                "name": "Bran\u017cowa Szko\u0142a I Stopnia Specjalna",
                "addr:postcode": "89-650",
                "addr:city": "Malachin",
                "addr:street": "G\u0142\u00f3wna",
                "addr:housenumber": "11",
                "addr:city:simc": 83121,
                "addr:street:sym_ul": 5635,
                "phone": "+48 523986088",
                "email": "zsp_malachin@o2.pl",
                "website": "http:\/\/www.malachin.edu.pl",
                "ref:regon": "771602472",
                "ref:vatin": "PL5551849863",
                "operator": "Powiat Chojnicki",
                "operator:type": "government",
                "amenity": "school",
                "note": "Parent RSPO: 25779"
            }
        },
        {
            "id": 86487,
            "type": "Feature",
            "geometry": {
                "type": "Point",
                "coordinates": [
                    17.95559,
                    53.8146
                ]
            },
            "properties": {
                "isced:level": "3",
                "ref:rspo": 86487,
                "official_name": "Technikum im. Augustyna Szpr\u0119gi w Malachinie",
                "name": "Technikum",
                "addr:postcode": "89-650",
                "addr:city": "Malachin",
                "addr:street": "G\u0142\u00f3wna",
                "addr:housenumber": "11",
                "addr:city:simc": 83121,
                "addr:street:sym_ul": 5635,
                "phone": "+48 523986088",
                "email": "zsp_malachin@o2.pl",
                "website": "http:\/\/www.malachin.edu.pl",
                "ref:regon": "220298880",
                "ref:vatin": "PL5551849863",
                "operator": "Powiat Chojnicki",
                "operator:type": "government",
                "amenity": "school",
                "note": "Parent RSPO: 25779"
            }
        },
        {
            "id": 12808,
            "type": "Feature",
            "geometry": {
                "type": "Point",
                "coordinates": [
                    18.05872,
                    53.82618
                ]
            },
            "properties": {
                "ref:rspo": 12808,
                "official_name": "Zesp\u00f3\u0142 Szk\u00f3\u0142 w \u0141\u0119gu",
                "name": "Zesp\u00f3\u0142 Szk\u00f3\u0142 w \u0141\u0119gu",
                "addr:postcode": "89-652",
                "addr:city": "\u0141\u0105g",
                "addr:street": "Chojnicka",
                "addr:housenumber": "2a",
                "addr:city:simc": 83032,
                "addr:street:sym_ul": 2826,
                "phone": "+48 523986878",
                "email": "zslag@vp.pl",
                "ref:regon": "771554738",
                "ref:vatin": "PL5551891598",
                "operator": "Gmina Czersk",
                "operator:type": "government",
                "landuse": "education",
                "fixme": "amenity=school, amenity=college albo landuse=education w zale\u017cno\u015bci od tego, jakie plac\u00f3wki wchodz\u0105 w sk\u0142ad zespo\u0142u. Sprawd\u017a, kiedy stosowa\u0107 amenity=* a kiedy landuse=education.",
                "note": "Children RSPO: 20985;20987"
            }
        },
        {
            "id": 20985,
            "type": "Feature",
            "geometry": {
                "type": "Point",
                "coordinates": [
                    18.05872,
                    53.82615
                ]
            },
            "properties": {
                "isced:level": "1;2",
                "ref:rspo": 20985,
                "official_name": "Zesp\u00f3\u0142 Szk\u00f3\u0142 Szko\u0142a Podstawowa im. Tadeusza Ko\u015bciuszki w \u0141\u0119gu",
                "name": "Zesp\u00f3\u0142 Szk\u00f3\u0142 Szko\u0142a Podstawowa",
                "addr:postcode": "89-652",
                "addr:city": "\u0141\u0105g",
                "addr:street": "Chojnicka",
                "addr:housenumber": "2a",
                "addr:city:simc": 83032,
                "addr:street:sym_ul": 2826,
                "phone": "+48 523986878",
                "email": "splag@vp.pl",
                "ref:regon": "001144327",
                "ref:vatin": "PL5551868257",
                "operator": "Gmina Czersk",
                "operator:type": "government",
                "amenity": "school",
                "note": "Parent RSPO: 12808"
            }
        },
        {
            "id": 272403,
            "type": "Feature",
            "geometry": {
                "type": "Point",
                "coordinates": [
                    18.06062,
                    53.82777
                ]
            },
            "properties": {
                "isced:level": "3",
                "ref:rspo": 272403,
                "official_name": "Zaoczne Liceum Og\u00f3lnokszta\u0142c\u0105ce w \u0141\u0119gu",
                "name": "Zaoczne Liceum Og\u00f3lnokszta\u0142c\u0105ce w \u0141\u0119gu",
                "addr:postcode": "89-652",
                "addr:city": "\u0141\u0105g",
                "addr:street": "Chojnicka",
                "addr:housenumber": "3",
                "addr:city:simc": 83032,
                "addr:street:sym_ul": 2826,
                "email": "marcin_matusiak111@wp.pl",
                "ref:regon": "384163687",
                "operator": "Marcin Matusiak",
                "operator:type": "private",
                "amenity": "school"
            }
        },
        {
            "id": 20987,
            "type": "Feature",
            "geometry": {
                "type": "Point",
                "coordinates": [
                    18.06626,
                    53.82902
                ]
            },
            "properties": {
                "ref:rspo": 20987,
                "official_name": "Zesp\u00f3\u0142 Szk\u00f3\u0142 Przedszkole Samorz\u0105dowe w \u0141\u0119gu",
                "name": "Zesp\u00f3\u0142 Szk\u00f3\u0142 Przedszkole Samorz\u0105dowe w \u0141\u0119gu",
                "addr:postcode": "89-652",
                "addr:city": "\u0141\u0105g",
                "addr:street": "Ko\u015bcielna",
                "addr:housenumber": "15",
                "addr:city:simc": 83032,
                "addr:street:sym_ul": 9546,
                "phone": "+48 523986878",
                "email": "plag@vp.pl",
                "ref:regon": "771490748",
                "ref:vatin": "PL5551868234",
                "operator": "Gmina Czersk",
                "operator:type": "government",
                "amenity": "kindergarten",
                "note": "Parent RSPO: 12808"
            }
        },
        {
            "id": 14920,
            "type": "Feature",
            "geometry": {
                "type": "Point",
                "coordinates": [
                    18.020036,
                    53.851585
                ]
            },
            "properties": {
                "isced:level": "1;2",
                "ref:rspo": 14920,
                "official_name": "Szko\u0142a Podstawowa w Gotelpiu",
                "name": "Szko\u0142a Podstawowa w Gotelpiu",
                "addr:postcode": "89-651",
                "addr:place": "Gotelp",
                "addr:housenumber": "12",
                "addr:city:simc": 82541,
                "phone": "+48 523986123",
                "email": "spgotelp@op.pl",
                "website": "http:\/\/spgotelp.szkolna.net",
                "ref:regon": "001144333",
                "ref:vatin": "PL5551866583",
                "operator": "Gmina Czersk",
                "operator:type": "government",
                "amenity": "school"
            }
        },
        {
            "id": 14923,
            "type": "Feature",
            "geometry": {
                "type": "Point",
                "coordinates": [
                    18.0284961,
                    53.896186
                ]
            },
            "properties": {
                "isced:level": "1;2",
                "ref:rspo": 14923,
                "official_name": "Stowarzyszenie Na Rzecz Szko\u0142y w Odrach",
                "name": "Stowarzyszenie Na Rzecz Szko\u0142y w Odrach",
                "addr:postcode": "89-651",
                "addr:place": "Odry",
                "addr:housenumber": "1",
                "addr:city:simc": 83180,
                "phone": "+48 523986195",
                "email": "szkolaodry@vp.pl",
                "website": "http:\/\/www.spodry.pl",
                "ref:regon": "221742437",
                "ref:vatin": "PL5551871934",
                "operator": "Dane Do Uzupe\u0142nienia",
                "operator:type": "private",
                "amenity": "school"
            }
        }
    ]
}