{
    "type": "FeatureCollection",
    "features": [
        {
            "id": 10797,
            "type": "Feature",
            "geometry": {
                "type": "Point",
                "coordinates": [
                    17.55645,
                    53.60175
                ]
            },
            "properties": {
                "isced:level": "1;2",
                "ref:rspo": 10797,
                "official_name": "Szko\u0142a Podstawowa im. Polskich Kawaler\u00f3w Malta\u0144skich w Ogorzelinach",
                "name": "Szko\u0142a Podstawowa",
                "addr:country": "PL",
                "addr:postcode": "89-620",
                "addr:city": "Ogorzeliny",
                "addr:street": "ul. Obkaska",
                "addr:housenumber": "3",
                "addr:teryt:simc": 14578,
                "addr:teryt:sym_ul": 81990,
                "contact:phone": "+48 523987907",
                "contact:email": "spogorzeliny@szkolna.net",
                "contact:website": "http:\/\/www.spogorzeliny.szkolna.net",
                "ref:regon": "001199239",
                "ref:vatin": "PL5551938785",
                "operator": "Gmina Chojnice",
                "operator:type": "government",
                "amenity": "school"
            }
        },
        {
            "id": 10798,
            "type": "Feature",
            "geometry": {
                "type": "Point",
                "coordinates": [
                    17.6683,
                    53.63319
                ]
            },
            "properties": {
                "isced:level": "1;2",
                "ref:rspo": 10798,
                "official_name": "Szko\u0142a Podstawowa im. Marii Konopnickiej w Ostrowitem",
                "name": "Szko\u0142a Podstawowa",
                "addr:country": "PL",
                "addr:postcode": "89-620",
                "addr:city": "Ostrowite",
                "addr:street": "ul. Szkolna",
                "addr:housenumber": "3",
                "addr:teryt:simc": 21970,
                "addr:teryt:sym_ul": 82067,
                "contact:phone": "+48 523987424",
                "contact:email": "szkolaostrowite@o2.pl",
                "contact:website": "http:\/\/www.sp-ostrowite.pl",
                "ref:regon": "001199334",
                "ref:vatin": "PL5551938868",
                "operator": "Gmina Chojnice",
                "operator:type": "government",
                "amenity": "school"
            }
        },
        {
            "id": 10780,
            "type": "Feature",
            "geometry": {
                "type": "Point",
                "coordinates": [
                    17.60363,
                    53.64856
                ]
            },
            "properties": {
                "isced:level": "1;2",
                "ref:rspo": 10780,
                "official_name": "Szko\u0142a Podstawowa Lichnowy",
                "name": "Szko\u0142a Podstawowa Lichnowy",
                "addr:country": "PL",
                "addr:postcode": "89-620",
                "addr:city": "Lichnowy",
                "addr:street": "ul. Szkolna",
                "addr:housenumber": "15",
                "addr:teryt:simc": 21970,
                "addr:teryt:sym_ul": 81783,
                "contact:phone": "+48 523987093",
                "contact:email": "splichnowy@poczta.onet.pl",
                "contact:website": "http:\/\/www.szkolalichnowy.pl",
                "ref:regon": "001199305",
                "ref:vatin": "PL5551175608",
                "operator": "Gmina Chojnice",
                "operator:type": "government",
                "amenity": "school"
            }
        },
        {
            "id": 123579,
            "type": "Feature",
            "geometry": {
                "type": "Point",
                "coordinates": [
                    17.60363,
                    53.64853
                ]
            },
            "properties": {
                "ref:rspo": 123579,
                "official_name": "Punkt Przedszkolny \"Kraina Smerf\u00f3w\" w Lichnowach",
                "name": "Punkt Przedszkolny \"Kraina Smerf\u00f3w\" w Lichnowach",
                "addr:country": "PL",
                "addr:postcode": "89-600",
                "addr:city": "Lichnowy",
                "addr:street": "ul. Szkolna",
                "addr:housenumber": "15",
                "addr:teryt:simc": 21970,
                "addr:teryt:sym_ul": 81783,
                "contact:phone": "+48 723369001",
                "contact:email": "bwlodzik@wp.pl",
                "ref:regon": "222124724",
                "operator": "Barbara W\u0142\u00f3dzik",
                "operator:type": "private",
                "amenity": "kindergarten"
            }
        },
        {
            "id": 14463,
            "type": "Feature",
            "geometry": {
                "type": "Point",
                "coordinates": [
                    17.69932,
                    53.65107
                ]
            },
            "properties": {
                "isced:level": "1;2",
                "ref:rspo": 14463,
                "official_name": "Szko\u0142a Podstawowa w Silnie",
                "name": "Szko\u0142a Podstawowa w Silnie",
                "addr:country": "PL",
                "addr:postcode": "89-620",
                "addr:city": "Silno",
                "addr:street": "ul. G\u0142\u00f3wna",
                "addr:housenumber": "39",
                "addr:teryt:simc": 5635,
                "addr:teryt:sym_ul": 82191,
                "contact:phone": "+48 523987696",
                "contact:email": "spsilno@o2.pl",
                "contact:website": "http:\/\/spsilno.pl",
                "ref:regon": "221467899",
                "ref:vatin": "PL5552115413",
                "operator": "Gmina Chojnice",
                "operator:type": "government",
                "amenity": "school"
            }
        },
        {
            "id": 10796,
            "type": "Feature",
            "geometry": {
                "type": "Point",
                "coordinates": [
                    17.5305623,
                    53.6673563
                ]
            },
            "properties": {
                "isced:level": "1;2",
                "ref:rspo": 10796,
                "official_name": "Szko\u0142a Podstawowa im. \u017bo\u0142nierzy Monte Cassino w Nie\u017cychowicach",
                "name": "Szko\u0142a Podstawowa",
                "addr:country": "PL",
                "addr:postcode": "89-620",
                "addr:place": "Nie\u017cychowice",
                "addr:housenumber": "55",
                "addr:teryt:sym_ul": 81889,
                "contact:phone": "+48 523981001",
                "contact:email": "spniezychowice@poczta.onet.pl",
                "contact:website": "http:\/\/www.spniezychowice.pl",
                "ref:regon": "001199311",
                "ref:vatin": "PL5551938905",
                "operator": "Gmina Chojnice",
                "operator:type": "government",
                "amenity": "school"
            }
        },
        {
            "id": 14391,
            "type": "Feature",
            "geometry": {
                "type": "Point",
                "coordinates": [
                    17.63805,
                    53.68238
                ]
            },
            "properties": {
                "isced:level": "1;2",
                "ref:rspo": 14391,
                "official_name": "Szko\u0142a Podstawowa im. Wandy Chotomskiej w Paw\u0142owie",
                "name": "Szko\u0142a Podstawowa",
                "addr:country": "PL",
                "addr:postcode": "89-620",
                "addr:city": "Paw\u0142owo",
                "addr:street": "ul. Tucholska",
                "addr:housenumber": "16",
                "addr:teryt:simc": 23116,
                "addr:teryt:sym_ul": 82110,
                "contact:phone": "+48 523974915",
                "contact:email": "szp_pawlowo@poczta.onet.pl",
                "contact:website": "http:\/\/www.szkola.pawlowo.pl",
                "ref:regon": "001199268",
                "ref:vatin": "PL5552115554",
                "operator": "Gmina Chojnice",
                "operator:type": "government",
                "amenity": "school"
            }
        },
        {
            "id": 125916,
            "type": "Feature",
            "geometry": {
                "type": "Point",
                "coordinates": [
                    17.63678,
                    53.6826099
                ]
            },
            "properties": {
                "ref:rspo": 125916,
                "official_name": "Akademia Maluszka Przedszkole Niepubliczne Paw\u0142owo",
                "name": "Akademia Maluszka Przedszkole Niepubliczne Paw\u0142owo",
                "addr:country": "PL",
                "addr:postcode": "89-620",
                "addr:city": "Paw\u0142owo",
                "addr:street": "ul. Tucholska",
                "addr:housenumber": "8",
                "addr:teryt:simc": 23116,
                "addr:teryt:sym_ul": 82110,
                "contact:phone": "+48 692399339",
                "contact:email": "dziekanat@akademiamaluszkachojnice.pl",
                "contact:website": "http:\/\/www.akademiamaluszkachojnice.pl",
                "ref:regon": "221763534",
                "operator": "Jan Brunka",
                "operator:type": "private",
                "amenity": "kindergarten"
            }
        },
        {
            "id": 272902,
            "type": "Feature",
            "geometry": {
                "type": "Point",
                "coordinates": [
                    17.56412,
                    53.68863
                ]
            },
            "properties": {
                "ref:rspo": 272902,
                "official_name": "Punkt Przedszkolny : Przedszkole Naturalne \" Wi\u015bniowy Sad\"",
                "name": "Punkt Przedszkolny : Przedszkole Naturalne \" Wi\u015bniowy Sad\"",
                "addr:country": "PL",
                "addr:postcode": "89-620",
                "addr:city": "Lichnowy",
                "addr:street": "ul. Parkowa",
                "addr:housenumber": "7\/2",
                "addr:teryt:simc": 15710,
                "addr:teryt:sym_ul": 81783,
                "contact:email": "ewa_drzazgowska@o2.pl",
                "ref:regon": "384315051",
                "ref:vatin": "PL9521782582",
                "operator": "Ewa Drzazgowska",
                "operator:type": "private",
                "amenity": "kindergarten"
            }
        },
        {
            "id": 15402,
            "type": "Feature",
            "geometry": {
                "type": "Point",
                "coordinates": [
                    17.68399,
                    53.70237
                ]
            },
            "properties": {
                "isced:level": "1;2",
                "ref:rspo": 15402,
                "official_name": "Szko\u0142a Podstawowa im. 18 Pu\u0142ku U\u0142an\u00f3w Pomorskich w Nowej Cerkwi",
                "name": "Szko\u0142a Podstawowa",
                "addr:country": "PL",
                "addr:postcode": "89-620",
                "addr:city": "Nowa Cerkiew",
                "addr:street": "ul. Szkolna",
                "addr:housenumber": "11",
                "addr:teryt:simc": 21970,
                "addr:teryt:sym_ul": 81949,
                "contact:phone": "+48 523973251",
                "contact:email": "zsncerkiew@gminachojnice.com.pl",
                "contact:website": "http:\/\/www.spnowacerkiew.pl",
                "ref:regon": "771511901",
                "ref:vatin": "PL5552115459",
                "operator": "Gmina Chojnice",
                "operator:type": "government",
                "amenity": "school"
            }
        },
        {
            "id": 272823,
            "type": "Feature",
            "geometry": {
                "type": "Point",
                "coordinates": [
                    17.57386,
                    53.70283
                ]
            },
            "properties": {
                "ref:rspo": 272823,
                "official_name": "Niepubliczne Integracyjne Przedszkole \"Le\u015bna Kraina\" Magdalena Kwiatkowska",
                "name": "Niepubliczne Integracyjne Przedszkole \"Le\u015bna Kraina\" Magdalena Kwiatkowska",
                "addr:country": "PL",
                "addr:postcode": "89-606",
                "addr:city": "Charzykowy",
                "addr:street": "ul. Sportowa",
                "addr:housenumber": "1",
                "addr:teryt:simc": 20683,
                "addr:teryt:sym_ul": 81346,
                "contact:email": "magkwiat@vp.pl",
                "ref:regon": "384305443",
                "ref:vatin": "PL5611520955",
                "operator": "Magdalena Kwiatkowska",
                "operator:type": "private",
                "amenity": "kindergarten"
            }
        },
        {
            "id": 122965,
            "type": "Feature",
            "geometry": {
                "type": "Point",
                "coordinates": [
                    17.6071889,
                    53.7143411
                ]
            },
            "properties": {
                "ref:rspo": 122965,
                "official_name": "Przedszkole Niepubliczne \"Le\u015bne Ludki\" Magdalena Filipczak",
                "name": "Przedszkole Niepubliczne \"Le\u015bne Ludki\" Magdalena Filipczak",
                "addr:country": "PL",
                "addr:postcode": "89-620",
                "addr:city": "Klawkowo",
                "addr:street": "ul. Le\u015bna",
                "addr:housenumber": "18",
                "addr:teryt:simc": 10898,
                "addr:teryt:sym_ul": 81731,
                "contact:phone": "+48 535022052",
                "contact:email": "lesneludki.klawkowo@tlen.pl",
                "ref:regon": "222079716",
                "ref:vatin": "PL5551752709",
                "operator": "Magdalena Filipczak",
                "operator:type": "private",
                "amenity": "kindergarten"
            }
        },
        {
            "id": 11489,
            "type": "Feature",
            "geometry": {
                "type": "Point",
                "coordinates": [
                    17.5138399,
                    53.73499
                ]
            },
            "properties": {
                "isced:level": "1;2",
                "ref:rspo": 11489,
                "official_name": "Szko\u0142a Podstawowa w Charzykowach",
                "name": "Szko\u0142a Podstawowa w Charzykowach",
                "addr:country": "PL",
                "addr:postcode": "89-606",
                "addr:city": "Charzykowy",
                "addr:street": "ul. Szkolna",
                "addr:housenumber": "1",
                "addr:teryt:simc": 21970,
                "addr:teryt:sym_ul": 81346,
                "contact:phone": "+48 523988104",
                "contact:email": "zscharzykowy@op.pl",
                "contact:website": "http:\/\/spcharzykowy.edupage.org\/",
                "ref:regon": "001199274",
                "ref:vatin": "PL5552115620",
                "operator": "Gmina Chojnice",
                "operator:type": "government",
                "amenity": "school"
            }
        },
        {
            "id": 10799,
            "type": "Feature",
            "geometry": {
                "type": "Point",
                "coordinates": [
                    17.6375899,
                    53.744923
                ]
            },
            "properties": {
                "isced:level": "1;2",
                "ref:rspo": 10799,
                "official_name": "Szko\u0142a Podstawowa im. Przyjaci\u00f3\u0142 Ziemi w K\u0142odawie",
                "name": "Szko\u0142a Podstawowa",
                "addr:country": "PL",
                "addr:postcode": "89-632",
                "addr:place": "K\u0142odawa",
                "addr:housenumber": "49",
                "addr:teryt:sym_ul": 81582,
                "contact:phone": "+48 523985609",
                "contact:email": "sp-klodawa.ch@wp.pl",
                "contact:website": "http:\/\/www.sp-klodawa.pl",
                "ref:regon": "001199251",
                "ref:vatin": "PL5551938851",
                "operator": "Gmina Chojnice",
                "operator:type": "government",
                "amenity": "school"
            }
        },
        {
            "id": 15404,
            "type": "Feature",
            "geometry": {
                "type": "Point",
                "coordinates": [
                    17.50312,
                    53.86221
                ]
            },
            "properties": {
                "isced:level": "1;2",
                "ref:rspo": 15404,
                "official_name": "Szko\u0142a Podstawowa w Swornegaciach",
                "name": "Szko\u0142a Podstawowa w Swornegaciach",
                "addr:country": "PL",
                "addr:postcode": "89-608",
                "addr:city": "Swornegacie",
                "addr:street": "ul. Szkolna",
                "addr:housenumber": "11",
                "addr:teryt:simc": 21970,
                "addr:teryt:sym_ul": 82297,
                "contact:phone": "+48 523981126",
                "contact:email": "szkolaswory@interia.pl",
                "contact:website": "http:\/\/www.szkola-swornegacie.pl",
                "ref:regon": "771603916",
                "ref:vatin": "PL5552115548",
                "operator": "Gmina Chojnice",
                "operator:type": "government",
                "amenity": "school"
            }
        }
    ]
}