{
    "type": "FeatureCollection",
    "features": [
        {
            "id": 92622,
            "type": "Feature",
            "geometry": {
                "type": "Point",
                "coordinates": [
                    17.7102101,
                    53.5611698
                ]
            },
            "properties": {
                "isced:level": "1;2",
                "ref:rspo": 92622,
                "official_name": "Szko\u0142a Podstawowa im. Kardyna\u0142a Stefana Wyszy\u0144skiego w Le\u015bnie - Szko\u0142a Filialna w Przymuszewie",
                "name": "Szko\u0142a Podstawowa",
                "addr:country": "PL",
                "addr:postcode": "89-634",
                "addr:place": "Przymuszewo",
                "addr:housenumber": "4",
                "addr:teryt:simc": 80246,
                "contact:phone": "+48 523981787",
                "contact:email": "splesno@op.pl",
                "ref:regon": "115984300",
                "operator": "Gmina Brusy",
                "operator:type": "government",
                "amenity": "school",
                "note": "Parent RSPO: 60262"
            }
        },
        {
            "id": 64691,
            "type": "Feature",
            "geometry": {
                "type": "Point",
                "coordinates": [
                    17.66358,
                    53.82012
                ]
            },
            "properties": {
                "isced:level": "1;2",
                "ref:rspo": 64691,
                "official_name": "Szko\u0142a Podstawowa w M\u0119cikale",
                "name": "Szko\u0142a Podstawowa w M\u0119cikale",
                "addr:country": "PL",
                "addr:postcode": "89-632",
                "addr:city": "M\u0119cika\u0142",
                "addr:street": "Szkolna",
                "addr:housenumber": "7",
                "addr:teryt:simc": 80111,
                "addr:teryt:sym_ul": 21970,
                "contact:phone": "+48 523981625",
                "contact:email": "szkolamecikal@wp.pl",
                "ref:regon": "001159895",
                "ref:vatin": "PL5551898117",
                "operator": "Gmina Brusy",
                "operator:type": "government",
                "amenity": "school"
            }
        },
        {
            "id": 80942,
            "type": "Feature",
            "geometry": {
                "type": "Point",
                "coordinates": [
                    17.67212,
                    53.86986
                ]
            },
            "properties": {
                "ref:rspo": 80942,
                "official_name": "Punkt Przedszkolny Przy Szkole Podstawowej im. B\u0142. Ks. J\u00f3zefa Jankowskiego w Czyczkowach",
                "name": "Punkt Przedszkolny Przy Szkole Podstawowej",
                "addr:country": "PL",
                "addr:postcode": "89-632",
                "addr:city": "Czyczkowy",
                "addr:street": "G\u0142\u00f3wna",
                "addr:housenumber": "64",
                "addr:teryt:simc": 79705,
                "addr:teryt:sym_ul": 5635,
                "contact:phone": "+48 523982174",
                "contact:email": "spczyczkowy@op.pl",
                "ref:regon": "221777542",
                "ref:vatin": "PL5551898181",
                "operator": "Gmina Brusy",
                "operator:type": "government",
                "amenity": "kindergarten"
            }
        },
        {
            "id": 80939,
            "type": "Feature",
            "geometry": {
                "type": "Point",
                "coordinates": [
                    17.6758099,
                    53.87133
                ]
            },
            "properties": {
                "isced:level": "1;2",
                "ref:rspo": 80939,
                "official_name": "Szko\u0142a Podstawowa im. B\u0142ogos\u0142awionego Ksi\u0119dza J\u00f3zefa Jankowskiego w Czyczkowach",
                "name": "Szko\u0142a Podstawowa",
                "addr:country": "PL",
                "addr:postcode": "89-632",
                "addr:city": "Czyczkowy",
                "addr:street": "G\u0142\u00f3wna",
                "addr:housenumber": "46",
                "addr:teryt:simc": 79705,
                "addr:teryt:sym_ul": 5635,
                "contact:phone": "+48 523982364",
                "contact:email": "spczyczkowy@op.pl",
                "contact:website": "http:\/\/www.spczyczkowy.edupage.org",
                "ref:regon": "001159820",
                "ref:vatin": "PL5551898181",
                "operator": "Gmina Brusy",
                "operator:type": "government",
                "amenity": "school"
            }
        },
        {
            "id": 63498,
            "type": "Feature",
            "geometry": {
                "type": "Point",
                "coordinates": [
                    17.7585,
                    53.8765
                ]
            },
            "properties": {
                "isced:level": "1;2",
                "ref:rspo": 63498,
                "official_name": "Szko\u0142a Podstawowa im. Ksi\u0119dza Kanonika Boles\u0142awa \u015aledzia w Kosobudach",
                "name": "Szko\u0142a Podstawowa",
                "addr:country": "PL",
                "addr:postcode": "89-632",
                "addr:city": "Kosobudy",
                "addr:street": "Szkolna",
                "addr:housenumber": "20",
                "addr:teryt:simc": 79869,
                "addr:teryt:sym_ul": 21970,
                "contact:phone": "+48 523983120",
                "contact:email": "spkosobudy@vp.pl",
                "contact:website": "http:\/\/www.spkosobudy.kaszuby.pl",
                "ref:regon": "001159837",
                "ref:vatin": "PL5551898169",
                "operator": "Gmina Brusy",
                "operator:type": "government",
                "amenity": "school"
            }
        },
        {
            "id": 69263,
            "type": "Feature",
            "geometry": {
                "type": "Point",
                "coordinates": [
                    17.7585,
                    53.87647
                ]
            },
            "properties": {
                "ref:rspo": 69263,
                "official_name": "Punkt Przedszkolny Przy Szkole Podstawowej im. Ksi\u0119dza Kanonika Boles\u0142awa \u015aledzia w Kosobudach",
                "name": "Punkt Przedszkolny Przy Szkole Podstawowej",
                "addr:country": "PL",
                "addr:postcode": "89-632",
                "addr:city": "Kosobudy",
                "addr:street": "Szkolna",
                "addr:housenumber": "20",
                "addr:teryt:simc": 79869,
                "addr:teryt:sym_ul": 21970,
                "contact:phone": "+48 523983120",
                "contact:email": "spkosobudy@vp.pl",
                "contact:website": "http:\/\/www.spkosobudy.kaszuby.pl",
                "ref:regon": "221771433",
                "ref:vatin": "PL5551898169",
                "operator": "Gmina Brusy",
                "operator:type": "government",
                "amenity": "kindergarten"
            }
        },
        {
            "id": 68198,
            "type": "Feature",
            "geometry": {
                "type": "Point",
                "coordinates": [
                    17.71878,
                    53.88197
                ]
            },
            "properties": {
                "ref:rspo": 68198,
                "official_name": "Punkt Przedszkolny Przy Przedszkolu Nr 1 w Brusach",
                "name": "Punkt Przedszkolny Przy Przedszkolu Nr 1 w Brusach",
                "addr:country": "PL",
                "addr:postcode": "89-632",
                "addr:city": "Brusy",
                "addr:street": "Armii Krajowej",
                "addr:housenumber": "1",
                "addr:teryt:simc": 928848,
                "addr:teryt:sym_ul": 432,
                "contact:phone": "+48 523982261",
                "contact:email": "przedszkolebrusy@op.pl",
                "ref:regon": "221770416",
                "ref:vatin": "PL5551897804",
                "operator": "Gmina Brusy",
                "operator:type": "government",
                "amenity": "kindergarten"
            }
        },
        {
            "id": 80934,
            "type": "Feature",
            "geometry": {
                "type": "Point",
                "coordinates": [
                    17.632841,
                    53.882159
                ]
            },
            "properties": {
                "isced:level": "1;2",
                "ref:rspo": 80934,
                "official_name": "Szko\u0142a Podstawowa im. Stanis\u0142awa Sikorskiego w Wielkich Che\u0142mach",
                "name": "Szko\u0142a Podstawowa",
                "addr:country": "PL",
                "addr:postcode": "89-632",
                "addr:place": "Wielkie Che\u0142my",
                "addr:housenumber": "35",
                "addr:teryt:simc": 80393,
                "contact:phone": "+48 523981370",
                "contact:email": "spwielkiechelmy@op.pl",
                "contact:website": "http:\/\/www.spwielkiechelmy.za.pl",
                "ref:regon": "001159872",
                "ref:vatin": "PL5551898063",
                "operator": "Gmina Brusy",
                "operator:type": "government",
                "amenity": "school",
                "note": "Children RSPO: 92638"
            }
        },
        {
            "id": 6248,
            "type": "Feature",
            "geometry": {
                "type": "Point",
                "coordinates": [
                    17.71884,
                    53.88344
                ]
            },
            "properties": {
                "ref:rspo": 6248,
                "official_name": "Zesp\u00f3\u0142 Szk\u00f3\u0142 w Brusach",
                "name": "Zesp\u00f3\u0142 Szk\u00f3\u0142 w Brusach",
                "addr:country": "PL",
                "addr:postcode": "89-632",
                "addr:city": "Brusy",
                "addr:street": "Ogrodowa",
                "addr:housenumber": "2",
                "addr:teryt:simc": 928848,
                "addr:teryt:sym_ul": 14834,
                "contact:phone": "+48 523982455",
                "contact:email": "sekretariat@zsbrusy.pl",
                "contact:website": "http:\/\/zsbrusy.pl",
                "ref:regon": "771627408",
                "ref:vatin": "PL5551931949",
                "operator": "Powiat Chojnicki",
                "operator:type": "government",
                "landuse": "education",
                "fixme": "amenity=school, amenity=college albo landuse=education w zale\u017cno\u015bci od tego, jakie plac\u00f3wki wchodz\u0105 w sk\u0142ad zespo\u0142u. Sprawd\u017a, kiedy stosowa\u0107 amenity=* a kiedy landuse=education.",
                "note": "Children RSPO: 7818;25700;25709"
            }
        },
        {
            "id": 60261,
            "type": "Feature",
            "geometry": {
                "type": "Point",
                "coordinates": [
                    17.71884,
                    53.88341
                ]
            },
            "properties": {
                "isced:level": "1;2",
                "ref:rspo": 60261,
                "official_name": "Szko\u0142a Podstawowa Nr 1 im. Jana Paw\u0142a II w Brusach",
                "name": "Szko\u0142a Podstawowa Nr 1",
                "addr:country": "PL",
                "addr:postcode": "89-632",
                "addr:city": "Brusy",
                "addr:street": "Ogrodowa",
                "addr:housenumber": "2",
                "addr:teryt:simc": 928848,
                "addr:teryt:sym_ul": 14834,
                "contact:phone": "+48 523982259",
                "contact:email": "spbrusy@poczta.onet.pl",
                "contact:website": "http:\/\/www.spbrusy.szkolna.net",
                "ref:regon": "000566150",
                "ref:vatin": "PL5551897939",
                "operator": "Gmina Brusy",
                "operator:type": "government",
                "amenity": "school"
            }
        },
        {
            "id": 80940,
            "type": "Feature",
            "geometry": {
                "type": "Point",
                "coordinates": [
                    17.71884,
                    53.88338
                ]
            },
            "properties": {
                "ref:rspo": 80940,
                "official_name": "Przedszkole Nr 1 w Brusach",
                "name": "Przedszkole Nr 1 w Brusach",
                "addr:country": "PL",
                "addr:postcode": "89-632",
                "addr:city": "Brusy",
                "addr:street": "Ogrodowa",
                "addr:housenumber": "2",
                "addr:teryt:simc": 928848,
                "addr:teryt:sym_ul": 14834,
                "contact:phone": "+48 523982261",
                "contact:email": "przedszkolebrusy@op.pl",
                "ref:regon": "000266117",
                "ref:vatin": "PL5551897804",
                "operator": "Gmina Brusy",
                "operator:type": "government",
                "amenity": "kindergarten"
            }
        },
        {
            "id": 196306,
            "type": "Feature",
            "geometry": {
                "type": "Point",
                "coordinates": [
                    17.71884,
                    53.88335
                ]
            },
            "properties": {
                "isced:level": "1;2",
                "ref:rspo": 196306,
                "official_name": "Szko\u0142a Podstawowa Nr 2 w Brusach",
                "name": "Szko\u0142a Podstawowa Nr 2 w Brusach",
                "addr:country": "PL",
                "addr:postcode": "89-632",
                "addr:city": "Brusy",
                "addr:street": "Ogrodowa",
                "addr:housenumber": "2",
                "addr:teryt:simc": 928848,
                "addr:teryt:sym_ul": 14834,
                "contact:phone": "+48 523983513",
                "contact:email": "gimbrusy1@wp.pl",
                "contact:website": "http:\/\/www.sp2brusy.pl",
                "ref:regon": "367991800",
                "operator": "Gmina Brusy",
                "operator:type": "government",
                "amenity": "school"
            }
        },
        {
            "id": 7818,
            "type": "Feature",
            "geometry": {
                "type": "Point",
                "coordinates": [
                    17.71884,
                    53.88332
                ]
            },
            "properties": {
                "isced:level": "3",
                "ref:rspo": 7818,
                "official_name": "Liceum Og\u00f3lnokszta\u0142c\u0105ce dla Doros\u0142ych",
                "name": "Liceum Og\u00f3lnokszta\u0142c\u0105ce dla Doros\u0142ych",
                "addr:country": "PL",
                "addr:postcode": "89-632",
                "addr:city": "Brusy",
                "addr:street": "Ogrodowa",
                "addr:housenumber": "2",
                "addr:teryt:simc": 928848,
                "addr:teryt:sym_ul": 14834,
                "contact:phone": "+48 523982455",
                "contact:email": "sekretariat@zsbrusy.pl",
                "contact:website": "http:\/\/zsbrusy.pl",
                "ref:regon": "221735220",
                "ref:vatin": "PL5551931949",
                "operator": "Powiat Chojnicki",
                "operator:type": "government",
                "amenity": "school",
                "note": "Parent RSPO: 6248"
            }
        },
        {
            "id": 25700,
            "type": "Feature",
            "geometry": {
                "type": "Point",
                "coordinates": [
                    17.71884,
                    53.88329
                ]
            },
            "properties": {
                "isced:level": "3",
                "ref:rspo": 25700,
                "official_name": "Bran\u017cowa Szko\u0142a I Stopnia im. Kazimierza Sikorskiego",
                "name": "Bran\u017cowa Szko\u0142a I Stopnia",
                "addr:country": "PL",
                "addr:postcode": "89-632",
                "addr:city": "Brusy",
                "addr:street": "Ogrodowa",
                "addr:housenumber": "2",
                "addr:teryt:simc": 928848,
                "addr:teryt:sym_ul": 14834,
                "contact:phone": "+48 523982455",
                "contact:email": "sekretariat@zsbrusy.pl",
                "contact:website": "http:\/\/zsbrusy.pl",
                "ref:regon": "091138213",
                "ref:vatin": "PL5551931949",
                "operator": "Powiat Chojnicki",
                "operator:type": "government",
                "amenity": "school",
                "note": "Parent RSPO: 6248"
            }
        },
        {
            "id": 25709,
            "type": "Feature",
            "geometry": {
                "type": "Point",
                "coordinates": [
                    17.71884,
                    53.88326
                ]
            },
            "properties": {
                "isced:level": "3",
                "ref:rspo": 25709,
                "official_name": "Kaszubskie Liceum Og\u00f3lnokszta\u0142c\u0105ce w Brusach",
                "name": "Kaszubskie Liceum Og\u00f3lnokszta\u0142c\u0105ce w Brusach",
                "addr:country": "PL",
                "addr:postcode": "89-632",
                "addr:city": "Brusy",
                "addr:street": "Ogrodowa",
                "addr:housenumber": "2",
                "addr:teryt:simc": 928848,
                "addr:teryt:sym_ul": 14834,
                "contact:phone": "+48 523982455",
                "contact:email": "sekretariat@zsbrusy.pl",
                "contact:website": "http:\/\/zsbrusy.pl",
                "ref:regon": "090518155",
                "ref:vatin": "PL5551931949",
                "operator": "Powiat Chojnicki",
                "operator:type": "government",
                "amenity": "school",
                "note": "Parent RSPO: 6248"
            }
        },
        {
            "id": 68573,
            "type": "Feature",
            "geometry": {
                "type": "Point",
                "coordinates": [
                    17.71707,
                    53.88704
                ]
            },
            "properties": {
                "ref:rspo": 68573,
                "official_name": "Przedszkole Niepubliczne Zgromadzenia Si\u00f3str Zmartwychwstania Pa\u0144skiego im. \u015awi\u0119tego J\u00f3zefa",
                "name": "Przedszkole Niepubliczne Zgromadzenia Si\u00f3str Zmartwychwstania Pa\u0144skiego",
                "addr:country": "PL",
                "addr:postcode": "89-632",
                "addr:city": "Brusy",
                "addr:street": "Szkolna",
                "addr:housenumber": "14",
                "addr:teryt:simc": 928848,
                "addr:teryt:sym_ul": 21970,
                "contact:phone": "+48 523983042",
                "contact:email": "brusycr@wp.pl",
                "contact:website": "http:\/\/www.przedszkolesiostr.szkolna.net",
                "ref:regon": "221775483",
                "ref:vatin": "PL5551807190",
                "operator": "Zg.ss.zmartwychwstania Pa\u0144skiego, Prowincja Pozna\u0144ska",
                "operator:type": "religious",
                "amenity": "kindergarten"
            }
        },
        {
            "id": 80937,
            "type": "Feature",
            "geometry": {
                "type": "Point",
                "coordinates": [
                    17.6782634,
                    53.9091139
                ]
            },
            "properties": {
                "isced:level": "1;2",
                "ref:rspo": 80937,
                "official_name": "Szko\u0142a Podstawowa w Czapiewicach",
                "name": "Szko\u0142a Podstawowa w Czapiewicach",
                "addr:country": "PL",
                "addr:postcode": "89-632",
                "addr:place": "Czapiewice",
                "addr:housenumber": "22",
                "addr:teryt:simc": 79668,
                "contact:phone": "+48 523982505",
                "contact:email": "spczapiewice@wp.pl",
                "contact:website": "http:\/\/www.spczapiewice.mojaszkola.net",
                "ref:regon": "001159889",
                "ref:vatin": "PL5551898123",
                "operator": "Gmina Brusy",
                "operator:type": "government",
                "amenity": "school"
            }
        },
        {
            "id": 80935,
            "type": "Feature",
            "geometry": {
                "type": "Point",
                "coordinates": [
                    17.73006,
                    53.92211
                ]
            },
            "properties": {
                "isced:level": "1;2",
                "ref:rspo": 80935,
                "official_name": "Szko\u0142a Podstawowa w Zalesiu",
                "name": "Szko\u0142a Podstawowa w Zalesiu",
                "addr:country": "PL",
                "addr:postcode": "89-632",
                "addr:city": "Zalesie",
                "addr:street": "Gda\u0144ska",
                "addr:housenumber": "26",
                "addr:teryt:simc": 80482,
                "addr:teryt:sym_ul": 5431,
                "contact:phone": "+48 523982625",
                "contact:email": "szkolazalesie@gmail.com",
                "contact:website": "http:\/\/www.spzalesie.szkolna.net",
                "ref:regon": "001159866",
                "ref:vatin": "PL5551898057",
                "operator": "Gmina Brusy",
                "operator:type": "government",
                "amenity": "school"
            }
        },
        {
            "id": 80936,
            "type": "Feature",
            "geometry": {
                "type": "Point",
                "coordinates": [
                    17.75432,
                    53.92648
                ]
            },
            "properties": {
                "isced:level": "1;2",
                "ref:rspo": 80936,
                "official_name": "Szko\u0142a Podstawowa im. Tajnej Organizacji Wojskowej \"Gryf Pomorski\" w Lubni",
                "name": "Szko\u0142a Podstawowa",
                "addr:country": "PL",
                "addr:postcode": "89-632",
                "addr:city": "Lubnia",
                "addr:street": "Szkolna",
                "addr:housenumber": "13",
                "addr:teryt:simc": 79964,
                "addr:teryt:sym_ul": 21970,
                "contact:phone": "+48 523981523",
                "contact:email": "zslubnia@op.pl",
                "contact:website": "http:\/\/splubnia.edupage.org",
                "ref:regon": "001159850",
                "ref:vatin": "PL5552109594",
                "operator": "Gmina Brusy",
                "operator:type": "government",
                "amenity": "school"
            }
        },
        {
            "id": 92638,
            "type": "Feature",
            "geometry": {
                "type": "Point",
                "coordinates": [
                    17.5784548,
                    53.9283492
                ]
            },
            "properties": {
                "isced:level": "1;2",
                "ref:rspo": 92638,
                "official_name": "Szko\u0142a Podstawowa im. Stanis\u0142awa Sikorskiego w Wielkich Che\u0142mach - Szko\u0142a Filialna w Rolbiku",
                "name": "Szko\u0142a Podstawowa",
                "addr:country": "PL",
                "addr:postcode": "89-634",
                "addr:place": "Rolbik",
                "addr:housenumber": "4",
                "addr:teryt:simc": 80269,
                "contact:phone": "+48 523981370",
                "contact:email": "spwielkiechelmy@op.pl",
                "ref:regon": "115987200",
                "operator": "Gmina Brusy",
                "operator:type": "government",
                "amenity": "school",
                "note": "Parent RSPO: 80934"
            }
        },
        {
            "id": 80941,
            "type": "Feature",
            "geometry": {
                "type": "Point",
                "coordinates": [
                    17.7491,
                    53.92865
                ]
            },
            "properties": {
                "ref:rspo": 80941,
                "official_name": "Punkt Przedszkolny Przy Szkole Podstawowej im. Tajnej Organizacji Wojskowej \"Gryf Pomorski\" w Lubni",
                "name": "Punkt Przedszkolny Przy Szkole Podstawowej",
                "addr:country": "PL",
                "addr:postcode": "89-632",
                "addr:city": "Lubnia",
                "addr:street": "Sp\u00f3\u0142dzielcza",
                "addr:housenumber": "2",
                "addr:teryt:simc": 79964,
                "addr:teryt:sym_ul": 20696,
                "contact:phone": "+48 523981522",
                "contact:email": "zslubnia@op.pl",
                "contact:website": "http:\/\/www.splubnia.pl",
                "ref:regon": "221777418",
                "ref:vatin": "PL5551898146",
                "operator": "Gmina Brusy",
                "operator:type": "government",
                "amenity": "kindergarten"
            }
        },
        {
            "id": 60262,
            "type": "Feature",
            "geometry": {
                "type": "Point",
                "coordinates": [
                    17.70193,
                    53.94864
                ]
            },
            "properties": {
                "isced:level": "1;2",
                "ref:rspo": 60262,
                "official_name": "Szko\u0142a Podstawowa im. Kardyna\u0142a Stefana Wyszy\u0144skiego w Le\u015bnie",
                "name": "Szko\u0142a Podstawowa",
                "addr:country": "PL",
                "addr:postcode": "89-634",
                "addr:city": "Le\u015bno",
                "addr:street": "Kardyna\u0142a Stefana Wyszy\u0144skiego",
                "addr:housenumber": "15",
                "addr:teryt:simc": 79912,
                "addr:teryt:sym_ul": 35421,
                "contact:phone": "+48 523981787",
                "contact:email": "splesno@op.pl",
                "contact:website": "http:\/\/www.splesno.pl",
                "ref:regon": "001159843",
                "ref:vatin": "PL5551898198",
                "operator": "Gmina Brusy",
                "operator:type": "government",
                "amenity": "school",
                "note": "Children RSPO: 92622"
            }
        },
        {
            "id": 68721,
            "type": "Feature",
            "geometry": {
                "type": "Point",
                "coordinates": [
                    17.70193,
                    53.948609999999995
                ]
            },
            "properties": {
                "ref:rspo": 68721,
                "official_name": "Punkt Przedszkolny Przy Szkole Podstawowej im. Kardyna\u0142a Stefana Wyszy\u0144skiego w Le\u015bnie",
                "name": "Punkt Przedszkolny Przy Szkole Podstawowej",
                "addr:country": "PL",
                "addr:postcode": "89-634",
                "addr:city": "Le\u015bno",
                "addr:street": "kard. Stefana Wyszy\u0144skiego",
                "addr:housenumber": "15",
                "addr:teryt:simc": 79912,
                "addr:teryt:sym_ul": 25107,
                "contact:phone": "+48 523981787",
                "contact:email": "splesno@op.pl",
                "contact:website": "http:\/\/www.splesno.cba.pl",
                "ref:regon": "221770439",
                "ref:vatin": "PL5551898198",
                "operator": "Gmina Brusy",
                "operator:type": "government",
                "amenity": "kindergarten"
            }
        }
    ]
}