{
    "type": "FeatureCollection",
    "features": [
        {
            "id": 25641,
            "type": "Feature",
            "geometry": {
                "type": "Point",
                "coordinates": [
                    17.56678,
                    53.68797
                ]
            },
            "properties": {
                "ref:rspo": 25641,
                "official_name": "Zesp\u00f3\u0142 Szk\u00f3\u0142 nr 2 w Chojnicach",
                "name": "Zesp\u00f3\u0142 Szk\u00f3\u0142 nr 2 w Chojnicach",
                "addr:postcode": "89-600",
                "addr:city": "Chojnice",
                "addr:street": "Angowicka",
                "addr:housenumber": "45",
                "addr:city:simc": 928854,
                "addr:street:sym_ul": 318,
                "phone": "+48 523973475",
                "email": "sekretariat@zs2chojnice.pl",
                "website": "http:\/\/www.zs2.chojnice.pl",
                "ref:regon": "771309654",
                "ref:vatin": "PL5551848757",
                "operator": "Powiat Chojnicki",
                "operator:type": "government",
                "landuse": "education",
                "fixme": "amenity=school, amenity=college albo landuse=education w zale\u017cno\u015bci od tego, jakie plac\u00f3wki wchodz\u0105 w sk\u0142ad zespo\u0142u. Sprawd\u017a, kiedy stosowa\u0107 amenity=* a kiedy landuse=education.",
                "note": "Children RSPO: 86343;88548;130671"
            }
        },
        {
            "id": 88708,
            "type": "Feature",
            "geometry": {
                "type": "Point",
                "coordinates": [
                    17.56678,
                    53.68794
                ]
            },
            "properties": {
                "isced:level": "3",
                "ref:rspo": 88708,
                "official_name": "Chojnicka Szko\u0142a Realna - Liceum Og\u00f3lnokszta\u0142cace dla Doros\u0142ych w Chojnicach",
                "name": "Chojnicka Szko\u0142a Realna - Liceum Og\u00f3lnokszta\u0142cace dla Doros\u0142ych w Chojnicach",
                "addr:postcode": "89-600",
                "addr:city": "Chojnice",
                "addr:street": "Angowicka",
                "addr:housenumber": "45",
                "addr:city:simc": 928854,
                "addr:street:sym_ul": 318,
                "phone": "+48 523973475",
                "email": "jutazenker@gmail.com",
                "website": "http:\/\/chojnickaszkolarealna.pl",
                "ref:regon": "221783755",
                "ref:vatin": "PL5541116751",
                "operator": "Spo\u0142eczne Towarzystwo Edukacyjne",
                "operator:type": "ngo",
                "amenity": "school"
            }
        },
        {
            "id": 86343,
            "type": "Feature",
            "geometry": {
                "type": "Point",
                "coordinates": [
                    17.56678,
                    53.68791
                ]
            },
            "properties": {
                "isced:level": "3",
                "ref:rspo": 86343,
                "official_name": "Bran\u017cowa Szko\u0142a I Stopnia Specjalna nr 2 w Chojnicach",
                "name": "Bran\u017cowa Szko\u0142a I Stopnia Specjalna nr 2 w Chojnicach",
                "addr:postcode": "89-600",
                "addr:city": "Chojnice",
                "addr:street": "Angowicka",
                "addr:housenumber": "45",
                "addr:city:simc": 928854,
                "addr:street:sym_ul": 318,
                "phone": "+48 523973475",
                "email": "sekretariat@zs2chojnice.pl",
                "website": "http:\/\/www.zs2chojnice.pl",
                "ref:regon": "771600987",
                "ref:vatin": "PL5551848757",
                "operator": "Powiat Chojnicki",
                "operator:type": "government",
                "amenity": "school",
                "note": "Parent RSPO: 25641"
            }
        },
        {
            "id": 88548,
            "type": "Feature",
            "geometry": {
                "type": "Point",
                "coordinates": [
                    17.56678,
                    53.68788
                ]
            },
            "properties": {
                "isced:level": "3",
                "ref:rspo": 88548,
                "official_name": "Bran\u017cowa Szko\u0142a I Stopnia nr 2 w Chojnicach",
                "name": "Bran\u017cowa Szko\u0142a I Stopnia nr 2 w Chojnicach",
                "addr:postcode": "89-600",
                "addr:city": "Chojnice",
                "addr:street": "Angowicka",
                "addr:housenumber": "45",
                "addr:city:simc": 928854,
                "addr:street:sym_ul": 318,
                "phone": "+48 523973475",
                "email": "sekretariat@zs2chojnice.pl",
                "website": "http:\/\/www.zs2chojnice.pl",
                "ref:regon": "771600970",
                "ref:vatin": "PL5551848757",
                "operator": "Powiat Chojnicki",
                "operator:type": "government",
                "amenity": "school",
                "note": "Parent RSPO: 25641"
            }
        },
        {
            "id": 130671,
            "type": "Feature",
            "geometry": {
                "type": "Point",
                "coordinates": [
                    17.56678,
                    53.68785
                ]
            },
            "properties": {
                "isced:level": "3",
                "ref:rspo": 130671,
                "official_name": "Technikum nr 4 w Chojnicach",
                "name": "Technikum nr 4 w Chojnicach",
                "addr:postcode": "89-600",
                "addr:city": "Chojnice",
                "addr:street": "Angowicka",
                "addr:housenumber": "45",
                "addr:city:simc": 928854,
                "addr:street:sym_ul": 318,
                "phone": "+48 523973475",
                "email": "sekretariat@zs2chojnice.pl",
                "website": "http:\/\/www.zs2chojnice.pl",
                "ref:regon": "364327466",
                "operator": "Powiat Chojnicki",
                "operator:type": "government",
                "amenity": "school",
                "note": "Parent RSPO: 25641"
            }
        },
        {
            "id": 11096,
            "type": "Feature",
            "geometry": {
                "type": "Point",
                "coordinates": [
                    17.55777,
                    53.68835
                ]
            },
            "properties": {
                "ref:rspo": 11096,
                "official_name": "Przedszkole Niepubliczne \"Teddy\" - Dorota Str\u00f3jka",
                "name": "Przedszkole Niepubliczne \"Teddy\" - Dorota Str\u00f3jka",
                "addr:postcode": "89-600",
                "addr:city": "Chojnice",
                "addr:street": "Okrzei",
                "addr:housenumber": "8",
                "addr:city:simc": 928854,
                "addr:street:sym_ul": 14909,
                "phone": "+48 604096087",
                "email": "dodoro@wp.pl",
                "website": "http:\/\/www.teddychojnice.pl",
                "ref:regon": "221737494",
                "ref:vatin": "PL5551892899",
                "operator": "Dorota Str\u00f3jka",
                "operator:type": "private",
                "amenity": "kindergarten"
            }
        },
        {
            "id": 275409,
            "type": "Feature",
            "geometry": {
                "type": "Point",
                "coordinates": [
                    17.60118,
                    53.68934
                ]
            },
            "properties": {
                "ref:rspo": 275409,
                "official_name": "O\u015brodek Doradztwa I Edukacji w Chojnicach",
                "name": "O\u015brodek Doradztwa I Edukacji w Chojnicach",
                "addr:postcode": "89-600",
                "addr:city": "Chojnice",
                "addr:street": "D\u0142uga",
                "addr:housenumber": "12",
                "addr:city:simc": 928854,
                "addr:street:sym_ul": 3839,
                "email": "szkolenia@fds-consulting.eu",
                "ref:regon": "386930659",
                "operator": "Consulting Firma Doradczo-Szkoleniowa Julita Or\u0142owska-Szczepa\u0144ska",
                "operator:type": "consortium",
                "amenity": "training"
            }
        },
        {
            "id": 132756,
            "type": "Feature",
            "geometry": {
                "type": "Point",
                "coordinates": [
                    17.55346,
                    53.68946
                ]
            },
            "properties": {
                "ref:rspo": 132756,
                "official_name": "Niepubliczne Przedszkole J\u0119zykowe Parrot",
                "name": "Niepubliczne Przedszkole J\u0119zykowe Parrot",
                "addr:postcode": "89-600",
                "addr:city": "Chojnice",
                "addr:street": "Aleja Brzozowa",
                "addr:housenumber": "75",
                "addr:city:simc": 928854,
                "addr:street:sym_ul": 51157,
                "phone": "+48 733988732",
                "email": "parrot@parrotprzedszkole.pl",
                "ref:regon": "366208062",
                "operator": "Krzysztof Makowski",
                "operator:type": "private",
                "amenity": "kindergarten"
            }
        },
        {
            "id": 126266,
            "type": "Feature",
            "geometry": {
                "type": "Point",
                "coordinates": [
                    17.5569099,
                    53.68964
                ]
            },
            "properties": {
                "ref:rspo": 126266,
                "official_name": "Przedszkole Niepubliczne im.janusza Korczaka",
                "name": "Przedszkole Niepubliczne im.janusza Korczaka",
                "addr:postcode": "89-600",
                "addr:city": "Chojnice",
                "addr:street": "Prochowa",
                "addr:housenumber": "31",
                "addr:city:simc": 928854,
                "addr:street:sym_ul": 17497,
                "phone": "+48 692482712",
                "ref:regon": "360184024",
                "operator": "Hanna Krauze",
                "operator:type": "private",
                "amenity": "kindergarten"
            }
        },
        {
            "id": 263014,
            "type": "Feature",
            "geometry": {
                "type": "Point",
                "coordinates": [
                    17.57082,
                    53.69001
                ]
            },
            "properties": {
                "ref:rspo": 263014,
                "official_name": "Zesp\u00f3\u0142 Szkolno-Przedszkolny nr 3 w Chojnicach",
                "name": "Zesp\u00f3\u0142 Szkolno-Przedszkolny nr 3 w Chojnicach",
                "addr:postcode": "89-600",
                "addr:city": "Chojnice",
                "addr:street": "Dworcowa",
                "addr:housenumber": "6",
                "addr:city:simc": 928854,
                "addr:street:sym_ul": 4434,
                "phone": "+48 523974966",
                "email": "sekretariat@sp3.chojnice24.pl",
                "website": "http:\/\/sp3.chojnice24.pl",
                "ref:regon": "368089489",
                "operator": "Gmina Miejska Chojnice",
                "operator:type": "government",
                "landuse": "education",
                "fixme": "amenity=school, amenity=college albo landuse=education w zale\u017cno\u015bci od tego, jakie plac\u00f3wki wchodz\u0105 w sk\u0142ad zespo\u0142u. Sprawd\u017a, kiedy stosowa\u0107 amenity=* a kiedy landuse=education.",
                "note": "Children RSPO: 7918;263012"
            }
        },
        {
            "id": 7918,
            "type": "Feature",
            "geometry": {
                "type": "Point",
                "coordinates": [
                    17.57082,
                    53.68998
                ]
            },
            "properties": {
                "isced:level": "1;2",
                "ref:rspo": 7918,
                "official_name": "Szko\u0142a Podstawowa nr 3 im. Pami\u0119ci Kolejarzy Chojnickich",
                "name": "Szko\u0142a Podstawowa nr 3",
                "addr:postcode": "89-600",
                "addr:city": "Chojnice",
                "addr:street": "Dworcowa",
                "addr:housenumber": "6",
                "addr:city:simc": 928854,
                "addr:street:sym_ul": 4434,
                "phone": "+48 523974966",
                "email": "sekretariat@sp3.chojnice24.pl",
                "website": "http:\/\/www.sp3.chojnice24.pl",
                "ref:regon": "090468196",
                "ref:vatin": "PL5551026883",
                "operator": "Gmina Miejska Chojnice",
                "operator:type": "government",
                "amenity": "school",
                "note": "Parent RSPO: 263014"
            }
        },
        {
            "id": 2917,
            "type": "Feature",
            "geometry": {
                "type": "Point",
                "coordinates": [
                    17.57115,
                    53.69033
                ]
            },
            "properties": {
                "isced:level": "3",
                "ref:rspo": 2917,
                "official_name": "Technikum nr 2 w Chojnicach",
                "name": "Technikum nr 2 w Chojnicach",
                "addr:postcode": "89-620",
                "addr:city": "Chojnice",
                "addr:street": "Dworcowa",
                "addr:housenumber": "1",
                "addr:city:simc": 928854,
                "addr:street:sym_ul": 4434,
                "phone": "+48 523974940",
                "email": "technikum2@technikum2chojnice.pl",
                "website": "http:\/\/www.technikum2chojnice.pl",
                "ref:regon": "771601892",
                "ref:vatin": "PL5552106259",
                "operator": "Powiat Chojnicki",
                "operator:type": "government",
                "amenity": "school"
            }
        },
        {
            "id": 126718,
            "type": "Feature",
            "geometry": {
                "type": "Point",
                "coordinates": [
                    17.57115,
                    53.6903
                ]
            },
            "properties": {
                "ref:rspo": 126718,
                "official_name": "Biskupi Uniwersytet Ludowy Przy Technikum nr 2 w Chojnicach",
                "name": "Biskupi Uniwersytet Ludowy Przy Technikum nr 2 w Chojnicach",
                "addr:postcode": "89-620",
                "addr:city": "Chojnice",
                "addr:street": "Dworcowa",
                "addr:housenumber": "1",
                "addr:city:simc": 928854,
                "addr:street:sym_ul": 4434,
                "phone": "+48 523974940",
                "ref:regon": "360656279",
                "operator": "Diecezja Pelpli\u0144ska",
                "operator:type": "religious"
            }
        },
        {
            "id": 11172,
            "type": "Feature",
            "geometry": {
                "type": "Point",
                "coordinates": [
                    17.54981,
                    53.69109
                ]
            },
            "properties": {
                "ref:rspo": 11172,
                "official_name": "Przedszkole Niepubliczne z Grup\u0105 \u017b\u0142obkow\u0105 \"Misiowa Akademia\" Iwona Szmagli\u0144ska",
                "name": "Przedszkole Niepubliczne z Grup\u0105 \u017b\u0142obkow\u0105 \"Misiowa Akademia\" Iwona Szmagli\u0144ska",
                "addr:postcode": "89-600",
                "addr:city": "Chojnice",
                "addr:street": "kard. Stefana Wyszy\u0144skiego",
                "addr:housenumber": "8",
                "addr:city:simc": 928854,
                "addr:street:sym_ul": 25107,
                "phone": "+48 523972542",
                "email": "misiowa-akademia@o2.pl",
                "website": "http:\/\/misiowaakademia.pl",
                "ref:regon": "221737407",
                "ref:vatin": "PL5551585039",
                "operator": "Dane Do Uzupe\u0142nienia",
                "operator:type": "private",
                "amenity": "kindergarten"
            }
        },
        {
            "id": 26035,
            "type": "Feature",
            "geometry": {
                "type": "Point",
                "coordinates": [
                    17.5683,
                    53.69153
                ]
            },
            "properties": {
                "ref:rspo": 26035,
                "official_name": "Poradnia Psychologiczno-Pedagogiczna w Chojnicach",
                "name": "Poradnia Psychologiczno-Pedagogiczna w Chojnicach",
                "addr:postcode": "89-600",
                "addr:city": "Chojnice",
                "addr:street": "marsz. J\u00f3zefa Pi\u0142sudskiego",
                "addr:housenumber": "30",
                "addr:city:simc": 928854,
                "addr:street:sym_ul": 16274,
                "phone": "+48 523344460",
                "email": "pppchojnice@op.pl",
                "ref:regon": "000896143",
                "ref:vatin": "PL5551138731",
                "operator": "Powiat Chojnicki",
                "operator:type": "government",
                "healthcare": "counselling",
                "counselling_type": "education",
                "fixme": "w zale\u017cno\u015bci od przedmiotu dzia\u0142alno\u015bci (np. healthcare=counselling + counselling_type=education albo healthcare=psychotherapist)"
            }
        },
        {
            "id": 11036,
            "type": "Feature",
            "geometry": {
                "type": "Point",
                "coordinates": [
                    17.5734299,
                    53.69159
                ]
            },
            "properties": {
                "ref:rspo": 11036,
                "official_name": "Przedszkole Niepubliczne \"T\u0119czowe Misie\"",
                "name": "Przedszkole Niepubliczne \"T\u0119czowe Misie\"",
                "addr:postcode": "89-600",
                "addr:city": "Chojnice",
                "addr:street": "Mestwina",
                "addr:housenumber": "14B",
                "addr:city:simc": 928854,
                "addr:street:sym_ul": 12623,
                "phone": "+48 600049435",
                "email": "teczowe-misiaki@tlen.pl",
                "website": "http:\/\/www.teczowe-misiaki.pl",
                "ref:regon": "221737360",
                "ref:vatin": "PL5552024047",
                "operator": "Monika Fierek",
                "operator:type": "private",
                "amenity": "kindergarten"
            }
        },
        {
            "id": 11115,
            "type": "Feature",
            "geometry": {
                "type": "Point",
                "coordinates": [
                    17.56092,
                    53.69264
                ]
            },
            "properties": {
                "ref:rspo": 11115,
                "official_name": "Przedszkole Niepubliczne O Profilu Artystyczno-Sportowym \"Bajka\"",
                "name": "Przedszkole Niepubliczne O Profilu Artystyczno-Sportowym \"Bajka\"",
                "addr:postcode": "89-600",
                "addr:city": "Chojnice",
                "addr:street": "Grunwaldzka",
                "addr:housenumber": "1a",
                "addr:city:simc": 928854,
                "addr:street:sym_ul": 6260,
                "phone": "+48 523975414",
                "email": "bajka@chojnice.pl",
                "website": "http:\/\/www.bajka.chojnice.pl",
                "ref:regon": "221737063",
                "ref:vatin": "PL5551182270",
                "operator": "Dane Do Uzupe\u0142nienia",
                "operator:type": "private",
                "amenity": "kindergarten"
            }
        },
        {
            "id": 272798,
            "type": "Feature",
            "geometry": {
                "type": "Point",
                "coordinates": [
                    17.57047,
                    53.69278
                ]
            },
            "properties": {
                "isced:level": "3",
                "ref:rspo": 272798,
                "official_name": "Akademickie Liceum Og\u00f3lnokszta\u0142c\u0105ce \"Pomerania\"",
                "name": "Akademickie Liceum Og\u00f3lnokszta\u0142c\u0105ce \"Pomerania\"",
                "addr:postcode": "89-600",
                "addr:city": "Chojnice",
                "addr:street": "\u015awi\u0119tope\u0142ka",
                "addr:housenumber": "10",
                "addr:city:simc": 928854,
                "addr:street:sym_ul": 22555,
                "phone": "+48 523342887",
                "email": "dorota@pomeraniachojnice.edu.pl",
                "website": "http:\/\/www.pomeraniachojnice.edu.pl",
                "ref:regon": "384305354",
                "operator": "Powszechna  Wy\u017csza  Szko\u0142a  Humanistyczna  \"Pomerania\"",
                "operator:type": "private",
                "amenity": "school"
            }
        },
        {
            "id": 9243,
            "type": "Feature",
            "geometry": {
                "type": "Point",
                "coordinates": [
                    17.5713,
                    53.69295
                ]
            },
            "properties": {
                "isced:level": "4",
                "ref:rspo": 9243,
                "official_name": "Medyczna Szko\u0142a Policealna w Chojnicach",
                "name": "Medyczna Szko\u0142a Policealna w Chojnicach",
                "addr:postcode": "89-600",
                "addr:city": "Chojnice",
                "addr:street": "\u015awi\u0119tope\u0142ka",
                "addr:housenumber": "3",
                "addr:city:simc": 928854,
                "addr:street:sym_ul": 22555,
                "phone": "+48 523973612",
                "email": "sekretariat@szkolamedyk.eu",
                "website": "http:\/\/www.szkolamedyk.eu",
                "ref:regon": "091385029",
                "ref:vatin": "PL5552126003",
                "operator": "Powiat Chojnicki",
                "operator:type": "government",
                "amenity": "college"
            }
        },
        {
            "id": 17579,
            "type": "Feature",
            "geometry": {
                "type": "Point",
                "coordinates": [
                    17.56124,
                    53.69303
                ]
            },
            "properties": {
                "isced:level": "1;2",
                "ref:rspo": 17579,
                "official_name": "Katolicka Szko\u0142a Podstawowa im. Piotra Dunina w Chojnicach",
                "name": "Katolicka Szko\u0142a Podstawowa",
                "addr:postcode": "89-600",
                "addr:city": "Chojnice",
                "addr:street": "Grunwaldzka",
                "addr:housenumber": "1",
                "addr:city:simc": 928854,
                "addr:street:sym_ul": 6260,
                "phone": "+48 523977087",
                "email": "sekretariat@katolik.chojnice.pl",
                "website": "http:\/\/www.katolik.chojnice.pl",
                "ref:regon": "221747423",
                "ref:vatin": "PL5551861404",
                "operator": "Diecezja Pelpli\u0144ska",
                "operator:type": "religious",
                "amenity": "school"
            }
        },
        {
            "id": 263987,
            "type": "Feature",
            "geometry": {
                "type": "Point",
                "coordinates": [
                    17.56124,
                    53.693
                ]
            },
            "properties": {
                "isced:level": "3",
                "ref:rspo": 263987,
                "official_name": "Katolickie Liceum Og\u00f3lnokszta\u0142c\u0105ce im. Romualda Traugutta w Chojnicach",
                "name": "Katolickie Liceum Og\u00f3lnokszta\u0142c\u0105ce",
                "addr:postcode": "89-600",
                "addr:city": "Chojnice",
                "addr:street": "Grunwaldzka",
                "addr:housenumber": "1",
                "addr:city:simc": 928854,
                "addr:street:sym_ul": 6260,
                "phone": "+48 523977087",
                "email": "sekretariat@katolik.chojnice.pl",
                "website": "http:\/\/www.katolik.chojnice.pl",
                "ref:regon": "368253925",
                "operator": "Diecezja Pelpli\u0144ska",
                "operator:type": "religious",
                "amenity": "school"
            }
        },
        {
            "id": 267113,
            "type": "Feature",
            "geometry": {
                "type": "Point",
                "coordinates": [
                    17.56124,
                    53.69297
                ]
            },
            "properties": {
                "ref:rspo": 267113,
                "official_name": "Katolickie Przedszkole w Chojnicach",
                "name": "Katolickie Przedszkole w Chojnicach",
                "addr:postcode": "89-600",
                "addr:city": "Chojnice",
                "addr:street": "Grunwaldzka",
                "addr:housenumber": "1",
                "addr:city:simc": 928854,
                "addr:street:sym_ul": 6260,
                "phone": "+48 525664554",
                "email": "sekretariat@katolik.chojnice.pl",
                "website": "http:\/\/www.katolik.chojnice.pl",
                "ref:regon": "369935319",
                "ref:vatin": "PL5552120644",
                "operator": "Diecezja Pelpli\u0144ska",
                "operator:type": "religious",
                "amenity": "kindergarten"
            }
        },
        {
            "id": 25547,
            "type": "Feature",
            "geometry": {
                "type": "Point",
                "coordinates": [
                    17.5710799,
                    53.6935
                ]
            },
            "properties": {
                "ref:rspo": 25547,
                "official_name": "Powiatowa Bursa dla M\u0142odzie\u017cy Szkolnej w Chojnicach",
                "name": "Powiatowa Bursa dla M\u0142odzie\u017cy Szkolnej w Chojnicach",
                "addr:postcode": "89-600",
                "addr:city": "Chojnice",
                "addr:street": "\u015awi\u0119tope\u0142ka",
                "addr:housenumber": "1",
                "addr:city:simc": 928854,
                "addr:street:sym_ul": 22555,
                "phone": "+48 523972996",
                "email": "bursa@bursa.chojnice.pl",
                "website": "http:\/\/www.bursa.chojnice.pl",
                "ref:regon": "000201098",
                "ref:vatin": "PL5551808539",
                "operator": "Powiat Chojnicki",
                "operator:type": "government",
                "building": "dormitory"
            }
        },
        {
            "id": 25599,
            "type": "Feature",
            "geometry": {
                "type": "Point",
                "coordinates": [
                    17.5710799,
                    53.69347
                ]
            },
            "properties": {
                "isced:level": "3",
                "ref:rspo": 25599,
                "official_name": "Ii Liceum Og\u00f3lnokszta\u0142c\u0105ce im. Gen. W\u0142adys\u0142awa Andersa w Chojnicach",
                "name": "Ii Liceum Og\u00f3lnokszta\u0142c\u0105ce",
                "addr:postcode": "89-600",
                "addr:city": "Chojnice",
                "addr:street": "\u015awi\u0119tope\u0142ka",
                "addr:housenumber": "1",
                "addr:city:simc": 928854,
                "addr:street:sym_ul": 22555,
                "phone": "+48 523972021",
                "email": "sekretariat@2lochojnice.pl",
                "website": "http:\/\/2lochojnice.pl",
                "ref:regon": "091177130",
                "ref:vatin": "PL5551139860",
                "operator": "Powiat Chojnicki",
                "operator:type": "government",
                "amenity": "school"
            }
        },
        {
            "id": 23125,
            "type": "Feature",
            "geometry": {
                "type": "Point",
                "coordinates": [
                    17.5601999,
                    53.69373
                ]
            },
            "properties": {
                "ref:rspo": 23125,
                "official_name": "Szko\u0142a Muzyczna I St. w Chojnicach",
                "name": "Szko\u0142a Muzyczna I St. w Chojnicach",
                "addr:postcode": "89-600",
                "addr:city": "Chojnice",
                "addr:street": "Grunwaldzka",
                "addr:housenumber": "6",
                "addr:city:simc": 928854,
                "addr:street:sym_ul": 6260,
                "phone": "+48 523974766",
                "email": "szkola165@wp.pl",
                "website": "http:\/\/szkolamuzyczna.chojnice24.pl",
                "ref:regon": "001306267",
                "operator": "Ministerstwo Kultury I Dziedzictwa Narodowego",
                "operator:type": "government",
                "amenity": "music_school"
            }
        },
        {
            "id": 4707,
            "type": "Feature",
            "geometry": {
                "type": "Point",
                "coordinates": [
                    17.55846,
                    53.6941
                ]
            },
            "properties": {
                "isced:level": "3",
                "ref:rspo": 4707,
                "official_name": "Technikum nr 3 im. Bohater\u00f3w Szar\u017cy Pod Krojantami w Chojnicach",
                "name": "Technikum nr 3",
                "addr:postcode": "89-600",
                "addr:city": "Chojnice",
                "addr:street": "Sukiennik\u00f3w",
                "addr:housenumber": "13",
                "addr:city:simc": 928854,
                "addr:street:sym_ul": 21542,
                "phone": "+48 523972323",
                "email": "kontakt@tech3chojnice.pl",
                "website": "http:\/\/tech3chojnice.pl",
                "ref:regon": "771602220",
                "ref:vatin": "PL5552106242",
                "operator": "Powiat Chojnicki",
                "operator:type": "government",
                "amenity": "school"
            }
        },
        {
            "id": 279211,
            "type": "Feature",
            "geometry": {
                "type": "Point",
                "coordinates": [
                    17.54707,
                    53.69443
                ]
            },
            "properties": {
                "ref:rspo": 279211,
                "official_name": "Niepubliczne Przedszkole Integracyjno-Teraputyczne Pani Wiaderko",
                "name": "Niepubliczne Przedszkole Integracyjno-Teraputyczne Pani Wiaderko",
                "addr:postcode": "89-600",
                "addr:city": "Chojnice",
                "addr:street": "Cz\u0142uchowska",
                "addr:housenumber": "51",
                "addr:city:simc": 928854,
                "addr:street:sym_ul": 3461,
                "email": "przedszkolepaniwiaderko@gmail.com",
                "website": "http:\/\/www.paniwiaderko.pl",
                "ref:regon": "520844882",
                "operator": "Celina Twardysz",
                "operator:type": "private",
                "amenity": "kindergarten"
            }
        },
        {
            "id": 111370,
            "type": "Feature",
            "geometry": {
                "type": "Point",
                "coordinates": [
                    17.56544,
                    53.69488
                ]
            },
            "properties": {
                "ref:rspo": 111370,
                "official_name": "Pedagogiczna Biblioteka Wojew\u00f3dzka w Gda\u0144sku Filia w Chojnicach",
                "name": "Pedagogiczna Biblioteka Wojew\u00f3dzka w Gda\u0144sku Filia w Chojnicach",
                "addr:postcode": "89-600",
                "addr:city": "Chojnice",
                "addr:street": "Wysoka",
                "addr:housenumber": "3",
                "addr:city:simc": 928854,
                "addr:street:sym_ul": 25067,
                "phone": "+48 523967225",
                "email": "pbwchojnice@pbw.it.pl",
                "ref:regon": "191688264",
                "operator": "Wojew\u00f3dztwo Pomorskie",
                "operator:type": "government",
                "amenity": "library",
                "note": "Parent RSPO: 9619"
            }
        },
        {
            "id": 5314,
            "type": "Feature",
            "geometry": {
                "type": "Point",
                "coordinates": [
                    17.55803,
                    53.69512
                ]
            },
            "properties": {
                "isced:level": "1;2",
                "ref:rspo": 5314,
                "official_name": "Szko\u0142a Podstawowa nr 1 z Oddzia\u0142ami Integracyjnymi im. J.rydzkowskiego",
                "name": "Szko\u0142a Podstawowa nr 1 z Oddzia\u0142ami Integracyjnymi",
                "addr:postcode": "89-600",
                "addr:city": "Chojnice",
                "addr:street": "31 Stycznia",
                "addr:housenumber": "21\/23",
                "addr:city:simc": 928854,
                "addr:street:sym_ul": 21467,
                "phone": "+48 523975039",
                "email": "sp1@beep.pl",
                "website": "http:\/\/www.sp1chojnice.szkolnastrona.pl",
                "ref:regon": "090468167",
                "ref:vatin": "PL5551094465",
                "operator": "Gmina Miejska Chojnice",
                "operator:type": "government",
                "amenity": "school"
            }
        },
        {
            "id": 272262,
            "type": "Feature",
            "geometry": {
                "type": "Point",
                "coordinates": [
                    17.55856,
                    53.6953
                ]
            },
            "properties": {
                "ref:rspo": 272262,
                "official_name": "Zesp\u00f3\u0142 Szk\u00f3\u0142 \"Pascal\" w Chojnicach",
                "name": "Zesp\u00f3\u0142 Szk\u00f3\u0142 \"Pascal\" w Chojnicach",
                "addr:postcode": "89-600",
                "addr:city": "Chojnice",
                "addr:street": "31 Stycznia",
                "addr:housenumber": "28",
                "addr:door": "2",
                "addr:city:simc": 928854,
                "addr:street:sym_ul": 21467,
                "phone": "+48 523070704",
                "email": "chojnice@pascal.edu.pl",
                "website": "http:\/\/www.pascal.edu.pl",
                "ref:regon": "384071011",
                "operator": "Apprendi Sp\u00f3\u0142ka Z Ograniczon\u0105 Odpowiedzialno\u015bci\u0105",
                "operator:type": "private",
                "landuse": "education",
                "fixme": "amenity=school, amenity=college albo landuse=education w zale\u017cno\u015bci od tego, jakie plac\u00f3wki wchodz\u0105 w sk\u0142ad zespo\u0142u. Sprawd\u017a, kiedy stosowa\u0107 amenity=* a kiedy landuse=education.",
                "note": "Children RSPO: 128628;128904;129220;129308"
            }
        },
        {
            "id": 128628,
            "type": "Feature",
            "geometry": {
                "type": "Point",
                "coordinates": [
                    17.55856,
                    53.69527
                ]
            },
            "properties": {
                "isced:level": "4",
                "ref:rspo": 128628,
                "official_name": "Policealna Szko\u0142a Zawodowa \"Pascal\" w Chojnicach",
                "name": "Policealna Szko\u0142a Zawodowa \"Pascal\" w Chojnicach",
                "addr:postcode": "89-600",
                "addr:city": "Chojnice",
                "addr:street": "31 Stycznia",
                "addr:housenumber": "28",
                "addr:door": "2",
                "addr:city:simc": 928854,
                "addr:street:sym_ul": 21467,
                "phone": "+48 523070704",
                "email": "chojnice@pascal.edu.pl",
                "website": "http:\/\/www.pascal.edu.pl",
                "ref:regon": "362337331",
                "operator": "Apprendi Sp\u00f3\u0142ka Z Ograniczon\u0105 Odpowiedzialno\u015bci\u0105",
                "operator:type": "private",
                "amenity": "college",
                "note": "Parent RSPO: 272262"
            }
        },
        {
            "id": 128904,
            "type": "Feature",
            "geometry": {
                "type": "Point",
                "coordinates": [
                    17.55856,
                    53.695240000000005
                ]
            },
            "properties": {
                "isced:level": "3",
                "ref:rspo": 128904,
                "official_name": "Liceum Og\u00f3lnokszta\u0142c\u0105ce dla Doros\u0142ych \"Pascal\" w Chojnicach",
                "name": "Liceum Og\u00f3lnokszta\u0142c\u0105ce dla Doros\u0142ych \"Pascal\" w Chojnicach",
                "addr:postcode": "89-600",
                "addr:city": "Chojnice",
                "addr:street": "31 Stycznia",
                "addr:housenumber": "28",
                "addr:door": "2",
                "addr:city:simc": 928854,
                "addr:street:sym_ul": 21467,
                "phone": "+48 523070704",
                "email": "chojnice@pascal.edu.pl",
                "website": "http:\/\/www.pascal.edu.pl",
                "ref:regon": "362440247",
                "operator": "Apprendi Sp\u00f3\u0142ka Z Ograniczon\u0105 Odpowiedzialno\u015bci\u0105",
                "operator:type": "private",
                "amenity": "school",
                "note": "Parent RSPO: 272262"
            }
        },
        {
            "id": 129220,
            "type": "Feature",
            "geometry": {
                "type": "Point",
                "coordinates": [
                    17.55856,
                    53.69521
                ]
            },
            "properties": {
                "isced:level": "4",
                "ref:rspo": 129220,
                "official_name": "Stacjonarna Policealna Szko\u0142a Medyczna \"Pascal\" w Chojnicach",
                "name": "Stacjonarna Policealna Szko\u0142a Medyczna \"Pascal\" w Chojnicach",
                "addr:postcode": "89-600",
                "addr:city": "Chojnice",
                "addr:street": "31 Stycznia",
                "addr:housenumber": "28",
                "addr:door": "2",
                "addr:city:simc": 928854,
                "addr:street:sym_ul": 21467,
                "phone": "+48 523070704",
                "email": "chojnice@pascal.edu.pl",
                "website": "http:\/\/www.pascal.edu.pl",
                "ref:regon": "362515637",
                "operator": "Apprendi Sp\u00f3\u0142ka Z Ograniczon\u0105 Odpowiedzialno\u015bci\u0105",
                "operator:type": "private",
                "amenity": "college",
                "note": "Parent RSPO: 272262"
            }
        },
        {
            "id": 129308,
            "type": "Feature",
            "geometry": {
                "type": "Point",
                "coordinates": [
                    17.55856,
                    53.69518
                ]
            },
            "properties": {
                "isced:level": "4",
                "ref:rspo": 129308,
                "official_name": "Policealna Szko\u0142a Medyczna \"Pascal\" w Chojnicach",
                "name": "Policealna Szko\u0142a Medyczna \"Pascal\" w Chojnicach",
                "addr:postcode": "89-600",
                "addr:city": "Chojnice",
                "addr:street": "31 Stycznia",
                "addr:housenumber": "28",
                "addr:door": "2",
                "addr:city:simc": 928854,
                "addr:street:sym_ul": 21467,
                "phone": "+48 523070704",
                "email": "chojnice@pascal.edu.pl",
                "website": "http:\/\/www.pascal.edu.pl",
                "ref:regon": "362557825",
                "ref:vatin": "PL7262651222",
                "operator": "Apprendi Sp\u00f3\u0142ka Z Ograniczon\u0105 Odpowiedzialno\u015bci\u0105",
                "operator:type": "private",
                "amenity": "college",
                "note": "Parent RSPO: 272262"
            }
        },
        {
            "id": 11137,
            "type": "Feature",
            "geometry": {
                "type": "Point",
                "coordinates": [
                    17.57408,
                    53.69534
                ]
            },
            "properties": {
                "ref:rspo": 11137,
                "official_name": "Przedszkole Niepubliczne \" Jarz\u0119binka \" Miros\u0142awa Przybylak",
                "name": "Przedszkole Niepubliczne \" Jarz\u0119binka \" Miros\u0142awa Przybylak",
                "addr:postcode": "89-600",
                "addr:city": "Chojnice",
                "addr:street": "Budowlanych",
                "addr:housenumber": "1a",
                "addr:city:simc": 928854,
                "addr:street:sym_ul": 2337,
                "phone": "+48 523974939",
                "email": "jarzebinka5@poczta.onet.pl",
                "website": "http:\/\/www.jarzebinka.chojnice.pl",
                "ref:regon": "221737442",
                "ref:vatin": "PL5551322713",
                "operator": "Dane Do Uzupe\u0142nienia",
                "operator:type": "private",
                "amenity": "kindergarten"
            }
        },
        {
            "id": 25609,
            "type": "Feature",
            "geometry": {
                "type": "Point",
                "coordinates": [
                    17.56322,
                    53.69642
                ]
            },
            "properties": {
                "ref:rspo": 25609,
                "official_name": "Zesp\u00f3\u0142 Szk\u00f3\u0142 w Chojnicach",
                "name": "Zesp\u00f3\u0142 Szk\u00f3\u0142 w Chojnicach",
                "addr:postcode": "89-600",
                "addr:city": "Chojnice",
                "addr:street": "Nowe Miasto",
                "addr:housenumber": "4-6",
                "addr:city:simc": 928854,
                "addr:street:sym_ul": 14369,
                "phone": "+48 523960120",
                "email": "szkola@zs-chojnice.pl",
                "website": "https:\/\/zs-chojnice.pl\/",
                "ref:regon": "000183555",
                "ref:vatin": "PL5551116528",
                "operator": "Powiat Chojnicki",
                "operator:type": "government",
                "landuse": "education",
                "fixme": "amenity=school, amenity=college albo landuse=education w zale\u017cno\u015bci od tego, jakie plac\u00f3wki wchodz\u0105 w sk\u0142ad zespo\u0142u. Sprawd\u017a, kiedy stosowa\u0107 amenity=* a kiedy landuse=education.",
                "note": "Children RSPO: 61502;61575"
            }
        },
        {
            "id": 61502,
            "type": "Feature",
            "geometry": {
                "type": "Point",
                "coordinates": [
                    17.56322,
                    53.69639
                ]
            },
            "properties": {
                "isced:level": "3",
                "ref:rspo": 61502,
                "official_name": "Liceum Og\u00f3lnokszta\u0142c\u0105ce im. Filomat\u00f3w Chojnickich w Chojnicach",
                "name": "Liceum Og\u00f3lnokszta\u0142c\u0105ce",
                "addr:postcode": "89-600",
                "addr:city": "Chojnice",
                "addr:street": "Nowe Miasto",
                "addr:housenumber": "4-6",
                "addr:city:simc": 928854,
                "addr:street:sym_ul": 14369,
                "phone": "+48 523960120",
                "email": "szkola@zs-chojnice.pl",
                "website": "http:\/\/zs-chojnice.pl",
                "ref:regon": "771601544",
                "ref:vatin": "PL5551116528",
                "operator": "Powiat Chojnicki",
                "operator:type": "government",
                "amenity": "school",
                "note": "Parent RSPO: 25609"
            }
        },
        {
            "id": 61575,
            "type": "Feature",
            "geometry": {
                "type": "Point",
                "coordinates": [
                    17.56322,
                    53.696360000000006
                ]
            },
            "properties": {
                "isced:level": "3",
                "ref:rspo": 61575,
                "official_name": "Technikum im. Stefana Bieszka w Chojnicach",
                "name": "Technikum",
                "addr:postcode": "89-600",
                "addr:city": "Chojnice",
                "addr:street": "Nowe Miasto",
                "addr:housenumber": "4-6",
                "addr:city:simc": 928854,
                "addr:street:sym_ul": 14369,
                "phone": "+48 523960120",
                "email": "szkola@zs-chojnice.pl",
                "website": "http:\/\/zs-chojnice.pl",
                "ref:regon": "220094309",
                "ref:vatin": "PL5551116528",
                "operator": "Powiat Chojnicki",
                "operator:type": "government",
                "amenity": "school",
                "note": "Parent RSPO: 25609"
            }
        },
        {
            "id": 11160,
            "type": "Feature",
            "geometry": {
                "type": "Point",
                "coordinates": [
                    17.55351,
                    53.69664
                ]
            },
            "properties": {
                "ref:rspo": 11160,
                "official_name": "Przedszkole Niepubliczne \"Weso\u0142e Przedszkolaki\" El\u017cbieta Stanke",
                "name": "Przedszkole Niepubliczne \"Weso\u0142e Przedszkolaki\" El\u017cbieta Stanke",
                "addr:postcode": "89-600",
                "addr:city": "Chojnice",
                "addr:street": "W\u0142adys\u0142awa Reymonta",
                "addr:housenumber": "4",
                "addr:city:simc": 928854,
                "addr:street:sym_ul": 18645,
                "phone": "+48 523972022",
                "email": "wesoleprzedszkolaki@wp.pl",
                "website": "http:\/\/www.wesole-przedszkolaki.pl\/",
                "ref:regon": "221737413",
                "ref:vatin": "PL5551017766",
                "operator": "Dane Do Uzupe\u0142nienia",
                "operator:type": "private",
                "amenity": "kindergarten"
            }
        },
        {
            "id": 11183,
            "type": "Feature",
            "geometry": {
                "type": "Point",
                "coordinates": [
                    17.5564399,
                    53.69697
                ]
            },
            "properties": {
                "ref:rspo": 11183,
                "official_name": "Przedszkole Niepubliczne \"Ba\u015bniowa Kraina\"",
                "name": "Przedszkole Niepubliczne \"Ba\u015bniowa Kraina\"",
                "addr:postcode": "89-600",
                "addr:city": "Chojnice",
                "addr:street": "Stefana Batorego",
                "addr:housenumber": "5C",
                "addr:door": "2",
                "addr:city:simc": 928854,
                "addr:street:sym_ul": 891,
                "phone": "+48 530710560",
                "email": "przedszkolaki@onet.pl",
                "website": "http:\/\/przedszkolechojnice.pl",
                "ref:regon": "221737347",
                "ref:vatin": "PL5581270926",
                "operator": "Beata Meyer",
                "operator:type": "private",
                "amenity": "kindergarten"
            }
        },
        {
            "id": 8008,
            "type": "Feature",
            "geometry": {
                "type": "Point",
                "coordinates": [
                    17.57234,
                    53.69725
                ]
            },
            "properties": {
                "isced:level": "1;2",
                "ref:rspo": 8008,
                "official_name": "Szko\u0142a Podstawowa nr 5 im. J.h.derdowskiego",
                "name": "Szko\u0142a Podstawowa nr 5",
                "addr:postcode": "89-600",
                "addr:city": "Chojnice",
                "addr:street": "Wicka Rogali",
                "addr:housenumber": "18",
                "addr:city:simc": 928854,
                "addr:street:sym_ul": 18745,
                "phone": "+48 523977067",
                "email": "sp5@chojnice.pl",
                "website": "http:\/\/www.sp5.chojnice.pl",
                "ref:regon": "090468204",
                "ref:vatin": "PL5551026771",
                "operator": "Gmina Miejska Chojnice",
                "operator:type": "government",
                "amenity": "school"
            }
        },
        {
            "id": 124233,
            "type": "Feature",
            "geometry": {
                "type": "Point",
                "coordinates": [
                    17.57117,
                    53.6975
                ]
            },
            "properties": {
                "isced:level": "3",
                "ref:rspo": 124233,
                "official_name": "Szko\u0142a Techniczna Bydgoskiego Zak\u0142adu Doskonalenia Zawodowego w Chojnicach",
                "name": "Szko\u0142a Techniczna Bydgoskiego Zak\u0142adu Doskonalenia Zawodowego w Chojnicach",
                "addr:postcode": "89-600",
                "addr:city": "Chojnice",
                "addr:street": "Ko\u015bcierska",
                "addr:housenumber": "10",
                "addr:city:simc": 928854,
                "addr:street:sym_ul": 9556,
                "phone": "+48 882616197",
                "email": "chojnice@bzdz.pl",
                "ref:regon": "222145844",
                "operator": "Bydgoski Zak\u0142ad Doskonalenia Zawodowego Stowarzyszenie O\u015bwiatowo-Techniczne",
                "operator:type": "ngo",
                "amenity": "school"
            }
        },
        {
            "id": 14685,
            "type": "Feature",
            "geometry": {
                "type": "Point",
                "coordinates": [
                    17.54632,
                    53.69968
                ]
            },
            "properties": {
                "isced:level": "1;2",
                "ref:rspo": 14685,
                "official_name": "Szko\u0142a Podstawowa nr 7 im. Jana Karnowskiego w Chojnicach",
                "name": "Szko\u0142a Podstawowa nr 7",
                "addr:postcode": "89-600",
                "addr:city": "Chojnice",
                "addr:street": "Juliana Tuwima",
                "addr:housenumber": "2",
                "addr:city:simc": 928854,
                "addr:street:sym_ul": 23194,
                "phone": "+48 523973770",
                "email": "zsp7@interia.pl",
                "website": "http:\/\/www.zs7chojnice.pl",
                "ref:regon": "220817140",
                "ref:vatin": "PL5552115560",
                "operator": "Gmina Miejska Chojnice",
                "operator:type": "government",
                "amenity": "school"
            }
        },
        {
            "id": 26057,
            "type": "Feature",
            "geometry": {
                "type": "Point",
                "coordinates": [
                    17.58304,
                    53.6998
                ]
            },
            "properties": {
                "ref:rspo": 26057,
                "official_name": "Zesp\u00f3\u0142 Szk\u00f3\u0142 Specjalnych w Chojnicach",
                "name": "Zesp\u00f3\u0142 Szk\u00f3\u0142 Specjalnych w Chojnicach",
                "addr:postcode": "89-604",
                "addr:city": "Chojnice",
                "addr:street": "Jana Paw\u0142a II",
                "addr:housenumber": "11",
                "addr:city:simc": 928854,
                "addr:street:sym_ul": 7123,
                "phone": "+48 525651000",
                "email": "sekretariat@zsschojnice.pl",
                "website": "http:\/\/zsschojnice.pl",
                "ref:regon": "771290788",
                "ref:vatin": "PL5551834206",
                "operator": "Powiat Chojnicki",
                "operator:type": "government",
                "landuse": "education",
                "fixme": "amenity=school, amenity=college albo landuse=education w zale\u017cno\u015bci od tego, jakie plac\u00f3wki wchodz\u0105 w sk\u0142ad zespo\u0142u. Sprawd\u017a, kiedy stosowa\u0107 amenity=* a kiedy landuse=education.",
                "note": "Children RSPO: 63501;86488"
            }
        },
        {
            "id": 63501,
            "type": "Feature",
            "geometry": {
                "type": "Point",
                "coordinates": [
                    17.58304,
                    53.69977
                ]
            },
            "properties": {
                "ref:rspo": 63501,
                "official_name": "Szko\u0142a Specjalna Przysposabiaj\u0105ca do Pracy w Chojnicach",
                "name": "Szko\u0142a Specjalna Przysposabiaj\u0105ca do Pracy w Chojnicach",
                "addr:postcode": "89-604",
                "addr:city": "Chojnice",
                "addr:street": "Jana Paw\u0142a II",
                "addr:housenumber": "11",
                "addr:city:simc": 928854,
                "addr:street:sym_ul": 7123,
                "phone": "+48 523979666",
                "email": "sekretariat@zsschojnice.pl",
                "website": "http:\/\/zsschojnice.pl",
                "ref:regon": "221503098",
                "ref:vatin": "PL5551834206",
                "operator": "Powiat Chojnicki",
                "operator:type": "government",
                "amenity": "school",
                "note": "Parent RSPO: 26057"
            }
        },
        {
            "id": 86488,
            "type": "Feature",
            "geometry": {
                "type": "Point",
                "coordinates": [
                    17.58304,
                    53.699740000000006
                ]
            },
            "properties": {
                "isced:level": "1;2",
                "ref:rspo": 86488,
                "official_name": "Szko\u0142a Podstawowa Specjalna nr 4 w Chojnicach",
                "name": "Szko\u0142a Podstawowa Specjalna nr 4 w Chojnicach",
                "addr:postcode": "89-604",
                "addr:city": "Chojnice",
                "addr:street": "Jana Paw\u0142a II",
                "addr:housenumber": "11",
                "addr:city:simc": 928854,
                "addr:street:sym_ul": 7123,
                "phone": "+48 525651000",
                "email": "sekretariat@zsschojnice.pl",
                "website": "http:\/\/zsschojnice.pl",
                "ref:regon": "771601969",
                "ref:vatin": "PL5551834206",
                "operator": "Powiat Chojnicki",
                "operator:type": "government",
                "amenity": "school",
                "note": "Parent RSPO: 26057"
            }
        },
        {
            "id": 262607,
            "type": "Feature",
            "geometry": {
                "type": "Point",
                "coordinates": [
                    17.56876,
                    53.69983
                ]
            },
            "properties": {
                "isced:level": "1;2",
                "ref:rspo": 262607,
                "official_name": "Szko\u0142a Podstawowa nr 8 w Chojnicach",
                "name": "Szko\u0142a Podstawowa nr 8 w Chojnicach",
                "addr:postcode": "89-600",
                "addr:city": "Chojnice",
                "addr:street": "M\u0142odzie\u017cowa",
                "addr:housenumber": "44",
                "addr:city:simc": 928854,
                "addr:street:sym_ul": 13096,
                "phone": "+48 523974100",
                "email": "gim1chojnice@wp.pl",
                "ref:regon": "368042128",
                "operator": "Gmina Miejska Chojnice",
                "operator:type": "government",
                "amenity": "school"
            }
        },
        {
            "id": 263012,
            "type": "Feature",
            "geometry": {
                "type": "Point",
                "coordinates": [
                    17.56876,
                    53.699799999999996
                ]
            },
            "properties": {
                "ref:rspo": 263012,
                "official_name": "Przedszkole nr 3 w Chojnicach",
                "name": "Przedszkole nr 3 w Chojnicach",
                "addr:postcode": "89-600",
                "addr:city": "Chojnice",
                "addr:street": "M\u0142odzie\u017cowa",
                "addr:housenumber": "44",
                "addr:city:simc": 928854,
                "addr:street:sym_ul": 13096,
                "phone": "+48 525652060",
                "email": "przedszkoletrojka@onet.pl",
                "website": "http:\/\/sp3.chojnice24.pl",
                "ref:regon": "368089408",
                "operator": "Gmina Miejska Chojnice",
                "operator:type": "government",
                "amenity": "kindergarten",
                "note": "Parent RSPO: 263014"
            }
        },
        {
            "id": 11636,
            "type": "Feature",
            "geometry": {
                "type": "Point",
                "coordinates": [
                    17.54784,
                    53.70053
                ]
            },
            "properties": {
                "ref:rspo": 11636,
                "official_name": "Niepubliczne Przedszkole Smyk",
                "name": "Niepubliczne Przedszkole Smyk",
                "addr:postcode": "89-600",
                "addr:city": "Chojnice",
                "addr:street": "Marii Konopnickiej",
                "addr:housenumber": "18A",
                "addr:city:simc": 928854,
                "addr:street:sym_ul": 9182,
                "email": "przedszkolesmyk@wp.pl",
                "website": "http:\/\/smykchojnice.pl",
                "ref:regon": "221738996",
                "ref:vatin": "PL5551809131",
                "operator": "Magdalena Paterek",
                "operator:type": "private",
                "amenity": "kindergarten"
            }
        },
        {
            "id": 61812,
            "type": "Feature",
            "geometry": {
                "type": "Point",
                "coordinates": [
                    17.57323,
                    53.70124
                ]
            },
            "properties": {
                "isced:level": "3",
                "ref:rspo": 61812,
                "official_name": "Technikum nr 1 w Chojnicach",
                "name": "Technikum nr 1 w Chojnicach",
                "addr:postcode": "89-600",
                "addr:city": "Chojnice",
                "addr:street": "Ko\u015bcierska",
                "addr:housenumber": "11",
                "addr:city:simc": 928854,
                "addr:street:sym_ul": 9556,
                "phone": "+48 523973072",
                "email": "sekretariat@technikum1chojnice.pl",
                "website": "http:\/\/www.technikum1chojnice.pl",
                "ref:regon": "771602118",
                "ref:vatin": "PL5552123677",
                "operator": "Powiat Chojnicki",
                "operator:type": "government",
                "amenity": "school",
                "note": "Parent RSPO: 4709"
            }
        },
        {
            "id": 4709,
            "type": "Feature",
            "geometry": {
                "type": "Point",
                "coordinates": [
                    17.57324,
                    53.70132
                ]
            },
            "properties": {
                "ref:rspo": 4709,
                "official_name": "Centrum Nauk Technicznych w Chojnicach",
                "name": "Centrum Nauk Technicznych w Chojnicach",
                "addr:postcode": "89-600",
                "addr:city": "Chojnice",
                "addr:street": "Ko\u015bcierska",
                "addr:housenumber": "11a",
                "addr:city:simc": 928854,
                "addr:street:sym_ul": 9556,
                "phone": "+48 523973072",
                "email": "sekretariat@technikum1chojnice.pl",
                "website": "http:\/\/technikum1chojnice.pl",
                "ref:regon": "221727001",
                "ref:vatin": "PL5552106236",
                "operator": "Powiat Chojnicki",
                "operator:type": "government",
                "landuse": "education",
                "fixme": "amenity=school, amenity=college albo landuse=education w zale\u017cno\u015bci od tego, jakie plac\u00f3wki wchodz\u0105 w sk\u0142ad zespo\u0142u. Sprawd\u017a, kiedy stosowa\u0107 amenity=* a kiedy landuse=education.",
                "note": "Children RSPO: 6311;61812;110455;125948;275534"
            }
        },
        {
            "id": 6311,
            "type": "Feature",
            "geometry": {
                "type": "Point",
                "coordinates": [
                    17.57324,
                    53.70129
                ]
            },
            "properties": {
                "isced:level": "4",
                "ref:rspo": 6311,
                "official_name": "Szko\u0142a Policealna w Chojnicach",
                "name": "Szko\u0142a Policealna w Chojnicach",
                "addr:postcode": "89-600",
                "addr:city": "Chojnice",
                "addr:street": "Ko\u015bcierska",
                "addr:housenumber": "11a",
                "addr:city:simc": 928854,
                "addr:street:sym_ul": 9556,
                "phone": "+48 523973072",
                "email": "sekretariat@technikum1chojnice.pl",
                "website": "http:\/\/technikum1chojnice.pl",
                "ref:regon": "221733728",
                "ref:vatin": "PL5552106236",
                "operator": "Powiat Chojnicki",
                "operator:type": "government",
                "amenity": "college",
                "note": "Parent RSPO: 4709"
            }
        },
        {
            "id": 110455,
            "type": "Feature",
            "geometry": {
                "type": "Point",
                "coordinates": [
                    17.57324,
                    53.701260000000005
                ]
            },
            "properties": {
                "ref:rspo": 110455,
                "official_name": "Centrum Kszta\u0142cenia Zawodowego",
                "name": "Centrum Kszta\u0142cenia Zawodowego",
                "addr:postcode": "89-600",
                "addr:city": "Chojnice",
                "addr:street": "Ko\u015bcierska",
                "addr:housenumber": "11a",
                "addr:city:simc": 928854,
                "addr:street:sym_ul": 9556,
                "phone": "+48 523973072",
                "email": "sekretariat@technikum1chojnice.pl",
                "website": "http:\/\/technikum1chojnice.pl",
                "ref:regon": "221838700",
                "ref:vatin": "PL5552106236",
                "operator": "Powiat Chojnicki",
                "operator:type": "government",
                "fixme": "w zale\u017cno\u015bci od przedmiotu dzia\u0142alno\u015bci (np. amenity=training + training=*, amenity=dancing_school, amenity=language_school, amenity=music_school) albo amenity=school, amenity=college, albo landuse=education w zale\u017cno\u015bci od tego, jakie plac\u00f3wki wchodz\u0105 w sk\u0142ad zespo\u0142u. Sprawd\u017a, kiedy stosowa\u0107 amenity=* a kiedy landuse=education.",
                "note": "Parent RSPO: 4709"
            }
        },
        {
            "id": 125948,
            "type": "Feature",
            "geometry": {
                "type": "Point",
                "coordinates": [
                    17.57324,
                    53.70123
                ]
            },
            "properties": {
                "ref:rspo": 125948,
                "official_name": "Centrum Kszta\u0142cenia Ustawicznego w Chojnicach",
                "name": "Centrum Kszta\u0142cenia Ustawicznego w Chojnicach",
                "addr:postcode": "89-600",
                "addr:city": "Chojnice",
                "addr:street": "Ko\u015bcierska",
                "addr:housenumber": "11 a",
                "addr:city:simc": 928854,
                "addr:street:sym_ul": 9556,
                "phone": "+48 523973072",
                "email": "sekretariat@technikum1chojnice.pl",
                "website": "http:\/\/technikum1chojnice.pl",
                "ref:regon": "360107756",
                "ref:vatin": "PL5552106236",
                "operator": "Powiat Chojnicki",
                "operator:type": "government",
                "fixme": "w zale\u017cno\u015bci od przedmiotu dzia\u0142alno\u015bci (np. amenity=training + training=*, amenity=dancing_school, amenity=language_school, amenity=music_school)",
                "note": "Parent RSPO: 4709"
            }
        },
        {
            "id": 275534,
            "type": "Feature",
            "geometry": {
                "type": "Point",
                "coordinates": [
                    17.57324,
                    53.7012
                ]
            },
            "properties": {
                "isced:level": "3",
                "ref:rspo": 275534,
                "official_name": "Bran\u017cowa Szko\u0142a II Stopnia w Chojnicach",
                "name": "Bran\u017cowa Szko\u0142a II Stopnia w Chojnicach",
                "addr:postcode": "89-600",
                "addr:city": "Chojnice",
                "addr:street": "Ko\u015bcierska",
                "addr:housenumber": "11a",
                "addr:city:simc": 928854,
                "addr:street:sym_ul": 9556,
                "phone": "+48 523973072",
                "email": "sekretariat@technikum1chojnice.pl",
                "website": "http:\/\/www.technikum1chojnice.pl",
                "ref:regon": "386932670",
                "ref:vatin": "PL5552106236",
                "operator": "Powiat Chojnicki",
                "operator:type": "government",
                "amenity": "school",
                "note": "Parent RSPO: 4709"
            }
        },
        {
            "id": 11052,
            "type": "Feature",
            "geometry": {
                "type": "Point",
                "coordinates": [
                    17.57098,
                    53.70261
                ]
            },
            "properties": {
                "ref:rspo": 11052,
                "official_name": "Przedszkole Niepubliczne \"Skrzaty\"",
                "name": "Przedszkole Niepubliczne \"Skrzaty\"",
                "addr:postcode": "89-600",
                "addr:city": "Chojnice",
                "addr:street": "M\u0142odzie\u017cowa",
                "addr:housenumber": "5",
                "addr:city:simc": 928854,
                "addr:street:sym_ul": 13096,
                "phone": "+48 523355333",
                "email": "przedszkolemuzykalni@onet.eu",
                "website": "http:\/\/przedszkola-chojnice.pl",
                "ref:regon": "221737620",
                "ref:vatin": "PL5551809131",
                "operator": "Dane Do Uzupe\u0142nienia",
                "operator:type": "private",
                "amenity": "kindergarten"
            }
        },
        {
            "id": 11130,
            "type": "Feature",
            "geometry": {
                "type": "Point",
                "coordinates": [
                    17.56961,
                    53.70436
                ]
            },
            "properties": {
                "ref:rspo": 11130,
                "official_name": "Przedszkole Niepubliczne \"Promyczek\" Miros\u0142awa Wardacka",
                "name": "Przedszkole Niepubliczne \"Promyczek\" Miros\u0142awa Wardacka",
                "addr:postcode": "89-600",
                "addr:city": "Chojnice",
                "addr:street": "Ceynowy",
                "addr:housenumber": "20",
                "addr:city:simc": 928854,
                "addr:street:sym_ul": 2646,
                "phone": "+48 523972395",
                "email": "ps4chojnice@wp.pl",
                "ref:regon": "221737040",
                "ref:vatin": "PL5551125042",
                "operator": "Dane Do Uzupe\u0142nienia",
                "operator:type": "private",
                "amenity": "kindergarten"
            }
        },
        {
            "id": 105102,
            "type": "Feature",
            "geometry": {
                "type": "Point",
                "coordinates": [
                    17.56822,
                    53.70557
                ]
            },
            "properties": {
                "ref:rspo": 105102,
                "official_name": "Schronisko dla Nieletnich w Chojnicach",
                "name": "Schronisko dla Nieletnich w Chojnicach",
                "addr:postcode": "89-600",
                "addr:city": "Chojnice",
                "addr:street": "Igielska",
                "addr:housenumber": "8",
                "addr:city:simc": 928854,
                "addr:street:sym_ul": 6858,
                "phone": "+48 523972161",
                "email": "sekretariat@chojnice.sdn.gov.pl",
                "website": "http:\/\/www.chojnice.sdn.gov.pl",
                "ref:regon": "000321715",
                "operator": "Ministerstwo Sprawiedliwo\u015bci",
                "operator:type": "government",
                "note": "Children RSPO: 125687;125689"
            }
        },
        {
            "id": 125687,
            "type": "Feature",
            "geometry": {
                "type": "Point",
                "coordinates": [
                    17.56822,
                    53.70554
                ]
            },
            "properties": {
                "isced:level": "1;2",
                "ref:rspo": 125687,
                "official_name": "Szko\u0142a Podstawowa nr 6 w Schronisku dla Nieletnich w Chojnicach",
                "name": "Szko\u0142a Podstawowa nr 6 w Schronisku dla Nieletnich w Chojnicach",
                "addr:postcode": "89-600",
                "addr:city": "Chojnice",
                "addr:street": "Igielska",
                "addr:housenumber": "8",
                "addr:city:simc": 928854,
                "addr:street:sym_ul": 6858,
                "phone": "+48 523972161",
                "email": "sekretariat@chojnice.sdn.gov.pl",
                "website": "http:\/\/www.chojnice.sdn.gov.pl",
                "ref:regon": "222175710",
                "operator": "Ministerstwo Sprawiedliwo\u015bci",
                "operator:type": "government",
                "amenity": "school",
                "note": "Parent RSPO: 105102"
            }
        },
        {
            "id": 125689,
            "type": "Feature",
            "geometry": {
                "type": "Point",
                "coordinates": [
                    17.56822,
                    53.705510000000004
                ]
            },
            "properties": {
                "isced:level": "3",
                "ref:rspo": 125689,
                "official_name": "Bran\u017cowa Szko\u0142a I Stopnia nr 6 w Schronisku dla Nieletnich w Chojnicach",
                "name": "Bran\u017cowa Szko\u0142a I Stopnia nr 6 w Schronisku dla Nieletnich w Chojnicach",
                "addr:postcode": "89-600",
                "addr:city": "Chojnice",
                "addr:street": "Igielska",
                "addr:housenumber": "8",
                "addr:city:simc": 928854,
                "addr:street:sym_ul": 6858,
                "phone": "+48 523972161",
                "email": "sekretariat@chojnice.sdn.gov.pl",
                "website": "http:\/\/www.chojnice.sdn.gov.pl\/",
                "ref:regon": "222175791",
                "operator": "Ministerstwo Sprawiedliwo\u015bci",
                "operator:type": "government",
                "amenity": "school",
                "note": "Parent RSPO: 105102"
            }
        },
        {
            "id": 279085,
            "type": "Feature",
            "geometry": {
                "type": "Point",
                "coordinates": [
                    17.57238,
                    53.70811
                ]
            },
            "properties": {
                "ref:rspo": 279085,
                "official_name": "Niepubliczne Przedszkole Integracyjne Akademia Pana Kleksa",
                "name": "Niepubliczne Przedszkole Integracyjne Akademia Pana Kleksa",
                "addr:postcode": "89-600",
                "addr:city": "Chojnice",
                "addr:street": "Jantarowa",
                "addr:housenumber": "4",
                "addr:city:simc": 928854,
                "addr:street:sym_ul": 7216,
                "email": "akademiapanakleksa.chojnice@gmail.com",
                "ref:regon": "520578305",
                "operator": "Yester Karwat",
                "operator:type": "private",
                "amenity": "kindergarten"
            }
        }
    ]
}