{
    "type": "FeatureCollection",
    "features": [
        {
            "id": 85819,
            "type": "Feature",
            "geometry": {
                "type": "Point",
                "coordinates": [
                    21.0709219,
                    51.404731
                ]
            },
            "properties": {
                "isced:level": "1;2",
                "ref:rspo": 85819,
                "official_name": "Publiczna Szko\u0142a Podstawowa w Cerekwi",
                "name": "Publiczna Szko\u0142a Podstawowa w Cerekwi",
                "addr:postcode": "26-652",
                "addr:city": "Cerekiew",
                "addr:street": "Weso\u0142a",
                "addr:housenumber": "2",
                "addr:city:simc": 642253,
                "addr:street:sym_ul": 23884,
                "phone": "+48 483699469",
                "email": "pspcerekiew@gmail.com",
                "website": "http:\/\/www.pspcerekiew.pl",
                "ref:regon": "001188804",
                "ref:vatin": "PL7962609133",
                "operator": "Gmina Zakrzew",
                "operator:type": "government",
                "amenity": "school"
            }
        },
        {
            "id": 49239,
            "type": "Feature",
            "geometry": {
                "type": "Point",
                "coordinates": [
                    21.09761,
                    51.4108
                ]
            },
            "properties": {
                "isced:level": "1;2",
                "ref:rspo": 49239,
                "official_name": "Publiczna Szko\u0142a Podstawowa w Bielisze",
                "name": "Publiczna Szko\u0142a Podstawowa w Bielisze",
                "addr:postcode": "26-600",
                "addr:city": "Bielicha",
                "addr:street": "Przytycka",
                "addr:housenumber": "184",
                "addr:city:simc": 642247,
                "addr:street:sym_ul": 18013,
                "phone": "+48 483778025",
                "email": "spbielicha@spbielicha.pl",
                "website": "http:\/\/pspbielicha.szkolnastrona.pl",
                "ref:regon": "670736966",
                "ref:vatin": "PL7962609104",
                "operator": "Gmina Zakrzew",
                "operator:type": "government",
                "amenity": "school"
            }
        },
        {
            "id": 274583,
            "type": "Feature",
            "geometry": {
                "type": "Point",
                "coordinates": [
                    21.09849,
                    51.41116
                ]
            },
            "properties": {
                "ref:rspo": 274583,
                "official_name": "Przedszkole Samorz\u0105dowe w Bielisze",
                "name": "Przedszkole Samorz\u0105dowe w Bielisze",
                "addr:postcode": "26-600",
                "addr:city": "Bielicha",
                "addr:street": "Ksi\u0119dza Bogdana Szczepanika",
                "addr:housenumber": "2",
                "addr:city:simc": 642247,
                "addr:street:sym_ul": 55808,
                "phone": "+48 483778014",
                "email": "psbielicha@zakrzew.pl",
                "website": "http:\/\/psbielicha.szkolnastrona.pl",
                "ref:regon": "385999169",
                "ref:vatin": "PL7962996377",
                "operator": "Gmina Zakrzew",
                "operator:type": "government",
                "amenity": "kindergarten"
            }
        },
        {
            "id": 104648,
            "type": "Feature",
            "geometry": {
                "type": "Point",
                "coordinates": [
                    21.03687,
                    51.4277
                ]
            },
            "properties": {
                "isced:level": "1;2",
                "ref:rspo": 104648,
                "official_name": "Publiczna Szko\u0142a Podstawowa im. J. Kochanowskiego w Zakrzewie Szko\u0142a Filialna w Mleczkowie",
                "name": "Publiczna Szko\u0142a Podstawowa",
                "addr:postcode": "26-652",
                "addr:city": "Mleczk\u00f3w",
                "addr:street": "Szkolna",
                "addr:housenumber": "22",
                "addr:city:simc": 642537,
                "addr:street:sym_ul": 21970,
                "phone": "+48 486105125",
                "email": "psp.zakrzew-interszkola@wp.pl",
                "website": "http:\/\/psp-zakrzew.pl",
                "ref:regon": "725200000",
                "ref:vatin": "PL7962609156",
                "operator": "Gmina Zakrzew",
                "operator:type": "government",
                "amenity": "school",
                "note": "Parent RSPO: 84857"
            }
        },
        {
            "id": 57072,
            "type": "Feature",
            "geometry": {
                "type": "Point",
                "coordinates": [
                    20.9517099,
                    51.43733
                ]
            },
            "properties": {
                "ref:rspo": 57072,
                "official_name": "Przedszkole Samorz\u0105dowe w Zakrzewie",
                "name": "Przedszkole Samorz\u0105dowe w Zakrzewie",
                "addr:postcode": "26-652",
                "addr:place": "Zakrzew",
                "addr:housenumber": "1",
                "addr:city:simc": 642678,
                "phone": "+48 486105110",
                "email": "przedszkole.zakrzew@interia.pl",
                "website": "http:\/\/www.przedszkolezakrzew.pl",
                "ref:regon": "670837182",
                "ref:vatin": "PL7961810896",
                "operator": "Gmina Zakrzew",
                "operator:type": "government",
                "amenity": "kindergarten"
            }
        },
        {
            "id": 84857,
            "type": "Feature",
            "geometry": {
                "type": "Point",
                "coordinates": [
                    21.00187,
                    51.4456599
                ]
            },
            "properties": {
                "isced:level": "1;2",
                "ref:rspo": 84857,
                "official_name": "Publiczna Szko\u0142a Podstawowa Im Jana Kochanowskiego w Zakrzewie",
                "name": "Publiczna Szko\u0142a Podstawowa Im Jana Kochanowskiego w Zakrzewie",
                "addr:postcode": "26-652",
                "addr:place": "Zakrzew",
                "addr:housenumber": "58D",
                "addr:city:simc": 642678,
                "phone": "+48 486105125",
                "email": "psp.zakrzew-interszkola@wp.pl",
                "website": "http:\/\/psp-zakrzew.pl",
                "ref:regon": "000725200",
                "ref:vatin": "PL7962609185",
                "operator": "Gmina Zakrzew",
                "operator:type": "government",
                "amenity": "school",
                "note": "Children RSPO: 104648"
            }
        },
        {
            "id": 55621,
            "type": "Feature",
            "geometry": {
                "type": "Point",
                "coordinates": [
                    21.04517,
                    51.4492
                ]
            },
            "properties": {
                "isced:level": "1;2",
                "ref:rspo": 55621,
                "official_name": "Publiczna Szko\u0142a Podstawowa im. Jana Paw\u0142a II w Woli Taczowskiej",
                "name": "Publiczna Szko\u0142a Podstawowa",
                "addr:postcode": "26-652",
                "addr:place": "Wola Taczowska",
                "addr:housenumber": "11B",
                "addr:city:simc": 642661,
                "phone": "+48 486105263",
                "email": "taczewszk@wp.pl",
                "ref:regon": "670734884",
                "ref:vatin": "PL7962609127",
                "operator": "Gmina Zakrzew",
                "operator:type": "government",
                "amenity": "school"
            }
        },
        {
            "id": 263879,
            "type": "Feature",
            "geometry": {
                "type": "Point",
                "coordinates": [
                    21.04414,
                    51.46324
                ]
            },
            "properties": {
                "ref:rspo": 263879,
                "official_name": "Przedszkole Niepubliczne \"Hania\" Stanis\u0142aw \u015alusarczyk",
                "name": "Przedszkole Niepubliczne \"Hania\" Stanis\u0142aw \u015alusarczyk",
                "addr:postcode": "26-652",
                "addr:place": "Zakrzew",
                "addr:housenumber": "54",
                "addr:city:simc": 642678,
                "phone": "+48 506463626",
                "email": "przedszkolehania@gmail.com",
                "ref:regon": "368232372",
                "ref:vatin": "PL7961566605",
                "operator": "Stanis\u0142aw \u015alusarczyk",
                "operator:type": "private",
                "amenity": "kindergarten"
            }
        },
        {
            "id": 89390,
            "type": "Feature",
            "geometry": {
                "type": "Point",
                "coordinates": [
                    21.04988,
                    51.47754
                ]
            },
            "properties": {
                "isced:level": "1;2",
                "ref:rspo": 89390,
                "official_name": "Publiczna Szko\u0142a Podstawowa im. Or\u0142a Bia\u0142ego w D\u0105br\u00f3wce Pod\u0142\u0119\u017cnej",
                "name": "Publiczna Szko\u0142a Podstawowa",
                "addr:postcode": "26-652",
                "addr:place": "D\u0105br\u00f3wka Pod\u0142\u0119\u017cna",
                "addr:housenumber": "29B",
                "addr:city:simc": 642313,
                "phone": "+48 486107289",
                "email": "psp_dabrowka@op.pl",
                "website": "http:\/\/www.pspdabrowkapodlezna.pl",
                "ref:regon": "001194147",
                "ref:vatin": "PL7962609162",
                "operator": "Gmina Zakrzew",
                "operator:type": "government",
                "amenity": "school"
            }
        }
    ]
}