{
    "type": "FeatureCollection",
    "features": [
        {
            "id": 30843,
            "type": "Feature",
            "geometry": {
                "type": "Point",
                "coordinates": [
                    21.29617,
                    51.25389
                ]
            },
            "properties": {
                "isced:level": "1;2",
                "ref:rspo": 30843,
                "official_name": "Publiczna Szko\u0142a Podstawowa w Dzierzk\u00f3wku Starym",
                "name": "Publiczna Szko\u0142a Podstawowa w Dzierzk\u00f3wku Starym",
                "addr:postcode": "26-640",
                "addr:place": "Dzierzk\u00f3wek Stary",
                "addr:housenumber": "90",
                "addr:teryt:simc": 637364,
                "phone": "+48 486103205",
                "email": "psp.dzierzkowek@wp.pl",
                "website": "http:\/\/pspdzierzkowek.pl",
                "ref:regon": "001194584",
                "ref:vatin": "PL7962585042",
                "operator": "Gmina Skaryszew",
                "operator:type": "government",
                "amenity": "school"
            }
        },
        {
            "id": 30845,
            "type": "Feature",
            "geometry": {
                "type": "Point",
                "coordinates": [
                    21.24382,
                    51.2582499
                ]
            },
            "properties": {
                "isced:level": "1;2",
                "ref:rspo": 30845,
                "official_name": "Publiczna Szko\u0142a Podstawowa w Modrzejowicach",
                "name": "Publiczna Szko\u0142a Podstawowa w Modrzejowicach",
                "addr:postcode": "26-640",
                "addr:place": "Modrzejowice",
                "addr:housenumber": "68",
                "addr:teryt:simc": 637192,
                "phone": "+48 486103081",
                "email": "modrzejowice@vp.pl",
                "website": "http:\/\/www.pspmodrzejowice.skaryszew.pl",
                "ref:regon": "670124536",
                "ref:vatin": "PL7962585036",
                "operator": "Gmina Skaryszew",
                "operator:type": "government",
                "amenity": "school"
            }
        },
        {
            "id": 123473,
            "type": "Feature",
            "geometry": {
                "type": "Point",
                "coordinates": [
                    21.30628,
                    51.2805
                ]
            },
            "properties": {
                "isced:level": "1;2",
                "ref:rspo": 123473,
                "official_name": "Publiczna Szko\u0142a Podstawowa w Odechowie Filia w W\u00f3lce Twarogowej",
                "name": "Publiczna Szko\u0142a Podstawowa w Odechowie Filia w W\u00f3lce Twarogowej",
                "addr:postcode": "26-640",
                "addr:place": "W\u00f3lka Twarogowa",
                "addr:housenumber": "21",
                "addr:teryt:simc": 637401,
                "email": "odechow.szkola@interia.pl",
                "website": "http:\/\/spodechow.strefa.pl",
                "ref:regon": "119642000",
                "ref:vatin": "PL7962585013",
                "operator": "Gmina Skaryszew",
                "operator:type": "government",
                "amenity": "school",
                "note": "Parent RSPO: 84325"
            }
        },
        {
            "id": 30841,
            "type": "Feature",
            "geometry": {
                "type": "Point",
                "coordinates": [
                    21.183,
                    51.28665
                ]
            },
            "properties": {
                "isced:level": "1;2",
                "ref:rspo": 30841,
                "official_name": "Publiczna Szko\u0142a Podstawowa Im Wandy Chotomskiej w Chomentowie Puszcz",
                "name": "Publiczna Szko\u0142a Podstawowa Im Wandy Chotomskiej w Chomentowie Puszcz",
                "addr:postcode": "26-640",
                "addr:city": "Choment\u00f3w-Puszcz",
                "addr:street": "Ogrodowa",
                "addr:housenumber": "1",
                "addr:teryt:simc": 636844,
                "addr:teryt:sym_ul": 14834,
                "phone": "+48 483260777",
                "email": "psp.chomentow@onet.eu",
                "website": "http:\/\/www.pspchomentow.szkolnastrona.pl",
                "ref:regon": "001196413",
                "ref:vatin": "PL7962585071",
                "operator": "Gmina Skaryszew",
                "operator:type": "government",
                "amenity": "school"
            }
        },
        {
            "id": 84325,
            "type": "Feature",
            "geometry": {
                "type": "Point",
                "coordinates": [
                    21.31937,
                    51.30433
                ]
            },
            "properties": {
                "isced:level": "1;2",
                "ref:rspo": 84325,
                "official_name": "Publiczna Szko\u0142a Podstawowa Im W\u0142adys\u0142awa Stanis\u0142awa Reymonta w Odechowie",
                "name": "Publiczna Szko\u0142a Podstawowa Im W\u0142adys\u0142awa Stanis\u0142awa Reymonta w Odechowie",
                "addr:postcode": "26-640",
                "addr:place": "Odech\u00f3w",
                "addr:housenumber": "77",
                "addr:teryt:simc": 637306,
                "phone": "+48 486103302",
                "email": "odechow.szkola@interia.pl",
                "website": "http:\/\/www.pspodechow.edupage.org",
                "ref:regon": "001196420",
                "ref:vatin": "PL7962585013",
                "operator": "Gmina Skaryszew",
                "operator:type": "government",
                "amenity": "school",
                "note": "Children RSPO: 123473"
            }
        },
        {
            "id": 30847,
            "type": "Feature",
            "geometry": {
                "type": "Point",
                "coordinates": [
                    21.2499499,
                    51.30796
                ]
            },
            "properties": {
                "ref:rspo": 30847,
                "official_name": "Samorz\u0105dowe Przedszkole im. S.gabrieli Sporniak w Skaryszewie",
                "name": "Samorz\u0105dowe Przedszkole",
                "addr:postcode": "26-640",
                "addr:city": "Skaryszew",
                "addr:street": "Wojska Polskiego",
                "addr:housenumber": "5",
                "addr:teryt:simc": 973820,
                "addr:teryt:sym_ul": 24628,
                "phone": "+48 486103079",
                "email": "skaryszew.przedszkole@interia.pl",
                "website": "http:\/\/spskaryszew.szkolnastrona.pl",
                "ref:regon": "670905363",
                "ref:vatin": "PL7962585102",
                "operator": "Gmina Skaryszew",
                "operator:type": "government",
                "amenity": "kindergarten"
            }
        },
        {
            "id": 30844,
            "type": "Feature",
            "geometry": {
                "type": "Point",
                "coordinates": [
                    21.18433,
                    51.3498
                ]
            },
            "properties": {
                "isced:level": "1;2",
                "ref:rspo": 30844,
                "official_name": "Publiczna Szko\u0142a Podstawowa im. Or\u0142a Bia\u0142ego w So\u0142tykowie",
                "name": "Publiczna Szko\u0142a Podstawowa",
                "addr:postcode": "26-640",
                "addr:city": "So\u0142tyk\u00f3w",
                "addr:street": "Adama Mickiewicza",
                "addr:housenumber": "2",
                "addr:teryt:simc": 637358,
                "addr:teryt:sym_ul": 12740,
                "phone": "+48 483664734",
                "email": "pspsoltykow@gmail.com",
                "website": "http:\/\/www.pspsoltykow.skaryszew.pl",
                "ref:regon": "001194590",
                "ref:vatin": "PL7962585088",
                "operator": "Gmina Skaryszew",
                "operator:type": "government",
                "amenity": "school"
            }
        },
        {
            "id": 87339,
            "type": "Feature",
            "geometry": {
                "type": "Point",
                "coordinates": [
                    21.2146,
                    51.3506799
                ]
            },
            "properties": {
                "isced:level": "1;2",
                "ref:rspo": 87339,
                "official_name": "Publiczna Szko\u0142a Podstawowa im.kardyna\u0142a Stefana Wyszy\u0144skiego w Makowcu",
                "name": "Publiczna Szko\u0142a Podstawowa im.kardyna\u0142a Stefana Wyszy\u0144skiego w Makowcu",
                "addr:postcode": "26-640",
                "addr:city": "Makowiec",
                "addr:street": "Ko\u015bcielna",
                "addr:housenumber": "2",
                "addr:teryt:simc": 637074,
                "addr:teryt:sym_ul": 9546,
                "phone": "+48 486104415",
                "email": "psp.makowiec@onet.pl",
                "website": "http:\/\/szkolamakowiec.skaryszew.pl",
                "ref:regon": "670126185",
                "ref:vatin": "PL7962586685",
                "operator": "Gmina Skaryszew",
                "operator:type": "government",
                "amenity": "school"
            }
        },
        {
            "id": 125008,
            "type": "Feature",
            "geometry": {
                "type": "Point",
                "coordinates": [
                    21.20834,
                    51.35664
                ]
            },
            "properties": {
                "ref:rspo": 125008,
                "official_name": "Niepubliczne Przedszkole Madagaskar",
                "name": "Niepubliczne Przedszkole Madagaskar",
                "addr:postcode": "26-640",
                "addr:city": "Makowiec",
                "addr:street": "Armii Krajowej",
                "addr:housenumber": "2",
                "addr:teryt:simc": 637074,
                "addr:teryt:sym_ul": 432,
                "email": "ingpiaseckaelzbieta@interia.pl",
                "website": "http:\/\/www.przedszkolemadagaskar.pl",
                "ref:regon": "147420343",
                "ref:vatin": "PL9481075541",
                "operator": "El\u017cbieta Piasecka",
                "operator:type": "private",
                "amenity": "kindergarten"
            }
        },
        {
            "id": 84324,
            "type": "Feature",
            "geometry": {
                "type": "Point",
                "coordinates": [
                    21.20862,
                    51.3573499
                ]
            },
            "properties": {
                "isced:level": "1;2",
                "ref:rspo": 84324,
                "official_name": "Publiczna Szko\u0142a Podstawowa Im Orl\u0105t Lwowskich w Skaryszewie",
                "name": "Publiczna Szko\u0142a Podstawowa Im Orl\u0105t Lwowskich w Skaryszewie",
                "addr:postcode": "26-640",
                "addr:city": "Skaryszew",
                "addr:street": "Boles\u0142awa Prusa",
                "addr:housenumber": "5",
                "addr:teryt:simc": 973820,
                "addr:teryt:sym_ul": 17577,
                "phone": "+48 486103019",
                "email": "szkola_skaryszew@interia.pl",
                "website": "http:\/\/pspskaryszew.edupage.org",
                "ref:regon": "000261551",
                "ref:vatin": "PL7962584999",
                "operator": "Gmina Skaryszew",
                "operator:type": "government",
                "amenity": "school"
            }
        },
        {
            "id": 30842,
            "type": "Feature",
            "geometry": {
                "type": "Point",
                "coordinates": [
                    21.157363891602,
                    51.406253814697
                ]
            },
            "properties": {
                "isced:level": "1;2",
                "ref:rspo": 30842,
                "official_name": "Publiczna Szko\u0142a Podstawowa im. Kornela Makuszy\u0144skiego w Makowie",
                "name": "Publiczna Szko\u0142a Podstawowa",
                "addr:postcode": "26-640",
                "addr:place": "Mak\u00f3w",
                "addr:housenumber": "6",
                "addr:teryt:simc": 637105,
                "phone": "+48 486104358",
                "ref:regon": "001194578",
                "ref:vatin": "PL7962585059",
                "operator": "Gmina Skaryszew",
                "operator:type": "government",
                "amenity": "school"
            }
        }
    ]
}