{
    "type": "FeatureCollection",
    "features": [
        {
            "id": 42202,
            "type": "Feature",
            "geometry": {
                "type": "Point",
                "coordinates": [
                    21.1863,
                    51.11909
                ]
            },
            "properties": {
                "isced:level": "1;2",
                "ref:rspo": 42202,
                "official_name": "Szko\u0142a Podstawowa im. II Brygady Al \"\u015awit\" w Jasie\u0144cu I\u0142\u017ceckim",
                "name": "Szko\u0142a Podstawowa",
                "addr:country": "PL",
                "addr:postcode": "27-100",
                "addr:place": "Jasieniec I\u0142\u017cecki G\u00f3rny",
                "addr:housenumber": "75",
                "addr:teryt:sym_ul": 622718,
                "contact:phone": "+48 486160022",
                "contact:email": "szkolajasieniec2@o2.pl",
                "contact:website": "http:\/\/sp-jasieniecilzecki.edu.pl",
                "ref:regon": "001195069",
                "ref:vatin": "PL7962974476",
                "operator": "Gmina I\u0142\u017ca",
                "operator:type": "government",
                "amenity": "school"
            }
        },
        {
            "id": 80711,
            "type": "Feature",
            "geometry": {
                "type": "Point",
                "coordinates": [
                    21.24416,
                    51.13104
                ]
            },
            "properties": {
                "isced:level": "1;2",
                "ref:rspo": 80711,
                "official_name": "Szko\u0142a Podstawowa im. W\u0142adys\u0142awa D\u0105bka \"Bukowego\" w B\u0142azinach Dolnych",
                "name": "Szko\u0142a Podstawowa",
                "addr:country": "PL",
                "addr:postcode": "27-100",
                "addr:place": "B\u0142aziny Dolne",
                "addr:housenumber": "163",
                "addr:teryt:sym_ul": 622552,
                "contact:phone": "+48 486162304",
                "contact:email": "szkolabukowy@wp.pl",
                "ref:regon": "001195081",
                "ref:vatin": "PL7962974499",
                "operator": "Gmina I\u0142\u017ca",
                "operator:type": "government",
                "amenity": "school"
            }
        },
        {
            "id": 92550,
            "type": "Feature",
            "geometry": {
                "type": "Point",
                "coordinates": [
                    21.30097,
                    51.13182
                ]
            },
            "properties": {
                "isced:level": "1;2",
                "ref:rspo": 92550,
                "official_name": "Szko\u0142a Podstawowa Stowarzyszenia Rozwoju Wsi Maziarze Stare I Okolic w Maziarzach Starych",
                "name": "Szko\u0142a Podstawowa Stowarzyszenia Rozwoju Wsi Maziarze Stare I Okolic w Maziarzach Starych",
                "addr:country": "PL",
                "addr:postcode": "27-100",
                "addr:place": "Maziarze Stare",
                "addr:housenumber": "40",
                "addr:teryt:sym_ul": 623534,
                "contact:phone": "+48 483341415",
                "contact:email": "pspmaziarze@interia.pl",
                "ref:regon": "146444979",
                "ref:vatin": "PL7962461558",
                "operator": "Stowarzyszenie Rozwoju Wsi Maziarze Stare I Okolic",
                "operator:type": "ngo",
                "amenity": "school"
            }
        },
        {
            "id": 80964,
            "type": "Feature",
            "geometry": {
                "type": "Point",
                "coordinates": [
                    21.29493,
                    51.13353
                ]
            },
            "properties": {
                "ref:rspo": 80964,
                "official_name": "Ma\u0142e Przedszkole",
                "name": "Ma\u0142e Przedszkole",
                "addr:country": "PL",
                "addr:postcode": "27-100",
                "addr:place": "Maziarze Stare",
                "addr:housenumber": "24A",
                "addr:teryt:sym_ul": 623534,
                "contact:phone": "+48 483341415",
                "contact:email": "mpmaziarze40@wp.pl",
                "ref:regon": "146445306",
                "ref:vatin": "PL7962461558",
                "operator": "Stowarzyszenie Rozwoju Wsi Maziarze Stare I Okolic",
                "operator:type": "ngo",
                "amenity": "kindergarten"
            }
        },
        {
            "id": 43573,
            "type": "Feature",
            "geometry": {
                "type": "Point",
                "coordinates": [
                    21.1853,
                    51.15175
                ]
            },
            "properties": {
                "isced:level": "1;2",
                "ref:rspo": 43573,
                "official_name": "Szko\u0142a Podstawowa im. Ludwika Kupczyka w Seredzicach",
                "name": "Szko\u0142a Podstawowa",
                "addr:country": "PL",
                "addr:postcode": "27-100",
                "addr:place": "Seredzice",
                "addr:housenumber": "107",
                "addr:teryt:sym_ul": 623400,
                "contact:phone": "+48 486162980",
                "contact:email": "pspseredzice@tlen.pl",
                "contact:website": "http:\/\/www.pspseredzice@tlen.pl",
                "ref:regon": "001195075",
                "ref:vatin": "PL7962974482",
                "operator": "Gmina I\u0142\u017ca",
                "operator:type": "government",
                "amenity": "school"
            }
        },
        {
            "id": 42539,
            "type": "Feature",
            "geometry": {
                "type": "Point",
                "coordinates": [
                    21.2337,
                    51.15771
                ]
            },
            "properties": {
                "ref:rspo": 42539,
                "official_name": "Samorz\u0105dowe Przedszkole w I\u0142\u017cy",
                "name": "Samorz\u0105dowe Przedszkole w I\u0142\u017cy",
                "addr:country": "PL",
                "addr:postcode": "27-100",
                "addr:city": "I\u0142\u017ca",
                "addr:street": "os. Stanis\u0142awa Staszica",
                "addr:housenumber": "14",
                "addr:teryt:simc": 21069,
                "addr:teryt:sym_ul": 973375,
                "contact:phone": "+48 486162686",
                "contact:email": "przedszkoleilza@wp.pl",
                "ref:regon": "670128712",
                "ref:vatin": "PL7962409150",
                "operator": "Gmina I\u0142\u017ca",
                "operator:type": "government",
                "amenity": "kindergarten"
            }
        },
        {
            "id": 6220,
            "type": "Feature",
            "geometry": {
                "type": "Point",
                "coordinates": [
                    21.23406,
                    51.15967
                ]
            },
            "properties": {
                "ref:rspo": 6220,
                "official_name": "Poradnia Psychologiczno-Pedagogiczna w I\u0142\u017cy",
                "name": "Poradnia Psychologiczno-Pedagogiczna w I\u0142\u017cy",
                "addr:country": "PL",
                "addr:postcode": "27-100",
                "addr:city": "I\u0142\u017ca",
                "addr:street": "ul. Maksymiliana Jakubowskiego",
                "addr:housenumber": "5",
                "addr:teryt:simc": 7090,
                "addr:teryt:sym_ul": 973375,
                "contact:phone": "+48 486163513",
                "contact:email": "ppped1@wp.pl",
                "contact:website": "http:\/\/pppilza.szkolnastrona.pl",
                "ref:regon": "670965230",
                "operator": "Powiat Radomski",
                "operator:type": "government",
                "healthcare": "counselling",
                "counselling_type": "education",
                "fixme": "w zale\u017cno\u015bci od przedmiotu dzia\u0142alno\u015bci (np. healthcare=counselling + counselling_type=education albo healthcare=psychotherapist)"
            }
        },
        {
            "id": 6202,
            "type": "Feature",
            "geometry": {
                "type": "Point",
                "coordinates": [
                    21.23987,
                    51.16032
                ]
            },
            "properties": {
                "ref:rspo": 6202,
                "official_name": "Zesp\u00f3\u0142 Szk\u00f3\u0142 Ponadpodstawowych im.stanis\u0142awa Staszica w I\u0142\u017cy",
                "name": "Zesp\u00f3\u0142 Szk\u00f3\u0142 Ponadpodstawowych im.stanis\u0142awa Staszica w I\u0142\u017cy",
                "addr:country": "PL",
                "addr:postcode": "27-100",
                "addr:city": "I\u0142\u017ca",
                "addr:street": "ul. B\u0142azi\u0144ska",
                "addr:housenumber": "5",
                "addr:teryt:simc": 1446,
                "addr:teryt:sym_ul": 973375,
                "contact:phone": "+48 486163037",
                "contact:email": "zspilza@zspilza.pl",
                "contact:website": "http:\/\/zspilza.pl",
                "ref:regon": "000025431",
                "ref:vatin": "PL7962526602",
                "operator": "Powiat Radomski",
                "operator:type": "government",
                "landuse": "education",
                "fixme": "amenity=school, amenity=college albo landuse=education w zale\u017cno\u015bci od tego, jakie plac\u00f3wki wchodz\u0105 w sk\u0142ad zespo\u0142u. Sprawd\u017a, kiedy stosowa\u0107 amenity=* a kiedy landuse=education.",
                "note": "Children RSPO: 8949;8950"
            }
        },
        {
            "id": 8949,
            "type": "Feature",
            "geometry": {
                "type": "Point",
                "coordinates": [
                    21.23987,
                    51.160289999999996
                ]
            },
            "properties": {
                "isced:level": "3",
                "ref:rspo": 8949,
                "official_name": "Technikum w I\u0142\u017cy",
                "name": "Technikum w I\u0142\u017cy",
                "addr:country": "PL",
                "addr:postcode": "27-100",
                "addr:city": "I\u0142\u017ca",
                "addr:street": "ul. B\u0142azi\u0144ska",
                "addr:housenumber": "5",
                "addr:teryt:simc": 1446,
                "addr:teryt:sym_ul": 973375,
                "contact:phone": "+48 486163037",
                "contact:email": "technikum@zspilza.pl",
                "contact:website": "http:\/\/zspilza.pl",
                "ref:regon": "672969806",
                "operator": "Powiat Radomski",
                "operator:type": "government",
                "amenity": "school",
                "note": "Parent RSPO: 6202"
            }
        },
        {
            "id": 8950,
            "type": "Feature",
            "geometry": {
                "type": "Point",
                "coordinates": [
                    21.23987,
                    51.16026
                ]
            },
            "properties": {
                "isced:level": "3",
                "ref:rspo": 8950,
                "official_name": "Bran\u017cowa Szko\u0142a I Stopnia w I\u0142\u017cy",
                "name": "Bran\u017cowa Szko\u0142a I Stopnia w I\u0142\u017cy",
                "addr:country": "PL",
                "addr:postcode": "27-100",
                "addr:city": "I\u0142\u017ca",
                "addr:street": "ul. B\u0142azi\u0144ska",
                "addr:housenumber": "5",
                "addr:teryt:simc": 1446,
                "addr:teryt:sym_ul": 973375,
                "contact:phone": "+48 486163037",
                "contact:email": "zasadnicza@zspilza.pl",
                "contact:website": "http:\/\/zspilza.pl",
                "ref:regon": "672969829",
                "operator": "Powiat Radomski",
                "operator:type": "government",
                "amenity": "school",
                "note": "Parent RSPO: 6202"
            }
        },
        {
            "id": 6243,
            "type": "Feature",
            "geometry": {
                "type": "Point",
                "coordinates": [
                    21.23464,
                    51.16038
                ]
            },
            "properties": {
                "isced:level": "3",
                "ref:rspo": 6243,
                "official_name": "Liceum Og\u00f3lnokszta\u0142c\u0105ce im.miko\u0142aja Kopernika w I\u0142\u017cy",
                "name": "Liceum Og\u00f3lnokszta\u0142c\u0105ce im.miko\u0142aja Kopernika w I\u0142\u017cy",
                "addr:country": "PL",
                "addr:postcode": "27-100",
                "addr:city": "I\u0142\u017ca",
                "addr:street": "ul. Jakuba Starszego",
                "addr:housenumber": "6",
                "addr:teryt:simc": 41697,
                "addr:teryt:sym_ul": 973375,
                "contact:phone": "+48 486163342",
                "contact:email": "lo@loilza.pl",
                "contact:website": "http:\/\/www.loilza.pl",
                "ref:regon": "000228418",
                "ref:vatin": "PL7961100976",
                "operator": "Powiat Radomski",
                "operator:type": "government",
                "amenity": "school"
            }
        },
        {
            "id": 80713,
            "type": "Feature",
            "geometry": {
                "type": "Point",
                "coordinates": [
                    21.23545,
                    51.16142
                ]
            },
            "properties": {
                "ref:rspo": 80713,
                "official_name": "Niepublicze Przedszkole\"Bajkowy Dworek\"",
                "name": "Niepublicze Przedszkole\"Bajkowy Dworek\"",
                "addr:country": "PL",
                "addr:postcode": "27-100",
                "addr:city": "I\u0142\u017ca",
                "addr:street": "ul. Kaleta",
                "addr:housenumber": "4",
                "addr:teryt:simc": 7795,
                "addr:teryt:sym_ul": 973375,
                "contact:phone": "+48 507184536",
                "contact:email": "bajkowydworek.ilza@gmail.com",
                "ref:regon": "146412896",
                "ref:vatin": "PL7961529886",
                "operator": "Aneta Wiatrowska-Heda",
                "operator:type": "private",
                "amenity": "kindergarten"
            }
        },
        {
            "id": 79702,
            "type": "Feature",
            "geometry": {
                "type": "Point",
                "coordinates": [
                    21.23652,
                    51.1644099
                ]
            },
            "properties": {
                "isced:level": "1;2",
                "ref:rspo": 79702,
                "official_name": "Szko\u0142a Podstawowa im.marsz. J. Pi\u0142sudskiego w I\u0142\u017cy",
                "name": "Szko\u0142a Podstawowa im.marsz. J. Pi\u0142sudskiego w I\u0142\u017cy",
                "addr:country": "PL",
                "addr:postcode": "27-100",
                "addr:city": "I\u0142\u017ca",
                "addr:street": "ul. W\u00f3jtowska",
                "addr:housenumber": "5",
                "addr:teryt:simc": 24795,
                "addr:teryt:sym_ul": 973375,
                "contact:phone": "+48 486163040",
                "contact:email": "pspilza@poczta.onet.pl",
                "contact:website": "http:\/\/www.pspilza.pl",
                "ref:regon": "001194727",
                "ref:vatin": "PL7962974803",
                "operator": "Gmina I\u0142\u017ca",
                "operator:type": "government",
                "amenity": "school"
            }
        },
        {
            "id": 277972,
            "type": "Feature",
            "geometry": {
                "type": "Point",
                "coordinates": [
                    21.3056051,
                    51.1662841
                ]
            },
            "properties": {
                "ref:rspo": 277972,
                "official_name": "Zesp\u00f3\u0142 Szk\u00f3\u0142 I Plac\u00f3wek w Chwa\u0142owicach",
                "name": "Zesp\u00f3\u0142 Szk\u00f3\u0142 I Plac\u00f3wek w Chwa\u0142owicach",
                "addr:country": "PL",
                "addr:postcode": "27-100",
                "addr:place": "Chwa\u0142owice",
                "addr:housenumber": "247",
                "addr:teryt:sym_ul": 622581,
                "contact:phone": "+48 486163049",
                "contact:email": "sekretariat@sosw-chwalowice.pl",
                "contact:website": "http:\/\/www.sosw-chwalowice.pl",
                "ref:regon": "389729580",
                "operator": "Powiat Radomski",
                "operator:type": "government",
                "landuse": "education",
                "fixme": "amenity=school, amenity=college albo landuse=education w zale\u017cno\u015bci od tego, jakie plac\u00f3wki wchodz\u0105 w sk\u0142ad zespo\u0142u. Sprawd\u017a, kiedy stosowa\u0107 amenity=* a kiedy landuse=education.",
                "note": "Children RSPO: 26934;274647;278000;278001"
            }
        },
        {
            "id": 274814,
            "type": "Feature",
            "geometry": {
                "type": "Point",
                "coordinates": [
                    21.3056051,
                    51.166254099999996
                ]
            },
            "properties": {
                "isced:level": "3",
                "ref:rspo": 274814,
                "official_name": "Bran\u017cowa Szko\u0142a I Stopnia Specjalna w Chwa\u0142owicach",
                "name": "Bran\u017cowa Szko\u0142a I Stopnia Specjalna w Chwa\u0142owicach",
                "addr:country": "PL",
                "addr:postcode": "27-100",
                "addr:place": "Chwa\u0142owice",
                "addr:housenumber": "247",
                "addr:teryt:sym_ul": 622581,
                "contact:phone": "+48 486163049",
                "contact:email": "sekretariat@sosw-chwalowice.pl",
                "contact:website": "http:\/\/sosw-chwalowice.pl",
                "ref:regon": "386312743",
                "operator": "Powiat Radomski",
                "operator:type": "government",
                "amenity": "school",
                "note": "Parent RSPO: 274647"
            }
        },
        {
            "id": 274815,
            "type": "Feature",
            "geometry": {
                "type": "Point",
                "coordinates": [
                    21.3056051,
                    51.1662241
                ]
            },
            "properties": {
                "isced:level": "1;2",
                "ref:rspo": 274815,
                "official_name": "Szko\u0142a Podstawowa Specjalna w Chwa\u0142owicach",
                "name": "Szko\u0142a Podstawowa Specjalna w Chwa\u0142owicach",
                "addr:country": "PL",
                "addr:postcode": "27-100",
                "addr:place": "Chwa\u0142owice",
                "addr:housenumber": "247",
                "addr:teryt:sym_ul": 622581,
                "contact:phone": "+48 486163049",
                "contact:email": "sekretariat@sosw-chwalowice.pl",
                "contact:website": "http:\/\/sosw-chwalowice.pl",
                "ref:regon": "386313145",
                "operator": "Powiat Radomski",
                "operator:type": "government",
                "amenity": "school",
                "note": "Parent RSPO: 274647"
            }
        },
        {
            "id": 274817,
            "type": "Feature",
            "geometry": {
                "type": "Point",
                "coordinates": [
                    21.3056051,
                    51.1661941
                ]
            },
            "properties": {
                "ref:rspo": 274817,
                "official_name": "Szko\u0142a Specjalna Przysposabiaj\u0105ca Do Pracy w Chwa\u0142owicach",
                "name": "Szko\u0142a Specjalna Przysposabiaj\u0105ca Do Pracy w Chwa\u0142owicach",
                "addr:country": "PL",
                "addr:postcode": "27-100",
                "addr:place": "Chwa\u0142owice",
                "addr:housenumber": "247",
                "addr:teryt:sym_ul": 622581,
                "contact:phone": "+48 486163049",
                "contact:email": "sekretariat@sosw-chwalowice.pl",
                "contact:website": "http:\/\/sosw-chwalowice.pl",
                "ref:regon": "386313642",
                "operator": "Powiat Radomski",
                "operator:type": "government",
                "amenity": "school",
                "note": "Parent RSPO: 274647"
            }
        },
        {
            "id": 26934,
            "type": "Feature",
            "geometry": {
                "type": "Point",
                "coordinates": [
                    21.3056051,
                    51.166164099999996
                ]
            },
            "properties": {
                "isced:level": "4",
                "ref:rspo": 26934,
                "official_name": "Szko\u0142a Policealna w Chwa\u0142owicach",
                "name": "Szko\u0142a Policealna w Chwa\u0142owicach",
                "addr:country": "PL",
                "addr:postcode": "27-100",
                "addr:place": "Chwa\u0142owice",
                "addr:housenumber": "247",
                "addr:teryt:sym_ul": 622581,
                "contact:phone": "+48 486163049",
                "contact:email": "sekretariat@sosw-chwalowice.pl",
                "ref:regon": "673012358",
                "operator": "Powiat Radomski",
                "operator:type": "government",
                "amenity": "college",
                "note": "Parent RSPO: 277972"
            }
        },
        {
            "id": 274647,
            "type": "Feature",
            "geometry": {
                "type": "Point",
                "coordinates": [
                    21.3056051,
                    51.1661341
                ]
            },
            "properties": {
                "ref:rspo": 274647,
                "official_name": "Specjalny O\u015brodek Szkolno-Wychowawczy w Chwa\u0142owicach",
                "name": "Specjalny O\u015brodek Szkolno-Wychowawczy w Chwa\u0142owicach",
                "addr:country": "PL",
                "addr:postcode": "27-100",
                "addr:place": "Chwa\u0142owice",
                "addr:housenumber": "247",
                "addr:teryt:sym_ul": 622581,
                "contact:phone": "+48 486163049",
                "contact:email": "sekretariat@sosw-chwalowice.pl",
                "contact:website": "http:\/\/sosw-chwalowice.pl",
                "ref:regon": "386136252",
                "operator": "Powiat Radomski",
                "operator:type": "government",
                "amenity": "school",
                "note": "Children RSPO: 274814;274815;274817Parent RSPO: 277972"
            }
        },
        {
            "id": 278000,
            "type": "Feature",
            "geometry": {
                "type": "Point",
                "coordinates": [
                    21.3056051,
                    51.1661041
                ]
            },
            "properties": {
                "ref:rspo": 278000,
                "official_name": "Centrum Kszta\u0142cenia Zawodowego w Chwa\u0142owicach",
                "name": "Centrum Kszta\u0142cenia Zawodowego w Chwa\u0142owicach",
                "addr:country": "PL",
                "addr:postcode": "27-100",
                "addr:place": "Chwa\u0142owice",
                "addr:housenumber": "247",
                "addr:teryt:sym_ul": 622581,
                "contact:phone": "+48 486163049",
                "contact:email": "sekretariat@sosw-chwalowice.pl",
                "ref:regon": "389746376",
                "operator": "Powiat Radomski",
                "operator:type": "government",
                "fixme": "w zale\u017cno\u015bci od przedmiotu dzia\u0142alno\u015bci (np. amenity=training + training=*, amenity=dancing_school, amenity=language_school, amenity=music_school) albo amenity=school, amenity=college, albo landuse=education w zale\u017cno\u015bci od tego, jakie plac\u00f3wki wchodz\u0105 w sk\u0142ad zespo\u0142u. Sprawd\u017a, kiedy stosowa\u0107 amenity=* a kiedy landuse=education.",
                "note": "Parent RSPO: 277972"
            }
        },
        {
            "id": 278001,
            "type": "Feature",
            "geometry": {
                "type": "Point",
                "coordinates": [
                    21.3056051,
                    51.166074099999996
                ]
            },
            "properties": {
                "ref:rspo": 278001,
                "official_name": "Specjalistyczna Poradnia Psychologiczno-Pedagogiczna w Chwa\u0142owicach",
                "name": "Specjalistyczna Poradnia Psychologiczno-Pedagogiczna w Chwa\u0142owicach",
                "addr:country": "PL",
                "addr:postcode": "27-100",
                "addr:place": "Chwa\u0142owice",
                "addr:housenumber": "247",
                "addr:teryt:sym_ul": 622581,
                "contact:phone": "+48 486163049",
                "contact:email": "sekretariat@sosw-chwalowice.pl",
                "ref:regon": "389746420",
                "operator": "Powiat Radomski",
                "operator:type": "government",
                "healthcare": "counselling",
                "counselling_type": "education",
                "fixme": "w zale\u017cno\u015bci od przedmiotu dzia\u0142alno\u015bci (np. healthcare=counselling + counselling_type=education albo healthcare=psychotherapist)",
                "note": "Parent RSPO: 277972"
            }
        },
        {
            "id": 80708,
            "type": "Feature",
            "geometry": {
                "type": "Point",
                "coordinates": [
                    21.17813,
                    51.19217
                ]
            },
            "properties": {
                "isced:level": "1;2",
                "ref:rspo": 80708,
                "official_name": "Szko\u0142a Podstawowa w Pakos\u0142awiu",
                "name": "Szko\u0142a Podstawowa w Pakos\u0142awiu",
                "addr:country": "PL",
                "addr:postcode": "27-100",
                "addr:place": "Pakos\u0142aw",
                "addr:housenumber": "54",
                "addr:teryt:sym_ul": 623095,
                "contact:phone": "+48 486162226",
                "contact:email": "psppakoslaw@op.pl",
                "contact:website": "http:\/\/pakoslaw-szkola.vdl.pl",
                "ref:regon": "001195098",
                "ref:vatin": "PL7961102455",
                "operator": "Gmina I\u0142\u017ca",
                "operator:type": "government",
                "amenity": "school"
            }
        },
        {
            "id": 80709,
            "type": "Feature",
            "geometry": {
                "type": "Point",
                "coordinates": [
                    21.23166,
                    51.19531
                ]
            },
            "properties": {
                "isced:level": "1;2",
                "ref:rspo": 80709,
                "official_name": "Szko\u0142a Podstawowa Stowarzyszenia Rozwoju Wsi Krzy\u017canowice I Okolic w Krzyzanowicach",
                "name": "Szko\u0142a Podstawowa Stowarzyszenia Rozwoju Wsi Krzy\u017canowice I Okolic w Krzyzanowicach",
                "addr:country": "PL",
                "addr:postcode": "27-100",
                "addr:place": "Krzy\u017canowice",
                "addr:housenumber": "137",
                "addr:teryt:sym_ul": 622842,
                "contact:phone": "+48 486162953",
                "contact:email": "pspkrzyzanowice@wp.pl",
                "contact:website": "http:\/\/www.pspkrzyzanowice.webd.pl",
                "ref:regon": "146401935",
                "ref:vatin": "PL7962462291",
                "operator": "Stowarzyszenie Rozwoju Wsi Krzy\u017canowice I Okolic",
                "operator:type": "ngo",
                "amenity": "school"
            }
        },
        {
            "id": 104966,
            "type": "Feature",
            "geometry": {
                "type": "Point",
                "coordinates": [
                    21.23166,
                    51.19528
                ]
            },
            "properties": {
                "ref:rspo": 104966,
                "official_name": "Niepubliczny Punkt Przedszkolny Stowarzyszenia Rozwoju Wsi Krzy\u017canowice I Okolic w Krzy\u017canowicach",
                "name": "Niepubliczny Punkt Przedszkolny Stowarzyszenia Rozwoju Wsi Krzy\u017canowice I Okolic w Krzy\u017canowicach",
                "addr:country": "PL",
                "addr:postcode": "27-100",
                "addr:place": "Krzy\u017canowice",
                "addr:housenumber": "137",
                "addr:teryt:sym_ul": 622842,
                "contact:phone": "+48 486162953",
                "contact:email": "pspkrzyzanowice@wp.pl",
                "ref:regon": "146450106",
                "ref:vatin": "PL7962462291",
                "operator": "Stowarzyszenie Rozwoju Wsi Krzy\u017canowice I Okolic",
                "operator:type": "ngo",
                "amenity": "kindergarten"
            }
        },
        {
            "id": 80712,
            "type": "Feature",
            "geometry": {
                "type": "Point",
                "coordinates": [
                    21.24869,
                    51.2267
                ]
            },
            "properties": {
                "isced:level": "1;2",
                "ref:rspo": 80712,
                "official_name": "Szko\u0142a Podstawowa Stowarzyszenia Rozwoju Wsi Alojz\u00f3w I Okolic",
                "name": "Szko\u0142a Podstawowa Stowarzyszenia Rozwoju Wsi Alojz\u00f3w I Okolic",
                "addr:country": "PL",
                "addr:postcode": "27-100",
                "addr:place": "Alojz\u00f3w",
                "addr:housenumber": "5",
                "addr:teryt:sym_ul": 622546,
                "contact:phone": "+48 486162394",
                "contact:email": "szkola.alojzow@wp.pl",
                "ref:regon": "146402260",
                "ref:vatin": "PL7962689161",
                "operator": "Stowarzyszenie Rozwoju Wsi Alojz\u00f3w I Okolic",
                "operator:type": "ngo",
                "amenity": "school"
            }
        },
        {
            "id": 80981,
            "type": "Feature",
            "geometry": {
                "type": "Point",
                "coordinates": [
                    21.24869,
                    51.22667
                ]
            },
            "properties": {
                "ref:rspo": 80981,
                "official_name": "Nasze Mazowieckie Ma\u0142e Przedszkole",
                "name": "Nasze Mazowieckie Ma\u0142e Przedszkole",
                "addr:country": "PL",
                "addr:postcode": "27-100",
                "addr:place": "Alojz\u00f3w",
                "addr:housenumber": "5",
                "addr:teryt:sym_ul": 622546,
                "contact:phone": "+48 486162394",
                "contact:email": "szkola.alojzow@wp.pl",
                "ref:regon": "146402076",
                "ref:vatin": "PL7962689161",
                "operator": "Stowarzyszenie Rozwoju Wsi Alojz\u00f3w I Okolic",
                "operator:type": "ngo",
                "amenity": "kindergarten"
            }
        }
    ]
}