{
    "type": "FeatureCollection",
    "features": [
        {
            "id": 107184,
            "type": "Feature",
            "geometry": {
                "type": "Point",
                "coordinates": [
                    21.03721,
                    51.35851
                ]
            },
            "properties": {
                "isced:level": "1;2",
                "ref:rspo": 107184,
                "official_name": "Publiczna Szko\u0142a Podstawowa im. Marii Konopnickiej w Augustowie",
                "name": "Publiczna Szko\u0142a Podstawowa",
                "addr:country": "PL",
                "addr:postcode": "26-670",
                "addr:place": "August\u00f3w",
                "addr:housenumber": "102B",
                "addr:teryt:sym_ul": 630505,
                "contact:phone": "+48 486123669",
                "contact:email": "augustsp@interia.pl",
                "contact:website": "http:\/\/bipaugustow.gmina-pionki.pl",
                "ref:regon": "670578444",
                "ref:vatin": "PL7962598955",
                "operator": "Gmina Pionki",
                "operator:type": "government",
                "amenity": "school"
            }
        },
        {
            "id": 107181,
            "type": "Feature",
            "geometry": {
                "type": "Point",
                "coordinates": [
                    21.5088,
                    51.41931
                ]
            },
            "properties": {
                "isced:level": "1;2",
                "ref:rspo": 107181,
                "official_name": "Publiczna Szko\u0142a Podstawowa im. Armii Krajowej w Suchej",
                "name": "Publiczna Szko\u0142a Podstawowa",
                "addr:country": "PL",
                "addr:postcode": "26-670",
                "addr:place": "Sucha",
                "addr:housenumber": "38a",
                "addr:teryt:sym_ul": 631048,
                "contact:phone": "+48 483818402",
                "contact:email": "sp-sucha@o2.pl",
                "contact:website": "http:\/\/bipsucha.gmina-pionki.pl",
                "ref:regon": "001196548",
                "ref:vatin": "PL7962598926",
                "operator": "Gmina Pionki",
                "operator:type": "government",
                "amenity": "school"
            }
        },
        {
            "id": 107183,
            "type": "Feature",
            "geometry": {
                "type": "Point",
                "coordinates": [
                    21.44046,
                    51.4309
                ]
            },
            "properties": {
                "isced:level": "1;2",
                "ref:rspo": 107183,
                "official_name": "Publiczna Szko\u0142a Podstawowa im. Stefana Czarnieckiego w Czarnej",
                "name": "Publiczna Szko\u0142a Podstawowa",
                "addr:country": "PL",
                "addr:postcode": "26-670",
                "addr:place": "Czarna Wie\u015b",
                "addr:housenumber": "5",
                "addr:teryt:sym_ul": 630592,
                "contact:phone": "+48 486121675",
                "contact:email": "pspczarna@op.pl",
                "contact:website": "http:\/\/www.pspczarna.pl",
                "ref:regon": "001196560",
                "ref:vatin": "PL7962598872",
                "operator": "Gmina Pionki",
                "operator:type": "government",
                "amenity": "school"
            }
        },
        {
            "id": 107174,
            "type": "Feature",
            "geometry": {
                "type": "Point",
                "coordinates": [
                    21.48047,
                    51.4538
                ]
            },
            "properties": {
                "ref:rspo": 107174,
                "official_name": "Publiczny Zesp\u00f3\u0142 Szk\u00f3\u0142 w Suskowoli",
                "name": "Publiczny Zesp\u00f3\u0142 Szk\u00f3\u0142 w Suskowoli",
                "addr:country": "PL",
                "addr:postcode": "26-670",
                "addr:place": "Suskowola",
                "addr:housenumber": "74",
                "addr:teryt:sym_ul": 631108,
                "contact:phone": "+48 486121645",
                "contact:email": "suskowola_pzs@op.pl",
                "ref:regon": "671960476",
                "ref:vatin": "PL7962922114",
                "operator": "Gmina Pionki",
                "operator:type": "government",
                "landuse": "education",
                "fixme": "amenity=school, amenity=college albo landuse=education w zale\u017cno\u015bci od tego, jakie plac\u00f3wki wchodz\u0105 w sk\u0142ad zespo\u0142u. Sprawd\u017a, kiedy stosowa\u0107 amenity=* a kiedy landuse=education.",
                "note": "Children RSPO: 107505;127890"
            }
        },
        {
            "id": 107505,
            "type": "Feature",
            "geometry": {
                "type": "Point",
                "coordinates": [
                    21.48047,
                    51.45377
                ]
            },
            "properties": {
                "isced:level": "1;2",
                "ref:rspo": 107505,
                "official_name": "Publiczna Szko\u0142a Podstawowa im. Tadeusza Ko\u015bciuszki w Suskowoli",
                "name": "Publiczna Szko\u0142a Podstawowa",
                "addr:country": "PL",
                "addr:postcode": "26-670",
                "addr:place": "Suskowola",
                "addr:housenumber": "74",
                "addr:teryt:sym_ul": 631108,
                "contact:phone": "+48 486121645",
                "contact:email": "suskowola_pzs@op.pl",
                "ref:regon": "001196212",
                "operator": "Gmina Pionki",
                "operator:type": "government",
                "amenity": "school",
                "note": "Parent RSPO: 107174"
            }
        },
        {
            "id": 127890,
            "type": "Feature",
            "geometry": {
                "type": "Point",
                "coordinates": [
                    21.47834,
                    51.45577
                ]
            },
            "properties": {
                "ref:rspo": 127890,
                "official_name": "Publiczne Przedszkole w Suskowoli",
                "name": "Publiczne Przedszkole w Suskowoli",
                "addr:country": "PL",
                "addr:postcode": "26-670",
                "addr:place": "Suskowola",
                "addr:housenumber": "75",
                "addr:teryt:sym_ul": 631108,
                "contact:phone": "+48 486121645",
                "contact:email": "suskowola_pzs@op.pl",
                "contact:website": "http:\/\/www.suskowola.pl",
                "ref:regon": "361954346",
                "operator": "Gmina Pionki",
                "operator:type": "government",
                "amenity": "kindergarten",
                "note": "Parent RSPO: 107174"
            }
        },
        {
            "id": 277932,
            "type": "Feature",
            "geometry": {
                "type": "Point",
                "coordinates": [
                    21.3623,
                    51.4651799
                ]
            },
            "properties": {
                "ref:rspo": 277932,
                "official_name": "Zesp\u00f3\u0142 Szkolno - Przedszkolny w Jedlni",
                "name": "Zesp\u00f3\u0142 Szkolno - Przedszkolny w Jedlni",
                "addr:country": "PL",
                "addr:postcode": "26-670",
                "addr:place": "Jedlnia",
                "addr:housenumber": "93",
                "addr:teryt:sym_ul": 630876,
                "contact:phone": "+48 486127121",
                "contact:email": "poczta@jedlnia.edu.pl",
                "contact:website": "http:\/\/bip.jedlnia.edu.pl",
                "ref:regon": "389674398",
                "operator": "Gmina Pionki",
                "operator:type": "government",
                "landuse": "education",
                "fixme": "amenity=school, amenity=college albo landuse=education w zale\u017cno\u015bci od tego, jakie plac\u00f3wki wchodz\u0105 w sk\u0142ad zespo\u0142u. Sprawd\u017a, kiedy stosowa\u0107 amenity=* a kiedy landuse=education.",
                "note": "Children RSPO: 107507;278397"
            }
        },
        {
            "id": 107507,
            "type": "Feature",
            "geometry": {
                "type": "Point",
                "coordinates": [
                    21.3623,
                    51.4651499
                ]
            },
            "properties": {
                "isced:level": "1;2",
                "ref:rspo": 107507,
                "official_name": "Publiczna Szko\u0142a Podstawowa im. W\u0142adys\u0142awa Jagie\u0142\u0142y w Jedlni",
                "name": "Publiczna Szko\u0142a Podstawowa",
                "addr:country": "PL",
                "addr:postcode": "26-670",
                "addr:place": "Jedlnia",
                "addr:housenumber": "93",
                "addr:teryt:sym_ul": 630876,
                "contact:phone": "+48 486127121",
                "contact:email": "poczta@jedlnia.edu.pl",
                "contact:website": "http:\/\/www.jedlnia.edu.pl",
                "ref:regon": "001196229",
                "ref:vatin": "PL7962922120",
                "operator": "Gmina Pionki",
                "operator:type": "government",
                "amenity": "school",
                "note": "Parent RSPO: 277932"
            }
        },
        {
            "id": 278397,
            "type": "Feature",
            "geometry": {
                "type": "Point",
                "coordinates": [
                    21.3623,
                    51.465119900000005
                ]
            },
            "properties": {
                "ref:rspo": 278397,
                "official_name": "Publiczne Przedszkole w Jedlni",
                "name": "Publiczne Przedszkole w Jedlni",
                "addr:country": "PL",
                "addr:postcode": "26-670",
                "addr:place": "Jedlnia",
                "addr:housenumber": "93",
                "addr:teryt:sym_ul": 630876,
                "contact:phone": "+48 486127121",
                "contact:email": "poczta@jedlnia.edu.pl",
                "contact:website": "https:\/\/jedlnia.edu.pl\/",
                "ref:regon": "389878586",
                "operator": "Gmina Pionki",
                "operator:type": "government",
                "amenity": "kindergarten",
                "note": "Parent RSPO: 277932"
            }
        },
        {
            "id": 107180,
            "type": "Feature",
            "geometry": {
                "type": "Point",
                "coordinates": [
                    21.51906,
                    51.47293
                ]
            },
            "properties": {
                "isced:level": "1;2",
                "ref:rspo": 107180,
                "official_name": "Publiczna Szko\u0142a Podstawowa im. J\u00f3zefa Pi\u0142sudskiego w Laskach",
                "name": "Publiczna Szko\u0142a Podstawowa",
                "addr:country": "PL",
                "addr:postcode": "26-670",
                "addr:place": "Laski",
                "addr:housenumber": "68",
                "addr:teryt:sym_ul": 630942,
                "contact:phone": "+48 486123622",
                "contact:email": "psplaski@vp.pl",
                "contact:website": "http:\/\/psplaski.pl",
                "ref:regon": "001196577",
                "ref:vatin": "PL7962598866",
                "operator": "Gmina Pionki",
                "operator:type": "government",
                "amenity": "school"
            }
        },
        {
            "id": 107179,
            "type": "Feature",
            "geometry": {
                "type": "Point",
                "coordinates": [
                    21.34638,
                    51.49236
                ]
            },
            "properties": {
                "isced:level": "1;2",
                "ref:rspo": 107179,
                "official_name": "Publiczna Szko\u0142a Podstawowa im. Jan Kochanowskiego w Jaroszkach",
                "name": "Publiczna Szko\u0142a Podstawowa",
                "addr:country": "PL",
                "addr:postcode": "26-670",
                "addr:place": "Jaroszki",
                "addr:housenumber": "21",
                "addr:teryt:sym_ul": 630793,
                "contact:phone": "+48 486127180",
                "contact:email": "szkolajaroszki@op.pl",
                "ref:regon": "001196554",
                "ref:vatin": "PL7962598889",
                "operator": "Gmina Pionki",
                "operator:type": "government",
                "amenity": "school"
            }
        }
    ]
}