{
    "type": "FeatureCollection",
    "features": [
        {
            "id": 109837,
            "type": "Feature",
            "geometry": {
                "type": "Point",
                "coordinates": [
                    21.21777,
                    51.40522
                ]
            },
            "properties": {
                "isced:level": "1;2",
                "ref:rspo": 109837,
                "official_name": "Publiczna Szko\u0142a Podstawowa im. Kornela Makuszy\u0144skiego w Natolinie",
                "name": "Publiczna Szko\u0142a Podstawowa",
                "addr:country": "PL",
                "addr:postcode": "26-613",
                "addr:place": "Natolin",
                "addr:housenumber": "59",
                "addr:teryt:sym_ul": 625496,
                "contact:phone": "+48 483863151",
                "contact:email": "pspnatolin@jedlnia.pl",
                "contact:website": "http:\/\/www.pspnatolin.edu.pl",
                "ref:regon": "001194450",
                "ref:vatin": "PL7962558915",
                "operator": "Gmina Jedlnia-Letnisko",
                "operator:type": "government",
                "amenity": "school"
            }
        },
        {
            "id": 2880,
            "type": "Feature",
            "geometry": {
                "type": "Point",
                "coordinates": [
                    21.38722,
                    51.41084
                ]
            },
            "properties": {
                "isced:level": "1;2",
                "ref:rspo": 2880,
                "official_name": "Publiczna Szko\u0142a Podstawowa im. Jana Brzechwy w S\u0142upicy",
                "name": "Publiczna Szko\u0142a Podstawowa",
                "addr:country": "PL",
                "addr:postcode": "26-630",
                "addr:place": "S\u0142upica",
                "addr:housenumber": "84",
                "addr:teryt:sym_ul": 625668,
                "contact:phone": "+48 572704049",
                "contact:email": "pspslupica@jedlnia.pl",
                "contact:website": "http:\/\/www.slupica.edu.pl",
                "ref:regon": "001194437",
                "ref:vatin": "PL7962558884",
                "operator": "Gmina Jedlnia-Letnisko",
                "operator:type": "government",
                "amenity": "school"
            }
        },
        {
            "id": 109598,
            "type": "Feature",
            "geometry": {
                "type": "Point",
                "coordinates": [
                    21.29051,
                    51.41324
                ]
            },
            "properties": {
                "isced:level": "1;2",
                "ref:rspo": 109598,
                "official_name": "Publiczna Szko\u0142a Podstawowa im.henryka Sienkiewicza w My\u015bliszewicach",
                "name": "Publiczna Szko\u0142a Podstawowa im.henryka Sienkiewicza w My\u015bliszewicach",
                "addr:country": "PL",
                "addr:postcode": "26-630",
                "addr:place": "My\u015bliszewice",
                "addr:housenumber": "15",
                "addr:teryt:sym_ul": 625480,
                "contact:phone": "+48 518524873",
                "contact:email": "zso@mysliszewice.edu.pl",
                "contact:website": "http:\/\/www.mysliszewice.edu.pl",
                "ref:regon": "001194443",
                "ref:vatin": "PL7962558915",
                "operator": "Gmina Jedlnia-Letnisko",
                "operator:type": "government",
                "amenity": "school"
            }
        },
        {
            "id": 273506,
            "type": "Feature",
            "geometry": {
                "type": "Point",
                "coordinates": [
                    21.29932,
                    51.41431
                ]
            },
            "properties": {
                "ref:rspo": 273506,
                "official_name": "Niepubliczne Przedszkole Niezapominajka",
                "name": "Niepubliczne Przedszkole Niezapominajka",
                "addr:country": "PL",
                "addr:postcode": "26-630",
                "addr:place": "My\u015bliszewice",
                "addr:housenumber": "2",
                "addr:teryt:sym_ul": 625480,
                "contact:phone": "+48 722082900",
                "contact:email": "biuro@niezapominajka.in",
                "ref:regon": "384484173",
                "ref:vatin": "PL7962697976",
                "operator": "Sylwia Krawczyk",
                "operator:type": "private",
                "amenity": "kindergarten"
            }
        },
        {
            "id": 2879,
            "type": "Feature",
            "geometry": {
                "type": "Point",
                "coordinates": [
                    21.3228257,
                    51.4345606
                ]
            },
            "properties": {
                "ref:rspo": 2879,
                "official_name": "Publiczne Przedszkole w Jedlni - Letnisko",
                "name": "Publiczne Przedszkole w Jedlni - Letnisko",
                "addr:country": "PL",
                "addr:postcode": "26-630",
                "addr:city": "Jedlnia-Letnisko",
                "addr:street": "S\u0142oneczna",
                "addr:housenumber": "5",
                "addr:door": "1",
                "addr:teryt:simc": 20254,
                "addr:teryt:sym_ul": 625444,
                "contact:phone": "+48 483848479",
                "contact:email": "jedlnia.przedszkole@gmail.com",
                "ref:regon": "146235158",
                "ref:vatin": "PL7962934666",
                "operator": "Gmina Jedlnia-Letnisko",
                "operator:type": "government",
                "amenity": "kindergarten"
            }
        },
        {
            "id": 109569,
            "type": "Feature",
            "geometry": {
                "type": "Point",
                "coordinates": [
                    21.3228257,
                    51.434530599999995
                ]
            },
            "properties": {
                "isced:level": "1;2",
                "ref:rspo": 109569,
                "official_name": "Publiczna Szko\u0142a Podstawowa im. Marsza\u0142ka J\u00f3zefa Pi\u0142sudskiego w Jedlni - Letnisko",
                "name": "Publiczna Szko\u0142a Podstawowa",
                "addr:country": "PL",
                "addr:postcode": "26-630",
                "addr:city": "Jedlnia-Letnisko",
                "addr:street": "S\u0142oneczna",
                "addr:housenumber": "5",
                "addr:teryt:simc": 20254,
                "addr:teryt:sym_ul": 625444,
                "contact:phone": "+48 483848481",
                "contact:email": "pspjedlnia@jedlnia.pl",
                "contact:website": "http:\/\/pspjedlnia.edupage.org",
                "ref:regon": "000267890",
                "operator": "Gmina Jedlnia-Letnisko",
                "operator:type": "government",
                "amenity": "school"
            }
        },
        {
            "id": 132079,
            "type": "Feature",
            "geometry": {
                "type": "Point",
                "coordinates": [
                    21.31379,
                    51.435
                ]
            },
            "properties": {
                "ref:rspo": 132079,
                "official_name": "Niepubliczne Przedszkole Angloj\u0119zyczne-Happy Kids Magdalena Kuliczkowska",
                "name": "Niepubliczne Przedszkole Angloj\u0119zyczne-Happy Kids Magdalena Kuliczkowska",
                "addr:country": "PL",
                "addr:postcode": "26-630",
                "addr:city": "Jedlnia-Letnisko",
                "addr:street": "Radomska",
                "addr:housenumber": "95A",
                "addr:teryt:simc": 18316,
                "addr:teryt:sym_ul": 625444,
                "contact:phone": "+48 697314553",
                "contact:email": "happy.kids@vp.pl",
                "ref:regon": "365453658",
                "ref:vatin": "PL7962632267",
                "operator": "Magdalena Kuliczkowska",
                "operator:type": "private",
                "amenity": "kindergarten"
            }
        }
    ]
}