{
    "type": "FeatureCollection",
    "features": [
        {
            "id": 4815,
            "type": "Feature",
            "geometry": {
                "type": "Point",
                "coordinates": [
                    21.11442,
                    51.22736
                ]
            },
            "properties": {
                "ref:rspo": 4815,
                "official_name": "Gminne Przedszkole Publiczne w Polanach",
                "name": "Gminne Przedszkole Publiczne w Polanach",
                "addr:postcode": "26-680",
                "addr:place": "Polany",
                "addr:housenumber": "60",
                "addr:door": "C",
                "addr:teryt:simc": 641035,
                "phone": "+48 519671022",
                "email": "grazyna.gozdz@wp.pl",
                "ref:regon": "670921920",
                "ref:vatin": "PL9482326086",
                "operator": "Gmina Wierzbica",
                "operator:type": "government",
                "amenity": "kindergarten",
                "note": "Parent RSPO: 275454"
            }
        },
        {
            "id": 275459,
            "type": "Feature",
            "geometry": {
                "type": "Point",
                "coordinates": [
                    21.15694,
                    51.24447
                ]
            },
            "properties": {
                "ref:rspo": 275459,
                "official_name": "Zesp\u00f3\u0142 Szkolno-Przedszkolny w \u0141\u0105czanach",
                "name": "Zesp\u00f3\u0142 Szkolno-Przedszkolny w \u0141\u0105czanach",
                "addr:postcode": "26-680",
                "addr:place": "\u0141\u0105czany",
                "addr:housenumber": "41A",
                "addr:teryt:simc": 641006,
                "phone": "+48 486182755",
                "email": "splaczany@poczta.onet.pl",
                "ref:regon": "386925658",
                "operator": "Gmina Wierzbica",
                "operator:type": "government",
                "landuse": "education",
                "fixme": "amenity=school, amenity=college albo landuse=education w zale\u017cno\u015bci od tego, jakie plac\u00f3wki wchodz\u0105 w sk\u0142ad zespo\u0142u. Sprawd\u017a, kiedy stosowa\u0107 amenity=* a kiedy landuse=education.",
                "note": "Children RSPO: 4809;4816"
            }
        },
        {
            "id": 4816,
            "type": "Feature",
            "geometry": {
                "type": "Point",
                "coordinates": [
                    21.15221,
                    51.24536
                ]
            },
            "properties": {
                "ref:rspo": 4816,
                "official_name": "Gminne Przedszkole Publiczne w \u0141\u0105czanach",
                "name": "Gminne Przedszkole Publiczne w \u0141\u0105czanach",
                "addr:postcode": "26-680",
                "addr:place": "\u0141\u0105czany",
                "addr:housenumber": "61",
                "addr:door": "A",
                "addr:teryt:simc": 641006,
                "phone": "+48 486183098",
                "email": "splaczany@poczta.onet.pl",
                "ref:regon": "670921942",
                "ref:vatin": "PL9482325744",
                "operator": "Gmina Wierzbica",
                "operator:type": "government",
                "amenity": "kindergarten",
                "note": "Parent RSPO: 275459"
            }
        },
        {
            "id": 4818,
            "type": "Feature",
            "geometry": {
                "type": "Point",
                "coordinates": [
                    21.07014,
                    51.24647
                ]
            },
            "properties": {
                "isced:level": "1;2",
                "ref:rspo": 4818,
                "official_name": "Publiczna Szko\u0142a Podstawowa im. St. \u017beromskiego",
                "name": "Publiczna Szko\u0142a Podstawowa",
                "addr:postcode": "26-680",
                "addr:city": "Wierzbica",
                "addr:street": "Stefana \u017beromskiego",
                "addr:housenumber": "62",
                "addr:teryt:simc": 641182,
                "addr:teryt:sym_ul": 26464,
                "phone": "+48 486182517",
                "email": "pspwierzbica8@gmail.com",
                "website": "http:\/\/psp-wierzbica.pl",
                "ref:regon": "000208278",
                "ref:vatin": "PL9482209073",
                "operator": "Gmina Wierzbica",
                "operator:type": "government",
                "amenity": "school"
            }
        },
        {
            "id": 6150,
            "type": "Feature",
            "geometry": {
                "type": "Point",
                "coordinates": [
                    21.06671,
                    51.24687
                ]
            },
            "properties": {
                "ref:rspo": 6150,
                "official_name": "M\u0142odzie\u017cowy O\u015brodek Wychowawczy w Wierzbicy",
                "name": "M\u0142odzie\u017cowy O\u015brodek Wychowawczy w Wierzbicy",
                "addr:postcode": "26-680",
                "addr:city": "Wierzbica",
                "addr:street": "Henryka Sienkiewicza",
                "addr:housenumber": "55",
                "addr:teryt:simc": 641182,
                "addr:teryt:sym_ul": 19830,
                "phone": "+48 486183174",
                "email": "mow87@mowwierzbica.lh.pl",
                "website": "http:\/\/www.mowwierzbica.lh.pl",
                "ref:regon": "146273578",
                "operator": "Powiat Radomski",
                "operator:type": "government",
                "fixme": "amenity=social_facility + social_facility=group_home + social_facility:for=juvenile",
                "note": "Children RSPO: 111164;196243"
            }
        },
        {
            "id": 111164,
            "type": "Feature",
            "geometry": {
                "type": "Point",
                "coordinates": [
                    21.06671,
                    51.24684
                ]
            },
            "properties": {
                "isced:level": "3",
                "ref:rspo": 111164,
                "official_name": "Bran\u017cowa Szko\u0142a I Stopnia Specjalna w Wierzbicy",
                "name": "Bran\u017cowa Szko\u0142a I Stopnia Specjalna w Wierzbicy",
                "addr:postcode": "26-680",
                "addr:city": "Wierzbica",
                "addr:street": "Henryka Sienkiewicza",
                "addr:housenumber": "55",
                "addr:teryt:simc": 641182,
                "addr:teryt:sym_ul": 19830,
                "phone": "+48 486183174",
                "email": "mow87@mowwierzbica.lh.pl",
                "website": "http:\/\/www.mowwierzbica.lh.pl",
                "ref:regon": "146569505",
                "operator": "Powiat Radomski",
                "operator:type": "government",
                "amenity": "school",
                "note": "Parent RSPO: 6150"
            }
        },
        {
            "id": 196243,
            "type": "Feature",
            "geometry": {
                "type": "Point",
                "coordinates": [
                    21.06671,
                    51.24681
                ]
            },
            "properties": {
                "isced:level": "1;2",
                "ref:rspo": 196243,
                "official_name": "Szko\u0142a Podstawowa Specjalna w Wierzbicy",
                "name": "Szko\u0142a Podstawowa Specjalna w Wierzbicy",
                "addr:postcode": "26-680",
                "addr:city": "Wierzbica",
                "addr:street": "Henryka Sienkiewicza",
                "addr:housenumber": "55",
                "addr:teryt:simc": 641182,
                "addr:teryt:sym_ul": 19830,
                "phone": "+48 486183174",
                "email": "mow87@mowwierzbica.lh.pl",
                "website": "http:\/\/www.mowwierzbica.lh.pl",
                "ref:regon": "367989989",
                "ref:vatin": "PL9482597885",
                "operator": "Powiat Radomski",
                "operator:type": "government",
                "amenity": "school",
                "note": "Parent RSPO: 6150"
            }
        },
        {
            "id": 4811,
            "type": "Feature",
            "geometry": {
                "type": "Point",
                "coordinates": [
                    21.07212,
                    51.24771
                ]
            },
            "properties": {
                "ref:rspo": 4811,
                "official_name": "Gminne Przedszkole Publiczne w Wierzbicy",
                "name": "Gminne Przedszkole Publiczne w Wierzbicy",
                "addr:postcode": "26-680",
                "addr:city": "Wierzbica",
                "addr:street": "Janka Krasickiego",
                "addr:housenumber": "36",
                "addr:teryt:simc": 641182,
                "addr:teryt:sym_ul": 9836,
                "phone": "+48 486182002",
                "email": "gppwierzbica@gmail.com",
                "ref:regon": "670921959",
                "ref:vatin": "PL9482325460",
                "operator": "Gmina Wierzbica",
                "operator:type": "government",
                "amenity": "kindergarten"
            }
        },
        {
            "id": 4928,
            "type": "Feature",
            "geometry": {
                "type": "Point",
                "coordinates": [
                    21.13446,
                    51.26012
                ]
            },
            "properties": {
                "isced:level": "1;2",
                "ref:rspo": 4928,
                "official_name": "Publiczna Szko\u0142a Podstawowa w Zalesicach",
                "name": "Publiczna Szko\u0142a Podstawowa w Zalesicach",
                "addr:postcode": "26-680",
                "addr:place": "Zalesice",
                "addr:housenumber": "31",
                "addr:door": "C",
                "addr:teryt:simc": 641213,
                "phone": "+48 486182188",
                "email": "zalesice_szkola@adres.pl",
                "website": "http:\/\/www.pspzalesice.edupage.org",
                "ref:regon": "670716165",
                "ref:vatin": "PL9482210366",
                "operator": "Gmina Wierzbica",
                "operator:type": "government",
                "amenity": "school",
                "note": "Parent RSPO: 277843"
            }
        },
        {
            "id": 121758,
            "type": "Feature",
            "geometry": {
                "type": "Point",
                "coordinates": [
                    21.13413,
                    51.26145
                ]
            },
            "properties": {
                "ref:rspo": 121758,
                "official_name": "Gminne Przedszkole Publiczne w Zalesicach",
                "name": "Gminne Przedszkole Publiczne w Zalesicach",
                "addr:postcode": "26-680",
                "addr:place": "Zalesice",
                "addr:housenumber": "31b",
                "addr:teryt:simc": 641213,
                "phone": "+48 486183358",
                "email": "gppzalesice@gmail.com",
                "ref:regon": "670921899",
                "ref:vatin": "PL9482325738",
                "operator": "Gmina Wierzbica",
                "operator:type": "government",
                "amenity": "kindergarten",
                "note": "Parent RSPO: 277843"
            }
        },
        {
            "id": 277843,
            "type": "Feature",
            "geometry": {
                "type": "Point",
                "coordinates": [
                    21.13438,
                    51.26171
                ]
            },
            "properties": {
                "ref:rspo": 277843,
                "official_name": "Zesp\u00f3\u0142 Szkolno-Przedszkolny w Zalesicach",
                "name": "Zesp\u00f3\u0142 Szkolno-Przedszkolny w Zalesicach",
                "addr:postcode": "26-680",
                "addr:place": "Zalesice",
                "addr:housenumber": "31C",
                "addr:teryt:simc": 641213,
                "phone": "+48 486182188",
                "email": "zalesice_szkola@adres.pl",
                "website": "https:\/\/pspzalesice.edupage.org\/",
                "ref:regon": "389592223",
                "operator": "Gmina Wierzbica",
                "operator:type": "government",
                "landuse": "education",
                "fixme": "amenity=school, amenity=college albo landuse=education w zale\u017cno\u015bci od tego, jakie plac\u00f3wki wchodz\u0105 w sk\u0142ad zespo\u0142u. Sprawd\u017a, kiedy stosowa\u0107 amenity=* a kiedy landuse=education.",
                "note": "Children RSPO: 4928;121758"
            }
        },
        {
            "id": 277721,
            "type": "Feature",
            "geometry": {
                "type": "Point",
                "coordinates": [
                    21.05729,
                    51.27407
                ]
            },
            "properties": {
                "ref:rspo": 277721,
                "official_name": "Zesp\u00f3\u0142 Szkolno-Przedszkolny w Rudzie Wielkiej",
                "name": "Zesp\u00f3\u0142 Szkolno-Przedszkolny w Rudzie Wielkiej",
                "addr:postcode": "26-680",
                "addr:place": "Ruda Wielka",
                "addr:housenumber": "10",
                "addr:teryt:simc": 641118,
                "phone": "+48 486182437",
                "email": "psp@zsrudawielka.edu.pl",
                "website": "http:\/\/www.zsrudawielka.edu.pl",
                "ref:regon": "389408248",
                "operator": "Gmina Wierzbica",
                "operator:type": "government",
                "landuse": "education",
                "fixme": "amenity=school, amenity=college albo landuse=education w zale\u017cno\u015bci od tego, jakie plac\u00f3wki wchodz\u0105 w sk\u0142ad zespo\u0142u. Sprawd\u017a, kiedy stosowa\u0107 amenity=* a kiedy landuse=education.",
                "note": "Children RSPO: 4812;4920"
            }
        },
        {
            "id": 4808,
            "type": "Feature",
            "geometry": {
                "type": "Point",
                "coordinates": [
                    21.10912,
                    51.27981
                ]
            },
            "properties": {
                "isced:level": "1;2",
                "ref:rspo": 4808,
                "official_name": "Publiczna Szko\u0142a Podstawowa w D\u0105br\u00f3wce Warszawskiej",
                "name": "Publiczna Szko\u0142a Podstawowa w D\u0105br\u00f3wce Warszawskiej",
                "addr:postcode": "26-680",
                "addr:place": "D\u0105br\u00f3wka Warszawska",
                "addr:housenumber": "117",
                "addr:teryt:simc": 640998,
                "phone": "+48 486182064",
                "email": "pspdw@o2.pl",
                "ref:regon": "001194093",
                "ref:vatin": "PL7991454006",
                "operator": "Gmina Wierzbica",
                "operator:type": "government",
                "amenity": "school"
            }
        },
        {
            "id": 4812,
            "type": "Feature",
            "geometry": {
                "type": "Point",
                "coordinates": [
                    21.048860549927,
                    51.288238525391
                ]
            },
            "properties": {
                "ref:rspo": 4812,
                "official_name": "Gminne Przedszkole Publiczne w Rudzie Wielkiej",
                "name": "Gminne Przedszkole Publiczne w Rudzie Wielkiej",
                "addr:postcode": "26-680",
                "addr:city": "Ruda Wielka",
                "addr:street": "Radomska",
                "addr:housenumber": "10",
                "addr:teryt:simc": 641118,
                "addr:teryt:sym_ul": 18316,
                "phone": "+48 483121457",
                "email": "psp@zsrudawielka.edu.pl",
                "ref:regon": "670921882",
                "ref:vatin": "PL9482325477",
                "operator": "Gmina Wierzbica",
                "operator:type": "government",
                "amenity": "kindergarten",
                "note": "Parent RSPO: 277721"
            }
        },
        {
            "id": 4920,
            "type": "Feature",
            "geometry": {
                "type": "Point",
                "coordinates": [
                    21.048860549927,
                    51.288208525391
                ]
            },
            "properties": {
                "isced:level": "1;2",
                "ref:rspo": 4920,
                "official_name": "Publiczna Szko\u0142a Postawowa w Rudzie Wielkiej",
                "name": "Publiczna Szko\u0142a Postawowa w Rudzie Wielkiej",
                "addr:postcode": "26-680",
                "addr:city": "Ruda Wielka",
                "addr:street": "Radomska",
                "addr:housenumber": "10",
                "addr:teryt:simc": 641118,
                "addr:teryt:sym_ul": 18316,
                "phone": "+48 486182437",
                "email": "psp@zsrudawielka.edu.pl",
                "website": "http:\/\/www.zsrudawielka.edu.pl\/",
                "ref:regon": "001194271",
                "ref:vatin": "PL9482597862",
                "operator": "Gmina Wierzbica",
                "operator:type": "government",
                "amenity": "school",
                "note": "Parent RSPO: 277721"
            }
        },
        {
            "id": 4809,
            "type": "Feature",
            "geometry": {
                "type": "Point",
                "coordinates": [
                    21.157363891602,
                    51.406253814697
                ]
            },
            "properties": {
                "isced:level": "1;2",
                "ref:rspo": 4809,
                "official_name": "Publiczna Szko\u0142a Podstawowa w \u0141\u0105czanach",
                "name": "Publiczna Szko\u0142a Podstawowa w \u0141\u0105czanach",
                "addr:postcode": "26-680",
                "addr:place": "\u0141\u0105czany",
                "addr:housenumber": "40",
                "addr:teryt:simc": 641006,
                "phone": "+48 486182755",
                "email": "splaczany@poczta.onet.pl",
                "ref:regon": "001194288",
                "ref:vatin": "PL7991455247",
                "operator": "Gmina Wierzbica",
                "operator:type": "government",
                "amenity": "school",
                "note": "Parent RSPO: 275459"
            }
        },
        {
            "id": 275454,
            "type": "Feature",
            "geometry": {
                "type": "Point",
                "coordinates": [
                    21.3050374,
                    51.4373193
                ]
            },
            "properties": {
                "ref:rspo": 275454,
                "official_name": "Zesp\u00f3\u0142 Szkolno-Przedszkolny w Polanach",
                "name": "Zesp\u00f3\u0142 Szkolno-Przedszkolny w Polanach",
                "addr:postcode": "26-680",
                "addr:place": "Polany",
                "addr:housenumber": "141",
                "addr:teryt:simc": 641035,
                "phone": "+48 486292601",
                "email": "psp-polany@wp.pl",
                "website": "http:\/\/sppolany.edupage.org",
                "ref:regon": "386925575",
                "operator": "Gmina Wierzbica",
                "operator:type": "government",
                "landuse": "education",
                "fixme": "amenity=school, amenity=college albo landuse=education w zale\u017cno\u015bci od tego, jakie plac\u00f3wki wchodz\u0105 w sk\u0142ad zespo\u0142u. Sprawd\u017a, kiedy stosowa\u0107 amenity=* a kiedy landuse=education.",
                "note": "Children RSPO: 4810;4815"
            }
        },
        {
            "id": 4810,
            "type": "Feature",
            "geometry": {
                "type": "Point",
                "coordinates": [
                    21.3050374,
                    51.437289299999996
                ]
            },
            "properties": {
                "isced:level": "1;2",
                "ref:rspo": 4810,
                "official_name": "Publiczna Szko\u0142a Podstawowa im. Jana Kochanowskiego w Polanach",
                "name": "Publiczna Szko\u0142a Podstawowa",
                "addr:postcode": "26-680",
                "addr:place": "Polany",
                "addr:housenumber": "141",
                "addr:teryt:simc": 641035,
                "phone": "+48 486292601",
                "email": "psp-polany@wp.pl",
                "website": "http:\/\/www.sppolany.edupage.org",
                "ref:regon": "001196583",
                "ref:vatin": "PL7991453981",
                "operator": "Gmina Wierzbica",
                "operator:type": "government",
                "amenity": "school",
                "note": "Parent RSPO: 275454"
            }
        }
    ]
}