{
    "type": "FeatureCollection",
    "features": [
        {
            "id": 16258,
            "type": "Feature",
            "geometry": {
                "type": "Point",
                "coordinates": [
                    21.31234,
                    51.34078
                ]
            },
            "properties": {
                "isced:level": "1;2",
                "ref:rspo": 16258,
                "official_name": "Publiczna Szko\u0142a Podstawowa im. Tadeusza Ko\u015bciuszki w K\u0142on\u00f3wku-Kolonii",
                "name": "Publiczna Szko\u0142a Podstawowa",
                "addr:country": "PL",
                "addr:postcode": "26-634",
                "addr:place": "K\u0142on\u00f3wek-Kolonia",
                "addr:housenumber": "13",
                "addr:teryt:sym_ul": 1066930,
                "contact:phone": "+48 883376662",
                "contact:email": "pspklonowek@gmail.com",
                "contact:website": "http:\/\/pspklonowek.pl",
                "ref:regon": "001145918",
                "ref:vatin": "PL7962558861",
                "operator": "Gmina G\u00f3zd",
                "operator:type": "government",
                "amenity": "school"
            }
        },
        {
            "id": 15790,
            "type": "Feature",
            "geometry": {
                "type": "Point",
                "coordinates": [
                    21.44163,
                    51.37291
                ]
            },
            "properties": {
                "isced:level": "1;2",
                "ref:rspo": 15790,
                "official_name": "Publiczna Szko\u0142a Podstawowa im. Marii Konopnickiej w Podg\u00f3rze",
                "name": "Publiczna Szko\u0142a Podstawowa",
                "addr:country": "PL",
                "addr:postcode": "26-634",
                "addr:place": "Podg\u00f3ra",
                "addr:housenumber": "10",
                "addr:teryt:sym_ul": 621392,
                "contact:phone": "+48 483202018",
                "contact:email": "podgora@op.pl",
                "contact:website": "http:\/\/psppodgora.pl",
                "ref:regon": "001145628",
                "ref:vatin": "PL7962558849",
                "operator": "Gmina G\u00f3zd",
                "operator:type": "government",
                "amenity": "school"
            }
        },
        {
            "id": 17812,
            "type": "Feature",
            "geometry": {
                "type": "Point",
                "coordinates": [
                    21.3396,
                    51.37392
                ]
            },
            "properties": {
                "isced:level": "1;2",
                "ref:rspo": 17812,
                "official_name": "Publiczna Szko\u0142a Podstawowa im.jana Paw\u0142a II w Kuczkach Kolonii",
                "name": "Publiczna Szko\u0142a Podstawowa im.jana Paw\u0142a II w Kuczkach Kolonii",
                "addr:country": "PL",
                "addr:postcode": "26-634",
                "addr:place": "Kuczki-Kolonia",
                "addr:housenumber": "75",
                "addr:teryt:sym_ul": 621239,
                "contact:phone": "+48 483202079",
                "contact:email": "szkola@kuczki.edu.pl",
                "contact:website": "http:\/\/www.kuczki.net",
                "ref:regon": "001145611",
                "ref:vatin": "PL7962565944",
                "operator": "Gmina G\u00f3zd",
                "operator:type": "government",
                "amenity": "school"
            }
        },
        {
            "id": 16261,
            "type": "Feature",
            "geometry": {
                "type": "Point",
                "coordinates": [
                    21.37897,
                    51.3763999
                ]
            },
            "properties": {
                "ref:rspo": 16261,
                "official_name": "Zesp\u00f3\u0142 Szk\u00f3\u0142 w Go\u017adzie",
                "name": "Zesp\u00f3\u0142 Szk\u00f3\u0142 w Go\u017adzie",
                "addr:country": "PL",
                "addr:postcode": "26-634",
                "addr:city": "G\u00f3zd",
                "addr:street": "Starowiejska",
                "addr:housenumber": "130",
                "addr:teryt:simc": 20998,
                "addr:teryt:sym_ul": 620990,
                "contact:phone": "+48 483202121",
                "contact:email": "szkola@gozd.edu.pl",
                "contact:website": "http:\/\/www.gozd.edu.pl",
                "ref:regon": "144686046",
                "ref:vatin": "PL7962955102",
                "operator": "Gmina G\u00f3zd",
                "operator:type": "government",
                "landuse": "education",
                "fixme": "amenity=school, amenity=college albo landuse=education w zale\u017cno\u015bci od tego, jakie plac\u00f3wki wchodz\u0105 w sk\u0142ad zespo\u0142u. Sprawd\u017a, kiedy stosowa\u0107 amenity=* a kiedy landuse=education.",
                "note": "Children RSPO: 17811;263862"
            }
        },
        {
            "id": 17811,
            "type": "Feature",
            "geometry": {
                "type": "Point",
                "coordinates": [
                    21.37897,
                    51.3763699
                ]
            },
            "properties": {
                "isced:level": "1;2",
                "ref:rspo": 17811,
                "official_name": "Publiczna Szko\u0142a Podstawowa im. Janusza Korczaka w Go\u017adzie",
                "name": "Publiczna Szko\u0142a Podstawowa",
                "addr:country": "PL",
                "addr:postcode": "26-634",
                "addr:city": "G\u00f3zd",
                "addr:street": "Starowiejska",
                "addr:housenumber": "130",
                "addr:teryt:simc": 20998,
                "addr:teryt:sym_ul": 620990,
                "contact:phone": "+48 483202121",
                "contact:email": "szkola@gozd.edu.pl",
                "ref:regon": "000580931",
                "ref:vatin": "PL7962577516",
                "operator": "Gmina G\u00f3zd",
                "operator:type": "government",
                "amenity": "school",
                "note": "Parent RSPO: 16261"
            }
        },
        {
            "id": 263862,
            "type": "Feature",
            "geometry": {
                "type": "Point",
                "coordinates": [
                    21.37897,
                    51.376339900000005
                ]
            },
            "properties": {
                "ref:rspo": 263862,
                "official_name": "Samorz\u0105dowe Przedszkole w Go\u017adzie",
                "name": "Samorz\u0105dowe Przedszkole w Go\u017adzie",
                "addr:country": "PL",
                "addr:postcode": "26-634",
                "addr:city": "G\u00f3zd",
                "addr:street": "Starowiejska",
                "addr:housenumber": "130",
                "addr:teryt:simc": 20998,
                "addr:teryt:sym_ul": 620990,
                "contact:phone": "+48 483202121",
                "contact:email": "szkola@gozd.edu.pl",
                "ref:regon": "368231160",
                "operator": "Gmina G\u00f3zd",
                "operator:type": "government",
                "amenity": "kindergarten",
                "note": "Parent RSPO: 16261"
            }
        },
        {
            "id": 17813,
            "type": "Feature",
            "geometry": {
                "type": "Point",
                "coordinates": [
                    21.2468499,
                    51.37967
                ]
            },
            "properties": {
                "isced:level": "1;2",
                "ref:rspo": 17813,
                "official_name": "Publiczna Szko\u0142a Podstawowa im. Jana Kochanowskiego w Ma\u0142\u0119czynie",
                "name": "Publiczna Szko\u0142a Podstawowa",
                "addr:country": "PL",
                "addr:postcode": "26-634",
                "addr:city": "Ma\u0142\u0119czyn",
                "addr:street": "Szkolna",
                "addr:housenumber": "64",
                "addr:teryt:simc": 21970,
                "addr:teryt:sym_ul": 621328,
                "contact:phone": "+48 483655454",
                "contact:email": "pgmaleczyn@wp.pl",
                "ref:regon": "001145605",
                "ref:vatin": "PL7962558855",
                "operator": "Gmina G\u00f3zd",
                "operator:type": "government",
                "amenity": "school"
            }
        },
        {
            "id": 265483,
            "type": "Feature",
            "geometry": {
                "type": "Point",
                "coordinates": [
                    21.25728,
                    51.38586
                ]
            },
            "properties": {
                "ref:rspo": 265483,
                "official_name": "Niepubliczne Przedszkole \"Bajlandia\" w Ma\u0142\u0119czynie",
                "name": "Niepubliczne Przedszkole \"Bajlandia\" w Ma\u0142\u0119czynie",
                "addr:country": "PL",
                "addr:postcode": "26-634",
                "addr:city": "Ma\u0142\u0119czyn",
                "addr:street": "Makowska",
                "addr:housenumber": "21a",
                "addr:teryt:simc": 12009,
                "addr:teryt:sym_ul": 621328,
                "contact:email": "wanimex@o2.pl",
                "ref:regon": "368750753",
                "operator": "Jacek Waniek",
                "operator:type": "private",
                "amenity": "kindergarten"
            }
        },
        {
            "id": 15238,
            "type": "Feature",
            "geometry": {
                "type": "Point",
                "coordinates": [
                    21.2684399,
                    51.39878
                ]
            },
            "properties": {
                "isced:level": "1;2",
                "ref:rspo": 15238,
                "official_name": "Publiczna Szko\u0142a Podstawowa im. Henryka Sienkiewicza w Klwatce Kr\u00f3lewskiej",
                "name": "Publiczna Szko\u0142a Podstawowa",
                "addr:country": "PL",
                "addr:postcode": "26-634",
                "addr:place": "Klwatka Kr\u00f3lewska",
                "addr:housenumber": "31",
                "addr:teryt:sym_ul": 621127,
                "contact:phone": "+48 483202083",
                "contact:email": "szkola@klwatka.net",
                "ref:regon": "001145901",
                "ref:vatin": "PL7962558832",
                "operator": "Gmina G\u00f3zd",
                "operator:type": "government",
                "amenity": "school"
            }
        }
    ]
}