{
    "type": "FeatureCollection",
    "features": [
        {
            "id": 15085,
            "type": "Feature",
            "geometry": {
                "type": "Point",
                "coordinates": [
                    21.157363891602,
                    51.406253814697
                ]
            },
            "properties": {
                "ref:rspo": 15085,
                "official_name": "Zesp\u00f3\u0142 Szkolno-Przedszkolny w Jastrz\u0119bi",
                "name": "Zesp\u00f3\u0142 Szkolno-Przedszkolny w Jastrz\u0119bi",
                "addr:country": "PL",
                "addr:postcode": "26-631",
                "addr:place": "Jastrz\u0119bia",
                "addr:housenumber": "109",
                "addr:teryt:simc": 624249,
                "contact:phone": "+48 486106827",
                "contact:email": "zs-p_jastrzebia@wp.pl",
                "ref:regon": "142533090",
                "ref:vatin": "PL7962923332",
                "operator": "Gmina Jastrz\u0119bia",
                "operator:type": "government",
                "landuse": "education",
                "fixme": "amenity=school, amenity=college albo landuse=education w zale\u017cno\u015bci od tego, jakie plac\u00f3wki wchodz\u0105 w sk\u0142ad zespo\u0142u. Sprawd\u017a, kiedy stosowa\u0107 amenity=* a kiedy landuse=education.",
                "note": "Children RSPO: 19975;19980"
            }
        },
        {
            "id": 19975,
            "type": "Feature",
            "geometry": {
                "type": "Point",
                "coordinates": [
                    21.157363891602,
                    51.406223814697
                ]
            },
            "properties": {
                "isced:level": "1;2",
                "ref:rspo": 19975,
                "official_name": "Szko\u0142a Podstawowa im. Kazimierza Mroza w Jastrz\u0119bi",
                "name": "Szko\u0142a Podstawowa",
                "addr:country": "PL",
                "addr:postcode": "26-631",
                "addr:place": "Jastrz\u0119bia",
                "addr:housenumber": "109",
                "addr:teryt:simc": 624249,
                "contact:phone": "+48 486106827",
                "contact:email": "zs-p_jastrzebia@wp.pl",
                "ref:regon": "000266583",
                "ref:vatin": "PL7962452358",
                "operator": "Gmina Jastrz\u0119bia",
                "operator:type": "government",
                "amenity": "school",
                "note": "Parent RSPO: 15085"
            }
        },
        {
            "id": 19980,
            "type": "Feature",
            "geometry": {
                "type": "Point",
                "coordinates": [
                    21.157363891602,
                    51.406193814697005
                ]
            },
            "properties": {
                "ref:rspo": 19980,
                "official_name": "Samorz\u0105dowe Przedszkole w Jastrz\u0119bi",
                "name": "Samorz\u0105dowe Przedszkole w Jastrz\u0119bi",
                "addr:country": "PL",
                "addr:postcode": "26-631",
                "addr:place": "Jastrz\u0119bia",
                "addr:housenumber": "109",
                "addr:teryt:simc": 624249,
                "contact:phone": "+48 483121762",
                "contact:email": "zs-p_jastrzebia@wp.pl",
                "ref:regon": "670921020",
                "ref:vatin": "PL7961837955",
                "operator": "Gmina Jastrz\u0119bia",
                "operator:type": "government",
                "amenity": "kindergarten",
                "note": "Parent RSPO: 15085"
            }
        },
        {
            "id": 6588,
            "type": "Feature",
            "geometry": {
                "type": "Point",
                "coordinates": [
                    21.24953,
                    51.46589
                ]
            },
            "properties": {
                "isced:level": "1;2",
                "ref:rspo": 6588,
                "official_name": "Szko\u0142a Podstawowa im. Tadeusza Ko\u015bciuszki w Koz\u0142owie",
                "name": "Szko\u0142a Podstawowa",
                "addr:country": "PL",
                "addr:postcode": "26-613",
                "addr:place": "Koz\u0142\u00f3w",
                "addr:housenumber": "87",
                "addr:teryt:simc": 624261,
                "contact:phone": "+48 483447706",
                "contact:email": "pspkozlow@o2.pl",
                "ref:regon": "001188900",
                "ref:vatin": "PL7962418775",
                "operator": "Gmina Jastrz\u0119bia",
                "operator:type": "government",
                "amenity": "school"
            }
        },
        {
            "id": 4866,
            "type": "Feature",
            "geometry": {
                "type": "Point",
                "coordinates": [
                    21.21086,
                    51.472
                ]
            },
            "properties": {
                "isced:level": "1;2",
                "ref:rspo": 4866,
                "official_name": "Szko\u0142a Podstawowa im. Por. Jana Skrzyszewskiego w Lesiowie",
                "name": "Szko\u0142a Podstawowa",
                "addr:country": "PL",
                "addr:postcode": "26-631",
                "addr:place": "Lesi\u00f3w",
                "addr:housenumber": "47",
                "addr:teryt:simc": 624284,
                "contact:phone": "+48 486106829",
                "contact:email": "lesiow47@onet.eu",
                "contact:website": "http:\/\/splesiow.pl",
                "ref:regon": "001251075",
                "ref:vatin": "PL7962452430",
                "operator": "Gmina Jastrz\u0119bia",
                "operator:type": "government",
                "amenity": "school"
            }
        },
        {
            "id": 9205,
            "type": "Feature",
            "geometry": {
                "type": "Point",
                "coordinates": [
                    21.19297,
                    51.49037
                ]
            },
            "properties": {
                "isced:level": "1;2",
                "ref:rspo": 9205,
                "official_name": "Niepubliczna Szko\u0142a Podstawowa w Owadowie",
                "name": "Niepubliczna Szko\u0142a Podstawowa w Owadowie",
                "addr:country": "PL",
                "addr:postcode": "26-631",
                "addr:place": "Owad\u00f3w",
                "addr:housenumber": "130",
                "addr:teryt:simc": 624373,
                "contact:phone": "+48 483773043",
                "contact:email": "sekretariat@nspowadow.pl",
                "contact:website": "https:\/\/nspowadow.pl\/",
                "ref:regon": "146284100",
                "ref:vatin": "PL7962690141",
                "operator": "\"Owad\u00f3w - Wie\u015b Z Przysz\u0142o\u015bci\u0105\"",
                "operator:type": "ngo",
                "amenity": "school"
            }
        },
        {
            "id": 123901,
            "type": "Feature",
            "geometry": {
                "type": "Point",
                "coordinates": [
                    21.19297,
                    51.490339999999996
                ]
            },
            "properties": {
                "ref:rspo": 123901,
                "official_name": "Punkt Przedszkolny \"Mi\u015b\" w Owadowie",
                "name": "Punkt Przedszkolny \"Mi\u015b\" w Owadowie",
                "addr:country": "PL",
                "addr:postcode": "26-631",
                "addr:place": "Owad\u00f3w",
                "addr:housenumber": "130",
                "addr:teryt:simc": 624373,
                "contact:phone": "+48 483773043",
                "contact:email": "sekretariat@nspowadow.pl",
                "contact:website": "https:\/\/nspowadow.pl\/",
                "ref:regon": "147362976",
                "ref:vatin": "PL7962690141",
                "operator": "\"Owad\u00f3w - Wie\u015b Z Przysz\u0142o\u015bci\u0105\"",
                "operator:type": "ngo",
                "amenity": "kindergarten"
            }
        },
        {
            "id": 21345,
            "type": "Feature",
            "geometry": {
                "type": "Point",
                "coordinates": [
                    21.19859,
                    51.52481
                ]
            },
            "properties": {
                "isced:level": "1;2",
                "ref:rspo": 21345,
                "official_name": "Szko\u0142a Podstawowa w Bartodziejach",
                "name": "Szko\u0142a Podstawowa w Bartodziejach",
                "addr:country": "PL",
                "addr:postcode": "26-631",
                "addr:place": "Bartodzieje",
                "addr:housenumber": "18",
                "addr:teryt:simc": 624108,
                "contact:phone": "+48 486106608",
                "contact:email": "pspbartodzieje21@op.pl",
                "contact:website": "http:\/\/www.spbartodzieje.pl",
                "ref:regon": "001272781",
                "ref:vatin": "PL7962452370",
                "operator": "Gmina Jastrz\u0119bia",
                "operator:type": "government",
                "amenity": "school"
            }
        },
        {
            "id": 4303,
            "type": "Feature",
            "geometry": {
                "type": "Point",
                "coordinates": [
                    21.30026,
                    51.5272099
                ]
            },
            "properties": {
                "isced:level": "1;2",
                "ref:rspo": 4303,
                "official_name": "Szko\u0142a Podstawowa w M\u0105kosach Starych",
                "name": "Szko\u0142a Podstawowa w M\u0105kosach Starych",
                "addr:country": "PL",
                "addr:postcode": "26-631",
                "addr:place": "M\u0105kosy Stare",
                "addr:housenumber": "80",
                "addr:teryt:simc": 624404,
                "contact:phone": "+48 486106815",
                "contact:email": "psp.makosy.stare@onet.eu",
                "ref:regon": "670736512",
                "ref:vatin": "PL7962452364",
                "operator": "Gmina Jastrz\u0119bia",
                "operator:type": "government",
                "amenity": "school"
            }
        },
        {
            "id": 4392,
            "type": "Feature",
            "geometry": {
                "type": "Point",
                "coordinates": [
                    21.23563,
                    51.5479399
                ]
            },
            "properties": {
                "isced:level": "1;2",
                "ref:rspo": 4392,
                "official_name": "Szko\u0142a Podstawowa im. \u015awi\u0119tego Jana Paw\u0142a II w Woli Gory\u0144skiej",
                "name": "Szko\u0142a Podstawowa",
                "addr:country": "PL",
                "addr:postcode": "26-631",
                "addr:place": "Wola Gory\u0144ska",
                "addr:housenumber": "45",
                "addr:teryt:simc": 624440,
                "contact:phone": "+48 483773031",
                "contact:email": "spwolagorynska@op.pl",
                "contact:website": "http:\/\/www.spgorynska.witrynaszkolna.pl",
                "ref:regon": "001188891",
                "ref:vatin": "PL7962479297",
                "operator": "Gmina Jastrz\u0119bia",
                "operator:type": "government",
                "amenity": "school"
            }
        }
    ]
}