{
    "type": "FeatureCollection",
    "features": [
        {
            "id": 35229,
            "type": "Feature",
            "geometry": {
                "type": "Point",
                "coordinates": [
                    21.16316,
                    51.30128
                ]
            },
            "properties": {
                "isced:level": "1;2",
                "ref:rspo": 35229,
                "official_name": "Publiczna Szko\u0142a Podstawowa im. Noblist\u00f3w Polskich w Bardzicach",
                "name": "Publiczna Szko\u0142a Podstawowa",
                "addr:country": "PL",
                "addr:postcode": "26-624",
                "addr:place": "Bardzice",
                "addr:housenumber": "2c",
                "addr:teryt:sym_ul": 626923,
                "contact:phone": "+48 483221536",
                "contact:email": "sekretariat@pspbardzice.szkolnastrona.pl",
                "contact:website": "http:\/\/www.pspbardzice.szkolnastrona.pl",
                "ref:regon": "001145686",
                "ref:vatin": "PL9482295084",
                "operator": "Gmina Kowala",
                "operator:type": "government",
                "amenity": "school"
            }
        },
        {
            "id": 262272,
            "type": "Feature",
            "geometry": {
                "type": "Point",
                "coordinates": [
                    21.1215699,
                    51.32119
                ]
            },
            "properties": {
                "isced:level": "1;2",
                "ref:rspo": 262272,
                "official_name": "Publiczna Szko\u0142a Podstawowa im. Jana Paw\u0142a II w Parznicach",
                "name": "Publiczna Szko\u0142a Podstawowa",
                "addr:country": "PL",
                "addr:postcode": "26-624",
                "addr:place": "Parznice",
                "addr:housenumber": "53",
                "addr:teryt:sym_ul": 627182,
                "contact:phone": "+48 486101921",
                "contact:email": "pspparznice@hot.pl",
                "contact:website": "http:\/\/www.pspparznice.pl",
                "ref:regon": "367999516",
                "ref:vatin": "PL9482611438",
                "operator": "Gmina Kowala",
                "operator:type": "government",
                "amenity": "school"
            }
        },
        {
            "id": 35234,
            "type": "Feature",
            "geometry": {
                "type": "Point",
                "coordinates": [
                    21.09147,
                    51.32297
                ]
            },
            "properties": {
                "ref:rspo": 35234,
                "official_name": "Przedszkole Publiczne im. Juliana Tuwima w Kowali-St\u0119pocinie",
                "name": "Przedszkole Publiczne",
                "addr:country": "PL",
                "addr:postcode": "26-624",
                "addr:city": "Kowala-St\u0119pocina",
                "addr:street": "Parkowa",
                "addr:housenumber": "16",
                "addr:teryt:simc": 15710,
                "addr:teryt:sym_ul": 627070,
                "contact:phone": "+48 486101726",
                "contact:email": "przedszkole@przedszkolekowala.pl",
                "contact:website": "http:\/\/www.przedszkolekowala.pl",
                "ref:regon": "670215670",
                "ref:vatin": "PL9482309372",
                "operator": "Gmina Kowala",
                "operator:type": "government",
                "amenity": "kindergarten"
            }
        },
        {
            "id": 35230,
            "type": "Feature",
            "geometry": {
                "type": "Point",
                "coordinates": [
                    21.07576,
                    51.32377
                ]
            },
            "properties": {
                "isced:level": "1;2",
                "ref:rspo": 35230,
                "official_name": "Publiczna Szko\u0142a Podstawowa im. Janusza Korczaka w Kowali-St\u0119pocinie",
                "name": "Publiczna Szko\u0142a Podstawowa",
                "addr:country": "PL",
                "addr:postcode": "26-624",
                "addr:city": "Kowala-St\u0119pocina",
                "addr:street": "Marii Walewskiej",
                "addr:housenumber": "6",
                "addr:teryt:simc": 23538,
                "addr:teryt:sym_ul": 627070,
                "contact:phone": "+48 486101727",
                "contact:email": "pspkowala@o2.pl",
                "contact:website": "http:\/\/www.pspkowala.pl",
                "ref:regon": "000270254",
                "ref:vatin": "PL9482294050",
                "operator": "Gmina Kowala",
                "operator:type": "government",
                "amenity": "school"
            }
        },
        {
            "id": 35233,
            "type": "Feature",
            "geometry": {
                "type": "Point",
                "coordinates": [
                    21.0319,
                    51.34458
                ]
            },
            "properties": {
                "isced:level": "1;2",
                "ref:rspo": 35233,
                "official_name": "Publiczna Szko\u0142a Podstawowa im. Kornela Makuszy\u0144skiego w M\u0142odocinie Mniejszym",
                "name": "Publiczna Szko\u0142a Podstawowa",
                "addr:country": "PL",
                "addr:postcode": "26-624",
                "addr:place": "M\u0142odocin Mniejszy",
                "addr:housenumber": "47",
                "addr:teryt:sym_ul": 627160,
                "contact:phone": "+48 486101666",
                "contact:email": "sekretariat@pspmlodocin.pl",
                "ref:regon": "001145829",
                "ref:vatin": "PL9482295581",
                "operator": "Gmina Kowala",
                "operator:type": "government",
                "amenity": "school"
            }
        },
        {
            "id": 35232,
            "type": "Feature",
            "geometry": {
                "type": "Point",
                "coordinates": [
                    21.130686584258,
                    51.345598765483
                ]
            },
            "properties": {
                "isced:level": "1;2",
                "ref:rspo": 35232,
                "official_name": "Publiczna Szko\u0142a Podstawowa im. M. Konopnickiej w Mazowszanach",
                "name": "Publiczna Szko\u0142a Podstawowa",
                "addr:country": "PL",
                "addr:postcode": "26-624",
                "addr:city": "Mazowszany",
                "addr:street": "Wierzbicka",
                "addr:housenumber": "247",
                "addr:teryt:simc": 24157,
                "addr:teryt:sym_ul": 627153,
                "contact:phone": "+48 483773233",
                "contact:email": "pspmazowszany@wp.pl",
                "contact:website": "http:\/\/www.pspmazowszany.pl",
                "ref:regon": "001145692",
                "ref:vatin": "PL9482294096",
                "operator": "Gmina Kowala",
                "operator:type": "government",
                "amenity": "school"
            }
        },
        {
            "id": 264315,
            "type": "Feature",
            "geometry": {
                "type": "Point",
                "coordinates": [
                    21.127082650846,
                    51.363108000133
                ]
            },
            "properties": {
                "ref:rspo": 264315,
                "official_name": "Niepubliczne Przedszkole Montessori Nutki",
                "name": "Niepubliczne Przedszkole Montessori Nutki",
                "addr:country": "PL",
                "addr:postcode": "26-624",
                "addr:city": "Kotarwice",
                "addr:street": "Wierzbicka",
                "addr:housenumber": "252",
                "addr:teryt:simc": 24157,
                "addr:teryt:sym_ul": 627064,
                "contact:phone": "+48 575690660",
                "contact:email": "sekretariat@nutki.info",
                "contact:website": "http:\/\/www.nutki.info",
                "ref:regon": "368308796",
                "operator": "Paulina So\u0142\u015bnia Katarzyna Pacocha Sp\u00f3\u0142ka Jawna",
                "operator:type": "private",
                "amenity": "kindergarten"
            }
        },
        {
            "id": 273266,
            "type": "Feature",
            "geometry": {
                "type": "Point",
                "coordinates": [
                    21.127082650846,
                    51.363078000133
                ]
            },
            "properties": {
                "isced:level": "1;2",
                "ref:rspo": 273266,
                "official_name": "Niepubliczna Szko\u0142a Podstawowa Montessori School",
                "name": "Niepubliczna Szko\u0142a Podstawowa Montessori School",
                "addr:country": "PL",
                "addr:postcode": "26-624",
                "addr:city": "Kotarwice",
                "addr:street": "Wierzbicka",
                "addr:housenumber": "252",
                "addr:teryt:simc": 24157,
                "addr:teryt:sym_ul": 627064,
                "contact:email": "szkola@nutki.info",
                "ref:regon": "384425845",
                "operator": "Paulina So\u0142\u015bnia Katarzyna Pacocha Sp\u00f3\u0142ka Jawna",
                "operator:type": "private",
                "amenity": "school"
            }
        },
        {
            "id": 35228,
            "type": "Feature",
            "geometry": {
                "type": "Point",
                "coordinates": [
                    21.05981,
                    51.36639
                ]
            },
            "properties": {
                "isced:level": "1;2",
                "ref:rspo": 35228,
                "official_name": "Publiczna Szko\u0142a Podstawowa im. Or\u0142a Bia\u0142ego w Ko\u0144czycach - Kolonii",
                "name": "Publiczna Szko\u0142a Podstawowa",
                "addr:country": "PL",
                "addr:postcode": "26-601",
                "addr:place": "Ko\u0144czyce-Kolonia",
                "addr:housenumber": "31",
                "addr:teryt:sym_ul": 627035,
                "contact:phone": "+48 483625206",
                "contact:email": "konczyce@op.pl",
                "contact:website": "http:\/\/www.pspkonczyce.szkolnastrona.pl",
                "ref:regon": "001145812",
                "ref:vatin": "PL9482308846",
                "operator": "Gmina Kowala",
                "operator:type": "government",
                "amenity": "school"
            }
        }
    ]
}