{
    "type": "FeatureCollection",
    "features": [
        {
            "id": 272460,
            "type": "Feature",
            "geometry": {
                "type": "Point",
                "coordinates": [
                    19.00064,
                    53.86939
                ]
            },
            "properties": {
                "ref:rspo": 272460,
                "official_name": "Publiczny Punkt Przedszkolny Przy Szkole Podstawowej w Nowej Wsi",
                "name": "Publiczny Punkt Przedszkolny Przy Szkole Podstawowej w Nowej Wsi",
                "addr:postcode": "82-400",
                "addr:place": "Nowa Wie\u015b",
                "addr:housenumber": "60",
                "addr:teryt:simc": 158623,
                "phone": "+48 556406339",
                "email": "sekretariat.spnw@mgzosztum.pl",
                "ref:regon": "384192708",
                "operator": "Gmina Sztum",
                "operator:type": "government",
                "amenity": "kindergarten"
            }
        },
        {
            "id": 81828,
            "type": "Feature",
            "geometry": {
                "type": "Point",
                "coordinates": [
                    19.000642,
                    53.869393
                ]
            },
            "properties": {
                "isced:level": "1;2",
                "ref:rspo": 81828,
                "official_name": "Szko\u0142a Podstawowa w Nowej Wsi",
                "name": "Szko\u0142a Podstawowa w Nowej Wsi",
                "addr:postcode": "82-400",
                "addr:place": "Nowa Wie\u015b",
                "addr:housenumber": "60",
                "addr:teryt:simc": 158630,
                "phone": "+48 556406339",
                "email": "sekretariat.spnw@mgzosztum.pl",
                "website": "http:\/\/www.spnowawies.pl",
                "ref:regon": "170203932",
                "ref:vatin": "PL5791934522",
                "operator": "Gmina Sztum",
                "operator:type": "government",
                "amenity": "school"
            }
        },
        {
            "id": 89088,
            "type": "Feature",
            "geometry": {
                "type": "Point",
                "coordinates": [
                    19.06731,
                    53.90349
                ]
            },
            "properties": {
                "ref:rspo": 89088,
                "official_name": "Zesp\u00f3\u0142 Szk\u00f3\u0142 w Czerninie",
                "name": "Zesp\u00f3\u0142 Szk\u00f3\u0142 w Czerninie",
                "addr:postcode": "82-400",
                "addr:city": "Czernin",
                "addr:street": "Donimirskich",
                "addr:housenumber": "19",
                "addr:teryt:simc": 158505,
                "addr:teryt:sym_ul": 4119,
                "phone": "+48 556406304",
                "email": "sekretariat.zscz@mgzosztum.pl",
                "website": "http:\/\/www.zsczernin.pl",
                "ref:regon": "220030344",
                "ref:vatin": "PL5792180686",
                "operator": "Gmina Sztum",
                "operator:type": "government",
                "landuse": "education",
                "fixme": "amenity=school, amenity=college albo landuse=education w zale\u017cno\u015bci od tego, jakie plac\u00f3wki wchodz\u0105 w sk\u0142ad zespo\u0142u. Sprawd\u017a, kiedy stosowa\u0107 amenity=* a kiedy landuse=education.",
                "note": "Children RSPO: 92379;92380"
            }
        },
        {
            "id": 92379,
            "type": "Feature",
            "geometry": {
                "type": "Point",
                "coordinates": [
                    19.06731,
                    53.903459999999995
                ]
            },
            "properties": {
                "ref:rspo": 92379,
                "official_name": "Zesp\u00f3\u0142 Szk\u00f3\u0142 Publiczne Przedszkole w Czerninie",
                "name": "Zesp\u00f3\u0142 Szk\u00f3\u0142 Publiczne Przedszkole w Czerninie",
                "addr:postcode": "82-400",
                "addr:city": "Czernin",
                "addr:street": "Donimirskich",
                "addr:housenumber": "19",
                "addr:teryt:simc": 158505,
                "addr:teryt:sym_ul": 4119,
                "phone": "+48 556406304",
                "email": "sekretariat.zscz@mgzosztum.pl",
                "website": "http:\/\/www.zsczernin.pl",
                "ref:regon": "170019536",
                "ref:vatin": "PL5791934491",
                "operator": "Gmina Sztum",
                "operator:type": "government",
                "amenity": "kindergarten",
                "note": "Parent RSPO: 89088"
            }
        },
        {
            "id": 92380,
            "type": "Feature",
            "geometry": {
                "type": "Point",
                "coordinates": [
                    19.06731,
                    53.90343
                ]
            },
            "properties": {
                "isced:level": "1;2",
                "ref:rspo": 92380,
                "official_name": "Zesp\u00f3\u0142 Szk\u00f3\u0142 Szko\u0142a Podstawowa im. Rodziny Donimirskich w Czerninie",
                "name": "Zesp\u00f3\u0142 Szk\u00f3\u0142 Szko\u0142a Podstawowa",
                "addr:postcode": "82-400",
                "addr:city": "Czernin",
                "addr:street": "Donimirskich",
                "addr:housenumber": "19",
                "addr:teryt:simc": 158505,
                "addr:teryt:sym_ul": 4119,
                "phone": "+48 556406304",
                "email": "sekretariat.zscz@mgzosztum.pl",
                "website": "http:\/\/www.zsczernin.pl",
                "ref:regon": "170204038",
                "ref:vatin": "PL5791934485",
                "operator": "Gmina Sztum",
                "operator:type": "government",
                "amenity": "school",
                "note": "Parent RSPO: 89088"
            }
        },
        {
            "id": 9246,
            "type": "Feature",
            "geometry": {
                "type": "Point",
                "coordinates": [
                    18.9841145,
                    53.9157286
                ]
            },
            "properties": {
                "isced:level": "4",
                "ref:rspo": 9246,
                "official_name": "Pomorska Medyczna Szko\u0142a Policealna w Sztumie",
                "name": "Pomorska Medyczna Szko\u0142a Policealna w Sztumie",
                "addr:postcode": "82-400",
                "addr:city": "Sztum",
                "addr:street": "Miko\u0142aja Reja",
                "addr:housenumber": "12",
                "addr:teryt:simc": 932991,
                "addr:teryt:sym_ul": 18562,
                "phone": "+48 552772408",
                "email": "sekretariat@medyk.sztum.pl",
                "website": "http:\/\/www.medyk.sztum.pl",
                "ref:regon": "000292008",
                "operator": "Wojew\u00f3dztwo Pomorskie",
                "operator:type": "government",
                "amenity": "college"
            }
        },
        {
            "id": 7565,
            "type": "Feature",
            "geometry": {
                "type": "Point",
                "coordinates": [
                    19.0513349,
                    53.917147
                ]
            },
            "properties": {
                "ref:rspo": 7565,
                "official_name": "Zesp\u00f3\u0142 Szk\u00f3\u0142 Zawodowych im. Stanis\u0142awa Staszica w Barlewiczkach",
                "name": "Zesp\u00f3\u0142 Szk\u00f3\u0142 Zawodowych",
                "addr:postcode": "82-400",
                "addr:place": "Barlewiczki",
                "addr:housenumber": "13",
                "addr:teryt:simc": 158451,
                "phone": "+48 556405700",
                "email": "sekretariat@zszbarlewiczki.pl",
                "website": "http:\/\/www.barlewiczki.pl\/",
                "ref:regon": "000192376",
                "ref:vatin": "PL5791633789",
                "operator": "Powiat Sztumski",
                "operator:type": "government",
                "landuse": "education",
                "fixme": "amenity=school, amenity=college albo landuse=education w zale\u017cno\u015bci od tego, jakie plac\u00f3wki wchodz\u0105 w sk\u0142ad zespo\u0142u. Sprawd\u017a, kiedy stosowa\u0107 amenity=* a kiedy landuse=education.",
                "note": "Children RSPO: 21111;21112;105871"
            }
        },
        {
            "id": 21111,
            "type": "Feature",
            "geometry": {
                "type": "Point",
                "coordinates": [
                    19.0513349,
                    53.917117
                ]
            },
            "properties": {
                "isced:level": "3",
                "ref:rspo": 21111,
                "official_name": "Bran\u017cowa Szko\u0142a I Stopnia w Zespole Szk\u00f3\u0142 Zawodowych im. Stanis\u0142awa Staszica w Barlewiczkach",
                "name": "Bran\u017cowa Szko\u0142a I Stopnia w Zespole Szk\u00f3\u0142 Zawodowych",
                "addr:postcode": "82-400",
                "addr:place": "Barlewiczki",
                "addr:housenumber": "13",
                "addr:teryt:simc": 158451,
                "phone": "+48 556405700",
                "email": "sekretariat@zszbarlewiczki.pl",
                "website": "http:\/\/www.barlewiczki.pl",
                "ref:regon": "221750388",
                "operator": "Powiat Sztumski",
                "operator:type": "government",
                "amenity": "school",
                "note": "Parent RSPO: 7565"
            }
        },
        {
            "id": 21112,
            "type": "Feature",
            "geometry": {
                "type": "Point",
                "coordinates": [
                    19.0513349,
                    53.917087
                ]
            },
            "properties": {
                "isced:level": "3",
                "ref:rspo": 21112,
                "official_name": "Zesp\u00f3\u0142 Szk\u00f3\u0142 Zawodowych im.stanis\u0142awa Staszica w Barlewiczkach - Technikum",
                "name": "Zesp\u00f3\u0142 Szk\u00f3\u0142 Zawodowych im.stanis\u0142awa Staszica w Barlewiczkach - Technikum",
                "addr:postcode": "82-400",
                "addr:place": "Barlewiczki",
                "addr:housenumber": "13",
                "addr:teryt:simc": 158451,
                "phone": "+48 556405700",
                "email": "sekretariat@zszbarlewiczki.pl",
                "website": "http:\/\/www.barlewiczki.pl\/",
                "ref:regon": "221750394",
                "operator": "Powiat Sztumski",
                "operator:type": "government",
                "amenity": "school",
                "note": "Parent RSPO: 7565"
            }
        },
        {
            "id": 105871,
            "type": "Feature",
            "geometry": {
                "type": "Point",
                "coordinates": [
                    19.0513349,
                    53.917057
                ]
            },
            "properties": {
                "ref:rspo": 105871,
                "official_name": "Centrum Ksztacenia Ustawicznego Z Siedzib\u0105 w Barlewiczkach",
                "name": "Centrum Ksztacenia Ustawicznego Z Siedzib\u0105 w Barlewiczkach",
                "addr:postcode": "82-400",
                "addr:place": "Barlewiczki",
                "addr:housenumber": "13",
                "addr:teryt:simc": 158451,
                "website": "http:\/\/www.barlewiczki.pl",
                "ref:regon": "220213429",
                "operator": "Powiat Sztumski",
                "operator:type": "government",
                "amenity": "school",
                "fixme": "amenity=school lub amenity=college",
                "note": "Children RSPO: 106262Parent RSPO: 7565"
            }
        },
        {
            "id": 106262,
            "type": "Feature",
            "geometry": {
                "type": "Point",
                "coordinates": [
                    19.0513349,
                    53.917027
                ]
            },
            "properties": {
                "isced:level": "4",
                "ref:rspo": 106262,
                "official_name": "Szko\u0142a Policealna w Zespole Szk\u00f3\u0142 Zawodowych w Barlewiczkach w Centrum Kszta\u0142cenia Ustawicznego",
                "name": "Szko\u0142a Policealna w Zespole Szk\u00f3\u0142 Zawodowych w Barlewiczkach w Centrum Kszta\u0142cenia Ustawicznego",
                "addr:postcode": "82-400",
                "addr:place": "Barlewiczki",
                "addr:housenumber": "13",
                "addr:teryt:simc": 158451,
                "phone": "+48 556405700",
                "email": "sekretariat@zszbarlewiczki.pl",
                "website": "http:\/\/www.barlewiczki.pl",
                "ref:regon": "221808679",
                "operator": "Powiat Sztumski",
                "operator:type": "government",
                "amenity": "college",
                "note": "Parent RSPO: 105871"
            }
        },
        {
            "id": 81257,
            "type": "Feature",
            "geometry": {
                "type": "Point",
                "coordinates": [
                    19.03483,
                    53.92004
                ]
            },
            "properties": {
                "ref:rspo": 81257,
                "official_name": "Publiczne Przedszkole Z Oddzia\u0142ami Integracyjnymi Nr 1 im. \"Kubusia Puchatka\"",
                "name": "Publiczne Przedszkole Z Oddzia\u0142ami Integracyjnymi Nr 1",
                "addr:postcode": "82-400",
                "addr:city": "Sztum",
                "addr:street": "Che\u0142mi\u0144ska",
                "addr:housenumber": "7",
                "addr:teryt:simc": 932991,
                "addr:teryt:sym_ul": 2700,
                "phone": "+48 556406356",
                "email": "p-lepuchatek@wp.pl",
                "website": "http:\/\/www.przedszkole1sztum.webd.pl",
                "ref:regon": "000985591",
                "ref:vatin": "PL5791934545",
                "operator": "Gmina Sztum",
                "operator:type": "government",
                "amenity": "kindergarten"
            }
        },
        {
            "id": 81579,
            "type": "Feature",
            "geometry": {
                "type": "Point",
                "coordinates": [
                    19.03056,
                    53.92103
                ]
            },
            "properties": {
                "ref:rspo": 81579,
                "official_name": "Niepubliczne Przedszkole im. \"Na S\u0142onecznej G\u00f3rce\"",
                "name": "Niepubliczne Przedszkole",
                "addr:postcode": "82-400",
                "addr:city": "Sztum",
                "addr:street": "Henryka Sienkiewicza",
                "addr:housenumber": "2",
                "addr:teryt:simc": 932991,
                "addr:teryt:sym_ul": 19830,
                "phone": "+48 556406359",
                "email": "pp2sztum@o2.pl",
                "ref:regon": "221777588",
                "ref:vatin": "PL5791029585",
                "operator": "Agnieszka Nehring",
                "operator:type": "private",
                "amenity": "kindergarten"
            }
        },
        {
            "id": 3980,
            "type": "Feature",
            "geometry": {
                "type": "Point",
                "coordinates": [
                    19.03177,
                    53.9223
                ]
            },
            "properties": {
                "ref:rspo": 3980,
                "official_name": "Centrum Kszta\u0142cenia Ustawicznego w Sztumie",
                "name": "Centrum Kszta\u0142cenia Ustawicznego w Sztumie",
                "addr:postcode": "82-400",
                "addr:city": "Sztum",
                "addr:street": "Nowowiejskiego",
                "addr:housenumber": "14",
                "addr:teryt:simc": 932991,
                "addr:teryt:sym_ul": 14499,
                "phone": "+48 552672828",
                "email": "cku_sztum@sw.gov.pl",
                "website": "http:\/\/ckusztum.webd.pl",
                "ref:regon": "220037381",
                "operator": "Ministerstwo Sprawiedliwo\u015bci",
                "operator:type": "public",
                "amenity": "school",
                "fixme": "amenity=school lub amenity=college",
                "note": "Children RSPO: 8673;8674;20172"
            }
        },
        {
            "id": 8673,
            "type": "Feature",
            "geometry": {
                "type": "Point",
                "coordinates": [
                    19.03177,
                    53.92227
                ]
            },
            "properties": {
                "isced:level": "3",
                "ref:rspo": 8673,
                "official_name": "Liceum Og\u00f3lnokszta\u0142c\u0105ce dla Doros\u0142ych",
                "name": "Liceum Og\u00f3lnokszta\u0142c\u0105ce dla Doros\u0142ych",
                "addr:postcode": "82-400",
                "addr:city": "Sztum",
                "addr:street": "Nowowiejskiego",
                "addr:housenumber": "14",
                "addr:teryt:simc": 932991,
                "addr:teryt:sym_ul": 14499,
                "phone": "+48 552672828",
                "email": "cku_sztum@sw.gov.pl",
                "ref:regon": "221740591",
                "operator": "Ministerstwo Sprawiedliwo\u015bci",
                "operator:type": "public",
                "amenity": "school",
                "note": "Parent RSPO: 3980"
            }
        },
        {
            "id": 8674,
            "type": "Feature",
            "geometry": {
                "type": "Point",
                "coordinates": [
                    19.03177,
                    53.92224
                ]
            },
            "properties": {
                "isced:level": "4",
                "ref:rspo": 8674,
                "official_name": "Szko\u0142a Policealna dla Doros\u0142ych",
                "name": "Szko\u0142a Policealna dla Doros\u0142ych",
                "addr:postcode": "82-400",
                "addr:city": "Sztum",
                "addr:street": "Nowowiejskiego",
                "addr:housenumber": "14",
                "addr:teryt:simc": 932991,
                "addr:teryt:sym_ul": 14499,
                "email": "cku_sztum@sw.gov.pl",
                "ref:regon": "221735070",
                "operator": "Ministerstwo Sprawiedliwo\u015bci",
                "operator:type": "public",
                "amenity": "college",
                "note": "Parent RSPO: 3980"
            }
        },
        {
            "id": 20172,
            "type": "Feature",
            "geometry": {
                "type": "Point",
                "coordinates": [
                    19.03177,
                    53.92221
                ]
            },
            "properties": {
                "isced:level": "1;2",
                "ref:rspo": 20172,
                "official_name": "Szko\u0142a Podstawowa dla Doros\u0142ych",
                "name": "Szko\u0142a Podstawowa dla Doros\u0142ych",
                "addr:postcode": "82-400",
                "addr:city": "Sztum",
                "addr:street": "Nowowiejskiego",
                "addr:housenumber": "14",
                "addr:teryt:simc": 932991,
                "addr:teryt:sym_ul": 14499,
                "phone": "+48 552672828",
                "email": "cku_sztum@sw.gov.pl",
                "website": "http:\/\/ckusztum.webd.pl",
                "ref:regon": "220037398",
                "operator": "Ministerstwo Sprawiedliwo\u015bci",
                "operator:type": "public",
                "amenity": "school",
                "note": "Parent RSPO: 3980"
            }
        },
        {
            "id": 6190,
            "type": "Feature",
            "geometry": {
                "type": "Point",
                "coordinates": [
                    19.02652,
                    53.92316
                ]
            },
            "properties": {
                "ref:rspo": 6190,
                "official_name": "Zesp\u00f3\u0142 Szk\u00f3\u0142 im. Jana Kasprowicza w Sztumie",
                "name": "Zesp\u00f3\u0142 Szk\u00f3\u0142",
                "addr:postcode": "82-400",
                "addr:city": "Sztum",
                "addr:street": "Kasprowicza",
                "addr:housenumber": "3",
                "addr:teryt:simc": 932991,
                "addr:teryt:sym_ul": 8147,
                "phone": "+48 556404050",
                "email": "zs@zs.sztum.pl",
                "website": "http:\/\/www.zs.sztum.pl\/",
                "ref:regon": "001016919",
                "ref:vatin": "PL5791633795",
                "operator": "Powiat Sztumski",
                "operator:type": "government",
                "landuse": "education",
                "fixme": "amenity=school, amenity=college albo landuse=education w zale\u017cno\u015bci od tego, jakie plac\u00f3wki wchodz\u0105 w sk\u0142ad zespo\u0142u. Sprawd\u017a, kiedy stosowa\u0107 amenity=* a kiedy landuse=education.",
                "note": "Children RSPO: 15814;77993;77994;77995"
            }
        },
        {
            "id": 6579,
            "type": "Feature",
            "geometry": {
                "type": "Point",
                "coordinates": [
                    19.02652,
                    53.92313
                ]
            },
            "properties": {
                "ref:rspo": 6579,
                "official_name": "Poradnia Psychologiczno - Pedagogiczna w Sztumie",
                "name": "Poradnia Psychologiczno - Pedagogiczna w Sztumie",
                "addr:postcode": "82-400",
                "addr:city": "Sztum",
                "addr:street": "Kasprowicza",
                "addr:housenumber": "3",
                "addr:teryt:simc": 932991,
                "addr:teryt:sym_ul": 8147,
                "phone": "+48 552472314",
                "email": "pppsztum@interia.pl",
                "website": "http:\/\/pppsztum.w.interia.pl\/",
                "ref:regon": "001011690",
                "ref:vatin": "PL5791787498",
                "operator": "Powiat Sztumski",
                "operator:type": "government",
                "healthcare": "counselling",
                "counselling_type": "education",
                "fixme": "w zale\u017cno\u015bci od przedmiotu dzia\u0142alno\u015bci (np. healthcare=counselling + counselling_type=education albo healthcare=psychotherapist)"
            }
        },
        {
            "id": 15814,
            "type": "Feature",
            "geometry": {
                "type": "Point",
                "coordinates": [
                    19.02652,
                    53.923100000000005
                ]
            },
            "properties": {
                "isced:level": "4",
                "ref:rspo": 15814,
                "official_name": "Zesp\u00f3\u0142 Szk\u00f3\u0142 im. Jana Kasprowicza w Sztumie - Szko\u0142a Policealna",
                "name": "Zesp\u00f3\u0142 Szk\u00f3\u0142",
                "addr:postcode": "82-400",
                "addr:city": "Sztum",
                "addr:street": "Kasprowicza",
                "addr:housenumber": "3",
                "addr:teryt:simc": 932991,
                "addr:teryt:sym_ul": 8147,
                "phone": "+48 556404050",
                "email": "zs@zs.sztum.pl",
                "website": "http:\/\/www.zs.sztum.pl\/",
                "ref:regon": "192991600",
                "operator": "Powiat Sztumski",
                "operator:type": "government",
                "amenity": "college",
                "note": "Parent RSPO: 6190"
            }
        },
        {
            "id": 77993,
            "type": "Feature",
            "geometry": {
                "type": "Point",
                "coordinates": [
                    19.02652,
                    53.92307
                ]
            },
            "properties": {
                "isced:level": "3",
                "ref:rspo": 77993,
                "official_name": "Zesp\u00f3\u0142 Szk\u00f3\u0142 im. Jana Kasprowicza w Sztumie - Liceum Og\u00f3lnokszta\u0142c\u0105ce",
                "name": "Zesp\u00f3\u0142 Szk\u00f3\u0142",
                "addr:postcode": "82-400",
                "addr:city": "Sztum",
                "addr:street": "Kasprowicza",
                "addr:housenumber": "3",
                "addr:teryt:simc": 932991,
                "addr:teryt:sym_ul": 8147,
                "phone": "+48 556404050",
                "email": "zs@zs.sztum.pl",
                "website": "http:\/\/www.zs.sztum.pl\/",
                "ref:regon": "192991237",
                "operator": "Powiat Sztumski",
                "operator:type": "government",
                "amenity": "school",
                "note": "Parent RSPO: 6190"
            }
        },
        {
            "id": 77994,
            "type": "Feature",
            "geometry": {
                "type": "Point",
                "coordinates": [
                    19.02652,
                    53.92304
                ]
            },
            "properties": {
                "isced:level": "3",
                "ref:rspo": 77994,
                "official_name": "Zesp\u00f3\u0142 Szk\u00f3\u0142 im. Jana Kasprowicza w Sztumie - Technikum Nr 1",
                "name": "Zesp\u00f3\u0142 Szk\u00f3\u0142",
                "addr:postcode": "82-400",
                "addr:city": "Sztum",
                "addr:street": "Kasprowicza",
                "addr:housenumber": "3",
                "addr:teryt:simc": 932991,
                "addr:teryt:sym_ul": 8147,
                "phone": "+48 556404050",
                "email": "zs@zs.sztum.pl",
                "website": "http:\/\/www.zs.sztum.pl\/",
                "ref:regon": "000198048",
                "operator": "Powiat Sztumski",
                "operator:type": "government",
                "amenity": "school",
                "note": "Parent RSPO: 6190"
            }
        },
        {
            "id": 77995,
            "type": "Feature",
            "geometry": {
                "type": "Point",
                "coordinates": [
                    19.02652,
                    53.923010000000005
                ]
            },
            "properties": {
                "isced:level": "3",
                "ref:rspo": 77995,
                "official_name": "Zesp\u00f3\u0142 Szk\u00f3\u0142 im. Jana Kasprowicza w Sztumie - Liceum Og\u00f3lnokszta\u0142c\u0105ce dla Doros\u0142ych",
                "name": "Zesp\u00f3\u0142 Szk\u00f3\u0142",
                "addr:postcode": "82-400",
                "addr:city": "Sztum",
                "addr:street": "Kasprowicza",
                "addr:housenumber": "3",
                "addr:teryt:simc": 932991,
                "addr:teryt:sym_ul": 8147,
                "phone": "+48 556404050",
                "email": "zs@zs.sztum.pl",
                "website": "http:\/\/www.zs.sztum.pl\/",
                "ref:regon": "220481756",
                "operator": "Powiat Sztumski",
                "operator:type": "government",
                "amenity": "school",
                "note": "Parent RSPO: 6190"
            }
        },
        {
            "id": 88909,
            "type": "Feature",
            "geometry": {
                "type": "Point",
                "coordinates": [
                    19.029039382935,
                    53.923488616943
                ]
            },
            "properties": {
                "isced:level": "1;2",
                "ref:rspo": 88909,
                "official_name": "Szko\u0142a Podstawowa Nr 2 im. Maksymiliana Golisza w Sztumie",
                "name": "Szko\u0142a Podstawowa Nr 2",
                "addr:postcode": "82-400",
                "addr:city": "Sztum",
                "addr:street": "Miko\u0142aja Reja",
                "addr:housenumber": "15",
                "addr:teryt:simc": 932991,
                "addr:teryt:sym_ul": 18562,
                "phone": "+48 556406353",
                "email": "sp2_sztum@op.pl",
                "website": "http:\/\/sp2.sztum.net\/",
                "ref:regon": "170203903",
                "ref:vatin": "PL5791934551",
                "operator": "Gmina Sztum",
                "operator:type": "government",
                "amenity": "school"
            }
        },
        {
            "id": 278509,
            "type": "Feature",
            "geometry": {
                "type": "Point",
                "coordinates": [
                    19.029039382935,
                    53.923458616942995
                ]
            },
            "properties": {
                "ref:rspo": 278509,
                "official_name": "Publiczny Punkt Przedszkolny Przy Szkole Podstawowej Nr 2 im. Maksymiliana Golisza w Sztumie",
                "name": "Publiczny Punkt Przedszkolny Przy Szkole Podstawowej Nr 2",
                "addr:postcode": "82-400",
                "addr:city": "Sztum",
                "addr:street": "Miko\u0142aja Reja",
                "addr:housenumber": "15",
                "addr:teryt:simc": 932991,
                "addr:teryt:sym_ul": 18562,
                "phone": "+48 556406353",
                "email": "sp2@mgzosztum.pl",
                "ref:regon": "389936964",
                "operator": "Gmina Sztum",
                "operator:type": "government",
                "amenity": "kindergarten"
            }
        },
        {
            "id": 270160,
            "type": "Feature",
            "geometry": {
                "type": "Point",
                "coordinates": [
                    19.00971,
                    53.92915
                ]
            },
            "properties": {
                "ref:rspo": 270160,
                "official_name": "Niepubliczne Przedszkole T\u0119czowe \"Ja\u015b Beatka Franek\" w Sztumie",
                "name": "Niepubliczne Przedszkole T\u0119czowe \"Ja\u015b Beatka Franek\" w Sztumie",
                "addr:postcode": "82-400",
                "addr:city": "Sztum",
                "addr:street": "Stefana \u017beromskiego",
                "addr:housenumber": "6",
                "addr:teryt:simc": 932991,
                "addr:teryt:sym_ul": 26464,
                "phone": "+48 552670958",
                "email": "barany2@wp.pl",
                "ref:regon": "382111002",
                "operator": "\"U Barana\" Sp\u00f3\u0142ka Z Ograniczon\u0105 Odpowiedzialno\u015bci\u0105",
                "operator:type": "private",
                "amenity": "kindergarten"
            }
        },
        {
            "id": 133870,
            "type": "Feature",
            "geometry": {
                "type": "Point",
                "coordinates": [
                    19.02868,
                    53.92927
                ]
            },
            "properties": {
                "isced:level": "1;2",
                "ref:rspo": 133870,
                "official_name": "Szko\u0142a Podstawowa Nr 1 im. Jana Paw\u0142a II w Sztumie",
                "name": "Szko\u0142a Podstawowa Nr 1",
                "addr:postcode": "82-400",
                "addr:city": "Sztum",
                "addr:street": "Henryka Sienkiewicza",
                "addr:housenumber": "54",
                "addr:teryt:simc": 932991,
                "addr:teryt:sym_ul": 19830,
                "phone": "+48 556406328",
                "email": "sekretariat@sp1sztum.pl",
                "website": "http:\/\/www.sp1sztum.pl",
                "ref:regon": "367705578",
                "operator": "Gmina Sztum",
                "operator:type": "government",
                "amenity": "school"
            }
        },
        {
            "id": 15420,
            "type": "Feature",
            "geometry": {
                "type": "Point",
                "coordinates": [
                    18.9170583,
                    53.9563338
                ]
            },
            "properties": {
                "ref:rspo": 15420,
                "official_name": "Specjalny O\u015brodek Szkolno-Wychowawczy w U\u015bnicach",
                "name": "Specjalny O\u015brodek Szkolno-Wychowawczy w U\u015bnicach",
                "addr:postcode": "82-400",
                "addr:place": "U\u015bnice",
                "addr:housenumber": "15",
                "addr:teryt:simc": 158793,
                "phone": "+48 552771127",
                "email": "oswusnice@poczta.onet.pl",
                "ref:regon": "002817395",
                "ref:vatin": "PL5791582520",
                "operator": "Powiat Sztumski",
                "operator:type": "government",
                "amenity": "school",
                "note": "Children RSPO: 113696;114143;120932"
            }
        },
        {
            "id": 113696,
            "type": "Feature",
            "geometry": {
                "type": "Point",
                "coordinates": [
                    18.9170583,
                    53.9563038
                ]
            },
            "properties": {
                "isced:level": "1;2",
                "ref:rspo": 113696,
                "official_name": "Szko\u0142a Podstawowa Specjalna w Specjalnym Osrodku Szkolno-Wychowawczym w U\u015bnicach",
                "name": "Szko\u0142a Podstawowa Specjalna w Specjalnym Osrodku Szkolno-Wychowawczym w U\u015bnicach",
                "addr:postcode": "82-400",
                "addr:place": "U\u015bnice",
                "addr:housenumber": "15",
                "addr:teryt:simc": 158793,
                "email": "oswusnice@poczta.onet.pl",
                "ref:regon": "220038469",
                "operator": "Powiat Sztumski",
                "operator:type": "government",
                "amenity": "school",
                "note": "Parent RSPO: 15420"
            }
        },
        {
            "id": 114143,
            "type": "Feature",
            "geometry": {
                "type": "Point",
                "coordinates": [
                    18.9170583,
                    53.956273800000005
                ]
            },
            "properties": {
                "ref:rspo": 114143,
                "official_name": "Przedszkole Specjalne w Specjalnym O\u015brodku Szkolno-Wychowawczym w U\u015bnicach",
                "name": "Przedszkole Specjalne w Specjalnym O\u015brodku Szkolno-Wychowawczym w U\u015bnicach",
                "addr:postcode": "82-400",
                "addr:place": "U\u015bnice",
                "addr:housenumber": "15",
                "addr:teryt:simc": 158793,
                "phone": "+48 552771127",
                "email": "oswusnice@poczta.onet.pl",
                "ref:regon": "221869764",
                "operator": "Powiat Sztumski",
                "operator:type": "government",
                "amenity": "kindergarten",
                "note": "Parent RSPO: 15420"
            }
        },
        {
            "id": 120932,
            "type": "Feature",
            "geometry": {
                "type": "Point",
                "coordinates": [
                    18.9170583,
                    53.9562438
                ]
            },
            "properties": {
                "ref:rspo": 120932,
                "official_name": "Szko\u0142a Specjalna Przysposabiaj\u0105ca Do Pracy w Specjalnym O\u015brodku Szkolno-Wychowawczym w U\u015bnicach",
                "name": "Szko\u0142a Specjalna Przysposabiaj\u0105ca Do Pracy w Specjalnym O\u015brodku Szkolno-Wychowawczym w U\u015bnicach",
                "addr:postcode": "82-400",
                "addr:place": "U\u015bnice",
                "addr:housenumber": "15",
                "addr:teryt:simc": 158793,
                "phone": "+48 552771127",
                "email": "oswusnice@poczta.onet.pl",
                "ref:regon": "220038475",
                "operator": "Powiat Sztumski",
                "operator:type": "government",
                "amenity": "school",
                "note": "Parent RSPO: 15420"
            }
        },
        {
            "id": 89228,
            "type": "Feature",
            "geometry": {
                "type": "Point",
                "coordinates": [
                    19.0004059,
                    53.982867
                ]
            },
            "properties": {
                "ref:rspo": 89228,
                "official_name": "Zesp\u00f3\u0142 Szk\u00f3\u0142 w Go\u015bciszewie",
                "name": "Zesp\u00f3\u0142 Szk\u00f3\u0142 w Go\u015bciszewie",
                "addr:postcode": "82-400",
                "addr:place": "Go\u015bciszewo",
                "addr:housenumber": "75",
                "addr:teryt:simc": 158511,
                "phone": "+48 552771176",
                "email": "sekretariat.zsg@mgzosztum.pl",
                "ref:regon": "220030249",
                "ref:vatin": "PL5792180692",
                "operator": "Gmina Sztum",
                "operator:type": "government",
                "landuse": "education",
                "fixme": "amenity=school, amenity=college albo landuse=education w zale\u017cno\u015bci od tego, jakie plac\u00f3wki wchodz\u0105 w sk\u0142ad zespo\u0142u. Sprawd\u017a, kiedy stosowa\u0107 amenity=* a kiedy landuse=education.",
                "note": "Children RSPO: 92382;92383"
            }
        },
        {
            "id": 92382,
            "type": "Feature",
            "geometry": {
                "type": "Point",
                "coordinates": [
                    19.0004059,
                    53.982836999999996
                ]
            },
            "properties": {
                "ref:rspo": 92382,
                "official_name": "Zesp\u00f3\u0142 Szk\u00f3\u0142 Publiczne Przedszkole w Go\u015bciszewie",
                "name": "Zesp\u00f3\u0142 Szk\u00f3\u0142 Publiczne Przedszkole w Go\u015bciszewie",
                "addr:postcode": "82-400",
                "addr:place": "Go\u015bciszewo",
                "addr:housenumber": "75",
                "addr:teryt:simc": 158511,
                "phone": "+48 552771176",
                "email": "sekretariat.zsg@mgzosztum.pl",
                "ref:regon": "170019542",
                "ref:vatin": "PL5791934539",
                "operator": "Gmina Sztum",
                "operator:type": "government",
                "amenity": "kindergarten",
                "note": "Parent RSPO: 89228"
            }
        },
        {
            "id": 92383,
            "type": "Feature",
            "geometry": {
                "type": "Point",
                "coordinates": [
                    19.0004059,
                    53.982807
                ]
            },
            "properties": {
                "isced:level": "1;2",
                "ref:rspo": 92383,
                "official_name": "Zesp\u00f3\u0142 Szk\u00f3\u0142 Szko\u0142a Podstawowa w Go\u015bciszewie",
                "name": "Zesp\u00f3\u0142 Szk\u00f3\u0142 Szko\u0142a Podstawowa w Go\u015bciszewie",
                "addr:postcode": "82-400",
                "addr:place": "Go\u015bciszewo",
                "addr:housenumber": "75",
                "addr:teryt:simc": 158511,
                "phone": "+48 552771176",
                "email": "sekretariat.zsg@mgzosztum.pl",
                "ref:regon": "170204009",
                "ref:vatin": "PL5791934516",
                "operator": "Gmina Sztum",
                "operator:type": "government",
                "amenity": "school",
                "note": "Parent RSPO: 89228"
            }
        }
    ]
}