{
    "type": "FeatureCollection",
    "features": [
        {
            "id": 25213,
            "type": "Feature",
            "geometry": {
                "type": "Point",
                "coordinates": [
                    19.366815,
                    53.883982
                ]
            },
            "properties": {
                "isced:level": "1;2",
                "ref:rspo": 25213,
                "official_name": "Szko\u0142a Podstawowa w Starym Dzierzgoniu",
                "name": "Szko\u0142a Podstawowa w Starym Dzierzgoniu",
                "addr:country": "PL",
                "addr:postcode": "82-450",
                "addr:place": "Stary Dzierzgo\u0144",
                "addr:housenumber": "4",
                "addr:teryt:simc": 157121,
                "contact:phone": "+48 552761426",
                "contact:email": "szkola.starydzierzgon@neostrada.pl",
                "contact:website": "https:\/\/spstarydzierzgon.szkolna.net\/",
                "ref:regon": "000242306",
                "ref:vatin": "PL5791786168",
                "operator": "Gmina Stary Dzierzgo\u0144",
                "operator:type": "government",
                "amenity": "school"
            }
        },
        {
            "id": 25217,
            "type": "Feature",
            "geometry": {
                "type": "Point",
                "coordinates": [
                    19.36753,
                    53.89235
                ]
            },
            "properties": {
                "ref:rspo": 25217,
                "official_name": "Przedszkole Samorz\u0105dowe \"Niezapominajka\" w Starym Mie\u015bcie",
                "name": "Przedszkole Samorz\u0105dowe \"Niezapominajka\" w Starym Mie\u015bcie",
                "addr:country": "PL",
                "addr:postcode": "82-450",
                "addr:place": "Stare Miasto",
                "addr:housenumber": "73",
                "addr:teryt:simc": 157115,
                "contact:phone": "+48 552761078",
                "contact:email": "ps.staremiasto@neostrada.pl",
                "ref:regon": "170006090",
                "ref:vatin": "PL5791786139",
                "operator": "Gmina Stary Dzierzgo\u0144",
                "operator:type": "government",
                "amenity": "kindergarten"
            }
        },
        {
            "id": 25214,
            "type": "Feature",
            "geometry": {
                "type": "Point",
                "coordinates": [
                    19.5005059,
                    53.910637
                ]
            },
            "properties": {
                "isced:level": "1;2",
                "ref:rspo": 25214,
                "official_name": "Szko\u0142a Podstawowa w My\u015blicach",
                "name": "Szko\u0142a Podstawowa w My\u015blicach",
                "addr:country": "PL",
                "addr:postcode": "82-450",
                "addr:place": "My\u015blice",
                "addr:housenumber": "16",
                "addr:teryt:simc": 156972,
                "contact:phone": "+48 552761379",
                "contact:email": "szkola.myslice@wp.pl",
                "ref:regon": "001216736",
                "ref:vatin": "PL5791786151",
                "operator": "Gmina Stary Dzierzgo\u0144",
                "operator:type": "government",
                "amenity": "school"
            }
        }
    ]
}