{
    "type": "FeatureCollection",
    "features": [
        {
            "id": 47686,
            "type": "Feature",
            "geometry": {
                "type": "Point",
                "coordinates": [
                    18.5914,
                    49.8344499
                ]
            },
            "properties": {
                "isced:level": "1;2",
                "ref:rspo": 47686,
                "official_name": "Szko\u0142a Podstawowa w Kaczycach",
                "name": "Szko\u0142a Podstawowa w Kaczycach",
                "addr:postcode": "43-417",
                "addr:city": "Kaczyce",
                "addr:street": "Harcerska",
                "addr:housenumber": "13",
                "addr:city:simc": 990304,
                "addr:street:sym_ul": 6523,
                "phone": "+48 324694222",
                "email": "sp_kaczyce@zebrzydowice.pl",
                "website": "http:\/\/spkaczyce.szkolnastrona.pl",
                "ref:regon": "001205744",
                "ref:vatin": "PL5482685854",
                "operator": "Gmina Zebrzydowice",
                "operator:type": "government",
                "amenity": "school"
            }
        },
        {
            "id": 28744,
            "type": "Feature",
            "geometry": {
                "type": "Point",
                "coordinates": [
                    18.62929,
                    49.8521
                ]
            },
            "properties": {
                "isced:level": "1;2",
                "ref:rspo": 28744,
                "official_name": "Szko\u0142a Podstawowa im. Jaros\u0142awa D\u0105browskiego w Ko\u0144czycach Ma\u0142ych",
                "name": "Szko\u0142a Podstawowa",
                "addr:postcode": "43-410",
                "addr:city": "Ko\u0144czyce Ma\u0142e",
                "addr:street": "Jagiello\u0144ska",
                "addr:housenumber": "56",
                "addr:city:simc": 225354,
                "addr:street:sym_ul": 7029,
                "phone": "+48 324693465",
                "email": "szkolapodstawowa@konczyce.pl",
                "website": "http:\/\/sp.konczyce.pl",
                "ref:regon": "000629620",
                "ref:vatin": "PL6331807509",
                "operator": "Gmina Zebrzydowice",
                "operator:type": "government",
                "amenity": "school"
            }
        },
        {
            "id": 119269,
            "type": "Feature",
            "geometry": {
                "type": "Point",
                "coordinates": [
                    18.6130299,
                    49.85331
                ]
            },
            "properties": {
                "ref:rspo": 119269,
                "official_name": "\"Pro-Sens\"",
                "name": "\"Pro-Sens\"",
                "addr:postcode": "43-410",
                "addr:city": "Ko\u0144czyce Ma\u0142e",
                "addr:street": "Zagrodowa",
                "addr:housenumber": "39",
                "addr:city:simc": 225354,
                "addr:street:sym_ul": 25392,
                "phone": "+48 501221923",
                "ref:regon": "243353782",
                "operator": "Ireneusz Brachaczek",
                "operator:type": "private",
                "fixme": "w zale\u017cno\u015bci od przedmiotu dzia\u0142alno\u015bci (np. amenity=training + training=*, amenity=dancing_school, amenity=language_school, amenity=music_school)"
            }
        },
        {
            "id": 92397,
            "type": "Feature",
            "geometry": {
                "type": "Point",
                "coordinates": [
                    18.65941,
                    49.85996
                ]
            },
            "properties": {
                "ref:rspo": 92397,
                "official_name": "Biuro Ochrony Pracy - Kancelaria Doradztwa Podatkowego I Ochrony Pracy",
                "name": "Biuro Ochrony Pracy - Kancelaria Doradztwa Podatkowego I Ochrony Pracy",
                "addr:postcode": "43-410",
                "addr:city": "Ko\u0144czyce Ma\u0142e",
                "addr:street": "Janusza Korczaka",
                "addr:housenumber": "11",
                "addr:city:simc": 225354,
                "addr:street:sym_ul": 9329,
                "phone": "+48 505153625",
                "ref:regon": "243118561",
                "operator": "Jan Brychcy",
                "operator:type": "private",
                "fixme": "w zale\u017cno\u015bci od przedmiotu dzia\u0142alno\u015bci (np. amenity=training + training=*, amenity=dancing_school, amenity=language_school, amenity=music_school)"
            }
        },
        {
            "id": 124406,
            "type": "Feature",
            "geometry": {
                "type": "Point",
                "coordinates": [
                    18.62381,
                    49.87469
                ]
            },
            "properties": {
                "ref:rspo": 124406,
                "official_name": "Niepubliczne Przedszkole Tw\u00f3rcze \"Totu'' Z Oddzia\u0142ami Integracyjnymi w Zebrzydowicach",
                "name": "Niepubliczne Przedszkole Tw\u00f3rcze \"Totu'' Z Oddzia\u0142ami Integracyjnymi w Zebrzydowicach",
                "addr:postcode": "43-410",
                "addr:city": "Zebrzydowice",
                "addr:street": "Elizy Orzeszkowej",
                "addr:housenumber": "9a",
                "addr:city:simc": 990296,
                "addr:street:sym_ul": 15211,
                "phone": "+48 791988979",
                "email": "biuro@totucieszyn.pl",
                "ref:regon": "243655394",
                "ref:vatin": "PL5561835934",
                "operator": "Izabela Krzemi\u0144ska-Wo\u017aniak",
                "operator:type": "private",
                "amenity": "kindergarten"
            }
        },
        {
            "id": 47684,
            "type": "Feature",
            "geometry": {
                "type": "Point",
                "coordinates": [
                    18.61695,
                    49.87606
                ]
            },
            "properties": {
                "isced:level": "1;2",
                "ref:rspo": 47684,
                "official_name": "Szko\u0142a Podstawowa im. K.k.baczy\u0144skiego w Zebrzydowicach",
                "name": "Szko\u0142a Podstawowa",
                "addr:postcode": "43-410",
                "addr:city": "Zebrzydowice",
                "addr:street": "Jana Kochanowskiego",
                "addr:housenumber": "55",
                "addr:city:simc": 990296,
                "addr:street:sym_ul": 8728,
                "phone": "+48 324693481",
                "email": "szebrz@gmail.com",
                "website": "http:\/\/spzebrzydowice.szkolnastrona.pl",
                "ref:regon": "072326033",
                "ref:vatin": "PL5482685848",
                "operator": "Gmina Zebrzydowice",
                "operator:type": "government",
                "amenity": "school"
            }
        },
        {
            "id": 28746,
            "type": "Feature",
            "geometry": {
                "type": "Point",
                "coordinates": [
                    18.61319,
                    49.87769
                ]
            },
            "properties": {
                "ref:rspo": 28746,
                "official_name": "Gminne Przedszkole Publiczne w Zebrzydowicach",
                "name": "Gminne Przedszkole Publiczne w Zebrzydowicach",
                "addr:postcode": "43-410",
                "addr:city": "Zebrzydowice",
                "addr:street": "Makowa",
                "addr:housenumber": "1",
                "addr:city:simc": 990296,
                "addr:street:sym_ul": 12004,
                "phone": "+48 324693378",
                "email": "gpp@zebrzydowice.pl",
                "website": "http:\/\/gpp.zebrzydowice.szkolnastrona.pl",
                "ref:regon": "271513092",
                "ref:vatin": "PL5482268056",
                "operator": "Gmina Zebrzydowice",
                "operator:type": "government",
                "amenity": "kindergarten"
            }
        },
        {
            "id": 130174,
            "type": "Feature",
            "geometry": {
                "type": "Point",
                "coordinates": [
                    18.61291,
                    49.87968
                ]
            },
            "properties": {
                "ref:rspo": 130174,
                "official_name": "O\u015brodek Szkoleniowy \"Bhp Serwis\"",
                "name": "O\u015brodek Szkoleniowy \"Bhp Serwis\"",
                "addr:postcode": "43-410",
                "addr:city": "Zebrzydowice",
                "addr:street": "Ksi\u0119dza Antoniego Janusza",
                "addr:housenumber": "10a",
                "addr:city:simc": 990296,
                "addr:street:sym_ul": 7224,
                "phone": "+48 604970986",
                "ref:regon": "363582073",
                "operator": "Mirela Omy\u0142a",
                "operator:type": "private",
                "fixme": "w zale\u017cno\u015bci od przedmiotu dzia\u0142alno\u015bci (np. amenity=training + training=*, amenity=dancing_school, amenity=language_school, amenity=music_school)"
            }
        },
        {
            "id": 28742,
            "type": "Feature",
            "geometry": {
                "type": "Point",
                "coordinates": [
                    18.57188,
                    49.89174
                ]
            },
            "properties": {
                "isced:level": "1;2",
                "ref:rspo": 28742,
                "official_name": "Szko\u0142a Podstawowa w Marklowicach G\u00f3rnych",
                "name": "Szko\u0142a Podstawowa w Marklowicach G\u00f3rnych",
                "addr:postcode": "43-410",
                "addr:city": "Marklowice G\u00f3rne",
                "addr:street": "Szkolna",
                "addr:housenumber": "25",
                "addr:city:simc": 225408,
                "addr:street:sym_ul": 21970,
                "phone": "+48 324693204",
                "email": "mkm90@wp.pl",
                "website": "http:\/\/spmarklowice.zebrzydowice.pl",
                "ref:regon": "001282578",
                "ref:vatin": "PL6331811014",
                "operator": "Gmina Zebrzydowice",
                "operator:type": "government",
                "amenity": "school"
            }
        }
    ]
}