{
    "type": "FeatureCollection",
    "features": [
        {
            "id": 125958,
            "type": "Feature",
            "geometry": {
                "type": "Point",
                "coordinates": [
                    18.7775399,
                    49.77656
                ]
            },
            "properties": {
                "ref:rspo": 125958,
                "official_name": "Przedszkole Niepubliczne Chichopotam",
                "name": "Przedszkole Niepubliczne Chichopotam",
                "addr:country": "PL",
                "addr:postcode": "43-430",
                "addr:city": "Mi\u0119dzy\u015bwie\u0107",
                "addr:street": "Beskidzka",
                "addr:housenumber": "2",
                "addr:teryt:simc": 67300,
                "addr:teryt:sym_ul": 1103,
                "contact:phone": "+48 605472865",
                "contact:email": "kontakt@chichopotam.com",
                "contact:website": "http:\/\/chichopotam.com",
                "ref:regon": "360135617",
                "operator": "Urszula Czy\u017cewska",
                "operator:type": "private",
                "amenity": "kindergarten"
            }
        },
        {
            "id": 66291,
            "type": "Feature",
            "geometry": {
                "type": "Point",
                "coordinates": [
                    18.80542,
                    49.77888
                ]
            },
            "properties": {
                "ref:rspo": 66291,
                "official_name": "Przedszkole Publiczne w Harbutowicach",
                "name": "Przedszkole Publiczne w Harbutowicach",
                "addr:country": "PL",
                "addr:postcode": "43-430",
                "addr:city": "Harbutowice",
                "addr:street": "Chabrowa",
                "addr:housenumber": "6",
                "addr:teryt:simc": 67205,
                "addr:teryt:sym_ul": 2657,
                "contact:phone": "+48 338532472",
                "contact:email": "ppharbutowice@skoczow.edu.pl",
                "ref:regon": "071010055",
                "ref:vatin": "PL5482231283",
                "operator": "Gmina Skocz\u00f3w",
                "operator:type": "government",
                "amenity": "kindergarten"
            }
        },
        {
            "id": 7476,
            "type": "Feature",
            "geometry": {
                "type": "Point",
                "coordinates": [
                    18.76729,
                    49.78699
                ]
            },
            "properties": {
                "ref:rspo": 7476,
                "official_name": "Zesp\u00f3\u0142 Szk\u00f3\u0142 Przyrodniczo - Technicznych w Mi\u0119dzy\u015bwieciu",
                "name": "Zesp\u00f3\u0142 Szk\u00f3\u0142 Przyrodniczo - Technicznych w Mi\u0119dzy\u015bwieciu",
                "addr:country": "PL",
                "addr:postcode": "43-430",
                "addr:city": "Mi\u0119dzy\u015bwie\u0107",
                "addr:street": "Malinowa",
                "addr:housenumber": "10",
                "addr:teryt:simc": 67300,
                "addr:teryt:sym_ul": 12065,
                "contact:phone": "+48 338533766",
                "contact:email": "szkolarol@poczta.onet.pl",
                "contact:website": "http:\/\/www.miedzyswiec.xon.pl",
                "ref:regon": "000744166",
                "operator": "Powiat Cieszy\u0144ski",
                "operator:type": "government",
                "landuse": "education",
                "fixme": "amenity=school, amenity=college albo landuse=education w zale\u017cno\u015bci od tego, jakie plac\u00f3wki wchodz\u0105 w sk\u0142ad zespo\u0142u. Sprawd\u017a, kiedy stosowa\u0107 amenity=* a kiedy landuse=education.",
                "note": "Children RSPO: 40586;79174;84981;88550"
            }
        },
        {
            "id": 275069,
            "type": "Feature",
            "geometry": {
                "type": "Point",
                "coordinates": [
                    18.76729,
                    49.78696
                ]
            },
            "properties": {
                "isced:level": "3",
                "ref:rspo": 275069,
                "official_name": "Bran\u017cowa Szko\u0142a II Stopnia",
                "name": "Bran\u017cowa Szko\u0142a II Stopnia",
                "addr:country": "PL",
                "addr:postcode": "43-430",
                "addr:city": "Mi\u0119dzy\u015bwie\u0107",
                "addr:street": "Malinowa",
                "addr:housenumber": "10",
                "addr:teryt:simc": 67300,
                "addr:teryt:sym_ul": 12065,
                "contact:phone": "+48 338533766",
                "contact:email": "sekretariat@zsptmiedzyswiec.pl",
                "contact:website": "http:\/\/zsptmiedzyswiec.pl",
                "ref:regon": "386529320",
                "operator": "Powiat Cieszy\u0144ski",
                "operator:type": "government",
                "amenity": "school"
            }
        },
        {
            "id": 40586,
            "type": "Feature",
            "geometry": {
                "type": "Point",
                "coordinates": [
                    18.76729,
                    49.786930000000005
                ]
            },
            "properties": {
                "isced:level": "3",
                "ref:rspo": 40586,
                "official_name": "Bran\u017cowa Szko\u0142a I Stopnia",
                "name": "Bran\u017cowa Szko\u0142a I Stopnia",
                "addr:country": "PL",
                "addr:postcode": "43-430",
                "addr:city": "Mi\u0119dzy\u015bwie\u0107",
                "addr:street": "Malinowa",
                "addr:housenumber": "10",
                "addr:teryt:simc": 67300,
                "addr:teryt:sym_ul": 12065,
                "contact:phone": "+48 338533766",
                "ref:regon": "070454962",
                "operator": "Powiat Cieszy\u0144ski",
                "operator:type": "government",
                "amenity": "school",
                "note": "Parent RSPO: 7476"
            }
        },
        {
            "id": 79174,
            "type": "Feature",
            "geometry": {
                "type": "Point",
                "coordinates": [
                    18.76729,
                    49.7869
                ]
            },
            "properties": {
                "ref:rspo": 79174,
                "official_name": "O\u015brodek Dokszta\u0142cania Zawodowego w Mi\u0119dzy\u015bwieciu",
                "name": "O\u015brodek Dokszta\u0142cania Zawodowego w Mi\u0119dzy\u015bwieciu",
                "addr:country": "PL",
                "addr:postcode": "43-430",
                "addr:city": "Mi\u0119dzy\u015bwie\u0107",
                "addr:street": "Malinowa",
                "addr:housenumber": "10",
                "addr:teryt:simc": 67300,
                "addr:teryt:sym_ul": 12065,
                "contact:phone": "+48 338533766",
                "ref:regon": "072348632",
                "operator": "Powiat Cieszy\u0144ski",
                "operator:type": "government",
                "fixme": "w zale\u017cno\u015bci od przedmiotu dzia\u0142alno\u015bci (np. amenity=training + training=*, amenity=dancing_school, amenity=language_school, amenity=music_school) albo amenity=school, amenity=college, albo landuse=education w zale\u017cno\u015bci od tego, jakie plac\u00f3wki wchodz\u0105 w sk\u0142ad zespo\u0142u. Sprawd\u017a, kiedy stosowa\u0107 amenity=* a kiedy landuse=education.",
                "note": "Parent RSPO: 7476"
            }
        },
        {
            "id": 84981,
            "type": "Feature",
            "geometry": {
                "type": "Point",
                "coordinates": [
                    18.76729,
                    49.78687
                ]
            },
            "properties": {
                "isced:level": "3",
                "ref:rspo": 84981,
                "official_name": "Technikum",
                "name": "Technikum",
                "addr:country": "PL",
                "addr:postcode": "43-430",
                "addr:city": "Mi\u0119dzy\u015bwie\u0107",
                "addr:street": "Malinowa",
                "addr:housenumber": "10",
                "addr:teryt:simc": 67300,
                "addr:teryt:sym_ul": 12065,
                "contact:phone": "+48 338533766",
                "ref:regon": "070454979",
                "operator": "Powiat Cieszy\u0144ski",
                "operator:type": "government",
                "amenity": "school",
                "note": "Parent RSPO: 7476"
            }
        },
        {
            "id": 88550,
            "type": "Feature",
            "geometry": {
                "type": "Point",
                "coordinates": [
                    18.76729,
                    49.786840000000005
                ]
            },
            "properties": {
                "isced:level": "4",
                "ref:rspo": 88550,
                "official_name": "Szko\u0142a Policealna",
                "name": "Szko\u0142a Policealna",
                "addr:country": "PL",
                "addr:postcode": "43-430",
                "addr:city": "Mi\u0119dzy\u015bwie\u0107",
                "addr:street": "Malinowa",
                "addr:housenumber": "10",
                "addr:teryt:simc": 67300,
                "addr:teryt:sym_ul": 12065,
                "contact:phone": "+48 338533766",
                "ref:regon": "240612390",
                "operator": "Powiat Cieszy\u0144ski",
                "operator:type": "government",
                "amenity": "college",
                "note": "Parent RSPO: 7476"
            }
        },
        {
            "id": 126081,
            "type": "Feature",
            "geometry": {
                "type": "Point",
                "coordinates": [
                    18.79286,
                    49.79281
                ]
            },
            "properties": {
                "ref:rspo": 126081,
                "official_name": "Niepubliczne Przedszkole U Karolci",
                "name": "Niepubliczne Przedszkole U Karolci",
                "addr:country": "PL",
                "addr:postcode": "43-430",
                "addr:city": "Skocz\u00f3w",
                "addr:street": "Krzywa",
                "addr:housenumber": "8b",
                "addr:teryt:simc": 925198,
                "addr:teryt:sym_ul": 10157,
                "contact:phone": "+48 606626116",
                "contact:email": "sylkuk18@op.pl",
                "contact:website": "http:\/\/www.ukarolci.pl",
                "ref:regon": "360146779",
                "operator": "Sylwia Kukuczka",
                "operator:type": "private",
                "amenity": "kindergarten"
            }
        },
        {
            "id": 278515,
            "type": "Feature",
            "geometry": {
                "type": "Point",
                "coordinates": [
                    18.79286,
                    49.79278
                ]
            },
            "properties": {
                "isced:level": "1;2",
                "ref:rspo": 278515,
                "official_name": "Niepubliczna Szko\u0142a Podstawowa \"Akademia U Karolci\"",
                "name": "Niepubliczna Szko\u0142a Podstawowa \"Akademia U Karolci\"",
                "addr:country": "PL",
                "addr:postcode": "43-430",
                "addr:city": "Skocz\u00f3w",
                "addr:street": "Krzywa",
                "addr:housenumber": "8b",
                "addr:teryt:simc": 925198,
                "addr:teryt:sym_ul": 10157,
                "contact:email": "rekrutacjaukarolci@gmail.com",
                "ref:regon": "389949174",
                "ref:vatin": "PL9542819221",
                "operator": "Akademia U Karolci Sp\u00f3\u0142ka Z Ograniczon\u0105 Odpowiedzialno\u015bci\u0105",
                "operator:type": "private",
                "amenity": "school"
            }
        },
        {
            "id": 126082,
            "type": "Feature",
            "geometry": {
                "type": "Point",
                "coordinates": [
                    18.78672,
                    49.7931
                ]
            },
            "properties": {
                "ref:rspo": 126082,
                "official_name": "Niepubliczne Przedszkole \"Bajlandia\" O Profilu Muzyczno-J\u0119zykowym",
                "name": "Niepubliczne Przedszkole \"Bajlandia\" O Profilu Muzyczno-J\u0119zykowym",
                "addr:country": "PL",
                "addr:postcode": "43-430",
                "addr:city": "Skocz\u00f3w",
                "addr:street": "G\u00f3rny B\u00f3r",
                "addr:housenumber": "8c",
                "addr:teryt:simc": 925198,
                "addr:teryt:sym_ul": 5981,
                "contact:phone": "+48 510506300",
                "contact:email": "skoczow@bajlandia.edu.pl",
                "contact:website": "http:\/\/bajlandia.edu.pl",
                "ref:regon": "360146800",
                "operator": "Magdalena Szewczyk",
                "operator:type": "private",
                "amenity": "kindergarten"
            }
        },
        {
            "id": 66287,
            "type": "Feature",
            "geometry": {
                "type": "Point",
                "coordinates": [
                    18.78161,
                    49.79367
                ]
            },
            "properties": {
                "ref:rspo": 66287,
                "official_name": "Przedszkole Publiczne Nr 4 w Skoczowie Z Oddzia\u0142ami Zamiejscowymi w Miedzy\u015bwieciu",
                "name": "Przedszkole Publiczne Nr 4 w Skoczowie Z Oddzia\u0142ami Zamiejscowymi w Miedzy\u015bwieciu",
                "addr:country": "PL",
                "addr:postcode": "43-430",
                "addr:city": "Skocz\u00f3w",
                "addr:street": "Gustawa Morcinka",
                "addr:housenumber": "20",
                "addr:teryt:simc": 925198,
                "addr:teryt:sym_ul": 13279,
                "contact:phone": "+48 338532460",
                "contact:email": "pp4@skoczow.edu.pl",
                "contact:website": "http:\/\/pp4.mzo.skoczow.pl",
                "ref:regon": "071009951",
                "operator": "Gmina Skocz\u00f3w",
                "operator:type": "government",
                "amenity": "kindergarten"
            }
        },
        {
            "id": 114172,
            "type": "Feature",
            "geometry": {
                "type": "Point",
                "coordinates": [
                    18.78161,
                    49.793639999999996
                ]
            },
            "properties": {
                "isced:level": "1;2",
                "ref:rspo": 114172,
                "official_name": "Szko\u0142a Podstawowa Nr 8 im. Krystyny Bochenek w Skoczowie",
                "name": "Szko\u0142a Podstawowa Nr 8",
                "addr:country": "PL",
                "addr:postcode": "43-430",
                "addr:city": "Skocz\u00f3w",
                "addr:street": "Gustawa Morcinka",
                "addr:housenumber": "20",
                "addr:teryt:simc": 925198,
                "addr:teryt:sym_ul": 13279,
                "contact:phone": "+48 334793020",
                "contact:email": "sp8@skoczow.edu.pl",
                "contact:website": "http:\/\/sp8skoczow.edupage.org",
                "ref:regon": "070434652",
                "ref:vatin": "PL5482685682",
                "operator": "Gmina Skocz\u00f3w",
                "operator:type": "government",
                "amenity": "school"
            }
        },
        {
            "id": 127450,
            "type": "Feature",
            "geometry": {
                "type": "Point",
                "coordinates": [
                    18.78161,
                    49.79361
                ]
            },
            "properties": {
                "isced:level": "3",
                "ref:rspo": 127450,
                "official_name": "Prywatne Liceum Og\u00f3lnokszta\u0142c\u0105ce dla Doros\u0142ych \"Primus\"",
                "name": "Prywatne Liceum Og\u00f3lnokszta\u0142c\u0105ce dla Doros\u0142ych \"Primus\"",
                "addr:country": "PL",
                "addr:postcode": "43-430",
                "addr:city": "Skocz\u00f3w",
                "addr:street": "Gustawa Morcinka",
                "addr:housenumber": "20",
                "addr:teryt:simc": 925198,
                "addr:teryt:sym_ul": 13279,
                "contact:phone": "+48 733401684",
                "contact:email": "skoczow@szkola-primus.pl",
                "contact:website": "http:\/\/www.szkola-primus.pl",
                "ref:regon": "361609997",
                "operator": "Przedsi\u0119biorstwo Szkoleniowo-Edukacyjne Primus Sp\u00f3\u0142ka Z Ograniczon\u0105 Odpowiedzialno\u015bci\u0105",
                "operator:type": "private",
                "amenity": "school"
            }
        },
        {
            "id": 127452,
            "type": "Feature",
            "geometry": {
                "type": "Point",
                "coordinates": [
                    18.78161,
                    49.79358
                ]
            },
            "properties": {
                "isced:level": "3",
                "ref:rspo": 127452,
                "official_name": "Niepubliczne Dzienne Technikum \"Primus\"",
                "name": "Niepubliczne Dzienne Technikum \"Primus\"",
                "addr:country": "PL",
                "addr:postcode": "43-430",
                "addr:city": "Skocz\u00f3w",
                "addr:street": "Gustawa Morcinka",
                "addr:housenumber": "20",
                "addr:teryt:simc": 925198,
                "addr:teryt:sym_ul": 13279,
                "contact:phone": "+48 733401684",
                "contact:email": "skoczow@szkola-primus.pl",
                "contact:website": "http:\/\/www.szkola-primus.pl",
                "ref:regon": "361610546",
                "operator": "Przedsi\u0119biorstwo Szkoleniowo-Edukacyjne Primus Sp\u00f3\u0142ka Z Ograniczon\u0105 Odpowiedzialno\u015bci\u0105",
                "operator:type": "private",
                "amenity": "school"
            }
        },
        {
            "id": 272983,
            "type": "Feature",
            "geometry": {
                "type": "Point",
                "coordinates": [
                    18.78161,
                    49.793549999999996
                ]
            },
            "properties": {
                "isced:level": "3",
                "ref:rspo": 272983,
                "official_name": "Niepubliczna Bran\u017cowa Szko\u0142a I Stopnia \"Primus\"",
                "name": "Niepubliczna Bran\u017cowa Szko\u0142a I Stopnia \"Primus\"",
                "addr:country": "PL",
                "addr:postcode": "43-430",
                "addr:city": "Skocz\u00f3w",
                "addr:street": "Gustawa Morcinka",
                "addr:housenumber": "20",
                "addr:teryt:simc": 925198,
                "addr:teryt:sym_ul": 13279,
                "contact:phone": "+48 733401684",
                "contact:email": "skoczow@szkola-primus.pl",
                "contact:website": "http:\/\/www.szkola-primus.pl",
                "ref:regon": "384343828",
                "operator": "Przedsi\u0119biorstwo Szkoleniowo-Edukacyjne Primus Sp\u00f3\u0142ka Z Ograniczon\u0105 Odpowiedzialno\u015bci\u0105",
                "operator:type": "private",
                "amenity": "school"
            }
        },
        {
            "id": 114598,
            "type": "Feature",
            "geometry": {
                "type": "Point",
                "coordinates": [
                    18.80606,
                    49.79386
                ]
            },
            "properties": {
                "ref:rspo": 114598,
                "official_name": "Poradnia Psychologiczno - Pedagogiczna w Skoczowie Zespo\u0142u Poradni Psychologiczno - Pedagogicznych w Cieszynie",
                "name": "Poradnia Psychologiczno - Pedagogiczna w Skoczowie Zespo\u0142u Poradni Psychologiczno - Pedagogicznych w Cieszynie",
                "addr:country": "PL",
                "addr:postcode": "43-430",
                "addr:city": "Skocz\u00f3w",
                "addr:street": "G\u00f3recka",
                "addr:housenumber": "65a",
                "addr:teryt:simc": 925198,
                "addr:teryt:sym_ul": 5929,
                "contact:phone": "+48 338532554",
                "contact:email": "skoczow@zppp.cieszyn.pl",
                "ref:regon": "072334423",
                "operator": "Powiat Cieszy\u0144ski",
                "operator:type": "government",
                "healthcare": "counselling",
                "counselling_type": "education",
                "fixme": "w zale\u017cno\u015bci od przedmiotu dzia\u0142alno\u015bci (np. healthcare=counselling + counselling_type=education albo healthcare=psychotherapist)",
                "note": "Parent RSPO: 3043"
            }
        },
        {
            "id": 8237,
            "type": "Feature",
            "geometry": {
                "type": "Point",
                "coordinates": [
                    18.80473,
                    49.795
                ]
            },
            "properties": {
                "ref:rspo": 8237,
                "official_name": "Zesp\u00f3\u0142 Szk\u00f3\u0142 Technicznych I Og\u00f3lnokszta\u0142c\u0105cych w Skoczowie",
                "name": "Zesp\u00f3\u0142 Szk\u00f3\u0142 Technicznych I Og\u00f3lnokszta\u0142c\u0105cych w Skoczowie",
                "addr:country": "PL",
                "addr:postcode": "43-430",
                "addr:city": "Skocz\u00f3w",
                "addr:street": "G\u00f3recka",
                "addr:housenumber": "65",
                "addr:teryt:simc": 925198,
                "addr:teryt:sym_ul": 5929,
                "contact:phone": "+48 334792225",
                "contact:email": "sekretariat@zstio-skoczow.pl",
                "contact:website": "http:\/\/www.zstio-skoczow.pl",
                "ref:regon": "000199941",
                "operator": "Powiat Cieszy\u0144ski",
                "operator:type": "government",
                "landuse": "education",
                "fixme": "amenity=school, amenity=college albo landuse=education w zale\u017cno\u015bci od tego, jakie plac\u00f3wki wchodz\u0105 w sk\u0142ad zespo\u0142u. Sprawd\u017a, kiedy stosowa\u0107 amenity=* a kiedy landuse=education.",
                "note": "Children RSPO: 40576;40581;44109;44112;44113"
            }
        },
        {
            "id": 275073,
            "type": "Feature",
            "geometry": {
                "type": "Point",
                "coordinates": [
                    18.80473,
                    49.79497
                ]
            },
            "properties": {
                "isced:level": "3",
                "ref:rspo": 275073,
                "official_name": "Bran\u017cowa Szko\u0142a II Stopnia",
                "name": "Bran\u017cowa Szko\u0142a II Stopnia",
                "addr:country": "PL",
                "addr:postcode": "43-430",
                "addr:city": "Skocz\u00f3w",
                "addr:street": "G\u00f3recka",
                "addr:housenumber": "65",
                "addr:teryt:simc": 925198,
                "addr:teryt:sym_ul": 5929,
                "contact:phone": "+48 334792225",
                "ref:regon": "386529939",
                "operator": "Powiat Cieszy\u0144ski",
                "operator:type": "government",
                "amenity": "school"
            }
        },
        {
            "id": 40576,
            "type": "Feature",
            "geometry": {
                "type": "Point",
                "coordinates": [
                    18.80473,
                    49.794940000000004
                ]
            },
            "properties": {
                "isced:level": "3",
                "ref:rspo": 40576,
                "official_name": "Bran\u017cowa Szko\u0142a I Stopnia Nr 1 w Skoczowie",
                "name": "Bran\u017cowa Szko\u0142a I Stopnia Nr 1 w Skoczowie",
                "addr:country": "PL",
                "addr:postcode": "43-430",
                "addr:city": "Skocz\u00f3w",
                "addr:street": "G\u00f3recka",
                "addr:housenumber": "65",
                "addr:teryt:simc": 925198,
                "addr:teryt:sym_ul": 5929,
                "contact:phone": "+48 334792225",
                "contact:email": "sekretariat@zstio-skoczow.pl",
                "ref:regon": "070455068",
                "operator": "Powiat Cieszy\u0144ski",
                "operator:type": "government",
                "amenity": "school",
                "note": "Parent RSPO: 8237"
            }
        },
        {
            "id": 40581,
            "type": "Feature",
            "geometry": {
                "type": "Point",
                "coordinates": [
                    18.80473,
                    49.79491
                ]
            },
            "properties": {
                "isced:level": "4",
                "ref:rspo": 40581,
                "official_name": "Szko\u0142a Policealna",
                "name": "Szko\u0142a Policealna",
                "addr:country": "PL",
                "addr:postcode": "43-430",
                "addr:city": "Skocz\u00f3w",
                "addr:street": "G\u00f3recka",
                "addr:housenumber": "65",
                "addr:teryt:simc": 925198,
                "addr:teryt:sym_ul": 5929,
                "contact:phone": "+48 334792225",
                "contact:email": "sekretariat@zstio-skoczow.pl",
                "contact:website": "http:\/\/www.zstio-skoczow.pl",
                "ref:regon": "072875343",
                "operator": "Powiat Cieszy\u0144ski",
                "operator:type": "government",
                "amenity": "college",
                "note": "Parent RSPO: 8237"
            }
        },
        {
            "id": 44109,
            "type": "Feature",
            "geometry": {
                "type": "Point",
                "coordinates": [
                    18.80473,
                    49.79488
                ]
            },
            "properties": {
                "isced:level": "3",
                "ref:rspo": 44109,
                "official_name": "Technikum w Skoczowie",
                "name": "Technikum w Skoczowie",
                "addr:country": "PL",
                "addr:postcode": "43-430",
                "addr:city": "Skocz\u00f3w",
                "addr:street": "G\u00f3recka",
                "addr:housenumber": "65",
                "addr:teryt:simc": 925198,
                "addr:teryt:sym_ul": 5929,
                "contact:phone": "+48 334792225",
                "contact:email": "sekretariat@zstio-skoczow.pl",
                "contact:website": "http:\/\/www.zstio-skoczow.pl",
                "ref:regon": "070455128",
                "operator": "Powiat Cieszy\u0144ski",
                "operator:type": "government",
                "amenity": "school",
                "note": "Parent RSPO: 8237"
            }
        },
        {
            "id": 44112,
            "type": "Feature",
            "geometry": {
                "type": "Point",
                "coordinates": [
                    18.80473,
                    49.794850000000004
                ]
            },
            "properties": {
                "isced:level": "3",
                "ref:rspo": 44112,
                "official_name": "I Liceum Og\u00f3lnokszta\u0142c\u0105ce",
                "name": "I Liceum Og\u00f3lnokszta\u0142c\u0105ce",
                "addr:country": "PL",
                "addr:postcode": "43-430",
                "addr:city": "Skocz\u00f3w",
                "addr:street": "G\u00f3recka",
                "addr:housenumber": "65",
                "addr:teryt:simc": 925198,
                "addr:teryt:sym_ul": 5929,
                "contact:phone": "+48 334792255",
                "contact:email": "sekretariat@zstio-skoczow.pl",
                "contact:website": "http:\/\/www.zstio-skoczow.pl",
                "ref:regon": "072334392",
                "operator": "Powiat Cieszy\u0144ski",
                "operator:type": "government",
                "amenity": "school",
                "note": "Parent RSPO: 8237"
            }
        },
        {
            "id": 44113,
            "type": "Feature",
            "geometry": {
                "type": "Point",
                "coordinates": [
                    18.80473,
                    49.79482
                ]
            },
            "properties": {
                "isced:level": "3",
                "ref:rspo": 44113,
                "official_name": "Liceum Og\u00f3lnokszta\u0142c\u0105ce dla Doros\u0142ych",
                "name": "Liceum Og\u00f3lnokszta\u0142c\u0105ce dla Doros\u0142ych",
                "addr:country": "PL",
                "addr:postcode": "43-430",
                "addr:city": "Skocz\u00f3w",
                "addr:street": "G\u00f3recka",
                "addr:housenumber": "65",
                "addr:teryt:simc": 925198,
                "addr:teryt:sym_ul": 5929,
                "contact:phone": "+48 334792255",
                "contact:email": "sekretariat@zstio-skoczow.pl",
                "contact:website": "http:\/\/www.zstio-skoczow.pl",
                "ref:regon": "072334417",
                "operator": "Powiat Cieszy\u0144ski",
                "operator:type": "government",
                "amenity": "school",
                "note": "Parent RSPO: 8237"
            }
        },
        {
            "id": 66273,
            "type": "Feature",
            "geometry": {
                "type": "Point",
                "coordinates": [
                    18.78937,
                    49.79683
                ]
            },
            "properties": {
                "ref:rspo": 66273,
                "official_name": "Przedszkole Publiczne Nr 2 w Skoczowie",
                "name": "Przedszkole Publiczne Nr 2 w Skoczowie",
                "addr:country": "PL",
                "addr:postcode": "43-430",
                "addr:city": "Skocz\u00f3w",
                "addr:street": "Targowa",
                "addr:housenumber": "19",
                "addr:teryt:simc": 925198,
                "addr:teryt:sym_ul": 22659,
                "contact:phone": "+48 338533664",
                "contact:email": "pp2@skoczow.edu.pl",
                "contact:website": "http:\/\/pp2.mzo.skoczow.pl",
                "ref:regon": "071009980",
                "ref:vatin": "PL5482231171",
                "operator": "Gmina Skocz\u00f3w",
                "operator:type": "government",
                "amenity": "kindergarten"
            }
        },
        {
            "id": 65121,
            "type": "Feature",
            "geometry": {
                "type": "Point",
                "coordinates": [
                    18.78756,
                    49.79712
                ]
            },
            "properties": {
                "ref:rspo": 65121,
                "official_name": "Przedszkole Publiczne Nr 1 w Skoczowie",
                "name": "Przedszkole Publiczne Nr 1 w Skoczowie",
                "addr:country": "PL",
                "addr:postcode": "43-430",
                "addr:city": "Skocz\u00f3w",
                "addr:street": "Adama Mickiewicza",
                "addr:housenumber": "27",
                "addr:teryt:simc": 925198,
                "addr:teryt:sym_ul": 12734,
                "contact:phone": "+48 338533473",
                "contact:email": "pp1skoczow@edu.pl",
                "contact:website": "http:\/\/pp1.mzo.skoczow.pl",
                "ref:regon": "071009997",
                "ref:vatin": "PL5482231159",
                "operator": "Gmina Skocz\u00f3w",
                "operator:type": "government",
                "amenity": "kindergarten"
            }
        },
        {
            "id": 26274,
            "type": "Feature",
            "geometry": {
                "type": "Point",
                "coordinates": [
                    18.78623,
                    49.79859
                ]
            },
            "properties": {
                "ref:rspo": 26274,
                "official_name": "Pedagogiczna Biblioteka Wojew\u00f3dzka w Bielsku-Bia\u0142ej Filia w Skoczowie",
                "name": "Pedagogiczna Biblioteka Wojew\u00f3dzka w Bielsku-Bia\u0142ej Filia w Skoczowie",
                "addr:country": "PL",
                "addr:postcode": "43-430",
                "addr:city": "Skocz\u00f3w",
                "addr:street": "Podk\u0119pie",
                "addr:housenumber": "1",
                "addr:teryt:simc": 925198,
                "addr:teryt:sym_ul": 16766,
                "contact:phone": "+48 338532055",
                "contact:email": "filia_skoczow@pbw.bielsko.pl",
                "ref:regon": "787224000",
                "ref:vatin": "PL9371820914",
                "operator": "Wojew\u00f3dztwo \u015al\u0105skie",
                "operator:type": "government",
                "amenity": "library",
                "note": "Parent RSPO: 14886"
            }
        },
        {
            "id": 74581,
            "type": "Feature",
            "geometry": {
                "type": "Point",
                "coordinates": [
                    18.7819499,
                    49.79864
                ]
            },
            "properties": {
                "ref:rspo": 74581,
                "official_name": "Zak\u0142ad Doskonalenia Zawodowego w Katowicach O\u015brodek Kszta\u0142cenia Zawodowego w Skoczowie",
                "name": "Zak\u0142ad Doskonalenia Zawodowego w Katowicach O\u015brodek Kszta\u0142cenia Zawodowego w Skoczowie",
                "addr:country": "PL",
                "addr:postcode": "43-430",
                "addr:city": "Skocz\u00f3w",
                "addr:street": "Cieszy\u0144ska",
                "addr:housenumber": "25",
                "addr:teryt:simc": 925198,
                "addr:teryt:sym_ul": 3061,
                "contact:phone": "+48 338530351",
                "ref:regon": "243095989",
                "operator": "Zak\u0142ad Doskonalenia Zawodowego W Katowicach",
                "operator:type": "ngo",
                "fixme": "w zale\u017cno\u015bci od przedmiotu dzia\u0142alno\u015bci (np. amenity=training + training=*, amenity=dancing_school, amenity=language_school, amenity=music_school)"
            }
        },
        {
            "id": 127868,
            "type": "Feature",
            "geometry": {
                "type": "Point",
                "coordinates": [
                    18.78596,
                    49.79886
                ]
            },
            "properties": {
                "isced:level": "4",
                "ref:rspo": 127868,
                "official_name": "Prywatna Szko\u0142a Policealna \"Proffesor\" w Skoczowie",
                "name": "Prywatna Szko\u0142a Policealna \"Proffesor\" w Skoczowie",
                "addr:country": "PL",
                "addr:postcode": "43-430",
                "addr:city": "Skocz\u00f3w",
                "addr:street": "Podk\u0119pie",
                "addr:housenumber": "2A",
                "addr:teryt:simc": 925198,
                "addr:teryt:sym_ul": 16766,
                "contact:phone": "+48 663578963",
                "contact:email": "sekretariat@proffesor.pl",
                "contact:website": "http:\/\/www.proffesor.pl\/",
                "ref:regon": "361934332",
                "operator": "Wies\u0142aw B\u0105czek",
                "operator:type": "private",
                "amenity": "college"
            }
        },
        {
            "id": 127869,
            "type": "Feature",
            "geometry": {
                "type": "Point",
                "coordinates": [
                    18.78596,
                    49.798829999999995
                ]
            },
            "properties": {
                "isced:level": "3",
                "ref:rspo": 127869,
                "official_name": "Prywatna Szko\u0142a Liceum Og\u00f3lnokszta\u0142c\u0105ce dla Doros\u0142ych \"Proffesor\" w Skoczowie",
                "name": "Prywatna Szko\u0142a Liceum Og\u00f3lnokszta\u0142c\u0105ce dla Doros\u0142ych \"Proffesor\" w Skoczowie",
                "addr:country": "PL",
                "addr:postcode": "43-430",
                "addr:city": "Skocz\u00f3w",
                "addr:street": "Podk\u0119pie",
                "addr:housenumber": "2A",
                "addr:teryt:simc": 925198,
                "addr:teryt:sym_ul": 16766,
                "contact:phone": "+48 663578963",
                "contact:email": "sekretariat@proffesor.pl",
                "contact:website": "http:\/\/www.proffesor.pl\/",
                "ref:regon": "361934355",
                "operator": "Wies\u0142aw B\u0105czek",
                "operator:type": "private",
                "amenity": "school"
            }
        },
        {
            "id": 129028,
            "type": "Feature",
            "geometry": {
                "type": "Point",
                "coordinates": [
                    18.78596,
                    49.7988
                ]
            },
            "properties": {
                "ref:rspo": 129028,
                "official_name": "O\u015brodek Szkolenia Zawodowego \"Proffesor\" w Skoczowie",
                "name": "O\u015brodek Szkolenia Zawodowego \"Proffesor\" w Skoczowie",
                "addr:country": "PL",
                "addr:postcode": "43-430",
                "addr:city": "Skocz\u00f3w",
                "addr:street": "Podk\u0119pie",
                "addr:housenumber": "2a",
                "addr:teryt:simc": 925198,
                "addr:teryt:sym_ul": 16766,
                "contact:phone": "+48 663578963",
                "ref:regon": "362452227",
                "operator": "Wies\u0142aw B\u0105czek",
                "operator:type": "private",
                "fixme": "w zale\u017cno\u015bci od przedmiotu dzia\u0142alno\u015bci (np. amenity=training + training=*, amenity=dancing_school, amenity=language_school, amenity=music_school)"
            }
        },
        {
            "id": 114747,
            "type": "Feature",
            "geometry": {
                "type": "Point",
                "coordinates": [
                    18.78703,
                    49.79911
                ]
            },
            "properties": {
                "isced:level": "1;2",
                "ref:rspo": 114747,
                "official_name": "Szko\u0142a Podstawowa Nr 1 im. Gustawa Morcinka w Skoczowie",
                "name": "Szko\u0142a Podstawowa Nr 1",
                "addr:country": "PL",
                "addr:postcode": "43-430",
                "addr:city": "Skocz\u00f3w",
                "addr:street": "Adama Mickiewicza",
                "addr:housenumber": "11",
                "addr:teryt:simc": 925198,
                "addr:teryt:sym_ul": 12734,
                "contact:phone": "+48 338533712",
                "contact:email": "dyrektor@sp1skoczow.pl",
                "ref:regon": "070434592",
                "ref:vatin": "PL5482231426",
                "operator": "Gmina Skocz\u00f3w",
                "operator:type": "government",
                "amenity": "school"
            }
        },
        {
            "id": 23279,
            "type": "Feature",
            "geometry": {
                "type": "Point",
                "coordinates": [
                    18.78629,
                    49.7993499
                ]
            },
            "properties": {
                "ref:rspo": 23279,
                "official_name": "Zesp\u00f3\u0142 Szk\u00f3\u0142 Specjalnych w Skoczowie",
                "name": "Zesp\u00f3\u0142 Szk\u00f3\u0142 Specjalnych w Skoczowie",
                "addr:country": "PL",
                "addr:postcode": "43-430",
                "addr:city": "Skocz\u00f3w",
                "addr:street": "Adama Mickiewicza",
                "addr:housenumber": "12",
                "addr:teryt:simc": 925198,
                "addr:teryt:sym_ul": 12734,
                "contact:phone": "+48 334793349",
                "contact:email": "szkolaskoczow@poczta.onet.pl",
                "contact:website": "http:\/\/www.zss.skoczow.pl",
                "ref:regon": "070457802",
                "ref:vatin": "PL5482141344",
                "operator": "Wojew\u00f3dztwo \u015al\u0105skie",
                "operator:type": "government",
                "landuse": "education",
                "fixme": "amenity=school, amenity=college albo landuse=education w zale\u017cno\u015bci od tego, jakie plac\u00f3wki wchodz\u0105 w sk\u0142ad zespo\u0142u. Sprawd\u017a, kiedy stosowa\u0107 amenity=* a kiedy landuse=education.",
                "note": "Children RSPO: 114499;114501;114502;118720"
            }
        },
        {
            "id": 114499,
            "type": "Feature",
            "geometry": {
                "type": "Point",
                "coordinates": [
                    18.78629,
                    49.7993199
                ]
            },
            "properties": {
                "isced:level": "1;2",
                "ref:rspo": 114499,
                "official_name": "Szko\u0142a Podstawowa Nr 9 Specjalna w Skoczowie",
                "name": "Szko\u0142a Podstawowa Nr 9 Specjalna w Skoczowie",
                "addr:country": "PL",
                "addr:postcode": "43-430",
                "addr:city": "Skocz\u00f3w",
                "addr:street": "Adama Mickiewicza",
                "addr:housenumber": "12",
                "addr:teryt:simc": 925198,
                "addr:teryt:sym_ul": 12734,
                "contact:phone": "+48 334793349",
                "contact:email": "szkolaskoczow@poczta.onet.pl",
                "ref:regon": "072388005",
                "operator": "Wojew\u00f3dztwo \u015al\u0105skie",
                "operator:type": "government",
                "amenity": "school",
                "note": "Parent RSPO: 23279"
            }
        },
        {
            "id": 114501,
            "type": "Feature",
            "geometry": {
                "type": "Point",
                "coordinates": [
                    18.78629,
                    49.799289900000005
                ]
            },
            "properties": {
                "isced:level": "3",
                "ref:rspo": 114501,
                "official_name": "Bran\u017cowa Szko\u0142a I Stopnia Nr 2 Specjalna w Skoczowie",
                "name": "Bran\u017cowa Szko\u0142a I Stopnia Nr 2 Specjalna w Skoczowie",
                "addr:country": "PL",
                "addr:postcode": "43-430",
                "addr:city": "Skocz\u00f3w",
                "addr:street": "Adama Mickiewicza",
                "addr:housenumber": "12",
                "addr:teryt:simc": 925198,
                "addr:teryt:sym_ul": 12734,
                "contact:phone": "+48 334793349",
                "contact:email": "szkolaskoczow@poczta.onet.pl",
                "ref:regon": "072388028",
                "operator": "Wojew\u00f3dztwo \u015al\u0105skie",
                "operator:type": "government",
                "amenity": "school",
                "note": "Parent RSPO: 23279"
            }
        },
        {
            "id": 114502,
            "type": "Feature",
            "geometry": {
                "type": "Point",
                "coordinates": [
                    18.78629,
                    49.7992599
                ]
            },
            "properties": {
                "ref:rspo": 114502,
                "official_name": "Szko\u0142a Specjalna Przysposabiaj\u0105ca Do Pracy w Skoczowie",
                "name": "Szko\u0142a Specjalna Przysposabiaj\u0105ca Do Pracy w Skoczowie",
                "addr:country": "PL",
                "addr:postcode": "43-430",
                "addr:city": "Skocz\u00f3w",
                "addr:street": "Adama Mickiewicza",
                "addr:housenumber": "12",
                "addr:teryt:simc": 925198,
                "addr:teryt:sym_ul": 12734,
                "contact:phone": "+48 334793349",
                "contact:email": "szkolaskoczow@poczta.onet.pl",
                "ref:regon": "072918928",
                "operator": "Wojew\u00f3dztwo \u015al\u0105skie",
                "operator:type": "government",
                "amenity": "school",
                "note": "Parent RSPO: 23279"
            }
        },
        {
            "id": 118720,
            "type": "Feature",
            "geometry": {
                "type": "Point",
                "coordinates": [
                    18.78629,
                    49.7992299
                ]
            },
            "properties": {
                "isced:level": "3",
                "ref:rspo": 118720,
                "official_name": "Liceum Og\u00f3lnokszta\u0142c\u0105ce Specjalne Nr Ii",
                "name": "Liceum Og\u00f3lnokszta\u0142c\u0105ce Specjalne Nr Ii",
                "addr:country": "PL",
                "addr:postcode": "43-430",
                "addr:city": "Skocz\u00f3w",
                "addr:street": "Adama Mickiewicza",
                "addr:housenumber": "12",
                "addr:teryt:simc": 925198,
                "addr:teryt:sym_ul": 12734,
                "contact:phone": "+48 334793349",
                "contact:email": "szkolaskoczow@poczta.onet.pl",
                "ref:regon": "243337346",
                "operator": "Wojew\u00f3dztwo \u015al\u0105skie",
                "operator:type": "government",
                "amenity": "school",
                "note": "Parent RSPO: 23279"
            }
        },
        {
            "id": 109213,
            "type": "Feature",
            "geometry": {
                "type": "Point",
                "coordinates": [
                    18.7978,
                    49.8002899
                ]
            },
            "properties": {
                "isced:level": "1;2",
                "ref:rspo": 109213,
                "official_name": "Szko\u0142a Podstawowa Nr 3 im. Jana Paw\u0142a II w Skoczowie",
                "name": "Szko\u0142a Podstawowa Nr 3",
                "addr:country": "PL",
                "addr:postcode": "43-430",
                "addr:city": "Skocz\u00f3w",
                "addr:street": "Osiedlowa",
                "addr:housenumber": "1",
                "addr:teryt:simc": 925198,
                "addr:teryt:sym_ul": 15300,
                "contact:phone": "+48 722001404",
                "contact:email": "sp3@skoczow.edu.pl",
                "ref:regon": "070478000",
                "ref:vatin": "PL5482231395",
                "operator": "Gmina Skocz\u00f3w",
                "operator:type": "government",
                "amenity": "school"
            }
        },
        {
            "id": 276838,
            "type": "Feature",
            "geometry": {
                "type": "Point",
                "coordinates": [
                    18.78521,
                    49.80062
                ]
            },
            "properties": {
                "ref:rspo": 276838,
                "official_name": "Centrum Terapii I Rozwoju",
                "name": "Centrum Terapii I Rozwoju",
                "addr:country": "PL",
                "addr:postcode": "43-430",
                "addr:city": "Skocz\u00f3w",
                "addr:street": "Cieszy\u0144ska",
                "addr:housenumber": "16",
                "addr:teryt:simc": 925198,
                "addr:teryt:sym_ul": 3061,
                "contact:phone": "+48 880559109",
                "ref:regon": "387676690",
                "operator": "Gabriela Tomica-Zawada",
                "operator:type": "private",
                "healthcare": "counselling",
                "counselling_type": "education",
                "fixme": "w zale\u017cno\u015bci od przedmiotu dzia\u0142alno\u015bci (np. healthcare=counselling + counselling_type=education albo healthcare=psychotherapist)"
            }
        },
        {
            "id": 126891,
            "type": "Feature",
            "geometry": {
                "type": "Point",
                "coordinates": [
                    18.78741,
                    49.80064
                ]
            },
            "properties": {
                "ref:rspo": 126891,
                "official_name": "Wiedza Umiej\u0119tno\u015b\u0107 Rozw\u00f3j",
                "name": "Wiedza Umiej\u0119tno\u015b\u0107 Rozw\u00f3j",
                "addr:country": "PL",
                "addr:postcode": "43-430",
                "addr:city": "Skocz\u00f3w",
                "addr:street": "Cieszy\u0144ska",
                "addr:housenumber": "3A",
                "addr:teryt:simc": 925198,
                "addr:teryt:sym_ul": 3061,
                "contact:phone": "+48 695667052",
                "ref:regon": "360853940",
                "operator": "Wiedza Umiej\u0119tno\u015b\u0107 Rozw\u00f3j Sp\u00f3\u0142ka Z Ograniczon\u0105 Odpowiedzialno\u015bci\u0105",
                "operator:type": "private",
                "fixme": "w zale\u017cno\u015bci od przedmiotu dzia\u0142alno\u015bci (np. amenity=training + training=*, amenity=dancing_school, amenity=language_school, amenity=music_school)"
            }
        },
        {
            "id": 68013,
            "type": "Feature",
            "geometry": {
                "type": "Point",
                "coordinates": [
                    18.81908,
                    49.80104
                ]
            },
            "properties": {
                "ref:rspo": 68013,
                "official_name": "Zesp\u00f3\u0142 Szkolno-Przedszkolny w Pog\u00f3rzu",
                "name": "Zesp\u00f3\u0142 Szkolno-Przedszkolny w Pog\u00f3rzu",
                "addr:country": "PL",
                "addr:postcode": "43-430",
                "addr:city": "Pog\u00f3rze",
                "addr:street": "Zamek",
                "addr:housenumber": "8",
                "addr:teryt:simc": 67487,
                "addr:teryt:sym_ul": 25531,
                "contact:phone": "+48 338533749",
                "contact:email": "zsppogorze@skoczow.edu.pl",
                "contact:website": "http:\/\/www.zs5pogorze.ox.pl",
                "ref:regon": "240447169",
                "ref:vatin": "PL5482531068",
                "operator": "Gmina Skocz\u00f3w",
                "operator:type": "government",
                "landuse": "education",
                "fixme": "amenity=school, amenity=college albo landuse=education w zale\u017cno\u015bci od tego, jakie plac\u00f3wki wchodz\u0105 w sk\u0142ad zespo\u0142u. Sprawd\u017a, kiedy stosowa\u0107 amenity=* a kiedy landuse=education.",
                "note": "Children RSPO: 66302;122913"
            }
        },
        {
            "id": 122913,
            "type": "Feature",
            "geometry": {
                "type": "Point",
                "coordinates": [
                    18.81908,
                    49.80101
                ]
            },
            "properties": {
                "isced:level": "1;2",
                "ref:rspo": 122913,
                "official_name": "Szko\u0142a Podstawowa im. Jana Marka w Pog\u00f3rzu",
                "name": "Szko\u0142a Podstawowa",
                "addr:country": "PL",
                "addr:postcode": "43-430",
                "addr:city": "Pog\u00f3rze",
                "addr:street": "Zamek",
                "addr:housenumber": "8",
                "addr:teryt:simc": 67487,
                "addr:teryt:sym_ul": 25531,
                "contact:phone": "+48 338533749",
                "contact:email": "zsppogorze@skoczow.edu.pl",
                "contact:website": "http:\/\/zs5pogorze.ox.pl",
                "ref:regon": "070434646",
                "operator": "Gmina Skocz\u00f3w",
                "operator:type": "government",
                "amenity": "school",
                "note": "Parent RSPO: 68013"
            }
        },
        {
            "id": 128217,
            "type": "Feature",
            "geometry": {
                "type": "Point",
                "coordinates": [
                    18.78779,
                    49.80135
                ]
            },
            "properties": {
                "ref:rspo": 128217,
                "official_name": "Terapeutyczny Punkt Przedszkolny S\u0142oneczna Kraina",
                "name": "Terapeutyczny Punkt Przedszkolny S\u0142oneczna Kraina",
                "addr:country": "PL",
                "addr:postcode": "43-430",
                "addr:city": "Skocz\u00f3w",
                "addr:street": "Ko\u015bcielna",
                "addr:housenumber": "6",
                "addr:teryt:simc": 925198,
                "addr:teryt:sym_ul": 9546,
                "contact:phone": "+48 798177277",
                "contact:email": "skoczow@tppsk.pl",
                "contact:website": "http:\/\/www.tppsk.pl",
                "ref:regon": "362179033",
                "operator": "S\u0142oneczna Kraina Sp\u00f3\u0142ka Z Ograniczon\u0105 Odpowiedzialno\u015bci\u0105",
                "operator:type": "private",
                "amenity": "kindergarten"
            }
        },
        {
            "id": 66285,
            "type": "Feature",
            "geometry": {
                "type": "Point",
                "coordinates": [
                    18.79838,
                    49.80223
                ]
            },
            "properties": {
                "ref:rspo": 66285,
                "official_name": "Przedszkole Publiczne Nr 3 w Skoczowie",
                "name": "Przedszkole Publiczne Nr 3 w Skoczowie",
                "addr:country": "PL",
                "addr:postcode": "43-430",
                "addr:city": "Skocz\u00f3w",
                "addr:street": "Po\u0142udniowa",
                "addr:housenumber": "6",
                "addr:teryt:simc": 925198,
                "addr:teryt:sym_ul": 17070,
                "contact:phone": "+48 338533945",
                "contact:email": "pp3@skoczow.edu.pl",
                "ref:regon": "071009974",
                "operator": "Gmina Skocz\u00f3w",
                "operator:type": "government",
                "amenity": "kindergarten"
            }
        },
        {
            "id": 66302,
            "type": "Feature",
            "geometry": {
                "type": "Point",
                "coordinates": [
                    18.819,
                    49.80247
                ]
            },
            "properties": {
                "ref:rspo": 66302,
                "official_name": "Przedszkole Publiczne w Pog\u00f3rzu",
                "name": "Przedszkole Publiczne w Pog\u00f3rzu",
                "addr:country": "PL",
                "addr:postcode": "43-430",
                "addr:city": "Pog\u00f3rze",
                "addr:street": "Bielska",
                "addr:housenumber": "91",
                "addr:teryt:simc": 67487,
                "addr:teryt:sym_ul": 1279,
                "contact:phone": "+48 338533749",
                "contact:email": "zsppogorze@skoczow.edu.pl",
                "contact:website": "http:\/\/pppogorze.mzo.skoczow.pl",
                "ref:regon": "071010010",
                "ref:vatin": "PL5482231254",
                "operator": "Gmina Skocz\u00f3w",
                "operator:type": "government",
                "amenity": "kindergarten",
                "note": "Parent RSPO: 68013"
            }
        },
        {
            "id": 277250,
            "type": "Feature",
            "geometry": {
                "type": "Point",
                "coordinates": [
                    18.80265,
                    49.8075
                ]
            },
            "properties": {
                "ref:rspo": 277250,
                "official_name": "Osrodek Szkolenia Zawodowego",
                "name": "Osrodek Szkolenia Zawodowego",
                "addr:country": "PL",
                "addr:postcode": "43-430",
                "addr:city": "Skocz\u00f3w",
                "addr:street": "Kolonia",
                "addr:housenumber": "35",
                "addr:teryt:simc": 925198,
                "addr:teryt:sym_ul": 8851,
                "contact:phone": "+48 692468277",
                "ref:regon": "388439643",
                "operator": "Micha\u0142 Cie\u015blar",
                "operator:type": "private",
                "fixme": "w zale\u017cno\u015bci od przedmiotu dzia\u0142alno\u015bci (np. amenity=training + training=*, amenity=dancing_school, amenity=language_school, amenity=music_school)"
            }
        },
        {
            "id": 133762,
            "type": "Feature",
            "geometry": {
                "type": "Point",
                "coordinates": [
                    18.8402,
                    49.8263
                ]
            },
            "properties": {
                "ref:rspo": 133762,
                "official_name": "Firma Us\u0142ugowo-Doradcza O\u015brodek Szkoleniowy \"Werwik\" Sabina Macura",
                "name": "Firma Us\u0142ugowo-Doradcza O\u015brodek Szkoleniowy \"Werwik\" Sabina Macura",
                "addr:country": "PL",
                "addr:postcode": "43-430",
                "addr:city": "Kowale",
                "addr:street": "Kowali",
                "addr:housenumber": "61",
                "addr:teryt:simc": 67240,
                "addr:teryt:sym_ul": 9659,
                "contact:phone": "+48 504066705",
                "ref:regon": "367595990",
                "ref:vatin": "PL5481144582",
                "operator": "Firma Us\u0142ugowo-Doradcza  O\u015brodek Szkoleniowy  \"Werwik\"   Sabina Macura",
                "operator:type": "private",
                "fixme": "w zale\u017cno\u015bci od przedmiotu dzia\u0142alno\u015bci (np. amenity=training + training=*, amenity=dancing_school, amenity=language_school, amenity=music_school)"
            }
        },
        {
            "id": 66292,
            "type": "Feature",
            "geometry": {
                "type": "Point",
                "coordinates": [
                    18.79386,
                    49.82971
                ]
            },
            "properties": {
                "ref:rspo": 66292,
                "official_name": "Przedszkole Publiczne w Kiczycach",
                "name": "Przedszkole Publiczne w Kiczycach",
                "addr:country": "PL",
                "addr:postcode": "43-430",
                "addr:city": "Kiczyce",
                "addr:street": "Ochabska",
                "addr:housenumber": "54",
                "addr:teryt:simc": 67228,
                "addr:teryt:sym_ul": 26687,
                "contact:phone": "+48 338535173",
                "contact:email": "zspkiczyce@skoczow.edu.pl",
                "contact:website": "http:\/\/www.zspkiczyce.edu.pl",
                "ref:regon": "071010049",
                "ref:vatin": "PL5482231484",
                "operator": "Gmina Skocz\u00f3w",
                "operator:type": "government",
                "amenity": "kindergarten",
                "note": "Parent RSPO: 122989"
            }
        },
        {
            "id": 122989,
            "type": "Feature",
            "geometry": {
                "type": "Point",
                "coordinates": [
                    18.80005,
                    49.83084
                ]
            },
            "properties": {
                "ref:rspo": 122989,
                "official_name": "Zesp\u00f3\u0142 Szkolno- Przedszkolny w Kiczycach",
                "name": "Zesp\u00f3\u0142 Szkolno- Przedszkolny w Kiczycach",
                "addr:country": "PL",
                "addr:postcode": "43-430",
                "addr:city": "Kiczyce",
                "addr:street": "D\u0142uga",
                "addr:housenumber": "52",
                "addr:teryt:simc": 67228,
                "addr:teryt:sym_ul": 3839,
                "contact:email": "zspkiczyce@skoczow.edu.pl",
                "contact:website": "http:\/\/zspkiczyce.edu.pl",
                "ref:regon": "243553558",
                "operator": "Gmina Skocz\u00f3w",
                "operator:type": "government",
                "landuse": "education",
                "fixme": "amenity=school, amenity=college albo landuse=education w zale\u017cno\u015bci od tego, jakie plac\u00f3wki wchodz\u0105 w sk\u0142ad zespo\u0142u. Sprawd\u017a, kiedy stosowa\u0107 amenity=* a kiedy landuse=education.",
                "note": "Children RSPO: 66292;109214"
            }
        },
        {
            "id": 109214,
            "type": "Feature",
            "geometry": {
                "type": "Point",
                "coordinates": [
                    18.80005,
                    49.83081
                ]
            },
            "properties": {
                "isced:level": "1;2",
                "ref:rspo": 109214,
                "official_name": "Szko\u0142a Podstawowa im. Or\u0142a Bia\u0142ego w Kiczycach",
                "name": "Szko\u0142a Podstawowa",
                "addr:country": "PL",
                "addr:postcode": "43-430",
                "addr:city": "Kiczyce",
                "addr:street": "D\u0142uga",
                "addr:housenumber": "52",
                "addr:teryt:simc": 67228,
                "addr:teryt:sym_ul": 3839,
                "contact:phone": "+48 338533527",
                "contact:email": "zspkiczyce@skoczow.edu.pl",
                "contact:website": "http:\/\/www.zspkiczyce.edu.pl",
                "ref:regon": "070434623",
                "ref:vatin": "PL5482666590",
                "operator": "Gmina Skocz\u00f3w",
                "operator:type": "government",
                "amenity": "school",
                "note": "Parent RSPO: 122989"
            }
        },
        {
            "id": 66300,
            "type": "Feature",
            "geometry": {
                "type": "Point",
                "coordinates": [
                    18.81932,
                    49.83584
                ]
            },
            "properties": {
                "ref:rspo": 66300,
                "official_name": "Przedszkole Publiczne w Pier\u015b\u0107cu Z Oddzia\u0142ami Zamiejscowymi w Kowalach",
                "name": "Przedszkole Publiczne w Pier\u015b\u0107cu Z Oddzia\u0142ami Zamiejscowymi w Kowalach",
                "addr:country": "PL",
                "addr:postcode": "43-430",
                "addr:city": "Pier\u015bciec",
                "addr:street": "Skoczowska",
                "addr:housenumber": "73",
                "addr:teryt:simc": 67435,
                "addr:teryt:sym_ul": 20072,
                "contact:phone": "+48 338535001",
                "contact:email": "pppiersciec@skoczow.edu.pl",
                "contact:website": "http:\/\/www.pppiersciec.mzo.skoczow.pl",
                "ref:regon": "071010026",
                "ref:vatin": "PL5482231509",
                "operator": "Gmina Skocz\u00f3w",
                "operator:type": "government",
                "amenity": "kindergarten"
            }
        },
        {
            "id": 109215,
            "type": "Feature",
            "geometry": {
                "type": "Point",
                "coordinates": [
                    18.82036,
                    49.83695
                ]
            },
            "properties": {
                "isced:level": "1;2",
                "ref:rspo": 109215,
                "official_name": "Szko\u0142a Podstawowa im. Zofii Kossak w Pier\u015b\u0107cu",
                "name": "Szko\u0142a Podstawowa",
                "addr:country": "PL",
                "addr:postcode": "43-430",
                "addr:city": "Pier\u015bciec",
                "addr:street": "Jerzego Tomanka",
                "addr:housenumber": "8",
                "addr:teryt:simc": 67435,
                "addr:teryt:sym_ul": 34590,
                "contact:phone": "+48 338533951",
                "contact:email": "sppiersciec@skoczow.edu.pl",
                "contact:website": "http:\/\/sppiersciec.pl",
                "ref:regon": "070434669",
                "ref:vatin": "PL5482685699",
                "operator": "Gmina Skocz\u00f3w",
                "operator:type": "government",
                "amenity": "school"
            }
        },
        {
            "id": 122920,
            "type": "Feature",
            "geometry": {
                "type": "Point",
                "coordinates": [
                    18.76394,
                    49.84464
                ]
            },
            "properties": {
                "isced:level": "1;2",
                "ref:rspo": 122920,
                "official_name": "Szko\u0142a Podstawowa Im Karola Miarki w Ochabach Ma\u0142ych",
                "name": "Szko\u0142a Podstawowa Im Karola Miarki w Ochabach Ma\u0142ych",
                "addr:country": "PL",
                "addr:postcode": "43-430",
                "addr:city": "Ochaby Ma\u0142e",
                "addr:street": "Ludwika Krzempka",
                "addr:housenumber": "2",
                "addr:teryt:simc": 999707,
                "addr:teryt:sym_ul": 38843,
                "contact:phone": "+48 338533781",
                "contact:email": "szkolaochaby@wp.pl",
                "contact:website": "http:\/\/www.szkolaochaby.pl",
                "ref:regon": "070434630",
                "operator": "Gmina Skocz\u00f3w",
                "operator:type": "government",
                "amenity": "school"
            }
        },
        {
            "id": 66296,
            "type": "Feature",
            "geometry": {
                "type": "Point",
                "coordinates": [
                    18.77472,
                    49.84563
                ]
            },
            "properties": {
                "ref:rspo": 66296,
                "official_name": "Przedszkole Publiczne w Ochabach Z Oddzia\u0142ami Zamiejscowymi w Wi\u015blicy",
                "name": "Przedszkole Publiczne w Ochabach Z Oddzia\u0142ami Zamiejscowymi w Wi\u015blicy",
                "addr:country": "PL",
                "addr:postcode": "43-430",
                "addr:city": "Ochaby Ma\u0142e",
                "addr:street": "Go\u0142yska",
                "addr:housenumber": "12",
                "addr:teryt:simc": 999707,
                "addr:teryt:sym_ul": 38842,
                "contact:phone": "+48 338535444",
                "contact:email": "ppochaby@skoczow.edu.pl",
                "contact:website": "http:\/\/ppochaby.mzo.skoczow.pl",
                "ref:regon": "070423192",
                "ref:vatin": "PL5482231490",
                "operator": "Gmina Skocz\u00f3w",
                "operator:type": "government",
                "amenity": "kindergarten"
            }
        }
    ]
}