{
    "type": "FeatureCollection",
    "features": [
        {
            "id": 60180,
            "type": "Feature",
            "geometry": {
                "type": "Point",
                "coordinates": [
                    18.94276,
                    49.6208699
                ]
            },
            "properties": {
                "isced:level": "1;2",
                "ref:rspo": 60180,
                "official_name": "Szko\u0142a Podstawowa nr 2 im. Adama Mickiewicza w Wi\u015ble",
                "name": "Szko\u0142a Podstawowa nr 2",
                "addr:postcode": "43-460",
                "addr:city": "Wis\u0142a",
                "addr:street": "Bia\u0142a Wise\u0142ka",
                "addr:housenumber": "6",
                "addr:door": "-",
                "addr:city:simc": 927091,
                "addr:street:sym_ul": 1139,
                "phone": "+48 338553763",
                "email": "sekretariat@sp2wisla.edu.pl",
                "website": "http:\/\/www.sp2wisla.edu.pl",
                "ref:regon": "070596461",
                "ref:vatin": "PL5481105323",
                "operator": "Gmina Wis\u0142a",
                "operator:type": "government",
                "amenity": "school"
            }
        },
        {
            "id": 80573,
            "type": "Feature",
            "geometry": {
                "type": "Point",
                "coordinates": [
                    18.87318,
                    49.62427
                ]
            },
            "properties": {
                "ref:rspo": 80573,
                "official_name": "Przedszkole nr 1 w Wi\u015ble",
                "name": "Przedszkole nr 1 w Wi\u015ble",
                "addr:postcode": "43-460",
                "addr:city": "Wis\u0142a",
                "addr:street": "Turystyczna",
                "addr:housenumber": "1",
                "addr:door": "-",
                "addr:city:simc": 927091,
                "addr:street:sym_ul": 23184,
                "phone": "+48 338552497",
                "email": "przedszkolewisla1@o2.pl",
                "ref:regon": "072380363",
                "operator": "Gmina Wis\u0142a",
                "operator:type": "government",
                "amenity": "kindergarten",
                "note": "Parent RSPO: 3956"
            }
        },
        {
            "id": 3956,
            "type": "Feature",
            "geometry": {
                "type": "Point",
                "coordinates": [
                    18.87416,
                    49.62489
                ]
            },
            "properties": {
                "ref:rspo": 3956,
                "official_name": "Zesp\u00f3\u0142 Szkolno - Przedszkolny nr 1 w Wi\u015ble",
                "name": "Zesp\u00f3\u0142 Szkolno - Przedszkolny nr 1 w Wi\u015ble",
                "addr:postcode": "43-460",
                "addr:city": "Wis\u0142a",
                "addr:street": "Kopyd\u0142o",
                "addr:housenumber": "74",
                "addr:door": "-",
                "addr:city:simc": 927091,
                "addr:street:sym_ul": 9307,
                "phone": "+48 338552709",
                "email": "sekretariat@zsp1.wisla.pl",
                "website": "http:\/\/www.sp4.wisla.pl",
                "ref:regon": "243012868",
                "operator": "Gmina Wis\u0142a",
                "operator:type": "government",
                "landuse": "education",
                "fixme": "amenity=school, amenity=college albo landuse=education w zale\u017cno\u015bci od tego, jakie plac\u00f3wki wchodz\u0105 w sk\u0142ad zespo\u0142u. Sprawd\u017a, kiedy stosowa\u0107 amenity=* a kiedy landuse=education.",
                "note": "Children RSPO: 59956;80573"
            }
        },
        {
            "id": 59956,
            "type": "Feature",
            "geometry": {
                "type": "Point",
                "coordinates": [
                    18.87416,
                    49.62486
                ]
            },
            "properties": {
                "isced:level": "1;2",
                "ref:rspo": 59956,
                "official_name": "Szko\u0142a Podstawowa nr 4 im. Ks. Seniora F. Michejdy w Wi\u015ble",
                "name": "Szko\u0142a Podstawowa nr 4",
                "addr:postcode": "43-460",
                "addr:city": "Wis\u0142a",
                "addr:street": "Kopyd\u0142o",
                "addr:housenumber": "74",
                "addr:door": "-",
                "addr:city:simc": 927091,
                "addr:street:sym_ul": 9307,
                "phone": "+48 338552709",
                "email": "sekretariat@zsp1.wisla.pl",
                "website": "http:\/\/www.sp4.wisla.pl",
                "ref:regon": "070596449",
                "operator": "Gmina Wis\u0142a",
                "operator:type": "government",
                "amenity": "school",
                "note": "Parent RSPO: 3956"
            }
        },
        {
            "id": 264130,
            "type": "Feature",
            "geometry": {
                "type": "Point",
                "coordinates": [
                    18.90123,
                    49.63143
                ]
            },
            "properties": {
                "ref:rspo": 264130,
                "official_name": "Niepubliczne Przedszkole Terapeutyczno-Integracyjne \"Niebieski Motyl\"",
                "name": "Niepubliczne Przedszkole Terapeutyczno-Integracyjne \"Niebieski Motyl\"",
                "addr:postcode": "43-460",
                "addr:city": "Wis\u0142a",
                "addr:street": "Wyzwolenia",
                "addr:housenumber": "19",
                "addr:city:simc": 927091,
                "addr:street:sym_ul": 25133,
                "phone": "+48 537971336",
                "email": "niebieski.motyl.przedszkole@wp.pl",
                "website": "http:\/\/przedszkole-niebieskimotyl.pl",
                "ref:regon": "368266968",
                "operator": "Bekabe Sp\u00f3\u0142ka Z Ograniczon\u0105 Odpowiedzialno\u015bci\u0105",
                "operator:type": "private",
                "amenity": "kindergarten"
            }
        },
        {
            "id": 130831,
            "type": "Feature",
            "geometry": {
                "type": "Point",
                "coordinates": [
                    18.88741,
                    49.63524
                ]
            },
            "properties": {
                "ref:rspo": 130831,
                "official_name": "Zesp\u00f3\u0142 Przedszkoli Miejskich w Wi\u015ble",
                "name": "Zesp\u00f3\u0142 Przedszkoli Miejskich w Wi\u015ble",
                "addr:postcode": "43-460",
                "addr:city": "Wis\u0142a",
                "addr:street": "Wyzwolenia",
                "addr:housenumber": "34",
                "addr:city:simc": 927091,
                "addr:street:sym_ul": 25133,
                "phone": "+48 785188693",
                "email": "przedszkolewisla3@o2.pl",
                "ref:regon": "364568170",
                "operator": "Gmina Wis\u0142a",
                "operator:type": "government",
                "landuse": "education",
                "fixme": "amenity=school, amenity=college albo landuse=education w zale\u017cno\u015bci od tego, jakie plac\u00f3wki wchodz\u0105 w sk\u0142ad zespo\u0142u. Sprawd\u017a, kiedy stosowa\u0107 amenity=* a kiedy landuse=education.",
                "note": "Children RSPO: 58571;58677"
            }
        },
        {
            "id": 58677,
            "type": "Feature",
            "geometry": {
                "type": "Point",
                "coordinates": [
                    18.88741,
                    49.63521
                ]
            },
            "properties": {
                "ref:rspo": 58677,
                "official_name": "Przedszkole nr 3 w Wi\u015ble",
                "name": "Przedszkole nr 3 w Wi\u015ble",
                "addr:postcode": "43-460",
                "addr:city": "Wis\u0142a",
                "addr:street": "Wyzwolenia",
                "addr:housenumber": "34",
                "addr:door": "-",
                "addr:city:simc": 927091,
                "addr:street:sym_ul": 25133,
                "phone": "+48 338553432",
                "email": "przedszkolewisla3@o2.pl",
                "ref:regon": "072380370",
                "ref:vatin": "PL5481118633",
                "operator": "Gmina Wis\u0142a",
                "operator:type": "government",
                "amenity": "kindergarten",
                "note": "Parent RSPO: 130831"
            }
        },
        {
            "id": 59103,
            "type": "Feature",
            "geometry": {
                "type": "Point",
                "coordinates": [
                    18.93667,
                    49.6365399
                ]
            },
            "properties": {
                "ref:rspo": 59103,
                "official_name": "Przedszkole Integracyjne w Wi\u015ble",
                "name": "Przedszkole Integracyjne w Wi\u015ble",
                "addr:postcode": "43-460",
                "addr:city": "Wis\u0142a",
                "addr:street": "Malinka",
                "addr:housenumber": "51",
                "addr:door": "-",
                "addr:city:simc": 927091,
                "addr:street:sym_ul": 12063,
                "phone": "+48 338511089",
                "email": "sekretariat@zsp2wisla.pl",
                "website": "http:\/\/zsp2wisla.pl\/",
                "ref:regon": "240974437",
                "operator": "Gmina Wis\u0142a",
                "operator:type": "government",
                "amenity": "kindergarten",
                "note": "Parent RSPO: 115060"
            }
        },
        {
            "id": 115060,
            "type": "Feature",
            "geometry": {
                "type": "Point",
                "coordinates": [
                    18.93695,
                    49.6369
                ]
            },
            "properties": {
                "ref:rspo": 115060,
                "official_name": "Zesp\u00f3\u0142 Szkolno - Przedszkolny nr 2 w Wi\u015ble",
                "name": "Zesp\u00f3\u0142 Szkolno - Przedszkolny nr 2 w Wi\u015ble",
                "addr:postcode": "43-460",
                "addr:city": "Wis\u0142a",
                "addr:street": "Malinka",
                "addr:housenumber": "53",
                "addr:city:simc": 927091,
                "addr:street:sym_ul": 12063,
                "phone": "+48 338553666",
                "email": "sekretariat@zsp2wisla.pl",
                "website": "http:\/\/zsp2wisla.pl\/",
                "ref:regon": "243290461",
                "ref:vatin": "PL5482663539",
                "operator": "Gmina Wis\u0142a",
                "operator:type": "government",
                "landuse": "education",
                "fixme": "amenity=school, amenity=college albo landuse=education w zale\u017cno\u015bci od tego, jakie plac\u00f3wki wchodz\u0105 w sk\u0142ad zespo\u0142u. Sprawd\u017a, kiedy stosowa\u0107 amenity=* a kiedy landuse=education.",
                "note": "Children RSPO: 59103;60182"
            }
        },
        {
            "id": 60182,
            "type": "Feature",
            "geometry": {
                "type": "Point",
                "coordinates": [
                    18.93695,
                    49.636869999999995
                ]
            },
            "properties": {
                "isced:level": "1;2",
                "ref:rspo": 60182,
                "official_name": "Szko\u0142a Podstawowa nr 3 im. Boles\u0142awa Prusa w Wi\u015ble",
                "name": "Szko\u0142a Podstawowa nr 3",
                "addr:postcode": "43-460",
                "addr:city": "Wis\u0142a",
                "addr:street": "Malinka",
                "addr:housenumber": "53",
                "addr:door": "-",
                "addr:city:simc": 927091,
                "addr:street:sym_ul": 12063,
                "phone": "+48 338553666",
                "email": "sekretariat@zsp2wisla.pl",
                "website": "http:\/\/zsp2wisla.pl\/",
                "ref:regon": "070596455",
                "operator": "Gmina Wis\u0142a",
                "operator:type": "government",
                "amenity": "school",
                "note": "Parent RSPO: 115060"
            }
        },
        {
            "id": 7846,
            "type": "Feature",
            "geometry": {
                "type": "Point",
                "coordinates": [
                    18.8747599,
                    49.63738
                ]
            },
            "properties": {
                "ref:rspo": 7846,
                "official_name": "Zesp\u00f3\u0142 Szk\u00f3\u0142 Gastronomiczno - Hotelarskich im. W\u0142adys\u0142awa Reymonta w Wi\u015ble",
                "name": "Zesp\u00f3\u0142 Szk\u00f3\u0142 Gastronomiczno - Hotelarskich",
                "addr:postcode": "43-460",
                "addr:city": "Wis\u0142a",
                "addr:street": "Reymonta",
                "addr:housenumber": "2",
                "addr:city:simc": 927091,
                "addr:street:sym_ul": 18645,
                "phone": "+48 338552474",
                "email": "zsgh@wisla.pl",
                "website": "http:\/\/www.zsgh.wisla.pl",
                "ref:regon": "000201425",
                "operator": "Powiat Cieszy\u0144ski",
                "operator:type": "government",
                "landuse": "education",
                "fixme": "amenity=school, amenity=college albo landuse=education w zale\u017cno\u015bci od tego, jakie plac\u00f3wki wchodz\u0105 w sk\u0142ad zespo\u0142u. Sprawd\u017a, kiedy stosowa\u0107 amenity=* a kiedy landuse=education.",
                "note": "Children RSPO: 53582;53583;132920"
            }
        },
        {
            "id": 53582,
            "type": "Feature",
            "geometry": {
                "type": "Point",
                "coordinates": [
                    18.8747599,
                    49.63735
                ]
            },
            "properties": {
                "isced:level": "3",
                "ref:rspo": 53582,
                "official_name": "Bran\u017cowa Szko\u0142a I Stopnia",
                "name": "Bran\u017cowa Szko\u0142a I Stopnia",
                "addr:postcode": "43-460",
                "addr:city": "Wis\u0142a",
                "addr:street": "W\u0142adys\u0142awa Reymonta",
                "addr:housenumber": "2",
                "addr:city:simc": 927091,
                "addr:street:sym_ul": 18648,
                "phone": "+48 338552475",
                "email": "zsgh@wisla.pl",
                "website": "http:\/\/zsgh.wisla.pl",
                "ref:regon": "070455000",
                "operator": "Powiat Cieszy\u0144ski",
                "operator:type": "government",
                "amenity": "school",
                "note": "Parent RSPO: 7846"
            }
        },
        {
            "id": 53583,
            "type": "Feature",
            "geometry": {
                "type": "Point",
                "coordinates": [
                    18.8747599,
                    49.63732
                ]
            },
            "properties": {
                "isced:level": "3",
                "ref:rspo": 53583,
                "official_name": "Technikum",
                "name": "Technikum",
                "addr:postcode": "43-460",
                "addr:city": "Wis\u0142a",
                "addr:street": "W\u0142adys\u0142awa Reymonta",
                "addr:housenumber": "2",
                "addr:city:simc": 927091,
                "addr:street:sym_ul": 18648,
                "phone": "+48 338552474",
                "email": "zsgh@wisla.pl",
                "website": "http:\/\/www.zsgh.wisla.pl",
                "ref:regon": "070455039",
                "operator": "Powiat Cieszy\u0144ski",
                "operator:type": "government",
                "amenity": "school",
                "note": "Parent RSPO: 7846"
            }
        },
        {
            "id": 132920,
            "type": "Feature",
            "geometry": {
                "type": "Point",
                "coordinates": [
                    18.8747599,
                    49.63729
                ]
            },
            "properties": {
                "isced:level": "4",
                "ref:rspo": 132920,
                "official_name": "Szko\u0142a Policealna",
                "name": "Szko\u0142a Policealna",
                "addr:postcode": "43-460",
                "addr:city": "Wis\u0142a",
                "addr:street": "W\u0142adys\u0142awa Reymonta",
                "addr:housenumber": "2",
                "addr:city:simc": 927091,
                "addr:street:sym_ul": 18648,
                "phone": "+48 338552475",
                "email": "zsgh@wisla.pl",
                "website": "http:\/\/zsgh.wisla.pl",
                "ref:regon": "240163087",
                "operator": "Powiat Cieszy\u0144ski",
                "operator:type": "government",
                "amenity": "college",
                "note": "Parent RSPO: 7846"
            }
        },
        {
            "id": 40571,
            "type": "Feature",
            "geometry": {
                "type": "Point",
                "coordinates": [
                    18.94574,
                    49.63816
                ]
            },
            "properties": {
                "ref:rspo": 40571,
                "official_name": "Szkolne Schronisko M\u0142odzie\u017cowe \"Granit\" w Wi\u015ble Malince",
                "name": "Szkolne Schronisko M\u0142odzie\u017cowe \"Granit\" w Wi\u015ble Malince",
                "addr:postcode": "43-460",
                "addr:city": "Wis\u0142a",
                "addr:street": "Malinka",
                "addr:housenumber": "79",
                "addr:city:simc": 927091,
                "addr:street:sym_ul": 12063,
                "phone": "+48 338542240",
                "email": "ssm@schroniskowisla.pl",
                "ref:regon": "000981363",
                "operator": "Powiat Cieszy\u0144ski",
                "operator:type": "government",
                "tourism": "hostel"
            }
        },
        {
            "id": 114914,
            "type": "Feature",
            "geometry": {
                "type": "Point",
                "coordinates": [
                    18.93872,
                    49.64288
                ]
            },
            "properties": {
                "ref:rspo": 114914,
                "official_name": "Iwa-Consulting",
                "name": "Iwa-Consulting",
                "addr:postcode": "43-460",
                "addr:city": "Wis\u0142a",
                "addr:street": "Fiedorowska",
                "addr:housenumber": "28",
                "addr:city:simc": 927091,
                "addr:street:sym_ul": 4974,
                "email": "info@iwaconsulting.pl",
                "ref:regon": "243282094",
                "operator": "Anna Strza\u0142kowska",
                "operator:type": "private",
                "fixme": "w zale\u017cno\u015bci od przedmiotu dzia\u0142alno\u015bci (np. amenity=training + training=*, amenity=dancing_school, amenity=language_school, amenity=music_school)"
            }
        },
        {
            "id": 8238,
            "type": "Feature",
            "geometry": {
                "type": "Point",
                "coordinates": [
                    18.863140106201,
                    49.651668548584
                ]
            },
            "properties": {
                "ref:rspo": 8238,
                "official_name": "Zesp\u00f3\u0142 Szk\u00f3\u0142 Og\u00f3lnokszta\u0142c\u0105cych im. Paw\u0142a Stalmacha w Wi\u015ble",
                "name": "Zesp\u00f3\u0142 Szk\u00f3\u0142 Og\u00f3lnokszta\u0142c\u0105cych",
                "addr:postcode": "43-460",
                "addr:city": "Wis\u0142a",
                "addr:street": "Plac Bogumi\u0142a Hoffa",
                "addr:housenumber": "5",
                "addr:city:simc": 927091,
                "addr:street:sym_ul": 6686,
                "phone": "+48 338552044",
                "email": "sekretariat@lo.wisla.pl",
                "website": "http:\/\/lowisla.pl",
                "ref:regon": "072799470",
                "operator": "Powiat Cieszy\u0144ski",
                "operator:type": "government",
                "landuse": "education",
                "fixme": "amenity=school, amenity=college albo landuse=education w zale\u017cno\u015bci od tego, jakie plac\u00f3wki wchodz\u0105 w sk\u0142ad zespo\u0142u. Sprawd\u017a, kiedy stosowa\u0107 amenity=* a kiedy landuse=education.",
                "note": "Children RSPO: 44074;44075"
            }
        },
        {
            "id": 55984,
            "type": "Feature",
            "geometry": {
                "type": "Point",
                "coordinates": [
                    18.863140106201,
                    49.651638548583996
                ]
            },
            "properties": {
                "isced:level": "1;2",
                "ref:rspo": 55984,
                "official_name": "Szko\u0142a Podstawowa nr 1 im. Paw\u0142a Stalmacha w Wi\u015ble",
                "name": "Szko\u0142a Podstawowa nr 1",
                "addr:postcode": "43-460",
                "addr:city": "Wis\u0142a",
                "addr:street": "Plac Bogumi\u0142a Hoffa",
                "addr:housenumber": "5",
                "addr:city:simc": 927091,
                "addr:street:sym_ul": 6686,
                "phone": "+48 338552544",
                "email": "sekretariat@sp1.wisla.pl",
                "website": "https:\/\/sp1.wisla.pl",
                "ref:regon": "070596490",
                "ref:vatin": "PL5482685481",
                "operator": "Gmina Wis\u0142a",
                "operator:type": "government",
                "amenity": "school"
            }
        },
        {
            "id": 44074,
            "type": "Feature",
            "geometry": {
                "type": "Point",
                "coordinates": [
                    18.863140106201,
                    49.651608548584
                ]
            },
            "properties": {
                "isced:level": "3",
                "ref:rspo": 44074,
                "official_name": "I Liceum Og\u00f3lnokszta\u0142c\u0105ce im.paw\u0142a Stalmacha",
                "name": "I Liceum Og\u00f3lnokszta\u0142c\u0105ce im.paw\u0142a Stalmacha",
                "addr:postcode": "43-460",
                "addr:city": "Wis\u0142a",
                "addr:street": "Plac Bogumi\u0142a Hoffa",
                "addr:housenumber": "5",
                "addr:city:simc": 927091,
                "addr:street:sym_ul": 6686,
                "phone": "+48 338552044",
                "email": "sekretariat@lo.wisla.pl",
                "website": "http:\/\/www.lowisla.pl",
                "ref:regon": "070454560",
                "operator": "Powiat Cieszy\u0144ski",
                "operator:type": "government",
                "amenity": "school",
                "note": "Parent RSPO: 8238"
            }
        },
        {
            "id": 44075,
            "type": "Feature",
            "geometry": {
                "type": "Point",
                "coordinates": [
                    18.863140106201,
                    49.651578548584
                ]
            },
            "properties": {
                "isced:level": "3",
                "ref:rspo": 44075,
                "official_name": "Liceum Og\u00f3lnokszta\u0142c\u0105ce dla Doros\u0142ych",
                "name": "Liceum Og\u00f3lnokszta\u0142c\u0105ce dla Doros\u0142ych",
                "addr:postcode": "43-460",
                "addr:city": "Wis\u0142a",
                "addr:street": "Plac Bogumi\u0142a Hoffa",
                "addr:housenumber": "5",
                "addr:city:simc": 927091,
                "addr:street:sym_ul": 6686,
                "phone": "+48 338552044",
                "ref:regon": "072878488",
                "operator": "Powiat Cieszy\u0144ski",
                "operator:type": "government",
                "amenity": "school",
                "note": "Parent RSPO: 8238"
            }
        },
        {
            "id": 58501,
            "type": "Feature",
            "geometry": {
                "type": "Point",
                "coordinates": [
                    18.8276499,
                    49.65757
                ]
            },
            "properties": {
                "isced:level": "1;2",
                "ref:rspo": 58501,
                "official_name": "Szko\u0142a Podstawowa nr 5 w Wi\u015ble",
                "name": "Szko\u0142a Podstawowa nr 5 w Wi\u015ble",
                "addr:postcode": "43-460",
                "addr:city": "Wis\u0142a",
                "addr:street": "Jawornik",
                "addr:housenumber": "58",
                "addr:door": "-",
                "addr:city:simc": 927091,
                "addr:street:sym_ul": 7392,
                "phone": "+48 338552720",
                "email": "sekretariat@sp5.wisla.pl",
                "website": "http:\/\/www.sp5.wisla.pl",
                "ref:regon": "070596426",
                "ref:vatin": "PL5481175849",
                "operator": "Gmina Wis\u0142a",
                "operator:type": "government",
                "amenity": "school"
            }
        },
        {
            "id": 89745,
            "type": "Feature",
            "geometry": {
                "type": "Point",
                "coordinates": [
                    18.8276499,
                    49.65754
                ]
            },
            "properties": {
                "ref:rspo": 89745,
                "official_name": "Przedszkole Niepubliczne \"Stumilowy Las\" w Wi\u015ble",
                "name": "Przedszkole Niepubliczne \"Stumilowy Las\" w Wi\u015ble",
                "addr:postcode": "43-460",
                "addr:city": "Wis\u0142a",
                "addr:street": "Jawornik",
                "addr:housenumber": "58",
                "addr:door": "-",
                "addr:city:simc": 927091,
                "addr:street:sym_ul": 7392,
                "phone": "+48 338534662",
                "email": "monika.mentel@poczta.fm",
                "ref:regon": "243105587",
                "operator": "Monika Mentel",
                "operator:type": "private",
                "amenity": "kindergarten"
            }
        },
        {
            "id": 113931,
            "type": "Feature",
            "geometry": {
                "type": "Point",
                "coordinates": [
                    18.8563,
                    49.65823
                ]
            },
            "properties": {
                "ref:rspo": 113931,
                "official_name": "Pa\u0144stwowa Szko\u0142a Muzyczna I St. w Cieszynie Filia w Wi\u015ble",
                "name": "Pa\u0144stwowa Szko\u0142a Muzyczna I St. w Cieszynie Filia w Wi\u015ble",
                "addr:postcode": "43-460",
                "addr:city": "Wis\u0142a",
                "addr:street": "1 Maja",
                "addr:housenumber": "66",
                "addr:city:simc": 927091,
                "addr:street:sym_ul": 11926,
                "phone": "+48 338551307",
                "ref:regon": "240075727",
                "operator": "Ministerstwo Kultury I Dziedzictwa Narodowego",
                "operator:type": "public",
                "amenity": "music_school",
                "note": "Parent RSPO: 92786"
            }
        },
        {
            "id": 58571,
            "type": "Feature",
            "geometry": {
                "type": "Point",
                "coordinates": [
                    18.85722,
                    49.6595299
                ]
            },
            "properties": {
                "ref:rspo": 58571,
                "official_name": "Przedszkole nr 2 w Wi\u015ble",
                "name": "Przedszkole nr 2 w Wi\u015ble",
                "addr:postcode": "43-460",
                "addr:city": "Wis\u0142a",
                "addr:street": "Wodna",
                "addr:housenumber": "5",
                "addr:door": "-",
                "addr:city:simc": 927091,
                "addr:street:sym_ul": 24550,
                "phone": "+48 338553142",
                "email": "p2wisla@poczta.onet.pl",
                "ref:regon": "072380386",
                "ref:vatin": "PL5481166336",
                "operator": "Gmina Wis\u0142a",
                "operator:type": "government",
                "amenity": "kindergarten",
                "note": "Parent RSPO: 130831"
            }
        },
        {
            "id": 130944,
            "type": "Feature",
            "geometry": {
                "type": "Point",
                "coordinates": [
                    18.85298,
                    49.66069
                ]
            },
            "properties": {
                "ref:rspo": 130944,
                "official_name": "Niepubliczne Przedszkole \"Mali Odkrywcy\"",
                "name": "Niepubliczne Przedszkole \"Mali Odkrywcy\"",
                "addr:postcode": "43-460",
                "addr:city": "Wis\u0142a",
                "addr:street": "Lipowa",
                "addr:housenumber": "6A",
                "addr:city:simc": 927091,
                "addr:street:sym_ul": 11139,
                "phone": "+48 501445319",
                "email": "gosiarybacka@poczta.onet.pl",
                "ref:regon": "364755529",
                "operator": "Ma\u0142gorzata Rybacka-Brajtszedel",
                "operator:type": "private",
                "amenity": "kindergarten"
            }
        }
    ]
}