{"type":"FeatureCollection","features":[{"id":11061,"type":"Feature","geometry":{"type":"Point","coordinates":[18.70539,49.7669]},"properties":{"ref:rspo":11061,"official_name":"Przedszkole w Ogrodzonej","name":"Przedszkole w Ogrodzonej","addr:country":"PL","addr:postcode":"43-426","addr:city":"Ogrodzona","addr:street":"ul. Centralna","addr:housenumber":"54","addr:teryt:simc":2614,"addr:teryt:sym_ul":51693,"contact:phone":"+48 530431641","contact:email":"ppogrodzona@debowiec.cieszyn.pl","ref:regon":"072356092","ref:vatin":"PL5482141367","operator":"Gmina D\u0119bowiec","operator:type":"government","amenity":"kindergarten"}},{"id":118548,"type":"Feature","geometry":{"type":"Point","coordinates":[18.7242659,49.7711723]},"properties":{"isced:level":"1;2","ref:rspo":118548,"official_name":"Szko\u0142a Podstawowa w D\u0119bowcu Filia w Ogrodzonej","name":"Szko\u0142a Podstawowa w D\u0119bowcu Filia w Ogrodzonej","addr:country":"PL","addr:postcode":"43-426","addr:city":"Ogrodzona","addr:street":"ul. Wiede\u0144ska","addr:housenumber":"18","addr:teryt:simc":24044,"addr:teryt:sym_ul":51693,"contact:phone":"+48 338533754","contact:email":"filiaogrodzona@debowiec.cieszyn.pl","contact:website":"http:\/\/debowiecsp.edupage.org\/","ref:regon":"704490040","operator":"Gmina D\u0119bowiec","operator:type":"government","amenity":"school","note":"Parent RSPO: 10774"}},{"id":118549,"type":"Feature","geometry":{"type":"Point","coordinates":[18.74375,49.79526]},"properties":{"isced:level":"1;2","ref:rspo":118549,"official_name":"Szko\u0142a Podstawowa w D\u0119bowcu Filia w Iskrzyczynie","name":"Szko\u0142a Podstawowa w D\u0119bowcu Filia w Iskrzyczynie","addr:country":"PL","addr:postcode":"43-426","addr:city":"Iskrzyczyn","addr:street":"ul. Mir\u00f3w","addr:housenumber":"6","addr:teryt:simc":45915,"addr:teryt:sym_ul":51606,"contact:phone":"+48 338533636","contact:email":"filiaiskrzyczyn@debowiec.cieszyn.pl","ref:regon":"704490040","operator":"Gmina D\u0119bowiec","operator:type":"government","amenity":"school","note":"Parent RSPO: 10774"}},{"id":11062,"type":"Feature","geometry":{"type":"Point","coordinates":[18.74014,49.79829]},"properties":{"ref:rspo":11062,"official_name":"Przedszkole w Iskrzyczynie","name":"Przedszkole w Iskrzyczynie","addr:country":"PL","addr:postcode":"43-426","addr:city":"Iskrzyczyn","addr:street":"ul. Wiejska","addr:housenumber":"17","addr:teryt:simc":24048,"addr:teryt:sym_ul":51606,"contact:phone":"+48 338562271","contact:email":"ppiskrzyczyn@debowiec.cieszyn.pl","contact:website":"http:\/\/www.przedszkole.iskrzyczyn.pl","ref:regon":"072356063","ref:vatin":"PL5482141373","operator":"Gmina D\u0119bowiec","operator:type":"government","amenity":"kindergarten"}},{"id":10774,"type":"Feature","geometry":{"type":"Point","coordinates":[18.72019,49.81426]},"properties":{"isced:level":"1;2","ref:rspo":10774,"official_name":"Szko\u0142a Podstawowa w D\u0119bowcu im. Cichociemnych Spadochroniarzy Armii Krajowej","name":"Szko\u0142a Podstawowa w D\u0119bowcu","addr:country":"PL","addr:postcode":"43-426","addr:city":"D\u0119bowiec","addr:street":"ul. Szkolna","addr:housenumber":"3","addr:teryt:simc":21970,"addr:teryt:sym_ul":51530,"contact:phone":"+48 338562227","contact:email":"spdebowiec@debowiec.cieszyn.pl","contact:website":"http:\/\/www.debowiecsp.edupage.org","ref:regon":"070449004","ref:vatin":"PL5482141427","operator":"Gmina D\u0119bowiec","operator:type":"government","amenity":"school","note":"Children RSPO: 118548;118549;118551"}},{"id":11060,"type":"Feature","geometry":{"type":"Point","coordinates":[18.72115,49.81458]},"properties":{"ref:rspo":11060,"official_name":"Przedszkole w D\u0119bowcu","name":"Przedszkole w D\u0119bowcu","addr:country":"PL","addr:postcode":"43-426","addr:city":"D\u0119bowiec","addr:street":"ul. Szkolna","addr:housenumber":"7","addr:teryt:simc":21970,"addr:teryt:sym_ul":51530,"contact:phone":"+48 338562268","contact:email":"ppdebowiec@debowiec.cieszyn.pl","contact:website":"http:\/\/debowiec.przedszkolowo.pl","ref:regon":"072356070","ref:vatin":"PL5482141396","operator":"Gmina D\u0119bowiec","operator:type":"government","amenity":"kindergarten"}},{"id":118551,"type":"Feature","geometry":{"type":"Point","coordinates":[18.7504199,49.81568]},"properties":{"isced:level":"1;2","ref:rspo":118551,"official_name":"Szko\u0142a Podstawowa w D\u0119bowcu Filia w Simoradzu","name":"Szko\u0142a Podstawowa w D\u0119bowcu Filia w Simoradzu","addr:country":"PL","addr:postcode":"43-426","addr:city":"Simoradz","addr:street":"ul. Kr\u0119ta","addr:housenumber":"15","addr:teryt:simc":9925,"addr:teryt:sym_ul":51701,"contact:phone":"+48 338532513","contact:email":"filiasimoradz@debowiec.cieszyn.pl","ref:regon":"704490040","operator":"Gmina D\u0119bowiec","operator:type":"government","amenity":"school","note":"Parent RSPO: 10774"}}]}