{
    "type": "FeatureCollection",
    "features": [
        {
            "id": 57250,
            "type": "Feature",
            "geometry": {
                "type": "Point",
                "coordinates": [
                    18.8584395,
                    49.5269664
                ]
            },
            "properties": {
                "isced:level": "1;2",
                "ref:rspo": 57250,
                "official_name": "Szko\u0142a Podstawowa Nr 1 w Jaworzynce",
                "name": "Szko\u0142a Podstawowa Nr 1 w Jaworzynce",
                "addr:postcode": "43-476",
                "addr:place": "Jaworzynka",
                "addr:housenumber": "366",
                "addr:city:simc": 53545,
                "phone": "+48 338556391",
                "email": "sp1jaworzynka@ka.home.pl",
                "ref:regon": "070665713",
                "ref:vatin": "PL5482196782",
                "operator": "Gmina Istebna",
                "operator:type": "government",
                "amenity": "school"
            }
        },
        {
            "id": 60795,
            "type": "Feature",
            "geometry": {
                "type": "Point",
                "coordinates": [
                    18.8584395,
                    49.5269364
                ]
            },
            "properties": {
                "isced:level": "1;2",
                "ref:rspo": 60795,
                "official_name": "Szko\u0142a Podstawowa Nr 2 w Jaworzynce",
                "name": "Szko\u0142a Podstawowa Nr 2 w Jaworzynce",
                "addr:postcode": "43-476",
                "addr:place": "Jaworzynka",
                "addr:housenumber": "400",
                "addr:city:simc": 53545,
                "phone": "+48 338556392",
                "email": "zapasieki@interia.pl",
                "ref:regon": "070665742",
                "ref:vatin": "PL5482196718",
                "operator": "Gmina Istebna",
                "operator:type": "government",
                "amenity": "school"
            }
        },
        {
            "id": 60931,
            "type": "Feature",
            "geometry": {
                "type": "Point",
                "coordinates": [
                    18.8584395,
                    49.5269064
                ]
            },
            "properties": {
                "ref:rspo": 60931,
                "official_name": "Niepubliczne Przedszkole \"Smerfokolandia\" w Jaworzynce",
                "name": "Niepubliczne Przedszkole \"Smerfokolandia\" w Jaworzynce",
                "addr:postcode": "43-476",
                "addr:place": "Jaworzynka",
                "addr:housenumber": "692",
                "addr:city:simc": 53545,
                "phone": "+48 506535296",
                "email": "smerfokolandia@wp.pl",
                "ref:regon": "243086312",
                "ref:vatin": "PL5481592228",
                "operator": "Barbara Koleniak",
                "operator:type": "private",
                "amenity": "kindergarten"
            }
        },
        {
            "id": 124792,
            "type": "Feature",
            "geometry": {
                "type": "Point",
                "coordinates": [
                    18.8584395,
                    49.5268764
                ]
            },
            "properties": {
                "ref:rspo": 124792,
                "official_name": "Niepubliczny Terapeutyczny Punkt Przedszkolny \"S\u0142oneczna Kraina\"",
                "name": "Niepubliczny Terapeutyczny Punkt Przedszkolny \"S\u0142oneczna Kraina\"",
                "addr:postcode": "43-476",
                "addr:place": "Jaworzynka",
                "addr:housenumber": "657",
                "addr:city:simc": 53545,
                "phone": "+48 881577777",
                "email": "jaworzynka@tppsk.pl",
                "website": "http:\/\/www.tppsk.pl",
                "ref:regon": "243663666",
                "ref:vatin": "PL5482666259",
                "operator": "Instytut Bona Fide Sp\u00f3\u0142ka Z Ograniczon\u0105 Odpowiedzialno\u015bci\u0105",
                "operator:type": "private",
                "amenity": "kindergarten"
            }
        },
        {
            "id": 40574,
            "type": "Feature",
            "geometry": {
                "type": "Point",
                "coordinates": [
                    18.9476663,
                    49.551406
                ]
            },
            "properties": {
                "ref:rspo": 40574,
                "official_name": "Ognisko Pracy Pozaszkolnej",
                "name": "Ognisko Pracy Pozaszkolnej",
                "addr:postcode": "43-474",
                "addr:place": "Koniak\u00f3w",
                "addr:housenumber": "280",
                "addr:city:simc": 54007,
                "phone": "+48 338557354",
                "email": "oppkoniakow@o2.pl",
                "ref:regon": "070746015",
                "operator": "Powiat Cieszy\u0144ski",
                "operator:type": "government",
                "amenity": "community_centre",
                "community_centre:for": "child;juvenile"
            }
        },
        {
            "id": 57682,
            "type": "Feature",
            "geometry": {
                "type": "Point",
                "coordinates": [
                    18.9476663,
                    49.551376
                ]
            },
            "properties": {
                "isced:level": "1;2",
                "ref:rspo": 57682,
                "official_name": "Szko\u0142a Podstawowa Nr 1 w Koniakowie",
                "name": "Szko\u0142a Podstawowa Nr 1 w Koniakowie",
                "addr:postcode": "43-474",
                "addr:place": "Koniak\u00f3w",
                "addr:housenumber": "280",
                "addr:city:simc": 54007,
                "phone": "+48 338556422",
                "email": "spkoniakow1@gmail.com",
                "ref:regon": "070665660",
                "ref:vatin": "PL5482196730",
                "operator": "Gmina Istebna",
                "operator:type": "government",
                "amenity": "school"
            }
        },
        {
            "id": 109171,
            "type": "Feature",
            "geometry": {
                "type": "Point",
                "coordinates": [
                    18.9426799,
                    49.5517369
                ]
            },
            "properties": {
                "ref:rspo": 109171,
                "official_name": "Niepubliczne Przedszkole\n\"Miglanc\" w Koniakowie",
                "name": "Niepubliczne Przedszkole\n\"Miglanc\" w Koniakowie",
                "addr:postcode": "43-474",
                "addr:place": "Koniak\u00f3w",
                "addr:housenumber": "5",
                "addr:city:simc": 54007,
                "phone": "+48 696615996",
                "email": "olaczepczor763@interia.eu",
                "ref:regon": "243176200",
                "ref:vatin": "PL5482389021",
                "operator": "Aleksandra Kubas",
                "operator:type": "private",
                "amenity": "kindergarten"
            }
        },
        {
            "id": 57809,
            "type": "Feature",
            "geometry": {
                "type": "Point",
                "coordinates": [
                    18.9560913,
                    49.557207
                ]
            },
            "properties": {
                "isced:level": "1;2",
                "ref:rspo": 57809,
                "official_name": "Szko\u0142a Podstawowa Nr 2 w Koniakowie",
                "name": "Szko\u0142a Podstawowa Nr 2 w Koniakowie",
                "addr:postcode": "43-474",
                "addr:place": "Koniak\u00f3w",
                "addr:housenumber": "480",
                "addr:city:simc": 54007,
                "phone": "+48 338556496",
                "email": "sp2koniakow@poczta.onet.pl",
                "ref:regon": "070665682",
                "ref:vatin": "PL5482196753",
                "operator": "Gmina Istebna",
                "operator:type": "government",
                "amenity": "school"
            }
        },
        {
            "id": 60247,
            "type": "Feature",
            "geometry": {
                "type": "Point",
                "coordinates": [
                    18.9126655,
                    49.561838
                ]
            },
            "properties": {
                "ref:rspo": 60247,
                "official_name": "Przedszkole Niepubliczne im. \u015aw. J\u00f3zefa w Istebnej",
                "name": "Przedszkole Niepubliczne",
                "addr:postcode": "43-470",
                "addr:place": "Istebna",
                "addr:housenumber": "1393",
                "addr:city:simc": 52899,
                "phone": "+48 508540104",
                "email": "przedszkole.bucznik@gmail.com",
                "ref:regon": "243088943",
                "ref:vatin": "PL5482650560",
                "operator": "Zgromadzenie Si\u00f3str S\u0142uzebniczek Nmp",
                "operator:type": "religious",
                "amenity": "kindergarten"
            }
        },
        {
            "id": 58159,
            "type": "Feature",
            "geometry": {
                "type": "Point",
                "coordinates": [
                    18.886677,
                    49.5624119
                ]
            },
            "properties": {
                "ref:rspo": 58159,
                "official_name": "Przedszkole Niepubliczne im. Jana Paw\u0142a II w Istebnej",
                "name": "Przedszkole Niepubliczne",
                "addr:postcode": "43-470",
                "addr:place": "Istebna",
                "addr:housenumber": "1010",
                "addr:city:simc": 52899,
                "phone": "+48 338556197",
                "email": "sluzebniczkiistebna@wp.pl",
                "ref:regon": "243085991",
                "ref:vatin": "PL5482594703",
                "operator": "Zgromadzenie Si\u00f3str S\u0142uzebniczek Nmp",
                "operator:type": "religious",
                "amenity": "kindergarten"
            }
        },
        {
            "id": 53637,
            "type": "Feature",
            "geometry": {
                "type": "Point",
                "coordinates": [
                    18.8935173,
                    49.563977
                ]
            },
            "properties": {
                "isced:level": "1;2",
                "ref:rspo": 53637,
                "official_name": "Szko\u0142a Podstawowa Nr 2 w Istebnej",
                "name": "Szko\u0142a Podstawowa Nr 2 w Istebnej",
                "addr:postcode": "43-470",
                "addr:place": "Istebna",
                "addr:housenumber": "30",
                "addr:city:simc": 52899,
                "phone": "+48 338556041",
                "email": "sp2istebna@tlen.pl",
                "website": "http:\/\/sp2istebna.beskidy.pl",
                "ref:regon": "070665357",
                "ref:vatin": "PL5482196463",
                "operator": "Gmina Istebna",
                "operator:type": "government",
                "amenity": "school"
            }
        },
        {
            "id": 123752,
            "type": "Feature",
            "geometry": {
                "type": "Point",
                "coordinates": [
                    18.8935173,
                    49.563947
                ]
            },
            "properties": {
                "ref:rspo": 123752,
                "official_name": "O\u015brodek Rewalidacyjno-Wychowawczy w Istebnej",
                "name": "O\u015brodek Rewalidacyjno-Wychowawczy w Istebnej",
                "addr:postcode": "43-470",
                "addr:place": "Istebna",
                "addr:housenumber": "30",
                "addr:city:simc": 52899,
                "phone": "+48 338520744",
                "ref:regon": "243628144",
                "operator": "Powiat Cieszy\u0144ski",
                "operator:type": "government",
                "amenity": "school",
                "note": "Parent RSPO: 7472"
            }
        },
        {
            "id": 7553,
            "type": "Feature",
            "geometry": {
                "type": "Point",
                "coordinates": [
                    18.9136427,
                    49.5944109
                ]
            },
            "properties": {
                "ref:rspo": 7553,
                "official_name": "Zesp\u00f3\u0142 Szk\u00f3\u0142 w Istebnej",
                "name": "Zesp\u00f3\u0142 Szk\u00f3\u0142 w Istebnej",
                "addr:postcode": "43-470",
                "addr:place": "Istebna",
                "addr:housenumber": "550",
                "addr:city:simc": 52899,
                "phone": "+48 333334241",
                "email": "sekretariat@zsistebna.pl",
                "website": "http:\/\/www.zsistebna.pl",
                "ref:regon": "072809748",
                "operator": "Powiat Cieszy\u0144ski",
                "operator:type": "government",
                "landuse": "education",
                "fixme": "amenity=school, amenity=college albo landuse=education w zale\u017cno\u015bci od tego, jakie plac\u00f3wki wchodz\u0105 w sk\u0142ad zespo\u0142u. Sprawd\u017a, kiedy stosowa\u0107 amenity=* a kiedy landuse=education.",
                "note": "Children RSPO: 47372;75181"
            }
        },
        {
            "id": 42018,
            "type": "Feature",
            "geometry": {
                "type": "Point",
                "coordinates": [
                    18.9136427,
                    49.5943809
                ]
            },
            "properties": {
                "ref:rspo": 42018,
                "official_name": "Zesp\u00f3\u0142 Szkolno-Przedszkolny w Istebnej",
                "name": "Zesp\u00f3\u0142 Szkolno-Przedszkolny w Istebnej",
                "addr:postcode": "43-470",
                "addr:place": "Istebna",
                "addr:housenumber": "550",
                "addr:city:simc": 52899,
                "phone": "+48 338556040",
                "email": "sp1istebna@wp.pl",
                "ref:regon": "242967163",
                "ref:vatin": "PL5482660340",
                "operator": "Gmina Istebna",
                "operator:type": "government",
                "landuse": "education",
                "fixme": "amenity=school, amenity=college albo landuse=education w zale\u017cno\u015bci od tego, jakie plac\u00f3wki wchodz\u0105 w sk\u0142ad zespo\u0142u. Sprawd\u017a, kiedy stosowa\u0107 amenity=* a kiedy landuse=education.",
                "note": "Children RSPO: 61563;61872"
            }
        },
        {
            "id": 47372,
            "type": "Feature",
            "geometry": {
                "type": "Point",
                "coordinates": [
                    18.9136427,
                    49.5943509
                ]
            },
            "properties": {
                "isced:level": "3",
                "ref:rspo": 47372,
                "official_name": "Bran\u017cowa Szko\u0142a I Stopnia w Istebnej",
                "name": "Bran\u017cowa Szko\u0142a I Stopnia w Istebnej",
                "addr:postcode": "43-470",
                "addr:place": "Istebna",
                "addr:housenumber": "550",
                "addr:city:simc": 52899,
                "phone": "+48 333334241",
                "email": "sekretariat@zsistebna.pl",
                "website": "http:\/\/www.zsistebna.pl",
                "ref:regon": "001324443",
                "operator": "Powiat Cieszy\u0144ski",
                "operator:type": "government",
                "amenity": "school",
                "note": "Parent RSPO: 7553"
            }
        },
        {
            "id": 75181,
            "type": "Feature",
            "geometry": {
                "type": "Point",
                "coordinates": [
                    18.9136427,
                    49.5943209
                ]
            },
            "properties": {
                "isced:level": "3",
                "ref:rspo": 75181,
                "official_name": "Liceum Og\u00f3lnokszta\u0142c\u0105ce dla Doros\u0142ych",
                "name": "Liceum Og\u00f3lnokszta\u0142c\u0105ce dla Doros\u0142ych",
                "addr:postcode": "43-470",
                "addr:place": "Istebna",
                "addr:housenumber": "550",
                "addr:city:simc": 52899,
                "phone": "+48 333334241",
                "email": "sekretariat@zsistebna.pl",
                "website": "http:\/\/zsistebna.pl",
                "ref:regon": "072878376",
                "operator": "Powiat Cieszy\u0144ski",
                "operator:type": "government",
                "amenity": "school",
                "note": "Parent RSPO: 7553"
            }
        },
        {
            "id": 61563,
            "type": "Feature",
            "geometry": {
                "type": "Point",
                "coordinates": [
                    18.9136427,
                    49.5942909
                ]
            },
            "properties": {
                "isced:level": "1;2",
                "ref:rspo": 61563,
                "official_name": "Szko\u0142a Podstawowa Nr 1 im. Ks. J\u00f3zefa Londzina w Istebnej",
                "name": "Szko\u0142a Podstawowa Nr 1",
                "addr:postcode": "43-470",
                "addr:place": "Istebna",
                "addr:housenumber": "550",
                "addr:city:simc": 52899,
                "phone": "+48 338556040",
                "email": "sp1istebna@wp.pl",
                "ref:regon": "070665239",
                "ref:vatin": "PL5482196724",
                "operator": "Gmina Istebna",
                "operator:type": "government",
                "amenity": "school",
                "note": "Parent RSPO: 42018"
            }
        },
        {
            "id": 61872,
            "type": "Feature",
            "geometry": {
                "type": "Point",
                "coordinates": [
                    18.9136427,
                    49.5942609
                ]
            },
            "properties": {
                "ref:rspo": 61872,
                "official_name": "Gminne Przedszkole w Istebnej",
                "name": "Gminne Przedszkole w Istebnej",
                "addr:postcode": "43-470",
                "addr:place": "Istebna",
                "addr:housenumber": "550",
                "addr:city:simc": 52899,
                "phone": "+48 338556135",
                "email": "przedszkoleistebna@op.pl",
                "ref:regon": "071014722",
                "ref:vatin": "PL5482196747",
                "operator": "Gmina Istebna",
                "operator:type": "government",
                "amenity": "kindergarten",
                "note": "Parent RSPO: 42018"
            }
        },
        {
            "id": 22931,
            "type": "Feature",
            "geometry": {
                "type": "Point",
                "coordinates": [
                    18.900819,
                    49.601069
                ]
            },
            "properties": {
                "ref:rspo": 22931,
                "official_name": "Zesp\u00f3\u0142 Szk\u00f3\u0142 Specjalnych im. Dr St. Kopczy\u0144skiego Przy Wojew\u00f3dzkim Centrum Pediatrii \"Kubalonka\" w Istebnej",
                "name": "Zesp\u00f3\u0142 Szk\u00f3\u0142 Specjalnych",
                "addr:postcode": "43-470",
                "addr:place": "Istebna",
                "addr:housenumber": "500",
                "addr:city:simc": 52899,
                "phone": "+48 338588657",
                "email": "zssistebna@poczta.onet.pl",
                "website": "http:\/\/www.zssistebna.pl",
                "ref:regon": "000740978",
                "ref:vatin": "PL5481312803",
                "operator": "Wojew\u00f3dztwo \u015al\u0105skie",
                "operator:type": "government",
                "landuse": "education",
                "fixme": "amenity=school, amenity=college albo landuse=education w zale\u017cno\u015bci od tego, jakie plac\u00f3wki wchodz\u0105 w sk\u0142ad zespo\u0142u. Sprawd\u017a, kiedy stosowa\u0107 amenity=* a kiedy landuse=education.",
                "note": "Children RSPO: 125421;125428"
            }
        },
        {
            "id": 125421,
            "type": "Feature",
            "geometry": {
                "type": "Point",
                "coordinates": [
                    18.900819,
                    49.601039
                ]
            },
            "properties": {
                "isced:level": "1;2",
                "ref:rspo": 125421,
                "official_name": "Szko\u0142a Podstawowa Specjalna Nr 3 w Istebnej",
                "name": "Szko\u0142a Podstawowa Specjalna Nr 3 w Istebnej",
                "addr:postcode": "43-470",
                "addr:place": "Istebna",
                "addr:housenumber": "500",
                "addr:city:simc": 52899,
                "phone": "+48 338588657",
                "email": "zssistebna@poczta.onet.pl",
                "website": "http:\/\/www.zssistebna.pl",
                "ref:regon": "070454956",
                "operator": "Wojew\u00f3dztwo \u015al\u0105skie",
                "operator:type": "government",
                "amenity": "school",
                "note": "Parent RSPO: 22931"
            }
        },
        {
            "id": 125428,
            "type": "Feature",
            "geometry": {
                "type": "Point",
                "coordinates": [
                    18.900819,
                    49.601009000000005
                ]
            },
            "properties": {
                "isced:level": "3",
                "ref:rspo": 125428,
                "official_name": "Liceum Og\u00f3lnokszta\u0142c\u0105ce Specjalne Nr I",
                "name": "Liceum Og\u00f3lnokszta\u0142c\u0105ce Specjalne Nr I",
                "addr:postcode": "43-470",
                "addr:place": "Istebna",
                "addr:housenumber": "500",
                "addr:city:simc": 52899,
                "phone": "+48 338588657",
                "email": "zssistebna@poczta.onet.pl",
                "website": "http:\/\/www.zssistebna.pl",
                "ref:regon": "070454940",
                "operator": "Wojew\u00f3dztwo \u015al\u0105skie",
                "operator:type": "government",
                "amenity": "school",
                "note": "Parent RSPO: 22931"
            }
        }
    ]
}