{
    "type": "FeatureCollection",
    "features": [
        {
            "id": 21125,
            "type": "Feature",
            "geometry": {
                "type": "Point",
                "coordinates": [
                    18.68707,
                    49.86578
                ]
            },
            "properties": {
                "ref:rspo": 21125,
                "official_name": "Niepubliczne Przedszkole \"Kubusiowa Kraina\" Halina Dziadek-Zachorek",
                "name": "Niepubliczne Przedszkole \"Kubusiowa Kraina\" Halina Dziadek-Zachorek",
                "addr:country": "PL",
                "addr:postcode": "43-523",
                "addr:city": "Pruchna",
                "addr:street": "G\u0142\u00f3wna",
                "addr:housenumber": "13",
                "addr:teryt:simc": 68179,
                "addr:teryt:sym_ul": 5635,
                "contact:phone": "+48 511385206",
                "contact:email": "halinadziadek@gmail.com",
                "contact:website": "http:\/\/www.kubusiowakraina.pl",
                "ref:regon": "243054890",
                "ref:vatin": "PL5481303483",
                "operator": "Halina Dziadek-Zachorek",
                "operator:type": "private",
                "amenity": "kindergarten"
            }
        },
        {
            "id": 21119,
            "type": "Feature",
            "geometry": {
                "type": "Point",
                "coordinates": [
                    18.69671,
                    49.86643
                ]
            },
            "properties": {
                "ref:rspo": 21119,
                "official_name": "Zesp\u00f3\u0142 Szkolno-Przedszkolny w Pruchnej",
                "name": "Zesp\u00f3\u0142 Szkolno-Przedszkolny w Pruchnej",
                "addr:country": "PL",
                "addr:postcode": "43-523",
                "addr:city": "Pruchna",
                "addr:street": "G\u0142\u00f3wna",
                "addr:housenumber": "60",
                "addr:teryt:simc": 68179,
                "addr:teryt:sym_ul": 5635,
                "contact:phone": "+48 338573526",
                "contact:email": "zspruchna.sekretariat@edu.strumien.pl",
                "contact:website": "http:\/\/www.zspruchna.strumien.pl",
                "ref:regon": "240446773",
                "ref:vatin": "PL5482491699",
                "operator": "Gmina Strumie\u0144",
                "operator:type": "government",
                "landuse": "education",
                "fixme": "amenity=school, amenity=college albo landuse=education w zale\u017cno\u015bci od tego, jakie plac\u00f3wki wchodz\u0105 w sk\u0142ad zespo\u0142u. Sprawd\u017a, kiedy stosowa\u0107 amenity=* a kiedy landuse=education.",
                "note": "Children RSPO: 50132;50134"
            }
        },
        {
            "id": 50132,
            "type": "Feature",
            "geometry": {
                "type": "Point",
                "coordinates": [
                    18.69671,
                    49.8664
                ]
            },
            "properties": {
                "isced:level": "1;2",
                "ref:rspo": 50132,
                "official_name": "Szko\u0142a Podstawowa im. Emilii Michalskiej w Pruchnej",
                "name": "Szko\u0142a Podstawowa",
                "addr:country": "PL",
                "addr:postcode": "43-523",
                "addr:city": "Pruchna",
                "addr:street": "G\u0142\u00f3wna",
                "addr:housenumber": "60",
                "addr:teryt:simc": 68179,
                "addr:teryt:sym_ul": 5635,
                "contact:phone": "+48 338573526",
                "contact:email": "zspruchna.sekretariat@edu.strumien.pl",
                "contact:website": "http:\/\/www.zspruchna.strumien.pl",
                "ref:regon": "070433196",
                "ref:vatin": "PL5482196807",
                "operator": "Gmina Strumie\u0144",
                "operator:type": "government",
                "amenity": "school",
                "note": "Parent RSPO: 21119"
            }
        },
        {
            "id": 50134,
            "type": "Feature",
            "geometry": {
                "type": "Point",
                "coordinates": [
                    18.6956099,
                    49.86686
                ]
            },
            "properties": {
                "ref:rspo": 50134,
                "official_name": "Przedszkole w Pruchnej",
                "name": "Przedszkole w Pruchnej",
                "addr:country": "PL",
                "addr:postcode": "43-523",
                "addr:city": "Pruchna",
                "addr:street": "G\u0142\u00f3wna",
                "addr:housenumber": "51",
                "addr:teryt:simc": 68179,
                "addr:teryt:sym_ul": 5635,
                "contact:phone": "+48 338573529",
                "contact:email": "zspruchna.sekretariat@edu.strumien.pl",
                "contact:website": "http:\/\/www.zspruchna.strumien.pl",
                "ref:regon": "072358346",
                "ref:vatin": "PL5482196894",
                "operator": "Gmina Strumie\u0144",
                "operator:type": "government",
                "amenity": "kindergarten",
                "note": "Parent RSPO: 21119"
            }
        },
        {
            "id": 21161,
            "type": "Feature",
            "geometry": {
                "type": "Point",
                "coordinates": [
                    18.7577399,
                    49.8700199
                ]
            },
            "properties": {
                "ref:rspo": 21161,
                "official_name": "Zesp\u00f3\u0142 Szkolno-Przedszkolny w Drogomy\u015blu",
                "name": "Zesp\u00f3\u0142 Szkolno-Przedszkolny w Drogomy\u015blu",
                "addr:country": "PL",
                "addr:postcode": "43-424",
                "addr:city": "Drogomy\u015bl",
                "addr:street": "G\u0142\u00f3wna",
                "addr:housenumber": "15",
                "addr:teryt:simc": 68073,
                "addr:teryt:sym_ul": 5635,
                "contact:phone": "+48 338572124",
                "contact:email": "zsdrogomysl.sekretariat@edu.strumien.pl",
                "contact:website": "http:\/\/www.zsdrogomysl.strumien.pl",
                "ref:regon": "240446709",
                "ref:vatin": "PL5482489449",
                "operator": "Gmina Strumie\u0144",
                "operator:type": "government",
                "landuse": "education",
                "fixme": "amenity=school, amenity=college albo landuse=education w zale\u017cno\u015bci od tego, jakie plac\u00f3wki wchodz\u0105 w sk\u0142ad zespo\u0142u. Sprawd\u017a, kiedy stosowa\u0107 amenity=* a kiedy landuse=education.",
                "note": "Children RSPO: 50126;50127"
            }
        },
        {
            "id": 50126,
            "type": "Feature",
            "geometry": {
                "type": "Point",
                "coordinates": [
                    18.7577399,
                    49.8699899
                ]
            },
            "properties": {
                "isced:level": "1;2",
                "ref:rspo": 50126,
                "official_name": "Szko\u0142a Podstawowa im. W\u0142adys\u0142awa Broniewskiego w Drogomy\u015blu",
                "name": "Szko\u0142a Podstawowa",
                "addr:country": "PL",
                "addr:postcode": "43-424",
                "addr:city": "Drogomy\u015bl",
                "addr:street": "G\u0142\u00f3wna",
                "addr:housenumber": "15",
                "addr:teryt:simc": 68073,
                "addr:teryt:sym_ul": 5635,
                "contact:phone": "+48 338572124",
                "contact:email": "zsdrogomysl.sekretariat@edu.strumien.pl",
                "contact:website": "http:\/\/www.zsdrogomysl.strumien.pl",
                "ref:regon": "070433167",
                "ref:vatin": "PL5482196813",
                "operator": "Gmina Strumie\u0144",
                "operator:type": "government",
                "amenity": "school",
                "note": "Parent RSPO: 21161"
            }
        },
        {
            "id": 50127,
            "type": "Feature",
            "geometry": {
                "type": "Point",
                "coordinates": [
                    18.7567999,
                    49.87025
                ]
            },
            "properties": {
                "ref:rspo": 50127,
                "official_name": "Przedszkole w Drogomy\u015blu",
                "name": "Przedszkole w Drogomy\u015blu",
                "addr:country": "PL",
                "addr:postcode": "43-424",
                "addr:city": "Drogomy\u015bl",
                "addr:street": "Pocztowa",
                "addr:housenumber": "1",
                "addr:teryt:simc": 68073,
                "addr:teryt:sym_ul": 16579,
                "contact:phone": "+48 338572345",
                "contact:email": "zsdrogomysl.sekretariat@edu.strumien.pl",
                "contact:website": "http:\/\/www.zsdrogomysl.strumien.pl",
                "ref:regon": "072358352",
                "ref:vatin": "PL5482196888",
                "operator": "Gmina Strumie\u0144",
                "operator:type": "government",
                "amenity": "kindergarten",
                "note": "Parent RSPO: 21161"
            }
        },
        {
            "id": 21118,
            "type": "Feature",
            "geometry": {
                "type": "Point",
                "coordinates": [
                    18.71991,
                    49.89476
                ]
            },
            "properties": {
                "ref:rspo": 21118,
                "official_name": "Zesp\u00f3\u0142 Szkolno-Przedszkolny w B\u0105kowie",
                "name": "Zesp\u00f3\u0142 Szkolno-Przedszkolny w B\u0105kowie",
                "addr:country": "PL",
                "addr:postcode": "43-246",
                "addr:city": "B\u0105k\u00f3w",
                "addr:street": "G\u0142\u00f3wna",
                "addr:housenumber": "62",
                "addr:teryt:simc": 68021,
                "addr:teryt:sym_ul": 5635,
                "contact:phone": "+48 338570252",
                "contact:email": "zspbakow.sekretariat@edu.strumien.pl",
                "contact:website": "http:\/\/www.zspbakow.strumien.pl",
                "ref:regon": "240963037",
                "ref:vatin": "PL5482564116",
                "operator": "Gmina Strumie\u0144",
                "operator:type": "government",
                "landuse": "education",
                "fixme": "amenity=school, amenity=college albo landuse=education w zale\u017cno\u015bci od tego, jakie plac\u00f3wki wchodz\u0105 w sk\u0142ad zespo\u0142u. Sprawd\u017a, kiedy stosowa\u0107 amenity=* a kiedy landuse=education.",
                "note": "Children RSPO: 50128;50129"
            }
        },
        {
            "id": 50128,
            "type": "Feature",
            "geometry": {
                "type": "Point",
                "coordinates": [
                    18.71991,
                    49.894729999999996
                ]
            },
            "properties": {
                "isced:level": "1;2",
                "ref:rspo": 50128,
                "official_name": "Szko\u0142a Podstawowa w B\u0105kowie",
                "name": "Szko\u0142a Podstawowa w B\u0105kowie",
                "addr:country": "PL",
                "addr:postcode": "43-246",
                "addr:city": "B\u0105k\u00f3w",
                "addr:street": "G\u0142\u00f3wna",
                "addr:housenumber": "62",
                "addr:teryt:simc": 68021,
                "addr:teryt:sym_ul": 5635,
                "contact:phone": "+48 338570252",
                "contact:email": "zspbakow.sekretariat@edu.strumien.pl",
                "contact:website": "http:\/\/www.zspbakow.strumien.pl",
                "ref:regon": "070433144",
                "ref:vatin": "PL5482196799",
                "operator": "Gmina Strumie\u0144",
                "operator:type": "government",
                "amenity": "school",
                "note": "Parent RSPO: 21118"
            }
        },
        {
            "id": 50129,
            "type": "Feature",
            "geometry": {
                "type": "Point",
                "coordinates": [
                    18.71991,
                    49.8947
                ]
            },
            "properties": {
                "ref:rspo": 50129,
                "official_name": "Przedszkole w B\u0105kowie",
                "name": "Przedszkole w B\u0105kowie",
                "addr:country": "PL",
                "addr:postcode": "43-246",
                "addr:city": "B\u0105k\u00f3w",
                "addr:street": "G\u0142\u00f3wna",
                "addr:housenumber": "62",
                "addr:teryt:simc": 68021,
                "addr:teryt:sym_ul": 5635,
                "contact:phone": "+48 338571125",
                "contact:email": "zspbakow.sekretariat@edu.strumien.pl",
                "contact:website": "http:\/\/www.zspbakow.strumien.pl",
                "ref:regon": "072358412",
                "ref:vatin": "PL5482196902",
                "operator": "Gmina Strumie\u0144",
                "operator:type": "government",
                "amenity": "kindergarten",
                "note": "Parent RSPO: 21118"
            }
        },
        {
            "id": 21124,
            "type": "Feature",
            "geometry": {
                "type": "Point",
                "coordinates": [
                    18.77836,
                    49.90376
                ]
            },
            "properties": {
                "ref:rspo": 21124,
                "official_name": "Zesp\u00f3\u0142 Szkolno-Przedszkolny w Zab\u0142ociu",
                "name": "Zesp\u00f3\u0142 Szkolno-Przedszkolny w Zab\u0142ociu",
                "addr:country": "PL",
                "addr:postcode": "43-246",
                "addr:city": "Zab\u0142ocie",
                "addr:street": "Bielska",
                "addr:housenumber": "36",
                "addr:teryt:simc": 68251,
                "addr:teryt:sym_ul": 1279,
                "contact:phone": "+48 338570259",
                "contact:email": "zspzablocie.sekretariat@edu.strumien.pl",
                "contact:website": "http:\/\/www.spzablocie.pl",
                "ref:regon": "241912504",
                "ref:vatin": "PL5482650643",
                "operator": "Gmina Strumie\u0144",
                "operator:type": "government",
                "landuse": "education",
                "fixme": "amenity=school, amenity=college albo landuse=education w zale\u017cno\u015bci od tego, jakie plac\u00f3wki wchodz\u0105 w sk\u0142ad zespo\u0142u. Sprawd\u017a, kiedy stosowa\u0107 amenity=* a kiedy landuse=education.",
                "note": "Children RSPO: 50135;50136"
            }
        },
        {
            "id": 50135,
            "type": "Feature",
            "geometry": {
                "type": "Point",
                "coordinates": [
                    18.77836,
                    49.903729999999996
                ]
            },
            "properties": {
                "isced:level": "1;2",
                "ref:rspo": 50135,
                "official_name": "Szko\u0142a Podstawowa w Zab\u0142ociu",
                "name": "Szko\u0142a Podstawowa w Zab\u0142ociu",
                "addr:country": "PL",
                "addr:postcode": "43-246",
                "addr:city": "Zab\u0142ocie",
                "addr:street": "Bielska",
                "addr:housenumber": "36",
                "addr:teryt:simc": 68251,
                "addr:teryt:sym_ul": 1279,
                "contact:phone": "+48 338570259",
                "contact:email": "zspzablocie.sekretariat@edu.strumien.pl",
                "contact:website": "http:\/\/www.zspzablocie.strumien.pl",
                "ref:regon": "070433227",
                "ref:vatin": "PL5482196842",
                "operator": "Gmina Strumie\u0144",
                "operator:type": "government",
                "amenity": "school",
                "note": "Parent RSPO: 21124"
            }
        },
        {
            "id": 50136,
            "type": "Feature",
            "geometry": {
                "type": "Point",
                "coordinates": [
                    18.7762,
                    49.90556
                ]
            },
            "properties": {
                "ref:rspo": 50136,
                "official_name": "Przedszkole w Zab\u0142ociu",
                "name": "Przedszkole w Zab\u0142ociu",
                "addr:country": "PL",
                "addr:postcode": "43-246",
                "addr:city": "Zab\u0142ocie",
                "addr:street": "Bielska",
                "addr:housenumber": "26",
                "addr:teryt:simc": 68251,
                "addr:teryt:sym_ul": 1279,
                "contact:phone": "+48 338570960",
                "contact:email": "zspzablocie.sekretariat@edu.strumien.pl",
                "contact:website": "http:\/\/www.przedszkolezablocie.szkolnastrona.pl",
                "ref:regon": "072358330",
                "ref:vatin": "PL5482196865",
                "operator": "Gmina Strumie\u0144",
                "operator:type": "government",
                "amenity": "kindergarten",
                "note": "Parent RSPO: 21124"
            }
        },
        {
            "id": 21122,
            "type": "Feature",
            "geometry": {
                "type": "Point",
                "coordinates": [
                    18.7597,
                    49.9126
                ]
            },
            "properties": {
                "ref:rspo": 21122,
                "official_name": "Przedszkole w Strumieniu",
                "name": "Przedszkole w Strumieniu",
                "addr:country": "PL",
                "addr:postcode": "43-246",
                "addr:city": "Strumie\u0144",
                "addr:street": "M\u0142y\u0144ska",
                "addr:housenumber": "10",
                "addr:teryt:simc": 925258,
                "addr:teryt:sym_ul": 13132,
                "contact:phone": "+48 338570213",
                "contact:email": "przedszkolestrumien@edu.strumien.pl",
                "contact:website": "http:\/\/www.przedszkolestrumien.szkolnastrona.pl",
                "ref:regon": "072358300",
                "ref:vatin": "PL5482196871",
                "operator": "Gmina Strumie\u0144",
                "operator:type": "government",
                "amenity": "kindergarten"
            }
        },
        {
            "id": 119270,
            "type": "Feature",
            "geometry": {
                "type": "Point",
                "coordinates": [
                    18.75147,
                    49.9131
                ]
            },
            "properties": {
                "ref:rspo": 119270,
                "official_name": "Mar's School Centrum J\u0119zyka Angielskiego",
                "name": "Mar's School Centrum J\u0119zyka Angielskiego",
                "addr:country": "PL",
                "addr:postcode": "43-246",
                "addr:city": "Strumie\u0144",
                "addr:street": "Cieszy\u0144ska",
                "addr:housenumber": "3",
                "addr:teryt:simc": 925258,
                "addr:teryt:sym_ul": 3061,
                "contact:phone": "+48 501160344",
                "ref:regon": "243353842",
                "operator": "Ma\u0142gorzata Rajwa",
                "operator:type": "private",
                "fixme": "w zale\u017cno\u015bci od przedmiotu dzia\u0142alno\u015bci (np. amenity=training + training=*, amenity=dancing_school, amenity=language_school, amenity=music_school)"
            }
        },
        {
            "id": 21120,
            "type": "Feature",
            "geometry": {
                "type": "Point",
                "coordinates": [
                    18.75964,
                    49.91348
                ]
            },
            "properties": {
                "isced:level": "1;2",
                "ref:rspo": 21120,
                "official_name": "Szko\u0142a Podstawowa im.powsta\u0144c\u00f3w \u015aL\u0105skich w Strumieniu",
                "name": "Szko\u0142a Podstawowa im.powsta\u0144c\u00f3w \u015aL\u0105skich w Strumieniu",
                "addr:country": "PL",
                "addr:postcode": "43-246",
                "addr:city": "Strumie\u0144",
                "addr:street": "M\u0142y\u0144ska",
                "addr:housenumber": "8",
                "addr:teryt:simc": 925258,
                "addr:teryt:sym_ul": 13132,
                "contact:phone": "+48 338571590",
                "contact:email": "spstrumien.sekretariat@edu.strumien.pl",
                "contact:website": "http:\/\/www.sp.strumien.com",
                "ref:regon": "070433138",
                "ref:vatin": "PL5482196836",
                "operator": "Gmina Strumie\u0144",
                "operator:type": "government",
                "amenity": "school"
            }
        },
        {
            "id": 130366,
            "type": "Feature",
            "geometry": {
                "type": "Point",
                "coordinates": [
                    18.75917,
                    49.91627
                ]
            },
            "properties": {
                "ref:rspo": 130366,
                "official_name": "Centrum Kszta\u0142cenia Zawodowego \"Odys\" w Strumieniu",
                "name": "Centrum Kszta\u0142cenia Zawodowego \"Odys\" w Strumieniu",
                "addr:country": "PL",
                "addr:postcode": "43-246",
                "addr:city": "Strumie\u0144",
                "addr:street": "1 Maja",
                "addr:housenumber": "20",
                "addr:teryt:simc": 925258,
                "addr:teryt:sym_ul": 11926,
                "contact:phone": "+48 338570220",
                "ref:regon": "363920890",
                "operator": "Odyseja Strumie\u0144 Sp\u00f3\u0142ka Z Ograniczon\u0105 Odpowiedzialno\u015bci\u0105 W Likwidacji",
                "operator:type": "private",
                "fixme": "w zale\u017cno\u015bci od przedmiotu dzia\u0142alno\u015bci (np. amenity=training + training=*, amenity=dancing_school, amenity=language_school, amenity=music_school)"
            }
        },
        {
            "id": 131576,
            "type": "Feature",
            "geometry": {
                "type": "Point",
                "coordinates": [
                    18.75917,
                    49.916239999999995
                ]
            },
            "properties": {
                "ref:rspo": 131576,
                "official_name": "Przedszkole Niepubliczne Odyseja",
                "name": "Przedszkole Niepubliczne Odyseja",
                "addr:country": "PL",
                "addr:postcode": "43-246",
                "addr:city": "Strumie\u0144",
                "addr:street": "1 Maja",
                "addr:housenumber": "20",
                "addr:teryt:simc": 925258,
                "addr:teryt:sym_ul": 11926,
                "contact:phone": "+48 338570220",
                "contact:email": "odysejaspzoo@wp.pl",
                "contact:website": "http:\/\/przedszkolnaodyseja.pl",
                "ref:regon": "365227896",
                "operator": "Odyseja Strumie\u0144 Sp\u00f3\u0142ka Z Ograniczon\u0105 Odpowiedzialno\u015bci\u0105 W Likwidacji",
                "operator:type": "private",
                "amenity": "kindergarten"
            }
        },
        {
            "id": 123784,
            "type": "Feature",
            "geometry": {
                "type": "Point",
                "coordinates": [
                    18.76503,
                    49.91667
                ]
            },
            "properties": {
                "ref:rspo": 123784,
                "official_name": "Niepubliczne Przedszkole Tw\u00f3rcze \"Totu\" Z Oddzia\u0142ami Integracyjnymi w Strumieniu",
                "name": "Niepubliczne Przedszkole Tw\u00f3rcze \"Totu\" Z Oddzia\u0142ami Integracyjnymi w Strumieniu",
                "addr:country": "PL",
                "addr:postcode": "43-246",
                "addr:city": "Strumie\u0144",
                "addr:street": "Krzywa",
                "addr:housenumber": "2",
                "addr:teryt:simc": 925258,
                "addr:teryt:sym_ul": 10157,
                "contact:phone": "+48 791995797",
                "contact:email": "biuro@totucieszyn.pl",
                "contact:website": "http:\/\/www.przedszkolewstrumieniu.pl",
                "ref:regon": "243630135",
                "ref:vatin": "PL5561835934",
                "operator": "Izabela Krzemi\u0144ska-Wo\u017aniak",
                "operator:type": "private",
                "amenity": "kindergarten"
            }
        },
        {
            "id": 21123,
            "type": "Feature",
            "geometry": {
                "type": "Point",
                "coordinates": [
                    18.7268599,
                    49.92192
                ]
            },
            "properties": {
                "ref:rspo": 21123,
                "official_name": "Przedszkole im. Marii Konopnickiej w Zbytkowie",
                "name": "Przedszkole",
                "addr:country": "PL",
                "addr:postcode": "43-246",
                "addr:city": "Zbytk\u00f3w",
                "addr:street": "Wyzwolenia",
                "addr:housenumber": "49",
                "addr:teryt:simc": 68297,
                "addr:teryt:sym_ul": 25133,
                "contact:phone": "+48 338570266",
                "contact:email": "przedszkolezbytkow@edu.strumien.pl",
                "contact:website": "http:\/\/www.przedszkole.zbytkow.pl",
                "ref:regon": "072358317",
                "ref:vatin": "PL5482196859",
                "operator": "Gmina Strumie\u0144",
                "operator:type": "government",
                "amenity": "kindergarten"
            }
        }
    ]
}