{
    "type": "FeatureCollection",
    "features": [
        {
            "id": 53043,
            "type": "Feature",
            "geometry": {
                "type": "Point",
                "coordinates": [
                    18.80868,
                    49.87307
                ]
            },
            "properties": {
                "ref:rspo": 53043,
                "official_name": "Zesp\u00f3\u0142 Szkolno-Przedszkolny w Zaborzu",
                "name": "Zesp\u00f3\u0142 Szkolno-Przedszkolny w Zaborzu",
                "addr:postcode": "43-520",
                "addr:city": "Zaborze",
                "addr:street": "Miarki",
                "addr:housenumber": "7",
                "addr:city:simc": 50950,
                "addr:street:sym_ul": 12672,
                "phone": "+48 338561038",
                "email": "sp_zaborze@chybie.pl",
                "website": "http:\/\/www.zspzaborze.edu.pl",
                "ref:regon": "240709327",
                "ref:vatin": "PL5482531128",
                "operator": "Gmina Chybie",
                "operator:type": "government",
                "landuse": "education",
                "fixme": "amenity=school, amenity=college albo landuse=education w zale\u017cno\u015bci od tego, jakie plac\u00f3wki wchodz\u0105 w sk\u0142ad zespo\u0142u. Sprawd\u017a, kiedy stosowa\u0107 amenity=* a kiedy landuse=education.",
                "note": "Children RSPO: 71778;71779"
            }
        },
        {
            "id": 71778,
            "type": "Feature",
            "geometry": {
                "type": "Point",
                "coordinates": [
                    18.80868,
                    49.873039999999996
                ]
            },
            "properties": {
                "isced:level": "1;2",
                "ref:rspo": 71778,
                "official_name": "Szko\u0142a Podstawowa im. Karola Miarki w Zaborzu",
                "name": "Szko\u0142a Podstawowa",
                "addr:postcode": "43-520",
                "addr:city": "Zaborze",
                "addr:street": "Miarki",
                "addr:housenumber": "7",
                "addr:city:simc": 50950,
                "addr:street:sym_ul": 12672,
                "phone": "+48 338561038",
                "email": "sp_zaborze@chybie.pl",
                "website": "http:\/\/www.zspzaborze.edu.pl",
                "ref:regon": "070449116",
                "ref:vatin": "PL5482531128",
                "operator": "Gmina Chybie",
                "operator:type": "government",
                "amenity": "school",
                "note": "Parent RSPO: 53043"
            }
        },
        {
            "id": 71779,
            "type": "Feature",
            "geometry": {
                "type": "Point",
                "coordinates": [
                    18.80868,
                    49.87301
                ]
            },
            "properties": {
                "ref:rspo": 71779,
                "official_name": "Przedszkole Publiczne w Zaborzu",
                "name": "Przedszkole Publiczne w Zaborzu",
                "addr:postcode": "43-520",
                "addr:city": "Zaborze",
                "addr:street": "Miarki",
                "addr:housenumber": "7",
                "addr:city:simc": 50950,
                "addr:street:sym_ul": 12672,
                "phone": "+48 338561038",
                "email": "sp_zaborze@chybie.pl",
                "website": "http:\/\/www.zspzaborze.edu.pl",
                "ref:regon": "072357849",
                "ref:vatin": "PL5482531128",
                "operator": "Gmina Chybie",
                "operator:type": "government",
                "amenity": "kindergarten",
                "note": "Parent RSPO: 53043"
            }
        },
        {
            "id": 53777,
            "type": "Feature",
            "geometry": {
                "type": "Point",
                "coordinates": [
                    18.80281,
                    49.8897
                ]
            },
            "properties": {
                "isced:level": "1;2",
                "ref:rspo": 53777,
                "official_name": "Szko\u0142a Podstawowa im. Paw\u0142a Kojzara w Mnichu",
                "name": "Szko\u0142a Podstawowa",
                "addr:postcode": "43-520",
                "addr:city": "Mnich",
                "addr:street": "Miko\u0142aja Kopernika",
                "addr:housenumber": "12",
                "addr:city:simc": 50860,
                "addr:street:sym_ul": 9276,
                "phone": "+48 338561047",
                "email": "sp_mnich@chybie.pl",
                "website": "http:\/\/www.spmnich.edu.pl",
                "ref:regon": "070449122",
                "ref:vatin": "PL5482197422",
                "operator": "Gmina Chybie",
                "operator:type": "government",
                "amenity": "school"
            }
        },
        {
            "id": 52353,
            "type": "Feature",
            "geometry": {
                "type": "Point",
                "coordinates": [
                    18.80205,
                    49.88987
                ]
            },
            "properties": {
                "ref:rspo": 52353,
                "official_name": "Przedszkole Publiczne w Mnichu",
                "name": "Przedszkole Publiczne w Mnichu",
                "addr:postcode": "43-520",
                "addr:city": "Mnich",
                "addr:street": "Miko\u0142aja Kopernika",
                "addr:housenumber": "19",
                "addr:city:simc": 50860,
                "addr:street:sym_ul": 9276,
                "phone": "+48 338561215",
                "email": "przedszkole_mnich@chybie.pl",
                "website": "http:\/\/www.przedszkolemnich.pl",
                "ref:regon": "072357855",
                "ref:vatin": "PL5482197385",
                "operator": "Gmina Chybie",
                "operator:type": "government",
                "amenity": "kindergarten"
            }
        },
        {
            "id": 52352,
            "type": "Feature",
            "geometry": {
                "type": "Point",
                "coordinates": [
                    18.81876,
                    49.89183
                ]
            },
            "properties": {
                "ref:rspo": 52352,
                "official_name": "Przedszkole Publiczne w Chybiu",
                "name": "Przedszkole Publiczne w Chybiu",
                "addr:postcode": "43-520",
                "addr:city": "Chybie",
                "addr:street": "Bielska",
                "addr:housenumber": "33",
                "addr:city:simc": 50765,
                "addr:street:sym_ul": 1279,
                "phone": "+48 338561013",
                "email": "przedszkola@chybie.pl",
                "website": "http:\/\/www.przedszkolewchybiu.pl",
                "ref:regon": "072357878",
                "ref:vatin": "PL5482197356",
                "operator": "Gmina Chybie",
                "operator:type": "government",
                "amenity": "kindergarten"
            }
        },
        {
            "id": 22063,
            "type": "Feature",
            "geometry": {
                "type": "Point",
                "coordinates": [
                    18.81666,
                    49.89488
                ]
            },
            "properties": {
                "ref:rspo": 22063,
                "official_name": "Niepubliczna Poradnia Psychologiczno-Pedagogiczna",
                "name": "Niepubliczna Poradnia Psychologiczno-Pedagogiczna",
                "addr:postcode": "43-520",
                "addr:city": "Chybie",
                "addr:street": "Spokojna",
                "addr:housenumber": "31",
                "addr:city:simc": 50765,
                "addr:street:sym_ul": 20677,
                "phone": "+48 338560215",
                "ref:regon": "243056297",
                "operator": "Danuta\nDanuta Pietroszek",
                "operator:type": "private",
                "healthcare": "counselling",
                "counselling_type": "education",
                "fixme": "w zale\u017cno\u015bci od przedmiotu dzia\u0142alno\u015bci (np. healthcare=counselling + counselling_type=education albo healthcare=psychotherapist)"
            }
        },
        {
            "id": 55889,
            "type": "Feature",
            "geometry": {
                "type": "Point",
                "coordinates": [
                    18.81689,
                    49.89581
                ]
            },
            "properties": {
                "ref:rspo": 55889,
                "official_name": "Niepubliczne Przedszkole \"Bajkowy Dworek\" Pietroszek Krzysztof",
                "name": "Niepubliczne Przedszkole \"Bajkowy Dworek\" Pietroszek Krzysztof",
                "addr:postcode": "43-520",
                "addr:city": "Chybie",
                "addr:street": "Spokojna",
                "addr:housenumber": "21",
                "addr:city:simc": 50765,
                "addr:street:sym_ul": 20677,
                "phone": "+48 338560215",
                "email": "biuro@bajkowydworek.pl",
                "website": "http:\/\/www.bajkowydw.cp5.win.pl",
                "ref:regon": "243085488",
                "ref:vatin": "PL5481544376",
                "operator": "Krzysztof Pietroszek",
                "operator:type": "private",
                "amenity": "kindergarten"
            }
        },
        {
            "id": 53102,
            "type": "Feature",
            "geometry": {
                "type": "Point",
                "coordinates": [
                    18.81237,
                    49.896
                ]
            },
            "properties": {
                "isced:level": "1;2",
                "ref:rspo": 53102,
                "official_name": "Szko\u0142a Podstawowa Nr 1 im. J\u00f3zefa Pi\u0142sudskiego w Chybiu",
                "name": "Szko\u0142a Podstawowa Nr 1",
                "addr:postcode": "43-520",
                "addr:city": "Chybie",
                "addr:street": "Bielska",
                "addr:housenumber": "80",
                "addr:city:simc": 50765,
                "addr:street:sym_ul": 1279,
                "phone": "+48 338561108",
                "email": "sp1@chybie.pl",
                "website": "http:\/\/www.sp1.chybie.info",
                "ref:regon": "070449145",
                "ref:vatin": "PL5482197445",
                "operator": "Gmina Chybie",
                "operator:type": "government",
                "amenity": "school"
            }
        },
        {
            "id": 53247,
            "type": "Feature",
            "geometry": {
                "type": "Point",
                "coordinates": [
                    18.83249,
                    49.90587
                ]
            },
            "properties": {
                "isced:level": "1;2",
                "ref:rspo": 53247,
                "official_name": "Szko\u0142a Podstawowa Nr 2 im. Ludwika Kobieli w Chybiu",
                "name": "Szko\u0142a Podstawowa Nr 2",
                "addr:postcode": "43-520",
                "addr:city": "Chybie",
                "addr:street": "Szkolna",
                "addr:housenumber": "8",
                "addr:city:simc": 50765,
                "addr:street:sym_ul": 21970,
                "phone": "+48 338561033",
                "email": "sp2@chybie.pl",
                "website": "http:\/\/www.sp2chybie.edu.pl",
                "ref:regon": "070449139",
                "ref:vatin": "PL5482197439",
                "operator": "Gmina Chybie",
                "operator:type": "government",
                "amenity": "school"
            }
        }
    ]
}