{
    "type": "FeatureCollection",
    "features": [
        {
            "id": 126750,
            "type": "Feature",
            "geometry": {
                "type": "Point",
                "coordinates": [
                    17.16379,
                    51.09839
                ]
            },
            "properties": {
                "ref:rspo": 126750,
                "official_name": "Terapeutyczny Punkt Przedszkolny \"Niebieski Latawiec\"",
                "name": "Terapeutyczny Punkt Przedszkolny \"Niebieski Latawiec\"",
                "addr:country": "PL",
                "addr:postcode": "51-521",
                "addr:city": "Wroc\u0142aw",
                "addr:street": "B\u0142otna",
                "addr:housenumber": "2a",
                "addr:teryt:simc": 1473,
                "addr:teryt:sym_ul": 986745,
                "contact:phone": "+48 570288803",
                "contact:email": "autyzm@niebieskilatawiec.pl",
                "contact:website": "http:\/\/www.niebieskilatawiec.pl",
                "ref:regon": "360721491",
                "operator": "Centrum Wspierania Dziecka Z Autyzmem \"Niebieski Latawiec\" Sp\u00f3\u0142ka Z Ograniczon\u0105 Odpowiedzialno\u015bci\u0105",
                "operator:type": "private",
                "amenity": "kindergarten"
            }
        },
        {
            "id": 279054,
            "type": "Feature",
            "geometry": {
                "type": "Point",
                "coordinates": [
                    17.16174,
                    51.10077
                ]
            },
            "properties": {
                "ref:rspo": 279054,
                "official_name": "Publiczne Przedszkole \"Wroc\u0142awskie Skauty VI\"",
                "name": "Publiczne Przedszkole \"Wroc\u0142awskie Skauty VI\"",
                "addr:country": "PL",
                "addr:postcode": "51-521",
                "addr:city": "Wroc\u0142aw",
                "addr:street": "B\u0142otna",
                "addr:housenumber": "18",
                "addr:teryt:simc": 1473,
                "addr:teryt:sym_ul": 986745,
                "contact:email": "biuro6@wroclawskieskauty.pl",
                "contact:website": "http:\/\/www.wroclawskieskauty.pl",
                "ref:regon": "520524752",
                "operator": "Robert Burszewski",
                "operator:type": "private",
                "amenity": "kindergarten"
            }
        },
        {
            "id": 132357,
            "type": "Feature",
            "geometry": {
                "type": "Point",
                "coordinates": [
                    17.15563,
                    51.10248
                ]
            },
            "properties": {
                "ref:rspo": 132357,
                "official_name": "Niepubliczna Poradnia Psychologiczno - Pedagogiczna Edyta Szczygie\u0142",
                "name": "Niepubliczna Poradnia Psychologiczno - Pedagogiczna Edyta Szczygie\u0142",
                "addr:country": "PL",
                "addr:postcode": "51-518",
                "addr:city": "Wroc\u0142aw",
                "addr:street": "Strachoci\u0144ska",
                "addr:housenumber": "159",
                "addr:teryt:simc": 21249,
                "addr:teryt:sym_ul": 986745,
                "contact:phone": "+48 607811296",
                "contact:email": "edytaszczygiel@interia.pl",
                "contact:website": "http:\/\/www.poradnia-wojnow.pl",
                "ref:regon": "365564062",
                "operator": "Edyta Szczygie\u0142",
                "operator:type": "private",
                "healthcare": "counselling",
                "counselling_type": "education",
                "fixme": "w zale\u017cno\u015bci od przedmiotu dzia\u0142alno\u015bci (np. healthcare=counselling + counselling_type=education albo healthcare=psychotherapist)"
            }
        },
        {
            "id": 14913,
            "type": "Feature",
            "geometry": {
                "type": "Point",
                "coordinates": [
                    17.15464,
                    51.103
                ]
            },
            "properties": {
                "ref:rspo": 14913,
                "official_name": "Zesp\u00f3\u0142 Szkolno-Przedszkolny Nr 11",
                "name": "Zesp\u00f3\u0142 Szkolno-Przedszkolny Nr 11",
                "addr:country": "PL",
                "addr:postcode": "51-518",
                "addr:city": "Wroc\u0142aw",
                "addr:street": "Strachoci\u0144ska",
                "addr:housenumber": "155-157",
                "addr:teryt:simc": 21249,
                "addr:teryt:sym_ul": 986745,
                "contact:phone": "+48 717986917",
                "contact:email": "zsp11wr@gmail.com",
                "contact:website": "http:\/\/www.sp53.wroc.pl",
                "ref:regon": "020124382",
                "ref:vatin": "PL8951840784",
                "operator": "Gmina Wroc\u0142aw",
                "operator:type": "government",
                "landuse": "education",
                "fixme": "amenity=school, amenity=college albo landuse=education w zale\u017cno\u015bci od tego, jakie plac\u00f3wki wchodz\u0105 w sk\u0142ad zespo\u0142u. Sprawd\u017a, kiedy stosowa\u0107 amenity=* a kiedy landuse=education.",
                "note": "Children RSPO: 21504;24071"
            }
        },
        {
            "id": 21504,
            "type": "Feature",
            "geometry": {
                "type": "Point",
                "coordinates": [
                    17.15464,
                    51.10297
                ]
            },
            "properties": {
                "isced:level": "1;2",
                "ref:rspo": 21504,
                "official_name": "Szko\u0142a Podstawowa Nr 53 im. Prof. Stefana Banacha",
                "name": "Szko\u0142a Podstawowa Nr 53",
                "addr:country": "PL",
                "addr:postcode": "51-518",
                "addr:city": "Wroc\u0142aw",
                "addr:street": "Strachoci\u0144ska",
                "addr:housenumber": "155-157",
                "addr:teryt:simc": 21249,
                "addr:teryt:sym_ul": 986745,
                "contact:phone": "+48 717986917",
                "contact:email": "sekretariat.zsp11@wroclawskaedukacja.pl",
                "contact:website": "http:\/\/www.sp53.wroc.pl",
                "ref:regon": "000693470",
                "operator": "Gmina Wroc\u0142aw",
                "operator:type": "government",
                "amenity": "school",
                "note": "Parent RSPO: 14913"
            }
        },
        {
            "id": 24071,
            "type": "Feature",
            "geometry": {
                "type": "Point",
                "coordinates": [
                    17.15464,
                    51.102940000000004
                ]
            },
            "properties": {
                "ref:rspo": 24071,
                "official_name": "Przedszkole Nr 115",
                "name": "Przedszkole Nr 115",
                "addr:country": "PL",
                "addr:postcode": "51-518",
                "addr:city": "Wroc\u0142aw",
                "addr:street": "Strachoci\u0144ska",
                "addr:housenumber": "155-157",
                "addr:teryt:simc": 21249,
                "addr:teryt:sym_ul": 986745,
                "contact:phone": "+48 717986917",
                "contact:email": "zsp11wr@op.pl",
                "contact:website": "http:\/\/przedszkole115wr.pl\/",
                "ref:regon": "930113260",
                "operator": "Gmina Wroc\u0142aw",
                "operator:type": "government",
                "amenity": "kindergarten",
                "note": "Parent RSPO: 14913"
            }
        },
        {
            "id": 130922,
            "type": "Feature",
            "geometry": {
                "type": "Point",
                "coordinates": [
                    17.15353,
                    51.10768
                ]
            },
            "properties": {
                "ref:rspo": 130922,
                "official_name": "Publiczne Przedszkole \"Zielony Groszek\"",
                "name": "Publiczne Przedszkole \"Zielony Groszek\"",
                "addr:country": "PL",
                "addr:postcode": "51-514",
                "addr:city": "Wroc\u0142aw",
                "addr:street": "Rolnicza",
                "addr:housenumber": "36",
                "addr:teryt:simc": 18821,
                "addr:teryt:sym_ul": 986745,
                "contact:phone": "+48 517332770",
                "contact:email": "kontakt@zielony-groszek.pl",
                "contact:website": "http:\/\/www.zielony-groszek.pl",
                "ref:regon": "364735484",
                "operator": "Ma\u0142gorzata Prask",
                "operator:type": "private",
                "amenity": "kindergarten"
            }
        },
        {
            "id": 129011,
            "type": "Feature",
            "geometry": {
                "type": "Point",
                "coordinates": [
                    17.12148,
                    51.10814
                ]
            },
            "properties": {
                "ref:rspo": 129011,
                "official_name": "Niepubliczne Przedszkole Montessori Pere\u0142ka",
                "name": "Niepubliczne Przedszkole Montessori Pere\u0142ka",
                "addr:country": "PL",
                "addr:postcode": "51-504",
                "addr:city": "Wroc\u0142aw",
                "addr:street": "Ameriga Vespucciego",
                "addr:housenumber": "6a",
                "addr:teryt:simc": 55782,
                "addr:teryt:sym_ul": 986745,
                "contact:phone": "+48 697019040",
                "contact:email": "biuro@perelkawroclaw.pl",
                "contact:website": "http:\/\/www.perelkawroclaw.pl",
                "ref:regon": "362479410",
                "operator": "Anna Krasi\u0144ska-Szaszko",
                "operator:type": "private",
                "amenity": "kindergarten"
            }
        },
        {
            "id": 277806,
            "type": "Feature",
            "geometry": {
                "type": "Point",
                "coordinates": [
                    17.02736,
                    51.10969
                ]
            },
            "properties": {
                "ref:rspo": 277806,
                "official_name": "Publiczne Przedszkole \"Planeta Dzieci\"",
                "name": "Publiczne Przedszkole \"Planeta Dzieci\"",
                "addr:country": "PL",
                "addr:postcode": "51-354",
                "addr:city": "Wroc\u0142aw",
                "addr:street": "Poleska",
                "addr:housenumber": "33a",
                "addr:teryt:simc": 16989,
                "addr:teryt:sym_ul": 986745,
                "contact:phone": "+48 798717179",
                "contact:email": "biuro@planeta-dzieci.pl",
                "contact:website": "http:\/\/planeta-dzieci.pl",
                "ref:regon": "389565893",
                "operator": "\"Olileo\"",
                "operator:type": "ngo",
                "amenity": "kindergarten"
            }
        },
        {
            "id": 277288,
            "type": "Feature",
            "geometry": {
                "type": "Point",
                "coordinates": [
                    17.11736,
                    51.11097
                ]
            },
            "properties": {
                "ref:rspo": 277288,
                "official_name": "Przedszkole \"Po S\u0105siedzku\"",
                "name": "Przedszkole \"Po S\u0105siedzku\"",
                "addr:country": "PL",
                "addr:postcode": "51-504",
                "addr:city": "Wroc\u0142aw",
                "addr:street": "Marca Polo",
                "addr:housenumber": "9",
                "addr:teryt:simc": 17017,
                "addr:teryt:sym_ul": 986745,
                "contact:phone": "+48 789429110",
                "contact:email": "metis.spolka@gmail.com",
                "ref:regon": "388560630",
                "operator": "Metis Sp\u00f3\u0142ka Z Ograniczon\u0105 Odpowiedzialno\u015bci\u0105",
                "operator:type": "private",
                "amenity": "kindergarten"
            }
        },
        {
            "id": 123533,
            "type": "Feature",
            "geometry": {
                "type": "Point",
                "coordinates": [
                    17.13597,
                    51.11207
                ]
            },
            "properties": {
                "ref:rspo": 123533,
                "official_name": "Przedszkole Publiczne \"Happy Bees\"",
                "name": "Przedszkole Publiczne \"Happy Bees\"",
                "addr:country": "PL",
                "addr:postcode": "51-511",
                "addr:city": "Wroc\u0142aw",
                "addr:street": "Strachoci\u0144ska",
                "addr:housenumber": "21",
                "addr:teryt:simc": 21249,
                "addr:teryt:sym_ul": 986745,
                "contact:phone": "+48 603557730",
                "contact:email": "strachocin@happy-bees.pl",
                "contact:website": "http:\/\/www.happy-bees.pl",
                "ref:regon": "022451820",
                "operator": "Happy Bees Sp\u00f3\u0142ka Z Ograniczon\u0105 Odpowiedzialno\u015bci\u0105",
                "operator:type": "private",
                "amenity": "kindergarten"
            }
        },
        {
            "id": 277808,
            "type": "Feature",
            "geometry": {
                "type": "Point",
                "coordinates": [
                    17.11982,
                    51.11336
                ]
            },
            "properties": {
                "ref:rspo": 277808,
                "official_name": "Publiczne Przedszkole \"Le\u015bne Zuchy\"",
                "name": "Publiczne Przedszkole \"Le\u015bne Zuchy\"",
                "addr:country": "PL",
                "addr:postcode": "51-502",
                "addr:city": "Wroc\u0142aw",
                "addr:street": "Swojczycka",
                "addr:housenumber": "69",
                "addr:teryt:simc": 21628,
                "addr:teryt:sym_ul": 986745,
                "contact:phone": "+48 575112110",
                "contact:email": "biuro@lesnezuchy.pl",
                "contact:website": "http:\/\/www.lesnezuchy.pl",
                "ref:regon": "389566384",
                "operator": "Pp Edu Sp\u00f3\u0142ka Z Ograniczon\u0105 Odpowiedzialno\u015bci\u0105",
                "operator:type": "private",
                "amenity": "kindergarten"
            }
        },
        {
            "id": 264680,
            "type": "Feature",
            "geometry": {
                "type": "Point",
                "coordinates": [
                    17.1263599,
                    51.11415
                ]
            },
            "properties": {
                "ref:rspo": 264680,
                "official_name": "Akademia Kreatywna Montessori Dwuj\u0119zyczne Przedszkole Chrze\u015bcija\u0144skie",
                "name": "Akademia Kreatywna Montessori Dwuj\u0119zyczne Przedszkole Chrze\u015bcija\u0144skie",
                "addr:country": "PL",
                "addr:postcode": "51-502",
                "addr:city": "Wroc\u0142aw",
                "addr:street": "Swojczycka",
                "addr:housenumber": "105",
                "addr:teryt:simc": 21628,
                "addr:teryt:sym_ul": 986745,
                "contact:phone": "+48 694301595",
                "contact:email": "bmmarczak@gmail.com",
                "ref:regon": "368432220",
                "operator": "Beata Marczak",
                "operator:type": "private",
                "amenity": "kindergarten"
            }
        },
        {
            "id": 52413,
            "type": "Feature",
            "geometry": {
                "type": "Point",
                "coordinates": [
                    17.12695,
                    51.1168
                ]
            },
            "properties": {
                "ref:rspo": 52413,
                "official_name": "Ekologiczne Przedszkole Niepubliczne",
                "name": "Ekologiczne Przedszkole Niepubliczne",
                "addr:country": "PL",
                "addr:postcode": "51-502",
                "addr:city": "Wroc\u0142aw",
                "addr:street": "Mi\u0142oszycka",
                "addr:housenumber": "23",
                "addr:teryt:simc": 12967,
                "addr:teryt:sym_ul": 986745,
                "contact:phone": "+48 713486914",
                "contact:email": "przedszkole.strachota@gmail.com",
                "contact:website": "http:\/\/przedszkole.strachota.org",
                "ref:regon": "021995185",
                "operator": "Fundacja \"Strachota\" We Wroc\u0142awiu",
                "operator:type": "ngo",
                "amenity": "kindergarten"
            }
        },
        {
            "id": 129611,
            "type": "Feature",
            "geometry": {
                "type": "Point",
                "coordinates": [
                    17.12695,
                    51.116769999999995
                ]
            },
            "properties": {
                "ref:rspo": 129611,
                "official_name": "Ekologiczne Przedszkole Publiczne",
                "name": "Ekologiczne Przedszkole Publiczne",
                "addr:country": "PL",
                "addr:postcode": "51-502",
                "addr:city": "Wroc\u0142aw",
                "addr:street": "Mi\u0142oszycka",
                "addr:housenumber": "23",
                "addr:teryt:simc": 12967,
                "addr:teryt:sym_ul": 986745,
                "contact:phone": "+48 713486914",
                "contact:email": "przedszkole.strachota@gmail.com",
                "contact:website": "http:\/\/www.przedszkole.strachota.org",
                "ref:regon": "362702285",
                "operator": "Fundacja \"Strachota\" We Wroc\u0142awiu",
                "operator:type": "ngo",
                "amenity": "kindergarten"
            }
        },
        {
            "id": 60246,
            "type": "Feature",
            "geometry": {
                "type": "Point",
                "coordinates": [
                    17.0357,
                    51.1261
                ]
            },
            "properties": {
                "isced:level": "3",
                "ref:rspo": 60246,
                "official_name": "Zaoczne Liceum Og\u00f3lnokszta\u0142c\u0105ce dla Doros\u0142ych",
                "name": "Zaoczne Liceum Og\u00f3lnokszta\u0142c\u0105ce dla Doros\u0142ych",
                "addr:country": "PL",
                "addr:postcode": "50-230",
                "addr:city": "Wroc\u0142aw",
                "addr:street": "Trzebnicka",
                "addr:housenumber": "42",
                "addr:teryt:simc": 23073,
                "addr:teryt:sym_ul": 986745,
                "contact:phone": "+48 717271132",
                "contact:email": "janusz_janowski@wp.pl",
                "contact:website": "http:\/\/www.lojama.eu",
                "ref:regon": "022004794",
                "operator": "Janusz Matli\u0144ski",
                "operator:type": "private",
                "amenity": "school"
            }
        },
        {
            "id": 12531,
            "type": "Feature",
            "geometry": {
                "type": "Point",
                "coordinates": [
                    17.03435,
                    51.1266
                ]
            },
            "properties": {
                "isced:level": "1;2",
                "ref:rspo": 12531,
                "official_name": "Szko\u0142a Podstawowa Nr 74 im. Prymasa Tysi\u0105clecia",
                "name": "Szko\u0142a Podstawowa Nr 74",
                "addr:country": "PL",
                "addr:postcode": "50-227",
                "addr:city": "Wroc\u0142aw",
                "addr:street": "Kleczkowska",
                "addr:housenumber": "2",
                "addr:teryt:simc": 8495,
                "addr:teryt:sym_ul": 986745,
                "contact:phone": "+48 717986863",
                "contact:email": "sekretariat.sp074@wroclawskaedukacja.pl",
                "contact:website": "http:\/\/www.sp74.wroclaw.pl",
                "ref:regon": "000693486",
                "ref:vatin": "PL8951430827",
                "operator": "Gmina Wroc\u0142aw",
                "operator:type": "government",
                "amenity": "school"
            }
        },
        {
            "id": 106159,
            "type": "Feature",
            "geometry": {
                "type": "Point",
                "coordinates": [
                    17.03435,
                    51.12657
                ]
            },
            "properties": {
                "ref:rspo": 106159,
                "official_name": "Publiczny Punkt Przedszkolny \"Jacek I Agatka\"",
                "name": "Publiczny Punkt Przedszkolny \"Jacek I Agatka\"",
                "addr:country": "PL",
                "addr:postcode": "50-227",
                "addr:city": "Wroc\u0142aw",
                "addr:street": "Kleczkowska",
                "addr:housenumber": "2",
                "addr:teryt:simc": 8495,
                "addr:teryt:sym_ul": 986745,
                "contact:phone": "+48 501981316",
                "contact:email": "k.paikert@fundacjaedukacja.pl",
                "contact:website": "http:\/\/www.fundacjaedukacja.pl",
                "ref:regon": "022050216",
                "operator": "Edukacja Dla Przysz\u0142o\u015bci",
                "operator:type": "ngo",
                "amenity": "kindergarten"
            }
        },
        {
            "id": 3913,
            "type": "Feature",
            "geometry": {
                "type": "Point",
                "coordinates": [
                    17.02952,
                    51.1274299
                ]
            },
            "properties": {
                "ref:rspo": 3913,
                "official_name": "Centrum Kszta\u0142cenia Ustawicznego we Wroc\u0142awiu",
                "name": "Centrum Kszta\u0142cenia Ustawicznego we Wroc\u0142awiu",
                "addr:country": "PL",
                "addr:postcode": "50-211",
                "addr:city": "Wroc\u0142aw",
                "addr:street": "Kleczkowska",
                "addr:housenumber": "35",
                "addr:teryt:simc": 8495,
                "addr:teryt:sym_ul": 986745,
                "contact:phone": "+48 713272658",
                "contact:email": "szkola@ckuzk.pl",
                "ref:regon": "021953413",
                "operator": "Ministerstwo Sprawiedliwo\u015bci",
                "operator:type": "public",
                "amenity": "school",
                "fixme": "amenity=school lub amenity=college",
                "note": "Children RSPO: 8925;8926;20168"
            }
        },
        {
            "id": 8925,
            "type": "Feature",
            "geometry": {
                "type": "Point",
                "coordinates": [
                    17.02952,
                    51.1273999
                ]
            },
            "properties": {
                "isced:level": "3",
                "ref:rspo": 8925,
                "official_name": "Liceum Og\u00f3lnokszta\u0142c\u0105ce dla Doros\u0142ych",
                "name": "Liceum Og\u00f3lnokszta\u0142c\u0105ce dla Doros\u0142ych",
                "addr:country": "PL",
                "addr:postcode": "50-211",
                "addr:city": "Wroc\u0142aw",
                "addr:street": "Kleczkowska",
                "addr:housenumber": "35",
                "addr:teryt:simc": 8495,
                "addr:teryt:sym_ul": 986745,
                "contact:phone": "+48 713272658",
                "contact:email": "szkola@ckuzk.pl",
                "ref:regon": "021954915",
                "operator": "Ministerstwo Sprawiedliwo\u015bci",
                "operator:type": "public",
                "amenity": "school",
                "note": "Parent RSPO: 3913"
            }
        },
        {
            "id": 8926,
            "type": "Feature",
            "geometry": {
                "type": "Point",
                "coordinates": [
                    17.02952,
                    51.127369900000005
                ]
            },
            "properties": {
                "isced:level": "4",
                "ref:rspo": 8926,
                "official_name": "Szko\u0142a Policealna dla Doros\u0142ych",
                "name": "Szko\u0142a Policealna dla Doros\u0142ych",
                "addr:country": "PL",
                "addr:postcode": "50-211",
                "addr:city": "Wroc\u0142aw",
                "addr:street": "Kleczkowska",
                "addr:housenumber": "35",
                "addr:teryt:simc": 8495,
                "addr:teryt:sym_ul": 986745,
                "contact:phone": "+48 713272658",
                "contact:email": "szkola@ckuzk.pl",
                "ref:regon": "021954884",
                "operator": "Ministerstwo Sprawiedliwo\u015bci",
                "operator:type": "public",
                "amenity": "college",
                "note": "Parent RSPO: 3913"
            }
        },
        {
            "id": 20168,
            "type": "Feature",
            "geometry": {
                "type": "Point",
                "coordinates": [
                    17.02952,
                    51.1273399
                ]
            },
            "properties": {
                "isced:level": "1;2",
                "ref:rspo": 20168,
                "official_name": "Szko\u0142a Podstawowa dla Doros\u0142ych",
                "name": "Szko\u0142a Podstawowa dla Doros\u0142ych",
                "addr:country": "PL",
                "addr:postcode": "50-211",
                "addr:city": "Wroc\u0142aw",
                "addr:street": "Kleczkowska",
                "addr:housenumber": "35",
                "addr:teryt:simc": 8495,
                "addr:teryt:sym_ul": 986745,
                "contact:phone": "+48 713272658",
                "contact:email": "szkola@ckuzk.pl",
                "ref:regon": "021977916",
                "operator": "Ministerstwo Sprawiedliwo\u015bci",
                "operator:type": "public",
                "amenity": "school",
                "note": "Parent RSPO: 3913"
            }
        },
        {
            "id": 107019,
            "type": "Feature",
            "geometry": {
                "type": "Point",
                "coordinates": [
                    17.03456,
                    51.12824
                ]
            },
            "properties": {
                "ref:rspo": 107019,
                "official_name": "Szko\u0142a Ta\u0144ca \"Jast\"",
                "name": "Szko\u0142a Ta\u0144ca \"Jast\"",
                "addr:country": "PL",
                "addr:postcode": "50-211",
                "addr:city": "Wroc\u0142aw",
                "addr:street": "Lucjana Siemie\u0144skiego",
                "addr:housenumber": "17",
                "addr:door": "5",
                "addr:teryt:simc": 19813,
                "addr:teryt:sym_ul": 986745,
                "contact:phone": "+48 713290745",
                "contact:email": "biuro@dance.pl",
                "contact:website": "http:\/\/www.jast.dance.pl",
                "ref:regon": "022056325",
                "operator": "Zbigniew Zasada",
                "operator:type": "private",
                "fixme": "w zale\u017cno\u015bci od przedmiotu dzia\u0142alno\u015bci (np. amenity=training + training=*, amenity=dancing_school, amenity=language_school, amenity=music_school)"
            }
        },
        {
            "id": 266266,
            "type": "Feature",
            "geometry": {
                "type": "Point",
                "coordinates": [
                    17.04465,
                    51.12864
                ]
            },
            "properties": {
                "ref:rspo": 266266,
                "official_name": "Niepubliczne Przedszkole J\u0119zykowo-Sportowe \"Luppo-Puppo\"",
                "name": "Niepubliczne Przedszkole J\u0119zykowo-Sportowe \"Luppo-Puppo\"",
                "addr:country": "PL",
                "addr:postcode": "50-304",
                "addr:city": "Wroc\u0142aw",
                "addr:street": "Antoniego S\u0142onimskiego",
                "addr:housenumber": "1a",
                "addr:teryt:simc": 20269,
                "addr:teryt:sym_ul": 986745,
                "contact:phone": "+48 733002405",
                "contact:email": "biuro@luppopuppo.pl",
                "contact:website": "http:\/\/luppopuppo.pl",
                "ref:regon": "369381619",
                "operator": "Marta Ko\u017amik",
                "operator:type": "private",
                "amenity": "kindergarten"
            }
        },
        {
            "id": 26022,
            "type": "Feature",
            "geometry": {
                "type": "Point",
                "coordinates": [
                    17.03466,
                    51.1301
                ]
            },
            "properties": {
                "ref:rspo": 26022,
                "official_name": "Przedszkole Nr 21",
                "name": "Przedszkole Nr 21",
                "addr:country": "PL",
                "addr:postcode": "50-226",
                "addr:city": "Wroc\u0142aw",
                "addr:street": "Wybrze\u017ce J\u00f3zefa Conrada-Korzeniowskiego",
                "addr:housenumber": "10",
                "addr:teryt:simc": 37583,
                "addr:teryt:sym_ul": 986745,
                "contact:phone": "+48 717986777",
                "contact:email": "przedszkole21@tlen.pl",
                "contact:website": "http:\/\/www.p21wroclaw.szkolnastrona.pl\/",
                "ref:regon": "930113193",
                "ref:vatin": "PL8951686998",
                "operator": "Gmina Wroc\u0142aw",
                "operator:type": "government",
                "amenity": "kindergarten"
            }
        },
        {
            "id": 126538,
            "type": "Feature",
            "geometry": {
                "type": "Point",
                "coordinates": [
                    17.04427,
                    51.13019
                ]
            },
            "properties": {
                "ref:rspo": 126538,
                "official_name": "Publiczne Przedszkole Aviatorek",
                "name": "Publiczne Przedszkole Aviatorek",
                "addr:country": "PL",
                "addr:postcode": "50-304",
                "addr:city": "Wroc\u0142aw",
                "addr:street": "Antoniego S\u0142onimskiego",
                "addr:housenumber": "3G",
                "addr:teryt:simc": 20269,
                "addr:teryt:sym_ul": 986745,
                "contact:phone": "+48 513153388",
                "contact:email": "aviatorekwroc@gmail.com",
                "contact:website": "http:\/\/www.facebook.pl\/aviatorek",
                "ref:regon": "360532940",
                "operator": "Jaros\u0142aw Paku\u0142a",
                "operator:type": "private",
                "amenity": "kindergarten"
            }
        },
        {
            "id": 123654,
            "type": "Feature",
            "geometry": {
                "type": "Point",
                "coordinates": [
                    17.08031,
                    51.13218
                ]
            },
            "properties": {
                "ref:rspo": 123654,
                "official_name": "Przedszkole Nr 14 Kowaliki",
                "name": "Przedszkole Nr 14 Kowaliki",
                "addr:country": "PL",
                "addr:postcode": "51-415",
                "addr:city": "Wroc\u0142aw",
                "addr:street": "Kwidzy\u0144ska",
                "addr:housenumber": "1",
                "addr:teryt:simc": 10572,
                "addr:teryt:sym_ul": 986745,
                "contact:phone": "+48 717986936",
                "contact:email": "sekretariat.p014@wroclawskaedukacja.pl",
                "ref:regon": "022459448",
                "ref:vatin": "PL8952033637",
                "operator": "Gmina Wroc\u0142aw",
                "operator:type": "government",
                "amenity": "kindergarten"
            }
        },
        {
            "id": 14031,
            "type": "Feature",
            "geometry": {
                "type": "Point",
                "coordinates": [
                    17.10723,
                    51.13224
                ]
            },
            "properties": {
                "isced:level": "1;2",
                "ref:rspo": 14031,
                "official_name": "Szko\u0142a Podstawowa Nr 8 im. J\u00f3zefa Pi\u0142sudskiego",
                "name": "Szko\u0142a Podstawowa Nr 8",
                "addr:country": "PL",
                "addr:postcode": "51-424",
                "addr:city": "Wroc\u0142aw",
                "addr:street": "Kowalska",
                "addr:housenumber": "105",
                "addr:teryt:simc": 9665,
                "addr:teryt:sym_ul": 986745,
                "contact:phone": "+48 717986866",
                "contact:email": "sekretariat.sp008@wroclawskaedukacja.pl",
                "contact:website": "http:\/\/www.sp8wroc.edupage.org",
                "ref:regon": "000693411",
                "ref:vatin": "PL8951580136",
                "operator": "Gmina Wroc\u0142aw",
                "operator:type": "government",
                "amenity": "school"
            }
        },
        {
            "id": 26029,
            "type": "Feature",
            "geometry": {
                "type": "Point",
                "coordinates": [
                    17.06294,
                    51.13333
                ]
            },
            "properties": {
                "ref:rspo": 26029,
                "official_name": "Przedszkole Integracyjne Nr 68 im. Roku 2000",
                "name": "Przedszkole Integracyjne Nr 68",
                "addr:country": "PL",
                "addr:postcode": "51-162",
                "addr:city": "Wroc\u0142aw",
                "addr:street": "Jana D\u0142ugosza",
                "addr:housenumber": "29",
                "addr:teryt:simc": 3851,
                "addr:teryt:sym_ul": 986745,
                "contact:phone": "+48 717986809",
                "contact:email": "sekretariat.p068@wroclawskaedukacja.pl",
                "contact:website": "http:\/\/przedszkole68.wroclaw.pl",
                "ref:regon": "000215812",
                "ref:vatin": "PL8951687006",
                "operator": "Gmina Wroc\u0142aw",
                "operator:type": "government",
                "amenity": "kindergarten"
            }
        },
        {
            "id": 14978,
            "type": "Feature",
            "geometry": {
                "type": "Point",
                "coordinates": [
                    17.05784,
                    51.13517
                ]
            },
            "properties": {
                "isced:level": "1;2",
                "ref:rspo": 14978,
                "official_name": "Szko\u0142a Podstawowa Nr 83 im. Jana Kasprowicza",
                "name": "Szko\u0142a Podstawowa Nr 83",
                "addr:country": "PL",
                "addr:postcode": "51-160",
                "addr:city": "Wroc\u0142aw",
                "addr:street": "Aleja Tadeusza Boya-\u017bele\u0144skiego",
                "addr:housenumber": "32",
                "addr:teryt:simc": 1928,
                "addr:teryt:sym_ul": 986745,
                "contact:phone": "+48 717986869",
                "contact:email": "sekretariat@sp83wro.pl",
                "contact:website": "http:\/\/sp83wroclaw.szkolnastrona.pl\/",
                "ref:regon": "000693492",
                "ref:vatin": "PL8951687029",
                "operator": "Gmina Wroc\u0142aw",
                "operator:type": "government",
                "amenity": "school"
            }
        },
        {
            "id": 24517,
            "type": "Feature",
            "geometry": {
                "type": "Point",
                "coordinates": [
                    17.12782,
                    51.13542
                ]
            },
            "properties": {
                "ref:rspo": 24517,
                "official_name": "Przedszkole Nr 140 Pod Platanem",
                "name": "Przedszkole Nr 140 Pod Platanem",
                "addr:country": "PL",
                "addr:postcode": "51-349",
                "addr:city": "Wroc\u0142aw",
                "addr:street": "Nadbrze\u017cna",
                "addr:housenumber": "14",
                "addr:teryt:simc": 13861,
                "addr:teryt:sym_ul": 986745,
                "contact:phone": "+48 717986768",
                "contact:email": "dyrektor.p140@wroclawskaedukacja.pl",
                "contact:website": "http:\/\/przedszkole140wroclaw.edupage.org",
                "ref:regon": "930113299",
                "ref:vatin": "PL8951660303",
                "operator": "Gmina Wroc\u0142aw",
                "operator:type": "government",
                "amenity": "kindergarten"
            }
        },
        {
            "id": 128120,
            "type": "Feature",
            "geometry": {
                "type": "Point",
                "coordinates": [
                    17.06673,
                    51.13554
                ]
            },
            "properties": {
                "ref:rspo": 128120,
                "official_name": "Przedszkole Publiczne Wysepka",
                "name": "Przedszkole Publiczne Wysepka",
                "addr:country": "PL",
                "addr:postcode": "51-162",
                "addr:city": "Wroc\u0142aw",
                "addr:street": "Jana D\u0142ugosza",
                "addr:housenumber": "59-75",
                "addr:teryt:simc": 3851,
                "addr:teryt:sym_ul": 986745,
                "contact:phone": "+48 507120657",
                "contact:email": "przedszkole@wysepka.wroclaw.pl",
                "contact:website": "http:\/\/www.przedszkole.wysepka.wroclaw.pl",
                "ref:regon": "362125209",
                "operator": "Katarzyna Swojak-Van Gastel",
                "operator:type": "private",
                "amenity": "kindergarten"
            }
        },
        {
            "id": 268986,
            "type": "Feature",
            "geometry": {
                "type": "Point",
                "coordinates": [
                    17.08683,
                    51.1357
                ]
            },
            "properties": {
                "ref:rspo": 268986,
                "official_name": "Jask\u00f3\u0142ka Montessori",
                "name": "Jask\u00f3\u0142ka Montessori",
                "addr:country": "PL",
                "addr:postcode": "51-420",
                "addr:city": "Wroc\u0142aw",
                "addr:street": "Jask\u00f3\u0142cza",
                "addr:housenumber": "23",
                "addr:teryt:simc": 7329,
                "addr:teryt:sym_ul": 986745,
                "contact:phone": "+48 790302323",
                "contact:email": "kontakt@jaskolkamontessori.pl",
                "contact:website": "http:\/\/jaskolkamontessori.pl",
                "ref:regon": "381326634",
                "operator": "Gabriela Tymoczko",
                "operator:type": "private",
                "amenity": "kindergarten"
            }
        },
        {
            "id": 275659,
            "type": "Feature",
            "geometry": {
                "type": "Point",
                "coordinates": [
                    17.05642,
                    51.13608
                ]
            },
            "properties": {
                "ref:rspo": 275659,
                "official_name": "Punkt Przedszkolny Creo",
                "name": "Punkt Przedszkolny Creo",
                "addr:country": "PL",
                "addr:postcode": "51-160",
                "addr:city": "Wroc\u0142aw",
                "addr:street": "Aleja Tadeusza Boya-\u017bele\u0144skiego",
                "addr:housenumber": "24",
                "addr:teryt:simc": 1928,
                "addr:teryt:sym_ul": 986745,
                "contact:phone": "+48 723123844",
                "contact:email": "biuro@creoedu.pl",
                "contact:website": "http:\/\/www.creoedu.pl",
                "ref:regon": "386930671",
                "operator": "Fundacja Wieloj\u0119zyczne Dzieci",
                "operator:type": "ngo",
                "amenity": "kindergarten"
            }
        },
        {
            "id": 278449,
            "type": "Feature",
            "geometry": {
                "type": "Point",
                "coordinates": [
                    17.05642,
                    51.13605
                ]
            },
            "properties": {
                "isced:level": "1;2",
                "ref:rspo": 278449,
                "official_name": "Autorska Szko\u0142a Podstawowa Creo",
                "name": "Autorska Szko\u0142a Podstawowa Creo",
                "addr:country": "PL",
                "addr:postcode": "51-160",
                "addr:city": "Wroc\u0142aw",
                "addr:street": "Aleja Tadeusza Boya-\u017bele\u0144skiego",
                "addr:housenumber": "24",
                "addr:teryt:simc": 1928,
                "addr:teryt:sym_ul": 986745,
                "contact:phone": "+48 723123844",
                "contact:email": "biuro@creoedu.pl",
                "contact:website": "http:\/\/creoedu.pl",
                "ref:regon": "389898146",
                "operator": "Fundacja Wieloj\u0119zyczne Dzieci",
                "operator:type": "ngo",
                "amenity": "school"
            }
        },
        {
            "id": 24519,
            "type": "Feature",
            "geometry": {
                "type": "Point",
                "coordinates": [
                    17.03282,
                    51.13665
                ]
            },
            "properties": {
                "ref:rspo": 24519,
                "official_name": "Przedszkole Nr 149 T\u0119czowa Polanka",
                "name": "Przedszkole Nr 149 T\u0119czowa Polanka",
                "addr:country": "PL",
                "addr:postcode": "51-113",
                "addr:city": "Wroc\u0142aw",
                "addr:street": "Obornicka",
                "addr:housenumber": "21",
                "addr:teryt:simc": 14593,
                "addr:teryt:sym_ul": 986745,
                "contact:phone": "+48 717986773",
                "contact:email": "sekretariat.p149@wroclawskaedukacja.pl",
                "contact:website": "http:\/\/www.przedszkole149wroc.szkolnastrona.pl",
                "ref:regon": "930113307",
                "ref:vatin": "PL8951686679",
                "operator": "Gmina Wroc\u0142aw",
                "operator:type": "government",
                "amenity": "kindergarten"
            }
        },
        {
            "id": 21295,
            "type": "Feature",
            "geometry": {
                "type": "Point",
                "coordinates": [
                    17.05896,
                    51.1367
                ]
            },
            "properties": {
                "ref:rspo": 21295,
                "official_name": "Punkt Przedszkolny \"Mali Zdobywcy\"",
                "name": "Punkt Przedszkolny \"Mali Zdobywcy\"",
                "addr:country": "PL",
                "addr:postcode": "51-152",
                "addr:city": "Wroc\u0142aw",
                "addr:street": "Wac\u0142awa Berenta",
                "addr:housenumber": "45",
                "addr:teryt:simc": 1052,
                "addr:teryt:sym_ul": 986745,
                "contact:phone": "+48 604584435",
                "contact:email": "joanna.gala1@gmail.com",
                "contact:website": "http:\/\/www.mali-zdobywcy.pl",
                "ref:regon": "021980597",
                "operator": "Joanna Gala",
                "operator:type": "private",
                "amenity": "kindergarten"
            }
        },
        {
            "id": 12637,
            "type": "Feature",
            "geometry": {
                "type": "Point",
                "coordinates": [
                    17.02774,
                    51.13687
                ]
            },
            "properties": {
                "isced:level": "1;2",
                "ref:rspo": 12637,
                "official_name": "Szko\u0142a Podstawowa Nr 50",
                "name": "Szko\u0142a Podstawowa Nr 50",
                "addr:country": "PL",
                "addr:postcode": "51-112",
                "addr:city": "Wroc\u0142aw",
                "addr:street": "Czeska",
                "addr:housenumber": "38",
                "addr:teryt:simc": 3450,
                "addr:teryt:sym_ul": 986745,
                "contact:phone": "+48 717986854",
                "contact:email": "sekretariat@sp50.wroclaw.pl",
                "contact:website": "http:\/\/www.sp50.wroclaw.pl",
                "ref:regon": "001002900",
                "ref:vatin": "PL8961004925",
                "operator": "Gmina Wroc\u0142aw",
                "operator:type": "government",
                "amenity": "school"
            }
        },
        {
            "id": 22656,
            "type": "Feature",
            "geometry": {
                "type": "Point",
                "coordinates": [
                    17.0543,
                    51.13753
                ]
            },
            "properties": {
                "ref:rspo": 22656,
                "official_name": "Przedszkole Nr 1 Planeta U\u015bmiechu",
                "name": "Przedszkole Nr 1 Planeta U\u015bmiechu",
                "addr:country": "PL",
                "addr:postcode": "51-146",
                "addr:city": "Wroc\u0142aw",
                "addr:street": "Aleja Jana Kasprowicza",
                "addr:housenumber": "89a",
                "addr:teryt:simc": 8149,
                "addr:teryt:sym_ul": 986745,
                "contact:phone": "+48 717986746",
                "contact:email": "sekretariat.p001@wroclawskaedukacja.pl",
                "contact:website": "http:\/\/www.przedszkole1.edu.wroclaw.pl",
                "ref:regon": "930113135",
                "ref:vatin": "PL8951687621",
                "operator": "Gmina Wroc\u0142aw",
                "operator:type": "government",
                "amenity": "kindergarten"
            }
        },
        {
            "id": 23539,
            "type": "Feature",
            "geometry": {
                "type": "Point",
                "coordinates": [
                    17.04559,
                    51.1375699
                ]
            },
            "properties": {
                "ref:rspo": 23539,
                "official_name": "Niepubliczne Przedszkole im. Cz. Janczarskiego",
                "name": "Niepubliczne Przedszkole",
                "addr:country": "PL",
                "addr:postcode": "51-137",
                "addr:city": "Wroc\u0142aw",
                "addr:street": "Aleja Jana Kasprowicza",
                "addr:housenumber": "42-44",
                "addr:teryt:simc": 8149,
                "addr:teryt:sym_ul": 986745,
                "contact:phone": "+48 713251637",
                "contact:email": "przedszkole@przed-szkolak.pl",
                "contact:website": "http:\/\/www.przed-szkolak.pl",
                "ref:regon": "021983644",
                "operator": "Niepubliczne Przedszkole Czj Sp\u00f3\u0142ka Z Ograniczon\u0105 Odpowiedzialno\u015bci\u0105",
                "operator:type": "private",
                "amenity": "kindergarten"
            }
        },
        {
            "id": 24515,
            "type": "Feature",
            "geometry": {
                "type": "Point",
                "coordinates": [
                    17.02124,
                    51.13817
                ]
            },
            "properties": {
                "ref:rspo": 24515,
                "official_name": "Przedszkole Nr 126 R\u00f3\u017canka",
                "name": "Przedszkole Nr 126 R\u00f3\u017canka",
                "addr:country": "PL",
                "addr:postcode": "51-112",
                "addr:city": "Wroc\u0142aw",
                "addr:street": "Jugos\u0142owia\u0144ska",
                "addr:housenumber": "115",
                "addr:teryt:simc": 7649,
                "addr:teryt:sym_ul": 986745,
                "contact:phone": "+48 717986765",
                "contact:email": "sekretariat.p126@wroclawskaedukacja.pl",
                "contact:website": "http:\/\/www.rozanka.wroclaw.pl",
                "ref:regon": "930113276",
                "ref:vatin": "PL8951687911",
                "operator": "Gmina Wroc\u0142aw",
                "operator:type": "government",
                "amenity": "kindergarten"
            }
        },
        {
            "id": 20915,
            "type": "Feature",
            "geometry": {
                "type": "Point",
                "coordinates": [
                    17.06663,
                    51.13836
                ]
            },
            "properties": {
                "ref:rspo": 20915,
                "official_name": "Poradnia Psychologiczno-Pedagogiczna Nr 5",
                "name": "Poradnia Psychologiczno-Pedagogiczna Nr 5",
                "addr:country": "PL",
                "addr:postcode": "51-171",
                "addr:city": "Wroc\u0142aw",
                "addr:street": "Piotra Czajkowskiego",
                "addr:housenumber": "28",
                "addr:teryt:simc": 3235,
                "addr:teryt:sym_ul": 986745,
                "contact:phone": "+48 717986831",
                "contact:email": "sekretariat.ppp5@wroclawskaedukacja.pl",
                "contact:website": "http:\/\/www.ppp5.wroc.pl",
                "ref:regon": "932113990",
                "ref:vatin": "PL8951688276",
                "operator": "Gmina Wroc\u0142aw",
                "operator:type": "government",
                "healthcare": "counselling",
                "counselling_type": "education",
                "fixme": "w zale\u017cno\u015bci od przedmiotu dzia\u0142alno\u015bci (np. healthcare=counselling + counselling_type=education albo healthcare=psychotherapist)"
            }
        },
        {
            "id": 24504,
            "type": "Feature",
            "geometry": {
                "type": "Point",
                "coordinates": [
                    17.04,
                    51.13919
                ]
            },
            "properties": {
                "ref:rspo": 24504,
                "official_name": "Przedszkole Nr 82",
                "name": "Przedszkole Nr 82",
                "addr:country": "PL",
                "addr:postcode": "51-138",
                "addr:city": "Wroc\u0142aw",
                "addr:street": "ks. Norberta Bonczyka",
                "addr:housenumber": "52",
                "addr:teryt:simc": 31892,
                "addr:teryt:sym_ul": 986745,
                "contact:phone": "+48 717986816",
                "contact:email": "sekretariat.p082@wroclawskaedukacja.pl",
                "contact:website": "http:\/\/p82wroclaw.szkolnastrona.pl",
                "ref:regon": "930113224",
                "ref:vatin": "PL8951588882",
                "operator": "Gmina Wroc\u0142aw",
                "operator:type": "government",
                "amenity": "kindergarten"
            }
        },
        {
            "id": 125007,
            "type": "Feature",
            "geometry": {
                "type": "Point",
                "coordinates": [
                    17.07192,
                    51.1405
                ]
            },
            "properties": {
                "isced:level": "4",
                "ref:rspo": 125007,
                "official_name": "Szko\u0142a Policealna Lider",
                "name": "Szko\u0142a Policealna Lider",
                "addr:country": "PL",
                "addr:postcode": "51-168",
                "addr:city": "Wroc\u0142aw",
                "addr:street": "So\u0142tysowicka",
                "addr:housenumber": "19b",
                "addr:teryt:simc": 20568,
                "addr:teryt:sym_ul": 986745,
                "contact:phone": "+48 713251514",
                "contact:email": "dyrektor@lider.wroclaw.pl",
                "contact:website": "http:\/\/www.lider.wroclaw.pl",
                "ref:regon": "022499577",
                "operator": "\"Spedycja Transport Logistyka Consulting\" Sp\u00f3\u0142ka Z Ograniczon\u0105 Odpowiedzialno\u015bci\u0105",
                "operator:type": "private",
                "amenity": "college"
            }
        },
        {
            "id": 130218,
            "type": "Feature",
            "geometry": {
                "type": "Point",
                "coordinates": [
                    17.07192,
                    51.14047
                ]
            },
            "properties": {
                "isced:level": "3",
                "ref:rspo": 130218,
                "official_name": "Technikum Akademickie Przy Mi\u0119dzynarodowej Wy\u017cszej Szkole Logistyki I Transportu we Wroc\u0142awiu",
                "name": "Technikum Akademickie Przy Mi\u0119dzynarodowej Wy\u017cszej Szkole Logistyki I Transportu we Wroc\u0142awiu",
                "addr:country": "PL",
                "addr:postcode": "51-168",
                "addr:city": "Wroc\u0142aw",
                "addr:street": "So\u0142tysowicka",
                "addr:housenumber": "19b",
                "addr:teryt:simc": 20568,
                "addr:teryt:sym_ul": 986745,
                "contact:phone": "+48 713246842",
                "contact:email": "technikum@msl.com.pl",
                "ref:regon": "363671799",
                "operator": "Mi\u0119dzynarodowa Wy\u017csza Szko\u0142a Logistyki I Transportu We Wroc\u0142awiu",
                "operator:type": "private",
                "amenity": "school"
            }
        },
        {
            "id": 131094,
            "type": "Feature",
            "geometry": {
                "type": "Point",
                "coordinates": [
                    17.07192,
                    51.140440000000005
                ]
            },
            "properties": {
                "isced:level": "3",
                "ref:rspo": 131094,
                "official_name": "Bran\u017cowa Szko\u0142a I Stopnia Lider",
                "name": "Bran\u017cowa Szko\u0142a I Stopnia Lider",
                "addr:country": "PL",
                "addr:postcode": "51-168",
                "addr:city": "Wroc\u0142aw",
                "addr:street": "So\u0142tysowicka",
                "addr:housenumber": "19b",
                "addr:teryt:simc": 20568,
                "addr:teryt:sym_ul": 986745,
                "contact:phone": "+48 713246858",
                "contact:email": "szkolazawodowa@mail.mwsl.eu",
                "ref:regon": "364953399",
                "operator": "Mi\u0119dzynarodowa Wy\u017csza Szko\u0142a Logistyki I Transportu We Wroc\u0142awiu",
                "operator:type": "private",
                "amenity": "school"
            }
        },
        {
            "id": 125936,
            "type": "Feature",
            "geometry": {
                "type": "Point",
                "coordinates": [
                    17.05672,
                    51.14152
                ]
            },
            "properties": {
                "ref:rspo": 125936,
                "official_name": "\"Komandos-Wroc\u0142aw\" Sp. Z O.o.",
                "name": "\"Komandos-Wroc\u0142aw\" Sp. Z O.o.",
                "addr:country": "PL",
                "addr:postcode": "51-150",
                "addr:city": "Wroc\u0142aw",
                "addr:street": "Piotra Czajkowskiego",
                "addr:housenumber": "100",
                "addr:teryt:simc": 3235,
                "addr:teryt:sym_ul": 986745,
                "contact:phone": "+48 606743561",
                "contact:email": "komandos.wroclaw102@gmail.com",
                "contact:website": "http:\/\/www.komandos.wroclaw.pl",
                "ref:regon": "360205520",
                "operator": "\"Komandos - Wroc\u0142aw\" Sp\u00f3\u0142ka Z Ograniczon\u0105 Odpowiedzialno\u015bci\u0105",
                "operator:type": "private",
                "fixme": "w zale\u017cno\u015bci od przedmiotu dzia\u0142alno\u015bci (np. amenity=training + training=*, amenity=dancing_school, amenity=language_school, amenity=music_school)"
            }
        },
        {
            "id": 14098,
            "type": "Feature",
            "geometry": {
                "type": "Point",
                "coordinates": [
                    17.03482,
                    51.14172
                ]
            },
            "properties": {
                "isced:level": "1;2",
                "ref:rspo": 14098,
                "official_name": "Szko\u0142a Podstawowa Nr 20 im. Or\u0142a Bia\u0142ego",
                "name": "Szko\u0142a Podstawowa Nr 20",
                "addr:country": "PL",
                "addr:postcode": "51-124",
                "addr:city": "Wroc\u0142aw",
                "addr:street": "Henryka Micha\u0142a Kamie\u0144skiego",
                "addr:housenumber": "24",
                "addr:teryt:simc": 29471,
                "addr:teryt:sym_ul": 986745,
                "contact:phone": "+48 717986844",
                "contact:email": "sekretariat.sp020@wroclawskaedukacja.pl",
                "contact:website": "http:\/\/www.sp20.wroc.pl",
                "ref:regon": "000693428",
                "ref:vatin": "PL8951400134",
                "operator": "Gmina Wroc\u0142aw",
                "operator:type": "government",
                "amenity": "school"
            }
        },
        {
            "id": 129690,
            "type": "Feature",
            "geometry": {
                "type": "Point",
                "coordinates": [
                    17.12649,
                    51.1423599
                ]
            },
            "properties": {
                "ref:rspo": 129690,
                "official_name": "Niepubliczna Poradnia Psychologiczno-Pedagogiczna \"Nasz \u015awiat\" Nr 2",
                "name": "Niepubliczna Poradnia Psychologiczno-Pedagogiczna \"Nasz \u015awiat\" Nr 2",
                "addr:country": "PL",
                "addr:postcode": "51-354",
                "addr:city": "Wroc\u0142aw",
                "addr:street": "Litewska",
                "addr:housenumber": "14a",
                "addr:teryt:simc": 11223,
                "addr:teryt:sym_ul": 986745,
                "contact:phone": "+48 609028393",
                "contact:email": "biuro@naszswiat.org",
                "contact:website": "http:\/\/www.naszswiat.org",
                "ref:regon": "362792740",
                "operator": "Stowarzyszenie Na Rzecz Integracji Spo\u0142ecznej \"Nasz \u015awiat\"",
                "operator:type": "ngo",
                "healthcare": "counselling",
                "counselling_type": "education",
                "fixme": "w zale\u017cno\u015bci od przedmiotu dzia\u0142alno\u015bci (np. healthcare=counselling + counselling_type=education albo healthcare=psychotherapist)"
            }
        },
        {
            "id": 14839,
            "type": "Feature",
            "geometry": {
                "type": "Point",
                "coordinates": [
                    16.9902,
                    51.14255
                ]
            },
            "properties": {
                "ref:rspo": 14839,
                "official_name": "Zesp\u00f3\u0142 Szkolno-Przedszkolny Nr 5",
                "name": "Zesp\u00f3\u0142 Szkolno-Przedszkolny Nr 5",
                "addr:country": "PL",
                "addr:postcode": "51-004",
                "addr:city": "Wroc\u0142aw",
                "addr:street": "Osobowicka",
                "addr:housenumber": "127",
                "addr:teryt:simc": 15337,
                "addr:teryt:sym_ul": 986745,
                "contact:phone": "+48 717986928",
                "contact:email": "sekretariat.zsp05@wroclawskaedukacja.pl",
                "contact:website": "http:\/\/zsp5.osobowice.org\/",
                "ref:regon": "000693434",
                "ref:vatin": "PL8951800572",
                "operator": "Gmina Wroc\u0142aw",
                "operator:type": "government",
                "landuse": "education",
                "fixme": "amenity=school, amenity=college albo landuse=education w zale\u017cno\u015bci od tego, jakie plac\u00f3wki wchodz\u0105 w sk\u0142ad zespo\u0142u. Sprawd\u017a, kiedy stosowa\u0107 amenity=* a kiedy landuse=education.",
                "note": "Children RSPO: 20890;22616"
            }
        },
        {
            "id": 20890,
            "type": "Feature",
            "geometry": {
                "type": "Point",
                "coordinates": [
                    16.9902,
                    51.14252
                ]
            },
            "properties": {
                "isced:level": "1;2",
                "ref:rspo": 20890,
                "official_name": "Szko\u0142a Podstawowa Nr 21 im. Mieszka I",
                "name": "Szko\u0142a Podstawowa Nr 21",
                "addr:country": "PL",
                "addr:postcode": "51-004",
                "addr:city": "Wroc\u0142aw",
                "addr:street": "Osobowicka",
                "addr:housenumber": "127",
                "addr:teryt:simc": 15337,
                "addr:teryt:sym_ul": 986745,
                "contact:phone": "+48 717986928",
                "contact:email": "sekretariat.zsp05@wroclawskaedukacja.pl",
                "contact:website": "http:\/\/zsp5.osobowice.org\/",
                "ref:regon": "932951277",
                "operator": "Gmina Wroc\u0142aw",
                "operator:type": "government",
                "amenity": "school",
                "note": "Parent RSPO: 14839"
            }
        },
        {
            "id": 22616,
            "type": "Feature",
            "geometry": {
                "type": "Point",
                "coordinates": [
                    16.9902,
                    51.14249
                ]
            },
            "properties": {
                "ref:rspo": 22616,
                "official_name": "Przedszkole Nr 7 im. Kr\u00f3la Maciusia I",
                "name": "Przedszkole Nr 7",
                "addr:country": "PL",
                "addr:postcode": "51-004",
                "addr:city": "Wroc\u0142aw",
                "addr:street": "Osobowicka",
                "addr:housenumber": "127",
                "addr:teryt:simc": 15337,
                "addr:teryt:sym_ul": 986745,
                "contact:phone": "+48 717986928",
                "contact:email": "sekretariat.zsp05@wroclawskaedukacja.pl",
                "contact:website": "http:\/\/zsp5.osobowice.org\/",
                "ref:regon": "932951260",
                "operator": "Gmina Wroc\u0142aw",
                "operator:type": "government",
                "amenity": "kindergarten",
                "note": "Parent RSPO: 14839"
            }
        },
        {
            "id": 11456,
            "type": "Feature",
            "geometry": {
                "type": "Point",
                "coordinates": [
                    17.0488399,
                    51.14273
                ]
            },
            "properties": {
                "ref:rspo": 11456,
                "official_name": "Niepubliczne Przedszkole Lawendowe Skrzaty",
                "name": "Niepubliczne Przedszkole Lawendowe Skrzaty",
                "addr:country": "PL",
                "addr:postcode": "51-141",
                "addr:city": "Wroc\u0142aw",
                "addr:street": "Ignacego Chrzanowskiego",
                "addr:housenumber": "30",
                "addr:teryt:simc": 2912,
                "addr:teryt:sym_ul": 986745,
                "contact:phone": "+48 601922313",
                "contact:email": "przedszkole@lawendoweskrzaty.net",
                "contact:website": "http:\/\/www.lawendoweskrzaty.net",
                "ref:regon": "021958913",
                "operator": "Katarzyna Sawicz-Kolibabska",
                "operator:type": "private",
                "amenity": "kindergarten"
            }
        },
        {
            "id": 132615,
            "type": "Feature",
            "geometry": {
                "type": "Point",
                "coordinates": [
                    17.00077,
                    51.14344
                ]
            },
            "properties": {
                "ref:rspo": 132615,
                "official_name": "Malinowe Skrzaty",
                "name": "Malinowe Skrzaty",
                "addr:country": "PL",
                "addr:postcode": "51-011",
                "addr:city": "Wroc\u0142aw",
                "addr:street": "Jaroci\u0144ska",
                "addr:housenumber": "55",
                "addr:teryt:simc": 7252,
                "addr:teryt:sym_ul": 986745,
                "contact:phone": "+48 609614199",
                "contact:email": "malinoweskrzaty@gmail.com",
                "contact:website": "http:\/\/www.malinoweskrzaty.pl",
                "ref:regon": "365932005",
                "operator": "Sylwia Spycha\u0142a",
                "operator:type": "private",
                "amenity": "kindergarten"
            }
        },
        {
            "id": 22708,
            "type": "Feature",
            "geometry": {
                "type": "Point",
                "coordinates": [
                    17.1169699,
                    51.14353
                ]
            },
            "properties": {
                "ref:rspo": 22708,
                "official_name": "Publiczne Przedszkole \"Columbus\"",
                "name": "Publiczne Przedszkole \"Columbus\"",
                "addr:country": "PL",
                "addr:postcode": "51-313",
                "addr:city": "Wroc\u0142aw",
                "addr:street": "Zielna",
                "addr:housenumber": "42",
                "addr:teryt:simc": 26077,
                "addr:teryt:sym_ul": 986745,
                "contact:phone": "+48 501981308",
                "contact:email": "columbus.wroclaw@operator.edu.pl",
                "contact:website": "http:\/\/www.columbus-wroclaw.familijnywroclaw.pl",
                "ref:regon": "021980947",
                "operator": "Og\u00f3lnopolski Operator O\u015bwiaty",
                "operator:type": "ngo",
                "amenity": "kindergarten"
            }
        },
        {
            "id": 14809,
            "type": "Feature",
            "geometry": {
                "type": "Point",
                "coordinates": [
                    17.1310499,
                    51.14418
                ]
            },
            "properties": {
                "ref:rspo": 14809,
                "official_name": "Zesp\u00f3\u0142 Szkolno-Przedszkolny Nr 3",
                "name": "Zesp\u00f3\u0142 Szkolno-Przedszkolny Nr 3",
                "addr:country": "PL",
                "addr:postcode": "51-354",
                "addr:city": "Wroc\u0142aw",
                "addr:street": "Inflancka",
                "addr:housenumber": "13",
                "addr:teryt:simc": 6903,
                "addr:teryt:sym_ul": 986745,
                "contact:phone": "+48 717986926",
                "contact:email": "sekretariat.zsp03@wroclawskaedukacja.pl",
                "contact:website": "http:\/\/zsp3wroclaw.szkolnastrona.pl",
                "ref:regon": "001002892",
                "ref:vatin": "PL8951412433",
                "operator": "Gmina Wroc\u0142aw",
                "operator:type": "government",
                "landuse": "education",
                "fixme": "amenity=school, amenity=college albo landuse=education w zale\u017cno\u015bci od tego, jakie plac\u00f3wki wchodz\u0105 w sk\u0142ad zespo\u0142u. Sprawd\u017a, kiedy stosowa\u0107 amenity=* a kiedy landuse=education.",
                "note": "Children RSPO: 20513;22362"
            }
        },
        {
            "id": 20513,
            "type": "Feature",
            "geometry": {
                "type": "Point",
                "coordinates": [
                    17.1310499,
                    51.144149999999996
                ]
            },
            "properties": {
                "isced:level": "1;2",
                "ref:rspo": 20513,
                "official_name": "Szko\u0142a Podstawowa Nr 10 im. Boles\u0142awa Krzywoustego",
                "name": "Szko\u0142a Podstawowa Nr 10",
                "addr:country": "PL",
                "addr:postcode": "51-354",
                "addr:city": "Wroc\u0142aw",
                "addr:street": "Inflancka",
                "addr:housenumber": "13",
                "addr:teryt:simc": 6903,
                "addr:teryt:sym_ul": 986745,
                "contact:phone": "+48 717986926",
                "contact:email": "sekretariat.zsp03@wroclawskaedukacja.pl",
                "contact:website": "http:\/\/www.zsp3wroclaw.szkolnastrona.pl",
                "ref:regon": "933000006",
                "operator": "Gmina Wroc\u0142aw",
                "operator:type": "government",
                "amenity": "school",
                "note": "Parent RSPO: 14809"
            }
        },
        {
            "id": 22362,
            "type": "Feature",
            "geometry": {
                "type": "Point",
                "coordinates": [
                    17.1310499,
                    51.14412
                ]
            },
            "properties": {
                "ref:rspo": 22362,
                "official_name": "Przedszkole Nr 130 im. Bolka I Lolka",
                "name": "Przedszkole Nr 130",
                "addr:country": "PL",
                "addr:postcode": "51-354",
                "addr:city": "Wroc\u0142aw",
                "addr:street": "Inflancka",
                "addr:housenumber": "13",
                "addr:teryt:simc": 6903,
                "addr:teryt:sym_ul": 986745,
                "contact:phone": "+48 717986926",
                "contact:email": "sekretariat.zsp03@wroclawskaedukacja.pl",
                "contact:website": "http:\/\/zsp3wroclaw.szkolnastrona.pl",
                "ref:regon": "933000029",
                "operator": "Gmina Wroc\u0142aw",
                "operator:type": "government",
                "amenity": "kindergarten",
                "note": "Parent RSPO: 14809"
            }
        },
        {
            "id": 133881,
            "type": "Feature",
            "geometry": {
                "type": "Point",
                "coordinates": [
                    17.1168799,
                    51.14471
                ]
            },
            "properties": {
                "isced:level": "1;2",
                "ref:rspo": 133881,
                "official_name": "Szko\u0142a Podstawowa Nr 6 im. J\u00f3zefa Mackiewicza",
                "name": "Szko\u0142a Podstawowa Nr 6",
                "addr:country": "PL",
                "addr:postcode": "51-314",
                "addr:city": "Wroc\u0142aw",
                "addr:street": "Gorlicka",
                "addr:housenumber": "25",
                "addr:teryt:simc": 5826,
                "addr:teryt:sym_ul": 986745,
                "contact:phone": "+48 717986711",
                "contact:email": "sekretariat.sp006@wroclawskaedukacja.pl",
                "contact:website": "http:\/\/www.sp6.wroc.pl",
                "ref:regon": "367745320",
                "operator": "Gmina Wroc\u0142aw",
                "operator:type": "government",
                "amenity": "school"
            }
        },
        {
            "id": 268799,
            "type": "Feature",
            "geometry": {
                "type": "Point",
                "coordinates": [
                    17.14495,
                    51.14501
                ]
            },
            "properties": {
                "ref:rspo": 268799,
                "official_name": "Publiczne Przedszkole \"Wroc\u0142awskie Skauty II\"",
                "name": "Publiczne Przedszkole \"Wroc\u0142awskie Skauty II\"",
                "addr:country": "PL",
                "addr:postcode": "51-315",
                "addr:city": "Wroc\u0142aw",
                "addr:street": "Kie\u0142czowska",
                "addr:housenumber": "177",
                "addr:teryt:simc": 8387,
                "addr:teryt:sym_ul": 986745,
                "contact:phone": "+48 576044875",
                "contact:email": "biuro2@wroclawskieskauty.pl",
                "contact:website": "http:\/\/www.wroclawskieskauty.pl",
                "ref:regon": "381256313",
                "operator": "Robert Burszewski",
                "operator:type": "private",
                "amenity": "kindergarten"
            }
        },
        {
            "id": 19472,
            "type": "Feature",
            "geometry": {
                "type": "Point",
                "coordinates": [
                    17.12242,
                    51.14596
                ]
            },
            "properties": {
                "isced:level": "3",
                "ref:rspo": 19472,
                "official_name": "Spo\u0142eczne Liceum Og\u00f3lnokszta\u0142c\u0105ce Autorska Szko\u0142a Samorozwoju Assa",
                "name": "Spo\u0142eczne Liceum Og\u00f3lnokszta\u0142c\u0105ce Autorska Szko\u0142a Samorozwoju Assa",
                "addr:country": "PL",
                "addr:postcode": "51-315",
                "addr:city": "Wroc\u0142aw",
                "addr:street": "Kie\u0142czowska",
                "addr:housenumber": "43",
                "addr:teryt:simc": 8387,
                "addr:teryt:sym_ul": 986745,
                "contact:phone": "+48 713556050",
                "contact:email": "kancelaria@assa.wroc.pl",
                "contact:website": "http:\/\/www.assa.wroc.pl",
                "ref:regon": "021978809",
                "operator": "Towarzystwo Dzia\u0142a\u0144 Dla Samorozwoju",
                "operator:type": "ngo",
                "amenity": "school"
            }
        },
        {
            "id": 42885,
            "type": "Feature",
            "geometry": {
                "type": "Point",
                "coordinates": [
                    17.12242,
                    51.14593
                ]
            },
            "properties": {
                "ref:rspo": 42885,
                "official_name": "Lotnicze Zak\u0142ady Naukowe",
                "name": "Lotnicze Zak\u0142ady Naukowe",
                "addr:country": "PL",
                "addr:postcode": "51-315",
                "addr:city": "Wroc\u0142aw",
                "addr:street": "Kie\u0142czowska",
                "addr:housenumber": "43",
                "addr:teryt:simc": 8387,
                "addr:teryt:sym_ul": 986745,
                "contact:phone": "+48 717986741",
                "contact:email": "szkola@lzn.pl",
                "contact:website": "http:\/\/www.lzn.pl",
                "ref:regon": "000037138",
                "ref:vatin": "PL8951412798",
                "operator": "Gmina Wroc\u0142aw",
                "operator:type": "government",
                "landuse": "education",
                "fixme": "amenity=school, amenity=college albo landuse=education w zale\u017cno\u015bci od tego, jakie plac\u00f3wki wchodz\u0105 w sk\u0142ad zespo\u0142u. Sprawd\u017a, kiedy stosowa\u0107 amenity=* a kiedy landuse=education.",
                "note": "Children RSPO: 90642;90643;126216;274846"
            }
        },
        {
            "id": 131750,
            "type": "Feature",
            "geometry": {
                "type": "Point",
                "coordinates": [
                    17.12242,
                    51.145900000000005
                ]
            },
            "properties": {
                "isced:level": "1;2",
                "ref:rspo": 131750,
                "official_name": "Integracyjna Szko\u0142a Podstawowa Alto",
                "name": "Integracyjna Szko\u0142a Podstawowa Alto",
                "addr:country": "PL",
                "addr:postcode": "51-315",
                "addr:city": "Wroc\u0142aw",
                "addr:street": "Kie\u0142czowska",
                "addr:housenumber": "43",
                "addr:teryt:simc": 8387,
                "addr:teryt:sym_ul": 986745,
                "contact:phone": "+48 691978061",
                "contact:email": "szkolaalto@gmail.com",
                "contact:website": "http:\/\/dziecko.info",
                "ref:regon": "365361459",
                "operator": "Marta Nowak",
                "operator:type": "private",
                "amenity": "school"
            }
        },
        {
            "id": 273878,
            "type": "Feature",
            "geometry": {
                "type": "Point",
                "coordinates": [
                    17.12242,
                    51.14587
                ]
            },
            "properties": {
                "ref:rspo": 273878,
                "official_name": "Przedszkole Alto Wroc\u0142aw",
                "name": "Przedszkole Alto Wroc\u0142aw",
                "addr:country": "PL",
                "addr:postcode": "51-315",
                "addr:city": "Wroc\u0142aw",
                "addr:street": "Kie\u0142czowska",
                "addr:housenumber": "43",
                "addr:door": "bud. 10",
                "addr:teryt:simc": 8387,
                "addr:teryt:sym_ul": 986745,
                "contact:phone": "+48 501508578",
                "contact:email": "nowak.marta@gmail.com",
                "contact:website": "http:\/\/dziecko.info",
                "ref:regon": "384812826",
                "operator": "Marta Nowak",
                "operator:type": "private",
                "amenity": "kindergarten"
            }
        },
        {
            "id": 90642,
            "type": "Feature",
            "geometry": {
                "type": "Point",
                "coordinates": [
                    17.12242,
                    51.14584
                ]
            },
            "properties": {
                "isced:level": "3",
                "ref:rspo": 90642,
                "official_name": "Technikum Nr 6",
                "name": "Technikum Nr 6",
                "addr:country": "PL",
                "addr:postcode": "51-315",
                "addr:city": "Wroc\u0142aw",
                "addr:street": "Kie\u0142czowska",
                "addr:housenumber": "43",
                "addr:teryt:simc": 8387,
                "addr:teryt:sym_ul": 986745,
                "contact:phone": "+48 717986741",
                "contact:email": "szkola@lzn.pl",
                "contact:website": "http:\/\/www.lzn.pl",
                "ref:regon": "020508160",
                "ref:vatin": "PL8951412798",
                "operator": "Gmina Wroc\u0142aw",
                "operator:type": "government",
                "amenity": "school",
                "note": "Parent RSPO: 42885"
            }
        },
        {
            "id": 90643,
            "type": "Feature",
            "geometry": {
                "type": "Point",
                "coordinates": [
                    17.12242,
                    51.145810000000004
                ]
            },
            "properties": {
                "isced:level": "3",
                "ref:rspo": 90643,
                "official_name": "Bran\u017cowa Szko\u0142a I Stopnia Nr 6",
                "name": "Bran\u017cowa Szko\u0142a I Stopnia Nr 6",
                "addr:country": "PL",
                "addr:postcode": "51-315",
                "addr:city": "Wroc\u0142aw",
                "addr:street": "Kie\u0142czowska",
                "addr:housenumber": "43",
                "addr:teryt:simc": 8387,
                "addr:teryt:sym_ul": 986745,
                "contact:phone": "+48 717986741",
                "contact:email": "szkola@lzn.pl",
                "contact:website": "http:\/\/www.lzn.pl",
                "ref:regon": "932825532",
                "ref:vatin": "PL8951412798",
                "operator": "Gmina Wroc\u0142aw",
                "operator:type": "government",
                "amenity": "school",
                "note": "Parent RSPO: 42885"
            }
        },
        {
            "id": 126216,
            "type": "Feature",
            "geometry": {
                "type": "Point",
                "coordinates": [
                    17.12242,
                    51.14578
                ]
            },
            "properties": {
                "isced:level": "4",
                "ref:rspo": 126216,
                "official_name": "Szko\u0142a Policealna Nr 11",
                "name": "Szko\u0142a Policealna Nr 11",
                "addr:country": "PL",
                "addr:postcode": "51-315",
                "addr:city": "Wroc\u0142aw",
                "addr:street": "Kie\u0142czowska",
                "addr:housenumber": "43",
                "addr:teryt:simc": 8387,
                "addr:teryt:sym_ul": 986745,
                "contact:phone": "+48 717986741",
                "contact:email": "szkola@lzn.pl",
                "contact:website": "http:\/\/www.lzn.pl",
                "ref:regon": "020126903",
                "operator": "Gmina Wroc\u0142aw",
                "operator:type": "government",
                "amenity": "college",
                "note": "Parent RSPO: 42885"
            }
        },
        {
            "id": 274846,
            "type": "Feature",
            "geometry": {
                "type": "Point",
                "coordinates": [
                    17.12242,
                    51.14575
                ]
            },
            "properties": {
                "isced:level": "3",
                "ref:rspo": 274846,
                "official_name": "Bran\u017cowa Szko\u0142a II Stopnia Nr 6",
                "name": "Bran\u017cowa Szko\u0142a II Stopnia Nr 6",
                "addr:country": "PL",
                "addr:postcode": "51-315",
                "addr:city": "Wroc\u0142aw",
                "addr:street": "Kie\u0142czowska",
                "addr:housenumber": "43",
                "addr:teryt:simc": 8387,
                "addr:teryt:sym_ul": 986745,
                "contact:phone": "+48 717986741",
                "contact:email": "szkola@lzn.pl",
                "contact:website": "http:\/\/www.lzn.pl",
                "ref:regon": "386337200",
                "operator": "Gmina Wroc\u0142aw",
                "operator:type": "government",
                "amenity": "school",
                "note": "Parent RSPO: 42885"
            }
        },
        {
            "id": 275710,
            "type": "Feature",
            "geometry": {
                "type": "Point",
                "coordinates": [
                    17.07403,
                    51.1460999
                ]
            },
            "properties": {
                "ref:rspo": 275710,
                "official_name": "Niepubliczne Przedszkole Akademia U\u015bmiechu",
                "name": "Niepubliczne Przedszkole Akademia U\u015bmiechu",
                "addr:country": "PL",
                "addr:postcode": "51-168",
                "addr:city": "Wroc\u0142aw",
                "addr:street": "Aleja Poprzeczna",
                "addr:housenumber": "1",
                "addr:teryt:simc": 17170,
                "addr:teryt:sym_ul": 986745,
                "contact:phone": "+48 884003220",
                "contact:email": "biuro@akademiausmiechu.wroclaw.pl",
                "contact:website": "http:\/\/akademiausmiechu.wroclaw.pl",
                "ref:regon": "386933853",
                "operator": "4 Kids Novum Invest Sp\u00f3\u0142ka Z Ograniczon\u0105 Odpowiedzialno\u015bci\u0105 Sp\u00f3\u0142ka Komandytowa",
                "operator:type": "private",
                "amenity": "kindergarten"
            }
        },
        {
            "id": 26032,
            "type": "Feature",
            "geometry": {
                "type": "Point",
                "coordinates": [
                    17.11899,
                    51.14654
                ]
            },
            "properties": {
                "ref:rspo": 26032,
                "official_name": "Przedszkole Nr 71 Chatka Ma\u0142ego Skrzatka",
                "name": "Przedszkole Nr 71 Chatka Ma\u0142ego Skrzatka",
                "addr:country": "PL",
                "addr:postcode": "51-315",
                "addr:city": "Wroc\u0142aw",
                "addr:street": "Kie\u0142czowska",
                "addr:housenumber": "31",
                "addr:teryt:simc": 8387,
                "addr:teryt:sym_ul": 986745,
                "contact:phone": "+48 717986810",
                "contact:email": "sekretariat.p071@wroclawskaedukacja.pl",
                "contact:website": "http:\/\/www.przedszkole71wroc.szkolnastrona.pl",
                "ref:regon": "000216361",
                "ref:vatin": "PL8951457364",
                "operator": "Gmina Wroc\u0142aw",
                "operator:type": "government",
                "amenity": "kindergarten"
            }
        },
        {
            "id": 81391,
            "type": "Feature",
            "geometry": {
                "type": "Point",
                "coordinates": [
                    17.02803,
                    51.14663
                ]
            },
            "properties": {
                "isced:level": "1;2",
                "ref:rspo": 81391,
                "official_name": "Szko\u0142a Podstawowa Specjalna Nr 101",
                "name": "Szko\u0142a Podstawowa Specjalna Nr 101",
                "addr:country": "PL",
                "addr:postcode": "51-116",
                "addr:city": "Wroc\u0142aw",
                "addr:street": "Wo\u0142owska",
                "addr:housenumber": "9",
                "addr:teryt:simc": 24728,
                "addr:teryt:sym_ul": 986745,
                "contact:phone": "+48 717986889",
                "contact:email": "sekretariat.sp101@wroclawskaedukacja.pl",
                "contact:website": "http:\/\/www.sp101.wroc.pl",
                "ref:regon": "000704280",
                "operator": "Gmina Wroc\u0142aw",
                "operator:type": "government",
                "amenity": "school"
            }
        },
        {
            "id": 129504,
            "type": "Feature",
            "geometry": {
                "type": "Point",
                "coordinates": [
                    17.02803,
                    51.1466
                ]
            },
            "properties": {
                "ref:rspo": 129504,
                "official_name": "\"Horyzont\" Niepubliczna Poradnia Wczesnego Wspomagania Rozwoju Dziecka",
                "name": "\"Horyzont\" Niepubliczna Poradnia Wczesnego Wspomagania Rozwoju Dziecka",
                "addr:country": "PL",
                "addr:postcode": "51-116",
                "addr:city": "Wroc\u0142aw",
                "addr:street": "Wo\u0142owska",
                "addr:housenumber": "9",
                "addr:teryt:simc": 24728,
                "addr:teryt:sym_ul": 986745,
                "contact:phone": "+48 713528412",
                "contact:email": "horyzont@dopdim.pl",
                "contact:website": "http:\/\/www.dopdim.pl",
                "ref:regon": "362650789",
                "operator": "Dzienny O\u015brodek Psychiatrii I Zaburze\u0144 Mowy Dla Dzieci I M\u0142odzie\u017cy",
                "operator:type": "ngo",
                "healthcare": "counselling",
                "counselling_type": "education",
                "fixme": "w zale\u017cno\u015bci od przedmiotu dzia\u0142alno\u015bci (np. healthcare=counselling + counselling_type=education albo healthcare=psychotherapist)"
            }
        },
        {
            "id": 61811,
            "type": "Feature",
            "geometry": {
                "type": "Point",
                "coordinates": [
                    17.02647,
                    51.14672
                ]
            },
            "properties": {
                "ref:rspo": 61811,
                "official_name": "O\u015brodek Doskonalenia Kadry Kierowniczej O\u015bwiaty Vulcan",
                "name": "O\u015brodek Doskonalenia Kadry Kierowniczej O\u015bwiaty Vulcan",
                "addr:country": "PL",
                "addr:postcode": "51-116",
                "addr:city": "Wroc\u0142aw",
                "addr:street": "Wo\u0142owska",
                "addr:housenumber": "6",
                "addr:teryt:simc": 24728,
                "addr:teryt:sym_ul": 986745,
                "contact:phone": "+48 713751500",
                "contact:email": "odkko@vulcan.edu.pl",
                "ref:regon": "022001755",
                "operator": "\"Vulcan\" Sp\u00f3\u0142ka Z Ograniczon\u0105 Odpowiedzialno\u015bci\u0105",
                "operator:type": "private",
                "amenity": "training"
            }
        },
        {
            "id": 17527,
            "type": "Feature",
            "geometry": {
                "type": "Point",
                "coordinates": [
                    17.120729446411,
                    51.146728515625
                ]
            },
            "properties": {
                "ref:rspo": 17527,
                "official_name": "Niepubliczne Przedszkole Integracyjne \"Blue Kangaroo\"",
                "name": "Niepubliczne Przedszkole Integracyjne \"Blue Kangaroo\"",
                "addr:country": "PL",
                "addr:postcode": "51-419",
                "addr:city": "Wroc\u0142aw",
                "addr:street": "G\u0119sia",
                "addr:housenumber": "24",
                "addr:teryt:simc": 5476,
                "addr:teryt:sym_ul": 986745,
                "contact:phone": "+48 690999573",
                "contact:email": "kontakt@bluekangaroo.pl",
                "contact:website": "http:\/\/www.bluekangaroo.pl",
                "ref:regon": "021973812",
                "operator": "\"Wi\u0119cej Ni\u017c Wiedza\" Sp\u00f3\u0142ka Z Ograniczon\u0105 Odpowiedzialno\u015bci\u0105",
                "operator:type": "private",
                "amenity": "kindergarten"
            }
        },
        {
            "id": 68321,
            "type": "Feature",
            "geometry": {
                "type": "Point",
                "coordinates": [
                    17.120729446411,
                    51.146698515625
                ]
            },
            "properties": {
                "isced:level": "3",
                "ref:rspo": 68321,
                "official_name": "Liceum Og\u00f3lnokszta\u0142c\u0105ce Nr XIV im. Polonii Belgijskiej",
                "name": "Liceum Og\u00f3lnokszta\u0142c\u0105ce Nr XIV",
                "addr:country": "PL",
                "addr:postcode": "51-410",
                "addr:city": "Wroc\u0142aw",
                "addr:street": "Aleja Aleksandra Br\u00fccknera",
                "addr:housenumber": "10",
                "addr:teryt:simc": 28627,
                "addr:teryt:sym_ul": 986745,
                "contact:phone": "+48 717986890",
                "contact:email": "sekretariat@lo14.wroc.pl",
                "contact:website": "http:\/\/www.lo14.wroc.pl",
                "ref:regon": "000243470",
                "ref:vatin": "PL8951771758",
                "operator": "Gmina Wroc\u0142aw",
                "operator:type": "government",
                "amenity": "school"
            }
        },
        {
            "id": 123291,
            "type": "Feature",
            "geometry": {
                "type": "Point",
                "coordinates": [
                    17.120729446411,
                    51.146668515625
                ]
            },
            "properties": {
                "isced:level": "1;2",
                "ref:rspo": 123291,
                "official_name": "Publiczna Szko\u0142a Podstawowa Marco Polo",
                "name": "Publiczna Szko\u0142a Podstawowa Marco Polo",
                "addr:country": "PL",
                "addr:postcode": "51-213",
                "addr:city": "Wroc\u0142aw",
                "addr:street": "Zatorska",
                "addr:housenumber": "11",
                "addr:teryt:simc": 25741,
                "addr:teryt:sym_ul": 986745,
                "contact:phone": "+48 533337508",
                "contact:email": "marcopolo.wroclaw@operator.edu.pl",
                "contact:website": "https:\/\/spmarcopolo-wroclaw.operator.edu.pl\/",
                "ref:regon": "022438831",
                "operator": "Og\u00f3lnopolski Operator O\u015bwiaty",
                "operator:type": "ngo",
                "amenity": "school"
            }
        },
        {
            "id": 123514,
            "type": "Feature",
            "geometry": {
                "type": "Point",
                "coordinates": [
                    17.120729446411,
                    51.146638515625
                ]
            },
            "properties": {
                "ref:rspo": 123514,
                "official_name": "Publiczne Przedszkole \"Marco Polo\"",
                "name": "Publiczne Przedszkole \"Marco Polo\"",
                "addr:country": "PL",
                "addr:postcode": "51-213",
                "addr:city": "Wroc\u0142aw",
                "addr:street": "Zatorska",
                "addr:housenumber": "11",
                "addr:teryt:simc": 25741,
                "addr:teryt:sym_ul": 986745,
                "contact:phone": "+48 533337508",
                "contact:email": "zspmarcopolo.wroclaw@operator.edu.pl",
                "ref:regon": "022451702",
                "operator": "Og\u00f3lnopolski Operator O\u015bwiaty",
                "operator:type": "ngo",
                "amenity": "kindergarten"
            }
        },
        {
            "id": 127973,
            "type": "Feature",
            "geometry": {
                "type": "Point",
                "coordinates": [
                    17.120729446411,
                    51.146608515625
                ]
            },
            "properties": {
                "ref:rspo": 127973,
                "official_name": "Publiczne Przedszkole Magellan",
                "name": "Publiczne Przedszkole Magellan",
                "addr:country": "PL",
                "addr:postcode": "51-504",
                "addr:city": "Wroc\u0142aw",
                "addr:street": "Marca Polo",
                "addr:housenumber": "21",
                "addr:door": "3-4",
                "addr:teryt:simc": 17017,
                "addr:teryt:sym_ul": 986745,
                "contact:phone": "+48 533319197",
                "contact:email": "a.chmielewska@operator.edu.pl",
                "contact:website": "http:\/\/www.magellan-wroclaw.familijnywroclaw.pl",
                "ref:regon": "362026967",
                "operator": "Og\u00f3lnopolski Operator O\u015bwiaty",
                "operator:type": "ngo",
                "amenity": "kindergarten"
            }
        },
        {
            "id": 128121,
            "type": "Feature",
            "geometry": {
                "type": "Point",
                "coordinates": [
                    17.120729446411,
                    51.146578515625
                ]
            },
            "properties": {
                "isced:level": "4",
                "ref:rspo": 128121,
                "official_name": "Szwajcarskie Centrum Edukacji",
                "name": "Szwajcarskie Centrum Edukacji",
                "addr:country": "PL",
                "addr:postcode": "51-410",
                "addr:city": "Wroc\u0142aw",
                "addr:street": "Aleja Aleksandra Br\u00fccknera",
                "addr:housenumber": "10",
                "addr:teryt:simc": 28627,
                "addr:teryt:sym_ul": 986745,
                "contact:phone": "+48 721777240",
                "contact:email": "sec.wroclaw@gmail.com",
                "ref:regon": "362125273",
                "operator": "Wy\u017csza Szko\u0142a Stosunk\u00f3w Mi\u0119dzynarodowych I Amerykanistyki W Warszawie",
                "operator:type": "private",
                "amenity": "college"
            }
        },
        {
            "id": 267916,
            "type": "Feature",
            "geometry": {
                "type": "Point",
                "coordinates": [
                    17.120729446411,
                    51.146548515625
                ]
            },
            "properties": {
                "isced:level": "1;2",
                "ref:rspo": 267916,
                "official_name": "Szko\u0142a Podstawowa Nr 7 im. Rotmistrza Witolda Pileckiego",
                "name": "Szko\u0142a Podstawowa Nr 7",
                "addr:country": "PL",
                "addr:postcode": "51-410",
                "addr:city": "Wroc\u0142aw",
                "addr:street": "Aleja Aleksandra Br\u00fccknera",
                "addr:housenumber": "12",
                "addr:teryt:simc": 28627,
                "addr:teryt:sym_ul": 986745,
                "contact:phone": "+48 717986724",
                "contact:email": "dyrektor.sp007@wroclawskaedukacja.pl",
                "contact:website": "http:\/\/www.sp7.wroclaw.pl",
                "ref:regon": "380797403",
                "operator": "Gmina Wroc\u0142aw",
                "operator:type": "government",
                "amenity": "school"
            }
        },
        {
            "id": 271543,
            "type": "Feature",
            "geometry": {
                "type": "Point",
                "coordinates": [
                    17.120729446411,
                    51.146518515625
                ]
            },
            "properties": {
                "ref:rspo": 271543,
                "official_name": "Niepubliczna Plac\u00f3wka Kszta\u0142cenia Ustawicznego Manewr",
                "name": "Niepubliczna Plac\u00f3wka Kszta\u0142cenia Ustawicznego Manewr",
                "addr:country": "PL",
                "addr:postcode": "51-163",
                "addr:city": "Wroc\u0142aw",
                "addr:street": "Aleja Marcina Kromera",
                "addr:housenumber": "17",
                "addr:door": "1",
                "addr:teryt:simc": 9951,
                "addr:teryt:sym_ul": 986745,
                "contact:phone": "+48 713262000",
                "contact:email": "szkola@manewr.com.pl",
                "ref:regon": "383411019",
                "operator": "Marek Gliszczy\u0144ski",
                "operator:type": "private",
                "fixme": "w zale\u017cno\u015bci od przedmiotu dzia\u0142alno\u015bci (np. amenity=training + training=*, amenity=dancing_school, amenity=language_school, amenity=music_school)"
            }
        },
        {
            "id": 273622,
            "type": "Feature",
            "geometry": {
                "type": "Point",
                "coordinates": [
                    17.120729446411,
                    51.146488515625
                ]
            },
            "properties": {
                "ref:rspo": 273622,
                "official_name": "Niepubliczne Przedszkole J\u0119zykowo-Sportowe \"Luppo-Puppo 2\"",
                "name": "Niepubliczne Przedszkole J\u0119zykowo-Sportowe \"Luppo-Puppo 2\"",
                "addr:country": "PL",
                "addr:postcode": "50-304",
                "addr:city": "Wroc\u0142aw",
                "addr:street": "Czes\u0142awa Mi\u0142osza",
                "addr:housenumber": "13-15",
                "addr:teryt:simc": 12964,
                "addr:teryt:sym_ul": 986745,
                "contact:phone": "+48 605139906",
                "contact:email": "biuro@luppopuppo.pl",
                "ref:regon": "384540575",
                "operator": "Marta Ko\u017amik",
                "operator:type": "private",
                "amenity": "kindergarten"
            }
        },
        {
            "id": 278748,
            "type": "Feature",
            "geometry": {
                "type": "Point",
                "coordinates": [
                    17.120729446411,
                    51.146458515625
                ]
            },
            "properties": {
                "ref:rspo": 278748,
                "official_name": "Terapeutyczny Punkt Przedszkolny \"Niebieski Latawiec\" Nr 2",
                "name": "Terapeutyczny Punkt Przedszkolny \"Niebieski Latawiec\" Nr 2",
                "addr:country": "PL",
                "addr:postcode": "51-427",
                "addr:city": "Wroc\u0142aw",
                "addr:street": "E\u0142cka",
                "addr:housenumber": "31",
                "addr:teryt:simc": 4794,
                "addr:teryt:sym_ul": 986745,
                "contact:phone": "+48 796337967",
                "contact:email": "autyzm@niebieskilatawiec.pl",
                "contact:website": "http:\/\/www.niebieskilatawiec.pl",
                "ref:regon": "520072534",
                "operator": "Centrum Wspierania Dziecka Z Autyzmem \"Niebieski Latawiec\" Sp\u00f3\u0142ka Z Ograniczon\u0105 Odpowiedzialno\u015bci\u0105",
                "operator:type": "private",
                "amenity": "kindergarten"
            }
        },
        {
            "id": 14832,
            "type": "Feature",
            "geometry": {
                "type": "Point",
                "coordinates": [
                    17.07293,
                    51.14675
                ]
            },
            "properties": {
                "ref:rspo": 14832,
                "official_name": "Zesp\u00f3\u0142 Szkolno-Przedszkolny Nr 4",
                "name": "Zesp\u00f3\u0142 Szkolno-Przedszkolny Nr 4",
                "addr:country": "PL",
                "addr:postcode": "51-168",
                "addr:city": "Wroc\u0142aw",
                "addr:street": "So\u0142tysowicka",
                "addr:housenumber": "34",
                "addr:teryt:simc": 20568,
                "addr:teryt:sym_ul": 986745,
                "contact:phone": "+48 717986927",
                "contact:email": "sekretariat.zsp04@wroclawskaedukacja.pl",
                "contact:website": "http:\/\/www.zsp4.wroclaw.pl",
                "ref:regon": "000693457",
                "ref:vatin": "PL8951444657",
                "operator": "Gmina Wroc\u0142aw",
                "operator:type": "government",
                "landuse": "education",
                "fixme": "amenity=school, amenity=college albo landuse=education w zale\u017cno\u015bci od tego, jakie plac\u00f3wki wchodz\u0105 w sk\u0142ad zespo\u0142u. Sprawd\u017a, kiedy stosowa\u0107 amenity=* a kiedy landuse=education.",
                "note": "Children RSPO: 20877;22366"
            }
        },
        {
            "id": 20877,
            "type": "Feature",
            "geometry": {
                "type": "Point",
                "coordinates": [
                    17.07293,
                    51.146719999999995
                ]
            },
            "properties": {
                "isced:level": "1;2",
                "ref:rspo": 20877,
                "official_name": "Szko\u0142a Podstawowa Nr 40 im. Prof. Boles\u0142awa Iwaszkiewicza",
                "name": "Szko\u0142a Podstawowa Nr 40",
                "addr:country": "PL",
                "addr:postcode": "51-168",
                "addr:city": "Wroc\u0142aw",
                "addr:street": "So\u0142tysowicka",
                "addr:housenumber": "34",
                "addr:teryt:simc": 20568,
                "addr:teryt:sym_ul": 986745,
                "contact:phone": "+48 717986927",
                "contact:email": "sekretariat.zsp04@wroclawskaedukacja.pl",
                "contact:website": "http:\/\/www.zsp4.wroclaw.pl",
                "ref:regon": "932887668",
                "operator": "Gmina Wroc\u0142aw",
                "operator:type": "government",
                "amenity": "school",
                "note": "Parent RSPO: 14832"
            }
        },
        {
            "id": 22366,
            "type": "Feature",
            "geometry": {
                "type": "Point",
                "coordinates": [
                    17.07293,
                    51.14669
                ]
            },
            "properties": {
                "ref:rspo": 22366,
                "official_name": "Przedszkole Nr 70 T\u0119czowa Kraina",
                "name": "Przedszkole Nr 70 T\u0119czowa Kraina",
                "addr:country": "PL",
                "addr:postcode": "51-168",
                "addr:city": "Wroc\u0142aw",
                "addr:street": "So\u0142tysowicka",
                "addr:housenumber": "34",
                "addr:teryt:simc": 20568,
                "addr:teryt:sym_ul": 986745,
                "contact:phone": "+48 717986927",
                "contact:email": "sekretariat.zsp04@wroclawskaedukacja.pl",
                "contact:website": "http:\/\/www.zsp4.wroclaw.pl",
                "ref:regon": "932887674",
                "operator": "Gmina Wroc\u0142aw",
                "operator:type": "government",
                "amenity": "kindergarten",
                "note": "Parent RSPO: 14832"
            }
        },
        {
            "id": 14805,
            "type": "Feature",
            "geometry": {
                "type": "Point",
                "coordinates": [
                    17.10973,
                    51.14687
                ]
            },
            "properties": {
                "isced:level": "1;2",
                "ref:rspo": 14805,
                "official_name": "Szko\u0142a Podstawowa Nr 98 im. Piast\u00f3w Wroc\u0142awskich",
                "name": "Szko\u0142a Podstawowa Nr 98",
                "addr:country": "PL",
                "addr:postcode": "51-319",
                "addr:city": "Wroc\u0142aw",
                "addr:street": "Sycowska",
                "addr:housenumber": "22a",
                "addr:teryt:simc": 21647,
                "addr:teryt:sym_ul": 986745,
                "contact:phone": "+48 717986878",
                "contact:email": "sekretariat.sp098@wroclawskaedukacja.pl",
                "contact:website": "http:\/\/www.sp98.wroc.pl",
                "ref:regon": "000693500",
                "ref:vatin": "PL8951577878",
                "operator": "Gmina Wroc\u0142aw",
                "operator:type": "government",
                "amenity": "school"
            }
        },
        {
            "id": 68409,
            "type": "Feature",
            "geometry": {
                "type": "Point",
                "coordinates": [
                    17.13572,
                    51.14697
                ]
            },
            "properties": {
                "ref:rspo": 68409,
                "official_name": "Konsultant- O\u015brodek Doskonalenia Zawodowego",
                "name": "Konsultant- O\u015brodek Doskonalenia Zawodowego",
                "addr:country": "PL",
                "addr:postcode": "51-315",
                "addr:city": "Wroc\u0142aw",
                "addr:street": "Kie\u0142czowska",
                "addr:housenumber": "68a",
                "addr:teryt:simc": 8387,
                "addr:teryt:sym_ul": 986745,
                "contact:phone": "+48 713487090",
                "contact:email": "biuro@centrumobslugibiznesu.com",
                "contact:website": "http:\/\/www.centrumobslugibiznesu.com",
                "ref:regon": "022003398",
                "operator": "Cezary Delmanowicz",
                "operator:type": "private",
                "fixme": "w zale\u017cno\u015bci od przedmiotu dzia\u0142alno\u015bci (np. amenity=training + training=*, amenity=dancing_school, amenity=language_school, amenity=music_school)"
            }
        },
        {
            "id": 15245,
            "type": "Feature",
            "geometry": {
                "type": "Point",
                "coordinates": [
                    17.0261299,
                    51.1474
                ]
            },
            "properties": {
                "ref:rspo": 15245,
                "official_name": "Przedszkole Niepubliczne \"Bajkowe Nutki 2\"",
                "name": "Przedszkole Niepubliczne \"Bajkowe Nutki 2\"",
                "addr:country": "PL",
                "addr:postcode": "51-116",
                "addr:city": "Wroc\u0142aw",
                "addr:street": "Wo\u0142owska",
                "addr:housenumber": "12",
                "addr:teryt:simc": 24728,
                "addr:teryt:sym_ul": 986745,
                "contact:phone": "+48 717981991",
                "contact:email": "bajkowenutki@gmail.com",
                "contact:website": "http:\/\/www.bajkowenutki.com.pl",
                "ref:regon": "021971983",
                "operator": "Agnieszka Piechowicz",
                "operator:type": "private",
                "amenity": "kindergarten"
            }
        },
        {
            "id": 41884,
            "type": "Feature",
            "geometry": {
                "type": "Point",
                "coordinates": [
                    17.11197,
                    51.14792
                ]
            },
            "properties": {
                "ref:rspo": 41884,
                "official_name": "Przedszkole Nr 106 im.h. Bechlerowej",
                "name": "Przedszkole Nr 106 im.h. Bechlerowej",
                "addr:country": "PL",
                "addr:postcode": "51-319",
                "addr:city": "Wroc\u0142aw",
                "addr:street": "Sycowska",
                "addr:housenumber": "9",
                "addr:teryt:simc": 21647,
                "addr:teryt:sym_ul": 986745,
                "contact:phone": "+48 717986751",
                "contact:email": "sekretariat.p106@wroclawskaedukacja.pl",
                "contact:website": "http:\/\/przedszkole106.edu.wroclaw.pl",
                "ref:regon": "930113253",
                "ref:vatin": "PL8951688106",
                "operator": "Gmina Wroc\u0142aw",
                "operator:type": "government",
                "amenity": "kindergarten"
            }
        },
        {
            "id": 14863,
            "type": "Feature",
            "geometry": {
                "type": "Point",
                "coordinates": [
                    17.07808,
                    51.14904
                ]
            },
            "properties": {
                "ref:rspo": 14863,
                "official_name": "Przedszkole Niepubliczne \"Dzielne Dzieciaki - Dziewczynki I Ch\u0142opaki\"",
                "name": "Przedszkole Niepubliczne \"Dzielne Dzieciaki - Dziewczynki I Ch\u0142opaki\"",
                "addr:country": "PL",
                "addr:postcode": "51-168",
                "addr:city": "Wroc\u0142aw",
                "addr:street": "So\u0142tysowicka",
                "addr:housenumber": "59a",
                "addr:teryt:simc": 20568,
                "addr:teryt:sym_ul": 986745,
                "contact:phone": "+48 713256565",
                "contact:email": "dzielnedzieciaki@gmail.com",
                "contact:website": "http:\/\/przyjacieleseniorow.pl",
                "ref:regon": "021971032",
                "operator": "Stowarzyszenie Pod Wezwaniem Matki Bo\u017cej Nieustaj\u0105cej Pomocy \"Przyjaciele Senior\u00f3w\"",
                "operator:type": "ngo",
                "amenity": "kindergarten"
            }
        },
        {
            "id": 11479,
            "type": "Feature",
            "geometry": {
                "type": "Point",
                "coordinates": [
                    17.120080947876,
                    51.150520324707
                ]
            },
            "properties": {
                "isced:level": "3",
                "ref:rspo": 11479,
                "official_name": "Liceum Og\u00f3lnokszta\u0142c\u0105ce Nr X im. Stefanii Sempo\u0142owskiej",
                "name": "Liceum Og\u00f3lnokszta\u0142c\u0105ce Nr X",
                "addr:country": "PL",
                "addr:postcode": "51-109",
                "addr:city": "Wroc\u0142aw",
                "addr:street": "Piesza",
                "addr:housenumber": "1",
                "addr:teryt:simc": 16164,
                "addr:teryt:sym_ul": 986745,
                "contact:phone": "+48 717986737",
                "contact:email": "lo10@lo10.wroc.pl",
                "contact:website": "http:\/\/www.lo10.wroc.pl",
                "ref:regon": "000213227",
                "ref:vatin": "PL8951928131",
                "operator": "Gmina Wroc\u0142aw",
                "operator:type": "government",
                "amenity": "school"
            }
        },
        {
            "id": 14432,
            "type": "Feature",
            "geometry": {
                "type": "Point",
                "coordinates": [
                    17.07534,
                    51.15152
                ]
            },
            "properties": {
                "ref:rspo": 14432,
                "official_name": "Punkt Przedszkolny Fika",
                "name": "Punkt Przedszkolny Fika",
                "addr:country": "PL",
                "addr:postcode": "51-170",
                "addr:city": "Wroc\u0142aw",
                "addr:street": "Gimnazjalna",
                "addr:housenumber": "2",
                "addr:teryt:simc": 5527,
                "addr:teryt:sym_ul": 986745,
                "contact:phone": "+48 516186077",
                "contact:email": "fika@fika.com.pl",
                "contact:website": "http:\/\/www.fika.com.pl\/przedszkole",
                "ref:regon": "021970720",
                "operator": "Bo\u017cena Florczak",
                "operator:type": "private",
                "amenity": "kindergarten"
            }
        },
        {
            "id": 24513,
            "type": "Feature",
            "geometry": {
                "type": "Point",
                "coordinates": [
                    17.12015,
                    51.15319
                ]
            },
            "properties": {
                "ref:rspo": 24513,
                "official_name": "Przedszkole Nr 124 im. Marii Konopnickiej",
                "name": "Przedszkole Nr 124",
                "addr:country": "PL",
                "addr:postcode": "51-210",
                "addr:city": "Wroc\u0142aw",
                "addr:street": "gen. Stanis\u0142awa Kopa\u0144skiego",
                "addr:housenumber": "18",
                "addr:teryt:simc": 9252,
                "addr:teryt:sym_ul": 986745,
                "contact:phone": "+48 717986763",
                "contact:email": "sekretariat.p124@wroclawskaedukacja.pl",
                "contact:website": "http:\/\/www.p124wroc.szkolnastrona.pl",
                "ref:regon": "000836282",
                "ref:vatin": "PL8951751112",
                "operator": "Gmina Wroc\u0142aw",
                "operator:type": "government",
                "amenity": "kindergarten"
            }
        },
        {
            "id": 263746,
            "type": "Feature",
            "geometry": {
                "type": "Point",
                "coordinates": [
                    17.12236,
                    51.15655
                ]
            },
            "properties": {
                "ref:rspo": 263746,
                "official_name": "Przedszkole Publiczne Kosza\u0142ki - Opa\u0142ki",
                "name": "Przedszkole Publiczne Kosza\u0142ki - Opa\u0142ki",
                "addr:country": "PL",
                "addr:postcode": "51-210",
                "addr:city": "Wroc\u0142aw",
                "addr:street": "Irkucka",
                "addr:housenumber": "11",
                "addr:teryt:simc": 6928,
                "addr:teryt:sym_ul": 986745,
                "contact:phone": "+48 663302022",
                "contact:email": "przedszkole@koszalkiopalki.pl",
                "contact:website": "http:\/\/www.koszalkiopalki.pl",
                "ref:regon": "368219489",
                "operator": "Adam Ciepli\u0144ski",
                "operator:type": "private",
                "amenity": "kindergarten"
            }
        },
        {
            "id": 125758,
            "type": "Feature",
            "geometry": {
                "type": "Point",
                "coordinates": [
                    17.03597,
                    51.1570899
                ]
            },
            "properties": {
                "ref:rspo": 125758,
                "official_name": "\"Wyspa Skarb\u00f3w\"",
                "name": "\"Wyspa Skarb\u00f3w\"",
                "addr:country": "PL",
                "addr:postcode": "51-126",
                "addr:city": "Wroc\u0142aw",
                "addr:street": "Po\u015bwi\u0119cka",
                "addr:housenumber": "17",
                "addr:door": "37",
                "addr:teryt:simc": 17263,
                "addr:teryt:sym_ul": 986745,
                "contact:phone": "+48 609485084",
                "contact:email": "sekretariat@wyspa.skarbow.pl",
                "contact:website": "http:\/\/www.wyspa.skrbow.pl",
                "ref:regon": "022522365",
                "operator": "Pawe\u0142 Rusiecki",
                "operator:type": "private",
                "amenity": "kindergarten"
            }
        },
        {
            "id": 129972,
            "type": "Feature",
            "geometry": {
                "type": "Point",
                "coordinates": [
                    17.03597,
                    51.1570599
                ]
            },
            "properties": {
                "ref:rspo": 129972,
                "official_name": "Terapeutyczny Punkt Przedszkolny",
                "name": "Terapeutyczny Punkt Przedszkolny",
                "addr:country": "PL",
                "addr:postcode": "51-128",
                "addr:city": "Wroc\u0142aw",
                "addr:street": "Po\u015bwi\u0119cka",
                "addr:housenumber": "17",
                "addr:door": "38",
                "addr:teryt:simc": 17263,
                "addr:teryt:sym_ul": 986745,
                "contact:phone": "+48 501599829",
                "contact:email": "biuro@przedszkole-terapeutyczne.com",
                "contact:website": "http:\/\/przedszkole-terapeutyczne.com",
                "ref:regon": "363209807",
                "operator": "Artur Sobieski",
                "operator:type": "private",
                "amenity": "kindergarten"
            }
        },
        {
            "id": 20923,
            "type": "Feature",
            "geometry": {
                "type": "Point",
                "coordinates": [
                    17.03517,
                    51.15733
                ]
            },
            "properties": {
                "ref:rspo": 20923,
                "official_name": "Zesp\u00f3\u0142 Szk\u00f3\u0142 Nr 17",
                "name": "Zesp\u00f3\u0142 Szk\u00f3\u0142 Nr 17",
                "addr:country": "PL",
                "addr:postcode": "51-128",
                "addr:city": "Wroc\u0142aw",
                "addr:street": "Po\u015bwi\u0119cka",
                "addr:housenumber": "8",
                "addr:teryt:simc": 17263,
                "addr:teryt:sym_ul": 986745,
                "contact:phone": "+48 713276314",
                "contact:email": "sekretariat.zs17@wroclawskaedukacja.pl",
                "ref:regon": "932820807",
                "ref:vatin": "PL8951776069",
                "operator": "Gmina Wroc\u0142aw",
                "operator:type": "government",
                "landuse": "education",
                "fixme": "amenity=school, amenity=college albo landuse=education w zale\u017cno\u015bci od tego, jakie plac\u00f3wki wchodz\u0105 w sk\u0142ad zespo\u0142u. Sprawd\u017a, kiedy stosowa\u0107 amenity=* a kiedy landuse=education.",
                "note": "Children RSPO: 92072;92074"
            }
        },
        {
            "id": 92072,
            "type": "Feature",
            "geometry": {
                "type": "Point",
                "coordinates": [
                    17.03517,
                    51.1573
                ]
            },
            "properties": {
                "isced:level": "1;2",
                "ref:rspo": 92072,
                "official_name": "Szko\u0142a Podstawowa Specjalna Nr 100 dla Niepe\u0142nosprawnych Ruchowo",
                "name": "Szko\u0142a Podstawowa Specjalna Nr 100 dla Niepe\u0142nosprawnych Ruchowo",
                "addr:country": "PL",
                "addr:postcode": "51-128",
                "addr:city": "Wroc\u0142aw",
                "addr:street": "Po\u015bwi\u0119cka",
                "addr:housenumber": "8",
                "addr:teryt:simc": 17263,
                "addr:teryt:sym_ul": 986745,
                "contact:phone": "+48 713276314",
                "contact:email": "sekretariat.zs17@wroclawskaedukacja.pl",
                "ref:regon": "932820859",
                "operator": "Gmina Wroc\u0142aw",
                "operator:type": "government",
                "amenity": "school",
                "note": "Parent RSPO: 20923"
            }
        },
        {
            "id": 92074,
            "type": "Feature",
            "geometry": {
                "type": "Point",
                "coordinates": [
                    17.03517,
                    51.157270000000004
                ]
            },
            "properties": {
                "isced:level": "3",
                "ref:rspo": 92074,
                "official_name": "Liceum Og\u00f3lnokszta\u0142c\u0105ce Specjalne Nr Xxxi",
                "name": "Liceum Og\u00f3lnokszta\u0142c\u0105ce Specjalne Nr Xxxi",
                "addr:country": "PL",
                "addr:postcode": "51-128",
                "addr:city": "Wroc\u0142aw",
                "addr:street": "Po\u015bwi\u0119cka",
                "addr:housenumber": "8",
                "addr:teryt:simc": 17263,
                "addr:teryt:sym_ul": 986745,
                "contact:phone": "+48 713276314",
                "contact:email": "sekretariat.zs17@wroclawskaedukacja.pl",
                "ref:regon": "932820820",
                "operator": "Gmina Wroc\u0142aw",
                "operator:type": "government",
                "amenity": "school",
                "note": "Parent RSPO: 20923"
            }
        },
        {
            "id": 107293,
            "type": "Feature",
            "geometry": {
                "type": "Point",
                "coordinates": [
                    17.13601,
                    51.15734
                ]
            },
            "properties": {
                "isced:level": "1;2",
                "ref:rspo": 107293,
                "official_name": "Szko\u0142a Podstawowa Nr 44 im. Jana III Sobieskiego",
                "name": "Szko\u0142a Podstawowa Nr 44",
                "addr:country": "PL",
                "addr:postcode": "51-206",
                "addr:city": "Wroc\u0142aw",
                "addr:street": "Wilanowska",
                "addr:housenumber": "31",
                "addr:teryt:simc": 24259,
                "addr:teryt:sym_ul": 986745,
                "contact:phone": "+48 717986886",
                "contact:email": "sekretariat.sp044@wroclawskaedukacja.pl",
                "contact:website": "http:\/\/www.sp44-wroclaw.edupage.org",
                "ref:regon": "001236590",
                "operator": "Gmina Wroc\u0142aw",
                "operator:type": "government",
                "amenity": "school"
            }
        },
        {
            "id": 119983,
            "type": "Feature",
            "geometry": {
                "type": "Point",
                "coordinates": [
                    17.1343,
                    51.15875
                ]
            },
            "properties": {
                "ref:rspo": 119983,
                "official_name": "Przedszkole Waldorfskie S\u0142oneczko",
                "name": "Przedszkole Waldorfskie S\u0142oneczko",
                "addr:country": "PL",
                "addr:postcode": "51-200",
                "addr:city": "Wroc\u0142aw",
                "addr:street": "Wiede\u0144ska",
                "addr:housenumber": "5",
                "addr:teryt:simc": 24044,
                "addr:teryt:sym_ul": 986745,
                "contact:phone": "+48 669905232",
                "contact:email": "alexsun@wp.pl",
                "contact:website": "http:\/\/www.wolnaszkola.one.pl\/sloneczko.html",
                "ref:regon": "022254930",
                "operator": "Aleksandra W\u0119grzyn",
                "operator:type": "private",
                "amenity": "kindergarten"
            }
        },
        {
            "id": 268141,
            "type": "Feature",
            "geometry": {
                "type": "Point",
                "coordinates": [
                    17.04517,
                    51.15979
                ]
            },
            "properties": {
                "ref:rspo": 268141,
                "official_name": "Przedszkole Publiczne \"Planeta Skarb\u00f3w\"",
                "name": "Przedszkole Publiczne \"Planeta Skarb\u00f3w\"",
                "addr:country": "PL",
                "addr:postcode": "51-180",
                "addr:city": "Wroc\u0142aw",
                "addr:street": "Henryka Micha\u0142a Kamie\u0144skiego",
                "addr:housenumber": "247",
                "addr:teryt:simc": 29471,
                "addr:teryt:sym_ul": 986745,
                "contact:phone": "+48 609485084",
                "contact:email": "sekretariat@wyspa.skarbow.pl",
                "contact:website": "http:\/\/www.wyspa.skarbow.pl",
                "ref:regon": "380991200",
                "operator": "Pawe\u0142 Rusiecki",
                "operator:type": "private",
                "amenity": "kindergarten"
            }
        },
        {
            "id": 271717,
            "type": "Feature",
            "geometry": {
                "type": "Point",
                "coordinates": [
                    17.12283,
                    51.16088
                ]
            },
            "properties": {
                "ref:rspo": 271717,
                "official_name": "Przedszkole Nr 17",
                "name": "Przedszkole Nr 17",
                "addr:country": "PL",
                "addr:postcode": "51-216",
                "addr:city": "Wroc\u0142aw",
                "addr:street": "gen. Leopolda Okulickiego",
                "addr:housenumber": "2a",
                "addr:teryt:simc": 14929,
                "addr:teryt:sym_ul": 986745,
                "contact:phone": "+48 717986714",
                "contact:email": "ewahalina.kulczynska@wroclawskaedukacja.pl",
                "contact:website": "https:\/\/przedszkole17.edu.wroclaw.pl\/",
                "ref:regon": "383580549",
                "operator": "Gmina Wroc\u0142aw",
                "operator:type": "government",
                "amenity": "kindergarten"
            }
        },
        {
            "id": 132224,
            "type": "Feature",
            "geometry": {
                "type": "Point",
                "coordinates": [
                    17.13076,
                    51.16288
                ]
            },
            "properties": {
                "ref:rspo": 132224,
                "official_name": "Niepubliczne Przedszkole Bim Bam Bom 2",
                "name": "Niepubliczne Przedszkole Bim Bam Bom 2",
                "addr:country": "PL",
                "addr:postcode": "51-215",
                "addr:city": "Wroc\u0142aw",
                "addr:street": "Stoczniowa",
                "addr:housenumber": "12a",
                "addr:teryt:simc": 21189,
                "addr:teryt:sym_ul": 986745,
                "contact:phone": "+48 609338612",
                "contact:email": "biuro@bimbambom.edu.pl",
                "contact:website": "http:\/\/www.bimbambom.edu.pl",
                "ref:regon": "365522224",
                "operator": "Magdalena K\u0142ak-Turska",
                "operator:type": "private",
                "amenity": "kindergarten"
            }
        },
        {
            "id": 271778,
            "type": "Feature",
            "geometry": {
                "type": "Point",
                "coordinates": [
                    17.10547,
                    51.1659999
                ]
            },
            "properties": {
                "ref:rspo": 271778,
                "official_name": "Zesp\u00f3\u0142 Szkolno-Przedszkolny Nr 23",
                "name": "Zesp\u00f3\u0142 Szkolno-Przedszkolny Nr 23",
                "addr:country": "PL",
                "addr:postcode": "51-211",
                "addr:city": "Wroc\u0142aw",
                "addr:street": "Przedwio\u015bnie",
                "addr:housenumber": "47",
                "addr:teryt:simc": 17688,
                "addr:teryt:sym_ul": 986745,
                "contact:phone": "+48 717986851",
                "contact:email": "sekretariat.zsp23@wroclawskaedukacja.pl",
                "contact:website": "https:\/\/zsp23wroclaw.edupage.org\/",
                "ref:regon": "383650072",
                "operator": "Gmina Wroc\u0142aw",
                "operator:type": "government",
                "landuse": "education",
                "fixme": "amenity=school, amenity=college albo landuse=education w zale\u017cno\u015bci od tego, jakie plac\u00f3wki wchodz\u0105 w sk\u0142ad zespo\u0142u. Sprawd\u017a, kiedy stosowa\u0107 amenity=* a kiedy landuse=education.",
                "note": "Children RSPO: 14888;26033"
            }
        },
        {
            "id": 14888,
            "type": "Feature",
            "geometry": {
                "type": "Point",
                "coordinates": [
                    17.10547,
                    51.1659699
                ]
            },
            "properties": {
                "isced:level": "1;2",
                "ref:rspo": 14888,
                "official_name": "Szko\u0142a Podstawowa Nr 39 im. Ksi\u0119dza Jana Twardowskiego",
                "name": "Szko\u0142a Podstawowa Nr 39",
                "addr:country": "PL",
                "addr:postcode": "51-211",
                "addr:city": "Wroc\u0142aw",
                "addr:street": "Przedwio\u015bnie",
                "addr:housenumber": "47",
                "addr:teryt:simc": 17688,
                "addr:teryt:sym_ul": 986745,
                "contact:phone": "+48 717986851",
                "contact:email": "sekretariat.zsp23@wroclawskaedukacja.pl",
                "contact:website": "https:\/\/zsp23wroclaw.edupage.org\/",
                "ref:regon": "000693440",
                "ref:vatin": "PL8951616041",
                "operator": "Gmina Wroc\u0142aw",
                "operator:type": "government",
                "amenity": "school",
                "note": "Parent RSPO: 271778"
            }
        },
        {
            "id": 26033,
            "type": "Feature",
            "geometry": {
                "type": "Point",
                "coordinates": [
                    17.10547,
                    51.165939900000005
                ]
            },
            "properties": {
                "ref:rspo": 26033,
                "official_name": "Przedszkole Nr 73",
                "name": "Przedszkole Nr 73",
                "addr:country": "PL",
                "addr:postcode": "51-211",
                "addr:city": "Wroc\u0142aw",
                "addr:street": "Przedwio\u015bnie",
                "addr:housenumber": "47",
                "addr:teryt:simc": 17688,
                "addr:teryt:sym_ul": 986745,
                "contact:phone": "+48 717986851",
                "contact:email": "sekretariat.zsp23@wroclawskaedukacja.pl",
                "contact:website": "https:\/\/zsp23wroclaw.edupage.org\/",
                "ref:regon": "930113218",
                "ref:vatin": "PL8951687928",
                "operator": "Gmina Wroc\u0142aw",
                "operator:type": "government",
                "amenity": "kindergarten",
                "note": "Parent RSPO: 271778"
            }
        },
        {
            "id": 114368,
            "type": "Feature",
            "geometry": {
                "type": "Point",
                "coordinates": [
                    17.10725,
                    51.16973
                ]
            },
            "properties": {
                "ref:rspo": 114368,
                "official_name": "Punkt Przedszkolny \"Akademia Przygody\"",
                "name": "Punkt Przedszkolny \"Akademia Przygody\"",
                "addr:country": "PL",
                "addr:postcode": "51-253",
                "addr:city": "Wroc\u0142aw",
                "addr:street": "Bratkowa",
                "addr:housenumber": "12",
                "addr:teryt:simc": 2056,
                "addr:teryt:sym_ul": 986745,
                "contact:phone": "+48 698663519",
                "contact:email": "lidia.rouba@wp.pl",
                "ref:regon": "022131305",
                "operator": "Lidia Rouba",
                "operator:type": "private",
                "amenity": "kindergarten"
            }
        },
        {
            "id": 129970,
            "type": "Feature",
            "geometry": {
                "type": "Point",
                "coordinates": [
                    17.00808,
                    51.17371
                ]
            },
            "properties": {
                "ref:rspo": 129970,
                "official_name": "Publiczne Przedszkole Hogu\u015b",
                "name": "Publiczne Przedszkole Hogu\u015b",
                "addr:country": "PL",
                "addr:postcode": "51-180",
                "addr:city": "Wroc\u0142aw",
                "addr:street": "Kominiarska",
                "addr:housenumber": "60b",
                "addr:teryt:simc": 9060,
                "addr:teryt:sym_ul": 986745,
                "contact:phone": "+48 600398474",
                "contact:email": "hogusedu@wp.pl",
                "contact:website": "http:\/\/www.przedszkolehogus.pl",
                "ref:regon": "363192076",
                "operator": "Agnieszka \u015awierkocka",
                "operator:type": "private",
                "amenity": "kindergarten"
            }
        },
        {
            "id": 129886,
            "type": "Feature",
            "geometry": {
                "type": "Point",
                "coordinates": [
                    17.00149,
                    51.17591
                ]
            },
            "properties": {
                "ref:rspo": 129886,
                "official_name": "Przedszkole Niepubliczne \"Mi\u015b Yogi\"",
                "name": "Przedszkole Niepubliczne \"Mi\u015b Yogi\"",
                "addr:country": "PL",
                "addr:postcode": "51-180",
                "addr:city": "Wroc\u0142aw",
                "addr:street": "Cynamonowa",
                "addr:housenumber": "20-24",
                "addr:teryt:simc": 3182,
                "addr:teryt:sym_ul": 986745,
                "contact:phone": "+48 572712710",
                "contact:email": "biuro@misyogi.pl",
                "contact:website": "http:\/\/www.misyogi.pl",
                "ref:regon": "363077085",
                "operator": "M.y. Sp\u00f3\u0142ka Z Ograniczon\u0105 Odpowiedzialno\u015bci\u0105",
                "operator:type": "private",
                "amenity": "kindergarten"
            }
        },
        {
            "id": 276715,
            "type": "Feature",
            "geometry": {
                "type": "Point",
                "coordinates": [
                    16.99777,
                    51.17596
                ]
            },
            "properties": {
                "ref:rspo": 276715,
                "official_name": "Publiczne Przedszkole \"Lipi\"",
                "name": "Publiczne Przedszkole \"Lipi\"",
                "addr:country": "PL",
                "addr:postcode": "51-180",
                "addr:city": "Wroc\u0142aw",
                "addr:street": "Cynamonowa",
                "addr:housenumber": "6",
                "addr:teryt:simc": 3182,
                "addr:teryt:sym_ul": 986745,
                "contact:phone": "+48 514133597",
                "contact:email": "hogusedu@wp.pl",
                "ref:regon": "387400426",
                "operator": "Agnieszka \u015awierkocka",
                "operator:type": "private",
                "amenity": "kindergarten"
            }
        },
        {
            "id": 276431,
            "type": "Feature",
            "geometry": {
                "type": "Point",
                "coordinates": [
                    16.99879,
                    51.17601
                ]
            },
            "properties": {
                "ref:rspo": 276431,
                "official_name": "Niepubliczne Przedszkole \"Zielona Baza\"",
                "name": "Niepubliczne Przedszkole \"Zielona Baza\"",
                "addr:country": "PL",
                "addr:postcode": "51-180",
                "addr:city": "Wroc\u0142aw",
                "addr:street": "Waniliowa",
                "addr:housenumber": "21a",
                "addr:teryt:simc": 23615,
                "addr:teryt:sym_ul": 986745,
                "contact:phone": "+48 798618014",
                "contact:email": "biuro@zielonabaza.pl",
                "ref:regon": "387131720",
                "operator": "Ad Team Sp\u00f3\u0142ka Z Ograniczon\u0105 Odpowiedzialno\u015bci\u0105",
                "operator:type": "private",
                "amenity": "kindergarten"
            }
        },
        {
            "id": 24508,
            "type": "Feature",
            "geometry": {
                "type": "Point",
                "coordinates": [
                    17.01648,
                    51.17783
                ]
            },
            "properties": {
                "ref:rspo": 24508,
                "official_name": "Przedszkole Nr 100",
                "name": "Przedszkole Nr 100",
                "addr:country": "PL",
                "addr:postcode": "51-180",
                "addr:city": "Wroc\u0142aw",
                "addr:street": "Dekarska",
                "addr:housenumber": "3",
                "addr:teryt:simc": 3726,
                "addr:teryt:sym_ul": 986745,
                "contact:phone": "+48 717986748",
                "contact:email": "sekretariat.p100@wroclawskaedukacja.pl",
                "ref:regon": "930113230",
                "ref:vatin": "PL8951686969",
                "operator": "Gmina Wroc\u0142aw",
                "operator:type": "government",
                "amenity": "kindergarten"
            }
        },
        {
            "id": 48011,
            "type": "Feature",
            "geometry": {
                "type": "Point",
                "coordinates": [
                    16.97395,
                    51.1997
                ]
            },
            "properties": {
                "isced:level": "1;2",
                "ref:rspo": 48011,
                "official_name": "Niepubliczna Szko\u0142a Podstawowa",
                "name": "Niepubliczna Szko\u0142a Podstawowa",
                "addr:country": "PL",
                "addr:postcode": "51-180",
                "addr:city": "Wroc\u0142aw",
                "addr:street": "P\u0119gowska",
                "addr:housenumber": "34",
                "addr:teryt:simc": 15992,
                "addr:teryt:sym_ul": 986745,
                "contact:phone": "+48 532458301",
                "contact:email": "jjd1966@o2.pl",
                "ref:regon": "021995363",
                "operator": "Stowarzyszenie Rozwoju Osiedla \u015awiniary",
                "operator:type": "ngo",
                "amenity": "school"
            }
        },
        {
            "id": 127975,
            "type": "Feature",
            "geometry": {
                "type": "Point",
                "coordinates": [
                    16.97395,
                    51.19967
                ]
            },
            "properties": {
                "ref:rspo": 127975,
                "official_name": "Publiczne Przedszkole \"Elemelek\"",
                "name": "Publiczne Przedszkole \"Elemelek\"",
                "addr:country": "PL",
                "addr:postcode": "51-180",
                "addr:city": "Wroc\u0142aw",
                "addr:street": "P\u0119gowska",
                "addr:housenumber": "34",
                "addr:teryt:simc": 15992,
                "addr:teryt:sym_ul": 986745,
                "contact:phone": "+48 532485301",
                "contact:email": "jjd1966@o2.pl",
                "ref:regon": "362026921",
                "operator": "Stowarzyszenie Rozwoju Osiedla \u015awiniary",
                "operator:type": "ngo",
                "amenity": "kindergarten"
            }
        },
        {
            "id": 126541,
            "type": "Feature",
            "geometry": {
                "type": "Point",
                "coordinates": [
                    16.96872,
                    51.1999
                ]
            },
            "properties": {
                "ref:rspo": 126541,
                "official_name": "Publiczne Przedszkole Specjalne \"Weso\u0142e \u017babki\"",
                "name": "Publiczne Przedszkole Specjalne \"Weso\u0142e \u017babki\"",
                "addr:country": "PL",
                "addr:postcode": "51-180",
                "addr:city": "Wroc\u0142aw",
                "addr:street": "Zagaje",
                "addr:housenumber": "16",
                "addr:teryt:simc": 25341,
                "addr:teryt:sym_ul": 986745,
                "contact:phone": "+48 695834565",
                "contact:email": "przedszkole.wesole.zabki@gmail.com",
                "contact:website": "http:\/\/www.mar-tusia.pl",
                "ref:regon": "360533855",
                "operator": "Marta Rylokowska-Maci\u0105\u017cek",
                "operator:type": "private",
                "amenity": "kindergarten"
            }
        }
    ]
}