{"type":"FeatureCollection","features":[{"id":23240,"type":"Feature","geometry":{"type":"Point","coordinates":[17.11113,51.09845]},"properties":{"ref:rspo":23240,"official_name":"Przedszkole Nr 6 Nad Odr\u0105","name":"Przedszkole Nr 6 Nad Odr\u0105","addr:country":"PL","addr:postcode":"51-640","addr:city":"Wroc\u0142aw","addr:street":"ul. Braci Gierymskich","addr:housenumber":"89","addr:teryt:simc":1970,"addr:teryt:sym_ul":986952,"contact:phone":"+48 717986803","contact:email":"sekretariat.p006@wroclawskaedukacja.pl","contact:website":"http:\/\/www.przedszkole6wroc.szkolnastrona.pl","ref:regon":"930113460","ref:vatin":"PL8981871246","operator":"Gmina Wroc\u0142aw","operator:type":"government","amenity":"kindergarten"}},{"id":272357,"type":"Feature","geometry":{"type":"Point","coordinates":[17.09938,51.10043]},"properties":{"ref:rspo":272357,"official_name":"Niepubliczny Zesp\u00f3\u0142 Szkolno-Przedszkolny Nurt","name":"Niepubliczny Zesp\u00f3\u0142 Szkolno-Przedszkolny Nurt","addr:country":"PL","addr:postcode":"51-651","addr:city":"Wroc\u0142aw","addr:street":"ul. Fryderyka Pautscha","addr:housenumber":"9","addr:teryt:simc":15827,"addr:teryt:sym_ul":986952,"contact:phone":"+48 511628222","contact:email":"biuro@nurt.edu.pl","contact:website":"http:\/\/www.nurt.edu.pl","ref:regon":"384149747","operator":"Stowarzyszenie Na Rzecz Edukacji I Rodziny \"Nurt\"","operator:type":"ngo","landuse":"education","fixme":"amenity=school, amenity=college albo landuse=education w zale\u017cno\u015bci od tego, jakie plac\u00f3wki wchodz\u0105 w sk\u0142ad zespo\u0142u. Sprawd\u017a, kiedy stosowa\u0107 amenity=* a kiedy landuse=education.","note":"Children RSPO: 14845;14849;14856"}},{"id":14845,"type":"Feature","geometry":{"type":"Point","coordinates":[17.09938,51.1004]},"properties":{"isced:level":"1;2","ref:rspo":14845,"official_name":"Szko\u0142a Podstawowa \"Iskry\"","name":"Szko\u0142a Podstawowa \"Iskry\"","addr:country":"PL","addr:postcode":"51-651","addr:city":"Wroc\u0142aw","addr:street":"ul. Fryderyka Pautscha","addr:housenumber":"9","addr:teryt:simc":15827,"addr:teryt:sym_ul":986952,"contact:phone":"+48 514292111","contact:email":"sekretariat@iskry.edu.pl","contact:website":"http:\/\/www.iskry.edu.pl","ref:regon":"021964256","operator":"Stowarzyszenie Na Rzecz Edukacji I Rodziny \"Nurt\"","operator:type":"ngo","amenity":"school","note":"Parent RSPO: 272357"}},{"id":14849,"type":"Feature","geometry":{"type":"Point","coordinates":[17.09938,51.100370000000005]},"properties":{"isced:level":"1;2","ref:rspo":14849,"official_name":"Szko\u0142a Podstawowa \"Zdr\u00f3j\"","name":"Szko\u0142a Podstawowa \"Zdr\u00f3j\"","addr:country":"PL","addr:postcode":"51-651","addr:city":"Wroc\u0142aw","addr:street":"ul. Fryderyka Pautscha","addr:housenumber":"9","addr:teryt:simc":15827,"addr:teryt:sym_ul":986952,"contact:phone":"+48 514292111","contact:email":"sekretariat@zdroj.edu.pl","contact:website":"http:\/\/www.zdroj.edu.pl","ref:regon":"021964316","operator":"Stowarzyszenie Na Rzecz Edukacji I Rodziny \"Nurt\"","operator:type":"ngo","amenity":"school","note":"Parent RSPO: 272357"}},{"id":14856,"type":"Feature","geometry":{"type":"Point","coordinates":[17.09938,51.10034]},"properties":{"ref:rspo":14856,"official_name":"Przedszkole \"Zdr\u00f3j\"","name":"Przedszkole \"Zdr\u00f3j\"","addr:country":"PL","addr:postcode":"51-651","addr:city":"Wroc\u0142aw","addr:street":"ul. Fryderyka Pautscha","addr:housenumber":"9","addr:teryt:simc":15827,"addr:teryt:sym_ul":986952,"contact:phone":"+48 514292111","contact:email":"sekretariat@zdroj.edu.pl","contact:website":"http:\/\/www.zdroj.edu.pl","ref:regon":"021993068","operator":"Stowarzyszenie Na Rzecz Edukacji I Rodziny \"Nurt\"","operator:type":"ngo","amenity":"kindergarten","note":"Parent RSPO: 272357"}},{"id":47635,"type":"Feature","geometry":{"type":"Point","coordinates":[17.08354,51.1028]},"properties":{"ref:rspo":47635,"official_name":"Przedszkole Nr 54 Pod Kasztanami","name":"Przedszkole Nr 54 Pod Kasztanami","addr:country":"PL","addr:postcode":"51-628","addr:city":"Wroc\u0142aw","addr:street":"ul. Edwarda Wittiga","addr:housenumber":"3","addr:teryt:simc":24467,"addr:teryt:sym_ul":986952,"contact:phone":"+48 717986797","contact:email":"sekretariat.p054@wroclawskaedukacja.pl","contact:website":"http:\/\/www.przedszkole54.wroc.pl","ref:regon":"930113572","ref:vatin":"PL8981872010","operator":"Gmina Wroc\u0142aw","operator:type":"government","amenity":"kindergarten"}},{"id":274867,"type":"Feature","geometry":{"type":"Point","coordinates":[17.11038,51.1030299]},"properties":{"ref:rspo":274867,"official_name":"Zesp\u00f3\u0142 Szkolno-Przedszkolny Nr 24","name":"Zesp\u00f3\u0142 Szkolno-Przedszkolny Nr 24","addr:country":"PL","addr:postcode":"51-661","addr:city":"Wroc\u0142aw","addr:street":"ul. Stefanii Sempo\u0142owskiej","addr:housenumber":"54","addr:teryt:simc":19674,"addr:teryt:sym_ul":986952,"contact:phone":"+48 717986874","contact:email":"sekretariat@sp91.wroclaw.pl","contact:website":"http:\/\/www.sp91.wroclaw.pl","ref:regon":"386359762","operator":"Gmina Wroc\u0142aw","operator:type":"government","landuse":"education","fixme":"amenity=school, amenity=college albo landuse=education w zale\u017cno\u015bci od tego, jakie plac\u00f3wki wchodz\u0105 w sk\u0142ad zespo\u0142u. Sprawd\u017a, kiedy stosowa\u0107 amenity=* a kiedy landuse=education.","note":"Children RSPO: 14838;24520"}},{"id":14838,"type":"Feature","geometry":{"type":"Point","coordinates":[17.11038,51.1029999]},"properties":{"isced:level":"1;2","ref:rspo":14838,"official_name":"Szko\u0142a Podstawowa Nr 91 im. Orl\u0105t Lwowskich","name":"Szko\u0142a Podstawowa Nr 91","addr:country":"PL","addr:postcode":"51-661","addr:city":"Wroc\u0142aw","addr:street":"ul. Stefanii Sempo\u0142owskiej","addr:housenumber":"54","addr:teryt:simc":19674,"addr:teryt:sym_ul":986952,"contact:phone":"+48 717986874","contact:email":"sekretariat@sp91.wroclaw.pl","contact:website":"http:\/\/www.sp91.wroclaw.pl","ref:regon":"930585064","ref:vatin":"PL8961032005","operator":"Gmina Wroc\u0142aw","operator:type":"government","amenity":"school","note":"Parent RSPO: 274867"}},{"id":269228,"type":"Feature","geometry":{"type":"Point","coordinates":[17.08735,51.10365]},"properties":{"ref:rspo":269228,"official_name":"Punkt Przedszkolny Montessori House","name":"Punkt Przedszkolny Montessori House","addr:country":"PL","addr:postcode":"50-422","addr:city":"Wroc\u0142aw","addr:street":"ul. Ludwika Pugeta","addr:housenumber":"3","addr:teryt:simc":18082,"addr:teryt:sym_ul":986952,"contact:phone":"+48 507489270","contact:email":"info@fundacja-europeum.pl","contact:website":"http:\/\/www.fundacja-europeum.pl","ref:regon":"381414522","operator":"Europeum - Edukacja Europejska","operator:type":"ngo","amenity":"kindergarten"}},{"id":24520,"type":"Feature","geometry":{"type":"Point","coordinates":[17.11069,51.10407]},"properties":{"ref:rspo":24520,"official_name":"Przedszkole Nr 147","name":"Przedszkole Nr 147","addr:country":"PL","addr:postcode":"51-665","addr:city":"Wroc\u0142aw","addr:street":"ul. Maksymiliana Jackowskiego","addr:housenumber":"55","addr:teryt:simc":7001,"addr:teryt:sym_ul":986952,"contact:phone":"+48 717986771","contact:email":"sekratariat.p147@wroclawskaedukacja.pl","ref:regon":"930113678","ref:vatin":"PL8981871252","operator":"Gmina Wroc\u0142aw","operator:type":"government","amenity":"kindergarten","note":"Parent RSPO: 274867"}},{"id":271716,"type":"Feature","geometry":{"type":"Point","coordinates":[17.09371,51.1053799]},"properties":{"ref:rspo":271716,"official_name":"Zesp\u00f3\u0142 Szkolno-Przedszkolny Nr 22","name":"Zesp\u00f3\u0142 Szkolno-Przedszkolny Nr 22","addr:country":"PL","addr:postcode":"51-670","addr:city":"Wroc\u0142aw","addr:street":"ul. Edwarda Dembowskiego","addr:housenumber":"39","addr:teryt:simc":3746,"addr:teryt:sym_ul":986952,"contact:phone":"+48 717986710","contact:email":"sekretariat@zsp22.wroclaw.pl","contact:website":"http:\/\/www.zsp22.wroclaw.pl\/","ref:regon":"383580526","operator":"Gmina Wroc\u0142aw","operator:type":"government","landuse":"education","fixme":"amenity=school, amenity=college albo landuse=education w zale\u017cno\u015bci od tego, jakie plac\u00f3wki wchodz\u0105 w sk\u0142ad zespo\u0142u. Sprawd\u017a, kiedy stosowa\u0107 amenity=* a kiedy landuse=education.","note":"Children RSPO: 26023;133906"}},{"id":133906,"type":"Feature","geometry":{"type":"Point","coordinates":[17.09371,51.1053499]},"properties":{"isced:level":"1;2","ref:rspo":133906,"official_name":"Szko\u0142a Podstawowa Nr 66 im. Zbigniewa Herberta","name":"Szko\u0142a Podstawowa Nr 66","addr:country":"PL","addr:postcode":"51-670","addr:city":"Wroc\u0142aw","addr:street":"ul. Edwarda Dembowskiego","addr:housenumber":"39","addr:teryt:simc":3746,"addr:teryt:sym_ul":986952,"contact:phone":"+48 717986710","contact:email":"sekretariat@zsp22.wroclaw.pl","contact:website":"http:\/\/www.zsp22.wroclaw.pl\/szkola\/","ref:regon":"367745744","operator":"Gmina Wroc\u0142aw","operator:type":"government","amenity":"school","note":"Parent RSPO: 271716"}},{"id":24512,"type":"Feature","geometry":{"type":"Point","coordinates":[17.08527,51.10563]},"properties":{"ref:rspo":24512,"official_name":"Przedszkole Nr 121 Zielone Przedszkole","name":"Przedszkole Nr 121 Zielone Przedszkole","addr:country":"PL","addr:postcode":"51-621","addr:city":"Wroc\u0142aw","addr:street":"ul. Tramwajowa","addr:housenumber":"34","addr:teryt:simc":22944,"addr:teryt:sym_ul":986952,"contact:phone":"+48 717986760","contact:email":"sekretariat.p121@wroclawskaedukacja.pl","contact:website":"http:\/\/przedszkole121.edu.wroclaw.pl","ref:regon":"930113661","ref:vatin":"PL8981870560","operator":"Gmina Wroc\u0142aw","operator:type":"government","amenity":"kindergarten"}},{"id":106556,"type":"Feature","geometry":{"type":"Point","coordinates":[17.10627,51.10602]},"properties":{"isced:level":"3","ref:rspo":106556,"official_name":"Liceum Og\u00f3lnokszta\u0142c\u0105ce Nr XI im. Stanis\u0142awa Konarskiego","name":"Liceum Og\u00f3lnokszta\u0142c\u0105ce Nr XI","addr:country":"PL","addr:postcode":"51-662","addr:city":"Wroc\u0142aw","addr:street":"ul. Sp\u00f3\u0142dzielcza","addr:housenumber":"2A","addr:teryt:simc":20696,"addr:teryt:sym_ul":986952,"contact:phone":"+48 717986894","contact:email":"sekretariat.lo11@wroclawskaedukacja.pl","contact:website":"http:\/\/www.lo11.wroclaw.pl","ref:regon":"000206807","ref:vatin":"PL8982251801","operator":"Gmina Wroc\u0142aw","operator:type":"government","amenity":"school"}},{"id":26023,"type":"Feature","geometry":{"type":"Point","coordinates":[17.09342,51.10603]},"properties":{"ref:rspo":26023,"official_name":"Przedszkole Nr 27 Skrzaty","name":"Przedszkole Nr 27 Skrzaty","addr:country":"PL","addr:postcode":"51-670","addr:city":"Wroc\u0142aw","addr:street":"ul. Edwarda Dembowskiego","addr:housenumber":"37","addr:teryt:simc":3746,"addr:teryt:sym_ul":986952,"contact:phone":"+48 713482461","contact:email":"sekretariat@zsp22.wroclaw.pl","contact:website":"http:\/\/www.zsp22.wroclaw.pl\/przedszkole\/","ref:regon":"930113520","ref:vatin":"PL8981871542","operator":"Gmina Wroc\u0142aw","operator:type":"government","amenity":"kindergarten","note":"Parent RSPO: 271716"}},{"id":132583,"type":"Feature","geometry":{"type":"Point","coordinates":[17.11109,51.10635]},"properties":{"ref:rspo":132583,"official_name":"O\u015brodek Promocji Zdrowia I Rehabilitacji Ruchowej \"Saluber\" H. M. Kowalski","name":"O\u015brodek Promocji Zdrowia I Rehabilitacji Ruchowej \"Saluber\" H. M. Kowalski","addr:country":"PL","addr:postcode":"51-649","addr:city":"Wroc\u0142aw","addr:street":"ul. Marcellego Bacciarellego","addr:housenumber":"4b","addr:teryt:simc":546,"addr:teryt:sym_ul":986952,"contact:phone":"+48 691033885","contact:email":"m_kowalski@saluber.pl","contact:website":"http:\/\/www.saluber.pl","ref:regon":"365856630","operator":"Henryk Kowalski","operator:type":"private","fixme":"w zale\u017cno\u015bci od przedmiotu dzia\u0142alno\u015bci (np. amenity=training + training=*, amenity=dancing_school, amenity=language_school, amenity=music_school)"}},{"id":121553,"type":"Feature","geometry":{"type":"Point","coordinates":[17.05976,51.10734]},"properties":{"isced:level":"3","ref:rspo":121553,"official_name":"Akademickie Liceum Og\u00f3lnokszta\u0142c\u0105ce Politechniki Wroc\u0142awskiej","name":"Akademickie Liceum Og\u00f3lnokszta\u0142c\u0105ce Politechniki Wroc\u0142awskiej","addr:country":"PL","addr:postcode":"50-370","addr:city":"Wroc\u0142aw","addr:street":"wyb. Stanis\u0142awa Wyspia\u0144skiego","addr:housenumber":"23-25","addr:teryt:simc":25085,"addr:teryt:sym_ul":986952,"contact:phone":"+48 713204778","contact:email":"sekretariat@zsa.pwr.edu.pl","contact:website":"http:\/\/www.liceum.pwr.edu.pl","ref:regon":"022333256","operator":"Politechnika Wroc\u0142awska","operator:type":"public","amenity":"school"}},{"id":120371,"type":"Feature","geometry":{"type":"Point","coordinates":[17.07384,51.1075]},"properties":{"ref:rspo":120371,"official_name":"Niepubliczna Policealna Wroc\u0142awska Szko\u0142a Filmowa Mastershot","name":"Niepubliczna Policealna Wroc\u0142awska Szko\u0142a Filmowa Mastershot","addr:country":"PL","addr:postcode":"51-618","addr:city":"Wroc\u0142aw","addr:street":"ul. Wystawowa","addr:housenumber":"1","addr:teryt:simc":25088,"addr:teryt:sym_ul":986952,"contact:email":"master@mastershot.com.pl","contact:website":"http:\/\/www.mastershot.com.pl","ref:regon":"022265030","operator":"Janusz Pukaluk","operator:type":"private","amenity":"college"}},{"id":31036,"type":"Feature","geometry":{"type":"Point","coordinates":[17.10708,51.10755]},"properties":{"ref:rspo":31036,"official_name":"Katolickie Przedszkole Niepubliczne \"Ochronka\" im. B\u0142. E. Bojanowskiego","name":"Katolickie Przedszkole Niepubliczne \"Ochronka\"","addr:country":"PL","addr:postcode":"51-681","addr:city":"Wroc\u0142aw","addr:street":"ul. Monte Cassino","addr:housenumber":"66","addr:teryt:simc":13252,"addr:teryt:sym_ul":986952,"contact:phone":"+48 717071501","contact:email":"sluzebniczki.wroclaw@gmail.com","ref:regon":"021995140","operator":"Zgromadzenie Si\u00f3str S\u0142u\u017cebniczek Naj\u015bwi\u0119tszej Maryi Panny Niepokalanie Pocz\u0119tej, Prowincja Opolska","operator:type":"religious","amenity":"kindergarten"}},{"id":276538,"type":"Feature","geometry":{"type":"Point","coordinates":[17.0936,51.10784]},"properties":{"ref:rspo":276538,"official_name":"Punkt Przedszkolny Nizio\u0142ki","name":"Punkt Przedszkolny Nizio\u0142ki","addr:country":"PL","addr:postcode":"51-672","addr:city":"Wroc\u0142aw","addr:street":"ul. Partyzant\u00f3w","addr:housenumber":"12b","addr:teryt:simc":15733,"addr:teryt:sym_ul":986952,"contact:phone":"+48 603623071","contact:email":"bast.3@wp.pl","contact:website":"http:\/\/niziolki.pl","ref:regon":"387191388","operator":"Agnieszka Florczak","operator:type":"private","amenity":"kindergarten"}},{"id":11192,"type":"Feature","geometry":{"type":"Point","coordinates":[17.02691078186,51.108249664307]},"properties":{"ref:rspo":11192,"official_name":"Publiczne Przedszkole \"Leonardo\"","name":"Publiczne Przedszkole \"Leonardo\"","addr:country":"PL","addr:postcode":"50-236","addr:city":"Wroc\u0142aw","addr:street":"ul. Franklina Delano Roosevelta","addr:housenumber":"15","addr:teryt:simc":18857,"addr:teryt:sym_ul":986952,"contact:phone":"+48 501669986","contact:email":"leonardo.wroclaw@operator.edu.pl","contact:website":"https:\/\/operator.edu.pl\/pl\/nasze-placowki","ref:regon":"021958729","operator":"Og\u00f3lnopolski Operator O\u015bwiaty","operator:type":"ngo","amenity":"kindergarten"}},{"id":11519,"type":"Feature","geometry":{"type":"Point","coordinates":[17.02691078186,51.108219664307]},"properties":{"ref:rspo":11519,"official_name":"Altkom","name":"Altkom","addr:country":"PL","addr:postcode":"50-265","addr:city":"Wroc\u0142aw","addr:street":"ul. gen. J\u00f3zefa Bema","addr:housenumber":"2","addr:teryt:simc":1014,"addr:teryt:sym_ul":986952,"contact:phone":"+48 717198800","contact:email":"wroclaw@altkom.pl","contact:website":"http:\/\/www.altkomakademia.pl","ref:regon":"021959060","operator":"Grupa Altkom Sp\u00f3\u0142ka Akcyjna","operator:type":"private","fixme":"w zale\u017cno\u015bci od przedmiotu dzia\u0142alno\u015bci (np. amenity=training + training=*, amenity=dancing_school, amenity=language_school, amenity=music_school)"}},{"id":21180,"type":"Feature","geometry":{"type":"Point","coordinates":[17.02691078186,51.108189664307005]},"properties":{"ref:rspo":21180,"official_name":"Stowarzyszenie Ksi\u0119gowych w Polsce Plac\u00f3wka Kszta\u0142cenia Ustawicznego Oddzia\u0142u Dolno\u015bL\u0105skiego we Wroc\u0142awiu","name":"Stowarzyszenie Ksi\u0119gowych w Polsce Plac\u00f3wka Kszta\u0142cenia Ustawicznego Oddzia\u0142u Dolno\u015bL\u0105skiego we Wroc\u0142awiu","addr:country":"PL","addr:postcode":"50-265","addr:city":"Wroc\u0142aw","addr:street":"ul. gen. J\u00f3zefa Bema","addr:housenumber":"7-9","addr:door":"1a","addr:teryt:simc":1014,"addr:teryt:sym_ul":986952,"contact:phone":"+48 713442682","contact:email":"szkolenia@wroclaw.skwp.pl","contact:website":"http:\/\/www.wroclaw.skwp.pl","ref:regon":"021980858","operator":"Stowarzyszenie Ksi\u0119gowych W Polsce","operator:type":"ngo","fixme":"w zale\u017cno\u015bci od przedmiotu dzia\u0142alno\u015bci (np. amenity=training + training=*, amenity=dancing_school, amenity=language_school, amenity=music_school)"}},{"id":123288,"type":"Feature","geometry":{"type":"Point","coordinates":[17.02691078186,51.108159664307]},"properties":{"isced:level":"1;2","ref:rspo":123288,"official_name":"Publiczna Szko\u0142a Podstawowa Leonardo","name":"Publiczna Szko\u0142a Podstawowa Leonardo","addr:country":"PL","addr:postcode":"50-236","addr:city":"Wroc\u0142aw","addr:street":"ul. Franklina Delano Roosevelta","addr:housenumber":"15","addr:teryt:simc":18857,"addr:teryt:sym_ul":986952,"contact:phone":"+48 533757756","contact:email":"zspleonardo.wroclaw@operator.edu.pl","contact:website":"https:\/\/operator.edu.pl\/pl\/nasze-placowki","ref:regon":"022438825","ref:vatin":"PL7781395875","operator":"Og\u00f3lnopolski Operator O\u015bwiaty","operator:type":"ngo","amenity":"school"}},{"id":132528,"type":"Feature","geometry":{"type":"Point","coordinates":[17.02691078186,51.108129664307]},"properties":{"ref:rspo":132528,"official_name":"Niepubliczny Punkt Przedszkolny Muzyczno - J\u0119zykowy J.s. Bacha","name":"Niepubliczny Punkt Przedszkolny Muzyczno - J\u0119zykowy J.s. Bacha","addr:country":"PL","addr:postcode":"50-305","addr:city":"Wroc\u0142aw","addr:street":"ul. Jana Sebastiana Bacha","addr:housenumber":"9","addr:teryt:simc":549,"addr:teryt:sym_ul":986952,"contact:phone":"+48 502044006","contact:email":"przedszkole@bacha9.edu.pl","contact:website":"http:\/\/www.bacha9.edu.pl","ref:regon":"365729681","operator":"Mateusz G\u0105sior","operator:type":"private","amenity":"kindergarten"}},{"id":271725,"type":"Feature","geometry":{"type":"Point","coordinates":[17.02691078186,51.108099664307005]},"properties":{"ref:rspo":271725,"official_name":"Zesp\u00f3\u0142 Szk\u00f3\u0142 Nr 8","name":"Zesp\u00f3\u0142 Szk\u00f3\u0142 Nr 8","addr:country":"PL","addr:postcode":"50-354","addr:city":"Wroc\u0142aw","addr:street":"ul. Miko\u0142aja Reja","addr:housenumber":"3","addr:teryt:simc":18565,"addr:teryt:sym_ul":986952,"contact:phone":"+48 717986704","contact:email":"szkola@lo16.wroc.pl","contact:website":"http:\/\/www.lo16.wroc.pl","ref:regon":"383580609","operator":"Gmina Wroc\u0142aw","operator:type":"government","landuse":"education","fixme":"amenity=school, amenity=college albo landuse=education w zale\u017cno\u015bci od tego, jakie plac\u00f3wki wchodz\u0105 w sk\u0142ad zespo\u0142u. Sprawd\u017a, kiedy stosowa\u0107 amenity=* a kiedy landuse=education.","note":"Children RSPO: 133606;271736"}},{"id":133606,"type":"Feature","geometry":{"type":"Point","coordinates":[17.02691078186,51.108069664307]},"properties":{"isced:level":"3","ref:rspo":133606,"official_name":"Liceum Og\u00f3lnokszta\u0142c\u0105ce Nr Xvi","name":"Liceum Og\u00f3lnokszta\u0142c\u0105ce Nr Xvi","addr:country":"PL","addr:postcode":"50-354","addr:city":"Wroc\u0142aw","addr:street":"ul. Miko\u0142aja Reja","addr:housenumber":"3","addr:teryt:simc":18565,"addr:teryt:sym_ul":986952,"contact:phone":"+48 717986704","contact:email":"szkola@lo16.wroc.pl","contact:website":"http:\/\/www.lo16.wroc.pl","ref:regon":"367490244","operator":"Gmina Wroc\u0142aw","operator:type":"government","amenity":"school","note":"Parent RSPO: 271725"}},{"id":271736,"type":"Feature","geometry":{"type":"Point","coordinates":[17.02691078186,51.108039664307]},"properties":{"isced:level":"3","ref:rspo":271736,"official_name":"Technikum Nr 19","name":"Technikum Nr 19","addr:country":"PL","addr:postcode":"50-354","addr:city":"Wroc\u0142aw","addr:street":"ul. Miko\u0142aja Reja","addr:housenumber":"3","addr:teryt:simc":18565,"addr:teryt:sym_ul":986952,"contact:phone":"+48 717986704","contact:email":"szkola@lo16.wroc.pl","contact:website":"http:\/\/www.lo16.wroc.pl","ref:regon":"383593003","operator":"Gmina Wroc\u0142aw","operator:type":"government","amenity":"school","note":"Parent RSPO: 271725"}},{"id":31111,"type":"Feature","geometry":{"type":"Point","coordinates":[17.07133,51.1091]},"properties":{"ref:rspo":31111,"official_name":"Przedszkole Nr 48","name":"Przedszkole Nr 48","addr:country":"PL","addr:postcode":"51-618","addr:city":"Wroc\u0142aw","addr:street":"ul. Kazimierza Bartla","addr:housenumber":"3","addr:teryt:simc":792,"addr:teryt:sym_ul":986952,"contact:phone":"+48 717986792","contact:email":"sekretariat.p048@wroclawskaedukacja.pl","contact:website":"http:\/\/www.przedszkole48wroc.edupage.org","ref:regon":"000209639","ref:vatin":"PL8981870502","operator":"Gmina Wroc\u0142aw","operator:type":"government","amenity":"kindergarten"}},{"id":3194,"type":"Feature","geometry":{"type":"Point","coordinates":[17.09385,51.10915]},"properties":{"ref:rspo":3194,"official_name":"Przedszkole Nr 2 Tajemniczy Ogr\u00f3d","name":"Przedszkole Nr 2 Tajemniczy Ogr\u00f3d","addr:country":"PL","addr:postcode":"51-690","addr:city":"Wroc\u0142aw","addr:street":"ul. Walerego S\u0142awka","addr:housenumber":"5","addr:teryt:simc":20209,"addr:teryt:sym_ul":986952,"contact:phone":"+48 717986776","contact:email":"sekretariat.p002@wroclawskaedukacja.pl","contact:website":"http:\/\/www.przedszkole2.edu.wroclaw.pl","ref:regon":"932098782","ref:vatin":"PL8981871401","operator":"Gmina Wroc\u0142aw","operator:type":"government","amenity":"kindergarten"}},{"id":120314,"type":"Feature","geometry":{"type":"Point","coordinates":[17.05659,51.10928]},"properties":{"ref:rspo":120314,"official_name":"M\u0142odzie\u017cowy O\u015brodek Wychowawczy im. Matki Teresy Potockiej dla Dziewcz\u0105t Niedostosowanych Spo\u0142ecznie we Wroc\u0142awiu","name":"M\u0142odzie\u017cowy O\u015brodek Wychowawczy","addr:country":"PL","addr:postcode":"50-377","addr:city":"Wroc\u0142aw","addr:street":"pl. Grunwaldzki","addr:housenumber":"3b","addr:teryt:simc":6262,"addr:teryt:sym_ul":986952,"contact:phone":"+48 713280098","contact:email":"mow.wroclaw@faustyna.pl","contact:website":"http:\/\/www.faustyna.pl","ref:regon":"022259519","operator":"Zg.ss.matki Bo\u017cej Mi\u0142osierdzia, Dom Generalny","operator:type":"religious","fixme":"amenity=social facility + social_facility=group_home + social_facility:for=juvenile","note":"Children RSPO: 128977;133949;263782"}},{"id":128977,"type":"Feature","geometry":{"type":"Point","coordinates":[17.05659,51.109249999999996]},"properties":{"isced:level":"1;2","ref:rspo":128977,"official_name":"Publiczna Szko\u0142a Podstawowa Specjalna im. Matki Teresy Potockiej dla Dziewcz\u0105t Niedostosowanych Spo\u0142ecznie w M\u0142odzie\u017cowym O\u015brodku Wychowawczym","name":"Publiczna Szko\u0142a Podstawowa Specjalna","addr:country":"PL","addr:postcode":"50-377","addr:city":"Wroc\u0142aw","addr:street":"pl. Grunwaldzki","addr:housenumber":"3b","addr:teryt:simc":6262,"addr:teryt:sym_ul":986952,"contact:phone":"+48 713284537","contact:email":"mow-szkola.wroclaw@wp.pl","ref:regon":"362474252","operator":"Zg.ss.matki Bo\u017cej Mi\u0142osierdzia, Dom Generalny","operator:type":"religious","amenity":"school","note":"Parent RSPO: 120314"}},{"id":133949,"type":"Feature","geometry":{"type":"Point","coordinates":[17.05659,51.10922]},"properties":{"isced:level":"3","ref:rspo":133949,"official_name":"Publiczne Liceum Og\u00f3lnokszta\u0142c\u0105ce Specjalne im. Matki Teresy Potockiej dla Niedostosowanych Spo\u0142ecznie w M\u0142odzie\u017cowym O\u015brodku Wychowawczym we Wroc\u0142awiu","name":"Publiczne Liceum Og\u00f3lnokszta\u0142c\u0105ce Specjalne","addr:country":"PL","addr:postcode":"50-377","addr:city":"Wroc\u0142aw","addr:street":"pl. Grunwaldzki","addr:housenumber":"3 B","addr:teryt:simc":6262,"addr:teryt:sym_ul":986952,"contact:phone":"+48 713284537","contact:email":"mow-szkola.wroclaw@wp.pl","ref:regon":"367749475","operator":"Zg.ss.matki Bo\u017cej Mi\u0142osierdzia, Dom Generalny","operator:type":"religious","amenity":"school","note":"Parent RSPO: 120314"}},{"id":263782,"type":"Feature","geometry":{"type":"Point","coordinates":[17.05659,51.10919]},"properties":{"isced:level":"3","ref:rspo":263782,"official_name":"Publiczna Bran\u017cowa Szko\u0142a I Stopnia Specjalna im. Matki Teresy Potockiej dla Niedostosowanych Spo\u0142ecznie w M\u0142odzie\u017cowym O\u015brodku Wychowawczym we Wroc\u0142awiu","name":"Publiczna Bran\u017cowa Szko\u0142a I Stopnia Specjalna","addr:country":"PL","addr:postcode":"50-377","addr:city":"Wroc\u0142aw","addr:street":"pl. Grunwaldzki","addr:housenumber":"3b","addr:teryt:simc":6262,"addr:teryt:sym_ul":986952,"contact:phone":"+48 713284537","contact:email":"mow-szkola.wroclaw@wp.pl","ref:regon":"368223108","operator":"Zg.ss.matki Bo\u017cej Mi\u0142osierdzia, Dom Generalny","operator:type":"religious","amenity":"school","note":"Parent RSPO: 120314"}},{"id":14096,"type":"Feature","geometry":{"type":"Point","coordinates":[17.06046,51.10967]},"properties":{"isced:level":"1;2","ref:rspo":14096,"official_name":"Szko\u0142a Podstawowa Nr 12 im. Marii Sk\u0142odowskiej-Curie","name":"Szko\u0142a Podstawowa Nr 12","addr:country":"PL","addr:postcode":"50-372","addr:city":"Wroc\u0142aw","addr:street":"ul. Zygmunta Janiszewskiego","addr:housenumber":"14","addr:teryt:simc":7170,"addr:teryt:sym_ul":986952,"contact:phone":"+48 717986842","contact:email":"sekretariat.sp012@wroclawskaedukacja.pl","contact:website":"http:\/\/www.sp12.wroclaw.pl","ref:regon":"000692370","ref:vatin":"PL8981874144","operator":"Gmina Wroc\u0142aw","operator:type":"government","amenity":"school"}},{"id":106868,"type":"Feature","geometry":{"type":"Point","coordinates":[17.07252,51.11165]},"properties":{"isced:level":"3","ref:rspo":106868,"official_name":"Liceum Og\u00f3lnokszta\u0142c\u0105ce Nr II im. Piast\u00f3w \u015aL\u0105skich Z Oddzia\u0142ami Mistrzostwa Sportowego","name":"Liceum Og\u00f3lnokszta\u0142c\u0105ce Nr II","addr:country":"PL","addr:postcode":"51-616","addr:city":"Wroc\u0142aw","addr:street":"ul. Parkowa","addr:housenumber":"18-26","addr:teryt:simc":15710,"addr:teryt:sym_ul":986952,"contact:phone":"+48 717986898","contact:email":"sekretariat@lo2.wroc.pl","contact:website":"http:\/\/www.lo2.wroc.pl","ref:regon":"000205073","ref:vatin":"PL8981829741","operator":"Gmina Wroc\u0142aw","operator:type":"government","amenity":"school"}},{"id":269888,"type":"Feature","geometry":{"type":"Point","coordinates":[17.07252,51.111619999999995]},"properties":{"ref:rspo":269888,"official_name":"\"Profesja\" Centrum Szkoleniowe","name":"\"Profesja\" Centrum Szkoleniowe","addr:country":"PL","addr:postcode":"51-616","addr:city":"Wroc\u0142aw","addr:street":"ul. Parkowa","addr:housenumber":"18-26","addr:teryt:simc":15710,"addr:teryt:sym_ul":986952,"contact:phone":"+48 661156835","contact:email":"magdakaluza@poczta.fm","ref:regon":"381826029","operator":"Vertica Sp\u00f3\u0142ka Z Ograniczon\u0105 Odpowiedzialno\u015bci\u0105","operator:type":"private","fixme":"w zale\u017cno\u015bci od przedmiotu dzia\u0142alno\u015bci (np. amenity=training + training=*, amenity=dancing_school, amenity=language_school, amenity=music_school)"}},{"id":274661,"type":"Feature","geometry":{"type":"Point","coordinates":[17.07252,51.11159]},"properties":{"isced:level":"3","ref:rspo":274661,"official_name":"Liceum Og\u00f3lnokszta\u0142c\u0105ce dla Doros\u0142ych Magnus we Wroc\u0142awiu","name":"Liceum Og\u00f3lnokszta\u0142c\u0105ce dla Doros\u0142ych Magnus we Wroc\u0142awiu","addr:country":"PL","addr:postcode":"51-616","addr:city":"Wroc\u0142aw","addr:street":"ul. Parkowa","addr:housenumber":"18-26","addr:teryt:simc":15710,"addr:teryt:sym_ul":986952,"contact:phone":"+48 501435476","contact:email":"szkola@liceum-magnus.wroc.pl","contact:website":"http:\/\/www.liceum-magnus.wroc.pl","ref:regon":"386169553","operator":"Tomasz Chmura","operator:type":"private","amenity":"school"}},{"id":30988,"type":"Feature","geometry":{"type":"Point","coordinates":[17.0753977,51.1121656]},"properties":{"ref:rspo":30988,"official_name":"Przedszkole Nr 36 im. Wandy Chmielowskiej","name":"Przedszkole Nr 36","addr:country":"PL","addr:postcode":"51-617","addr:city":"Wroc\u0142aw","addr:street":"ul. Witelona","addr:housenumber":"6","addr:teryt:simc":24429,"addr:teryt:sym_ul":986952,"contact:phone":"+48 717986787","contact:email":"sekretariat.p036@wroclawskaedukacja.pl","contact:website":"http:\/\/www.p36wroc.szkolnastrona.pl","ref:regon":"930113550","ref:vatin":"PL8981900137","operator":"Gmina Wroc\u0142aw","operator:type":"government","amenity":"kindergarten"}},{"id":47638,"type":"Feature","geometry":{"type":"Point","coordinates":[17.05423,51.11392]},"properties":{"ref:rspo":47638,"official_name":"Przedszkole Nr 79","name":"Przedszkole Nr 79","addr:country":"PL","addr:postcode":"50-353","addr:city":"Wroc\u0142aw","addr:street":"ul. Piwna","addr:housenumber":"14","addr:teryt:simc":16370,"addr:teryt:sym_ul":986952,"contact:phone":"+48 717986814","contact:email":"sekretariat.p079@wroclawskaedukacja.pl","contact:website":"http:\/\/p79wroclaw.szkolnastrona.pl","ref:regon":"930113603","ref:vatin":"PL8981872056","operator":"Gmina Wroc\u0142aw","operator:type":"government","amenity":"kindergarten"}},{"id":20918,"type":"Feature","geometry":{"type":"Point","coordinates":[17.07422,51.11406]},"properties":{"ref:rspo":20918,"official_name":"Specjalny O\u015brodek Szkolno-Wychowawczy Nr 10 im. Janusza Korczaka","name":"Specjalny O\u015brodek Szkolno-Wychowawczy Nr 10","addr:country":"PL","addr:postcode":"51-616","addr:city":"Wroc\u0142aw","addr:street":"ul. Parkowa","addr:housenumber":"27","addr:teryt:simc":15710,"addr:teryt:sym_ul":986952,"contact:phone":"+48 717986834","contact:email":"sekretariat.sosw10@wroclawskaedukacja.pl","contact:website":"http:\/\/www.sosw10wroclaw.szkolnastrona.pl","ref:regon":"000704617","ref:vatin":"PL8961020083","operator":"Gmina Wroc\u0142aw","operator:type":"government","amenity":"school","note":"Children RSPO: 92076;92077;131778"}},{"id":92076,"type":"Feature","geometry":{"type":"Point","coordinates":[17.07422,51.11403]},"properties":{"isced:level":"1;2","ref:rspo":92076,"official_name":"Szko\u0142a Podstawowa Specjalna Nr 87","name":"Szko\u0142a Podstawowa Specjalna Nr 87","addr:country":"PL","addr:postcode":"51-616","addr:city":"Wroc\u0142aw","addr:street":"ul. Parkowa","addr:housenumber":"27","addr:teryt:simc":15710,"addr:teryt:sym_ul":986952,"contact:phone":"+48 717986834","contact:email":"sekretariat.sosw10@wroclalwskaedukacja.pl","ref:regon":"000919230","operator":"Gmina Wroc\u0142aw","operator:type":"government","amenity":"school","note":"Parent RSPO: 20918"}},{"id":92077,"type":"Feature","geometry":{"type":"Point","coordinates":[17.07422,51.114000000000004]},"properties":{"ref:rspo":92077,"official_name":"Szko\u0142a Specjalna Przyspasabiaj\u0105ca Do Pracy Nr 1","name":"Szko\u0142a Specjalna Przyspasabiaj\u0105ca Do Pracy Nr 1","addr:country":"PL","addr:postcode":"51-616","addr:city":"Wroc\u0142aw","addr:street":"ul. Parkowa","addr:housenumber":"27","addr:teryt:simc":15710,"addr:teryt:sym_ul":986952,"contact:phone":"+48 713482287","contact:email":"sekretariat.sosw10@wroclalwskaedukacja.pl","ref:regon":"933028217","operator":"Gmina Wroc\u0142aw","operator:type":"government","amenity":"school","note":"Parent RSPO: 20918"}},{"id":131778,"type":"Feature","geometry":{"type":"Point","coordinates":[17.07422,51.11397]},"properties":{"ref:rspo":131778,"official_name":"Przedszkole Specjalne Nr 151","name":"Przedszkole Specjalne Nr 151","addr:country":"PL","addr:postcode":"51-616","addr:city":"Wroc\u0142aw","addr:street":"ul. Parkowa","addr:housenumber":"27","addr:teryt:simc":15710,"addr:teryt:sym_ul":986952,"contact:phone":"+48 717986834","contact:email":"sekretariat.sosw10@wroclawskaedukacja.pl","contact:website":"http:\/\/www.sosw10wroclaw.szkolnastrona.pl","ref:regon":"365361525","operator":"Gmina Wroc\u0142aw","operator:type":"government","amenity":"kindergarten","note":"Parent RSPO: 20918"}},{"id":72621,"type":"Feature","geometry":{"type":"Point","coordinates":[17.0526091,51.1141606]},"properties":{"ref:rspo":72621,"official_name":"Przedszkole Si\u00f3str Jadwi\u017canek \"Ziarenko\"","name":"Przedszkole Si\u00f3str Jadwi\u017canek \"Ziarenko\"","addr:country":"PL","addr:postcode":"50-353","addr:city":"Wroc\u0142aw","addr:street":"ul. Piwna","addr:housenumber":"2","addr:teryt:simc":16370,"addr:teryt:sym_ul":986952,"contact:phone":"+48 713279239","contact:email":"psj@archidiecezja.wroc.pl","contact:website":"http:\/\/www.przedszkole-jadwizanek.wroc.pl","ref:regon":"022006675","operator":"Zgromadzenie Si\u00f3str \u015aw.jadwigi, Prowincja Wroc\u0142awska","operator:type":"religious","amenity":"kindergarten"}},{"id":22710,"type":"Feature","geometry":{"type":"Point","coordinates":[17.05944,51.11537]},"properties":{"ref:rspo":22710,"official_name":"Przedszkole Nr 18 Wiolinek","name":"Przedszkole Nr 18 Wiolinek","addr:country":"PL","addr:postcode":"50-348","addr:city":"Wroc\u0142aw","addr:street":"ul. Henryka Sienkiewicza","addr:housenumber":"85","addr:teryt:simc":19834,"addr:teryt:sym_ul":986952,"contact:phone":"+48 717986775","contact:email":"sekretariat.p018@wroclawskaedukacja.pl","contact:website":"http:\/\/przedszkole18.edu.wroclaw.pl","ref:regon":"930113490","ref:vatin":"PL8981872688","operator":"Gmina Wroc\u0142aw","operator:type":"government","amenity":"kindergarten"}},{"id":23210,"type":"Feature","geometry":{"type":"Point","coordinates":[17.07482,51.11586]},"properties":{"ref:rspo":23210,"official_name":"Przedszkole Nr 47 Le\u015bny Ludek","name":"Przedszkole Nr 47 Le\u015bny Ludek","addr:country":"PL","addr:postcode":"51-608","addr:city":"Wroc\u0142aw","addr:street":"al. Ludomira R\u00f3\u017cyckiego","addr:housenumber":"1a","addr:teryt:simc":19019,"addr:teryt:sym_ul":986952,"contact:phone":"+48 717986791","contact:email":"sekretariat.p047@wroclawskaedukacja.pl","contact:website":"http:\/\/www.przedszkole47wroclaw.szkolnastrona.pl","ref:regon":"000209042","ref:vatin":"PL8981872122","operator":"Gmina Wroc\u0142aw","operator:type":"government","amenity":"kindergarten"}},{"id":268783,"type":"Feature","geometry":{"type":"Point","coordinates":[17.06136,51.11634]},"properties":{"ref:rspo":268783,"official_name":"Niepubliczna Poradnia Psychologiczno-Pedagogiczna \"Sensoteka\"","name":"Niepubliczna Poradnia Psychologiczno-Pedagogiczna \"Sensoteka\"","addr:country":"PL","addr:postcode":"50-361","addr:city":"Wroc\u0142aw","addr:street":"ul. Piastowska","addr:housenumber":"43","addr:door":"1","addr:teryt:simc":16046,"addr:teryt:sym_ul":986952,"contact:phone":"+48 601656911","contact:email":"poradnia.sensoteka@gmail.com","ref:regon":"381256359","operator":"Ma\u0142gorzata Grabiec","operator:type":"private","healthcare":"councelling","counselling_type":"education","fixme":"w zale\u017cno\u015bci od przedmiotu dzia\u0142alno\u015bci (np. healthcare=councelling + counselling_type=education albo healthcare=psychotherapist)"}},{"id":20440,"type":"Feature","geometry":{"type":"Point","coordinates":[17.03318,51.11727]},"properties":{"ref:rspo":20440,"official_name":"M\u0142odzie\u017cowy Dom Kultury \u015ar\u00f3dmie\u015bcie","name":"M\u0142odzie\u017cowy Dom Kultury \u015ar\u00f3dmie\u015bcie","addr:country":"PL","addr:postcode":"50-208","addr:city":"Wroc\u0142aw","addr:street":"ul. Stanis\u0142awa Dubois","addr:housenumber":"5","addr:teryt:simc":4337,"addr:teryt:sym_ul":986952,"contact:phone":"+48 717986744","contact:email":"sekretariat@mdksr.wroc.pl","contact:website":"http:\/\/www.mdksrodmiescie.wroc.pl","ref:regon":"000704758","ref:vatin":"PL8981739630","operator":"Gmina Wroc\u0142aw","operator:type":"government","amenity":"community_centre","community_centre:for":"juvenile"}},{"id":132535,"type":"Feature","geometry":{"type":"Point","coordinates":[17.04303,51.11728]},"properties":{"ref:rspo":132535,"official_name":"Bursa Szk\u00f3\u0142 Europejskich we Wroc\u0142awiu","name":"Bursa Szk\u00f3\u0142 Europejskich we Wroc\u0142awiu","addr:country":"PL","addr:postcode":"50-335","addr:city":"Wroc\u0142aw","addr:street":"ul. Henryka Sienkiewicza","addr:housenumber":"6a","addr:teryt:simc":19834,"addr:teryt:sym_ul":986952,"contact:phone":"+48 505044875","contact:email":"robertburszewski@wp.pl","ref:regon":"365738533","operator":"Robert Burszewski","operator:type":"private","building":"dormitory"}},{"id":274961,"type":"Feature","geometry":{"type":"Point","coordinates":[17.04303,51.11725]},"properties":{"isced:level":"3","ref:rspo":274961,"official_name":"Bran\u017cowa Szko\u0142a I Stopnia \"Elektroenergetyk\"","name":"Bran\u017cowa Szko\u0142a I Stopnia \"Elektroenergetyk\"","addr:country":"PL","addr:postcode":"53-652","addr:city":"Wroc\u0142aw","addr:street":"ul. Henryka Sienkiewicza","addr:housenumber":"6A","addr:teryt:simc":19834,"addr:teryt:sym_ul":986952,"contact:phone":"+48 713504806","contact:email":"teocezwroc@gmail.com","contact:website":"http:\/\/www.elektryk.plus","ref:regon":"386438250","operator":"Waldemar A\u0142da\u015b","operator:type":"private","amenity":"school"}},{"id":35358,"type":"Feature","geometry":{"type":"Point","coordinates":[17.05951,51.11731]},"properties":{"ref:rspo":35358,"official_name":"Przedszkole Nr 74 Ma\u0142y Piekarczyk","name":"Przedszkole Nr 74 Ma\u0142y Piekarczyk","addr:country":"PL","addr:postcode":"50-338","addr:city":"Wroc\u0142aw","addr:street":"ul. Krzywa","addr:housenumber":"3","addr:teryt:simc":10157,"addr:teryt:sym_ul":986952,"contact:phone":"+48 717986812","contact:email":"sekretariat.p074@wroclawskaedukacja.pl","contact:website":"http:\/\/www.przedszkole74.edu.wroclaw.pl","ref:regon":"000210074","ref:vatin":"PL8981871387","operator":"Gmina Wroc\u0142aw","operator:type":"government","amenity":"kindergarten"}},{"id":23193,"type":"Feature","geometry":{"type":"Point","coordinates":[17.06313,51.11745]},"properties":{"ref:rspo":23193,"official_name":"Przedszkole Nr 34 im. Polskiego Czerwonego Krzy\u017ca","name":"Przedszkole Nr 34","addr:country":"PL","addr:postcode":"50-344","addr:city":"Wroc\u0142aw","addr:street":"ul. Gda\u0144ska","addr:housenumber":"26","addr:teryt:simc":5431,"addr:teryt:sym_ul":986952,"contact:phone":"+48 717986785","contact:email":"sekretariat.p034@wroclawskaedukacja.pl","contact:website":"http:\/\/www.p34.wroclaw.pl","ref:regon":"930113543","ref:vatin":"PL8981871329","operator":"Gmina Wroc\u0142aw","operator:type":"government","amenity":"kindergarten"}},{"id":14846,"type":"Feature","geometry":{"type":"Point","coordinates":[17.0555999,51.11761]},"properties":{"isced:level":"1;2","ref:rspo":14846,"official_name":"Szko\u0142a Podstawowa Nr 84 im. Ruchu Obro\u0144c\u00f3w Pokoju","name":"Szko\u0142a Podstawowa Nr 84","addr:country":"PL","addr:postcode":"50-337","addr:city":"Wroc\u0142aw","addr:street":"ul. \u0141ukasza G\u00f3rnickiego","addr:housenumber":"20","addr:teryt:simc":5961,"addr:teryt:sym_ul":986952,"contact:phone":"+48 717986870","contact:email":"szkola@sp84.wroclaw.pl","contact:website":"http:\/\/www.sp84.wroclaw.pl","ref:regon":"000692498","ref:vatin":"PL8981407939","operator":"Gmina Wroc\u0142aw","operator:type":"government","amenity":"school"}},{"id":265013,"type":"Feature","geometry":{"type":"Point","coordinates":[17.02056,51.11766]},"properties":{"ref:rspo":265013,"official_name":"Lokomotywa - Niepubliczny Punkt Przedszkolny Nr 2 we Wroc\u0142awiu","name":"Lokomotywa - Niepubliczny Punkt Przedszkolny Nr 2 we Wroc\u0142awiu","addr:country":"PL","addr:postcode":"50-203","addr:city":"Wroc\u0142aw","addr:street":"ul. Romana Dmowskiego","addr:housenumber":"17 i","addr:teryt:simc":3868,"addr:teryt:sym_ul":986952,"contact:phone":"+48 509534421","contact:email":"wroclaw@lokomotywa.net.pl","contact:website":"http:\/\/www.lokomotywa.net.pl","ref:regon":"368557430","operator":"Ma\u0142opolskie Centrum Edukacji Lokomotywa Sp\u00f3\u0142ka Z Ograniczon\u0105 Odpowiedzialno\u015bci\u0105","operator:type":"private","amenity":"kindergarten"}},{"id":20185,"type":"Feature","geometry":{"type":"Point","coordinates":[17.03926,51.1184299]},"properties":{"ref:rspo":20185,"official_name":"Centrum Nauczania J\u0119zyk\u00f3w Obcych Germanica","name":"Centrum Nauczania J\u0119zyk\u00f3w Obcych Germanica","addr:country":"PL","addr:postcode":"50-257","addr:city":"Wroc\u0142aw","addr:street":"ul. Boles\u0142awa Drobnera","addr:housenumber":"32","addr:teryt:simc":4194,"addr:teryt:sym_ul":986952,"contact:phone":"+48 713453530","contact:email":"poczta@germanica.pl","contact:website":"http:\/\/www.germanica.pl","ref:regon":"021979080","operator":"Leszek Chmura","operator:type":"private","fixme":"w zale\u017cno\u015bci od przedmiotu dzia\u0142alno\u015bci (np. amenity=training + training=*, amenity=dancing_school, amenity=language_school, amenity=music_school)"}},{"id":271721,"type":"Feature","geometry":{"type":"Point","coordinates":[17.05746,51.11858]},"properties":{"ref:rspo":271721,"official_name":"Zesp\u00f3\u0142 Plac\u00f3wek Edukacyjnych Stowarzyszenia Ostoja we Wroc\u0142awiu","name":"Zesp\u00f3\u0142 Plac\u00f3wek Edukacyjnych Stowarzyszenia Ostoja we Wroc\u0142awiu","addr:country":"PL","addr:postcode":"50-337","addr:city":"Wroc\u0142aw","addr:street":"ul. \u0141ukasza G\u00f3rnickiego","addr:housenumber":"37a","addr:teryt:simc":5961,"addr:teryt:sym_ul":986952,"contact:phone":"+48 605873114","contact:email":"sekretariat@ostoja.org.pl","contact:website":"http:\/\/www.ostoja.org.pl","ref:regon":"383581425","operator":"Stowarzyszenie \"Ostoja\" Na Rzecz Os\u00f3b Z Niepe\u0142nosprawno\u015bciami","operator:type":"ngo","landuse":"education","fixme":"amenity=school, amenity=college albo landuse=education w zale\u017cno\u015bci od tego, jakie plac\u00f3wki wchodz\u0105 w sk\u0142ad zespo\u0142u. Sprawd\u017a, kiedy stosowa\u0107 amenity=* a kiedy landuse=education.","note":"Children RSPO: 18369;271706"}},{"id":18369,"type":"Feature","geometry":{"type":"Point","coordinates":[17.05746,51.11855]},"properties":{"ref:rspo":18369,"official_name":"O\u015brodek Rehabilitacyjno-Edukacyjny Ostoja we Wroc\u0142awiu","name":"O\u015brodek Rehabilitacyjno-Edukacyjny Ostoja we Wroc\u0142awiu","addr:country":"PL","addr:postcode":"50-337","addr:city":"Wroc\u0142aw","addr:street":"ul. \u0141ukasza G\u00f3rnickiego","addr:housenumber":"37a","addr:teryt:simc":5961,"addr:teryt:sym_ul":986952,"contact:phone":"+48 713221224","contact:email":"sekretariat@ostoja.org.pl","contact:website":"http:\/\/www.ostoja.org.pl","ref:regon":"021974912","operator":"Stowarzyszenie \"Ostoja\" Na Rzecz Os\u00f3b Z Niepe\u0142nosprawno\u015bciami","operator:type":"ngo","amenity":"school","note":"Parent RSPO: 271721"}},{"id":3338,"type":"Feature","geometry":{"type":"Point","coordinates":[17.03695,51.11862]},"properties":{"isced:level":"3","ref:rspo":3338,"official_name":"Publiczna Szko\u0142a Gastronomiczna Ho-Ga Bran\u017cowa","name":"Publiczna Szko\u0142a Gastronomiczna Ho-Ga Bran\u017cowa","addr:country":"PL","addr:postcode":"50-258","addr:city":"Wroc\u0142aw","addr:street":"ul. Jedno\u015bci Narodowej","addr:housenumber":"46A","addr:teryt:simc":7435,"addr:teryt:sym_ul":986952,"contact:phone":"+48 713721319","contact:email":"ho-ga@wp.pl","contact:website":"http:\/\/www.ho-ga.com.pl","ref:regon":"021943857","operator":"Maciej \u015awierkocki","operator:type":"private","amenity":"school"}},{"id":68724,"type":"Feature","geometry":{"type":"Point","coordinates":[17.03695,51.11859]},"properties":{"isced:level":"3","ref:rspo":68724,"official_name":"Publiczna Szko\u0142a Gastronomiczna Ho-Ga - Technikum we Wroc\u0142awiu","name":"Publiczna Szko\u0142a Gastronomiczna Ho-Ga - Technikum we Wroc\u0142awiu","addr:country":"PL","addr:postcode":"50-258","addr:city":"Wroc\u0142aw","addr:street":"ul. Jedno\u015bci Narodowej","addr:housenumber":"46a","addr:teryt:simc":7435,"addr:teryt:sym_ul":986952,"contact:phone":"+48 713721319","contact:email":"ho-ga@wp.pl","contact:website":"http:\/\/www.ho-ga.com.pl","ref:regon":"022013008","operator":"Maciej \u015awierkocki","operator:type":"private","amenity":"school"}},{"id":270093,"type":"Feature","geometry":{"type":"Point","coordinates":[17.0289,51.11867]},"properties":{"ref:rspo":270093,"official_name":"Europejskie Centrum Terapii","name":"Europejskie Centrum Terapii","addr:country":"PL","addr:postcode":"50-207","addr:city":"Wroc\u0142aw","addr:street":"ul. Stanis\u0142awa Dubois","addr:housenumber":"33-35a","addr:teryt:simc":4337,"addr:teryt:sym_ul":986952,"contact:phone":"+48 600466887","contact:email":"szkola.ect@gmail.com","contact:website":"https:\/\/www.europejskiecentrumterapii.pl\/","ref:regon":"382015190","operator":"Joanna Czarny","operator:type":"private","fixme":"w zale\u017cno\u015bci od przedmiotu dzia\u0142alno\u015bci (np. amenity=training + training=*, amenity=dancing_school, amenity=language_school, amenity=music_school)"}},{"id":278369,"type":"Feature","geometry":{"type":"Point","coordinates":[17.0289,51.11864]},"properties":{"ref:rspo":278369,"official_name":"Publiczne Przedszkole \"Wroc\u0142awskie Skauty V\"","name":"Publiczne Przedszkole \"Wroc\u0142awskie Skauty V\"","addr:country":"PL","addr:postcode":"50-207","addr:city":"Wroc\u0142aw","addr:street":"ul. Stanis\u0142awa Dubois","addr:housenumber":"33-35a","addr:teryt:simc":4337,"addr:teryt:sym_ul":986952,"contact:phone":"+48 717334430","contact:email":"biuro5@wroclawskieskauty.pl","contact:website":"http:\/\/www.wroclawskieskauty.pl","ref:regon":"389873436","operator":"Center Education Talent Search Sp\u00f3\u0142ka Z Ograniczon\u0105 Odpowiedzialno\u015bci\u0105","operator:type":"private","amenity":"kindergarten"}},{"id":106152,"type":"Feature","geometry":{"type":"Point","coordinates":[17.0493,51.11879]},"properties":{"isced:level":"1;2","ref:rspo":106152,"official_name":"Szko\u0142a Podstawowa \"Primus\"","name":"Szko\u0142a Podstawowa \"Primus\"","addr:country":"PL","addr:postcode":"50-333","addr:city":"Wroc\u0142aw","addr:street":"al. Jana Matejki","addr:housenumber":"16a","addr:teryt:simc":12486,"addr:teryt:sym_ul":986952,"contact:phone":"+48 717975560","contact:email":"sekretariat@primus.wroc.pl","contact:website":"http:\/\/www.primus.wroc.pl","ref:regon":"022050021","operator":"Fundacja Integracji Dzieci I M\u0142odzie\u017cy Dolnego \u015al\u0105ska \"Primus\"","operator:type":"ngo","amenity":"school"}},{"id":133631,"type":"Feature","geometry":{"type":"Point","coordinates":[17.04587,51.11881]},"properties":{"ref:rspo":133631,"official_name":"Zesp\u00f3\u0142 Szk\u00f3\u0142 Salezja\u0144skich Don Bosco we Wroc\u0142awiu","name":"Zesp\u00f3\u0142 Szk\u00f3\u0142 Salezja\u0144skich Don Bosco we Wroc\u0142awiu","addr:country":"PL","addr:postcode":"50-327","addr:city":"Wroc\u0142aw","addr:street":"ul. \u015awi\u0119tokrzyska","addr:housenumber":"45-55","addr:teryt:simc":22552,"addr:teryt:sym_ul":986952,"contact:phone":"+48 713734531","contact:email":"liceum@salez-wroc.pl","contact:website":"http:\/\/www.salez-wroc.pl","ref:regon":"367520301","operator":"Inspektoria Towarzystwa Salezja\u0144skiego \u015aw.jana Bosko","operator:type":"religious","landuse":"education","fixme":"amenity=school, amenity=college albo landuse=education w zale\u017cno\u015bci od tego, jakie plac\u00f3wki wchodz\u0105 w sk\u0142ad zespo\u0142u. Sprawd\u017a, kiedy stosowa\u0107 amenity=* a kiedy landuse=education.","note":"Children RSPO: 133160;133382;264097;268947"}},{"id":133160,"type":"Feature","geometry":{"type":"Point","coordinates":[17.04587,51.11878]},"properties":{"isced:level":"1;2","ref:rspo":133160,"official_name":"Salezja\u0144ska Szko\u0142a Podstawowa","name":"Salezja\u0144ska Szko\u0142a Podstawowa","addr:country":"PL","addr:postcode":"50-327","addr:city":"Wroc\u0142aw","addr:street":"ul. \u015awi\u0119tokrzyska","addr:housenumber":"45-55","addr:teryt:simc":22552,"addr:teryt:sym_ul":986952,"contact:phone":"+48 713734531","contact:email":"podstawowa@salez-wroc.pl","contact:website":"http:\/\/www.szkolapodstawowa.salez-wroc.pl","ref:regon":"366749846","operator":"Inspektoria Towarzystwa Salezja\u0144skiego \u015aw.jana Bosko","operator:type":"religious","amenity":"school","note":"Parent RSPO: 133631"}},{"id":264097,"type":"Feature","geometry":{"type":"Point","coordinates":[17.04587,51.118750000000006]},"properties":{"ref:rspo":264097,"official_name":"Przedszkole Salezja\u0144skie","name":"Przedszkole Salezja\u0144skie","addr:country":"PL","addr:postcode":"50-327","addr:city":"Wroc\u0142aw","addr:street":"ul. \u015awi\u0119tokrzyska","addr:housenumber":"45-55","addr:teryt:simc":22552,"addr:teryt:sym_ul":986952,"contact:phone":"+48 713734531","contact:email":"przedszkole@salez-wroc.pl","contact:website":"http:\/\/www.przedszkole.salez-wroc.pl","ref:regon":"368277481","operator":"Inspektoria Towarzystwa Salezja\u0144skiego \u015aw.jana Bosko","operator:type":"religious","amenity":"kindergarten","note":"Parent RSPO: 133631"}},{"id":14864,"type":"Feature","geometry":{"type":"Point","coordinates":[17.02704,51.11939]},"properties":{"ref:rspo":14864,"official_name":"Zesp\u00f3\u0142 Szkolno-Przedszkolny Nr 8","name":"Zesp\u00f3\u0142 Szkolno-Przedszkolny Nr 8","addr:country":"PL","addr:postcode":"50-209","addr:city":"Wroc\u0142aw","addr:street":"ul. Sk\u0142adowa","addr:housenumber":"2-4","addr:teryt:simc":20060,"addr:teryt:sym_ul":986952,"contact:phone":"+48 717986931","contact:email":"sekretariat.zsp08@wroclawskaedukacja.pl","contact:website":"http:\/\/www.zsp8.pl","ref:regon":"932935864","ref:vatin":"PL8982025743","operator":"Gmina Wroc\u0142aw","operator:type":"government","landuse":"education","fixme":"amenity=school, amenity=college albo landuse=education w zale\u017cno\u015bci od tego, jakie plac\u00f3wki wchodz\u0105 w sk\u0142ad zespo\u0142u. Sprawd\u017a, kiedy stosowa\u0107 amenity=* a kiedy landuse=education.","note":"Children RSPO: 20977;23187"}},{"id":20977,"type":"Feature","geometry":{"type":"Point","coordinates":[17.02704,51.11936]},"properties":{"isced:level":"1;2","ref:rspo":20977,"official_name":"Szko\u0142a Podstawowa Nr 58 im. Wandy Rutkiewicz","name":"Szko\u0142a Podstawowa Nr 58","addr:country":"PL","addr:postcode":"50-209","addr:city":"Wroc\u0142aw","addr:street":"ul. Sk\u0142adowa","addr:housenumber":"2-4","addr:teryt:simc":20060,"addr:teryt:sym_ul":986952,"contact:phone":"+48 717986931","contact:email":"sekretariat.zsp08@wroclawskaedukacja.pl","contact:website":"http:\/\/www.zsp8.pl","ref:regon":"000692446","operator":"Gmina Wroc\u0142aw","operator:type":"government","amenity":"school","note":"Parent RSPO: 14864"}},{"id":23187,"type":"Feature","geometry":{"type":"Point","coordinates":[17.02704,51.119330000000005]},"properties":{"ref:rspo":23187,"official_name":"Przedszkole Nr 97 Z Oddzia\u0142ami Integracyjnymi Nadodrza\u0144skie Skrzaty","name":"Przedszkole Nr 97 Z Oddzia\u0142ami Integracyjnymi Nadodrza\u0144skie Skrzaty","addr:country":"PL","addr:postcode":"50-209","addr:city":"Wroc\u0142aw","addr:street":"ul. Sk\u0142adowa","addr:housenumber":"2-4","addr:teryt:simc":20060,"addr:teryt:sym_ul":986952,"contact:phone":"+48 717986931","contact:email":"sekretariat.zsp08@wroclawskaedukacja.pl","contact:website":"http:\/\/www.zsp8.pl","ref:regon":"930113649","operator":"Gmina Wroc\u0142aw","operator:type":"government","amenity":"kindergarten","note":"Parent RSPO: 14864"}},{"id":58107,"type":"Feature","geometry":{"type":"Point","coordinates":[17.0442399,51.11957]},"properties":{"ref:rspo":58107,"official_name":"Przedszkole Si\u00f3str \u015awi\u0119tego J\u00f3zefa","name":"Przedszkole Si\u00f3str \u015awi\u0119tego J\u00f3zefa","addr:country":"PL","addr:postcode":"50-319","addr:city":"Wroc\u0142aw","addr:street":"ul. Boles\u0142awa Prusa","addr:housenumber":"28\/II\/","addr:door":"b","addr:teryt:simc":17577,"addr:teryt:sym_ul":986952,"contact:phone":"+48 713228323","contact:email":"biuro@przedszkolejozefitki.pl","contact:website":"http:\/\/www.jozefitki.pl","ref:regon":"022000069","operator":"Zgromadzenie Si\u00f3str \u015aw. J\u00f3zefa, Prowincja Wroc\u0142awska","operator:type":"religious","amenity":"kindergarten"}},{"id":263806,"type":"Feature","geometry":{"type":"Point","coordinates":[17.03885,51.11974]},"properties":{"ref:rspo":263806,"official_name":"Policealne Studium Animator\u00f3w Kultury Skiba we Wroc\u0142awiu","name":"Policealne Studium Animator\u00f3w Kultury Skiba we Wroc\u0142awiu","addr:country":"PL","addr:postcode":"50-238","addr:city":"Wroc\u0142aw","addr:street":"ul. Juliana Ursyna Niemcewicza","addr:housenumber":"2","addr:teryt:simc":14177,"addr:teryt:sym_ul":986952,"contact:phone":"+48 713222068","contact:email":"skiba@skiba.edu.pl","contact:website":"http:\/\/skiba.edu.pl","ref:regon":"368226555","operator":"Ministerstwo Kultury I Dziedzictwa Narodowego","operator:type":"public","amenity":"college"}},{"id":133382,"type":"Feature","geometry":{"type":"Point","coordinates":[17.05077,51.12001]},"properties":{"isced:level":"3","ref:rspo":133382,"official_name":"Salezja\u0144skie Liceum Og\u00f3lnokszta\u0142c\u0105ce we Wroc\u0142awiu","name":"Salezja\u0144skie Liceum Og\u00f3lnokszta\u0142c\u0105ce we Wroc\u0142awiu","addr:country":"PL","addr:postcode":"50-318","addr:city":"Wroc\u0142aw","addr:street":"ul. Boles\u0142awa Prusa","addr:housenumber":"78","addr:teryt:simc":17577,"addr:teryt:sym_ul":986952,"contact:phone":"+48 713734531","contact:email":"liceum@salez-wroc.pl","contact:website":"http:\/\/www.liceum.salez-wroc.pl","ref:regon":"367161919","operator":"Inspektoria Towarzystwa Salezja\u0144skiego \u015aw.jana Bosko","operator:type":"religious","amenity":"school","note":"Parent RSPO: 133631"}},{"id":268947,"type":"Feature","geometry":{"type":"Point","coordinates":[17.05077,51.11998]},"properties":{"isced:level":"3","ref:rspo":268947,"official_name":"Technikum Salezja\u0144skie","name":"Technikum Salezja\u0144skie","addr:country":"PL","addr:postcode":"50-318","addr:city":"Wroc\u0142aw","addr:street":"ul. Boles\u0142awa Prusa","addr:housenumber":"78","addr:teryt:simc":17577,"addr:teryt:sym_ul":986952,"contact:phone":"+48 713222510","contact:email":"technikum@salez-wroc.pl","contact:website":"http:\/\/www.technikum.salez-wroc.pl","ref:regon":"381301628","operator":"Inspektoria Towarzystwa Salezja\u0144skiego \u015aw.jana Bosko","operator:type":"religious","amenity":"school","note":"Parent RSPO: 133631"}},{"id":14801,"type":"Feature","geometry":{"type":"Point","coordinates":[17.0496899,51.12004]},"properties":{"isced:level":"1;2","ref:rspo":14801,"official_name":"Szko\u0142a Podstawowa Nr 107 im. Piotra W\u0142ostowica","name":"Szko\u0142a Podstawowa Nr 107","addr:country":"PL","addr:postcode":"50-318","addr:city":"Wroc\u0142aw","addr:street":"ul. Boles\u0142awa Prusa","addr:housenumber":"64","addr:teryt:simc":17577,"addr:teryt:sym_ul":986952,"contact:phone":"+48 717986837","contact:email":"sekretariat@sp107.wroclaw.pl","contact:website":"http:\/\/sp107.wroclaw.pl","ref:regon":"000692512","ref:vatin":"PL8981411220","operator":"Gmina Wroc\u0142aw","operator:type":"government","amenity":"school"}},{"id":31271,"type":"Feature","geometry":{"type":"Point","coordinates":[17.03716,51.12008]},"properties":{"ref:rspo":31271,"official_name":"Komputerowe Centrum Prawno-Ekonomiczne Sigma","name":"Komputerowe Centrum Prawno-Ekonomiczne Sigma","addr:country":"PL","addr:postcode":"50-244","addr:city":"Wroc\u0142aw","addr:street":"pl. \u015bw. Macieja","addr:housenumber":"7a","addr:teryt:simc":11834,"addr:teryt:sym_ul":986952,"contact:phone":"+48 713213635","contact:email":"sekretariat@sigma.edu.pl","contact:website":"http:\/\/www.sigma.edu.pl","ref:regon":"021989664","operator":"Danuta Sobkowiak","operator:type":"private","fixme":"w zale\u017cno\u015bci od przedmiotu dzia\u0142alno\u015bci (np. amenity=training + training=*, amenity=dancing_school, amenity=language_school, amenity=music_school)"}},{"id":23291,"type":"Feature","geometry":{"type":"Point","coordinates":[17.03857,51.12012]},"properties":{"ref:rspo":23291,"official_name":"Przedszkole Nr 77 T\u0119czowe Si\u00f3demki","name":"Przedszkole Nr 77 T\u0119czowe Si\u00f3demki","addr:country":"PL","addr:postcode":"50-238","addr:city":"Wroc\u0142aw","addr:street":"ul. Juliana Ursyna Niemcewicza","addr:housenumber":"4","addr:teryt:simc":14177,"addr:teryt:sym_ul":986952,"contact:phone":"+48 717986813","contact:email":"sekretariat.p077@wroclawskaedukacja.pl","contact:website":"http:\/\/p77teczowesiodemki.szkolnastrona.pl","ref:regon":"930113595","ref:vatin":"PL8981566388","operator":"Gmina Wroc\u0142aw","operator:type":"government","amenity":"kindergarten"}},{"id":14741,"type":"Feature","geometry":{"type":"Point","coordinates":[17.02921,51.1201999]},"properties":{"ref:rspo":14741,"official_name":"Seka S.a. Oddzia\u0142 we Wroc\u0142awiu","name":"Seka S.a. Oddzia\u0142 we Wroc\u0142awiu","addr:country":"PL","addr:postcode":"50-214","addr:city":"Wroc\u0142aw","addr:street":"ul. Kaszubska","addr:housenumber":"8","addr:teryt:simc":8183,"addr:teryt:sym_ul":986952,"contact:phone":"+48 717383800","contact:email":"wroclaw@seka.pl","contact:website":"http:\/\/www.seka.pl","ref:regon":"021964061","operator":"\"Seka\" Sp\u00f3\u0142ka Akcyjna","operator:type":"private","fixme":"w zale\u017cno\u015bci od przedmiotu dzia\u0142alno\u015bci (np. amenity=training + training=*, amenity=dancing_school, amenity=language_school, amenity=music_school)"}},{"id":130611,"type":"Feature","geometry":{"type":"Point","coordinates":[17.02921,51.1201699]},"properties":{"ref:rspo":130611,"official_name":"Atum","name":"Atum","addr:country":"PL","addr:postcode":"50-214","addr:city":"Wroc\u0142aw","addr:street":"ul. Kaszubska","addr:housenumber":"8","addr:door":"4","addr:teryt:simc":8183,"addr:teryt:sym_ul":986952,"contact:phone":"+48 512041945","contact:email":"biuro@atum.edu.pl","contact:website":"http:\/\/www.atum.edu.pl","ref:regon":"364246377","operator":"Atum Sp\u00f3\u0142ka Z Ograniczon\u0105 Odpowiedzialno\u015bci\u0105","operator:type":"private","fixme":"w zale\u017cno\u015bci od przedmiotu dzia\u0142alno\u015bci (np. amenity=training + training=*, amenity=dancing_school, amenity=language_school, amenity=music_school)"}},{"id":22368,"type":"Feature","geometry":{"type":"Point","coordinates":[17.05633,51.12032]},"properties":{"ref:rspo":22368,"official_name":"Przedszkole Nr 3 Weso\u0142a Tr\u00f3jeczka","name":"Przedszkole Nr 3 Weso\u0142a Tr\u00f3jeczka","addr:country":"PL","addr:postcode":"50-315","addr:city":"Wroc\u0142aw","addr:street":"ul. Nowowiejska","addr:housenumber":"80","addr:teryt:simc":14495,"addr:teryt:sym_ul":986952,"contact:phone":"+48 717986782","contact:email":"sekretariat.p003@wroclawskaedukacja.pl","contact:website":"http:\/\/p3wroclaw.szkolnastrona.pl","ref:regon":"930113454","ref:vatin":"PL8981871275","operator":"Gmina Wroc\u0142aw","operator:type":"government","amenity":"kindergarten"}},{"id":11474,"type":"Feature","geometry":{"type":"Point","coordinates":[17.02695,51.12036]},"properties":{"isced:level":"3","ref:rspo":11474,"official_name":"Liceum Og\u00f3lnokszta\u0142c\u0105ce Nr III im. Adama Mickiewicza","name":"Liceum Og\u00f3lnokszta\u0142c\u0105ce Nr III","addr:country":"PL","addr:postcode":"50-209","addr:city":"Wroc\u0142aw","addr:street":"ul. Sk\u0142adowa","addr:housenumber":"5","addr:teryt:simc":20060,"addr:teryt:sym_ul":986952,"contact:phone":"+48 717986732","contact:email":"sekretariat@lo3.wroc.pl","contact:website":"http:\/\/www.lo3.wroc.pl","ref:regon":"000205966","ref:vatin":"PL8981871708","operator":"Gmina Wroc\u0142aw","operator:type":"government","amenity":"school"}},{"id":11472,"type":"Feature","geometry":{"type":"Point","coordinates":[17.04301,51.12036]},"properties":{"isced:level":"3","ref:rspo":11472,"official_name":"Liceum Og\u00f3lnokszta\u0142c\u0105ce Nr I im. Danuty Siedzik\u00f3wny \"Inki\"","name":"Liceum Og\u00f3lnokszta\u0142c\u0105ce Nr I","addr:country":"PL","addr:postcode":"50-326","addr:city":"Wroc\u0142aw","addr:street":"ul. Ksi\u0119cia J\u00f3zefa Poniatowskiego","addr:housenumber":"9","addr:teryt:simc":17113,"addr:teryt:sym_ul":986952,"contact:phone":"+48 717986731","contact:email":"sekretariat.lo01@wroclawskaedukacja.pl","contact:website":"http:\/\/www.lo1.wroc.pl","ref:regon":"932224011","ref:vatin":"PL8982143833","operator":"Gmina Wroc\u0142aw","operator:type":"government","amenity":"school"}},{"id":56001,"type":"Feature","geometry":{"type":"Point","coordinates":[17.0823,51.1203999]},"properties":{"isced:level":"1;2","ref:rspo":56001,"official_name":"Szko\u0142a Podstawowa Nr 36 im. Bohater\u00f3w Westerplatte","name":"Szko\u0142a Podstawowa Nr 36","addr:country":"PL","addr:postcode":"51-609","addr:city":"Wroc\u0142aw","addr:street":"ul. Fryderyka Chopina","addr:housenumber":"9b","addr:teryt:simc":2849,"addr:teryt:sym_ul":986952,"contact:phone":"+48 717986891","contact:email":"sekretariat@sp36wro.pl","contact:website":"http:\/\/www.sp36.szkolnastrona.pl","ref:regon":"000692400","ref:vatin":"PL8981543559","operator":"Gmina Wroc\u0142aw","operator:type":"government","amenity":"school"}},{"id":24511,"type":"Feature","geometry":{"type":"Point","coordinates":[17.0567,51.12051]},"properties":{"ref:rspo":24511,"official_name":"Przedszkole Nr 109 Z Oddzia\u0142ami Integracyjnymi","name":"Przedszkole Nr 109 Z Oddzia\u0142ami Integracyjnymi","addr:country":"PL","addr:postcode":"50-315","addr:city":"Wroc\u0142aw","addr:street":"ul. Nowowiejska","addr:housenumber":"80a","addr:teryt:simc":14495,"addr:teryt:sym_ul":986952,"contact:phone":"+48 717986754","contact:email":"sekretariat.p109@wroclawskaedukacja.pl","contact:website":"http:\/\/przedszkole109-integracja.przedszkolowo.pl","ref:regon":"930113655","ref:vatin":"PL8981563421","operator":"Gmina Wroc\u0142aw","operator:type":"government","amenity":"kindergarten"}},{"id":13991,"type":"Feature","geometry":{"type":"Point","coordinates":[17.05565,51.12063]},"properties":{"isced:level":"1;2","ref:rspo":13991,"official_name":"Szko\u0142a Podstawowa Nr 1 im. Marii D\u0105browskiej","name":"Szko\u0142a Podstawowa Nr 1","addr:country":"PL","addr:postcode":"50-315","addr:city":"Wroc\u0142aw","addr:street":"ul. Nowowiejska","addr:housenumber":"78","addr:teryt:simc":14495,"addr:teryt:sym_ul":986952,"contact:phone":"+48 717986836","contact:email":"sekretariat.sp001@wroclawskaedukacja.pl","contact:website":"http:\/\/www.sp1.wroclaw.pl","ref:regon":"000692363","ref:vatin":"PL8981407980","operator":"Gmina Wroc\u0142aw","operator:type":"government","amenity":"school"}},{"id":128017,"type":"Feature","geometry":{"type":"Point","coordinates":[17.03401,51.12071]},"properties":{"ref:rspo":128017,"official_name":"Plac\u00f3wka Kszta\u0142cenia Ustawicznego - Fundacja Wspierania Edukacji I Rozwoju Osobistego Helios","name":"Plac\u00f3wka Kszta\u0142cenia Ustawicznego - Fundacja Wspierania Edukacji I Rozwoju Osobistego Helios","addr:country":"PL","addr:postcode":"50-247","addr:city":"Wroc\u0142aw","addr:street":"ul. Pauli\u0144ska","addr:housenumber":"14","addr:teryt:simc":15826,"addr:teryt:sym_ul":986952,"contact:phone":"+48 517370107","contact:email":"placowka@ehelios.org","contact:website":"http:\/\/www.ehelios.org","ref:regon":"362055740","operator":"Fundacja Wspierania Edukacji I Rozwoju Osobistego Helios","operator:type":"ngo","fixme":"w zale\u017cno\u015bci od przedmiotu dzia\u0142alno\u015bci (np. amenity=training + training=*, amenity=dancing_school, amenity=language_school, amenity=music_school)"}},{"id":275602,"type":"Feature","geometry":{"type":"Point","coordinates":[17.03401,51.12068]},"properties":{"ref:rspo":275602,"official_name":"Katolicki Zesp\u00f3\u0142 Szkolno-Przedszkolny","name":"Katolicki Zesp\u00f3\u0142 Szkolno-Przedszkolny","addr:country":"PL","addr:postcode":"50-247","addr:city":"Wroc\u0142aw","addr:street":"ul. Pauli\u0144ska","addr:housenumber":"14","addr:teryt:simc":15826,"addr:teryt:sym_ul":986952,"contact:phone":"+48 695787313","contact:email":"kontakt@bonum.edu.pl","contact:website":"http:\/\/www.bonum.edu.pl","ref:regon":"386928326","operator":"Fundacja \"Bonum Educationis\"","operator:type":"ngo","landuse":"education","fixme":"amenity=school, amenity=college albo landuse=education w zale\u017cno\u015bci od tego, jakie plac\u00f3wki wchodz\u0105 w sk\u0142ad zespo\u0142u. Sprawd\u017a, kiedy stosowa\u0107 amenity=* a kiedy landuse=education.","note":"Children RSPO: 275260;275261"}},{"id":275260,"type":"Feature","geometry":{"type":"Point","coordinates":[17.03401,51.120650000000005]},"properties":{"ref:rspo":275260,"official_name":"Katolickie Przedszkole Publiczne we Wroc\u0142awiu","name":"Katolickie Przedszkole Publiczne we Wroc\u0142awiu","addr:country":"PL","addr:postcode":"50-247","addr:city":"Wroc\u0142aw","addr:street":"ul. Pauli\u0144ska","addr:housenumber":"14","addr:teryt:simc":15826,"addr:teryt:sym_ul":986952,"contact:phone":"+48 695787313","contact:email":"kontakt@bonum.edu.pl","contact:website":"http:\/\/www.bonum.edu.pl","ref:regon":"386740893","operator":"Fundacja \"Bonum Educationis\"","operator:type":"ngo","amenity":"kindergarten","note":"Parent RSPO: 275602"}},{"id":275261,"type":"Feature","geometry":{"type":"Point","coordinates":[17.03401,51.12062]},"properties":{"isced:level":"1;2","ref:rspo":275261,"official_name":"Katolicka Szko\u0142a Podstawowa we Wroc\u0142awiu","name":"Katolicka Szko\u0142a Podstawowa we Wroc\u0142awiu","addr:country":"PL","addr:postcode":"50-247","addr:city":"Wroc\u0142aw","addr:street":"ul. Pauli\u0144ska","addr:housenumber":"14","addr:teryt:simc":15826,"addr:teryt:sym_ul":986952,"contact:phone":"+48 695787313","contact:email":"kontakt@bonum.edu.pl","contact:website":"http:\/\/www.bonum.edu.pl","ref:regon":"386740901","operator":"Fundacja \"Bonum Educationis\"","operator:type":"ngo","amenity":"school","note":"Parent RSPO: 275602"}},{"id":14795,"type":"Feature","geometry":{"type":"Point","coordinates":[17.03536,51.12097]},"properties":{"isced:level":"1;2","ref:rspo":14795,"official_name":"Szko\u0142a Podstawowa Nr 108 im. Juliana Tuwima","name":"Szko\u0142a Podstawowa Nr 108","addr:country":"PL","addr:postcode":"50-254","addr:city":"Wroc\u0142aw","addr:street":"ul. Boles\u0142awa Chrobrego","addr:housenumber":"3","addr:teryt:simc":1742,"addr:teryt:sym_ul":986952,"contact:phone":"+48 717986838","contact:email":"sekretariat.sp108@wroclawskaedukacja.pl","contact:website":"http:\/\/www.sp108.edu.pl","ref:regon":"000692529","ref:vatin":"PL8981564515","operator":"Gmina Wroc\u0142aw","operator:type":"government","amenity":"school"}},{"id":265012,"type":"Feature","geometry":{"type":"Point","coordinates":[17.04812,51.12118]},"properties":{"ref:rspo":265012,"official_name":"Punkt Przedszkolny Edulinek","name":"Punkt Przedszkolny Edulinek","addr:country":"PL","addr:postcode":"50-324","addr:city":"Wroc\u0142aw","addr:street":"ul. Norberta Barlickiego","addr:housenumber":"1","addr:door":"1B","addr:teryt:simc":763,"addr:teryt:sym_ul":986952,"contact:phone":"+48 531994706","contact:email":"edulinek.edukacja@gmail.com","ref:regon":"368557424","operator":"Katarzyna \u0141yko","operator:type":"private","amenity":"kindergarten"}},{"id":72611,"type":"Feature","geometry":{"type":"Point","coordinates":[17.03107,51.12154]},"properties":{"ref:rspo":72611,"official_name":"Dolno\u015bL\u0105skie Centrum J\u0119zykowe \"Demostenes\"","name":"Dolno\u015bL\u0105skie Centrum J\u0119zykowe \"Demostenes\"","addr:country":"PL","addr:postcode":"50-217","addr:city":"Wroc\u0142aw","addr:street":"ul. Pomorska","addr:housenumber":"59","addr:door":"6","addr:teryt:simc":17088,"addr:teryt:sym_ul":986952,"contact:phone":"+48 717808791","contact:email":"demostenes@demostenes.com.pl","contact:website":"http:\/\/www.demostenes.com.pl","ref:regon":"022006669","operator":"Urszula Buka\u0142a","operator:type":"private","fixme":"w zale\u017cno\u015bci od przedmiotu dzia\u0142alno\u015bci (np. amenity=training + training=*, amenity=dancing_school, amenity=language_school, amenity=music_school)"}},{"id":15596,"type":"Feature","geometry":{"type":"Point","coordinates":[17.03944,51.12163]},"properties":{"isced:level":"1;2","ref:rspo":15596,"official_name":"Szko\u0142a Podstawowa Nr 93 im. Tradycji Or\u0142a Bia\u0142ego","name":"Szko\u0142a Podstawowa Nr 93","addr:country":"PL","addr:postcode":"50-238","addr:city":"Wroc\u0142aw","addr:street":"ul. Juliana Ursyna Niemcewicza","addr:housenumber":"29-31","addr:teryt:simc":14177,"addr:teryt:sym_ul":986952,"contact:phone":"+48 717986875","contact:email":"sekretariat.sp093@wroclawskaedukacja.pl","contact:website":"http:\/\/www.sp93.wroc.pl","ref:regon":"000692506","ref:vatin":"PL8961004902","operator":"Gmina Wroc\u0142aw","operator:type":"government","amenity":"school"}},{"id":29633,"type":"Feature","geometry":{"type":"Point","coordinates":[17.05717,51.12203]},"properties":{"ref:rspo":29633,"official_name":"Przedszkole J\u0119zykowe Ente","name":"Przedszkole J\u0119zykowe Ente","addr:country":"PL","addr:postcode":"50-311","addr:city":"Wroc\u0142aw","addr:street":"ul. Elizy Orzeszkowej","addr:housenumber":"80a","addr:teryt:simc":15211,"addr:teryt:sym_ul":986952,"contact:phone":"+48 713224886","contact:email":"kochplus@wp.pl","contact:website":"http:\/\/www.ente.org.pl","ref:regon":"021989291","operator":"Stowarzyszenie Centrum Wsp\u00f3\u0142pracy Europejskiej","operator:type":"ngo","amenity":"kindergarten"}},{"id":119517,"type":"Feature","geometry":{"type":"Point","coordinates":[17.05717,51.122]},"properties":{"isced:level":"1;2","ref:rspo":119517,"official_name":"Niepubliczna Szko\u0142a Podstawowa Ente","name":"Niepubliczna Szko\u0142a Podstawowa Ente","addr:country":"PL","addr:postcode":"50-311","addr:city":"Wroc\u0142aw","addr:street":"ul. Elizy Orzeszkowej","addr:housenumber":"80a","addr:teryt:simc":15211,"addr:teryt:sym_ul":986952,"contact:phone":"+48 713224886","contact:email":"job@entepente.pl","contact:website":"http:\/\/www.ente.org.pl","ref:regon":"022239907","operator":"Stowarzyszenie Centrum Wsp\u00f3\u0142pracy Europejskiej","operator:type":"ngo","amenity":"school"}},{"id":23357,"type":"Feature","geometry":{"type":"Point","coordinates":[17.08963,51.12208]},"properties":{"ref:rspo":23357,"official_name":"Przedszkole Nr 13","name":"Przedszkole Nr 13","addr:country":"PL","addr:postcode":"51-611","addr:city":"Wroc\u0142aw","addr:street":"ul. Zygmunta Noskowskiego","addr:housenumber":"32","addr:teryt:simc":14326,"addr:teryt:sym_ul":986952,"contact:phone":"+48 717986766","contact:email":"sekretariat.p013@wroclawskaedukacja.pl","contact:website":"http:\/\/przedszkole13.edu.wroclaw.pl","ref:regon":"930113477","ref:vatin":"PL8981873446","operator":"Gmina Wroc\u0142aw","operator:type":"government","amenity":"kindergarten"}},{"id":23182,"type":"Feature","geometry":{"type":"Point","coordinates":[17.04101,51.12278]},"properties":{"ref:rspo":23182,"official_name":"Przedszkole Nr 25 S\u0142owia\u0144skie Maluchy","name":"Przedszkole Nr 25 S\u0142owia\u0144skie Maluchy","addr:country":"PL","addr:postcode":"50-237","addr:city":"Wroc\u0142aw","addr:street":"ul. Kr\u0119ta","addr:housenumber":"1a","addr:teryt:simc":9925,"addr:teryt:sym_ul":986952,"contact:phone":"+48 717986779","contact:email":"sekretariat.p025@wroclawskaedukacja.pl","contact:website":"http:\/\/www.p25wroc.szkolnastrona.pl","ref:regon":"930113508","ref:vatin":"PL8981871772","operator":"Gmina Wroc\u0142aw","operator:type":"government","amenity":"kindergarten"}},{"id":270145,"type":"Feature","geometry":{"type":"Point","coordinates":[17.04351,51.12281]},"properties":{"ref:rspo":270145,"official_name":"Familijna Poradnia Psychologiczno-Pedagogiczna","name":"Familijna Poradnia Psychologiczno-Pedagogiczna","addr:country":"PL","addr:postcode":"50-301","addr:city":"Wroc\u0142aw","addr:street":"ul. Jedno\u015bci Narodowej","addr:housenumber":"112","addr:teryt:simc":7435,"addr:teryt:sym_ul":986952,"contact:phone":"+48 570007103","contact:email":"poradnia@fundacjaedukacja.pl","contact:website":"http:\/\/ppp.wroclaw.pl","ref:regon":"382088770","operator":"Edukacja Dla Przysz\u0142o\u015bci","operator:type":"ngo","healthcare":"councelling","counselling_type":"education","fixme":"w zale\u017cno\u015bci od przedmiotu dzia\u0142alno\u015bci (np. healthcare=councelling + counselling_type=education albo healthcare=psychotherapist)"}},{"id":71667,"type":"Feature","geometry":{"type":"Point","coordinates":[17.02758,51.1231099]},"properties":{"ref:rspo":71667,"official_name":"Publiczne Przedszkole \"Familjadek\"","name":"Publiczne Przedszkole \"Familjadek\"","addr:country":"PL","addr:postcode":"50-224","addr:city":"Wroc\u0142aw","addr:street":"pl. Strzelecki","addr:housenumber":"17","addr:teryt:simc":21384,"addr:teryt:sym_ul":986952,"contact:phone":"+48 533319197","contact:email":"familjadek@operator.edu.pl","contact:website":"https:\/\/familjadek-wroclaw.operator.edu.pl\/","ref:regon":"022007491","operator":"Og\u00f3lnopolski Operator O\u015bwiaty","operator:type":"ngo","amenity":"kindergarten"}},{"id":277152,"type":"Feature","geometry":{"type":"Point","coordinates":[17.05443,51.12311]},"properties":{"ref:rspo":277152,"official_name":"Vdv Niepubliczny O\u015brodek Doskonalenia Nauczycieli","name":"Vdv Niepubliczny O\u015brodek Doskonalenia Nauczycieli","addr:country":"PL","addr:postcode":"50-329","addr:city":"Wroc\u0142aw","addr:street":"ul. \u015bw. J\u00f3zefa","addr:housenumber":"1","addr:door":"3","addr:teryt:simc":7626,"addr:teryt:sym_ul":986952,"contact:email":"batorprojekt1@gmail.com","ref:regon":"388217055","operator":"Prebap Sp\u00f3\u0142ka Z Ograniczon\u0105 Odpowiedzialno\u015bci\u0105","operator:type":"private","amenity":"training"}},{"id":26027,"type":"Feature","geometry":{"type":"Point","coordinates":[17.04952,51.12337]},"properties":{"ref:rspo":26027,"official_name":"Przedszkole Nr 55","name":"Przedszkole Nr 55","addr:country":"PL","addr:postcode":"50-315","addr:city":"Wroc\u0142aw","addr:street":"ul. Nowowiejska","addr:housenumber":"36","addr:teryt:simc":14495,"addr:teryt:sym_ul":986952,"contact:phone":"+48 717986798","contact:email":"sekretariat.p055@wroclawskaedukacja.pl","contact:website":"http:\/\/www.p55wroc.szkolnastrona.pl","ref:regon":"930113589","ref:vatin":"PL8981876485","operator":"Gmina Wroc\u0142aw","operator:type":"government","amenity":"kindergarten"}},{"id":20913,"type":"Feature","geometry":{"type":"Point","coordinates":[17.04569,51.12341]},"properties":{"ref:rspo":20913,"official_name":"Poradnia Psychologiczno-Pedagogiczna Nr 2","name":"Poradnia Psychologiczno-Pedagogiczna Nr 2","addr:country":"PL","addr:postcode":"50-301","addr:city":"Wroc\u0142aw","addr:street":"ul. Jedno\u015bci Narodowej","addr:housenumber":"117","addr:teryt:simc":7435,"addr:teryt:sym_ul":986952,"contact:phone":"+48 717986829","contact:email":"sekretariat.ppp2@wroclawskaedukacja.pl","contact:website":"http:\/\/www.ppp2.wroc.pl","ref:regon":"932121446","ref:vatin":"PL8982073185","operator":"Gmina Wroc\u0142aw","operator:type":"government","healthcare":"councelling","counselling_type":"education","fixme":"w zale\u017cno\u015bci od przedmiotu dzia\u0142alno\u015bci (np. healthcare=councelling + counselling_type=education albo healthcare=psychotherapist)"}},{"id":272536,"type":"Feature","geometry":{"type":"Point","coordinates":[17.04569,51.12338]},"properties":{"ref:rspo":272536,"official_name":"Centrum Kreatywno\u015bci Talent","name":"Centrum Kreatywno\u015bci Talent","addr:country":"PL","addr:postcode":"50-301","addr:city":"Wroc\u0142aw","addr:street":"ul. Jedno\u015bci Narodowej","addr:housenumber":"117","addr:teryt:simc":7435,"addr:teryt:sym_ul":986952,"contact:phone":"+48 604783518","contact:email":"izabela.suleja@wroclawskaedukacja.pl","ref:regon":"384264804","operator":"Gmina Wroc\u0142aw","operator:type":"government","amenity":"community_centre","community_centre:for":"juvenile"}},{"id":265015,"type":"Feature","geometry":{"type":"Point","coordinates":[17.05205,51.12579]},"properties":{"ref:rspo":265015,"official_name":"Mk Szkolenia","name":"Mk Szkolenia","addr:country":"PL","addr:postcode":"50-306","addr:city":"Wroc\u0142aw","addr:street":"ul. Karola Miarki","addr:housenumber":"6-10","addr:teryt:simc":12674,"addr:teryt:sym_ul":986952,"contact:phone":"+48 605539276","contact:email":"mkszkolenia@gazeta.pl","contact:website":"http:\/\/www.mkszkolenia.pl","ref:regon":"368557482","operator":"Marek Kliszcz","operator:type":"private","fixme":"w zale\u017cno\u015bci od przedmiotu dzia\u0142alno\u015bci (np. amenity=training + training=*, amenity=dancing_school, amenity=language_school, amenity=music_school)"}},{"id":58187,"type":"Feature","geometry":{"type":"Point","coordinates":[17.0357,51.1261]},"properties":{"ref:rspo":58187,"official_name":"Dolno\u015bL\u0105ski O\u015brodek Doskonalenia Nauczycieli we Wroc\u0142awiu","name":"Dolno\u015bL\u0105ski O\u015brodek Doskonalenia Nauczycieli we Wroc\u0142awiu","addr:country":"PL","addr:postcode":"50-230","addr:city":"Wroc\u0142aw","addr:street":"ul. Trzebnicka","addr:housenumber":"42-44","addr:teryt:simc":23073,"addr:teryt:sym_ul":986952,"contact:phone":"+48 508691150","contact:email":"dodn@dodn.dolnyslask.pl","contact:website":"http:\/\/dodn.dolnyslask.pl","ref:regon":"021323592","operator":"Wojew\u00f3dztwo Dolno\u015bl\u0105skie","operator:type":"government","amenity":"training"}},{"id":14878,"type":"Feature","geometry":{"type":"Point","coordinates":[17.05286,51.1276]},"properties":{"isced:level":"1;2","ref:rspo":14878,"official_name":"Szko\u0142a Podstawowa Nr 78 im. Miko\u0142aja Kopernika","name":"Szko\u0142a Podstawowa Nr 78","addr:country":"PL","addr:postcode":"50-303","addr:city":"Wroc\u0142aw","addr:street":"ul. Jedno\u015bci Narodowej","addr:housenumber":"195","addr:teryt:simc":7435,"addr:teryt:sym_ul":986952,"contact:phone":"+48 717986865","contact:email":"sekretariat@sp78.wroclaw.pl","contact:website":"http:\/\/www.sp78.wroclaw.pl","ref:regon":"000692481","ref:vatin":"PL8981543536","operator":"Gmina Wroc\u0142aw","operator:type":"government","amenity":"school"}},{"id":273152,"type":"Feature","geometry":{"type":"Point","coordinates":[17.05778,51.1278]},"properties":{"ref:rspo":273152,"official_name":"Niepubliczny Punkt Przedszkolny Muzyczno-J\u0119zykowy J.s. Bacha Nr 2","name":"Niepubliczny Punkt Przedszkolny Muzyczno-J\u0119zykowy J.s. Bacha Nr 2","addr:country":"PL","addr:postcode":"50-305","addr:city":"Wroc\u0142aw","addr:street":"ul. Stefana Jaracza","addr:housenumber":"71D\/E","addr:teryt:simc":7240,"addr:teryt:sym_ul":986952,"contact:phone":"+48 507757544","contact:email":"przedszkole@bacha9.edu.pl","contact:website":"http:\/\/www.bacha9.edu.pl","ref:regon":"384390710","operator":"Mateusz G\u0105sior","operator:type":"private","amenity":"kindergarten"}},{"id":13234,"type":"Feature","geometry":{"type":"Point","coordinates":[17.03638,51.12856]},"properties":{"ref:rspo":13234,"official_name":"Zesp\u00f3\u0142 Szk\u00f3\u0142 Nr 9","name":"Zesp\u00f3\u0142 Szk\u00f3\u0142 Nr 9","addr:country":"PL","addr:postcode":"51-690","addr:city":"Wroc\u0142aw","addr:street":"ul. Rafa\u0142a Krajewskiego","addr:housenumber":"1","addr:teryt:simc":9782,"addr:teryt:sym_ul":986952,"contact:phone":"+48 717986906","contact:email":"sekretariat.zs09@wroclawskaedukacja.pl","contact:website":"http:\/\/www.zs9.wroclaw.pl\/","ref:regon":"020114610","ref:vatin":"PL8982070749","operator":"Gmina Wroc\u0142aw","operator:type":"government","landuse":"education","fixme":"amenity=school, amenity=college albo landuse=education w zale\u017cno\u015bci od tego, jakie plac\u00f3wki wchodz\u0105 w sk\u0142ad zespo\u0142u. Sprawd\u017a, kiedy stosowa\u0107 amenity=* a kiedy landuse=education.","note":"Children RSPO: 21894;103964;103965"}},{"id":21894,"type":"Feature","geometry":{"type":"Point","coordinates":[17.03638,51.12853]},"properties":{"isced:level":"1;2","ref:rspo":21894,"official_name":"Szko\u0142a Podstawowa Nr 45 im. Janusza Kusoci\u0144skiego","name":"Szko\u0142a Podstawowa Nr 45","addr:country":"PL","addr:postcode":"51-690","addr:city":"Wroc\u0142aw","addr:street":"ul. Rafa\u0142a Krajewskiego","addr:housenumber":"1","addr:teryt:simc":9782,"addr:teryt:sym_ul":986952,"contact:phone":"+48 717986906","contact:email":"sekretariat.zs09@wroclawskaedukacja.pl","contact:website":"http:\/\/www.zs9.wroclaw.pl","ref:regon":"000692417","ref:vatin":"PL8982070749","operator":"Gmina Wroc\u0142aw","operator:type":"government","amenity":"school","note":"Parent RSPO: 13234"}},{"id":103964,"type":"Feature","geometry":{"type":"Point","coordinates":[17.03638,51.1285]},"properties":{"isced:level":"1;2","ref:rspo":103964,"official_name":"Og\u00f3lnokszta\u0142c\u0105ca Szko\u0142a Muzyczna I Stopnia Nr 2 im. Fryderyka Chopina","name":"Og\u00f3lnokszta\u0142c\u0105ca Szko\u0142a Muzyczna I Stopnia Nr 2","addr:country":"PL","addr:postcode":"51-690","addr:city":"Wroc\u0142aw","addr:street":"ul. Rafa\u0142a Krajewskiego","addr:housenumber":"1","addr:teryt:simc":9782,"addr:teryt:sym_ul":986952,"contact:phone":"+48 717986906","contact:email":"sekretariat.zs09@wroclawskaedukacja.pl","contact:website":"http:\/\/www.zs9.wroclaw.pl","ref:regon":"020114580","ref:vatin":"PL8982070749","operator":"Gmina Wroc\u0142aw","operator:type":"government","amenity":"school","note":"Parent RSPO: 13234"}},{"id":103965,"type":"Feature","geometry":{"type":"Point","coordinates":[17.03638,51.12847]},"properties":{"ref:rspo":103965,"official_name":"Szko\u0142a Muzyczna I Stopnia Nr 2","name":"Szko\u0142a Muzyczna I Stopnia Nr 2","addr:country":"PL","addr:postcode":"51-690","addr:city":"Wroc\u0142aw","addr:street":"ul. Rafa\u0142a Krajewskiego","addr:housenumber":"1","addr:teryt:simc":9782,"addr:teryt:sym_ul":986952,"contact:phone":"+48 713481357","contact:email":"sekretariat.zs09@wroclawskaedukacja.pl","ref:regon":"020114573","ref:vatin":"PL8982070749","operator":"Gmina Wroc\u0142aw","operator:type":"government","amenity":"music_school","note":"Parent RSPO: 13234"}}]}