{"type":"FeatureCollection","features":[{"id":274524,"type":"Feature","geometry":{"type":"Point","coordinates":[16.9566,51.07847]},"properties":{"ref:rspo":274524,"official_name":"Publiczne Przedszkole \"Ma\u0142y Podr\u00f3\u017cnik\"","name":"Publiczne Przedszkole \"Ma\u0142y Podr\u00f3\u017cnik\"","addr:country":"PL","addr:postcode":"52-407","addr:city":"Wroc\u0142aw","addr:street":"ul. Mokronoska","addr:housenumber":"2a","addr:teryt:simc":13217,"addr:teryt:sym_ul":986290,"contact:phone":"+48 537676750","contact:email":"biuro@przedszkolemalypodroznik.pl","contact:website":"http:\/\/www.przedszkolemalypodroznik.pl","ref:regon":"385895270","operator":"Corso Edu Sp\u00f3\u0142ka Z Ograniczon\u0105 Odpowiedzialno\u015bci\u0105","operator:type":"private","amenity":"kindergarten"}},{"id":124622,"type":"Feature","geometry":{"type":"Point","coordinates":[16.97196,51.08088]},"properties":{"ref:rspo":124622,"official_name":"Niepubliczny Punkt Przedszkolny Dzie\u0144 Dobry","name":"Niepubliczny Punkt Przedszkolny Dzie\u0144 Dobry","addr:country":"PL","addr:postcode":"52-418","addr:city":"Wroc\u0142aw","addr:street":"ul. Marcina Bukowskiego","addr:housenumber":"18","addr:teryt:simc":2400,"addr:teryt:sym_ul":986290,"contact:phone":"+48 790720204","contact:email":"dziendobryprzedszkole@gmail.com","ref:regon":"022489917","operator":"Ilona Knapik","operator:type":"private","amenity":"kindergarten"}},{"id":14873,"type":"Feature","geometry":{"type":"Point","coordinates":[16.98961,51.0822999]},"properties":{"isced:level":"1;2","ref:rspo":14873,"official_name":"Szko\u0142a Podstawowa Nr 82 im. Budowniczych Wroc\u0142awia","name":"Szko\u0142a Podstawowa Nr 82","addr:country":"PL","addr:postcode":"53-206","addr:city":"Wroc\u0142aw","addr:street":"ul. Blacharska","addr:housenumber":"13","addr:teryt:simc":1395,"addr:teryt:sym_ul":986290,"contact:phone":"+48 717986868","contact:email":"sekretariat.sp082@wroclawskaedukacja.pl","contact:website":"https:\/\/sp82wroclaw.edupage.org","ref:regon":"000693240","ref:vatin":"PL8941966638","operator":"Gmina Wroc\u0142aw","operator:type":"government","amenity":"school"}},{"id":23239,"type":"Feature","geometry":{"type":"Point","coordinates":[17.00242,51.08264]},"properties":{"ref:rspo":23239,"official_name":"Przedszkole Nr 61 Gajowickie Skrzaty","name":"Przedszkole Nr 61 Gajowickie Skrzaty","addr:country":"PL","addr:postcode":"53-150","addr:city":"Wroc\u0142aw","addr:street":"ul. Gajowicka","addr:housenumber":"199","addr:teryt:simc":5266,"addr:teryt:sym_ul":986290,"contact:phone":"+48 717986804","contact:email":"sekretariat.p061@wroclawskaedukacja.pl","contact:website":"https:\/\/przedszkole61.edu.wroclaw.pl\/","ref:regon":"930112680","ref:vatin":"PL8942620095","operator":"Gmina Wroc\u0142aw","operator:type":"government","amenity":"kindergarten"}},{"id":129014,"type":"Feature","geometry":{"type":"Point","coordinates":[16.99084,51.08461]},"properties":{"ref:rspo":129014,"official_name":"Niepubliczny Punkt Przedszkolny \"Seedlings\"","name":"Niepubliczny Punkt Przedszkolny \"Seedlings\"","addr:country":"PL","addr:postcode":"53-205","addr:city":"Wroc\u0142aw","addr:street":"ul. Stolarska","addr:housenumber":"2","addr:door":"1","addr:teryt:simc":21231,"addr:teryt:sym_ul":986290,"contact:phone":"+48 535771377","contact:email":"biuro@wroclawchildrenshouse.pl","contact:website":"http:\/\/www.seedlings.edu.pl","ref:regon":"362479380","operator":"Zuzanna Danilewicz","operator:type":"private","amenity":"kindergarten"}},{"id":23868,"type":"Feature","geometry":{"type":"Point","coordinates":[16.99909,51.09114]},"properties":{"isced:level":"1;2","ref:rspo":23868,"official_name":"Chrze\u015bcija\u0144ska Szko\u0142a Podstawowa \"Arka\"","name":"Chrze\u015bcija\u0144ska Szko\u0142a Podstawowa \"Arka\"","addr:country":"PL","addr:postcode":"53-404","addr:city":"Wroc\u0142aw","addr:street":"ul. Stalowowolska","addr:housenumber":"24","addr:door":"26","addr:teryt:simc":20811,"addr:teryt:sym_ul":986290,"contact:phone":"+48 717879750","contact:email":"sekretariat@arka.edu.pl","contact:website":"http:\/\/www.arka.edu.pl","ref:regon":"021995104","operator":"Stowarzyszenie Edukacyjne Chrze\u015bcijan \"Arka\"","operator:type":"ngo","amenity":"school"}},{"id":26773,"type":"Feature","geometry":{"type":"Point","coordinates":[17.00134,51.09116]},"properties":{"ref:rspo":26773,"official_name":"Zak\u0142ad Szkolenia I Doskonalenia Kadr","name":"Zak\u0142ad Szkolenia I Doskonalenia Kadr","addr:country":"PL","addr:postcode":"53-301","addr:city":"Wroc\u0142aw","addr:street":"ul. Mielecka","addr:housenumber":"27","addr:teryt:simc":12784,"addr:teryt:sym_ul":986290,"contact:phone":"+48 713417608","contact:email":"biuro@kursy-zawodowe.com.pl","contact:website":"http:\/\/www.kursy-zawodowe.com.pl","ref:regon":"021985494","operator":"Henryk Sw\u00f3\u0142","operator:type":"private","fixme":"w zale\u017cno\u015bci od przedmiotu dzia\u0142alno\u015bci (np. amenity=training + training=*, amenity=dancing_school, amenity=language_school, amenity=music_school)"}},{"id":23607,"type":"Feature","geometry":{"type":"Point","coordinates":[16.98538,51.09288]},"properties":{"ref:rspo":23607,"official_name":"Przedszkole Nr 96 Pod Weso\u0142ym S\u0142onkiem","name":"Przedszkole Nr 96 Pod Weso\u0142ym S\u0142onkiem","addr:country":"PL","addr:postcode":"53-231","addr:city":"Wroc\u0142aw","addr:street":"al. Pracy","addr:housenumber":"29a","addr:teryt:simc":17434,"addr:teryt:sym_ul":986290,"contact:phone":"+48 717986826","contact:email":"sekretariat.p096@wroclawskaedukacja.pl","contact:website":"http:\/\/www.przedszkole96.edu.wroclaw.pl","ref:regon":"930112779","ref:vatin":"PL8942567751","operator":"Gmina Wroc\u0142aw","operator:type":"government","amenity":"kindergarten"}},{"id":47645,"type":"Feature","geometry":{"type":"Point","coordinates":[16.9768,51.09291]},"properties":{"ref:rspo":47645,"official_name":"Przedszkole Nr 117 Fio\u0142kowa Kraina","name":"Przedszkole Nr 117 Fio\u0142kowa Kraina","addr:country":"PL","addr:postcode":"53-239","addr:city":"Wroc\u0142aw","addr:street":"ul. Fio\u0142kowa","addr:housenumber":"7a","addr:teryt:simc":5027,"addr:teryt:sym_ul":986290,"contact:phone":"+48 717986757","contact:email":"sekretariat.p117@wroclawskaedukacja.pl","contact:website":"http:\/\/przedszkole117.edu.wroclaw.pl","ref:regon":"930112839","ref:vatin":"PL8942598421","operator":"Gmina Wroc\u0142aw","operator:type":"government","amenity":"kindergarten"}},{"id":130398,"type":"Feature","geometry":{"type":"Point","coordinates":[17.00813,51.09302]},"properties":{"ref:rspo":130398,"official_name":"Publiczne Przedszkole Prymusek","name":"Publiczne Przedszkole Prymusek","addr:country":"PL","addr:postcode":"53-407","addr:city":"Wroc\u0142aw","addr:street":"ul. Gajowicka","addr:housenumber":"121","addr:teryt:simc":5266,"addr:teryt:sym_ul":986290,"contact:phone":"+48 885568068","contact:email":"prymusek@prymusek.com.pl","contact:website":"http:\/\/www.prymusek.com.pl","ref:regon":"363974979","operator":"Renata Olejnik","operator:type":"private","amenity":"kindergarten"}},{"id":277683,"type":"Feature","geometry":{"type":"Point","coordinates":[16.99878,51.09315]},"properties":{"ref:rspo":277683,"official_name":"Zesp\u00f3\u0142 Przedszkoli Nr 1","name":"Zesp\u00f3\u0142 Przedszkoli Nr 1","addr:country":"PL","addr:postcode":"53-404","addr:city":"Wroc\u0142aw","addr:street":"ul. Kolbuszowska","addr:housenumber":"6","addr:teryt:simc":8814,"addr:teryt:sym_ul":986290,"contact:phone":"+48 717986783","contact:email":"sekretariat.p031@wroclawskaedukacja.pl","contact:website":"http:\/\/www.przedszkole31wroc.pl","ref:regon":"389346441","operator":"Gmina Wroc\u0142aw","operator:type":"government","landuse":"education","fixme":"amenity=school, amenity=college albo landuse=education w zale\u017cno\u015bci od tego, jakie plac\u00f3wki wchodz\u0105 w sk\u0142ad zespo\u0142u. Sprawd\u017a, kiedy stosowa\u0107 amenity=* a kiedy landuse=education.","note":"Children RSPO: 23612;55998"}},{"id":55998,"type":"Feature","geometry":{"type":"Point","coordinates":[16.99878,51.09312]},"properties":{"ref:rspo":55998,"official_name":"Przedszkole Nr 31 im. Janiny Porazi\u0144skiej","name":"Przedszkole Nr 31","addr:country":"PL","addr:postcode":"53-404","addr:city":"Wroc\u0142aw","addr:street":"ul. Kolbuszowska","addr:housenumber":"6","addr:teryt:simc":8814,"addr:teryt:sym_ul":986290,"contact:phone":"+48 717986783","contact:email":"sekretariat.p031@wroclawskaedukacja.pl","contact:website":"http:\/\/www.przedszkole31wroc.pl","ref:regon":"930112667","ref:vatin":"PL8942806256","operator":"Gmina Wroc\u0142aw","operator:type":"government","amenity":"kindergarten","note":"Parent RSPO: 277683"}},{"id":11478,"type":"Feature","geometry":{"type":"Point","coordinates":[17.01508,51.0935599]},"properties":{"isced:level":"3","ref:rspo":11478,"official_name":"Liceum Og\u00f3lnokszta\u0142c\u0105ce Nr VIII im. Boles\u0142awa Krzywoustego","name":"Liceum Og\u00f3lnokszta\u0142c\u0105ce Nr VIII","addr:country":"PL","addr:postcode":"53-415","addr:city":"Wroc\u0142aw","addr:street":"ul. Zaporoska","addr:housenumber":"71","addr:teryt:simc":25637,"addr:teryt:sym_ul":986290,"contact:phone":"+48 717986736","contact:email":"sekretariat.lo08@wroclawskaedukacja.pl","contact:website":"http:\/\/www.lo8.wroc.pl","ref:regon":"001247850","ref:vatin":"PL8961004463","operator":"Gmina Wroc\u0142aw","operator:type":"government","amenity":"school"}},{"id":11477,"type":"Feature","geometry":{"type":"Point","coordinates":[17.00607,51.09363]},"properties":{"isced:level":"3","ref:rspo":11477,"official_name":"Liceum Og\u00f3lnokszta\u0142c\u0105ce Nr VII im. Krzysztofa Kamila Baczy\u0144skiego","name":"Liceum Og\u00f3lnokszta\u0142c\u0105ce Nr VII","addr:country":"PL","addr:postcode":"53-410","addr:city":"Wroc\u0142aw","addr:street":"ul. Krucza","addr:housenumber":"49","addr:teryt:simc":10013,"addr:teryt:sym_ul":986290,"contact:phone":"+48 717986735","contact:email":"lo7@lo7.wroc.pl","contact:website":"http:\/\/www.lo7.wroc.pl","ref:regon":"000210766","ref:vatin":"PL8942332249","operator":"Gmina Wroc\u0142aw","operator:type":"government","amenity":"school"}},{"id":20914,"type":"Feature","geometry":{"type":"Point","coordinates":[17.00655,51.09368]},"properties":{"ref:rspo":20914,"official_name":"Poradnia Psychologiczno-Pedagogiczna Nr 4","name":"Poradnia Psychologiczno-Pedagogiczna Nr 4","addr:country":"PL","addr:postcode":"53-426","addr:city":"Wroc\u0142aw","addr:street":"ul. Jemio\u0142owa","addr:housenumber":"59","addr:teryt:simc":7477,"addr:teryt:sym_ul":986290,"contact:phone":"+48 717986830","contact:email":"sekretariat.ppp4@wroclawskaedukacja.pl","contact:website":"http:\/\/www.ppp4.wroc.pl","ref:regon":"932605144","ref:vatin":"PL8942567716","operator":"Gmina Wroc\u0142aw","operator:type":"government","healthcare":"councelling","counselling_type":"education","fixme":"w zale\u017cno\u015bci od przedmiotu dzia\u0142alno\u015bci (np. healthcare=councelling + counselling_type=education albo healthcare=psychotherapist)"}},{"id":23219,"type":"Feature","geometry":{"type":"Point","coordinates":[16.98952,51.09386]},"properties":{"ref:rspo":23219,"official_name":"Przedszkole Nr 59 U Krasnala Pod Narcyzem","name":"Przedszkole Nr 59 U Krasnala Pod Narcyzem","addr:country":"PL","addr:postcode":"53-225","addr:city":"Wroc\u0142aw","addr:street":"ul. Narcyzowa","addr:housenumber":"6","addr:teryt:simc":13998,"addr:teryt:sym_ul":986290,"contact:phone":"+48 717986802","contact:email":"sekretariat.p059@wroclawskaedukacja.pl","contact:website":"http:\/\/przedszkole59wroc.edupage.org","ref:regon":"000209007","ref:vatin":"PL8942565999","operator":"Gmina Wroc\u0142aw","operator:type":"government","amenity":"kindergarten"}},{"id":268278,"type":"Feature","geometry":{"type":"Point","coordinates":[16.98738,51.0939]},"properties":{"isced:level":"1;2","ref:rspo":268278,"official_name":"Niepubliczna Specjalna Szko\u0142a Podstawowa dla Dzieci Z Zaburzeniami Ze Spektrum Autyzmu Kolorowa Akademia","name":"Niepubliczna Specjalna Szko\u0142a Podstawowa dla Dzieci Z Zaburzeniami Ze Spektrum Autyzmu Kolorowa Akademia","addr:country":"PL","addr:postcode":"53-129","addr:city":"Wroc\u0142aw","addr:street":"al. Pracy","addr:housenumber":"24","addr:teryt:simc":17434,"addr:teryt:sym_ul":986290,"contact:phone":"+48 609628537","contact:email":"kolorowawroclaw@gmail.com","contact:website":"http:\/\/kolorowaakademia.eu","ref:regon":"381082468","operator":"\"Kolorowa Inicjatywa\"","operator:type":"ngo","amenity":"school"}},{"id":124469,"type":"Feature","geometry":{"type":"Point","coordinates":[17.00682,51.09414]},"properties":{"isced:level":"1;2","ref:rspo":124469,"official_name":"Szko\u0142a Podstawowa Tikkun Olam","name":"Szko\u0142a Podstawowa Tikkun Olam","addr:country":"PL","addr:postcode":"53-426","addr:city":"Wroc\u0142aw","addr:street":"ul. Jemio\u0142owa","addr:housenumber":"57","addr:teryt:simc":7477,"addr:teryt:sym_ul":986290,"contact:phone":"+48 792610080","contact:email":"szkola@tikkunolam.pl","contact:website":"http:\/\/www.tikkunolam.pl","ref:regon":"022486340","operator":"Fundacja Radosna Edukacja","operator:type":"ngo","amenity":"school"}},{"id":14794,"type":"Feature","geometry":{"type":"Point","coordinates":[16.98596,51.09417]},"properties":{"isced:level":"1;2","ref:rspo":14794,"official_name":"Szko\u0142a Podstawowa Nr 109 im. Edwarda Dembowskiego","name":"Szko\u0142a Podstawowa Nr 109","addr:country":"PL","addr:postcode":"53-230","addr:city":"Wroc\u0142aw","addr:street":"ul. In\u017cynierska","addr:housenumber":"54","addr:teryt:simc":6923,"addr:teryt:sym_ul":986290,"contact:phone":"+48 717986839","contact:email":"sekretariat.sp109@wroclawskaedukacja.pl","contact:website":"http:\/\/www.sp109wroclaw.pl","ref:regon":"000693291","ref:vatin":"PL8961003914","operator":"Gmina Wroc\u0142aw","operator:type":"government","amenity":"school"}},{"id":42886,"type":"Feature","geometry":{"type":"Point","coordinates":[16.98386,51.09474]},"properties":{"ref:rspo":42886,"official_name":"Zesp\u00f3\u0142 Szk\u00f3\u0142 Budowlanych","name":"Zesp\u00f3\u0142 Szk\u00f3\u0142 Budowlanych","addr:country":"PL","addr:postcode":"53-235","addr:city":"Wroc\u0142aw","addr:street":"ul. Grabiszy\u0144ska","addr:housenumber":"236","addr:teryt:simc":6021,"addr:teryt:sym_ul":986290,"contact:phone":"+48 717986907","contact:email":"sekretariat.zsb@wroclawskaedukacja.pl","contact:website":"http:\/\/www.zsb-wroc.edupage.org","ref:regon":"000189701","ref:vatin":"PL8942320536","operator":"Gmina Wroc\u0142aw","operator:type":"government","landuse":"education","fixme":"amenity=school, amenity=college albo landuse=education w zale\u017cno\u015bci od tego, jakie plac\u00f3wki wchodz\u0105 w sk\u0142ad zespo\u0142u. Sprawd\u017a, kiedy stosowa\u0107 amenity=* a kiedy landuse=education.","note":"Children RSPO: 90645;90646;274844"}},{"id":90645,"type":"Feature","geometry":{"type":"Point","coordinates":[16.98386,51.09471]},"properties":{"isced:level":"3","ref:rspo":90645,"official_name":"Technikum Nr 11 im. Gen. J\u00f3zefa Bema","name":"Technikum Nr 11","addr:country":"PL","addr:postcode":"53-235","addr:city":"Wroc\u0142aw","addr:street":"ul. Grabiszy\u0144ska","addr:housenumber":"236","addr:teryt:simc":6021,"addr:teryt:sym_ul":986290,"contact:phone":"+48 717986907","contact:email":"sekretariat.zsb@wroclawskaedukacja.pl","contact:website":"http:\/\/www.zsb-wroc.edupage.org","ref:regon":"020480390","ref:vatin":"PL8942320536","operator":"Gmina Wroc\u0142aw","operator:type":"government","amenity":"school","note":"Parent RSPO: 42886"}},{"id":90646,"type":"Feature","geometry":{"type":"Point","coordinates":[16.98386,51.094680000000004]},"properties":{"isced:level":"3","ref:rspo":90646,"official_name":"Bran\u017cowa Szko\u0142a I Stopnia Nr 4 im. Gen. J\u00f3zefa Bema","name":"Bran\u017cowa Szko\u0142a I Stopnia Nr 4","addr:country":"PL","addr:postcode":"53-235","addr:city":"Wroc\u0142aw","addr:street":"ul. Grabiszy\u0144ska","addr:housenumber":"236","addr:teryt:simc":6021,"addr:teryt:sym_ul":986290,"contact:phone":"+48 717986907","contact:email":"sekretariat.zsb@wroclawskaedukacja.pl","contact:website":"http:\/\/www.zsb-wroc.edupage.org","ref:regon":"932834703","ref:vatin":"PL8942320536","operator":"Gmina Wroc\u0142aw","operator:type":"government","amenity":"school","note":"Parent RSPO: 42886"}},{"id":274844,"type":"Feature","geometry":{"type":"Point","coordinates":[16.98386,51.09465]},"properties":{"isced:level":"3","ref:rspo":274844,"official_name":"Bran\u017cowa Szko\u0142a II Stopnia Nr 4 im. Gen. J\u00f3zefa Bema","name":"Bran\u017cowa Szko\u0142a II Stopnia Nr 4","addr:country":"PL","addr:postcode":"53-235","addr:city":"Wroc\u0142aw","addr:street":"ul. Grabiszy\u0144ska","addr:housenumber":"236","addr:teryt:simc":6021,"addr:teryt:sym_ul":986290,"contact:phone":"+48 717986907","contact:email":"sekretariat.zsb@wroclawskaedukacja.pl","contact:website":"http:\/\/www.zsb-wroc.edupage.org","ref:regon":"386337281","operator":"Gmina Wroc\u0142aw","operator:type":"government","amenity":"school","note":"Parent RSPO: 42886"}},{"id":133427,"type":"Feature","geometry":{"type":"Point","coordinates":[16.97346,51.09493]},"properties":{"ref:rspo":133427,"official_name":"Specjalistyczna Niepubliczna Poradnia Psychologiczno-Pedagogiczna \"Unlock\" dla Dzieci Ze Spektrum Autyzmu","name":"Specjalistyczna Niepubliczna Poradnia Psychologiczno-Pedagogiczna \"Unlock\" dla Dzieci Ze Spektrum Autyzmu","addr:country":"PL","addr:postcode":"53-238","addr:city":"Wroc\u0142aw","addr:street":"ul. Aleksandra Ostrowskiego","addr:housenumber":"30","addr:teryt:simc":15392,"addr:teryt:sym_ul":986290,"contact:phone":"+48 721820164","contact:email":"poradnia@unlock.wroclaw.pl","ref:regon":"367278018","operator":"Stowarzyszenie Na Rzecz Edukacji, Terapii I Wspomagania Dzieci Z Asd \"Unlock\"","operator:type":"ngo","healthcare":"councelling","counselling_type":"education","fixme":"w zale\u017cno\u015bci od przedmiotu dzia\u0142alno\u015bci (np. healthcare=councelling + counselling_type=education albo healthcare=psychotherapist)"}},{"id":272355,"type":"Feature","geometry":{"type":"Point","coordinates":[16.97346,51.094899999999996]},"properties":{"ref:rspo":272355,"official_name":"Zesp\u00f3\u0142 Szk\u00f3\u0142 Niepublicznych \"Unlock\"","name":"Zesp\u00f3\u0142 Szk\u00f3\u0142 Niepublicznych \"Unlock\"","addr:country":"PL","addr:postcode":"53-238","addr:city":"Wroc\u0142aw","addr:street":"ul. Aleksandra Ostrowskiego","addr:housenumber":"30","addr:teryt:simc":15392,"addr:teryt:sym_ul":986290,"contact:phone":"+48 713347870","contact:email":"zespolszkol@unlock.wroclaw.pl","contact:website":"http:\/\/www.unlock.wroclaw.pl","ref:regon":"384149664","operator":"Stowarzyszenie Na Rzecz Edukacji, Terapii I Wspomagania Dzieci Z Asd \"Unlock\"","operator:type":"ngo","landuse":"education","fixme":"amenity=school, amenity=college albo landuse=education w zale\u017cno\u015bci od tego, jakie plac\u00f3wki wchodz\u0105 w sk\u0142ad zespo\u0142u. Sprawd\u017a, kiedy stosowa\u0107 amenity=* a kiedy landuse=education.","note":"Children RSPO: 126616;269272"}},{"id":126616,"type":"Feature","geometry":{"type":"Point","coordinates":[16.97346,51.09487]},"properties":{"isced:level":"1;2","ref:rspo":126616,"official_name":"Niepubliczna Szko\u0142a Podstawowa \"Unlock\" we Wroc\u0142awiu","name":"Niepubliczna Szko\u0142a Podstawowa \"Unlock\" we Wroc\u0142awiu","addr:country":"PL","addr:postcode":"53-238","addr:city":"Wroc\u0142aw","addr:street":"ul. Aleksandra Ostrowskiego","addr:housenumber":"30","addr:teryt:simc":15392,"addr:teryt:sym_ul":986290,"contact:phone":"+48 713347870","contact:email":"zespolszkol@unlock.wroclaw.pl","contact:website":"http:\/\/unlock.wroclaw.pl","ref:regon":"360577150","operator":"Stowarzyszenie Na Rzecz Edukacji, Terapii I Wspomagania Dzieci Z Asd \"Unlock\"","operator:type":"ngo","amenity":"school","note":"Parent RSPO: 272355"}},{"id":269272,"type":"Feature","geometry":{"type":"Point","coordinates":[16.97346,51.09484]},"properties":{"isced:level":"3","ref:rspo":269272,"official_name":"Niepubliczna Szko\u0142a Bran\u017cowa \"Unlock\" I Stopnia","name":"Niepubliczna Szko\u0142a Bran\u017cowa \"Unlock\" I Stopnia","addr:country":"PL","addr:postcode":"53-238","addr:city":"Wroc\u0142aw","addr:street":"ul. Aleksandra Ostrowskiego","addr:housenumber":"30","addr:teryt:simc":15392,"addr:teryt:sym_ul":986290,"contact:phone":"+48 713347870","contact:email":"zespolszkol@unlock.wroclaw.pl","contact:website":"http:\/\/unlock.wroclaw.pl","ref:regon":"381439456","operator":"Stowarzyszenie Na Rzecz Edukacji, Terapii I Wspomagania Dzieci Z Asd \"Unlock\"","operator:type":"ngo","amenity":"school","note":"Parent RSPO: 272355"}},{"id":14628,"type":"Feature","geometry":{"type":"Point","coordinates":[16.95084,51.0952]},"properties":{"ref:rspo":14628,"official_name":"Zesp\u00f3\u0142 Szkolno-Przedszkolny Nr 15","name":"Zesp\u00f3\u0142 Szkolno-Przedszkolny Nr 15","addr:country":"PL","addr:postcode":"54-611","addr:city":"Wroc\u0142aw","addr:street":"ul. Stanis\u0142awowska","addr:housenumber":"38-44","addr:teryt:simc":20831,"addr:teryt:sym_ul":986290,"contact:phone":"+48 717831450","contact:email":"sekretariat.zsp15@wroclawskaedukacja.pl","contact:website":"http:\/\/www.sp25wroclaw.pl","ref:regon":"021009520","ref:vatin":"PL8942978336","operator":"Gmina Wroc\u0142aw","operator:type":"government","landuse":"education","fixme":"amenity=school, amenity=college albo landuse=education w zale\u017cno\u015bci od tego, jakie plac\u00f3wki wchodz\u0105 w sk\u0142ad zespo\u0142u. Sprawd\u017a, kiedy stosowa\u0107 amenity=* a kiedy landuse=education.","note":"Children RSPO: 21530;23344"}},{"id":21530,"type":"Feature","geometry":{"type":"Point","coordinates":[16.95084,51.095169999999996]},"properties":{"isced:level":"1;2","ref:rspo":21530,"official_name":"Szko\u0142a Podstawowa Nr 25 im. Franciszka Juszczaka","name":"Szko\u0142a Podstawowa Nr 25","addr:country":"PL","addr:postcode":"54-611","addr:city":"Wroc\u0142aw","addr:street":"ul. Stanis\u0142awowska","addr:housenumber":"38-44","addr:teryt:simc":20831,"addr:teryt:sym_ul":986290,"contact:phone":"+48 717986921","contact:email":"sekretariat.zsp15@wroclawskaedukacja.pl","contact:website":"http:\/\/www.sp25wroclaw.pl","ref:regon":"000693368","operator":"Gmina Wroc\u0142aw","operator:type":"government","amenity":"school","note":"Parent RSPO: 14628"}},{"id":23344,"type":"Feature","geometry":{"type":"Point","coordinates":[16.95084,51.09514]},"properties":{"ref:rspo":23344,"official_name":"Przedszkole Nr 11 Akademia Krasnala","name":"Przedszkole Nr 11 Akademia Krasnala","addr:country":"PL","addr:postcode":"54-611","addr:city":"Wroc\u0142aw","addr:street":"ul. Stanis\u0142awowska","addr:housenumber":"38-44","addr:teryt:simc":20831,"addr:teryt:sym_ul":986290,"contact:phone":"+48 717831450","contact:email":"sekretariat.zsp15@wroclawskaedukacja.pl","contact:website":"http:\/\/przedszkole11wroc.pl","ref:regon":"021009571","operator":"Gmina Wroc\u0142aw","operator:type":"government","amenity":"kindergarten","note":"Parent RSPO: 14628"}},{"id":115299,"type":"Feature","geometry":{"type":"Point","coordinates":[16.94934,51.09568]},"properties":{"ref:rspo":115299,"official_name":"Niepubliczne Przedszkole Si\u00f3str Salezjanek we Wroc\u0142awiu","name":"Niepubliczne Przedszkole Si\u00f3str Salezjanek we Wroc\u0142awiu","addr:country":"PL","addr:postcode":"54-611","addr:city":"Wroc\u0142aw","addr:street":"ul. Stanis\u0142awowska","addr:housenumber":"46","addr:teryt:simc":20831,"addr:teryt:sym_ul":986290,"contact:phone":"+48 713743003","contact:email":"wroclawjp@cmw.osw.pl","ref:regon":"022033525","operator":"Zgromadzenie C\u00f3rek Maryi Wspomo\u017cycielki (Siostry Salezjanki) Inspektoria Wroc\u0142awska","operator:type":"religious","amenity":"kindergarten"}},{"id":72608,"type":"Feature","geometry":{"type":"Point","coordinates":[17.0087,51.09599]},"properties":{"ref:rspo":72608,"official_name":"Bursa Szkolna","name":"Bursa Szkolna","addr:country":"PL","addr:postcode":"53-426","addr:city":"Wroc\u0142aw","addr:street":"ul. Jemio\u0142owa","addr:housenumber":"46\/48","addr:teryt:simc":7477,"addr:teryt:sym_ul":986290,"contact:phone":"+48 713615813","contact:email":"kontakt@bursa.pnet.pl","contact:website":"http:\/\/www.bursa.pnet.pl","ref:regon":"022007723","operator":"Stowarzyszenie Wspierania Burs I Internat\u00f3w \"Adept\"","operator:type":"ngo","building":"dormitory"}},{"id":118429,"type":"Feature","geometry":{"type":"Point","coordinates":[16.99424,51.09637]},"properties":{"ref:rspo":118429,"official_name":"Dzieci\u0119ce Studium Baletowe \"Balerinka\"","name":"Dzieci\u0119ce Studium Baletowe \"Balerinka\"","addr:country":"PL","addr:postcode":"53-226","addr:city":"Wroc\u0142aw","addr:street":"ul. R\u00f3\u017cana","addr:housenumber":"4-6","addr:teryt:simc":19000,"addr:teryt:sym_ul":986290,"contact:phone":"+48 693128307","contact:email":"dsbalerinka@interia.pl","contact:website":"http:\/\/balerinka.e-syntax.com","ref:regon":"022211174","operator":"Maria Bia\u0142ecka","operator:type":"private","fixme":"w zale\u017cno\u015bci od przedmiotu dzia\u0142alno\u015bci (np. amenity=training + training=*, amenity=dancing_school, amenity=language_school, amenity=music_school)"}},{"id":41882,"type":"Feature","geometry":{"type":"Point","coordinates":[17.00601,51.09646]},"properties":{"ref:rspo":41882,"official_name":"Przedszkole Integracyjne Nr 93 im. Jana Brzechwy","name":"Przedszkole Integracyjne Nr 93","addr:country":"PL","addr:postcode":"53-423","addr:city":"Wroc\u0142aw","addr:street":"ul. Grochowa","addr:housenumber":"15","addr:teryt:simc":6133,"addr:teryt:sym_ul":986290,"contact:phone":"+48 717986823","contact:email":"rwajda2006@wroclawskaedukacja.pl","contact:website":"http:\/\/www.przedszkole93.com","ref:regon":"930112733","ref:vatin":"PL8942548044","operator":"Gmina Wroc\u0142aw","operator:type":"government","amenity":"kindergarten"}},{"id":133944,"type":"Feature","geometry":{"type":"Point","coordinates":[17.0072699,51.09695]},"properties":{"isced:level":"1;2","ref:rspo":133944,"official_name":"Spo\u0142eczna Szko\u0142a Podstawowa Z Oddzia\u0142ami Integracyjnymi \"Amigo\"","name":"Spo\u0142eczna Szko\u0142a Podstawowa Z Oddzia\u0142ami Integracyjnymi \"Amigo\"","addr:country":"PL","addr:postcode":"53-428","addr:city":"Wroc\u0142aw","addr:street":"ul. \u017belazna","addr:housenumber":"36","addr:teryt:simc":26433,"addr:teryt:sym_ul":986290,"contact:phone":"+48 713615263","contact:email":"amigo@amigo.wroclaw.pl","contact:website":"http:\/\/www.amigo.wroclaw.pl","ref:regon":"367749363","operator":"Stowarzyszenie Edukacji Integracyjnej","operator:type":"ngo","amenity":"school"}},{"id":21825,"type":"Feature","geometry":{"type":"Point","coordinates":[17.00353,51.09701]},"properties":{"isced:level":"1;2","ref:rspo":21825,"official_name":"Szko\u0142a Podstawowa Nr 43 Z Oddzia\u0142ami Integracyjnymi im. Jana Kaczmarka","name":"Szko\u0142a Podstawowa Nr 43 Z Oddzia\u0142ami Integracyjnymi","addr:country":"PL","addr:postcode":"53-424","addr:city":"Wroc\u0142aw","addr:street":"ul. Grochowa","addr:housenumber":"36-38","addr:teryt:simc":6133,"addr:teryt:sym_ul":986290,"contact:phone":"+48 717986887","contact:email":"sp43.wroc.edu@o2.pl","contact:website":"http:\/\/www.sp43.wroclaw.pl","ref:regon":"932899281","operator":"Gmina Wroc\u0142aw","operator:type":"government","amenity":"school"}},{"id":47640,"type":"Feature","geometry":{"type":"Point","coordinates":[17.00902,51.09837]},"properties":{"ref:rspo":47640,"official_name":"Przedszkole Nr 88","name":"Przedszkole Nr 88","addr:country":"PL","addr:postcode":"53-445","addr:city":"Wroc\u0142aw","addr:street":"ul. Szcz\u0119\u015bliwa","addr:housenumber":"9-11","addr:teryt:simc":21846,"addr:teryt:sym_ul":986290,"contact:phone":"+48 717986818","contact:email":"sekretariat.p088@wroclawskaedukacja.pl","contact:website":"http:\/\/p88wroc.eprzedszkola.pl","ref:regon":"930112710","ref:vatin":"PL8942565019","operator":"Gmina Wroc\u0142aw","operator:type":"government","amenity":"kindergarten"}},{"id":14858,"type":"Feature","geometry":{"type":"Point","coordinates":[17.01155,51.0984399]},"properties":{"isced:level":"1;2","ref:rspo":14858,"official_name":"Szko\u0142a Podstawowa Nr 68 im. II Tysi\u0105clecia Wroc\u0142awia","name":"Szko\u0142a Podstawowa Nr 68","addr:country":"PL","addr:postcode":"53-446","addr:city":"Wroc\u0142aw","addr:street":"ul. Szcz\u0119\u015bliwa","addr:housenumber":"28","addr:teryt:simc":21846,"addr:teryt:sym_ul":986290,"contact:phone":"+48 717986859","contact:email":"sekretariat.sp068@wroclawskaedukacja.pl","contact:website":"http:\/\/www.sp68.wroclaw.pl","ref:regon":"000693233","ref:vatin":"PL8961001312","operator":"Gmina Wroc\u0142aw","operator:type":"government","amenity":"school"}},{"id":130695,"type":"Feature","geometry":{"type":"Point","coordinates":[17.01155,51.0984099]},"properties":{"ref:rspo":130695,"official_name":"Ars Educandi","name":"Ars Educandi","addr:country":"PL","addr:postcode":"53-446","addr:city":"Wroc\u0142aw","addr:street":"ul. Szcz\u0119\u015bliwa","addr:housenumber":"28","addr:teryt:simc":21846,"addr:teryt:sym_ul":986290,"contact:phone":"+48 531883131","contact:email":"biuro@fundacjaszczesliwa.pl","contact:website":"http:\/\/www.fundacjaszczesliwa.pl","ref:regon":"364385268","operator":"Fundacja Edukacyjna \"Szcz\u0119\u015bliwa\"","operator:type":"ngo","fixme":"w zale\u017cno\u015bci od przedmiotu dzia\u0142alno\u015bci (np. amenity=training + training=*, amenity=dancing_school, amenity=language_school, amenity=music_school)"}},{"id":55997,"type":"Feature","geometry":{"type":"Point","coordinates":[16.9415799,51.09875]},"properties":{"ref:rspo":55997,"official_name":"Przedszkole Nr 22 Muchoborek","name":"Przedszkole Nr 22 Muchoborek","addr:country":"PL","addr:postcode":"54-611","addr:city":"Wroc\u0142aw","addr:street":"ul. Stanis\u0142awowska","addr:housenumber":"90","addr:teryt:simc":20831,"addr:teryt:sym_ul":986290,"contact:phone":"+48 717986778","contact:email":"sekretariat.p022@wroclawskaedukacja.pl","contact:website":"http:\/\/p22muchoborek.edupage.org","ref:regon":"930112644","ref:vatin":"PL8942483770","operator":"Gmina Wroc\u0142aw","operator:type":"government","amenity":"kindergarten"}},{"id":110333,"type":"Feature","geometry":{"type":"Point","coordinates":[16.9518999,51.09905]},"properties":{"ref:rspo":110333,"official_name":"Wsp\u00f3lny Start","name":"Wsp\u00f3lny Start","addr:country":"PL","addr:postcode":"54-614","addr:city":"Wroc\u0142aw","addr:street":"ul. Trawowa","addr:housenumber":"41","addr:door":"1","addr:teryt:simc":22972,"addr:teryt:sym_ul":986290,"contact:phone":"+48 501174592","contact:email":"biuro@wspolnyswiat.com.pl","contact:website":"http:\/\/www.wspolnyswiat.com.pl","ref:regon":"022087679","operator":"Beata Dr\u00f3\u017cdz","operator:type":"private","amenity":"kindergarten"}},{"id":23314,"type":"Feature","geometry":{"type":"Point","coordinates":[17.00338,51.0991]},"properties":{"ref:rspo":23314,"official_name":"Przedszkole Integracyjne Nr 89 im. Juliana Tuwima","name":"Przedszkole Integracyjne Nr 89","addr:country":"PL","addr:postcode":"53-434","addr:city":"Wroc\u0142aw","addr:street":"ul. Oporowska","addr:housenumber":"1","addr:teryt:simc":15100,"addr:teryt:sym_ul":986290,"contact:phone":"+48 717986819","contact:email":"sekretariat.p089@wroclawskaedukacja.pl","contact:website":"http:\/\/przedszkole89wroc.edustrony.pl","ref:regon":"930112727","ref:vatin":"PL8942561978","operator":"Gmina Wroc\u0142aw","operator:type":"government","amenity":"kindergarten"}},{"id":265850,"type":"Feature","geometry":{"type":"Point","coordinates":[16.94934,51.09928]},"properties":{"ref:rspo":265850,"official_name":"Punkt Przedszkolny \"U Miko\u0142aja A\"","name":"Punkt Przedszkolny \"U Miko\u0142aja A\"","addr:country":"PL","addr:postcode":"54-614","addr:city":"Wroc\u0142aw","addr:street":"ul. Trawowa","addr:housenumber":"32","addr:teryt:simc":22972,"addr:teryt:sym_ul":986290,"contact:phone":"+48 516135143","contact:email":"alina32dabrowska@gmail.com","ref:regon":"368965904","operator":"Piotr D\u0105browski","operator:type":"private","amenity":"kindergarten"}},{"id":273143,"type":"Feature","geometry":{"type":"Point","coordinates":[16.94934,51.09925]},"properties":{"ref:rspo":273143,"official_name":"Punkt Przedszkolny \"U Miko\u0142aja B\"","name":"Punkt Przedszkolny \"U Miko\u0142aja B\"","addr:country":"PL","addr:postcode":"54-614","addr:city":"Wroc\u0142aw","addr:street":"ul. Trawowa","addr:housenumber":"32","addr:teryt:simc":22972,"addr:teryt:sym_ul":986290,"contact:phone":"+48 516135143","contact:email":"alina32dabrowska@gmail.com","ref:regon":"384390680","operator":"Piotr D\u0105browski","operator:type":"private","amenity":"kindergarten"}},{"id":276716,"type":"Feature","geometry":{"type":"Point","coordinates":[16.99746,51.09929]},"properties":{"ref:rspo":276716,"official_name":"Niepubliczna Plac\u00f3wka Kszta\u0142cenia Ustawicznego Global Sport Academy","name":"Niepubliczna Plac\u00f3wka Kszta\u0142cenia Ustawicznego Global Sport Academy","addr:country":"PL","addr:postcode":"53-439","addr:city":"Wroc\u0142aw","addr:street":"ul. Grabiszy\u0144ska","addr:housenumber":"163","addr:door":"127","addr:teryt:simc":6021,"addr:teryt:sym_ul":986290,"contact:phone":"+48 733998979","contact:email":"kontakt@gsacademy.pl","contact:website":"http:\/\/www.gsacademy.pl","ref:regon":"387400395","operator":"Global Sport Academy Sp\u00f3\u0142ka Z Ograniczon\u0105 Odpowiedzialno\u015bci\u0105","operator:type":"private","fixme":"w zale\u017cno\u015bci od przedmiotu dzia\u0142alno\u015bci (np. amenity=training + training=*, amenity=dancing_school, amenity=language_school, amenity=music_school)"}},{"id":23364,"type":"Feature","geometry":{"type":"Point","coordinates":[16.9991,51.09939]},"properties":{"ref:rspo":23364,"official_name":"Przedszkole Nr 94 Plastusiowy Domek","name":"Przedszkole Nr 94 Plastusiowy Domek","addr:country":"PL","addr:postcode":"53-439","addr:city":"Wroc\u0142aw","addr:street":"ul. Grabiszy\u0144ska","addr:housenumber":"147","addr:teryt:simc":6021,"addr:teryt:sym_ul":986290,"contact:phone":"+48 717986824","contact:email":"sekretariat.p094@wroclawskaedukacja.pl","contact:website":"http:\/\/przedszkole94wroclaw.edupage.org","ref:regon":"930112740","ref:vatin":"PL8942610056","operator":"Gmina Wroc\u0142aw","operator:type":"government","amenity":"kindergarten"}},{"id":122779,"type":"Feature","geometry":{"type":"Point","coordinates":[16.94963,51.0994699]},"properties":{"ref:rspo":122779,"official_name":"Niepubliczny Punkt Przedszkolny Happy Kids","name":"Niepubliczny Punkt Przedszkolny Happy Kids","addr:country":"PL","addr:postcode":"54-614","addr:city":"Wroc\u0142aw","addr:street":"ul. Trawowa","addr:housenumber":"34","addr:teryt:simc":22972,"addr:teryt:sym_ul":986290,"contact:phone":"+48 791907050","contact:email":"klubmalucha.wroc@gmail.com","ref:regon":"022394424","operator":"Ilona Knapik","operator:type":"private","amenity":"kindergarten"}},{"id":23454,"type":"Feature","geometry":{"type":"Point","coordinates":[17.01147,51.09955]},"properties":{"ref:rspo":23454,"official_name":"Przedszkole Nr 95","name":"Przedszkole Nr 95","addr:country":"PL","addr:postcode":"53-516","addr:city":"Wroc\u0142aw","addr:street":"ul. Lwowska","addr:housenumber":"30a","addr:teryt:simc":11467,"addr:teryt:sym_ul":986290,"contact:phone":"+48 717986825","contact:email":"sekretariat.p095@wroclawskaedukacja.pl","ref:regon":"930112756","ref:vatin":"PL8942720997","operator":"Gmina Wroc\u0142aw","operator:type":"government","amenity":"kindergarten"}},{"id":272359,"type":"Feature","geometry":{"type":"Point","coordinates":[17.00655,51.09969]},"properties":{"ref:rspo":272359,"official_name":"Zesp\u00f3\u0142 Szk\u00f3\u0142 Etz Chaim","name":"Zesp\u00f3\u0142 Szk\u00f3\u0142 Etz Chaim","addr:country":"PL","addr:postcode":"53-429","addr:city":"Wroc\u0142aw","addr:street":"ul. \u017belazna","addr:housenumber":"57","addr:teryt:simc":26433,"addr:teryt:sym_ul":986290,"contact:phone":"+48 717568047","contact:email":"sekretariat@etzchaim.pl","contact:website":"http:\/\/www.etzchaim.pl","ref:regon":"384149799","operator":"\"Fundacja Dialogu Kultur-Etz Chaim\"","operator:type":"ngo","landuse":"education","fixme":"amenity=school, amenity=college albo landuse=education w zale\u017cno\u015bci od tego, jakie plac\u00f3wki wchodz\u0105 w sk\u0142ad zespo\u0142u. Sprawd\u017a, kiedy stosowa\u0107 amenity=* a kiedy landuse=education.","note":"Children RSPO: 13428;271708"}},{"id":13428,"type":"Feature","geometry":{"type":"Point","coordinates":[17.00655,51.09966]},"properties":{"isced:level":"1;2","ref:rspo":13428,"official_name":"Szko\u0142a Podstawowa Dialogu Kultur Etz Chaim","name":"Szko\u0142a Podstawowa Dialogu Kultur Etz Chaim","addr:country":"PL","addr:postcode":"53-429","addr:city":"Wroc\u0142aw","addr:street":"ul. \u017belazna","addr:housenumber":"57","addr:teryt:simc":26433,"addr:teryt:sym_ul":986290,"contact:phone":"+48 717568047","contact:email":"sekretariat@etzchaim.pl","contact:website":"http:\/\/www.etzchaim.pl","ref:regon":"021962033","operator":"\"Fundacja Dialogu Kultur-Etz Chaim\"","operator:type":"ngo","amenity":"school","note":"Parent RSPO: 272359"}},{"id":271708,"type":"Feature","geometry":{"type":"Point","coordinates":[17.00655,51.099630000000005]},"properties":{"isced:level":"3","ref:rspo":271708,"official_name":"Liceum Og\u00f3lnokszta\u0142c\u0105ce Dialogu Kultur Etz Chaim","name":"Liceum Og\u00f3lnokszta\u0142c\u0105ce Dialogu Kultur Etz Chaim","addr:country":"PL","addr:postcode":"53-429","addr:city":"Wroc\u0142aw","addr:street":"ul. \u017belazna","addr:housenumber":"57","addr:teryt:simc":26433,"addr:teryt:sym_ul":986290,"contact:phone":"+48 717568047","contact:email":"sekretariat@etzchaim.pl","contact:website":"http:\/\/www.etzchaim.pl","ref:regon":"383571875","operator":"\"Fundacja Dialogu Kultur-Etz Chaim\"","operator:type":"ngo","amenity":"school","note":"Parent RSPO: 272359"}},{"id":90632,"type":"Feature","geometry":{"type":"Point","coordinates":[17.01782,51.10039]},"properties":{"isced:level":"3","ref:rspo":90632,"official_name":"Technikum Nr 15 im. Marii Sk\u0142odowskiej-Curie","name":"Technikum Nr 15","addr:country":"PL","addr:postcode":"53-521","addr:city":"Wroc\u0142aw","addr:street":"ul. Skwierzy\u0144ska","addr:housenumber":"1-7","addr:teryt:simc":20189,"addr:teryt:sym_ul":986290,"contact:phone":"+48 717986901","contact:email":"sekretariat@t15.wroclaw.pl","contact:website":"http:\/\/www.t15.wroclaw.pl","ref:regon":"020526494","ref:vatin":"PL8992771815","operator":"Gmina Wroc\u0142aw","operator:type":"government","amenity":"school"}},{"id":30434,"type":"Feature","geometry":{"type":"Point","coordinates":[17.0141199,51.10277]},"properties":{"ref:rspo":30434,"official_name":"Autorskie Przedszkole Niepubliczne Kr\u00f3L Maciu\u015b im. Janusza Korczaka","name":"Autorskie Przedszkole Niepubliczne Kr\u00f3L Maciu\u015b","addr:country":"PL","addr:postcode":"53-503","addr:city":"Wroc\u0142aw","addr:street":"ul. Grabiszy\u0144ska","addr:housenumber":"61-65","addr:teryt:simc":6021,"addr:teryt:sym_ul":986290,"contact:phone":"+48 713422246","contact:email":"biuro@krolmacius.pl","contact:website":"http:\/\/www.krolmacius.pl","ref:regon":"021993230","operator":"Ma\u0142gorzata Lech-Krawczyk","operator:type":"private","amenity":"kindergarten"}},{"id":14988,"type":"Feature","geometry":{"type":"Point","coordinates":[16.96217,51.1062]},"properties":{"isced:level":"1;2","ref:rspo":14988,"official_name":"Szko\u0142a Podstawowa Nr 28 im. Genera\u0142a Leopolda Okulickiego","name":"Szko\u0142a Podstawowa Nr 28","addr:country":"PL","addr:postcode":"54-406","addr:city":"Wroc\u0142aw","addr:street":"ul. Grecka","addr:housenumber":"59","addr:teryt:simc":6091,"addr:teryt:sym_ul":986290,"contact:phone":"+48 717986847","contact:email":"sekretariat@sp28.wroc.pl","contact:website":"http:\/\/www.sp28.wroc.pl","ref:regon":"000693397","ref:vatin":"PL8961001335","operator":"Gmina Wroc\u0142aw","operator:type":"government","amenity":"school"}},{"id":11234,"type":"Feature","geometry":{"type":"Point","coordinates":[16.96528,51.10698]},"properties":{"ref:rspo":11234,"official_name":"Publiczne Przedszkole Omnibus","name":"Publiczne Przedszkole Omnibus","addr:country":"PL","addr:postcode":"54-403","addr:city":"Wroc\u0142aw","addr:street":"ul. Stan\u00f3w Zjednoczonych","addr:housenumber":"88","addr:teryt:simc":20848,"addr:teryt:sym_ul":986290,"contact:phone":"+48 713219603","contact:email":"omnibus.wroclaw@operator.edu.pl","contact:website":"http:\/\/www.omnibus-wroclaw.operator.edu.pl","ref:regon":"021958741","operator":"Og\u00f3lnopolski Operator O\u015bwiaty","operator:type":"ngo","amenity":"kindergarten"}},{"id":20926,"type":"Feature","geometry":{"type":"Point","coordinates":[16.99478,51.10739]},"properties":{"ref:rspo":20926,"official_name":"Zesp\u00f3\u0142 Szk\u00f3\u0142 Nr 21","name":"Zesp\u00f3\u0142 Szk\u00f3\u0142 Nr 21","addr:country":"PL","addr:postcode":"54-152","addr:city":"Wroc\u0142aw","addr:street":"ul. Piotra Ignuta","addr:housenumber":"28","addr:teryt:simc":6866,"addr:teryt:sym_ul":986290,"contact:phone":"+48 717986897","contact:email":"sekretariat.zs21@wroclawskaedukacja.pl","contact:website":"http:\/\/www.zszk21wroc.edupage.org","ref:regon":"001219730","ref:vatin":"PL8942376318","operator":"Gmina Wroc\u0142aw","operator:type":"government","landuse":"education","fixme":"amenity=school, amenity=college albo landuse=education w zale\u017cno\u015bci od tego, jakie plac\u00f3wki wchodz\u0105 w sk\u0142ad zespo\u0142u. Sprawd\u017a, kiedy stosowa\u0107 amenity=* a kiedy landuse=education.","note":"Children RSPO: 56282;85777"}},{"id":41886,"type":"Feature","geometry":{"type":"Point","coordinates":[16.99478,51.10736]},"properties":{"ref:rspo":41886,"official_name":"Przedszkole Nr 150 Weso\u0142e Nutki","name":"Przedszkole Nr 150 Weso\u0142e Nutki","addr:country":"PL","addr:postcode":"54-142","addr:city":"Wroc\u0142aw","addr:street":"ul. Piotra Ignuta","addr:housenumber":"30","addr:teryt:simc":6866,"addr:teryt:sym_ul":986290,"contact:phone":"+48 717986774","contact:email":"sekretariat.p150@wroclawskaedukacja.pl","contact:website":"http:\/\/www.przedszkole150.wroclaw.pl","ref:regon":"930112928","ref:vatin":"PL8942565953","operator":"Gmina Wroc\u0142aw","operator:type":"government","amenity":"kindergarten"}},{"id":60110,"type":"Feature","geometry":{"type":"Point","coordinates":[16.99478,51.107330000000005]},"properties":{"ref:rspo":60110,"official_name":"Ma\u0142e Wielkie Skarby","name":"Ma\u0142e Wielkie Skarby","addr:country":"PL","addr:postcode":"52-413","addr:city":"Wroc\u0142aw","addr:street":"ul. Fryderyka Skarbka","addr:housenumber":"3","addr:teryt:simc":19998,"addr:teryt:sym_ul":986290,"contact:phone":"+48 608747707","contact:email":"biuro@malewielkieskarby.com","contact:website":"http:\/\/www.malewielkieskarby.com","ref:regon":"021999504","operator":"Mm Edu Sp\u00f3\u0142ka Z Ograniczon\u0105 Odpowiedzialno\u015bci\u0105","operator:type":"private","amenity":"kindergarten"}},{"id":130741,"type":"Feature","geometry":{"type":"Point","coordinates":[16.99478,51.1073]},"properties":{"ref:rspo":130741,"official_name":"Publiczne Przedszkole Prymusek Ii","name":"Publiczne Przedszkole Prymusek Ii","addr:country":"PL","addr:postcode":"54-129","addr:city":"Wroc\u0142aw","addr:street":"ul. Jerzego Bajana","addr:housenumber":"62","addr:teryt:simc":600,"addr:teryt:sym_ul":986290,"contact:phone":"+48 885568068","contact:email":"renata.olejnik@prymusek.com.pl","contact:website":"http:\/\/www.prymusek.com.pl","ref:regon":"364472814","operator":"Renata Olejnik","operator:type":"private","amenity":"kindergarten"}},{"id":131688,"type":"Feature","geometry":{"type":"Point","coordinates":[16.99478,51.10727]},"properties":{"ref:rspo":131688,"official_name":"Punkt Przedszkolny \"Horyzonty Wyobra\u017ani\"","name":"Punkt Przedszkolny \"Horyzonty Wyobra\u017ani\"","addr:country":"PL","addr:postcode":"54-239","addr:city":"Wroc\u0142aw","addr:street":"ul. Ojc\u00f3w Oblat\u00f3w","addr:housenumber":"1","addr:teryt:simc":29999,"addr:teryt:sym_ul":986290,"contact:phone":"+48 531335280","contact:email":"info@horyzontywyobrazni.pl","contact:website":"http:\/\/www.horyzontywyobrazni.pl","ref:regon":"365342232","operator":"\"Aleja\"","operator:type":"ngo","amenity":"kindergarten"}},{"id":263569,"type":"Feature","geometry":{"type":"Point","coordinates":[16.99478,51.107240000000004]},"properties":{"ref:rspo":263569,"official_name":"Katolickie Przedszkole Niepubliczne \"Ochronka\" Nr 2 im. B\u0142. Edmunda Bojanowskiego","name":"Katolickie Przedszkole Niepubliczne \"Ochronka\" Nr 2","addr:country":"PL","addr:postcode":"54-614","addr:city":"Wroc\u0142aw","addr:street":"ul. Zagony","addr:housenumber":"61","addr:teryt:simc":25359,"addr:teryt:sym_ul":986290,"contact:phone":"+48 513312094","contact:email":"ochronka.zagony@gmail.com","ref:regon":"368203778","operator":"Zgromadzenie Si\u00f3str S\u0142u\u017cebniczek Naj\u015bwi\u0119tszej Maryi Panny Niepokalanie Pocz\u0119tej, Prowincja Opolska","operator:type":"religious","amenity":"kindergarten"}},{"id":270139,"type":"Feature","geometry":{"type":"Point","coordinates":[16.99478,51.10721]},"properties":{"ref:rspo":270139,"official_name":"Niepubliczny Punkt Przedszkolny Kolorolandia","name":"Niepubliczny Punkt Przedszkolny Kolorolandia","addr:country":"PL","addr:postcode":"54-115","addr:city":"Wroc\u0142aw","addr:street":"ul. Heinricha Lauterbacha","addr:housenumber":"3A","addr:teryt:simc":50630,"addr:teryt:sym_ul":986290,"contact:phone":"+48 693908476","contact:email":"kolorolandia@onet.pl","contact:website":"http:\/\/www.kolorolandia.com.pl","ref:regon":"382075737","operator":"Karolina Pikul","operator:type":"private","amenity":"kindergarten"}},{"id":270456,"type":"Feature","geometry":{"type":"Point","coordinates":[16.99478,51.10718]},"properties":{"ref:rspo":270456,"official_name":"Punkt Przedszkolny \"Le\u015bna Chatka\"","name":"Punkt Przedszkolny \"Le\u015bna Chatka\"","addr:country":"PL","addr:postcode":"54-072","addr:city":"Wroc\u0142aw","addr:street":"ul. Pr\u0119\u017cycka","addr:housenumber":"80","addr:teryt:simc":45641,"addr:teryt:sym_ul":986290,"contact:phone":"+48 783101705","contact:email":"biuro@lesna-chatka.com","contact:website":"http:\/\/www.lesna-chatka.com","ref:regon":"382604680","operator":"Izabela Polaczek-Biczysko","operator:type":"private","amenity":"kindergarten"}},{"id":56282,"type":"Feature","geometry":{"type":"Point","coordinates":[16.99478,51.107150000000004]},"properties":{"isced:level":"1;2","ref:rspo":56282,"official_name":"Szko\u0142a Podstawowa Nr 75 Z Oddzia\u0142ami Integracyjnymi im. Henryka Sienkiewicza","name":"Szko\u0142a Podstawowa Nr 75 Z Oddzia\u0142ami Integracyjnymi","addr:country":"PL","addr:postcode":"54-152","addr:city":"Wroc\u0142aw","addr:street":"ul. Piotra Ignuta","addr:housenumber":"28","addr:teryt:simc":6866,"addr:teryt:sym_ul":986290,"contact:phone":"+48 717986897","contact:email":"sekretariat.zs21@wroclawskaedukacja.pl","contact:website":"http:\/\/zszk21wroc.edupage.org","ref:regon":"932823361","ref:vatin":"PL8942376318","operator":"Gmina Wroc\u0142aw","operator:type":"government","amenity":"school","note":"Parent RSPO: 20926"}},{"id":85777,"type":"Feature","geometry":{"type":"Point","coordinates":[16.99478,51.10712]},"properties":{"isced:level":"1;2","ref:rspo":85777,"official_name":"Szko\u0142a Podstawowa Specjalna Nr 116 dla Uczni\u00f3w Z Dzieci\u0119cym Pora\u017ceniem M\u00f3zgowym","name":"Szko\u0142a Podstawowa Specjalna Nr 116 dla Uczni\u00f3w Z Dzieci\u0119cym Pora\u017ceniem M\u00f3zgowym","addr:country":"PL","addr:postcode":"54-152","addr:city":"Wroc\u0142aw","addr:street":"ul. Piotra Ignuta","addr:housenumber":"28","addr:teryt:simc":6866,"addr:teryt:sym_ul":986290,"contact:phone":"+48 717986897","contact:email":"sekretariat.zs21@wroclawskaedukacja.pl","contact:website":"http:\/\/www.zszk21wroc.edupage.org","ref:regon":"932823415","operator":"Gmina Wroc\u0142aw","operator:type":"government","amenity":"school","note":"Parent RSPO: 20926"}},{"id":56000,"type":"Feature","geometry":{"type":"Point","coordinates":[16.95597,51.10778]},"properties":{"ref:rspo":56000,"official_name":"Przedszkole Nr 58","name":"Przedszkole Nr 58","addr:country":"PL","addr:postcode":"54-432","addr:city":"Wroc\u0142aw","addr:street":"ul. Strzegomska","addr:housenumber":"322","addr:teryt:simc":21359,"addr:teryt:sym_ul":986290,"contact:phone":"+48 717986801","contact:email":"info@przedszkole58.pl","contact:website":"http:\/\/p58wroclaw.edupage.org","ref:regon":"000209622","ref:vatin":"PL8942583767","operator":"Gmina Wroc\u0142aw","operator:type":"government","amenity":"kindergarten"}},{"id":104019,"type":"Feature","geometry":{"type":"Point","coordinates":[16.95782,51.10789]},"properties":{"ref:rspo":104019,"official_name":"Zesp\u00f3\u0142 Szk\u00f3\u0142 Nr 3","name":"Zesp\u00f3\u0142 Szk\u00f3\u0142 Nr 3","addr:country":"PL","addr:postcode":"54-402","addr:city":"Wroc\u0142aw","addr:street":"ul. Szkocka","addr:housenumber":"64","addr:teryt:simc":21967,"addr:teryt:sym_ul":986290,"contact:phone":"+48 717986902","contact:email":"sekretariat.zs03@wroclawskaedukacja.pl","contact:website":"http:\/\/www.zs3wroc.edupage.org","ref:regon":"931074437","ref:vatin":"PL8942418815","operator":"Gmina Wroc\u0142aw","operator:type":"government","landuse":"education","fixme":"amenity=school, amenity=college albo landuse=education w zale\u017cno\u015bci od tego, jakie plac\u00f3wki wchodz\u0105 w sk\u0142ad zespo\u0142u. Sprawd\u017a, kiedy stosowa\u0107 amenity=* a kiedy landuse=education.","note":"Children RSPO: 106441;118658"}},{"id":106441,"type":"Feature","geometry":{"type":"Point","coordinates":[16.95782,51.107859999999995]},"properties":{"isced:level":"3","ref:rspo":106441,"official_name":"Technikum Nr 16 im. Czes\u0142awa Mi\u0142osza","name":"Technikum Nr 16","addr:country":"PL","addr:postcode":"54-402","addr:city":"Wroc\u0142aw","addr:street":"ul. Szkocka","addr:housenumber":"64","addr:teryt:simc":21967,"addr:teryt:sym_ul":986290,"contact:phone":"+48 717986902","contact:email":"sekretariat.zs03@wroclawskaedukacja.pl","contact:website":"http:\/\/zs3wroc.edupage.org","ref:regon":"021003522","ref:vatin":"PL8942418815","operator":"Gmina Wroc\u0142aw","operator:type":"government","amenity":"school","note":"Parent RSPO: 104019"}},{"id":118658,"type":"Feature","geometry":{"type":"Point","coordinates":[16.95782,51.10783]},"properties":{"isced:level":"4","ref:rspo":118658,"official_name":"Szko\u0142a Policealna Nr 17","name":"Szko\u0142a Policealna Nr 17","addr:country":"PL","addr:postcode":"54-402","addr:city":"Wroc\u0142aw","addr:street":"ul. Szkocka","addr:housenumber":"64","addr:teryt:simc":21967,"addr:teryt:sym_ul":986290,"contact:phone":"+48 717986902","contact:email":"sekretariat.zs03@wroclawskaedukacja.pl","contact:website":"http:\/\/zs3wroc.edupage.org","ref:regon":"022207178","operator":"Gmina Wroc\u0142aw","operator:type":"government","amenity":"college","note":"Parent RSPO: 104019"}},{"id":132613,"type":"Feature","geometry":{"type":"Point","coordinates":[16.97072,51.10852]},"properties":{"ref:rspo":132613,"official_name":"Niepubliczne Przedszkole Kids Island","name":"Niepubliczne Przedszkole Kids Island","addr:country":"PL","addr:postcode":"54-424","addr:city":"Wroc\u0142aw","addr:street":"ul. Muchoborska","addr:housenumber":"16","addr:teryt:simc":13466,"addr:teryt:sym_ul":986290,"contact:phone":"+48 572622590","contact:email":"biuro@kidsisland.pl","contact:website":"http:\/\/kidsisland.pl","ref:regon":"365920189","operator":"El\u017cbieta Ordonowska","operator:type":"private","amenity":"kindergarten"}},{"id":20097,"type":"Feature","geometry":{"type":"Point","coordinates":[16.98242,51.10898]},"properties":{"ref:rspo":20097,"official_name":"M\u0142odzie\u017cowy Dom Kultury Fabryczna","name":"M\u0142odzie\u017cowy Dom Kultury Fabryczna","addr:country":"PL","addr:postcode":"54-438","addr:city":"Wroc\u0142aw","addr:street":"ul. Zemska","addr:housenumber":"16a","addr:teryt:simc":26002,"addr:teryt:sym_ul":986290,"contact:phone":"+48 717986742","contact:email":"biuro@mdk.wroc.pl","contact:website":"http:\/\/www.mdk.wroc.pl","ref:regon":"930697886","ref:vatin":"PL8942436664","operator":"Gmina Wroc\u0142aw","operator:type":"government","amenity":"community_centre","community_centre:for":"juvenile"}},{"id":14945,"type":"Feature","geometry":{"type":"Point","coordinates":[16.98145,51.10928]},"properties":{"ref:rspo":14945,"official_name":"Zesp\u00f3\u0142 Szkolno-Przedszkolny Nr 1","name":"Zesp\u00f3\u0142 Szkolno-Przedszkolny Nr 1","addr:country":"PL","addr:postcode":"54-438","addr:city":"Wroc\u0142aw","addr:street":"ul. Zemska","addr:housenumber":"16c","addr:teryt:simc":26002,"addr:teryt:sym_ul":986290,"contact:phone":"+48 717986915","contact:email":"sekretariat@sp113.wroc.pl","contact:website":"http:\/\/www.sp113.wroc.pl","ref:regon":"001031416","ref:vatin":"PL8942323670","operator":"Gmina Wroc\u0142aw","operator:type":"government","landuse":"education","fixme":"amenity=school, amenity=college albo landuse=education w zale\u017cno\u015bci od tego, jakie plac\u00f3wki wchodz\u0105 w sk\u0142ad zespo\u0142u. Sprawd\u017a, kiedy stosowa\u0107 amenity=* a kiedy landuse=education.","note":"Children RSPO: 20188;22341"}},{"id":20188,"type":"Feature","geometry":{"type":"Point","coordinates":[16.98145,51.109249999999996]},"properties":{"isced:level":"1;2","ref:rspo":20188,"official_name":"Szko\u0142a Podstawowa Nr 113 im. Adama Rapackiego","name":"Szko\u0142a Podstawowa Nr 113","addr:country":"PL","addr:postcode":"54-438","addr:city":"Wroc\u0142aw","addr:street":"ul. Zemska","addr:housenumber":"16c","addr:teryt:simc":26002,"addr:teryt:sym_ul":986290,"contact:phone":"+48 717986915","contact:email":"sekretariat@sp113.wroc.pl","contact:website":"http:\/\/www.sp113.wroc.pl","ref:regon":"932851469","operator":"Gmina Wroc\u0142aw","operator:type":"government","amenity":"school","note":"Parent RSPO: 14945"}},{"id":22341,"type":"Feature","geometry":{"type":"Point","coordinates":[16.98145,51.10922]},"properties":{"ref:rspo":22341,"official_name":"Przedszkole Nr 133 Zdolny Krasnal","name":"Przedszkole Nr 133 Zdolny Krasnal","addr:country":"PL","addr:postcode":"54-438","addr:city":"Wroc\u0142aw","addr:street":"ul. Zemska","addr:housenumber":"16c","addr:teryt:simc":26002,"addr:teryt:sym_ul":986290,"contact:phone":"+48 717827507","contact:email":"przedszkole.133@sp113.wroc.pl","contact:website":"http:\/\/www.przedszkole133.edupage.org","ref:regon":"932851423","operator":"Gmina Wroc\u0142aw","operator:type":"government","amenity":"kindergarten","note":"Parent RSPO: 14945"}},{"id":114384,"type":"Feature","geometry":{"type":"Point","coordinates":[16.95927,51.1099699]},"properties":{"ref:rspo":114384,"official_name":"Centrum Edukacji Zawodowej I Doradztwa \"Semafor\"","name":"Centrum Edukacji Zawodowej I Doradztwa \"Semafor\"","addr:country":"PL","addr:postcode":"54-402","addr:city":"Wroc\u0142aw","addr:street":"ul. Szkocka","addr:housenumber":"87","addr:door":"29","addr:teryt:simc":21967,"addr:teryt:sym_ul":986290,"contact:phone":"+48 509466988","contact:email":"grupasemafor@op.pl","ref:regon":"022129350","operator":"Tomasz Leszczy\u0144ski","operator:type":"private","fixme":"w zale\u017cno\u015bci od przedmiotu dzia\u0142alno\u015bci (np. amenity=training + training=*, amenity=dancing_school, amenity=language_school, amenity=music_school)"}},{"id":12263,"type":"Feature","geometry":{"type":"Point","coordinates":[16.97354,51.11052]},"properties":{"ref:rspo":12263,"official_name":"Przedszkole Niepubliczne we Wroc\u0142awskim Parku Technologicznym \"Technoludek\"","name":"Przedszkole Niepubliczne we Wroc\u0142awskim Parku Technologicznym \"Technoludek\"","addr:country":"PL","addr:postcode":"54-427","addr:city":"Wroc\u0142aw","addr:street":"ul. Du\u0144ska","addr:housenumber":"9","addr:teryt:simc":4405,"addr:teryt:sym_ul":986290,"contact:phone":"+48 717985605","contact:email":"przedszkole@technologpark.pl","contact:website":"http:\/\/www.technoludek.pl","ref:regon":"021959930","operator":"Fundacja Pro Mathematica","operator:type":"ngo","amenity":"kindergarten"}},{"id":272325,"type":"Feature","geometry":{"type":"Point","coordinates":[17.00492,51.11059]},"properties":{"isced:level":"1;2","ref:rspo":272325,"official_name":"Niepubliczna Szko\u0142a Podstawowa Fundacji Kr\u00f3lowej \u015awi\u0119tej Jadwigi we Wroc\u0142awiu","name":"Niepubliczna Szko\u0142a Podstawowa Fundacji Kr\u00f3lowej \u015awi\u0119tej Jadwigi we Wroc\u0142awiu","addr:country":"PL","addr:postcode":"53-608","addr:city":"Wroc\u0142aw","addr:street":"ul. Robotnicza","addr:housenumber":"36-38","addr:teryt:simc":18695,"addr:teryt:sym_ul":986290,"contact:phone":"+48 728958515","contact:email":"agnieszka.jakoniuk@szkolamontessori.com.pl","contact:website":"http:\/\/szkolamontessori.com.pl","ref:regon":"384144135","operator":"Fundacja Kr\u00f3lowej \u015awi\u0119tej Jadwigi","operator:type":"ngo","amenity":"school"}},{"id":272326,"type":"Feature","geometry":{"type":"Point","coordinates":[17.00492,51.11056]},"properties":{"isced:level":"3","ref:rspo":272326,"official_name":"Niepubliczne Liceum Og\u00f3lnokszta\u0142c\u0105ce Fundacji Kr\u00f3lowej \u015awi\u0119tej Jadwigi we Wroc\u0142awiu","name":"Niepubliczne Liceum Og\u00f3lnokszta\u0142c\u0105ce Fundacji Kr\u00f3lowej \u015awi\u0119tej Jadwigi we Wroc\u0142awiu","addr:country":"PL","addr:postcode":"53-608","addr:city":"Wroc\u0142aw","addr:street":"ul. Robotnicza","addr:housenumber":"36-38","addr:teryt:simc":18695,"addr:teryt:sym_ul":986290,"contact:phone":"+48 519083130","contact:email":"marzena.horyza@szkolamontessori.com.pl","contact:website":"http:\/\/szkolamontessori.com.pl","ref:regon":"384143242","operator":"Fundacja Kr\u00f3lowej \u015awi\u0119tej Jadwigi","operator:type":"ngo","amenity":"school"}},{"id":22402,"type":"Feature","geometry":{"type":"Point","coordinates":[17.0048856,51.1107613]},"properties":{"isced:level":"3","ref:rspo":22402,"official_name":"Spo\u0142eczne Liceum Og\u00f3lnokszta\u0142c\u0105ce \"Ala\"","name":"Spo\u0142eczne Liceum Og\u00f3lnokszta\u0142c\u0105ce \"Ala\"","addr:country":"PL","addr:postcode":"53-608","addr:city":"Wroc\u0142aw","addr:street":"ul. Robotnicza","addr:housenumber":"36","addr:teryt:simc":18695,"addr:teryt:sym_ul":986290,"contact:phone":"+48 713591444","contact:email":"sekretariat@ala.edu.pl","contact:website":"http:\/\/www.ala.edu.pl","ref:regon":"021981711","operator":"Towarzystwo Edukacji Otwartej","operator:type":"ngo","amenity":"school"}},{"id":131654,"type":"Feature","geometry":{"type":"Point","coordinates":[17.0048856,51.1107313]},"properties":{"isced:level":"1;2","ref:rspo":131654,"official_name":"Autorska Szko\u0142a Podstawowa Jask\u00f3\u0142ka we Wroc\u0142awiu","name":"Autorska Szko\u0142a Podstawowa Jask\u00f3\u0142ka we Wroc\u0142awiu","addr:country":"PL","addr:postcode":"53-608","addr:city":"Wroc\u0142aw","addr:street":"ul. Robotnicza","addr:housenumber":"36","addr:teryt:simc":18695,"addr:teryt:sym_ul":986290,"contact:phone":"+48 882834772","contact:email":"sekretariat@jaskolka.edu.pl","contact:website":"http:\/\/www.jaskolka.edu.pl","ref:regon":"365337171","operator":"Towarzystwo Edukacji Otwartej","operator:type":"ngo","amenity":"school"}},{"id":276781,"type":"Feature","geometry":{"type":"Point","coordinates":[16.96141,51.111]},"properties":{"ref:rspo":276781,"official_name":"Punkt Przedszkolny \"Tw\u00f3rcza Kraina\"","name":"Punkt Przedszkolny \"Tw\u00f3rcza Kraina\"","addr:country":"PL","addr:postcode":"54-401","addr:city":"Wroc\u0142aw","addr:street":"ul. Szwedzka","addr:housenumber":"11a","addr:teryt:simc":22179,"addr:teryt:sym_ul":986290,"contact:phone":"+48 530634511","contact:email":"tworczakraina@twpwroclaw.pl","contact:website":"http:\/\/www.twpwroclaw.pl","ref:regon":"387569852","operator":"\"Towarzystwo Wiedzy Powszechnej\" Oddzia\u0142 Regionalny We Wroc\u0142awiu","operator:type":"ngo","amenity":"kindergarten"}},{"id":270369,"type":"Feature","geometry":{"type":"Point","coordinates":[16.98429,51.11134]},"properties":{"ref:rspo":270369,"official_name":"Publiczne Przedszkole \"Wroc\u0142awskie Skauty III\"","name":"Publiczne Przedszkole \"Wroc\u0142awskie Skauty III\"","addr:country":"PL","addr:postcode":"54-615","addr:city":"Wroc\u0142aw","addr:street":"ul. Samborska","addr:housenumber":"14a","addr:teryt:simc":19461,"addr:teryt:sym_ul":986290,"contact:phone":"+48 579652084","contact:email":"biuro3@wroclawskieskauty.pl","contact:website":"http:\/\/www.wroclawskieskauty.pl","ref:regon":"382446501","operator":"Robert Burszewski","operator:type":"private","amenity":"kindergarten"}},{"id":275696,"type":"Feature","geometry":{"type":"Point","coordinates":[16.98429,51.111309999999996]},"properties":{"isced:level":"1;2","ref:rspo":275696,"official_name":"Szko\u0142a Podstawowa - Wroc\u0142aw Cosmopolitan School","name":"Szko\u0142a Podstawowa - Wroc\u0142aw Cosmopolitan School","addr:country":"PL","addr:postcode":"53-609","addr:city":"Wroc\u0142aw","addr:street":"ul. Fabryczna","addr:housenumber":"14a","addr:teryt:simc":4863,"addr:teryt:sym_ul":986290,"contact:phone":"+48 732543743","contact:email":"info@cosmopolitanschool.pl","contact:website":"http:\/\/www.cosmopolitanschool.pl","ref:regon":"386934031","operator":"Cosmo Education Sp\u00f3\u0142ka Z Ograniczon\u0105 Odpowiedzialno\u015bci\u0105","operator:type":"private","amenity":"school"}},{"id":275918,"type":"Feature","geometry":{"type":"Point","coordinates":[16.98429,51.11128]},"properties":{"ref:rspo":275918,"official_name":"Niepubliczne Przedszkole \"Wroc\u0142aw Cosmopolitan Preschool\"","name":"Niepubliczne Przedszkole \"Wroc\u0142aw Cosmopolitan Preschool\"","addr:country":"PL","addr:postcode":"53-609","addr:city":"Wroc\u0142aw","addr:street":"ul. Fabryczna","addr:housenumber":"14a","addr:teryt:simc":4863,"addr:teryt:sym_ul":986290,"contact:phone":"+48 732543743","contact:email":"info@cosmopolitanschool.pl","contact:website":"http:\/\/www.cosmopolitanschool.pl","ref:regon":"386952193","operator":"Cosmo Education Sp\u00f3\u0142ka Z Ograniczon\u0105 Odpowiedzialno\u015bci\u0105","operator:type":"private","amenity":"kindergarten"}},{"id":271706,"type":"Feature","geometry":{"type":"Point","coordinates":[17.00171,51.11135]},"properties":{"ref:rspo":271706,"official_name":"Punkt Przedszkolny Ostoja","name":"Punkt Przedszkolny Ostoja","addr:country":"PL","addr:postcode":"53-608","addr:city":"Wroc\u0142aw","addr:street":"ul. Robotnicza","addr:housenumber":"42b","addr:teryt:simc":18695,"addr:teryt:sym_ul":986290,"contact:phone":"+48 605873114","contact:email":"sekretariat@ostoja.org.pl","contact:website":"http:\/\/www.ostoja.org.pl","ref:regon":"383571830","operator":"Stowarzyszenie \"Ostoja\" Na Rzecz Os\u00f3b Z Niepe\u0142nosprawno\u015bciami","operator:type":"ngo","amenity":"kindergarten","note":"Parent RSPO: 271721"}},{"id":17529,"type":"Feature","geometry":{"type":"Point","coordinates":[16.98984,51.11202]},"properties":{"ref:rspo":17529,"official_name":"Szko\u0142a J\u0119zyk\u00f3w Obcych Cosmopolitan","name":"Szko\u0142a J\u0119zyk\u00f3w Obcych Cosmopolitan","addr:country":"PL","addr:postcode":"54-130","addr:city":"Wroc\u0142aw","addr:street":"bulw. Ikara","addr:housenumber":"10","addr:teryt:simc":6872,"addr:teryt:sym_ul":986290,"contact:phone":"+48 713511419","contact:email":"cosmopolitan@cosmopolitan.edu.pl","contact:website":"http:\/\/www.cosmopolitan.edu.pl","ref:regon":"021974817","operator":"Maria Krzemi\u0144ska","operator:type":"private","fixme":"w zale\u017cno\u015bci od przedmiotu dzia\u0142alno\u015bci (np. amenity=training + training=*, amenity=dancing_school, amenity=language_school, amenity=music_school)"}},{"id":17884,"type":"Feature","geometry":{"type":"Point","coordinates":[16.98984,51.11199]},"properties":{"ref:rspo":17884,"official_name":"Szko\u0142a J\u0119zyk\u00f3w Obcych Cosmopolitan Junior","name":"Szko\u0142a J\u0119zyk\u00f3w Obcych Cosmopolitan Junior","addr:country":"PL","addr:postcode":"54-130","addr:city":"Wroc\u0142aw","addr:street":"bulw. Ikara","addr:housenumber":"10","addr:teryt:simc":6872,"addr:teryt:sym_ul":986290,"contact:phone":"+48 713511419","contact:email":"cosmopolitan@cosmopolitan.edu.pl","contact:website":"http:\/\/www.cosmopolitan.edu.pl","ref:regon":"021974906","ref:vatin":"PL8941749220","operator":"Maria Krzemi\u0144ska","operator:type":"private","fixme":"w zale\u017cno\u015bci od przedmiotu dzia\u0142alno\u015bci (np. amenity=training + training=*, amenity=dancing_school, amenity=language_school, amenity=music_school)"}},{"id":21552,"type":"Feature","geometry":{"type":"Point","coordinates":[16.98984,51.11196]},"properties":{"ref:rspo":21552,"official_name":"Otrek Training And Colsunting","name":"Otrek Training And Colsunting","addr:country":"PL","addr:postcode":"53-609","addr:city":"Wroc\u0142aw","addr:street":"ul. Fabryczna","addr:housenumber":"10","addr:teryt:simc":4863,"addr:teryt:sym_ul":986290,"contact:phone":"+48 713565089","contact:email":"szkolenia@otrek.com.pl","contact:website":"http:\/\/www.otrek.com.pl","ref:regon":"021978940","operator":"Otrek Training And Consulting Sp\u00f3\u0142ka Z Ograniczon\u0105 Odpowiedzialno\u015bci\u0105","operator:type":"private","fixme":"w zale\u017cno\u015bci od przedmiotu dzia\u0142alno\u015bci (np. amenity=training + training=*, amenity=dancing_school, amenity=language_school, amenity=music_school)"}},{"id":267961,"type":"Feature","geometry":{"type":"Point","coordinates":[16.98984,51.11193]},"properties":{"ref:rspo":267961,"official_name":"Przedszkole Niepubliczne Z Oddzia\u0142ami Integracyjnymi \"Ma\u0142y Mistrz II\"","name":"Przedszkole Niepubliczne Z Oddzia\u0142ami Integracyjnymi \"Ma\u0142y Mistrz II\"","addr:country":"PL","addr:postcode":"53-609","addr:city":"Wroc\u0142aw","addr:street":"ul. Fabryczna","addr:housenumber":"10","addr:teryt:simc":4863,"addr:teryt:sym_ul":986290,"contact:phone":"+48 609098564","contact:email":"biuro@przedszkolemalymistrz.pl","contact:website":"http:\/\/www.przedszkolemalymistrz.pl","ref:regon":"380797461","operator":"Mariusz Konieczny","operator:type":"private","amenity":"kindergarten"}},{"id":11632,"type":"Feature","geometry":{"type":"Point","coordinates":[16.9853,51.11209]},"properties":{"isced:level":"3","ref:rspo":11632,"official_name":"Technikum Teb Edukacja we Wroc\u0142awiu","name":"Technikum Teb Edukacja we Wroc\u0142awiu","addr:country":"PL","addr:postcode":"53-609","addr:city":"Wroc\u0142aw","addr:street":"ul. Fabryczna","addr:housenumber":"14","addr:teryt:simc":4863,"addr:teryt:sym_ul":986290,"contact:phone":"+48 717562744","contact:email":"technikum-wroclaw@teb-edukacja.pl","contact:website":"http:\/\/technikum.pl\/miasta\/wroclaw\/","ref:regon":"021959019","operator":"Teb Edukacja Sp\u00f3\u0142ka Z Ograniczon\u0105 Odpowiedzialno\u015bci\u0105","operator:type":"private","amenity":"school"}},{"id":11830,"type":"Feature","geometry":{"type":"Point","coordinates":[16.9853,51.11206]},"properties":{"isced:level":"4","ref:rspo":11830,"official_name":"Niepubliczna Policealna Wroc\u0142awska Szko\u0142a Fotografii Afa we Wroc\u0142awiu","name":"Niepubliczna Policealna Wroc\u0142awska Szko\u0142a Fotografii Afa we Wroc\u0142awiu","addr:country":"PL","addr:postcode":"53-609","addr:city":"Wroc\u0142aw","addr:street":"ul. Fabryczna","addr:housenumber":"14","addr:teryt:simc":4863,"addr:teryt:sym_ul":986290,"contact:phone":"+48 713504634","contact:email":"sekretariat@afa.com.pl","contact:website":"http:\/\/www.afa.com.pl","ref:regon":"021959290","operator":"Dobromi\u0142 Nosek","operator:type":"private","amenity":"college"}},{"id":264405,"type":"Feature","geometry":{"type":"Point","coordinates":[16.9853,51.112030000000004]},"properties":{"isced:level":"4","ref:rspo":264405,"official_name":"Niepubliczna Policealna Szko\u0142a Fotografii Pho-Bos we Wroc\u0142awiu","name":"Niepubliczna Policealna Szko\u0142a Fotografii Pho-Bos we Wroc\u0142awiu","addr:country":"PL","addr:postcode":"53-609","addr:city":"Wroc\u0142aw","addr:street":"ul. Fabryczna","addr:housenumber":"14","addr:teryt:simc":4863,"addr:teryt:sym_ul":986290,"contact:phone":"+48 713504634","contact:email":"dobromil.nosek@afa.com.pl","contact:website":"http:\/\/pho-bos.com.pl","ref:regon":"368343999","operator":"Dobromi\u0142 Nosek","operator:type":"private","amenity":"college"}},{"id":130634,"type":"Feature","geometry":{"type":"Point","coordinates":[16.98792,51.11217]},"properties":{"isced:level":"3","ref:rspo":130634,"official_name":"Regionalny O\u015brodek Edukacji Liceum Og\u00f3lnokszta\u0142c\u0105ce","name":"Regionalny O\u015brodek Edukacji Liceum Og\u00f3lnokszta\u0142c\u0105ce","addr:country":"PL","addr:postcode":"53-609","addr:city":"Wroc\u0142aw","addr:street":"ul. Wagonowa","addr:housenumber":"12","addr:teryt:simc":23495,"addr:teryt:sym_ul":986290,"contact:phone":"+48 713357000","contact:email":"liceum@roe.pl","contact:website":"http:\/\/www.roe.pl","ref:regon":"364282255","operator":"Regionalny O\u015brodek Edukacji Sp\u00f3\u0142ka Z Ograniczon\u0105 Odpowiedzialno\u015bci\u0105","operator:type":"private","amenity":"school"}},{"id":130635,"type":"Feature","geometry":{"type":"Point","coordinates":[16.98792,51.11214]},"properties":{"isced:level":"3","ref:rspo":130635,"official_name":"Regionalny O\u015brodek Edukacji Technikum","name":"Regionalny O\u015brodek Edukacji Technikum","addr:country":"PL","addr:postcode":"53-609","addr:city":"Wroc\u0142aw","addr:street":"ul. Wagonowa","addr:housenumber":"12","addr:teryt:simc":23495,"addr:teryt:sym_ul":986290,"contact:phone":"+48 713357000","contact:email":"technikum@roe.pl","contact:website":"http:\/\/www.roe.pl","ref:regon":"364282120","operator":"Regionalny O\u015brodek Edukacji Sp\u00f3\u0142ka Z Ograniczon\u0105 Odpowiedzialno\u015bci\u0105","operator:type":"private","amenity":"school"}},{"id":59820,"type":"Feature","geometry":{"type":"Point","coordinates":[16.9932061,51.1121883]},"properties":{"ref:rspo":59820,"official_name":"Dolno\u015bL\u0105ski Specjalny O\u015brodek Szkolno-Wychowawczy Nr 12 dla Uczni\u00f3w Nies\u0142ysz\u0105cych I S\u0142abos\u0142ysz\u0105cych Oraz Z Innymi Niepe\u0142nosprawno\u015bciami im. Marii Grzegorzewskiej we Wroc\u0142awiu","name":"Dolno\u015bL\u0105ski Specjalny O\u015brodek Szkolno-Wychowawczy Nr 12 dla Uczni\u00f3w Nies\u0142ysz\u0105cych I S\u0142abos\u0142ysz\u0105cych Oraz Z Innymi Niepe\u0142nosprawno\u015bciami","addr:country":"PL","addr:postcode":"54-144","addr:city":"Wroc\u0142aw","addr:street":"ul. Dworska","addr:housenumber":"8","addr:teryt:simc":4446,"addr:teryt:sym_ul":986290,"contact:phone":"+48 713536469","contact:email":"osrodek12@gmail.com","ref:regon":"000704570","operator":"Wojew\u00f3dztwo Dolno\u015bl\u0105skie","operator:type":"government","amenity":"school","note":"Children RSPO: 74607;74765;74795;74813;74926;118568;263918;278080"}},{"id":74607,"type":"Feature","geometry":{"type":"Point","coordinates":[16.9932061,51.1121583]},"properties":{"isced:level":"1;2","ref:rspo":74607,"official_name":"Szko\u0142a Podstawowa Specjalna Nr 121 dla Uczni\u00f3w Nies\u0142ysz\u0105cych I S\u0142abos\u0142ysz\u0105cych","name":"Szko\u0142a Podstawowa Specjalna Nr 121 dla Uczni\u00f3w Nies\u0142ysz\u0105cych I S\u0142abos\u0142ysz\u0105cych","addr:country":"PL","addr:postcode":"54-144","addr:city":"Wroc\u0142aw","addr:street":"ul. Dworska","addr:housenumber":"8","addr:teryt:simc":4446,"addr:teryt:sym_ul":986290,"contact:phone":"+48 713536469","contact:email":"osrodek12@gmail.com","ref:regon":"000924649","operator":"Wojew\u00f3dztwo Dolno\u015bl\u0105skie","operator:type":"government","amenity":"school","note":"Parent RSPO: 59820"}},{"id":74765,"type":"Feature","geometry":{"type":"Point","coordinates":[16.9932061,51.1121283]},"properties":{"isced:level":"3","ref:rspo":74765,"official_name":"Bran\u017cowa Szko\u0142a I Stopnia Nr 15 dla Uczni\u00f3w Nies\u0142yszacych I S\u0142aboslyszacych","name":"Bran\u017cowa Szko\u0142a I Stopnia Nr 15 dla Uczni\u00f3w Nies\u0142yszacych I S\u0142aboslyszacych","addr:country":"PL","addr:postcode":"54-144","addr:city":"Wroc\u0142aw","addr:street":"ul. Dworska","addr:housenumber":"8","addr:teryt:simc":4446,"addr:teryt:sym_ul":986290,"contact:phone":"+48 713536469","contact:email":"osrodek12@gmail.com","ref:regon":"000180350","operator":"Wojew\u00f3dztwo Dolno\u015bl\u0105skie","operator:type":"government","amenity":"school","note":"Parent RSPO: 59820"}},{"id":74795,"type":"Feature","geometry":{"type":"Point","coordinates":[16.9932061,51.1120983]},"properties":{"isced:level":"4","ref:rspo":74795,"official_name":"Szko\u0142a Policealna Specjalna Nr 17 dla Uczni\u00f3w Nies\u0142ysz\u0105cych I S\u0142abos\u0142ysz\u0105cych","name":"Szko\u0142a Policealna Specjalna Nr 17 dla Uczni\u00f3w Nies\u0142ysz\u0105cych I S\u0142abos\u0142ysz\u0105cych","addr:country":"PL","addr:postcode":"54-144","addr:city":"Wroc\u0142aw","addr:street":"ul. Dworska","addr:housenumber":"8","addr:teryt:simc":4446,"addr:teryt:sym_ul":986290,"contact:phone":"+48 713536468","ref:regon":"020126027","operator":"Wojew\u00f3dztwo Dolno\u015bl\u0105skie","operator:type":"government","amenity":"college","note":"Parent RSPO: 59820"}},{"id":74813,"type":"Feature","geometry":{"type":"Point","coordinates":[16.9932061,51.1120683]},"properties":{"ref:rspo":74813,"official_name":"Szko\u0142a Specjalna Przysposabiaj\u0105ca Do Pracy w Dolno\u015bL\u0105skim Specjalnym O\u015brodku Szkolno-Wychowawczym Nr 12 dla Nies\u0142ysz\u0105cych I S\u0142abos\u0142ysz\u0105cych we Wroc\u0142awiu","name":"Szko\u0142a Specjalna Przysposabiaj\u0105ca Do Pracy w Dolno\u015bL\u0105skim Specjalnym O\u015brodku Szkolno-Wychowawczym Nr 12 dla Nies\u0142ysz\u0105cych I S\u0142abos\u0142ysz\u0105cych we Wroc\u0142awiu","addr:country":"PL","addr:postcode":"54-144","addr:city":"Wroc\u0142aw","addr:street":"ul. Dworska","addr:housenumber":"8","addr:teryt:simc":4446,"addr:teryt:sym_ul":986290,"contact:phone":"+48 713536469","ref:regon":"022006468","operator":"Wojew\u00f3dztwo Dolno\u015bl\u0105skie","operator:type":"government","amenity":"school","note":"Parent RSPO: 59820"}},{"id":74926,"type":"Feature","geometry":{"type":"Point","coordinates":[16.9932061,51.1120383]},"properties":{"ref:rspo":74926,"official_name":"Przedszkole Specjalne Nr 152 dla Dzieci Nies\u0142ysz\u0105cych I S\u0142abos\u0142ysz\u0105cych","name":"Przedszkole Specjalne Nr 152 dla Dzieci Nies\u0142ysz\u0105cych I S\u0142abos\u0142ysz\u0105cych","addr:country":"PL","addr:postcode":"54-144","addr:city":"Wroc\u0142aw","addr:street":"ul. Dworska","addr:housenumber":"8","addr:teryt:simc":4446,"addr:teryt:sym_ul":986290,"contact:phone":"+48 713536469","ref:regon":"933020121","operator":"Wojew\u00f3dztwo Dolno\u015bl\u0105skie","operator:type":"government","amenity":"kindergarten","note":"Parent RSPO: 59820"}},{"id":118568,"type":"Feature","geometry":{"type":"Point","coordinates":[16.9932061,51.1120083]},"properties":{"isced:level":"3","ref:rspo":118568,"official_name":"Liceum Og\u00f3lnokszta\u0142c\u0105ce Specjalne dla Uczni\u00f3w Nies\u0142ysz\u0105cych I S\u0142abos\u0142ysz\u0105cych","name":"Liceum Og\u00f3lnokszta\u0142c\u0105ce Specjalne dla Uczni\u00f3w Nies\u0142ysz\u0105cych I S\u0142abos\u0142ysz\u0105cych","addr:country":"PL","addr:postcode":"54-144","addr:city":"Wroc\u0142aw","addr:street":"ul. Dworska","addr:housenumber":"8","addr:teryt:simc":4446,"addr:teryt:sym_ul":986290,"contact:phone":"+48 713536469","contact:email":"osrodek12@gmail.com","ref:regon":"022205038","operator":"Wojew\u00f3dztwo Dolno\u015bl\u0105skie","operator:type":"government","amenity":"school","note":"Parent RSPO: 59820"}},{"id":263918,"type":"Feature","geometry":{"type":"Point","coordinates":[16.9932061,51.1119783]},"properties":{"isced:level":"3","ref:rspo":263918,"official_name":"Technikum Specjalne dla Nies\u0142yszacych I S\u0142abos\u0142ysz\u0105cych we Wroc\u0142awiu","name":"Technikum Specjalne dla Nies\u0142yszacych I S\u0142abos\u0142ysz\u0105cych we Wroc\u0142awiu","addr:country":"PL","addr:postcode":"54-144","addr:city":"Wroc\u0142aw","addr:street":"ul. Dworska","addr:housenumber":"8","addr:teryt:simc":4446,"addr:teryt:sym_ul":986290,"contact:phone":"+48 713513468","contact:email":"osrodek12@gmail.com","ref:regon":"368244808","operator":"Wojew\u00f3dztwo Dolno\u015bl\u0105skie","operator:type":"government","amenity":"school","note":"Parent RSPO: 59820"}},{"id":278080,"type":"Feature","geometry":{"type":"Point","coordinates":[16.9932061,51.1119483]},"properties":{"isced:level":"3","ref:rspo":278080,"official_name":"Bran\u017cowa Szko\u0142a Specjalna II Stopnia dla Uczni\u00f3w Nies\u0142ysz\u0105cych I S\u0142abos\u0142ysz\u0105cych","name":"Bran\u017cowa Szko\u0142a Specjalna II Stopnia dla Uczni\u00f3w Nies\u0142ysz\u0105cych I S\u0142abos\u0142ysz\u0105cych","addr:country":"PL","addr:postcode":"54-144","addr:city":"Wroc\u0142aw","addr:street":"ul. Dworska","addr:housenumber":"8","addr:teryt:simc":4446,"addr:teryt:sym_ul":986290,"contact:phone":"+48 713536469","ref:regon":"389771463","operator":"Wojew\u00f3dztwo Dolno\u015bl\u0105skie","operator:type":"government","amenity":"school","note":"Parent RSPO: 59820"}},{"id":120778,"type":"Feature","geometry":{"type":"Point","coordinates":[16.99477,51.11221]},"properties":{"ref:rspo":120778,"official_name":"O\u015brodek Rehabilitacyjno-Edukacyjny dla Wyj\u0105tkowych Dzieci","name":"O\u015brodek Rehabilitacyjno-Edukacyjny dla Wyj\u0105tkowych Dzieci","addr:country":"PL","addr:postcode":"54-130","addr:city":"Wroc\u0142aw","addr:street":"ul. Eugeniusza Horbaczewskiego","addr:housenumber":"24","addr:teryt:simc":6732,"addr:teryt:sym_ul":986290,"contact:phone":"+48 693700600","contact:email":"wyjatkowedzieci@gmail.com","contact:website":"http:\/\/wyjatkowedzieci.com","ref:regon":"022291204","operator":"Potrafi\u0119 Pom\u00f3c Sp\u00f3\u0142ka Z Ograniczon\u0105 Odpowiedzialno\u015bci\u0105","operator:type":"private","amenity":"school"}},{"id":122781,"type":"Feature","geometry":{"type":"Point","coordinates":[16.99477,51.112179999999995]},"properties":{"ref:rspo":122781,"official_name":"Terapeutyczny Punkt Przedszkolny dla Wyj\u0105tkowych Dzieci","name":"Terapeutyczny Punkt Przedszkolny dla Wyj\u0105tkowych Dzieci","addr:country":"PL","addr:postcode":"54-130","addr:city":"Wroc\u0142aw","addr:street":"ul. Eugeniusza Horbaczewskiego","addr:housenumber":"24","addr:teryt:simc":6732,"addr:teryt:sym_ul":986290,"contact:phone":"+48 693700600","contact:email":"wyjatkowedzieci@gmail.com","contact:website":"http:\/\/wyjatkowedzieci.com","ref:regon":"022394482","operator":"Potrafi\u0119 Pom\u00f3c Sp\u00f3\u0142ka Z Ograniczon\u0105 Odpowiedzialno\u015bci\u0105","operator:type":"private","amenity":"kindergarten"}},{"id":24033,"type":"Feature","geometry":{"type":"Point","coordinates":[16.97989,51.11222]},"properties":{"ref:rspo":24033,"official_name":"Przedszkole Nr 113 Akademia Przedszkolaka","name":"Przedszkole Nr 113 Akademia Przedszkolaka","addr:country":"PL","addr:postcode":"54-155","addr:city":"Wroc\u0142aw","addr:street":"ul. Lotnicza","addr:housenumber":"22","addr:teryt:simc":11270,"addr:teryt:sym_ul":986290,"contact:phone":"+48 717986756","contact:email":"sekretariat.p113@wroclawskaedukacja.pl","contact:website":"http:\/\/www.przedszkole113.edu.wroclaw.pl","ref:regon":"930112816","ref:vatin":"PL8942561748","operator":"Gmina Wroc\u0142aw","operator:type":"government","amenity":"kindergarten"}},{"id":57239,"type":"Feature","geometry":{"type":"Point","coordinates":[16.97989,51.11219]},"properties":{"ref:rspo":57239,"official_name":"Przedszkole Niepubliczne \"Bajka\"","name":"Przedszkole Niepubliczne \"Bajka\"","addr:country":"PL","addr:postcode":"54-218","addr:city":"Wroc\u0142aw","addr:street":"ul. K\u0142odnicka","addr:housenumber":"22","addr:teryt:simc":8619,"addr:teryt:sym_ul":986290,"contact:phone":"+48 713517233","contact:email":"dyrektor@bajka.edu.pl","contact:website":"http:\/\/www.bajka.edu.pl","ref:regon":"022002654","operator":"Wroc\u0142awskie Stowarzyszenie Na Rzecz Dzieci I M\u0142odzie\u017cy \"Bajka\"","operator:type":"ngo","amenity":"kindergarten"}},{"id":278212,"type":"Feature","geometry":{"type":"Point","coordinates":[16.98679,51.11228]},"properties":{"ref:rspo":278212,"official_name":"Niepubliczne Przedszkole J\u0119zykowo-Sportowe \"Luppo-Puppo 3\"","name":"Niepubliczne Przedszkole J\u0119zykowo-Sportowe \"Luppo-Puppo 3\"","addr:country":"PL","addr:postcode":"54-234","addr:city":"Wroc\u0142aw","addr:street":"ul. Bia\u0142owieska","addr:housenumber":"99c","addr:teryt:simc":1189,"addr:teryt:sym_ul":986290,"contact:phone":"+48 782767782","contact:email":"anna.pudlowska@wp.pl","contact:website":"http:\/\/luppopuppo.pl","ref:regon":"389873471","operator":"Mr Fragola Sp\u00f3\u0142ka Z Ograniczon\u0105 Odpowiedzialno\u015bci\u0105","operator:type":"private","amenity":"kindergarten"}},{"id":272549,"type":"Feature","geometry":{"type":"Point","coordinates":[16.9935014,51.1122868]},"properties":{"ref:rspo":272549,"official_name":"Niepubliczne Przedszkole Fair Play","name":"Niepubliczne Przedszkole Fair Play","addr:country":"PL","addr:postcode":"53-609","addr:city":"Wroc\u0142aw","addr:street":"ul. Fabryczna","addr:housenumber":"6","addr:teryt:simc":4863,"addr:teryt:sym_ul":986290,"contact:phone":"+48 692120988","contact:email":"biuro@przedszkolefairplay.wroclaw.pl","contact:website":"http:\/\/www.przedszkolefairplay.wroclaw.pl","ref:regon":"384264922","operator":"Natalia Skrzypacz","operator:type":"private","amenity":"kindergarten"}},{"id":14606,"type":"Feature","geometry":{"type":"Point","coordinates":[16.986,51.11235]},"properties":{"isced:level":"1;2","ref:rspo":14606,"official_name":"Szko\u0142a Podstawowa Nr 118 im. P\u0142k Pilota Boles\u0142awa Orli\u0144skiego","name":"Szko\u0142a Podstawowa Nr 118","addr:country":"PL","addr:postcode":"54-130","addr:city":"Wroc\u0142aw","addr:street":"bulw. Ikara","addr:housenumber":"19","addr:teryt:simc":6872,"addr:teryt:sym_ul":986290,"contact:phone":"+48 717986840","contact:email":"szkola@sp118.pl","contact:website":"http:\/\/www.sp118.pl","ref:regon":"930307678","ref:vatin":"PL8942434151","operator":"Gmina Wroc\u0142aw","operator:type":"government","amenity":"school"}},{"id":128404,"type":"Feature","geometry":{"type":"Point","coordinates":[16.986,51.11232]},"properties":{"ref:rspo":128404,"official_name":"Publiczne Przedszkole \"Akademia Bajkowa Dolina\"","name":"Publiczne Przedszkole \"Akademia Bajkowa Dolina\"","addr:country":"PL","addr:postcode":"52-415","addr:city":"Wroc\u0142aw","addr:street":"ul. Karola Darwina","addr:housenumber":"19","addr:teryt:simc":3624,"addr:teryt:sym_ul":986290,"contact:phone":"+48 609100644","contact:email":"biuro@bajkowa-dolina.pl","contact:website":"http:\/\/www.bajkowa-dolina.pl","ref:regon":"362288070","operator":"Anna Baszak","operator:type":"private","amenity":"kindergarten"}},{"id":267840,"type":"Feature","geometry":{"type":"Point","coordinates":[16.986,51.11229]},"properties":{"ref:rspo":267840,"official_name":"Publiczne Przedszkole \"Weso\u0142e Ma\u0142pki\"","name":"Publiczne Przedszkole \"Weso\u0142e Ma\u0142pki\"","addr:country":"PL","addr:postcode":"54-401","addr:city":"Wroc\u0142aw","addr:street":"ul. Szwedzka","addr:housenumber":"19abc","addr:teryt:simc":22179,"addr:teryt:sym_ul":986290,"contact:phone":"+48 789977749","contact:email":"wesole.malpki.wroc@gmail.com","ref:regon":"380724410","operator":"Proedu Sp\u00f3\u0142ka Z Ograniczon\u0105 Odpowiedzialno\u015bci\u0105","operator:type":"private","amenity":"kindergarten"}},{"id":14871,"type":"Feature","geometry":{"type":"Point","coordinates":[16.99102,51.1124]},"properties":{"ref:rspo":14871,"official_name":"Zesp\u00f3\u0142 Szkolno-Przedszkolny Nr 9","name":"Zesp\u00f3\u0142 Szkolno-Przedszkolny Nr 9","addr:country":"PL","addr:postcode":"52-401","addr:city":"Wroc\u0142aw","addr:street":"ul. Ludwika Solskiego","addr:housenumber":"13","addr:teryt:simc":20551,"addr:teryt:sym_ul":986290,"contact:phone":"+48 717986932","contact:email":"sekretariat.zsp09@wroclawskaedukacja.pl","contact:website":"http:\/\/www.sp15.wroclaw.pl","ref:regon":"020119352","ref:vatin":"PL8942839362","operator":"Gmina Wroc\u0142aw","operator:type":"government","landuse":"education","fixme":"amenity=school, amenity=college albo landuse=education w zale\u017cno\u015bci od tego, jakie plac\u00f3wki wchodz\u0105 w sk\u0142ad zespo\u0142u. Sprawd\u017a, kiedy stosowa\u0107 amenity=* a kiedy landuse=education.","note":"Children RSPO: 20994;23200"}},{"id":14942,"type":"Feature","geometry":{"type":"Point","coordinates":[16.99102,51.11237]},"properties":{"isced:level":"4","ref:rspo":14942,"official_name":"Niepubliczna Szko\u0142a Policealna Teb Edukacja we Wroc\u0142awiu","name":"Niepubliczna Szko\u0142a Policealna Teb Edukacja we Wroc\u0142awiu","addr:country":"PL","addr:postcode":"53-609","addr:city":"Wroc\u0142aw","addr:street":"ul. Fabryczna","addr:housenumber":"13","addr:teryt:simc":4863,"addr:teryt:sym_ul":986290,"contact:phone":"+48 713555672","contact:email":"wroclaw@teb-edukacja.pl","contact:website":"http:\/\/www.teb.pl","ref:regon":"021993128","operator":"Teb Edukacja Sp\u00f3\u0142ka Z Ograniczon\u0105 Odpowiedzialno\u015bci\u0105","operator:type":"private","amenity":"college"}},{"id":15733,"type":"Feature","geometry":{"type":"Point","coordinates":[16.99102,51.11234]},"properties":{"isced:level":"4","ref:rspo":15733,"official_name":"Studium Medyczne Teb Edukacja we Wroc\u0142awiu","name":"Studium Medyczne Teb Edukacja we Wroc\u0142awiu","addr:country":"PL","addr:postcode":"53-609","addr:city":"Wroc\u0142aw","addr:street":"ul. Fabryczna","addr:housenumber":"13","addr:teryt:simc":4863,"addr:teryt:sym_ul":986290,"contact:phone":"+48 713555672","contact:email":"wroclaw@teb-edukacja.pl","contact:website":"http:\/\/www.teb.pl","ref:regon":"021972497","operator":"Teb Edukacja Sp\u00f3\u0142ka Z Ograniczon\u0105 Odpowiedzialno\u015bci\u0105","operator:type":"private","amenity":"college"}},{"id":272529,"type":"Feature","geometry":{"type":"Point","coordinates":[16.99102,51.11231]},"properties":{"isced:level":"1;2","ref:rspo":272529,"official_name":"Autorska Szko\u0142a Podstawowa Galileo","name":"Autorska Szko\u0142a Podstawowa Galileo","addr:country":"PL","addr:postcode":"53-609","addr:city":"Wroc\u0142aw","addr:street":"ul. Fabryczna","addr:housenumber":"13","addr:teryt:simc":4863,"addr:teryt:sym_ul":986290,"contact:phone":"+48 690660828","contact:email":"szkola@galileo.edu.pl","contact:website":"http:\/\/www.galileo.edu.pl","ref:regon":"384265034","operator":"Fundacja Swoj\u0105 Drog\u0105","operator:type":"ngo","amenity":"school"}},{"id":272537,"type":"Feature","geometry":{"type":"Point","coordinates":[16.99102,51.11228]},"properties":{"ref:rspo":272537,"official_name":"Niepubliczna Poradnia Psychologiczno-Pedagogiczna Evemed","name":"Niepubliczna Poradnia Psychologiczno-Pedagogiczna Evemed","addr:country":"PL","addr:postcode":"53-609","addr:city":"Wroc\u0142aw","addr:street":"ul. Fabryczna","addr:housenumber":"13","addr:teryt:simc":4863,"addr:teryt:sym_ul":986290,"contact:phone":"+48 516722304","contact:email":"poradnia@evemed.pl","contact:website":"http:\/\/www.evemed.pl","ref:regon":"384265235","operator":"Fundacja Swoj\u0105 Drog\u0105","operator:type":"ngo","healthcare":"councelling","counselling_type":"education","fixme":"w zale\u017cno\u015bci od przedmiotu dzia\u0142alno\u015bci (np. healthcare=councelling + counselling_type=education albo healthcare=psychotherapist)"}},{"id":20994,"type":"Feature","geometry":{"type":"Point","coordinates":[16.99102,51.11225]},"properties":{"isced:level":"1;2","ref:rspo":20994,"official_name":"Szko\u0142a Podstawowa Nr 15 im. Ksi\u0119\u017cnej Jadwigi \u015aL\u0105skiej","name":"Szko\u0142a Podstawowa Nr 15","addr:country":"PL","addr:postcode":"52-401","addr:city":"Wroc\u0142aw","addr:street":"ul. Ludwika Solskiego","addr:housenumber":"13","addr:teryt:simc":20551,"addr:teryt:sym_ul":986290,"contact:phone":"+48 717986932","contact:email":"sekretariat.zsp09@wroclawskaedukacja.pl","contact:website":"http:\/\/www.sp15.wroclaw.pl","ref:regon":"000693316","operator":"Gmina Wroc\u0142aw","operator:type":"government","amenity":"school","note":"Parent RSPO: 14871"}},{"id":23200,"type":"Feature","geometry":{"type":"Point","coordinates":[16.99102,51.11222]},"properties":{"ref:rspo":23200,"official_name":"Przedszkole Nr 131 Bajkowy Opor\u00f3w","name":"Przedszkole Nr 131 Bajkowy Opor\u00f3w","addr:country":"PL","addr:postcode":"52-401","addr:city":"Wroc\u0142aw","addr:street":"ul. Ludwika Solskiego","addr:housenumber":"13","addr:teryt:simc":20551,"addr:teryt:sym_ul":986290,"contact:phone":"+48 717986932","contact:email":"sekretariat.zsp09@wroclawskaedukacja.pl","contact:website":"http:\/\/www.przedszkole131.eu.interia.pl","ref:regon":"930112868","operator":"Gmina Wroc\u0142aw","operator:type":"government","amenity":"kindergarten","note":"Parent RSPO: 14871"}},{"id":278603,"type":"Feature","geometry":{"type":"Point","coordinates":[16.97853,51.11246]},"properties":{"ref:rspo":278603,"official_name":"Publiczne Przedszkole \"Pirackie Skarby\"","name":"Publiczne Przedszkole \"Pirackie Skarby\"","addr:country":"PL","addr:postcode":"54-426","addr:city":"Wroc\u0142aw","addr:street":"ul. Przemkowska","addr:housenumber":"4","addr:teryt:simc":17732,"addr:teryt:sym_ul":986290,"contact:phone":"+48 792221122","contact:email":"przemkowska@pirackieskarby.pl","contact:website":"http:\/\/www.pirackieskarby.pl","ref:regon":"389996050","operator":"\"Centrum Wspierania Biznesu Europea\" Sp\u00f3\u0142ka Z Ograniczon\u0105 Odpowiedzialno\u015bci\u0105","operator:type":"private","amenity":"kindergarten"}},{"id":11268,"type":"Feature","geometry":{"type":"Point","coordinates":[16.9942259,51.1124797]},"properties":{"ref:rspo":11268,"official_name":"Publiczne Przedszkole \"Cogito\"","name":"Publiczne Przedszkole \"Cogito\"","addr:country":"PL","addr:postcode":"53-206","addr:city":"Wroc\u0142aw","addr:street":"ul. Monterska","addr:housenumber":"4","addr:teryt:simc":13255,"addr:teryt:sym_ul":986290,"contact:phone":"+48 501669971","contact:email":"cogito.wroclaw@operator.edu.pl","contact:website":"https:\/\/cogito-wroclaw.operator.edu.pl","ref:regon":"021958787","operator":"Og\u00f3lnopolski Operator O\u015bwiaty","operator:type":"ngo","amenity":"kindergarten"}},{"id":129310,"type":"Feature","geometry":{"type":"Point","coordinates":[16.9942259,51.1124497]},"properties":{"ref:rspo":129310,"official_name":"Centrum Rozwoju Personalnego we Wroc\u0142awiu","name":"Centrum Rozwoju Personalnego we Wroc\u0142awiu","addr:country":"PL","addr:postcode":"53-609","addr:city":"Wroc\u0142aw","addr:street":"ul. Wagonowa","addr:housenumber":"4","addr:teryt:simc":23495,"addr:teryt:sym_ul":986290,"contact:phone":"+48 717071660","contact:email":"kontakt@crp.wroclaw.pl","contact:website":"http:\/\/www.crp.wroclaw.pl","ref:regon":"362571564","operator":"Crp We Wroc\u0142awiu Sp\u00f3\u0142ka Z Ograniczon\u0105 Odpowiedzialno\u015bci\u0105","operator:type":"private","fixme":"w zale\u017cno\u015bci od przedmiotu dzia\u0142alno\u015bci (np. amenity=training + training=*, amenity=dancing_school, amenity=language_school, amenity=music_school)"}},{"id":120894,"type":"Feature","geometry":{"type":"Point","coordinates":[16.9943282,51.1125213]},"properties":{"ref:rspo":120894,"official_name":"Akademia Wn\u0119trz Ewa Romanow-G\u0142owacka","name":"Akademia Wn\u0119trz Ewa Romanow-G\u0142owacka","addr:country":"PL","addr:postcode":"53-609","addr:city":"Wroc\u0142aw","addr:street":"ul. Wagonowa","addr:housenumber":"2c","addr:door":"2","addr:teryt:simc":23495,"addr:teryt:sym_ul":986290,"contact:phone":"+48 698777999","contact:email":"akademia@ewaromanow.pl","contact:website":"http:\/\/www.akademia.ewaromanow.pl","ref:regon":"022303924","operator":"Ewa Romanow-G\u0142owacka","operator:type":"private","fixme":"w zale\u017cno\u015bci od przedmiotu dzia\u0142alno\u015bci (np. amenity=training + training=*, amenity=dancing_school, amenity=language_school, amenity=music_school)"}},{"id":131525,"type":"Feature","geometry":{"type":"Point","coordinates":[16.9943282,51.112491299999995]},"properties":{"ref:rspo":131525,"official_name":"Punkt Przedszkolny \"Latawiec\"","name":"Punkt Przedszkolny \"Latawiec\"","addr:country":"PL","addr:postcode":"54-020","addr:city":"Wroc\u0142aw","addr:street":"ul. Junacka","addr:housenumber":"2","addr:teryt:simc":7660,"addr:teryt:sym_ul":986290,"contact:phone":"+48 792846379","contact:email":"kontakt@przedszkolelatawiec.pl","contact:website":"http:\/\/www.przedszkolelatawiec.pl","ref:regon":"365226780","operator":"El\u017cbieta Nadzieja","operator:type":"private","amenity":"kindergarten"}},{"id":132865,"type":"Feature","geometry":{"type":"Point","coordinates":[16.9943282,51.1124613]},"properties":{"ref:rspo":132865,"official_name":"Zesp\u00f3\u0142 Szk\u00f3\u0142 I Plac\u00f3wek Fundacji Ewangelickie Centrum Diakonii I Edukacji im. Ks. Marcina Lutra","name":"Zesp\u00f3\u0142 Szk\u00f3\u0142 I Plac\u00f3wek Fundacji Ewangelickie Centrum Diakonii I Edukacji","addr:country":"PL","addr:postcode":"54-239","addr:city":"Wroc\u0142aw","addr:street":"ul. ks. Marcina Lutra","addr:housenumber":"2-8","addr:teryt:simc":51912,"addr:teryt:sym_ul":986290,"contact:phone":"+48 717982600","contact:email":"sekretariat@diakonia.pl","contact:website":"http:\/\/www.diakonia.pl","ref:regon":"366322421","operator":"\"Fundacja Ewangelickie Centrum Diakonii I Edukacji Im.ks. Marcina Lutra\"","operator:type":"ngo","landuse":"education","fixme":"amenity=school, amenity=college albo landuse=education w zale\u017cno\u015bci od tego, jakie plac\u00f3wki wchodz\u0105 w sk\u0142ad zespo\u0142u. Sprawd\u017a, kiedy stosowa\u0107 amenity=* a kiedy landuse=education.","note":"Children RSPO: 20491;22302;104414;263466"}},{"id":133400,"type":"Feature","geometry":{"type":"Point","coordinates":[16.9943282,51.1124313]},"properties":{"ref:rspo":133400,"official_name":"Centrum Innowacji Prolearning Agnieszka Ko\u0142odziejczyk","name":"Centrum Innowacji Prolearning Agnieszka Ko\u0142odziejczyk","addr:country":"PL","addr:postcode":"53-609","addr:city":"Wroc\u0142aw","addr:street":"ul. Wagonowa","addr:housenumber":"2c","addr:door":"2","addr:teryt:simc":23495,"addr:teryt:sym_ul":986290,"contact:phone":"+48 713535251","contact:email":"akolodziejczyk@prolearning.pl","contact:website":"http:\/\/www.prolearning.pl","ref:regon":"367223661","operator":"Agnieszka Ko\u0142odziejczyk","operator:type":"private","fixme":"w zale\u017cno\u015bci od przedmiotu dzia\u0142alno\u015bci (np. amenity=training + training=*, amenity=dancing_school, amenity=language_school, amenity=music_school)"}},{"id":262372,"type":"Feature","geometry":{"type":"Point","coordinates":[16.9943282,51.112401299999995]},"properties":{"ref:rspo":262372,"official_name":"Zesp\u00f3\u0142 Szkolno-Przedszkolny Nr 20","name":"Zesp\u00f3\u0142 Szkolno-Przedszkolny Nr 20","addr:country":"PL","addr:postcode":"54-061","addr:city":"Wroc\u0142aw","addr:street":"ul. Karpnicka","addr:housenumber":"2","addr:teryt:simc":8110,"addr:teryt:sym_ul":986290,"contact:phone":"+48 717986845","contact:email":"sekretariat.zsp20@wroclawskaedukacja.pl","contact:website":"http:\/\/www.sp22.edupage.org","ref:regon":"367994230","operator":"Gmina Wroc\u0142aw","operator:type":"government","landuse":"education","fixme":"amenity=school, amenity=college albo landuse=education w zale\u017cno\u015bci od tego, jakie plac\u00f3wki wchodz\u0105 w sk\u0142ad zespo\u0142u. Sprawd\u017a, kiedy stosowa\u0107 amenity=* a kiedy landuse=education.","note":"Children RSPO: 14844;262396"}},{"id":268469,"type":"Feature","geometry":{"type":"Point","coordinates":[16.9943282,51.1123713]},"properties":{"ref:rspo":268469,"official_name":"Niepubliczne Dwuj\u0119zyczne Przedszkole Kids&Co 1","name":"Niepubliczne Dwuj\u0119zyczne Przedszkole Kids&Co 1","addr:country":"PL","addr:postcode":"54-130","addr:city":"Wroc\u0142aw","addr:street":"ul. Szybowcowa","addr:housenumber":"2","addr:teryt:simc":22210,"addr:teryt:sym_ul":986290,"contact:phone":"+48 537888310","contact:email":"karolina.ogrodowicz@kids-co.pl","contact:website":"http:\/\/www.kids-co.pl","ref:regon":"381172645","operator":"Centrum Rozwoju Dziecka Sp\u00f3\u0142ka Z Ograniczon\u0105 Odpowiedzialno\u015bci\u0105","operator:type":"private","amenity":"kindergarten"}},{"id":66138,"type":"Feature","geometry":{"type":"Point","coordinates":[16.9943282,51.1123413]},"properties":{"isced:level":"3","ref:rspo":66138,"official_name":"Liceum Og\u00f3lnokszta\u0142c\u0105ce Specjalne","name":"Liceum Og\u00f3lnokszta\u0142c\u0105ce Specjalne","addr:country":"PL","addr:postcode":"54-239","addr:city":"Wroc\u0142aw","addr:street":"ul. ks. Marcina Lutra","addr:housenumber":"2-8","addr:teryt:simc":51912,"addr:teryt:sym_ul":986290,"contact:phone":"+48 717982600","contact:email":"sekretariat@diakonia.pl","contact:website":"http:\/\/www.diakonia.pl","ref:regon":"022006698","operator":"\"Fundacja Ewangelickie Centrum Diakonii I Edukacji Im.ks. Marcina Lutra\"","operator:type":"ngo","amenity":"school","note":"Parent RSPO: 22302"}},{"id":72625,"type":"Feature","geometry":{"type":"Point","coordinates":[16.9943282,51.112311299999995]},"properties":{"isced:level":"3","ref:rspo":72625,"official_name":"Bran\u017cowa Szko\u0142a I Stopnia Specjalna","name":"Bran\u017cowa Szko\u0142a I Stopnia Specjalna","addr:country":"PL","addr:postcode":"54-239","addr:city":"Wroc\u0142aw","addr:street":"ul. ks. Marcina Lutra","addr:housenumber":"2-8","addr:teryt:simc":51912,"addr:teryt:sym_ul":986290,"contact:phone":"+48 717982600","contact:email":"sekretariat@diakonia.pl","contact:website":"http:\/\/www.diakonia.pl","ref:regon":"022007864","operator":"\"Fundacja Ewangelickie Centrum Diakonii I Edukacji Im.ks. Marcina Lutra\"","operator:type":"ngo","amenity":"school","note":"Parent RSPO: 22302"}},{"id":72626,"type":"Feature","geometry":{"type":"Point","coordinates":[16.9943282,51.1122813]},"properties":{"isced:level":"3","ref:rspo":72626,"official_name":"Technikum Ekonomiczne Specjalne","name":"Technikum Ekonomiczne Specjalne","addr:country":"PL","addr:postcode":"54-239","addr:city":"Wroc\u0142aw","addr:street":"ul. ks. Marcina Lutra","addr:housenumber":"2-8","addr:teryt:simc":51912,"addr:teryt:sym_ul":986290,"contact:phone":"+48 717982600","contact:email":"sekretariat@diakonia.pl","contact:website":"http:\/\/www.diakonia.pl","ref:regon":"022007887","operator":"\"Fundacja Ewangelickie Centrum Diakonii I Edukacji Im.ks. Marcina Lutra\"","operator:type":"ngo","amenity":"school","note":"Parent RSPO: 22302"}},{"id":113524,"type":"Feature","geometry":{"type":"Point","coordinates":[16.9943282,51.1122513]},"properties":{"ref:rspo":113524,"official_name":"Szko\u0142a Specjalna Przysposabiaj\u0105ca Do Pracy","name":"Szko\u0142a Specjalna Przysposabiaj\u0105ca Do Pracy","addr:country":"PL","addr:postcode":"54-239","addr:city":"Wroc\u0142aw","addr:street":"ul. ks. Marcina Lutra","addr:housenumber":"2-8","addr:teryt:simc":51912,"addr:teryt:sym_ul":986290,"contact:phone":"+48 717982600","contact:email":"sekretariat@diakonia.pl","contact:website":"http:\/\/www.diakonia.pl","ref:regon":"022115849","operator":"\"Fundacja Ewangelickie Centrum Diakonii I Edukacji Im.ks. Marcina Lutra\"","operator:type":"ngo","amenity":"school","note":"Parent RSPO: 22302"}},{"id":262743,"type":"Feature","geometry":{"type":"Point","coordinates":[16.9943282,51.112221299999995]},"properties":{"isced:level":"1;2","ref:rspo":262743,"official_name":"Szko\u0142a Podstawowa Specjalna","name":"Szko\u0142a Podstawowa Specjalna","addr:country":"PL","addr:postcode":"54-239","addr:city":"Wroc\u0142aw","addr:street":"ul. ks. Marcina Lutra","addr:housenumber":"2-8","addr:teryt:simc":51912,"addr:teryt:sym_ul":986290,"contact:phone":"+48 717982600","contact:email":"sekretariat@diakonia.pl","contact:website":"http:\/\/www.diakonia.pl","ref:regon":"368062409","operator":"\"Fundacja Ewangelickie Centrum Diakonii I Edukacji Im.ks. Marcina Lutra\"","operator:type":"ngo","amenity":"school","note":"Parent RSPO: 22302"}},{"id":20491,"type":"Feature","geometry":{"type":"Point","coordinates":[16.9943282,51.1121913]},"properties":{"isced:level":"1;2","ref:rspo":20491,"official_name":"Polsko-Niemiecka Szko\u0142a Podstawowa","name":"Polsko-Niemiecka Szko\u0142a Podstawowa","addr:country":"PL","addr:postcode":"54-239","addr:city":"Wroc\u0142aw","addr:street":"ul. ks. Marcina Lutra","addr:housenumber":"2-8","addr:teryt:simc":51912,"addr:teryt:sym_ul":986290,"contact:phone":"+48 717982600","contact:email":"sekretariat@diakonia.pl","contact:website":"http:\/\/www.diakonia.pl","ref:regon":"022006439","operator":"\"Fundacja Ewangelickie Centrum Diakonii I Edukacji Im.ks. Marcina Lutra\"","operator:type":"ngo","amenity":"school","note":"Parent RSPO: 132865"}},{"id":22302,"type":"Feature","geometry":{"type":"Point","coordinates":[16.9943282,51.1121613]},"properties":{"ref:rspo":22302,"official_name":"Niepubliczny O\u015brodek Szkolno-Wychowawczy Specjalny","name":"Niepubliczny O\u015brodek Szkolno-Wychowawczy Specjalny","addr:country":"PL","addr:postcode":"54-239","addr:city":"Wroc\u0142aw","addr:street":"ul. ks. Marcina Lutra","addr:housenumber":"2-8","addr:teryt:simc":51912,"addr:teryt:sym_ul":986290,"contact:phone":"+48 717982600","contact:email":"sekretariat@diakonia.pl","contact:website":"http:\/\/www.diakonia.pl","ref:regon":"021981579","operator":"\"Fundacja Ewangelickie Centrum Diakonii I Edukacji Im.ks. Marcina Lutra\"","operator:type":"ngo","amenity":"school","note":"Children RSPO: 66138;72625;72626;113524;262743Parent RSPO: 132865"}},{"id":104414,"type":"Feature","geometry":{"type":"Point","coordinates":[16.9943282,51.112131299999994]},"properties":{"ref:rspo":104414,"official_name":"Przedszkole Niepubliczne \"Weso\u0142e Nutki\"","name":"Przedszkole Niepubliczne \"Weso\u0142e Nutki\"","addr:country":"PL","addr:postcode":"54-239","addr:city":"Wroc\u0142aw","addr:street":"ul. ks. Marcina Lutra","addr:housenumber":"2-8","addr:teryt:simc":51912,"addr:teryt:sym_ul":986290,"contact:phone":"+48 717823780","contact:email":"wesolenutki@diakonia.pl","contact:website":"http:\/\/www.wesolenutki.diakonia.pl","ref:regon":"022035599","operator":"\"Fundacja Ewangelickie Centrum Diakonii I Edukacji Im.ks. Marcina Lutra\"","operator:type":"ngo","amenity":"kindergarten","note":"Parent RSPO: 132865"}},{"id":263466,"type":"Feature","geometry":{"type":"Point","coordinates":[16.9943282,51.1121013]},"properties":{"isced:level":"3","ref:rspo":263466,"official_name":"Liceum Og\u00f3lnokszta\u0142c\u0105ce Integracyjne","name":"Liceum Og\u00f3lnokszta\u0142c\u0105ce Integracyjne","addr:country":"PL","addr:postcode":"54-239","addr:city":"Wroc\u0142aw","addr:street":"ul. ks. Marcina Lutra","addr:housenumber":"2-8","addr:teryt:simc":51912,"addr:teryt:sym_ul":986290,"contact:phone":"+48 717982600","contact:email":"szkola@diakonia.pl","contact:website":"http:\/\/www.diakonia.pl","ref:regon":"368193353","operator":"\"Fundacja Ewangelickie Centrum Diakonii I Edukacji Im.ks. Marcina Lutra\"","operator:type":"ngo","amenity":"school","note":"Parent RSPO: 132865"}},{"id":14844,"type":"Feature","geometry":{"type":"Point","coordinates":[16.9943282,51.1120713]},"properties":{"isced:level":"1;2","ref:rspo":14844,"official_name":"Szko\u0142a Podstawowa Nr 22","name":"Szko\u0142a Podstawowa Nr 22","addr:country":"PL","addr:postcode":"54-061","addr:city":"Wroc\u0142aw","addr:street":"ul. Karpnicka","addr:housenumber":"2","addr:teryt:simc":8110,"addr:teryt:sym_ul":986290,"contact:phone":"+48 717986845","contact:email":"sp22@sp22.wroclaw.pl","contact:website":"http:\/\/www.sp22.edupage.org","ref:regon":"000693345","ref:vatin":"PL8942567047","operator":"Gmina Wroc\u0142aw","operator:type":"government","amenity":"school","note":"Parent RSPO: 262372"}},{"id":262396,"type":"Feature","geometry":{"type":"Point","coordinates":[16.9943282,51.112041299999994]},"properties":{"ref:rspo":262396,"official_name":"Przedszkole Nr 20","name":"Przedszkole Nr 20","addr:country":"PL","addr:postcode":"54-061","addr:city":"Wroc\u0142aw","addr:street":"ul. Karpnicka","addr:housenumber":"2","addr:teryt:simc":8110,"addr:teryt:sym_ul":986290,"contact:phone":"+48 717986845","contact:email":"sp22@sp22.wroclaw.pl","contact:website":"http:\/\/www.sp22.edupage.org","ref:regon":"368013240","operator":"Gmina Wroc\u0142aw","operator:type":"government","amenity":"kindergarten","note":"Parent RSPO: 262372"}},{"id":21216,"type":"Feature","geometry":{"type":"Point","coordinates":[16.96049,51.11271]},"properties":{"isced:level":"4","ref:rspo":21216,"official_name":"Mdalecka Policealna Szko\u0142a Kosmetyczna","name":"Mdalecka Policealna Szko\u0142a Kosmetyczna","addr:country":"PL","addr:postcode":"54-433","addr:city":"Wroc\u0142aw","addr:street":"ul. Gubi\u0144ska","addr:housenumber":"1","addr:teryt:simc":6359,"addr:teryt:sym_ul":986290,"contact:phone":"+48 717810115","contact:email":"sekretariat@mdalecka.pl","contact:website":"http:\/\/www.mdalecka.pl","ref:regon":"021980539","operator":"Marzena Dalecka","operator:type":"private","amenity":"college"}},{"id":21561,"type":"Feature","geometry":{"type":"Point","coordinates":[16.96049,51.11268]},"properties":{"ref:rspo":21561,"official_name":"Md Centrum Kszta\u0142cenia Zawodowego","name":"Md Centrum Kszta\u0142cenia Zawodowego","addr:country":"PL","addr:postcode":"54-433","addr:city":"Wroc\u0142aw","addr:street":"ul. Gubi\u0144ska","addr:housenumber":"1","addr:teryt:simc":6359,"addr:teryt:sym_ul":986290,"contact:phone":"+48 717810115","contact:email":"kursy@mdalecka.pl","contact:website":"http:\/\/www.mdalecka.pl","ref:regon":"021980373","operator":"Marzena Dalecka","operator:type":"private","fixme":"w zale\u017cno\u015bci od przedmiotu dzia\u0142alno\u015bci (np. amenity=training + training=*, amenity=dancing_school, amenity=language_school, amenity=music_school)"}},{"id":279281,"type":"Feature","geometry":{"type":"Point","coordinates":[16.9946,51.11271]},"properties":{"ref:rspo":279281,"official_name":"Publiczne Przedszkole Elfiki 2","name":"Publiczne Przedszkole Elfiki 2","addr:country":"PL","addr:postcode":"53-608","addr:city":"Wroc\u0142aw","addr:street":"ul. Robotnicza","addr:housenumber":"72","addr:teryt:simc":18695,"addr:teryt:sym_ul":986290,"contact:phone":"+48 575987459","contact:email":"dyrektor@przedszkoleelfiki.pl","contact:website":"http:\/\/www.przedszkoleelfiki.pl","ref:regon":"521163061","operator":"Przedszkola Elfiki Sp\u00f3\u0142ka Z Ograniczon\u0105 Odpowiedzialno\u015bci\u0105","operator:type":"private","amenity":"kindergarten"}},{"id":133619,"type":"Feature","geometry":{"type":"Point","coordinates":[16.9788,51.1127899]},"properties":{"isced:level":"1;2","ref:rspo":133619,"official_name":"Szko\u0142a Podstawowa Nr 33 im. Tradycji Herbu Wroc\u0142awia","name":"Szko\u0142a Podstawowa Nr 33","addr:country":"PL","addr:postcode":"54-151","addr:city":"Wroc\u0142aw","addr:street":"ul. Kolista","addr:housenumber":"17","addr:teryt:simc":8846,"addr:teryt:sym_ul":986290,"contact:phone":"+48 717986728","contact:email":"sekretariat.sp033@wroclawskaedukacja.pl","contact:website":"http:\/\/www.sp33.wroclaw.pl","ref:regon":"367519858","operator":"Gmina Wroc\u0142aw","operator:type":"government","amenity":"school"}},{"id":18741,"type":"Feature","geometry":{"type":"Point","coordinates":[16.98158,51.1127899]},"properties":{"ref:rspo":18741,"official_name":"Centrum Szkolenia \"Femar\"","name":"Centrum Szkolenia \"Femar\"","addr:country":"PL","addr:postcode":"54-130","addr:city":"Wroc\u0142aw","addr:street":"bulw. Ikara","addr:housenumber":"29","addr:door":"1A","addr:teryt:simc":6872,"addr:teryt:sym_ul":986290,"contact:phone":"+48 717211189","contact:email":"femar@femar.pl","contact:website":"http:\/\/www.femar.pl","ref:regon":"021975053","operator":"Ma\u0142gorzata Felich","operator:type":"private","fixme":"w zale\u017cno\u015bci od przedmiotu dzia\u0142alno\u015bci (np. amenity=training + training=*, amenity=dancing_school, amenity=language_school, amenity=music_school)"}},{"id":271116,"type":"Feature","geometry":{"type":"Point","coordinates":[16.9788,51.11279]},"properties":{"isced:level":"3","ref:rspo":271116,"official_name":"Dwuj\u0119zyczne Liceum Og\u00f3lnokszta\u0142c\u0105ce Ekola","name":"Dwuj\u0119zyczne Liceum Og\u00f3lnokszta\u0142c\u0105ce Ekola","addr:country":"PL","addr:postcode":"53-204","addr:city":"Wroc\u0142aw","addr:street":"ul. Ojca Beyzyma","addr:housenumber":"17","addr:teryt:simc":1116,"addr:teryt:sym_ul":986290,"contact:phone":"+48 713119660","contact:email":"sekretariatlo@ekola.edu.pl","contact:website":"http:\/\/www.ekola.edu.pl","ref:regon":"383096948","operator":"Fundacja O\u015bwiatowa \"Ekola\"","operator:type":"ngo","amenity":"school","note":"Parent RSPO: 128084"}},{"id":267405,"type":"Feature","geometry":{"type":"Point","coordinates":[16.97627,51.1131]},"properties":{"ref:rspo":267405,"official_name":"Przedszkole Niepubliczne Kolorowe Kredki","name":"Przedszkole Niepubliczne Kolorowe Kredki","addr:country":"PL","addr:postcode":"54-429","addr:city":"Wroc\u0142aw","addr:street":"ul. Strzegomska","addr:housenumber":"140a","addr:teryt:simc":21359,"addr:teryt:sym_ul":986290,"contact:phone":"+48 663449169","contact:email":"przedszkole@kolorowekredki.wroclaw.pl","contact:website":"http:\/\/kolorowekredki.wroclaw.pl","ref:regon":"380292577","operator":"Pawe\u0142 P\u0142ochowski","operator:type":"private","amenity":"kindergarten"}},{"id":119875,"type":"Feature","geometry":{"type":"Point","coordinates":[16.9603,51.1132599]},"properties":{"ref:rspo":119875,"official_name":"Punkt Przedszkolny Przyjaciele \u017byrafy","name":"Punkt Przedszkolny Przyjaciele \u017byrafy","addr:country":"PL","addr:postcode":"54-434","addr:city":"Wroc\u0142aw","addr:street":"ul. Budziszy\u0144ska","addr:housenumber":"37","addr:door":"1a","addr:teryt:simc":2353,"addr:teryt:sym_ul":986290,"contact:phone":"+48 888837020","contact:email":"jsekowska.przyjacielezyrafy@gmail.com","contact:website":"http:\/\/www.przyjaciele-zyrafy.pl","ref:regon":"022250180","operator":"Joanna S\u0119kowska","operator:type":"private","amenity":"kindergarten"}},{"id":120355,"type":"Feature","geometry":{"type":"Point","coordinates":[16.98824,51.11353]},"properties":{"ref:rspo":120355,"official_name":"Centrum Kszta\u0142cenia Towarzystwa Wiedzy Powszechnej","name":"Centrum Kszta\u0142cenia Towarzystwa Wiedzy Powszechnej","addr:country":"PL","addr:postcode":"53-609","addr:city":"Wroc\u0142aw","addr:street":"ul. Wagonowa","addr:housenumber":"1","addr:teryt:simc":23495,"addr:teryt:sym_ul":986290,"contact:phone":"+48 713735797","contact:email":"kontakt@twpwroclaw.pl","contact:website":"http:\/\/www.twpwroclaw.pl","ref:regon":"022264986","operator":"\"Towarzystwo Wiedzy Powszechnej\" Oddzia\u0142 Regionalny We Wroc\u0142awiu","operator:type":"ngo","fixme":"w zale\u017cno\u015bci od przedmiotu dzia\u0142alno\u015bci (np. amenity=training + training=*, amenity=dancing_school, amenity=language_school, amenity=music_school)"}},{"id":11480,"type":"Feature","geometry":{"type":"Point","coordinates":[16.95338,51.1141]},"properties":{"isced:level":"3","ref:rspo":11480,"official_name":"Liceum Og\u00f3lnokszta\u0142c\u0105ce Nr XV im. Mjr Piotra Wysockiego","name":"Liceum Og\u00f3lnokszta\u0142c\u0105ce Nr XV","addr:country":"PL","addr:postcode":"54-436","addr:city":"Wroc\u0142aw","addr:street":"ul. Wojrowicka","addr:housenumber":"58","addr:teryt:simc":24621,"addr:teryt:sym_ul":986290,"contact:phone":"+48 717986739","contact:email":"sekretariat@loxv.wroclaw.pl","contact:website":"http:\/\/www.loxv.wroclaw.pl","ref:regon":"930576540","ref:vatin":"PL8942405497","operator":"Gmina Wroc\u0142aw","operator:type":"government","amenity":"school"}},{"id":14696,"type":"Feature","geometry":{"type":"Point","coordinates":[16.95338,51.11407]},"properties":{"ref:rspo":14696,"official_name":"Niepubliczna Plac\u00f3wka Kszta\u0142cenia Ustawicznego","name":"Niepubliczna Plac\u00f3wka Kszta\u0142cenia Ustawicznego","addr:country":"PL","addr:postcode":"54-436","addr:city":"Wroc\u0142aw","addr:street":"ul. Wojrowicka","addr:housenumber":"58","addr:teryt:simc":24621,"addr:teryt:sym_ul":986290,"contact:phone":"+48 767233740","contact:email":"zsb.primgabex@poczta.fm","ref:regon":"021970831","operator":"Przedsi\u0119biorstwo Produkcyjno-Us\u0142ugowe \"Primgabex\" Sp\u00f3\u0142ka Z Ograniczon\u0105 Odpowiedzialno\u015bci\u0105","operator:type":"private","fixme":"w zale\u017cno\u015bci od przedmiotu dzia\u0142alno\u015bci (np. amenity=training + training=*, amenity=dancing_school, amenity=language_school, amenity=music_school)"}},{"id":17695,"type":"Feature","geometry":{"type":"Point","coordinates":[16.95338,51.11404]},"properties":{"ref:rspo":17695,"official_name":"Andrzej W\u0142odarczyk Firma Szkoleniowa \"Aned\"","name":"Andrzej W\u0142odarczyk Firma Szkoleniowa \"Aned\"","addr:country":"PL","addr:postcode":"54-436","addr:city":"Wroc\u0142aw","addr:street":"ul. Wojrowicka","addr:housenumber":"58","addr:teryt:simc":24621,"addr:teryt:sym_ul":986290,"contact:phone":"+48 713398891","contact:email":"aned.aw@wp.pl","contact:website":"http:\/\/www.aned.com.pl","ref:regon":"021974852","ref:vatin":"PL8991056737","operator":"Andrzej W\u0142odarczyk","operator:type":"private","fixme":"w zale\u017cno\u015bci od przedmiotu dzia\u0142alno\u015bci (np. amenity=training + training=*, amenity=dancing_school, amenity=language_school, amenity=music_school)"}},{"id":123116,"type":"Feature","geometry":{"type":"Point","coordinates":[16.95338,51.11401]},"properties":{"isced:level":"1;2","ref:rspo":123116,"official_name":"Szko\u0142a Podstawowa Specjalna \"Wsp\u00f3lny \u015awiat\"","name":"Szko\u0142a Podstawowa Specjalna \"Wsp\u00f3lny \u015awiat\"","addr:country":"PL","addr:postcode":"54-436","addr:city":"Wroc\u0142aw","addr:street":"ul. Wojrowicka","addr:housenumber":"58","addr:teryt:simc":24621,"addr:teryt:sym_ul":986290,"contact:phone":"+48 501174592","contact:email":"biuro@wspolnyswiat.com.pl","contact:website":"http:\/\/www.wspolnyswiat.com.pl","ref:regon":"022419590","operator":"Szko\u0142a Podstawowa Specjalna Wsp\u00f3lny \u015awiat Sp\u00f3\u0142ka Z Ograniczon\u0105 Odpowiedzialno\u015bci\u0105","operator:type":"private","amenity":"school"}},{"id":24038,"type":"Feature","geometry":{"type":"Point","coordinates":[16.95942,51.11442]},"properties":{"ref:rspo":24038,"official_name":"Przedszkole Nr 123","name":"Przedszkole Nr 123","addr:country":"PL","addr:postcode":"54-434","addr:city":"Wroc\u0142aw","addr:street":"ul. Wojrowicka","addr:housenumber":"3","addr:teryt:simc":24621,"addr:teryt:sym_ul":986290,"contact:phone":"+48 717986762","contact:email":"sekretariat.p123@wroclawskaedukacja.pl","contact:website":"http:\/\/przedszkole123.edu.wroclaw.pl","ref:regon":"930112851","ref:vatin":"PL8942583773","operator":"Gmina Wroc\u0142aw","operator:type":"government","amenity":"kindergarten"}},{"id":42891,"type":"Feature","geometry":{"type":"Point","coordinates":[16.99501,51.1155199]},"properties":{"ref:rspo":42891,"official_name":"Centrum Kszta\u0142cenia Zawodowego","name":"Centrum Kszta\u0142cenia Zawodowego","addr:country":"PL","addr:postcode":"53-611","addr:city":"Wroc\u0142aw","addr:street":"ul. Strzegomska","addr:housenumber":"49a","addr:teryt:simc":21359,"addr:teryt:sym_ul":986290,"contact:phone":"+48 717986700","contact:email":"sekretariat@ckz.edu.pl","contact:website":"http:\/\/www.ckz.edu.pl","ref:regon":"931911784","ref:vatin":"PL8942454277","operator":"Gmina Wroc\u0142aw","operator:type":"government","fixme":"w zale\u017cno\u015bci od przedmiotu dzia\u0142alno\u015bci (np. amenity=training + training=*, amenity=dancing_school, amenity=language_school, amenity=music_school) albo amenity=school, amenity=college, albo landuse=education w zale\u017cno\u015bci od tego, jakie plac\u00f3wki wchodz\u0105 w sk\u0142ad zespo\u0142u. Sprawd\u017a, kiedy stosowa\u0107 amenity=* a kiedy landuse=education."}},{"id":103993,"type":"Feature","geometry":{"type":"Point","coordinates":[16.95649,51.11558]},"properties":{"ref:rspo":103993,"official_name":"Zesp\u00f3\u0142 Szk\u00f3\u0142 Nr 6","name":"Zesp\u00f3\u0142 Szk\u00f3\u0142 Nr 6","addr:country":"PL","addr:postcode":"54-438","addr:city":"Wroc\u0142aw","addr:street":"ul. Nowodworska","addr:housenumber":"70-82","addr:teryt:simc":14418,"addr:teryt:sym_ul":986290,"contact:phone":"+48 717986911","contact:email":"sekretariat@zs6.wroc.pl","contact:website":"http:\/\/www.zs6.wroc.pl","ref:regon":"931078560","ref:vatin":"PL8942444066","operator":"Gmina Wroc\u0142aw","operator:type":"government","landuse":"education","fixme":"amenity=school, amenity=college albo landuse=education w zale\u017cno\u015bci od tego, jakie plac\u00f3wki wchodz\u0105 w sk\u0142ad zespo\u0142u. Sprawd\u017a, kiedy stosowa\u0107 amenity=* a kiedy landuse=education.","note":"Children RSPO: 109770;112323;120747"}},{"id":109770,"type":"Feature","geometry":{"type":"Point","coordinates":[16.95649,51.11555]},"properties":{"isced:level":"3","ref:rspo":109770,"official_name":"Liceum Og\u00f3lnokszta\u0142c\u0105ce Z Oddzia\u0142ami Integracyjnymi Nr Xxx","name":"Liceum Og\u00f3lnokszta\u0142c\u0105ce Z Oddzia\u0142ami Integracyjnymi Nr Xxx","addr:country":"PL","addr:postcode":"54-438","addr:city":"Wroc\u0142aw","addr:street":"ul. Nowodworska","addr:housenumber":"70-82","addr:teryt:simc":14418,"addr:teryt:sym_ul":986290,"contact:phone":"+48 717986911","contact:email":"sekretariat@zs6.wroc.pl","contact:website":"http:\/\/www.zs6.wroc.pl","ref:regon":"932828588","ref:vatin":"PL8942444066","operator":"Gmina Wroc\u0142aw","operator:type":"government","amenity":"school","note":"Parent RSPO: 103993"}},{"id":112323,"type":"Feature","geometry":{"type":"Point","coordinates":[16.95649,51.115520000000004]},"properties":{"isced:level":"3","ref:rspo":112323,"official_name":"Technikum Nr 14 Z Oddzia\u0142ami Integracyjnymi","name":"Technikum Nr 14 Z Oddzia\u0142ami Integracyjnymi","addr:country":"PL","addr:postcode":"54-438","addr:city":"Wroc\u0142aw","addr:street":"ul. Nowodworska","addr:housenumber":"70-82","addr:teryt:simc":14418,"addr:teryt:sym_ul":986290,"contact:phone":"+48 717986911","contact:email":"sekretariat@zs6.wroc.pl","contact:website":"http:\/\/www.zs6.wroc.pl","ref:regon":"020570265","ref:vatin":"PL8942444066","operator":"Gmina Wroc\u0142aw","operator:type":"government","amenity":"school","note":"Parent RSPO: 103993"}},{"id":120747,"type":"Feature","geometry":{"type":"Point","coordinates":[16.95649,51.11549]},"properties":{"isced:level":"1;2","ref:rspo":120747,"official_name":"Szko\u0142a Podstawowa Integracyjna Nr 103 Z Oddzia\u0142ami Specjalnymi","name":"Szko\u0142a Podstawowa Integracyjna Nr 103 Z Oddzia\u0142ami Specjalnymi","addr:country":"PL","addr:postcode":"54-438","addr:city":"Wroc\u0142aw","addr:street":"ul. Nowodworska","addr:housenumber":"70-82","addr:teryt:simc":14418,"addr:teryt:sym_ul":986290,"contact:phone":"+48 717986911","contact:email":"sekretariat@zs6.wroc.pl","contact:website":"http:\/\/www.zs6.wroc.pl","ref:regon":"022284115","operator":"Gmina Wroc\u0142aw","operator:type":"government","amenity":"school","note":"Parent RSPO: 103993"}},{"id":278178,"type":"Feature","geometry":{"type":"Point","coordinates":[16.92403,51.11634]},"properties":{"ref:rspo":278178,"official_name":"Publiczne Przedszkole \"Marchewkowe Pole\"","name":"Publiczne Przedszkole \"Marchewkowe Pole\"","addr:country":"PL","addr:postcode":"54-515","addr:city":"Wroc\u0142aw","addr:street":"ul. Rezedowa","addr:housenumber":"80","addr:teryt:simc":18654,"addr:teryt:sym_ul":986290,"contact:phone":"+48 578002225","contact:email":"biuro@marchewkowepole.pl","contact:website":"http:\/\/www.marchewkowepole.pl","ref:regon":"389873413","operator":"Corso Edu Sp\u00f3\u0142ka Z Ograniczon\u0105 Odpowiedzialno\u015bci\u0105","operator:type":"private","amenity":"kindergarten"}},{"id":24044,"type":"Feature","geometry":{"type":"Point","coordinates":[16.95681,51.11709]},"properties":{"ref:rspo":24044,"official_name":"Przedszkole Nr 148","name":"Przedszkole Nr 148","addr:country":"PL","addr:postcode":"54-440","addr:city":"Wroc\u0142aw","addr:street":"ul. Rogowska","addr:housenumber":"18a","addr:teryt:simc":18768,"addr:teryt:sym_ul":986290,"contact:phone":"+48 717986772","contact:email":"sekretariat.p148@wroclawskaedukacja.pl","contact:website":"http:\/\/www.przedszkole148.wroclaw.pl","ref:regon":"930112911","ref:vatin":"PL8942614031","operator":"Gmina Wroc\u0142aw","operator:type":"government","amenity":"kindergarten"}},{"id":122782,"type":"Feature","geometry":{"type":"Point","coordinates":[16.92407,51.11815]},"properties":{"ref:rspo":122782,"official_name":"Integracyjny Punkt Przedszkolny Bingo","name":"Integracyjny Punkt Przedszkolny Bingo","addr:country":"PL","addr:postcode":"54-515","addr:city":"Wroc\u0142aw","addr:street":"ul. Rezedowa","addr:housenumber":"50","addr:teryt:simc":18654,"addr:teryt:sym_ul":986290,"contact:phone":"+48 696833466","contact:email":"kontakt@centrum-bingo.pl","contact:website":"http:\/\/www.centrum-bingo.pl","ref:regon":"022393608","operator":"Ewelina \u0141\u0105cka","operator:type":"private","amenity":"kindergarten"}},{"id":277315,"type":"Feature","geometry":{"type":"Point","coordinates":[16.99862,51.1208]},"properties":{"isced:level":"3","ref:rspo":277315,"official_name":"Technikum Nauk Nowoczesnych Terra Nova","name":"Technikum Nauk Nowoczesnych Terra Nova","addr:country":"PL","addr:postcode":"54-201","addr:city":"Wroc\u0142aw","addr:street":"ul. Przedmiejska","addr:housenumber":"6-10","addr:teryt:simc":17657,"addr:teryt:sym_ul":986290,"contact:phone":"+48 690160702","contact:email":"technikum@terranova.edu.pl","contact:website":"https:\/\/terranova.edu.pl","ref:regon":"388643071","operator":"Europejska Szko\u0142a Integracji Spo\u0142ecznej \"Terra Nova\" Sp\u00f3\u0142ka Z Ograniczon\u0105 Odpowiedzialno\u015bci\u0105","operator:type":"private","amenity":"school"}},{"id":277622,"type":"Feature","geometry":{"type":"Point","coordinates":[16.99862,51.12077]},"properties":{"isced:level":"4","ref:rspo":277622,"official_name":"Szko\u0142a Medyczna Terra Nova","name":"Szko\u0142a Medyczna Terra Nova","addr:country":"PL","addr:postcode":"54-201","addr:city":"Wroc\u0142aw","addr:street":"ul. Przedmiejska","addr:housenumber":"6-10","addr:teryt:simc":17657,"addr:teryt:sym_ul":986290,"contact:phone":"+48 533531024","contact:email":"medyczna@terranova.edu.pl","contact:website":"https:\/\/terranova.edu.pl","ref:regon":"389218996","operator":"Europejska Szko\u0142a Integracji Spo\u0142ecznej \"Terra Nova\" Sp\u00f3\u0142ka Z Ograniczon\u0105 Odpowiedzialno\u015bci\u0105","operator:type":"private","amenity":"college"}},{"id":14890,"type":"Feature","geometry":{"type":"Point","coordinates":[16.92613,51.12104]},"properties":{"ref:rspo":14890,"official_name":"Zesp\u00f3\u0142 Szkolno-Przedszkolny Nr 10","name":"Zesp\u00f3\u0142 Szkolno-Przedszkolny Nr 10","addr:country":"PL","addr:postcode":"54-512","addr:city":"Wroc\u0142aw","addr:street":"ul. Rumiankowa","addr:housenumber":"34","addr:teryt:simc":19094,"addr:teryt:sym_ul":986290,"contact:phone":"+48 717986916","contact:email":"sekretariat.zsp10@wroclawskaedukacja.pl","contact:website":"http:\/\/zsp10wroclaw.edupage.org","ref:regon":"020304010","ref:vatin":"PL8942877440","operator":"Gmina Wroc\u0142aw","operator:type":"government","landuse":"education","fixme":"amenity=school, amenity=college albo landuse=education w zale\u017cno\u015bci od tego, jakie plac\u00f3wki wchodz\u0105 w sk\u0142ad zespo\u0142u. Sprawd\u017a, kiedy stosowa\u0107 amenity=* a kiedy landuse=education.","note":"Children RSPO: 21026;23216"}},{"id":21026,"type":"Feature","geometry":{"type":"Point","coordinates":[16.92613,51.12101]},"properties":{"isced:level":"1;2","ref:rspo":21026,"official_name":"Szko\u0142a Podstawowa Nr 27","name":"Szko\u0142a Podstawowa Nr 27","addr:country":"PL","addr:postcode":"54-512","addr:city":"Wroc\u0142aw","addr:street":"ul. Rumiankowa","addr:housenumber":"34","addr:teryt:simc":19094,"addr:teryt:sym_ul":986290,"contact:phone":"+48 717986916","contact:email":"sekretariat.zsp10@wroclawskaedukacja.pl","contact:website":"http:\/\/zsp10wroclaw.edupage.org","ref:regon":"000693380","operator":"Gmina Wroc\u0142aw","operator:type":"government","amenity":"school","note":"Parent RSPO: 14890"}},{"id":23216,"type":"Feature","geometry":{"type":"Point","coordinates":[16.92613,51.12098]},"properties":{"ref:rspo":23216,"official_name":"Przedszkole Nr 69 Rumiankowe","name":"Przedszkole Nr 69 Rumiankowe","addr:country":"PL","addr:postcode":"54-512","addr:city":"Wroc\u0142aw","addr:street":"ul. Rumiankowa","addr:housenumber":"34","addr:teryt:simc":19094,"addr:teryt:sym_ul":986290,"contact:phone":"+48 717986916","contact:email":"sekretariat.zsp10@wroclawskaedukacja.pl","contact:website":"http:\/\/zsp10wroclaw.edupage.org","ref:regon":"930112696","operator":"Gmina Wroc\u0142aw","operator:type":"government","amenity":"kindergarten","note":"Parent RSPO: 14890"}},{"id":14953,"type":"Feature","geometry":{"type":"Point","coordinates":[16.9713148,51.1218608]},"properties":{"ref:rspo":14953,"official_name":"Zesp\u00f3\u0142 Szkolno-Przedszkolny Nr 2","name":"Zesp\u00f3\u0142 Szkolno-Przedszkolny Nr 2","addr:country":"PL","addr:postcode":"54-130","addr:city":"Wroc\u0142aw","addr:street":"ul. Eugeniusza Horbaczewskiego","addr:housenumber":"61","addr:teryt:simc":6732,"addr:teryt:sym_ul":986290,"contact:phone":"+48 717986925","contact:email":"sekretariat.zsp02@wroclawskaedukacja.pl","contact:website":"http:\/\/www.zsp2wroclaw.pl","ref:regon":"001267886","ref:vatin":"PL8961003676","operator":"Gmina Wroc\u0142aw","operator:type":"government","landuse":"education","fixme":"amenity=school, amenity=college albo landuse=education w zale\u017cno\u015bci od tego, jakie plac\u00f3wki wchodz\u0105 w sk\u0142ad zespo\u0142u. Sprawd\u017a, kiedy stosowa\u0107 amenity=* a kiedy landuse=education.","note":"Children RSPO: 20273;22346"}},{"id":20273,"type":"Feature","geometry":{"type":"Point","coordinates":[16.9713148,51.1218308]},"properties":{"isced:level":"1;2","ref:rspo":20273,"official_name":"Szko\u0142a Podstawowa Nr 38 im. Jerzego Kukuczki","name":"Szko\u0142a Podstawowa Nr 38","addr:country":"PL","addr:postcode":"54-130","addr:city":"Wroc\u0142aw","addr:street":"ul. Eugeniusza Horbaczewskiego","addr:housenumber":"61","addr:teryt:simc":6732,"addr:teryt:sym_ul":986290,"contact:phone":"+48 717986925","contact:email":"sekretariat.sp038@wroclawskaedukacja.pl","contact:website":"http:\/\/www.zsp2wroclaw.pl","ref:regon":"932886841","operator":"Gmina Wroc\u0142aw","operator:type":"government","amenity":"school","note":"Parent RSPO: 14953"}},{"id":22346,"type":"Feature","geometry":{"type":"Point","coordinates":[16.9713148,51.1218008]},"properties":{"ref:rspo":22346,"official_name":"Przedszkole Nr 84","name":"Przedszkole Nr 84","addr:country":"PL","addr:postcode":"54-130","addr:city":"Wroc\u0142aw","addr:street":"ul. Eugeniusza Horbaczewskiego","addr:housenumber":"61","addr:teryt:simc":6732,"addr:teryt:sym_ul":986290,"contact:phone":"+48 717986925","contact:email":"sekretariat.zsp02@wroclawskaedukacja.pl","contact:website":"http:\/\/www.zsp2wroclaw.pl","ref:regon":"932886864","operator":"Gmina Wroc\u0142aw","operator:type":"government","amenity":"kindergarten","note":"Parent RSPO: 14953"}},{"id":106842,"type":"Feature","geometry":{"type":"Point","coordinates":[16.98489,51.12212]},"properties":{"ref:rspo":106842,"official_name":"O\u015brodek Kurs\u00f3w J\u0119zyk\u00f3w Obcych-Wroc\u0142awska Szko\u0142a J\u0119zykowa Przy Ko\u015bciele Chrze\u015bcijan Baptyst\u00f3w","name":"O\u015brodek Kurs\u00f3w J\u0119zyk\u00f3w Obcych-Wroc\u0142awska Szko\u0142a J\u0119zykowa Przy Ko\u015bciele Chrze\u015bcijan Baptyst\u00f3w","addr:country":"PL","addr:postcode":"54-218","addr:city":"Wroc\u0142aw","addr:street":"ul. K\u0142odnicka","addr:housenumber":"2","addr:teryt:simc":8619,"addr:teryt:sym_ul":986290,"contact:phone":"+48 713514587","contact:email":"sekretariat@wsj.edu.pl","contact:website":"http:\/\/www.wsj.edu.pl","ref:regon":"022056130","operator":"Ko\u015bci\u00f3\u0142 Chrze\u015bcijan Baptyst\u00f3w We Wroc\u0142awiu","operator:type":"religious","fixme":"w zale\u017cno\u015bci od przedmiotu dzia\u0142alno\u015bci (np. amenity=training + training=*, amenity=dancing_school, amenity=language_school, amenity=music_school)"}},{"id":114381,"type":"Feature","geometry":{"type":"Point","coordinates":[16.97175,51.1223]},"properties":{"ref:rspo":114381,"official_name":"Akademia Chirurgii Jamy Ustnej we Wroc\u0142awiu","name":"Akademia Chirurgii Jamy Ustnej we Wroc\u0142awiu","addr:country":"PL","addr:postcode":"54-130","addr:city":"Wroc\u0142aw","addr:street":"ul. Eugeniusza Horbaczewskiego","addr:housenumber":"53A","addr:teryt:simc":6732,"addr:teryt:sym_ul":986290,"contact:phone":"+48 717884822","contact:email":"biuro@oralsurgery.pl","contact:website":"http:\/\/www.oralsurgery.pl","ref:regon":"022129283","operator":"\"Dental Salon\" Sp\u00f3\u0142ka Z Ograniczon\u0105 Odpowiedzialno\u015bci\u0105","operator:type":"private","fixme":"w zale\u017cno\u015bci od przedmiotu dzia\u0142alno\u015bci (np. amenity=training + training=*, amenity=dancing_school, amenity=language_school, amenity=music_school)"}},{"id":268177,"type":"Feature","geometry":{"type":"Point","coordinates":[16.9899,51.12231]},"properties":{"ref:rspo":268177,"official_name":"Niepubliczna Plac\u00f3wka O\u015bwiatowo-Wychowawcza \"Edume\"","name":"Niepubliczna Plac\u00f3wka O\u015bwiatowo-Wychowawcza \"Edume\"","addr:country":"PL","addr:postcode":"54-204","addr:city":"Wroc\u0142aw","addr:street":"ul. Legnicka","addr:housenumber":"62","addr:teryt:simc":10780,"addr:teryt:sym_ul":986290,"contact:phone":"+48 500832960","contact:email":"biuro@edu-me.pl","contact:website":"http:\/\/edu-me.pl","ref:regon":"381022220","operator":"Irmina Szubart-Ratusznik","operator:type":"private","fixme":"w zale\u017cno\u015bci od przedmiotu dzia\u0142alno\u015bci (np. amenity=training + training=*, amenity=dancing_school, amenity=language_school, amenity=music_school)"}},{"id":125865,"type":"Feature","geometry":{"type":"Point","coordinates":[16.96603,51.12319]},"properties":{"ref:rspo":125865,"official_name":"Niepubliczne Przedszkole \"Ma\u0142y Mistrz\"","name":"Niepubliczne Przedszkole \"Ma\u0142y Mistrz\"","addr:country":"PL","addr:postcode":"54-129","addr:city":"Wroc\u0142aw","addr:street":"ul. Stefana Drzewieckiego","addr:housenumber":"59","addr:teryt:simc":4307,"addr:teryt:sym_ul":986290,"contact:phone":"+48 609098564","contact:email":"biuro@przedszkolemalymistrz.pl","contact:website":"http:\/\/www.przedszkolemalymistrz.pl","ref:regon":"360088591","operator":"Mariusz Konieczny","operator:type":"private","amenity":"kindergarten"}},{"id":24510,"type":"Feature","geometry":{"type":"Point","coordinates":[16.99538,51.12328]},"properties":{"ref:rspo":24510,"official_name":"Przedszkole Nr 104 Na Misiowej Polanie","name":"Przedszkole Nr 104 Na Misiowej Polanie","addr:country":"PL","addr:postcode":"54-233","addr:city":"Wroc\u0142aw","addr:street":"ul. Nied\u017awiedzia","addr:housenumber":"26","addr:teryt:simc":14149,"addr:teryt:sym_ul":986290,"contact:phone":"+48 717986750","contact:email":"sekretariat.p104@wroclawskaedukacja.pl","contact:website":"http:\/\/www.przedszkole104.wroc.pl","ref:regon":"930112785","ref:vatin":"PL8942563227","operator":"Gmina Wroc\u0142aw","operator:type":"government","amenity":"kindergarten"}},{"id":15015,"type":"Feature","geometry":{"type":"Point","coordinates":[16.98017,51.1233]},"properties":{"ref:rspo":15015,"official_name":"Zesp\u00f3\u0142 Szk\u00f3\u0142 Nr 20","name":"Zesp\u00f3\u0142 Szk\u00f3\u0142 Nr 20","addr:country":"PL","addr:postcode":"54-207","addr:city":"Wroc\u0142aw","addr:street":"ul. K\u0142odnicka","addr:housenumber":"36","addr:teryt:simc":8619,"addr:teryt:sym_ul":986290,"contact:phone":"+48 717986896","contact:email":"sp65@zs20.pl","contact:website":"http:\/\/www.zs20.pl","ref:regon":"020351244","ref:vatin":"PL8942878882","operator":"Gmina Wroc\u0142aw","operator:type":"government","landuse":"education","fixme":"amenity=school, amenity=college albo landuse=education w zale\u017cno\u015bci od tego, jakie plac\u00f3wki wchodz\u0105 w sk\u0142ad zespo\u0142u. Sprawd\u017a, kiedy stosowa\u0107 amenity=* a kiedy landuse=education.","note":"Children RSPO: 21677;31880;83513"}},{"id":21677,"type":"Feature","geometry":{"type":"Point","coordinates":[16.98017,51.12327]},"properties":{"isced:level":"1;2","ref:rspo":21677,"official_name":"Szko\u0142a Podstawowa Nr 65 im. Profesor Marii Zduniak","name":"Szko\u0142a Podstawowa Nr 65","addr:country":"PL","addr:postcode":"54-207","addr:city":"Wroc\u0142aw","addr:street":"ul. K\u0142odnicka","addr:housenumber":"36","addr:teryt:simc":8619,"addr:teryt:sym_ul":986290,"contact:phone":"+48 717986896","contact:email":"sp65@zs20.pl","contact:website":"http:\/\/www.zs20.pl","ref:regon":"001066917","ref:vatin":"PL8942878882","operator":"Gmina Wroc\u0142aw","operator:type":"government","amenity":"school","note":"Parent RSPO: 15015"}},{"id":31880,"type":"Feature","geometry":{"type":"Point","coordinates":[16.98017,51.12324]},"properties":{"isced:level":"1;2","ref:rspo":31880,"official_name":"Og\u00f3lnokszta\u0142c\u0105ca Szko\u0142a Muzyczna I Stopnia Nr 3 im. Profesor Marii Zduniak","name":"Og\u00f3lnokszta\u0142c\u0105ca Szko\u0142a Muzyczna I Stopnia Nr 3","addr:country":"PL","addr:postcode":"54-218","addr:city":"Wroc\u0142aw","addr:street":"ul. K\u0142odnicka","addr:housenumber":"36","addr:teryt:simc":8619,"addr:teryt:sym_ul":986290,"contact:phone":"+48 717986896","contact:email":"sp65@zs20.pl","contact:website":"http:\/\/www.zs20.pl","ref:regon":"020351280","ref:vatin":"PL8942878882","operator":"Gmina Wroc\u0142aw","operator:type":"government","amenity":"school","note":"Parent RSPO: 15015"}},{"id":83513,"type":"Feature","geometry":{"type":"Point","coordinates":[16.98017,51.12321]},"properties":{"ref:rspo":83513,"official_name":"Szko\u0142a Muzyczna I Stopnia Nr 3","name":"Szko\u0142a Muzyczna I Stopnia Nr 3","addr:country":"PL","addr:postcode":"54-218","addr:city":"Wroc\u0142aw","addr:street":"ul. K\u0142odnicka","addr:housenumber":"36","addr:teryt:simc":8619,"addr:teryt:sym_ul":986290,"contact:phone":"+48 717986896","contact:email":"sekretariat.muzyczna@zs20.pl","contact:website":"http:\/\/www.zs20.pl","ref:regon":"020351238","ref:vatin":"PL8942878882","operator":"Gmina Wroc\u0142aw","operator:type":"government","amenity":"music_school","note":"Parent RSPO: 15015"}},{"id":120622,"type":"Feature","geometry":{"type":"Point","coordinates":[16.95273,51.1234899]},"properties":{"ref:rspo":120622,"official_name":"Klub Malucha Serduszkowo","name":"Klub Malucha Serduszkowo","addr:country":"PL","addr:postcode":"54-314","addr:city":"Wroc\u0142aw","addr:street":"ul. Dziwnowska","addr:housenumber":"2","addr:teryt:simc":4712,"addr:teryt:sym_ul":986290,"contact:phone":"+48 601537040","contact:email":"agata-czyzewska@o2.pl","contact:website":"http:\/\/www.klubmalucha-serduszkowo.pl","ref:regon":"022273420","operator":"Agata Czy\u017cewska","operator:type":"private","amenity":"kindergarten"}},{"id":41885,"type":"Feature","geometry":{"type":"Point","coordinates":[16.98423,51.12356]},"properties":{"ref:rspo":41885,"official_name":"Przedszkole Nr 122 Weso\u0142a Gromadka","name":"Przedszkole Nr 122 Weso\u0142a Gromadka","addr:country":"PL","addr:postcode":"54-217","addr:city":"Wroc\u0142aw","addr:street":"ul. K\u0142odnicka","addr:housenumber":"23","addr:teryt:simc":8619,"addr:teryt:sym_ul":986290,"contact:phone":"+48 717986761","contact:email":"sekretariat.p122@wroclawskaedukacja.pl","contact:website":"http:\/\/www.wesolagromadka.smyki.pl","ref:regon":"930112845","ref:vatin":"PL8942881275","operator":"Gmina Wroc\u0142aw","operator:type":"government","amenity":"kindergarten"}},{"id":269325,"type":"Feature","geometry":{"type":"Point","coordinates":[16.98617,51.12357]},"properties":{"ref:rspo":269325,"official_name":"Publiczne Przedszkole \"Sowia Akademia\"","name":"Publiczne Przedszkole \"Sowia Akademia\"","addr:country":"PL","addr:postcode":"54-206","addr:city":"Wroc\u0142aw","addr:street":"ul. Legnicka","addr:housenumber":"72","addr:teryt:simc":10780,"addr:teryt:sym_ul":986290,"contact:phone":"+48 537850233","contact:email":"przedszkole@sowiaakademia.pl","contact:website":"http:\/\/sowiaakademia.pl","ref:regon":"381454237","operator":"Legnicka 72 Sp\u00f3\u0142ka Z Ograniczon\u0105 Odpowiedzialno\u015bci\u0105","operator:type":"private","amenity":"kindergarten"}},{"id":23270,"type":"Feature","geometry":{"type":"Point","coordinates":[16.97285,51.12467]},"properties":{"ref:rspo":23270,"official_name":"Przedszkole Nr 63","name":"Przedszkole Nr 63","addr:country":"PL","addr:postcode":"54-130","addr:city":"Wroc\u0142aw","addr:street":"ul. Eugeniusza Horbaczewskiego","addr:housenumber":"27","addr:teryt:simc":6732,"addr:teryt:sym_ul":986290,"contact:phone":"+48 717986806","contact:email":"sekretariat.p063@wroclawskaedukacja.pl","contact:website":"http:\/\/www.p63.wroclaw.pl","ref:regon":"930112673","ref:vatin":"PL8942562908","operator":"Gmina Wroc\u0142aw","operator:type":"government","amenity":"kindergarten"}},{"id":262351,"type":"Feature","geometry":{"type":"Point","coordinates":[16.99758,51.12493]},"properties":{"isced:level":"1;2","ref:rspo":262351,"official_name":"Szko\u0142a Podstawowa Nr 5 im. Hugona Dionizego Steinhausa","name":"Szko\u0142a Podstawowa Nr 5","addr:country":"PL","addr:postcode":"54-242","addr:city":"Wroc\u0142aw","addr:street":"ul. Jelenia","addr:housenumber":"7","addr:teryt:simc":7455,"addr:teryt:sym_ul":986290,"contact:phone":"+48 717986703","contact:email":"sekretariat.sp005@wroclawskaedukacja.pl","contact:website":"http:\/\/sp5.wroclaw.pl","ref:regon":"367987967","operator":"Gmina Wroc\u0142aw","operator:type":"government","amenity":"school"}},{"id":278667,"type":"Feature","geometry":{"type":"Point","coordinates":[16.97727,51.12513]},"properties":{"ref:rspo":278667,"official_name":"Niepubliczne Przedszkole J\u0119zykowo-Sportowe \"Luppo-Puppo 4\"","name":"Niepubliczne Przedszkole J\u0119zykowo-Sportowe \"Luppo-Puppo 4\"","addr:country":"PL","addr:postcode":"54-207","addr:city":"Wroc\u0142aw","addr:street":"ul. Na Ostatnim Groszu","addr:housenumber":"3","addr:teryt:simc":13639,"addr:teryt:sym_ul":986290,"contact:phone":"+48 605132820","contact:email":"biuro@luppopuppo.pl","contact:website":"http:\/\/www.luppopuppo.pl","ref:regon":"520071368","operator":"Mr Fragola Sp\u00f3\u0142ka Z Ograniczon\u0105 Odpowiedzialno\u015bci\u0105","operator:type":"private","amenity":"kindergarten"}},{"id":19744,"type":"Feature","geometry":{"type":"Point","coordinates":[16.97027,51.1256]},"properties":{"ref:rspo":19744,"official_name":"Fikoland","name":"Fikoland","addr:country":"PL","addr:postcode":"54-130","addr:city":"Wroc\u0142aw","addr:street":"bulw. Ikara","addr:housenumber":"28a","addr:teryt:simc":6872,"addr:teryt:sym_ul":986290,"contact:phone":"+48 697797092","contact:email":"przedszkole@fikoland.edu.pl","ref:regon":"021979157","operator":"Beata Oko\u0144","operator:type":"private","amenity":"kindergarten"}},{"id":123653,"type":"Feature","geometry":{"type":"Point","coordinates":[16.94577,51.12587]},"properties":{"ref:rspo":123653,"official_name":"Przedszkole Nr 5 Wroc\u0142awskie Krasnale","name":"Przedszkole Nr 5 Wroc\u0142awskie Krasnale","addr:country":"PL","addr:postcode":"54-320","addr:city":"Wroc\u0142aw","addr:street":"ul. D\u017awirzy\u0144ska","addr:housenumber":"3","addr:teryt:simc":4724,"addr:teryt:sym_ul":986290,"contact:phone":"+48 717986935","contact:email":"sekretariat.p005@wroclawskaedukacja.pl","contact:website":"http:\/\/www.p5wroclaw.ekn.pl","ref:regon":"022459425","ref:vatin":"PL8943055361","operator":"Gmina Wroc\u0142aw","operator:type":"government","amenity":"kindergarten"}},{"id":20921,"type":"Feature","geometry":{"type":"Point","coordinates":[16.99114,51.12606]},"properties":{"ref:rspo":20921,"official_name":"Zesp\u00f3\u0142 Szk\u00f3\u0142 Nr 12","name":"Zesp\u00f3\u0142 Szk\u00f3\u0142 Nr 12","addr:country":"PL","addr:postcode":"54-234","addr:city":"Wroc\u0142aw","addr:street":"ul. Bia\u0142owieska","addr:housenumber":"74a","addr:teryt:simc":1189,"addr:teryt:sym_ul":986290,"contact:phone":"+48 717986888","contact:email":"sekretariat.zs12@wroclawskaedukacja.pl","contact:website":"http:\/\/www.zs12.edu.pl","ref:regon":"932216342","ref:vatin":"PL8942629133","operator":"Gmina Wroc\u0142aw","operator:type":"government","landuse":"education","fixme":"amenity=school, amenity=college albo landuse=education w zale\u017cno\u015bci od tego, jakie plac\u00f3wki wchodz\u0105 w sk\u0142ad zespo\u0142u. Sprawd\u017a, kiedy stosowa\u0107 amenity=* a kiedy landuse=education.","note":"Children RSPO: 81387;81388"}},{"id":81387,"type":"Feature","geometry":{"type":"Point","coordinates":[16.99114,51.12603]},"properties":{"isced:level":"1;2","ref:rspo":81387,"official_name":"Szko\u0142a Podstawowa Specjalna Nr 120","name":"Szko\u0142a Podstawowa Specjalna Nr 120","addr:country":"PL","addr:postcode":"54-235","addr:city":"Wroc\u0142aw","addr:street":"ul. Bia\u0142owieska","addr:housenumber":"74A","addr:teryt:simc":1189,"addr:teryt:sym_ul":986290,"contact:phone":"+48 717986888","contact:email":"sekretariat@zs12.edu.pl","contact:website":"http:\/\/www.zs12.edu.pl","ref:regon":"930665426","ref:vatin":"PL8942556606","operator":"Gmina Wroc\u0142aw","operator:type":"government","amenity":"school","note":"Parent RSPO: 20921"}},{"id":81388,"type":"Feature","geometry":{"type":"Point","coordinates":[16.99114,51.126000000000005]},"properties":{"isced:level":"3","ref:rspo":81388,"official_name":"Liceum Og\u00f3lnokszta\u0142c\u0105ce Specjalne Nr Xxxii","name":"Liceum Og\u00f3lnokszta\u0142c\u0105ce Specjalne Nr Xxxii","addr:country":"PL","addr:postcode":"54-234","addr:city":"Wroc\u0142aw","addr:street":"ul. Bia\u0142owieska","addr:housenumber":"74A","addr:teryt:simc":1189,"addr:teryt:sym_ul":986290,"contact:phone":"+48 717986888","contact:email":"sekretariat.zs12@wroclawskaedukacja.pl","contact:website":"http:\/\/www.zs12.edu.pl","ref:regon":"022007700","operator":"Gmina Wroc\u0142aw","operator:type":"government","amenity":"school","note":"Parent RSPO: 20921"}},{"id":119509,"type":"Feature","geometry":{"type":"Point","coordinates":[16.94597,51.12692]},"properties":{"ref:rspo":119509,"official_name":"Publiczny Punkt Przedszkolny \"Czerwony Kapturek\"","name":"Publiczny Punkt Przedszkolny \"Czerwony Kapturek\"","addr:country":"PL","addr:postcode":"54-317","addr:city":"Wroc\u0142aw","addr:street":"ul. Sarbinowska","addr:housenumber":"19-21","addr:teryt:simc":19523,"addr:teryt:sym_ul":986290,"contact:phone":"+48 501981316","contact:email":"k.paikert@fundacjaedukacja.pl","contact:website":"http:\/\/www.fundacjaedukacja.pl","ref:regon":"022239793","operator":"Edukacja Dla Przysz\u0142o\u015bci","operator:type":"ngo","amenity":"kindergarten"}},{"id":14963,"type":"Feature","geometry":{"type":"Point","coordinates":[16.94532,51.12731]},"properties":{"isced:level":"1;2","ref:rspo":14963,"official_name":"Szko\u0142a Podstawowa Nr 37 im. Kardyna\u0142a Stefana Wyszy\u0144skiego","name":"Szko\u0142a Podstawowa Nr 37","addr:country":"PL","addr:postcode":"54-320","addr:city":"Wroc\u0142aw","addr:street":"ul. Sarbinowska","addr:housenumber":"10","addr:teryt:simc":19523,"addr:teryt:sym_ul":986290,"contact:phone":"+48 717986850","contact:email":"szkola@sp37.info.pl","contact:website":"http:\/\/www.sp37.info.pl","ref:regon":"001268093","ref:vatin":"PL8961001499","operator":"Gmina Wroc\u0142aw","operator:type":"government","amenity":"school"}},{"id":14057,"type":"Feature","geometry":{"type":"Point","coordinates":[16.98766,51.12833]},"properties":{"isced:level":"1;2","ref:rspo":14057,"official_name":"Szko\u0142a Podstawowa Nr 3 im. Mariusza Zaruskiego","name":"Szko\u0142a Podstawowa Nr 3","addr:country":"PL","addr:postcode":"54-220","addr:city":"Wroc\u0142aw","addr:street":"ul. Bobrza","addr:housenumber":"27","addr:teryt:simc":1501,"addr:teryt:sym_ul":986290,"contact:phone":"+48 717986848","contact:email":"sekretariat@sp3.wroc.pl","contact:website":"http:\/\/www.sp3.wroc.pl","ref:regon":"000836276","ref:vatin":"PL8961001743","operator":"Gmina Wroc\u0142aw","operator:type":"government","amenity":"school"}},{"id":267824,"type":"Feature","geometry":{"type":"Point","coordinates":[16.95535,51.13105]},"properties":{"ref:rspo":267824,"official_name":"Fsa - Preschool","name":"Fsa - Preschool","addr:country":"PL","addr:postcode":"54-156","addr:city":"Wroc\u0142aw","addr:street":"ul. Metalowc\u00f3w","addr:housenumber":"27","addr:teryt:simc":12632,"addr:teryt:sym_ul":986290,"contact:phone":"+48 531680680","contact:email":"biuro@fsa.edu.pl","contact:website":"http:\/\/www.fsa.edu.pl","ref:regon":"380715546","operator":"First Step Academy Sp\u00f3\u0142ka Z Ograniczon\u0105 Odpowiedzialno\u015bci\u0105","operator:type":"private","amenity":"kindergarten"}},{"id":21278,"type":"Feature","geometry":{"type":"Point","coordinates":[16.97456,51.13253]},"properties":{"ref:rspo":21278,"official_name":"\"Piastusiowa Chatka\"","name":"\"Piastusiowa Chatka\"","addr:country":"PL","addr:postcode":"54-151","addr:city":"Wroc\u0142aw","addr:street":"ul. Pilczycka","addr:housenumber":"25","addr:teryt:simc":16221,"addr:teryt:sym_ul":986290,"contact:phone":"+48 662216621","contact:email":"przedszkole@omega.pl","contact:website":"http:\/\/www.piastusiowachatka.omega.pl","ref:regon":"021980491","operator":"Alicja Mioduszewska","operator:type":"private","amenity":"kindergarten"}},{"id":275653,"type":"Feature","geometry":{"type":"Point","coordinates":[16.97456,51.1325]},"properties":{"ref:rspo":275653,"official_name":"\"Piastusiowa Chatka II\"","name":"\"Piastusiowa Chatka II\"","addr:country":"PL","addr:postcode":"54-151","addr:city":"Wroc\u0142aw","addr:street":"ul. Pilczycka","addr:housenumber":"25","addr:teryt:simc":16221,"addr:teryt:sym_ul":986290,"contact:phone":"+48 662216621","contact:email":"piastusiowa.chatka@gmail.com","contact:website":"http:\/\/www.piastusiowachatka.com","ref:regon":"386930642","operator":"Alicja Mioduszewska","operator:type":"private","amenity":"kindergarten"}},{"id":20917,"type":"Feature","geometry":{"type":"Point","coordinates":[16.88459,51.13438]},"properties":{"ref:rspo":20917,"official_name":"M\u0142odzie\u017cowy O\u015brodek Socjoterapii Nr 2","name":"M\u0142odzie\u017cowy O\u015brodek Socjoterapii Nr 2","addr:country":"PL","addr:postcode":"54-029","addr:city":"Wroc\u0142aw","addr:street":"ul. Kielecka","addr:housenumber":"51a","addr:teryt:simc":8379,"addr:teryt:sym_ul":986290,"contact:phone":"+48 717986745","contact:email":"sekretariat.mos@wroclawskaedukacja.pl","contact:website":"http:\/\/www.mos2.org.pl","ref:regon":"930522170","ref:vatin":"PL8942566013","operator":"Gmina Wroc\u0142aw","operator:type":"government","fixme":"amenity=social facility + social_facility=group_home + social_facility:for=juvenile","note":"Children RSPO: 85778"}},{"id":85778,"type":"Feature","geometry":{"type":"Point","coordinates":[16.88459,51.13435]},"properties":{"isced:level":"1;2","ref:rspo":85778,"official_name":"Szko\u0142a Podstawowa Specjalna Nr 86 dla Niedostosowanych Spo\u0142ecznie","name":"Szko\u0142a Podstawowa Specjalna Nr 86 dla Niedostosowanych Spo\u0142ecznie","addr:country":"PL","addr:postcode":"54-029","addr:city":"Wroc\u0142aw","addr:street":"ul. Kielecka","addr:housenumber":"51a","addr:teryt:simc":8379,"addr:teryt:sym_ul":986290,"contact:phone":"+48 717986745","contact:email":"sekretariat.mos@wroclawskaedukacja.pl","contact:website":"http:\/\/www.mos2.org.pl","ref:regon":"005931105","ref:vatin":"PL8942566059","operator":"Gmina Wroc\u0142aw","operator:type":"government","amenity":"school","note":"Parent RSPO: 20917"}},{"id":14644,"type":"Feature","geometry":{"type":"Point","coordinates":[16.88708,51.1347499]},"properties":{"ref:rspo":14644,"official_name":"Zesp\u00f3\u0142 Szkolno-Przedszkolny Nr 14","name":"Zesp\u00f3\u0142 Szkolno-Przedszkolny Nr 14","addr:country":"PL","addr:postcode":"54-031","addr:city":"Wroc\u0142aw","addr:street":"ul. Cz\u0119stochowska","addr:housenumber":"42","addr:teryt:simc":3458,"addr:teryt:sym_ul":986290,"contact:phone":"+48 717986920","contact:email":"sekretariat.zsp14@wroclawskaedukacja.pl","contact:website":"http:\/\/www.sp24.wroclaw.pl","ref:regon":"021305186","ref:vatin":"PL8943003364","operator":"Gmina Wroc\u0142aw","operator:type":"government","landuse":"education","fixme":"amenity=school, amenity=college albo landuse=education w zale\u017cno\u015bci od tego, jakie plac\u00f3wki wchodz\u0105 w sk\u0142ad zespo\u0142u. Sprawd\u017a, kiedy stosowa\u0107 amenity=* a kiedy landuse=education.","note":"Children RSPO: 21515;23328"}},{"id":21515,"type":"Feature","geometry":{"type":"Point","coordinates":[16.88708,51.1347199]},"properties":{"isced:level":"1;2","ref:rspo":21515,"official_name":"Szko\u0142a Podstawowa Nr 24","name":"Szko\u0142a Podstawowa Nr 24","addr:country":"PL","addr:postcode":"54-031","addr:city":"Wroc\u0142aw","addr:street":"ul. Cz\u0119stochowska","addr:housenumber":"42","addr:teryt:simc":3458,"addr:teryt:sym_ul":986290,"contact:phone":"+48 717986920","contact:email":"sekretariat@sp24.nazwa.pl","contact:website":"http:\/\/www.sp24.wroclaw.pl","ref:regon":"000693351","operator":"Gmina Wroc\u0142aw","operator:type":"government","amenity":"school","note":"Parent RSPO: 14644"}},{"id":23328,"type":"Feature","geometry":{"type":"Point","coordinates":[16.88708,51.134689900000005]},"properties":{"ref:rspo":23328,"official_name":"Przedszkole Nr 24","name":"Przedszkole Nr 24","addr:country":"PL","addr:postcode":"54-031","addr:city":"Wroc\u0142aw","addr:street":"ul. Cz\u0119stochowska","addr:housenumber":"42","addr:teryt:simc":3458,"addr:teryt:sym_ul":986290,"contact:phone":"+48 717986920","contact:email":"sekretariat.p024@wroclawskaedukacja.pl","contact:website":"http:\/\/www.sp24.wroclaw.pl\/przedszkole","ref:regon":"021305192","operator":"Gmina Wroc\u0142aw","operator:type":"government","amenity":"kindergarten","note":"Parent RSPO: 14644"}},{"id":11476,"type":"Feature","geometry":{"type":"Point","coordinates":[16.9606299,51.13604]},"properties":{"isced:level":"3","ref:rspo":11476,"official_name":"Liceum Og\u00f3lnokszta\u0142c\u0105ce Nr VI im. Boles\u0142awa Prusa","name":"Liceum Og\u00f3lnokszta\u0142c\u0105ce Nr VI","addr:country":"PL","addr:postcode":"54-139","addr:city":"Wroc\u0142aw","addr:street":"ul. Hutnicza","addr:housenumber":"45","addr:teryt:simc":6825,"addr:teryt:sym_ul":986290,"contact:phone":"+48 717986734","contact:email":"lo6@lo6.wroc.pl","contact:website":"http:\/\/www.lo6.wroc.pl","ref:regon":"000210393","ref:vatin":"PL8942300278","operator":"Gmina Wroc\u0142aw","operator:type":"government","amenity":"school"}},{"id":24030,"type":"Feature","geometry":{"type":"Point","coordinates":[16.97404,51.13701]},"properties":{"ref:rspo":24030,"official_name":"Przedszkole Nr 110 Domek Krasnoludk\u00f3w","name":"Przedszkole Nr 110 Domek Krasnoludk\u00f3w","addr:country":"PL","addr:postcode":"54-152","addr:city":"Wroc\u0142aw","addr:street":"ul. Go\u0142\u0119\u017cycka","addr:housenumber":"4a","addr:teryt:simc":5773,"addr:teryt:sym_ul":986290,"contact:phone":"+48 717986755","contact:email":"sekretariat.p110@wroclawskaedukacja.pl","contact:website":"http:\/\/p110.szkolnastrona.pl","ref:regon":"930112791","ref:vatin":"PL8942561671","operator":"Gmina Wroc\u0142aw","operator:type":"government","amenity":"kindergarten"}},{"id":14855,"type":"Feature","geometry":{"type":"Point","coordinates":[16.95531,51.13737]},"properties":{"ref:rspo":14855,"official_name":"Zesp\u00f3\u0142 Szkolno-Przedszkolny Nr 7","name":"Zesp\u00f3\u0142 Szkolno-Przedszkolny Nr 7","addr:country":"PL","addr:postcode":"54-134","addr:city":"Wroc\u0142aw","addr:street":"ul. Koszykarska","addr:housenumber":"2-4","addr:teryt:simc":9535,"addr:teryt:sym_ul":986290,"contact:phone":"+48 717986930","contact:email":"sekretariat@zsp7wroc.pl","contact:website":"http:\/\/zsp7wroc.edupage.org","ref:regon":"932928025","ref:vatin":"PL8942765273","operator":"Gmina Wroc\u0142aw","operator:type":"government","landuse":"education","fixme":"amenity=school, amenity=college albo landuse=education w zale\u017cno\u015bci od tego, jakie plac\u00f3wki wchodz\u0105 w sk\u0142ad zespo\u0142u. Sprawd\u017a, kiedy stosowa\u0107 amenity=* a kiedy landuse=education.","note":"Children RSPO: 20970;23183"}},{"id":20970,"type":"Feature","geometry":{"type":"Point","coordinates":[16.95531,51.137339999999995]},"properties":{"isced:level":"1;2","ref:rspo":20970,"official_name":"Szko\u0142a Podstawowa Nr 19 im. Boles\u0142awa Chrobrego","name":"Szko\u0142a Podstawowa Nr 19","addr:country":"PL","addr:postcode":"54-134","addr:city":"Wroc\u0142aw","addr:street":"ul. Koszykarska","addr:housenumber":"2-4","addr:teryt:simc":9535,"addr:teryt:sym_ul":986290,"contact:phone":"+48 717986930","contact:email":"sekretariat@zsp7wroc.pl","contact:website":"http:\/\/www.zsp7wroc.edupage.org","ref:regon":"000693339","operator":"Gmina Wroc\u0142aw","operator:type":"government","amenity":"school","note":"Parent RSPO: 14855"}},{"id":23183,"type":"Feature","geometry":{"type":"Point","coordinates":[16.95531,51.13731]},"properties":{"ref:rspo":23183,"official_name":"Przedszkole Nr 64 Ekoludek","name":"Przedszkole Nr 64 Ekoludek","addr:country":"PL","addr:postcode":"54-134","addr:city":"Wroc\u0142aw","addr:street":"ul. Koszykarska","addr:housenumber":"2-4","addr:teryt:simc":9535,"addr:teryt:sym_ul":986290,"contact:phone":"+48 717986930","contact:email":"sekretariat@zsp7wroc.pl","contact:website":"http:\/\/www.zsp7wroc.edupage.org","ref:regon":"000207008","operator":"Gmina Wroc\u0142aw","operator:type":"government","amenity":"kindergarten","note":"Parent RSPO: 14855"}},{"id":22010,"type":"Feature","geometry":{"type":"Point","coordinates":[16.89764,51.13805]},"properties":{"ref:rspo":22010,"official_name":"Z\u0142ote Przedszkole Na Z\u0142otnikach","name":"Z\u0142ote Przedszkole Na Z\u0142otnikach","addr:country":"PL","addr:postcode":"54-032","addr:city":"Wroc\u0142aw","addr:street":"ul. Ma\u0142opolska","addr:housenumber":"5","addr:teryt:simc":12189,"addr:teryt:sym_ul":986290,"contact:phone":"+48 505410401","contact:email":"beata.borowiecka@op.pl","contact:website":"http:\/\/www.zlote-przedszkole.pl","ref:regon":"021980580","operator":"Beata Borowiecka","operator:type":"private","amenity":"kindergarten"}},{"id":74608,"type":"Feature","geometry":{"type":"Point","coordinates":[16.89868,51.13915]},"properties":{"ref:rspo":74608,"official_name":"Dolno\u015bL\u0105ski Specjalny O\u015brodek Szkolno-Wychowawczy Nr 13 dla Uczni\u00f3w Niewidomych I S\u0142abowidz\u0105cych Oraz Z Innymi Niepe\u0142nosprawno\u015bciami im. Marii Grzegorzewskiej we Wroc\u0142awiu","name":"Dolno\u015bL\u0105ski Specjalny O\u015brodek Szkolno-Wychowawczy Nr 13 dla Uczni\u00f3w Niewidomych I S\u0142abowidz\u0105cych Oraz Z Innymi Niepe\u0142nosprawno\u015bciami","addr:country":"PL","addr:postcode":"54-034","addr:city":"Wroc\u0142aw","addr:street":"ul. Kamiennog\u00f3rska","addr:housenumber":"16","addr:teryt:simc":7887,"addr:teryt:sym_ul":986290,"contact:phone":"+48 713495630","contact:email":"oswdn@poczta.fm","ref:regon":"000704600","operator":"Wojew\u00f3dztwo Dolno\u015bl\u0105skie","operator:type":"government","amenity":"school","note":"Children RSPO: 118569;127151;127153;127154;127156;127188"}},{"id":118569,"type":"Feature","geometry":{"type":"Point","coordinates":[16.89868,51.13912]},"properties":{"ref:rspo":118569,"official_name":"Szko\u0142a Specjalna Przysposabiaj\u0105ca Do Pracy","name":"Szko\u0142a Specjalna Przysposabiaj\u0105ca Do Pracy","addr:country":"PL","addr:postcode":"54-034","addr:city":"Wroc\u0142aw","addr:street":"ul. Kamiennog\u00f3rska","addr:housenumber":"16","addr:teryt:simc":7887,"addr:teryt:sym_ul":986290,"contact:phone":"+48 713495630","ref:regon":"022205015","operator":"Wojew\u00f3dztwo Dolno\u015bl\u0105skie","operator:type":"government","amenity":"school","note":"Parent RSPO: 74608"}},{"id":127151,"type":"Feature","geometry":{"type":"Point","coordinates":[16.89868,51.13909]},"properties":{"isced:level":"1;2","ref:rspo":127151,"official_name":"Szko\u0142a Podstawowa Specjalna Nr 122 dla Uczni\u00f3w Niewidomych I S\u0142abowidz\u0105cych w Dolno\u015bL\u0105skim Specjlanym O\u015brodku Szkolno-Wychowawczym Nr 13 dla Niewidomych I S\u0142abowicz\u0105cych we Wroc\u0142awiu","name":"Szko\u0142a Podstawowa Specjalna Nr 122 dla Uczni\u00f3w Niewidomych I S\u0142abowidz\u0105cych w Dolno\u015bL\u0105skim Specjlanym O\u015brodku Szkolno-Wychowawczym Nr 13 dla Niewidomych I S\u0142abowicz\u0105cych we Wroc\u0142awiu","addr:country":"PL","addr:postcode":"54-034","addr:city":"Wroc\u0142aw","addr:street":"ul. Kamiennog\u00f3rska","addr:housenumber":"16","addr:teryt:simc":7887,"addr:teryt:sym_ul":986290,"contact:phone":"+48 713495630","ref:regon":"001012554","operator":"Wojew\u00f3dztwo Dolno\u015bl\u0105skie","operator:type":"government","amenity":"school","note":"Parent RSPO: 74608"}},{"id":127153,"type":"Feature","geometry":{"type":"Point","coordinates":[16.89868,51.13906]},"properties":{"isced:level":"3","ref:rspo":127153,"official_name":"Bran\u017cowa Szko\u0142a I Stopnia Nr 16 dla Uczni\u00f3w Niewidomych I S\u0142abowidz\u0105cych w Dolno\u015bL\u0105skim Specjlanym O\u015brodku Szkolno-Wychowawczym Nr 13 dla Niewidomych I S\u0142abowidz\u0105cych we Wroc\u0142awiu","name":"Bran\u017cowa Szko\u0142a I Stopnia Nr 16 dla Uczni\u00f3w Niewidomych I S\u0142abowidz\u0105cych w Dolno\u015bL\u0105skim Specjlanym O\u015brodku Szkolno-Wychowawczym Nr 13 dla Niewidomych I S\u0142abowidz\u0105cych we Wroc\u0142awiu","addr:country":"PL","addr:postcode":"54-034","addr:city":"Wroc\u0142aw","addr:street":"ul. Kamiennog\u00f3rska","addr:housenumber":"16","addr:teryt:simc":7887,"addr:teryt:sym_ul":986290,"contact:phone":"+48 713495630","ref:regon":"932825673","operator":"Wojew\u00f3dztwo Dolno\u015bl\u0105skie","operator:type":"government","amenity":"school","note":"Parent RSPO: 74608"}},{"id":127154,"type":"Feature","geometry":{"type":"Point","coordinates":[16.89868,51.13903]},"properties":{"isced:level":"3","ref:rspo":127154,"official_name":"Technikum Specjlane Nr 17 dla Uczni\u00f3w Niewidomych I S\u0142abowidz\u0105cych w Dolno\u015bL\u0105skim Specjlanym O\u015brodku Szkolno-Wychowawczym Nr 13 dla Niewidomych I S\u0142abowidz\u0105cych we Wroc\u0142awiu","name":"Technikum Specjlane Nr 17 dla Uczni\u00f3w Niewidomych I S\u0142abowidz\u0105cych w Dolno\u015bL\u0105skim Specjlanym O\u015brodku Szkolno-Wychowawczym Nr 13 dla Niewidomych I S\u0142abowidz\u0105cych we Wroc\u0142awiu","addr:country":"PL","addr:postcode":"54-034","addr:city":"Wroc\u0142aw","addr:street":"ul. Kamiennog\u00f3rska","addr:housenumber":"16","addr:teryt:simc":7887,"addr:teryt:sym_ul":986290,"contact:phone":"+48 713495630","ref:regon":"932825696","operator":"Wojew\u00f3dztwo Dolno\u015bl\u0105skie","operator:type":"government","amenity":"school","note":"Parent RSPO: 74608"}},{"id":127156,"type":"Feature","geometry":{"type":"Point","coordinates":[16.89868,51.139]},"properties":{"isced:level":"3","ref:rspo":127156,"official_name":"Liceum Og\u00f3lnokszta\u0142c\u0105ce Specjalne Nr XXXII dla Uczni\u00f3w Niewidomych I S\u0142abowidz\u0105cych w Dolno\u015bL\u0105skim Specjlanym O\u015brodku Szkolno-Wychowawczym Nr 13 dla Niewidomych I S\u0142abowidz\u0105cych we Wroc\u0142awiu","name":"Liceum Og\u00f3lnokszta\u0142c\u0105ce Specjalne Nr XXXII dla Uczni\u00f3w Niewidomych I S\u0142abowidz\u0105cych w Dolno\u015bL\u0105skim Specjlanym O\u015brodku Szkolno-Wychowawczym Nr 13 dla Niewidomych I S\u0142abowidz\u0105cych we Wroc\u0142awiu","addr:country":"PL","addr:postcode":"54-034","addr:city":"Wroc\u0142aw","addr:street":"ul. Kamiennog\u00f3rska","addr:housenumber":"16","addr:teryt:simc":7887,"addr:teryt:sym_ul":986290,"contact:phone":"+48 713495630","contact:email":"oswdn@poczta.fm","contact:website":"http:\/\/www.oswdn.pl","ref:regon":"932825710","operator":"Wojew\u00f3dztwo Dolno\u015bl\u0105skie","operator:type":"government","amenity":"school","note":"Parent RSPO: 74608"}},{"id":127188,"type":"Feature","geometry":{"type":"Point","coordinates":[16.89868,51.13897]},"properties":{"isced:level":"4","ref:rspo":127188,"official_name":"Szko\u0142a Policealna Specjalna Nr 18 dla Uczni\u00f3w Niewidomych I S\u0142abowidz\u0105cych w Dolno\u015bL\u0105skim Specjalnym O\u015brodku Szkolno-Wychowawczym Nr 13 dla Niewidomych I S\u0142abowidz\u0105cych we Wroc\u0142awiu","name":"Szko\u0142a Policealna Specjalna Nr 18 dla Uczni\u00f3w Niewidomych I S\u0142abowidz\u0105cych w Dolno\u015bL\u0105skim Specjalnym O\u015brodku Szkolno-Wychowawczym Nr 13 dla Niewidomych I S\u0142abowidz\u0105cych we Wroc\u0142awiu","addr:country":"PL","addr:postcode":"54-034","addr:city":"Wroc\u0142aw","addr:street":"ul. Kamiennog\u00f3rska","addr:housenumber":"16","addr:teryt:simc":7887,"addr:teryt:sym_ul":986290,"contact:phone":"+48 713495630","contact:email":"oswdn@poczta.fm","contact:website":"http:\/\/www.oswdn.pl","ref:regon":"020127357","operator":"Wojew\u00f3dztwo Dolno\u015bl\u0105skie","operator:type":"government","amenity":"college","note":"Parent RSPO: 74608"}},{"id":127057,"type":"Feature","geometry":{"type":"Point","coordinates":[16.95806,51.14114]},"properties":{"ref:rspo":127057,"official_name":"Publiczne Pastelowe Przedszkole","name":"Publiczne Pastelowe Przedszkole","addr:country":"PL","addr:postcode":"54-144","addr:city":"Wroc\u0142aw","addr:street":"ul. Pilczycka","addr:housenumber":"139","addr:teryt:simc":16221,"addr:teryt:sym_ul":986290,"contact:phone":"+48 883709944","contact:email":"biuro@pasteloweprzedszkole.pl","contact:website":"http:\/\/www.pasteloweprzedszkole.pl","ref:regon":"361082521","operator":"Aleksandra Ku\u017cawka","operator:type":"private","amenity":"kindergarten"}},{"id":23278,"type":"Feature","geometry":{"type":"Point","coordinates":[16.8706,51.14134]},"properties":{"ref:rspo":23278,"official_name":"Przedszkole Nr 66 Bajkolandia","name":"Przedszkole Nr 66 Bajkolandia","addr:country":"PL","addr:postcode":"54-004","addr:city":"Wroc\u0142aw","addr:street":"ul. \u0141\u0105czna","addr:housenumber":"1-5","addr:teryt:simc":11577,"addr:teryt:sym_ul":986290,"contact:phone":"+48 717986808","contact:email":"sekretariat.p066@wroclawskaedukacja.pl","contact:website":"http:\/\/www.przedszkole66.edu.wroclaw.pl","ref:regon":"000206316","ref:vatin":"PL8942567828","operator":"Gmina Wroc\u0142aw","operator:type":"government","amenity":"kindergarten"}},{"id":273855,"type":"Feature","geometry":{"type":"Point","coordinates":[16.94243,51.14153]},"properties":{"ref:rspo":273855,"official_name":"Przedszkole Nr 26 Sportowa Kraina","name":"Przedszkole Nr 26 Sportowa Kraina","addr:country":"PL","addr:postcode":"54-118","addr:city":"Wroc\u0142aw","addr:street":"ul. Aleja \u015al\u0105ska","addr:housenumber":"1","addr:teryt:simc":42738,"addr:teryt:sym_ul":986290,"contact:phone":"+48 717986709","contact:email":"sekretariat.p026@wroclawskaedukacja.pl","contact:website":"http:\/\/www.przedszkole26.wroclaw.pl","ref:regon":"384767422","operator":"Gmina Wroc\u0142aw","operator:type":"government","amenity":"kindergarten"}},{"id":129483,"type":"Feature","geometry":{"type":"Point","coordinates":[16.8978,51.14162]},"properties":{"ref:rspo":129483,"official_name":"Europejskie J\u0119zykowe Przedszkole Klub Kubusia Puchatka Viii","name":"Europejskie J\u0119zykowe Przedszkole Klub Kubusia Puchatka Viii","addr:country":"PL","addr:postcode":"54-028","addr:city":"Wroc\u0142aw","addr:street":"ul. Rajska","addr:housenumber":"69","addr:teryt:simc":18403,"addr:teryt:sym_ul":986290,"contact:phone":"+48 537975555","contact:email":"puchatekbiuro@onet.pl","contact:website":"http:\/\/www.klub-puchatka.pl","ref:regon":"362651501","operator":"Marcin Bartosz","operator:type":"private","amenity":"kindergarten"}},{"id":277267,"type":"Feature","geometry":{"type":"Point","coordinates":[16.90753,51.14418]},"properties":{"ref:rspo":277267,"official_name":"Niepubliczne Przedszkole Pro Futuro","name":"Niepubliczne Przedszkole Pro Futuro","addr:country":"PL","addr:postcode":"54-049","addr:city":"Wroc\u0142aw","addr:street":"ul. gen. Augusta Emila Fieldorfa","addr:housenumber":"2","addr:teryt:simc":4976,"addr:teryt:sym_ul":986290,"contact:phone":"+48 537106282","contact:email":"kontakt@szkolaprofuturo.pl","contact:website":"http:\/\/przedszkole.szkolaprofuturo.pl","ref:regon":"388474651","operator":"Pro Futuro Sp\u00f3\u0142ka Z Ograniczon\u0105 Odpowiedzialno\u015bci\u0105","operator:type":"private","amenity":"kindergarten"}},{"id":269452,"type":"Feature","geometry":{"type":"Point","coordinates":[16.87575,51.14549]},"properties":{"isced:level":"1;2","ref:rspo":269452,"official_name":"Niepubliczna Szko\u0142a Podstawowa \"Inspiracja\"","name":"Niepubliczna Szko\u0142a Podstawowa \"Inspiracja\"","addr:country":"PL","addr:postcode":"54-020","addr:city":"Wroc\u0142aw","addr:street":"ul. Jeleniog\u00f3rska","addr:housenumber":"2","addr:teryt:simc":7459,"addr:teryt:sym_ul":986290,"contact:phone":"+48 798454955","contact:email":"sekretariat@wolnaszkolainspiracja.com","ref:regon":"381499458","operator":"Vt Sp\u00f3\u0142ka Z Ograniczon\u0105 Odpowiedzialno\u015bci\u0105","operator:type":"private","amenity":"school"}},{"id":123655,"type":"Feature","geometry":{"type":"Point","coordinates":[16.8679,51.14688]},"properties":{"ref:rspo":123655,"official_name":"Przedszkole Nr 15 im. Kardyna\u0142a Joachima Meisnera","name":"Przedszkole Nr 15","addr:country":"PL","addr:postcode":"54-076","addr:city":"Wroc\u0142aw","addr:street":"ul. Wolska","addr:housenumber":"9","addr:teryt:simc":24694,"addr:teryt:sym_ul":986290,"contact:phone":"+48 717986937","contact:email":"sekretariat.p015@wroclawskaedukacja.pl","contact:website":"http:\/\/www.p15wroclaw.szkolnastrona.pl","ref:regon":"022459454","ref:vatin":"PL8943055415","operator":"Gmina Wroc\u0142aw","operator:type":"government","amenity":"kindergarten"}},{"id":278662,"type":"Feature","geometry":{"type":"Point","coordinates":[16.89173,51.14997]},"properties":{"ref:rspo":278662,"official_name":"Przedszkole Niepubliczne \"Akademia Le\u015bnych Lisk\u00f3w\"","name":"Przedszkole Niepubliczne \"Akademia Le\u015bnych Lisk\u00f3w\"","addr:country":"PL","addr:postcode":"54-046","addr:city":"Wroc\u0142aw","addr:street":"ul. Boguszowska","addr:housenumber":"76a","addr:teryt:simc":1614,"addr:teryt:sym_ul":986290,"contact:phone":"+48 500788199","contact:email":"info@lesneliski.pl","contact:website":"http:\/\/www.lesneliski.pl","ref:regon":"520067591","operator":"Dagmara Drozd","operator:type":"private","amenity":"kindergarten"}},{"id":11248,"type":"Feature","geometry":{"type":"Point","coordinates":[16.89376,51.15044]},"properties":{"ref:rspo":11248,"official_name":"Publiczne Przedszkole \"Galileo\"","name":"Publiczne Przedszkole \"Galileo\"","addr:country":"PL","addr:postcode":"54-047","addr:city":"Wroc\u0142aw","addr:street":"ul. Starogajowa","addr:housenumber":"68 a","addr:teryt:simc":20934,"addr:teryt:sym_ul":986290,"contact:phone":"+48 501670131","contact:email":"galileo@operator.edu.pl","contact:website":"http:\/\/www.galileo-wroclaw.operator.edu.pl","ref:regon":"021958758","operator":"Og\u00f3lnopolski Operator O\u015bwiaty","operator:type":"ngo","amenity":"kindergarten"}},{"id":14874,"type":"Feature","geometry":{"type":"Point","coordinates":[16.85981,51.15073]},"properties":{"isced:level":"1;2","ref:rspo":14874,"official_name":"Szko\u0142a Podstawowa Nr 51 im. Jana Paw\u0142a Ii","name":"Szko\u0142a Podstawowa Nr 51","addr:country":"PL","addr:postcode":"54-018","addr:city":"Wroc\u0142aw","addr:street":"ul. Kr\u0119picka","addr:housenumber":"50","addr:teryt:simc":9921,"addr:teryt:sym_ul":986290,"contact:phone":"+48 717986855","contact:email":"sekretariat.sp051@wroclawskaedukacja.pl","contact:website":"http:\/\/www.sp51wroclaw.edupage.org","ref:regon":"000693210","ref:vatin":"PL8942242486","operator":"Gmina Wroc\u0142aw","operator:type":"government","amenity":"school"}},{"id":15597,"type":"Feature","geometry":{"type":"Point","coordinates":[16.8932,51.15112]},"properties":{"isced:level":"1;2","ref:rspo":15597,"official_name":"Szko\u0142a Podstawowa Nr 95 im. Jaros\u0142awa Iwaszkiewicza","name":"Szko\u0142a Podstawowa Nr 95","addr:country":"PL","addr:postcode":"54-047","addr:city":"Wroc\u0142aw","addr:street":"ul. Starogajowa","addr:housenumber":"66-68","addr:teryt:simc":20934,"addr:teryt:sym_ul":986290,"contact:phone":"+48 717986876","contact:email":"sekretariat.sp095@wroclawskaedukacja.pl","contact:website":"http:\/\/www.sp95.wroclaw.pl","ref:regon":"000693256","ref:vatin":"PL8942392576","operator":"Gmina Wroc\u0142aw","operator:type":"government","amenity":"school"}},{"id":14414,"type":"Feature","geometry":{"type":"Point","coordinates":[16.93654,51.15116]},"properties":{"ref:rspo":14414,"official_name":"Punkt Przedszkolny Akademia Delfinka","name":"Punkt Przedszkolny Akademia Delfinka","addr:country":"PL","addr:postcode":"54-112","addr:city":"Wroc\u0142aw","addr:street":"ul. Augustowska","addr:housenumber":"31","addr:teryt:simc":493,"addr:teryt:sym_ul":986290,"contact:phone":"+48 693386293","contact:email":"sylwia.lazik@wp.pl","contact:website":"http:\/\/www.akademia.delfinka.eu","ref:regon":"021970682","operator":"Sylwia Szczygielska-\u0141azik","operator:type":"private","amenity":"kindergarten"}},{"id":129094,"type":"Feature","geometry":{"type":"Point","coordinates":[16.85608,51.15158]},"properties":{"ref:rspo":129094,"official_name":"Publiczne Przedszkole \"Smerfowa Za\u0142oga\"","name":"Publiczne Przedszkole \"Smerfowa Za\u0142oga\"","addr:country":"PL","addr:postcode":"54-020","addr:city":"Wroc\u0142aw","addr:street":"ul. Mokrza\u0144ska","addr:housenumber":"35","addr:teryt:simc":13224,"addr:teryt:sym_ul":986290,"contact:phone":"+48 602525565","contact:email":"smerfowazaloga.dyrektor@gmail.com","ref:regon":"362502333","operator":"Vt Sp\u00f3\u0142ka Z Ograniczon\u0105 Odpowiedzialno\u015bci\u0105","operator:type":"private","amenity":"kindergarten"}},{"id":21676,"type":"Feature","geometry":{"type":"Point","coordinates":[16.89186,51.15327]},"properties":{"ref:rspo":21676,"official_name":"Przedszkole Nr 10 Przedszkole Na Ka\u017cd\u0105 Pogod\u0119","name":"Przedszkole Nr 10 Przedszkole Na Ka\u017cd\u0105 Pogod\u0119","addr:country":"PL","addr:postcode":"54-047","addr:city":"Wroc\u0142aw","addr:street":"ul. Starogajowa","addr:housenumber":"100","addr:teryt:simc":20934,"addr:teryt:sym_ul":986290,"contact:phone":"+48 717986747","contact:email":"sekretariat.p010@wroclawskaedukacja.pl","contact:website":"http:\/\/przedszkole10.wroclaw.pl","ref:regon":"930112638","ref:vatin":"PL8942567768","operator":"Gmina Wroc\u0142aw","operator:type":"government","amenity":"kindergarten"}},{"id":14713,"type":"Feature","geometry":{"type":"Point","coordinates":[16.9284399,51.1537999]},"properties":{"ref:rspo":14713,"official_name":"Zesp\u00f3\u0142 Szkolno-Przedszkolny Nr 12","name":"Zesp\u00f3\u0142 Szkolno-Przedszkolny Nr 12","addr:country":"PL","addr:postcode":"54-104","addr:city":"Wroc\u0142aw","addr:street":"ul. Suwalska","addr:housenumber":"5","addr:teryt:simc":21614,"addr:teryt:sym_ul":986290,"contact:phone":"+48 717986918","contact:email":"sekretariat.zsp12@wroclawskaedukacja.pl","contact:website":"http:\/\/www.zsp12wroclaw.edupage.org","ref:regon":"021024056","ref:vatin":"PL8942979755","operator":"Gmina Wroc\u0142aw","operator:type":"government","landuse":"education","fixme":"amenity=school, amenity=college albo landuse=education w zale\u017cno\u015bci od tego, jakie plac\u00f3wki wchodz\u0105 w sk\u0142ad zespo\u0142u. Sprawd\u017a, kiedy stosowa\u0107 amenity=* a kiedy landuse=education.","note":"Children RSPO: 21509;23262"}},{"id":21509,"type":"Feature","geometry":{"type":"Point","coordinates":[16.9284399,51.1537699]},"properties":{"isced:level":"1;2","ref:rspo":21509,"official_name":"Szko\u0142a Podstawowa Nr 26 im. Piast\u00f3w \u015aL\u0105skich","name":"Szko\u0142a Podstawowa Nr 26","addr:country":"PL","addr:postcode":"54-104","addr:city":"Wroc\u0142aw","addr:street":"ul. Suwalska","addr:housenumber":"5","addr:teryt:simc":21614,"addr:teryt:sym_ul":986290,"contact:phone":"+48 717986918","contact:email":"sekretariat.zsp12@wroclawskaedukacja.pl","contact:website":"http:\/\/www.zsp12wroclaw.edupage.org","ref:regon":"000693374","operator":"Gmina Wroc\u0142aw","operator:type":"government","amenity":"school","note":"Parent RSPO: 14713"}},{"id":23262,"type":"Feature","geometry":{"type":"Point","coordinates":[16.9284399,51.153739900000005]},"properties":{"ref:rspo":23262,"official_name":"Przedszkole Nr 8 Z Oddzia\u0142ami Integracyjnymi","name":"Przedszkole Nr 8 Z Oddzia\u0142ami Integracyjnymi","addr:country":"PL","addr:postcode":"54-104","addr:city":"Wroc\u0142aw","addr:street":"ul. Suwalska","addr:housenumber":"5","addr:teryt:simc":21614,"addr:teryt:sym_ul":986290,"contact:phone":"+48 717986918","contact:email":"sekretariat.p008@wroclawskaedukacja.pl","contact:website":"http:\/\/www.p8.zsp12.wroclaw.pl","ref:regon":"021024033","operator":"Gmina Wroc\u0142aw","operator:type":"government","amenity":"kindergarten","note":"Parent RSPO: 14713"}},{"id":30287,"type":"Feature","geometry":{"type":"Point","coordinates":[16.93503,51.15635]},"properties":{"ref:rspo":30287,"official_name":"J\u0119zykowy Punkt Przedszkolny \"\u0141obuziaki\"","name":"J\u0119zykowy Punkt Przedszkolny \"\u0141obuziaki\"","addr:country":"PL","addr:postcode":"54-107","addr:city":"Wroc\u0142aw","addr:street":"ul. Ma\u015blicka","addr:housenumber":"148","addr:teryt:simc":12477,"addr:teryt:sym_ul":986290,"contact:phone":"+48 500063038","contact:email":"sekretariat@lobuziaki.com.pl","contact:website":"http:\/\/www.lobuziaki.com.pl","ref:regon":"021995156","operator":"Klaudyna Cichocka-Volkov","operator:type":"private","amenity":"kindergarten"}},{"id":274241,"type":"Feature","geometry":{"type":"Point","coordinates":[16.93503,51.15632]},"properties":{"ref:rspo":274241,"official_name":"Niepubliczny Punkt Przedszkolny \"\u0141obuziaki\"","name":"Niepubliczny Punkt Przedszkolny \"\u0141obuziaki\"","addr:country":"PL","addr:postcode":"54-107","addr:city":"Wroc\u0142aw","addr:street":"ul. Ma\u015blicka","addr:housenumber":"148","addr:teryt:simc":12477,"addr:teryt:sym_ul":986290,"contact:phone":"+48 500063038","contact:email":"sekretariat@lobuziaki.com.pl","contact:website":"http:\/\/www.lobuziaki.com.pl","ref:regon":"385477040","operator":"Klaudyna Cichocka-Volkov","operator:type":"private","amenity":"kindergarten"}},{"id":278752,"type":"Feature","geometry":{"type":"Point","coordinates":[16.93503,51.156290000000006]},"properties":{"ref:rspo":278752,"official_name":"Niepubliczne Przedszkole \"\u0141obuziaki\"","name":"Niepubliczne Przedszkole \"\u0141obuziaki\"","addr:country":"PL","addr:postcode":"54-107","addr:city":"Wroc\u0142aw","addr:street":"ul. Ma\u015blicka","addr:housenumber":"148","addr:teryt:simc":12477,"addr:teryt:sym_ul":986290,"contact:phone":"+48 500063038","contact:email":"sekretariat@lobuziaki.com.pl","contact:website":"http:\/\/www.lobuziaki.com.pl","ref:regon":"520067651","operator":"Klaudyna Cichocka-Volkov","operator:type":"private","amenity":"kindergarten"}},{"id":23258,"type":"Feature","geometry":{"type":"Point","coordinates":[16.89907,51.16421]},"properties":{"ref:rspo":23258,"official_name":"Przedszkole Nr 62 Stumilowy Las","name":"Przedszkole Nr 62 Stumilowy Las","addr:country":"PL","addr:postcode":"54-062","addr:city":"Wroc\u0142aw","addr:street":"ul. Stab\u0142owicka","addr:housenumber":"97","addr:teryt:simc":20754,"addr:teryt:sym_ul":986290,"contact:phone":"+48 717986805","contact:email":"teresa.galant@wroclawskaedukacja.pl","contact:website":"http:\/\/przedszkole62.edu.wroclaw.pl","ref:regon":"000208404","ref:vatin":"PL8942589540","operator":"Gmina Wroc\u0142aw","operator:type":"government","amenity":"kindergarten"}},{"id":123534,"type":"Feature","geometry":{"type":"Point","coordinates":[16.89807,51.16443]},"properties":{"ref:rspo":123534,"official_name":"Przedszkole Publiczne \"Pod Wierzbami\"","name":"Przedszkole Publiczne \"Pod Wierzbami\"","addr:country":"PL","addr:postcode":"54-062","addr:city":"Wroc\u0142aw","addr:street":"ul. Stab\u0142owicka","addr:housenumber":"95","addr:teryt:simc":20754,"addr:teryt:sym_ul":986290,"contact:phone":"+48 602226882","contact:email":"sekretariat@podwierzbami.edu.pl","contact:website":"http:\/\/www.podwierzbami.edu.pl","ref:regon":"022451837","operator":"Fundacja Czas Dla Dzieci","operator:type":"ngo","amenity":"kindergarten"}},{"id":21770,"type":"Feature","geometry":{"type":"Point","coordinates":[16.92032,51.1645899]},"properties":{"ref:rspo":21770,"official_name":"Akademia Puchatka - Niepubliczny Punkt Przedszkolny","name":"Akademia Puchatka - Niepubliczny Punkt Przedszkolny","addr:country":"PL","addr:postcode":"54-101","addr:city":"Wroc\u0142aw","addr:street":"ul. Lubelska","addr:housenumber":"106","addr:teryt:simc":11307,"addr:teryt:sym_ul":986290,"contact:phone":"+48 502024633","contact:email":"justpuchalska@wp.pl","contact:website":"http:\/\/www.puchatkoweprzedszkole.wroclaw.pl","ref:regon":"021979938","operator":"Ma\u0142gorzata Puchalska","operator:type":"private","amenity":"kindergarten"}},{"id":124508,"type":"Feature","geometry":{"type":"Point","coordinates":[16.902,51.16963]},"properties":{"isced:level":"1;2","ref:rspo":124508,"official_name":"Szko\u0142a Podstawowa Ams we Wroc\u0142awiu","name":"Szko\u0142a Podstawowa Ams we Wroc\u0142awiu","addr:country":"PL","addr:postcode":"54-062","addr:city":"Wroc\u0142aw","addr:street":"ul. Stab\u0142owicka","addr:housenumber":"143","addr:teryt:simc":20754,"addr:teryt:sym_ul":986290,"contact:phone":"+48 713802663","contact:email":"sekretariat@aktywnamalaszkola.pl","contact:website":"http:\/\/www.aktywnamalaszkola.pl","ref:regon":"022487284","operator":"Fundacja Wspierania Aktywno\u015bci Lokalnej \"Fala\"","operator:type":"ngo","amenity":"school"}},{"id":269328,"type":"Feature","geometry":{"type":"Point","coordinates":[16.91329,51.17343]},"properties":{"ref:rspo":269328,"official_name":"Publiczne Przedszkole \"Pod Poziomk\u0105\"","name":"Publiczne Przedszkole \"Pod Poziomk\u0105\"","addr:country":"PL","addr:postcode":"54-067","addr:city":"Wroc\u0142aw","addr:street":"ul. Brodzka","addr:housenumber":"143","addr:teryt:simc":2105,"addr:teryt:sym_ul":986290,"contact:phone":"+48 514503624","contact:email":"biuro@przedszkolepodpoziomka.pl","contact:website":"http:\/\/www.przedszkolepodpoziomka.pl","ref:regon":"381454208","operator":"Katto Sp\u00f3\u0142ka Z Ograniczon\u0105 Odpowiedzialno\u015bci\u0105","operator:type":"private","amenity":"kindergarten"}}]}