{
    "type": "FeatureCollection",
    "features": [
        {
            "id": 58158,
            "type": "Feature",
            "geometry": {
                "type": "Point",
                "coordinates": [
                    17.03404,
                    51.09986
                ]
            },
            "properties": {
                "isced:level": "4",
                "ref:rspo": 58158,
                "official_name": "Dolno\u015bL\u0105ska Szko\u0142a Policealna Medyczna im. Marii Sk\u0142odowskiej-Curie we Wroc\u0142awiu",
                "name": "Dolno\u015bL\u0105ska Szko\u0142a Policealna Medyczna",
                "addr:country": "PL",
                "addr:postcode": "50-018",
                "addr:city": "Wroc\u0142aw",
                "addr:street": "ul. Stawowa",
                "addr:housenumber": "24",
                "addr:teryt:simc": 21101,
                "addr:teryt:sym_ul": 986946,
                "contact:phone": "+48 713438592",
                "contact:email": "farmadent@wp.pl",
                "contact:website": "http:\/\/www.farmadent.wroclaw.pl",
                "ref:regon": "000297939",
                "ref:vatin": "PL8961001476",
                "operator": "Wojew\u00f3dztwo Dolno\u015bl\u0105skie",
                "operator:type": "government",
                "amenity": "college"
            }
        },
        {
            "id": 20441,
            "type": "Feature",
            "geometry": {
                "type": "Point",
                "coordinates": [
                    17.03632,
                    51.10044
                ]
            },
            "properties": {
                "ref:rspo": 20441,
                "official_name": "Zesp\u00f3\u0142 Centrum Edukacji Kulturalnej Dzieci I M\u0142odziezy",
                "name": "Zesp\u00f3\u0142 Centrum Edukacji Kulturalnej Dzieci I M\u0142odziezy",
                "addr:country": "PL",
                "addr:postcode": "50-007",
                "addr:city": "Wroc\u0142aw",
                "addr:street": "ul. Hugona Ko\u0142\u0142\u0105taja",
                "addr:housenumber": "20",
                "addr:teryt:simc": 9003,
                "addr:teryt:sym_ul": 986946,
                "contact:phone": "+48 717986881",
                "contact:email": "sekretariat@mdk.wroclaw.pl",
                "contact:website": "http:\/\/www.mdk.wroclaw.pl",
                "ref:regon": "932904680",
                "ref:vatin": "PL8971681998",
                "operator": "Gmina Wroc\u0142aw",
                "operator:type": "government",
                "landuse": "education",
                "fixme": "amenity=school, amenity=college albo landuse=education w zale\u017cno\u015bci od tego, jakie plac\u00f3wki wchodz\u0105 w sk\u0142ad zespo\u0142u. Sprawd\u017a, kiedy stosowa\u0107 amenity=* a kiedy landuse=education.",
                "note": "Children RSPO: 93067;93068"
            }
        },
        {
            "id": 93067,
            "type": "Feature",
            "geometry": {
                "type": "Point",
                "coordinates": [
                    17.03632,
                    51.10041
                ]
            },
            "properties": {
                "ref:rspo": 93067,
                "official_name": "M\u0142odzie\u017cowy Dom Kultury im. Miko\u0142aja Kopernika",
                "name": "M\u0142odzie\u017cowy Dom Kultury",
                "addr:country": "PL",
                "addr:postcode": "50-007",
                "addr:city": "Wroc\u0142aw",
                "addr:street": "ul. Hugona Ko\u0142\u0142\u0105taja",
                "addr:housenumber": "20",
                "addr:teryt:simc": 9003,
                "addr:teryt:sym_ul": 986946,
                "contact:phone": "+48 717986881",
                "contact:email": "sekretariat@mdk.wroclaw.pl",
                "ref:regon": "000207178",
                "ref:vatin": "PL8971578220",
                "operator": "Gmina Wroc\u0142aw",
                "operator:type": "government",
                "amenity": "community_centre",
                "community_centre:for": "juvenile",
                "note": "Parent RSPO: 20441"
            }
        },
        {
            "id": 93068,
            "type": "Feature",
            "geometry": {
                "type": "Point",
                "coordinates": [
                    17.03632,
                    51.10038
                ]
            },
            "properties": {
                "ref:rspo": 93068,
                "official_name": "Szkolne Schronisko M\u0142odzie\u017cowe",
                "name": "Szkolne Schronisko M\u0142odzie\u017cowe",
                "addr:country": "PL",
                "addr:postcode": "50-007",
                "addr:city": "Wroc\u0142aw",
                "addr:street": "ul. Hugona Ko\u0142\u0142\u0105taja",
                "addr:housenumber": "20",
                "addr:teryt:simc": 9003,
                "addr:teryt:sym_ul": 986946,
                "contact:phone": "+48 713438856",
                "contact:email": "sekretariat@mdk.wroclaw.pl",
                "ref:regon": "932110678",
                "ref:vatin": "PL8971618505",
                "operator": "Gmina Wroc\u0142aw",
                "operator:type": "government",
                "tourism": "hostel",
                "note": "Parent RSPO: 20441"
            }
        },
        {
            "id": 23894,
            "type": "Feature",
            "geometry": {
                "type": "Point",
                "coordinates": [
                    17.03836,
                    51.10091
                ]
            },
            "properties": {
                "ref:rspo": 23894,
                "official_name": "Niepubliczna Poradnia Psychologiczno-Pedagogiczna \"Pro-Med\"",
                "name": "Niepubliczna Poradnia Psychologiczno-Pedagogiczna \"Pro-Med\"",
                "addr:country": "PL",
                "addr:postcode": "50-001",
                "addr:city": "Wroc\u0142aw",
                "addr:street": "ul. Gwarna",
                "addr:housenumber": "6a",
                "addr:teryt:simc": 6415,
                "addr:teryt:sym_ul": 986946,
                "contact:phone": "+48 717959220",
                "contact:email": "poradnia@pro-med.pl",
                "contact:website": "http:\/\/www.pro-med.pl",
                "ref:regon": "021983785",
                "operator": "Dolno\u015bl\u0105skie Centrum Medycyny Profilaktycznej I Bezpiecze\u0144stwa Pracy \"Pro-Med\" Sp\u00f3\u0142ka Z Ograniczon\u0105 Odpowiedzialno\u015bci\u0105",
                "operator:type": "private",
                "healthcare": "counselling",
                "counselling_type": "education",
                "fixme": "w zale\u017cno\u015bci od przedmiotu dzia\u0142alno\u015bci (np. healthcare=counselling + counselling_type=education albo healthcare=psychotherapist)"
            }
        },
        {
            "id": 31571,
            "type": "Feature",
            "geometry": {
                "type": "Point",
                "coordinates": [
                    17.03219,
                    51.10099
                ]
            },
            "properties": {
                "ref:rspo": 31571,
                "official_name": "O\u015brodek Doskonalenia Kadr Technicznych Not",
                "name": "O\u015brodek Doskonalenia Kadr Technicznych Not",
                "addr:country": "PL",
                "addr:postcode": "50-020",
                "addr:city": "Wroc\u0142aw",
                "addr:street": "ul. marsz. J\u00f3zefa Pi\u0142sudskiego",
                "addr:housenumber": "74",
                "addr:teryt:simc": 16274,
                "addr:teryt:sym_ul": 986946,
                "contact:phone": "+48 713471429",
                "contact:email": "zut@not.pl",
                "contact:website": "http:\/\/www.not.pl",
                "ref:regon": "021988825",
                "operator": "Wroc\u0142awska Rada Federacji Stowarzysze\u0144 Naukowo - Technicznych Not",
                "operator:type": "ngo",
                "fixme": "w zale\u017cno\u015bci od przedmiotu dzia\u0142alno\u015bci (np. amenity=training + training=*, amenity=dancing_school, amenity=language_school, amenity=music_school)"
            }
        },
        {
            "id": 124113,
            "type": "Feature",
            "geometry": {
                "type": "Point",
                "coordinates": [
                    17.03219,
                    51.10096
                ]
            },
            "properties": {
                "isced:level": "4",
                "ref:rspo": 124113,
                "official_name": "Niepubliczna Policealna Wroc\u0142awska Szko\u0142a Fotografii we Wroc\u0142awiu",
                "name": "Niepubliczna Policealna Wroc\u0142awska Szko\u0142a Fotografii we Wroc\u0142awiu",
                "addr:country": "PL",
                "addr:postcode": "50-020",
                "addr:city": "Wroc\u0142aw",
                "addr:street": "ul. marsz. J\u00f3zefa Pi\u0142sudskiego",
                "addr:housenumber": "74",
                "addr:teryt:simc": 16274,
                "addr:teryt:sym_ul": 986946,
                "contact:email": "rekrutacja@studiumfoto.pl",
                "contact:website": "http:\/\/studiumfoto.pl",
                "ref:regon": "022477570",
                "operator": "Agnieszka Buczkowska",
                "operator:type": "private",
                "amenity": "college"
            }
        },
        {
            "id": 84891,
            "type": "Feature",
            "geometry": {
                "type": "Point",
                "coordinates": [
                    17.03147,
                    51.10102
                ]
            },
            "properties": {
                "isced:level": "4",
                "ref:rspo": 84891,
                "official_name": "Policealne Studium Musicalowe Capitol we Wroc\u0142awiu",
                "name": "Policealne Studium Musicalowe Capitol we Wroc\u0142awiu",
                "addr:country": "PL",
                "addr:postcode": "50-020",
                "addr:city": "Wroc\u0142aw",
                "addr:street": "ul. marsz. J\u00f3zefa Pi\u0142sudskiego",
                "addr:housenumber": "72",
                "addr:teryt:simc": 16274,
                "addr:teryt:sym_ul": 986946,
                "contact:email": "fundacja@teatr-capitol.pl",
                "contact:website": "http:\/\/www.studium-capitol.pl",
                "ref:regon": "022010754",
                "operator": "\"Fundacja Teatru Muzycznego Capitol\"",
                "operator:type": "ngo",
                "amenity": "college"
            }
        },
        {
            "id": 23806,
            "type": "Feature",
            "geometry": {
                "type": "Point",
                "coordinates": [
                    17.02675,
                    51.10164
                ]
            },
            "properties": {
                "isced:level": "4",
                "ref:rspo": 23806,
                "official_name": "Kadra Szko\u0142a Policealna",
                "name": "Kadra Szko\u0142a Policealna",
                "addr:country": "PL",
                "addr:postcode": "50-032",
                "addr:city": "Wroc\u0142aw",
                "addr:street": "ul. Gabrieli Zapolskiej",
                "addr:housenumber": "1",
                "addr:teryt:simc": 25632,
                "addr:teryt:sym_ul": 986946,
                "contact:phone": "+48 713410768",
                "contact:email": "sekretariat@kadra.wroclaw.pl",
                "contact:website": "http:\/\/www.kadra.wroclaw.pl",
                "ref:regon": "021993246",
                "operator": "\"Kadra Edukacja\" Sp\u00f3\u0142ka Z Ograniczon\u0105 Odpowiedzialno\u015bci\u0105",
                "operator:type": "private",
                "amenity": "college"
            }
        },
        {
            "id": 30281,
            "type": "Feature",
            "geometry": {
                "type": "Point",
                "coordinates": [
                    17.02675,
                    51.10161
                ]
            },
            "properties": {
                "ref:rspo": 30281,
                "official_name": "\"Kadra Edukacja\" O\u015brodek Szkolenia Zawodowego",
                "name": "\"Kadra Edukacja\" O\u015brodek Szkolenia Zawodowego",
                "addr:country": "PL",
                "addr:postcode": "50-032",
                "addr:city": "Wroc\u0142aw",
                "addr:street": "ul. Gabrieli Zapolskiej",
                "addr:housenumber": "1",
                "addr:teryt:simc": 25632,
                "addr:teryt:sym_ul": 986946,
                "contact:phone": "+48 713410768",
                "contact:email": "sekretariat@kadra.wroclaw.pl",
                "contact:website": "http:\/\/www.kadra.wroclaw.pl",
                "ref:regon": "021989285",
                "operator": "\"Kadra Edukacja\" Sp\u00f3\u0142ka Z Ograniczon\u0105 Odpowiedzialno\u015bci\u0105",
                "operator:type": "private",
                "fixme": "w zale\u017cno\u015bci od przedmiotu dzia\u0142alno\u015bci (np. amenity=training + training=*, amenity=dancing_school, amenity=language_school, amenity=music_school)"
            }
        },
        {
            "id": 128076,
            "type": "Feature",
            "geometry": {
                "type": "Point",
                "coordinates": [
                    17.03454,
                    51.10206
                ]
            },
            "properties": {
                "ref:rspo": 128076,
                "official_name": "Zesp\u00f3\u0142 Szk\u00f3\u0142 Specjalnych Stowarzyszenia Handicap",
                "name": "Zesp\u00f3\u0142 Szk\u00f3\u0142 Specjalnych Stowarzyszenia Handicap",
                "addr:country": "PL",
                "addr:postcode": "50-015",
                "addr:city": "Wroc\u0142aw",
                "addr:street": "ul. Stawowa",
                "addr:housenumber": "1a",
                "addr:teryt:simc": 21101,
                "addr:teryt:sym_ul": 986946,
                "contact:phone": "+48 713437815",
                "contact:email": "handicap.wroclaw@wp.pl",
                "contact:website": "http:\/\/www.handicap.edu.pl",
                "ref:regon": "362076050",
                "operator": "\"Handicap\" Stowarzyszenie Na Rzecz Wyr\u00f3wnywania Szans Rozwojowych Dziecka O Obni\u017conej Sprawno\u015bci",
                "operator:type": "ngo",
                "landuse": "education",
                "fixme": "amenity=school, amenity=college albo landuse=education w zale\u017cno\u015bci od tego, jakie plac\u00f3wki wchodz\u0105 w sk\u0142ad zespo\u0142u. Sprawd\u017a, kiedy stosowa\u0107 amenity=* a kiedy landuse=education.",
                "note": "Children RSPO: 72622;106549"
            }
        },
        {
            "id": 72622,
            "type": "Feature",
            "geometry": {
                "type": "Point",
                "coordinates": [
                    17.03454,
                    51.10203
                ]
            },
            "properties": {
                "isced:level": "1;2",
                "ref:rspo": 72622,
                "official_name": "Spo\u0142eczna Specjalna Szko\u0142a Podstawowa Stowarzyszenia \"Handicap\"",
                "name": "Spo\u0142eczna Specjalna Szko\u0142a Podstawowa Stowarzyszenia \"Handicap\"",
                "addr:country": "PL",
                "addr:postcode": "50-015",
                "addr:city": "Wroc\u0142aw",
                "addr:street": "ul. Stawowa",
                "addr:housenumber": "1a",
                "addr:teryt:simc": 21101,
                "addr:teryt:sym_ul": 986946,
                "contact:phone": "+48 713437815",
                "contact:email": "handicap.wroclaw@wp.pl",
                "contact:website": "http:\/\/www.handicap.edu.pl",
                "ref:regon": "022007090",
                "operator": "\"Handicap\" Stowarzyszenie Na Rzecz Wyr\u00f3wnywania Szans Rozwojowych Dziecka O Obni\u017conej Sprawno\u015bci",
                "operator:type": "ngo",
                "amenity": "school",
                "note": "Parent RSPO: 128076"
            }
        },
        {
            "id": 106549,
            "type": "Feature",
            "geometry": {
                "type": "Point",
                "coordinates": [
                    17.03454,
                    51.102000000000004
                ]
            },
            "properties": {
                "ref:rspo": 106549,
                "official_name": "Spo\u0142eczna Szko\u0142a Specjalna Przysposabiaj\u0105ca Do Pracy Stowarzyszenia \"Handicap\"",
                "name": "Spo\u0142eczna Szko\u0142a Specjalna Przysposabiaj\u0105ca Do Pracy Stowarzyszenia \"Handicap\"",
                "addr:country": "PL",
                "addr:postcode": "50-015",
                "addr:city": "Wroc\u0142aw",
                "addr:street": "ul. Stawowa",
                "addr:housenumber": "1a",
                "addr:teryt:simc": 21101,
                "addr:teryt:sym_ul": 986946,
                "contact:phone": "+48 713437815",
                "contact:email": "handicap.wroclaw@wp.pl",
                "contact:website": "http:\/\/www.handicap.edu.pl",
                "ref:regon": "022048981",
                "operator": "\"Handicap\" Stowarzyszenie Na Rzecz Wyr\u00f3wnywania Szans Rozwojowych Dziecka O Obni\u017conej Sprawno\u015bci",
                "operator:type": "ngo",
                "amenity": "school",
                "note": "Parent RSPO: 128076"
            }
        },
        {
            "id": 114471,
            "type": "Feature",
            "geometry": {
                "type": "Point",
                "coordinates": [
                    17.0332,
                    51.1023
                ]
            },
            "properties": {
                "ref:rspo": 114471,
                "official_name": "Policealna Szko\u0142a Aktorstwa I Musicalu we Wroc\u0142awiu",
                "name": "Policealna Szko\u0142a Aktorstwa I Musicalu we Wroc\u0142awiu",
                "addr:country": "PL",
                "addr:postcode": "50-011",
                "addr:city": "Wroc\u0142aw",
                "addr:street": "ul. Tadeusza Ko\u015bciuszki",
                "addr:housenumber": "35 B",
                "addr:teryt:simc": 9582,
                "addr:teryt:sym_ul": 986946,
                "contact:phone": "+48 713453148",
                "contact:email": "sekretariat@szkaktorska.pl",
                "contact:website": "http:\/\/www.szkaktorska.pl",
                "ref:regon": "022137377",
                "operator": "El\u017cbieta Bru\u017a-Misiewicz",
                "operator:type": "private",
                "amenity": "college"
            }
        },
        {
            "id": 20912,
            "type": "Feature",
            "geometry": {
                "type": "Point",
                "coordinates": [
                    17.03266,
                    51.10237
                ]
            },
            "properties": {
                "ref:rspo": 20912,
                "official_name": "Poradnia Psychologiczno-Pedagogiczna Nr 1",
                "name": "Poradnia Psychologiczno-Pedagogiczna Nr 1",
                "addr:country": "PL",
                "addr:postcode": "50-011",
                "addr:city": "Wroc\u0142aw",
                "addr:street": "ul. Tadeusza Ko\u015bciuszki",
                "addr:housenumber": "31",
                "addr:door": "1",
                "addr:teryt:simc": 9582,
                "addr:teryt:sym_ul": 986946,
                "contact:phone": "+48 717986828",
                "contact:email": "sekretariat.ppp1@wroclawskaedukacja.pl",
                "contact:website": "http:\/\/www.ppp1.wroc.pl",
                "ref:regon": "020158843",
                "ref:vatin": "PL8971708444",
                "operator": "Gmina Wroc\u0142aw",
                "operator:type": "government",
                "healthcare": "counselling",
                "counselling_type": "education",
                "fixme": "w zale\u017cno\u015bci od przedmiotu dzia\u0142alno\u015bci (np. healthcare=counselling + counselling_type=education albo healthcare=psychotherapist)"
            }
        },
        {
            "id": 106189,
            "type": "Feature",
            "geometry": {
                "type": "Point",
                "coordinates": [
                    17.03369,
                    51.10239
                ]
            },
            "properties": {
                "ref:rspo": 106189,
                "official_name": "Niepubliczna Poradnia Psychologiczno-Pedagogiczna Centrum Terapii Promitis",
                "name": "Niepubliczna Poradnia Psychologiczno-Pedagogiczna Centrum Terapii Promitis",
                "addr:country": "PL",
                "addr:postcode": "50-441",
                "addr:city": "Wroc\u0142aw",
                "addr:street": "ul. Tadeusza Ko\u015bciuszki",
                "addr:housenumber": "108A",
                "addr:door": "11",
                "addr:teryt:simc": 9582,
                "addr:teryt:sym_ul": 986946,
                "contact:phone": "+48 717297079",
                "contact:email": "wroclaw@centrum-terapii.pl",
                "contact:website": "http:\/\/www.centrum-terapii.pl\/wroclaw",
                "ref:regon": "022048834",
                "operator": "Piotr Langiewicz",
                "operator:type": "private",
                "healthcare": "counselling",
                "counselling_type": "education",
                "fixme": "w zale\u017cno\u015bci od przedmiotu dzia\u0142alno\u015bci (np. healthcare=counselling + counselling_type=education albo healthcare=psychotherapist)"
            }
        },
        {
            "id": 26025,
            "type": "Feature",
            "geometry": {
                "type": "Point",
                "coordinates": [
                    17.03199,
                    51.10245
                ]
            },
            "properties": {
                "ref:rspo": 26025,
                "official_name": "Przedszkole Nr 43 Kolorowe",
                "name": "Przedszkole Nr 43 Kolorowe",
                "addr:country": "PL",
                "addr:postcode": "50-011",
                "addr:city": "Wroc\u0142aw",
                "addr:street": "ul. Tadeusza Ko\u015bciuszki",
                "addr:housenumber": "27a",
                "addr:teryt:simc": 9582,
                "addr:teryt:sym_ul": 986946,
                "contact:phone": "+48 717986790",
                "contact:email": "sekretariat.p043@wroclawskaedukacja.pl",
                "ref:regon": "930113365",
                "ref:vatin": "PL8971615949",
                "operator": "Gmina Wroc\u0142aw",
                "operator:type": "government",
                "amenity": "kindergarten"
            }
        },
        {
            "id": 277252,
            "type": "Feature",
            "geometry": {
                "type": "Point",
                "coordinates": [
                    17.03221,
                    51.10246
                ]
            },
            "properties": {
                "isced:level": "4",
                "ref:rspo": 277252,
                "official_name": "Publiczna Szko\u0142a Policealna Cosinus we Wroc\u0142awiu",
                "name": "Publiczna Szko\u0142a Policealna Cosinus we Wroc\u0142awiu",
                "addr:country": "PL",
                "addr:postcode": "50-011",
                "addr:city": "Wroc\u0142aw",
                "addr:street": "ul. Tadeusza Ko\u015bciuszki",
                "addr:housenumber": "29",
                "addr:teryt:simc": 9582,
                "addr:teryt:sym_ul": 986946,
                "contact:phone": "+48 713460079",
                "contact:email": "wroclaw@cosinus.pl",
                "contact:website": "http:\/\/cosinus.pl",
                "ref:regon": "388462435",
                "operator": "Fundacja Cosinus Edukacja Wr",
                "operator:type": "ngo",
                "amenity": "college"
            }
        },
        {
            "id": 21553,
            "type": "Feature",
            "geometry": {
                "type": "Point",
                "coordinates": [
                    17.02612,
                    51.10311
                ]
            },
            "properties": {
                "ref:rspo": 21553,
                "official_name": "Przedszkole Nr 30 Bajlandia",
                "name": "Przedszkole Nr 30 Bajlandia",
                "addr:country": "PL",
                "addr:postcode": "50-035",
                "addr:city": "Wroc\u0142aw",
                "addr:street": "pl. Muzealny",
                "addr:housenumber": "13a",
                "addr:teryt:simc": 13519,
                "addr:teryt:sym_ul": 986946,
                "contact:phone": "+48 717986919",
                "contact:email": "sekretariat.zs-p13@wroclawskaedukacja.pl",
                "ref:regon": "930113320",
                "ref:vatin": "PL8971616475",
                "operator": "Gmina Wroc\u0142aw",
                "operator:type": "government",
                "amenity": "kindergarten",
                "note": "Parent RSPO: 3931"
            }
        },
        {
            "id": 114297,
            "type": "Feature",
            "geometry": {
                "type": "Point",
                "coordinates": [
                    17.00843,
                    51.10373
                ]
            },
            "properties": {
                "ref:rspo": 114297,
                "official_name": "Wsp\u00f3lny \u015awiat Ii",
                "name": "Wsp\u00f3lny \u015awiat Ii",
                "addr:country": "PL",
                "addr:postcode": "53-603",
                "addr:city": "Wroc\u0142aw",
                "addr:street": "ul. T\u0119czowa",
                "addr:housenumber": "78A",
                "addr:door": "1C-1D",
                "addr:teryt:simc": 22777,
                "addr:teryt:sym_ul": 986946,
                "contact:phone": "+48 501174592",
                "contact:email": "biuro@wspolnyswiat.com.pl",
                "contact:website": "http:\/\/www.wspolnyswiatcom.pl",
                "ref:regon": "022129277",
                "operator": "Marek Dr\u00f3\u017ad\u017a",
                "operator:type": "private",
                "amenity": "kindergarten"
            }
        },
        {
            "id": 13565,
            "type": "Feature",
            "geometry": {
                "type": "Point",
                "coordinates": [
                    17.03624,
                    51.10375
                ]
            },
            "properties": {
                "isced:level": "1;2",
                "ref:rspo": 13565,
                "official_name": "Szko\u0142a Podstawowa Nr 71 im. Zes\u0142a\u0144c\u00f3w Sybiru",
                "name": "Szko\u0142a Podstawowa Nr 71",
                "addr:country": "PL",
                "addr:postcode": "50-039",
                "addr:city": "Wroc\u0142aw",
                "addr:street": "ul. Podwale",
                "addr:housenumber": "57",
                "addr:teryt:simc": 16874,
                "addr:teryt:sym_ul": 986946,
                "contact:phone": "+48 717986860",
                "contact:email": "sekretariat@sp71.wroc.pl",
                "contact:website": "http:\/\/sp71.wroc.pl",
                "ref:regon": "000693144",
                "ref:vatin": "PL8971553585",
                "operator": "Gmina Wroc\u0142aw",
                "operator:type": "government",
                "amenity": "school"
            }
        },
        {
            "id": 3931,
            "type": "Feature",
            "geometry": {
                "type": "Point",
                "coordinates": [
                    17.02548,
                    51.10407
                ]
            },
            "properties": {
                "ref:rspo": 3931,
                "official_name": "Zesp\u00f3\u0142 Szkolno-Przedszkolny Nr 13",
                "name": "Zesp\u00f3\u0142 Szkolno-Przedszkolny Nr 13",
                "addr:country": "PL",
                "addr:postcode": "50-035",
                "addr:city": "Wroc\u0142aw",
                "addr:street": "pl. Muzealny",
                "addr:housenumber": "20",
                "addr:teryt:simc": 13519,
                "addr:teryt:sym_ul": 986946,
                "contact:phone": "+48 717986919",
                "contact:email": "sekretariat.zs-p13@wroclawskaedukacja.pl",
                "contact:website": "http:\/\/www.zsp13.wroclaw.pl",
                "ref:regon": "021942651",
                "ref:vatin": "PL8971784250",
                "operator": "Gmina Wroc\u0142aw",
                "operator:type": "government",
                "landuse": "education",
                "fixme": "amenity=school, amenity=college albo landuse=education w zale\u017cno\u015bci od tego, jakie plac\u00f3wki wchodz\u0105 w sk\u0142ad zespo\u0142u. Sprawd\u017a, kiedy stosowa\u0107 amenity=* a kiedy landuse=education.",
                "note": "Children RSPO: 13869;21553"
            }
        },
        {
            "id": 13869,
            "type": "Feature",
            "geometry": {
                "type": "Point",
                "coordinates": [
                    17.02548,
                    51.10404
                ]
            },
            "properties": {
                "isced:level": "1;2",
                "ref:rspo": 13869,
                "official_name": "Szko\u0142a Podstawowa Nr 67 im. Kawaler\u00f3w Orderu U\u015bmiechu",
                "name": "Szko\u0142a Podstawowa Nr 67",
                "addr:country": "PL",
                "addr:postcode": "50-035",
                "addr:city": "Wroc\u0142aw",
                "addr:street": "pl. Muzealny",
                "addr:housenumber": "20",
                "addr:teryt:simc": 13519,
                "addr:teryt:sym_ul": 986946,
                "contact:phone": "+48 717986919",
                "contact:email": "sekretariat.zs-p13@wroclawskaedukacja.pl",
                "contact:website": "http:\/\/www.zsp13.wroclaw.pl",
                "ref:regon": "000693180",
                "ref:vatin": "PL8971615010",
                "operator": "Gmina Wroc\u0142aw",
                "operator:type": "government",
                "amenity": "school",
                "note": "Parent RSPO: 3931"
            }
        },
        {
            "id": 14089,
            "type": "Feature",
            "geometry": {
                "type": "Point",
                "coordinates": [
                    17.01869,
                    51.1046
                ]
            },
            "properties": {
                "isced:level": "4",
                "ref:rspo": 14089,
                "official_name": "Szko\u0142a Policealna Prawno-Ekonomiczna \"Novum\"",
                "name": "Szko\u0142a Policealna Prawno-Ekonomiczna \"Novum\"",
                "addr:country": "PL",
                "addr:postcode": "53-509",
                "addr:city": "Wroc\u0142aw",
                "addr:street": "ul. Prosta",
                "addr:housenumber": "16",
                "addr:teryt:simc": 17547,
                "addr:teryt:sym_ul": 986946,
                "contact:phone": "+48 717940508",
                "contact:email": "novum8@wp.pl",
                "contact:website": "http:\/\/www.novum.wroc.pl",
                "ref:regon": "021970630",
                "operator": "Wiktor Piechocinski",
                "operator:type": "private",
                "amenity": "college"
            }
        },
        {
            "id": 14398,
            "type": "Feature",
            "geometry": {
                "type": "Point",
                "coordinates": [
                    17.01869,
                    51.104569999999995
                ]
            },
            "properties": {
                "isced:level": "4",
                "ref:rspo": 14398,
                "official_name": "Szko\u0142a Policealna \"Novum\"",
                "name": "Szko\u0142a Policealna \"Novum\"",
                "addr:country": "PL",
                "addr:postcode": "53-509",
                "addr:city": "Wroc\u0142aw",
                "addr:street": "ul. Prosta",
                "addr:housenumber": "16",
                "addr:teryt:simc": 17547,
                "addr:teryt:sym_ul": 986946,
                "contact:phone": "+48 717940508",
                "contact:email": "novum8@wp.pl",
                "contact:website": "http:\/\/www.novum.wroc.pl",
                "ref:regon": "021970647",
                "operator": "Leszek Piechoci\u0144ski",
                "operator:type": "private",
                "amenity": "college"
            }
        },
        {
            "id": 15884,
            "type": "Feature",
            "geometry": {
                "type": "Point",
                "coordinates": [
                    17.01869,
                    51.10454
                ]
            },
            "properties": {
                "isced:level": "3",
                "ref:rspo": 15884,
                "official_name": "Liceum Og\u00f3lnokszta\u0142c\u0105ce dla Doros\u0142ych \"Novum\"",
                "name": "Liceum Og\u00f3lnokszta\u0142c\u0105ce dla Doros\u0142ych \"Novum\"",
                "addr:country": "PL",
                "addr:postcode": "53-509",
                "addr:city": "Wroc\u0142aw",
                "addr:street": "ul. Prosta",
                "addr:housenumber": "16",
                "addr:teryt:simc": 17547,
                "addr:teryt:sym_ul": 986946,
                "contact:phone": "+48 717940508",
                "contact:email": "novum8@wp.pl",
                "contact:website": "http:\/\/www.novum.wroc.pl",
                "ref:regon": "021971960",
                "operator": "Leszek Piechoci\u0144ski",
                "operator:type": "private",
                "amenity": "school"
            }
        },
        {
            "id": 19535,
            "type": "Feature",
            "geometry": {
                "type": "Point",
                "coordinates": [
                    17.01869,
                    51.10451
                ]
            },
            "properties": {
                "isced:level": "4",
                "ref:rspo": 19535,
                "official_name": "Szko\u0142a Policealna Medyczna \"Novum\"",
                "name": "Szko\u0142a Policealna Medyczna \"Novum\"",
                "addr:country": "PL",
                "addr:postcode": "53-509",
                "addr:city": "Wroc\u0142aw",
                "addr:street": "ul. Prosta",
                "addr:housenumber": "16",
                "addr:teryt:simc": 17547,
                "addr:teryt:sym_ul": 986946,
                "contact:phone": "+48 717940508",
                "contact:email": "novum8@wp.pl",
                "contact:website": "http:\/\/www.novum.wroc.pl",
                "ref:regon": "021978436",
                "ref:vatin": "PL9730295604",
                "operator": "Wiktor Piechocinski",
                "operator:type": "private",
                "amenity": "college"
            }
        },
        {
            "id": 111187,
            "type": "Feature",
            "geometry": {
                "type": "Point",
                "coordinates": [
                    17.01869,
                    51.104479999999995
                ]
            },
            "properties": {
                "isced:level": "1;2",
                "ref:rspo": 111187,
                "official_name": "Szko\u0142a Podstawowa Nr 97 im. Jana Brzechwy",
                "name": "Szko\u0142a Podstawowa Nr 97",
                "addr:country": "PL",
                "addr:postcode": "53-509",
                "addr:city": "Wroc\u0142aw",
                "addr:street": "ul. Prosta",
                "addr:housenumber": "16",
                "addr:teryt:simc": 17547,
                "addr:teryt:sym_ul": 986946,
                "contact:phone": "+48 717986905",
                "contact:email": "sekretariat.sp097@wroclawskaedukacja.pl",
                "contact:website": "http:\/\/www.sp97.wroc.pl",
                "ref:regon": "000693138",
                "ref:vatin": "PL8971842326",
                "operator": "Gmina Wroc\u0142aw",
                "operator:type": "government",
                "amenity": "school"
            }
        },
        {
            "id": 274960,
            "type": "Feature",
            "geometry": {
                "type": "Point",
                "coordinates": [
                    17.02346,
                    51.10462
                ]
            },
            "properties": {
                "ref:rspo": 274960,
                "official_name": "Punkt Przedszkolny \"New Generation\"",
                "name": "Punkt Przedszkolny \"New Generation\"",
                "addr:country": "PL",
                "addr:postcode": "52-038",
                "addr:city": "Wroc\u0142aw",
                "addr:street": "pl. Legion\u00f3w",
                "addr:housenumber": "2",
                "addr:teryt:simc": 10768,
                "addr:teryt:sym_ul": 986946,
                "contact:phone": "+48 601566239",
                "contact:email": "newgenwro@gmail.com",
                "contact:website": "http:\/\/www.newgenwro.pl",
                "ref:regon": "386438214",
                "operator": "Flp Sp\u00f3\u0142ka Z Ograniczon\u0105 Odpowiedzialno\u015bci\u0105",
                "operator:type": "private",
                "amenity": "kindergarten"
            }
        },
        {
            "id": 24500,
            "type": "Feature",
            "geometry": {
                "type": "Point",
                "coordinates": [
                    17.02892,
                    51.10468
                ]
            },
            "properties": {
                "ref:rspo": 24500,
                "official_name": "Przedszkole Nr 33 Staromiejskie",
                "name": "Przedszkole Nr 33 Staromiejskie",
                "addr:country": "PL",
                "addr:postcode": "50-036",
                "addr:city": "Wroc\u0142aw",
                "addr:street": "ul. \u0141\u0105kowa",
                "addr:housenumber": "2a",
                "addr:teryt:simc": 11596,
                "addr:teryt:sym_ul": 986946,
                "contact:phone": "+48 717986784",
                "contact:email": "sekretariat.p033@wroclawskaedukacja.pl",
                "contact:website": "http:\/\/p33wroc.przedszkola.net.pl",
                "ref:regon": "930113336",
                "ref:vatin": "PL8971615820",
                "operator": "Gmina Wroc\u0142aw",
                "operator:type": "government",
                "amenity": "kindergarten"
            }
        },
        {
            "id": 11481,
            "type": "Feature",
            "geometry": {
                "type": "Point",
                "coordinates": [
                    17.01279,
                    51.1049
                ]
            },
            "properties": {
                "isced:level": "3",
                "ref:rspo": 11481,
                "official_name": "Liceum Og\u00f3lnokszta\u0142c\u0105ce Nr XVII im. Agnieszki Osieckiej",
                "name": "Liceum Og\u00f3lnokszta\u0142c\u0105ce Nr XVII",
                "addr:country": "PL",
                "addr:postcode": "53-603",
                "addr:city": "Wroc\u0142aw",
                "addr:street": "ul. T\u0119czowa",
                "addr:housenumber": "60",
                "addr:teryt:simc": 22777,
                "addr:teryt:sym_ul": 986946,
                "contact:phone": "+48 717986740",
                "contact:email": "liceum@lo17.wroc.pl",
                "contact:website": "http:\/\/www.lo17.wroc.pl",
                "ref:regon": "931018901",
                "ref:vatin": "PL8971753723",
                "operator": "Gmina Wroc\u0142aw",
                "operator:type": "government",
                "amenity": "school"
            }
        },
        {
            "id": 20450,
            "type": "Feature",
            "geometry": {
                "type": "Point",
                "coordinates": [
                    17.01279,
                    51.10487
                ]
            },
            "properties": {
                "ref:rspo": 20450,
                "official_name": "Katana Konsulting",
                "name": "Katana Konsulting",
                "addr:country": "PL",
                "addr:postcode": "53-605",
                "addr:city": "Wroc\u0142aw",
                "addr:street": "ul. T\u0119czowa",
                "addr:housenumber": "60",
                "addr:teryt:simc": 22777,
                "addr:teryt:sym_ul": 986946,
                "contact:phone": "+48 603647085",
                "contact:email": "biuro@katana-konsulting.pl",
                "contact:website": "http:\/\/www.katana-konsulting.pl",
                "ref:regon": "021978146",
                "ref:vatin": "PL7551691009",
                "operator": "Kamil K\u0142eczek",
                "operator:type": "private",
                "fixme": "w zale\u017cno\u015bci od przedmiotu dzia\u0142alno\u015bci (np. amenity=training + training=*, amenity=dancing_school, amenity=language_school, amenity=music_school)"
            }
        },
        {
            "id": 14568,
            "type": "Feature",
            "geometry": {
                "type": "Point",
                "coordinates": [
                    17.03577,
                    51.1061
                ]
            },
            "properties": {
                "isced:level": "1;2",
                "ref:rspo": 14568,
                "official_name": "Szko\u0142a Podstawowa Nr 63 im. Anny Jasi\u0144skiej",
                "name": "Szko\u0142a Podstawowa Nr 63",
                "addr:country": "PL",
                "addr:postcode": "50-057",
                "addr:city": "Wroc\u0142aw",
                "addr:street": "ul. Mennicza",
                "addr:housenumber": "21-23",
                "addr:teryt:simc": 12609,
                "addr:teryt:sym_ul": 986946,
                "contact:phone": "+48 717986857",
                "contact:email": "mennicza@sp63.wroc.pl",
                "contact:website": "http:\/\/www.sp63.wroc.pl",
                "ref:regon": "000693150",
                "ref:vatin": "PL8971392188",
                "operator": "Gmina Wroc\u0142aw",
                "operator:type": "government",
                "amenity": "school"
            }
        },
        {
            "id": 41022,
            "type": "Feature",
            "geometry": {
                "type": "Point",
                "coordinates": [
                    17.0214,
                    51.10621
                ]
            },
            "properties": {
                "ref:rspo": 41022,
                "official_name": "Og\u00f3lnokszta\u0142c\u0105ca Szko\u0142a Muzyczna I I II St. im. Karola Szymanowskiego we Wroc\u0142awiu",
                "name": "Og\u00f3lnokszta\u0142c\u0105ca Szko\u0142a Muzyczna I I II St.",
                "addr:country": "PL",
                "addr:postcode": "50-044",
                "addr:city": "Wroc\u0142aw",
                "addr:street": "ul. marsz. J\u00f3zefa Pi\u0142sudskiego",
                "addr:housenumber": "25",
                "addr:teryt:simc": 16274,
                "addr:teryt:sym_ul": 986946,
                "contact:phone": "+48 717366060",
                "contact:email": "sekretariat@lowiecka.wroclaw.pl",
                "contact:website": "http:\/\/lowiecka.wroclaw.pl",
                "ref:regon": "020049634",
                "operator": "Ministerstwo Kultury I Dziedzictwa Narodowego",
                "operator:type": "public",
                "landuse": "education",
                "fixme": "amenity=school, amenity=college albo landuse=education w zale\u017cno\u015bci od tego, jakie plac\u00f3wki wchodz\u0105 w sk\u0142ad zespo\u0142u. Sprawd\u017a, kiedy stosowa\u0107 amenity=* a kiedy landuse=education.",
                "note": "Children RSPO: 93187;93188"
            }
        },
        {
            "id": 93187,
            "type": "Feature",
            "geometry": {
                "type": "Point",
                "coordinates": [
                    17.0214,
                    51.106179999999995
                ]
            },
            "properties": {
                "isced:level": "1;2",
                "ref:rspo": 93187,
                "official_name": "Og\u00f3lnokszta\u0142c\u0105ca Szko\u0142a Muzyczna I St. im. Karola Szymanowskiego we Wroc\u0142awiu",
                "name": "Og\u00f3lnokszta\u0142c\u0105ca Szko\u0142a Muzyczna I St.",
                "addr:country": "PL",
                "addr:postcode": "50-044",
                "addr:city": "Wroc\u0142aw",
                "addr:street": "ul. marsz. J\u00f3zefa Pi\u0142sudskiego",
                "addr:housenumber": "25",
                "addr:teryt:simc": 16274,
                "addr:teryt:sym_ul": 986946,
                "contact:phone": "+48 717366000",
                "contact:email": "sekretariat@lowiecka.wroclaw.pl",
                "contact:website": "http:\/\/www.lowiecka.wroclaw.pl",
                "ref:regon": "932057731",
                "operator": "Ministerstwo Kultury I Dziedzictwa Narodowego",
                "operator:type": "public",
                "amenity": "school",
                "note": "Parent RSPO: 41022"
            }
        },
        {
            "id": 93188,
            "type": "Feature",
            "geometry": {
                "type": "Point",
                "coordinates": [
                    17.0214,
                    51.10615
                ]
            },
            "properties": {
                "isced:level": "3",
                "ref:rspo": 93188,
                "official_name": "Og\u00f3lnokszta\u0142c\u0105ca Szko\u0142a Muzyczna II St. im. Karola Szymanowskiego we Wroc\u0142awiu",
                "name": "Og\u00f3lnokszta\u0142c\u0105ca Szko\u0142a Muzyczna II St.",
                "addr:country": "PL",
                "addr:postcode": "50-044",
                "addr:city": "Wroc\u0142aw",
                "addr:street": "ul. marsz. J\u00f3zefa Pi\u0142sudskiego",
                "addr:housenumber": "25",
                "addr:teryt:simc": 16274,
                "addr:teryt:sym_ul": 986946,
                "contact:phone": "+48 717366000",
                "contact:email": "sekretariat@lowiecka.wroclaw.pl",
                "contact:website": "http:\/\/www.lowiecka.wroclaw.pl",
                "ref:regon": "000277322",
                "operator": "Ministerstwo Kultury I Dziedzictwa Narodowego",
                "operator:type": "public",
                "amenity": "school",
                "note": "Parent RSPO: 41022"
            }
        },
        {
            "id": 20632,
            "type": "Feature",
            "geometry": {
                "type": "Point",
                "coordinates": [
                    17.03851,
                    51.10622
                ]
            },
            "properties": {
                "ref:rspo": 20632,
                "official_name": "Strefa-Art Niepubliczna Plac\u00f3wka O\u015bwiatowa",
                "name": "Strefa-Art Niepubliczna Plac\u00f3wka O\u015bwiatowa",
                "addr:country": "PL",
                "addr:postcode": "50-082",
                "addr:city": "Wroc\u0142aw",
                "addr:street": "ul. ks. Piotra Skargi",
                "addr:housenumber": "23",
                "addr:teryt:simc": 20010,
                "addr:teryt:sym_ul": 986946,
                "contact:phone": "+48 713399104",
                "contact:email": "kursy@strefa-art.pl",
                "contact:website": "http:\/\/www.strefa-art.pl",
                "ref:regon": "021979401",
                "operator": "Edyta Brzuskiewicz",
                "operator:type": "private",
                "fixme": "w zale\u017cno\u015bci od przedmiotu dzia\u0142alno\u015bci (np. amenity=training + training=*, amenity=dancing_school, amenity=language_school, amenity=music_school)"
            }
        },
        {
            "id": 104002,
            "type": "Feature",
            "geometry": {
                "type": "Point",
                "coordinates": [
                    17.03851,
                    51.10619
                ]
            },
            "properties": {
                "ref:rspo": 104002,
                "official_name": "Zesp\u00f3\u0142 Szk\u00f3\u0142 Plastycznych",
                "name": "Zesp\u00f3\u0142 Szk\u00f3\u0142 Plastycznych",
                "addr:country": "PL",
                "addr:postcode": "50-082",
                "addr:city": "Wroc\u0142aw",
                "addr:street": "ul. ks. Piotra Skargi",
                "addr:housenumber": "23",
                "addr:teryt:simc": 20010,
                "addr:teryt:sym_ul": 986946,
                "contact:phone": "+48 717986914",
                "contact:email": "sekretariat.zsp@onet.pl",
                "contact:website": "http:\/\/www.zsp.wroclaw.pl",
                "ref:regon": "020354432",
                "ref:vatin": "PL8971719175",
                "operator": "Gmina Wroc\u0142aw",
                "operator:type": "government",
                "landuse": "education",
                "fixme": "amenity=school, amenity=college albo landuse=education w zale\u017cno\u015bci od tego, jakie plac\u00f3wki wchodz\u0105 w sk\u0142ad zespo\u0142u. Sprawd\u017a, kiedy stosowa\u0107 amenity=* a kiedy landuse=education.",
                "note": "Children RSPO: 107228;126065"
            }
        },
        {
            "id": 107228,
            "type": "Feature",
            "geometry": {
                "type": "Point",
                "coordinates": [
                    17.03851,
                    51.10616
                ]
            },
            "properties": {
                "isced:level": "3",
                "ref:rspo": 107228,
                "official_name": "Liceum Sztuk Plastycznych im. Stanis\u0142awa Kopysty\u0144skiego",
                "name": "Liceum Sztuk Plastycznych",
                "addr:country": "PL",
                "addr:postcode": "50-082",
                "addr:city": "Wroc\u0142aw",
                "addr:street": "ul. ks. Piotra Skargi",
                "addr:housenumber": "23b",
                "addr:teryt:simc": 20010,
                "addr:teryt:sym_ul": 986946,
                "contact:phone": "+48 717986914",
                "contact:email": "sekretariat.zsp@onet.eu",
                "contact:website": "http:\/\/zsp.wroclaw.pl",
                "ref:regon": "020354455",
                "operator": "Gmina Wroc\u0142aw",
                "operator:type": "government",
                "amenity": "school",
                "note": "Parent RSPO: 104002"
            }
        },
        {
            "id": 126065,
            "type": "Feature",
            "geometry": {
                "type": "Point",
                "coordinates": [
                    17.03851,
                    51.10613
                ]
            },
            "properties": {
                "ref:rspo": 126065,
                "official_name": "Og\u00f3lnokszta\u0142c\u0105ca Szko\u0142a Sztuk Pi\u0119knych",
                "name": "Og\u00f3lnokszta\u0142c\u0105ca Szko\u0142a Sztuk Pi\u0119knych",
                "addr:country": "PL",
                "addr:postcode": "50-082",
                "addr:city": "Wroc\u0142aw",
                "addr:street": "ul. ks. Piotra Skargi",
                "addr:housenumber": "23b",
                "addr:teryt:simc": 20010,
                "addr:teryt:sym_ul": 986946,
                "contact:phone": "+48 713436573",
                "contact:email": "sekretariat.zsp@onet.pl",
                "contact:website": "http:\/\/www.zsp.wroclaw.pl",
                "ref:regon": "020045777",
                "operator": "Gmina Wroc\u0142aw",
                "operator:type": "government",
                "amenity": "school",
                "note": "Parent RSPO: 104002"
            }
        },
        {
            "id": 24505,
            "type": "Feature",
            "geometry": {
                "type": "Point",
                "coordinates": [
                    17.02033,
                    51.10639
                ]
            },
            "properties": {
                "ref:rspo": 24505,
                "official_name": "Przedszkole Nr 87 Wroc\u0142awskie Dzieciaki",
                "name": "Przedszkole Nr 87 Wroc\u0142awskie Dzieciaki",
                "addr:country": "PL",
                "addr:postcode": "53-604",
                "addr:city": "Wroc\u0142aw",
                "addr:street": "ul. Iwana Paw\u0142owa",
                "addr:housenumber": "6a",
                "addr:teryt:simc": 15865,
                "addr:teryt:sym_ul": 986946,
                "contact:phone": "+48 717986817",
                "contact:email": "sekretariat.p087@wroclawskaedukacja.pl",
                "contact:website": "http:\/\/www.wroclawskiedzieciaki.szkolnastrona.pl",
                "ref:regon": "930113394",
                "ref:vatin": "PL8971616452",
                "operator": "Gmina Wroc\u0142aw",
                "operator:type": "government",
                "amenity": "kindergarten"
            }
        },
        {
            "id": 55934,
            "type": "Feature",
            "geometry": {
                "type": "Point",
                "coordinates": [
                    17.0302599,
                    51.10686
                ]
            },
            "properties": {
                "isced:level": "1;2",
                "ref:rspo": 55934,
                "official_name": "Niepubliczna Szko\u0142a Podstawowa Si\u00f3str Salezjanek im. Jana Paw\u0142a II we Wroc\u0142awiu",
                "name": "Niepubliczna Szko\u0142a Podstawowa Si\u00f3str Salezjanek",
                "addr:country": "PL",
                "addr:postcode": "50-070",
                "addr:city": "Wroc\u0142aw",
                "addr:street": "pl. Franciszka\u0144ski",
                "addr:housenumber": "1-3",
                "addr:teryt:simc": 5152,
                "addr:teryt:sym_ul": 986946,
                "contact:phone": "+48 713437297",
                "contact:email": "sekr.spw@cmw.osw.pl",
                "contact:website": "http:\/\/www.salezjankiwroc.edupage.org",
                "ref:regon": "022003501",
                "operator": "Zgromadzenie C\u00f3rek Maryi Wspomo\u017cycielki (Siostry Salezjanki) Inspektoria Wroc\u0142awska",
                "operator:type": "religious",
                "amenity": "school"
            }
        },
        {
            "id": 16841,
            "type": "Feature",
            "geometry": {
                "type": "Point",
                "coordinates": [
                    17.01859,
                    51.10696
                ]
            },
            "properties": {
                "ref:rspo": 16841,
                "official_name": "Punkt Przedszkolny \"Nasze Smyki\"",
                "name": "Punkt Przedszkolny \"Nasze Smyki\"",
                "addr:country": "PL",
                "addr:postcode": "53-601",
                "addr:city": "Wroc\u0142aw",
                "addr:street": "ul. T\u0119czowa",
                "addr:housenumber": "3a",
                "addr:teryt:simc": 22777,
                "addr:teryt:sym_ul": 986946,
                "contact:phone": "+48 666307575",
                "contact:email": "biuro@naszesmyki.edu.pl",
                "contact:website": "http:\/\/naszesmyki.edu.pl",
                "ref:regon": "021974929",
                "operator": "\"Kadra-Partner\" Sp\u00f3\u0142ka Z Ograniczon\u0105 Odpowiedzialno\u015bci\u0105",
                "operator:type": "private",
                "amenity": "kindergarten"
            }
        },
        {
            "id": 68270,
            "type": "Feature",
            "geometry": {
                "type": "Point",
                "coordinates": [
                    17.03886,
                    51.10714
                ]
            },
            "properties": {
                "isced:level": "3",
                "ref:rspo": 68270,
                "official_name": "Liceum Og\u00f3lnokszta\u0142c\u0105ce Nr IX im. Juliusza S\u0142owackiego",
                "name": "Liceum Og\u00f3lnokszta\u0142c\u0105ce Nr IX",
                "addr:country": "PL",
                "addr:postcode": "50-082",
                "addr:city": "Wroc\u0142aw",
                "addr:street": "ul. ks. Piotra Skargi",
                "addr:housenumber": "31",
                "addr:teryt:simc": 20010,
                "addr:teryt:sym_ul": 986946,
                "contact:phone": "+48 713436017",
                "contact:email": "sekretariat@lo9.wroc.pl",
                "contact:website": "http:\/\/www.lo9.wroc.pl",
                "ref:regon": "932799881",
                "ref:vatin": "PL8971621045",
                "operator": "Gmina Wroc\u0142aw",
                "operator:type": "government",
                "amenity": "school"
            }
        },
        {
            "id": 130232,
            "type": "Feature",
            "geometry": {
                "type": "Point",
                "coordinates": [
                    17.0188,
                    51.1073
                ]
            },
            "properties": {
                "isced:level": "4",
                "ref:rspo": 130232,
                "official_name": "Szko\u0142a Muzyki Nowoczesnej Szko\u0142a Policealna",
                "name": "Szko\u0142a Muzyki Nowoczesnej Szko\u0142a Policealna",
                "addr:country": "PL",
                "addr:postcode": "53-605",
                "addr:city": "Wroc\u0142aw",
                "addr:street": "pl. Orl\u0105t Lwowskich",
                "addr:housenumber": "20E",
                "addr:teryt:simc": 15146,
                "addr:teryt:sym_ul": 986946,
                "contact:phone": "+48 791455837",
                "contact:email": "sekretariat@szkolamuzykinowoczesnej.pl",
                "contact:website": "http:\/\/www.szkolamuzykinowoczesnej.pl",
                "ref:regon": "363688133",
                "operator": "Magdalena Milwiw-Baron",
                "operator:type": "private",
                "amenity": "college"
            }
        },
        {
            "id": 16091,
            "type": "Feature",
            "geometry": {
                "type": "Point",
                "coordinates": [
                    17.02631,
                    51.10764
                ]
            },
            "properties": {
                "ref:rspo": 16091,
                "official_name": "Quali-Szkolenia I Doradztwo Beata Krzy\u015b",
                "name": "Quali-Szkolenia I Doradztwo Beata Krzy\u015b",
                "addr:country": "PL",
                "addr:postcode": "50-071",
                "addr:city": "Wroc\u0142aw",
                "addr:street": "pl. Wolno\u015bci",
                "addr:housenumber": "11",
                "addr:door": "101",
                "addr:teryt:simc": 24685,
                "addr:teryt:sym_ul": 986946,
                "contact:phone": "+48 717900075",
                "contact:email": "biuro@quali.pl",
                "contact:website": "http:\/\/www.quali.pl",
                "ref:regon": "021972675",
                "operator": "Beata Krzy\u015b",
                "operator:type": "private",
                "fixme": "w zale\u017cno\u015bci od przedmiotu dzia\u0142alno\u015bci (np. amenity=training + training=*, amenity=dancing_school, amenity=language_school, amenity=music_school)"
            }
        },
        {
            "id": 122776,
            "type": "Feature",
            "geometry": {
                "type": "Point",
                "coordinates": [
                    17.03164,
                    51.10778
                ]
            },
            "properties": {
                "ref:rspo": 122776,
                "official_name": "Niepubliczny Punkt Przedszkolny \"City Kids\"",
                "name": "Niepubliczny Punkt Przedszkolny \"City Kids\"",
                "addr:country": "PL",
                "addr:postcode": "50-078",
                "addr:city": "Wroc\u0142aw",
                "addr:street": "ul. Stanis\u0142awa Leszczy\u0144skiego",
                "addr:housenumber": "4",
                "addr:teryt:simc": 10878,
                "addr:teryt:sym_ul": 986946,
                "contact:phone": "+48 602717757",
                "contact:email": "info@citykids.pl",
                "contact:website": "http:\/\/www.citykids.pl",
                "ref:regon": "022394358",
                "operator": "Marta Kadulska",
                "operator:type": "private",
                "amenity": "kindergarten"
            }
        },
        {
            "id": 129518,
            "type": "Feature",
            "geometry": {
                "type": "Point",
                "coordinates": [
                    17.03164,
                    51.107749999999996
                ]
            },
            "properties": {
                "ref:rspo": 129518,
                "official_name": "Niepubliczna Plac\u00f3wka Kszta\u0142cenia Ustawicznego \"Erudiogroup Marcin Nielipowicz\"",
                "name": "Niepubliczna Plac\u00f3wka Kszta\u0142cenia Ustawicznego \"Erudiogroup Marcin Nielipowicz\"",
                "addr:country": "PL",
                "addr:postcode": "50-078",
                "addr:city": "Wroc\u0142aw",
                "addr:street": "ul. Stanis\u0142awa Leszczy\u0144skiego",
                "addr:housenumber": "4",
                "addr:door": "29",
                "addr:teryt:simc": 10878,
                "addr:teryt:sym_ul": 986946,
                "contact:phone": "+48 513545513",
                "contact:email": "biuro@erudiogroup.pl",
                "contact:website": "http:\/\/www.erudiogroup.pl",
                "ref:regon": "362651530",
                "operator": "Marcin Nielipowicz",
                "operator:type": "private",
                "fixme": "w zale\u017cno\u015bci od przedmiotu dzia\u0142alno\u015bci (np. amenity=training + training=*, amenity=dancing_school, amenity=language_school, amenity=music_school)"
            }
        },
        {
            "id": 20542,
            "type": "Feature",
            "geometry": {
                "type": "Point",
                "coordinates": [
                    17.0270287,
                    51.1081438
                ]
            },
            "properties": {
                "ref:rspo": 20542,
                "official_name": "O\u015brodek Szkoleniowy Centrum Nauki I Biznesu \"\u017bak\" we Wroc\u0142awiu",
                "name": "O\u015brodek Szkoleniowy Centrum Nauki I Biznesu \"\u017bak\" we Wroc\u0142awiu",
                "addr:country": "PL",
                "addr:postcode": "50-075",
                "addr:city": "Wroc\u0142aw",
                "addr:street": "ul. Krupnicza",
                "addr:housenumber": "2",
                "addr:door": "4",
                "addr:teryt:simc": 10035,
                "addr:teryt:sym_ul": 986946,
                "contact:phone": "+48 717889687",
                "contact:email": "wroclaw@zak.edu.pl",
                "contact:website": "http:\/\/www.wroclaw.zak.edu.pl",
                "ref:regon": "021979312",
                "operator": "Centrum Nauki I Biznesu \"\u017bak\" Sp\u00f3\u0142ka Z Ograniczon\u0105 Odpowiedzialno\u015bci\u0105",
                "operator:type": "private",
                "fixme": "w zale\u017cno\u015bci od przedmiotu dzia\u0142alno\u015bci (np. amenity=training + training=*, amenity=dancing_school, amenity=language_school, amenity=music_school)"
            }
        },
        {
            "id": 277383,
            "type": "Feature",
            "geometry": {
                "type": "Point",
                "coordinates": [
                    17.0270287,
                    51.1081138
                ]
            },
            "properties": {
                "isced:level": "4",
                "ref:rspo": 277383,
                "official_name": "Szko\u0142a Policealna Opieki Medycznej \"\u017bak\" we Wroc\u0142awiu",
                "name": "Szko\u0142a Policealna Opieki Medycznej \"\u017bak\" we Wroc\u0142awiu",
                "addr:country": "PL",
                "addr:postcode": "50-075",
                "addr:city": "Wroc\u0142aw",
                "addr:street": "ul. Krupnicza",
                "addr:housenumber": "2",
                "addr:door": "4",
                "addr:teryt:simc": 10035,
                "addr:teryt:sym_ul": 986946,
                "contact:phone": "+48 717889687",
                "contact:email": "wroclaw@zak.edu.pl",
                "contact:website": "https:\/\/wroclaw.zak.edu.pl",
                "ref:regon": "388761149",
                "operator": "Centrum Nauki I Biznesu \"\u017bak\" Sp\u00f3\u0142ka Z Ograniczon\u0105 Odpowiedzialno\u015bci\u0105",
                "operator:type": "private",
                "amenity": "college"
            }
        },
        {
            "id": 14879,
            "type": "Feature",
            "geometry": {
                "type": "Point",
                "coordinates": [
                    17.02716,
                    51.10817
                ]
            },
            "properties": {
                "isced:level": "4",
                "ref:rspo": 14879,
                "official_name": "Szko\u0142a Policealna Centrum Nauki I Biznesu \"\u017bak\"",
                "name": "Szko\u0142a Policealna Centrum Nauki I Biznesu \"\u017bak\"",
                "addr:country": "PL",
                "addr:postcode": "50-075",
                "addr:city": "Wroc\u0142aw",
                "addr:street": "ul. Krupnicza",
                "addr:housenumber": "2-4",
                "addr:teryt:simc": 10035,
                "addr:teryt:sym_ul": 986946,
                "contact:phone": "+48 717889687",
                "contact:email": "wroclaw@zak.edu.pl",
                "contact:website": "http:\/\/www.zak.edu.pl",
                "ref:regon": "021995044",
                "operator": "Centrum Nauki I Biznesu \"\u017bak\" Sp\u00f3\u0142ka Z Ograniczon\u0105 Odpowiedzialno\u015bci\u0105",
                "operator:type": "private",
                "amenity": "college"
            }
        },
        {
            "id": 15783,
            "type": "Feature",
            "geometry": {
                "type": "Point",
                "coordinates": [
                    17.02716,
                    51.10814
                ]
            },
            "properties": {
                "isced:level": "4",
                "ref:rspo": 15783,
                "official_name": "Szko\u0142a Policealna Kosmetyczna \"\u017bak\"",
                "name": "Szko\u0142a Policealna Kosmetyczna \"\u017bak\"",
                "addr:country": "PL",
                "addr:postcode": "50-075",
                "addr:city": "Wroc\u0142aw",
                "addr:street": "ul. Krupnicza",
                "addr:housenumber": "2-4",
                "addr:teryt:simc": 10035,
                "addr:teryt:sym_ul": 986946,
                "contact:phone": "+48 717889687",
                "contact:email": "wroclaw@zak.edu.pl",
                "contact:website": "http:\/\/www.zak.edu.pl",
                "ref:regon": "021971990",
                "operator": "Centrum Nauki I Biznesu \"\u017bak\" Sp\u00f3\u0142ka Z Ograniczon\u0105 Odpowiedzialno\u015bci\u0105",
                "operator:type": "private",
                "amenity": "college"
            }
        },
        {
            "id": 15917,
            "type": "Feature",
            "geometry": {
                "type": "Point",
                "coordinates": [
                    17.02716,
                    51.10811
                ]
            },
            "properties": {
                "isced:level": "4",
                "ref:rspo": 15917,
                "official_name": "Szko\u0142a Policealna Aktywizacji Zawodowej \"\u017bak\" we Wroc\u0142awiu",
                "name": "Szko\u0142a Policealna Aktywizacji Zawodowej \"\u017bak\" we Wroc\u0142awiu",
                "addr:country": "PL",
                "addr:postcode": "50-075",
                "addr:city": "Wroc\u0142aw",
                "addr:street": "ul. Krupnicza",
                "addr:housenumber": "2-4",
                "addr:teryt:simc": 10035,
                "addr:teryt:sym_ul": 986946,
                "contact:phone": "+48 717889687",
                "contact:email": "wroclaw@zak.edu.pl",
                "contact:website": "http:\/\/www.zak.edu.pl",
                "ref:regon": "021972391",
                "operator": "Centrum Nauki I Biznesu \"\u017bak\" Sp\u00f3\u0142ka Z Ograniczon\u0105 Odpowiedzialno\u015bci\u0105",
                "operator:type": "private",
                "amenity": "college"
            }
        },
        {
            "id": 15940,
            "type": "Feature",
            "geometry": {
                "type": "Point",
                "coordinates": [
                    17.02716,
                    51.10808
                ]
            },
            "properties": {
                "isced:level": "4",
                "ref:rspo": 15940,
                "official_name": "Szko\u0142a Policealna Prawa I Administracji \"\u017bak\"",
                "name": "Szko\u0142a Policealna Prawa I Administracji \"\u017bak\"",
                "addr:country": "PL",
                "addr:postcode": "50-075",
                "addr:city": "Wroc\u0142aw",
                "addr:street": "ul. Krupnicza",
                "addr:housenumber": "2-4",
                "addr:teryt:simc": 10035,
                "addr:teryt:sym_ul": 986946,
                "contact:phone": "+48 717889687",
                "contact:email": "wroclaw@zak.edu.pl",
                "contact:website": "http:\/\/www.zak.edu.pl",
                "ref:regon": "021972008",
                "operator": "Centrum Nauki I Biznesu \"\u017bak\" Sp\u00f3\u0142ka Z Ograniczon\u0105 Odpowiedzialno\u015bci\u0105",
                "operator:type": "private",
                "amenity": "college"
            }
        },
        {
            "id": 15959,
            "type": "Feature",
            "geometry": {
                "type": "Point",
                "coordinates": [
                    17.02716,
                    51.10805
                ]
            },
            "properties": {
                "isced:level": "3",
                "ref:rspo": 15959,
                "official_name": "Liceum Og\u00f3lnokszta\u0142c\u0105ce dla Doros\u0142ych \"\u017bak\" we Wroc\u0142awiu",
                "name": "Liceum Og\u00f3lnokszta\u0142c\u0105ce dla Doros\u0142ych \"\u017bak\" we Wroc\u0142awiu",
                "addr:country": "PL",
                "addr:postcode": "50-075",
                "addr:city": "Wroc\u0142aw",
                "addr:street": "ul. Krupnicza",
                "addr:housenumber": "2-4",
                "addr:teryt:simc": 10035,
                "addr:teryt:sym_ul": 986946,
                "contact:phone": "+48 717889687",
                "contact:email": "wroclaw@zak.edu.pl",
                "contact:website": "http:\/\/www.zak.edu.pl",
                "ref:regon": "021972037",
                "operator": "Centrum Nauki I Biznesu \"\u017bak\" Sp\u00f3\u0142ka Z Ograniczon\u0105 Odpowiedzialno\u015bci\u0105",
                "operator:type": "private",
                "amenity": "school"
            }
        },
        {
            "id": 126426,
            "type": "Feature",
            "geometry": {
                "type": "Point",
                "coordinates": [
                    17.02716,
                    51.10802
                ]
            },
            "properties": {
                "isced:level": "4",
                "ref:rspo": 126426,
                "official_name": "Szko\u0142a Policealna Medyczna \"\u017bak\" we Wroc\u0142awiu",
                "name": "Szko\u0142a Policealna Medyczna \"\u017bak\" we Wroc\u0142awiu",
                "addr:country": "PL",
                "addr:postcode": "50-075",
                "addr:city": "Wroc\u0142aw",
                "addr:street": "ul. Krupnicza",
                "addr:housenumber": "2-4",
                "addr:teryt:simc": 10035,
                "addr:teryt:sym_ul": 986946,
                "contact:phone": "+48 717889687",
                "contact:email": "wroclaw@zak.edu.pl",
                "contact:website": "http:\/\/www.zak.edu.pl",
                "ref:regon": "360310753",
                "operator": "Centrum Nauki I Biznesu \"\u017bak\" Sp\u00f3\u0142ka Z Ograniczon\u0105 Odpowiedzialno\u015bci\u0105",
                "operator:type": "private",
                "amenity": "college"
            }
        },
        {
            "id": 130133,
            "type": "Feature",
            "geometry": {
                "type": "Point",
                "coordinates": [
                    17.02716,
                    51.10799
                ]
            },
            "properties": {
                "ref:rspo": 130133,
                "official_name": "Moose Centrum J\u0119zyk\u00f3w Obcych - Niepubliczna Plac\u00f3wka Wychowania Pozaszkolnego",
                "name": "Moose Centrum J\u0119zyk\u00f3w Obcych - Niepubliczna Plac\u00f3wka Wychowania Pozaszkolnego",
                "addr:country": "PL",
                "addr:postcode": "50-075",
                "addr:city": "Wroc\u0142aw",
                "addr:street": "ul. Krupnicza",
                "addr:housenumber": "2\/4",
                "addr:teryt:simc": 10035,
                "addr:teryt:sym_ul": 986946,
                "contact:phone": "+48 717975550",
                "contact:email": "bok@moose.pl",
                "contact:website": "http:\/\/www.moose.pl",
                "ref:regon": "363537658",
                "operator": "Moose Teacher Sp\u00f3\u0142ka Z Ograniczon\u0105 Odpowiedzialno\u015bci\u0105",
                "operator:type": "private",
                "fixme": "w zale\u017cno\u015bci od przedmiotu dzia\u0142alno\u015bci (np. amenity=training + training=*, amenity=dancing_school, amenity=language_school, amenity=music_school)"
            }
        },
        {
            "id": 128856,
            "type": "Feature",
            "geometry": {
                "type": "Point",
                "coordinates": [
                    17.03595,
                    51.1081999
                ]
            },
            "properties": {
                "isced:level": "3",
                "ref:rspo": 128856,
                "official_name": "Liceum Og\u00f3lnokszta\u0142c\u0105ce dla Doros\u0142ych \"Copernicus\"",
                "name": "Liceum Og\u00f3lnokszta\u0142c\u0105ce dla Doros\u0142ych \"Copernicus\"",
                "addr:country": "PL",
                "addr:postcode": "50-123",
                "addr:city": "Wroc\u0142aw",
                "addr:street": "ul. O\u0142awska",
                "addr:housenumber": "21",
                "addr:teryt:simc": 15031,
                "addr:teryt:sym_ul": 986946,
                "contact:phone": "+48 713307277",
                "contact:email": "wroclaw@copernicus.edu.pl",
                "contact:website": "http:\/\/www.copernicus.edu.pl",
                "ref:regon": "362435683",
                "operator": "Centrum Edukacji Copernicus Sp\u00f3\u0142ka Z Ograniczon\u0105 Odpowiedzialno\u015bci\u0105",
                "operator:type": "private",
                "amenity": "school"
            }
        },
        {
            "id": 128860,
            "type": "Feature",
            "geometry": {
                "type": "Point",
                "coordinates": [
                    17.03595,
                    51.1081699
                ]
            },
            "properties": {
                "isced:level": "4",
                "ref:rspo": 128860,
                "official_name": "Szko\u0142a Policealna \"Copernicus\" we Wroc\u0142awiu",
                "name": "Szko\u0142a Policealna \"Copernicus\" we Wroc\u0142awiu",
                "addr:country": "PL",
                "addr:postcode": "50-123",
                "addr:city": "Wroc\u0142aw",
                "addr:street": "ul. O\u0142awska",
                "addr:housenumber": "21",
                "addr:teryt:simc": 15031,
                "addr:teryt:sym_ul": 986946,
                "contact:phone": "+48 713307277",
                "contact:email": "wroclaw@copernicus.edu.pl",
                "contact:website": "http:\/\/www.copernicus.edu.pl",
                "ref:regon": "362438606",
                "operator": "Centrum Edukacji Copernicus Sp\u00f3\u0142ka Z Ograniczon\u0105 Odpowiedzialno\u015bci\u0105",
                "operator:type": "private",
                "amenity": "college"
            }
        },
        {
            "id": 14099,
            "type": "Feature",
            "geometry": {
                "type": "Point",
                "coordinates": [
                    17.03387,
                    51.10822
                ]
            },
            "properties": {
                "isced:level": "4",
                "ref:rspo": 14099,
                "official_name": "Patronus Szko\u0142a Policealna Medyczna we Wroc\u0142awiu",
                "name": "Patronus Szko\u0142a Policealna Medyczna we Wroc\u0142awiu",
                "addr:country": "PL",
                "addr:postcode": "50-053",
                "addr:city": "Wroc\u0142aw",
                "addr:street": "ul. Szewska",
                "addr:housenumber": "5",
                "addr:teryt:simc": 21947,
                "addr:teryt:sym_ul": 986946,
                "contact:phone": "+48 881203945",
                "contact:email": "namen.patronus@gmail.com",
                "ref:regon": "021962990",
                "operator": "Namen Sp\u00f3\u0142ka Z Ograniczon\u0105 Odpowiedzialno\u015bci\u0105",
                "operator:type": "private",
                "amenity": "college"
            }
        },
        {
            "id": 15981,
            "type": "Feature",
            "geometry": {
                "type": "Point",
                "coordinates": [
                    17.03387,
                    51.10819
                ]
            },
            "properties": {
                "isced:level": "4",
                "ref:rspo": 15981,
                "official_name": "Patronus Szko\u0142a Policealna Techniczna we Wroc\u0142awiu",
                "name": "Patronus Szko\u0142a Policealna Techniczna we Wroc\u0142awiu",
                "addr:country": "PL",
                "addr:postcode": "50-053",
                "addr:city": "Wroc\u0142aw",
                "addr:street": "ul. Szewska",
                "addr:housenumber": "5",
                "addr:teryt:simc": 21947,
                "addr:teryt:sym_ul": 986946,
                "contact:phone": "+48 881203945",
                "contact:email": "namen.patronus@gmail.com",
                "ref:regon": "021972155",
                "operator": "Namen Sp\u00f3\u0142ka Z Ograniczon\u0105 Odpowiedzialno\u015bci\u0105",
                "operator:type": "private",
                "amenity": "college"
            }
        },
        {
            "id": 18323,
            "type": "Feature",
            "geometry": {
                "type": "Point",
                "coordinates": [
                    17.03387,
                    51.108160000000005
                ]
            },
            "properties": {
                "isced:level": "4",
                "ref:rspo": 18323,
                "official_name": "Patronus Szko\u0142a Policealna we Wroc\u0142awiu",
                "name": "Patronus Szko\u0142a Policealna we Wroc\u0142awiu",
                "addr:country": "PL",
                "addr:postcode": "50-053",
                "addr:city": "Wroc\u0142aw",
                "addr:street": "ul. Szewska",
                "addr:housenumber": "5",
                "addr:teryt:simc": 21947,
                "addr:teryt:sym_ul": 986946,
                "contact:phone": "+48 881203945",
                "contact:email": "namen.patronus@gmail.com",
                "ref:regon": "021979217",
                "operator": "Namen Sp\u00f3\u0142ka Z Ograniczon\u0105 Odpowiedzialno\u015bci\u0105",
                "operator:type": "private",
                "amenity": "college"
            }
        },
        {
            "id": 20744,
            "type": "Feature",
            "geometry": {
                "type": "Point",
                "coordinates": [
                    17.03387,
                    51.10813
                ]
            },
            "properties": {
                "isced:level": "3",
                "ref:rspo": 20744,
                "official_name": "Patronus Liceum Og\u00f3lnokszta\u0142c\u0105ce dla Doros\u0142ych we Wroc\u0142awiu",
                "name": "Patronus Liceum Og\u00f3lnokszta\u0142c\u0105ce dla Doros\u0142ych we Wroc\u0142awiu",
                "addr:country": "PL",
                "addr:postcode": "50-053",
                "addr:city": "Wroc\u0142aw",
                "addr:street": "ul. Szewska",
                "addr:housenumber": "5",
                "addr:teryt:simc": 21947,
                "addr:teryt:sym_ul": 986946,
                "contact:phone": "+48 881203945",
                "contact:email": "namen.patronus@gmail.com",
                "ref:regon": "021979252",
                "operator": "Namen Sp\u00f3\u0142ka Z Ograniczon\u0105 Odpowiedzialno\u015bci\u0105",
                "operator:type": "private",
                "amenity": "school"
            }
        },
        {
            "id": 271936,
            "type": "Feature",
            "geometry": {
                "type": "Point",
                "coordinates": [
                    17.03387,
                    51.1081
                ]
            },
            "properties": {
                "ref:rspo": 271936,
                "official_name": "Patronus Centrum Szkoleniowe we Wroc\u0142awiu",
                "name": "Patronus Centrum Szkoleniowe we Wroc\u0142awiu",
                "addr:country": "PL",
                "addr:postcode": "50-053",
                "addr:city": "Wroc\u0142aw",
                "addr:street": "ul. Szewska",
                "addr:housenumber": "5",
                "addr:teryt:simc": 21947,
                "addr:teryt:sym_ul": 986946,
                "contact:phone": "+48 881203945",
                "contact:email": "namen.patronus@gmail.com",
                "ref:regon": "383829380",
                "operator": "Namen Sp\u00f3\u0142ka Z Ograniczon\u0105 Odpowiedzialno\u015bci\u0105",
                "operator:type": "private",
                "fixme": "w zale\u017cno\u015bci od przedmiotu dzia\u0142alno\u015bci (np. amenity=training + training=*, amenity=dancing_school, amenity=language_school, amenity=music_school)"
            }
        },
        {
            "id": 277890,
            "type": "Feature",
            "geometry": {
                "type": "Point",
                "coordinates": [
                    17.01977,
                    51.10829
                ]
            },
            "properties": {
                "ref:rspo": 277890,
                "official_name": "Niepubliczna Szko\u0142a Muzyczna II Stopnia Szko\u0142a Muzyki Nowoczesnej we Wroc\u0142awiu",
                "name": "Niepubliczna Szko\u0142a Muzyczna II Stopnia Szko\u0142a Muzyki Nowoczesnej we Wroc\u0142awiu",
                "addr:country": "PL",
                "addr:postcode": "53-605",
                "addr:city": "Wroc\u0142aw",
                "addr:street": "pl. Orl\u0105t Lwowskich",
                "addr:housenumber": "20 E",
                "addr:teryt:simc": 15146,
                "addr:teryt:sym_ul": 986946,
                "contact:phone": "+48 791455499",
                "contact:email": "biuro@s-m-n.pl",
                "contact:website": "http:\/\/szkolamuzykinowoczesnej.pl",
                "ref:regon": "389640904",
                "operator": "Magdalena Milwiw-Baron",
                "operator:type": "private",
                "amenity": "music_school"
            }
        },
        {
            "id": 126794,
            "type": "Feature",
            "geometry": {
                "type": "Point",
                "coordinates": [
                    17.03736,
                    51.10843
                ]
            },
            "properties": {
                "ref:rspo": 126794,
                "official_name": "Collegium Wratislaviense",
                "name": "Collegium Wratislaviense",
                "addr:country": "PL",
                "addr:postcode": "50-148",
                "addr:city": "Wroc\u0142aw",
                "addr:street": "ul. Krawiecka",
                "addr:housenumber": "6",
                "addr:door": "4",
                "addr:teryt:simc": 9894,
                "addr:teryt:sym_ul": 986946,
                "contact:phone": "+48 717277910",
                "contact:email": "collegium@cw.edu.pl",
                "contact:website": "http:\/\/www.cw.edu.pl",
                "ref:regon": "360753976",
                "operator": "Collegium Wratislaviense Sp\u00f3\u0142ka Z Ograniczon\u0105 Odpowiedzialno\u015bci\u0105",
                "operator:type": "private",
                "amenity": "training"
            }
        },
        {
            "id": 275275,
            "type": "Feature",
            "geometry": {
                "type": "Point",
                "coordinates": [
                    17.02869,
                    51.10906
                ]
            },
            "properties": {
                "ref:rspo": 275275,
                "official_name": "Centrum Kszta\u0142cenia Zawodowego \"Rzemie\u015blnik\" we Wroc\u0142awiu",
                "name": "Centrum Kszta\u0142cenia Zawodowego \"Rzemie\u015blnik\" we Wroc\u0142awiu",
                "addr:country": "PL",
                "addr:postcode": "50-061",
                "addr:city": "Wroc\u0142aw",
                "addr:street": "pl. Solny",
                "addr:housenumber": "13",
                "addr:teryt:simc": 20544,
                "addr:teryt:sym_ul": 986946,
                "contact:phone": "+48 713448691",
                "contact:email": "rzemieslnik@izba.wroc.pl",
                "ref:regon": "386782549",
                "operator": "Dolno\u015bl\u0105ska Izba Rzemie\u015blnicza We Wroc\u0142awiu",
                "operator:type": "cooperative",
                "fixme": "w zale\u017cno\u015bci od przedmiotu dzia\u0142alno\u015bci (np. amenity=training + training=*, amenity=dancing_school, amenity=language_school, amenity=music_school) albo amenity=school, amenity=college, albo landuse=education w zale\u017cno\u015bci od tego, jakie plac\u00f3wki wchodz\u0105 w sk\u0142ad zespo\u0142u. Sprawd\u017a, kiedy stosowa\u0107 amenity=* a kiedy landuse=education."
            }
        },
        {
            "id": 19567,
            "type": "Feature",
            "geometry": {
                "type": "Point",
                "coordinates": [
                    17.036,
                    51.1092299
                ]
            },
            "properties": {
                "ref:rspo": 19567,
                "official_name": "Przedszkole Niepubliczne J\u0119zykowo - Muzyczne Weso\u0142e Nutki",
                "name": "Przedszkole Niepubliczne J\u0119zykowo - Muzyczne Weso\u0142e Nutki",
                "addr:country": "PL",
                "addr:postcode": "50-104",
                "addr:city": "Wroc\u0142aw",
                "addr:street": "ul. \u0141aciarska",
                "addr:housenumber": "8",
                "addr:teryt:simc": 11487,
                "addr:teryt:sym_ul": 986946,
                "contact:phone": "+48 713431899",
                "contact:email": "przedszkole.wesole.nutki@gmail.com",
                "contact:website": "http:\/\/www.wesolenutki.eu",
                "ref:regon": "021978241",
                "operator": "Parafia Ewangelicko-Augsburska We Wroc\u0142awiu Opatrzno\u015bci Bo\u017cej",
                "operator:type": "religious",
                "amenity": "kindergarten"
            }
        },
        {
            "id": 20416,
            "type": "Feature",
            "geometry": {
                "type": "Point",
                "coordinates": [
                    17.03697,
                    51.10928
                ]
            },
            "properties": {
                "ref:rspo": 20416,
                "official_name": "Dolno\u015bL\u0105ski Zak\u0142ad Doskonalenia Zawodowego Oddzia\u0142 I we Wroc\u0142awiu O\u015brodek Kszta\u0142cenia Zawodowego Nr I we Wroc\u0142awiu",
                "name": "Dolno\u015bL\u0105ski Zak\u0142ad Doskonalenia Zawodowego Oddzia\u0142 I we Wroc\u0142awiu O\u015brodek Kszta\u0142cenia Zawodowego Nr I we Wroc\u0142awiu",
                "addr:country": "PL",
                "addr:postcode": "50-148",
                "addr:city": "Wroc\u0142aw",
                "addr:street": "ul. Biskupia",
                "addr:housenumber": "10a",
                "addr:teryt:simc": 1363,
                "addr:teryt:sym_ul": 986946,
                "contact:phone": "+48 713436830",
                "contact:email": "okz.biskupia@dzdz.edu.pl",
                "ref:regon": "021979298",
                "operator": "Dolno\u015bl\u0105ski Zak\u0142ad Doskonalenia Zawodowego We Wroc\u0142awiu",
                "operator:type": "ngo",
                "fixme": "w zale\u017cno\u015bci od przedmiotu dzia\u0142alno\u015bci (np. amenity=training + training=*, amenity=dancing_school, amenity=language_school, amenity=music_school)"
            }
        },
        {
            "id": 11473,
            "type": "Feature",
            "geometry": {
                "type": "Point",
                "coordinates": [
                    17.01998,
                    51.10949
                ]
            },
            "properties": {
                "isced:level": "3",
                "ref:rspo": 11473,
                "official_name": "Liceum Og\u00f3lnokszta\u0142c\u0105ce Nr XII im. Boles\u0142awa Chrobrego",
                "name": "Liceum Og\u00f3lnokszta\u0142c\u0105ce Nr XII",
                "addr:country": "PL",
                "addr:postcode": "53-605",
                "addr:city": "Wroc\u0142aw",
                "addr:street": "pl. Orl\u0105t Lwowskich",
                "addr:housenumber": "2a",
                "addr:teryt:simc": 15146,
                "addr:teryt:sym_ul": 986946,
                "contact:phone": "+48 717986738",
                "contact:email": "sekretariat.lo12@wroclawskaedukacja.pl",
                "contact:website": "http:\/\/www.lo12.wroc.pl",
                "ref:regon": "000205067",
                "ref:vatin": "PL8971573493",
                "operator": "Gmina Wroc\u0142aw",
                "operator:type": "government",
                "amenity": "school"
            }
        },
        {
            "id": 113477,
            "type": "Feature",
            "geometry": {
                "type": "Point",
                "coordinates": [
                    17.01998,
                    51.10946
                ]
            },
            "properties": {
                "ref:rspo": 113477,
                "official_name": "Centrum Edukacji I Biznesu we Wroc\u0142awiu",
                "name": "Centrum Edukacji I Biznesu we Wroc\u0142awiu",
                "addr:country": "PL",
                "addr:postcode": "53-605",
                "addr:city": "Wroc\u0142aw",
                "addr:street": "pl. Orl\u0105t Lwowskich",
                "addr:housenumber": "2A",
                "addr:teryt:simc": 15146,
                "addr:teryt:sym_ul": 986946,
                "contact:phone": "+48 713724731",
                "contact:email": "biuro@prominet.pl",
                "contact:website": "http:\/\/www.prominet.pl",
                "ref:regon": "022115832",
                "operator": "Tomasz Stroik",
                "operator:type": "private",
                "fixme": "w zale\u017cno\u015bci od przedmiotu dzia\u0142alno\u015bci (np. amenity=training + training=*, amenity=dancing_school, amenity=language_school, amenity=music_school)"
            }
        },
        {
            "id": 51260,
            "type": "Feature",
            "geometry": {
                "type": "Point",
                "coordinates": [
                    17.02395,
                    51.1095
                ]
            },
            "properties": {
                "ref:rspo": 51260,
                "official_name": "O\u015brodek Szkolenia Os\u00f3b Niepe\u0142nosprawnych",
                "name": "O\u015brodek Szkolenia Os\u00f3b Niepe\u0142nosprawnych",
                "addr:country": "PL",
                "addr:postcode": "50-073",
                "addr:city": "Wroc\u0142aw",
                "addr:street": "ul. \u015bw. Antoniego",
                "addr:housenumber": "36\/38",
                "addr:teryt:simc": 351,
                "addr:teryt:sym_ul": 986946,
                "contact:phone": "+48 713441734",
                "contact:email": "wson@wson.wroc.pl",
                "contact:website": "http:\/\/www.wson.wroc.pl",
                "ref:regon": "022005078",
                "operator": "Wroc\u0142awski Sejmik Os\u00f3b Niepe\u0142nosprawnych",
                "operator:type": "ngo",
                "fixme": "w zale\u017cno\u015bci od przedmiotu dzia\u0142alno\u015bci (np. amenity=training + training=*, amenity=dancing_school, amenity=language_school, amenity=music_school)"
            }
        },
        {
            "id": 122773,
            "type": "Feature",
            "geometry": {
                "type": "Point",
                "coordinates": [
                    17.03375,
                    51.10968
                ]
            },
            "properties": {
                "ref:rspo": 122773,
                "official_name": "Akademia Bank\u00f3w Sp\u00f3\u0142dzielczych",
                "name": "Akademia Bank\u00f3w Sp\u00f3\u0142dzielczych",
                "addr:country": "PL",
                "addr:postcode": "50-103",
                "addr:city": "Wroc\u0142aw",
                "addr:street": "ul. Kurzy Targ",
                "addr:housenumber": "5",
                "addr:teryt:simc": 10482,
                "addr:teryt:sym_ul": 986946,
                "contact:phone": "+48 713460964",
                "contact:email": "akademia.wroclaw@frbs.org.pl",
                "contact:website": "http:\/\/www.frbs.org.pl",
                "ref:regon": "022394223",
                "operator": "Fundacja Rozwoju Bankowo\u015bci Sp\u00f3\u0142dzielczej",
                "operator:type": "ngo",
                "fixme": "w zale\u017cno\u015bci od przedmiotu dzia\u0142alno\u015bci (np. amenity=training + training=*, amenity=dancing_school, amenity=language_school, amenity=music_school)"
            }
        },
        {
            "id": 108898,
            "type": "Feature",
            "geometry": {
                "type": "Point",
                "coordinates": [
                    17.017509460449,
                    51.110290527344
                ]
            },
            "properties": {
                "isced:level": "3",
                "ref:rspo": 108898,
                "official_name": "Liceum Og\u00f3lnokszta\u0142c\u0105ce Si\u00f3str Urszulanek Unii Rzymskiej",
                "name": "Liceum Og\u00f3lnokszta\u0142c\u0105ce Si\u00f3str Urszulanek Unii Rzymskiej",
                "addr:country": "PL",
                "addr:postcode": "50-140",
                "addr:city": "Wroc\u0142aw",
                "addr:street": "pl. bp. Nankiera",
                "addr:housenumber": "16",
                "addr:teryt:simc": 31331,
                "addr:teryt:sym_ul": 986946,
                "contact:phone": "+48 728891156",
                "contact:email": "dyrektor.urszulanki@gmail.com",
                "contact:website": "http:\/\/www.urszulanki.edu.pl",
                "ref:regon": "022073401",
                "operator": "Zgromadzenie Si\u00f3str Urszulanek Unii Rzymskiej",
                "operator:type": "religious",
                "amenity": "school"
            }
        },
        {
            "id": 129015,
            "type": "Feature",
            "geometry": {
                "type": "Point",
                "coordinates": [
                    17.01649,
                    51.11035
                ]
            },
            "properties": {
                "isced:level": "4",
                "ref:rspo": 129015,
                "official_name": "Dolno\u015bL\u0105ska Akademia Realizacji D\u017awi\u0119ku",
                "name": "Dolno\u015bL\u0105ska Akademia Realizacji D\u017awi\u0119ku",
                "addr:country": "PL",
                "addr:postcode": "53-680",
                "addr:city": "Wroc\u0142aw",
                "addr:street": "ul. Braniborska",
                "addr:housenumber": "2-10",
                "addr:teryt:simc": 2036,
                "addr:teryt:sym_ul": 986946,
                "contact:phone": "+48 530443319",
                "contact:email": "wroclaw@ard.edu.pl",
                "contact:website": "http:\/\/www.ard.edu.pl",
                "ref:regon": "362476720",
                "operator": "Krzysztof Maszota",
                "operator:type": "private",
                "amenity": "college"
            }
        },
        {
            "id": 20579,
            "type": "Feature",
            "geometry": {
                "type": "Point",
                "coordinates": [
                    17.0255,
                    51.1104
                ]
            },
            "properties": {
                "ref:rspo": 20579,
                "official_name": "Plac\u00f3wka Kszta\u0142cenia Ustawicznego Gowork.pl",
                "name": "Plac\u00f3wka Kszta\u0142cenia Ustawicznego Gowork.pl",
                "addr:country": "PL",
                "addr:postcode": "50-079",
                "addr:city": "Wroc\u0142aw",
                "addr:street": "ul. Ruska",
                "addr:housenumber": "51B",
                "addr:teryt:simc": 19119,
                "addr:teryt:sym_ul": 986946,
                "contact:phone": "+48 713461509",
                "contact:email": "szkola.wroclaw@gowork.pl",
                "contact:website": "http:\/\/www.gowork.pl",
                "ref:regon": "021977678",
                "operator": "Andrzej Kosieradzki",
                "operator:type": "private",
                "fixme": "w zale\u017cno\u015bci od przedmiotu dzia\u0142alno\u015bci (np. amenity=training + training=*, amenity=dancing_school, amenity=language_school, amenity=music_school)"
            }
        },
        {
            "id": 118416,
            "type": "Feature",
            "geometry": {
                "type": "Point",
                "coordinates": [
                    17.0255,
                    51.110369999999996
                ]
            },
            "properties": {
                "isced:level": "4",
                "ref:rspo": 118416,
                "official_name": "Szko\u0142a Policealna Gowork.pl we Wroc\u0142awiu",
                "name": "Szko\u0142a Policealna Gowork.pl we Wroc\u0142awiu",
                "addr:country": "PL",
                "addr:postcode": "50-079",
                "addr:city": "Wroc\u0142aw",
                "addr:street": "ul. Ruska",
                "addr:housenumber": "51B",
                "addr:teryt:simc": 19119,
                "addr:teryt:sym_ul": 986946,
                "contact:phone": "+48 713461509",
                "contact:email": "szkola.wroclaw@gowork.pl",
                "contact:website": "http:\/\/www.szkoly.gowork.pl",
                "ref:regon": "022207161",
                "operator": "Szko\u0142a Gowork.pl Sp\u00f3\u0142ka Z Ograniczon\u0105 Odpowiedzialno\u015bci\u0105",
                "operator:type": "private",
                "amenity": "college"
            }
        },
        {
            "id": 276568,
            "type": "Feature",
            "geometry": {
                "type": "Point",
                "coordinates": [
                    17.03043,
                    51.1105
                ]
            },
            "properties": {
                "ref:rspo": 276568,
                "official_name": "Instytut Heweliusza",
                "name": "Instytut Heweliusza",
                "addr:country": "PL",
                "addr:postcode": "50-106",
                "addr:city": "Wroc\u0142aw",
                "addr:street": "rynek Rynek",
                "addr:housenumber": "5",
                "addr:teryt:simc": 19252,
                "addr:teryt:sym_ul": 986946,
                "contact:phone": "+48 507094823",
                "contact:email": "ilona.byra@instytut.heweliusza.pl",
                "contact:website": "http:\/\/instytut-heweliusza.pl",
                "ref:regon": "387236458",
                "operator": "Instytut Heweliusza Sp\u00f3\u0142ka Z Ograniczon\u0105 Odpowiedziano\u015bci\u0105",
                "operator:type": "private",
                "fixme": "w zale\u017cno\u015bci od przedmiotu dzia\u0142alno\u015bci (np. amenity=training + training=*, amenity=dancing_school, amenity=language_school, amenity=music_school)"
            }
        },
        {
            "id": 24605,
            "type": "Feature",
            "geometry": {
                "type": "Point",
                "coordinates": [
                    17.0049199,
                    51.11059
                ]
            },
            "properties": {
                "isced:level": "4",
                "ref:rspo": 24605,
                "official_name": "Niepubliczne Policealne Autorskie Studium Dizajnu I Fotografii Abrys we Wroc\u0142awiu",
                "name": "Niepubliczne Policealne Autorskie Studium Dizajnu I Fotografii Abrys we Wroc\u0142awiu",
                "addr:country": "PL",
                "addr:postcode": "53-608",
                "addr:city": "Wroc\u0142aw",
                "addr:street": "ul. Robotnicza",
                "addr:housenumber": "36-38",
                "addr:teryt:simc": 18695,
                "addr:teryt:sym_ul": 986946,
                "contact:phone": "+48 713591444",
                "contact:email": "abrys@abrys.edu.pl",
                "contact:website": "http:\/\/abrys.art.pl",
                "ref:regon": "021983970",
                "ref:vatin": "PL8971785640",
                "operator": "Towarzystwo Edukacji Otwartej",
                "operator:type": "ngo",
                "amenity": "college"
            }
        },
        {
            "id": 276544,
            "type": "Feature",
            "geometry": {
                "type": "Point",
                "coordinates": [
                    17.0049199,
                    51.11056
                ]
            },
            "properties": {
                "ref:rspo": 276544,
                "official_name": "Niepubliczna Plac\u00f3wka Doskonalenia Nauczycieli Instytut Tutoringu Szkolnego",
                "name": "Niepubliczna Plac\u00f3wka Doskonalenia Nauczycieli Instytut Tutoringu Szkolnego",
                "addr:country": "PL",
                "addr:postcode": "53-608",
                "addr:city": "Wroc\u0142aw",
                "addr:street": "ul. Robotnicza",
                "addr:housenumber": "36-38",
                "addr:teryt:simc": 18695,
                "addr:teryt:sym_ul": 986946,
                "contact:phone": "+48 713591444",
                "contact:email": "piotr.waldemar.nita@gmail.com",
                "contact:website": "https:\/\/instytuttutoringuszkolnego.pl\/",
                "ref:regon": "387201075",
                "operator": "Towarzystwo Edukacji Otwartej",
                "operator:type": "ngo",
                "amenity": "training"
            }
        },
        {
            "id": 19304,
            "type": "Feature",
            "geometry": {
                "type": "Point",
                "coordinates": [
                    17.0333599,
                    51.11063
                ]
            },
            "properties": {
                "ref:rspo": 19304,
                "official_name": "Ap Edukacja Centrum Kszta\u0142cenia",
                "name": "Ap Edukacja Centrum Kszta\u0142cenia",
                "addr:country": "PL",
                "addr:postcode": "50-116",
                "addr:city": "Wroc\u0142aw",
                "addr:street": "rynek Rynek",
                "addr:housenumber": "42\/43",
                "addr:door": "8",
                "addr:teryt:simc": 19252,
                "addr:teryt:sym_ul": 986946,
                "contact:phone": "+48 536233210",
                "contact:email": "centrala@apedukacja.pl",
                "ref:regon": "021977537",
                "operator": "Ap Edukacja Centrum Kszta\u0142cenia Sp\u00f3\u0142ka Z Ograniczon\u0105 Odpowiedzialno\u015bci\u0105",
                "operator:type": "private",
                "fixme": "w zale\u017cno\u015bci od przedmiotu dzia\u0142alno\u015bci (np. amenity=training + training=*, amenity=dancing_school, amenity=language_school, amenity=music_school)"
            }
        },
        {
            "id": 267620,
            "type": "Feature",
            "geometry": {
                "type": "Point",
                "coordinates": [
                    17.01462,
                    51.1107
                ]
            },
            "properties": {
                "ref:rspo": 267620,
                "official_name": "Systema Marcin Szkolnicki",
                "name": "Systema Marcin Szkolnicki",
                "addr:country": "PL",
                "addr:postcode": "53-680",
                "addr:city": "Wroc\u0142aw",
                "addr:street": "ul. Braniborska",
                "addr:housenumber": "14",
                "addr:teryt:simc": 2036,
                "addr:teryt:sym_ul": 986946,
                "contact:phone": "+48 782955855",
                "contact:email": "biuro@isoa.pl",
                "contact:website": "http:\/\/isoa.pl",
                "ref:regon": "380460780",
                "operator": "Marcin Szkolnicki",
                "operator:type": "private",
                "fixme": "w zale\u017cno\u015bci od przedmiotu dzia\u0142alno\u015bci (np. amenity=training + training=*, amenity=dancing_school, amenity=language_school, amenity=music_school)"
            }
        },
        {
            "id": 276821,
            "type": "Feature",
            "geometry": {
                "type": "Point",
                "coordinates": [
                    17.01462,
                    51.11067
                ]
            },
            "properties": {
                "ref:rspo": 276821,
                "official_name": "Systema Centrum Szkole\u0144 I Promocji Zdrowia",
                "name": "Systema Centrum Szkole\u0144 I Promocji Zdrowia",
                "addr:country": "PL",
                "addr:postcode": "53-680",
                "addr:city": "Wroc\u0142aw",
                "addr:street": "ul. Braniborska",
                "addr:housenumber": "14",
                "addr:teryt:simc": 2036,
                "addr:teryt:sym_ul": 986946,
                "contact:phone": "+48 606958589",
                "contact:email": "biuro@systema.com.pl",
                "contact:website": "http:\/\/systema.com.pl\/",
                "ref:regon": "387640768",
                "operator": "Systema Sp\u00f3\u0142ka Z Ograniczon\u0105 Odpowiedzialno\u015bci\u0105",
                "operator:type": "private",
                "fixme": "w zale\u017cno\u015bci od przedmiotu dzia\u0142alno\u015bci (np. amenity=training + training=*, amenity=dancing_school, amenity=language_school, amenity=music_school)"
            }
        },
        {
            "id": 277233,
            "type": "Feature",
            "geometry": {
                "type": "Point",
                "coordinates": [
                    17.01462,
                    51.110640000000004
                ]
            },
            "properties": {
                "ref:rspo": 277233,
                "official_name": "Europejska Szko\u0142a Systemowa Izy Kopp",
                "name": "Europejska Szko\u0142a Systemowa Izy Kopp",
                "addr:country": "PL",
                "addr:postcode": "53-680",
                "addr:city": "Wroc\u0142aw",
                "addr:street": "ul. Braniborska",
                "addr:housenumber": "14",
                "addr:teryt:simc": 2036,
                "addr:teryt:sym_ul": 986946,
                "contact:phone": "+48 667769169",
                "contact:email": "biuro@ess.edu.pl",
                "contact:website": "http:\/\/www.ess.edu.pl",
                "ref:regon": "388431587",
                "operator": "Izabela Kopp",
                "operator:type": "private",
                "fixme": "w zale\u017cno\u015bci od przedmiotu dzia\u0142alno\u015bci (np. amenity=training + training=*, amenity=dancing_school, amenity=language_school, amenity=music_school)"
            }
        },
        {
            "id": 84822,
            "type": "Feature",
            "geometry": {
                "type": "Point",
                "coordinates": [
                    17.0048856,
                    51.1107613
                ]
            },
            "properties": {
                "isced:level": "3",
                "ref:rspo": 84822,
                "official_name": "Spo\u0142eczne Liceum Sztuk Plastycznych Ala we Wroc\u0142awiu",
                "name": "Spo\u0142eczne Liceum Sztuk Plastycznych Ala we Wroc\u0142awiu",
                "addr:country": "PL",
                "addr:postcode": "53-608",
                "addr:city": "Wroc\u0142aw",
                "addr:street": "ul. Robotnicza",
                "addr:housenumber": "36",
                "addr:door": "38",
                "addr:teryt:simc": 18695,
                "addr:teryt:sym_ul": 986946,
                "contact:phone": "+48 713591444",
                "contact:email": "sekretariat@ala.edu.pl",
                "contact:website": "https:\/\/ala.edu.pl\/",
                "ref:regon": "022010725",
                "operator": "Towarzystwo Edukacji Otwartej",
                "operator:type": "ngo",
                "amenity": "school"
            }
        },
        {
            "id": 18418,
            "type": "Feature",
            "geometry": {
                "type": "Point",
                "coordinates": [
                    17.0410499,
                    51.11109
                ]
            },
            "properties": {
                "ref:rspo": 18418,
                "official_name": "O\u015brodek Szkoleniowy Med-Vet",
                "name": "O\u015brodek Szkoleniowy Med-Vet",
                "addr:country": "PL",
                "addr:postcode": "50-153",
                "addr:city": "Wroc\u0142aw",
                "addr:street": "ul. ks. Wincentego Krai\u0144skiego",
                "addr:housenumber": "1",
                "addr:teryt:simc": 9776,
                "addr:teryt:sym_ul": 986946,
                "contact:phone": "+48 713739519",
                "contact:email": "biuro.medvet@wp.pl",
                "contact:website": "http:\/\/www.medvet.com.pl",
                "ref:regon": "021975969",
                "operator": "Anna Grygiel",
                "operator:type": "private",
                "fixme": "w zale\u017cno\u015bci od przedmiotu dzia\u0142alno\u015bci (np. amenity=training + training=*, amenity=dancing_school, amenity=language_school, amenity=music_school)"
            }
        },
        {
            "id": 267810,
            "type": "Feature",
            "geometry": {
                "type": "Point",
                "coordinates": [
                    17.0410499,
                    51.111059999999995
                ]
            },
            "properties": {
                "isced:level": "1;2",
                "ref:rspo": 267810,
                "official_name": "Szko\u0142a Podstawowa Nr 29 im. Konstytucji 3 Maja",
                "name": "Szko\u0142a Podstawowa Nr 29",
                "addr:country": "PL",
                "addr:postcode": "50-153",
                "addr:city": "Wroc\u0142aw",
                "addr:street": "ul. ks. Wincentego Krai\u0144skiego",
                "addr:housenumber": "1",
                "addr:teryt:simc": 9776,
                "addr:teryt:sym_ul": 986946,
                "contact:phone": "+48 717986720",
                "contact:email": "sp29@sp29.wroc.pl",
                "contact:website": "http:\/\/www.sp29.wroc.pl",
                "ref:regon": "380715300",
                "ref:vatin": "PL8971857948",
                "operator": "Gmina Wroc\u0142aw",
                "operator:type": "government",
                "amenity": "school"
            }
        },
        {
            "id": 26024,
            "type": "Feature",
            "geometry": {
                "type": "Point",
                "coordinates": [
                    17.01566,
                    51.11123
                ]
            },
            "properties": {
                "ref:rspo": 26024,
                "official_name": "Przedszkole Nr 41 im. Jana Paw\u0142a Ii",
                "name": "Przedszkole Nr 41",
                "addr:country": "PL",
                "addr:postcode": "53-678",
                "addr:city": "Wroc\u0142aw",
                "addr:street": "ul. Dobra",
                "addr:housenumber": "16",
                "addr:teryt:simc": 3928,
                "addr:teryt:sym_ul": 986946,
                "contact:phone": "+48 717986789",
                "contact:email": "sekretariat.p041@wroclawskaedukacja.pl",
                "contact:website": "http:\/\/przedszkole41.edu.wroclaw.pl",
                "ref:regon": "930113359",
                "ref:vatin": "PL8971615760",
                "operator": "Gmina Wroc\u0142aw",
                "operator:type": "government",
                "amenity": "kindergarten"
            }
        },
        {
            "id": 21755,
            "type": "Feature",
            "geometry": {
                "type": "Point",
                "coordinates": [
                    17.01175,
                    51.11131
                ]
            },
            "properties": {
                "ref:rspo": 21755,
                "official_name": "Ece \"Libra\"",
                "name": "Ece \"Libra\"",
                "addr:country": "PL",
                "addr:postcode": "53-680",
                "addr:city": "Wroc\u0142aw",
                "addr:street": "ul. Braniborska",
                "addr:housenumber": "2",
                "addr:door": "10",
                "addr:teryt:simc": 2036,
                "addr:teryt:sym_ul": 986946,
                "contact:phone": "+48 717980913",
                "contact:email": "szkolenia@ece-libra.pl",
                "ref:regon": "021979789",
                "operator": "El\u017cbieta Krzak",
                "operator:type": "private",
                "fixme": "w zale\u017cno\u015bci od przedmiotu dzia\u0142alno\u015bci (np. amenity=training + training=*, amenity=dancing_school, amenity=language_school, amenity=music_school)"
            }
        },
        {
            "id": 277415,
            "type": "Feature",
            "geometry": {
                "type": "Point",
                "coordinates": [
                    17.01175,
                    51.11128
                ]
            },
            "properties": {
                "ref:rspo": 277415,
                "official_name": "Centrum Szkoleniowe ,,Surdomedica\"",
                "name": "Centrum Szkoleniowe ,,Surdomedica\"",
                "addr:country": "PL",
                "addr:postcode": "53-680",
                "addr:city": "Wroc\u0142aw",
                "addr:street": "ul. Braniborska",
                "addr:housenumber": "2",
                "addr:door": "10",
                "addr:teryt:simc": 2036,
                "addr:teryt:sym_ul": 986946,
                "contact:phone": "+48 690350489",
                "contact:email": "surdomedica@osrodek-pzg.com.pl",
                "ref:regon": "388821489",
                "operator": "Polski Zwi\u0105zek G\u0142uchych Dolno\u015bl\u0105skie Centrum Medyczne Sp\u00f3\u0142ka Z Ograniczon\u0105 Odpowiedzialno\u015bci\u0105",
                "operator:type": "private",
                "amenity": "training"
            }
        },
        {
            "id": 16178,
            "type": "Feature",
            "geometry": {
                "type": "Point",
                "coordinates": [
                    17.0255574,
                    51.1116147
                ]
            },
            "properties": {
                "ref:rspo": 16178,
                "official_name": "Spasja Og\u00f3lnopolskie Centrum Szkoleniowe",
                "name": "Spasja Og\u00f3lnopolskie Centrum Szkoleniowe",
                "addr:country": "PL",
                "addr:postcode": "50-079",
                "addr:city": "Wroc\u0142aw",
                "addr:street": "ul. \u015bw. Miko\u0142aja",
                "addr:housenumber": "29",
                "addr:door": "30",
                "addr:teryt:simc": 12885,
                "addr:teryt:sym_ul": 986946,
                "contact:phone": "+48 795011800",
                "contact:email": "spasja@spasja.pl",
                "contact:website": "http:\/\/www.spasja.pl",
                "ref:regon": "021972764",
                "operator": "Dawid Marciniak",
                "operator:type": "private",
                "fixme": "w zale\u017cno\u015bci od przedmiotu dzia\u0142alno\u015bci (np. amenity=training + training=*, amenity=dancing_school, amenity=language_school, amenity=music_school)"
            }
        },
        {
            "id": 24502,
            "type": "Feature",
            "geometry": {
                "type": "Point",
                "coordinates": [
                    17.03606,
                    51.11169
                ]
            },
            "properties": {
                "ref:rspo": 24502,
                "official_name": "Przedszkole Nr 65 Pod Weso\u0142ym Kozio\u0142kiem",
                "name": "Przedszkole Nr 65 Pod Weso\u0142ym Kozio\u0142kiem",
                "addr:country": "PL",
                "addr:postcode": "50-147",
                "addr:city": "Wroc\u0142aw",
                "addr:street": "ul. No\u017cownicza",
                "addr:housenumber": "35a",
                "addr:teryt:simc": 14540,
                "addr:teryt:sym_ul": 986946,
                "contact:phone": "+48 717986807",
                "contact:email": "sekretariat.p065@wroclawskaedukacja.pl",
                "ref:regon": "930113388",
                "ref:vatin": "PL8971615814",
                "operator": "Gmina Wroc\u0142aw",
                "operator:type": "government",
                "amenity": "kindergarten"
            }
        },
        {
            "id": 14672,
            "type": "Feature",
            "geometry": {
                "type": "Point",
                "coordinates": [
                    17.01009,
                    51.11174
                ]
            },
            "properties": {
                "isced:level": "4",
                "ref:rspo": 14672,
                "official_name": "Szko\u0142a Policealna \"Cosinus\" we Wroc\u0142awiu",
                "name": "Szko\u0142a Policealna \"Cosinus\" we Wroc\u0142awiu",
                "addr:country": "PL",
                "addr:postcode": "53-680",
                "addr:city": "Wroc\u0142aw",
                "addr:street": "ul. Braniborska",
                "addr:housenumber": "57",
                "addr:teryt:simc": 2036,
                "addr:teryt:sym_ul": 986946,
                "contact:phone": "+48 713460079",
                "contact:email": "wroclaw@cosinus.pl",
                "contact:website": "http:\/\/www.cosinus.pl",
                "ref:regon": "021972422",
                "operator": "Fundacja Cosinus Edukacja Wr",
                "operator:type": "ngo",
                "amenity": "college"
            }
        },
        {
            "id": 42883,
            "type": "Feature",
            "geometry": {
                "type": "Point",
                "coordinates": [
                    17.01009,
                    51.111709999999995
                ]
            },
            "properties": {
                "ref:rspo": 42883,
                "official_name": "Elektroniczne Zak\u0142ady Naukowe",
                "name": "Elektroniczne Zak\u0142ady Naukowe",
                "addr:country": "PL",
                "addr:postcode": "53-680",
                "addr:city": "Wroc\u0142aw",
                "addr:street": "ul. Braniborska",
                "addr:housenumber": "57",
                "addr:teryt:simc": 2036,
                "addr:teryt:sym_ul": 986946,
                "contact:phone": "+48 717986702",
                "contact:email": "sekretariat.ezn@wroclawskaedukacja.pl",
                "contact:website": "http:\/\/www.ezn.edu.pl",
                "ref:regon": "000035079",
                "ref:vatin": "PL8961001200",
                "operator": "Gmina Wroc\u0142aw",
                "operator:type": "government",
                "landuse": "education",
                "fixme": "amenity=school, amenity=college albo landuse=education w zale\u017cno\u015bci od tego, jakie plac\u00f3wki wchodz\u0105 w sk\u0142ad zespo\u0142u. Sprawd\u017a, kiedy stosowa\u0107 amenity=* a kiedy landuse=education.",
                "note": "Children RSPO: 90637;90638"
            }
        },
        {
            "id": 277385,
            "type": "Feature",
            "geometry": {
                "type": "Point",
                "coordinates": [
                    17.01009,
                    51.11168
                ]
            },
            "properties": {
                "ref:rspo": 277385,
                "official_name": "Krajowy Instytut Doskonalenia Zawodowego",
                "name": "Krajowy Instytut Doskonalenia Zawodowego",
                "addr:country": "PL",
                "addr:postcode": "53-680",
                "addr:city": "Wroc\u0142aw",
                "addr:street": "ul. Braniborska",
                "addr:housenumber": "57",
                "addr:teryt:simc": 2036,
                "addr:teryt:sym_ul": 986946,
                "contact:phone": "+48 667326542",
                "contact:email": "motywatorsprzedazy@gmail.com",
                "ref:regon": "388807928",
                "operator": "Stf Wroc\u0142aw Sp\u00f3\u0142ka Z Ograniczon\u0105 Odpowiedzialno\u015bci\u0105",
                "operator:type": "private",
                "fixme": "w zale\u017cno\u015bci od przedmiotu dzia\u0142alno\u015bci (np. amenity=training + training=*, amenity=dancing_school, amenity=language_school, amenity=music_school)"
            }
        },
        {
            "id": 90637,
            "type": "Feature",
            "geometry": {
                "type": "Point",
                "coordinates": [
                    17.01009,
                    51.11165
                ]
            },
            "properties": {
                "isced:level": "3",
                "ref:rspo": 90637,
                "official_name": "Technikum Nr 10 im. Fryderyka Joliot-Curie",
                "name": "Technikum Nr 10",
                "addr:country": "PL",
                "addr:postcode": "53-680",
                "addr:city": "Wroc\u0142aw",
                "addr:street": "ul. Braniborska",
                "addr:housenumber": "57",
                "addr:teryt:simc": 2036,
                "addr:teryt:sym_ul": 986946,
                "contact:phone": "+48 717986702",
                "contact:email": "sekretariat.ezn@wroclawskaedukacja.pl",
                "contact:website": "http:\/\/www.ezn.edu.pl",
                "ref:regon": "020574620",
                "ref:vatin": "PL8961001200",
                "operator": "Gmina Wroc\u0142aw",
                "operator:type": "government",
                "amenity": "school",
                "note": "Parent RSPO: 42883"
            }
        },
        {
            "id": 90638,
            "type": "Feature",
            "geometry": {
                "type": "Point",
                "coordinates": [
                    17.01009,
                    51.111619999999995
                ]
            },
            "properties": {
                "isced:level": "4",
                "ref:rspo": 90638,
                "official_name": "Szko\u0142a Policealna Nr 4",
                "name": "Szko\u0142a Policealna Nr 4",
                "addr:country": "PL",
                "addr:postcode": "53-680",
                "addr:city": "Wroc\u0142aw",
                "addr:street": "ul. Braniborska",
                "addr:housenumber": "57",
                "addr:teryt:simc": 2036,
                "addr:teryt:sym_ul": 986946,
                "contact:phone": "+48 717986702",
                "contact:email": "ezn@ezn.edu.pl",
                "contact:website": "http:\/\/www.ezn.edu.pl",
                "ref:regon": "020063410",
                "ref:vatin": "PL8961001200",
                "operator": "Gmina Wroc\u0142aw",
                "operator:type": "government",
                "amenity": "college",
                "note": "Parent RSPO: 42883"
            }
        },
        {
            "id": 72677,
            "type": "Feature",
            "geometry": {
                "type": "Point",
                "coordinates": [
                    17.02214,
                    51.11183
                ]
            },
            "properties": {
                "ref:rspo": 72677,
                "official_name": "Pa\u0144stwowa Szko\u0142a Muzyczna II St. im. Ryszarda Bukowskiego we Wroc\u0142awiu",
                "name": "Pa\u0144stwowa Szko\u0142a Muzyczna II St.",
                "addr:country": "PL",
                "addr:postcode": "50-449",
                "addr:city": "Wroc\u0142aw",
                "addr:street": "ul. Podwale",
                "addr:housenumber": "68",
                "addr:door": "69",
                "addr:teryt:simc": 16874,
                "addr:teryt:sym_ul": 986946,
                "contact:phone": "+48 713441606",
                "contact:email": "sekretariat@psmpodwale.pl",
                "contact:website": "http:\/\/psmpodwale.pl",
                "ref:regon": "000277612",
                "operator": "Ministerstwo Kultury I Dziedzictwa Narodowego",
                "operator:type": "public",
                "amenity": "music_school"
            }
        },
        {
            "id": 72679,
            "type": "Feature",
            "geometry": {
                "type": "Point",
                "coordinates": [
                    17.0115823,
                    51.1118565
                ]
            },
            "properties": {
                "ref:rspo": 72679,
                "official_name": "Pa\u0144stwowa Bursa Szk\u00f3\u0142 Artystycznych we Wroc\u0142awiu",
                "name": "Pa\u0144stwowa Bursa Szk\u00f3\u0142 Artystycznych we Wroc\u0142awiu",
                "addr:country": "PL",
                "addr:postcode": "53-679",
                "addr:city": "Wroc\u0142aw",
                "addr:street": "ul. Trzemeska",
                "addr:housenumber": "2",
                "addr:teryt:simc": 23091,
                "addr:teryt:sym_ul": 986946,
                "contact:phone": "+48 713592572",
                "contact:email": "dyrektor@pbsa.pl",
                "contact:website": "http:\/\/pbsa.pl",
                "ref:regon": "000277990",
                "operator": "Ministerstwo Kultury I Dziedzictwa Narodowego",
                "operator:type": "public",
                "building": "dormitory"
            }
        },
        {
            "id": 14259,
            "type": "Feature",
            "geometry": {
                "type": "Point",
                "coordinates": [
                    17.03151,
                    51.11227
                ]
            },
            "properties": {
                "ref:rspo": 14259,
                "official_name": "Plac\u00f3wka O\u015bwiatowo Szkoleniowa Instytutu Kosmetyczno-Medycznego Laboratorium Bioodnowy Jadwiga",
                "name": "Plac\u00f3wka O\u015bwiatowo Szkoleniowa Instytutu Kosmetyczno-Medycznego Laboratorium Bioodnowy Jadwiga",
                "addr:country": "PL",
                "addr:postcode": "50-113",
                "addr:city": "Wroc\u0142aw",
                "addr:street": "ul. Odrza\u0144ska",
                "addr:housenumber": "9-10",
                "addr:teryt:simc": 14770,
                "addr:teryt:sym_ul": 986946,
                "contact:phone": "+48 713141485",
                "contact:email": "biuro@jadwiga.eu",
                "contact:website": "http:\/\/www.jadwiga.eu",
                "ref:regon": "021963021",
                "operator": "Violetta Traczyk",
                "operator:type": "private",
                "fixme": "w zale\u017cno\u015bci od przedmiotu dzia\u0142alno\u015bci (np. amenity=training + training=*, amenity=dancing_school, amenity=language_school, amenity=music_school)"
            }
        },
        {
            "id": 55979,
            "type": "Feature",
            "geometry": {
                "type": "Point",
                "coordinates": [
                    17.03526,
                    51.11304
                ]
            },
            "properties": {
                "ref:rspo": 55979,
                "official_name": "Regionalny O\u015brodek Doskonalenia Nauczycieli",
                "name": "Regionalny O\u015brodek Doskonalenia Nauczycieli",
                "addr:country": "PL",
                "addr:postcode": "50-154",
                "addr:city": "Wroc\u0142aw",
                "addr:street": "ul. Uniwersytecka",
                "addr:housenumber": "1",
                "addr:teryt:simc": 23375,
                "addr:teryt:sym_ul": 986946,
                "contact:phone": "+48 713422747",
                "ref:regon": "021996150",
                "operator": "Regionalny O\u015brodek Doskonalenia Nauczycieli  Sp\u00f3\u0142ka Z Ograniczon\u0105 Odpowiedzialno\u015bci\u0105",
                "operator:type": "private",
                "amenity": "training"
            }
        },
        {
            "id": 265617,
            "type": "Feature",
            "geometry": {
                "type": "Point",
                "coordinates": [
                    17.02269,
                    51.11319
                ]
            },
            "properties": {
                "ref:rspo": 265617,
                "official_name": "Akademia Osteopatii Niepubliczna Plac\u00f3wka Kszta\u0142cenia Ustawicznego",
                "name": "Akademia Osteopatii Niepubliczna Plac\u00f3wka Kszta\u0142cenia Ustawicznego",
                "addr:country": "PL",
                "addr:postcode": "53-659",
                "addr:city": "Wroc\u0142aw",
                "addr:street": "ul. gen. W\u0142adys\u0142awa Sikorskiego",
                "addr:housenumber": "2-8",
                "addr:teryt:simc": 19907,
                "addr:teryt:sym_ul": 986946,
                "contact:phone": "+48 668641708",
                "contact:email": "marta.konieczka@akademiaosteopatii.pl",
                "contact:website": "http:\/\/www.akademiaosteopatii.pl",
                "ref:regon": "368807097",
                "operator": "\u0141ukasz Ciesielski",
                "operator:type": "private",
                "fixme": "w zale\u017cno\u015bci od przedmiotu dzia\u0142alno\u015bci (np. amenity=training + training=*, amenity=dancing_school, amenity=language_school, amenity=music_school)"
            }
        },
        {
            "id": 24507,
            "type": "Feature",
            "geometry": {
                "type": "Point",
                "coordinates": [
                    17.01441,
                    51.11372
                ]
            },
            "properties": {
                "ref:rspo": 24507,
                "official_name": "Przedszkole Nr 99",
                "name": "Przedszkole Nr 99",
                "addr:country": "PL",
                "addr:postcode": "53-653",
                "addr:city": "Wroc\u0142aw",
                "addr:street": "ul. Inowroc\u0142awska",
                "addr:housenumber": "9",
                "addr:teryt:simc": 6907,
                "addr:teryt:sym_ul": 986946,
                "contact:phone": "+48 717986827",
                "contact:email": "sekretariat.p099@wroclawskaedukacja.pl",
                "contact:website": "http:\/\/przedszkole99.edu.wroclaw.pl",
                "ref:regon": "930113402",
                "ref:vatin": "PL8971615754",
                "operator": "Gmina Wroc\u0142aw",
                "operator:type": "government",
                "amenity": "kindergarten"
            }
        },
        {
            "id": 13385,
            "type": "Feature",
            "geometry": {
                "type": "Point",
                "coordinates": [
                    17.0093299,
                    51.11393
                ]
            },
            "properties": {
                "isced:level": "3",
                "ref:rspo": 13385,
                "official_name": "Europejska Szko\u0142a Bran\u017cowa I Stopnia we Wroc\u0142awiu",
                "name": "Europejska Szko\u0142a Bran\u017cowa I Stopnia we Wroc\u0142awiu",
                "addr:country": "PL",
                "addr:postcode": "53-652",
                "addr:city": "Wroc\u0142aw",
                "addr:street": "ul. Kruszwicka",
                "addr:housenumber": "8A",
                "addr:teryt:simc": 10045,
                "addr:teryt:sym_ul": 986946,
                "contact:phone": "+48 713504806",
                "contact:email": "biuro@szkolyeuropejskie.pl",
                "contact:website": "http:\/\/www.szkolyeuropejskie.pl",
                "ref:regon": "021961950",
                "operator": "Robert Burszewski",
                "operator:type": "private",
                "amenity": "school"
            }
        },
        {
            "id": 13391,
            "type": "Feature",
            "geometry": {
                "type": "Point",
                "coordinates": [
                    17.0093299,
                    51.1139
                ]
            },
            "properties": {
                "isced:level": "3",
                "ref:rspo": 13391,
                "official_name": "Europejskie Technikum Mened\u017cerskie we Wroc\u0142awiu",
                "name": "Europejskie Technikum Mened\u017cerskie we Wroc\u0142awiu",
                "addr:country": "PL",
                "addr:postcode": "53-652",
                "addr:city": "Wroc\u0142aw",
                "addr:street": "ul. Kruszwicka",
                "addr:housenumber": "8A",
                "addr:teryt:simc": 10045,
                "addr:teryt:sym_ul": 986946,
                "contact:phone": "+48 713504806",
                "contact:email": "biuro@szkolyeuropejskie.pl",
                "contact:website": "http:\/\/www.szkolyeuropejskie.pl",
                "ref:regon": "021961973",
                "operator": "Robert Burszewski",
                "operator:type": "private",
                "amenity": "school"
            }
        },
        {
            "id": 16133,
            "type": "Feature",
            "geometry": {
                "type": "Point",
                "coordinates": [
                    17.0093299,
                    51.113870000000006
                ]
            },
            "properties": {
                "ref:rspo": 16133,
                "official_name": "Europejskie Centrum Kszta\u0142cenia Specjalist\u00f3w",
                "name": "Europejskie Centrum Kszta\u0142cenia Specjalist\u00f3w",
                "addr:country": "PL",
                "addr:postcode": "53-652",
                "addr:city": "Wroc\u0142aw",
                "addr:street": "ul. Kruszwicka",
                "addr:housenumber": "8 A",
                "addr:teryt:simc": 10045,
                "addr:teryt:sym_ul": 986946,
                "contact:phone": "+48 713493704",
                "contact:email": "biuro@ecks.pl",
                "contact:website": "http:\/\/www.ecks.pl",
                "ref:regon": "021969800",
                "operator": "Robert Burszewski",
                "operator:type": "private",
                "fixme": "w zale\u017cno\u015bci od przedmiotu dzia\u0142alno\u015bci (np. amenity=training + training=*, amenity=dancing_school, amenity=language_school, amenity=music_school)"
            }
        },
        {
            "id": 120530,
            "type": "Feature",
            "geometry": {
                "type": "Point",
                "coordinates": [
                    17.0093299,
                    51.11384
                ]
            },
            "properties": {
                "ref:rspo": 120530,
                "official_name": "Max Progress",
                "name": "Max Progress",
                "addr:country": "PL",
                "addr:postcode": "53-652",
                "addr:city": "Wroc\u0142aw",
                "addr:street": "ul. Kruszwicka",
                "addr:housenumber": "8a",
                "addr:teryt:simc": 10045,
                "addr:teryt:sym_ul": 986946,
                "contact:phone": "+48 601656619",
                "contact:email": "dariuszdabrowski@maxprogress.pl",
                "contact:website": "http:\/\/www.maxprogress.pl",
                "ref:regon": "022269860",
                "operator": "Dariusz D\u0105browski",
                "operator:type": "private",
                "fixme": "w zale\u017cno\u015bci od przedmiotu dzia\u0142alno\u015bci (np. amenity=training + training=*, amenity=dancing_school, amenity=language_school, amenity=music_school)"
            }
        },
        {
            "id": 126480,
            "type": "Feature",
            "geometry": {
                "type": "Point",
                "coordinates": [
                    17.0093299,
                    51.11381
                ]
            },
            "properties": {
                "ref:rspo": 126480,
                "official_name": "Szko\u0142y Europejskie we Wroc\u0142awiu",
                "name": "Szko\u0142y Europejskie we Wroc\u0142awiu",
                "addr:country": "PL",
                "addr:postcode": "53-652",
                "addr:city": "Wroc\u0142aw",
                "addr:street": "ul. Kruszwicka",
                "addr:housenumber": "8a",
                "addr:teryt:simc": 10045,
                "addr:teryt:sym_ul": 986946,
                "contact:phone": "+48 713504806",
                "contact:email": "biuro@szkolyeuropejskie.pl",
                "contact:website": "http:\/\/www.szkolyeuropejskie.pl",
                "ref:regon": "360388028",
                "operator": "Robert Burszewski",
                "operator:type": "private",
                "landuse": "education",
                "fixme": "amenity=school, amenity=college albo landuse=education w zale\u017cno\u015bci od tego, jakie plac\u00f3wki wchodz\u0105 w sk\u0142ad zespo\u0142u. Sprawd\u017a, kiedy stosowa\u0107 amenity=* a kiedy landuse=education.",
                "note": "Children RSPO: 120323;132534"
            }
        },
        {
            "id": 130921,
            "type": "Feature",
            "geometry": {
                "type": "Point",
                "coordinates": [
                    17.0093299,
                    51.113780000000006
                ]
            },
            "properties": {
                "ref:rspo": 130921,
                "official_name": "Beauty Talent Academy",
                "name": "Beauty Talent Academy",
                "addr:country": "PL",
                "addr:postcode": "53-652",
                "addr:city": "Wroc\u0142aw",
                "addr:street": "ul. Kruszwicka",
                "addr:housenumber": "8A",
                "addr:teryt:simc": 10045,
                "addr:teryt:sym_ul": 986946,
                "contact:phone": "+48 713493704",
                "contact:email": "sekretariat@beautytalentacademy.pl",
                "contact:website": "http:\/\/www.beautytalentacademy.pl",
                "ref:regon": "364735461",
                "operator": "Beauty Talent Academy Sp\u00f3\u0142ka Z Ograniczon\u0105 Odpowiedzialno\u015bci\u0105",
                "operator:type": "private",
                "fixme": "w zale\u017cno\u015bci od przedmiotu dzia\u0142alno\u015bci (np. amenity=training + training=*, amenity=dancing_school, amenity=language_school, amenity=music_school)"
            }
        },
        {
            "id": 133965,
            "type": "Feature",
            "geometry": {
                "type": "Point",
                "coordinates": [
                    17.0093299,
                    51.11375
                ]
            },
            "properties": {
                "ref:rspo": 133965,
                "official_name": "Wroc\u0142awska Akademia Akupunktury I Medycyny Naturalnej",
                "name": "Wroc\u0142awska Akademia Akupunktury I Medycyny Naturalnej",
                "addr:country": "PL",
                "addr:postcode": "53-652",
                "addr:city": "Wroc\u0142aw",
                "addr:street": "ul. Kruszwicka",
                "addr:housenumber": "8A",
                "addr:teryt:simc": 10045,
                "addr:teryt:sym_ul": 986946,
                "contact:phone": "+48 690242797",
                "contact:email": "biuro@annamed.eu",
                "contact:website": "http:\/\/www.annamed.eu",
                "ref:regon": "367772586",
                "operator": "Anna Pokryszko",
                "operator:type": "private",
                "fixme": "w zale\u017cno\u015bci od przedmiotu dzia\u0142alno\u015bci (np. amenity=training + training=*, amenity=dancing_school, amenity=language_school, amenity=music_school)"
            }
        },
        {
            "id": 263069,
            "type": "Feature",
            "geometry": {
                "type": "Point",
                "coordinates": [
                    17.0093299,
                    51.11372
                ]
            },
            "properties": {
                "isced:level": "3",
                "ref:rspo": 263069,
                "official_name": "Liceum S\u0142u\u017cb Mundurowych we Wroc\u0142awiu",
                "name": "Liceum S\u0142u\u017cb Mundurowych we Wroc\u0142awiu",
                "addr:country": "PL",
                "addr:postcode": "53-652",
                "addr:city": "Wroc\u0142aw",
                "addr:street": "ul. Kruszwicka",
                "addr:housenumber": "8a",
                "addr:teryt:simc": 10045,
                "addr:teryt:sym_ul": 986946,
                "contact:phone": "+48 713504806",
                "contact:email": "biuro@szkolyeuropejskie.pl",
                "contact:website": "http:\/\/www.szkolyeuropejskie.pl",
                "ref:regon": "368102340",
                "operator": "Robert Burszewski",
                "operator:type": "private",
                "amenity": "school"
            }
        },
        {
            "id": 275881,
            "type": "Feature",
            "geometry": {
                "type": "Point",
                "coordinates": [
                    17.0093299,
                    51.113690000000005
                ]
            },
            "properties": {
                "ref:rspo": 275881,
                "official_name": "Europejskie Centrum Doskonalenia Nauczycieli we Wroc\u0142awiu",
                "name": "Europejskie Centrum Doskonalenia Nauczycieli we Wroc\u0142awiu",
                "addr:country": "PL",
                "addr:postcode": "53-652",
                "addr:city": "Wroc\u0142aw",
                "addr:street": "ul. Kruszwicka",
                "addr:housenumber": "8A",
                "addr:teryt:simc": 10045,
                "addr:teryt:sym_ul": 986946,
                "contact:phone": "+48 713493704",
                "contact:email": "biuro@ecks.pl",
                "ref:regon": "386948263",
                "operator": "Robert Burszewski",
                "operator:type": "private",
                "amenity": "training"
            }
        },
        {
            "id": 277179,
            "type": "Feature",
            "geometry": {
                "type": "Point",
                "coordinates": [
                    17.0093299,
                    51.11366
                ]
            },
            "properties": {
                "ref:rspo": 277179,
                "official_name": "Szkolenia Marcin Kruk",
                "name": "Szkolenia Marcin Kruk",
                "addr:country": "PL",
                "addr:postcode": "53-652",
                "addr:city": "Wroc\u0142aw",
                "addr:street": "ul. Kruszwicka",
                "addr:housenumber": "8a",
                "addr:teryt:simc": 10045,
                "addr:teryt:sym_ul": 986946,
                "contact:phone": "+48 602444671",
                "contact:email": "biuro@szkolenia-marcinkruk.pl",
                "contact:website": "http:\/\/www.szkolenia-marcinkruk.pl",
                "ref:regon": "388252212",
                "operator": "Marcin Kruk",
                "operator:type": "private",
                "fixme": "w zale\u017cno\u015bci od przedmiotu dzia\u0142alno\u015bci (np. amenity=training + training=*, amenity=dancing_school, amenity=language_school, amenity=music_school)"
            }
        },
        {
            "id": 277330,
            "type": "Feature",
            "geometry": {
                "type": "Point",
                "coordinates": [
                    17.0093299,
                    51.11363
                ]
            },
            "properties": {
                "isced:level": "4",
                "ref:rspo": 277330,
                "official_name": "Niepubliczna Policealna Szko\u0142a Plastyczna Stylart Academy we Wroc\u0142awiu",
                "name": "Niepubliczna Policealna Szko\u0142a Plastyczna Stylart Academy we Wroc\u0142awiu",
                "addr:country": "PL",
                "addr:postcode": "53-652",
                "addr:city": "Wroc\u0142aw",
                "addr:street": "ul. Kruszwicka",
                "addr:housenumber": "8A",
                "addr:teryt:simc": 10045,
                "addr:teryt:sym_ul": 986946,
                "contact:email": "biuro@ecks.pl",
                "ref:regon": "388657417",
                "operator": "Robert Burszewski",
                "operator:type": "private",
                "amenity": "college"
            }
        },
        {
            "id": 120323,
            "type": "Feature",
            "geometry": {
                "type": "Point",
                "coordinates": [
                    17.0093299,
                    51.113600000000005
                ]
            },
            "properties": {
                "isced:level": "3",
                "ref:rspo": 120323,
                "official_name": "Europejskie Liceum S\u0142u\u017cb Mundurowych we Wroc\u0142awiu",
                "name": "Europejskie Liceum S\u0142u\u017cb Mundurowych we Wroc\u0142awiu",
                "addr:country": "PL",
                "addr:postcode": "53-652",
                "addr:city": "Wroc\u0142aw",
                "addr:street": "ul. Kruszwicka",
                "addr:housenumber": "8A",
                "addr:teryt:simc": 10045,
                "addr:teryt:sym_ul": 986946,
                "contact:phone": "+48 713504806",
                "contact:email": "biuro@szkolyeuropejskie.pl",
                "contact:website": "http:\/\/www.szkolyeuropejskie.pl",
                "ref:regon": "022259531",
                "operator": "Robert Burszewski",
                "operator:type": "private",
                "amenity": "school",
                "note": "Parent RSPO: 126480"
            }
        },
        {
            "id": 132534,
            "type": "Feature",
            "geometry": {
                "type": "Point",
                "coordinates": [
                    17.0093299,
                    51.11357
                ]
            },
            "properties": {
                "isced:level": "3",
                "ref:rspo": 132534,
                "official_name": "Europejskie Liceum It we Wroc\u0142awiu",
                "name": "Europejskie Liceum It we Wroc\u0142awiu",
                "addr:country": "PL",
                "addr:postcode": "53-652",
                "addr:city": "Wroc\u0142aw",
                "addr:street": "ul. Kruszwicka",
                "addr:housenumber": "8A",
                "addr:teryt:simc": 10045,
                "addr:teryt:sym_ul": 986946,
                "contact:phone": "+48 713504806",
                "contact:email": "biuro@szkolyeuropejskie.pl",
                "contact:website": "http:\/\/szkolyeuropejskie.pl\/",
                "ref:regon": "365738467",
                "operator": "Robert Burszewski",
                "operator:type": "private",
                "amenity": "school",
                "note": "Parent RSPO: 126480"
            }
        },
        {
            "id": 61398,
            "type": "Feature",
            "geometry": {
                "type": "Point",
                "coordinates": [
                    17.01781,
                    51.11407
                ]
            },
            "properties": {
                "isced:level": "1;2",
                "ref:rspo": 61398,
                "official_name": "Spo\u0142eczna Szko\u0142a Podstawowa \"Optimum\"",
                "name": "Spo\u0142eczna Szko\u0142a Podstawowa \"Optimum\"",
                "addr:country": "PL",
                "addr:postcode": "53-656",
                "addr:city": "Wroc\u0142aw",
                "addr:street": "ul. Rybacka",
                "addr:housenumber": "17",
                "addr:teryt:simc": 19142,
                "addr:teryt:sym_ul": 986946,
                "contact:phone": "+48 713553607",
                "contact:email": "optimum71@wp.pl",
                "contact:website": "http:\/\/www.optimum.wroclaw.pl",
                "ref:regon": "022002750",
                "operator": "Fundacja \"Optimum\"",
                "operator:type": "ngo",
                "amenity": "school"
            }
        },
        {
            "id": 24509,
            "type": "Feature",
            "geometry": {
                "type": "Point",
                "coordinates": [
                    17.00986,
                    51.11494
                ]
            },
            "properties": {
                "ref:rspo": 24509,
                "official_name": "Przedszkole Nr 102",
                "name": "Przedszkole Nr 102",
                "addr:country": "PL",
                "addr:postcode": "53-641",
                "addr:city": "Wroc\u0142aw",
                "addr:street": "ul. Litomska",
                "addr:housenumber": "11",
                "addr:teryt:simc": 11225,
                "addr:teryt:sym_ul": 986946,
                "contact:phone": "+48 717986749",
                "contact:email": "sekretariat.p102@wroclawskaedukacja.pl",
                "contact:website": "http:\/\/przedszkole102wroc.szkolnastrona.pl",
                "ref:regon": "930113425",
                "ref:vatin": "PL8971615783",
                "operator": "Gmina Wroc\u0142aw",
                "operator:type": "government",
                "amenity": "kindergarten"
            }
        },
        {
            "id": 132364,
            "type": "Feature",
            "geometry": {
                "type": "Point",
                "coordinates": [
                    17.01546,
                    51.11501
                ]
            },
            "properties": {
                "isced:level": "4",
                "ref:rspo": 132364,
                "official_name": "Plus - Szko\u0142a Policealna we Wroc\u0142awiu",
                "name": "Plus - Szko\u0142a Policealna we Wroc\u0142awiu",
                "addr:country": "PL",
                "addr:postcode": "53-644",
                "addr:city": "Wroc\u0142aw",
                "addr:street": "ul. Zachodnia",
                "addr:housenumber": "2",
                "addr:teryt:simc": 25305,
                "addr:teryt:sym_ul": 986946,
                "contact:phone": "+48 717275032",
                "contact:email": "wroclaw@plusedukacja.pl",
                "contact:website": "http:\/\/www.plusedukacja.pl",
                "ref:regon": "365574379",
                "operator": "Plus Edukacja Centrum Kszta\u0142cenia Sp\u00f3\u0142ka Z Ograniczon\u0105 Odpowiedzialno\u015bci\u0105",
                "operator:type": "private",
                "amenity": "college"
            }
        },
        {
            "id": 132365,
            "type": "Feature",
            "geometry": {
                "type": "Point",
                "coordinates": [
                    17.01546,
                    51.114979999999996
                ]
            },
            "properties": {
                "isced:level": "4",
                "ref:rspo": 132365,
                "official_name": "Plus - Medyczna Szko\u0142a Policealna we Wroc\u0142awiu",
                "name": "Plus - Medyczna Szko\u0142a Policealna we Wroc\u0142awiu",
                "addr:country": "PL",
                "addr:postcode": "53-644",
                "addr:city": "Wroc\u0142aw",
                "addr:street": "ul. Zachodnia",
                "addr:housenumber": "2",
                "addr:teryt:simc": 25305,
                "addr:teryt:sym_ul": 986946,
                "contact:phone": "+48 717275032",
                "contact:email": "wroclaw@plusedukacja.pl",
                "contact:website": "http:\/\/www.plusedukacja.pl",
                "ref:regon": "365574385",
                "operator": "Plus Edukacja Centrum Kszta\u0142cenia Sp\u00f3\u0142ka Z Ograniczon\u0105 Odpowiedzialno\u015bci\u0105",
                "operator:type": "private",
                "amenity": "college"
            }
        },
        {
            "id": 133822,
            "type": "Feature",
            "geometry": {
                "type": "Point",
                "coordinates": [
                    17.01546,
                    51.11495
                ]
            },
            "properties": {
                "isced:level": "1;2",
                "ref:rspo": 133822,
                "official_name": "Szko\u0142a Podstawowa Nr 14 im. Kawaler\u00f3w Orderu Or\u0142a Bia\u0142ego",
                "name": "Szko\u0142a Podstawowa Nr 14",
                "addr:country": "PL",
                "addr:postcode": "53-644",
                "addr:city": "Wroc\u0142aw",
                "addr:street": "ul. Zachodnia",
                "addr:housenumber": "2",
                "addr:teryt:simc": 25305,
                "addr:teryt:sym_ul": 986946,
                "contact:phone": "+48 717986719",
                "contact:email": "sekretariat.sp014@wroclawskaedukacja.pl",
                "contact:website": "http:\/\/www.gim28wroc.superszkolna.pl",
                "ref:regon": "367719770",
                "ref:vatin": "PL8971842987",
                "operator": "Gmina Wroc\u0142aw",
                "operator:type": "government",
                "amenity": "school"
            }
        },
        {
            "id": 272036,
            "type": "Feature",
            "geometry": {
                "type": "Point",
                "coordinates": [
                    17.01546,
                    51.11492
                ]
            },
            "properties": {
                "ref:rspo": 272036,
                "official_name": "Plus Centrum Kszta\u0142cenia Ustawicznego",
                "name": "Plus Centrum Kszta\u0142cenia Ustawicznego",
                "addr:country": "PL",
                "addr:postcode": "53-644",
                "addr:city": "Wroc\u0142aw",
                "addr:street": "ul. Zachodnia",
                "addr:housenumber": "2",
                "addr:teryt:simc": 25305,
                "addr:teryt:sym_ul": 986946,
                "contact:phone": "+48 717275032",
                "contact:email": "wroclaw@plusedukacja.pl",
                "contact:website": "http:\/\/www.plusedukacja.pl",
                "ref:regon": "383896666",
                "operator": "Plus Edukacja Centrum Kszta\u0142cenia Sp\u00f3\u0142ka Z Ograniczon\u0105 Odpowiedzialno\u015bci\u0105",
                "operator:type": "private",
                "fixme": "w zale\u017cno\u015bci od przedmiotu dzia\u0142alno\u015bci (np. amenity=training + training=*, amenity=dancing_school, amenity=language_school, amenity=music_school)"
            }
        },
        {
            "id": 19753,
            "type": "Feature",
            "geometry": {
                "type": "Point",
                "coordinates": [
                    17.0021099,
                    51.11508
                ]
            },
            "properties": {
                "ref:rspo": 19753,
                "official_name": "Bim Bam Bom Niepubliczny Punkt Przedszkolny",
                "name": "Bim Bam Bom Niepubliczny Punkt Przedszkolny",
                "addr:country": "PL",
                "addr:postcode": "54-203",
                "addr:city": "Wroc\u0142aw",
                "addr:street": "ul. Legnicka",
                "addr:housenumber": "55",
                "addr:door": "U3",
                "addr:teryt:simc": 10780,
                "addr:teryt:sym_ul": 986946,
                "contact:phone": "+48 609338612",
                "contact:email": "biuro@bimbambom.edu.pl",
                "contact:website": "http:\/\/www.bimbambom.edu.pl",
                "ref:regon": "021978979",
                "operator": "Magdalena K\u0142ak-Turska",
                "operator:type": "private",
                "amenity": "kindergarten"
            }
        },
        {
            "id": 21635,
            "type": "Feature",
            "geometry": {
                "type": "Point",
                "coordinates": [
                    17.00647,
                    51.1166
                ]
            },
            "properties": {
                "ref:rspo": 21635,
                "official_name": "Przedszkole Nr 105 Szczepinek",
                "name": "Przedszkole Nr 105 Szczepinek",
                "addr:country": "PL",
                "addr:postcode": "53-630",
                "addr:city": "Wroc\u0142aw",
                "addr:street": "ul. Pozna\u0144ska",
                "addr:housenumber": "24",
                "addr:teryt:simc": 17394,
                "addr:teryt:sym_ul": 986946,
                "contact:phone": "+48 717986924",
                "contact:email": "sekretariat.zsp18@wroclawskaedukacja.pl",
                "ref:regon": "930113431",
                "ref:vatin": "PL8971619137",
                "operator": "Gmina Wroc\u0142aw",
                "operator:type": "government",
                "amenity": "kindergarten",
                "note": "Parent RSPO: 3947"
            }
        },
        {
            "id": 3947,
            "type": "Feature",
            "geometry": {
                "type": "Point",
                "coordinates": [
                    17.00674,
                    51.11706
                ]
            },
            "properties": {
                "ref:rspo": 3947,
                "official_name": "Zesp\u00f3\u0142 Szkolno-Przedszkolny Nr 18",
                "name": "Zesp\u00f3\u0142 Szkolno-Przedszkolny Nr 18",
                "addr:country": "PL",
                "addr:postcode": "53-630",
                "addr:city": "Wroc\u0142aw",
                "addr:street": "ul. Pozna\u0144ska",
                "addr:housenumber": "26",
                "addr:teryt:simc": 17394,
                "addr:teryt:sym_ul": 986946,
                "contact:phone": "+48 717986924",
                "contact:email": "sp18@sp18.wroc.pl",
                "contact:website": "http:\/\/www.sp18.wroc.pl",
                "ref:regon": "021942740",
                "ref:vatin": "PL8971784333",
                "operator": "Gmina Wroc\u0142aw",
                "operator:type": "government",
                "landuse": "education",
                "fixme": "amenity=school, amenity=college albo landuse=education w zale\u017cno\u015bci od tego, jakie plac\u00f3wki wchodz\u0105 w sk\u0142ad zespo\u0142u. Sprawd\u017a, kiedy stosowa\u0107 amenity=* a kiedy landuse=education.",
                "note": "Children RSPO: 15028;21635"
            }
        },
        {
            "id": 15028,
            "type": "Feature",
            "geometry": {
                "type": "Point",
                "coordinates": [
                    17.00674,
                    51.11703
                ]
            },
            "properties": {
                "isced:level": "1;2",
                "ref:rspo": 15028,
                "official_name": "Szko\u0142a Podstawowa Nr 18",
                "name": "Szko\u0142a Podstawowa Nr 18",
                "addr:country": "PL",
                "addr:postcode": "53-630",
                "addr:city": "Wroc\u0142aw",
                "addr:street": "ul. Pozna\u0144ska",
                "addr:housenumber": "26",
                "addr:teryt:simc": 17394,
                "addr:teryt:sym_ul": 986946,
                "contact:phone": "+48 717986924",
                "contact:email": "sp18@sp18.wroc.pl",
                "contact:website": "http:\/\/www.sp18.wroc.pl",
                "ref:regon": "000693078",
                "ref:vatin": "PL8971573205",
                "operator": "Gmina Wroc\u0142aw",
                "operator:type": "government",
                "amenity": "school",
                "note": "Parent RSPO: 3947"
            }
        },
        {
            "id": 265124,
            "type": "Feature",
            "geometry": {
                "type": "Point",
                "coordinates": [
                    17.01462,
                    51.1172899
                ]
            },
            "properties": {
                "isced:level": "3",
                "ref:rspo": 265124,
                "official_name": "Akademickie Liceum Og\u00f3lnokszta\u0142c\u0105ce \"Copernicus\"",
                "name": "Akademickie Liceum Og\u00f3lnokszta\u0142c\u0105ce \"Copernicus\"",
                "addr:country": "PL",
                "addr:postcode": "53-648",
                "addr:city": "Wroc\u0142aw",
                "addr:street": "ul. Inowroc\u0142awska",
                "addr:housenumber": "56",
                "addr:teryt:simc": 6907,
                "addr:teryt:sym_ul": 986946,
                "contact:phone": "+48 717950390",
                "contact:email": "sekretariat@liceum.wroc.pl",
                "contact:website": "http:\/\/www.liceum.wroc.pl",
                "ref:regon": "368649132",
                "operator": "Wy\u017csza Szko\u0142a Informatyki I Zarz\u0105dzania \"Copernicus\" We Wroc\u0142awiu",
                "operator:type": "private",
                "amenity": "school"
            }
        },
        {
            "id": 24514,
            "type": "Feature",
            "geometry": {
                "type": "Point",
                "coordinates": [
                    17.01211,
                    51.11761
                ]
            },
            "properties": {
                "ref:rspo": 24514,
                "official_name": "Przedszkole Integracyjne Nr 125 im. Janusza Korczaka",
                "name": "Przedszkole Integracyjne Nr 125",
                "addr:country": "PL",
                "addr:postcode": "53-642",
                "addr:city": "Wroc\u0142aw",
                "addr:street": "ul. \u015acinawska",
                "addr:housenumber": "10",
                "addr:teryt:simc": 22302,
                "addr:teryt:sym_ul": 986946,
                "contact:phone": "+48 717986764",
                "contact:email": "sekretariat.p125@wroclawskaedukacja.pl",
                "contact:website": "http:\/\/przedszkole125.wroc.pl",
                "ref:regon": "930113448",
                "ref:vatin": "PL8971656227",
                "operator": "Gmina Wroc\u0142aw",
                "operator:type": "government",
                "amenity": "kindergarten"
            }
        },
        {
            "id": 130769,
            "type": "Feature",
            "geometry": {
                "type": "Point",
                "coordinates": [
                    17.00262,
                    51.11853
                ]
            },
            "properties": {
                "ref:rspo": 130769,
                "official_name": "Zesp\u00f3\u0142 Szk\u00f3\u0142 Nr 16",
                "name": "Zesp\u00f3\u0142 Szk\u00f3\u0142 Nr 16",
                "addr:country": "PL",
                "addr:postcode": "53-621",
                "addr:city": "Wroc\u0142aw",
                "addr:street": "ul. G\u0142ogowska",
                "addr:housenumber": "30",
                "addr:teryt:simc": 5614,
                "addr:teryt:sym_ul": 986946,
                "contact:phone": "+48 717986883",
                "contact:email": "sekretariat.zs16@wroclawskaedukacja.pl",
                "contact:website": "http:\/\/zs16.edu.wroclaw.pl",
                "ref:regon": "364494218",
                "ref:vatin": "PL8971826379",
                "operator": "Gmina Wroc\u0142aw",
                "operator:type": "government",
                "landuse": "education",
                "fixme": "amenity=school, amenity=college albo landuse=education w zale\u017cno\u015bci od tego, jakie plac\u00f3wki wchodz\u0105 w sk\u0142ad zespo\u0142u. Sprawd\u017a, kiedy stosowa\u0107 amenity=* a kiedy landuse=education.",
                "note": "Children RSPO: 92642;92643"
            }
        },
        {
            "id": 92642,
            "type": "Feature",
            "geometry": {
                "type": "Point",
                "coordinates": [
                    17.00262,
                    51.1185
                ]
            },
            "properties": {
                "isced:level": "1;2",
                "ref:rspo": 92642,
                "official_name": "Szko\u0142a Podstawowa Specjalna Nr 102 dla Uczni\u00f3w Z Autyzmem",
                "name": "Szko\u0142a Podstawowa Specjalna Nr 102 dla Uczni\u00f3w Z Autyzmem",
                "addr:country": "PL",
                "addr:postcode": "53-621",
                "addr:city": "Wroc\u0142aw",
                "addr:street": "ul. G\u0142ogowska",
                "addr:housenumber": "30",
                "addr:teryt:simc": 5614,
                "addr:teryt:sym_ul": 986946,
                "contact:phone": "+48 717986883",
                "contact:email": "sekretariat.zs16@wroclawskaedukacja.pl",
                "contact:website": "http:\/\/www.zs16.wroclaw.pl",
                "ref:regon": "932230253",
                "operator": "Gmina Wroc\u0142aw",
                "operator:type": "government",
                "amenity": "school",
                "note": "Parent RSPO: 130769"
            }
        },
        {
            "id": 92643,
            "type": "Feature",
            "geometry": {
                "type": "Point",
                "coordinates": [
                    17.00262,
                    51.11847
                ]
            },
            "properties": {
                "ref:rspo": 92643,
                "official_name": "Szko\u0142a Specjalna Przysposabiaj\u0105ca Do Pracy Nr 2 dla Uczni\u00f3w Z Autyzmem",
                "name": "Szko\u0142a Specjalna Przysposabiaj\u0105ca Do Pracy Nr 2 dla Uczni\u00f3w Z Autyzmem",
                "addr:country": "PL",
                "addr:postcode": "53-621",
                "addr:city": "Wroc\u0142aw",
                "addr:street": "ul. G\u0142ogowska",
                "addr:housenumber": "30",
                "addr:teryt:simc": 5614,
                "addr:teryt:sym_ul": 986946,
                "contact:phone": "+48 717986883",
                "contact:email": "sekretariat.zs16@wroclawskaedukacja.pl",
                "contact:website": "http:\/\/www.zs16.wroclaw.pl",
                "ref:regon": "020593800",
                "operator": "Gmina Wroc\u0142aw",
                "operator:type": "government",
                "amenity": "school",
                "note": "Parent RSPO: 130769"
            }
        },
        {
            "id": 13695,
            "type": "Feature",
            "geometry": {
                "type": "Point",
                "coordinates": [
                    17.01305,
                    51.11868
                ]
            },
            "properties": {
                "isced:level": "1;2",
                "ref:rspo": 13695,
                "official_name": "Niepubliczna Szko\u0142a Terapii Behawioralnej dla Dzieci Z Autyzmem we Wroc\u0142awiu",
                "name": "Niepubliczna Szko\u0142a Terapii Behawioralnej dla Dzieci Z Autyzmem we Wroc\u0142awiu",
                "addr:country": "PL",
                "addr:postcode": "53-645",
                "addr:city": "Wroc\u0142aw",
                "addr:street": "ul. M\u0142odych Technik\u00f3w",
                "addr:housenumber": "58",
                "addr:teryt:simc": 13090,
                "addr:teryt:sym_ul": 986946,
                "contact:phone": "+48 577344044",
                "contact:email": "d_kolodziejczyk@hotmail.com",
                "ref:regon": "021969911",
                "operator": "Dolno\u015bl\u0105skie Stowarzyszenie Terapii Behawioralnej Dla Os\u00f3b Z Autyzmem \"Aktywny Umys\u0142\"",
                "operator:type": "ngo",
                "amenity": "school"
            }
        },
        {
            "id": 15020,
            "type": "Feature",
            "geometry": {
                "type": "Point",
                "coordinates": [
                    17.01305,
                    51.118649999999995
                ]
            },
            "properties": {
                "isced:level": "3",
                "ref:rspo": 15020,
                "official_name": "Liceum Og\u00f3lnokszta\u0142c\u0105ce dla Doros\u0142ych \"Alfa Plus\" we Wroc\u0142awiu",
                "name": "Liceum Og\u00f3lnokszta\u0142c\u0105ce dla Doros\u0142ych \"Alfa Plus\" we Wroc\u0142awiu",
                "addr:country": "PL",
                "addr:postcode": "53-645",
                "addr:city": "Wroc\u0142aw",
                "addr:street": "ul. M\u0142odych Technik\u00f3w",
                "addr:housenumber": "58",
                "addr:teryt:simc": 13090,
                "addr:teryt:sym_ul": 986946,
                "contact:phone": "+48 713070205",
                "contact:email": "liceum@alfaplus.szkola.pl",
                "contact:website": "http:\/\/www.alfaplus.szkola.pl",
                "ref:regon": "021971167",
                "operator": "Artur Durzy\u0144ski",
                "operator:type": "private",
                "amenity": "school"
            }
        },
        {
            "id": 19518,
            "type": "Feature",
            "geometry": {
                "type": "Point",
                "coordinates": [
                    17.01305,
                    51.11862
                ]
            },
            "properties": {
                "isced:level": "1;2",
                "ref:rspo": 19518,
                "official_name": "Leonardo Da Vinci Niepubliczna Szko\u0142a Podstawowa we Wroc\u0142awiu",
                "name": "Leonardo Da Vinci Niepubliczna Szko\u0142a Podstawowa we Wroc\u0142awiu",
                "addr:country": "PL",
                "addr:postcode": "53-645",
                "addr:city": "Wroc\u0142aw",
                "addr:street": "ul. M\u0142odych Technik\u00f3w",
                "addr:housenumber": "58",
                "addr:teryt:simc": 13090,
                "addr:teryt:sym_ul": 986946,
                "contact:phone": "+48 717937717",
                "contact:email": "biuro@davinci.edu.pl",
                "contact:website": "http:\/\/www.davinci.edu.pl",
                "ref:regon": "021978867",
                "operator": "Ogr\u00f3d Wyobra\u017ani",
                "operator:type": "ngo",
                "amenity": "school"
            }
        },
        {
            "id": 30852,
            "type": "Feature",
            "geometry": {
                "type": "Point",
                "coordinates": [
                    17.01305,
                    51.11859
                ]
            },
            "properties": {
                "isced:level": "3",
                "ref:rspo": 30852,
                "official_name": "Liceum Og\u00f3lnokszta\u0142c\u0105ce dla Doros\u0142ych \"Edus\"",
                "name": "Liceum Og\u00f3lnokszta\u0142c\u0105ce dla Doros\u0142ych \"Edus\"",
                "addr:country": "PL",
                "addr:postcode": "53-645",
                "addr:city": "Wroc\u0142aw",
                "addr:street": "ul. M\u0142odych Technik\u00f3w",
                "addr:housenumber": "58",
                "addr:teryt:simc": 13090,
                "addr:teryt:sym_ul": 986946,
                "contact:phone": "+48 713070205",
                "contact:email": "szkola@edus.szkola.pl",
                "contact:website": "http:\/\/www.edus.szkola.pl",
                "ref:regon": "021989612",
                "operator": "Monika Durzy\u0144ska",
                "operator:type": "private",
                "amenity": "school"
            }
        },
        {
            "id": 31524,
            "type": "Feature",
            "geometry": {
                "type": "Point",
                "coordinates": [
                    17.01305,
                    51.118559999999995
                ]
            },
            "properties": {
                "ref:rspo": 31524,
                "official_name": "Zesp\u00f3\u0142 Szk\u00f3\u0142 Nr 18",
                "name": "Zesp\u00f3\u0142 Szk\u00f3\u0142 Nr 18",
                "addr:country": "PL",
                "addr:postcode": "53-645",
                "addr:city": "Wroc\u0142aw",
                "addr:street": "ul. M\u0142odych Technik\u00f3w",
                "addr:housenumber": "58",
                "addr:teryt:simc": 13090,
                "addr:teryt:sym_ul": 986946,
                "contact:phone": "+48 717986893",
                "contact:email": "szkola@zs18.wroc.pl",
                "contact:website": "http:\/\/www.zs18wroc.pl",
                "ref:regon": "932820931",
                "ref:vatin": "PL8971674998",
                "operator": "Gmina Wroc\u0142aw",
                "operator:type": "government",
                "landuse": "education",
                "fixme": "amenity=school, amenity=college albo landuse=education w zale\u017cno\u015bci od tego, jakie plac\u00f3wki wchodz\u0105 w sk\u0142ad zespo\u0142u. Sprawd\u017a, kiedy stosowa\u0107 amenity=* a kiedy landuse=education.",
                "note": "Children RSPO: 89189;89190;274843"
            }
        },
        {
            "id": 59578,
            "type": "Feature",
            "geometry": {
                "type": "Point",
                "coordinates": [
                    17.01305,
                    51.11853
                ]
            },
            "properties": {
                "isced:level": "3",
                "ref:rspo": 59578,
                "official_name": "Liceum Og\u00f3lnokszta\u0142c\u0105ce dla Doros\u0142ych \"Maja\"",
                "name": "Liceum Og\u00f3lnokszta\u0142c\u0105ce dla Doros\u0142ych \"Maja\"",
                "addr:country": "PL",
                "addr:postcode": "53-645",
                "addr:city": "Wroc\u0142aw",
                "addr:street": "ul. M\u0142odych Technik\u00f3w",
                "addr:housenumber": "58",
                "addr:teryt:simc": 13090,
                "addr:teryt:sym_ul": 986946,
                "contact:phone": "+48 713070205",
                "contact:email": "szkola@lomaja.pl",
                "contact:website": "http:\/\/www.lomaja.pl",
                "ref:regon": "022002766",
                "operator": "Janusz Matli\u0144ski",
                "operator:type": "private",
                "amenity": "school"
            }
        },
        {
            "id": 267025,
            "type": "Feature",
            "geometry": {
                "type": "Point",
                "coordinates": [
                    17.01305,
                    51.1185
                ]
            },
            "properties": {
                "isced:level": "3",
                "ref:rspo": 267025,
                "official_name": "Technikum \u017beglugi \u015ar\u00f3dl\u0105dowej we Wroc\u0142awiu",
                "name": "Technikum \u017beglugi \u015ar\u00f3dl\u0105dowej we Wroc\u0142awiu",
                "addr:country": "PL",
                "addr:postcode": "53-645",
                "addr:city": "Wroc\u0142aw",
                "addr:street": "ul. M\u0142odych Technik\u00f3w",
                "addr:housenumber": "58",
                "addr:teryt:simc": 13090,
                "addr:teryt:sym_ul": 986946,
                "contact:phone": "+48 717255355",
                "contact:email": "sekretariat@tzs.edu.pl",
                "contact:website": "http:\/\/tzs.edu.pl",
                "ref:regon": "369805479",
                "ref:vatin": "PL8971853672",
                "operator": "Ministerstwo Infrastruktury",
                "operator:type": "public",
                "amenity": "school"
            }
        },
        {
            "id": 268737,
            "type": "Feature",
            "geometry": {
                "type": "Point",
                "coordinates": [
                    17.01305,
                    51.118469999999995
                ]
            },
            "properties": {
                "isced:level": "4",
                "ref:rspo": 268737,
                "official_name": "Szko\u0142a Policealna dla Doros\u0142ych \"Nowoczesne Techniki Grzewcze\" we Wroc\u0142awiu",
                "name": "Szko\u0142a Policealna dla Doros\u0142ych \"Nowoczesne Techniki Grzewcze\" we Wroc\u0142awiu",
                "addr:country": "PL",
                "addr:postcode": "53-645",
                "addr:city": "Wroc\u0142aw",
                "addr:street": "ul. M\u0142odych Technik\u00f3w",
                "addr:housenumber": "58",
                "addr:teryt:simc": 13090,
                "addr:teryt:sym_ul": 986946,
                "contact:phone": "+48 607869767",
                "contact:email": "teocezwroc@gmail.com",
                "ref:regon": "381243931",
                "operator": "Waldemar A\u0142da\u015b",
                "operator:type": "private",
                "amenity": "college"
            }
        },
        {
            "id": 89189,
            "type": "Feature",
            "geometry": {
                "type": "Point",
                "coordinates": [
                    17.01305,
                    51.11844
                ]
            },
            "properties": {
                "isced:level": "3",
                "ref:rspo": 89189,
                "official_name": "Technikum Nr 3",
                "name": "Technikum Nr 3",
                "addr:country": "PL",
                "addr:postcode": "53-645",
                "addr:city": "Wroc\u0142aw",
                "addr:street": "ul. M\u0142odych Technik\u00f3w",
                "addr:housenumber": "58",
                "addr:teryt:simc": 13090,
                "addr:teryt:sym_ul": 986946,
                "contact:phone": "+48 717986893",
                "contact:email": "szkola@zs18.wroc.pl",
                "contact:website": "http:\/\/www.zs18.wroc.pl",
                "ref:regon": "020584356",
                "ref:vatin": "PL8971674998",
                "operator": "Gmina Wroc\u0142aw",
                "operator:type": "government",
                "amenity": "school",
                "note": "Parent RSPO: 31524"
            }
        },
        {
            "id": 89190,
            "type": "Feature",
            "geometry": {
                "type": "Point",
                "coordinates": [
                    17.01305,
                    51.11841
                ]
            },
            "properties": {
                "isced:level": "3",
                "ref:rspo": 89190,
                "official_name": "Bran\u017cowa Szko\u0142a I Stopnia Nr 3",
                "name": "Bran\u017cowa Szko\u0142a I Stopnia Nr 3",
                "addr:country": "PL",
                "addr:postcode": "53-645",
                "addr:city": "Wroc\u0142aw",
                "addr:street": "ul. M\u0142odych Technik\u00f3w",
                "addr:housenumber": "58",
                "addr:teryt:simc": 13090,
                "addr:teryt:sym_ul": 986946,
                "contact:phone": "+48 717986893",
                "contact:email": "szkola@zs18.wroc.pl",
                "contact:website": "http:\/\/www.zs18.wroc.pl",
                "ref:regon": "932820960",
                "ref:vatin": "PL8971674998",
                "operator": "Gmina Wroc\u0142aw",
                "operator:type": "government",
                "amenity": "school",
                "note": "Parent RSPO: 31524"
            }
        },
        {
            "id": 274843,
            "type": "Feature",
            "geometry": {
                "type": "Point",
                "coordinates": [
                    17.01305,
                    51.118379999999995
                ]
            },
            "properties": {
                "isced:level": "3",
                "ref:rspo": 274843,
                "official_name": "Bran\u017cowa Szko\u0142a II Stopnia Nr 3",
                "name": "Bran\u017cowa Szko\u0142a II Stopnia Nr 3",
                "addr:country": "PL",
                "addr:postcode": "53-645",
                "addr:city": "Wroc\u0142aw",
                "addr:street": "ul. M\u0142odych Technik\u00f3w",
                "addr:housenumber": "58",
                "addr:teryt:simc": 13090,
                "addr:teryt:sym_ul": 986946,
                "contact:phone": "+48 717986893",
                "contact:email": "szkola@zs18.wroc.pl",
                "contact:website": "http:\/\/www.zs18wroc.pl",
                "ref:regon": "386337298",
                "operator": "Gmina Wroc\u0142aw",
                "operator:type": "government",
                "amenity": "school",
                "note": "Parent RSPO: 31524"
            }
        },
        {
            "id": 14557,
            "type": "Feature",
            "geometry": {
                "type": "Point",
                "coordinates": [
                    17.00928,
                    51.11874
                ]
            },
            "properties": {
                "isced:level": "1;2",
                "ref:rspo": 14557,
                "official_name": "Sportowa Szko\u0142a Podstawowa Nr 46 im. Polskich Olimpijczyk\u00f3w",
                "name": "Sportowa Szko\u0142a Podstawowa Nr 46",
                "addr:country": "PL",
                "addr:postcode": "53-628",
                "addr:city": "Wroc\u0142aw",
                "addr:street": "ul. \u015acinawska",
                "addr:housenumber": "21",
                "addr:teryt:simc": 22302,
                "addr:teryt:sym_ul": 986946,
                "contact:phone": "+48 717986852",
                "contact:email": "ssp46@o2.pl",
                "contact:website": "http:\/\/www.ssp46.jimdo.com",
                "ref:regon": "000693173",
                "ref:vatin": "PL8971389074",
                "operator": "Gmina Wroc\u0142aw",
                "operator:type": "government",
                "amenity": "school"
            }
        },
        {
            "id": 23538,
            "type": "Feature",
            "geometry": {
                "type": "Point",
                "coordinates": [
                    17.00252,
                    51.11921
                ]
            },
            "properties": {
                "ref:rspo": 23538,
                "official_name": "Przedszkole Niepubliczne \"Ma\u0142y Tw\u00f3rca\"",
                "name": "Przedszkole Niepubliczne \"Ma\u0142y Tw\u00f3rca\"",
                "addr:country": "PL",
                "addr:postcode": "53-617",
                "addr:city": "Wroc\u0142aw",
                "addr:street": "ul. Chojnowska",
                "addr:housenumber": "4",
                "addr:teryt:simc": 2828,
                "addr:teryt:sym_ul": 986946,
                "contact:phone": "+48 713551683",
                "contact:email": "biuro@malytworca.pl",
                "contact:website": "http:\/\/www.malytworca.pl",
                "ref:regon": "021983621",
                "operator": "Ma\u0142y Tw\u00f3rca Sp\u00f3\u0142ka Z Ograniczon\u0105 Odpowiedzialno\u015bci\u0105",
                "operator:type": "private",
                "amenity": "kindergarten"
            }
        },
        {
            "id": 16183,
            "type": "Feature",
            "geometry": {
                "type": "Point",
                "coordinates": [
                    17.0019199,
                    51.12007
                ]
            },
            "properties": {
                "isced:level": "3",
                "ref:rspo": 16183,
                "official_name": "Liceum Og\u00f3lnokszta\u0142c\u0105ce Mistrzostwa Sportowego Junior we Wroc\u0142awiu",
                "name": "Liceum Og\u00f3lnokszta\u0142c\u0105ce Mistrzostwa Sportowego Junior we Wroc\u0142awiu",
                "addr:country": "PL",
                "addr:postcode": "53-615",
                "addr:city": "Wroc\u0142aw",
                "addr:street": "ul. S\u0142ubicka",
                "addr:housenumber": "29\/33",
                "addr:teryt:simc": 20308,
                "addr:teryt:sym_ul": 986946,
                "contact:phone": "+48 717993998",
                "contact:email": "sekretariat@smsw.pl",
                "contact:website": "http:\/\/www.smsw.pl",
                "ref:regon": "021972824",
                "operator": "Junior Sp\u00f3\u0142ka Z Ograniczon\u0105 Odpowiedzialno\u015bci\u0105",
                "operator:type": "private",
                "amenity": "school"
            }
        },
        {
            "id": 31522,
            "type": "Feature",
            "geometry": {
                "type": "Point",
                "coordinates": [
                    17.0019199,
                    51.120039999999996
                ]
            },
            "properties": {
                "ref:rspo": 31522,
                "official_name": "Zesp\u00f3\u0142 Szk\u00f3\u0142 Nr 1",
                "name": "Zesp\u00f3\u0142 Szk\u00f3\u0142 Nr 1",
                "addr:country": "PL",
                "addr:postcode": "53-615",
                "addr:city": "Wroc\u0142aw",
                "addr:street": "ul. S\u0142ubicka",
                "addr:housenumber": "29-33",
                "addr:teryt:simc": 20308,
                "addr:teryt:sym_ul": 986946,
                "contact:phone": "+48 713550874",
                "contact:email": "info@zs1.wroc.pl",
                "contact:website": "http:\/\/www.zs1.wroc.pl",
                "ref:regon": "932821793",
                "ref:vatin": "PL8971675934",
                "operator": "Gmina Wroc\u0142aw",
                "operator:type": "government",
                "landuse": "education",
                "fixme": "amenity=school, amenity=college albo landuse=education w zale\u017cno\u015bci od tego, jakie plac\u00f3wki wchodz\u0105 w sk\u0142ad zespo\u0142u. Sprawd\u017a, kiedy stosowa\u0107 amenity=* a kiedy landuse=education.",
                "note": "Children RSPO: 89179;89180;89182;274848"
            }
        },
        {
            "id": 262800,
            "type": "Feature",
            "geometry": {
                "type": "Point",
                "coordinates": [
                    17.0019199,
                    51.12001
                ]
            },
            "properties": {
                "isced:level": "1;2",
                "ref:rspo": 262800,
                "official_name": "Szko\u0142a Podstawowa Mistrzostwa Sportowego Junior we Wroc\u0142awiu",
                "name": "Szko\u0142a Podstawowa Mistrzostwa Sportowego Junior we Wroc\u0142awiu",
                "addr:country": "PL",
                "addr:postcode": "53-615",
                "addr:city": "Wroc\u0142aw",
                "addr:street": "ul. S\u0142ubicka",
                "addr:housenumber": "29-33",
                "addr:teryt:simc": 20308,
                "addr:teryt:sym_ul": 986946,
                "contact:phone": "+48 717993998",
                "contact:email": "sekretariat@smsw.pl",
                "contact:website": "http:\/\/www.smsw.pl",
                "ref:regon": "368062450",
                "operator": "Junior Sp\u00f3\u0142ka Z Ograniczon\u0105 Odpowiedzialno\u015bci\u0105",
                "operator:type": "private",
                "amenity": "school"
            }
        },
        {
            "id": 89179,
            "type": "Feature",
            "geometry": {
                "type": "Point",
                "coordinates": [
                    17.0019199,
                    51.11998
                ]
            },
            "properties": {
                "isced:level": "3",
                "ref:rspo": 89179,
                "official_name": "Technikum Nr 1 im. Mustafy Kemala Atat\u00fcrka",
                "name": "Technikum Nr 1",
                "addr:country": "PL",
                "addr:postcode": "53-615",
                "addr:city": "Wroc\u0142aw",
                "addr:street": "ul. S\u0142ubicka",
                "addr:housenumber": "29-33",
                "addr:teryt:simc": 20308,
                "addr:teryt:sym_ul": 986946,
                "contact:phone": "+48 713550874",
                "contact:email": "info@zs1.wroc.pl",
                "contact:website": "http:\/\/zs1.wroc.pl",
                "ref:regon": "020464942",
                "ref:vatin": "PL8971675934",
                "operator": "Gmina Wroc\u0142aw",
                "operator:type": "government",
                "amenity": "school",
                "note": "Parent RSPO: 31522"
            }
        },
        {
            "id": 89180,
            "type": "Feature",
            "geometry": {
                "type": "Point",
                "coordinates": [
                    17.0019199,
                    51.119949999999996
                ]
            },
            "properties": {
                "isced:level": "4",
                "ref:rspo": 89180,
                "official_name": "Szko\u0142a Policealna Nr 16",
                "name": "Szko\u0142a Policealna Nr 16",
                "addr:country": "PL",
                "addr:postcode": "53-615",
                "addr:city": "Wroc\u0142aw",
                "addr:street": "ul. S\u0142ubicka",
                "addr:housenumber": "29-33",
                "addr:teryt:simc": 20308,
                "addr:teryt:sym_ul": 986946,
                "contact:phone": "+48 713550874",
                "contact:email": "info@zs1.wroc.pl",
                "contact:website": "http:\/\/www.zs1.wroc.pl",
                "ref:regon": "020060133",
                "ref:vatin": "PL8971675934",
                "operator": "Gmina Wroc\u0142aw",
                "operator:type": "government",
                "amenity": "college",
                "note": "Parent RSPO: 31522"
            }
        },
        {
            "id": 89182,
            "type": "Feature",
            "geometry": {
                "type": "Point",
                "coordinates": [
                    17.0019199,
                    51.11992
                ]
            },
            "properties": {
                "isced:level": "3",
                "ref:rspo": 89182,
                "official_name": "Bran\u017cowa Szko\u0142a I Stopnia Nr 10",
                "name": "Bran\u017cowa Szko\u0142a I Stopnia Nr 10",
                "addr:country": "PL",
                "addr:postcode": "53-615",
                "addr:city": "Wroc\u0142aw",
                "addr:street": "ul. S\u0142ubicka",
                "addr:housenumber": "29-33",
                "addr:teryt:simc": 20308,
                "addr:teryt:sym_ul": 986946,
                "contact:phone": "+48 713550874",
                "contact:email": "info@zs1.wroc.pl",
                "contact:website": "http:\/\/www.zs1.wroc.pl",
                "ref:regon": "020361366",
                "ref:vatin": "PL8971675934",
                "operator": "Gmina Wroc\u0142aw",
                "operator:type": "government",
                "amenity": "school",
                "note": "Parent RSPO: 31522"
            }
        },
        {
            "id": 274848,
            "type": "Feature",
            "geometry": {
                "type": "Point",
                "coordinates": [
                    17.0019199,
                    51.11989
                ]
            },
            "properties": {
                "isced:level": "3",
                "ref:rspo": 274848,
                "official_name": "Bran\u017cowa Szko\u0142a II Stopnia Nr 10",
                "name": "Bran\u017cowa Szko\u0142a II Stopnia Nr 10",
                "addr:country": "PL",
                "addr:postcode": "53-615",
                "addr:city": "Wroc\u0142aw",
                "addr:street": "ul. S\u0142ubicka",
                "addr:housenumber": "29-33",
                "addr:teryt:simc": 20308,
                "addr:teryt:sym_ul": 986946,
                "contact:phone": "+48 713550874",
                "contact:email": "info@zs1.wroc.pl",
                "contact:website": "http:\/\/www.zs1.wroc.pl",
                "ref:regon": "386337447",
                "operator": "Gmina Wroc\u0142aw",
                "operator:type": "government",
                "amenity": "school",
                "note": "Parent RSPO: 31522"
            }
        }
    ]
}