{"type":"FeatureCollection","features":[{"id":42871,"type":"Feature","geometry":{"type":"Point","coordinates":[17.06113,51.05154]},"properties":{"ref:rspo":42871,"official_name":"Punkt Przedszkolny \"Chuchaczek\"","name":"Punkt Przedszkolny \"Chuchaczek\"","addr:country":"PL","addr:postcode":"52-129","addr:city":"Wroc\u0142aw","addr:street":"ul. Antonia Vivaldiego","addr:housenumber":"34","addr:door":"1","addr:teryt:simc":36752,"addr:teryt:sym_ul":986544,"contact:phone":"+48 608708944","contact:email":"chuchaczek@grupawalor.pl","contact:website":"http:\/\/www.chuchaczek.pl","ref:regon":"021994978","operator":"Pawe\u0142 S\u0142awuski","operator:type":"private","amenity":"kindergarten"}},{"id":125129,"type":"Feature","geometry":{"type":"Point","coordinates":[17.02157,51.05196]},"properties":{"ref:rspo":125129,"official_name":"Niepubliczny Punkt Przedszkolny \"Zaczarowana Kraina II\"","name":"Niepubliczny Punkt Przedszkolny \"Zaczarowana Kraina II\"","addr:country":"PL","addr:postcode":"52-213","addr:city":"Wroc\u0142aw","addr:street":"ul. Traktorowa","addr:housenumber":"16","addr:teryt:simc":22937,"addr:teryt:sym_ul":986544,"contact:phone":"+48 504279445","contact:email":"zaczarowana-kraina@wp.pl","contact:website":"http:\/\/www.zaczarowana-kraina.pl","ref:regon":"022501512","operator":"Agata Liberska-Stec","operator:type":"private","amenity":"kindergarten"}},{"id":13231,"type":"Feature","geometry":{"type":"Point","coordinates":[17.02484,51.05236]},"properties":{"ref:rspo":13231,"official_name":"Punkt Przedszkolny Promitis","name":"Punkt Przedszkolny Promitis","addr:country":"PL","addr:postcode":"52-213","addr:city":"Wroc\u0142aw","addr:street":"ul. Kryniczna","addr:housenumber":"37","addr:teryt:simc":10066,"addr:teryt:sym_ul":986544,"contact:phone":"+48 533542571","contact:email":"wroclaw@autyzm-przedszkole.pl","contact:website":"http:\/\/www.autyzm-przedszkole.pl","ref:regon":"021970860","operator":"Piotr Langiewicz","operator:type":"private","amenity":"kindergarten"}},{"id":14764,"type":"Feature","geometry":{"type":"Point","coordinates":[17.0192799,51.0527]},"properties":{"ref:rspo":14764,"official_name":"Punkt Przedszkolny Zaczarowana Kraina","name":"Punkt Przedszkolny Zaczarowana Kraina","addr:country":"PL","addr:postcode":"52-213","addr:city":"Wroc\u0142aw","addr:street":"ul. gen. Tadeusza Kutrzeby","addr:housenumber":"51","addr:teryt:simc":10507,"addr:teryt:sym_ul":986544,"contact:phone":"+48 504279445","contact:email":"zaczarowana-kraina@wp.pl","contact:website":"http:\/\/www.zaczarowana-kraina.pl","ref:regon":"021970908","operator":"Agata Liberska-Stec","operator:type":"private","amenity":"kindergarten"}},{"id":267712,"type":"Feature","geometry":{"type":"Point","coordinates":[17.02869,51.05272]},"properties":{"ref:rspo":267712,"official_name":"Przedszkole Niepubliczne \"Totutaj\"","name":"Przedszkole Niepubliczne \"Totutaj\"","addr:country":"PL","addr:postcode":"52-214","addr:city":"Wroc\u0142aw","addr:street":"ul. Jarzynowa","addr:housenumber":"27","addr:teryt:simc":7296,"addr:teryt:sym_ul":986544,"contact:phone":"+48 606963011","contact:email":"pati.kuczynska@gmail.com","contact:website":"http:\/\/www.totutaj.net","ref:regon":"380552699","operator":"Patrycja Kuczy\u0144ska","operator:type":"private","amenity":"kindergarten"}},{"id":269696,"type":"Feature","geometry":{"type":"Point","coordinates":[17.0172199,51.05323]},"properties":{"ref:rspo":269696,"official_name":"Punkt Przedszkolny Montemondo","name":"Punkt Przedszkolny Montemondo","addr:country":"PL","addr:postcode":"52-213","addr:city":"Wroc\u0142aw","addr:street":"ul. U\u0142a\u0144ska","addr:housenumber":"31A","addr:teryt:simc":23345,"addr:teryt:sym_ul":986544,"contact:phone":"+48 519352270","contact:email":"przedszkole@montemondo.pl","contact:website":"http:\/\/montemondo.pl","ref:regon":"381680778","operator":"Ewa Jankowska","operator:type":"private","amenity":"kindergarten"}},{"id":272283,"type":"Feature","geometry":{"type":"Point","coordinates":[17.0403255,51.0537885]},"properties":{"ref:rspo":272283,"official_name":"Przedszkole Niepubliczne \"Wojszycka Akademia Talent\u00f3w II\"","name":"Przedszkole Niepubliczne \"Wojszycka Akademia Talent\u00f3w II\"","addr:country":"PL","addr:postcode":"52-234","addr:city":"Wroc\u0142aw","addr:street":"ul. Smardzowska","addr:housenumber":"48","addr:teryt:simc":29468,"addr:teryt:sym_ul":986544,"contact:phone":"+48 788281557","contact:email":"biuro@wat-przedszkole.pl","contact:website":"http:\/\/www.wat-klub.pl","ref:regon":"384094532","operator":"Barbara Dereniowska","operator:type":"private","amenity":"kindergarten"}},{"id":14847,"type":"Feature","geometry":{"type":"Point","coordinates":[17.02697,51.05574]},"properties":{"ref:rspo":14847,"official_name":"Zesp\u00f3\u0142 Szkolno-Przedszkolny Nr 6","name":"Zesp\u00f3\u0142 Szkolno-Przedszkolny Nr 6","addr:country":"PL","addr:postcode":"52-214","addr:city":"Wroc\u0142aw","addr:street":"ul. Konstantego Ildefonsa Ga\u0142czy\u0144skiego","addr:housenumber":"8","addr:teryt:simc":5300,"addr:teryt:sym_ul":986544,"contact:phone":"+48 717986929","contact:email":"sekretariat.zsp06@wroclawskaedukacja.pl","contact:website":"http:\/\/sp34.edupage.org","ref:regon":"932823674","ref:vatin":"PL8992458610","operator":"Gmina Wroc\u0142aw","operator:type":"government","landuse":"education","fixme":"amenity=school, amenity=college albo landuse=education w zale\u017cno\u015bci od tego, jakie plac\u00f3wki wchodz\u0105 w sk\u0142ad zespo\u0142u. Sprawd\u017a, kiedy stosowa\u0107 amenity=* a kiedy landuse=education.","note":"Children RSPO: 20964;22636"}},{"id":20964,"type":"Feature","geometry":{"type":"Point","coordinates":[17.02697,51.05571]},"properties":{"isced:level":"1;2","ref:rspo":20964,"official_name":"Szko\u0142a Podstawowa Nr 34","name":"Szko\u0142a Podstawowa Nr 34","addr:country":"PL","addr:postcode":"52-214","addr:city":"Wroc\u0142aw","addr:street":"ul. Konstantego Ildefonsa Ga\u0142czy\u0144skiego","addr:housenumber":"8","addr:teryt:simc":5300,"addr:teryt:sym_ul":986544,"contact:phone":"+48 717986929","contact:email":"sekretariat.zsp06@wroclawskaedukacja.pl","contact:website":"http:\/\/www.sp34.edupage.org","ref:regon":"000693032","operator":"Gmina Wroc\u0142aw","operator:type":"government","amenity":"school","note":"Parent RSPO: 14847"}},{"id":22636,"type":"Feature","geometry":{"type":"Point","coordinates":[17.02697,51.05568]},"properties":{"ref:rspo":22636,"official_name":"Przedszkole Nr 29 Z Oddzia\u0142ami Integracyjnymi","name":"Przedszkole Nr 29 Z Oddzia\u0142ami Integracyjnymi","addr:country":"PL","addr:postcode":"52-214","addr:city":"Wroc\u0142aw","addr:street":"ul. Konstantego Ildefonsa Ga\u0142czy\u0144skiego","addr:housenumber":"8","addr:teryt:simc":5300,"addr:teryt:sym_ul":986544,"contact:phone":"+48 717986929","contact:email":"sekretariat.p029@wroclawskaedukacja.pl","contact:website":"http:\/\/www.p29.edupage.org","ref:regon":"930112957","operator":"Gmina Wroc\u0142aw","operator:type":"government","amenity":"kindergarten","note":"Parent RSPO: 14847"}},{"id":11500,"type":"Feature","geometry":{"type":"Point","coordinates":[17.01047,51.05713]},"properties":{"ref:rspo":11500,"official_name":"Wsp\u00f3lna Planeta Ii","name":"Wsp\u00f3lna Planeta Ii","addr:country":"PL","addr:postcode":"53-033","addr:city":"Wroc\u0142aw","addr:street":"ul. Zwyci\u0119ska","addr:housenumber":"36","addr:door":"1","addr:teryt:simc":26321,"addr:teryt:sym_ul":986544,"contact:phone":"+48 501189958","contact:email":"biuro@wspolnyswiat.com.pl","contact:website":"http:\/\/www.wspolnyswiat.com.pl","ref:regon":"021959090","operator":"Marek Dr\u00f3\u017ad\u017a","operator:type":"private","amenity":"kindergarten"}},{"id":262871,"type":"Feature","geometry":{"type":"Point","coordinates":[17.01073,51.0581699]},"properties":{"ref:rspo":262871,"official_name":"Young Leaders Early Education Academy","name":"Young Leaders Early Education Academy","addr:country":"PL","addr:postcode":"53-033","addr:city":"Wroc\u0142aw","addr:street":"ul. Zwyci\u0119ska","addr:housenumber":"12G","addr:door":"1","addr:teryt:simc":26321,"addr:teryt:sym_ul":986544,"contact:phone":"+48 794200486","contact:email":"monika@youngleaders.pl","contact:website":"http:\/\/www.youngleaders.pl","ref:regon":"368065046","operator":"Young Leaders Sp\u00f3\u0142ka Z Ograniczon\u0105 Odpowiedzialno\u015bci\u0105","operator:type":"private","amenity":"kindergarten"}},{"id":31485,"type":"Feature","geometry":{"type":"Point","coordinates":[17.0786,51.05866]},"properties":{"ref:rspo":31485,"official_name":"Przedszkole Nr 51","name":"Przedszkole Nr 51","addr:country":"PL","addr:postcode":"52-115","addr:city":"Wroc\u0142aw","addr:street":"ul. Semaforowa","addr:housenumber":"42","addr:teryt:simc":19661,"addr:teryt:sym_ul":986544,"contact:phone":"+48 717986795","contact:email":"sekretariat.p051@wroclawskaedukacja.pl","contact:website":"http:\/\/www.przedszkole51.szkolnastrona.pl","ref:regon":"930112970","ref:vatin":"PL8992318903","operator":"Gmina Wroc\u0142aw","operator:type":"government","amenity":"kindergarten"}},{"id":133966,"type":"Feature","geometry":{"type":"Point","coordinates":[17.00517,51.05931]},"properties":{"ref:rspo":133966,"official_name":"Przedszkole Nr 23","name":"Przedszkole Nr 23","addr:country":"PL","addr:postcode":"53-033","addr:city":"Wroc\u0142aw","addr:street":"ul. Zwyci\u0119ska","addr:housenumber":"8 A","addr:teryt:simc":26321,"addr:teryt:sym_ul":986544,"contact:phone":"+48 717986712","contact:email":"sekretariat.p023@wroclawskaedukacja.pl","contact:website":"http:\/\/www.przedszkole23.edu.wroclaw.pl","ref:regon":"367772592","operator":"Gmina Wroc\u0142aw","operator:type":"government","amenity":"kindergarten"}},{"id":14929,"type":"Feature","geometry":{"type":"Point","coordinates":[17.08151,51.05954]},"properties":{"isced:level":"1;2","ref:rspo":14929,"official_name":"Szko\u0142a Podstawowa Nr 80 im. Tysi\u0105clecia Wroc\u0142awia","name":"Szko\u0142a Podstawowa Nr 80","addr:country":"PL","addr:postcode":"52-120","addr:city":"Wroc\u0142aw","addr:street":"ul. Polna","addr:housenumber":"4","addr:teryt:simc":17011,"addr:teryt:sym_ul":986544,"contact:phone":"+48 717986867","contact:email":"sekretariat@sp80.wroc.pl","contact:website":"http:\/\/www.sp80.wroc.pl","ref:regon":"000692937","ref:vatin":"PL8992084598","operator":"Gmina Wroc\u0142aw","operator:type":"government","amenity":"school"}},{"id":125757,"type":"Feature","geometry":{"type":"Point","coordinates":[16.96953,51.05988]},"properties":{"ref:rspo":125757,"official_name":"Wsp\u00f3lny \u015awiat","name":"Wsp\u00f3lny \u015awiat","addr:country":"PL","addr:postcode":"52-339","addr:city":"Wroc\u0142aw","addr:street":"ul. Po\u0142abian","addr:housenumber":"19","addr:teryt:simc":17052,"addr:teryt:sym_ul":986544,"contact:phone":"+48 501189958","contact:email":"biuro@wspolnyswiat.com.pl","contact:website":"http:\/\/www.wspolnyswiat.com.pl","ref:regon":"022522359","operator":"Marek Dr\u00f3\u017ad\u017a","operator:type":"private","amenity":"kindergarten"}},{"id":18618,"type":"Feature","geometry":{"type":"Point","coordinates":[17.02267,51.06014]},"properties":{"ref:rspo":18618,"official_name":"Punkt Przedszkolny \"Akademia Pippi\"","name":"Punkt Przedszkolny \"Akademia Pippi\"","addr:country":"PL","addr:postcode":"52-210","addr:city":"Wroc\u0142aw","addr:street":"ul. \u0141ubinowa","addr:housenumber":"10","addr:teryt:simc":11719,"addr:teryt:sym_ul":986544,"contact:phone":"+48 882138288","contact:email":"pippi.akademia@gmail.com","contact:website":"http:\/\/akademiapippi.com","ref:regon":"021975952","operator":"Renata Zagrabska","operator:type":"private","amenity":"kindergarten"}},{"id":124885,"type":"Feature","geometry":{"type":"Point","coordinates":[17.00598,51.06044]},"properties":{"ref:rspo":124885,"official_name":"Punkt Przedszkolny Tomcio Paluch","name":"Punkt Przedszkolny Tomcio Paluch","addr:country":"PL","addr:postcode":"53-004","addr:city":"Wroc\u0142aw","addr:street":"ul. Kawalerzyst\u00f3w","addr:housenumber":"9","addr:door":"3","addr:teryt:simc":8223,"addr:teryt:sym_ul":986544,"contact:phone":"+48 727920920","contact:email":"kontakt@tomciopaluch.eu","contact:website":"http:\/\/www.tomciopaluch.eu","ref:regon":"022494344","operator":"Eduarkadia Sp\u00f3\u0142ka Z Ograniczon\u0105 Odpowiedzialno\u015bci\u0105","operator:type":"private","amenity":"kindergarten"}},{"id":124780,"type":"Feature","geometry":{"type":"Point","coordinates":[17.07855,51.06171]},"properties":{"ref:rspo":124780,"official_name":"Silezjan","name":"Silezjan","addr:country":"PL","addr:postcode":"52-114","addr:city":"Wroc\u0142aw","addr:street":"ul. Centralna","addr:housenumber":"24","addr:teryt:simc":2614,"addr:teryt:sym_ul":986544,"contact:phone":"+48 717223961","contact:email":"biuro@silezjan.pl","contact:website":"http:\/\/www.silezjan.pl","ref:regon":"022493617","operator":"Silezjan Security - Biuro Ochrony Mienia Sp\u00f3\u0142ka Z Ograniczon\u0105 Odpowiedzialno\u015bci\u0105","operator:type":"private","fixme":"w zale\u017cno\u015bci od przedmiotu dzia\u0142alno\u015bci (np. amenity=training + training=*, amenity=dancing_school, amenity=language_school, amenity=music_school)"}},{"id":119945,"type":"Feature","geometry":{"type":"Point","coordinates":[17.0203,51.06256]},"properties":{"ref:rspo":119945,"official_name":"Przedszkole Kropeczka - Niepubliczny Punkt Przedszkolny Przy Centrum Edukacji I Zabawy Edukarnia","name":"Przedszkole Kropeczka - Niepubliczny Punkt Przedszkolny Przy Centrum Edukacji I Zabawy Edukarnia","addr:country":"PL","addr:postcode":"52-210","addr:city":"Wroc\u0142aw","addr:street":"ul. Sojowa","addr:housenumber":"3","addr:teryt:simc":20474,"addr:teryt:sym_ul":986544,"contact:phone":"+48 717277117","contact:email":"kropeczka.przedszkole@gmail.com","contact:website":"http:\/\/www.kropeczka.edu.pl","ref:regon":"022250895","operator":"Teresa Przywo\u017any","operator:type":"private","amenity":"kindergarten"}},{"id":131524,"type":"Feature","geometry":{"type":"Point","coordinates":[17.01501,51.0635199]},"properties":{"ref:rspo":131524,"official_name":"Niepubliczny Punkt Przedszkolny \"\u0141atwo Powiedzie\u0107\"","name":"Niepubliczny Punkt Przedszkolny \"\u0141atwo Powiedzie\u0107\"","addr:country":"PL","addr:postcode":"53-007","addr:city":"Wroc\u0142aw","addr:street":"ul. Truskawkowa","addr:housenumber":"56","addr:teryt:simc":23033,"addr:teryt:sym_ul":986544,"contact:phone":"+48 661731867","contact:email":"fundacja@latwopowiedziec.pl","contact:website":"http:\/\/www.latwopowiedziec.pl","ref:regon":"365226840","operator":"Wroc\u0142awska Fundacja Dla Dzieci Ze Specjalnymi Potrzebami Rozwojowymi \"\u0141atwo Powiedzie\u0107\"","operator:type":"ngo","amenity":"kindergarten"}},{"id":273621,"type":"Feature","geometry":{"type":"Point","coordinates":[17.01376,51.06352]},"properties":{"ref:rspo":273621,"official_name":"Young Leaders","name":"Young Leaders","addr:country":"PL","addr:postcode":"53-007","addr:city":"Wroc\u0142aw","addr:street":"ul. Poziomkowa","addr:housenumber":"42","addr:teryt:simc":17390,"addr:teryt:sym_ul":986544,"contact:phone":"+48 794200486","contact:email":"academy@youngleaders.pl","contact:website":"http:\/\/www.youngleaders.pl","ref:regon":"384540339","operator":"Young Leaders Sp\u00f3\u0142ka Z Ograniczon\u0105 Odpowiedzialno\u015bci\u0105","operator:type":"private","amenity":"kindergarten"}},{"id":264595,"type":"Feature","geometry":{"type":"Point","coordinates":[17.06543,51.06375]},"properties":{"ref:rspo":264595,"official_name":"Punkt Przedszkolny \"Jagodowe\"","name":"Punkt Przedszkolny \"Jagodowe\"","addr:country":"PL","addr:postcode":"52-130","addr:city":"Wroc\u0142aw","addr:street":"ul. Tunelowa","addr:housenumber":"4","addr:teryt:simc":23143,"addr:teryt:sym_ul":986544,"contact:phone":"+48 788390391","contact:email":"biuro@jagodoweprzedszkole.pl","contact:website":"http:\/\/www.jagodoweprzedszkole.pl","ref:regon":"368395803","operator":"Marzena Sosnowska-Simura","operator:type":"private","amenity":"kindergarten"}},{"id":274388,"type":"Feature","geometry":{"type":"Point","coordinates":[16.985,51.06381]},"properties":{"ref:rspo":274388,"official_name":"Niepubliczny Punkt Przedszkolny \"Za Zielonymi Drzwiami\"","name":"Niepubliczny Punkt Przedszkolny \"Za Zielonymi Drzwiami\"","addr:country":"PL","addr:postcode":"52-315","addr:city":"Wroc\u0142aw","addr:street":"ul. Mi\u0119dzyg\u00f3rska","addr:housenumber":"5","addr:teryt:simc":36492,"addr:teryt:sym_ul":986544,"contact:phone":"+48 533552231","contact:email":"biuro@zazielonymidrzwiami.pl","contact:website":"http:\/\/zazielonymidrzwiami.pl","ref:regon":"385699237","operator":"Kaliatzi & Gra\u0142ek Sp\u00f3\u0142ka Z Ograniczon\u0105 Odpowiedzialno\u015bci\u0105","operator:type":"private","amenity":"kindergarten"}},{"id":24501,"type":"Feature","geometry":{"type":"Point","coordinates":[16.98075,51.06391]},"properties":{"ref:rspo":24501,"official_name":"Przedszkole Nr 56 Niezapominajka","name":"Przedszkole Nr 56 Niezapominajka","addr:country":"PL","addr:postcode":"52-314","addr:city":"Wroc\u0142aw","addr:street":"ul. Wa\u0142brzyska","addr:housenumber":"16","addr:teryt:simc":23582,"addr:teryt:sym_ul":986544,"contact:phone":"+48 717986799","contact:email":"sekretariat.p056@wroclawskaedukacja.pl","contact:website":"http:\/\/www.przedszkole56.edu.wroclaw.pl","ref:regon":"930112992","ref:vatin":"PL8992420754","operator":"Gmina Wroc\u0142aw","operator:type":"government","amenity":"kindergarten"}},{"id":114308,"type":"Feature","geometry":{"type":"Point","coordinates":[17.0387099,51.06416]},"properties":{"ref:rspo":114308,"official_name":"Centrum Hajdasz Jacek Hajdasz","name":"Centrum Hajdasz Jacek Hajdasz","addr:country":"PL","addr:postcode":"52-235","addr:city":"Wroc\u0142aw","addr:street":"ul. Pawia","addr:housenumber":"40c","addr:door":"4","addr:teryt:simc":15832,"addr:teryt:sym_ul":986544,"contact:phone":"+48 501214025","contact:email":"wroclaw@hajdasz.pl","contact:website":"http:\/\/www.hajdasz.pl","ref:regon":"022129426","operator":"Jacek Hajdasz","operator:type":"private","fixme":"w zale\u017cno\u015bci od przedmiotu dzia\u0142alno\u015bci (np. amenity=training + training=*, amenity=dancing_school, amenity=language_school, amenity=music_school)"}},{"id":119518,"type":"Feature","geometry":{"type":"Point","coordinates":[16.99401,51.0643]},"properties":{"ref:rspo":119518,"official_name":"American School Of Wroc\u0142aw","name":"American School Of Wroc\u0142aw","addr:country":"PL","addr:postcode":"53-031","addr:city":"Wroc\u0142aw","addr:street":"ul. Partynicka","addr:housenumber":"29-37","addr:teryt:simc":15727,"addr:teryt:sym_ul":986544,"contact:phone":"+48 713336992","contact:email":"biuro@asw.org.pl","contact:website":"http:\/\/www.asw.org.pl","ref:regon":"022240141","operator":"Minakshi Sharma","operator:type":"private","amenity":"kindergarten"}},{"id":124498,"type":"Feature","geometry":{"type":"Point","coordinates":[16.99401,51.06427]},"properties":{"isced:level":"1;2","ref:rspo":124498,"official_name":"Prywatna Szko\u0142a Podstawowa American School Of Wroc\u0142aw","name":"Prywatna Szko\u0142a Podstawowa American School Of Wroc\u0142aw","addr:country":"PL","addr:postcode":"53-031","addr:city":"Wroc\u0142aw","addr:street":"ul. Partynicka","addr:housenumber":"29-37","addr:teryt:simc":15727,"addr:teryt:sym_ul":986544,"contact:phone":"+48 713336992","contact:email":"office@asw.org.pl","contact:website":"http:\/\/www.asw.org.pl","ref:regon":"022487195","operator":"Minakshi Sharma","operator:type":"private","amenity":"school"}},{"id":56279,"type":"Feature","geometry":{"type":"Point","coordinates":[16.97308,51.06464]},"properties":{"isced:level":"1;2","ref:rspo":56279,"official_name":"Szko\u0142a Podstawowa Nr 42","name":"Szko\u0142a Podstawowa Nr 42","addr:country":"PL","addr:postcode":"52-314","addr:city":"Wroc\u0142aw","addr:street":"ul. Wa\u0142brzyska","addr:housenumber":"50","addr:teryt:simc":23582,"addr:teryt:sym_ul":986544,"contact:phone":"+48 717986882","contact:email":"sekretariat.sp042@wroclawskaedukacja.pl","contact:website":"http:\/\/sp42.wroclaw.pl\/","ref:regon":"930278505","ref:vatin":"PL8961003920","operator":"Gmina Wroc\u0142aw","operator:type":"government","amenity":"school"}},{"id":264831,"type":"Feature","geometry":{"type":"Point","coordinates":[16.98879,51.06564]},"properties":{"ref:rspo":264831,"official_name":"Niepubliczne Przedszkole Montessori Przyja\u017ani","name":"Niepubliczne Przedszkole Montessori Przyja\u017ani","addr:country":"PL","addr:postcode":"53-030","addr:city":"Wroc\u0142aw","addr:street":"ul. Przyja\u017ani","addr:housenumber":"66","addr:door":"7","addr:teryt:simc":17926,"addr:teryt:sym_ul":986544,"contact:phone":"+48 733499403","contact:email":"przedszkole.przyjazni@gmail.com","contact:website":"http:\/\/www.montessori.przyjazni.pl","ref:regon":"368492015","operator":"Monika Zychowicz","operator:type":"private","amenity":"kindergarten"}},{"id":129305,"type":"Feature","geometry":{"type":"Point","coordinates":[17.00276,51.0681]},"properties":{"ref:rspo":129305,"official_name":"Publiczne Przedszkole \"Guliwer\"","name":"Publiczne Przedszkole \"Guliwer\"","addr:country":"PL","addr:postcode":"53-030","addr:city":"Wroc\u0142aw","addr:street":"ul. Przyja\u017ani","addr:housenumber":"2a1","addr:door":"2","addr:teryt:simc":17926,"addr:teryt:sym_ul":986544,"contact:phone":"+48 533330964","contact:email":"guliwer.wroclaw@operator.edu.pl","contact:website":"http:\/\/guliwer-wroclaw.operator.edu.pl","ref:regon":"362560431","operator":"Og\u00f3lnopolski Operator O\u015bwiaty","operator:type":"ngo","amenity":"kindergarten"}},{"id":277327,"type":"Feature","geometry":{"type":"Point","coordinates":[16.98807,51.06816]},"properties":{"ref:rspo":277327,"official_name":"Punkt Przedszkolny \"Zatoka Przyg\u00f3d\"","name":"Punkt Przedszkolny \"Zatoka Przyg\u00f3d\"","addr:country":"PL","addr:postcode":"53-030","addr:city":"Wroc\u0142aw","addr:street":"ul. \u017byczliwa","addr:housenumber":"27","addr:teryt:simc":26615,"addr:teryt:sym_ul":986544,"contact:phone":"+48 505245505","contact:email":"przedszkole@zatokaprzygod.pl","contact:website":"http:\/\/www.zatokaprzygod.pl","ref:regon":"388644900","operator":"Agnieszka Suchowiejko","operator:type":"private","amenity":"kindergarten"}},{"id":124479,"type":"Feature","geometry":{"type":"Point","coordinates":[17.01181,51.06823]},"properties":{"ref:rspo":124479,"official_name":"Terapeutyczny Punkt Przedszkolny Subrideo","name":"Terapeutyczny Punkt Przedszkolny Subrideo","addr:country":"PL","addr:postcode":"53-010","addr:city":"Wroc\u0142aw","addr:street":"ul. O\u0142taszy\u0144ska","addr:housenumber":"10","addr:teryt:simc":15040,"addr:teryt:sym_ul":986544,"contact:phone":"+48 666991685","contact:email":"kontakt@subrideo.pl","contact:website":"http:\/\/www.subrideo.pl","ref:regon":"022486385","operator":"Daniel Sobczyk","operator:type":"private","amenity":"kindergarten"}},{"id":118692,"type":"Feature","geometry":{"type":"Point","coordinates":[17.03893,51.06842]},"properties":{"ref:rspo":118692,"official_name":"Przedszkole Niepubliczne \"Wojszycka Akademia Talent\u00f3w I\"","name":"Przedszkole Niepubliczne \"Wojszycka Akademia Talent\u00f3w I\"","addr:country":"PL","addr:postcode":"52-235","addr:city":"Wroc\u0142aw","addr:street":"ul. Pawia","addr:housenumber":"9","addr:teryt:simc":15832,"addr:teryt:sym_ul":986544,"contact:phone":"+48 713644238","contact:email":"biuro@wat-przedszkole.pl","contact:website":"http:\/\/www.wat-przedszkole.pl","ref:regon":"022207190","operator":"Barbara Dereniowska","operator:type":"private","amenity":"kindergarten"}},{"id":12405,"type":"Feature","geometry":{"type":"Point","coordinates":[17.03905,51.06872]},"properties":{"isced:level":"1;2","ref:rspo":12405,"official_name":"Szko\u0142a Podstawowa Nr 23 im. Gen. Stefana \"Grota\" Roweckiego","name":"Szko\u0142a Podstawowa Nr 23","addr:country":"PL","addr:postcode":"52-235","addr:city":"Wroc\u0142aw","addr:street":"ul. Przystankowa","addr:housenumber":"32","addr:teryt:simc":17990,"addr:teryt:sym_ul":986544,"contact:phone":"+48 717986846","contact:email":"post@sp23wroc.pl","contact:website":"http:\/\/www.sp23wroc.pl","ref:regon":"000693010","ref:vatin":"PL8992331683","operator":"Gmina Wroc\u0142aw","operator:type":"government","amenity":"school"}},{"id":126872,"type":"Feature","geometry":{"type":"Point","coordinates":[17.06276,51.06875]},"properties":{"ref:rspo":126872,"official_name":"Niepubliczna Plac\u00f3wka Doskonalenia Nauczycieli Centrum Kszta\u0142cenia Kadr Sportowych","name":"Niepubliczna Plac\u00f3wka Doskonalenia Nauczycieli Centrum Kszta\u0142cenia Kadr Sportowych","addr:country":"PL","addr:postcode":"52-131","addr:city":"Wroc\u0142aw","addr:street":"ul. Buforowa","addr:housenumber":"4E","addr:teryt:simc":2365,"addr:teryt:sym_ul":986544,"contact:phone":"+48 713071211","contact:email":"dyrektor@ckks.pl","contact:website":"http:\/\/www.ckks.pl","ref:regon":"360835770","operator":"Bart\u0142omiej Ciencia\u0142a","operator:type":"private","amenity":"training"}},{"id":269330,"type":"Feature","geometry":{"type":"Point","coordinates":[17.0615099,51.0688699]},"properties":{"ref:rspo":269330,"official_name":"Publiczne Przedszkole Elfiki","name":"Publiczne Przedszkole Elfiki","addr:country":"PL","addr:postcode":"52-131","addr:city":"Wroc\u0142aw","addr:street":"ul. Buforowa","addr:housenumber":"4c","addr:teryt:simc":2365,"addr:teryt:sym_ul":986544,"contact:phone":"+48 794747898","contact:email":"buforowa@przedszkoleelfiki.pl","contact:website":"http:\/\/przedszkoleelfiki.pl","ref:regon":"381454088","operator":"Przedszkola Elfiki Sp\u00f3\u0142ka Z Ograniczon\u0105 Odpowiedzialno\u015bci\u0105","operator:type":"private","amenity":"kindergarten"}},{"id":20521,"type":"Feature","geometry":{"type":"Point","coordinates":[17.01094,51.06895]},"properties":{"ref:rspo":20521,"official_name":"Kid's Corner Klub Dziecka I Rodzica Agata Szaw\u0142owska","name":"Kid's Corner Klub Dziecka I Rodzica Agata Szaw\u0142owska","addr:country":"PL","addr:postcode":"53-010","addr:city":"Wroc\u0142aw","addr:street":"ul. Ko\u0144ska","addr:housenumber":"6","addr:teryt:simc":9231,"addr:teryt:sym_ul":986544,"contact:phone":"+48 717271902","contact:email":"office@kidscorner.pl","contact:website":"http:\/\/www.kidscorner.pl","ref:regon":"021979460","operator":"Agata Szaw\u0142owska","operator:type":"private","amenity":"kindergarten"}},{"id":13314,"type":"Feature","geometry":{"type":"Point","coordinates":[17.01124,51.06996]},"properties":{"isced:level":"1;2","ref:rspo":13314,"official_name":"Szko\u0142a Podstawowa Nr 64 im. W\u0142adys\u0142awa Broniewskiego","name":"Szko\u0142a Podstawowa Nr 64","addr:country":"PL","addr:postcode":"53-006","addr:city":"Wroc\u0142aw","addr:street":"ul. Wojszycka","addr:housenumber":"1","addr:teryt:simc":24639,"addr:teryt:sym_ul":986544,"contact:phone":"+48 717986858","contact:email":"sekretariat.sp064@wroclawskaedukacja.pl","contact:website":"http:\/\/www.sp64.pl","ref:regon":"000692883","ref:vatin":"PL8961003305","operator":"Gmina Wroc\u0142aw","operator:type":"government","amenity":"school"}},{"id":18488,"type":"Feature","geometry":{"type":"Point","coordinates":[16.99848,51.07087]},"properties":{"ref:rspo":18488,"official_name":"Niepubliczne Przedszkole Lupikowo","name":"Niepubliczne Przedszkole Lupikowo","addr:country":"PL","addr:postcode":"53-020","addr:city":"Wroc\u0142aw","addr:street":"ul. Krzycka","addr:housenumber":"42","addr:teryt:simc":10138,"addr:teryt:sym_ul":986544,"contact:phone":"+48 784340404","contact:email":"kontakt@lupikowo.pl","contact:website":"http:\/\/www.lupikowo.pl","ref:regon":"021974958","operator":"Monika Welz","operator:type":"private","amenity":"kindergarten"}},{"id":23664,"type":"Feature","geometry":{"type":"Point","coordinates":[17.00564,51.0709]},"properties":{"ref:rspo":23664,"official_name":"Przedszkole Nr 28 Fantazja","name":"Przedszkole Nr 28 Fantazja","addr:country":"PL","addr:postcode":"53-143","addr:city":"Wroc\u0142aw","addr:street":"ul. Orla","addr:housenumber":"5-7","addr:teryt:simc":15141,"addr:teryt:sym_ul":986544,"contact:phone":"+48 717986781","contact:email":"sekretariat.p028@wroclawskaedukacja.pl","contact:website":"https:\/\/przedszkolefantazja.edupage.org","ref:regon":"930112940","ref:vatin":"PL8992318731","operator":"Gmina Wroc\u0142aw","operator:type":"government","amenity":"kindergarten"}},{"id":40223,"type":"Feature","geometry":{"type":"Point","coordinates":[17.00564,51.07087]},"properties":{"ref:rspo":40223,"official_name":"Przedszkole Nr 52 Pocztowe Go\u0142\u0105bki","name":"Przedszkole Nr 52 Pocztowe Go\u0142\u0105bki","addr:country":"PL","addr:postcode":"53-330","addr:city":"Wroc\u0142aw","addr:street":"ul. \u0141\u0105czno\u015bci","addr:housenumber":"5-7","addr:teryt:simc":11582,"addr:teryt:sym_ul":986544,"contact:phone":"+48 717986796","contact:email":"sekretariat.p052@wroclawskaedukacja.pl","contact:website":"https:\/\/przedszkole52.edu.wroclaw.pl\/","ref:regon":"930112986","ref:vatin":"PL8992316442","operator":"Gmina Wroc\u0142aw","operator:type":"government","amenity":"kindergarten"}},{"id":270587,"type":"Feature","geometry":{"type":"Point","coordinates":[17.07485,51.07153]},"properties":{"ref:rspo":270587,"official_name":"Zofia Rabsztyn Akademia Dobrej Jazdy","name":"Zofia Rabsztyn Akademia Dobrej Jazdy","addr:country":"PL","addr:postcode":"52-011","addr:city":"Wroc\u0142aw","addr:street":"ul. Wiaduktowa","addr:housenumber":"21","addr:teryt:simc":23961,"addr:teryt:sym_ul":986544,"contact:phone":"+48 502051600","contact:email":"leszekrabsztyn@poczta.fm","contact:website":"http:\/\/www.akademiaoperatora.pl","ref:regon":"382798950","operator":"Zofia Rabsztyn","operator:type":"private","fixme":"w zale\u017cno\u015bci od przedmiotu dzia\u0142alno\u015bci (np. amenity=training + training=*, amenity=dancing_school, amenity=language_school, amenity=music_school)"}},{"id":278182,"type":"Feature","geometry":{"type":"Point","coordinates":[16.9978,51.07213]},"properties":{"isced:level":"1;2","ref:rspo":278182,"official_name":"Integracyjna Szko\u0142a Podstawowa Alto Wietrzna","name":"Integracyjna Szko\u0142a Podstawowa Alto Wietrzna","addr:country":"PL","addr:postcode":"53-024","addr:city":"Wroc\u0142aw","addr:street":"ul. Wietrzna","addr:housenumber":"10","addr:teryt:simc":24207,"addr:teryt:sym_ul":986544,"contact:phone":"+48 501508578","contact:email":"szkola.specjalna.alto@gmail.com","ref:regon":"389873465","operator":"Marta Nowak","operator:type":"private","amenity":"school"}},{"id":272269,"type":"Feature","geometry":{"type":"Point","coordinates":[16.99706,51.07268]},"properties":{"ref:rspo":272269,"official_name":"Punkt Przedszkolny In Harmony Preschool","name":"Punkt Przedszkolny In Harmony Preschool","addr:country":"PL","addr:postcode":"53-024","addr:city":"Wroc\u0142aw","addr:street":"ul. Wietrzna","addr:housenumber":"49","addr:teryt:simc":24207,"addr:teryt:sym_ul":986544,"contact:phone":"+48 512207978","contact:email":"office@ihpreschool.pl","contact:website":"http:\/\/www.ihpreschool.pl","ref:regon":"384093604","operator":"Martyna Nylec","operator:type":"private","amenity":"kindergarten"}},{"id":262278,"type":"Feature","geometry":{"type":"Point","coordinates":[17.04543,51.07282]},"properties":{"ref:rspo":262278,"official_name":"Zesp\u00f3\u0142 Szkolno-Przedszkolny Nr 21","name":"Zesp\u00f3\u0142 Szkolno-Przedszkolny Nr 21","addr:country":"PL","addr:postcode":"50-536","addr:city":"Wroc\u0142aw","addr:street":"ul. K\u0142odzka","addr:housenumber":"40","addr:teryt:simc":8622,"addr:teryt:sym_ul":986544,"contact:phone":"+48 717986942","contact:email":"sekretariat.zsp21@wroclawskaedukacja.pl","contact:website":"http:\/\/www.zsp21.edu.wroclaw.pl","ref:regon":"367993608","operator":"Gmina Wroc\u0142aw","operator:type":"government","landuse":"education","fixme":"amenity=school, amenity=college albo landuse=education w zale\u017cno\u015bci od tego, jakie plac\u00f3wki wchodz\u0105 w sk\u0142ad zespo\u0142u. Sprawd\u017a, kiedy stosowa\u0107 amenity=* a kiedy landuse=education.","note":"Children RSPO: 262398;262401"}},{"id":262398,"type":"Feature","geometry":{"type":"Point","coordinates":[17.04543,51.07279]},"properties":{"ref:rspo":262398,"official_name":"Przedszkole Nr 32","name":"Przedszkole Nr 32","addr:country":"PL","addr:postcode":"50-536","addr:city":"Wroc\u0142aw","addr:street":"ul. K\u0142odzka","addr:housenumber":"40","addr:teryt:simc":8622,"addr:teryt:sym_ul":986544,"contact:phone":"+48 717986942","contact:email":"sekretariat.zsp21@wroclawskaedukacja.pl","contact:website":"http:\/\/www.zsp21.edu.wroclaw.pl","ref:regon":"368013167","operator":"Gmina Wroc\u0142aw","operator:type":"government","amenity":"kindergarten","note":"Parent RSPO: 262278"}},{"id":262401,"type":"Feature","geometry":{"type":"Point","coordinates":[17.04543,51.07276]},"properties":{"isced:level":"1;2","ref:rspo":262401,"official_name":"Szko\u0142a Podstawowa Nr 32 im. 100-Lecia Niepodleg\u0142o\u015bci Polski","name":"Szko\u0142a Podstawowa Nr 32","addr:country":"PL","addr:postcode":"50-536","addr:city":"Wroc\u0142aw","addr:street":"ul. K\u0142odzka","addr:housenumber":"40","addr:teryt:simc":8622,"addr:teryt:sym_ul":986544,"contact:phone":"+48 717986942","contact:email":"sekretariat.zsp21@wroclawskaedukacja.pl","contact:website":"http:\/\/www.zsp21.edu.wroclaw.pl","ref:regon":"368013049","operator":"Gmina Wroc\u0142aw","operator:type":"government","amenity":"school","note":"Parent RSPO: 262278"}},{"id":14635,"type":"Feature","geometry":{"type":"Point","coordinates":[17.04024,51.07288]},"properties":{"ref:rspo":14635,"official_name":"Stumilowy Gaj B","name":"Stumilowy Gaj B","addr:country":"PL","addr:postcode":"50-540","addr:city":"Wroc\u0142aw","addr:street":"ul. Stro\u0144ska","addr:housenumber":"27A-B","addr:teryt:simc":21297,"addr:teryt:sym_ul":986544,"contact:phone":"+48 609502078","contact:email":"biuro@stumilowygaj.pl","contact:website":"http:\/\/www.stumilowygaj.pl","ref:regon":"022007226","operator":"Magdalena Wanatko","operator:type":"private","amenity":"kindergarten"}},{"id":14673,"type":"Feature","geometry":{"type":"Point","coordinates":[17.04024,51.072849999999995]},"properties":{"ref:rspo":14673,"official_name":"Stumilowy Gaj A","name":"Stumilowy Gaj A","addr:country":"PL","addr:postcode":"50-540","addr:city":"Wroc\u0142aw","addr:street":"ul. Stro\u0144ska","addr:housenumber":"27A-B","addr:teryt:simc":21297,"addr:teryt:sym_ul":986544,"contact:phone":"+48 609502078","contact:email":"biuro@stumilowygaj.pl","contact:website":"http:\/\/www.stumilowygaj.pl","ref:regon":"021971003","operator":"Magdalena Wanatko","operator:type":"private","amenity":"kindergarten"}},{"id":106147,"type":"Feature","geometry":{"type":"Point","coordinates":[17.04514,51.07309]},"properties":{"ref:rspo":106147,"official_name":"Tajemniczy Ogr\u00f3d","name":"Tajemniczy Ogr\u00f3d","addr:country":"PL","addr:postcode":"50-536","addr:city":"Wroc\u0142aw","addr:street":"ul. K\u0142odzka","addr:housenumber":"23A","addr:teryt:simc":8622,"addr:teryt:sym_ul":986544,"contact:phone":"+48 507879670","contact:email":"anitapodgajna@wp.pl","contact:website":"http:\/\/www.przedszkole-tajemniczyogrod.pl","ref:regon":"022049940","operator":"Anita Podgajana","operator:type":"private","amenity":"kindergarten"}},{"id":275622,"type":"Feature","geometry":{"type":"Point","coordinates":[17.04532,51.07366]},"properties":{"ref:rspo":275622,"official_name":"Publiczne Przedszkole \"Wroc\u0142awskie Skauty IV\"","name":"Publiczne Przedszkole \"Wroc\u0142awskie Skauty IV\"","addr:country":"PL","addr:postcode":"50-537","addr:city":"Wroc\u0142aw","addr:street":"ul. Radkowska","addr:housenumber":"26","addr:teryt:simc":18298,"addr:teryt:sym_ul":986544,"contact:phone":"+48 533841455","contact:email":"biuro4@wroclawskieskauty.pl","contact:website":"http:\/\/www.wroclawskieskauty.pl","ref:regon":"386928310","operator":"Robert Burszewski","operator:type":"private","amenity":"kindergarten"}},{"id":275638,"type":"Feature","geometry":{"type":"Point","coordinates":[17.04532,51.073629999999994]},"properties":{"isced:level":"1;2","ref:rspo":275638,"official_name":"Europejska Szko\u0142a Podstawowa we Wroc\u0142awiu","name":"Europejska Szko\u0142a Podstawowa we Wroc\u0142awiu","addr:country":"PL","addr:postcode":"50-537","addr:city":"Wroc\u0142aw","addr:street":"ul. Radkowska","addr:housenumber":"26","addr:teryt:simc":18298,"addr:teryt:sym_ul":986544,"contact:phone":"+48 713504806","contact:email":"robertburszewski@wp.pl","ref:regon":"386930702","operator":"Robert Burszewski","operator:type":"private","amenity":"school"}},{"id":47637,"type":"Feature","geometry":{"type":"Point","coordinates":[17.08318,51.07373]},"properties":{"ref:rspo":47637,"official_name":"Przedszkole Nr 57 Ma\u0142y Ksi\u0105\u017c\u0119","name":"Przedszkole Nr 57 Ma\u0142y Ksi\u0105\u017c\u0119","addr:country":"PL","addr:postcode":"52-023","addr:city":"Wroc\u0142aw","addr:street":"ul. Chorzowska","addr:housenumber":"55","addr:teryt:simc":2863,"addr:teryt:sym_ul":986544,"contact:phone":"+48 717986800","contact:email":"sekretariat.p057@wroclawskaedukacja.pl","contact:website":"http:\/\/www.p57malyksiaze.dlaprzedszkoli.eu","ref:regon":"930113000","ref:vatin":"PL8992346555","operator":"Gmina Wroc\u0142aw","operator:type":"government","amenity":"kindergarten"}},{"id":13471,"type":"Feature","geometry":{"type":"Point","coordinates":[17.08999,51.07411]},"properties":{"ref:rspo":13471,"official_name":"\"Prax\" Centrum Kszta\u0142cenia Ustawicznego","name":"\"Prax\" Centrum Kszta\u0142cenia Ustawicznego","addr:country":"PL","addr:postcode":"52-007","addr:city":"Wroc\u0142aw","addr:street":"ul. Zag\u0142\u0119biowska","addr:housenumber":"8","addr:teryt:simc":25352,"addr:teryt:sym_ul":986544,"contact:phone":"+48 713400391","contact:email":"copacabanastudium@poczta.fm","contact:website":"http:\/\/www.copacabanastudium.pl","ref:regon":"021962205","operator":"Maciej Orze\u0142","operator:type":"private","fixme":"w zale\u017cno\u015bci od przedmiotu dzia\u0142alno\u015bci (np. amenity=training + training=*, amenity=dancing_school, amenity=language_school, amenity=music_school)"}},{"id":23284,"type":"Feature","geometry":{"type":"Point","coordinates":[17.08999,51.074079999999995]},"properties":{"isced:level":"4","ref:rspo":23284,"official_name":"Biostudio Policealna Szko\u0142a Masa\u017cu we Wroc\u0142awiu","name":"Biostudio Policealna Szko\u0142a Masa\u017cu we Wroc\u0142awiu","addr:country":"PL","addr:postcode":"52-007","addr:city":"Wroc\u0142aw","addr:street":"ul. Zag\u0142\u0119biowska","addr:housenumber":"8","addr:teryt:simc":25352,"addr:teryt:sym_ul":986544,"contact:phone":"+48 713400391","contact:email":"biostudio.sekretariat@poczta.fm","contact:website":"http:\/\/www.biostudio.edu.pl","ref:regon":"021983437","operator":"Maciej Orze\u0142","operator:type":"private","amenity":"college"}},{"id":23315,"type":"Feature","geometry":{"type":"Point","coordinates":[17.08999,51.07405]},"properties":{"isced:level":"3","ref:rspo":23315,"official_name":"Copacabana. Technikum Fryzjerskie we Wroc\u0142awiu","name":"Copacabana. Technikum Fryzjerskie we Wroc\u0142awiu","addr:country":"PL","addr:postcode":"52-007","addr:city":"Wroc\u0142aw","addr:street":"ul. Zag\u0142\u0119biowska","addr:housenumber":"8","addr:teryt:simc":25352,"addr:teryt:sym_ul":986544,"contact:phone":"+48 713400391","contact:email":"copacabanastudium@poczta.fm","contact:website":"http:\/\/www.copacabana-szkola.pl","ref:regon":"021983118","operator":"Maciej Orze\u0142","operator:type":"private","amenity":"school"}},{"id":133898,"type":"Feature","geometry":{"type":"Point","coordinates":[17.08999,51.07402]},"properties":{"isced:level":"3","ref:rspo":133898,"official_name":"Husarz. G\u0142\u00f3wna Wojskowa Szko\u0142a \u015arednia we Wroc\u0142awiu - Liceum Og\u00f3lnokszta\u0142c\u0105ce","name":"Husarz. G\u0142\u00f3wna Wojskowa Szko\u0142a \u015arednia we Wroc\u0142awiu - Liceum Og\u00f3lnokszta\u0142c\u0105ce","addr:country":"PL","addr:postcode":"52-007","addr:city":"Wroc\u0142aw","addr:street":"ul. Zag\u0142\u0119biowska","addr:housenumber":"8","addr:teryt:simc":25352,"addr:teryt:sym_ul":986544,"contact:phone":"+48 713400391","contact:email":"sekretariat@szkolawojskowahusarz.pl","contact:website":"http:\/\/www.szkolawojskowahusarz.pl","ref:regon":"367745715","operator":"Maciej Orze\u0142","operator:type":"private","amenity":"school"}},{"id":268159,"type":"Feature","geometry":{"type":"Point","coordinates":[17.08999,51.073989999999995]},"properties":{"isced:level":"3","ref:rspo":268159,"official_name":"Husarz. G\u0142\u00f3wna Wojskowa Szko\u0142a \u015arednia we Wroc\u0142awiu - Technikum","name":"Husarz. G\u0142\u00f3wna Wojskowa Szko\u0142a \u015arednia we Wroc\u0142awiu - Technikum","addr:country":"PL","addr:postcode":"52-007","addr:city":"Wroc\u0142aw","addr:street":"ul. Zag\u0142\u0119biowska","addr:housenumber":"8","addr:teryt:simc":25352,"addr:teryt:sym_ul":986544,"contact:phone":"+48 713400391","contact:email":"sekretariat@szkolawojskowahusarz.pl","contact:website":"http:\/\/www.szkolawojskowahusarz.pl","ref:regon":"381008360","operator":"Maciej Orze\u0142","operator:type":"private","amenity":"school"}},{"id":14616,"type":"Feature","geometry":{"type":"Point","coordinates":[16.98979,51.07426]},"properties":{"ref:rspo":14616,"official_name":"Zesp\u00f3\u0142 Szkolno-Przedszkolny Nr 16","name":"Zesp\u00f3\u0142 Szkolno-Przedszkolny Nr 16","addr:country":"PL","addr:postcode":"53-024","addr:city":"Wroc\u0142aw","addr:street":"ul. Wietrzna","addr:housenumber":"50","addr:teryt:simc":24207,"addr:teryt:sym_ul":986544,"contact:phone":"+48 717986922","contact:email":"sekretariat.zsp16@wroclawskaedukacja.pl","contact:website":"http:\/\/www.zsp16.wroclaw.pl","ref:regon":"021625732","ref:vatin":"PL8992723288","operator":"Gmina Wroc\u0142aw","operator:type":"government","landuse":"education","fixme":"amenity=school, amenity=college albo landuse=education w zale\u017cno\u015bci od tego, jakie plac\u00f3wki wchodz\u0105 w sk\u0142ad zespo\u0142u. Sprawd\u017a, kiedy stosowa\u0107 amenity=* a kiedy landuse=education.","note":"Children RSPO: 21536;23366"}},{"id":21536,"type":"Feature","geometry":{"type":"Point","coordinates":[16.98979,51.07423]},"properties":{"isced:level":"1;2","ref:rspo":21536,"official_name":"Szko\u0142a Podstawowa Nr 16","name":"Szko\u0142a Podstawowa Nr 16","addr:country":"PL","addr:postcode":"53-024","addr:city":"Wroc\u0142aw","addr:street":"ul. Wietrzna","addr:housenumber":"50","addr:teryt:simc":24207,"addr:teryt:sym_ul":986544,"contact:phone":"+48 717986922","contact:email":"sekretariat.zsp16@wroclawskaedukacja.pl","contact:website":"http:\/\/www.zsp16.wroclaw.pl","ref:regon":"021625749","operator":"Gmina Wroc\u0142aw","operator:type":"government","amenity":"school","note":"Parent RSPO: 14616"}},{"id":23366,"type":"Feature","geometry":{"type":"Point","coordinates":[16.98979,51.074200000000005]},"properties":{"ref:rspo":23366,"official_name":"Przedszkole Nr 16","name":"Przedszkole Nr 16","addr:country":"PL","addr:postcode":"53-024","addr:city":"Wroc\u0142aw","addr:street":"ul. Wietrzna","addr:housenumber":"50","addr:teryt:simc":24207,"addr:teryt:sym_ul":986544,"contact:phone":"+48 717986922","contact:email":"sekretariat.zsp16@wroclawskaedukacja.pl","contact:website":"http:\/\/www.zsp16.wroclaw.pl","ref:regon":"021625761","operator":"Gmina Wroc\u0142aw","operator:type":"government","amenity":"kindergarten","note":"Parent RSPO: 14616"}},{"id":16165,"type":"Feature","geometry":{"type":"Point","coordinates":[17.04039,51.07464]},"properties":{"ref:rspo":16165,"official_name":"Punkt Przedszkolny \"Zaczarowany O\u0142\u00f3wek\"","name":"Punkt Przedszkolny \"Zaczarowany O\u0142\u00f3wek\"","addr:country":"PL","addr:postcode":"50-540","addr:city":"Wroc\u0142aw","addr:street":"ul. Stro\u0144ska","addr:housenumber":"11","addr:teryt:simc":21297,"addr:teryt:sym_ul":986544,"contact:phone":"+48 513444968","contact:email":"kontakt@zaczarowany-olowek.eu","contact:website":"http:\/\/www.zaczarowanu-olowek.eu","ref:regon":"021972735","operator":"Agata Ja\u015bkiewicz","operator:type":"private","amenity":"kindergarten"}},{"id":30293,"type":"Feature","geometry":{"type":"Point","coordinates":[17.0375,51.07569]},"properties":{"ref:rspo":30293,"official_name":"Koraliki - Przedszkole Montessori","name":"Koraliki - Przedszkole Montessori","addr:country":"PL","addr:postcode":"50-559","addr:city":"Wroc\u0142aw","addr:street":"ul. L\u0105decka","addr:housenumber":"14","addr:teryt:simc":10727,"addr:teryt:sym_ul":986544,"contact:phone":"+48 728545566","contact:email":"ladecka@montessori-wroclaw.com","contact:website":"http:\/\/www.montessori-wroclaw.com","ref:regon":"021995080","operator":"Magdalena Rembek-Pabisiak","operator:type":"private","amenity":"kindergarten"}},{"id":268087,"type":"Feature","geometry":{"type":"Point","coordinates":[16.96274,51.0764]},"properties":{"ref:rspo":268087,"official_name":"Niepubliczne Przedszkole Domino","name":"Niepubliczne Przedszkole Domino","addr:country":"PL","addr:postcode":"52-436","addr:city":"Wroc\u0142aw","addr:street":"ul. Karmelkowa","addr:housenumber":"8a","addr:teryt:simc":8062,"addr:teryt:sym_ul":986544,"contact:phone":"+48 533300488","contact:email":"domino.przedszkole@gmail.com","ref:regon":"380950106","operator":"Joanna Rowi\u0144ska","operator:type":"private","amenity":"kindergarten"}},{"id":123553,"type":"Feature","geometry":{"type":"Point","coordinates":[17.00797,51.07655]},"properties":{"ref:rspo":123553,"official_name":"Akademia Rozwoju Zawodowego","name":"Akademia Rozwoju Zawodowego","addr:country":"PL","addr:postcode":"53-140","addr:city":"Wroc\u0142aw","addr:street":"ul. Powsta\u0144c\u00f3w \u015al\u0105skich","addr:housenumber":"210\/218","addr:teryt:simc":17366,"addr:teryt:sym_ul":986544,"contact:phone":"+48 790777769","contact:email":"biuro@akademiazawodowa.com.pl","contact:website":"http:\/\/www.akademiazawodowa.com.pl","ref:regon":"022451932","operator":"Stowarzyszenie Dla Rozwoju Zawodowego","operator:type":"ngo","fixme":"w zale\u017cno\u015bci od przedmiotu dzia\u0142alno\u015bci (np. amenity=training + training=*, amenity=dancing_school, amenity=language_school, amenity=music_school)"}},{"id":133798,"type":"Feature","geometry":{"type":"Point","coordinates":[17.00797,51.076519999999995]},"properties":{"isced:level":"1;2","ref:rspo":133798,"official_name":"Szko\u0142a Podstawowa Nr 4","name":"Szko\u0142a Podstawowa Nr 4","addr:country":"PL","addr:postcode":"53-140","addr:city":"Wroc\u0142aw","addr:street":"ul. Powsta\u0144c\u00f3w \u015al\u0105skich","addr:housenumber":"210-218","addr:teryt:simc":17366,"addr:teryt:sym_ul":986544,"contact:phone":"+48 717986903","contact:email":"sekretariat.sp004@wroclawskaedukacja.pl","contact:website":"http:\/\/www.sp4-wroclaw.pl","ref:regon":"367654415","operator":"Gmina Wroc\u0142aw","operator:type":"government","amenity":"school"}},{"id":278616,"type":"Feature","geometry":{"type":"Point","coordinates":[17.00797,51.07649]},"properties":{"ref:rspo":278616,"official_name":"Niepubliczna Plac\u00f3wka O\u015bwiatowo-Wychowawcza Bee Smart!","name":"Niepubliczna Plac\u00f3wka O\u015bwiatowo-Wychowawcza Bee Smart!","addr:country":"PL","addr:postcode":"53-140","addr:city":"Wroc\u0142aw","addr:street":"ul. Powsta\u0144c\u00f3w \u015al\u0105skich","addr:housenumber":"210-218","addr:teryt:simc":17366,"addr:teryt:sym_ul":986544,"contact:phone":"+48 601070731","contact:email":"biuro@fundacjanaszswiat.pl","ref:regon":"520017191","operator":"Fundacja Nasz \u015awiat","operator:type":"ngo","fixme":"w zale\u017cno\u015bci od przedmiotu dzia\u0142alno\u015bci (np. amenity=training + training=*, amenity=dancing_school, amenity=language_school, amenity=music_school)"}},{"id":73528,"type":"Feature","geometry":{"type":"Point","coordinates":[17.0077505,51.0766073]},"properties":{"ref:rspo":73528,"official_name":"O\u015brodek Szkolenia I Doskonalenia Nauczycieli \"Aned\"","name":"O\u015brodek Szkolenia I Doskonalenia Nauczycieli \"Aned\"","addr:country":"PL","addr:postcode":"53-140","addr:city":"Wroc\u0142aw","addr:street":"ul. Powsta\u0144c\u00f3w \u015al\u0105skich","addr:housenumber":"210","addr:door":"218","addr:teryt:simc":17366,"addr:teryt:sym_ul":986544,"contact:phone":"+48 717940500","contact:email":"biuro@aned.com.pl","contact:website":"http:\/\/www.aned.com.pl","ref:regon":"022007077","operator":"Andrzej W\u0142odarczyk","operator:type":"private","amenity":"training"}},{"id":103963,"type":"Feature","geometry":{"type":"Point","coordinates":[16.99816,51.07736]},"properties":{"isced:level":"1;2","ref:rspo":103963,"official_name":"Szko\u0142a Podstawowa Nr 61 im. Janusza Korczaka","name":"Szko\u0142a Podstawowa Nr 61","addr:country":"PL","addr:postcode":"53-025","addr:city":"Wroc\u0142aw","addr:street":"ul. Skarbowc\u00f3w","addr:housenumber":"8","addr:teryt:simc":20004,"addr:teryt:sym_ul":986544,"contact:phone":"+48 717986856","contact:email":"sekretariat.sp061@wroclawskaedukacja.pl","ref:regon":"001268124","ref:vatin":"PL8992348761","operator":"Gmina Wroc\u0142aw","operator:type":"government","amenity":"school"}},{"id":13936,"type":"Feature","geometry":{"type":"Point","coordinates":[17.08079,51.07738]},"properties":{"ref:rspo":13936,"official_name":"Publiczne Przedszkole \"Logicus\"","name":"Publiczne Przedszkole \"Logicus\"","addr:country":"PL","addr:postcode":"52-026","addr:city":"Wroc\u0142aw","addr:street":"ul. Raciborska","addr:housenumber":"2","addr:teryt:simc":18263,"addr:teryt:sym_ul":986544,"contact:phone":"+48 501670035","contact:email":"logicus.wroclaw@operator.edu.pl","contact:website":"https:\/\/logicus-wroclaw.operator.edu.pl\/","ref:regon":"021962820","operator":"Og\u00f3lnopolski Operator O\u015bwiaty","operator:type":"ngo","amenity":"kindergarten"}},{"id":133097,"type":"Feature","geometry":{"type":"Point","coordinates":[16.99735,51.07747]},"properties":{"ref:rspo":133097,"official_name":"Akademia Mistrzostwa Sportowego Rekreacji I Turystyki im. S\u0142awomira Szymczaka","name":"Akademia Mistrzostwa Sportowego Rekreacji I Turystyki","addr:country":"PL","addr:postcode":"53-025","addr:city":"Wroc\u0142aw","addr:street":"ul. Skarbowc\u00f3w","addr:housenumber":"23a","addr:door":"319","addr:teryt:simc":20004,"addr:teryt:sym_ul":986544,"contact:phone":"+48 717127712","contact:email":"dziekanat@ams.wroclaw.pl","contact:website":"http:\/\/www.ams.wroclaw.pl","ref:regon":"366635841","operator":"Akademia Mistrzostwa Sportowego Rekreacji I Turystyki Im. S\u0142awomira Szymczaka - Ams Sp\u00f3\u0142ka Z Ograniczon\u0105 Odpowiedzialno\u015bci\u0105 Sp\u00f3\u0142ka Komandytowa","operator:type":"private","fixme":"w zale\u017cno\u015bci od przedmiotu dzia\u0142alno\u015bci (np. amenity=training + training=*, amenity=dancing_school, amenity=language_school, amenity=music_school)"}},{"id":271210,"type":"Feature","geometry":{"type":"Point","coordinates":[17.06332,51.07784]},"properties":{"ref:rspo":271210,"official_name":"O\u015brodek Szkolenia Kierowc\u00f3w \"Danuta\" Danuta Karda\u015b","name":"O\u015brodek Szkolenia Kierowc\u00f3w \"Danuta\" Danuta Karda\u015b","addr:country":"PL","addr:postcode":"50-513","addr:city":"Wroc\u0142aw","addr:street":"ul. Gazowa","addr:housenumber":"16","addr:door":"1A","addr:teryt:simc":5403,"addr:teryt:sym_ul":986544,"contact:phone":"+48 713336512","contact:email":"danutakardas@wp.pl","contact:website":"http:\/\/oskdanuta.pl","ref:regon":"383168636","operator":"Danuta Karda\u015b","operator:type":"private","fixme":"w zale\u017cno\u015bci od przedmiotu dzia\u0142alno\u015bci (np. amenity=training + training=*, amenity=dancing_school, amenity=language_school, amenity=music_school)"}},{"id":15598,"type":"Feature","geometry":{"type":"Point","coordinates":[17.08091,51.07787]},"properties":{"isced:level":"1;2","ref:rspo":15598,"official_name":"Szko\u0142a Podstawowa Nr 99 im. Tadeusza Ko\u015bciuszki","name":"Szko\u0142a Podstawowa Nr 99","addr:country":"PL","addr:postcode":"52-026","addr:city":"Wroc\u0142aw","addr:street":"ul. G\u0142ubczycka","addr:housenumber":"3","addr:teryt:simc":5639,"addr:teryt:sym_ul":986544,"contact:phone":"+48 717986879","contact:email":"sekretariat.sp099@wroclawskaedukacja.pl","contact:website":"http:\/\/www.sp-99.edu.wroclaw.pl","ref:regon":"000704267","ref:vatin":"PL8992137449","operator":"Gmina Wroc\u0142aw","operator:type":"government","amenity":"school"}},{"id":118691,"type":"Feature","geometry":{"type":"Point","coordinates":[17.08091,51.077839999999995]},"properties":{"ref:rspo":118691,"official_name":"Centrum Szkoleniowe Sek","name":"Centrum Szkoleniowe Sek","addr:country":"PL","addr:postcode":"52-026","addr:city":"Wroc\u0142aw","addr:street":"ul. G\u0142ubczycka","addr:housenumber":"3","addr:teryt:simc":5639,"addr:teryt:sym_ul":986544,"contact:phone":"+48 691521410","contact:email":"annaslowik@autograf.pl","contact:website":"http:\/\/www.szkolapodologii.pl","ref:regon":"022207184","operator":"Anna Raczkowska","operator:type":"private","fixme":"w zale\u017cno\u015bci od przedmiotu dzia\u0142alno\u015bci (np. amenity=training + training=*, amenity=dancing_school, amenity=language_school, amenity=music_school)"}},{"id":120061,"type":"Feature","geometry":{"type":"Point","coordinates":[17.04201,51.07825]},"properties":{"ref:rspo":120061,"official_name":"Niepubliczna Plac\u00f3wka Doskonalenia Nauczycieli Asystent","name":"Niepubliczna Plac\u00f3wka Doskonalenia Nauczycieli Asystent","addr:country":"PL","addr:postcode":"50-540","addr:city":"Wroc\u0142aw","addr:street":"ul. Orzechowa","addr:housenumber":"61","addr:door":"8","addr:teryt:simc":15202,"addr:teryt:sym_ul":986544,"contact:phone":"+48 717896402","contact:email":"npdn.asystent@gmail.com","ref:regon":"022254953","ref:vatin":"PL8991338499","operator":"Iwona Zar\u0119bska","operator:type":"private","amenity":"training"}},{"id":15537,"type":"Feature","geometry":{"type":"Point","coordinates":[17.04243,51.07888]},"properties":{"isced:level":"1;2","ref:rspo":15537,"official_name":"Szko\u0142a Podstawowa Nr 90 im. Prof. Stanis\u0142awa To\u0142py","name":"Szko\u0142a Podstawowa Nr 90","addr:country":"PL","addr:postcode":"50-540","addr:city":"Wroc\u0142aw","addr:street":"ul. Orzechowa","addr:housenumber":"62","addr:teryt:simc":15202,"addr:teryt:sym_ul":986544,"contact:phone":"+48 717986873","contact:email":"sekretariat.sp090@wroclawskaedukacja.pl","contact:website":"https:\/\/sp90wroc.szkolnastrona.pl","ref:regon":"930278391","ref:vatin":"PL8992085528","operator":"Gmina Wroc\u0142aw","operator:type":"government","amenity":"school"}},{"id":130632,"type":"Feature","geometry":{"type":"Point","coordinates":[17.04243,51.078849999999996]},"properties":{"ref:rspo":130632,"official_name":"\"Komando Edusec\"","name":"\"Komando Edusec\"","addr:country":"PL","addr:postcode":"50-540","addr:city":"Wroc\u0142aw","addr:street":"ul. Orzechowa","addr:housenumber":"62","addr:teryt:simc":15202,"addr:teryt:sym_ul":986544,"contact:phone":"+48 883374445","contact:email":"biuro@edusec.com.pl","contact:website":"http:\/\/www.edusec.com.pl","ref:regon":"364282210","operator":"Kancelaria Virto  Sp\u00f3\u0142ka Z Ograniczon\u0105 Odpowiedzialno\u015bci\u0105","operator:type":"private","fixme":"w zale\u017cno\u015bci od przedmiotu dzia\u0142alno\u015bci (np. amenity=training + training=*, amenity=dancing_school, amenity=language_school, amenity=music_school)"}},{"id":19617,"type":"Feature","geometry":{"type":"Point","coordinates":[16.99128,51.07968]},"properties":{"ref:rspo":19617,"official_name":"Niepubliczna Plac\u00f3wka O\u015bwiatowo-Wychowawcza \"Wroclaw International School\"","name":"Niepubliczna Plac\u00f3wka O\u015bwiatowo-Wychowawcza \"Wroclaw International School\"","addr:country":"PL","addr:postcode":"53-149","addr:city":"Wroc\u0142aw","addr:street":"ul. Rac\u0142awicka","addr:housenumber":"101","addr:teryt:simc":18273,"addr:teryt:sym_ul":986544,"contact:phone":"+48 717822624","contact:email":"wis@fem.org.pl","contact:website":"http:\/\/www.wis.fem.org.pl","ref:regon":"021977448","operator":"Fundacja Edukacji Mi\u0119dzynarodowej","operator:type":"ngo","fixme":"w zale\u017cno\u015bci od przedmiotu dzia\u0142alno\u015bci (np. amenity=training + training=*, amenity=dancing_school, amenity=language_school, amenity=music_school)"}},{"id":106142,"type":"Feature","geometry":{"type":"Point","coordinates":[16.99128,51.07965]},"properties":{"isced:level":"1;2","ref:rspo":106142,"official_name":"Dwuj\u0119zyczna Szko\u0142a Podstawowa \"Atut\" Fundacji Edukacji Mi\u0119dzynarodowej","name":"Dwuj\u0119zyczna Szko\u0142a Podstawowa \"Atut\" Fundacji Edukacji Mi\u0119dzynarodowej","addr:country":"PL","addr:postcode":"53-149","addr:city":"Wroc\u0142aw","addr:street":"ul. Rac\u0142awicka","addr:housenumber":"101","addr:teryt:simc":18273,"addr:teryt:sym_ul":986544,"contact:phone":"+48 717822625","contact:email":"atut@fem.org.pl","contact:website":"http:\/\/www.atut.fem.org.pl","ref:regon":"022049880","operator":"Fundacja Edukacji Mi\u0119dzynarodowej","operator:type":"ngo","amenity":"school"}},{"id":121281,"type":"Feature","geometry":{"type":"Point","coordinates":[16.99128,51.079620000000006]},"properties":{"isced:level":"3","ref:rspo":121281,"official_name":"Mi\u0119dzynarodowe Liceum Og\u00f3lnokszta\u0142c\u0105ce we Wroc\u0142awiu","name":"Mi\u0119dzynarodowe Liceum Og\u00f3lnokszta\u0142c\u0105ce we Wroc\u0142awiu","addr:country":"PL","addr:postcode":"53-149","addr:city":"Wroc\u0142aw","addr:street":"ul. Rac\u0142awicka","addr:housenumber":"101","addr:teryt:simc":18273,"addr:teryt:sym_ul":986544,"contact:phone":"+48 717822626","contact:email":"mlo@fem.org.pl","contact:website":"https:\/\/mlo.fem.org.pl\/","ref:regon":"022323039","operator":"Fundacja Edukacji Mi\u0119dzynarodowej","operator:type":"ngo","amenity":"school"}},{"id":127381,"type":"Feature","geometry":{"type":"Point","coordinates":[17.01109,51.07977]},"properties":{"ref:rspo":127381,"official_name":"Zesp\u00f3\u0142 Szkolno-Przedszkolny Nr 19","name":"Zesp\u00f3\u0142 Szkolno-Przedszkolny Nr 19","addr:country":"PL","addr:postcode":"53-135","addr:city":"Wroc\u0142aw","addr:street":"ul. Januszowicka","addr:housenumber":"35-37","addr:teryt:simc":7230,"addr:teryt:sym_ul":986544,"contact:phone":"+48 717986853","contact:email":"sekretariat.zsp19@wroclawskaedukacja.pl","contact:website":"http:\/\/www.zsp19.wroclaw.pl","ref:regon":"361513560","ref:vatin":"PL8992771198","operator":"Gmina Wroc\u0142aw","operator:type":"government","landuse":"education","fixme":"amenity=school, amenity=college albo landuse=education w zale\u017cno\u015bci od tego, jakie plac\u00f3wki wchodz\u0105 w sk\u0142ad zespo\u0142u. Sprawd\u017a, kiedy stosowa\u0107 amenity=* a kiedy landuse=education.","note":"Children RSPO: 14876;127382"}},{"id":14876,"type":"Feature","geometry":{"type":"Point","coordinates":[17.01109,51.07974]},"properties":{"isced:level":"1;2","ref:rspo":14876,"official_name":"Szko\u0142a Podstawowa Nr 47","name":"Szko\u0142a Podstawowa Nr 47","addr:country":"PL","addr:postcode":"53-135","addr:city":"Wroc\u0142aw","addr:street":"ul. Januszowicka","addr:housenumber":"35-37","addr:teryt:simc":7230,"addr:teryt:sym_ul":986544,"contact:phone":"+48 717986853","contact:email":"sekretariat.zsp19@wroclawskaedukacja.pl","contact:website":"http:\/\/www.zsp19.wroclaw.pl","ref:regon":"000693055","ref:vatin":"PL8961001364","operator":"Gmina Wroc\u0142aw","operator:type":"government","amenity":"school","note":"Parent RSPO: 127381"}},{"id":127382,"type":"Feature","geometry":{"type":"Point","coordinates":[17.01109,51.079710000000006]},"properties":{"ref:rspo":127382,"official_name":"Przedszkole Nr 19","name":"Przedszkole Nr 19","addr:country":"PL","addr:postcode":"53-135","addr:city":"Wroc\u0142aw","addr:street":"ul. Januszowicka","addr:housenumber":"35-37","addr:teryt:simc":7230,"addr:teryt:sym_ul":986544,"contact:phone":"+48 717986853","contact:email":"sekretariat.zsp19@wroclawskaedukacja.pl","contact:website":"http:\/\/zsp19.wroclaw.pl\/","ref:regon":"361513702","operator":"Gmina Wroc\u0142aw","operator:type":"government","amenity":"kindergarten","note":"Parent RSPO: 127381"}},{"id":23134,"type":"Feature","geometry":{"type":"Point","coordinates":[17.01204,51.0804199]},"properties":{"ref:rspo":23134,"official_name":"Przedszkole Zgromadzenia Si\u00f3str \u015aw. El\u017cbiety","name":"Przedszkole Zgromadzenia Si\u00f3str \u015aw. El\u017cbiety","addr:country":"PL","addr:postcode":"53-135","addr:city":"Wroc\u0142aw","addr:street":"ul. Januszowicka","addr:housenumber":"32-34","addr:teryt:simc":7230,"addr:teryt:sym_ul":986544,"contact:phone":"+48 717746710","contact:email":"swelzbieta@wp.pl","contact:website":"http:\/\/www.przedszkole-elzbietanki.wroc.pl","ref:regon":"021983390","operator":"Zgromadzenie Si\u00f3str \u015aw.el\u017cbiety  Prowincja Wroc\u0142awska","operator:type":"religious","amenity":"kindergarten"}},{"id":31325,"type":"Feature","geometry":{"type":"Point","coordinates":[17.0336,51.08049]},"properties":{"ref:rspo":31325,"official_name":"Przedszkole Nr 49 im. Tysi\u0105clecia Miasta Wroc\u0142awia","name":"Przedszkole Nr 49","addr:country":"PL","addr:postcode":"50-553","addr:city":"Wroc\u0142aw","addr:street":"ul. Borowska","addr:housenumber":"181-187","addr:teryt:simc":1866,"addr:teryt:sym_ul":986544,"contact:phone":"+48 717986793","contact:email":"sekretariat.p049@wroclawskaedukacja.pl","contact:website":"http:\/\/www.przedszkole49.pl","ref:regon":"930080140","ref:vatin":"PL8992316459","operator":"Gmina Wroc\u0142aw","operator:type":"government","amenity":"kindergarten"}},{"id":14115,"type":"Feature","geometry":{"type":"Point","coordinates":[17.04622,51.08052]},"properties":{"ref:rspo":14115,"official_name":"Niepubliczne Przedszkole Bim Bam Bom","name":"Niepubliczne Przedszkole Bim Bam Bom","addr:country":"PL","addr:postcode":"50-555","addr:city":"Wroc\u0142aw","addr:street":"ul. Krynicka","addr:housenumber":"27-29","addr:teryt:simc":10062,"addr:teryt:sym_ul":986544,"contact:phone":"+48 609338612","contact:email":"biuro@bimbambom.edu.pl","contact:website":"http:\/\/www.bimbambom.edu.pl","ref:regon":"021969970","operator":"Magdalena K\u0142ak-Turska","operator:type":"private","amenity":"kindergarten"}},{"id":19429,"type":"Feature","geometry":{"type":"Point","coordinates":[17.00926,51.08085]},"properties":{"ref:rspo":19429,"official_name":"M\u0142odzie\u017cowy Dom Kultury Wroc\u0142aw - Krzyki","name":"M\u0142odzie\u017cowy Dom Kultury Wroc\u0142aw - Krzyki","addr:country":"PL","addr:postcode":"53-139","addr:city":"Wroc\u0142aw","addr:street":"ul. Powsta\u0144c\u00f3w \u015al\u0105skich","addr:housenumber":"190","addr:teryt:simc":17366,"addr:teryt:sym_ul":986544,"contact:phone":"+48 717986743","contact:email":"sekretariat.mdk-krzyki@wroclawskaedukacja.pl","contact:website":"http:\/\/www.mdk-krzyki.pl","ref:regon":"000704741","ref:vatin":"PL8992316956","operator":"Gmina Wroc\u0142aw","operator:type":"government","amenity":"community_centre","community_centre:for":"juvenile"}},{"id":272804,"type":"Feature","geometry":{"type":"Point","coordinates":[17.06236,51.08118]},"properties":{"ref:rspo":272804,"official_name":"Publiczne Przedszkole Akademia Maluszka","name":"Publiczne Przedszkole Akademia Maluszka","addr:country":"PL","addr:postcode":"50-512","addr:city":"Wroc\u0142aw","addr:street":"ul. Tarnogajska","addr:housenumber":"16","addr:teryt:simc":22676,"addr:teryt:sym_ul":986544,"contact:phone":"+48 536541132","contact:email":"dyrektor@akademiamaluszka.com.pl","contact:website":"http:\/\/www.akademiamaluszka.com.pl","ref:regon":"384294538","operator":"Aj Creative Sp\u00f3\u0142ka Z Ograniczon\u0105 Odpowiedzialno\u015bci\u0105","operator:type":"private","amenity":"kindergarten"}},{"id":16110,"type":"Feature","geometry":{"type":"Point","coordinates":[17.0212499,51.08137]},"properties":{"ref:rspo":16110,"official_name":"Integracyjny Punkt Przedszkolny \"Puchatkowa Za\u0142oga\"","name":"Integracyjny Punkt Przedszkolny \"Puchatkowa Za\u0142oga\"","addr:country":"PL","addr:postcode":"53-122","addr:city":"Wroc\u0142aw","addr:street":"al. Jaworowa","addr:housenumber":"39","addr:teryt:simc":7393,"addr:teryt:sym_ul":986544,"contact:phone":"+48 717905660","contact:email":"joasia.stankiewicz@gmail.com","contact:website":"http:\/\/www.puchatkowazaloga.com","ref:regon":"021972669","operator":"Joanna Stankiewicz-Trzaskawka","operator:type":"private","amenity":"kindergarten"}},{"id":20568,"type":"Feature","geometry":{"type":"Point","coordinates":[17.02364,51.08178]},"properties":{"ref:rspo":20568,"official_name":"Centrum Szkoleniowe Impel Cleaning","name":"Centrum Szkoleniowe Impel Cleaning","addr:country":"PL","addr:postcode":"53-111","addr:city":"Wroc\u0142aw","addr:street":"ul. \u015al\u0119\u017cna","addr:housenumber":"118","addr:teryt:simc":22324,"addr:teryt:sym_ul":986544,"contact:phone":"+48 717809727","contact:email":"szkolenia@impel.pl","contact:website":"http:\/\/www.impel.pl","ref:regon":"021978815","operator":"Impel Facility Services Sp\u00f3\u0142ka Z Ograniczon\u0105 Odpowiedzialno\u015bci\u0105","operator:type":"private","fixme":"w zale\u017cno\u015bci od przedmiotu dzia\u0142alno\u015bci (np. amenity=training + training=*, amenity=dancing_school, amenity=language_school, amenity=music_school)"}},{"id":267665,"type":"Feature","geometry":{"type":"Point","coordinates":[17.02364,51.08175]},"properties":{"ref:rspo":267665,"official_name":"Centrum Szkole\u0144 Grupy Impel","name":"Centrum Szkole\u0144 Grupy Impel","addr:country":"PL","addr:postcode":"53-111","addr:city":"Wroc\u0142aw","addr:street":"ul. \u015al\u0119\u017cna","addr:housenumber":"118","addr:teryt:simc":22324,"addr:teryt:sym_ul":986544,"contact:phone":"+48 510012514","contact:email":"szkolenia@impel.pl","ref:regon":"380498899","operator":"\"Impel\" Sp\u00f3\u0142ka Akcyjna","operator:type":"private","fixme":"w zale\u017cno\u015bci od przedmiotu dzia\u0142alno\u015bci (np. amenity=training + training=*, amenity=dancing_school, amenity=language_school, amenity=music_school)"}},{"id":14271,"type":"Feature","geometry":{"type":"Point","coordinates":[17.0155299,51.08309]},"properties":{"isced:level":"1;2","ref:rspo":14271,"official_name":"Polsko-Brytyjska Dwuj\u0119zyczna Szko\u0142a Podstawowa","name":"Polsko-Brytyjska Dwuj\u0119zyczna Szko\u0142a Podstawowa","addr:country":"PL","addr:postcode":"53-134","addr:city":"Wroc\u0142aw","addr:street":"al. Akacjowa","addr:housenumber":"10-12","addr:teryt:simc":156,"addr:teryt:sym_ul":986544,"contact:phone":"+48 717966861","contact:email":"wroclaw@bisc.krakow.pl","contact:website":"http:\/\/bisc.wroclaw.pl","ref:regon":"021963044","operator":"British International School Of Cracow Sp\u00f3\u0142ka Z Ograniczon\u0105 Odpowiedzialno\u015bci\u0105","operator:type":"private","amenity":"school"}},{"id":275703,"type":"Feature","geometry":{"type":"Point","coordinates":[17.01707,51.08319]},"properties":{"ref:rspo":275703,"official_name":"Przedszkole Blisko\u015bci","name":"Przedszkole Blisko\u015bci","addr:country":"PL","addr:postcode":"53-124","addr:city":"Wroc\u0142aw","addr:street":"al. Lipowa","addr:housenumber":"15","addr:door":"2","addr:teryt:simc":11138,"addr:teryt:sym_ul":986544,"contact:phone":"+48 695842210","contact:email":"przedszkole@bliskosci.pl","contact:website":"http:\/\/www.przedszkolebliskosci.pl","ref:regon":"386934002","operator":"Joanna Lesicka","operator:type":"private","amenity":"kindergarten"}},{"id":130184,"type":"Feature","geometry":{"type":"Point","coordinates":[17.01256,51.08359]},"properties":{"ref:rspo":130184,"official_name":"Terapeutyczny Punkt Przedszkolny Subrideo 2","name":"Terapeutyczny Punkt Przedszkolny Subrideo 2","addr:country":"PL","addr:postcode":"53-123","addr:city":"Wroc\u0142aw","addr:street":"al. Jaworowa","addr:housenumber":"8a","addr:teryt:simc":7393,"addr:teryt:sym_ul":986544,"contact:phone":"+48 666991685","contact:email":"kontakt@subrideo.pl","contact:website":"http:\/\/www.subrideo.pl","ref:regon":"363642585","operator":"Daniel Sobczyk","operator:type":"private","amenity":"kindergarten"}},{"id":23923,"type":"Feature","geometry":{"type":"Point","coordinates":[17.02248,51.08374]},"properties":{"isced:level":"4","ref:rspo":23923,"official_name":"Policealne Studium Promocja","name":"Policealne Studium Promocja","addr:country":"PL","addr:postcode":"53-126","addr:city":"Wroc\u0142aw","addr:street":"al. Wi\u015bniowa","addr:housenumber":"81","addr:teryt:simc":24411,"addr:teryt:sym_ul":986544,"contact:phone":"+48 693900466","contact:email":"info@promocja.edu.pl","contact:website":"http:\/\/www.promocja.edu.pl","ref:regon":"021983816","operator":"Maciej Choroma\u0144ski","operator:type":"private","amenity":"college"}},{"id":129315,"type":"Feature","geometry":{"type":"Point","coordinates":[17.02248,51.083709999999996]},"properties":{"ref:rspo":129315,"official_name":"O\u015brodek Edukacji Primo Loco","name":"O\u015brodek Edukacji Primo Loco","addr:country":"PL","addr:postcode":"53-126","addr:city":"Wroc\u0142aw","addr:street":"al. Wi\u015bniowa","addr:housenumber":"81","addr:teryt:simc":24411,"addr:teryt:sym_ul":986544,"contact:phone":"+48 535815004","contact:email":"o.e.primoloco@tlen.pl","contact:website":"http:\/\/facebook.com\/o.e.primoloco","ref:regon":"362580617","operator":"Fundacja K4","operator:type":"ngo","fixme":"w zale\u017cno\u015bci od przedmiotu dzia\u0142alno\u015bci (np. amenity=training + training=*, amenity=dancing_school, amenity=language_school, amenity=music_school)"}},{"id":129699,"type":"Feature","geometry":{"type":"Point","coordinates":[17.02248,51.08368]},"properties":{"ref:rspo":129699,"official_name":"Educata Niepubliczna Poradnia Psychologiczno-Pedagogiczna we Wroc\u0142awiu","name":"Educata Niepubliczna Poradnia Psychologiczno-Pedagogiczna we Wroc\u0142awiu","addr:country":"PL","addr:postcode":"53-126","addr:city":"Wroc\u0142aw","addr:street":"al. Wi\u015bniowa","addr:housenumber":"81","addr:teryt:simc":24411,"addr:teryt:sym_ul":986544,"contact:phone":"+48 693111602","contact:email":"educata@educata.pl","contact:website":"http:\/\/www.educata.pl","ref:regon":"362792845","operator":"Justyna Posadzy","operator:type":"private","healthcare":"councelling","counselling_type":"education","fixme":"w zale\u017cno\u015bci od przedmiotu dzia\u0142alno\u015bci (np. healthcare=councelling + counselling_type=education albo healthcare=psychotherapist)"}},{"id":268571,"type":"Feature","geometry":{"type":"Point","coordinates":[17.02248,51.08365]},"properties":{"isced:level":"4","ref:rspo":268571,"official_name":"Europejska Szko\u0142a Integracji Spo\u0142ecznej Terra Nova","name":"Europejska Szko\u0142a Integracji Spo\u0142ecznej Terra Nova","addr:country":"PL","addr:postcode":"53-126","addr:city":"Wroc\u0142aw","addr:street":"al. Wi\u015bniowa","addr:housenumber":"81","addr:teryt:simc":24411,"addr:teryt:sym_ul":986544,"contact:phone":"+48 507790230","contact:email":"sekretariat@terranova.edu.pl","contact:website":"http:\/\/terranova.edu.pl","ref:regon":"381220284","operator":"Europejska Szko\u0142a Integracji Spo\u0142ecznej \"Terra Nova\" Sp\u00f3\u0142ka Z Ograniczon\u0105 Odpowiedzialno\u015bci\u0105","operator:type":"private","amenity":"college"}},{"id":271108,"type":"Feature","geometry":{"type":"Point","coordinates":[17.02248,51.083619999999996]},"properties":{"ref:rspo":271108,"official_name":"O\u015brodek Kszta\u0142cenia Zawodowego we Wroc\u0142awiu","name":"O\u015brodek Kszta\u0142cenia Zawodowego we Wroc\u0142awiu","addr:country":"PL","addr:postcode":"53-126","addr:city":"Wroc\u0142aw","addr:street":"al. Wi\u015bniowa","addr:housenumber":"81","addr:teryt:simc":24411,"addr:teryt:sym_ul":986544,"contact:phone":"+48 713372110","contact:email":"biuro@dzdz.neostrada.pl","ref:regon":"383088676","operator":"Dolno\u015bl\u0105ski Zak\u0142ad Doskonalenia Zawodowego We Wroc\u0142awiu","operator:type":"ngo","fixme":"w zale\u017cno\u015bci od przedmiotu dzia\u0142alno\u015bci (np. amenity=training + training=*, amenity=dancing_school, amenity=language_school, amenity=music_school)"}},{"id":276323,"type":"Feature","geometry":{"type":"Point","coordinates":[17.02248,51.08359]},"properties":{"ref:rspo":276323,"official_name":"Niepubliczna Plac\u00f3wka Kszta\u0142cenia Ustawicznego Instytut Rozwoju Terra Nova","name":"Niepubliczna Plac\u00f3wka Kszta\u0142cenia Ustawicznego Instytut Rozwoju Terra Nova","addr:country":"PL","addr:postcode":"53-126","addr:city":"Wroc\u0142aw","addr:street":"al. Wi\u015bniowa","addr:housenumber":"81","addr:teryt:simc":24411,"addr:teryt:sym_ul":986544,"contact:phone":"+48 502476344","contact:email":"sekretariat@terranova.edu.pl","contact:website":"https:\/\/terranova.edu.pl\/","ref:regon":"387099464","operator":"Europejska Szko\u0142a Integracji Spo\u0142ecznej \"Terra Nova\" Sp\u00f3\u0142ka Z Ograniczon\u0105 Odpowiedzialno\u015bci\u0105","operator:type":"private","fixme":"w zale\u017cno\u015bci od przedmiotu dzia\u0142alno\u015bci (np. amenity=training + training=*, amenity=dancing_school, amenity=language_school, amenity=music_school)"}},{"id":277218,"type":"Feature","geometry":{"type":"Point","coordinates":[17.05224,51.08394]},"properties":{"ref:rspo":277218,"official_name":"Publiczne Przedszkole Parasolka","name":"Publiczne Przedszkole Parasolka","addr:country":"PL","addr:postcode":"50-505","addr:city":"Wroc\u0142aw","addr:street":"ul. Nyska","addr:housenumber":"81","addr:door":"u14","addr:teryt:simc":14559,"addr:teryt:sym_ul":986544,"contact:phone":"+48 695865332","contact:email":"kontakt@parasolka.fun","contact:website":"http:\/\/www.parasolka.fun","ref:regon":"388418010","operator":"Optimistii Sp\u00f3\u0142ka Z Ograniczon\u0105 Odpowiedzialno\u015bci\u0105","operator:type":"private","amenity":"kindergarten"}},{"id":24506,"type":"Feature","geometry":{"type":"Point","coordinates":[17.0485003,51.0841401]},"properties":{"ref:rspo":24506,"official_name":"Przedszkole Nr 92","name":"Przedszkole Nr 92","addr:country":"PL","addr:postcode":"50-516","addr:city":"Wroc\u0142aw","addr:street":"ul. Bardzka","addr:housenumber":"5","addr:teryt:simc":754,"addr:teryt:sym_ul":986544,"contact:phone":"+48 717986822","contact:email":"sekretariat.p092@wroclawskaedukacja.pl","contact:website":"http:\/\/www.przedszkole92.wroclaw.szkolnastrona.pl","ref:regon":"930113419","ref:vatin":"PL8971617256","operator":"Gmina Wroc\u0142aw","operator:type":"government","amenity":"kindergarten"}},{"id":118412,"type":"Feature","geometry":{"type":"Point","coordinates":[17.01851,51.08435]},"properties":{"ref:rspo":118412,"official_name":"Niepubliczny Punkt Przedszkolny Promitis","name":"Niepubliczny Punkt Przedszkolny Promitis","addr:country":"PL","addr:postcode":"53-129","addr:city":"Wroc\u0142aw","addr:street":"ul. Sudecka","addr:housenumber":"100","addr:teryt:simc":21525,"addr:teryt:sym_ul":986544,"contact:phone":"+48 533542571","contact:email":"wroclaw@autyzm-przedszkole.pl","contact:website":"http:\/\/www.autyzm-przedszkole.pl","ref:regon":"022207103","operator":"Piotr Langiewicz","operator:type":"private","amenity":"kindergarten"}},{"id":20635,"type":"Feature","geometry":{"type":"Point","coordinates":[17.0492013,51.0844184]},"properties":{"ref:rspo":20635,"official_name":"Rzymsko-Katolicka Parafia P.w. Ducha \u015awi\u0119tego - Domowe Przedszkole \"Duszek\"","name":"Rzymsko-Katolicka Parafia P.w. Ducha \u015awi\u0119tego - Domowe Przedszkole \"Duszek\"","addr:country":"PL","addr:postcode":"50-517","addr:city":"Wroc\u0142aw","addr:street":"ul. Bardzka","addr:housenumber":"2","addr:door":"4","addr:teryt:simc":754,"addr:teryt:sym_ul":986544,"contact:phone":"+48 717826171","contact:email":"duszek@archidiecezja.wroc.pl","contact:website":"http:\/\/www.duchsw.archidiecezja.wroc.pl","ref:regon":"021979424","operator":"Parafia Rzym.-Kat. Pw. Ducha \u015awi\u0119tego","operator:type":"religious","amenity":"kindergarten"}},{"id":60378,"type":"Feature","geometry":{"type":"Point","coordinates":[17.01456,51.08452]},"properties":{"ref:rspo":60378,"official_name":"Instytut Bada\u0144 w O\u015bwiacie O\u015brodek Szkoleniowy","name":"Instytut Bada\u0144 w O\u015bwiacie O\u015brodek Szkoleniowy","addr:country":"PL","addr:postcode":"53-125","addr:city":"Wroc\u0142aw","addr:street":"al. Kasztanowa","addr:housenumber":"9","addr:teryt:simc":8170,"addr:teryt:sym_ul":986544,"contact:phone":"+48 713102875","contact:email":"ibo@ibo.edu.pl","ref:regon":"022000247","operator":"Instytut Bada\u0144 W O\u015bwiacie Sp\u00f3\u0142ka Z Ograniczon\u0105 Odpowiedzialno\u015bci\u0105","operator:type":"private","amenity":"training"}},{"id":268038,"type":"Feature","geometry":{"type":"Point","coordinates":[17.0187199,51.0846]},"properties":{"isced:level":"1;2","ref:rspo":268038,"official_name":"Autorska Szko\u0142a Podstawowa Navigo Wroc\u0142aw","name":"Autorska Szko\u0142a Podstawowa Navigo Wroc\u0142aw","addr:country":"PL","addr:postcode":"53-129","addr:city":"Wroc\u0142aw","addr:street":"ul. Sudecka","addr:housenumber":"98","addr:teryt:simc":21525,"addr:teryt:sym_ul":986544,"contact:phone":"+48 533110125","contact:email":"szkola@navigo.szkola.pl","contact:website":"http:\/\/www.navigo.szkola.pl","ref:regon":"380904916","operator":"Innowacyjna Edukacja Sp\u00f3\u0142ka Z Ograniczon\u0105 Odpowiedzialno\u015bci\u0105","operator:type":"private","amenity":"school"}},{"id":278744,"type":"Feature","geometry":{"type":"Point","coordinates":[17.00677,51.08484]},"properties":{"isced:level":"3","ref:rspo":278744,"official_name":"Autorskie Liceum Navigo Wroc\u0142aw","name":"Autorskie Liceum Navigo Wroc\u0142aw","addr:country":"PL","addr:postcode":"53-148","addr:city":"Wroc\u0142aw","addr:street":"ul. Jastrz\u0119bia","addr:housenumber":"18-20","addr:teryt:simc":7354,"addr:teryt:sym_ul":986544,"contact:phone":"+48 535601111","contact:email":"wroclaw@navigoliceum.pl","contact:website":"http:\/\/www.navigoliceum.pl","ref:regon":"520072592","operator":"Liceum Navigo Wroc\u0142aw Sp\u00f3\u0142ka Z Ograniczon\u0105 Odpowiedzialno\u015bci\u0105","operator:type":"private","amenity":"school"}},{"id":133794,"type":"Feature","geometry":{"type":"Point","coordinates":[17.00507,51.08527]},"properties":{"isced:level":"1;2","ref:rspo":133794,"official_name":"Szko\u0142a Podstawowa Nr 81 im. Wandy Rutkiewicz","name":"Szko\u0142a Podstawowa Nr 81","addr:country":"PL","addr:postcode":"53-148","addr:city":"Wroc\u0142aw","addr:street":"ul. Jastrz\u0119bia","addr:housenumber":"26","addr:teryt:simc":7354,"addr:teryt:sym_ul":986544,"contact:phone":"+48 717986715","contact:email":"sekretariat.sp081@wroclawskaedukacja.pl","contact:website":"http:\/\/www.sp81.wroclaw.pl","ref:regon":"367654361","operator":"Gmina Wroc\u0142aw","operator:type":"government","amenity":"school"}},{"id":106870,"type":"Feature","geometry":{"type":"Point","coordinates":[17.01049,51.08551]},"properties":{"isced:level":"4","ref:rspo":106870,"official_name":"Policealne Studium Reklamy","name":"Policealne Studium Reklamy","addr:country":"PL","addr:postcode":"54-146","addr:city":"Wroc\u0142aw","addr:street":"ul. Rac\u0142awicka","addr:housenumber":"2\/4","addr:teryt:simc":18273,"addr:teryt:sym_ul":986544,"contact:phone":"+48 713418018","ref:regon":"022054415","operator":"Dane Do Uzupe\u0142nienia","operator:type":"private","amenity":"college"}},{"id":106559,"type":"Feature","geometry":{"type":"Point","coordinates":[17.02747,51.08572]},"properties":{"isced:level":"3","ref:rspo":106559,"official_name":"Liceum Og\u00f3lnokszta\u0142c\u0105ce Nr V im. Genera\u0142a Jakuba Jasi\u0144skiego","name":"Liceum Og\u00f3lnokszta\u0142c\u0105ce Nr V","addr:country":"PL","addr:postcode":"50-550","addr:city":"Wroc\u0142aw","addr:street":"ul. Jacka Kuronia","addr:housenumber":"14","addr:teryt:simc":40565,"addr:teryt:sym_ul":986544,"contact:phone":"+48 717986913","contact:email":"vlo@lo5.wroc.pl","contact:website":"http:\/\/www.lo5.wroc.pl","ref:regon":"000210022","ref:vatin":"PL8942561524","operator":"Gmina Wroc\u0142aw","operator:type":"government","amenity":"school"}},{"id":14076,"type":"Feature","geometry":{"type":"Point","coordinates":[17.05364,51.08597]},"properties":{"isced:level":"1;2","ref:rspo":14076,"official_name":"Szko\u0142a Podstawowa Nr 9 im. Wincentego Pola","name":"Szko\u0142a Podstawowa Nr 9","addr:country":"PL","addr:postcode":"50-505","addr:city":"Wroc\u0142aw","addr:street":"ul. Nyska","addr:housenumber":"66","addr:teryt:simc":14559,"addr:teryt:sym_ul":986544,"contact:phone":"+48 717986872","contact:email":"sekretariat.sp009@wroclawskaedukacja.pl","contact:website":"http:\/\/www.sp9.wroclaw.pl","ref:regon":"000692995","ref:vatin":"PL8992087272","operator":"Gmina Wroc\u0142aw","operator:type":"government","amenity":"school"}},{"id":11301,"type":"Feature","geometry":{"type":"Point","coordinates":[17.05578,51.08601]},"properties":{"ref:rspo":11301,"official_name":"Publiczne Przedszkole \"Pitagoras\"","name":"Publiczne Przedszkole \"Pitagoras\"","addr:country":"PL","addr:postcode":"50-506","addr:city":"Wroc\u0142aw","addr:street":"ul. Pi\u0119kna","addr:housenumber":"56j","addr:teryt:simc":16191,"addr:teryt:sym_ul":986544,"contact:phone":"+48 501669970","contact:email":"pitagoras.wroclaw@operator.edu.pl","contact:website":"http:\/\/www.pitagoras-wroclaw.familijnywroclaw.pl","ref:regon":"021958818","operator":"Og\u00f3lnopolski Operator O\u015bwiaty","operator:type":"ngo","amenity":"kindergarten"}},{"id":14702,"type":"Feature","geometry":{"type":"Point","coordinates":[17.03999,51.0866]},"properties":{"ref:rspo":14702,"official_name":"Zesp\u00f3\u0142 Szkolno-Przedszkolny Nr 17","name":"Zesp\u00f3\u0142 Szkolno-Przedszkolny Nr 17","addr:country":"PL","addr:postcode":"50-550","addr:city":"Wroc\u0142aw","addr:street":"ul. Wieczysta","addr:housenumber":"105","addr:teryt:simc":24043,"addr:teryt:sym_ul":986544,"contact:phone":"+48 717986923","contact:email":"sekretariat.zsp17@wroclawskaedukacja.pl","contact:website":"http:\/\/www.sp17.net.pl","ref:regon":"021018995","ref:vatin":"PL8992675112","operator":"Gmina Wroc\u0142aw","operator:type":"government","landuse":"education","fixme":"amenity=school, amenity=college albo landuse=education w zale\u017cno\u015bci od tego, jakie plac\u00f3wki wchodz\u0105 w sk\u0142ad zespo\u0142u. Sprawd\u017a, kiedy stosowa\u0107 amenity=* a kiedy landuse=education.","note":"Children RSPO: 21537;23397"}},{"id":21537,"type":"Feature","geometry":{"type":"Point","coordinates":[17.03999,51.086569999999995]},"properties":{"isced:level":"1;2","ref:rspo":21537,"official_name":"Szko\u0142a Podstawowa Nr 17 im. Prof. Stanis\u0142awa Kulczy\u0144skiego","name":"Szko\u0142a Podstawowa Nr 17","addr:country":"PL","addr:postcode":"50-550","addr:city":"Wroc\u0142aw","addr:street":"ul. Wieczysta","addr:housenumber":"105","addr:teryt:simc":24043,"addr:teryt:sym_ul":986544,"contact:phone":"+48 717986923","contact:email":"sekretariat.zsp17@wroclawskaedukacja.pl","contact:website":"http:\/\/www.sp17.net.pl","ref:regon":"000814493","operator":"Gmina Wroc\u0142aw","operator:type":"government","amenity":"school","note":"Parent RSPO: 14702"}},{"id":23397,"type":"Feature","geometry":{"type":"Point","coordinates":[17.03999,51.08654]},"properties":{"ref:rspo":23397,"official_name":"Przedszkole Nr 9 Ma\u0142y Czytelnik","name":"Przedszkole Nr 9 Ma\u0142y Czytelnik","addr:country":"PL","addr:postcode":"50-550","addr:city":"Wroc\u0142aw","addr:street":"ul. Wieczysta","addr:housenumber":"105","addr:teryt:simc":24043,"addr:teryt:sym_ul":986544,"contact:phone":"+48 717986923","contact:email":"sekretariat.p009@wroclawskaedukacja.pl","contact:website":"http:\/\/www.sp17.net.pl\/p9\/","ref:regon":"021018914","operator":"Gmina Wroc\u0142aw","operator:type":"government","amenity":"kindergarten","note":"Parent RSPO: 14702"}},{"id":31523,"type":"Feature","geometry":{"type":"Point","coordinates":[17.03454,51.08697]},"properties":{"ref:rspo":31523,"official_name":"Zesp\u00f3\u0142 Szk\u00f3\u0142 Nr 2","name":"Zesp\u00f3\u0142 Szk\u00f3\u0142 Nr 2","addr:country":"PL","addr:postcode":"50-551","addr:city":"Wroc\u0142aw","addr:street":"ul. Borowska","addr:housenumber":"105","addr:teryt:simc":1866,"addr:teryt:sym_ul":986544,"contact:phone":"+48 717986895","contact:email":"sekretariat@zs2.wroclaw.pl","contact:website":"http:\/\/www.zs2.wroclaw.pl","ref:regon":"000186418","ref:vatin":"PL8992155217","operator":"Gmina Wroc\u0142aw","operator:type":"government","landuse":"education","fixme":"amenity=school, amenity=college albo landuse=education w zale\u017cno\u015bci od tego, jakie plac\u00f3wki wchodz\u0105 w sk\u0142ad zespo\u0142u. Sprawd\u017a, kiedy stosowa\u0107 amenity=* a kiedy landuse=education.","note":"Children RSPO: 89183;89184;274842"}},{"id":89183,"type":"Feature","geometry":{"type":"Point","coordinates":[17.03454,51.08694]},"properties":{"isced:level":"3","ref:rspo":89183,"official_name":"Technikum Nr 2 im. I Korpusu Pancernego Wojska Polskiego","name":"Technikum Nr 2","addr:country":"PL","addr:postcode":"50-551","addr:city":"Wroc\u0142aw","addr:street":"ul. Borowska","addr:housenumber":"105","addr:teryt:simc":1866,"addr:teryt:sym_ul":986544,"contact:phone":"+48 717986895","contact:email":"sekretariat.zs02@wroclawskaedukacja.pl","ref:regon":"020590842","ref:vatin":"PL8992155217","operator":"Gmina Wroc\u0142aw","operator:type":"government","amenity":"school","note":"Parent RSPO: 31523"}},{"id":89184,"type":"Feature","geometry":{"type":"Point","coordinates":[17.03454,51.08691]},"properties":{"isced:level":"3","ref:rspo":89184,"official_name":"Bran\u017cowa Szko\u0142a I Stopnia Nr 2","name":"Bran\u017cowa Szko\u0142a I Stopnia Nr 2","addr:country":"PL","addr:postcode":"50-551","addr:city":"Wroc\u0142aw","addr:street":"ul. Borowska","addr:housenumber":"105","addr:teryt:simc":1866,"addr:teryt:sym_ul":986544,"contact:phone":"+48 717986895","contact:email":"sekretariat.zs02@wroclawskaedukacja.pl","ref:regon":"932825199","ref:vatin":"PL8992155217","operator":"Gmina Wroc\u0142aw","operator:type":"government","amenity":"school","note":"Parent RSPO: 31523"}},{"id":274842,"type":"Feature","geometry":{"type":"Point","coordinates":[17.03454,51.08688]},"properties":{"isced:level":"3","ref:rspo":274842,"official_name":"Bran\u017cowa Szko\u0142a II Stopnia Nr 2","name":"Bran\u017cowa Szko\u0142a II Stopnia Nr 2","addr:country":"PL","addr:postcode":"50-551","addr:city":"Wroc\u0142aw","addr:street":"ul. Borowska","addr:housenumber":"105","addr:teryt:simc":1866,"addr:teryt:sym_ul":986544,"contact:phone":"+48 717986895","contact:email":"sekretariat@zs2.wroclaw.pl","contact:website":"http:\/\/www.zs2.wroclaw.pl","ref:regon":"386337335","operator":"Gmina Wroc\u0142aw","operator:type":"government","amenity":"school","note":"Parent RSPO: 31523"}},{"id":124500,"type":"Feature","geometry":{"type":"Point","coordinates":[17.019648,51.087306]},"properties":{"isced:level":"1;2","ref:rspo":124500,"official_name":"Niepubliczna Szko\u0142a Podstawowa \"International Primary School\"","name":"Niepubliczna Szko\u0142a Podstawowa \"International Primary School\"","addr:country":"PL","addr:postcode":"53-312","addr:city":"Wroc\u0142aw","addr:street":"ul. Drukarska","addr:housenumber":"52","addr:teryt:simc":4279,"addr:teryt:sym_ul":986544,"contact:phone":"+48 536839858","contact:email":"administration@ipschool.pl","contact:website":"http:\/\/www.ipschool.pl","ref:regon":"022487203","operator":"Construction & Education Services Sp\u00f3\u0142ka Z Ograniczon\u0105 Odpowiedzialno\u015bci\u0105","operator:type":"private","amenity":"school"}},{"id":263065,"type":"Feature","geometry":{"type":"Point","coordinates":[17.019648,51.087275999999996]},"properties":{"ref:rspo":263065,"official_name":"Niepubliczne Przedszkole \"International Playschool\"","name":"Niepubliczne Przedszkole \"International Playschool\"","addr:country":"PL","addr:postcode":"53-312","addr:city":"Wroc\u0142aw","addr:street":"ul. Drukarska","addr:housenumber":"52","addr:teryt:simc":4279,"addr:teryt:sym_ul":986544,"contact:phone":"+48 511185825","contact:email":"karolina.plaszczyk@playschool.pl","contact:website":"http:\/\/www.ipschool.pl","ref:regon":"368102280","operator":"Construction & Education Services Sp\u00f3\u0142ka Z Ograniczon\u0105 Odpowiedzialno\u015bci\u0105","operator:type":"private","amenity":"kindergarten"}},{"id":131243,"type":"Feature","geometry":{"type":"Point","coordinates":[17.0431,51.0874499]},"properties":{"ref:rspo":131243,"official_name":"Faber - Centrum Szkoleniowe we Wroc\u0142awiu","name":"Faber - Centrum Szkoleniowe we Wroc\u0142awiu","addr:country":"PL","addr:postcode":"50-518","addr:city":"Wroc\u0142aw","addr:street":"ul. \u015bw. Jerzego","addr:housenumber":"4","addr:teryt:simc":7492,"addr:teryt:sym_ul":986544,"contact:phone":"+48 780155102","contact:email":"wroclaw@faber.edu.pl","contact:website":"http:\/\/www.faber.edu.pl","ref:regon":"365083948","operator":"Anna Duda","operator:type":"private","fixme":"w zale\u017cno\u015bci od przedmiotu dzia\u0142alno\u015bci (np. amenity=training + training=*, amenity=dancing_school, amenity=language_school, amenity=music_school)"}},{"id":133894,"type":"Feature","geometry":{"type":"Point","coordinates":[17.0431,51.0874199]},"properties":{"isced:level":"1;2","ref:rspo":133894,"official_name":"Szko\u0142a Podstawowa Nr 77 im. Tadeusza R\u00f3\u017cewicza","name":"Szko\u0142a Podstawowa Nr 77","addr:country":"PL","addr:postcode":"50-518","addr:city":"Wroc\u0142aw","addr:street":"ul. \u015bw. Jerzego","addr:housenumber":"4","addr:teryt:simc":7492,"addr:teryt:sym_ul":986544,"contact:phone":"+48 717986713","contact:email":"sekretariat.sp077@wroclawskaedukacja.pl","contact:website":"http:\/\/www.sp77.wroc.pl","ref:regon":"367745709","operator":"Gmina Wroc\u0142aw","operator:type":"government","amenity":"school"}},{"id":20919,"type":"Feature","geometry":{"type":"Point","coordinates":[17.0366,51.0875]},"properties":{"ref:rspo":20919,"official_name":"Specjalny O\u015brodek Szkolno-Wychowawczy Nr 11 im.j\u00f3zefy Joteyko","name":"Specjalny O\u015brodek Szkolno-Wychowawczy Nr 11 im.j\u00f3zefy Joteyko","addr:country":"PL","addr:postcode":"50-547","addr:city":"Wroc\u0142aw","addr:street":"ul. Kamienna","addr:housenumber":"99-101","addr:teryt:simc":7879,"addr:teryt:sym_ul":986544,"contact:phone":"+48 717986835","contact:email":"sekretariat.sosw11@wroclawskaedukacja.pl","contact:website":"http:\/\/www.sosw11.wroclaw.pl","ref:regon":"932113286","ref:vatin":"PL8992359807","operator":"Gmina Wroc\u0142aw","operator:type":"government","amenity":"school","note":"Children RSPO: 92084;271737"}},{"id":92084,"type":"Feature","geometry":{"type":"Point","coordinates":[17.0366,51.087469999999996]},"properties":{"isced:level":"3","ref:rspo":92084,"official_name":"Bran\u017cowa Szko\u0142a Specjalna I Stopnia Nr 14","name":"Bran\u017cowa Szko\u0142a Specjalna I Stopnia Nr 14","addr:country":"PL","addr:postcode":"50-547","addr:city":"Wroc\u0142aw","addr:street":"ul. Kamienna","addr:housenumber":"99-101","addr:teryt:simc":7879,"addr:teryt:sym_ul":986544,"contact:phone":"+48 717986835","contact:email":"sekretariat.sosw11@wroclawskaedukacja.pl","contact:website":"http:\/\/www.wroclaw.sosw11.pl","ref:regon":"932113263","operator":"Gmina Wroc\u0142aw","operator:type":"government","amenity":"school","note":"Parent RSPO: 20919"}},{"id":271737,"type":"Feature","geometry":{"type":"Point","coordinates":[17.0366,51.08744]},"properties":{"isced:level":"1;2","ref:rspo":271737,"official_name":"Szko\u0142a Podstawowa Specjalna Nr 104","name":"Szko\u0142a Podstawowa Specjalna Nr 104","addr:country":"PL","addr:postcode":"50-547","addr:city":"Wroc\u0142aw","addr:street":"ul. Kamienna","addr:housenumber":"99-101","addr:teryt:simc":7879,"addr:teryt:sym_ul":986544,"contact:phone":"+48 717986835","contact:email":"sekretariat.sosw11@wroclawskaedukacja.pl","contact:website":"http:\/\/www.sosw11.wroclaw.pl","ref:regon":"383592937","operator":"Gmina Wroc\u0142aw","operator:type":"government","amenity":"school","note":"Parent RSPO: 20919"}},{"id":20924,"type":"Feature","geometry":{"type":"Point","coordinates":[17.03441,51.08785]},"properties":{"ref:rspo":20924,"official_name":"Zesp\u00f3\u0142 Plac\u00f3wek O\u015bwiatowych Nr 3","name":"Zesp\u00f3\u0142 Plac\u00f3wek O\u015bwiatowych Nr 3","addr:country":"PL","addr:postcode":"50-551","addr:city":"Wroc\u0142aw","addr:street":"ul. Borowska","addr:housenumber":"101","addr:teryt:simc":1866,"addr:teryt:sym_ul":986544,"contact:phone":"+48 717986884","contact:email":"sekretariat.zpo3@wroclawskaedukacja.pl","contact:website":"http:\/\/www.zpo3wroclaw.edupage.org","ref:regon":"021323630","ref:vatin":"PL8992700672","operator":"Gmina Wroc\u0142aw","operator:type":"government","landuse":"education","fixme":"amenity=school, amenity=college albo landuse=education w zale\u017cno\u015bci od tego, jakie plac\u00f3wki wchodz\u0105 w sk\u0142ad zespo\u0142u. Sprawd\u017a, kiedy stosowa\u0107 amenity=* a kiedy landuse=education.","note":"Children RSPO: 92640;126482"}},{"id":92640,"type":"Feature","geometry":{"type":"Point","coordinates":[17.03441,51.08782]},"properties":{"ref:rspo":92640,"official_name":"Specjalistyczna Poradnia Terapeutyczna","name":"Specjalistyczna Poradnia Terapeutyczna","addr:country":"PL","addr:postcode":"50-551","addr:city":"Wroc\u0142aw","addr:street":"ul. Borowska","addr:housenumber":"101","addr:teryt:simc":1866,"addr:teryt:sym_ul":986544,"contact:phone":"+48 717986884","contact:email":"sekretariat.zpo3@wroclawskaedukacja.pl","contact:website":"http:\/\/www.zpo3wroclaw.edupage.org","ref:regon":"933035418","operator":"Gmina Wroc\u0142aw","operator:type":"government","fixme":"w zale\u017cno\u015bci od przedmiotu dzia\u0142alno\u015bci (np. healthcare=councelling + counselling_type=education albo healthcare=psychotherapist)","note":"Parent RSPO: 20924"}},{"id":126482,"type":"Feature","geometry":{"type":"Point","coordinates":[17.03441,51.087790000000005]},"properties":{"ref:rspo":126482,"official_name":"M\u0142odzie\u017cowy O\u015brodek Wychowawczy im. Wojtka Bellona","name":"M\u0142odzie\u017cowy O\u015brodek Wychowawczy","addr:country":"PL","addr:postcode":"50-551","addr:city":"Wroc\u0142aw","addr:street":"ul. Borowska","addr:housenumber":"101","addr:teryt:simc":1866,"addr:teryt:sym_ul":986544,"contact:phone":"+48 717986884","contact:email":"sekretariat.zpo3@wroclawskaedukacja.pl","contact:website":"http:\/\/www.zpo3wroclaw.edupage.org","ref:regon":"000179772","ref:vatin":"PL8991838440","operator":"Gmina Wroc\u0142aw","operator:type":"government","fixme":"amenity=social facility + social_facility=group_home + social_facility:for=juvenile","note":"Children RSPO: 92639Parent RSPO: 20924"}},{"id":92639,"type":"Feature","geometry":{"type":"Point","coordinates":[17.03441,51.08776]},"properties":{"isced:level":"1;2","ref:rspo":92639,"official_name":"Szko\u0142a Podstawowa Specjalna Nr 88","name":"Szko\u0142a Podstawowa Specjalna Nr 88","addr:country":"PL","addr:postcode":"50-551","addr:city":"Wroc\u0142aw","addr:street":"ul. Borowska","addr:housenumber":"101","addr:teryt:simc":1866,"addr:teryt:sym_ul":986544,"contact:phone":"+48 717986884","contact:email":"sekretariat.zpo3@wroclawskaedukacja.pl","contact:website":"http:\/\/www.zpo3wroclaw.edupage.org","ref:regon":"001012548","operator":"Gmina Wroc\u0142aw","operator:type":"government","amenity":"school","note":"Parent RSPO: 126482"}},{"id":20263,"type":"Feature","geometry":{"type":"Point","coordinates":[17.05767,51.08793]},"properties":{"ref:rspo":20263,"official_name":"Przedszkole Abc","name":"Przedszkole Abc","addr:country":"PL","addr:postcode":"50-541","addr:city":"Wroc\u0142aw","addr:street":"ul. Pi\u0119kna","addr:housenumber":"62B","addr:teryt:simc":16191,"addr:teryt:sym_ul":986544,"contact:phone":"+48 713163853","contact:email":"dyrektor@przedszkoleabc.com","contact:website":"http:\/\/www.przedszkoleabc.com","ref:regon":"021979737","operator":"Katarzyna Borowicz-Gabarska","operator:type":"private","amenity":"kindergarten"}},{"id":42888,"type":"Feature","geometry":{"type":"Point","coordinates":[17.0203099,51.08802]},"properties":{"ref:rspo":42888,"official_name":"Zesp\u00f3\u0142 Szk\u00f3\u0142 Ekonomiczno-Og\u00f3lnokszta\u0142c\u0105cych","name":"Zesp\u00f3\u0142 Szk\u00f3\u0142 Ekonomiczno-Og\u00f3lnokszta\u0142c\u0105cych","addr:country":"PL","addr:postcode":"53-312","addr:city":"Wroc\u0142aw","addr:street":"ul. Drukarska","addr:housenumber":"50","addr:teryt:simc":4279,"addr:teryt:sym_ul":986544,"contact:phone":"+48 717986908","contact:email":"sekretariat.zse@wroclawskaedukacja.pl","contact:website":"http:\/\/www.drukarska.net","ref:regon":"000184796","ref:vatin":"PL8992169159","operator":"Gmina Wroc\u0142aw","operator:type":"government","landuse":"education","fixme":"amenity=school, amenity=college albo landuse=education w zale\u017cno\u015bci od tego, jakie plac\u00f3wki wchodz\u0105 w sk\u0142ad zespo\u0142u. Sprawd\u017a, kiedy stosowa\u0107 amenity=* a kiedy landuse=education.","note":"Children RSPO: 90651;91083"}},{"id":91525,"type":"Feature","geometry":{"type":"Point","coordinates":[17.0203099,51.08799]},"properties":{"isced:level":"4","ref:rspo":91525,"official_name":"Szko\u0142a Policealna \"Cosinus III\" we Wroc\u0142awiu","name":"Szko\u0142a Policealna \"Cosinus III\" we Wroc\u0142awiu","addr:country":"PL","addr:postcode":"53-312","addr:city":"Wroc\u0142aw","addr:street":"ul. Drukarska","addr:housenumber":"50","addr:teryt:simc":4279,"addr:teryt:sym_ul":986544,"contact:phone":"+48 713460079","contact:email":"wroclaw@cosinus.pl","contact:website":"http:\/\/www.cosinus.pl","ref:regon":"022023886","operator":"Fundacja Cosinus Edukacja Wr","operator:type":"ngo","amenity":"college"}},{"id":106157,"type":"Feature","geometry":{"type":"Point","coordinates":[17.0203099,51.08796]},"properties":{"isced:level":"3","ref:rspo":106157,"official_name":"Liceum Sportowe \"Gimbasket\"","name":"Liceum Sportowe \"Gimbasket\"","addr:country":"PL","addr:postcode":"53-312","addr:city":"Wroc\u0142aw","addr:street":"ul. Drukarska","addr:housenumber":"50","addr:teryt:simc":4279,"addr:teryt:sym_ul":986544,"contact:phone":"+48 713252307","contact:email":"sekretariat@gimbasket.edu.pl","ref:regon":"022048840","operator":"Robert Ko\u015bciuk","operator:type":"private","amenity":"school"}},{"id":107014,"type":"Feature","geometry":{"type":"Point","coordinates":[17.0203099,51.08793]},"properties":{"ref:rspo":107014,"official_name":"Centrum Doskonalenia Zawodowego - Stowarzyszenie Expresja","name":"Centrum Doskonalenia Zawodowego - Stowarzyszenie Expresja","addr:country":"PL","addr:postcode":"53-312","addr:city":"Wroc\u0142aw","addr:street":"ul. Drukarska","addr:housenumber":"50","addr:teryt:simc":4279,"addr:teryt:sym_ul":986544,"contact:phone":"+48 514665231","ref:regon":"022056213","operator":"Stowarzyszenia Zawodowe Piel\u0119gniarek I Po\u0142o\u017cnych","operator:type":"ngo","fixme":"w zale\u017cno\u015bci od przedmiotu dzia\u0142alno\u015bci (np. amenity=training + training=*, amenity=dancing_school, amenity=language_school, amenity=music_school)"}},{"id":133948,"type":"Feature","geometry":{"type":"Point","coordinates":[17.0203099,51.0879]},"properties":{"isced:level":"1;2","ref:rspo":133948,"official_name":"Szko\u0142a Podstawowa Unisport","name":"Szko\u0142a Podstawowa Unisport","addr:country":"PL","addr:postcode":"53-312","addr:city":"Wroc\u0142aw","addr:street":"ul. Drukarska","addr:housenumber":"50","addr:teryt:simc":4279,"addr:teryt:sym_ul":986544,"contact:phone":"+48 713252307","contact:email":"sekretariat@gimbasket.edu.pl","contact:website":"http:\/\/www.gimbasket.edu.pl","ref:regon":"367749423","operator":"Robert Ko\u015bciuk","operator:type":"private","amenity":"school"}},{"id":90651,"type":"Feature","geometry":{"type":"Point","coordinates":[17.0203099,51.08787]},"properties":{"isced:level":"3","ref:rspo":90651,"official_name":"Technikum Nr 8 im. Miko\u0142aja Kopernika","name":"Technikum Nr 8","addr:country":"PL","addr:postcode":"50-312","addr:city":"Wroc\u0142aw","addr:street":"ul. Drukarska","addr:housenumber":"50","addr:teryt:simc":4279,"addr:teryt:sym_ul":986544,"contact:phone":"+48 717986908","contact:email":"kontakt@drukarska.net","contact:website":"http:\/\/www.drukarska.net","ref:regon":"020582245","ref:vatin":"PL8992169159","operator":"Gmina Wroc\u0142aw","operator:type":"government","amenity":"school","note":"Parent RSPO: 42888"}},{"id":91083,"type":"Feature","geometry":{"type":"Point","coordinates":[17.0203099,51.08784]},"properties":{"isced:level":"3","ref:rspo":91083,"official_name":"Liceum Og\u00f3lnokszta\u0142c\u0105ce Nr XXIV Z Oddzia\u0142ami Mistrzostwa Sportowego","name":"Liceum Og\u00f3lnokszta\u0142c\u0105ce Nr XXIV Z Oddzia\u0142ami Mistrzostwa Sportowego","addr:country":"PL","addr:postcode":"53-312","addr:city":"Wroc\u0142aw","addr:street":"ul. Drukarska","addr:housenumber":"50","addr:teryt:simc":4279,"addr:teryt:sym_ul":986544,"contact:phone":"+48 717986908","contact:email":"kontakt@drukarska.net","contact:website":"http:\/\/www.drukarska.net","ref:regon":"930662340","ref:vatin":"PL8991773002","operator":"Gmina Wroc\u0142aw","operator:type":"government","amenity":"school","note":"Parent RSPO: 42888"}},{"id":14807,"type":"Feature","geometry":{"type":"Point","coordinates":[17.01109,51.08826]},"properties":{"isced:level":"1;2","ref:rspo":14807,"official_name":"Szko\u0142a Podstawowa Nr 76 Z Oddzia\u0142ami Sportowymi im. I Armii Wojska Polskiego","name":"Szko\u0142a Podstawowa Nr 76 Z Oddzia\u0142ami Sportowymi","addr:country":"PL","addr:postcode":"53-320","addr:city":"Wroc\u0142aw","addr:street":"ul. Wandy","addr:housenumber":"13","addr:teryt:simc":23611,"addr:teryt:sym_ul":986544,"contact:phone":"+48 717986864","contact:email":"sekretariat.sp076@wroclawskaedukacja.pl","contact:website":"http:\/\/www.sp76.wroclaw.pl","ref:regon":"000692914","ref:vatin":"PL8992415782","operator":"Gmina Wroc\u0142aw","operator:type":"government","amenity":"school"}},{"id":42889,"type":"Feature","geometry":{"type":"Point","coordinates":[17.03604,51.08843]},"properties":{"ref:rspo":42889,"official_name":"Zesp\u00f3\u0142 Szk\u00f3\u0142 Gastronomicznych","name":"Zesp\u00f3\u0142 Szk\u00f3\u0142 Gastronomicznych","addr:country":"PL","addr:postcode":"50-547","addr:city":"Wroc\u0142aw","addr:street":"ul. Kamienna","addr:housenumber":"86","addr:teryt:simc":7879,"addr:teryt:sym_ul":986544,"contact:phone":"+48 717986910","contact:email":"sekretariat.zsg@wroclawskaedukacja.pl","contact:website":"http:\/\/www.zsg.wroclaw.pl","ref:regon":"000184307","ref:vatin":"PL8991788802","operator":"Gmina Wroc\u0142aw","operator:type":"government","landuse":"education","fixme":"amenity=school, amenity=college albo landuse=education w zale\u017cno\u015bci od tego, jakie plac\u00f3wki wchodz\u0105 w sk\u0142ad zespo\u0142u. Sprawd\u017a, kiedy stosowa\u0107 amenity=* a kiedy landuse=education.","note":"Children RSPO: 90653;90654;274847"}},{"id":90653,"type":"Feature","geometry":{"type":"Point","coordinates":[17.03604,51.0884]},"properties":{"isced:level":"3","ref:rspo":90653,"official_name":"Technikum Nr 9","name":"Technikum Nr 9","addr:country":"PL","addr:postcode":"50-547","addr:city":"Wroc\u0142aw","addr:street":"ul. Kamienna","addr:housenumber":"86","addr:teryt:simc":7879,"addr:teryt:sym_ul":986544,"contact:phone":"+48 717986910","contact:email":"sekretariat.zsg@wroclawskaedukacja.pl","contact:website":"http:\/\/www.zsg.wroclaw.pl\/","ref:regon":"020592769","ref:vatin":"PL8991788802","operator":"Gmina Wroc\u0142aw","operator:type":"government","amenity":"school","note":"Parent RSPO: 42889"}},{"id":90654,"type":"Feature","geometry":{"type":"Point","coordinates":[17.03604,51.088370000000005]},"properties":{"isced:level":"3","ref:rspo":90654,"official_name":"Bran\u017cowa Szko\u0142a I Stopnia Nr 9","name":"Bran\u017cowa Szko\u0142a I Stopnia Nr 9","addr:country":"PL","addr:postcode":"50-547","addr:city":"Wroc\u0142aw","addr:street":"ul. Kamienna","addr:housenumber":"86","addr:teryt:simc":7879,"addr:teryt:sym_ul":986544,"contact:phone":"+48 717986910","contact:email":"sekretariat.zsg@wroclawskaedukacja.pl","contact:website":"http:\/\/www.zsg.wroclaw.pl","ref:regon":"932932179","operator":"Gmina Wroc\u0142aw","operator:type":"government","amenity":"school","note":"Parent RSPO: 42889"}},{"id":274847,"type":"Feature","geometry":{"type":"Point","coordinates":[17.03604,51.08834]},"properties":{"isced:level":"3","ref:rspo":274847,"official_name":"Bran\u017cowa Szko\u0142a II Stopnia Nr 9","name":"Bran\u017cowa Szko\u0142a II Stopnia Nr 9","addr:country":"PL","addr:postcode":"50-547","addr:city":"Wroc\u0142aw","addr:street":"ul. Kamienna","addr:housenumber":"86","addr:teryt:simc":7879,"addr:teryt:sym_ul":986544,"contact:phone":"+48 717986910","contact:email":"sekretariat.zsg@wroclawskaedukacja.pl","contact:website":"http:\/\/www.zsg.wroclaw.pl","ref:regon":"386337170","operator":"Gmina Wroc\u0142aw","operator:type":"government","amenity":"school","note":"Parent RSPO: 42889"}},{"id":22429,"type":"Feature","geometry":{"type":"Point","coordinates":[17.00809,51.08878]},"properties":{"ref:rspo":22429,"official_name":"Przedszkole Nr 4","name":"Przedszkole Nr 4","addr:country":"PL","addr:postcode":"53-320","addr:city":"Wroc\u0142aw","addr:street":"ul. S\u0142owicza","addr:housenumber":"7-9","addr:teryt:simc":20298,"addr:teryt:sym_ul":986544,"contact:phone":"+48 717986788","contact:email":"sekretariat.p004@wroclawskaedukacja.pl","contact:website":"http:\/\/przedszkole4.edu.wroclaw.pl","ref:regon":"932831774","ref:vatin":"PL8992459555","operator":"Gmina Wroc\u0142aw","operator:type":"government","amenity":"kindergarten"}},{"id":103544,"type":"Feature","geometry":{"type":"Point","coordinates":[17.01788,51.08945]},"properties":{"ref:rspo":103544,"official_name":"Szko\u0142a Muzyczna I St. im. Gra\u017cyny Bacewicz we Wroc\u0142awiu","name":"Szko\u0142a Muzyczna I St.","addr:country":"PL","addr:postcode":"53-314","addr:city":"Wroc\u0142aw","addr:street":"pl. Powsta\u0144c\u00f3w \u015al\u0105skich","addr:housenumber":"12","addr:teryt:simc":17365,"addr:teryt:sym_ul":986544,"contact:phone":"+48 713677820","contact:email":"sm-1-st@wroclaw.home.pl","contact:website":"http:\/\/sm1st.wroclaw.pl","ref:regon":"000278540","operator":"Ministerstwo Kultury I Dziedzictwa Narodowego","operator:type":"public","amenity":"music_school"}},{"id":276540,"type":"Feature","geometry":{"type":"Point","coordinates":[17.01478,51.08979]},"properties":{"ref:rspo":276540,"official_name":"Punkt Przedszkolny Pianoforte","name":"Punkt Przedszkolny Pianoforte","addr:country":"PL","addr:postcode":"53-329","addr:city":"Wroc\u0142aw","addr:street":"pl. Powsta\u0144c\u00f3w \u015al\u0105skich","addr:housenumber":"17","addr:door":"121","addr:teryt:simc":17365,"addr:teryt:sym_ul":986544,"contact:phone":"+48 720889902","contact:email":"przedszkole.pianoforte@gmail.com","contact:website":"http:\/\/pianoforte.edu.pl","ref:regon":"387201017","operator":"Magdalena Friedel","operator:type":"private","amenity":"kindergarten"}},{"id":278666,"type":"Feature","geometry":{"type":"Point","coordinates":[17.01478,51.08976]},"properties":{"ref:rspo":278666,"official_name":"Przedszkole Niepubliczne \"Pianoforte\"","name":"Przedszkole Niepubliczne \"Pianoforte\"","addr:country":"PL","addr:postcode":"52-230","addr:city":"Wroc\u0142aw","addr:street":"pl. Powsta\u0144c\u00f3w \u015al\u0105skich","addr:housenumber":"17","addr:door":"121","addr:teryt:simc":17365,"addr:teryt:sym_ul":986544,"contact:phone":"+48 720889902","contact:email":"przedszkole.pianoforte@gmail.com","ref:regon":"520071345","operator":"Magdalena Friedel","operator:type":"private","amenity":"kindergarten"}},{"id":20916,"type":"Feature","geometry":{"type":"Point","coordinates":[17.06556,51.08995]},"properties":{"ref:rspo":20916,"official_name":"Poradnia Psychologiczno-Pedagogiczna Nr 9","name":"Poradnia Psychologiczno-Pedagogiczna Nr 9","addr:country":"PL","addr:postcode":"50-427","addr:city":"Wroc\u0142aw","addr:street":"ul. Krakowska","addr:housenumber":"102","addr:teryt:simc":9796,"addr:teryt:sym_ul":986544,"contact:phone":"+48 717986832","contact:email":"sekretariat.ppp9@wroclawskaedukacja.pl","contact:website":"http:\/\/www.ppp9-wroc.pl","ref:regon":"000195268","ref:vatin":"PL8992147873","operator":"Gmina Wroc\u0142aw","operator:type":"government","healthcare":"councelling","counselling_type":"education","fixme":"w zale\u017cno\u015bci od przedmiotu dzia\u0142alno\u015bci (np. healthcare=councelling + counselling_type=education albo healthcare=psychotherapist)"}},{"id":47647,"type":"Feature","geometry":{"type":"Point","coordinates":[17.03632,51.09043]},"properties":{"ref:rspo":47647,"official_name":"Przedszkole Nr 119 Zielona \u0141\u0105ka","name":"Przedszkole Nr 119 Zielona \u0141\u0105ka","addr:country":"PL","addr:postcode":"50-521","addr:city":"Wroc\u0142aw","addr:street":"ul. \u0141\u00f3dzka","addr:housenumber":"23","addr:teryt:simc":11710,"addr:teryt:sym_ul":986544,"contact:phone":"+48 717986758","contact:email":"mbednarek0606@wroclawskaedukacja.pl","contact:website":"http:\/\/www.zielonalaka.szkolnastrona.pl","ref:regon":"930113081","ref:vatin":"PL8992316407","operator":"Gmina Wroc\u0142aw","operator:type":"government","amenity":"kindergarten"}},{"id":23612,"type":"Feature","geometry":{"type":"Point","coordinates":[17.00007,51.09048]},"properties":{"ref:rspo":23612,"official_name":"Przedszkole Nr 141 im.marii Kownackiej","name":"Przedszkole Nr 141 im.marii Kownackiej","addr:country":"PL","addr:postcode":"53-325","addr:city":"Wroc\u0142aw","addr:street":"al. gen. J\u00f3zefa Hallera","addr:housenumber":"77a","addr:teryt:simc":6482,"addr:teryt:sym_ul":986544,"contact:phone":"+48 717986769","contact:email":"sekretariat.p031@wroclawskaedukacja.pl","ref:regon":"930112897","ref:vatin":"PL8942565982","operator":"Gmina Wroc\u0142aw","operator:type":"government","amenity":"kindergarten","note":"Parent RSPO: 277683"}},{"id":24516,"type":"Feature","geometry":{"type":"Point","coordinates":[17.04185,51.09075]},"properties":{"ref:rspo":24516,"official_name":"Przedszkole Nr 136 Ma\u0142y Sportowiec","name":"Przedszkole Nr 136 Ma\u0142y Sportowiec","addr:country":"PL","addr:postcode":"50-526","addr:city":"Wroc\u0142aw","addr:street":"ul. Gliniana","addr:housenumber":"85","addr:teryt:simc":5559,"addr:teryt:sym_ul":986544,"contact:phone":"+48 717986767","contact:email":"sekretariat.136@wroclawskaedukacja.pl","contact:website":"http:\/\/www.maly-sportowiec.pl","ref:regon":"930113098","ref:vatin":"PL8992316399","operator":"Gmina Wroc\u0142aw","operator:type":"government","amenity":"kindergarten"}},{"id":271162,"type":"Feature","geometry":{"type":"Point","coordinates":[17.01389,51.09126]},"properties":{"ref:rspo":271162,"official_name":"Niepubliczne Przedszkole \"City Kids 2\"","name":"Niepubliczne Przedszkole \"City Kids 2\"","addr:country":"PL","addr:postcode":"53-330","addr:city":"Wroc\u0142aw","addr:street":"ul. Energetyczna","addr:housenumber":"12","addr:teryt:simc":4801,"addr:teryt:sym_ul":986544,"contact:phone":"+48 602717757","contact:email":"info@citykids.pl","contact:website":"http:\/\/citykids.pl\/energetyczna\/","ref:regon":"383131870","operator":"Marta Kadulska","operator:type":"private","amenity":"kindergarten"}},{"id":41030,"type":"Feature","geometry":{"type":"Point","coordinates":[17.02336,51.09146]},"properties":{"ref:rspo":41030,"official_name":"Przedszkole Nr 108","name":"Przedszkole Nr 108","addr:country":"PL","addr:postcode":"53-312","addr:city":"Wroc\u0142aw","addr:street":"ul. Drukarska","addr:housenumber":"8a","addr:teryt:simc":4279,"addr:teryt:sym_ul":986544,"contact:phone":"+48 717986753","contact:email":"sekretariat.p108@wroclawskaedukacja.pl","contact:website":"http:\/\/www.przedszkole108.edu.wroclaw.pl","ref:regon":"930113052","ref:vatin":"PL8992317708","operator":"Gmina Wroc\u0142aw","operator:type":"government","amenity":"kindergarten"}},{"id":126897,"type":"Feature","geometry":{"type":"Point","coordinates":[17.00865,51.09213]},"properties":{"ref:rspo":126897,"official_name":"Publiczne Przedszkole Centrum Rozwoju Dziecka Berek!","name":"Publiczne Przedszkole Centrum Rozwoju Dziecka Berek!","addr:country":"PL","addr:postcode":"53-407","addr:city":"Wroc\u0142aw","addr:street":"ul. Gajowicka","addr:housenumber":"114-116","addr:teryt:simc":5266,"addr:teryt:sym_ul":986544,"contact:phone":"+48 535212242","contact:email":"biuro@berek.pl","contact:website":"http:\/\/www.berek.pl","ref:regon":"360946853","operator":"Bogus\u0142awa Nowiszewska","operator:type":"private","amenity":"kindergarten"}},{"id":127327,"type":"Feature","geometry":{"type":"Point","coordinates":[17.02636,51.09219]},"properties":{"ref:rspo":127327,"official_name":"Publiczne Przedszkole \"Akademia Pana Kleksa\"","name":"Publiczne Przedszkole \"Akademia Pana Kleksa\"","addr:country":"PL","addr:postcode":"53-341","addr:city":"Wroc\u0142aw","addr:street":"ul. Wielka","addr:housenumber":"18","addr:teryt:simc":24069,"addr:teryt:sym_ul":986544,"contact:phone":"+48 717862620","contact:email":"kleks@przedszkole.wroclaw.pl","contact:website":"http:\/\/www.przedszkole.wroclaw.pl","ref:regon":"361376286","operator":"Danuta Szl\u0119zak","operator:type":"private","amenity":"kindergarten"}},{"id":30746,"type":"Feature","geometry":{"type":"Point","coordinates":[17.01677,51.09295]},"properties":{"ref:rspo":30746,"official_name":"Przedszkole Nr 91 Nasz Domek","name":"Przedszkole Nr 91 Nasz Domek","addr:country":"PL","addr:postcode":"53-416","addr:city":"Wroc\u0142aw","addr:street":"ul. Zaporoska","addr:housenumber":"52a","addr:teryt:simc":25637,"addr:teryt:sym_ul":986544,"contact:phone":"+48 717986821","contact:email":"sekretariat.p091@wroclawskaedukacja.pl","contact:website":"http:\/\/www.przedszkole91.wroclaw.pl","ref:regon":"930113030","ref:vatin":"PL8992316436","operator":"Gmina Wroc\u0142aw","operator:type":"government","amenity":"kindergarten"}},{"id":129023,"type":"Feature","geometry":{"type":"Point","coordinates":[17.01315,51.09302]},"properties":{"ref:rspo":129023,"official_name":"Perfectus Idea Niepubliczna Plac\u00f3wka Kszta\u0142cenia Ustawicznego","name":"Perfectus Idea Niepubliczna Plac\u00f3wka Kszta\u0142cenia Ustawicznego","addr:country":"PL","addr:postcode":"53-330","addr:city":"Wroc\u0142aw","addr:street":"ul. Jantarowa","addr:housenumber":"5","addr:teryt:simc":7216,"addr:teryt:sym_ul":986544,"contact:phone":"+48 509931357","contact:email":"perfectusidea@gmail.com","ref:regon":"362501440","operator":"Perfectus Idea Sp\u00f3\u0142ka Z Ograniczon\u0105 Odpowiedzialno\u015bci\u0105","operator:type":"private","fixme":"w zale\u017cno\u015bci od przedmiotu dzia\u0142alno\u015bci (np. amenity=training + training=*, amenity=dancing_school, amenity=language_school, amenity=music_school)"}},{"id":20673,"type":"Feature","geometry":{"type":"Point","coordinates":[17.06106,51.09306]},"properties":{"ref:rspo":20673,"official_name":"Biomed Centrum Rehabilitacji Poznawczej I Neuroterapii Robert Koz\u0142owski","name":"Biomed Centrum Rehabilitacji Poznawczej I Neuroterapii Robert Koz\u0142owski","addr:country":"PL","addr:postcode":"50-425","addr:city":"Wroc\u0142aw","addr:street":"ul. Krakowska","addr:housenumber":"56-62","addr:teryt:simc":9796,"addr:teryt:sym_ul":986544,"contact:phone":"+48 713361036","contact:email":"centrum@biomed.org.pl","contact:website":"http:\/\/www.biomed.org.pl","ref:regon":"021977767","operator":"Robert Koz\u0142owski","operator:type":"private","fixme":"w zale\u017cno\u015bci od przedmiotu dzia\u0142alno\u015bci (np. amenity=training + training=*, amenity=dancing_school, amenity=language_school, amenity=music_school)"}},{"id":47235,"type":"Feature","geometry":{"type":"Point","coordinates":[17.06106,51.09303]},"properties":{"ref:rspo":47235,"official_name":"O\u015brodek Kszta\u0142cenia I Doskonalenia Zawodowego \"Edukacja\" Sp. Z O.o.","name":"O\u015brodek Kszta\u0142cenia I Doskonalenia Zawodowego \"Edukacja\" Sp. Z O.o.","addr:country":"PL","addr:postcode":"50-425","addr:city":"Wroc\u0142aw","addr:street":"ul. Krakowska","addr:housenumber":"56-62","addr:teryt:simc":9796,"addr:teryt:sym_ul":986544,"contact:phone":"+48 713772100","contact:email":"sekretariat@edukacja.wroc.pl","contact:website":"http:\/\/www.edukacja.wroc.pl","ref:regon":"021994984","operator":"O\u015brodek Kszta\u0142cenia I Doskonalenia Zawodowego \"Edukacja\" Sp\u00f3\u0142ka Z Ograniczon\u0105 Odpowiedzialno\u015bci\u0105","operator:type":"private","fixme":"w zale\u017cno\u015bci od przedmiotu dzia\u0142alno\u015bci (np. amenity=training + training=*, amenity=dancing_school, amenity=language_school, amenity=music_school)"}},{"id":130548,"type":"Feature","geometry":{"type":"Point","coordinates":[17.06106,51.093]},"properties":{"ref:rspo":130548,"official_name":"Niepubliczne Przedszkole \"Bajkowa Przysta\u0144\"","name":"Niepubliczne Przedszkole \"Bajkowa Przysta\u0144\"","addr:country":"PL","addr:postcode":"50-425","addr:city":"Wroc\u0142aw","addr:street":"ul. Krakowska","addr:housenumber":"56-62","addr:teryt:simc":9796,"addr:teryt:sym_ul":986544,"contact:phone":"+48 713772199","contact:email":"dyrektor@bajkowaprzystan.pl","contact:website":"http:\/\/www.bajkowaprzystan.pl","ref:regon":"364205740","operator":"O\u015brodek Kszta\u0142cenia I Doskonalenia Zawodowego \"Edukacja\" Sp\u00f3\u0142ka Z Ograniczon\u0105 Odpowiedzialno\u015bci\u0105","operator:type":"private","amenity":"kindergarten"}},{"id":262639,"type":"Feature","geometry":{"type":"Point","coordinates":[17.06106,51.09297]},"properties":{"isced:level":"1;2","ref:rspo":262639,"official_name":"Szko\u0142a Podstawowa \"Edukacja\" we Wroc\u0142awiu","name":"Szko\u0142a Podstawowa \"Edukacja\" we Wroc\u0142awiu","addr:country":"PL","addr:postcode":"50-425","addr:city":"Wroc\u0142aw","addr:street":"ul. Krakowska","addr:housenumber":"56-62","addr:teryt:simc":9796,"addr:teryt:sym_ul":986544,"contact:phone":"+48 713772155","contact:email":"sekretariat@sp-edukacja.pl","contact:website":"http:\/\/www.sp-edukacja.pl","ref:regon":"368050369","operator":"O\u015brodek Kszta\u0142cenia I Doskonalenia Zawodowego \"Edukacja\" Sp\u00f3\u0142ka Z Ograniczon\u0105 Odpowiedzialno\u015bci\u0105","operator:type":"private","amenity":"school"}},{"id":269094,"type":"Feature","geometry":{"type":"Point","coordinates":[17.06106,51.09294]},"properties":{"isced:level":"3","ref:rspo":269094,"official_name":"Liceum Og\u00f3lnokszta\u0142c\u0105ce \"Edukacja\"","name":"Liceum Og\u00f3lnokszta\u0142c\u0105ce \"Edukacja\"","addr:country":"PL","addr:postcode":"50-425","addr:city":"Wroc\u0142aw","addr:street":"ul. Krakowska","addr:housenumber":"56-62","addr:teryt:simc":9796,"addr:teryt:sym_ul":986544,"contact:phone":"+48 713772104","contact:email":"sekretariat@liceum-edukacja.pl","contact:website":"http:\/\/www.liceum-edukacja.pl","ref:regon":"381371020","operator":"O\u015brodek Kszta\u0142cenia I Doskonalenia Zawodowego \"Edukacja\" Sp\u00f3\u0142ka Z Ograniczon\u0105 Odpowiedzialno\u015bci\u0105","operator:type":"private","amenity":"school"}},{"id":276694,"type":"Feature","geometry":{"type":"Point","coordinates":[17.06106,51.09291]},"properties":{"ref:rspo":276694,"official_name":"Plac\u00f3wka Kszta\u0142cenia Ustawicznego Bernadetta Chudzikowska-\u0141a\u015b","name":"Plac\u00f3wka Kszta\u0142cenia Ustawicznego Bernadetta Chudzikowska-\u0141a\u015b","addr:country":"PL","addr:postcode":"50-425","addr:city":"Wroc\u0142aw","addr:street":"ul. Krakowska","addr:housenumber":"56-62","addr:teryt:simc":9796,"addr:teryt:sym_ul":986544,"contact:phone":"+48 501506846","contact:email":"podologiawroclaw@gmail.com","contact:website":"http:\/\/podologia.wroc.pl","ref:regon":"387370323","operator":"Bernadetta Chudzikowska-\u0141a\u015b","operator:type":"private","fixme":"w zale\u017cno\u015bci od przedmiotu dzia\u0142alno\u015bci (np. amenity=training + training=*, amenity=dancing_school, amenity=language_school, amenity=music_school)"}},{"id":279218,"type":"Feature","geometry":{"type":"Point","coordinates":[17.06106,51.09288]},"properties":{"ref:rspo":279218,"official_name":"Bzb Centrum Kszta\u0142cenia Ustawicznego","name":"Bzb Centrum Kszta\u0142cenia Ustawicznego","addr:country":"PL","addr:postcode":"50-425","addr:city":"Wroc\u0142aw","addr:street":"ul. Krakowska","addr:housenumber":"56-62","addr:teryt:simc":9796,"addr:teryt:sym_ul":986544,"contact:phone":"+48 717503170","contact:email":"szkolenia@bzbuas.com","contact:website":"http:\/\/www.bzbuas.com","ref:regon":"520887414","operator":"Bzb Uas Sp\u00f3\u0142ka Z Ograniczon\u0105 Odpowiedzialno\u015bci\u0105","operator:type":"private","fixme":"w zale\u017cno\u015bci od przedmiotu dzia\u0142alno\u015bci (np. amenity=training + training=*, amenity=dancing_school, amenity=language_school, amenity=music_school)"}},{"id":118415,"type":"Feature","geometry":{"type":"Point","coordinates":[17.03137,51.09321]},"properties":{"isced:level":"1;2","ref:rspo":118415,"official_name":"Niepubliczna Szko\u0142a Podstawowa Montessori we Wroc\u0142awiu","name":"Niepubliczna Szko\u0142a Podstawowa Montessori we Wroc\u0142awiu","addr:country":"PL","addr:postcode":"50-568","addr:city":"Wroc\u0142aw","addr:street":"ul. Sieradzka","addr:housenumber":"5","addr:teryt:simc":19844,"addr:teryt:sym_ul":986544,"contact:phone":"+48 512150140","contact:email":"szkola@szkola-montessori.com.pl","contact:website":"http:\/\/www.szkola-montessori.com.pl","ref:regon":"022207155","operator":"Fundacja Wychowanie Dla Przysz\u0142o\u015bci","operator:type":"ngo","amenity":"school"}},{"id":268451,"type":"Feature","geometry":{"type":"Point","coordinates":[17.03137,51.09318]},"properties":{"ref:rspo":268451,"official_name":"Niepubliczny Punkt Przedszkolny Montessori","name":"Niepubliczny Punkt Przedszkolny Montessori","addr:country":"PL","addr:postcode":"50-568","addr:city":"Wroc\u0142aw","addr:street":"ul. Sieradzka","addr:housenumber":"5","addr:teryt:simc":19844,"addr:teryt:sym_ul":986544,"contact:phone":"+48 512150140","contact:email":"szkola@szkola-montessori.com.pl","contact:website":"http:\/\/szkola-montessori.com.pl","ref:regon":"381172740","operator":"Fundacja Wychowanie Dla Przysz\u0142o\u015bci","operator:type":"ngo","amenity":"kindergarten"}},{"id":22477,"type":"Feature","geometry":{"type":"Point","coordinates":[17.02741,51.09332]},"properties":{"isced:level":"3","ref:rspo":22477,"official_name":"\"Abor\" Prywatne Liceum Og\u00f3lnokszta\u0142c\u0105ce we Wroc\u0142awiu","name":"\"Abor\" Prywatne Liceum Og\u00f3lnokszta\u0142c\u0105ce we Wroc\u0142awiu","addr:country":"PL","addr:postcode":"53-339","addr:city":"Wroc\u0142aw","addr:street":"ul. Pabianicka","addr:housenumber":"2","addr:teryt:simc":15498,"addr:teryt:sym_ul":986544,"contact:phone":"+48 713670246","contact:email":"liceum@abor.com.pl","contact:website":"http:\/\/www.liceum.abor.com.pl","ref:regon":"021981013","operator":"Adam Borberg","operator:type":"private","amenity":"school"}},{"id":14802,"type":"Feature","geometry":{"type":"Point","coordinates":[17.0375,51.09332]},"properties":{"isced:level":"1;2","ref:rspo":14802,"official_name":"Szko\u0142a Podstawowa Nr 73 im. Genera\u0142a W\u0142adys\u0142awa Andersa","name":"Szko\u0142a Podstawowa Nr 73","addr:country":"PL","addr:postcode":"50-525","addr:city":"Wroc\u0142aw","addr:street":"ul. Gliniana","addr:housenumber":"30","addr:teryt:simc":5559,"addr:teryt:sym_ul":986544,"contact:phone":"+48 717986862","contact:email":"sekretariat.sp073@wroclawskaedukacja.pl","contact:website":"http:\/\/www.sp73.wroclaw.pl","ref:regon":"000692908","ref:vatin":"PL8992302569","operator":"Gmina Wroc\u0142aw","operator:type":"government","amenity":"school"}},{"id":13894,"type":"Feature","geometry":{"type":"Point","coordinates":[17.02317,51.09338]},"properties":{"isced:level":"1;2","ref:rspo":13894,"official_name":"Sportowa Szko\u0142a Podstawowa Nr 72 im. W\u0142adka Zarembowicza","name":"Sportowa Szko\u0142a Podstawowa Nr 72","addr:country":"PL","addr:postcode":"53-335","addr:city":"Wroc\u0142aw","addr:street":"ul. Trwa\u0142a","addr:housenumber":"17-19","addr:teryt:simc":23037,"addr:teryt:sym_ul":986544,"contact:phone":"+48 717986861","contact:email":"sekretariat.sp072@wroclawskaedukacja.pl","contact:website":"http:\/\/www.ssp72.pl","ref:regon":"000692890","ref:vatin":"PL8992316330","operator":"Gmina Wroc\u0142aw","operator:type":"government","amenity":"school"}},{"id":29793,"type":"Feature","geometry":{"type":"Point","coordinates":[17.02438,51.09339]},"properties":{"ref:rspo":29793,"official_name":"Stowarzyszenie Rozwoju Przedsi\u0119biorczo\u015bci","name":"Stowarzyszenie Rozwoju Przedsi\u0119biorczo\u015bci","addr:country":"PL","addr:postcode":"53-335","addr:city":"Wroc\u0142aw","addr:street":"ul. Trwa\u0142a","addr:housenumber":"7","addr:teryt:simc":23037,"addr:teryt:sym_ul":986544,"contact:phone":"+48 717867670","contact:email":"biuro@srp.wroclaw.pl","ref:regon":"021989233","operator":"Stowarzyszenie Rozwoju Przedsi\u0119biorczo\u015bci","operator:type":"ngo","fixme":"w zale\u017cno\u015bci od przedmiotu dzia\u0142alno\u015bci (np. amenity=training + training=*, amenity=dancing_school, amenity=language_school, amenity=music_school)"}},{"id":31525,"type":"Feature","geometry":{"type":"Point","coordinates":[17.03939,51.0941]},"properties":{"ref:rspo":31525,"official_name":"Zesp\u00f3\u0142 Szk\u00f3\u0142 Logistycznych","name":"Zesp\u00f3\u0142 Szk\u00f3\u0142 Logistycznych","addr:country":"PL","addr:postcode":"50-527","addr:city":"Wroc\u0142aw","addr:street":"ul. Jana W\u0142adys\u0142awa Dawida","addr:housenumber":"9-11","addr:teryt:simc":3643,"addr:teryt:sym_ul":986544,"contact:phone":"+48 717986899","contact:email":"sekretariat.zsl@wroclawskaedukacja.pl","contact:website":"http:\/\/www.logistyk-zsl.wroclaw.pl","ref:regon":"000127829","ref:vatin":"PL8992214902","operator":"Gmina Wroc\u0142aw","operator:type":"government","landuse":"education","fixme":"amenity=school, amenity=college albo landuse=education w zale\u017cno\u015bci od tego, jakie plac\u00f3wki wchodz\u0105 w sk\u0142ad zespo\u0142u. Sprawd\u017a, kiedy stosowa\u0107 amenity=* a kiedy landuse=education.","note":"Children RSPO: 90630;126446;263442;274849"}},{"id":273628,"type":"Feature","geometry":{"type":"Point","coordinates":[17.03939,51.094069999999995]},"properties":{"isced:level":"4","ref:rspo":273628,"official_name":"Policealna Szko\u0142a Zawodowa Centrum Nauki Biznesu I Administracji we Wroc\u0142awiu","name":"Policealna Szko\u0142a Zawodowa Centrum Nauki Biznesu I Administracji we Wroc\u0142awiu","addr:country":"PL","addr:postcode":"50-527","addr:city":"Wroc\u0142aw","addr:street":"ul. Jana W\u0142adys\u0142awa Dawida","addr:housenumber":"9-11","addr:teryt:simc":3643,"addr:teryt:sym_ul":986544,"contact:phone":"+48 691371037","contact:email":"sekretariat.wroclaw@policealna.szkola.pl","contact:website":"https:\/\/www.policealna.szkola.pl\/wroclaw\/","ref:regon":"384552414","operator":"Europejski Instytut Edukacji, Biznesu I Medycyny Sp\u00f3\u0142ka Z Ograniczon\u0105 Odpowiedzialno\u015bci\u0105","operator:type":"private","amenity":"college"}},{"id":90630,"type":"Feature","geometry":{"type":"Point","coordinates":[17.03939,51.09404]},"properties":{"isced:level":"3","ref:rspo":90630,"official_name":"Technikum Nr 12 im. Ks. Stanis\u0142awa Staszica","name":"Technikum Nr 12","addr:country":"PL","addr:postcode":"50-527","addr:city":"Wroc\u0142aw","addr:street":"ul. Jana W\u0142adys\u0142awa Dawida","addr:housenumber":"9-11","addr:teryt:simc":3643,"addr:teryt:sym_ul":986544,"contact:phone":"+48 717986899","contact:email":"sekretariat.zsl@wroclawskaedukacja.pl","contact:website":"http:\/\/www.logistyk-zsl.wroclaw.pl","ref:regon":"020590316","ref:vatin":"PL8992214902","operator":"Gmina Wroc\u0142aw","operator:type":"government","amenity":"school","note":"Parent RSPO: 31525"}},{"id":126446,"type":"Feature","geometry":{"type":"Point","coordinates":[17.03939,51.09401]},"properties":{"isced:level":"4","ref:rspo":126446,"official_name":"Szko\u0142a Policealna Nr 12","name":"Szko\u0142a Policealna Nr 12","addr:country":"PL","addr:postcode":"50-527","addr:city":"Wroc\u0142aw","addr:street":"ul. Jana W\u0142adys\u0142awa Dawida","addr:housenumber":"9-11","addr:teryt:simc":3643,"addr:teryt:sym_ul":986544,"contact:phone":"+48 717986899","contact:email":"sekretariat.zsl@wroclawskaedukacja.pl","contact:website":"http:\/\/logistyk-zsl.wroclaw.pl","ref:regon":"020125708","operator":"Gmina Wroc\u0142aw","operator:type":"government","amenity":"college","note":"Parent RSPO: 31525"}},{"id":263442,"type":"Feature","geometry":{"type":"Point","coordinates":[17.03939,51.093979999999995]},"properties":{"isced:level":"3","ref:rspo":263442,"official_name":"Bran\u017cowa Szko\u0142a I Stopnia Nr 12 im. Ks. Stanis\u0142awa Staszica","name":"Bran\u017cowa Szko\u0142a I Stopnia Nr 12","addr:country":"PL","addr:postcode":"50-527","addr:city":"Wroc\u0142aw","addr:street":"ul. Jana W\u0142adys\u0142awa Dawida","addr:housenumber":"9-11","addr:teryt:simc":3643,"addr:teryt:sym_ul":986544,"contact:phone":"+48 717986899","contact:email":"sekretariat.zs23@wroclawskaedukacja.pl","contact:website":"http:\/\/www.logistyk-zsl.wroclaw.pl","ref:regon":"368188369","operator":"Gmina Wroc\u0142aw","operator:type":"government","amenity":"school","note":"Parent RSPO: 31525"}},{"id":274849,"type":"Feature","geometry":{"type":"Point","coordinates":[17.03939,51.09395]},"properties":{"isced:level":"3","ref:rspo":274849,"official_name":"Bran\u017cowa Szko\u0142a II Stopnia Nr 12 im. Ks. Stanis\u0142awa Staszica","name":"Bran\u017cowa Szko\u0142a II Stopnia Nr 12","addr:country":"PL","addr:postcode":"50-527","addr:city":"Wroc\u0142aw","addr:street":"ul. Jana W\u0142adys\u0142awa Dawida","addr:housenumber":"9-11","addr:teryt:simc":3643,"addr:teryt:sym_ul":986544,"contact:phone":"+48 717986899","contact:email":"sekretariat.zsl@wroclawskaedukacja.pl","contact:website":"http:\/\/www.logistyk-zsl.wroclaw.pl","ref:regon":"386336880","operator":"Gmina Wroc\u0142aw","operator:type":"government","amenity":"school","note":"Parent RSPO: 31525"}},{"id":21328,"type":"Feature","geometry":{"type":"Point","coordinates":[17.0382,51.09428]},"properties":{"isced:level":"3","ref:rspo":21328,"official_name":"Zaoczne Liceum Og\u00f3lnokszta\u0142c\u0105ce \"Cosinus\" we Wroc\u0142awiu","name":"Zaoczne Liceum Og\u00f3lnokszta\u0142c\u0105ce \"Cosinus\" we Wroc\u0142awiu","addr:country":"PL","addr:postcode":"50-527","addr:city":"Wroc\u0142aw","addr:street":"ul. Jana W\u0142adys\u0142awa Dawida","addr:housenumber":"5","addr:teryt:simc":3643,"addr:teryt:sym_ul":986544,"contact:phone":"+48 713163800","contact:email":"wroclaw1@cosinus.pl","contact:website":"http:\/\/www.cosinus.pl","ref:regon":"021980901","operator":"Fundacja Cosinus Edukacja Wr","operator:type":"ngo","amenity":"school"}},{"id":42881,"type":"Feature","geometry":{"type":"Point","coordinates":[17.0382,51.094249999999995]},"properties":{"ref:rspo":42881,"official_name":"Zesp\u00f3\u0142 Szk\u00f3\u0142 Zawodowych Nr 5","name":"Zesp\u00f3\u0142 Szk\u00f3\u0142 Zawodowych Nr 5","addr:country":"PL","addr:postcode":"50-527","addr:city":"Wroc\u0142aw","addr:street":"ul. Jana W\u0142adys\u0142awa Dawida","addr:housenumber":"5","addr:teryt:simc":3643,"addr:teryt:sym_ul":986544,"contact:phone":"+48 717986934","contact:email":"sekretariat.zsz5@wroclawskaedukacja.pl","contact:website":"http:\/\/www.zsz5.edupage.org","ref:regon":"000182722","ref:vatin":"PL8991081451","operator":"Gmina Wroc\u0142aw","operator:type":"government","landuse":"education","fixme":"amenity=school, amenity=college albo landuse=education w zale\u017cno\u015bci od tego, jakie plac\u00f3wki wchodz\u0105 w sk\u0142ad zespo\u0142u. Sprawd\u017a, kiedy stosowa\u0107 amenity=* a kiedy landuse=education.","note":"Children RSPO: 90634;90635;274845"}},{"id":90634,"type":"Feature","geometry":{"type":"Point","coordinates":[17.0382,51.09422]},"properties":{"isced:level":"3","ref:rspo":90634,"official_name":"Technikum Nr 5 im. Jana Kili\u0144skiego","name":"Technikum Nr 5","addr:country":"PL","addr:postcode":"50-527","addr:city":"Wroc\u0142aw","addr:street":"ul. Jana W\u0142adys\u0142awa Dawida","addr:housenumber":"5","addr:teryt:simc":3643,"addr:teryt:sym_ul":986544,"contact:phone":"+48 717986934","contact:email":"sekretariat.zsz5@wroclawskaedukacja.pl","contact:website":"http:\/\/www.zsz5.edupage.org","ref:regon":"020591043","ref:vatin":"PL8991081451","operator":"Gmina Wroc\u0142aw","operator:type":"government","amenity":"school","note":"Parent RSPO: 42881"}},{"id":90635,"type":"Feature","geometry":{"type":"Point","coordinates":[17.0382,51.09419]},"properties":{"isced:level":"3","ref:rspo":90635,"official_name":"Bran\u017cowa Szko\u0142a I Stopnia Nr 5 im. Jana Kili\u0144skiego","name":"Bran\u017cowa Szko\u0142a I Stopnia Nr 5","addr:country":"PL","addr:postcode":"50-527","addr:city":"Wroc\u0142aw","addr:street":"ul. Jana W\u0142adys\u0142awa Dawida","addr:housenumber":"5","addr:teryt:simc":3643,"addr:teryt:sym_ul":986544,"contact:phone":"+48 717986934","contact:email":"sekretariat.zsz5@wroclawskaedukacja.pl","contact:website":"http:\/\/www.zsz5.edupage.org","ref:regon":"932831219","ref:vatin":"PL8991081451","operator":"Gmina Wroc\u0142aw","operator:type":"government","amenity":"school","note":"Parent RSPO: 42881"}},{"id":274845,"type":"Feature","geometry":{"type":"Point","coordinates":[17.0382,51.094159999999995]},"properties":{"isced:level":"3","ref:rspo":274845,"official_name":"Bran\u017cowa Szko\u0142a II Stopnia Nr 5 im. Jana Kili\u0144skiego","name":"Bran\u017cowa Szko\u0142a II Stopnia Nr 5","addr:country":"PL","addr:postcode":"50-527","addr:city":"Wroc\u0142aw","addr:street":"ul. Jana W\u0142adys\u0142awa Dawida","addr:housenumber":"5","addr:teryt:simc":3643,"addr:teryt:sym_ul":986544,"contact:phone":"+48 717986934","contact:email":"sekretariat.zsz5@wroclawskaedukacja.pl","contact:website":"http:\/\/www.zsz5.edupage.org","ref:regon":"386337217","operator":"Gmina Wroc\u0142aw","operator:type":"government","amenity":"school","note":"Parent RSPO: 42881"}},{"id":131119,"type":"Feature","geometry":{"type":"Point","coordinates":[17.02068,51.09462]},"properties":{"ref:rspo":131119,"official_name":"Publiczne Przedszkole Sky Fun","name":"Publiczne Przedszkole Sky Fun","addr:country":"PL","addr:postcode":"53-332","addr:city":"Wroc\u0142aw","addr:street":"ul. Powsta\u0144c\u00f3w \u015al\u0105skich","addr:housenumber":"95","addr:teryt:simc":17366,"addr:teryt:sym_ul":986544,"contact:phone":"+48 512359831","contact:email":"skyfun.wroclaw@operator.edu.pl","contact:website":"http:\/\/www.skyfun.familijnywroclaw.pl","ref:regon":"364971010","operator":"Og\u00f3lnopolski Operator O\u015bwiaty","operator:type":"ngo","amenity":"kindergarten"}},{"id":265088,"type":"Feature","geometry":{"type":"Point","coordinates":[17.02068,51.09459]},"properties":{"ref:rspo":265088,"official_name":"Egurrola Dance Studio Wroc\u0142aw Plac\u00f3wka O\u015bwiatowo-Wychowawcza","name":"Egurrola Dance Studio Wroc\u0142aw Plac\u00f3wka O\u015bwiatowo-Wychowawcza","addr:country":"PL","addr:postcode":"53-332","addr:city":"Wroc\u0142aw","addr:street":"ul. Powsta\u0144c\u00f3w \u015al\u0105skich","addr:housenumber":"95","addr:teryt:simc":17366,"addr:teryt:sym_ul":986544,"contact:phone":"+48 601539539","contact:email":"wroclaw@egurrola.pl","contact:website":"http:\/\/www.egurrola.pl","ref:regon":"368591214","operator":"World Dance Sp\u00f3\u0142ka Z Ograniczon\u0105 Odpowiedzialno\u015bci\u0105","operator:type":"private","fixme":"w zale\u017cno\u015bci od przedmiotu dzia\u0142alno\u015bci (np. amenity=training + training=*, amenity=dancing_school, amenity=language_school, amenity=music_school)"}},{"id":265089,"type":"Feature","geometry":{"type":"Point","coordinates":[17.02068,51.09456]},"properties":{"ref:rspo":265089,"official_name":"Egurrola Dance Studio Wroc\u0142aw Plac\u00f3wka Kszta\u0142cenia Ustawicznego","name":"Egurrola Dance Studio Wroc\u0142aw Plac\u00f3wka Kszta\u0142cenia Ustawicznego","addr:country":"PL","addr:postcode":"53-332","addr:city":"Wroc\u0142aw","addr:street":"ul. Powsta\u0144c\u00f3w \u015al\u0105skich","addr:housenumber":"95","addr:teryt:simc":17366,"addr:teryt:sym_ul":986544,"contact:phone":"+48 601539539","contact:email":"wroclaw@egurrola.pl","contact:website":"http:\/\/www.egurrola.pl","ref:regon":"368591177","operator":"World Dance Sp\u00f3\u0142ka Z Ograniczon\u0105 Odpowiedzialno\u015bci\u0105","operator:type":"private","fixme":"w zale\u017cno\u015bci od przedmiotu dzia\u0142alno\u015bci (np. amenity=training + training=*, amenity=dancing_school, amenity=language_school, amenity=music_school)"}},{"id":55999,"type":"Feature","geometry":{"type":"Point","coordinates":[17.03548,51.09536]},"properties":{"ref:rspo":55999,"official_name":"Przedszkole Nr 50 Ma\u0142y Kolejarz","name":"Przedszkole Nr 50 Ma\u0142y Kolejarz","addr:country":"PL","addr:postcode":"50-528","addr:city":"Wroc\u0142aw","addr:street":"ul. Dyrekcyjna","addr:housenumber":"15","addr:teryt:simc":4526,"addr:teryt:sym_ul":986544,"contact:phone":"+48 717986794","contact:email":"sekretariat.p050@wroclawskaedukacja.pl","contact:website":"http:\/\/przedszkole50.wroc.pl","ref:regon":"930084681","ref:vatin":"PL8992316413","operator":"Gmina Wroc\u0142aw","operator:type":"government","amenity":"kindergarten"}},{"id":127031,"type":"Feature","geometry":{"type":"Point","coordinates":[17.02896,51.09548]},"properties":{"ref:rspo":127031,"official_name":"Europ\u00e4isches Zentrum F\u00fcr Sport Und Wissenschaft - Europejskie Centrum Sportu I Nauki","name":"Europ\u00e4isches Zentrum F\u00fcr Sport Und Wissenschaft - Europejskie Centrum Sportu I Nauki","addr:country":"PL","addr:postcode":"53-304","addr:city":"Wroc\u0142aw","addr:street":"ul. Studzienna","addr:housenumber":"15","addr:door":"8","addr:teryt:simc":21425,"addr:teryt:sym_ul":986544,"contact:phone":"+48 713073055","contact:email":"sekretariat@ecsin.pl","contact:website":"http:\/\/www.ecsin.pl","ref:regon":"361072913","operator":"Maciej Mikita","operator:type":"private","fixme":"w zale\u017cno\u015bci od przedmiotu dzia\u0142alno\u015bci (np. amenity=training + training=*, amenity=dancing_school, amenity=language_school, amenity=music_school)"}},{"id":20780,"type":"Feature","geometry":{"type":"Point","coordinates":[17.0315322,51.0955316]},"properties":{"isced:level":"4","ref:rspo":20780,"official_name":"Policealna Szko\u0142a Ekonomiczna \"Vademecum\"","name":"Policealna Szko\u0142a Ekonomiczna \"Vademecum\"","addr:country":"PL","addr:postcode":"53-302","addr:city":"Wroc\u0142aw","addr:street":"ul. \u015al\u0119\u017cna","addr:housenumber":"2","addr:teryt:simc":22324,"addr:teryt:sym_ul":986544,"contact:phone":"+48 504740210","contact:email":"vademecum98@gmail.com","contact:website":"http:\/\/www.vademecum.edu.pl","ref:regon":"021979683","operator":"Fundacja Adr Foundation","operator:type":"ngo","amenity":"college"}},{"id":21117,"type":"Feature","geometry":{"type":"Point","coordinates":[17.0315322,51.0955016]},"properties":{"isced:level":"4","ref:rspo":21117,"official_name":"Policealna Szko\u0142a Prawa I Administracji \"Vademecum\"","name":"Policealna Szko\u0142a Prawa I Administracji \"Vademecum\"","addr:country":"PL","addr:postcode":"53-302","addr:city":"Wroc\u0142aw","addr:street":"ul. \u015al\u0119\u017cna","addr:housenumber":"2","addr:teryt:simc":22324,"addr:teryt:sym_ul":986544,"contact:phone":"+48 504740210","contact:email":"vademecum98@gmail.com","contact:website":"http:\/\/www.vademecum.edu.pl","ref:regon":"021979766","operator":"Fundacja Adr Foundation","operator:type":"ngo","amenity":"college"}},{"id":21315,"type":"Feature","geometry":{"type":"Point","coordinates":[17.0315322,51.0954716]},"properties":{"isced:level":"4","ref:rspo":21315,"official_name":"Policealna Szko\u0142a Mened\u017cerska \"Vademecum\"","name":"Policealna Szko\u0142a Mened\u017cerska \"Vademecum\"","addr:country":"PL","addr:postcode":"53-302","addr:city":"Wroc\u0142aw","addr:street":"ul. \u015al\u0119\u017cna","addr:housenumber":"2","addr:teryt:simc":22324,"addr:teryt:sym_ul":986544,"contact:phone":"+48 504740210","contact:email":"vademecum98@gmail.com","contact:website":"http:\/\/www.vademecum.edu.pl","ref:regon":"021980918","operator":"Fundacja Adr Foundation","operator:type":"ngo","amenity":"college"}},{"id":271741,"type":"Feature","geometry":{"type":"Point","coordinates":[17.03168,51.09557]},"properties":{"isced:level":"3","ref:rspo":271741,"official_name":"Technikum Nr 18","name":"Technikum Nr 18","addr:country":"PL","addr:postcode":"53-302","addr:city":"Wroc\u0142aw","addr:street":"ul. \u015al\u0119\u017cna","addr:housenumber":"2-24","addr:teryt:simc":22324,"addr:teryt:sym_ul":986544,"contact:phone":"+48 717986708","contact:email":"sekretariat.t18@wroclawskaedukacja.pl","contact:website":"http:\/\/www.t18.wroclaw.pl","ref:regon":"383592831","operator":"Gmina Wroc\u0142aw","operator:type":"government","amenity":"school"}},{"id":47643,"type":"Feature","geometry":{"type":"Point","coordinates":[17.01448,51.09603]},"properties":{"ref:rspo":47643,"official_name":"Przedszkole Nr 90 im. Lucyny Krzemienieckiej","name":"Przedszkole Nr 90","addr:country":"PL","addr:postcode":"53-519","addr:city":"Wroc\u0142aw","addr:street":"ul. Zaporoska","addr:housenumber":"51","addr:teryt:simc":25637,"addr:teryt:sym_ul":986544,"contact:phone":"+48 717986820","contact:email":"sekretariat.p090@wroclawskaedukacja.pl","contact:website":"https:\/\/przedszkole90.edu.wroclaw.pl\/","ref:regon":"930113023","ref:vatin":"PL8992316465","operator":"Gmina Wroc\u0142aw","operator:type":"government","amenity":"kindergarten"}},{"id":14810,"type":"Feature","geometry":{"type":"Point","coordinates":[17.05743,51.09604]},"properties":{"isced:level":"1;2","ref:rspo":14810,"official_name":"Szko\u0142a Podstawowa Nr 96 im. Leonida Teligi","name":"Szko\u0142a Podstawowa Nr 96","addr:country":"PL","addr:postcode":"50-425","addr:city":"Wroc\u0142aw","addr:street":"ul. Krakowska","addr:housenumber":"2","addr:teryt:simc":9796,"addr:teryt:sym_ul":986544,"contact:phone":"+48 717986877","contact:email":"sekretariat.sp096@wroclawskaedukacja.pl","contact:website":"http:\/\/www.sp96wroc.pl","ref:regon":"000692966","ref:vatin":"PL8961004888","operator":"Gmina Wroc\u0142aw","operator:type":"government","amenity":"school"}},{"id":268798,"type":"Feature","geometry":{"type":"Point","coordinates":[17.01976,51.0962699]},"properties":{"ref:rspo":268798,"official_name":"Publiczne Przedszkole \"Wroc\u0142awskie Skauty I\"","name":"Publiczne Przedszkole \"Wroc\u0142awskie Skauty I\"","addr:country":"PL","addr:postcode":"53-413","addr:city":"Wroc\u0142aw","addr:street":"ul. Gwia\u017adzista","addr:housenumber":"55","addr:teryt:simc":6422,"addr:teryt:sym_ul":986544,"contact:phone":"+48 690044875","contact:email":"biuro1@wroclawskieskauty.pl","contact:website":"http:\/\/www.wroclawskieskauty.pl","ref:regon":"381256282","operator":"Robert Burszewski","operator:type":"private","amenity":"kindergarten"}},{"id":123220,"type":"Feature","geometry":{"type":"Point","coordinates":[17.02983,51.0967]},"properties":{"ref:rspo":123220,"official_name":"Przedszkole Nr 111","name":"Przedszkole Nr 111","addr:country":"PL","addr:postcode":"53-303","addr:city":"Wroc\u0142aw","addr:street":"ul. Skwerowa","addr:housenumber":"14","addr:teryt:simc":20187,"addr:teryt:sym_ul":986544,"contact:phone":"+48 717986941","contact:email":"sekretariat.p111@wroclawskaedukacja.pl","contact:website":"https:\/\/przedszkole111.edu.wroclaw.pl\/","ref:regon":"022429967","ref:vatin":"PL8992755549","operator":"Gmina Wroc\u0142aw","operator:type":"government","amenity":"kindergarten"}},{"id":109873,"type":"Feature","geometry":{"type":"Point","coordinates":[17.0072699,51.09695]},"properties":{"isced:level":"3","ref:rspo":109873,"official_name":"Spo\u0142eczne Integracyjne Liceum Og\u00f3lnokszta\u0142c\u0105ce \"Amigo\"","name":"Spo\u0142eczne Integracyjne Liceum Og\u00f3lnokszta\u0142c\u0105ce \"Amigo\"","addr:country":"PL","addr:postcode":"53-428","addr:city":"Wroc\u0142aw","addr:street":"ul. \u017belazna","addr:housenumber":"36","addr:teryt:simc":26433,"addr:teryt:sym_ul":986544,"contact:phone":"+48 713615263","contact:email":"amigo@amigo.wroclaw.pl","contact:website":"http:\/\/www.amigo.wroclaw.pl","ref:regon":"022078108","operator":"Stowarzyszenie Edukacji Integracyjnej","operator:type":"ngo","amenity":"school"}},{"id":14425,"type":"Feature","geometry":{"type":"Point","coordinates":[17.03156,51.09719]},"properties":{"ref:rspo":14425,"official_name":"Niepubliczna Specjalistyczna Poradnia Psychologiczno-Pedagogiczna \"Promyk S\u0142o\u0144ca\"","name":"Niepubliczna Specjalistyczna Poradnia Psychologiczno-Pedagogiczna \"Promyk S\u0142o\u0144ca\"","addr:country":"PL","addr:postcode":"50-088","addr:city":"Wroc\u0142aw","addr:street":"ul. Swobodna","addr:housenumber":"8a","addr:teryt:simc":21625,"addr:teryt:sym_ul":986544,"contact:phone":"+48 713670544","contact:email":"poradnia@promykslonca.pl","contact:website":"http:\/\/www.ppp.promykslonca..pl","ref:regon":"021970877","operator":"Fundacja \"Promyk S\u0142o\u0144ca\"","operator:type":"ngo","healthcare":"councelling","counselling_type":"education","fixme":"w zale\u017cno\u015bci od przedmiotu dzia\u0142alno\u015bci (np. healthcare=councelling + counselling_type=education albo healthcare=psychotherapist)"}},{"id":30363,"type":"Feature","geometry":{"type":"Point","coordinates":[17.03156,51.097159999999995]},"properties":{"ref:rspo":30363,"official_name":"Niepubliczna Plac\u00f3wka Kszta\u0142cenia Ustawicznego \"Promyk S\u0142o\u0144ca\"","name":"Niepubliczna Plac\u00f3wka Kszta\u0142cenia Ustawicznego \"Promyk S\u0142o\u0144ca\"","addr:country":"PL","addr:postcode":"50-088","addr:city":"Wroc\u0142aw","addr:street":"ul. Swobodna","addr:housenumber":"8a","addr:teryt:simc":21625,"addr:teryt:sym_ul":986544,"contact:phone":"+48 717950950","contact:email":"szkolenia@promykslonca.pl","contact:website":"http:\/\/www.promykslonca.pl","ref:regon":"022048870","operator":"Fundacja \"Promyk S\u0142o\u0144ca\"","operator:type":"ngo","fixme":"w zale\u017cno\u015bci od przedmiotu dzia\u0142alno\u015bci (np. amenity=training + training=*, amenity=dancing_school, amenity=language_school, amenity=music_school)"}},{"id":71673,"type":"Feature","geometry":{"type":"Point","coordinates":[17.03156,51.09713]},"properties":{"ref:rspo":71673,"official_name":"Publiczne Przedszkole Integracyjne \"Promyk S\u0142o\u0144ca\"","name":"Publiczne Przedszkole Integracyjne \"Promyk S\u0142o\u0144ca\"","addr:country":"PL","addr:postcode":"50-088","addr:city":"Wroc\u0142aw","addr:street":"ul. Swobodna","addr:housenumber":"8a","addr:teryt:simc":21625,"addr:teryt:sym_ul":986544,"contact:phone":"+48 717827777","contact:email":"przedszkole@promykslonca.pl","contact:website":"http:\/\/www.promykslonca.pl","ref:regon":"022030857","operator":"Fundacja \"Promyk S\u0142o\u0144ca\"","operator:type":"ngo","amenity":"kindergarten"}},{"id":47639,"type":"Feature","geometry":{"type":"Point","coordinates":[17.01952,51.0972]},"properties":{"ref:rspo":47639,"official_name":"Przedszkole Nr 80 Zielona Dolinka","name":"Przedszkole Nr 80 Zielona Dolinka","addr:country":"PL","addr:postcode":"53-534","addr:city":"Wroc\u0142aw","addr:street":"ul. Tadeusza Zieli\u0144skiego","addr:housenumber":"74","addr:teryt:simc":26073,"addr:teryt:sym_ul":986544,"contact:phone":"+48 717986815","contact:email":"sekretariat.p080@wroclawskaedukacja.pl","contact:website":"http:\/\/www.przedszkole80.edu.wroclaw.pl","ref:regon":"930113017","ref:vatin":"PL8992316382","operator":"Gmina Wroc\u0142aw","operator:type":"government","amenity":"kindergarten"}},{"id":14970,"type":"Feature","geometry":{"type":"Point","coordinates":[17.01611,51.09745]},"properties":{"isced:level":"1;2","ref:rspo":14970,"official_name":"Szko\u0142a Podstawowa Nr 30","name":"Szko\u0142a Podstawowa Nr 30","addr:country":"PL","addr:postcode":"53-523","addr:city":"Wroc\u0142aw","addr:street":"ul. Zaporoska","addr:housenumber":"28","addr:teryt:simc":25637,"addr:teryt:sym_ul":986544,"contact:phone":"+48 717986849","contact:email":"sekretariat@sp30.wroclaw.pl","contact:website":"http:\/\/www.sp30.wroclaw.pl","ref:regon":"000693026","ref:vatin":"PL8992316353","operator":"Gmina Wroc\u0142aw","operator:type":"government","amenity":"school"}},{"id":268470,"type":"Feature","geometry":{"type":"Point","coordinates":[17.0344304,51.0976049]},"properties":{"ref:rspo":268470,"official_name":"Niepubliczne Dwuj\u0119zyczne Przedszkole Kids&Co 2","name":"Niepubliczne Dwuj\u0119zyczne Przedszkole Kids&Co 2","addr:country":"PL","addr:postcode":"50-086","addr:city":"Wroc\u0142aw","addr:street":"ul. Sucha","addr:housenumber":"2","addr:teryt:simc":21489,"addr:teryt:sym_ul":986544,"contact:phone":"+48 575000296","contact:email":"magdalena.lachowicz@kids-co.pl","contact:website":"http:\/\/www.kids-co.pl","ref:regon":"381172680","operator":"Centrum Rozwoju Dziecka Sp\u00f3\u0142ka Z Ograniczon\u0105 Odpowiedzialno\u015bci\u0105","operator:type":"private","amenity":"kindergarten"}},{"id":129186,"type":"Feature","geometry":{"type":"Point","coordinates":[17.06829,51.09767]},"properties":{"ref:rspo":129186,"official_name":"Punkt Przedszkolny \"Montessori House Wroc\u0142aw\"","name":"Punkt Przedszkolny \"Montessori House Wroc\u0142aw\"","addr:country":"PL","addr:postcode":"50-422","addr:city":"Wroc\u0142aw","addr:street":"ul. Rakowiecka","addr:housenumber":"45","addr:teryt:simc":18430,"addr:teryt:sym_ul":986544,"contact:phone":"+48 517337004","contact:email":"info@fundacja-europeum.pl","contact:website":"http:\/\/www.fundacja-europeum.pl","ref:regon":"362533279","operator":"Europeum - Edukacja Europejska","operator:type":"ngo","amenity":"kindergarten"}},{"id":128084,"type":"Feature","geometry":{"type":"Point","coordinates":[17.02089,51.09781]},"properties":{"ref:rspo":128084,"official_name":"Zesp\u00f3\u0142 Szk\u00f3\u0142 \"Ekola\" Fundacji O\u015bwiatowej \"Ekola\"","name":"Zesp\u00f3\u0142 Szk\u00f3\u0142 \"Ekola\" Fundacji O\u015bwiatowej \"Ekola\"","addr:country":"PL","addr:postcode":"53-534","addr:city":"Wroc\u0142aw","addr:street":"ul. Tadeusza Zieli\u0144skiego","addr:housenumber":"56","addr:teryt:simc":26073,"addr:teryt:sym_ul":986544,"contact:phone":"+48 785850868","contact:email":"sekretariat@ekola.edu.pl","contact:website":"http:\/\/www.ekola.edu.pl","ref:regon":"362119960","operator":"Fundacja O\u015bwiatowa \"Ekola\"","operator:type":"ngo","landuse":"education","fixme":"amenity=school, amenity=college albo landuse=education w zale\u017cno\u015bci od tego, jakie plac\u00f3wki wchodz\u0105 w sk\u0142ad zespo\u0142u. Sprawd\u017a, kiedy stosowa\u0107 amenity=* a kiedy landuse=education.","note":"Children RSPO: 106140;271116"}},{"id":106140,"type":"Feature","geometry":{"type":"Point","coordinates":[17.02089,51.09778]},"properties":{"isced:level":"1;2","ref:rspo":106140,"official_name":"Szko\u0142a Podstawowa Ekola","name":"Szko\u0142a Podstawowa Ekola","addr:country":"PL","addr:postcode":"53-534","addr:city":"Wroc\u0142aw","addr:street":"ul. Tadeusza Zieli\u0144skiego","addr:housenumber":"56","addr:teryt:simc":26073,"addr:teryt:sym_ul":986544,"contact:phone":"+48 713614370","contact:email":"sekretariat@ekola.edu.pl","contact:website":"http:\/\/www.ekola.edu.pl","ref:regon":"022049845","operator":"Fundacja O\u015bwiatowa \"Ekola\"","operator:type":"ngo","amenity":"school","note":"Parent RSPO: 128084"}},{"id":11475,"type":"Feature","geometry":{"type":"Point","coordinates":[17.05077,51.09792]},"properties":{"isced:level":"3","ref:rspo":11475,"official_name":"Liceum Og\u00f3lnokszta\u0142c\u0105ce Nr IV im. Stefana \u017beromskiego","name":"Liceum Og\u00f3lnokszta\u0142c\u0105ce Nr IV","addr:country":"PL","addr:postcode":"50-430","addr:city":"Wroc\u0142aw","addr:street":"ul. Stacha \u015awistackiego","addr:housenumber":"12-14","addr:teryt:simc":22572,"addr:teryt:sym_ul":986544,"contact:phone":"+48 717986733","contact:email":"sekretariat@lo4.wroc.pl","contact:website":"http:\/\/www.lo4.wroc.pl","ref:regon":"000204151","ref:vatin":"PL8992331654","operator":"Gmina Wroc\u0142aw","operator:type":"government","amenity":"school"}},{"id":126420,"type":"Feature","geometry":{"type":"Point","coordinates":[17.02323,51.0979699]},"properties":{"ref:rspo":126420,"official_name":"Punkt Przedszkolny Misiowa Kraina","name":"Punkt Przedszkolny Misiowa Kraina","addr:country":"PL","addr:postcode":"53-333","addr:city":"Wroc\u0142aw","addr:street":"ul. Gwia\u017adzista","addr:housenumber":"8","addr:door":"6","addr:teryt:simc":6422,"addr:teryt:sym_ul":986544,"contact:phone":"+48 609713480","contact:email":"kontakt@misiowakraina.com","contact:website":"http:\/\/www.misiowakraina.com","ref:regon":"360297685","operator":"Anna Mi\u015b","operator:type":"private","amenity":"kindergarten"}},{"id":269163,"type":"Feature","geometry":{"type":"Point","coordinates":[17.04866,51.09809]},"properties":{"ref:rspo":269163,"official_name":"Przedszkole Niepubliczne \"Akademia Bystrzak\u00f3w\"","name":"Przedszkole Niepubliczne \"Akademia Bystrzak\u00f3w\"","addr:country":"PL","addr:postcode":"50-434","addr:city":"Wroc\u0142aw","addr:street":"ul. gen. Ignacego Pr\u0105dzy\u0144skiego","addr:housenumber":"47\/1U","addr:teryt:simc":17474,"addr:teryt:sym_ul":986544,"contact:phone":"+48 571929094","contact:email":"akademia.bystrzakow@gmail.com","contact:website":"http:\/\/www.akademiabystrzakow.pl","ref:regon":"381388747","operator":"Dar-Kon Sp\u00f3\u0142ka Z Ograniczon\u0105 Odpowiedzialno\u015bci\u0105","operator:type":"private","amenity":"kindergarten"}},{"id":14312,"type":"Feature","geometry":{"type":"Point","coordinates":[17.05067,51.09865]},"properties":{"ref:rspo":14312,"official_name":"O\u015brodek Kszta\u0142cenia Pol-Interima","name":"O\u015brodek Kszta\u0142cenia Pol-Interima","addr:country":"PL","addr:postcode":"50-430","addr:city":"Wroc\u0142aw","addr:street":"ul. Stacha \u015awistackiego","addr:housenumber":"3","addr:teryt:simc":22572,"addr:teryt:sym_ul":986544,"contact:phone":"+48 502654386","ref:regon":"021963127","operator":"Dane Do Uzupe\u0142nienia","operator:type":"private","fixme":"w zale\u017cno\u015bci od przedmiotu dzia\u0142alno\u015bci (np. amenity=training + training=*, amenity=dancing_school, amenity=language_school, amenity=music_school) albo amenity=school, amenity=college, albo landuse=education w zale\u017cno\u015bci od tego, jakie plac\u00f3wki wchodz\u0105 w sk\u0142ad zespo\u0142u. Sprawd\u017a, kiedy stosowa\u0107 amenity=* a kiedy landuse=education."}},{"id":15760,"type":"Feature","geometry":{"type":"Point","coordinates":[17.02235,51.09885]},"properties":{"ref:rspo":15760,"official_name":"Teb Edukacja Studium Kszta\u0142cenia Praktycznego","name":"Teb Edukacja Studium Kszta\u0142cenia Praktycznego","addr:country":"PL","addr:postcode":"53-534","addr:city":"Wroc\u0142aw","addr:street":"ul. Tadeusza Zieli\u0144skiego","addr:housenumber":"38","addr:teryt:simc":26073,"addr:teryt:sym_ul":986544,"contact:phone":"+48 571212075","contact:email":"biuro@edicon.pl","ref:regon":"021972540","operator":"Centrum Rozwoju Edukacji Edicon Sp\u00f3\u0142ka Z Ograniczon\u0105 Odpowiedzialno\u015bci\u0105","operator:type":"private","fixme":"w zale\u017cno\u015bci od przedmiotu dzia\u0142alno\u015bci (np. amenity=training + training=*, amenity=dancing_school, amenity=language_school, amenity=music_school)"}},{"id":263059,"type":"Feature","geometry":{"type":"Point","coordinates":[17.02235,51.098819999999996]},"properties":{"isced:level":"1;2","ref:rspo":263059,"official_name":"Szko\u0142a Podstawowa \"Parnas\"","name":"Szko\u0142a Podstawowa \"Parnas\"","addr:country":"PL","addr:postcode":"53-534","addr:city":"Wroc\u0142aw","addr:street":"ul. Tadeusza Zieli\u0144skiego","addr:housenumber":"38","addr:teryt:simc":26073,"addr:teryt:sym_ul":986544,"contact:phone":"+48 713594663","contact:email":"parnas@teb-edukacja.pl","contact:website":"http:\/\/www.parnas.teb.pl","ref:regon":"368102221","operator":"Teb Edukacja Sp\u00f3\u0142ka Z Ograniczon\u0105 Odpowiedzialno\u015bci\u0105","operator:type":"private","amenity":"school"}},{"id":278453,"type":"Feature","geometry":{"type":"Point","coordinates":[17.02235,51.09879]},"properties":{"isced:level":"3","ref:rspo":278453,"official_name":"Akademickie Liceum Og\u00f3lnokszta\u0142c\u0105ce \"Parnas\" we Wroc\u0142awiu","name":"Akademickie Liceum Og\u00f3lnokszta\u0142c\u0105ce \"Parnas\" we Wroc\u0142awiu","addr:country":"PL","addr:postcode":"54-534","addr:city":"Wroc\u0142aw","addr:street":"ul. Tadeusza Zieli\u0144skiego","addr:housenumber":"38","addr:teryt:simc":26073,"addr:teryt:sym_ul":986544,"contact:phone":"+48 713594663","contact:email":"parnas@teb-edukacja.pl","contact:website":"http:\/\/www.teb.pl","ref:regon":"389904846","operator":"Teb Edukacja Sp\u00f3\u0142ka Z Ograniczon\u0105 Odpowiedzialno\u015bci\u0105","operator:type":"private","amenity":"school"}},{"id":23285,"type":"Feature","geometry":{"type":"Point","coordinates":[17.05342,51.09921]},"properties":{"ref:rspo":23285,"official_name":"Przedszkole Integracyjne Nr 12 im.diany, Ksi\u0119\u017cnej Walii","name":"Przedszkole Integracyjne Nr 12 im.diany, Ksi\u0119\u017cnej Walii","addr:country":"PL","addr:postcode":"50-432","addr:city":"Wroc\u0142aw","addr:street":"ul. Zgodna","addr:housenumber":"10-14","addr:teryt:simc":26023,"addr:teryt:sym_ul":986544,"contact:phone":"+48 717986759","contact:email":"sekretariat.p012@wroclawskaedukacja.pl","contact:website":"http:\/\/p12wroc.szkolnastrona.pl\/","ref:regon":"930112934","ref:vatin":"PL8992319251","operator":"Gmina Wroc\u0142aw","operator:type":"government","amenity":"kindergarten"}},{"id":47644,"type":"Feature","geometry":{"type":"Point","coordinates":[17.01642,51.09933]},"properties":{"ref:rspo":47644,"official_name":"Przedszkole Nr 107 S\u0142oneczko","name":"Przedszkole Nr 107 S\u0142oneczko","addr:country":"PL","addr:postcode":"53-529","addr:city":"Wroc\u0142aw","addr:street":"ul. Wincentego Stysia","addr:housenumber":"71","addr:teryt:simc":21486,"addr:teryt:sym_ul":986544,"contact:phone":"+48 717986752","contact:email":"przedszkole107.wroc@interia.pl","contact:website":"http:\/\/przedszkole107.professo.pl","ref:regon":"930113046","ref:vatin":"PL8992314549","operator":"Gmina Wroc\u0142aw","operator:type":"government","amenity":"kindergarten"}},{"id":3500,"type":"Feature","geometry":{"type":"Point","coordinates":[17.04719,51.09937]},"properties":{"ref:rspo":3500,"official_name":"Powiatowy Zesp\u00f3\u0142 Poradni Psychologiczno-Pedagogicznych we Wroc\u0142awiu","name":"Powiatowy Zesp\u00f3\u0142 Poradni Psychologiczno-Pedagogicznych we Wroc\u0142awiu","addr:country":"PL","addr:postcode":"50-440","addr:city":"Wroc\u0142aw","addr:street":"ul. Tadeusza Ko\u015bciuszki","addr:housenumber":"131","addr:teryt:simc":9582,"addr:teryt:sym_ul":986544,"contact:phone":"+48 717222002","contact:email":"kancelaria@pzp.edu.pl","contact:website":"http:\/\/www.pzp.edu.pl","ref:regon":"021940876","operator":"Powiat Wroc\u0142awski","operator:type":"government","landuse":"education","fixme":"amenity=school, amenity=college albo landuse=education w zale\u017cno\u015bci od tego, jakie plac\u00f3wki wchodz\u0105 w sk\u0142ad zespo\u0142u. Sprawd\u017a, kiedy stosowa\u0107 amenity=* a kiedy landuse=education.","note":"Children RSPO: 34988;34990"}},{"id":34988,"type":"Feature","geometry":{"type":"Point","coordinates":[17.04719,51.09934]},"properties":{"ref:rspo":34988,"official_name":"Powiatowa Poradnia Psychologiczno-Pedagogiczna Nr 1","name":"Powiatowa Poradnia Psychologiczno-Pedagogiczna Nr 1","addr:country":"PL","addr:postcode":"50-440","addr:city":"Wroc\u0142aw","addr:street":"ul. Tadeusza Ko\u015bciuszki","addr:housenumber":"131","addr:teryt:simc":9582,"addr:teryt:sym_ul":986544,"contact:phone":"+48 717222002","contact:email":"kancelaria@pzp.edu.pl","contact:website":"http:\/\/www.pzp.edu.pl","ref:regon":"932774349","operator":"Powiat Wroc\u0142awski","operator:type":"government","healthcare":"councelling","counselling_type":"education","fixme":"w zale\u017cno\u015bci od przedmiotu dzia\u0142alno\u015bci (np. healthcare=councelling + counselling_type=education albo healthcare=psychotherapist)","note":"Parent RSPO: 3500"}},{"id":34990,"type":"Feature","geometry":{"type":"Point","coordinates":[17.04719,51.09931]},"properties":{"ref:rspo":34990,"official_name":"Powiatowa Poradnia Psychologiczno-Pedagogiczna Nr 2","name":"Powiatowa Poradnia Psychologiczno-Pedagogiczna Nr 2","addr:country":"PL","addr:postcode":"50-440","addr:city":"Wroc\u0142aw","addr:street":"ul. Tadeusza Ko\u015bciuszki","addr:housenumber":"131","addr:teryt:simc":9582,"addr:teryt:sym_ul":986544,"contact:phone":"+48 717222002","contact:email":"kancelaria@pzp.edu.pl","contact:website":"http:\/\/www.pzp.edu.pl","ref:regon":"932644374","operator":"Powiat Wroc\u0142awski","operator:type":"government","healthcare":"councelling","counselling_type":"education","fixme":"w zale\u017cno\u015bci od przedmiotu dzia\u0142alno\u015bci (np. healthcare=councelling + counselling_type=education albo healthcare=psychotherapist)","note":"Parent RSPO: 3500"}},{"id":272285,"type":"Feature","geometry":{"type":"Point","coordinates":[17.00655,51.09969]},"properties":{"isced:level":"3","ref:rspo":272285,"official_name":"Niepubliczne Liceum Og\u00f3lnokszta\u0142c\u0105ce","name":"Niepubliczne Liceum Og\u00f3lnokszta\u0142c\u0105ce","addr:country":"PL","addr:postcode":"53-429","addr:city":"Wroc\u0142aw","addr:street":"ul. \u017belazna","addr:housenumber":"57","addr:teryt:simc":26433,"addr:teryt:sym_ul":986544,"contact:phone":"+48 717568047","contact:email":"sekretariat@etzchaim.pl","contact:website":"http:\/\/www.etzchaim.pl","ref:regon":"384094555","operator":"\"Fundacja Dialogu Kultur-Etz Chaim\"","operator:type":"ngo","amenity":"school"}},{"id":31005,"type":"Feature","geometry":{"type":"Point","coordinates":[17.02092,51.10018]},"properties":{"ref:rspo":31005,"official_name":"M\u0142odzie\u017cowe Centrum Edukacyjne \"Silesius\"","name":"M\u0142odzie\u017cowe Centrum Edukacyjne \"Silesius\"","addr:country":"PL","addr:postcode":"53-526","addr:city":"Wroc\u0142aw","addr:street":"ul. Wincentego Stysia","addr:housenumber":"16a","addr:teryt:simc":21486,"addr:teryt:sym_ul":986544,"contact:phone":"+48 713380793","contact:email":"angelus@silesius.org.pl","contact:website":"http:\/\/www.silesius.org.pl","ref:regon":"021985399","operator":"Dom Spotka\u0144 Im.angelusa Silesiusa","operator:type":"religious","fixme":"w zale\u017cno\u015bci od przedmiotu dzia\u0142alno\u015bci (np. amenity=training + training=*, amenity=dancing_school, amenity=language_school, amenity=music_school)"}},{"id":126575,"type":"Feature","geometry":{"type":"Point","coordinates":[17.02092,51.10015]},"properties":{"ref:rspo":126575,"official_name":"Bursa Silesius im. \u015aw. Ignacego Loyoli","name":"Bursa Silesius","addr:country":"PL","addr:postcode":"53-526","addr:city":"Wroc\u0142aw","addr:street":"ul. Wincentego Stysia","addr:housenumber":"16a","addr:teryt:simc":21486,"addr:teryt:sym_ul":986544,"contact:phone":"+48 713380793","contact:email":"bursasilesius@jezuici.pl","contact:website":"http:\/\/www.bursasilesius.jezuici.pl","ref:regon":"360561981","operator":"Dom Spotka\u0144 Im.angelusa Silesiusa","operator:type":"religious","building":"dormitory"}},{"id":42892,"type":"Feature","geometry":{"type":"Point","coordinates":[17.02291,51.10051]},"properties":{"ref:rspo":42892,"official_name":"Centrum Kszta\u0142cenia Ustawicznego","name":"Centrum Kszta\u0142cenia Ustawicznego","addr:country":"PL","addr:postcode":"50-089","addr:city":"Wroc\u0142aw","addr:street":"ul. Swobodna","addr:housenumber":"73","addr:teryt:simc":21625,"addr:teryt:sym_ul":986544,"contact:phone":"+48 717986701","contact:email":"cku@cku.wroc.pl","contact:website":"http:\/\/www.cku.wroc.pl","ref:regon":"931911761","ref:vatin":"PL8942454254","operator":"Gmina Wroc\u0142aw","operator:type":"government","amenity":"school","fixme":"amenity=school lub amenity=college","note":"Children RSPO: 91087;262415"}},{"id":91087,"type":"Feature","geometry":{"type":"Point","coordinates":[17.02291,51.10048]},"properties":{"isced:level":"3","ref:rspo":91087,"official_name":"Liceum Og\u00f3lnokszta\u0142c\u0105ce dla Doros\u0142ych Nr I","name":"Liceum Og\u00f3lnokszta\u0142c\u0105ce dla Doros\u0142ych Nr I","addr:country":"PL","addr:postcode":"50-089","addr:city":"Wroc\u0142aw","addr:street":"ul. Swobodna","addr:housenumber":"73","addr:teryt:simc":21625,"addr:teryt:sym_ul":986544,"contact:phone":"+48 717986701","contact:email":"cku@cku.wroc.pl","contact:website":"http:\/\/www.cku.wroc.pl","ref:regon":"933032101","ref:vatin":"PL8942454254","operator":"Gmina Wroc\u0142aw","operator:type":"government","amenity":"school","note":"Parent RSPO: 42892"}},{"id":262415,"type":"Feature","geometry":{"type":"Point","coordinates":[17.02291,51.10045]},"properties":{"isced:level":"1;2","ref:rspo":262415,"official_name":"Szko\u0142a Podstawowa dla Doros\u0142ych Nr 1","name":"Szko\u0142a Podstawowa dla Doros\u0142ych Nr 1","addr:country":"PL","addr:postcode":"50-089","addr:city":"Wroc\u0142aw","addr:street":"ul. Swobodna","addr:housenumber":"73","addr:teryt:simc":21625,"addr:teryt:sym_ul":986544,"contact:phone":"+48 717986701","contact:email":"sekretariat.cku@wroclawskaedukacja.pl","contact:website":"http:\/\/www.cku.wroc.pl","ref:regon":"368013517","operator":"Gmina Wroc\u0142aw","operator:type":"government","amenity":"school","note":"Parent RSPO: 42892"}},{"id":16401,"type":"Feature","geometry":{"type":"Point","coordinates":[17.02279,51.10087]},"properties":{"ref:rspo":16401,"official_name":"Wroc\u0142awskie Centrum Doskonalenia Nauczycieli","name":"Wroc\u0142awskie Centrum Doskonalenia Nauczycieli","addr:country":"PL","addr:postcode":"50-089","addr:city":"Wroc\u0142aw","addr:street":"ul. Swobodna","addr:housenumber":"73a","addr:teryt:simc":21625,"addr:teryt:sym_ul":986544,"contact:phone":"+48 717986880","contact:email":"poczta@wcdn.wroc.pl","contact:website":"http:\/\/www.wcdn.wroc.pl","ref:regon":"932367839","ref:vatin":"PL8992390912","operator":"Gmina Wroc\u0142aw","operator:type":"government","amenity":"training"}},{"id":30689,"type":"Feature","geometry":{"type":"Point","coordinates":[17.0467,51.10089]},"properties":{"ref:rspo":30689,"official_name":"Przedszkole Nr 35 Z Oddzia\u0142ami Integracyjnymi T\u0119czowy Domek","name":"Przedszkole Nr 35 Z Oddzia\u0142ami Integracyjnymi T\u0119czowy Domek","addr:country":"PL","addr:postcode":"50-446","addr:city":"Wroc\u0142aw","addr:street":"ul. gen. Kazimierza Pu\u0142askiego","addr:housenumber":"20a","addr:teryt:simc":18095,"addr:teryt:sym_ul":986544,"contact:phone":"+48 717986786","contact:email":"sekretariat.p035@wroclawskaedukacja.pl","contact:website":"https:\/\/przedszkole35.edu.wroclaw.pl\/","ref:regon":"930112963","ref:vatin":"PL8992319245","operator":"Gmina Wroc\u0142aw","operator:type":"government","amenity":"kindergarten"}},{"id":12267,"type":"Feature","geometry":{"type":"Point","coordinates":[17.04536,51.10249]},"properties":{"isced:level":"1;2","ref:rspo":12267,"official_name":"Szko\u0142a Podstawowa Nr 2 im. Henryka Sucharskiego","name":"Szko\u0142a Podstawowa Nr 2","addr:country":"PL","addr:postcode":"50-451","addr:city":"Wroc\u0142aw","addr:street":"ul. Komuny Paryskiej","addr:housenumber":"36-38","addr:teryt:simc":9101,"addr:teryt:sym_ul":986544,"contact:phone":"+48 717986843","contact:email":"sp2wroc@poczta.onet.pl","contact:website":"http:\/\/www.sp2.wroc.pl","ref:regon":"000692972","ref:vatin":"PL8992232432","operator":"Gmina Wroc\u0142aw","operator:type":"government","amenity":"school"}},{"id":278192,"type":"Feature","geometry":{"type":"Point","coordinates":[17.04536,51.10246]},"properties":{"isced:level":"1;2","ref:rspo":278192,"official_name":"Niepubliczna Szko\u0142a Podstawowa Nizio\u0142ki we Wroc\u0142awiu","name":"Niepubliczna Szko\u0142a Podstawowa Nizio\u0142ki we Wroc\u0142awiu","addr:country":"PL","addr:postcode":"50-451","addr:city":"Wroc\u0142aw","addr:street":"ul. Komuny Paryskiej","addr:housenumber":"36-38","addr:teryt:simc":9101,"addr:teryt:sym_ul":986544,"contact:phone":"+48 603623071","contact:email":"bast.3@wp.pl","contact:website":"http:\/\/niziolki.pl","ref:regon":"389873442","operator":"Agnieszka Florczak","operator:type":"private","amenity":"school"}},{"id":58135,"type":"Feature","geometry":{"type":"Point","coordinates":[17.04609,51.10348]},"properties":{"ref:rspo":58135,"official_name":"Dolno\u015bL\u0105ska Biblioteka Pedagogiczna we Wroc\u0142awiu","name":"Dolno\u015bL\u0105ska Biblioteka Pedagogiczna we Wroc\u0142awiu","addr:country":"PL","addr:postcode":"50-448","addr:city":"Wroc\u0142aw","addr:street":"ul. Stanis\u0142awa Worcella","addr:housenumber":"25-27","addr:teryt:simc":24742,"addr:teryt:sym_ul":986544,"contact:phone":"+48 713772808","ref:regon":"000194895","operator":"Wojew\u00f3dztwo Dolno\u015bl\u0105skie","operator:type":"government","amenity":"library"}},{"id":22292,"type":"Feature","geometry":{"type":"Point","coordinates":[17.0496899,51.1038799]},"properties":{"ref:rspo":22292,"official_name":"\"S\u0142oneczne Przedszkole\"","name":"\"S\u0142oneczne Przedszkole\"","addr:country":"PL","addr:postcode":"50-418","addr:city":"Wroc\u0142aw","addr:street":"ul. gen. Romualda Traugutta","addr:housenumber":"60","addr:door":"2","addr:teryt:simc":22963,"addr:teryt:sym_ul":986544,"contact:phone":"+48 730888778","contact:email":"biuro@sloneczneprzedszkole.pl","contact:website":"http:\/\/www.sloneczneprzedszkole.pl","ref:regon":"021981527","operator":"Iwona Rutkowska","operator:type":"private","amenity":"kindergarten"}},{"id":42509,"type":"Feature","geometry":{"type":"Point","coordinates":[17.04733,51.10405]},"properties":{"isced:level":"3","ref:rspo":42509,"official_name":"Liceum Og\u00f3lnokszta\u0142c\u0105ce Nr XIII im.aleksandra Fredry","name":"Liceum Og\u00f3lnokszta\u0142c\u0105ce Nr XIII im.aleksandra Fredry","addr:country":"PL","addr:postcode":"50-447","addr:city":"Wroc\u0142aw","addr:street":"ul. gen. J\u00f3zefa Haukego-Bosaka","addr:housenumber":"33-37","addr:teryt:simc":6554,"addr:teryt:sym_ul":986544,"contact:phone":"+48 717986904","contact:email":"sekretariat@lo13.wroc.pl","contact:website":"http:\/\/www.lo13.wroc.pl","ref:regon":"000704296","ref:vatin":"PL8992021066","operator":"Gmina Wroc\u0142aw","operator:type":"government","amenity":"school"}},{"id":18545,"type":"Feature","geometry":{"type":"Point","coordinates":[17.04325,51.1044399]},"properties":{"isced:level":"4","ref:rspo":18545,"official_name":"Policealne Studium \"O\u015bwiata\"","name":"Policealne Studium \"O\u015bwiata\"","addr:country":"PL","addr:postcode":"50-448","addr:city":"Wroc\u0142aw","addr:street":"ul. Stanis\u0142awa Worcella","addr:housenumber":"3","addr:teryt:simc":24742,"addr:teryt:sym_ul":986544,"contact:phone":"+48 502741016","contact:email":"policealne@oswiata.wroc.pl","contact:website":"http:\/\/www.oswiata.wroc.pl","ref:regon":"021975030","operator":"Ryszard Janklowski","operator:type":"private","amenity":"college"}},{"id":22122,"type":"Feature","geometry":{"type":"Point","coordinates":[17.04325,51.1044099]},"properties":{"ref:rspo":22122,"official_name":"Centrum Doskonalenia Kadr \"O\u015bwiata\"","name":"Centrum Doskonalenia Kadr \"O\u015bwiata\"","addr:country":"PL","addr:postcode":"50-448","addr:city":"Wroc\u0142aw","addr:street":"ul. Stanis\u0142awa Worcella","addr:housenumber":"3","addr:teryt:simc":24742,"addr:teryt:sym_ul":986544,"contact:phone":"+48 502741016","contact:email":"oswiata@oswiata.wroc.pl","contact:website":"http:\/\/www.oswiata.wroc.pl","ref:regon":"021980545","operator":"Ryszard Janklowski","operator:type":"private","fixme":"w zale\u017cno\u015bci od przedmiotu dzia\u0142alno\u015bci (np. amenity=training + training=*, amenity=dancing_school, amenity=language_school, amenity=music_school)"}},{"id":42887,"type":"Feature","geometry":{"type":"Point","coordinates":[17.04325,51.104379900000005]},"properties":{"ref:rspo":42887,"official_name":"Zesp\u00f3\u0142 Szk\u00f3\u0142 Ekonomiczno-Administracyjnych","name":"Zesp\u00f3\u0142 Szk\u00f3\u0142 Ekonomiczno-Administracyjnych","addr:country":"PL","addr:postcode":"50-448","addr:city":"Wroc\u0142aw","addr:street":"ul. Stanis\u0142awa Worcella","addr:housenumber":"3","addr:teryt:simc":24742,"addr:teryt:sym_ul":986544,"contact:phone":"+48 717986909","contact:email":"zsea@zse.wroc.pl","contact:website":"http:\/\/www.zsea.wroclaw.szkolnastrona.pl","ref:regon":"000186140","ref:vatin":"PL8991791483","operator":"Gmina Wroc\u0142aw","operator:type":"government","landuse":"education","fixme":"amenity=school, amenity=college albo landuse=education w zale\u017cno\u015bci od tego, jakie plac\u00f3wki wchodz\u0105 w sk\u0142ad zespo\u0142u. Sprawd\u017a, kiedy stosowa\u0107 amenity=* a kiedy landuse=education.","note":"Children RSPO: 90649;90650"}},{"id":272913,"type":"Feature","geometry":{"type":"Point","coordinates":[17.04325,51.1043499]},"properties":{"isced:level":"3","ref:rspo":272913,"official_name":"Educo Liceum Og\u00f3lnokszta\u0142c\u0105ce dla Doros\u0142ych we Wroc\u0142awiu","name":"Educo Liceum Og\u00f3lnokszta\u0142c\u0105ce dla Doros\u0142ych we Wroc\u0142awiu","addr:country":"PL","addr:postcode":"50-448","addr:city":"Wroc\u0142aw","addr:street":"ul. Stanis\u0142awa Worcella","addr:housenumber":"3","addr:teryt:simc":24742,"addr:teryt:sym_ul":986544,"contact:phone":"+48 794357033","contact:email":"erazma.biuro@gmail.com","ref:regon":"384330932","operator":"Erazma Sp\u00f3\u0142ka Z Ograniczon\u0105 Odpowiedzialno\u015bci\u0105","operator:type":"private","amenity":"school"}},{"id":272914,"type":"Feature","geometry":{"type":"Point","coordinates":[17.04325,51.1043199]},"properties":{"isced:level":"4","ref:rspo":272914,"official_name":"Educo Szko\u0142a Policealna we Wroc\u0142awiu","name":"Educo Szko\u0142a Policealna we Wroc\u0142awiu","addr:country":"PL","addr:postcode":"50-448","addr:city":"Wroc\u0142aw","addr:street":"ul. Stanis\u0142awa Worcella","addr:housenumber":"3","addr:teryt:simc":24742,"addr:teryt:sym_ul":986544,"contact:phone":"+48 794357033","contact:email":"erazma.biuro@gmail.com","ref:regon":"384330978","operator":"Erazma Sp\u00f3\u0142ka Z Ograniczon\u0105 Odpowiedzialno\u015bci\u0105","operator:type":"private","amenity":"college"}},{"id":90649,"type":"Feature","geometry":{"type":"Point","coordinates":[17.04325,51.104289900000005]},"properties":{"isced:level":"3","ref:rspo":90649,"official_name":"Technikum Nr 13 im. Marii D\u0105browskiej","name":"Technikum Nr 13","addr:country":"PL","addr:postcode":"50-448","addr:city":"Wroc\u0142aw","addr:street":"ul. Stanis\u0142awa Worcella","addr:housenumber":"3","addr:teryt:simc":24742,"addr:teryt:sym_ul":986544,"contact:phone":"+48 717986909","contact:email":"zsea@zse.wroc.pl","contact:website":"http:\/\/www.zsea.wroclaw.szkolnastrona.pl","ref:regon":"020582268","ref:vatin":"PL8991791483","operator":"Gmina Wroc\u0142aw","operator:type":"government","amenity":"school","note":"Parent RSPO: 42887"}},{"id":90650,"type":"Feature","geometry":{"type":"Point","coordinates":[17.04325,51.1042599]},"properties":{"isced:level":"4","ref:rspo":90650,"official_name":"Szko\u0142a Policealna Nr 2","name":"Szko\u0142a Policealna Nr 2","addr:country":"PL","addr:postcode":"50-448","addr:city":"Wroc\u0142aw","addr:street":"ul. Stanis\u0142awa Worcella","addr:housenumber":"3","addr:teryt:simc":24742,"addr:teryt:sym_ul":986544,"contact:phone":"+48 717986909","contact:email":"zsea@zse.wroc.pl","contact:website":"http:\/\/www.zsea.wroclaw.szkolnastrona.pl","ref:regon":"020120898","ref:vatin":"PL8991791483","operator":"Gmina Wroc\u0142aw","operator:type":"government","amenity":"college","note":"Parent RSPO: 42887"}},{"id":18249,"type":"Feature","geometry":{"type":"Point","coordinates":[17.04568,51.10462]},"properties":{"isced:level":"4","ref:rspo":18249,"official_name":"Regionalny O\u015brodek Edukacji Szko\u0142a Policealna","name":"Regionalny O\u015brodek Edukacji Szko\u0142a Policealna","addr:country":"PL","addr:postcode":"50-148","addr:city":"Wroc\u0142aw","addr:street":"ul. gen. J\u00f3zefa Haukego-Bosaka","addr:housenumber":"21","addr:teryt:simc":6554,"addr:teryt:sym_ul":986544,"contact:phone":"+48 713422774","contact:email":"biuro@roe.pl","contact:website":"http:\/\/www.roe.pl","ref:regon":"021975171","operator":"Regionalny O\u015brodek Edukacji Sp\u00f3\u0142ka Z Ograniczon\u0105 Odpowiedzialno\u015bci\u0105","operator:type":"private","amenity":"college"}},{"id":42890,"type":"Feature","geometry":{"type":"Point","coordinates":[17.04568,51.104589999999995]},"properties":{"ref:rspo":42890,"official_name":"Zesp\u00f3\u0142 Szk\u00f3\u0142 Teleinformatycznych I Elektronicznych","name":"Zesp\u00f3\u0142 Szk\u00f3\u0142 Teleinformatycznych I Elektronicznych","addr:country":"PL","addr:postcode":"50-447","addr:city":"Wroc\u0142aw","addr:street":"ul. gen. J\u00f3zefa Haukego-Bosaka","addr:housenumber":"21","addr:teryt:simc":6554,"addr:teryt:sym_ul":986544,"contact:phone":"+48 717986933","contact:email":"szkola@zstie.edu.pl","contact:website":"http:\/\/www.zstie.edu.pl","ref:regon":"932802293","ref:vatin":"PL8992455037","operator":"Gmina Wroc\u0142aw","operator:type":"government","landuse":"education","fixme":"amenity=school, amenity=college albo landuse=education w zale\u017cno\u015bci od tego, jakie plac\u00f3wki wchodz\u0105 w sk\u0142ad zespo\u0142u. Sprawd\u017a, kiedy stosowa\u0107 amenity=* a kiedy landuse=education.","note":"Children RSPO: 91079;91080;274841"}},{"id":109881,"type":"Feature","geometry":{"type":"Point","coordinates":[17.04568,51.10456]},"properties":{"isced:level":"4","ref:rspo":109881,"official_name":"Niepubliczna Artystyczna Policealna Szko\u0142a Plastyczna Roe we Wroc\u0142awiu","name":"Niepubliczna Artystyczna Policealna Szko\u0142a Plastyczna Roe we Wroc\u0142awiu","addr:country":"PL","addr:postcode":"50-447","addr:city":"Wroc\u0142aw","addr:street":"ul. gen. J\u00f3zefa Haukego-Bosaka","addr:housenumber":"21","addr:teryt:simc":6554,"addr:teryt:sym_ul":986544,"contact:phone":"+48 713422774","contact:email":"biuro@roe.pl","contact:website":"http:\/\/www.roe.pl","ref:regon":"022078290","operator":"Regionalny O\u015brodek Edukacji Sp\u00f3\u0142ka Z Ograniczon\u0105 Odpowiedzialno\u015bci\u0105","operator:type":"private","amenity":"college"}},{"id":120527,"type":"Feature","geometry":{"type":"Point","coordinates":[17.04568,51.10453]},"properties":{"ref:rspo":120527,"official_name":"Regionalny O\u015brodek Kszta\u0142cenia Ustawicznego","name":"Regionalny O\u015brodek Kszta\u0142cenia Ustawicznego","addr:country":"PL","addr:postcode":"55-447","addr:city":"Wroc\u0142aw","addr:street":"ul. gen. J\u00f3zefa Haukego-Bosaka","addr:housenumber":"21","addr:teryt:simc":6554,"addr:teryt:sym_ul":986544,"contact:phone":"+48 228270137","contact:email":"biuro@roe.pl","contact:website":"http:\/\/www.roe.pl","ref:regon":"022269819","operator":"Regionalny O\u015brodek Edukacji Sp\u00f3\u0142ka Z Ograniczon\u0105 Odpowiedzialno\u015bci\u0105","operator:type":"private","fixme":"w zale\u017cno\u015bci od przedmiotu dzia\u0142alno\u015bci (np. amenity=training + training=*, amenity=dancing_school, amenity=language_school, amenity=music_school)"}},{"id":279153,"type":"Feature","geometry":{"type":"Point","coordinates":[17.04568,51.104499999999994]},"properties":{"ref:rspo":279153,"official_name":"Centrum Kszta\u0142cenia Ustawicznego \"Copernicus\" we Wroc\u0142awiu","name":"Centrum Kszta\u0142cenia Ustawicznego \"Copernicus\" we Wroc\u0142awiu","addr:country":"PL","addr:postcode":"50-447","addr:city":"Wroc\u0142aw","addr:street":"ul. gen. J\u00f3zefa Haukego-Bosaka","addr:housenumber":"21","addr:teryt:simc":6554,"addr:teryt:sym_ul":986544,"contact:phone":"+48 713307277","contact:email":"wroclaw@copernicus.edu.pl","contact:website":"http:\/\/copernicus.edu.pl","ref:regon":"520801252","operator":"Centrum Edukacji Copernicus Sp\u00f3\u0142ka Z Ograniczon\u0105 Odpowiedzialno\u015bci\u0105","operator:type":"private","fixme":"w zale\u017cno\u015bci od przedmiotu dzia\u0142alno\u015bci (np. amenity=training + training=*, amenity=dancing_school, amenity=language_school, amenity=music_school)"}},{"id":91079,"type":"Feature","geometry":{"type":"Point","coordinates":[17.04568,51.10447]},"properties":{"isced:level":"3","ref:rspo":91079,"official_name":"Technikum Nr 7 im. Polskich Zwyci\u0119zc\u00f3w Enigmy","name":"Technikum Nr 7","addr:country":"PL","addr:postcode":"50-447","addr:city":"Wroc\u0142aw","addr:street":"ul. gen. J\u00f3zefa Haukego-Bosaka","addr:housenumber":"21","addr:teryt:simc":6554,"addr:teryt:sym_ul":986544,"contact:phone":"+48 717986933","contact:email":"sekretariat.zstie@wroclawskaedukacja.pl","ref:regon":"020519620","ref:vatin":"PL8992455037","operator":"Gmina Wroc\u0142aw","operator:type":"government","amenity":"school","note":"Parent RSPO: 42890"}},{"id":91080,"type":"Feature","geometry":{"type":"Point","coordinates":[17.04568,51.10444]},"properties":{"isced:level":"3","ref:rspo":91080,"official_name":"Bran\u017cowa Szko\u0142a I Stopnia Nr 1 im. Polskich Zwyci\u0119zc\u00f3w Enigmy","name":"Bran\u017cowa Szko\u0142a I Stopnia Nr 1","addr:country":"PL","addr:postcode":"50-447","addr:city":"Wroc\u0142aw","addr:street":"ul. gen. J\u00f3zefa Haukego-Bosaka","addr:housenumber":"21","addr:teryt:simc":6554,"addr:teryt:sym_ul":986544,"contact:phone":"+48 717986933","contact:email":"szkola@zstie.edu.pl","ref:regon":"932800650","ref:vatin":"PL8992455037","operator":"Gmina Wroc\u0142aw","operator:type":"government","amenity":"school","note":"Parent RSPO: 42890"}},{"id":274841,"type":"Feature","geometry":{"type":"Point","coordinates":[17.04568,51.104409999999994]},"properties":{"isced:level":"3","ref:rspo":274841,"official_name":"Bran\u017cowa Szko\u0142a II Stopnia Nr 1 im. Polskich Zwyci\u0119zc\u00f3w Enigmy","name":"Bran\u017cowa Szko\u0142a II Stopnia Nr 1","addr:country":"PL","addr:postcode":"50-447","addr:city":"Wroc\u0142aw","addr:street":"ul. gen. J\u00f3zefa Haukego-Bosaka","addr:housenumber":"21","addr:teryt:simc":6554,"addr:teryt:sym_ul":986544,"contact:phone":"+48 717986933","contact:email":"szkola@zstie.edu.pl","contact:website":"http:\/\/www.zstie.edu.pl","ref:regon":"386337358","operator":"Gmina Wroc\u0142aw","operator:type":"government","amenity":"school","note":"Parent RSPO: 42890"}},{"id":275650,"type":"Feature","geometry":{"type":"Point","coordinates":[17.05674,51.10482]},"properties":{"ref:rspo":275650,"official_name":"Publiczne Przedszkole \"Kropelka\"","name":"Publiczne Przedszkole \"Kropelka\"","addr:country":"PL","addr:postcode":"50-421","addr:city":"Wroc\u0142aw","addr:street":"ul. Na Grobli","addr:housenumber":"14\/16","addr:teryt:simc":13600,"addr:teryt:sym_ul":986544,"contact:phone":"+48 501981232","contact:email":"kropelka.wroclaw@operator.edu.pl","contact:website":"https:\/\/kropelka-wroclaw.operator.edu.pl","ref:regon":"386930613","operator":"Og\u00f3lnopolski Operator O\u015bwiaty","operator:type":"ngo","amenity":"kindergarten"}},{"id":24518,"type":"Feature","geometry":{"type":"Point","coordinates":[17.0442367,51.1051579]},"properties":{"ref:rspo":24518,"official_name":"Przedszkole Nr 146 Wyspa Dzieci","name":"Przedszkole Nr 146 Wyspa Dzieci","addr:country":"PL","addr:postcode":"50-447","addr:city":"Wroc\u0142aw","addr:street":"ul. gen. J\u00f3zefa Haukego-Bosaka","addr:housenumber":"9c","addr:teryt:simc":6554,"addr:teryt:sym_ul":986544,"contact:phone":"+48 717986770","contact:email":"sekretariat.p146@wroclawskaedukacja.pl","contact:website":"http:\/\/przedszkole146-wroc.edupage.org","ref:regon":"930113129","ref:vatin":"PL8992319268","operator":"Gmina Wroc\u0142aw","operator:type":"government","amenity":"kindergarten"}},{"id":15098,"type":"Feature","geometry":{"type":"Point","coordinates":[17.04658,51.10558]},"properties":{"isced:level":"1;2","ref:rspo":15098,"official_name":"Szermiercza Sportowa Szko\u0142a Podstawowa Nr 85 im. Prof. Mariana Suskiego","name":"Szermiercza Sportowa Szko\u0142a Podstawowa Nr 85","addr:country":"PL","addr:postcode":"50-416","addr:city":"Wroc\u0142aw","addr:street":"ul. gen. Romualda Traugutta","addr:housenumber":"37","addr:teryt:simc":22963,"addr:teryt:sym_ul":986544,"contact:phone":"+48 717986871","contact:email":"sekretariat.sp085@wroclawskaedukacja.pl","contact:website":"http:\/\/www.sp85.wroc.pl","ref:regon":"930277517","ref:vatin":"PL8991069266","operator":"Gmina Wroc\u0142aw","operator:type":"government","amenity":"school"}},{"id":129317,"type":"Feature","geometry":{"type":"Point","coordinates":[17.04621,51.1069699]},"properties":{"ref:rspo":129317,"official_name":"Niepubliczna Specjalistyczna Poradnia Wczesnego Wspomagania Rozwoju Dziecka","name":"Niepubliczna Specjalistyczna Poradnia Wczesnego Wspomagania Rozwoju Dziecka","addr:country":"PL","addr:postcode":"50-403","addr:city":"Wroc\u0142aw","addr:street":"ul. Dobrzy\u0144ska","addr:housenumber":"21-23","addr:teryt:simc":3995,"addr:teryt:sym_ul":986544,"contact:phone":"+48 717747770","contact:email":"sekretariat@wzsoz.wroc.pl","contact:website":"http:\/\/www.dobrzynska.wroc.pl","ref:regon":"362580698","operator":"Wojew\u00f3dzki Zesp\u00f3\u0142 Specjalistycznej Opieki Zdrowotnej","operator:type":"ngo","healthcare":"councelling","counselling_type":"education","fixme":"w zale\u017cno\u015bci od przedmiotu dzia\u0142alno\u015bci (np. healthcare=councelling + counselling_type=education albo healthcare=psychotherapist)"}},{"id":71671,"type":"Feature","geometry":{"type":"Point","coordinates":[17.02691078186,51.108249664307]},"properties":{"ref:rspo":71671,"official_name":"Punkt Przedszkolny Ziarenko","name":"Punkt Przedszkolny Ziarenko","addr:country":"PL","addr:postcode":"52-113","addr:city":"Wroc\u0142aw","addr:street":"ul. Pionier\u00f3w","addr:housenumber":"9","addr:door":"1","addr:teryt:simc":16290,"addr:teryt:sym_ul":986544,"contact:phone":"+48 784019639","contact:email":"przedszkole-ziarenko@wp.pl","contact:website":"http:\/\/www.przedszkole-ziarenko.pl","ref:regon":"022005090","operator":"Renata Liszka","operator:type":"private","amenity":"kindergarten"}},{"id":276738,"type":"Feature","geometry":{"type":"Point","coordinates":[17.09059,51.11123]},"properties":{"ref:rspo":276738,"official_name":"Publiczne Przedszkole \"Kr\u0119cio\u0142ek\"","name":"Publiczne Przedszkole \"Kr\u0119cio\u0142ek\"","addr:country":"PL","addr:postcode":"52-119","addr:city":"Wroc\u0142aw","addr:street":"ul. 3 Maja","addr:housenumber":"13d","addr:teryt:simc":11937,"addr:teryt:sym_ul":986544,"contact:phone":"+48 502266723","contact:email":"biuro@przedszkolekreciolek.pl","ref:regon":"387460279","operator":"Fundacja \"Harmonia\"","operator:type":"ngo","amenity":"kindergarten"}},{"id":110115,"type":"Feature","geometry":{"type":"Point","coordinates":[16.94812,51.14124]},"properties":{"ref:rspo":110115,"official_name":"Wsp\u00f3lna Planeta","name":"Wsp\u00f3lna Planeta","addr:country":"PL","addr:postcode":"52-201","addr:city":"Wroc\u0142aw","addr:street":"ul. gen. Stanis\u0142awa Maczka","addr:housenumber":"9","addr:door":"2","addr:teryt:simc":11862,"addr:teryt:sym_ul":986544,"contact:phone":"+48 501174592","contact:email":"biuro@wspolnyswiat.com.pl","contact:website":"http:\/\/www.wspolnyswiat.com.pl","ref:regon":"022087573","operator":"Beata Dr\u00f3\u017cdz","operator:type":"private","amenity":"kindergarten"}}]}