{
    "type": "FeatureCollection",
    "features": [
        {
            "id": 16800,
            "type": "Feature",
            "geometry": {
                "type": "Point",
                "coordinates": [
                    18.9031897,
                    50.6722194
                ]
            },
            "properties": {
                "ref:rspo": 16800,
                "official_name": "Przedszkole Prywatne \"Krzy\u015b\" w Boronowie",
                "name": "Przedszkole Prywatne \"Krzy\u015b\" w Boronowie",
                "addr:postcode": "42-283",
                "addr:city": "Boron\u00f3w",
                "addr:street": "Wojska Polskiego",
                "addr:housenumber": "6",
                "addr:teryt:simc": 132196,
                "addr:teryt:sym_ul": 24628,
                "phone": "+48 343411141",
                "email": "roczornik@agentpzu.pl",
                "ref:regon": "243045425",
                "ref:vatin": "PL5751039181",
                "operator": "Roman Czornik",
                "operator:type": "private",
                "amenity": "kindergarten"
            }
        },
        {
            "id": 268686,
            "type": "Feature",
            "geometry": {
                "type": "Point",
                "coordinates": [
                    18.9031897,
                    50.6721894
                ]
            },
            "properties": {
                "isced:level": "1;2",
                "ref:rspo": 268686,
                "official_name": "Prywatna Szko\u0142a Podstawowa Z Oddzia\u0142ami Integracyjnymi",
                "name": "Prywatna Szko\u0142a Podstawowa Z Oddzia\u0142ami Integracyjnymi",
                "addr:postcode": "42-283",
                "addr:city": "Boron\u00f3w",
                "addr:street": "Wojska Polskiego",
                "addr:housenumber": "6",
                "addr:teryt:simc": 132196,
                "addr:teryt:sym_ul": 24628,
                "phone": "+48 343411141",
                "email": "roczornik@agentpzu.pl",
                "ref:regon": "381233275",
                "ref:vatin": "PL5751039181",
                "operator": "Roman Czornik",
                "operator:type": "private",
                "amenity": "school"
            }
        },
        {
            "id": 16726,
            "type": "Feature",
            "geometry": {
                "type": "Point",
                "coordinates": [
                    18.90757,
                    50.67592
                ]
            },
            "properties": {
                "ref:rspo": 16726,
                "official_name": "Zesp\u00f3\u0142 Plac\u00f3wek O\u015bwiatowych im. Unii Europejskiej w Boronowie",
                "name": "Zesp\u00f3\u0142 Plac\u00f3wek O\u015bwiatowych",
                "addr:postcode": "42-283",
                "addr:city": "Boron\u00f3w",
                "addr:street": "Pozna\u0144ska",
                "addr:housenumber": "2",
                "addr:teryt:simc": 132196,
                "addr:teryt:sym_ul": 17394,
                "phone": "+48 343539289",
                "email": "zpo_boronow@op.pl",
                "website": "http:\/\/www.zpo-boronow.pl",
                "ref:regon": "151982368",
                "ref:vatin": "PL5751762658",
                "operator": "Gmina Boron\u00f3w",
                "operator:type": "government",
                "landuse": "education",
                "fixme": "amenity=school, amenity=college albo landuse=education w zale\u017cno\u015bci od tego, jakie plac\u00f3wki wchodz\u0105 w sk\u0142ad zespo\u0142u. Sprawd\u017a, kiedy stosowa\u0107 amenity=* a kiedy landuse=education.",
                "note": "Children RSPO: 23126;23128"
            }
        },
        {
            "id": 23126,
            "type": "Feature",
            "geometry": {
                "type": "Point",
                "coordinates": [
                    18.90757,
                    50.675889999999995
                ]
            },
            "properties": {
                "ref:rspo": 23126,
                "official_name": "Przedszkole Samorz\u0105dowe Boron\u00f3w",
                "name": "Przedszkole Samorz\u0105dowe Boron\u00f3w",
                "addr:postcode": "42-283",
                "addr:city": "Boron\u00f3w",
                "addr:street": "Pozna\u0144ska",
                "addr:housenumber": "2",
                "addr:teryt:simc": 132196,
                "addr:teryt:sym_ul": 17394,
                "phone": "+48 343539289",
                "email": "zpo_boronow@op.pl",
                "website": "http:\/\/www.zpo-boronow.pl",
                "ref:regon": "150549043",
                "ref:vatin": "PL5751322445",
                "operator": "Gmina Boron\u00f3w",
                "operator:type": "government",
                "amenity": "kindergarten",
                "note": "Parent RSPO: 16726"
            }
        },
        {
            "id": 23128,
            "type": "Feature",
            "geometry": {
                "type": "Point",
                "coordinates": [
                    18.90757,
                    50.67586
                ]
            },
            "properties": {
                "isced:level": "1;2",
                "ref:rspo": 23128,
                "official_name": "Szko\u0142a Podstawowa w Boronowie w Zespole Plac\u00f3wek O\u015bwiatowych im. Unii Europejskiej w Boronowie",
                "name": "Szko\u0142a Podstawowa w Boronowie w Zespole Plac\u00f3wek O\u015bwiatowych",
                "addr:postcode": "42-283",
                "addr:city": "Boron\u00f3w",
                "addr:street": "Pozna\u0144ska",
                "addr:housenumber": "2",
                "addr:teryt:simc": 132196,
                "addr:teryt:sym_ul": 17394,
                "phone": "+48 343539289",
                "email": "zpo_boronow@op.pl",
                "website": "http:\/\/www.zpo-boronow.pl",
                "ref:regon": "001204845",
                "ref:vatin": "PL5751267261",
                "operator": "Gmina Boron\u00f3w",
                "operator:type": "government",
                "amenity": "school",
                "note": "Parent RSPO: 16726"
            }
        }
    ]
}