{
    "type": "FeatureCollection",
    "features": [
        {
            "id": 109197,
            "type": "Feature",
            "geometry": {
                "type": "Point",
                "coordinates": [
                    18.6421,
                    50.71516
                ]
            },
            "properties": {
                "isced:level": "1;2",
                "ref:rspo": 109197,
                "official_name": "Zesp\u00f3\u0142 Szkolno-Przedszkolny w Ciasnej-Szko\u0142a Podstawowa w Ciasnej im. Powsta\u0144c\u00f3w \u015aL\u0105skich -Filia w Glinicy im. Prof. Dr Hab. Antoniego G\u0142adysza",
                "name": "Zesp\u00f3\u0142 Szkolno-Przedszkolny w Ciasnej-Szko\u0142a Podstawowa w Ciasnej",
                "addr:country": "PL",
                "addr:postcode": "42-793",
                "addr:city": "Glinica",
                "addr:street": "Asfaltowa",
                "addr:housenumber": "6",
                "addr:teryt:simc": 464,
                "addr:teryt:sym_ul": 130582,
                "contact:phone": "+48 343512218",
                "ref:regon": "582373000",
                "operator": "Gmina Ciasna",
                "operator:type": "government",
                "amenity": "school",
                "note": "Parent RSPO: 91715"
            }
        },
        {
            "id": 78065,
            "type": "Feature",
            "geometry": {
                "type": "Point",
                "coordinates": [
                    18.61015,
                    50.75404
                ]
            },
            "properties": {
                "ref:rspo": 78065,
                "official_name": "Zesp\u00f3\u0142 Szkolno-Przedszkolny w Ciasnej",
                "name": "Zesp\u00f3\u0142 Szkolno-Przedszkolny w Ciasnej",
                "addr:country": "PL",
                "addr:postcode": "42-793",
                "addr:city": "Ciasna",
                "addr:street": "Zjednoczenia",
                "addr:housenumber": "2a",
                "addr:teryt:simc": 26174,
                "addr:teryt:sym_ul": 130524,
                "contact:phone": "+48 343930016",
                "contact:email": "zespolciasna@o2.pl",
                "ref:regon": "240147533",
                "ref:vatin": "PL5751787902",
                "operator": "Gmina Ciasna",
                "operator:type": "government",
                "landuse": "education",
                "fixme": "amenity=school, amenity=college albo landuse=education w zale\u017cno\u015bci od tego, jakie plac\u00f3wki wchodz\u0105 w sk\u0142ad zespo\u0142u. Sprawd\u017a, kiedy stosowa\u0107 amenity=* a kiedy landuse=education.",
                "note": "Children RSPO: 91713;91715"
            }
        },
        {
            "id": 91713,
            "type": "Feature",
            "geometry": {
                "type": "Point",
                "coordinates": [
                    18.61152,
                    50.75428
                ]
            },
            "properties": {
                "ref:rspo": 91713,
                "official_name": "Zesp\u00f3\u0142 Szkolno-Przedszkolny w Ciasnej -Przedszkole Samorz\u0105dowe w Ciasnej",
                "name": "Zesp\u00f3\u0142 Szkolno-Przedszkolny w Ciasnej -Przedszkole Samorz\u0105dowe w Ciasnej",
                "addr:country": "PL",
                "addr:postcode": "42-793",
                "addr:city": "Ciasna",
                "addr:street": "Zjednoczenia",
                "addr:housenumber": "10",
                "addr:teryt:simc": 26174,
                "addr:teryt:sym_ul": 130524,
                "contact:phone": "+48 343535527",
                "ref:regon": "151960190",
                "operator": "Gmina Ciasna",
                "operator:type": "government",
                "amenity": "kindergarten",
                "note": "Parent RSPO: 78065"
            }
        },
        {
            "id": 265758,
            "type": "Feature",
            "geometry": {
                "type": "Point",
                "coordinates": [
                    18.62203,
                    50.77894
                ]
            },
            "properties": {
                "isced:level": "1;2",
                "ref:rspo": 265758,
                "official_name": "Zesp\u00f3\u0142 Szkolno-Przedszkolny w Ciasnej-Szko\u0142a Podstawowa im. Powsta\u0144c\u00f3w \u015aL\u0105skich - Szko\u0142a Filialna w Molnej",
                "name": "Zesp\u00f3\u0142 Szkolno-Przedszkolny w Ciasnej-Szko\u0142a Podstawowa",
                "addr:country": "PL",
                "addr:postcode": "42-793",
                "addr:city": "Molna",
                "addr:street": "Tylna",
                "addr:housenumber": "1",
                "addr:teryt:simc": 23240,
                "addr:teryt:sym_ul": 130620,
                "contact:phone": "+48 343535084",
                "contact:email": "sp.ciasna@interia.pl",
                "ref:regon": "582373000",
                "operator": "Gmina Ciasna",
                "operator:type": "government",
                "amenity": "school",
                "note": "Parent RSPO: 91715"
            }
        },
        {
            "id": 84609,
            "type": "Feature",
            "geometry": {
                "type": "Point",
                "coordinates": [
                    18.67317,
                    50.77971
                ]
            },
            "properties": {
                "isced:level": "1;2",
                "ref:rspo": 84609,
                "official_name": "Szko\u0142a Podstawowa w Zborowskiem",
                "name": "Szko\u0142a Podstawowa w Zborowskiem",
                "addr:country": "PL",
                "addr:postcode": "42-793",
                "addr:city": "Zborowskie",
                "addr:street": "G\u0142\u00f3wna",
                "addr:housenumber": "33",
                "addr:teryt:simc": 5635,
                "addr:teryt:sym_ul": 130754,
                "contact:phone": "+48 343535087",
                "contact:email": "pspzborowskie@interia.pl",
                "ref:regon": "001155070",
                "ref:vatin": "PL5751736678",
                "operator": "Gmina Ciasna",
                "operator:type": "government",
                "amenity": "school"
            }
        },
        {
            "id": 91715,
            "type": "Feature",
            "geometry": {
                "type": "Point",
                "coordinates": [
                    18.58184,
                    50.79661
                ]
            },
            "properties": {
                "isced:level": "1;2",
                "ref:rspo": 91715,
                "official_name": "Zesp\u00f3\u0142-Szkolno Przedszkolny w Ciasnej-Szko\u0142a Podstawowa w Ciasnej im. Powsta\u0144c\u00f3w \u015aL\u0105skich",
                "name": "Zesp\u00f3\u0142-Szkolno Przedszkolny w Ciasnej-Szko\u0142a Podstawowa w Ciasnej",
                "addr:country": "PL",
                "addr:postcode": "42-793",
                "addr:city": "Ciasna",
                "addr:street": "Lubliniecka",
                "addr:housenumber": "21",
                "addr:teryt:simc": 11333,
                "addr:teryt:sym_ul": 130524,
                "contact:phone": "+48 343535612",
                "contact:email": "sp.ciasna@interia.pl",
                "ref:regon": "000582373",
                "operator": "Gmina Ciasna",
                "operator:type": "government",
                "amenity": "school",
                "note": "Children RSPO: 109197;265758Parent RSPO: 78065"
            }
        },
        {
            "id": 84612,
            "type": "Feature",
            "geometry": {
                "type": "Point",
                "coordinates": [
                    18.58221,
                    50.79903
                ]
            },
            "properties": {
                "ref:rspo": 84612,
                "official_name": "Zesp\u00f3\u0142 Szkolno-Przedszkolny w Sierakowie \u015aL\u0105skim",
                "name": "Zesp\u00f3\u0142 Szkolno-Przedszkolny w Sierakowie \u015aL\u0105skim",
                "addr:country": "PL",
                "addr:postcode": "42-793",
                "addr:city": "Sierak\u00f3w \u015al\u0105ski",
                "addr:street": "Szkolna",
                "addr:housenumber": "4",
                "addr:teryt:simc": 21970,
                "addr:teryt:sym_ul": 130671,
                "contact:phone": "+48 343538032",
                "contact:email": "zspsierakow@tlen.pl",
                "ref:regon": "240147510",
                "ref:vatin": "PL5751787919",
                "operator": "Gmina Ciasna",
                "operator:type": "government",
                "landuse": "education",
                "fixme": "amenity=school, amenity=college albo landuse=education w zale\u017cno\u015bci od tego, jakie plac\u00f3wki wchodz\u0105 w sk\u0142ad zespo\u0142u. Sprawd\u017a, kiedy stosowa\u0107 amenity=* a kiedy landuse=education.",
                "note": "Children RSPO: 91794;91795"
            }
        },
        {
            "id": 91795,
            "type": "Feature",
            "geometry": {
                "type": "Point",
                "coordinates": [
                    18.58221,
                    50.799
                ]
            },
            "properties": {
                "isced:level": "1;2",
                "ref:rspo": 91795,
                "official_name": "Zesp\u00f3\u0142 Szkolno-Przedszkolny w Sierakowie \u015aL\u0105skim-Szko\u0142a Podstawowa w Sierakowie \u015aL\u0105skim",
                "name": "Zesp\u00f3\u0142 Szkolno-Przedszkolny w Sierakowie \u015aL\u0105skim-Szko\u0142a Podstawowa w Sierakowie \u015aL\u0105skim",
                "addr:country": "PL",
                "addr:postcode": "42-793",
                "addr:city": "Sierak\u00f3w \u015al\u0105ski",
                "addr:street": "Szkolna",
                "addr:housenumber": "4",
                "addr:teryt:simc": 21970,
                "addr:teryt:sym_ul": 130671,
                "contact:phone": "+48 343538032",
                "ref:regon": "001155058",
                "ref:vatin": "PL5751736425",
                "operator": "Gmina Ciasna",
                "operator:type": "government",
                "amenity": "school",
                "note": "Children RSPO: 265759Parent RSPO: 84612"
            }
        },
        {
            "id": 91794,
            "type": "Feature",
            "geometry": {
                "type": "Point",
                "coordinates": [
                    18.57715,
                    50.80119
                ]
            },
            "properties": {
                "ref:rspo": 91794,
                "official_name": "Zesp\u00f3\u0142 Szkolno-Przedszkolny w Sierakowie \u015aL\u0105skim-Przedszkole Samorz\u0105dowe w Sierkowie \u015aL\u0105skim",
                "name": "Zesp\u00f3\u0142 Szkolno-Przedszkolny w Sierakowie \u015aL\u0105skim-Przedszkole Samorz\u0105dowe w Sierkowie \u015aL\u0105skim",
                "addr:country": "PL",
                "addr:postcode": "42-793",
                "addr:city": "Sierak\u00f3w \u015al\u0105ski",
                "addr:street": "Wyzwolenia",
                "addr:housenumber": "2",
                "addr:teryt:simc": 25133,
                "addr:teryt:sym_ul": 130671,
                "contact:phone": "+48 343538024",
                "ref:regon": "151960208",
                "operator": "Gmina Ciasna",
                "operator:type": "government",
                "amenity": "kindergarten",
                "note": "Parent RSPO: 84612"
            }
        },
        {
            "id": 265759,
            "type": "Feature",
            "geometry": {
                "type": "Point",
                "coordinates": [
                    18.59448,
                    50.83446
                ]
            },
            "properties": {
                "isced:level": "1;2",
                "ref:rspo": 265759,
                "official_name": "Zesp\u00f3\u0142 Szkolno-Przedszkolny w Sierakowie \u015aL\u0105skim-Szko\u0142a Podstawowa w Sierakowie \u015aL\u0105skim-Szko\u0142a Filialna w W\u0119dzinie",
                "name": "Zesp\u00f3\u0142 Szkolno-Przedszkolny w Sierakowie \u015aL\u0105skim-Szko\u0142a Podstawowa w Sierakowie \u015aL\u0105skim-Szko\u0142a Filialna w W\u0119dzinie",
                "addr:country": "PL",
                "addr:postcode": "42-793",
                "addr:city": "W\u0119dzina",
                "addr:street": "Szkolna",
                "addr:housenumber": "23",
                "addr:teryt:simc": 21970,
                "addr:teryt:sym_ul": 130748,
                "contact:phone": "+48 343538038",
                "contact:email": "zspsierakow@tlen.pl",
                "ref:regon": "115505800",
                "operator": "Gmina Ciasna",
                "operator:type": "government",
                "amenity": "school",
                "note": "Parent RSPO: 91795"
            }
        }
    ]
}