{
    "type": "FeatureCollection",
    "features": [
        {
            "id": 26769,
            "type": "Feature",
            "geometry": {
                "type": "Point",
                "coordinates": [
                    18.6866,
                    50.6537999
                ]
            },
            "properties": {
                "ref:rspo": 26769,
                "official_name": "Specjalny O\u015brodek Szkolno-Wychowawczy im. Konrada Ma\u0144ki",
                "name": "Specjalny O\u015brodek Szkolno-Wychowawczy",
                "addr:country": "PL",
                "addr:postcode": "42-700",
                "addr:city": "Lubliniec",
                "addr:street": "Stalmacha",
                "addr:housenumber": "90",
                "addr:teryt:simc": 20806,
                "addr:teryt:sym_ul": 931945,
                "contact:phone": "+48 343563241",
                "contact:email": "poczta@soswlubliniec.pl",
                "contact:website": "http:\/\/www.soswlubliniec.pl",
                "ref:regon": "151573457",
                "ref:vatin": "PL5751025227",
                "operator": "Powiat Lubliniecki",
                "operator:type": "government",
                "amenity": "school",
                "note": "Children RSPO: 88163;88165;88166;88168;88169;131627;277350"
            }
        },
        {
            "id": 88163,
            "type": "Feature",
            "geometry": {
                "type": "Point",
                "coordinates": [
                    18.6866,
                    50.6537699
                ]
            },
            "properties": {
                "isced:level": "1;2",
                "ref:rspo": 88163,
                "official_name": "Szko\u0142a Podstawowa Specjalna Nr 2 dla Uczni\u00f3w Nies\u0142ysz\u0105cych I S\u0142abos\u0142ysz\u0105cych, Upo\u015bledzonych Umys\u0142owo Oraz Ze Sprz\u0119\u017ceniami",
                "name": "Szko\u0142a Podstawowa Specjalna Nr 2 dla Uczni\u00f3w Nies\u0142ysz\u0105cych I S\u0142abos\u0142ysz\u0105cych, Upo\u015bledzonych Umys\u0142owo Oraz Ze Sprz\u0119\u017ceniami",
                "addr:country": "PL",
                "addr:postcode": "42-700",
                "addr:city": "Lubliniec",
                "addr:street": "Stalmacha",
                "addr:housenumber": "90",
                "addr:teryt:simc": 20806,
                "addr:teryt:sym_ul": 931945,
                "contact:phone": "+48 343563241",
                "contact:email": "poczta@soswlubliniec.pl",
                "contact:website": "http:\/\/www.soswlubliniec.pl",
                "ref:regon": "152135245",
                "operator": "Powiat Lubliniecki",
                "operator:type": "government",
                "amenity": "school",
                "note": "Children RSPO: 91358Parent RSPO: 26769"
            }
        },
        {
            "id": 88165,
            "type": "Feature",
            "geometry": {
                "type": "Point",
                "coordinates": [
                    18.6866,
                    50.653739900000005
                ]
            },
            "properties": {
                "isced:level": "3",
                "ref:rspo": 88165,
                "official_name": "Bran\u017cowa Szko\u0142a I Stopnia Specjalna Nr 1 dla Uczni\u00f3w Nies\u0142ysz\u0105cych I S\u0142abos\u0142ysz\u0105cych, Upo\u015bledzonych Umys\u0142owo Oraz Ze Sprz\u0119\u017ceniami",
                "name": "Bran\u017cowa Szko\u0142a I Stopnia Specjalna Nr 1 dla Uczni\u00f3w Nies\u0142ysz\u0105cych I S\u0142abos\u0142ysz\u0105cych, Upo\u015bledzonych Umys\u0142owo Oraz Ze Sprz\u0119\u017ceniami",
                "addr:country": "PL",
                "addr:postcode": "42-700",
                "addr:city": "Lubliniec",
                "addr:street": "Stalmacha",
                "addr:housenumber": "90",
                "addr:teryt:simc": 20806,
                "addr:teryt:sym_ul": 931945,
                "contact:phone": "+48 343563241",
                "contact:email": "poczta@soswlubliniec.pl",
                "contact:website": "http:\/\/www.soswlubliniec.pl",
                "ref:regon": "152135311",
                "operator": "Powiat Lubliniecki",
                "operator:type": "government",
                "amenity": "school",
                "note": "Parent RSPO: 26769"
            }
        },
        {
            "id": 88166,
            "type": "Feature",
            "geometry": {
                "type": "Point",
                "coordinates": [
                    18.6866,
                    50.6537099
                ]
            },
            "properties": {
                "isced:level": "3",
                "ref:rspo": 88166,
                "official_name": "Technikum Specjalne Nr 4 dla Nies\u0142ysz\u0105cych I S\u0142abos\u0142ysz\u0105cych",
                "name": "Technikum Specjalne Nr 4 dla Nies\u0142ysz\u0105cych I S\u0142abos\u0142ysz\u0105cych",
                "addr:country": "PL",
                "addr:postcode": "42-700",
                "addr:city": "Lubliniec",
                "addr:street": "Stalmacha",
                "addr:housenumber": "90",
                "addr:teryt:simc": 20806,
                "addr:teryt:sym_ul": 931945,
                "contact:phone": "+48 343563241",
                "contact:email": "poczta@soswlubliniec.pl",
                "contact:website": "http:\/\/www.soswlubliniec.pl",
                "ref:regon": "152135340",
                "operator": "Powiat Lubliniecki",
                "operator:type": "government",
                "amenity": "school",
                "note": "Parent RSPO: 26769"
            }
        },
        {
            "id": 88168,
            "type": "Feature",
            "geometry": {
                "type": "Point",
                "coordinates": [
                    18.6866,
                    50.6536799
                ]
            },
            "properties": {
                "isced:level": "4",
                "ref:rspo": 88168,
                "official_name": "Policealna Szko\u0142a Zawodowa Specjalna dla Nies\u0142ysz\u0105cych I S\u0142abos\u0142ysz\u0105cych",
                "name": "Policealna Szko\u0142a Zawodowa Specjalna dla Nies\u0142ysz\u0105cych I S\u0142abos\u0142ysz\u0105cych",
                "addr:country": "PL",
                "addr:postcode": "42-700",
                "addr:city": "Lubliniec",
                "addr:street": "Stalmacha",
                "addr:housenumber": "90",
                "addr:teryt:simc": 20806,
                "addr:teryt:sym_ul": 931945,
                "contact:phone": "+48 343563366",
                "contact:email": "poczta@soswlubliniec.pl",
                "contact:website": "http:\/\/www.soswlubliniec.pl",
                "ref:regon": "240433581",
                "operator": "Powiat Lubliniecki",
                "operator:type": "government",
                "amenity": "college",
                "note": "Parent RSPO: 26769"
            }
        },
        {
            "id": 88169,
            "type": "Feature",
            "geometry": {
                "type": "Point",
                "coordinates": [
                    18.6866,
                    50.653649900000005
                ]
            },
            "properties": {
                "ref:rspo": 88169,
                "official_name": "Szko\u0142a Specjalna Przysposabiaj\u0105ca Do Pracy",
                "name": "Szko\u0142a Specjalna Przysposabiaj\u0105ca Do Pracy",
                "addr:country": "PL",
                "addr:postcode": "42-700",
                "addr:city": "Lubliniec",
                "addr:street": "Stalmacha",
                "addr:housenumber": "90",
                "addr:teryt:simc": 20806,
                "addr:teryt:sym_ul": 931945,
                "contact:phone": "+48 343563241",
                "contact:email": "poczta@soswlubliniec.pl",
                "contact:website": "http:\/\/www.soswlubliniec.pl",
                "ref:regon": "240683496",
                "operator": "Powiat Lubliniecki",
                "operator:type": "government",
                "amenity": "school",
                "note": "Parent RSPO: 26769"
            }
        },
        {
            "id": 131627,
            "type": "Feature",
            "geometry": {
                "type": "Point",
                "coordinates": [
                    18.6866,
                    50.6536199
                ]
            },
            "properties": {
                "ref:rspo": 131627,
                "official_name": "Przedszkole Specjalne Nr 9 dla Dzieci Nies\u0142ysz\u0105cych I S\u0142abos\u0142ysz\u0105cych, Z Niepe\u0142nosprawno\u015bciami Intelektualnymi Oraz Ze Sprz\u0119\u017ceniami",
                "name": "Przedszkole Specjalne Nr 9 dla Dzieci Nies\u0142ysz\u0105cych I S\u0142abos\u0142ysz\u0105cych, Z Niepe\u0142nosprawno\u015bciami Intelektualnymi Oraz Ze Sprz\u0119\u017ceniami",
                "addr:country": "PL",
                "addr:postcode": "42-700",
                "addr:city": "Lubliniec",
                "addr:street": "Stalmacha",
                "addr:housenumber": "90",
                "addr:teryt:simc": 20806,
                "addr:teryt:sym_ul": 931945,
                "contact:phone": "+48 343563241",
                "contact:email": "poczta@soswlubliniec.pl",
                "contact:website": "http:\/\/www.soswlubliniec.pl",
                "ref:regon": "365316186",
                "operator": "Powiat Lubliniecki",
                "operator:type": "government",
                "amenity": "kindergarten",
                "note": "Parent RSPO: 26769"
            }
        },
        {
            "id": 277350,
            "type": "Feature",
            "geometry": {
                "type": "Point",
                "coordinates": [
                    18.6866,
                    50.6535899
                ]
            },
            "properties": {
                "isced:level": "3",
                "ref:rspo": 277350,
                "official_name": "Bran\u017cowa Szko\u0142a II Stopnia Specjalna Nr 1 dla Uczni\u00f3w Nies\u0142ysz\u0105cych I S\u0142abos\u0142ysz\u0105cych",
                "name": "Bran\u017cowa Szko\u0142a II Stopnia Specjalna Nr 1 dla Uczni\u00f3w Nies\u0142ysz\u0105cych I S\u0142abos\u0142ysz\u0105cych",
                "addr:country": "PL",
                "addr:postcode": "42-700",
                "addr:city": "Lubliniec",
                "addr:street": "Stalmacha",
                "addr:housenumber": "90",
                "addr:teryt:simc": 20806,
                "addr:teryt:sym_ul": 931945,
                "contact:phone": "+48 343563241",
                "contact:email": "poczta@soswlubliniec.pl",
                "contact:website": "http:\/\/www.soswlubliniec.pl",
                "ref:regon": "388673066",
                "operator": "Powiat Lubliniecki",
                "operator:type": "government",
                "amenity": "school",
                "note": "Parent RSPO: 26769"
            }
        },
        {
            "id": 91358,
            "type": "Feature",
            "geometry": {
                "type": "Point",
                "coordinates": [
                    18.6866,
                    50.653559900000005
                ]
            },
            "properties": {
                "isced:level": "1;2",
                "ref:rspo": 91358,
                "official_name": "Szko\u0142a Podstawowa Specjalna Nr 2 Szko\u0142a Filialna w Lubli\u0144cu dla Uczni\u00f3w Przewlekle Chorych I Chorych Psychicznie",
                "name": "Szko\u0142a Podstawowa Specjalna Nr 2 Szko\u0142a Filialna w Lubli\u0144cu dla Uczni\u00f3w Przewlekle Chorych I Chorych Psychicznie",
                "addr:country": "PL",
                "addr:postcode": "42-700",
                "addr:city": "Lubliniec",
                "addr:street": "Stalmacha",
                "addr:housenumber": "90",
                "addr:teryt:simc": 20806,
                "addr:teryt:sym_ul": 931945,
                "contact:phone": "+48 343563241",
                "contact:email": "poczta@soswlubliniec.pl",
                "contact:website": "http:\/\/lubliniec.idn.org.pl",
                "ref:regon": "152135245",
                "operator": "Powiat Lubliniecki",
                "operator:type": "government",
                "amenity": "school",
                "note": "Parent RSPO: 88163"
            }
        },
        {
            "id": 6922,
            "type": "Feature",
            "geometry": {
                "type": "Point",
                "coordinates": [
                    18.68167,
                    50.66233
                ]
            },
            "properties": {
                "ref:rspo": 6922,
                "official_name": "Zesp\u00f3\u0142 Szk\u00f3\u0142 Nr 1 im. Adama Mickiewicza",
                "name": "Zesp\u00f3\u0142 Szk\u00f3\u0142 Nr 1",
                "addr:country": "PL",
                "addr:postcode": "42-700",
                "addr:city": "Lubliniec",
                "addr:street": "Sobieskiego",
                "addr:housenumber": "22",
                "addr:teryt:simc": 20421,
                "addr:teryt:sym_ul": 931945,
                "contact:phone": "+48 343511433",
                "contact:email": "lolubliniec@list.pl",
                "contact:website": "http:\/\/www.mickiewicz.net.pl",
                "ref:regon": "000771720",
                "ref:vatin": "PL5751025078",
                "operator": "Powiat Lubliniecki",
                "operator:type": "government",
                "landuse": "education",
                "fixme": "amenity=school, amenity=college albo landuse=education w zale\u017cno\u015bci od tego, jakie plac\u00f3wki wchodz\u0105 w sk\u0142ad zespo\u0142u. Sprawd\u017a, kiedy stosowa\u0107 amenity=* a kiedy landuse=education.",
                "note": "Children RSPO: 7948;8090"
            }
        },
        {
            "id": 7948,
            "type": "Feature",
            "geometry": {
                "type": "Point",
                "coordinates": [
                    18.68167,
                    50.662299999999995
                ]
            },
            "properties": {
                "isced:level": "3",
                "ref:rspo": 7948,
                "official_name": "I Liceum Og\u00f3lnokszta\u0142c\u0105ce im. Adama Mickiewicza",
                "name": "I Liceum Og\u00f3lnokszta\u0142c\u0105ce",
                "addr:country": "PL",
                "addr:postcode": "42-700",
                "addr:city": "Lubliniec",
                "addr:street": "Sobieskiego",
                "addr:housenumber": "22",
                "addr:teryt:simc": 20421,
                "addr:teryt:sym_ul": 931945,
                "contact:phone": "+48 343511433",
                "contact:email": "lolubliniec@list.pl",
                "contact:website": "http:\/\/www.mickiewicz.net.pl",
                "ref:regon": "152072421",
                "ref:vatin": "PL5751787546",
                "operator": "Powiat Lubliniecki",
                "operator:type": "government",
                "amenity": "school",
                "note": "Parent RSPO: 6922"
            }
        },
        {
            "id": 8090,
            "type": "Feature",
            "geometry": {
                "type": "Point",
                "coordinates": [
                    18.68167,
                    50.66227
                ]
            },
            "properties": {
                "isced:level": "3",
                "ref:rspo": 8090,
                "official_name": "Technikum Nr 1",
                "name": "Technikum Nr 1",
                "addr:country": "PL",
                "addr:postcode": "42-700",
                "addr:city": "Lubliniec",
                "addr:street": "Sobieskiego",
                "addr:housenumber": "22",
                "addr:teryt:simc": 20421,
                "addr:teryt:sym_ul": 931945,
                "contact:phone": "+48 343511433",
                "contact:email": "lolubliniec@list.pl",
                "contact:website": "http:\/\/www.mickiewicz.net.pl",
                "ref:regon": "152175782",
                "ref:vatin": "PL5751787552",
                "operator": "Powiat Lubliniecki",
                "operator:type": "government",
                "amenity": "school",
                "note": "Parent RSPO: 6922"
            }
        },
        {
            "id": 17432,
            "type": "Feature",
            "geometry": {
                "type": "Point",
                "coordinates": [
                    18.69162,
                    50.6639399
                ]
            },
            "properties": {
                "ref:rspo": 17432,
                "official_name": "Przedszkole Miejskie Nr 6 w Lubli\u0144cu",
                "name": "Przedszkole Miejskie Nr 6 w Lubli\u0144cu",
                "addr:country": "PL",
                "addr:postcode": "42-700",
                "addr:city": "Lubliniec",
                "addr:street": "Droniowicka",
                "addr:housenumber": "27",
                "addr:teryt:simc": 4253,
                "addr:teryt:sym_ul": 931945,
                "contact:phone": "+48 343511406",
                "contact:email": "przedszkole.nr6@onet.eu",
                "contact:website": "http:\/\/www.6.przedszkolalubliniec.pl",
                "ref:regon": "151992349",
                "ref:vatin": "PL5751716747",
                "operator": "Gmina Lubliniec",
                "operator:type": "government",
                "amenity": "kindergarten"
            }
        },
        {
            "id": 7648,
            "type": "Feature",
            "geometry": {
                "type": "Point",
                "coordinates": [
                    18.68222,
                    50.6644999
                ]
            },
            "properties": {
                "ref:rspo": 7648,
                "official_name": "Publiczna Poradnia Psychologiczno - Pedagogiczna",
                "name": "Publiczna Poradnia Psychologiczno - Pedagogiczna",
                "addr:country": "PL",
                "addr:postcode": "42-700",
                "addr:city": "Lubliniec",
                "addr:street": "Sobieskiego",
                "addr:housenumber": "9",
                "addr:teryt:simc": 20421,
                "addr:teryt:sym_ul": 931945,
                "contact:phone": "+48 343562966",
                "contact:email": "sekretariat@pppplubliniec.pl",
                "contact:website": "http:\/\/www.pppplubliniec.pl",
                "ref:regon": "152073343",
                "ref:vatin": "PL5751734426",
                "operator": "Powiat Lubliniecki",
                "operator:type": "government",
                "healthcare": "counselling",
                "counselling_type": "education",
                "fixme": "w zale\u017cno\u015bci od przedmiotu dzia\u0142alno\u015bci (np. healthcare=counselling + counselling_type=education albo healthcare=psychotherapist)"
            }
        },
        {
            "id": 196342,
            "type": "Feature",
            "geometry": {
                "type": "Point",
                "coordinates": [
                    18.69353,
                    50.66473
                ]
            },
            "properties": {
                "isced:level": "1;2",
                "ref:rspo": 196342,
                "official_name": "Szko\u0142a Podstawowa Nr 2 im. Jana Paw\u0142a II w Lubli\u0144cu",
                "name": "Szko\u0142a Podstawowa Nr 2",
                "addr:country": "PL",
                "addr:postcode": "42-700",
                "addr:city": "Lubliniec",
                "addr:street": "Droniowicka",
                "addr:housenumber": "45",
                "addr:teryt:simc": 4253,
                "addr:teryt:sym_ul": 931945,
                "contact:phone": "+48 343511422",
                "contact:email": "sp2.lubliniec@wp.eu",
                "contact:website": "http:\/\/www.sp2.lubliniec.pl",
                "ref:regon": "367991288",
                "ref:vatin": "PL5751893165",
                "operator": "Gmina Lubliniec",
                "operator:type": "government",
                "amenity": "school"
            }
        },
        {
            "id": 57065,
            "type": "Feature",
            "geometry": {
                "type": "Point",
                "coordinates": [
                    18.68337,
                    50.6657
                ]
            },
            "properties": {
                "ref:rspo": 57065,
                "official_name": "Sie\u0107 Szk\u00f3\u0142 J\u0119zykowych Naczy\u0144scy - Miko\u0142aj Naczy\u0144ski",
                "name": "Sie\u0107 Szk\u00f3\u0142 J\u0119zykowych Naczy\u0144scy - Miko\u0142aj Naczy\u0144ski",
                "addr:country": "PL",
                "addr:postcode": "42-700",
                "addr:city": "Lubliniec",
                "addr:street": "Soko\u0142a",
                "addr:housenumber": "3",
                "addr:teryt:simc": 20495,
                "addr:teryt:sym_ul": 931945,
                "contact:phone": "+48 343511229",
                "contact:email": "sekretariat@naczynscy.pl",
                "contact:website": "http:\/\/www.naczynscy.pl",
                "ref:regon": "243078198",
                "ref:vatin": "PL5751345624",
                "operator": "Miko\u0142aj Naczy\u0144ski",
                "operator:type": "private",
                "fixme": "w zale\u017cno\u015bci od przedmiotu dzia\u0142alno\u015bci (np. amenity=training + training=*, amenity=dancing_school, amenity=language_school, amenity=music_school)"
            }
        },
        {
            "id": 7115,
            "type": "Feature",
            "geometry": {
                "type": "Point",
                "coordinates": [
                    18.67968,
                    50.66574
                ]
            },
            "properties": {
                "ref:rspo": 7115,
                "official_name": "Centrum Kszta\u0142cenia Zawodowego I Ustawicznego w Lubli\u0144cu",
                "name": "Centrum Kszta\u0142cenia Zawodowego I Ustawicznego w Lubli\u0144cu",
                "addr:country": "PL",
                "addr:postcode": "42-700",
                "addr:city": "Lubliniec",
                "addr:street": "Grunwaldzka",
                "addr:housenumber": "48",
                "addr:teryt:simc": 6260,
                "addr:teryt:sym_ul": 931945,
                "contact:phone": "+48 343511436",
                "contact:email": "sekretariat@ckziulubliniec.pl",
                "contact:website": "http:\/\/www.ckziulubliniec.pl",
                "ref:regon": "152070988",
                "ref:vatin": "PL5751069058",
                "operator": "Powiat Lubliniecki",
                "operator:type": "government",
                "landuse": "education",
                "fixme": "amenity=school, amenity=college albo landuse=education w zale\u017cno\u015bci od tego, jakie plac\u00f3wki wchodz\u0105 w sk\u0142ad zespo\u0142u. Sprawd\u017a, kiedy stosowa\u0107 amenity=* a kiedy landuse=education.",
                "note": "Children RSPO: 8103;8104;8105;8107;119192"
            }
        },
        {
            "id": 8103,
            "type": "Feature",
            "geometry": {
                "type": "Point",
                "coordinates": [
                    18.67968,
                    50.66571
                ]
            },
            "properties": {
                "isced:level": "3",
                "ref:rspo": 8103,
                "official_name": "I Liceum Og\u00f3lnokszta\u0142c\u0105ce dla Doros\u0142ych im. Prof. Zbigniewa Religi",
                "name": "I Liceum Og\u00f3lnokszta\u0142c\u0105ce dla Doros\u0142ych",
                "addr:country": "PL",
                "addr:postcode": "42-700",
                "addr:city": "Lubliniec",
                "addr:street": "Grunwaldzka",
                "addr:housenumber": "48",
                "addr:teryt:simc": 6260,
                "addr:teryt:sym_ul": 931945,
                "contact:phone": "+48 343511436",
                "contact:email": "sekretariat@ckziulubliniec.pl",
                "contact:website": "http:\/\/www.ckziulubliniec.pl",
                "ref:regon": "243026920",
                "operator": "Powiat Lubliniecki",
                "operator:type": "government",
                "amenity": "school",
                "note": "Parent RSPO: 7115"
            }
        },
        {
            "id": 8104,
            "type": "Feature",
            "geometry": {
                "type": "Point",
                "coordinates": [
                    18.67968,
                    50.66568
                ]
            },
            "properties": {
                "isced:level": "3",
                "ref:rspo": 8104,
                "official_name": "Iii Liceum Og\u00f3lnokszta\u0142c\u0105ce im. Prof. Zbigniewa Religi",
                "name": "Iii Liceum Og\u00f3lnokszta\u0142c\u0105ce",
                "addr:country": "PL",
                "addr:postcode": "42-700",
                "addr:city": "Lubliniec",
                "addr:street": "Grunwaldzka",
                "addr:housenumber": "48",
                "addr:teryt:simc": 6260,
                "addr:teryt:sym_ul": 931945,
                "contact:phone": "+48 343511439",
                "contact:email": "sekretariat@ckziulubliniec.pl",
                "contact:website": "http:\/\/www.ckziulubliniec.pl",
                "ref:regon": "243026959",
                "operator": "Powiat Lubliniecki",
                "operator:type": "government",
                "amenity": "school",
                "note": "Parent RSPO: 7115"
            }
        },
        {
            "id": 8105,
            "type": "Feature",
            "geometry": {
                "type": "Point",
                "coordinates": [
                    18.67968,
                    50.66565
                ]
            },
            "properties": {
                "isced:level": "3",
                "ref:rspo": 8105,
                "official_name": "Technikum Nr 5 im. Prof. Zbigniewa Religi",
                "name": "Technikum Nr 5",
                "addr:country": "PL",
                "addr:postcode": "42-700",
                "addr:city": "Lubliniec",
                "addr:street": "Grunwaldzka",
                "addr:housenumber": "48",
                "addr:teryt:simc": 6260,
                "addr:teryt:sym_ul": 931945,
                "contact:phone": "+48 343511436",
                "contact:email": "sekretariat@ckziulubliniec.pl",
                "contact:website": "http:\/\/www.ckziulubliniec.pl",
                "ref:regon": "243026965",
                "operator": "Powiat Lubliniecki",
                "operator:type": "government",
                "amenity": "school",
                "note": "Parent RSPO: 7115"
            }
        },
        {
            "id": 8107,
            "type": "Feature",
            "geometry": {
                "type": "Point",
                "coordinates": [
                    18.67968,
                    50.66562
                ]
            },
            "properties": {
                "isced:level": "4",
                "ref:rspo": 8107,
                "official_name": "Szko\u0142a Policealna Nr 1 im. Prof. Zbigniewa Religi",
                "name": "Szko\u0142a Policealna Nr 1",
                "addr:country": "PL",
                "addr:postcode": "42-700",
                "addr:city": "Lubliniec",
                "addr:street": "Grunwaldzka",
                "addr:housenumber": "48",
                "addr:teryt:simc": 6260,
                "addr:teryt:sym_ul": 931945,
                "contact:phone": "+48 343511436",
                "contact:email": "sekretariat@ckziulubliniec.pl",
                "contact:website": "http:\/\/www.ckziulubliniec.pl",
                "ref:regon": "240146019",
                "operator": "Powiat Lubliniecki",
                "operator:type": "government",
                "amenity": "college",
                "note": "Parent RSPO: 7115"
            }
        },
        {
            "id": 119192,
            "type": "Feature",
            "geometry": {
                "type": "Point",
                "coordinates": [
                    18.67968,
                    50.66559
                ]
            },
            "properties": {
                "ref:rspo": 119192,
                "official_name": "Centrum Kszta\u0142cenia Zawodowego",
                "name": "Centrum Kszta\u0142cenia Zawodowego",
                "addr:country": "PL",
                "addr:postcode": "42-700",
                "addr:city": "Lubliniec",
                "addr:street": "Grunwaldzka",
                "addr:housenumber": "48",
                "addr:teryt:simc": 6260,
                "addr:teryt:sym_ul": 931945,
                "contact:phone": "+48 343511436",
                "contact:email": "sekretariat@ckziulubliniec.pl",
                "contact:website": "http:\/\/www.ckziulubliniec.pl",
                "ref:regon": "243350341",
                "operator": "Powiat Lubliniecki",
                "operator:type": "government",
                "fixme": "w zale\u017cno\u015bci od przedmiotu dzia\u0142alno\u015bci (np. amenity=training + training=*, amenity=dancing_school, amenity=language_school, amenity=music_school) albo amenity=school, amenity=college, albo landuse=education w zale\u017cno\u015bci od tego, jakie plac\u00f3wki wchodz\u0105 w sk\u0142ad zespo\u0142u. Sprawd\u017a, kiedy stosowa\u0107 amenity=* a kiedy landuse=education.",
                "note": "Parent RSPO: 7115"
            }
        },
        {
            "id": 276193,
            "type": "Feature",
            "geometry": {
                "type": "Point",
                "coordinates": [
                    18.66434,
                    50.66586
                ]
            },
            "properties": {
                "ref:rspo": 276193,
                "official_name": "Niepubliczne Przedszkole Busy Bees",
                "name": "Niepubliczne Przedszkole Busy Bees",
                "addr:country": "PL",
                "addr:postcode": "42-700",
                "addr:city": "Lubliniec",
                "addr:street": "Marii Curie Sk\u0142odowskiej",
                "addr:housenumber": "61",
                "addr:teryt:simc": 48034,
                "addr:teryt:sym_ul": 931945,
                "contact:phone": "+48 534898534",
                "contact:email": "busybeesprzedszkole@gmail.com",
                "contact:website": "http:\/\/www.busybeesprzedszkole@gmail.com",
                "ref:regon": "387027186",
                "operator": "Niepubliczne Przedszkole Busy Bees Sp\u00f3\u0142ka Z Ograniczon\u0105 Odpowiedzialno\u015bci\u0105",
                "operator:type": "private",
                "amenity": "kindergarten"
            }
        },
        {
            "id": 17365,
            "type": "Feature",
            "geometry": {
                "type": "Point",
                "coordinates": [
                    18.6844,
                    50.66633
                ]
            },
            "properties": {
                "ref:rspo": 17365,
                "official_name": "Przedszkole Miejskie Nr 2 w Lubli\u0144cu",
                "name": "Przedszkole Miejskie Nr 2 w Lubli\u0144cu",
                "addr:country": "PL",
                "addr:postcode": "42-700",
                "addr:city": "Lubliniec",
                "addr:street": "S\u0105dowa",
                "addr:housenumber": "9A",
                "addr:teryt:simc": 19581,
                "addr:teryt:sym_ul": 931945,
                "contact:phone": "+48 343511402",
                "contact:email": "przedszkole_nr2_w_lublincu@interia.pl",
                "contact:website": "http:\/\/www.2.przedszkolalubliniec.pl",
                "ref:regon": "151992303",
                "ref:vatin": "PL5751716799",
                "operator": "Gmina Lubliniec",
                "operator:type": "government",
                "amenity": "kindergarten"
            }
        },
        {
            "id": 19323,
            "type": "Feature",
            "geometry": {
                "type": "Point",
                "coordinates": [
                    18.6844,
                    50.6663
                ]
            },
            "properties": {
                "isced:level": "1;2",
                "ref:rspo": 19323,
                "official_name": "Szko\u0142a Podstawowa Nr 1 im. Marii Konopnickiej w Lubli\u0144cu",
                "name": "Szko\u0142a Podstawowa Nr 1",
                "addr:country": "PL",
                "addr:postcode": "42-700",
                "addr:city": "Lubliniec",
                "addr:street": "S\u0105dowa",
                "addr:housenumber": "9",
                "addr:teryt:simc": 19581,
                "addr:teryt:sym_ul": 931945,
                "contact:phone": "+48 343511411",
                "contact:email": "sp1lubliniec@wp.pl",
                "contact:website": "http:\/\/www.sp1.lubliniec.pl",
                "ref:regon": "000710718",
                "ref:vatin": "PL5751717474",
                "operator": "Gmina Lubliniec",
                "operator:type": "government",
                "amenity": "school"
            }
        },
        {
            "id": 17006,
            "type": "Feature",
            "geometry": {
                "type": "Point",
                "coordinates": [
                    18.66334,
                    50.66726
                ]
            },
            "properties": {
                "ref:rspo": 17006,
                "official_name": "Prywatne Przedszkole \"Stumilowy Las\" Katarzyna B\u0105c\u0142awek",
                "name": "Prywatne Przedszkole \"Stumilowy Las\" Katarzyna B\u0105c\u0142awek",
                "addr:country": "PL",
                "addr:postcode": "42-700",
                "addr:city": "Lubliniec",
                "addr:street": "Henryka Wieniawskiego",
                "addr:housenumber": "6b",
                "addr:teryt:simc": 24123,
                "addr:teryt:sym_ul": 931945,
                "contact:phone": "+48 600466201",
                "contact:email": "stumilowylas.lubliniec@gmail.com",
                "contact:website": "http:\/\/www.stumilowylas-lubliniec.pl",
                "ref:regon": "243046726",
                "ref:vatin": "PL7821983444",
                "operator": "Katarzyna B\u0105c\u0142awek",
                "operator:type": "private",
                "amenity": "kindergarten"
            }
        },
        {
            "id": 17466,
            "type": "Feature",
            "geometry": {
                "type": "Point",
                "coordinates": [
                    18.68843,
                    50.66831
                ]
            },
            "properties": {
                "ref:rspo": 17466,
                "official_name": "Przedszkole Miejskie Nr 7 w Lubli\u0144cu",
                "name": "Przedszkole Miejskie Nr 7 w Lubli\u0144cu",
                "addr:country": "PL",
                "addr:postcode": "42-700",
                "addr:city": "Lubliniec",
                "addr:street": "Powsta\u0144c\u00f3w \u015al\u0105skich",
                "addr:housenumber": "6",
                "addr:teryt:simc": 17366,
                "addr:teryt:sym_ul": 931945,
                "contact:phone": "+48 343511407",
                "contact:email": "plastyka@poczta.onet.pl",
                "contact:website": "http:\/\/7.przedszkolalubliniec.pl",
                "ref:regon": "151992355",
                "ref:vatin": "PL5751716730",
                "operator": "Gmina Lubliniec",
                "operator:type": "government",
                "amenity": "kindergarten"
            }
        },
        {
            "id": 129633,
            "type": "Feature",
            "geometry": {
                "type": "Point",
                "coordinates": [
                    18.66751,
                    50.6686
                ]
            },
            "properties": {
                "ref:rspo": 129633,
                "official_name": "Szko\u0142a Ognia Niepubliczne Centrum Kszta\u0142cenia Zawodowego",
                "name": "Szko\u0142a Ognia Niepubliczne Centrum Kszta\u0142cenia Zawodowego",
                "addr:country": "PL",
                "addr:postcode": "42-700",
                "addr:city": "Lubliniec",
                "addr:street": "Karola Szymanowskiego",
                "addr:housenumber": "12",
                "addr:door": "12",
                "addr:teryt:simc": 22238,
                "addr:teryt:sym_ul": 931945,
                "contact:phone": "+48 603097899",
                "contact:email": "biuro@szkolaognia.pl",
                "ref:regon": "362694321",
                "operator": "Jaco Military Training & Consulting Jacek Pietrzak",
                "operator:type": "consortium",
                "fixme": "w zale\u017cno\u015bci od przedmiotu dzia\u0142alno\u015bci (np. amenity=training + training=*, amenity=dancing_school, amenity=language_school, amenity=music_school) albo amenity=school, amenity=college, albo landuse=education w zale\u017cno\u015bci od tego, jakie plac\u00f3wki wchodz\u0105 w sk\u0142ad zespo\u0142u. Sprawd\u017a, kiedy stosowa\u0107 amenity=* a kiedy landuse=education."
            }
        },
        {
            "id": 8298,
            "type": "Feature",
            "geometry": {
                "type": "Point",
                "coordinates": [
                    18.684339523315,
                    50.668640136719
                ]
            },
            "properties": {
                "ref:rspo": 8298,
                "official_name": "Zesp\u00f3\u0142 Szk\u00f3\u0142 Og\u00f3lnokszta\u0142c\u0105co - Technicznych",
                "name": "Zesp\u00f3\u0142 Szk\u00f3\u0142 Og\u00f3lnokszta\u0142c\u0105co - Technicznych",
                "addr:country": "PL",
                "addr:postcode": "42-700",
                "addr:city": "Lubliniec",
                "addr:street": "Ksi\u0119dza Pu\u0142kownika Jana Szyma\u0142y",
                "addr:housenumber": "3",
                "addr:teryt:simc": 22233,
                "addr:teryt:sym_ul": 931945,
                "contact:phone": "+48 343511431",
                "contact:email": "sekretariat@zsot.pl",
                "contact:website": "http:\/\/www.zsot.lubliniec.pl\/",
                "ref:regon": "000198367",
                "ref:vatin": "PL5751025256",
                "operator": "Powiat Lubliniecki",
                "operator:type": "government",
                "landuse": "education",
                "fixme": "amenity=school, amenity=college albo landuse=education w zale\u017cno\u015bci od tego, jakie plac\u00f3wki wchodz\u0105 w sk\u0142ad zespo\u0142u. Sprawd\u017a, kiedy stosowa\u0107 amenity=* a kiedy landuse=education.",
                "note": "Children RSPO: 105877;105880"
            }
        },
        {
            "id": 17417,
            "type": "Feature",
            "geometry": {
                "type": "Point",
                "coordinates": [
                    18.684339523315,
                    50.668610136718996
                ]
            },
            "properties": {
                "ref:rspo": 17417,
                "official_name": "Przedszkole Miejskie Nr 4 w Lubli\u0144cu",
                "name": "Przedszkole Miejskie Nr 4 w Lubli\u0144cu",
                "addr:country": "PL",
                "addr:postcode": "42-700",
                "addr:city": "Lubliniec",
                "addr:street": "Wawrzy\u0144ca Hajdy",
                "addr:housenumber": "20",
                "addr:teryt:simc": 6463,
                "addr:teryt:sym_ul": 931945,
                "contact:phone": "+48 343511404",
                "contact:email": "przedszkolenr4lubliniec@onet.pl",
                "contact:website": "http:\/\/4.przedszkolalubliniec.pl",
                "ref:regon": "151992326",
                "ref:vatin": "PL5751716776",
                "operator": "Gmina Lubliniec",
                "operator:type": "government",
                "amenity": "kindergarten"
            }
        },
        {
            "id": 105877,
            "type": "Feature",
            "geometry": {
                "type": "Point",
                "coordinates": [
                    18.684339523315,
                    50.668580136719
                ]
            },
            "properties": {
                "isced:level": "3",
                "ref:rspo": 105877,
                "official_name": "Ii Liceum Og\u00f3lnokszta\u0142c\u0105ce",
                "name": "Ii Liceum Og\u00f3lnokszta\u0142c\u0105ce",
                "addr:country": "PL",
                "addr:postcode": "42-700",
                "addr:city": "Lubliniec",
                "addr:street": "Ksi\u0119dza Pu\u0142kownika Jana Szyma\u0142y",
                "addr:housenumber": "3",
                "addr:teryt:simc": 22233,
                "addr:teryt:sym_ul": 931945,
                "contact:phone": "+48 343511431",
                "contact:email": "sekretariat@zsot.pl",
                "contact:website": "http:\/\/www.zsot.lubliniec.pl\/",
                "ref:regon": "152067383",
                "ref:vatin": "PL5751787612",
                "operator": "Powiat Lubliniecki",
                "operator:type": "government",
                "amenity": "school",
                "note": "Parent RSPO: 8298"
            }
        },
        {
            "id": 105880,
            "type": "Feature",
            "geometry": {
                "type": "Point",
                "coordinates": [
                    18.684339523315,
                    50.668550136719
                ]
            },
            "properties": {
                "isced:level": "3",
                "ref:rspo": 105880,
                "official_name": "Technikum Nr 2",
                "name": "Technikum Nr 2",
                "addr:country": "PL",
                "addr:postcode": "42-700",
                "addr:city": "Lubliniec",
                "addr:street": "Ksi\u0119dza Pu\u0142kownika Jana Szyma\u0142y",
                "addr:housenumber": "3",
                "addr:teryt:simc": 22233,
                "addr:teryt:sym_ul": 931945,
                "contact:phone": "+48 343511431",
                "contact:email": "sekretariat@zsot.pl",
                "contact:website": "http:\/\/www.zsot.lubliniec.pl\/",
                "ref:regon": "152067414",
                "ref:vatin": "PL5751787606",
                "operator": "Powiat Lubliniecki",
                "operator:type": "government",
                "amenity": "school",
                "note": "Parent RSPO: 8298"
            }
        },
        {
            "id": 55977,
            "type": "Feature",
            "geometry": {
                "type": "Point",
                "coordinates": [
                    18.68043,
                    50.66866
                ]
            },
            "properties": {
                "ref:rspo": 55977,
                "official_name": "Zesp\u00f3\u0142 Szk\u00f3\u0142 im. \u015awi\u0119tej Edyty Stein Katolickiego Stowarzyszenia Wychowawc\u00f3w w Lubli\u0144cu",
                "name": "Zesp\u00f3\u0142 Szk\u00f3\u0142",
                "addr:country": "PL",
                "addr:postcode": "42-700",
                "addr:city": "Lubliniec",
                "addr:street": "marsz. J\u00f3zefa Pi\u0142sudskiego",
                "addr:housenumber": "8",
                "addr:teryt:simc": 16274,
                "addr:teryt:sym_ul": 931945,
                "contact:phone": "+48 343510360",
                "contact:email": "dyrektor@szkolaedytystein.pl",
                "contact:website": "http:\/\/www.szkolaedytystein.pl",
                "ref:regon": "243082751",
                "ref:vatin": "PL5751736690",
                "operator": "Katolickie Stowarzyszenie Wychowawc\u00f3w Oddzia\u0142 W Lubli\u0144cu",
                "operator:type": "ngo",
                "landuse": "education",
                "fixme": "amenity=school, amenity=college albo landuse=education w zale\u017cno\u015bci od tego, jakie plac\u00f3wki wchodz\u0105 w sk\u0142ad zespo\u0142u. Sprawd\u017a, kiedy stosowa\u0107 amenity=* a kiedy landuse=education.",
                "note": "Children RSPO: 17145;17175"
            }
        },
        {
            "id": 17145,
            "type": "Feature",
            "geometry": {
                "type": "Point",
                "coordinates": [
                    18.68043,
                    50.66863
                ]
            },
            "properties": {
                "ref:rspo": 17145,
                "official_name": "Przedszkole im. \u015aw. Edyty Stein Katolickiego Stowarzyszenia Wychowawc\u00f3w",
                "name": "Przedszkole",
                "addr:country": "PL",
                "addr:postcode": "42-700",
                "addr:city": "Lubliniec",
                "addr:street": "marsz. J\u00f3zefa Pi\u0142sudskiego",
                "addr:housenumber": "8",
                "addr:teryt:simc": 16274,
                "addr:teryt:sym_ul": 931945,
                "contact:phone": "+48 343510360",
                "contact:email": "dyrektor@szkolaedytystein.pl",
                "contact:website": "http:\/\/www.szkolaedytystein.pl",
                "ref:regon": "243049080",
                "ref:vatin": "PL5751736690",
                "operator": "Katolickie Stowarzyszenie Wychowawc\u00f3w Oddzia\u0142 W Lubli\u0144cu",
                "operator:type": "ngo",
                "amenity": "kindergarten",
                "note": "Parent RSPO: 55977"
            }
        },
        {
            "id": 17175,
            "type": "Feature",
            "geometry": {
                "type": "Point",
                "coordinates": [
                    18.68043,
                    50.668600000000005
                ]
            },
            "properties": {
                "isced:level": "1;2",
                "ref:rspo": 17175,
                "official_name": "Szko\u0142a Podstawowa im. \u015aw. Edyty Stein Katolickiego Stowarzyszenia Wychowawc\u00f3w",
                "name": "Szko\u0142a Podstawowa",
                "addr:country": "PL",
                "addr:postcode": "42-700",
                "addr:city": "Lubliniec",
                "addr:street": "marsz. J\u00f3zefa Pi\u0142sudskiego",
                "addr:housenumber": "8",
                "addr:teryt:simc": 16274,
                "addr:teryt:sym_ul": 931945,
                "contact:phone": "+48 343510360",
                "contact:email": "dyrektor@szkolaedytystein.pl",
                "contact:website": "http:\/\/www.szkolaedytystein.pl",
                "ref:regon": "243049044",
                "ref:vatin": "PL5751736690",
                "operator": "Katolickie Stowarzyszenie Wychowawc\u00f3w Oddzia\u0142 W Lubli\u0144cu",
                "operator:type": "ngo",
                "amenity": "school",
                "note": "Parent RSPO: 55977"
            }
        },
        {
            "id": 75580,
            "type": "Feature",
            "geometry": {
                "type": "Point",
                "coordinates": [
                    18.68236,
                    50.66926
                ]
            },
            "properties": {
                "ref:rspo": 75580,
                "official_name": "Pa\u0144stwowa Szko\u0142a Muzyczna I St. im. Janiny Gar\u015bci w Lubli\u0144cu",
                "name": "Pa\u0144stwowa Szko\u0142a Muzyczna I St.",
                "addr:country": "PL",
                "addr:postcode": "42-700",
                "addr:city": "Lubliniec",
                "addr:street": "Plac Konrada Ma\u0144ki",
                "addr:housenumber": "9",
                "addr:teryt:simc": 41189,
                "addr:teryt:sym_ul": 931945,
                "contact:phone": "+48 343510313",
                "contact:email": "psm_lubliniec@poczta.onet.pl",
                "contact:website": "http:\/\/lubliniec.home.pl",
                "ref:regon": "007006431",
                "operator": "Ministerstwo Kultury I Dziedzictwa Narodowego",
                "operator:type": "public",
                "amenity": "music_school"
            }
        },
        {
            "id": 114525,
            "type": "Feature",
            "geometry": {
                "type": "Point",
                "coordinates": [
                    18.68093,
                    50.66967
                ]
            },
            "properties": {
                "ref:rspo": 114525,
                "official_name": "Niepubliczne Przedszkole J\u0119zykowe \"Wyspa Szkrab\u00f3w\" Z Oddzia\u0142ami Specjalnymi",
                "name": "Niepubliczne Przedszkole J\u0119zykowe \"Wyspa Szkrab\u00f3w\" Z Oddzia\u0142ami Specjalnymi",
                "addr:country": "PL",
                "addr:postcode": "42-700",
                "addr:city": "Lubliniec",
                "addr:street": "Ksi\u0119dza Konstantego Damrota",
                "addr:housenumber": "15",
                "addr:teryt:simc": 56718,
                "addr:teryt:sym_ul": 931945,
                "contact:phone": "+48 343510222",
                "contact:email": "poczta@wyspa-szkrabow.pl",
                "contact:website": "http:\/\/www.wyspa-szkrabow.pl",
                "ref:regon": "243260709",
                "ref:vatin": "PL7732194496",
                "operator": "Monika G\u0142owa",
                "operator:type": "private",
                "amenity": "kindergarten"
            }
        },
        {
            "id": 127645,
            "type": "Feature",
            "geometry": {
                "type": "Point",
                "coordinates": [
                    18.68932,
                    50.67111
                ]
            },
            "properties": {
                "ref:rspo": 127645,
                "official_name": "Publiczna Biblioteka Pedagogiczna Regionalnego O\u015brodka Doskonalenia Nauczycieli \"Wom'-Filia w Lubli\u0144cu",
                "name": "Publiczna Biblioteka Pedagogiczna Regionalnego O\u015brodka Doskonalenia Nauczycieli \"Wom'-Filia w Lubli\u0144cu",
                "addr:country": "PL",
                "addr:postcode": "42-700",
                "addr:city": "Lubliniec",
                "addr:street": "Ignacego Paderewskiego",
                "addr:housenumber": "18",
                "addr:teryt:simc": 15524,
                "addr:teryt:sym_ul": 931945,
                "contact:phone": "+48 343511798",
                "contact:email": "lubp@womczest.edu.pl",
                "contact:website": "http:\/\/www.biblioteka.womczest.edu.pl",
                "ref:regon": "716023000",
                "operator": "Wojew\u00f3dztwo \u015al\u0105skie",
                "operator:type": "government",
                "amenity": "library",
                "note": "Parent RSPO: 111624"
            }
        },
        {
            "id": 196321,
            "type": "Feature",
            "geometry": {
                "type": "Point",
                "coordinates": [
                    18.68638,
                    50.67124
                ]
            },
            "properties": {
                "isced:level": "1;2",
                "ref:rspo": 196321,
                "official_name": "Szko\u0142a Podstawowa Nr 4 im. 74 G\u00f3rno\u015bL\u0105skiego Pu\u0142ku Piechoty w Lubli\u0144cu",
                "name": "Szko\u0142a Podstawowa Nr 4",
                "addr:country": "PL",
                "addr:postcode": "42-700",
                "addr:city": "Lubliniec",
                "addr:street": "Pu\u0142kownika Stanis\u0142awa Wilimowskiego",
                "addr:housenumber": "8",
                "addr:teryt:simc": 31589,
                "addr:teryt:sym_ul": 931945,
                "contact:phone": "+48 343511421",
                "contact:email": "sp4.lubliniec@wp.pl",
                "contact:website": "http:\/\/sp4.lubliniec.pl",
                "ref:regon": "367991213",
                "operator": "Gmina Lubliniec",
                "operator:type": "government",
                "amenity": "school"
            }
        },
        {
            "id": 275429,
            "type": "Feature",
            "geometry": {
                "type": "Point",
                "coordinates": [
                    18.70222,
                    50.67182
                ]
            },
            "properties": {
                "ref:rspo": 275429,
                "official_name": "Niepubliczne Przedszkole Kolorowa Sowa",
                "name": "Niepubliczne Przedszkole Kolorowa Sowa",
                "addr:country": "PL",
                "addr:postcode": "42-700",
                "addr:city": "Lubliniec",
                "addr:street": "Kazimierza i Wiktorii Niegolewskich",
                "addr:housenumber": "5",
                "addr:teryt:simc": 14159,
                "addr:teryt:sym_ul": 931945,
                "contact:phone": "+48 345065057",
                "contact:email": "dyrektor@kolorowasowa.eu",
                "contact:website": "http:\/\/www.kolorowasowa.eu",
                "ref:regon": "386916754",
                "operator": "\"Przedsi\u0119biorstwo Handlowo-Us\u0142ugowe Larix\" Sp\u00f3\u0142ka Z Ograniczon\u0105 Odpowiedzialno\u015bci\u0105",
                "operator:type": "private",
                "amenity": "kindergarten"
            }
        },
        {
            "id": 278673,
            "type": "Feature",
            "geometry": {
                "type": "Point",
                "coordinates": [
                    18.68205,
                    50.67266
                ]
            },
            "properties": {
                "ref:rspo": 278673,
                "official_name": "Niepubliczne Je\u017cykowe Przedszkole w Lubli\u0144cu",
                "name": "Niepubliczne Je\u017cykowe Przedszkole w Lubli\u0144cu",
                "addr:country": "PL",
                "addr:postcode": "42-700",
                "addr:city": "Lubliniec",
                "addr:street": "Adama Mickiewicza",
                "addr:housenumber": "38",
                "addr:teryt:simc": 12734,
                "addr:teryt:sym_ul": 931945,
                "contact:phone": "+48 883944556",
                "contact:email": "kontakt@timi.edu.pl",
                "contact:website": "http:\/\/jprzedszkole.pl",
                "ref:regon": "520034462",
                "operator": "Micha\u0142 Cie\u015blik",
                "operator:type": "private",
                "amenity": "kindergarten"
            }
        },
        {
            "id": 17070,
            "type": "Feature",
            "geometry": {
                "type": "Point",
                "coordinates": [
                    18.68231,
                    50.67295
                ]
            },
            "properties": {
                "ref:rspo": 17070,
                "official_name": "Niepubliczne Przedszkole Artystyczne",
                "name": "Niepubliczne Przedszkole Artystyczne",
                "addr:country": "PL",
                "addr:postcode": "42-700",
                "addr:city": "Lubliniec",
                "addr:street": "Cz\u0119stochowska",
                "addr:housenumber": "2",
                "addr:teryt:simc": 3458,
                "addr:teryt:sym_ul": 931945,
                "contact:phone": "+48 609797234",
                "contact:email": "asia.cieslik@wp.pl",
                "contact:website": "http:\/\/www.przedszkole.art",
                "ref:regon": "243046815",
                "ref:vatin": "PL6422120161",
                "operator": "Joanna Cie\u015blik",
                "operator:type": "private",
                "amenity": "kindergarten"
            }
        },
        {
            "id": 17058,
            "type": "Feature",
            "geometry": {
                "type": "Point",
                "coordinates": [
                    18.6759999,
                    50.67313
                ]
            },
            "properties": {
                "ref:rspo": 17058,
                "official_name": "\"Awans\" O\u015brodek Us\u0142ug O\u015bwiatowych",
                "name": "\"Awans\" O\u015brodek Us\u0142ug O\u015bwiatowych",
                "addr:country": "PL",
                "addr:postcode": "42-700",
                "addr:city": "Lubliniec",
                "addr:street": "3 Maja",
                "addr:housenumber": "18",
                "addr:door": "22",
                "addr:teryt:simc": 11937,
                "addr:teryt:sym_ul": 931945,
                "contact:phone": "+48 343438433",
                "contact:email": "awans77@o2.pl",
                "contact:website": "http:\/\/www.awans.lubliniec.com",
                "ref:regon": "243046838",
                "ref:vatin": "PL5751404120",
                "operator": "Jan Fabja\u0144ski",
                "operator:type": "private",
                "amenity": "training"
            }
        },
        {
            "id": 17496,
            "type": "Feature",
            "geometry": {
                "type": "Point",
                "coordinates": [
                    18.6770299,
                    50.67351
                ]
            },
            "properties": {
                "ref:rspo": 17496,
                "official_name": "Przedszkole Miejskie Nr 8 w Lubli\u0144cu",
                "name": "Przedszkole Miejskie Nr 8 w Lubli\u0144cu",
                "addr:country": "PL",
                "addr:postcode": "42-700",
                "addr:city": "Lubliniec",
                "addr:street": "Uchod\u017ac\u00f3w",
                "addr:housenumber": "34",
                "addr:teryt:simc": 23295,
                "addr:teryt:sym_ul": 931945,
                "contact:phone": "+48 343511408",
                "contact:email": "przedszkole8@vp.pl",
                "contact:website": "http:\/\/8.przedszkolalubliniec.pl",
                "ref:regon": "151992361",
                "ref:vatin": "PL5751716724",
                "operator": "Gmina Lubliniec",
                "operator:type": "government",
                "amenity": "kindergarten"
            }
        },
        {
            "id": 7152,
            "type": "Feature",
            "geometry": {
                "type": "Point",
                "coordinates": [
                    18.70717,
                    50.67356
                ]
            },
            "properties": {
                "ref:rspo": 7152,
                "official_name": "Zesp\u00f3\u0142 Szk\u00f3\u0142 Zawodowych",
                "name": "Zesp\u00f3\u0142 Szk\u00f3\u0142 Zawodowych",
                "addr:country": "PL",
                "addr:postcode": "42-700",
                "addr:city": "Lubliniec",
                "addr:street": "Klonowa",
                "addr:housenumber": "10",
                "addr:teryt:simc": 8574,
                "addr:teryt:sym_ul": 931945,
                "contact:phone": "+48 343511432",
                "contact:email": "zsz@zszlubliniec.pl",
                "contact:website": "http:\/\/www.zszlubliniec.pl\/",
                "ref:regon": "000678972",
                "ref:vatin": "PL5751025374",
                "operator": "Powiat Lubliniecki",
                "operator:type": "government",
                "landuse": "education",
                "fixme": "amenity=school, amenity=college albo landuse=education w zale\u017cno\u015bci od tego, jakie plac\u00f3wki wchodz\u0105 w sk\u0142ad zespo\u0142u. Sprawd\u017a, kiedy stosowa\u0107 amenity=* a kiedy landuse=education.",
                "note": "Children RSPO: 8487;8653"
            }
        },
        {
            "id": 8487,
            "type": "Feature",
            "geometry": {
                "type": "Point",
                "coordinates": [
                    18.70717,
                    50.67353
                ]
            },
            "properties": {
                "isced:level": "3",
                "ref:rspo": 8487,
                "official_name": "Technikum Nr 3",
                "name": "Technikum Nr 3",
                "addr:country": "PL",
                "addr:postcode": "42-700",
                "addr:city": "Lubliniec",
                "addr:street": "Klonowa",
                "addr:housenumber": "10",
                "addr:teryt:simc": 8574,
                "addr:teryt:sym_ul": 931945,
                "contact:phone": "+48 343511432",
                "contact:email": "zsz@zszlubliniec.pl",
                "contact:website": "http:\/\/www.zszlubliniec.pl",
                "ref:regon": "152131431",
                "operator": "Powiat Lubliniecki",
                "operator:type": "government",
                "amenity": "school",
                "note": "Parent RSPO: 7152"
            }
        },
        {
            "id": 8653,
            "type": "Feature",
            "geometry": {
                "type": "Point",
                "coordinates": [
                    18.70717,
                    50.673500000000004
                ]
            },
            "properties": {
                "isced:level": "3",
                "ref:rspo": 8653,
                "official_name": "Bran\u017cowa Szko\u0142a I Stopnia Nr 2",
                "name": "Bran\u017cowa Szko\u0142a I Stopnia Nr 2",
                "addr:country": "PL",
                "addr:postcode": "42-700",
                "addr:city": "Lubliniec",
                "addr:street": "Klonowa",
                "addr:housenumber": "10",
                "addr:teryt:simc": 8574,
                "addr:teryt:sym_ul": 931945,
                "contact:phone": "+48 343511432",
                "contact:email": "zsz@zszlubliniec.pl",
                "contact:website": "http:\/\/www.zszlubliniec.pl",
                "ref:regon": "152068603",
                "operator": "Powiat Lubliniecki",
                "operator:type": "government",
                "amenity": "school",
                "note": "Parent RSPO: 7152"
            }
        },
        {
            "id": 17387,
            "type": "Feature",
            "geometry": {
                "type": "Point",
                "coordinates": [
                    18.68486,
                    50.67366
                ]
            },
            "properties": {
                "ref:rspo": 17387,
                "official_name": "Miejskie Przedszkole Integracyjne Nr 3 w Lubli\u0144cu",
                "name": "Miejskie Przedszkole Integracyjne Nr 3 w Lubli\u0144cu",
                "addr:country": "PL",
                "addr:postcode": "42-700",
                "addr:city": "Lubliniec",
                "addr:street": "Wojska Polskiego",
                "addr:housenumber": "6",
                "addr:teryt:simc": 24628,
                "addr:teryt:sym_ul": 931945,
                "contact:phone": "+48 343511403",
                "contact:email": "dyrektor@pm3.lubliniec.pl",
                "contact:website": "http:\/\/www.3.przedszkolalubliniec.pl",
                "ref:regon": "151992310",
                "ref:vatin": "PL5751716782",
                "operator": "Gmina Lubliniec",
                "operator:type": "government",
                "amenity": "kindergarten"
            }
        },
        {
            "id": 267808,
            "type": "Feature",
            "geometry": {
                "type": "Point",
                "coordinates": [
                    18.68345,
                    50.67387
                ]
            },
            "properties": {
                "ref:rspo": 267808,
                "official_name": "Akademia Przedszkolaka Kangurek",
                "name": "Akademia Przedszkolaka Kangurek",
                "addr:country": "PL",
                "addr:postcode": "42-700",
                "addr:city": "Lubliniec",
                "addr:street": "Cz\u0119stochowska",
                "addr:housenumber": "12",
                "addr:teryt:simc": 3458,
                "addr:teryt:sym_ul": 931945,
                "contact:phone": "+48 512223570",
                "contact:email": "barbara.maciosek1985@o2.pl",
                "ref:regon": "380663826",
                "operator": "Barbara Maciosek",
                "operator:type": "private",
                "amenity": "kindergarten"
            }
        },
        {
            "id": 38849,
            "type": "Feature",
            "geometry": {
                "type": "Point",
                "coordinates": [
                    18.68487,
                    50.675
                ]
            },
            "properties": {
                "ref:rspo": 38849,
                "official_name": "Zak\u0142ad Doskonalenia Zawodowego w Katowicach O\u015brodek Kszta\u0142cenia Zawodowego w Lubli\u0144cu",
                "name": "Zak\u0142ad Doskonalenia Zawodowego w Katowicach O\u015brodek Kszta\u0142cenia Zawodowego w Lubli\u0144cu",
                "addr:country": "PL",
                "addr:postcode": "42-700",
                "addr:city": "Lubliniec",
                "addr:street": "Cz\u0119stochowska",
                "addr:housenumber": "19",
                "addr:teryt:simc": 3458,
                "addr:teryt:sym_ul": 931945,
                "contact:phone": "+48 343564837",
                "contact:email": "lubliniec@zdz.katowice.pl",
                "contact:website": "http:\/\/www.zdz.katowice.pl",
                "ref:regon": "243078241",
                "operator": "Zak\u0142ad Doskonalenia Zawodowego W Katowicach",
                "operator:type": "ngo",
                "fixme": "w zale\u017cno\u015bci od przedmiotu dzia\u0142alno\u015bci (np. amenity=training + training=*, amenity=dancing_school, amenity=language_school, amenity=music_school)"
            }
        },
        {
            "id": 19459,
            "type": "Feature",
            "geometry": {
                "type": "Point",
                "coordinates": [
                    18.67973,
                    50.67648
                ]
            },
            "properties": {
                "isced:level": "1;2",
                "ref:rspo": 19459,
                "official_name": "Szko\u0142a Podstawowa Nr 3 im. Bohater\u00f3w Westerplatte w Lubli\u0144cu",
                "name": "Szko\u0142a Podstawowa Nr 3",
                "addr:country": "PL",
                "addr:postcode": "42-700",
                "addr:city": "Lubliniec",
                "addr:street": "Zwyci\u0119stwa",
                "addr:housenumber": "32",
                "addr:teryt:simc": 26326,
                "addr:teryt:sym_ul": 931945,
                "contact:phone": "+48 343511413",
                "contact:email": "sp3_lubliniec@wp.pl",
                "contact:website": "http:\/\/www.sp3.lubliniec.pl",
                "ref:regon": "000710730",
                "ref:vatin": "PL5751717480",
                "operator": "Gmina Lubliniec",
                "operator:type": "government",
                "amenity": "school"
            }
        },
        {
            "id": 29529,
            "type": "Feature",
            "geometry": {
                "type": "Point",
                "coordinates": [
                    18.67973,
                    50.676449999999996
                ]
            },
            "properties": {
                "isced:level": "3",
                "ref:rspo": 29529,
                "official_name": "Liceum Og\u00f3lnokszta\u0142c\u0105ce dla Doros\u0142ych w Lubli\u0144cu",
                "name": "Liceum Og\u00f3lnokszta\u0142c\u0105ce dla Doros\u0142ych w Lubli\u0144cu",
                "addr:country": "PL",
                "addr:postcode": "42-700",
                "addr:city": "Lubliniec",
                "addr:street": "Zwyci\u0119stwa",
                "addr:housenumber": "32",
                "addr:teryt:simc": 26326,
                "addr:teryt:sym_ul": 931945,
                "contact:phone": "+48 697762410",
                "contact:email": "liclub@wp.pl",
                "contact:website": "http:\/\/liclub.republika.pl",
                "ref:regon": "243067562",
                "operator": "Pawe\u0142 Dzioba",
                "operator:type": "private",
                "amenity": "school"
            }
        },
        {
            "id": 17355,
            "type": "Feature",
            "geometry": {
                "type": "Point",
                "coordinates": [
                    18.69547,
                    50.68253
                ]
            },
            "properties": {
                "ref:rspo": 17355,
                "official_name": "Przedszkole Miejskie Nr 1 w Lubli\u0144cu",
                "name": "Przedszkole Miejskie Nr 1 w Lubli\u0144cu",
                "addr:country": "PL",
                "addr:postcode": "42-700",
                "addr:city": "Lubliniec",
                "addr:street": "S\u0142oneczna",
                "addr:housenumber": "13",
                "addr:teryt:simc": 20254,
                "addr:teryt:sym_ul": 931945,
                "contact:phone": "+48 343511401",
                "contact:email": "przedszkole_1lubliniec@wp.pl",
                "contact:website": "http:\/\/1.przedszkolalubliniec.pl\/",
                "ref:regon": "151531507",
                "ref:vatin": "PL5751716807",
                "operator": "Gmina Lubliniec",
                "operator:type": "government",
                "amenity": "kindergarten"
            }
        },
        {
            "id": 196364,
            "type": "Feature",
            "geometry": {
                "type": "Point",
                "coordinates": [
                    18.67482,
                    50.68259
                ]
            },
            "properties": {
                "ref:rspo": 196364,
                "official_name": "Niepubliczne Przedszkole Bajkolandia",
                "name": "Niepubliczne Przedszkole Bajkolandia",
                "addr:country": "PL",
                "addr:postcode": "42-700",
                "addr:city": "Lubliniec",
                "addr:street": "PCK",
                "addr:housenumber": "23",
                "addr:teryt:simc": 15905,
                "addr:teryt:sym_ul": 931945,
                "contact:phone": "+48 660048809",
                "contact:email": "kontakt@bajkolandia.info",
                "contact:website": "http:\/\/www.bajkolandia.info",
                "ref:regon": "367991466",
                "operator": "Klaudia Schindler",
                "operator:type": "private",
                "amenity": "kindergarten"
            }
        }
    ]
}