{
    "type": "FeatureCollection",
    "features": [
        {
            "id": 61638,
            "type": "Feature",
            "geometry": {
                "type": "Point",
                "coordinates": [
                    19.06288,
                    50.58707
                ]
            },
            "properties": {
                "ref:rspo": 61638,
                "official_name": "Przedszkole im. \"Weso\u0142e Krasnoludki\" w Wo\u017anikach",
                "name": "Przedszkole",
                "addr:postcode": "42-289",
                "addr:city": "Wo\u017aniki",
                "addr:street": "Lompy",
                "addr:housenumber": "5",
                "addr:city:simc": 932494,
                "addr:street:sym_ul": 11246,
                "phone": "+48 343573033",
                "email": "przedszkole.wozniki@wp.pl",
                "ref:regon": "150028120",
                "ref:vatin": "PL5751717540",
                "operator": "Gmina Wo\u017aniki",
                "operator:type": "government",
                "amenity": "kindergarten"
            }
        },
        {
            "id": 57074,
            "type": "Feature",
            "geometry": {
                "type": "Point",
                "coordinates": [
                    18.96242,
                    50.60007
                ]
            },
            "properties": {
                "isced:level": "1;2",
                "ref:rspo": 57074,
                "official_name": "Szko\u0142a Podstawowa w Wo\u017anikach - Ligota Wo\u017anicka",
                "name": "Szko\u0142a Podstawowa w Wo\u017anikach - Ligota Wo\u017anicka",
                "addr:postcode": "42-289",
                "addr:city": "Wo\u017aniki",
                "addr:street": "Szkolna",
                "addr:housenumber": "5",
                "addr:city:simc": 932494,
                "addr:street:sym_ul": 21970,
                "phone": "+48 343573061",
                "email": "spligota@op.pl",
                "website": "http:\/\/www.spligota.republika.pl",
                "ref:regon": "001198524",
                "ref:vatin": "PL5751715831",
                "operator": "Gmina Wo\u017aniki",
                "operator:type": "government",
                "amenity": "school"
            }
        },
        {
            "id": 63469,
            "type": "Feature",
            "geometry": {
                "type": "Point",
                "coordinates": [
                    18.99539,
                    50.61322
                ]
            },
            "properties": {
                "isced:level": "1;2",
                "ref:rspo": 63469,
                "official_name": "Szko\u0142a Podstawowa im. J\u00f3zefa Lompy w Lubszy",
                "name": "Szko\u0142a Podstawowa",
                "addr:postcode": "42-287",
                "addr:city": "Lubsza",
                "addr:street": "Szkolna",
                "addr:housenumber": "1",
                "addr:city:simc": 146956,
                "addr:street:sym_ul": 21970,
                "phone": "+48 343579033",
                "email": "splubsza@gmail.com",
                "website": "http:\/\/www.splubsza.pl",
                "ref:regon": "001198518",
                "ref:vatin": "PL5751715995",
                "operator": "Gmina Wo\u017aniki",
                "operator:type": "government",
                "amenity": "school"
            }
        },
        {
            "id": 57115,
            "type": "Feature",
            "geometry": {
                "type": "Point",
                "coordinates": [
                    18.96909,
                    50.61831
                ]
            },
            "properties": {
                "isced:level": "1;2",
                "ref:rspo": 57115,
                "official_name": "Szko\u0142a Podstawowa im. Jana Paw\u0142a II w Psarach",
                "name": "Szko\u0142a Podstawowa",
                "addr:postcode": "42-287",
                "addr:city": "Psary",
                "addr:street": "G\u0142\u00f3wna",
                "addr:housenumber": "91",
                "addr:city:simc": 146985,
                "addr:street:sym_ul": 5635,
                "phone": "+48 343579039",
                "email": "psary_sp@op.pl",
                "website": "http:\/\/www.sp.psary.net.pl",
                "ref:regon": "001198530",
                "ref:vatin": "PL5751710443",
                "operator": "Gmina Wo\u017aniki",
                "operator:type": "government",
                "amenity": "school"
            }
        },
        {
            "id": 61577,
            "type": "Feature",
            "geometry": {
                "type": "Point",
                "coordinates": [
                    18.96909,
                    50.61828
                ]
            },
            "properties": {
                "isced:level": "3",
                "ref:rspo": 61577,
                "official_name": "Liceum Og\u00f3lnokszta\u0142c\u0105ce w Psarach",
                "name": "Liceum Og\u00f3lnokszta\u0142c\u0105ce w Psarach",
                "addr:postcode": "42-287",
                "addr:city": "Psary",
                "addr:street": "G\u0142\u00f3wna",
                "addr:housenumber": "91",
                "addr:city:simc": 146985,
                "addr:street:sym_ul": 5635,
                "phone": "+48 343579437",
                "email": "lopsary@interia.pl",
                "website": "http:\/\/www.lopsary.superszkolna.pl",
                "ref:regon": "150222342",
                "ref:vatin": "PL5751715877",
                "operator": "Gmina Wo\u017aniki",
                "operator:type": "government",
                "amenity": "school"
            }
        },
        {
            "id": 61618,
            "type": "Feature",
            "geometry": {
                "type": "Point",
                "coordinates": [
                    18.96909,
                    50.61825
                ]
            },
            "properties": {
                "ref:rspo": 61618,
                "official_name": "Przedszkole w Psarach",
                "name": "Przedszkole w Psarach",
                "addr:postcode": "42-287",
                "addr:city": "Psary",
                "addr:street": "G\u0142\u00f3wna",
                "addr:housenumber": "91",
                "addr:city:simc": 146985,
                "addr:street:sym_ul": 5635,
                "phone": "+48 343579095",
                "email": "przedszkolepsary@op.pl",
                "website": "http:\/\/przedszkolepsary.superszkolna.pl",
                "ref:regon": "150028137",
                "ref:vatin": "PL5751718019",
                "operator": "Gmina Wo\u017aniki",
                "operator:type": "government",
                "amenity": "kindergarten"
            }
        },
        {
            "id": 72688,
            "type": "Feature",
            "geometry": {
                "type": "Point",
                "coordinates": [
                    18.99517,
                    50.6365
                ]
            },
            "properties": {
                "isced:level": "1;2",
                "ref:rspo": 72688,
                "official_name": "Szko\u0142a Podstawowa im. J\u00f3zefa Lompy w Wo\u017anikach",
                "name": "Szko\u0142a Podstawowa",
                "addr:postcode": "42-289",
                "addr:city": "Wo\u017aniki",
                "addr:street": "Powsta\u0144c\u00f3w",
                "addr:housenumber": "7",
                "addr:city:simc": 932494,
                "addr:street:sym_ul": 17354,
                "phone": "+48 343573470",
                "email": "szkolawozniki@wp.pl",
                "ref:regon": "000715650",
                "ref:vatin": "PL5751710414",
                "operator": "Gmina Wo\u017aniki",
                "operator:type": "government",
                "amenity": "school"
            }
        },
        {
            "id": 72680,
            "type": "Feature",
            "geometry": {
                "type": "Point",
                "coordinates": [
                    18.99396,
                    50.64064
                ]
            },
            "properties": {
                "isced:level": "1;2",
                "ref:rspo": 72680,
                "official_name": "Szko\u0142a Podstawowa im. Powsta\u0144c\u00f3w \u015aL\u0105skich w Kamienicy",
                "name": "Szko\u0142a Podstawowa",
                "addr:postcode": "42-287",
                "addr:city": "Kamienica",
                "addr:street": "Cz\u0119stochowska",
                "addr:housenumber": "42",
                "addr:city:simc": 146873,
                "addr:street:sym_ul": 3458,
                "phone": "+48 343579528",
                "email": "szkolawkamienicy@poczta.onet.pl",
                "website": "https:\/\/spkamienica.edupage.org\/",
                "ref:regon": "001198547",
                "ref:vatin": "PL5751714501",
                "operator": "Gmina Wo\u017aniki",
                "operator:type": "government",
                "amenity": "school"
            }
        },
        {
            "id": 61543,
            "type": "Feature",
            "geometry": {
                "type": "Point",
                "coordinates": [
                    19.03325,
                    50.64117
                ]
            },
            "properties": {
                "isced:level": "1;2",
                "ref:rspo": 61543,
                "official_name": "Niepubliczna Szko\u0142a Podstawowa w Kamie\u0144skich M\u0142ynach",
                "name": "Niepubliczna Szko\u0142a Podstawowa w Kamie\u0144skich M\u0142ynach",
                "addr:postcode": "42-287",
                "addr:city": "Kamie\u0144skie M\u0142yny",
                "addr:street": "Szkolna",
                "addr:housenumber": "10",
                "addr:city:simc": 146927,
                "addr:street:sym_ul": 21970,
                "phone": "+48 343579763",
                "email": "szkolamlyny@interia.pl",
                "ref:regon": "243082828",
                "operator": "Stowarzyszenie Na Rzecz Rozwoju Wsi - Kamie\u0144skie M\u0142yny",
                "operator:type": "ngo",
                "amenity": "school"
            }
        },
        {
            "id": 72653,
            "type": "Feature",
            "geometry": {
                "type": "Point",
                "coordinates": [
                    19.03325,
                    50.64114
                ]
            },
            "properties": {
                "ref:rspo": 72653,
                "official_name": "Niepubliczne Przedszkole w Kamie\u0144skich M\u0142ynach",
                "name": "Niepubliczne Przedszkole w Kamie\u0144skich M\u0142ynach",
                "addr:postcode": "42-287",
                "addr:city": "Kamie\u0144skie M\u0142yny",
                "addr:street": "Szkolna",
                "addr:housenumber": "10",
                "addr:city:simc": 146927,
                "addr:street:sym_ul": 21970,
                "phone": "+48 343579763",
                "email": "szkolamlyny@interia.pl",
                "ref:regon": "243087576",
                "operator": "Stowarzyszenie Na Rzecz Rozwoju Wsi - Kamie\u0144skie M\u0142yny",
                "operator:type": "ngo",
                "amenity": "kindergarten"
            }
        }
    ]
}