{
    "type": "FeatureCollection",
    "features": [
        {
            "id": 83509,
            "type": "Feature",
            "geometry": {
                "type": "Point",
                "coordinates": [
                    18.89311,
                    50.71879
                ]
            },
            "properties": {
                "ref:rspo": 83509,
                "official_name": "Zesp\u00f3\u0142 Szkolno - Przedszkolny w Olszynie",
                "name": "Zesp\u00f3\u0142 Szkolno - Przedszkolny w Olszynie",
                "addr:postcode": "42-284",
                "addr:city": "Olszyna",
                "addr:street": "Szkolna",
                "addr:housenumber": "4",
                "addr:city:simc": 132492,
                "addr:street:sym_ul": 21970,
                "phone": "+48 343574026",
                "email": "spolszyna1@poczta.onet.pl",
                "ref:regon": "152134725",
                "operator": "Gmina Herby",
                "operator:type": "government",
                "landuse": "education",
                "fixme": "amenity=school, amenity=college albo landuse=education w zale\u017cno\u015bci od tego, jakie plac\u00f3wki wchodz\u0105 w sk\u0142ad zespo\u0142u. Sprawd\u017a, kiedy stosowa\u0107 amenity=* a kiedy landuse=education.",
                "note": "Children RSPO: 86962;86985"
            }
        },
        {
            "id": 86962,
            "type": "Feature",
            "geometry": {
                "type": "Point",
                "coordinates": [
                    18.89311,
                    50.718759999999996
                ]
            },
            "properties": {
                "ref:rspo": 86962,
                "official_name": "Przedszkole Samorz\u0105dowe w Olszynie",
                "name": "Przedszkole Samorz\u0105dowe w Olszynie",
                "addr:postcode": "42-284",
                "addr:city": "Olszyna",
                "addr:street": "Szkolna",
                "addr:housenumber": "4",
                "addr:city:simc": 132492,
                "addr:street:sym_ul": 21970,
                "phone": "+48 343574026",
                "email": "spolszyna1@poczta.onet.pl",
                "ref:regon": "151394000",
                "operator": "Gmina Herby",
                "operator:type": "government",
                "amenity": "kindergarten",
                "note": "Parent RSPO: 83509"
            }
        },
        {
            "id": 86985,
            "type": "Feature",
            "geometry": {
                "type": "Point",
                "coordinates": [
                    18.89311,
                    50.71873
                ]
            },
            "properties": {
                "isced:level": "1;2",
                "ref:rspo": 86985,
                "official_name": "Szko\u0142a Podstawowa Im Miko\u0142aja Kopernika w Olszynie",
                "name": "Szko\u0142a Podstawowa Im Miko\u0142aja Kopernika w Olszynie",
                "addr:postcode": "42-284",
                "addr:city": "Olszyna",
                "addr:street": "Szkolna",
                "addr:housenumber": "4",
                "addr:city:simc": 132492,
                "addr:street:sym_ul": 21970,
                "phone": "+48 343574026",
                "email": "spolszyna1@poczta.onet.pl",
                "ref:regon": "001204851",
                "operator": "Gmina Herby",
                "operator:type": "government",
                "amenity": "school",
                "note": "Parent RSPO: 83509"
            }
        },
        {
            "id": 83608,
            "type": "Feature",
            "geometry": {
                "type": "Point",
                "coordinates": [
                    18.7971499,
                    50.72873
                ]
            },
            "properties": {
                "ref:rspo": 83608,
                "official_name": "Zesp\u00f3\u0142 Szkolno -Przedszkolny w Lisowie",
                "name": "Zesp\u00f3\u0142 Szkolno -Przedszkolny w Lisowie",
                "addr:postcode": "42-714",
                "addr:city": "Lis\u00f3w",
                "addr:street": "Szkolna",
                "addr:housenumber": "2",
                "addr:city:simc": 132374,
                "addr:street:sym_ul": 21970,
                "phone": "+48 343571218",
                "email": "gimlisow@interia.pl",
                "ref:regon": "152134748",
                "operator": "Gmina Herby",
                "operator:type": "government",
                "landuse": "education",
                "fixme": "amenity=school, amenity=college albo landuse=education w zale\u017cno\u015bci od tego, jakie plac\u00f3wki wchodz\u0105 w sk\u0142ad zespo\u0142u. Sprawd\u017a, kiedy stosowa\u0107 amenity=* a kiedy landuse=education.",
                "note": "Children RSPO: 87061;87089"
            }
        },
        {
            "id": 87061,
            "type": "Feature",
            "geometry": {
                "type": "Point",
                "coordinates": [
                    18.7971499,
                    50.728699999999996
                ]
            },
            "properties": {
                "ref:rspo": 87061,
                "official_name": "Przedszkole Samorz\u0105dowe w Lisowie",
                "name": "Przedszkole Samorz\u0105dowe w Lisowie",
                "addr:postcode": "42-714",
                "addr:city": "Lis\u00f3w",
                "addr:street": "Szkolna",
                "addr:housenumber": "2",
                "addr:city:simc": 132374,
                "addr:street:sym_ul": 21970,
                "phone": "+48 343571218",
                "email": "gimlisow@interia.pl",
                "ref:regon": "151394016",
                "operator": "Gmina Herby",
                "operator:type": "government",
                "amenity": "kindergarten",
                "note": "Parent RSPO: 83608"
            }
        },
        {
            "id": 87089,
            "type": "Feature",
            "geometry": {
                "type": "Point",
                "coordinates": [
                    18.7971499,
                    50.72867
                ]
            },
            "properties": {
                "isced:level": "1;2",
                "ref:rspo": 87089,
                "official_name": "Szko\u0142a Podstawowa Im Juliana Tuwima w Lisowie",
                "name": "Szko\u0142a Podstawowa Im Juliana Tuwima w Lisowie",
                "addr:postcode": "42-714",
                "addr:city": "Lis\u00f3w",
                "addr:street": "Szkolna",
                "addr:housenumber": "2",
                "addr:city:simc": 132374,
                "addr:street:sym_ul": 21970,
                "phone": "+48 343571218",
                "email": "gimlisow@interia.pl",
                "website": "http:\/\/gimlisow.edupage.org",
                "ref:regon": "001204868",
                "operator": "Gmina Herby",
                "operator:type": "government",
                "amenity": "school",
                "note": "Parent RSPO: 83608"
            }
        },
        {
            "id": 83542,
            "type": "Feature",
            "geometry": {
                "type": "Point",
                "coordinates": [
                    18.88068,
                    50.74329
                ]
            },
            "properties": {
                "ref:rspo": 83542,
                "official_name": "Zesp\u00f3\u0142 Szkolno-Przedszkolny w Herbach",
                "name": "Zesp\u00f3\u0142 Szkolno-Przedszkolny w Herbach",
                "addr:postcode": "42-284",
                "addr:city": "Herby",
                "addr:street": "Katowicka",
                "addr:housenumber": "6",
                "addr:city:simc": 132351,
                "addr:street:sym_ul": 8206,
                "phone": "+48 343574025",
                "email": "zpoherby@o2.pl",
                "website": "http:\/\/zspherby.szkolnastrona.pl",
                "ref:regon": "152134731",
                "operator": "Gmina Herby",
                "operator:type": "government",
                "landuse": "education",
                "fixme": "amenity=school, amenity=college albo landuse=education w zale\u017cno\u015bci od tego, jakie plac\u00f3wki wchodz\u0105 w sk\u0142ad zespo\u0142u. Sprawd\u017a, kiedy stosowa\u0107 amenity=* a kiedy landuse=education.",
                "note": "Children RSPO: 86230;107485"
            }
        },
        {
            "id": 86230,
            "type": "Feature",
            "geometry": {
                "type": "Point",
                "coordinates": [
                    18.88068,
                    50.74326
                ]
            },
            "properties": {
                "isced:level": "1;2",
                "ref:rspo": 86230,
                "official_name": "Szko\u0142a Podstawowa im. Juliusza S\u0142owackiego w Herbach",
                "name": "Szko\u0142a Podstawowa",
                "addr:postcode": "42-284",
                "addr:city": "Herby",
                "addr:street": "Katowicka",
                "addr:housenumber": "6",
                "addr:city:simc": 132351,
                "addr:street:sym_ul": 8206,
                "phone": "+48 343574025",
                "email": "zpoherby@o2.pl",
                "website": "http:\/\/zspherby.szkolnastrona.pl",
                "ref:regon": "000673779",
                "operator": "Gmina Herby",
                "operator:type": "government",
                "amenity": "school",
                "note": "Parent RSPO: 83542"
            }
        },
        {
            "id": 107485,
            "type": "Feature",
            "geometry": {
                "type": "Point",
                "coordinates": [
                    18.88068,
                    50.743230000000004
                ]
            },
            "properties": {
                "ref:rspo": 107485,
                "official_name": "Przedszkole Samorz\u0105dowe w Herbach",
                "name": "Przedszkole Samorz\u0105dowe w Herbach",
                "addr:postcode": "42-284",
                "addr:city": "Herby",
                "addr:street": "Katowicka",
                "addr:housenumber": "6",
                "addr:city:simc": 132351,
                "addr:street:sym_ul": 8206,
                "phone": "+48 343574025",
                "email": "zpoherby@o2.pl",
                "website": "http:\/\/zspherby.szkolnastrona.pl",
                "ref:regon": "150504810",
                "operator": "Gmina Herby",
                "operator:type": "government",
                "amenity": "kindergarten",
                "note": "Parent RSPO: 83542"
            }
        },
        {
            "id": 7160,
            "type": "Feature",
            "geometry": {
                "type": "Point",
                "coordinates": [
                    18.8888,
                    50.75367
                ]
            },
            "properties": {
                "ref:rspo": 7160,
                "official_name": "M\u0142odzie\u017cowy O\u015brodek Wychowawczy w Herbach",
                "name": "M\u0142odzie\u017cowy O\u015brodek Wychowawczy w Herbach",
                "addr:postcode": "42-284",
                "addr:city": "Herby",
                "addr:street": "Lubliniecka",
                "addr:housenumber": "10",
                "addr:door": "12",
                "addr:city:simc": 132351,
                "addr:street:sym_ul": 11333,
                "phone": "+48 343872006",
                "email": "sekretariat@herby.edu.pl",
                "website": "http:\/\/www.herby.edu.pl",
                "ref:regon": "000202123",
                "ref:vatin": "PL5751025279",
                "operator": "Powiat Lubliniecki",
                "operator:type": "government",
                "fixme": "amenity=social_facility + social_facility=group_home + social_facility:for=juvenile",
                "note": "Children RSPO: 88103;88106"
            }
        },
        {
            "id": 88103,
            "type": "Feature",
            "geometry": {
                "type": "Point",
                "coordinates": [
                    18.8888,
                    50.75364
                ]
            },
            "properties": {
                "isced:level": "1;2",
                "ref:rspo": 88103,
                "official_name": "Szko\u0142a Podstawowa Specjalna nr 5 dla Uczni\u00f3w Niedostosowanych Spo\u0142ecznie Oraz dla Uczni\u00f3w Niedostosowanych Spo\u0142ecznie z Niepe\u0142nosprawno\u015bci\u0105 Intelektualn\u0105 w Stopniu Lekkim",
                "name": "Szko\u0142a Podstawowa Specjalna nr 5 dla Uczni\u00f3w Niedostosowanych Spo\u0142ecznie Oraz dla Uczni\u00f3w Niedostosowanych Spo\u0142ecznie z Niepe\u0142nosprawno\u015bci\u0105 Intelektualn\u0105 w Stopniu Lekkim",
                "addr:postcode": "42-284",
                "addr:city": "Herby",
                "addr:street": "Lubliniecka",
                "addr:housenumber": "10",
                "addr:door": "12",
                "addr:city:simc": 132351,
                "addr:street:sym_ul": 11333,
                "phone": "+48 343574014",
                "email": "sekretariat@herby.edu.pl",
                "website": "http:\/\/www.herby.edu.pl",
                "ref:regon": "152129440",
                "operator": "Powiat Lubliniecki",
                "operator:type": "government",
                "amenity": "school",
                "note": "Parent RSPO: 7160"
            }
        },
        {
            "id": 88106,
            "type": "Feature",
            "geometry": {
                "type": "Point",
                "coordinates": [
                    18.8888,
                    50.75361
                ]
            },
            "properties": {
                "isced:level": "3",
                "ref:rspo": 88106,
                "official_name": "Bran\u017cowa Szko\u0142a I Stopnia Specjalna nr 5 dla Uczni\u00f3w Niedostosowanych Spo\u0142ecznie Oraz dla Uczni\u00f3w Niedostosowanych Spo\u0142ecznie z Niepe\u0142nosprawno\u015bci\u0105 Intelektualn\u0105 w Stopniu Lekkim",
                "name": "Bran\u017cowa Szko\u0142a I Stopnia Specjalna nr 5 dla Uczni\u00f3w Niedostosowanych Spo\u0142ecznie Oraz dla Uczni\u00f3w Niedostosowanych Spo\u0142ecznie z Niepe\u0142nosprawno\u015bci\u0105 Intelektualn\u0105 w Stopniu Lekkim",
                "addr:postcode": "42-284",
                "addr:city": "Herby",
                "addr:street": "Lubliniecka",
                "addr:housenumber": "10",
                "addr:door": "12",
                "addr:city:simc": 132351,
                "addr:street:sym_ul": 11333,
                "phone": "+48 343574035",
                "email": "sekretariat@herby.edu.pl",
                "website": "http:\/\/www.herby.edu.pl",
                "ref:regon": "152129463",
                "operator": "Powiat Lubliniecki",
                "operator:type": "government",
                "amenity": "school",
                "note": "Parent RSPO: 7160"
            }
        }
    ]
}