{
    "type": "FeatureCollection",
    "features": [
        {
            "id": 30681,
            "type": "Feature",
            "geometry": {
                "type": "Point",
                "coordinates": [
                    18.80948,
                    50.6936899
                ]
            },
            "properties": {
                "ref:rspo": 30681,
                "official_name": "Zesp\u00f3\u0142 Szk\u00f3\u0142 w Kochanowicach",
                "name": "Zesp\u00f3\u0142 Szk\u00f3\u0142 w Kochanowicach",
                "addr:postcode": "42-713",
                "addr:city": "Kochanowice",
                "addr:street": "Szkolna",
                "addr:housenumber": "1",
                "addr:city:simc": 134657,
                "addr:street:sym_ul": 21970,
                "phone": "+48 343533280",
                "email": "zskochanowice@kochanowice.pl",
                "website": "http:\/\/kochanowice.szkola.pl",
                "ref:regon": "151517594",
                "ref:vatin": "PL5751719088",
                "operator": "Gmina Kochanowice",
                "operator:type": "government",
                "landuse": "education",
                "fixme": "amenity=school, amenity=college albo landuse=education w zale\u017cno\u015bci od tego, jakie plac\u00f3wki wchodz\u0105 w sk\u0142ad zespo\u0142u. Sprawd\u017a, kiedy stosowa\u0107 amenity=* a kiedy landuse=education.",
                "note": "Children RSPO: 72656;72657"
            }
        },
        {
            "id": 72657,
            "type": "Feature",
            "geometry": {
                "type": "Point",
                "coordinates": [
                    18.80948,
                    50.6936599
                ]
            },
            "properties": {
                "isced:level": "1;2",
                "ref:rspo": 72657,
                "official_name": "Publiczna Szko\u0142a Podstawowa w Kochanowicach",
                "name": "Publiczna Szko\u0142a Podstawowa w Kochanowicach",
                "addr:postcode": "42-713",
                "addr:city": "Kochanowice",
                "addr:street": "Szkolna",
                "addr:housenumber": "1",
                "addr:city:simc": 134657,
                "addr:street:sym_ul": 21970,
                "phone": "+48 343533280",
                "email": "zskochanowice@kochanowice.pl",
                "website": "http:\/\/kochanowice.szkola.pl",
                "ref:regon": "000717040",
                "ref:vatin": "PL5751719869",
                "operator": "Gmina Kochanowice",
                "operator:type": "government",
                "amenity": "school",
                "note": "Parent RSPO: 30681"
            }
        },
        {
            "id": 72654,
            "type": "Feature",
            "geometry": {
                "type": "Point",
                "coordinates": [
                    18.65081,
                    50.69538
                ]
            },
            "properties": {
                "isced:level": "1;2",
                "ref:rspo": 72654,
                "official_name": "Publiczna Szko\u0142a Podstawowa w Lubecku",
                "name": "Publiczna Szko\u0142a Podstawowa w Lubecku",
                "addr:postcode": "42-700",
                "addr:city": "Lubecko",
                "addr:street": "Lipska",
                "addr:housenumber": "21",
                "addr:city:simc": 134717,
                "addr:street:sym_ul": 11153,
                "phone": "+48 343562909",
                "email": "gimlubecko@op.pl",
                "website": "http:\/\/lubecko.edu.pl\/",
                "ref:regon": "001205030",
                "ref:vatin": "PL5751720513",
                "operator": "Gmina Kochanowice",
                "operator:type": "government",
                "amenity": "school"
            }
        },
        {
            "id": 131863,
            "type": "Feature",
            "geometry": {
                "type": "Point",
                "coordinates": [
                    18.74646,
                    50.7054
                ]
            },
            "properties": {
                "ref:rspo": 131863,
                "official_name": "Niepubliczne Przedszkole \" Bajkowa Kraina\"",
                "name": "Niepubliczne Przedszkole \" Bajkowa Kraina\"",
                "addr:postcode": "42-713",
                "addr:city": "Kochanowice",
                "addr:street": "Brzozowa",
                "addr:housenumber": "34",
                "addr:city:simc": 134657,
                "addr:street:sym_ul": 2276,
                "phone": "+48 603153449",
                "email": "joanna.brol@wp.pl",
                "ref:regon": "365365629",
                "ref:vatin": "PL5751890592",
                "operator": "Joanna Brol",
                "operator:type": "private",
                "amenity": "kindergarten"
            }
        },
        {
            "id": 72656,
            "type": "Feature",
            "geometry": {
                "type": "Point",
                "coordinates": [
                    18.74818,
                    50.70556
                ]
            },
            "properties": {
                "ref:rspo": 72656,
                "official_name": "Samorz\u0105dowe Przedszkole w Kochanowicach",
                "name": "Samorz\u0105dowe Przedszkole w Kochanowicach",
                "addr:postcode": "42-713",
                "addr:city": "Kochanowice",
                "addr:street": "Lubliniecka",
                "addr:housenumber": "9",
                "addr:city:simc": 134657,
                "addr:street:sym_ul": 11333,
                "phone": "+48 343533229",
                "email": "przedszkolekochanowice@op.pl",
                "website": "http:\/\/kochanowice.szkola.pl",
                "ref:regon": "151794767",
                "ref:vatin": "PL5751719042",
                "operator": "Gmina Kochanowice",
                "operator:type": "government",
                "amenity": "kindergarten",
                "note": "Parent RSPO: 30681"
            }
        },
        {
            "id": 30680,
            "type": "Feature",
            "geometry": {
                "type": "Point",
                "coordinates": [
                    18.6847,
                    50.7073899
                ]
            },
            "properties": {
                "ref:rspo": 30680,
                "official_name": "Zesp\u00f3\u0142 Szkolno - Przedszkolny w Kochcicach",
                "name": "Zesp\u00f3\u0142 Szkolno - Przedszkolny w Kochcicach",
                "addr:postcode": "42-713",
                "addr:city": "Kochcice",
                "addr:street": "Parkowa",
                "addr:housenumber": "45",
                "addr:city:simc": 134692,
                "addr:street:sym_ul": 15710,
                "phone": "+48 343533630",
                "email": "zspkochcice@wp.pl",
                "website": "http:\/\/kochcice.edu.pl",
                "ref:regon": "151716483",
                "ref:vatin": "PL5751719094",
                "operator": "Gmina Kochanowice",
                "operator:type": "government",
                "landuse": "education",
                "fixme": "amenity=school, amenity=college albo landuse=education w zale\u017cno\u015bci od tego, jakie plac\u00f3wki wchodz\u0105 w sk\u0142ad zespo\u0142u. Sprawd\u017a, kiedy stosowa\u0107 amenity=* a kiedy landuse=education.",
                "note": "Children RSPO: 57724;72655"
            }
        },
        {
            "id": 57724,
            "type": "Feature",
            "geometry": {
                "type": "Point",
                "coordinates": [
                    18.6847,
                    50.7073599
                ]
            },
            "properties": {
                "isced:level": "1;2",
                "ref:rspo": 57724,
                "official_name": "Publiczna Szko\u0142a Podstawowa w Kochcicach",
                "name": "Publiczna Szko\u0142a Podstawowa w Kochcicach",
                "addr:postcode": "42-713",
                "addr:city": "Kochcice",
                "addr:street": "Parkowa",
                "addr:housenumber": "45",
                "addr:city:simc": 134692,
                "addr:street:sym_ul": 15710,
                "phone": "+48 343533630",
                "email": "zspkochcice@wp.pl",
                "website": "http:\/\/kochcice.edu.pl",
                "ref:regon": "001205023",
                "ref:vatin": "PL5751719177",
                "operator": "Gmina Kochanowice",
                "operator:type": "government",
                "amenity": "school",
                "note": "Parent RSPO: 30680"
            }
        },
        {
            "id": 72655,
            "type": "Feature",
            "geometry": {
                "type": "Point",
                "coordinates": [
                    18.6847,
                    50.707329900000005
                ]
            },
            "properties": {
                "ref:rspo": 72655,
                "official_name": "Samorz\u0105dowe Przedszkole w Kochcicach",
                "name": "Samorz\u0105dowe Przedszkole w Kochcicach",
                "addr:postcode": "42-713",
                "addr:city": "Kochcice",
                "addr:street": "Parkowa",
                "addr:housenumber": "45",
                "addr:city:simc": 134692,
                "addr:street:sym_ul": 15710,
                "phone": "+48 343533630",
                "email": "zspkochcice@wp.pl",
                "website": "http:\/\/kochcice.edu.pl",
                "ref:regon": "151716365",
                "ref:vatin": "PL5751719160",
                "operator": "Gmina Kochanowice",
                "operator:type": "government",
                "amenity": "kindergarten",
                "note": "Parent RSPO: 30680"
            }
        },
        {
            "id": 126406,
            "type": "Feature",
            "geometry": {
                "type": "Point",
                "coordinates": [
                    18.75215,
                    50.73271
                ]
            },
            "properties": {
                "ref:rspo": 126406,
                "official_name": "Niepubliczne Centrum Kszta\u0142cenia Zawodowego \"Camp Raptor\"",
                "name": "Niepubliczne Centrum Kszta\u0142cenia Zawodowego \"Camp Raptor\"",
                "addr:postcode": "42-713",
                "addr:city": "Lubockie",
                "addr:street": "Szkolna",
                "addr:housenumber": "8",
                "addr:city:simc": 134723,
                "addr:street:sym_ul": 21970,
                "phone": "+48 343562489",
                "email": "biuro@miwolubliniec.com",
                "ref:regon": "360288686",
                "operator": "Renata Michalik Miwo Military",
                "operator:type": "consortium",
                "fixme": "w zale\u017cno\u015bci od przedmiotu dzia\u0142alno\u015bci (np. amenity=training + training=*, amenity=dancing_school, amenity=language_school, amenity=music_school) albo amenity=school, amenity=college, albo landuse=education w zale\u017cno\u015bci od tego, jakie plac\u00f3wki wchodz\u0105 w sk\u0142ad zespo\u0142u. Sprawd\u017a, kiedy stosowa\u0107 amenity=* a kiedy landuse=education."
            }
        },
        {
            "id": 30643,
            "type": "Feature",
            "geometry": {
                "type": "Point",
                "coordinates": [
                    18.67735,
                    50.74676
                ]
            },
            "properties": {
                "ref:rspo": 30643,
                "official_name": "Szkolne Schronisko M\u0142odzie\u017cowe \"Pawe\u0142ek\"",
                "name": "Szkolne Schronisko M\u0142odzie\u017cowe \"Pawe\u0142ek\"",
                "addr:postcode": "42-713",
                "addr:city": "Pawe\u0142ki",
                "addr:street": "G\u0142\u00f3wna",
                "addr:housenumber": "14",
                "addr:city:simc": 134752,
                "addr:street:sym_ul": 5635,
                "phone": "+48 343533716",
                "email": "schronisko.kochanowice@interia.eu",
                "website": "http:\/\/schroniskokochanowice.naszaplacowka.pl",
                "ref:regon": "152150279",
                "ref:vatin": "PL5751834760",
                "operator": "Gmina Kochanowice",
                "operator:type": "government",
                "tourism": "hostel"
            }
        }
    ]
}