{
    "type": "FeatureCollection",
    "features": [
        {
            "id": 22939,
            "type": "Feature",
            "geometry": {
                "type": "Point",
                "coordinates": [
                    18.5670499,
                    50.66455
                ]
            },
            "properties": {
                "ref:rspo": 22939,
                "official_name": "Przedszkole w Ko\u015bmidrach",
                "name": "Przedszkole w Ko\u015bmidrach",
                "addr:postcode": "42-772",
                "addr:city": "Ko\u015bmidry",
                "addr:street": "Lubliniecka",
                "addr:housenumber": "50",
                "addr:teryt:simc": 142071,
                "addr:teryt:sym_ul": 11333,
                "phone": "+48 343534326",
                "email": "pk@pawonkow.pl",
                "ref:regon": "150527350",
                "ref:vatin": "PL5751638579",
                "operator": "Gmina Pawonk\u00f3w",
                "operator:type": "government",
                "amenity": "kindergarten",
                "note": "Parent RSPO: 271561"
            }
        },
        {
            "id": 271561,
            "type": "Feature",
            "geometry": {
                "type": "Point",
                "coordinates": [
                    18.56794,
                    50.66481
                ]
            },
            "properties": {
                "ref:rspo": 271561,
                "official_name": "Zesp\u00f3\u0142 Szkolno-Przedszkolny w Ko\u015bmidrach",
                "name": "Zesp\u00f3\u0142 Szkolno-Przedszkolny w Ko\u015bmidrach",
                "addr:postcode": "42-772",
                "addr:city": "Ko\u015bmidry",
                "addr:street": "Szkolna",
                "addr:housenumber": "3",
                "addr:teryt:simc": 142071,
                "addr:teryt:sym_ul": 21970,
                "phone": "+48 343534294",
                "email": "spk@pawonkow.pl",
                "ref:regon": "383411686",
                "ref:vatin": "PL5751899015",
                "operator": "Gmina Pawonk\u00f3w",
                "operator:type": "government",
                "landuse": "education",
                "fixme": "amenity=school, amenity=college albo landuse=education w zale\u017cno\u015bci od tego, jakie plac\u00f3wki wchodz\u0105 w sk\u0142ad zespo\u0142u. Sprawd\u017a, kiedy stosowa\u0107 amenity=* a kiedy landuse=education.",
                "note": "Children RSPO: 22939;22978;23058"
            }
        },
        {
            "id": 23058,
            "type": "Feature",
            "geometry": {
                "type": "Point",
                "coordinates": [
                    18.56794,
                    50.66478
                ]
            },
            "properties": {
                "isced:level": "1;2",
                "ref:rspo": 23058,
                "official_name": "Szko\u0142a Podstawowa im. Wandy Kawy I Bronis\u0142awy Kawy w Ko\u015bmidrach",
                "name": "Szko\u0142a Podstawowa",
                "addr:postcode": "42-772",
                "addr:city": "Ko\u015bmidry",
                "addr:street": "Szkolna",
                "addr:housenumber": "3",
                "addr:teryt:simc": 142071,
                "addr:teryt:sym_ul": 21970,
                "phone": "+48 343534294",
                "email": "spk@pawonkow.pl",
                "website": "http:\/\/www.kosmidry.pl",
                "ref:regon": "001204130",
                "ref:vatin": "PL5751638668",
                "operator": "Gmina Pawonk\u00f3w",
                "operator:type": "government",
                "amenity": "school",
                "note": "Parent RSPO: 271561"
            }
        },
        {
            "id": 22221,
            "type": "Feature",
            "geometry": {
                "type": "Point",
                "coordinates": [
                    18.62061,
                    50.68141
                ]
            },
            "properties": {
                "ref:rspo": 22221,
                "official_name": "Przedszkole im. Pluszowego Misia w Pawonkowie",
                "name": "Przedszkole",
                "addr:postcode": "42-772",
                "addr:city": "Pawonk\u00f3w",
                "addr:street": "Lubliniecka",
                "addr:housenumber": "18",
                "addr:teryt:simc": 142289,
                "addr:teryt:sym_ul": 11333,
                "phone": "+48 343534408",
                "email": "pp@pawonkow.pl",
                "ref:regon": "150527343",
                "ref:vatin": "PL5751638591",
                "operator": "Gmina Pawonk\u00f3w",
                "operator:type": "government",
                "amenity": "kindergarten",
                "note": "Parent RSPO: 271563"
            }
        },
        {
            "id": 22210,
            "type": "Feature",
            "geometry": {
                "type": "Point",
                "coordinates": [
                    18.63099,
                    50.68234
                ]
            },
            "properties": {
                "ref:rspo": 22210,
                "official_name": "Zesp\u00f3\u0142 Szkolno-Przedszkolny w Lisowicach",
                "name": "Zesp\u00f3\u0142 Szkolno-Przedszkolny w Lisowicach",
                "addr:postcode": "42-700",
                "addr:city": "Lisowice",
                "addr:street": "Adama Mickiewicza",
                "addr:housenumber": "22",
                "addr:teryt:simc": 142119,
                "addr:teryt:sym_ul": 12734,
                "phone": "+48 343565770",
                "email": "spl@pawonkow.pl",
                "website": "http:\/\/zsplisowice.pl\/",
                "ref:regon": "240156070",
                "ref:vatin": "PL5751789108",
                "operator": "Gmina Pawonk\u00f3w",
                "operator:type": "government",
                "landuse": "education",
                "fixme": "amenity=school, amenity=college albo landuse=education w zale\u017cno\u015bci od tego, jakie plac\u00f3wki wchodz\u0105 w sk\u0142ad zespo\u0142u. Sprawd\u017a, kiedy stosowa\u0107 amenity=* a kiedy landuse=education.",
                "note": "Children RSPO: 25045;25046"
            }
        },
        {
            "id": 25045,
            "type": "Feature",
            "geometry": {
                "type": "Point",
                "coordinates": [
                    18.63099,
                    50.68231
                ]
            },
            "properties": {
                "isced:level": "1;2",
                "ref:rspo": 25045,
                "official_name": "Szko\u0142a Podstawowa w Lisowicach",
                "name": "Szko\u0142a Podstawowa w Lisowicach",
                "addr:postcode": "42-700",
                "addr:city": "Lisowice",
                "addr:street": "Adama Mickiewicza",
                "addr:housenumber": "22",
                "addr:teryt:simc": 142119,
                "addr:teryt:sym_ul": 12734,
                "phone": "+48 343565770",
                "email": "spl@pawonkow.pl",
                "ref:regon": "001204101",
                "ref:vatin": "PL5751638616",
                "operator": "Gmina Pawonk\u00f3w",
                "operator:type": "government",
                "amenity": "school",
                "note": "Parent RSPO: 22210"
            }
        },
        {
            "id": 25046,
            "type": "Feature",
            "geometry": {
                "type": "Point",
                "coordinates": [
                    18.63099,
                    50.682280000000006
                ]
            },
            "properties": {
                "ref:rspo": 25046,
                "official_name": "Przedszkole w Lisowicach",
                "name": "Przedszkole w Lisowicach",
                "addr:postcode": "42-700",
                "addr:city": "Lisowice",
                "addr:street": "Adama Mickiewicza",
                "addr:housenumber": "22",
                "addr:teryt:simc": 142119,
                "addr:teryt:sym_ul": 12734,
                "phone": "+48 343565770",
                "email": "pl@pawonkow.pl",
                "ref:regon": "240156093",
                "ref:vatin": "PL5751789114",
                "operator": "Gmina Pawonk\u00f3w",
                "operator:type": "government",
                "amenity": "kindergarten",
                "note": "Parent RSPO: 22210"
            }
        },
        {
            "id": 22958,
            "type": "Feature",
            "geometry": {
                "type": "Point",
                "coordinates": [
                    18.51648,
                    50.6835
                ]
            },
            "properties": {
                "ref:rspo": 22958,
                "official_name": "Przedszkole w \u0141agiewnikach Ma\u0142ych",
                "name": "Przedszkole w \u0141agiewnikach Ma\u0142ych",
                "addr:postcode": "42-772",
                "addr:city": "\u0141agiewniki Ma\u0142e",
                "addr:street": "Lubliniecka",
                "addr:housenumber": "33",
                "addr:teryt:simc": 142177,
                "addr:teryt:sym_ul": 11333,
                "phone": "+48 343534615",
                "email": "plm@pawonkow.pl",
                "ref:regon": "150527337",
                "ref:vatin": "PL5751638562",
                "operator": "Gmina Pawonk\u00f3w",
                "operator:type": "government",
                "amenity": "kindergarten",
                "note": "Parent RSPO: 271562"
            }
        },
        {
            "id": 271562,
            "type": "Feature",
            "geometry": {
                "type": "Point",
                "coordinates": [
                    18.51789,
                    50.68389
                ]
            },
            "properties": {
                "ref:rspo": 271562,
                "official_name": "Zesp\u00f3\u0142 Szkolno-Przedszkolny w \u0141agiewnikach Ma\u0142ych",
                "name": "Zesp\u00f3\u0142 Szkolno-Przedszkolny w \u0141agiewnikach Ma\u0142ych",
                "addr:postcode": "42-772",
                "addr:city": "\u0141agiewniki Ma\u0142e",
                "addr:street": "Lubliniecka",
                "addr:housenumber": "30",
                "addr:teryt:simc": 142177,
                "addr:teryt:sym_ul": 11333,
                "phone": "+48 343534709",
                "email": "splm@pawonkow.pl",
                "ref:regon": "383412243",
                "ref:vatin": "PL5751898984",
                "operator": "Gmina Pawonk\u00f3w",
                "operator:type": "government",
                "landuse": "education",
                "fixme": "amenity=school, amenity=college albo landuse=education w zale\u017cno\u015bci od tego, jakie plac\u00f3wki wchodz\u0105 w sk\u0142ad zespo\u0142u. Sprawd\u017a, kiedy stosowa\u0107 amenity=* a kiedy landuse=education.",
                "note": "Children RSPO: 22958;23059"
            }
        },
        {
            "id": 23059,
            "type": "Feature",
            "geometry": {
                "type": "Point",
                "coordinates": [
                    18.51789,
                    50.683859999999996
                ]
            },
            "properties": {
                "isced:level": "1;2",
                "ref:rspo": 23059,
                "official_name": "Szko\u0142a Podstawowa w \u0141agiewnikach Ma\u0142ych",
                "name": "Szko\u0142a Podstawowa w \u0141agiewnikach Ma\u0142ych",
                "addr:postcode": "42-772",
                "addr:city": "\u0141agiewniki Ma\u0142e",
                "addr:street": "Lubliniecka",
                "addr:housenumber": "30",
                "addr:teryt:simc": 142177,
                "addr:teryt:sym_ul": 11333,
                "phone": "+48 343534709",
                "email": "splm@pawonkow.pl",
                "ref:regon": "001204118",
                "ref:vatin": "PL5751638651",
                "operator": "Gmina Pawonk\u00f3w",
                "operator:type": "government",
                "amenity": "school",
                "note": "Parent RSPO: 271562"
            }
        },
        {
            "id": 271563,
            "type": "Feature",
            "geometry": {
                "type": "Point",
                "coordinates": [
                    18.59823,
                    50.7128299
                ]
            },
            "properties": {
                "ref:rspo": 271563,
                "official_name": "Zesp\u00f3\u0142 Szkolno-Przedszkolny w Pawonkowie",
                "name": "Zesp\u00f3\u0142 Szkolno-Przedszkolny w Pawonkowie",
                "addr:postcode": "42-772",
                "addr:city": "Pawonk\u00f3w",
                "addr:street": "Szkolna",
                "addr:housenumber": "1",
                "addr:teryt:simc": 142289,
                "addr:teryt:sym_ul": 21970,
                "phone": "+48 343534081",
                "email": "spp@pawonkow.pl",
                "ref:regon": "383412496",
                "ref:vatin": "PL5751898990",
                "operator": "Gmina Pawonk\u00f3w",
                "operator:type": "government",
                "landuse": "education",
                "fixme": "amenity=school, amenity=college albo landuse=education w zale\u017cno\u015bci od tego, jakie plac\u00f3wki wchodz\u0105 w sk\u0142ad zespo\u0142u. Sprawd\u017a, kiedy stosowa\u0107 amenity=* a kiedy landuse=education.",
                "note": "Children RSPO: 22221;23023"
            }
        },
        {
            "id": 23023,
            "type": "Feature",
            "geometry": {
                "type": "Point",
                "coordinates": [
                    18.59823,
                    50.7127999
                ]
            },
            "properties": {
                "isced:level": "1;2",
                "ref:rspo": 23023,
                "official_name": "Szko\u0142a Podstawowa im. Tadeusza Ko\u015bciuszki w Pawonkowie",
                "name": "Szko\u0142a Podstawowa",
                "addr:postcode": "42-772",
                "addr:city": "Pawonk\u00f3w",
                "addr:street": "Szkolna",
                "addr:housenumber": "1",
                "addr:teryt:simc": 142289,
                "addr:teryt:sym_ul": 21970,
                "phone": "+48 343534081",
                "email": "spp@pawonkow.pl",
                "website": "http:\/\/sppawonkow.edu.pl\/",
                "ref:regon": "000582410",
                "ref:vatin": "PL5751638527",
                "operator": "Gmina Pawonk\u00f3w",
                "operator:type": "government",
                "amenity": "school",
                "note": "Parent RSPO: 271563"
            }
        },
        {
            "id": 22978,
            "type": "Feature",
            "geometry": {
                "type": "Point",
                "coordinates": [
                    18.59778,
                    50.71577
                ]
            },
            "properties": {
                "ref:rspo": 22978,
                "official_name": "Przedszkole w \u0141agiewnikach Wielkich",
                "name": "Przedszkole w \u0141agiewnikach Wielkich",
                "addr:postcode": "42-772",
                "addr:city": "\u0141agiewniki Wielkie",
                "addr:street": "Lompy",
                "addr:housenumber": "20",
                "addr:teryt:simc": 142208,
                "addr:teryt:sym_ul": 11246,
                "phone": "+48 343534261",
                "email": "plw@pawonkow.pl",
                "ref:regon": "150527320",
                "ref:vatin": "PL5751638556",
                "operator": "Gmina Pawonk\u00f3w",
                "operator:type": "government",
                "amenity": "kindergarten",
                "note": "Parent RSPO: 271561"
            }
        },
        {
            "id": 23022,
            "type": "Feature",
            "geometry": {
                "type": "Point",
                "coordinates": [
                    18.53194,
                    50.72152
                ]
            },
            "properties": {
                "ref:rspo": 23022,
                "official_name": "Przedszkole w Gwo\u017adzianach",
                "name": "Przedszkole w Gwo\u017adzianach",
                "addr:postcode": "42-772",
                "addr:city": "Gwo\u017adziany",
                "addr:street": "Lubliniecka",
                "addr:housenumber": "7",
                "addr:teryt:simc": 142020,
                "addr:teryt:sym_ul": 11333,
                "phone": "+48 343534805",
                "email": "pg@pawonkow.pl",
                "ref:regon": "150527366",
                "ref:vatin": "PL5751638533",
                "operator": "Gmina Pawonk\u00f3w",
                "operator:type": "government",
                "amenity": "kindergarten",
                "note": "Parent RSPO: 271560"
            }
        },
        {
            "id": 271560,
            "type": "Feature",
            "geometry": {
                "type": "Point",
                "coordinates": [
                    18.53032,
                    50.72172
                ]
            },
            "properties": {
                "ref:rspo": 271560,
                "official_name": "Zesp\u00f3\u0142 Szkolno-Przedszkolny w Gwo\u017adzianach",
                "name": "Zesp\u00f3\u0142 Szkolno-Przedszkolny w Gwo\u017adzianach",
                "addr:postcode": "42-772",
                "addr:city": "Gwo\u017adziany",
                "addr:street": "Lubliniecka",
                "addr:housenumber": "5",
                "addr:teryt:simc": 142020,
                "addr:teryt:sym_ul": 11333,
                "phone": "+48 343534852",
                "email": "spg@pawonkow.pl",
                "ref:regon": "383411203",
                "ref:vatin": "PL5751899009",
                "operator": "Gmina Pawonk\u00f3w",
                "operator:type": "government",
                "landuse": "education",
                "fixme": "amenity=school, amenity=college albo landuse=education w zale\u017cno\u015bci od tego, jakie plac\u00f3wki wchodz\u0105 w sk\u0142ad zespo\u0142u. Sprawd\u017a, kiedy stosowa\u0107 amenity=* a kiedy landuse=education.",
                "note": "Children RSPO: 23022;23060"
            }
        },
        {
            "id": 23060,
            "type": "Feature",
            "geometry": {
                "type": "Point",
                "coordinates": [
                    18.53032,
                    50.721689999999995
                ]
            },
            "properties": {
                "isced:level": "1;2",
                "ref:rspo": 23060,
                "official_name": "Szko\u0142a Podstawowa w Gwo\u017adzianach",
                "name": "Szko\u0142a Podstawowa w Gwo\u017adzianach",
                "addr:postcode": "42-772",
                "addr:city": "Gwo\u017adziany",
                "addr:street": "Lubliniecka",
                "addr:housenumber": "5",
                "addr:teryt:simc": 142020,
                "addr:teryt:sym_ul": 11333,
                "phone": "+48 343534852",
                "email": "spg@pawonkow.pl",
                "ref:regon": "001204124",
                "ref:vatin": "PL5751638622",
                "operator": "Gmina Pawonk\u00f3w",
                "operator:type": "government",
                "amenity": "school",
                "note": "Parent RSPO: 271560"
            }
        }
    ]
}