{
    "type": "FeatureCollection",
    "features": [
        {
            "id": 57556,
            "type": "Feature",
            "geometry": {
                "type": "Point",
                "coordinates": [
                    18.0192799,
                    51.19252
                ]
            },
            "properties": {
                "ref:rspo": 57556,
                "official_name": "Zesp\u00f3\u0142 Szk\u00f3\u0142 w Laskach",
                "name": "Zesp\u00f3\u0142 Szk\u00f3\u0142 w Laskach",
                "addr:country": "PL",
                "addr:postcode": "63-620",
                "addr:city": "Laski",
                "addr:street": "Lipowa",
                "addr:housenumber": "34",
                "addr:teryt:simc": 11139,
                "addr:teryt:sym_ul": 210252,
                "contact:phone": "+48 627829904",
                "contact:email": "zslaski@op.pl",
                "ref:regon": "251472977",
                "ref:vatin": "PL6191903152",
                "operator": "Gmina Trzcinica",
                "operator:type": "government",
                "landuse": "education",
                "fixme": "amenity=school, amenity=college albo landuse=education w zale\u017cno\u015bci od tego, jakie plac\u00f3wki wchodz\u0105 w sk\u0142ad zespo\u0142u. Sprawd\u017a, kiedy stosowa\u0107 amenity=* a kiedy landuse=education.",
                "note": "Children RSPO: 77928;77929"
            }
        },
        {
            "id": 77928,
            "type": "Feature",
            "geometry": {
                "type": "Point",
                "coordinates": [
                    18.0192799,
                    51.19249
                ]
            },
            "properties": {
                "ref:rspo": 77928,
                "official_name": "Przedszkole Samorz\u0105dowe w Zespole Szk\u00f3\u0142",
                "name": "Przedszkole Samorz\u0105dowe w Zespole Szk\u00f3\u0142",
                "addr:country": "PL",
                "addr:postcode": "63-620",
                "addr:city": "Laski",
                "addr:street": "Lipowa",
                "addr:housenumber": "34",
                "addr:teryt:simc": 11139,
                "addr:teryt:sym_ul": 210252,
                "contact:phone": "+48 627829904",
                "contact:email": "zslaski@op.pl",
                "ref:regon": "251472960",
                "operator": "Gmina Trzcinica",
                "operator:type": "government",
                "amenity": "kindergarten",
                "note": "Parent RSPO: 57556"
            }
        },
        {
            "id": 77929,
            "type": "Feature",
            "geometry": {
                "type": "Point",
                "coordinates": [
                    18.0192799,
                    51.192460000000004
                ]
            },
            "properties": {
                "isced:level": "1;2",
                "ref:rspo": 77929,
                "official_name": "Szko\u0142a Podstawowa w Zespole Szk\u00f3\u0142",
                "name": "Szko\u0142a Podstawowa w Zespole Szk\u00f3\u0142",
                "addr:country": "PL",
                "addr:postcode": "63-620",
                "addr:city": "Laski",
                "addr:street": "Lipowa",
                "addr:housenumber": "34",
                "addr:teryt:simc": 11139,
                "addr:teryt:sym_ul": 210252,
                "contact:phone": "+48 627829904",
                "contact:email": "zslaski@op.pl",
                "ref:regon": "000631410",
                "operator": "Gmina Trzcinica",
                "operator:type": "government",
                "amenity": "school",
                "note": "Parent RSPO: 57556"
            }
        },
        {
            "id": 57554,
            "type": "Feature",
            "geometry": {
                "type": "Point",
                "coordinates": [
                    18.02044,
                    51.19337
                ]
            },
            "properties": {
                "ref:rspo": 57554,
                "official_name": "Zesp\u00f3\u0142 Szk\u00f3\u0142 w Trzcinicy",
                "name": "Zesp\u00f3\u0142 Szk\u00f3\u0142 w Trzcinicy",
                "addr:country": "PL",
                "addr:postcode": "63-620",
                "addr:city": "Trzcinica",
                "addr:street": "Szkolna",
                "addr:housenumber": "2",
                "addr:teryt:simc": 21970,
                "addr:teryt:sym_ul": 210401,
                "contact:phone": "+48 627815955",
                "contact:email": "sptrzcinica@wp.pl",
                "contact:website": "http:\/\/www.zs-trzcinica.pl",
                "ref:regon": "251594829",
                "ref:vatin": "PL6191903169",
                "operator": "Gmina Trzcinica",
                "operator:type": "government",
                "landuse": "education",
                "fixme": "amenity=school, amenity=college albo landuse=education w zale\u017cno\u015bci od tego, jakie plac\u00f3wki wchodz\u0105 w sk\u0142ad zespo\u0142u. Sprawd\u017a, kiedy stosowa\u0107 amenity=* a kiedy landuse=education.",
                "note": "Children RSPO: 77925;77926"
            }
        },
        {
            "id": 77925,
            "type": "Feature",
            "geometry": {
                "type": "Point",
                "coordinates": [
                    18.02044,
                    51.19334
                ]
            },
            "properties": {
                "isced:level": "1;2",
                "ref:rspo": 77925,
                "official_name": "Szko\u0142a Podstawowa w Trzcinicy",
                "name": "Szko\u0142a Podstawowa w Trzcinicy",
                "addr:country": "PL",
                "addr:postcode": "63-620",
                "addr:city": "Trzcinica",
                "addr:street": "Szkolna",
                "addr:housenumber": "2",
                "addr:teryt:simc": 21970,
                "addr:teryt:sym_ul": 210401,
                "contact:phone": "+48 627815955",
                "contact:email": "sptrzcinica@wp.pl",
                "contact:website": "http:\/\/www.zs-trzcinica.pl",
                "ref:regon": "001171407",
                "operator": "Gmina Trzcinica",
                "operator:type": "government",
                "amenity": "school",
                "note": "Parent RSPO: 57554"
            }
        },
        {
            "id": 77926,
            "type": "Feature",
            "geometry": {
                "type": "Point",
                "coordinates": [
                    18.02044,
                    51.193310000000004
                ]
            },
            "properties": {
                "ref:rspo": 77926,
                "official_name": "Publiczne Przedszkole Samorz\u0105dowe w Trzcinicy",
                "name": "Publiczne Przedszkole Samorz\u0105dowe w Trzcinicy",
                "addr:country": "PL",
                "addr:postcode": "63-620",
                "addr:city": "Trzcinica",
                "addr:street": "Szkolna",
                "addr:housenumber": "2b",
                "addr:teryt:simc": 21970,
                "addr:teryt:sym_ul": 210401,
                "contact:phone": "+48 627815955",
                "ref:regon": "250023237",
                "operator": "Gmina Trzcinica",
                "operator:type": "government",
                "amenity": "kindergarten",
                "note": "Parent RSPO: 57554"
            }
        }
    ]
}