{
    "type": "FeatureCollection",
    "features": [
        {
            "id": 35280,
            "type": "Feature",
            "geometry": {
                "type": "Point",
                "coordinates": [
                    17.98123,
                    51.2251
                ]
            },
            "properties": {
                "ref:rspo": 35280,
                "official_name": "Publiczne Przedszkole Samorz\u0105dowe w Mroczeniu",
                "name": "Publiczne Przedszkole Samorz\u0105dowe w Mroczeniu",
                "addr:postcode": "63-604",
                "addr:place": "Mrocze\u0144",
                "addr:housenumber": "195a",
                "addr:teryt:simc": 193619,
                "phone": "+48 627810434",
                "email": "szkolapodstawowawmroczeniu@onet.pl",
                "website": "https:\/\/spmroczen.szkolnastrona.pl",
                "ref:regon": "251577541",
                "operator": "Gmina Baran\u00f3w",
                "operator:type": "government",
                "amenity": "kindergarten",
                "note": "Parent RSPO: 275284"
            }
        },
        {
            "id": 275284,
            "type": "Feature",
            "geometry": {
                "type": "Point",
                "coordinates": [
                    17.9845623,
                    51.2255946
                ]
            },
            "properties": {
                "ref:rspo": 275284,
                "official_name": "Zesp\u00f3\u0142 Szk\u00f3\u0142 w Mroczeniu",
                "name": "Zesp\u00f3\u0142 Szk\u00f3\u0142 w Mroczeniu",
                "addr:postcode": "63-604",
                "addr:place": "Mrocze\u0144",
                "addr:housenumber": "140",
                "addr:teryt:simc": 193619,
                "phone": "+48 627410086",
                "email": "szkolapodstawowawmroczeniu@onet.pl",
                "website": "https:\/\/spmroczen.szkolnastrona.p",
                "ref:regon": "386788210",
                "ref:vatin": "PL6192052147",
                "operator": "Gmina Baran\u00f3w",
                "operator:type": "government",
                "landuse": "education",
                "fixme": "amenity=school, amenity=college albo landuse=education w zale\u017cno\u015bci od tego, jakie plac\u00f3wki wchodz\u0105 w sk\u0142ad zespo\u0142u. Sprawd\u017a, kiedy stosowa\u0107 amenity=* a kiedy landuse=education.",
                "note": "Children RSPO: 35280;263172"
            }
        },
        {
            "id": 263172,
            "type": "Feature",
            "geometry": {
                "type": "Point",
                "coordinates": [
                    17.9845623,
                    51.2255646
                ]
            },
            "properties": {
                "isced:level": "1;2",
                "ref:rspo": 263172,
                "official_name": "Szko\u0142a Podstawowa im.jana Paw\u0142a II w Mroczeniu",
                "name": "Szko\u0142a Podstawowa im.jana Paw\u0142a II w Mroczeniu",
                "addr:postcode": "63-604",
                "addr:place": "Mrocze\u0144",
                "addr:housenumber": "140",
                "addr:teryt:simc": 193619,
                "phone": "+48 627410086",
                "email": "szkolapodstawowawmroczeniu@onet.pl",
                "website": "https:\/\/spmroczen.szkolnastrona.pl",
                "ref:regon": "368114773",
                "ref:vatin": "PL6192036941",
                "operator": "Gmina Baran\u00f3w",
                "operator:type": "government",
                "amenity": "school",
                "note": "Parent RSPO: 275284"
            }
        },
        {
            "id": 24659,
            "type": "Feature",
            "geometry": {
                "type": "Point",
                "coordinates": [
                    17.949647,
                    51.2276809
                ]
            },
            "properties": {
                "ref:rspo": 24659,
                "official_name": "Zesp\u00f3\u0142 Szk\u00f3\u0142 w \u0141\u0119ce Mrocze\u0144skiej",
                "name": "Zesp\u00f3\u0142 Szk\u00f3\u0142 w \u0141\u0119ce Mrocze\u0144skiej",
                "addr:postcode": "63-611",
                "addr:place": "\u0141\u0119ka Mrocze\u0144ska",
                "addr:housenumber": "55a",
                "addr:teryt:simc": 193571,
                "phone": "+48 627410082",
                "email": "splekamrocz@interia.pl",
                "website": "http:\/\/www.splekamroczenska.szkolnastrona.pl",
                "ref:regon": "251577452",
                "ref:vatin": "PL6191917220",
                "operator": "Gmina Baran\u00f3w",
                "operator:type": "government",
                "landuse": "education",
                "fixme": "amenity=school, amenity=college albo landuse=education w zale\u017cno\u015bci od tego, jakie plac\u00f3wki wchodz\u0105 w sk\u0142ad zespo\u0142u. Sprawd\u017a, kiedy stosowa\u0107 amenity=* a kiedy landuse=education.",
                "note": "Children RSPO: 35134"
            }
        },
        {
            "id": 35134,
            "type": "Feature",
            "geometry": {
                "type": "Point",
                "coordinates": [
                    17.949647,
                    51.2276509
                ]
            },
            "properties": {
                "isced:level": "1;2",
                "ref:rspo": 35134,
                "official_name": "Szko\u0142a Podstawowa w \u0141\u0119ce Mrocze\u0144skiej",
                "name": "Szko\u0142a Podstawowa w \u0141\u0119ce Mrocze\u0144skiej",
                "addr:postcode": "63-611",
                "addr:place": "\u0141\u0119ka Mrocze\u0144ska",
                "addr:housenumber": "55a",
                "addr:teryt:simc": 193571,
                "phone": "+48 627810444",
                "email": "splekamrocz@interia.pl",
                "website": "http:\/\/www.splekamroczenska.szkolnastrona.pl",
                "ref:regon": "001163780",
                "operator": "Gmina Baran\u00f3w",
                "operator:type": "government",
                "amenity": "school",
                "note": "Parent RSPO: 24659"
            }
        },
        {
            "id": 24660,
            "type": "Feature",
            "geometry": {
                "type": "Point",
                "coordinates": [
                    18.04128,
                    51.23978
                ]
            },
            "properties": {
                "ref:rspo": 24660,
                "official_name": "Zesp\u00f3\u0142 Szk\u00f3\u0142 w S\u0142upi Pod K\u0119pnem",
                "name": "Zesp\u00f3\u0142 Szk\u00f3\u0142 w S\u0142upi Pod K\u0119pnem",
                "addr:postcode": "63-648",
                "addr:city": "S\u0142upia pod K\u0119pnem",
                "addr:street": "Szkolna",
                "addr:housenumber": "5",
                "addr:teryt:simc": 193690,
                "addr:teryt:sym_ul": 21970,
                "phone": "+48 627410084",
                "email": "zsslupia@baranow.pl",
                "website": "https:\/\/zsslupia.edupage.org\/",
                "ref:regon": "300241898",
                "ref:vatin": "PL6191956852",
                "operator": "Gmina Baran\u00f3w",
                "operator:type": "government",
                "landuse": "education",
                "fixme": "amenity=school, amenity=college albo landuse=education w zale\u017cno\u015bci od tego, jakie plac\u00f3wki wchodz\u0105 w sk\u0142ad zespo\u0142u. Sprawd\u017a, kiedy stosowa\u0107 amenity=* a kiedy landuse=education.",
                "note": "Children RSPO: 29837;29838"
            }
        },
        {
            "id": 29837,
            "type": "Feature",
            "geometry": {
                "type": "Point",
                "coordinates": [
                    18.04128,
                    51.23975
                ]
            },
            "properties": {
                "isced:level": "1;2",
                "ref:rspo": 29837,
                "official_name": "Szko\u0142a Podstawowa w S\u0142upi Pod K\u0119pnem",
                "name": "Szko\u0142a Podstawowa w S\u0142upi Pod K\u0119pnem",
                "addr:postcode": "63-648",
                "addr:city": "S\u0142upia pod K\u0119pnem",
                "addr:street": "Szkolna",
                "addr:housenumber": "5",
                "addr:teryt:simc": 193690,
                "addr:teryt:sym_ul": 21970,
                "phone": "+48 627810447",
                "email": "zsslupia@baranow.pl",
                "website": "https:\/\/zsslupia.edupage.org\/",
                "ref:regon": "001165750",
                "operator": "Gmina Baran\u00f3w",
                "operator:type": "government",
                "amenity": "school",
                "note": "Parent RSPO: 24660"
            }
        },
        {
            "id": 29838,
            "type": "Feature",
            "geometry": {
                "type": "Point",
                "coordinates": [
                    18.04128,
                    51.239720000000005
                ]
            },
            "properties": {
                "ref:rspo": 29838,
                "official_name": "Publiczne Przedszkole Samorz\u0105dowe w S\u0142upi Pod K\u0119pnem",
                "name": "Publiczne Przedszkole Samorz\u0105dowe w S\u0142upi Pod K\u0119pnem",
                "addr:postcode": "63-648",
                "addr:city": "S\u0142upia pod K\u0119pnem",
                "addr:street": "Szkolna",
                "addr:housenumber": "5",
                "addr:teryt:simc": 193690,
                "addr:teryt:sym_ul": 21970,
                "phone": "+48 627810447",
                "email": "zsslupia@baranow.pl",
                "website": "https:\/\/zsslupia.edupage.org\/",
                "ref:regon": "300092895",
                "operator": "Gmina Baran\u00f3w",
                "operator:type": "government",
                "amenity": "kindergarten",
                "note": "Parent RSPO: 24660"
            }
        },
        {
            "id": 15021,
            "type": "Feature",
            "geometry": {
                "type": "Point",
                "coordinates": [
                    18.03404,
                    51.24166
                ]
            },
            "properties": {
                "ref:rspo": 15021,
                "official_name": "Zesp\u00f3\u0142 Szk\u00f3\u0142 Specjalnych w S\u0142upi Pod K\u0119pnem",
                "name": "Zesp\u00f3\u0142 Szk\u00f3\u0142 Specjalnych w S\u0142upi Pod K\u0119pnem",
                "addr:postcode": "63-648",
                "addr:city": "S\u0142upia pod K\u0119pnem",
                "addr:street": "Katowicka",
                "addr:housenumber": "8",
                "addr:teryt:simc": 193690,
                "addr:teryt:sym_ul": 8206,
                "phone": "+48 627822287",
                "email": "sekretariat@zss-slupia.pl",
                "website": "http:\/\/www.zssslupia.pl",
                "ref:regon": "000817066",
                "ref:vatin": "PL6191847442",
                "operator": "Powiat K\u0119pi\u0144ski",
                "operator:type": "government",
                "landuse": "education",
                "fixme": "amenity=school, amenity=college albo landuse=education w zale\u017cno\u015bci od tego, jakie plac\u00f3wki wchodz\u0105 w sk\u0142ad zespo\u0142u. Sprawd\u017a, kiedy stosowa\u0107 amenity=* a kiedy landuse=education.",
                "note": "Children RSPO: 20421;20465"
            }
        },
        {
            "id": 20421,
            "type": "Feature",
            "geometry": {
                "type": "Point",
                "coordinates": [
                    18.03404,
                    51.24163
                ]
            },
            "properties": {
                "isced:level": "1;2",
                "ref:rspo": 20421,
                "official_name": "Szko\u0142a Podstawowa Specjalna w S\u0142upi Pod K\u0119pnem",
                "name": "Szko\u0142a Podstawowa Specjalna w S\u0142upi Pod K\u0119pnem",
                "addr:postcode": "63-648",
                "addr:city": "S\u0142upia pod K\u0119pnem",
                "addr:street": "Katowicka",
                "addr:housenumber": "8",
                "addr:teryt:simc": 193690,
                "addr:teryt:sym_ul": 8206,
                "phone": "+48 627822287",
                "email": "sekretariat@zss.kepno.pl",
                "website": "http:\/\/www.zss.kepno.pl",
                "ref:regon": "251240190",
                "ref:vatin": "PL6191847442",
                "operator": "Powiat K\u0119pi\u0144ski",
                "operator:type": "government",
                "amenity": "school",
                "note": "Parent RSPO: 15021"
            }
        },
        {
            "id": 20465,
            "type": "Feature",
            "geometry": {
                "type": "Point",
                "coordinates": [
                    18.03404,
                    51.241600000000005
                ]
            },
            "properties": {
                "ref:rspo": 20465,
                "official_name": "Szko\u0142a Specjalna Przysposabiaj\u0105ca Do Pracy w S\u0142upi Pod K\u0119pnem",
                "name": "Szko\u0142a Specjalna Przysposabiaj\u0105ca Do Pracy w S\u0142upi Pod K\u0119pnem",
                "addr:postcode": "63-648",
                "addr:city": "S\u0142upia pod K\u0119pnem",
                "addr:street": "Katowicka",
                "addr:housenumber": "8",
                "addr:teryt:simc": 193690,
                "addr:teryt:sym_ul": 8206,
                "phone": "+48 627822287",
                "email": "sekretariat@zss.kepno.pl",
                "website": "http:\/\/www.zss.kepno.pl",
                "ref:regon": "300364840",
                "ref:vatin": "PL6191847442",
                "operator": "Powiat K\u0119pi\u0144ski",
                "operator:type": "government",
                "amenity": "school",
                "note": "Parent RSPO: 15021"
            }
        },
        {
            "id": 24661,
            "type": "Feature",
            "geometry": {
                "type": "Point",
                "coordinates": [
                    18.00803,
                    51.26367
                ]
            },
            "properties": {
                "ref:rspo": 24661,
                "official_name": "Zesp\u00f3\u0142 Szk\u00f3\u0142 im. Powsta\u0144c\u00f3w Wielkopolskich w Baranowie",
                "name": "Zesp\u00f3\u0142 Szk\u00f3\u0142",
                "addr:postcode": "63-604",
                "addr:city": "Baran\u00f3w",
                "addr:street": "Orlika",
                "addr:housenumber": "2",
                "addr:teryt:simc": 193476,
                "addr:teryt:sym_ul": 15159,
                "phone": "+48 627410080",
                "email": "zsbaranow@baranow.pl",
                "website": "http:\/\/www.zs.baranow.pl",
                "ref:regon": "001163796",
                "ref:vatin": "PL6191903212",
                "operator": "Gmina Baran\u00f3w",
                "operator:type": "government",
                "landuse": "education",
                "fixme": "amenity=school, amenity=college albo landuse=education w zale\u017cno\u015bci od tego, jakie plac\u00f3wki wchodz\u0105 w sk\u0142ad zespo\u0142u. Sprawd\u017a, kiedy stosowa\u0107 amenity=* a kiedy landuse=education.",
                "note": "Children RSPO: 35132;35133"
            }
        },
        {
            "id": 35132,
            "type": "Feature",
            "geometry": {
                "type": "Point",
                "coordinates": [
                    18.00803,
                    51.263639999999995
                ]
            },
            "properties": {
                "isced:level": "1;2",
                "ref:rspo": 35132,
                "official_name": "Szko\u0142a Podstawowa w Baranowie",
                "name": "Szko\u0142a Podstawowa w Baranowie",
                "addr:postcode": "63-604",
                "addr:city": "Baran\u00f3w",
                "addr:street": "Orlika",
                "addr:housenumber": "2",
                "addr:teryt:simc": 193476,
                "addr:teryt:sym_ul": 15159,
                "phone": "+48 627410080",
                "email": "zsbaranow@baranow.pl",
                "ref:regon": "251433180",
                "operator": "Gmina Baran\u00f3w",
                "operator:type": "government",
                "amenity": "school",
                "note": "Parent RSPO: 24661"
            }
        },
        {
            "id": 35133,
            "type": "Feature",
            "geometry": {
                "type": "Point",
                "coordinates": [
                    18.00803,
                    51.26361
                ]
            },
            "properties": {
                "ref:rspo": 35133,
                "official_name": "Publiczne Przedszkole Samorz\u0105dowe w Baranowie",
                "name": "Publiczne Przedszkole Samorz\u0105dowe w Baranowie",
                "addr:postcode": "63-604",
                "addr:city": "Baran\u00f3w",
                "addr:street": "Orlika",
                "addr:housenumber": "2",
                "addr:teryt:simc": 193476,
                "addr:teryt:sym_ul": 15159,
                "phone": "+48 627410080",
                "email": "zsbaranow@baranow.pl",
                "ref:regon": "251593362",
                "operator": "Gmina Baran\u00f3w",
                "operator:type": "government",
                "amenity": "kindergarten",
                "note": "Parent RSPO: 24661"
            }
        },
        {
            "id": 24662,
            "type": "Feature",
            "geometry": {
                "type": "Point",
                "coordinates": [
                    18.0613118,
                    51.2706379
                ]
            },
            "properties": {
                "ref:rspo": 24662,
                "official_name": "Zesp\u00f3\u0142 Szk\u00f3\u0142 w Donaborowie",
                "name": "Zesp\u00f3\u0142 Szk\u00f3\u0142 w Donaborowie",
                "addr:postcode": "63-604",
                "addr:place": "Donabor\u00f3w",
                "addr:housenumber": "91",
                "addr:teryt:simc": 193507,
                "phone": "+48 627410081",
                "email": "zsdonaborow@baranow.pl",
                "website": "http:\/\/www.sp.donaborow.pl",
                "ref:regon": "251447695",
                "ref:vatin": "PL6191903241",
                "operator": "Gmina Baran\u00f3w",
                "operator:type": "government",
                "landuse": "education",
                "fixme": "amenity=school, amenity=college albo landuse=education w zale\u017cno\u015bci od tego, jakie plac\u00f3wki wchodz\u0105 w sk\u0142ad zespo\u0142u. Sprawd\u017a, kiedy stosowa\u0107 amenity=* a kiedy landuse=education.",
                "note": "Children RSPO: 35129;109396"
            }
        },
        {
            "id": 35129,
            "type": "Feature",
            "geometry": {
                "type": "Point",
                "coordinates": [
                    18.0613118,
                    51.270607899999995
                ]
            },
            "properties": {
                "isced:level": "1;2",
                "ref:rspo": 35129,
                "official_name": "Szko\u0142a Podstawowa w Donaborowie",
                "name": "Szko\u0142a Podstawowa w Donaborowie",
                "addr:postcode": "63-604",
                "addr:place": "Donabor\u00f3w",
                "addr:housenumber": "91",
                "addr:teryt:simc": 193507,
                "phone": "+48 627410081",
                "email": "zsdonaborow@baranow.pl",
                "website": "http:\/\/www.sp.donaborow.pl",
                "ref:regon": "001165766",
                "operator": "Gmina Baran\u00f3w",
                "operator:type": "government",
                "amenity": "school",
                "note": "Parent RSPO: 24662"
            }
        },
        {
            "id": 109396,
            "type": "Feature",
            "geometry": {
                "type": "Point",
                "coordinates": [
                    18.0613118,
                    51.2705779
                ]
            },
            "properties": {
                "ref:rspo": 109396,
                "official_name": "Publiczne Przedszkole Samorz\u0105dowe w Donaborowie",
                "name": "Publiczne Przedszkole Samorz\u0105dowe w Donaborowie",
                "addr:postcode": "63-604",
                "addr:place": "Donabor\u00f3w",
                "addr:housenumber": "91",
                "addr:teryt:simc": 193507,
                "phone": "+48 627810439",
                "email": "zsdonaborow@baranow.pl",
                "ref:regon": "251447672",
                "operator": "Gmina Baran\u00f3w",
                "operator:type": "government",
                "amenity": "kindergarten",
                "note": "Parent RSPO: 24662"
            }
        },
        {
            "id": 263130,
            "type": "Feature",
            "geometry": {
                "type": "Point",
                "coordinates": [
                    18.0084899,
                    51.28057
                ]
            },
            "properties": {
                "ref:rspo": 263130,
                "official_name": "Przedszkole Samorz\u0105dowe \"Barankowo\"",
                "name": "Przedszkole Samorz\u0105dowe \"Barankowo\"",
                "addr:postcode": "63-604",
                "addr:city": "Baran\u00f3w",
                "addr:street": "Jana Paw\u0142a II",
                "addr:housenumber": "2a",
                "addr:teryt:simc": 193476,
                "addr:teryt:sym_ul": 7123,
                "phone": "+48 627810418",
                "email": "sekretariat@barankowo.com.pl",
                "website": "http:\/\/www.barankowo.com.pl",
                "ref:regon": "368108100",
                "ref:vatin": "PL6192036935",
                "operator": "Gmina Baran\u00f3w",
                "operator:type": "government",
                "amenity": "kindergarten"
            }
        }
    ]
}