{
    "type": "FeatureCollection",
    "features": [
        {
            "id": 13599,
            "type": "Feature",
            "geometry": {
                "type": "Point",
                "coordinates": [
                    17.98537,
                    51.27545
                ]
            },
            "properties": {
                "isced:level": "3",
                "ref:rspo": 13599,
                "official_name": "Liceum Og\u00f3lnokszta\u0142c\u0105ce nr I im. Mjra Henryka Sucharskiego w K\u0119pnie",
                "name": "Liceum Og\u00f3lnokszta\u0142c\u0105ce nr I",
                "addr:postcode": "63-600",
                "addr:city": "K\u0119pno",
                "addr:street": "D\u0105browskiego",
                "addr:housenumber": "3",
                "addr:city:simc": 936871,
                "addr:street:sym_ul": 3667,
                "phone": "+48 627822294",
                "email": "stefanska@lokepno.com.pl",
                "website": "http:\/\/www.lokepno.com.pl",
                "ref:regon": "000229033",
                "ref:vatin": "PL6191546999",
                "operator": "Powiat K\u0119pi\u0144ski",
                "operator:type": "government",
                "amenity": "school"
            }
        },
        {
            "id": 13823,
            "type": "Feature",
            "geometry": {
                "type": "Point",
                "coordinates": [
                    17.9873,
                    51.2759
                ]
            },
            "properties": {
                "ref:rspo": 13823,
                "official_name": "Zesp\u00f3\u0142 Szk\u00f3\u0142 Ponadpodstawowych nr 1 w K\u0119pnie",
                "name": "Zesp\u00f3\u0142 Szk\u00f3\u0142 Ponadpodstawowych nr 1 w K\u0119pnie",
                "addr:postcode": "63-600",
                "addr:city": "K\u0119pno",
                "addr:street": "Henryka Sienkiewicza",
                "addr:housenumber": "25",
                "addr:city:simc": 936871,
                "addr:street:sym_ul": 19830,
                "phone": "+48 627829900",
                "email": "zsz1-kepno@oswiata.org.pl",
                "website": "http:\/\/www.zsp1kepno.cal.pl",
                "ref:regon": "000232294",
                "ref:vatin": "PL6191014133",
                "operator": "Powiat K\u0119pi\u0144ski",
                "operator:type": "government",
                "landuse": "education",
                "fixme": "amenity=school, amenity=college albo landuse=education w zale\u017cno\u015bci od tego, jakie plac\u00f3wki wchodz\u0105 w sk\u0142ad zespo\u0142u. Sprawd\u017a, kiedy stosowa\u0107 amenity=* a kiedy landuse=education.",
                "note": "Children RSPO: 21602;21653"
            }
        },
        {
            "id": 21602,
            "type": "Feature",
            "geometry": {
                "type": "Point",
                "coordinates": [
                    17.9873,
                    51.27587
                ]
            },
            "properties": {
                "isced:level": "3",
                "ref:rspo": 21602,
                "official_name": "Liceum Og\u00f3lnokszta\u0142c\u0105ce nr II w K\u0119pnie",
                "name": "Liceum Og\u00f3lnokszta\u0142c\u0105ce nr II w K\u0119pnie",
                "addr:postcode": "63-600",
                "addr:city": "K\u0119pno",
                "addr:street": "Henryka Sienkiewicza",
                "addr:housenumber": "25",
                "addr:city:simc": 936871,
                "addr:street:sym_ul": 19830,
                "phone": "+48 627829900",
                "email": "zsz1-kepno@oswiata.org.pl",
                "website": "http:\/\/www.zsp1kepno.cal.pl",
                "ref:regon": "251538340",
                "ref:vatin": "PL6191014133",
                "operator": "Powiat K\u0119pi\u0144ski",
                "operator:type": "government",
                "amenity": "school",
                "note": "Parent RSPO: 13823"
            }
        },
        {
            "id": 21653,
            "type": "Feature",
            "geometry": {
                "type": "Point",
                "coordinates": [
                    17.9873,
                    51.27584
                ]
            },
            "properties": {
                "isced:level": "3",
                "ref:rspo": 21653,
                "official_name": "Technikum nr 1 w K\u0119pnie",
                "name": "Technikum nr 1 w K\u0119pnie",
                "addr:postcode": "63-600",
                "addr:city": "K\u0119pno",
                "addr:street": "Henryka Sienkiewicza",
                "addr:housenumber": "25",
                "addr:city:simc": 936871,
                "addr:street:sym_ul": 19830,
                "phone": "+48 627829900",
                "email": "zsz1-kepno@oswiata.org.pl",
                "ref:regon": "251538305",
                "ref:vatin": "PL6191014133",
                "operator": "Powiat K\u0119pi\u0144ski",
                "operator:type": "government",
                "amenity": "school",
                "note": "Parent RSPO: 13823"
            }
        },
        {
            "id": 13355,
            "type": "Feature",
            "geometry": {
                "type": "Point",
                "coordinates": [
                    17.98659,
                    51.27592
                ]
            },
            "properties": {
                "ref:rspo": 13355,
                "official_name": "Poradnia Psychologiczno-Pedagogiczna w K\u0119pnie",
                "name": "Poradnia Psychologiczno-Pedagogiczna w K\u0119pnie",
                "addr:postcode": "63-600",
                "addr:city": "K\u0119pno",
                "addr:street": "Henryka Sienkiewicza",
                "addr:housenumber": "26",
                "addr:city:simc": 936871,
                "addr:street:sym_ul": 19830,
                "phone": "+48 627824811",
                "email": "pppkepno@op.pl",
                "website": "http:\/\/bipppp.powiatkepno.pl www.poradnia.kepno.pl",
                "ref:regon": "000693747",
                "ref:vatin": "PL6191851455",
                "operator": "Powiat K\u0119pi\u0144ski",
                "operator:type": "government",
                "healthcare": "counselling",
                "counselling_type": "education",
                "fixme": "w zale\u017cno\u015bci od przedmiotu dzia\u0142alno\u015bci (np. healthcare=counselling + counselling_type=education albo healthcare=psychotherapist)"
            }
        },
        {
            "id": 128824,
            "type": "Feature",
            "geometry": {
                "type": "Point",
                "coordinates": [
                    17.98659,
                    51.27589
                ]
            },
            "properties": {
                "ref:rspo": 128824,
                "official_name": "Publiczna Biblioteka Pedagogiczna Ksi\u0105\u017cnica Pedagogiczna im. A. Parczewskiego w Kaliszu Filia w K\u0119pnie",
                "name": "Publiczna Biblioteka Pedagogiczna Ksi\u0105\u017cnica Pedagogiczna",
                "addr:postcode": "63-600",
                "addr:city": "K\u0119pno",
                "addr:street": "Henryka Sienkiewicza",
                "addr:housenumber": "26",
                "addr:city:simc": 936871,
                "addr:street:sym_ul": 19830,
                "phone": "+48 627822728",
                "email": "kp.kepno@kp.kalisz.pl",
                "website": "http:\/\/www.kp.kalisz.pl",
                "ref:regon": "694215000",
                "operator": "Wojew\u00f3dztwo Wielkopolskie",
                "operator:type": "government",
                "amenity": "library",
                "note": "Parent RSPO: 30916"
            }
        },
        {
            "id": 22248,
            "type": "Feature",
            "geometry": {
                "type": "Point",
                "coordinates": [
                    17.98729,
                    51.27669
                ]
            },
            "properties": {
                "isced:level": "1;2",
                "ref:rspo": 22248,
                "official_name": "Szko\u0142a Podstawowa nr 1 im. Bohater\u00f3w Westerplatte w K\u0119pnie",
                "name": "Szko\u0142a Podstawowa nr 1",
                "addr:postcode": "63-600",
                "addr:city": "K\u0119pno",
                "addr:street": "Henryka Sienkiewicza",
                "addr:housenumber": "21",
                "addr:city:simc": 936871,
                "addr:street:sym_ul": 19830,
                "phone": "+48 627822045",
                "email": "sekretariat@sp1kepno.com.pl",
                "website": "http:\/\/www.sp1kepno.szkolna.net",
                "ref:regon": "000693718",
                "ref:vatin": "PL6191060191",
                "operator": "Gmina K\u0119pno",
                "operator:type": "government",
                "amenity": "school"
            }
        },
        {
            "id": 20588,
            "type": "Feature",
            "geometry": {
                "type": "Point",
                "coordinates": [
                    17.98694,
                    51.27745
                ]
            },
            "properties": {
                "ref:rspo": 20588,
                "official_name": "Nova Centrum Szko\u0142a J\u0119zyk\u00f3w Obcych",
                "name": "Nova Centrum Szko\u0142a J\u0119zyk\u00f3w Obcych",
                "addr:postcode": "63-600",
                "addr:city": "K\u0119pno",
                "addr:street": "Ksi\u0119dza Piotra Wawrzyniaka",
                "addr:housenumber": "13",
                "addr:city:simc": 936871,
                "addr:street:sym_ul": 23758,
                "phone": "+48 625830111",
                "email": "kepno@novacentrum.pl",
                "ref:regon": "302244079",
                "ref:vatin": "PL6221471379",
                "operator": "Andrzej Lamek",
                "operator:type": "private",
                "fixme": "w zale\u017cno\u015bci od przedmiotu dzia\u0142alno\u015bci (np. amenity=training + training=*, amenity=dancing_school, amenity=language_school, amenity=music_school)"
            }
        },
        {
            "id": 16922,
            "type": "Feature",
            "geometry": {
                "type": "Point",
                "coordinates": [
                    17.98215,
                    51.27898
                ]
            },
            "properties": {
                "ref:rspo": 16922,
                "official_name": "Przedszkole Samorz\u0105dowe nr 5 w K\u0119pnie",
                "name": "Przedszkole Samorz\u0105dowe nr 5 w K\u0119pnie",
                "addr:postcode": "63-600",
                "addr:city": "K\u0119pno",
                "addr:street": "Osiedle Osiedle 700-lecia",
                "addr:housenumber": "9",
                "addr:city:simc": 936871,
                "addr:street:sym_ul": 38576,
                "phone": "+48 627823043",
                "email": "przedszkole-5@o2.pl",
                "website": "http:\/\/www.przedszkolenr5.kepno.pl",
                "ref:regon": "251591274",
                "ref:vatin": "PL6191903330",
                "operator": "Gmina K\u0119pno",
                "operator:type": "government",
                "amenity": "kindergarten"
            }
        },
        {
            "id": 16912,
            "type": "Feature",
            "geometry": {
                "type": "Point",
                "coordinates": [
                    17.98215,
                    51.27899
                ]
            },
            "properties": {
                "ref:rspo": 16912,
                "official_name": "Przedszkole Samorz\u0105dowe nr 2 w K\u0119pnie",
                "name": "Przedszkole Samorz\u0105dowe nr 2 w K\u0119pnie",
                "addr:postcode": "63-600",
                "addr:city": "K\u0119pno",
                "addr:street": "Ksi\u0119dza Piotra Wawrzyniaka",
                "addr:housenumber": "40",
                "addr:city:simc": 936871,
                "addr:street:sym_ul": 23758,
                "phone": "+48 627822236",
                "email": "przedszkole.nr2.wkepnie@wp.pl",
                "website": "http:\/\/www.przedszkolenr2.kepno.pl",
                "ref:regon": "251591311",
                "ref:vatin": "PL6191903318",
                "operator": "Gmina K\u0119pno",
                "operator:type": "government",
                "amenity": "kindergarten"
            }
        },
        {
            "id": 15273,
            "type": "Feature",
            "geometry": {
                "type": "Point",
                "coordinates": [
                    17.9739154,
                    51.2797755
                ]
            },
            "properties": {
                "ref:rspo": 15273,
                "official_name": "O\u015brodek Szkolenia Kadr Mieczys\u0142aw Orszulak",
                "name": "O\u015brodek Szkolenia Kadr Mieczys\u0142aw Orszulak",
                "addr:postcode": "63-600",
                "addr:city": "K\u0119pno",
                "addr:street": "T\u0119czowa",
                "addr:housenumber": "9E",
                "addr:city:simc": 936871,
                "addr:street:sym_ul": 22777,
                "phone": "+48 627822429",
                "email": "osrodek5@o2.pl",
                "website": "http:\/\/www.osrodek.kepno.pl",
                "ref:regon": "302214285",
                "ref:vatin": "PL6191086173",
                "operator": "Mieczys\u0142aw Orszulak",
                "operator:type": "private",
                "fixme": "w zale\u017cno\u015bci od przedmiotu dzia\u0142alno\u015bci (np. amenity=training + training=*, amenity=dancing_school, amenity=language_school, amenity=music_school)"
            }
        },
        {
            "id": 25040,
            "type": "Feature",
            "geometry": {
                "type": "Point",
                "coordinates": [
                    17.98164,
                    51.2798
                ]
            },
            "properties": {
                "ref:rspo": 25040,
                "official_name": "Przedszkole z Oddzia\u0142ami Specjalnymi Prowadzone Przez Zgromadzenie Si\u00f3str Mi\u0142osierdzia \u015aw. Karola Boromeusza",
                "name": "Przedszkole z Oddzia\u0142ami Specjalnymi Prowadzone Przez Zgromadzenie Si\u00f3str Mi\u0142osierdzia \u015aw. Karola Boromeusza",
                "addr:postcode": "63-600",
                "addr:city": "K\u0119pno",
                "addr:street": "Tadeusza Ko\u015bciuszki",
                "addr:housenumber": "17",
                "addr:city:simc": 936871,
                "addr:street:sym_ul": 9572,
                "phone": "+48 627822638",
                "email": "boromeuszki@przedszkole.kepno.pl",
                "website": "http:\/\/przedszkole.kepno.pl",
                "ref:regon": "302239300",
                "ref:vatin": "PL6191576730",
                "operator": "Zgromadzenie Si\u00f3str Mi\u0142osierdzia \u015aw. Karola Boromeusza Dom Generalny",
                "operator:type": "religious",
                "amenity": "kindergarten"
            }
        },
        {
            "id": 30831,
            "type": "Feature",
            "geometry": {
                "type": "Point",
                "coordinates": [
                    17.98345,
                    51.28006
                ]
            },
            "properties": {
                "ref:rspo": 30831,
                "official_name": "Pa\u0144stwowa Szko\u0142a Muzyczna I St. im. Aleksandra Tansmana w K\u0119pnie",
                "name": "Pa\u0144stwowa Szko\u0142a Muzyczna I St.",
                "addr:postcode": "63-600",
                "addr:city": "K\u0119pno",
                "addr:street": "Stanis\u0142awa Staszica",
                "addr:housenumber": "10",
                "addr:city:simc": 936871,
                "addr:street:sym_ul": 21065,
                "phone": "+48 627823029",
                "email": "tansman@hot.pl",
                "ref:regon": "000807582",
                "operator": "Ministerstwo Kultury I Dziedzictwa Narodowego",
                "operator:type": "government",
                "amenity": "music_school"
            }
        },
        {
            "id": 15991,
            "type": "Feature",
            "geometry": {
                "type": "Point",
                "coordinates": [
                    17.98459,
                    51.28028
                ]
            },
            "properties": {
                "isced:level": "3",
                "ref:rspo": 15991,
                "official_name": "Liceum Og\u00f3lnokszta\u0142c\u0105ce dla Doros\u0142ych w K\u0119pnie",
                "name": "Liceum Og\u00f3lnokszta\u0142c\u0105ce dla Doros\u0142ych w K\u0119pnie",
                "addr:postcode": "63-600",
                "addr:city": "K\u0119pno",
                "addr:street": "Zamkowa",
                "addr:housenumber": "1",
                "addr:city:simc": 936871,
                "addr:street:sym_ul": 25547,
                "phone": "+48 627822887",
                "ref:regon": "302220104",
                "ref:vatin": "PL9291227485",
                "operator": "Pawe\u0142 Dzioba",
                "operator:type": "private",
                "amenity": "school"
            }
        },
        {
            "id": 196417,
            "type": "Feature",
            "geometry": {
                "type": "Point",
                "coordinates": [
                    17.98459,
                    51.280249999999995
                ]
            },
            "properties": {
                "isced:level": "1;2",
                "ref:rspo": 196417,
                "official_name": "Szko\u0142a Podstawowa nr 2 im. Krzysztofa Kamila Baczy\u0144skiego w K\u0119pnie",
                "name": "Szko\u0142a Podstawowa nr 2",
                "addr:postcode": "63-600",
                "addr:city": "K\u0119pno",
                "addr:street": "Zamkowa",
                "addr:housenumber": "1",
                "addr:city:simc": 936871,
                "addr:street:sym_ul": 25547,
                "phone": "+48 627822887",
                "email": "sp2kepno@gmail.com",
                "website": "http:\/\/sp2.kepno.pl",
                "ref:regon": "367993360",
                "ref:vatin": "PL6192036852",
                "operator": "Gmina K\u0119pno",
                "operator:type": "government",
                "amenity": "school"
            }
        },
        {
            "id": 275607,
            "type": "Feature",
            "geometry": {
                "type": "Point",
                "coordinates": [
                    17.98459,
                    51.28022
                ]
            },
            "properties": {
                "isced:level": "4",
                "ref:rspo": 275607,
                "official_name": "Policealna Szko\u0142a Medyczna Epsilon w K\u0119pnie",
                "name": "Policealna Szko\u0142a Medyczna Epsilon w K\u0119pnie",
                "addr:postcode": "63-600",
                "addr:city": "K\u0119pno",
                "addr:street": "Zamkowa",
                "addr:housenumber": "1",
                "addr:city:simc": 936871,
                "addr:street:sym_ul": 25547,
                "email": "kepno.epsilon@gmail.com",
                "ref:regon": "386927640",
                "operator": "Centrum Edukacji \"Epsilon\" Bogumi\u0142a Ska\u0142ecka",
                "operator:type": "consortium",
                "amenity": "college"
            }
        },
        {
            "id": 130234,
            "type": "Feature",
            "geometry": {
                "type": "Point",
                "coordinates": [
                    17.99693,
                    51.28378
                ]
            },
            "properties": {
                "ref:rspo": 130234,
                "official_name": "Centrum Kszta\u0142cenia I Doskonalenia Zawodowego \"Progres\" Zygmunt Nowacki",
                "name": "Centrum Kszta\u0142cenia I Doskonalenia Zawodowego \"Progres\" Zygmunt Nowacki",
                "addr:postcode": "63-600",
                "addr:city": "K\u0119pno",
                "addr:street": "Nowa",
                "addr:housenumber": "2a",
                "addr:city:simc": 936871,
                "addr:street:sym_ul": 14330,
                "phone": "+48 601153757",
                "ref:regon": "363680054",
                "operator": "Zygmunt Nowacki",
                "operator:type": "private",
                "fixme": "w zale\u017cno\u015bci od przedmiotu dzia\u0142alno\u015bci (np. amenity=training + training=*, amenity=dancing_school, amenity=language_school, amenity=music_school)"
            }
        },
        {
            "id": 29954,
            "type": "Feature",
            "geometry": {
                "type": "Point",
                "coordinates": [
                    17.9902799,
                    51.28465
                ]
            },
            "properties": {
                "isced:level": "1;2",
                "ref:rspo": 29954,
                "official_name": "Szko\u0142a Podstawowa nr 3 im. Przemys\u0142a II w K\u0119pnie",
                "name": "Szko\u0142a Podstawowa nr 3",
                "addr:postcode": "63-600",
                "addr:city": "K\u0119pno",
                "addr:street": "Tysi\u0105clecia",
                "addr:housenumber": "1",
                "addr:city:simc": 936871,
                "addr:street:sym_ul": 23270,
                "phone": "+48 627822889",
                "email": "sp3kepno@gmail.com",
                "website": "http:\/\/sp3kepno.edupage.org",
                "ref:regon": "000693730",
                "ref:vatin": "PL6191060274",
                "operator": "Gmina K\u0119pno",
                "operator:type": "government",
                "amenity": "school"
            }
        },
        {
            "id": 121599,
            "type": "Feature",
            "geometry": {
                "type": "Point",
                "coordinates": [
                    17.98984,
                    51.28647
                ]
            },
            "properties": {
                "ref:rspo": 121599,
                "official_name": "Agencja Kszta\u0142cenia Kadr",
                "name": "Agencja Kszta\u0142cenia Kadr",
                "addr:postcode": "63-600",
                "addr:city": "K\u0119pno",
                "addr:street": "Osi\u0144ska",
                "addr:housenumber": "21",
                "addr:city:simc": 936871,
                "addr:street:sym_ul": 15312,
                "phone": "+48 627822168",
                "email": "biuro@akk.biz.pl",
                "ref:regon": "302630569",
                "ref:vatin": "PL6190001080",
                "operator": "Andrzej Tymczewski",
                "operator:type": "private",
                "fixme": "w zale\u017cno\u015bci od przedmiotu dzia\u0142alno\u015bci (np. amenity=training + training=*, amenity=dancing_school, amenity=language_school, amenity=music_school)"
            }
        },
        {
            "id": 16913,
            "type": "Feature",
            "geometry": {
                "type": "Point",
                "coordinates": [
                    17.99514,
                    51.28702
                ]
            },
            "properties": {
                "ref:rspo": 16913,
                "official_name": "Przedszkole Samorz\u0105dowe nr 4 w K\u0119pnie",
                "name": "Przedszkole Samorz\u0105dowe nr 4 w K\u0119pnie",
                "addr:postcode": "63-600",
                "addr:city": "K\u0119pno",
                "addr:street": "Cicha",
                "addr:housenumber": "13",
                "addr:city:simc": 936871,
                "addr:street:sym_ul": 2974,
                "phone": "+48 627823167",
                "email": "przedszkole4@gmail.com",
                "website": "http:\/\/www.dzieciecakraina.kepno.pl",
                "ref:regon": "251591305",
                "ref:vatin": "PL6191903347",
                "operator": "Gmina K\u0119pno",
                "operator:type": "government",
                "amenity": "kindergarten"
            }
        },
        {
            "id": 14349,
            "type": "Feature",
            "geometry": {
                "type": "Point",
                "coordinates": [
                    17.99307,
                    51.29484
                ]
            },
            "properties": {
                "ref:rspo": 14349,
                "official_name": "O\u015brodek Psychoedukacji I Rozwoju Osobowo\u015bci",
                "name": "O\u015brodek Psychoedukacji I Rozwoju Osobowo\u015bci",
                "addr:postcode": "63-600",
                "addr:city": "K\u0119pno",
                "addr:street": "Zwyci\u0119stwa",
                "addr:housenumber": "2a",
                "addr:city:simc": 936871,
                "addr:street:sym_ul": 26326,
                "phone": "+48 627821371",
                "email": "psychoedukacja@vp.pl",
                "website": "http:\/\/www.psychoedukacja.org.pl",
                "ref:regon": "302212702",
                "ref:vatin": "PL6190013858",
                "operator": "Anna Borucka",
                "operator:type": "private",
                "fixme": "w zale\u017cno\u015bci od przedmiotu dzia\u0142alno\u015bci (np. amenity=training + training=*, amenity=dancing_school, amenity=language_school, amenity=music_school)"
            }
        },
        {
            "id": 19011,
            "type": "Feature",
            "geometry": {
                "type": "Point",
                "coordinates": [
                    18.0485222,
                    51.2957819
                ]
            },
            "properties": {
                "isced:level": "1;2",
                "ref:rspo": 19011,
                "official_name": "Szko\u0142a Podstawowa w Olszowej",
                "name": "Szko\u0142a Podstawowa w Olszowej",
                "addr:postcode": "63-600",
                "addr:city": "Olszowa",
                "addr:street": "Granitowa",
                "addr:housenumber": "114",
                "addr:city:simc": 199823,
                "addr:street:sym_ul": 6077,
                "phone": "+48 627822123",
                "email": "sp_olszowa@wp.pl",
                "website": "http:\/\/www.spolszowa.szkolnastrona.pl",
                "ref:regon": "001046725",
                "ref:vatin": "PL6191060179",
                "operator": "Gmina K\u0119pno",
                "operator:type": "government",
                "amenity": "school"
            }
        },
        {
            "id": 13895,
            "type": "Feature",
            "geometry": {
                "type": "Point",
                "coordinates": [
                    18.00713,
                    51.29782
                ]
            },
            "properties": {
                "ref:rspo": 13895,
                "official_name": "Zesp\u00f3\u0142 Szk\u00f3\u0142 Ponadpodstawowych nr 2 w K\u0119pnie",
                "name": "Zesp\u00f3\u0142 Szk\u00f3\u0142 Ponadpodstawowych nr 2 w K\u0119pnie",
                "addr:postcode": "63-600",
                "addr:city": "K\u0119pno",
                "addr:street": "Przemys\u0142owa",
                "addr:housenumber": "10c",
                "addr:city:simc": 936871,
                "addr:street:sym_ul": 17742,
                "phone": "+48 627822721",
                "email": "zspnr2kepno@interia.pl",
                "website": "http:\/\/zsp2.kepno.pl",
                "ref:regon": "250581687",
                "ref:vatin": "PL6191028046",
                "operator": "Powiat K\u0119pi\u0144ski",
                "operator:type": "government",
                "landuse": "education",
                "fixme": "amenity=school, amenity=college albo landuse=education w zale\u017cno\u015bci od tego, jakie plac\u00f3wki wchodz\u0105 w sk\u0142ad zespo\u0142u. Sprawd\u017a, kiedy stosowa\u0107 amenity=* a kiedy landuse=education.",
                "note": "Children RSPO: 21970;22103;24614;24615;30083"
            }
        },
        {
            "id": 21970,
            "type": "Feature",
            "geometry": {
                "type": "Point",
                "coordinates": [
                    18.00713,
                    51.29779
                ]
            },
            "properties": {
                "isced:level": "3",
                "ref:rspo": 21970,
                "official_name": "Technikum nr 2 w K\u0119pnie",
                "name": "Technikum nr 2 w K\u0119pnie",
                "addr:postcode": "63-600",
                "addr:city": "K\u0119pno",
                "addr:street": "Przemys\u0142owa",
                "addr:housenumber": "10c",
                "addr:city:simc": 936871,
                "addr:street:sym_ul": 17742,
                "phone": "+48 627822721",
                "email": "zspnr2kepno@interia.pl",
                "website": "http:\/\/www.zsp2.kepno.pl",
                "ref:regon": "251539210",
                "ref:vatin": "PL6191028046",
                "operator": "Powiat K\u0119pi\u0144ski",
                "operator:type": "government",
                "amenity": "school",
                "note": "Parent RSPO: 13895"
            }
        },
        {
            "id": 22103,
            "type": "Feature",
            "geometry": {
                "type": "Point",
                "coordinates": [
                    18.00713,
                    51.297760000000004
                ]
            },
            "properties": {
                "isced:level": "3",
                "ref:rspo": 22103,
                "official_name": "Liceum Og\u00f3lnokszta\u0142c\u0105ce dla Doros\u0142ych w K\u0119pnie",
                "name": "Liceum Og\u00f3lnokszta\u0142c\u0105ce dla Doros\u0142ych w K\u0119pnie",
                "addr:postcode": "63-600",
                "addr:city": "K\u0119pno",
                "addr:street": "Przemys\u0142owa",
                "addr:housenumber": "10c",
                "addr:city:simc": 936871,
                "addr:street:sym_ul": 17742,
                "phone": "+48 627822721",
                "email": "zspnr2kepno@interia.pl",
                "ref:regon": "302230019",
                "ref:vatin": "PL6191028046",
                "operator": "Powiat K\u0119pi\u0144ski",
                "operator:type": "government",
                "amenity": "school",
                "note": "Parent RSPO: 13895"
            }
        },
        {
            "id": 24614,
            "type": "Feature",
            "geometry": {
                "type": "Point",
                "coordinates": [
                    18.00713,
                    51.29773
                ]
            },
            "properties": {
                "isced:level": "4",
                "ref:rspo": 24614,
                "official_name": "Szko\u0142a Policealna nr 2 w K\u0119pnie",
                "name": "Szko\u0142a Policealna nr 2 w K\u0119pnie",
                "addr:postcode": "63-600",
                "addr:city": "K\u0119pno",
                "addr:street": "Przemys\u0142owa",
                "addr:housenumber": "10c",
                "addr:city:simc": 936871,
                "addr:street:sym_ul": 17742,
                "phone": "+48 627822721",
                "email": "zspnr2kepno@interia.pl",
                "website": "http:\/\/zsp2.kepno.pl",
                "ref:regon": "251589113",
                "ref:vatin": "PL6191028046",
                "operator": "Powiat K\u0119pi\u0144ski",
                "operator:type": "government",
                "amenity": "college",
                "note": "Parent RSPO: 13895"
            }
        },
        {
            "id": 24615,
            "type": "Feature",
            "geometry": {
                "type": "Point",
                "coordinates": [
                    18.00713,
                    51.2977
                ]
            },
            "properties": {
                "isced:level": "3",
                "ref:rspo": 24615,
                "official_name": "Bran\u017cowa Szko\u0142a I Stopnia w K\u0119pnie",
                "name": "Bran\u017cowa Szko\u0142a I Stopnia w K\u0119pnie",
                "addr:postcode": "63-600",
                "addr:city": "K\u0119pno",
                "addr:street": "Przemys\u0142owa",
                "addr:housenumber": "10c",
                "addr:city:simc": 936871,
                "addr:street:sym_ul": 17742,
                "phone": "+48 627822721",
                "email": "zspnr2kepno@interia.pl",
                "website": "http:\/\/zsp2.kepno.pl",
                "ref:regon": "251539227",
                "ref:vatin": "PL6191028046",
                "operator": "Powiat K\u0119pi\u0144ski",
                "operator:type": "government",
                "amenity": "school",
                "note": "Parent RSPO: 13895"
            }
        },
        {
            "id": 30083,
            "type": "Feature",
            "geometry": {
                "type": "Point",
                "coordinates": [
                    18.00713,
                    51.297670000000004
                ]
            },
            "properties": {
                "ref:rspo": 30083,
                "official_name": "Centrum Kszta\u0142cenia Ustawicznego w K\u0119pnie",
                "name": "Centrum Kszta\u0142cenia Ustawicznego w K\u0119pnie",
                "addr:postcode": "63-600",
                "addr:city": "K\u0119pno",
                "addr:street": "Przemys\u0142owa",
                "addr:housenumber": "10c",
                "addr:city:simc": 936871,
                "addr:street:sym_ul": 17742,
                "phone": "+48 627822721",
                "email": "zspnr2kepno@interia.pl",
                "website": "http:\/\/zsp2.kepno.pl",
                "ref:regon": "302241767",
                "ref:vatin": "PL6191028046",
                "operator": "Powiat K\u0119pi\u0144ski",
                "operator:type": "government",
                "fixme": "w zale\u017cno\u015bci od przedmiotu dzia\u0142alno\u015bci (np. amenity=training + training=*, amenity=dancing_school, amenity=language_school, amenity=music_school)",
                "note": "Parent RSPO: 13895"
            }
        },
        {
            "id": 31803,
            "type": "Feature",
            "geometry": {
                "type": "Point",
                "coordinates": [
                    18.0058249,
                    51.301144
                ]
            },
            "properties": {
                "isced:level": "1;2",
                "ref:rspo": 31803,
                "official_name": "Szko\u0142a Podstawowa im. Ks. Zdzis\u0142awa Peszkowskiego w Kr\u0105\u017ckowach",
                "name": "Szko\u0142a Podstawowa",
                "addr:postcode": "63-600",
                "addr:place": "Kr\u0105\u017ckowy",
                "addr:housenumber": "29",
                "addr:city:simc": 199705,
                "phone": "+48 627822682",
                "email": "spkrazkowy@poczta.onet.pl",
                "website": "http:\/\/spkrazkowy.cba.pl",
                "ref:regon": "001171531",
                "ref:vatin": "PL6191060268",
                "operator": "Gmina K\u0119pno",
                "operator:type": "government",
                "amenity": "school"
            }
        },
        {
            "id": 19930,
            "type": "Feature",
            "geometry": {
                "type": "Point",
                "coordinates": [
                    18.0835464,
                    51.3011821
                ]
            },
            "properties": {
                "isced:level": "1;2",
                "ref:rspo": 19930,
                "official_name": "Szko\u0142a Podstawowa im. Jana Brzechwy w \u015awibie",
                "name": "Szko\u0142a Podstawowa",
                "addr:postcode": "63-600",
                "addr:place": "\u015awiba",
                "addr:housenumber": "146",
                "addr:city:simc": 199935,
                "phone": "+48 627819223",
                "email": "spswiba@wp.pl",
                "website": "http:\/\/spswiba.pl",
                "ref:regon": "001046719",
                "ref:vatin": "PL6191060185",
                "operator": "Gmina K\u0119pno",
                "operator:type": "government",
                "amenity": "school"
            }
        },
        {
            "id": 19005,
            "type": "Feature",
            "geometry": {
                "type": "Point",
                "coordinates": [
                    17.985500335693,
                    51.311031341553
                ]
            },
            "properties": {
                "ref:rspo": 19005,
                "official_name": "Przedszkole Samorz\u0105dowe w Hanulinie",
                "name": "Przedszkole Samorz\u0105dowe w Hanulinie",
                "addr:postcode": "63-600",
                "addr:city": "Hanulin",
                "addr:street": "Powsta\u0144c\u00f3w Wielkopolskich",
                "addr:housenumber": "1a",
                "addr:city:simc": 199728,
                "addr:street:sym_ul": 17379,
                "phone": "+48 627822230",
                "email": "przedszkole.hanulin@gmail.com",
                "website": "http:\/\/www.przedszkolehanulin.kepno.pl",
                "ref:regon": "251591297",
                "ref:vatin": "PL6191903264",
                "operator": "Gmina K\u0119pno",
                "operator:type": "government",
                "amenity": "kindergarten"
            }
        },
        {
            "id": 25041,
            "type": "Feature",
            "geometry": {
                "type": "Point",
                "coordinates": [
                    17.985500335693,
                    51.311001341552995
                ]
            },
            "properties": {
                "isced:level": "1;2",
                "ref:rspo": 25041,
                "official_name": "Szko\u0142a Podstawowa im. Janusza Kusoci\u0144skiego w Hanulinie",
                "name": "Szko\u0142a Podstawowa",
                "addr:postcode": "63-600",
                "addr:city": "Hanulin",
                "addr:street": "Powsta\u0144c\u00f3w Wielkopolskich",
                "addr:housenumber": "1a",
                "addr:city:simc": 199728,
                "addr:street:sym_ul": 17379,
                "phone": "+48 627823538",
                "email": "sphanulin@op.pl",
                "website": "http:\/\/www.sphanulin.edu.pl",
                "ref:regon": "001046731",
                "ref:vatin": "PL6191060251",
                "operator": "Gmina K\u0119pno",
                "operator:type": "government",
                "amenity": "school"
            }
        },
        {
            "id": 21425,
            "type": "Feature",
            "geometry": {
                "type": "Point",
                "coordinates": [
                    18.0255849,
                    51.3250959
                ]
            },
            "properties": {
                "isced:level": "1;2",
                "ref:rspo": 21425,
                "official_name": "Szko\u0142a Podstawowa im. Powsta\u0144c\u00f3w Wielkopolskich w Myjomicach",
                "name": "Szko\u0142a Podstawowa",
                "addr:postcode": "63-600",
                "addr:place": "Myjomice",
                "addr:housenumber": "101",
                "addr:city:simc": 199800,
                "phone": "+48 627823679",
                "email": "spmyjomice@wp.pl",
                "website": "http:\/\/spmyjomice.edu.pl",
                "ref:regon": "000629488",
                "ref:vatin": "PL6191060222",
                "operator": "Gmina K\u0119pno",
                "operator:type": "government",
                "amenity": "school"
            }
        },
        {
            "id": 19010,
            "type": "Feature",
            "geometry": {
                "type": "Point",
                "coordinates": [
                    18.06563,
                    51.3290999
                ]
            },
            "properties": {
                "isced:level": "1;2",
                "ref:rspo": 19010,
                "official_name": "Szko\u0142a Podstawowa w Kierznie",
                "name": "Szko\u0142a Podstawowa w Kierznie",
                "addr:postcode": "63-600",
                "addr:place": "Kierzno",
                "addr:housenumber": "22",
                "addr:city:simc": 199668,
                "phone": "+48 627819189",
                "email": "spkierzno@poczta.onet.pl",
                "ref:regon": "001171703",
                "ref:vatin": "PL6191060162",
                "operator": "Gmina K\u0119pno",
                "operator:type": "government",
                "amenity": "school"
            }
        },
        {
            "id": 16924,
            "type": "Feature",
            "geometry": {
                "type": "Point",
                "coordinates": [
                    18.031005,
                    51.3630039
                ]
            },
            "properties": {
                "ref:rspo": 16924,
                "official_name": "Przedszkole Samorz\u0105dowe w Mikorzynie",
                "name": "Przedszkole Samorz\u0105dowe w Mikorzynie",
                "addr:postcode": "63-600",
                "addr:place": "Mikorzyn",
                "addr:housenumber": "50",
                "addr:city:simc": 199770,
                "phone": "+48 627818488",
                "email": "psmikorzyn50@wp.pl",
                "website": "http:\/\/www.przedszkolemikorzyn.pl",
                "ref:regon": "251591334",
                "ref:vatin": "PL6191903301",
                "operator": "Gmina K\u0119pno",
                "operator:type": "government",
                "amenity": "kindergarten"
            }
        },
        {
            "id": 21422,
            "type": "Feature",
            "geometry": {
                "type": "Point",
                "coordinates": [
                    18.02751,
                    51.36396
                ]
            },
            "properties": {
                "isced:level": "1;2",
                "ref:rspo": 21422,
                "official_name": "Szko\u0142a Podstawowa im. Jana Paw\u0142a II w Mikorzynie",
                "name": "Szko\u0142a Podstawowa",
                "addr:postcode": "63-600",
                "addr:place": "Mikorzyn",
                "addr:housenumber": "75a",
                "addr:city:simc": 199770,
                "phone": "+48 627911415",
                "email": "sekretariat@spmikorzyn.pl",
                "website": "http:\/\/www.spmikorzyn.pl",
                "ref:regon": "001046748",
                "ref:vatin": "PL6191060239",
                "operator": "Gmina K\u0119pno",
                "operator:type": "government",
                "amenity": "school"
            }
        }
    ]
}