{
    "type": "FeatureCollection",
    "features": [
        {
            "id": 43910,
            "type": "Feature",
            "geometry": {
                "type": "Point",
                "coordinates": [
                    18.38464,
                    51.58049
                ]
            },
            "properties": {
                "isced:level": "1;2",
                "ref:rspo": 43910,
                "official_name": "Szko\u0142a Podstawowa we W\u0142ocinie",
                "name": "Szko\u0142a Podstawowa we W\u0142ocinie",
                "addr:postcode": "98-235",
                "addr:place": "W\u0142ocin-Kolonia",
                "addr:housenumber": "36",
                "addr:city:simc": 698880,
                "phone": "+48 438291552",
                "email": "szkolawlocin@poczta.onet.pl",
                "ref:regon": "001161892",
                "ref:vatin": "PL8271931192",
                "operator": "Gmina B\u0142aszki",
                "operator:type": "government",
                "amenity": "school"
            }
        },
        {
            "id": 44165,
            "type": "Feature",
            "geometry": {
                "type": "Point",
                "coordinates": [
                    18.47504,
                    51.60096
                ]
            },
            "properties": {
                "ref:rspo": 44165,
                "official_name": "Przedszkole Samorz\u0105dowe w Gruszczycach",
                "name": "Przedszkole Samorz\u0105dowe w Gruszczycach",
                "addr:postcode": "98-235",
                "addr:place": "Gruszczyce",
                "addr:housenumber": "21",
                "addr:city:simc": 697900,
                "phone": "+48 438292692",
                "email": "psgruszczyce@op.pl",
                "website": "http:\/\/www.przedszkolegruszczyce.edupage.org",
                "ref:regon": "731008429",
                "ref:vatin": "PL8271931447",
                "operator": "Gmina B\u0142aszki",
                "operator:type": "government",
                "amenity": "kindergarten"
            }
        },
        {
            "id": 40733,
            "type": "Feature",
            "geometry": {
                "type": "Point",
                "coordinates": [
                    18.46844,
                    51.61002
                ]
            },
            "properties": {
                "isced:level": "1;2",
                "ref:rspo": 40733,
                "official_name": "Szko\u0142a Podstawowa im. \u015aw. Jana Paw\u0142a II w Gruszczycach",
                "name": "Szko\u0142a Podstawowa",
                "addr:postcode": "98-235",
                "addr:place": "Gruszczyce",
                "addr:housenumber": "45",
                "addr:city:simc": 697900,
                "phone": "+48 438292625",
                "email": "spgruszczyce@op.pl",
                "ref:regon": "001161952",
                "ref:vatin": "PL8271931358",
                "operator": "Gmina B\u0142aszki",
                "operator:type": "government",
                "amenity": "school"
            }
        },
        {
            "id": 44205,
            "type": "Feature",
            "geometry": {
                "type": "Point",
                "coordinates": [
                    18.43682,
                    51.65165
                ]
            },
            "properties": {
                "ref:rspo": 44205,
                "official_name": "Niepubliczne T\u0119czowe Przedszkole",
                "name": "Niepubliczne T\u0119czowe Przedszkole",
                "addr:postcode": "98-235",
                "addr:city": "B\u0142aszki",
                "addr:street": "Sieradzka",
                "addr:housenumber": "21",
                "addr:city:simc": 976267,
                "addr:street:sym_ul": 19844,
                "phone": "+48 609388701",
                "email": "monika.broniecka@gmail.com",
                "ref:regon": "101485516",
                "ref:vatin": "PL8271861669",
                "operator": "Monika Broniecka",
                "operator:type": "private",
                "amenity": "kindergarten"
            }
        },
        {
            "id": 277957,
            "type": "Feature",
            "geometry": {
                "type": "Point",
                "coordinates": [
                    18.42722,
                    51.65173
                ]
            },
            "properties": {
                "ref:rspo": 277957,
                "official_name": "Przedszkole Niepubliczne \"Kucykowe Przedszkole\" Marcelina Budziarska",
                "name": "Przedszkole Niepubliczne \"Kucykowe Przedszkole\" Marcelina Budziarska",
                "addr:postcode": "98-235",
                "addr:place": "Borys\u0142awice",
                "addr:housenumber": "76",
                "addr:city:simc": 697739,
                "email": "kucykoweprzedszkoleblaszki@gmail.com",
                "ref:regon": "389903806",
                "ref:vatin": "PL7321814218",
                "operator": "Marcelina Budziarska",
                "operator:type": "private",
                "amenity": "kindergarten"
            }
        },
        {
            "id": 44073,
            "type": "Feature",
            "geometry": {
                "type": "Point",
                "coordinates": [
                    18.4379,
                    51.65314
                ]
            },
            "properties": {
                "ref:rspo": 44073,
                "official_name": "Przedszkole Samorz\u0105dowe \"Ba\u015bniowa Kraina\" w B\u0142aszkach",
                "name": "Przedszkole Samorz\u0105dowe \"Ba\u015bniowa Kraina\" w B\u0142aszkach",
                "addr:postcode": "98-235",
                "addr:city": "B\u0142aszki",
                "addr:street": "Pomorska",
                "addr:housenumber": "1",
                "addr:city:simc": 976267,
                "addr:street:sym_ul": 17088,
                "phone": "+48 438292045",
                "email": "przedblaszki@o2.pl",
                "ref:regon": "731008441",
                "ref:vatin": "PL8271931476",
                "operator": "Gmina B\u0142aszki",
                "operator:type": "government",
                "amenity": "kindergarten"
            }
        },
        {
            "id": 81121,
            "type": "Feature",
            "geometry": {
                "type": "Point",
                "coordinates": [
                    18.43456,
                    51.65338
                ]
            },
            "properties": {
                "ref:rspo": 81121,
                "official_name": "Powiatowy Zesp\u00f3\u0142 Szk\u00f3\u0142 w B\u0142aszkach",
                "name": "Powiatowy Zesp\u00f3\u0142 Szk\u00f3\u0142 w B\u0142aszkach",
                "addr:postcode": "98-235",
                "addr:city": "B\u0142aszki",
                "addr:street": "Plac Sulwi\u0144skiego",
                "addr:housenumber": "31",
                "addr:city:simc": 976267,
                "addr:street:sym_ul": 21567,
                "phone": "+48 438292088",
                "email": "loblaszki@wp.pl",
                "website": "http:\/\/www.loblaszki.neostrada.pl",
                "ref:regon": "100538015",
                "operator": "Powiat Sieradzki",
                "operator:type": "government",
                "landuse": "education",
                "fixme": "amenity=school, amenity=college albo landuse=education w zale\u017cno\u015bci od tego, jakie plac\u00f3wki wchodz\u0105 w sk\u0142ad zespo\u0142u. Sprawd\u017a, kiedy stosowa\u0107 amenity=* a kiedy landuse=education.",
                "note": "Children RSPO: 89000;89006;89013"
            }
        },
        {
            "id": 89000,
            "type": "Feature",
            "geometry": {
                "type": "Point",
                "coordinates": [
                    18.43456,
                    51.653349999999996
                ]
            },
            "properties": {
                "isced:level": "3",
                "ref:rspo": 89000,
                "official_name": "Bran\u017cowa Szko\u0142a I Stopnia w B\u0142aszkach",
                "name": "Bran\u017cowa Szko\u0142a I Stopnia w B\u0142aszkach",
                "addr:postcode": "98-235",
                "addr:city": "B\u0142aszki",
                "addr:street": "Plac Sulwi\u0144skiego",
                "addr:housenumber": "31",
                "addr:city:simc": 976267,
                "addr:street:sym_ul": 21567,
                "phone": "+48 438292088",
                "email": "loblaszki@wp.pl",
                "website": "http:\/\/www.loblaszki.neostrada.pl",
                "ref:regon": "100537990",
                "operator": "Powiat Sieradzki",
                "operator:type": "government",
                "amenity": "school",
                "note": "Parent RSPO: 81121"
            }
        },
        {
            "id": 89006,
            "type": "Feature",
            "geometry": {
                "type": "Point",
                "coordinates": [
                    18.43456,
                    51.65332
                ]
            },
            "properties": {
                "isced:level": "3",
                "ref:rspo": 89006,
                "official_name": "Liceum Og\u00f3lnokszta\u0142c\u0105ce im. Wojska Polskiego w B\u0142aszkach",
                "name": "Liceum Og\u00f3lnokszta\u0142c\u0105ce",
                "addr:postcode": "98-235",
                "addr:city": "B\u0142aszki",
                "addr:street": "Plac Sulwi\u0144skiego",
                "addr:housenumber": "31",
                "addr:city:simc": 976267,
                "addr:street:sym_ul": 21567,
                "phone": "+48 438292088",
                "email": "loblaszki@wp.pl",
                "website": "http:\/\/www.loblaszki.neostrada.pl",
                "ref:regon": "000251618",
                "operator": "Powiat Sieradzki",
                "operator:type": "government",
                "amenity": "school",
                "note": "Parent RSPO: 81121"
            }
        },
        {
            "id": 89013,
            "type": "Feature",
            "geometry": {
                "type": "Point",
                "coordinates": [
                    18.43456,
                    51.65329
                ]
            },
            "properties": {
                "isced:level": "3",
                "ref:rspo": 89013,
                "official_name": "Technikum w B\u0142aszkach",
                "name": "Technikum w B\u0142aszkach",
                "addr:postcode": "98-235",
                "addr:city": "B\u0142aszki",
                "addr:street": "Plac Sulwi\u0144skiego",
                "addr:housenumber": "31",
                "addr:city:simc": 976267,
                "addr:street:sym_ul": 21567,
                "phone": "+48 438292088",
                "email": "loblaszki@wp.pl",
                "website": "http:\/\/www.loblaszki.neostrada.pl",
                "ref:regon": "100732266",
                "operator": "Powiat Sieradzki",
                "operator:type": "government",
                "amenity": "school",
                "note": "Parent RSPO: 81121"
            }
        },
        {
            "id": 40560,
            "type": "Feature",
            "geometry": {
                "type": "Point",
                "coordinates": [
                    18.43485,
                    51.65378
                ]
            },
            "properties": {
                "isced:level": "1;2",
                "ref:rspo": 40560,
                "official_name": "Szko\u0142a Podstawowa im. Stanis\u0142awa Staszica w B\u0142aszkach",
                "name": "Szko\u0142a Podstawowa",
                "addr:postcode": "98-235",
                "addr:city": "B\u0142aszki",
                "addr:street": "Szkolna",
                "addr:housenumber": "1",
                "addr:city:simc": 976267,
                "addr:street:sym_ul": 21970,
                "phone": "+48 438292225",
                "email": "sp_blaszki@op.pl",
                "website": "https:\/\/szkola.blaszki.pl",
                "ref:regon": "000252753",
                "ref:vatin": "PL8271931341",
                "operator": "Gmina B\u0142aszki",
                "operator:type": "government",
                "amenity": "school"
            }
        },
        {
            "id": 43786,
            "type": "Feature",
            "geometry": {
                "type": "Point",
                "coordinates": [
                    18.4964,
                    51.65562
                ]
            },
            "properties": {
                "isced:level": "1;2",
                "ref:rspo": 43786,
                "official_name": "Szko\u0142a Podstawowa w Kwaskowie",
                "name": "Szko\u0142a Podstawowa w Kwaskowie",
                "addr:postcode": "98-235",
                "addr:place": "Kwask\u00f3w",
                "addr:housenumber": "5",
                "addr:city:simc": 698242,
                "phone": "+48 438292054",
                "email": "sp_kwaskow@interia.pl",
                "website": "http:\/\/spkwaskow.szkolnastrona.pl",
                "ref:regon": "001161923",
                "ref:vatin": "PL8271931163",
                "operator": "Gmina B\u0142aszki",
                "operator:type": "government",
                "amenity": "school"
            }
        },
        {
            "id": 43735,
            "type": "Feature",
            "geometry": {
                "type": "Point",
                "coordinates": [
                    18.48529,
                    51.69065
                ]
            },
            "properties": {
                "isced:level": "1;2",
                "ref:rspo": 43735,
                "official_name": "Szko\u0142a Podstawowa im. Stanis\u0142awa Moniuszki w Kalinowej",
                "name": "Szko\u0142a Podstawowa",
                "addr:postcode": "98-235",
                "addr:place": "Kalinowa",
                "addr:housenumber": "86",
                "addr:city:simc": 698070,
                "phone": "+48 438293320",
                "email": "spkalinowa@wp.pl",
                "ref:regon": "001161930",
                "ref:vatin": "PL8271931364",
                "operator": "Gmina B\u0142aszki",
                "operator:type": "government",
                "amenity": "school"
            }
        },
        {
            "id": 43867,
            "type": "Feature",
            "geometry": {
                "type": "Point",
                "coordinates": [
                    18.43797,
                    51.71234
                ]
            },
            "properties": {
                "isced:level": "1;2",
                "ref:rspo": 43867,
                "official_name": "Szko\u0142a Podstawowa im. Marii Konopnickiej w S\u0119dzimirowicach",
                "name": "Szko\u0142a Podstawowa",
                "addr:postcode": "98-235",
                "addr:place": "S\u0119dzimirowice",
                "addr:housenumber": "10",
                "addr:city:simc": 698644,
                "phone": "+48 438293104",
                "email": "spsedzimirowice@op.pl",
                "ref:regon": "001161900",
                "ref:vatin": "PL8271931217",
                "operator": "Gmina B\u0142aszki",
                "operator:type": "government",
                "amenity": "school"
            }
        }
    ]
}