{
    "type": "FeatureCollection",
    "features": [
        {
            "id": 69428,
            "type": "Feature",
            "geometry": {
                "type": "Point",
                "coordinates": [
                    18.68812,
                    51.36941
                ]
            },
            "properties": {
                "isced:level": "1;2",
                "ref:rspo": 69428,
                "official_name": "Szko\u0142a Podstawowa Imienia Bohater\u00f3w Wrze\u015bnia 1939 Roku w Stolcu",
                "name": "Szko\u0142a Podstawowa Imienia Bohater\u00f3w Wrze\u015bnia 1939 Roku w Stolcu",
                "addr:postcode": "98-270",
                "addr:place": "Stolec",
                "addr:housenumber": "35",
                "addr:teryt:simc": 722680,
                "phone": "+48 438201325",
                "email": "stolecsp@interia.pl",
                "ref:regon": "001149490",
                "ref:vatin": "PL8271108050",
                "operator": "Gmina Z\u0142oczew",
                "operator:type": "government",
                "amenity": "school"
            }
        },
        {
            "id": 69552,
            "type": "Feature",
            "geometry": {
                "type": "Point",
                "coordinates": [
                    18.65139,
                    51.38976
                ]
            },
            "properties": {
                "isced:level": "1;2",
                "ref:rspo": 69552,
                "official_name": "Szko\u0142a Podstawowa w Broszkach",
                "name": "Szko\u0142a Podstawowa w Broszkach",
                "addr:postcode": "98-270",
                "addr:place": "Broszki",
                "addr:housenumber": "4",
                "addr:teryt:simc": 722236,
                "phone": "+48 438202243",
                "email": "sp.broszki@interia.pl",
                "website": "http:\/\/spbroszki.weebly.com",
                "ref:regon": "001149483",
                "ref:vatin": "PL8271108067",
                "operator": "Gmina Z\u0142oczew",
                "operator:type": "government",
                "amenity": "school"
            }
        },
        {
            "id": 70108,
            "type": "Feature",
            "geometry": {
                "type": "Point",
                "coordinates": [
                    18.54569,
                    51.40223
                ]
            },
            "properties": {
                "isced:level": "1;2",
                "ref:rspo": 70108,
                "official_name": "Szko\u0142a Podstawowa w Unikowie",
                "name": "Szko\u0142a Podstawowa w Unikowie",
                "addr:postcode": "98-270",
                "addr:place": "Unik\u00f3w",
                "addr:housenumber": "21",
                "addr:teryt:simc": 722756,
                "phone": "+48 438201270",
                "email": "unikowsp@poczta.onet.pl",
                "ref:regon": "001149477",
                "ref:vatin": "PL8271108044",
                "operator": "Gmina Z\u0142oczew",
                "operator:type": "government",
                "amenity": "school"
            }
        },
        {
            "id": 69914,
            "type": "Feature",
            "geometry": {
                "type": "Point",
                "coordinates": [
                    18.60474,
                    51.4165599
                ]
            },
            "properties": {
                "ref:rspo": 69914,
                "official_name": "Publiczne Przedszkole w Z\u0142oczewie",
                "name": "Publiczne Przedszkole w Z\u0142oczewie",
                "addr:postcode": "98-270",
                "addr:city": "Z\u0142oczew",
                "addr:street": "Jana Kili\u0144skiego",
                "addr:housenumber": "44",
                "addr:teryt:simc": 976830,
                "addr:teryt:sym_ul": 8435,
                "phone": "+48 438202239",
                "email": "przedszkole.zloczew@interia.pl",
                "ref:regon": "731626311",
                "ref:vatin": "PL8271921727",
                "operator": "Gmina Z\u0142oczew",
                "operator:type": "government",
                "amenity": "kindergarten",
                "note": "Parent RSPO: 275156"
            }
        },
        {
            "id": 54084,
            "type": "Feature",
            "geometry": {
                "type": "Point",
                "coordinates": [
                    18.60537,
                    51.41752
                ]
            },
            "properties": {
                "isced:level": "4",
                "ref:rspo": 54084,
                "official_name": "Szko\u0142a Policealna \"Lider\" w Z\u0142oczewie",
                "name": "Szko\u0142a Policealna \"Lider\" w Z\u0142oczewie",
                "addr:postcode": "98-270",
                "addr:city": "Z\u0142oczew",
                "addr:street": "Szeroka",
                "addr:housenumber": "1",
                "addr:door": "7",
                "addr:teryt:simc": 976830,
                "addr:teryt:sym_ul": 21925,
                "phone": "+48 438202212",
                "email": "lozloczew@tlen.pl",
                "website": "http:\/\/www.zspzloczew.weebly.com",
                "ref:regon": "101492031",
                "ref:vatin": "PL7881340170",
                "operator": "Ma\u0142gorzata Szl\u0105zak",
                "operator:type": "private",
                "amenity": "college"
            }
        },
        {
            "id": 58532,
            "type": "Feature",
            "geometry": {
                "type": "Point",
                "coordinates": [
                    18.60537,
                    51.41749
                ]
            },
            "properties": {
                "ref:rspo": 58532,
                "official_name": "Powiatowy Zesp\u00f3\u0142 Szk\u00f3\u0142 w Z\u0142oczewie",
                "name": "Powiatowy Zesp\u00f3\u0142 Szk\u00f3\u0142 w Z\u0142oczewie",
                "addr:postcode": "98-270",
                "addr:city": "Z\u0142oczew",
                "addr:street": "Szeroka",
                "addr:housenumber": "1",
                "addr:door": "7",
                "addr:teryt:simc": 976830,
                "addr:teryt:sym_ul": 21925,
                "phone": "+48 438202212",
                "email": "lozloczew@tlen.pl",
                "website": "http:\/\/zspzloczew.weebly.com",
                "ref:regon": "731583719",
                "operator": "Powiat Sieradzki",
                "operator:type": "government",
                "landuse": "education",
                "fixme": "amenity=school, amenity=college albo landuse=education w zale\u017cno\u015bci od tego, jakie plac\u00f3wki wchodz\u0105 w sk\u0142ad zespo\u0142u. Sprawd\u017a, kiedy stosowa\u0107 amenity=* a kiedy landuse=education.",
                "note": "Children RSPO: 89051;89055;89134"
            }
        },
        {
            "id": 89051,
            "type": "Feature",
            "geometry": {
                "type": "Point",
                "coordinates": [
                    18.60527,
                    51.41755
                ]
            },
            "properties": {
                "isced:level": "3",
                "ref:rspo": 89051,
                "official_name": "Liceum Og\u00f3lnokszta\u0142c\u0105ce im. Wojciecha Urba\u0144skiego w Z\u0142oczewie",
                "name": "Liceum Og\u00f3lnokszta\u0142c\u0105ce",
                "addr:postcode": "98-270",
                "addr:city": "Z\u0142oczew",
                "addr:street": "Szeroka",
                "addr:housenumber": "1\/7",
                "addr:teryt:simc": 976830,
                "addr:teryt:sym_ul": 21925,
                "phone": "+48 438202212",
                "email": "lozloczew@tlen.pl",
                "website": "http:\/\/zspzloczew.weebly.com",
                "ref:regon": "000205334",
                "operator": "Powiat Sieradzki",
                "operator:type": "government",
                "amenity": "school",
                "note": "Parent RSPO: 58532"
            }
        },
        {
            "id": 89055,
            "type": "Feature",
            "geometry": {
                "type": "Point",
                "coordinates": [
                    18.60527,
                    51.417519999999996
                ]
            },
            "properties": {
                "isced:level": "3",
                "ref:rspo": 89055,
                "official_name": "Technikum w Z\u0142oczewie",
                "name": "Technikum w Z\u0142oczewie",
                "addr:postcode": "98-270",
                "addr:city": "Z\u0142oczew",
                "addr:street": "Szeroka",
                "addr:housenumber": "1\/7",
                "addr:teryt:simc": 976830,
                "addr:teryt:sym_ul": 21925,
                "phone": "+48 438202212",
                "email": "lozloczew@tlen.pl",
                "website": "http:\/\/zspzloczew.weebly.com",
                "ref:regon": "100844692",
                "operator": "Powiat Sieradzki",
                "operator:type": "government",
                "amenity": "school",
                "note": "Parent RSPO: 58532"
            }
        },
        {
            "id": 89134,
            "type": "Feature",
            "geometry": {
                "type": "Point",
                "coordinates": [
                    18.60527,
                    51.41749
                ]
            },
            "properties": {
                "isced:level": "3",
                "ref:rspo": 89134,
                "official_name": "Bran\u017cowa Szko\u0142a I Stopnia w Z\u0142oczewie",
                "name": "Bran\u017cowa Szko\u0142a I Stopnia w Z\u0142oczewie",
                "addr:postcode": "98-270",
                "addr:city": "Z\u0142oczew",
                "addr:street": "Szeroka",
                "addr:housenumber": "1\/7",
                "addr:teryt:simc": 976830,
                "addr:teryt:sym_ul": 21925,
                "phone": "+48 438202212",
                "email": "lozloczew@tlen.pl",
                "website": "http:\/\/zspzloczew.weebly.com",
                "ref:regon": "731505642",
                "operator": "Powiat Sieradzki",
                "operator:type": "government",
                "amenity": "school",
                "note": "Parent RSPO: 58532"
            }
        },
        {
            "id": 132112,
            "type": "Feature",
            "geometry": {
                "type": "Point",
                "coordinates": [
                    18.61108,
                    51.41768
                ]
            },
            "properties": {
                "ref:rspo": 132112,
                "official_name": "Niepubliczny Punkt Przedszkolny U\u015bmiech Agnieszka J\u0119draszczyk",
                "name": "Niepubliczny Punkt Przedszkolny U\u015bmiech Agnieszka J\u0119draszczyk",
                "addr:postcode": "98-270",
                "addr:city": "Z\u0142oczew",
                "addr:street": "Burzeni\u0144ska",
                "addr:housenumber": "8",
                "addr:door": "10",
                "addr:teryt:simc": 976830,
                "addr:teryt:sym_ul": 2470,
                "phone": "+48 669767314",
                "email": "agnieszka.jedraszczyk@onet.pl",
                "ref:regon": "365464165",
                "operator": "Agnieszka J\u0119draszczyk",
                "operator:type": "private",
                "amenity": "kindergarten"
            }
        },
        {
            "id": 275156,
            "type": "Feature",
            "geometry": {
                "type": "Point",
                "coordinates": [
                    18.60956,
                    51.41778
                ]
            },
            "properties": {
                "ref:rspo": 275156,
                "official_name": "Zesp\u00f3\u0142 Szkolno - Przedszkolny w Z\u0142oczewie",
                "name": "Zesp\u00f3\u0142 Szkolno - Przedszkolny w Z\u0142oczewie",
                "addr:postcode": "98-270",
                "addr:city": "Z\u0142oczew",
                "addr:street": "Burzeni\u0144ska",
                "addr:housenumber": "4\/6",
                "addr:teryt:simc": 976830,
                "addr:teryt:sym_ul": 2470,
                "phone": "+48 438202330",
                "email": "zloczew.zsp@gmail.com",
                "website": "http:\/\/www.spzloczew.edupage.org",
                "ref:regon": "386643090",
                "ref:vatin": "PL8272324471",
                "operator": "Gmina Z\u0142oczew",
                "operator:type": "government",
                "landuse": "education",
                "fixme": "amenity=school, amenity=college albo landuse=education w zale\u017cno\u015bci od tego, jakie plac\u00f3wki wchodz\u0105 w sk\u0142ad zespo\u0142u. Sprawd\u017a, kiedy stosowa\u0107 amenity=* a kiedy landuse=education.",
                "note": "Children RSPO: 69914;70053"
            }
        },
        {
            "id": 70053,
            "type": "Feature",
            "geometry": {
                "type": "Point",
                "coordinates": [
                    18.60957,
                    51.41778
                ]
            },
            "properties": {
                "isced:level": "1;2",
                "ref:rspo": 70053,
                "official_name": "Szko\u0142a Podstawowa im. M. Kopernika w Z\u0142oczewie",
                "name": "Szko\u0142a Podstawowa",
                "addr:postcode": "98-270",
                "addr:city": "Z\u0142oczew",
                "addr:street": "Burzeni\u0144ska",
                "addr:housenumber": "4",
                "addr:door": "6",
                "addr:teryt:simc": 976830,
                "addr:teryt:sym_ul": 2470,
                "phone": "+48 438202330",
                "email": "sp.zloczew@autograf.pl",
                "website": "http:\/\/www.spzloczew.edupage.org",
                "ref:regon": "000264696",
                "ref:vatin": "PL8271108021",
                "operator": "Gmina Z\u0142oczew",
                "operator:type": "government",
                "amenity": "school",
                "note": "Parent RSPO: 275156"
            }
        }
    ]
}