{
    "type": "FeatureCollection",
    "features": [
        {
            "id": 62331,
            "type": "Feature",
            "geometry": {
                "type": "Point",
                "coordinates": [
                    18.46691,
                    51.75039
                ]
            },
            "properties": {
                "isced:level": "1;2",
                "ref:rspo": 62331,
                "official_name": "Szko\u0142a Podstawowa im. Kardyna\u0142a Stefana Wyszy\u0144skiego w Chlewie",
                "name": "Szko\u0142a Podstawowa",
                "addr:postcode": "98-215",
                "addr:place": "Chlewo",
                "addr:housenumber": "51A",
                "addr:city:simc": 703517,
                "phone": "+48 433330453",
                "email": "spigchlewo@wp.pl",
                "ref:regon": "001149945",
                "ref:vatin": "PL8272120834",
                "operator": "Gmina Goszczan\u00f3w",
                "operator:type": "government",
                "amenity": "school"
            }
        },
        {
            "id": 61918,
            "type": "Feature",
            "geometry": {
                "type": "Point",
                "coordinates": [
                    18.50139,
                    51.78816
                ]
            },
            "properties": {
                "isced:level": "1;2",
                "ref:rspo": 61918,
                "official_name": "Szko\u0142a Podstawowa im. \u015aw. Jana Paw\u0142a II w Goszczanowie",
                "name": "Szko\u0142a Podstawowa",
                "addr:postcode": "98-215",
                "addr:city": "Goszczan\u00f3w",
                "addr:street": "Kaliska",
                "addr:housenumber": "5",
                "addr:city:simc": 703575,
                "addr:street:sym_ul": 7823,
                "phone": "+48 438297004",
                "email": "spgoszczanow@wp.pl",
                "ref:regon": "000733760",
                "ref:vatin": "PL8271933647",
                "operator": "Gmina Goszczan\u00f3w",
                "operator:type": "government",
                "amenity": "school"
            }
        },
        {
            "id": 71141,
            "type": "Feature",
            "geometry": {
                "type": "Point",
                "coordinates": [
                    18.50139,
                    51.788129999999995
                ]
            },
            "properties": {
                "ref:rspo": 71141,
                "official_name": "Publiczne Przedszkole w Goszczanowie",
                "name": "Publiczne Przedszkole w Goszczanowie",
                "addr:postcode": "98-215",
                "addr:city": "Goszczan\u00f3w",
                "addr:street": "Kaliska",
                "addr:housenumber": "5",
                "addr:city:simc": 703575,
                "addr:street:sym_ul": 7823,
                "phone": "+48 502990621",
                "email": "przedszkolegoszczanow1@wp.pl",
                "website": "http:\/\/www.goszczanow.przedszkolna.net",
                "ref:regon": "731009080",
                "ref:vatin": "PL8271933624",
                "operator": "Gmina Goszczan\u00f3w",
                "operator:type": "government",
                "amenity": "kindergarten"
            }
        },
        {
            "id": 61932,
            "type": "Feature",
            "geometry": {
                "type": "Point",
                "coordinates": [
                    18.53504,
                    51.81535
                ]
            },
            "properties": {
                "isced:level": "1;2",
                "ref:rspo": 61932,
                "official_name": "Szko\u0142a Podstawowa w Kaszewie",
                "name": "Szko\u0142a Podstawowa w Kaszewie",
                "addr:postcode": "98-215",
                "addr:place": "Kaszew",
                "addr:housenumber": "29",
                "addr:city:simc": 703612,
                "phone": "+48 438297011",
                "email": "spkaszew@op.pl",
                "website": "http:\/\/spkaszew.szkolna.net",
                "ref:regon": "001149974",
                "ref:vatin": "PL8271933653",
                "operator": "Gmina Goszczan\u00f3w",
                "operator:type": "government",
                "amenity": "school"
            }
        },
        {
            "id": 62434,
            "type": "Feature",
            "geometry": {
                "type": "Point",
                "coordinates": [
                    18.5039409,
                    51.8295502
                ]
            },
            "properties": {
                "isced:level": "1;2",
                "ref:rspo": 62434,
                "official_name": "Szko\u0142a Podstawowa w Lipiczu",
                "name": "Szko\u0142a Podstawowa w Lipiczu",
                "addr:postcode": "98-215",
                "addr:place": "Lipicze",
                "addr:housenumber": "44",
                "addr:city:simc": 703658,
                "phone": "+48 438297008",
                "email": "sp1lipicze@op.pl",
                "website": "http:\/\/splipicze.szkolnastrona.pl",
                "ref:regon": "001149951",
                "ref:vatin": "PL8271933618",
                "operator": "Gmina Goszczan\u00f3w",
                "operator:type": "government",
                "amenity": "school"
            }
        }
    ]
}