{
    "type": "FeatureCollection",
    "features": [
        {
            "id": 13388,
            "type": "Feature",
            "geometry": {
                "type": "Point",
                "coordinates": [
                    18.71731,
                    51.52821
                ]
            },
            "properties": {
                "isced:level": "1;2",
                "ref:rspo": 13388,
                "official_name": "Szko\u0142a Podstawowa im. Teodora Go\u017adzikiewicza w D\u0105browie Wielkiej",
                "name": "Szko\u0142a Podstawowa",
                "addr:country": "PL",
                "addr:postcode": "98-200",
                "addr:place": "D\u0105browa Wielka",
                "addr:housenumber": "19",
                "addr:teryt:simc": 713438,
                "contact:phone": "+48 438222190",
                "contact:email": "spdabrowawielka@wp.pl",
                "contact:website": "http:\/\/www.spdabrowawielka.edupage.org",
                "ref:regon": "001161797",
                "ref:vatin": "PL8272305284",
                "operator": "Gmina Sieradz",
                "operator:type": "government",
                "amenity": "school"
            }
        },
        {
            "id": 24461,
            "type": "Feature",
            "geometry": {
                "type": "Point",
                "coordinates": [
                    18.80952,
                    51.53844
                ]
            },
            "properties": {
                "isced:level": "1;2",
                "ref:rspo": 24461,
                "official_name": "Szko\u0142a Podstawowa im. Tomasza Masteja w Chojnem",
                "name": "Szko\u0142a Podstawowa",
                "addr:country": "PL",
                "addr:postcode": "98-200",
                "addr:city": "Chojne",
                "addr:street": "G\u0142\u00f3wna",
                "addr:housenumber": "1",
                "addr:teryt:simc": 713361,
                "addr:teryt:sym_ul": 5635,
                "contact:phone": "+48 438222221",
                "contact:email": "spchojne@op.pl",
                "contact:website": "http:\/\/www.spchojne.edupage.org",
                "ref:regon": "001161780",
                "ref:vatin": "PL8272305255",
                "operator": "Gmina Sieradz",
                "operator:type": "government",
                "amenity": "school"
            }
        },
        {
            "id": 279124,
            "type": "Feature",
            "geometry": {
                "type": "Point",
                "coordinates": [
                    18.68493,
                    51.55645
                ]
            },
            "properties": {
                "ref:rspo": 279124,
                "official_name": "O\u015brodek Doskonalenia Zawodowego Szcze\u015bniak",
                "name": "O\u015brodek Doskonalenia Zawodowego Szcze\u015bniak",
                "addr:country": "PL",
                "addr:postcode": "98-200",
                "addr:place": "K\u0142ocko",
                "addr:housenumber": "175A",
                "addr:teryt:simc": 713734,
                "contact:email": "auto-margo@wp.pl",
                "ref:regon": "520720269",
                "operator": "Marek Szcze\u015bniak",
                "operator:type": "private",
                "fixme": "w zale\u017cno\u015bci od przedmiotu dzia\u0142alno\u015bci (np. amenity=training + training=*, amenity=dancing_school, amenity=language_school, amenity=music_school)"
            }
        },
        {
            "id": 10404,
            "type": "Feature",
            "geometry": {
                "type": "Point",
                "coordinates": [
                    18.600492477417,
                    51.585857391357
                ]
            },
            "properties": {
                "isced:level": "1;2",
                "ref:rspo": 10404,
                "official_name": "Szko\u0142a Podstawowa im. Bohater\u00f3w Walk Nad Wart\u0105 Wrze\u015bnia 1939 Roku w Rzechcie",
                "name": "Szko\u0142a Podstawowa",
                "addr:country": "PL",
                "addr:postcode": "98-200",
                "addr:place": "Rzechta",
                "addr:housenumber": "84",
                "addr:teryt:simc": 713935,
                "contact:phone": "+48 438271981",
                "contact:email": "sp_rzechta@op.pl",
                "contact:website": "http:\/\/www.rzechta.edu.pl",
                "ref:regon": "001161811",
                "ref:vatin": "PL8272305290",
                "operator": "Gmina Sieradz",
                "operator:type": "government",
                "amenity": "school"
            }
        },
        {
            "id": 25153,
            "type": "Feature",
            "geometry": {
                "type": "Point",
                "coordinates": [
                    18.600492477417,
                    51.585827391357
                ]
            },
            "properties": {
                "isced:level": "1;2",
                "ref:rspo": 25153,
                "official_name": "Szko\u0142a Podstawowa im. Marii Konopnickiej w K\u0142ocku",
                "name": "Szko\u0142a Podstawowa",
                "addr:country": "PL",
                "addr:postcode": "98-200",
                "addr:place": "K\u0142ocko",
                "addr:housenumber": "11",
                "addr:teryt:simc": 713734,
                "contact:phone": "+48 438224522",
                "contact:email": "spklocko@pro.onet.pl",
                "contact:website": "http:\/\/www.spklocko.edupage.org",
                "ref:regon": "001161805",
                "ref:vatin": "PL8272305278",
                "operator": "Gmina Sieradz",
                "operator:type": "government",
                "amenity": "school"
            }
        },
        {
            "id": 10403,
            "type": "Feature",
            "geometry": {
                "type": "Point",
                "coordinates": [
                    18.67583,
                    51.62239
                ]
            },
            "properties": {
                "isced:level": "1;2",
                "ref:rspo": 10403,
                "official_name": "Szko\u0142a Podstawowa im.wojciecha Janczaka w Char\u0142upi Ma\u0142ej",
                "name": "Szko\u0142a Podstawowa im.wojciecha Janczaka w Char\u0142upi Ma\u0142ej",
                "addr:country": "PL",
                "addr:postcode": "98-200",
                "addr:city": "Char\u0142upia Ma\u0142a",
                "addr:street": "Szkolna",
                "addr:housenumber": "15 A",
                "addr:teryt:simc": 713326,
                "addr:teryt:sym_ul": 21970,
                "contact:phone": "+48 438222525",
                "contact:email": "spchmala@wp.pl",
                "contact:website": "http:\/\/www.spchmala.pl",
                "ref:regon": "000271644",
                "ref:vatin": "PL8272305261",
                "operator": "Gmina Sieradz",
                "operator:type": "government",
                "amenity": "school"
            }
        }
    ]
}