{
    "type": "FeatureCollection",
    "features": [
        {
            "id": 66257,
            "type": "Feature",
            "geometry": {
                "type": "Point",
                "coordinates": [
                    18.50866,
                    51.46804
                ]
            },
            "properties": {
                "isced:level": "1;2",
                "ref:rspo": 66257,
                "official_name": "Szko\u0142a Podstawowa w Godynicach",
                "name": "Szko\u0142a Podstawowa w Godynicach",
                "addr:postcode": "98-277",
                "addr:place": "Godynice",
                "addr:housenumber": "17",
                "addr:city:simc": 699336,
                "phone": "+48 438211620",
                "email": "spgodynice@poczta.onet.pl",
                "ref:regon": "001149543",
                "ref:vatin": "PL8271107926",
                "operator": "Gmina Br\u0105szewice",
                "operator:type": "government",
                "amenity": "school"
            }
        },
        {
            "id": 66111,
            "type": "Feature",
            "geometry": {
                "type": "Point",
                "coordinates": [
                    18.45027,
                    51.49794
                ]
            },
            "properties": {
                "isced:level": "1;2",
                "ref:rspo": 66111,
                "official_name": "Szko\u0142a Podstawowa im. Jana Paw\u0142a II w Br\u0105szewicach",
                "name": "Szko\u0142a Podstawowa",
                "addr:postcode": "98-277",
                "addr:city": "Br\u0105szewice",
                "addr:street": "Sieradzka",
                "addr:housenumber": "90",
                "addr:city:simc": 699158,
                "addr:street:sym_ul": 19844,
                "phone": "+48 438211515",
                "email": "szkola.podstawowa.braszewice@interia.pl",
                "ref:regon": "000643784",
                "ref:vatin": "PL8271107932",
                "operator": "Gmina Br\u0105szewice",
                "operator:type": "government",
                "amenity": "school"
            }
        },
        {
            "id": 66524,
            "type": "Feature",
            "geometry": {
                "type": "Point",
                "coordinates": [
                    18.45638,
                    51.5096599
                ]
            },
            "properties": {
                "ref:rspo": 66524,
                "official_name": "Publiczne Przedszkole w Br\u0105szewicach",
                "name": "Publiczne Przedszkole w Br\u0105szewicach",
                "addr:postcode": "98-277",
                "addr:city": "Br\u0105szewice",
                "addr:street": "Starowiejska",
                "addr:housenumber": "3",
                "addr:city:simc": 699158,
                "addr:street:sym_ul": 20998,
                "phone": "+48 438211014",
                "email": "przedszkole.braszewice@wp.pl",
                "ref:regon": "731590027",
                "ref:vatin": "PL8272156737",
                "operator": "Gmina Br\u0105szewice",
                "operator:type": "government",
                "amenity": "kindergarten"
            }
        },
        {
            "id": 47124,
            "type": "Feature",
            "geometry": {
                "type": "Point",
                "coordinates": [
                    18.50077,
                    51.5161
                ]
            },
            "properties": {
                "ref:rspo": 47124,
                "official_name": "Punkt Przedszkolny Stowarzyszenia Przyjaci\u00f3\u0142 Szk\u00f3\u0142 Katolickich",
                "name": "Punkt Przedszkolny Stowarzyszenia Przyjaci\u00f3\u0142 Szk\u00f3\u0142 Katolickich",
                "addr:postcode": "98-277",
                "addr:place": "Chajew",
                "addr:housenumber": "44",
                "addr:city:simc": 699247,
                "phone": "+48 438211786",
                "email": "szkolachajew@wp.pl",
                "ref:regon": "101488408",
                "ref:vatin": "PL8272304014",
                "operator": "Stowarzyszenie Przyjaci\u00f3\u0142 Szk\u00f3\u0142 Katolickich",
                "operator:type": "ngo",
                "amenity": "kindergarten"
            }
        },
        {
            "id": 66521,
            "type": "Feature",
            "geometry": {
                "type": "Point",
                "coordinates": [
                    18.50077,
                    51.51607
                ]
            },
            "properties": {
                "isced:level": "1;2",
                "ref:rspo": 66521,
                "official_name": "Publiczna Szko\u0142a Podstawowa Stowarzyszenia Przyjaci\u00f3\u0142 Szk\u00f3\u0142 Katolickich im. \u015aw. Miko\u0142aja",
                "name": "Publiczna Szko\u0142a Podstawowa Stowarzyszenia Przyjaci\u00f3\u0142 Szk\u00f3\u0142 Katolickich",
                "addr:postcode": "98-277",
                "addr:place": "Chajew",
                "addr:housenumber": "44",
                "addr:city:simc": 699247,
                "phone": "+48 438211786",
                "email": "szkolachajew@wp.pl",
                "ref:regon": "101493993",
                "ref:vatin": "PL8272032202",
                "operator": "Stowarzyszenie Przyjaci\u00f3\u0142 Szk\u00f3\u0142 Katolickich",
                "operator:type": "ngo",
                "amenity": "school"
            }
        },
        {
            "id": 66360,
            "type": "Feature",
            "geometry": {
                "type": "Point",
                "coordinates": [
                    18.40199,
                    51.52494
                ]
            },
            "properties": {
                "isced:level": "1;2",
                "ref:rspo": 66360,
                "official_name": "Szko\u0142a Podstawowa w \u017burawiu",
                "name": "Szko\u0142a Podstawowa w \u017burawiu",
                "addr:postcode": "98-277",
                "addr:place": "\u017buraw",
                "addr:housenumber": "18",
                "addr:city:simc": 699715,
                "phone": "+48 438211734",
                "email": "zuraw18@wp.pl",
                "ref:regon": "001149572",
                "ref:vatin": "PL8271107955",
                "operator": "Gmina Br\u0105szewice",
                "operator:type": "government",
                "amenity": "school"
            }
        },
        {
            "id": 66520,
            "type": "Feature",
            "geometry": {
                "type": "Point",
                "coordinates": [
                    18.38859,
                    51.53853
                ]
            },
            "properties": {
                "ref:rspo": 66520,
                "official_name": "Punkt Przedszkolny Stowarzyszenia Przyjaci\u00f3\u0142 Szk\u00f3\u0142 Katolickich",
                "name": "Punkt Przedszkolny Stowarzyszenia Przyjaci\u00f3\u0142 Szk\u00f3\u0142 Katolickich",
                "addr:postcode": "98-277",
                "addr:place": "Pipie",
                "addr:housenumber": "2",
                "addr:city:simc": 699419,
                "phone": "+48 438211703",
                "email": "psptrzcinka@wp.pl",
                "ref:regon": "101493970",
                "ref:vatin": "PL8272303210",
                "operator": "Stowarzyszenie Przyjaci\u00f3\u0142 Szk\u00f3\u0142 Katolickich",
                "operator:type": "ngo",
                "amenity": "kindergarten"
            }
        },
        {
            "id": 66522,
            "type": "Feature",
            "geometry": {
                "type": "Point",
                "coordinates": [
                    18.38859,
                    51.5385
                ]
            },
            "properties": {
                "isced:level": "1;2",
                "ref:rspo": 66522,
                "official_name": "Publiczna Szko\u0142a Podstawowa Stowarzyszenia Przyjaci\u00f3\u0142 Szk\u00f3\u0142 Katolickich im. \u015aw. Bernadetty Soubirous w Trzcince",
                "name": "Publiczna Szko\u0142a Podstawowa Stowarzyszenia Przyjaci\u00f3\u0142 Szk\u00f3\u0142 Katolickich",
                "addr:postcode": "98-277",
                "addr:place": "Pipie",
                "addr:housenumber": "2",
                "addr:city:simc": 699419,
                "phone": "+48 438211703",
                "email": "psptrzcinka@wp.pl",
                "ref:regon": "101493941",
                "ref:vatin": "PL8272031042",
                "operator": "Stowarzyszenie Przyjaci\u00f3\u0142 Szk\u00f3\u0142 Katolickich",
                "operator:type": "ngo",
                "amenity": "school"
            }
        }
    ]
}