{
    "type": "FeatureCollection",
    "features": [
        {
            "id": 34392,
            "type": "Feature",
            "geometry": {
                "type": "Point",
                "coordinates": [
                    18.6255,
                    51.65777
                ]
            },
            "properties": {
                "isced:level": "1;2",
                "ref:rspo": 34392,
                "official_name": "Szko\u0142a Podstawowa im. Ks. Infu\u0142ata W\u0142adys\u0142awa Sarnika w Jakubicach",
                "name": "Szko\u0142a Podstawowa",
                "addr:postcode": "98-290",
                "addr:place": "Jakubice",
                "addr:housenumber": "15a",
                "addr:city:simc": 715319,
                "phone": "+48 438294338",
                "email": "szpjakubice@poczta.fm",
                "website": "http:\/\/szkolajakubice.szkolnastrona.pl",
                "ref:regon": "001161768",
                "ref:vatin": "PL8271360559",
                "operator": "Gmina Warta",
                "operator:type": "government",
                "amenity": "school"
            }
        },
        {
            "id": 34388,
            "type": "Feature",
            "geometry": {
                "type": "Point",
                "coordinates": [
                    18.55339,
                    51.68176
                ]
            },
            "properties": {
                "isced:level": "1;2",
                "ref:rspo": 34388,
                "official_name": "Szko\u0142a Podstawowa im. Janusza Korczaka w Raczkowie",
                "name": "Szko\u0142a Podstawowa",
                "addr:postcode": "98-290",
                "addr:place": "Raczk\u00f3w",
                "addr:housenumber": "23b",
                "addr:city:simc": 715710,
                "phone": "+48 438294155",
                "email": "spraczkow@spraczkow.szkolnastrona.pl",
                "website": "http:\/\/spraczkow.szkolnastrona.pl\/",
                "ref:regon": "001149448",
                "ref:vatin": "PL8271360890",
                "operator": "Gmina Warta",
                "operator:type": "government",
                "amenity": "school"
            }
        },
        {
            "id": 14104,
            "type": "Feature",
            "geometry": {
                "type": "Point",
                "coordinates": [
                    18.78304,
                    51.68704
                ]
            },
            "properties": {
                "isced:level": "1;2",
                "ref:rspo": 14104,
                "official_name": "Szko\u0142a Podstawowa Specjalna w Rafa\u0142\u00f3wce Przy O\u015brodku Rehabilitacyjno-Leczniczym w Rafa\u0142\u00f3wce Szpitala Wojew\u00f3dzkiego im. Prymasa Kardyna\u0142a Stefana Wyszy\u0144skiego",
                "name": "Szko\u0142a Podstawowa Specjalna w Rafa\u0142\u00f3wce Przy O\u015brodku Rehabilitacyjno-Leczniczym w Rafa\u0142\u00f3wce Szpitala Wojew\u00f3dzkiego",
                "addr:postcode": "98-290",
                "addr:place": "Rafa\u0142\u00f3wka",
                "addr:housenumber": "2",
                "addr:city:simc": 715621,
                "phone": "+48 438296820",
                "email": "rafalowka@poczta.fm",
                "website": "http:\/\/www.rafalowka.prv.pl",
                "ref:regon": "000206285",
                "ref:vatin": "PL8271887870",
                "operator": "Wojew\u00f3dztwo \u0141\u00f3dzkie",
                "operator:type": "government",
                "amenity": "school"
            }
        },
        {
            "id": 28630,
            "type": "Feature",
            "geometry": {
                "type": "Point",
                "coordinates": [
                    18.7914299,
                    51.70001
                ]
            },
            "properties": {
                "isced:level": "1;2",
                "ref:rspo": 28630,
                "official_name": "Szko\u0142a Podstawowa im. W\u0142adys\u0142awa \u0141okietka w Rossoszycy",
                "name": "Szko\u0142a Podstawowa",
                "addr:postcode": "98-290",
                "addr:city": "Rossoszyca",
                "addr:street": "Sieradzka",
                "addr:housenumber": "7",
                "addr:city:simc": 715785,
                "addr:street:sym_ul": 19844,
                "phone": "+48 438296828",
                "email": "szkolarossoszyca@op.pl",
                "website": "http:\/\/zsprossoszyca.pl",
                "ref:regon": "001161722",
                "ref:vatin": "PL8272163720",
                "operator": "Gmina Warta",
                "operator:type": "government",
                "amenity": "school"
            }
        },
        {
            "id": 34389,
            "type": "Feature",
            "geometry": {
                "type": "Point",
                "coordinates": [
                    18.67673,
                    51.70501
                ]
            },
            "properties": {
                "isced:level": "1;2",
                "ref:rspo": 34389,
                "official_name": "Szko\u0142a Podstawowa im. 28 Pu\u0142ku Strzelc\u00f3w Kaniowskich we W\u0142yniu",
                "name": "Szko\u0142a Podstawowa",
                "addr:postcode": "98-290",
                "addr:place": "W\u0142y\u0144",
                "addr:housenumber": "10",
                "addr:city:simc": 715390,
                "phone": "+48 438294195",
                "email": "szkola.wlyn@wp.pl",
                "website": "http:\/\/spwlyn.edupage.org",
                "ref:regon": "001161739",
                "ref:vatin": "PL8271360660",
                "operator": "Gmina Warta",
                "operator:type": "government",
                "amenity": "school"
            }
        },
        {
            "id": 28628,
            "type": "Feature",
            "geometry": {
                "type": "Point",
                "coordinates": [
                    18.61814,
                    51.7105
                ]
            },
            "properties": {
                "isced:level": "1;2",
                "ref:rspo": 28628,
                "official_name": "Szko\u0142a Podstawowa im. Kpt.pil.stanis\u0142awa Skar\u017cy\u0144skiego",
                "name": "Szko\u0142a Podstawowa",
                "addr:postcode": "98-290",
                "addr:city": "Warta",
                "addr:street": "Ko\u017ami\u0144ska",
                "addr:housenumber": "11",
                "addr:city:simc": 976557,
                "addr:street:sym_ul": 9760,
                "phone": "+48 438294125",
                "email": "sekretariat@sp-warta.pl",
                "website": "http:\/\/sp-warta.pl",
                "ref:regon": "000661380",
                "ref:vatin": "PL8271361151",
                "operator": "Gmina Warta",
                "operator:type": "government",
                "amenity": "school"
            }
        },
        {
            "id": 28629,
            "type": "Feature",
            "geometry": {
                "type": "Point",
                "coordinates": [
                    18.61814,
                    51.71047
                ]
            },
            "properties": {
                "ref:rspo": 28629,
                "official_name": "Publiczne Przedszkole w Warcie",
                "name": "Publiczne Przedszkole w Warcie",
                "addr:postcode": "98-290",
                "addr:city": "Warta",
                "addr:street": "Ko\u017ami\u0144ska",
                "addr:housenumber": "11",
                "addr:city:simc": 976557,
                "addr:street:sym_ul": 9760,
                "phone": "+48 438294101",
                "email": "sekretariat@przedszkolewarta.pl",
                "website": "http:\/\/www.przedszkolewarta.pl",
                "ref:regon": "731028202",
                "ref:vatin": "PL8272318358",
                "operator": "Gmina Warta",
                "operator:type": "government",
                "amenity": "kindergarten"
            }
        },
        {
            "id": 40548,
            "type": "Feature",
            "geometry": {
                "type": "Point",
                "coordinates": [
                    18.62432,
                    51.71457
                ]
            },
            "properties": {
                "ref:rspo": 40548,
                "official_name": "Powiatowy Zesp\u00f3\u0142 Szk\u00f3\u0142 w Warcie",
                "name": "Powiatowy Zesp\u00f3\u0142 Szk\u00f3\u0142 w Warcie",
                "addr:postcode": "98-290",
                "addr:city": "Warta",
                "addr:street": "3 Maja",
                "addr:housenumber": "29",
                "addr:city:simc": 976557,
                "addr:street:sym_ul": 11937,
                "phone": "+48 438294121",
                "email": "liceumwarta@home.pl",
                "website": "http:\/\/www.liceumwarta.home.pl",
                "ref:regon": "100554787",
                "operator": "Powiat Sieradzki",
                "operator:type": "government",
                "landuse": "education",
                "fixme": "amenity=school, amenity=college albo landuse=education w zale\u017cno\u015bci od tego, jakie plac\u00f3wki wchodz\u0105 w sk\u0142ad zespo\u0142u. Sprawd\u017a, kiedy stosowa\u0107 amenity=* a kiedy landuse=education.",
                "note": "Children RSPO: 89021;89034;265055"
            }
        },
        {
            "id": 81124,
            "type": "Feature",
            "geometry": {
                "type": "Point",
                "coordinates": [
                    18.62432,
                    51.71454
                ]
            },
            "properties": {
                "ref:rspo": 81124,
                "official_name": "Poradnia Psychologiczno-Pedagogiczna w Warcie",
                "name": "Poradnia Psychologiczno-Pedagogiczna w Warcie",
                "addr:postcode": "98-290",
                "addr:city": "Warta",
                "addr:street": "3 Maja",
                "addr:housenumber": "29",
                "addr:city:simc": 976557,
                "addr:street:sym_ul": 11937,
                "phone": "+48 438294734",
                "email": "poradniawarta@interia.pl",
                "ref:regon": "730161034",
                "operator": "Powiat Sieradzki",
                "operator:type": "government",
                "healthcare": "counselling",
                "counselling_type": "education",
                "fixme": "w zale\u017cno\u015bci od przedmiotu dzia\u0142alno\u015bci (np. healthcare=counselling + counselling_type=education albo healthcare=psychotherapist)"
            }
        },
        {
            "id": 81169,
            "type": "Feature",
            "geometry": {
                "type": "Point",
                "coordinates": [
                    18.62432,
                    51.714510000000004
                ]
            },
            "properties": {
                "ref:rspo": 81169,
                "official_name": "Zesp\u00f3\u0142 Szk\u00f3\u0142 Specjalnych w Warcie",
                "name": "Zesp\u00f3\u0142 Szk\u00f3\u0142 Specjalnych w Warcie",
                "addr:postcode": "98-290",
                "addr:city": "Warta",
                "addr:street": "3 Maja",
                "addr:housenumber": "29",
                "addr:city:simc": 976557,
                "addr:street:sym_ul": 11937,
                "phone": "+48 438294615",
                "email": "zsswarta29@wp.pl",
                "website": "http:\/\/www.zsswarta.pl",
                "ref:regon": "000733464",
                "operator": "Powiat Sieradzki",
                "operator:type": "government",
                "landuse": "education",
                "fixme": "amenity=school, amenity=college albo landuse=education w zale\u017cno\u015bci od tego, jakie plac\u00f3wki wchodz\u0105 w sk\u0142ad zespo\u0142u. Sprawd\u017a, kiedy stosowa\u0107 amenity=* a kiedy landuse=education.",
                "note": "Children RSPO: 89719;89733"
            }
        },
        {
            "id": 89021,
            "type": "Feature",
            "geometry": {
                "type": "Point",
                "coordinates": [
                    18.62432,
                    51.71448
                ]
            },
            "properties": {
                "isced:level": "3",
                "ref:rspo": 89021,
                "official_name": "Bran\u017cowa Szko\u0142a I Stopnia w Warcie",
                "name": "Bran\u017cowa Szko\u0142a I Stopnia w Warcie",
                "addr:postcode": "98-290",
                "addr:city": "Warta",
                "addr:street": "3 Maja",
                "addr:housenumber": "29",
                "addr:city:simc": 976557,
                "addr:street:sym_ul": 11937,
                "phone": "+48 438294121",
                "email": "liceumwarta@home.pl",
                "website": "http:\/\/www.liceumwarta.home.pl",
                "ref:regon": "100554758",
                "operator": "Powiat Sieradzki",
                "operator:type": "government",
                "amenity": "school",
                "note": "Parent RSPO: 40548"
            }
        },
        {
            "id": 89034,
            "type": "Feature",
            "geometry": {
                "type": "Point",
                "coordinates": [
                    18.62432,
                    51.71445
                ]
            },
            "properties": {
                "isced:level": "3",
                "ref:rspo": 89034,
                "official_name": "Liceum Og\u00f3lnokszta\u0142c\u0105ce w Warcie",
                "name": "Liceum Og\u00f3lnokszta\u0142c\u0105ce w Warcie",
                "addr:postcode": "98-290",
                "addr:city": "Warta",
                "addr:street": "3 Maja",
                "addr:housenumber": "29",
                "addr:city:simc": 976557,
                "addr:street:sym_ul": 11937,
                "phone": "+48 438294121",
                "email": "liceumwarta@home.pl",
                "website": "http:\/\/www.liceumwarta.home.pl",
                "ref:regon": "000733435",
                "operator": "Powiat Sieradzki",
                "operator:type": "government",
                "amenity": "school",
                "note": "Parent RSPO: 40548"
            }
        },
        {
            "id": 265055,
            "type": "Feature",
            "geometry": {
                "type": "Point",
                "coordinates": [
                    18.62432,
                    51.714420000000004
                ]
            },
            "properties": {
                "isced:level": "3",
                "ref:rspo": 265055,
                "official_name": "Technikum w Warcie",
                "name": "Technikum w Warcie",
                "addr:postcode": "98-290",
                "addr:city": "Warta",
                "addr:street": "3 Maja",
                "addr:housenumber": "29",
                "addr:city:simc": 976557,
                "addr:street:sym_ul": 11937,
                "phone": "+48 438294121",
                "email": "liceumwarta@home.pl",
                "website": "http:\/\/www.liceumwarta.home.pl",
                "ref:regon": "101056749",
                "operator": "Powiat Sieradzki",
                "operator:type": "government",
                "amenity": "school",
                "note": "Parent RSPO: 40548"
            }
        },
        {
            "id": 89719,
            "type": "Feature",
            "geometry": {
                "type": "Point",
                "coordinates": [
                    18.62432,
                    51.71439
                ]
            },
            "properties": {
                "isced:level": "1;2",
                "ref:rspo": 89719,
                "official_name": "Szko\u0142a Podstawowa nr 2 im. Marii Konopnickiej w Warcie",
                "name": "Szko\u0142a Podstawowa nr 2",
                "addr:postcode": "98-290",
                "addr:city": "Warta",
                "addr:street": "3 Maja",
                "addr:housenumber": "29",
                "addr:city:simc": 976557,
                "addr:street:sym_ul": 11937,
                "phone": "+48 438294615",
                "email": "zsswarta29@wp.pl",
                "website": "http:\/\/www.zsswarta.pl",
                "ref:regon": "100025882",
                "operator": "Powiat Sieradzki",
                "operator:type": "government",
                "amenity": "school",
                "note": "Parent RSPO: 81169"
            }
        },
        {
            "id": 89733,
            "type": "Feature",
            "geometry": {
                "type": "Point",
                "coordinates": [
                    18.62432,
                    51.71436
                ]
            },
            "properties": {
                "ref:rspo": 89733,
                "official_name": "Szko\u0142a Specjalna Przysposabiaj\u0105ca do Pracy w Warcie",
                "name": "Szko\u0142a Specjalna Przysposabiaj\u0105ca do Pracy w Warcie",
                "addr:postcode": "98-290",
                "addr:city": "Warta",
                "addr:street": "3 Maja",
                "addr:housenumber": "29",
                "addr:city:simc": 976557,
                "addr:street:sym_ul": 11937,
                "phone": "+48 438294615",
                "email": "zsswarta29@wp.pl",
                "website": "http:\/\/www.zsswarta.pl",
                "ref:regon": "100064913",
                "operator": "Powiat Sieradzki",
                "operator:type": "government",
                "amenity": "school",
                "note": "Parent RSPO: 81169"
            }
        },
        {
            "id": 34387,
            "type": "Feature",
            "geometry": {
                "type": "Point",
                "coordinates": [
                    18.5648,
                    51.73624
                ]
            },
            "properties": {
                "isced:level": "1;2",
                "ref:rspo": 34387,
                "official_name": "Szko\u0142a Podstawowa im.miko\u0142aja Kopernika w Cielcach",
                "name": "Szko\u0142a Podstawowa im.miko\u0142aja Kopernika w Cielcach",
                "addr:postcode": "98-290",
                "addr:place": "Cielce",
                "addr:housenumber": "16",
                "addr:city:simc": 715124,
                "phone": "+48 438294529",
                "email": "szkolacielce@interia.pl",
                "website": "http:\/\/szkolacielce.szkolnastrona.pl",
                "ref:regon": "001161745",
                "ref:vatin": "PL8271361056",
                "operator": "Gmina Warta",
                "operator:type": "government",
                "amenity": "school"
            }
        },
        {
            "id": 34390,
            "type": "Feature",
            "geometry": {
                "type": "Point",
                "coordinates": [
                    18.60047,
                    51.76596
                ]
            },
            "properties": {
                "isced:level": "1;2",
                "ref:rspo": 34390,
                "official_name": "Szko\u0142a Podstawowa im. Jana Paw\u0142a II w Ustkowie",
                "name": "Szko\u0142a Podstawowa",
                "addr:postcode": "98-290",
                "addr:place": "Ustk\u00f3w",
                "addr:housenumber": "26",
                "addr:city:simc": 715970,
                "phone": "+48 438294667",
                "email": "brodaca@poczta.onet.pl",
                "website": "http:\/\/spustkow.szkolnastrona.pl",
                "ref:regon": "001149425",
                "ref:vatin": "PL8271360720",
                "operator": "Gmina Warta",
                "operator:type": "government",
                "amenity": "school"
            }
        },
        {
            "id": 34391,
            "type": "Feature",
            "geometry": {
                "type": "Point",
                "coordinates": [
                    18.6476599,
                    51.79674
                ]
            },
            "properties": {
                "isced:level": "1;2",
                "ref:rspo": 34391,
                "official_name": "Szko\u0142a Podstawowa im. W\u0142adys\u0142awa Reymonta w Jeziorsku",
                "name": "Szko\u0142a Podstawowa",
                "addr:postcode": "98-290",
                "addr:place": "Jeziorsko",
                "addr:housenumber": "43",
                "addr:city:simc": 715331,
                "phone": "+48 438294629",
                "email": "spjeziorsko@gmail.com",
                "website": "http:\/\/spjeziorsko.szkolnastrona.pl",
                "ref:regon": "001161716",
                "ref:vatin": "PL8271361091",
                "operator": "Gmina Warta",
                "operator:type": "government",
                "amenity": "school"
            }
        }
    ]
}