{"type":"FeatureCollection","features":[{"id":63487,"type":"Feature","geometry":{"type":"Point","coordinates":[21.311934274786,53.857861360109]},"properties":{"ref:rspo":63487,"official_name":"Zesp\u00f3\u0142 O\u015bwiatowo-Sportowy \"Baza\" w Mr\u0105gowie","name":"Zesp\u00f3\u0142 O\u015bwiatowo-Sportowy \"Baza\" w Mr\u0105gowie","addr:country":"PL","addr:postcode":"11-700","addr:city":"Mr\u0105gowo","addr:street":"ul. Nadbrze\u017cna","addr:housenumber":"13","addr:teryt:simc":13861,"addr:teryt:sym_ul":964896,"contact:phone":"+48 897417776","contact:email":"baza.sekretariat@op.pl","contact:website":"http:\/\/www.zosbaza.mragowo.pl","ref:regon":"510904758","ref:vatin":"PL7421445789","operator":"Powiat Mr\u0105gowski","operator:type":"government","landuse":"education","fixme":"amenity=school, amenity=college albo landuse=education w zale\u017cno\u015bci od tego, jakie plac\u00f3wki wchodz\u0105 w sk\u0142ad zespo\u0142u. Sprawd\u017a, kiedy stosowa\u0107 amenity=* a kiedy landuse=education.","note":"Children RSPO: 81365;81366"}},{"id":81365,"type":"Feature","geometry":{"type":"Point","coordinates":[21.311934274786,53.857831360108996]},"properties":{"isced:level":"1;2","ref:rspo":81365,"official_name":"Szko\u0142a Podstawowa Nr 3 Mistrzostwa Sportowego w Zespole O\u015bwiatowo-Sportowym \"Baza\" w Mr\u0105gowie","name":"Szko\u0142a Podstawowa Nr 3 Mistrzostwa Sportowego w Zespole O\u015bwiatowo-Sportowym \"Baza\" w Mr\u0105gowie","addr:country":"PL","addr:postcode":"11-700","addr:city":"Mr\u0105gowo","addr:street":"ul. Nadbrze\u017cna","addr:housenumber":"13","addr:teryt:simc":13861,"addr:teryt:sym_ul":964896,"contact:phone":"+48 897417776","contact:email":"baza.sekretariat@op.pl","contact:website":"http:\/\/www.zosbaza.mragowo.pl","ref:regon":"519478085","operator":"Powiat Mr\u0105gowski","operator:type":"government","amenity":"school","note":"Parent RSPO: 63487"}},{"id":81366,"type":"Feature","geometry":{"type":"Point","coordinates":[21.311934274786,53.857801360109]},"properties":{"isced:level":"3","ref:rspo":81366,"official_name":"Ii Liceum Og\u00f3lnokszta\u0142c\u0105ce Mistrzostwa Sportowego w Mr\u0105gowie","name":"Ii Liceum Og\u00f3lnokszta\u0142c\u0105ce Mistrzostwa Sportowego w Mr\u0105gowie","addr:country":"PL","addr:postcode":"11-700","addr:city":"Mr\u0105gowo","addr:street":"ul. Nadbrze\u017cna","addr:housenumber":"13","addr:teryt:simc":13861,"addr:teryt:sym_ul":964896,"contact:phone":"+48 897417776","contact:email":"baza.sekretariat@op.pl","contact:website":"http:\/\/www.zosbaza.mragowo.pl","ref:regon":"519478116","operator":"Powiat Mr\u0105gowski","operator:type":"government","amenity":"school","note":"Parent RSPO: 63487"}},{"id":268690,"type":"Feature","geometry":{"type":"Point","coordinates":[21.3093499,53.86095]},"properties":{"ref:rspo":268690,"official_name":"Przedszkole Niepubliczne \"Nasze Pociechy\" Jakub Paradowski","name":"Przedszkole Niepubliczne \"Nasze Pociechy\" Jakub Paradowski","addr:country":"PL","addr:postcode":"11-700","addr:city":"Mr\u0105gowo","addr:street":"os. Osiedle Grunwaldzkie","addr:housenumber":"18","addr:teryt:simc":49677,"addr:teryt:sym_ul":964896,"contact:phone":"+48 893335017","contact:email":"naszepociechy001@gmail.com","ref:regon":"381237876","ref:vatin":"PL8992825959","operator":"Jakub Paradowski","operator:type":"private","amenity":"kindergarten"}},{"id":56027,"type":"Feature","geometry":{"type":"Point","coordinates":[21.30732,53.86276]},"properties":{"ref:rspo":56027,"official_name":"M\u0142odzie\u017cowy Dom Kultury w Mr\u0105gowie","name":"M\u0142odzie\u017cowy Dom Kultury w Mr\u0105gowie","addr:country":"PL","addr:postcode":"11-700","addr:city":"Mr\u0105gowo","addr:street":"ul. Miko\u0142aja Kopernika","addr:housenumber":"2C","addr:teryt:simc":9282,"addr:teryt:sym_ul":964896,"contact:phone":"+48 897412532","contact:email":"mdkmragowo@op.pl","ref:regon":"000895310","ref:vatin":"PL7421776428","operator":"Gmina Miasto Mr\u0105gowo","operator:type":"government","amenity":"community_centre","community_centre:for":"juvenile"}},{"id":56024,"type":"Feature","geometry":{"type":"Point","coordinates":[21.3070185,53.8632151]},"properties":{"ref:rspo":56024,"official_name":"Przedszkole Publiczne Nr 2 \"Bajka\" Z Oddzia\u0142em Integracyjnym w Mr\u0105gowie","name":"Przedszkole Publiczne Nr 2 \"Bajka\" Z Oddzia\u0142em Integracyjnym w Mr\u0105gowie","addr:country":"PL","addr:postcode":"11-700","addr:city":"Mr\u0105gowo","addr:street":"ul. Miko\u0142aja Kopernika","addr:housenumber":"2","addr:teryt:simc":9282,"addr:teryt:sym_ul":964896,"contact:phone":"+48 897412613","contact:email":"przedszkolebajka@op.pl","ref:regon":"510919524","ref:vatin":"PL7421891371","operator":"Gmina Miasto Mr\u0105gowo","operator:type":"government","amenity":"kindergarten"}},{"id":74738,"type":"Feature","geometry":{"type":"Point","coordinates":[21.3070185,53.863185099999995]},"properties":{"isced:level":"1;2","ref:rspo":74738,"official_name":"Szko\u0142a Podstawowa Nr 1 im. Miko\u0142aja Kopernika w Mr\u0105gowie","name":"Szko\u0142a Podstawowa Nr 1","addr:country":"PL","addr:postcode":"11-700","addr:city":"Mr\u0105gowo","addr:street":"ul. Miko\u0142aja Kopernika","addr:housenumber":"2","addr:teryt:simc":9282,"addr:teryt:sym_ul":964896,"contact:phone":"+48 897425131","contact:email":"sekretariat@sp1mragowo.pl","contact:website":"http:\/\/www.sp1mragowo.edupage.org","ref:regon":"000707640","ref:vatin":"PL7422029797","operator":"Gmina Miasto Mr\u0105gowo","operator:type":"government","amenity":"school"}},{"id":263220,"type":"Feature","geometry":{"type":"Point","coordinates":[21.30412,53.86354]},"properties":{"ref:rspo":263220,"official_name":"Niepubliczne Przedszkole \"Kolorowe Kredki\"","name":"Niepubliczne Przedszkole \"Kolorowe Kredki\"","addr:country":"PL","addr:postcode":"11-700","addr:city":"Mr\u0105gowo","addr:street":"ul. Wojska Polskiego","addr:housenumber":"4B","addr:teryt:simc":24628,"addr:teryt:sym_ul":964896,"contact:phone":"+48 506867404","contact:email":"krzysztofmk@vp.pl","ref:regon":"368127190","ref:vatin":"PL7421783612","operator":"Krzysztof Kisiel","operator:type":"private","amenity":"kindergarten"}},{"id":63492,"type":"Feature","geometry":{"type":"Point","coordinates":[21.30583,53.86474]},"properties":{"ref:rspo":63492,"official_name":"Poradnia Psychologiczno-Pedagogiczna w Mr\u0105gowie","name":"Poradnia Psychologiczno-Pedagogiczna w Mr\u0105gowie","addr:country":"PL","addr:postcode":"11-700","addr:city":"Mr\u0105gowo","addr:street":"ul. Warszawska","addr:housenumber":"53","addr:teryt:simc":23682,"addr:teryt:sym_ul":964896,"contact:phone":"+48 897412963","contact:email":"mporadnia@op.pl","contact:website":"http:\/\/www.poradnia-mragowo.pl","ref:regon":"000707662","ref:vatin":"PL7422212001","operator":"Powiat Mr\u0105gowski","operator:type":"government","healthcare":"councelling","counselling_type":"education","fixme":"w zale\u017cno\u015bci od przedmiotu dzia\u0142alno\u015bci (np. healthcare=councelling + counselling_type=education albo healthcare=psychotherapist)"}},{"id":124463,"type":"Feature","geometry":{"type":"Point","coordinates":[21.30587,53.86497]},"properties":{"ref:rspo":124463,"official_name":"Powiatowa Biblioteka Pedagogiczna w Zespole Szk\u00f3\u0142 Nr 2 w Mr\u0105gowie","name":"Powiatowa Biblioteka Pedagogiczna w Zespole Szk\u00f3\u0142 Nr 2 w Mr\u0105gowie","addr:country":"PL","addr:postcode":"11-700","addr:city":"Mr\u0105gowo","addr:street":"ul. Warszawska","addr:housenumber":"51","addr:teryt:simc":23682,"addr:teryt:sym_ul":964896,"contact:phone":"+48 897414080","contact:email":"zs2@post.pl","ref:regon":"281620377","operator":"Powiat Mr\u0105gowski","operator:type":"government","amenity":"library","note":"Parent RSPO: 63484"}},{"id":65268,"type":"Feature","geometry":{"type":"Point","coordinates":[21.3017912,53.8653879]},"properties":{"isced:level":"3","ref:rspo":65268,"official_name":"I Liceum Og\u00f3lnokszta\u0142c\u0105ce im. Obro\u0144c\u00f3w Westerplatte w Mr\u0105gowie","name":"I Liceum Og\u00f3lnokszta\u0142c\u0105ce","addr:country":"PL","addr:postcode":"11-700","addr:city":"Mr\u0105gowo","addr:street":"ul. Piotra Sobczy\u0144skiego","addr:housenumber":"1a","addr:teryt:simc":32991,"addr:teryt:sym_ul":964896,"contact:phone":"+48 897412420","contact:email":"mraglo@wp.pl","contact:website":"http:\/\/www.lo1.mragowo.pl","ref:regon":"510905982","ref:vatin":"PL7421891537","operator":"Powiat Mr\u0105gowski","operator:type":"government","amenity":"school"}},{"id":56039,"type":"Feature","geometry":{"type":"Point","coordinates":[21.29557,53.86603]},"properties":{"ref:rspo":56039,"official_name":"Przedszkole Publiczne Nr 1 \"Stokrotka\" w Mr\u0105gowie","name":"Przedszkole Publiczne Nr 1 \"Stokrotka\" w Mr\u0105gowie","addr:country":"PL","addr:postcode":"11-700","addr:city":"Mr\u0105gowo","addr:street":"ul. Brzozowa","addr:housenumber":"7A","addr:teryt:simc":2276,"addr:teryt:sym_ul":964896,"contact:phone":"+48 897416026","contact:email":"ppstokrotka@op.pl","ref:regon":"510919547","ref:vatin":"PL7421891170","operator":"Gmina Miasto Mr\u0105gowo","operator:type":"government","amenity":"kindergarten"}},{"id":56026,"type":"Feature","geometry":{"type":"Point","coordinates":[21.29956,53.86684]},"properties":{"ref:rspo":56026,"official_name":"Przedszkole Niepubliczne \"Kubu\u015b\"","name":"Przedszkole Niepubliczne \"Kubu\u015b\"","addr:country":"PL","addr:postcode":"11-700","addr:city":"Mr\u0105gowo","addr:street":"ul. Spacerowa","addr:housenumber":"1","addr:teryt:simc":20641,"addr:teryt:sym_ul":964896,"contact:phone":"+48 897413511","contact:email":"przedszkole.kubus@o2.pl","ref:regon":"281438862","ref:vatin":"PL7422063328","operator":" Niepubliczne Przedszkole I \u017b\u0142obek  \"Kubu\u015b\" S.c. Mgr Teresa Zera, Mgr Helena Marczuk","operator:type":"consortium","amenity":"kindergarten"}},{"id":63484,"type":"Feature","geometry":{"type":"Point","coordinates":[21.30099,53.86716]},"properties":{"ref:rspo":63484,"official_name":"Zesp\u00f3\u0142 Szk\u00f3\u0142 Nr 2 im. W\u0142adys\u0142awa Jagie\u0142\u0142y w Mr\u0105gowie","name":"Zesp\u00f3\u0142 Szk\u00f3\u0142 Nr 2","addr:country":"PL","addr:postcode":"11-700","addr:city":"Mr\u0105gowo","addr:street":"ul. Mrongowiusza","addr:housenumber":"13b","addr:teryt:simc":13427,"addr:teryt:sym_ul":964896,"contact:phone":"+48 897412461","contact:email":"zs2@post.pl","contact:website":"http:\/\/www.mragowo.edu.pl","ref:regon":"519458390","ref:vatin":"PL7421506953","operator":"Powiat Mr\u0105gowski","operator:type":"government","landuse":"education","fixme":"amenity=school, amenity=college albo landuse=education w zale\u017cno\u015bci od tego, jakie plac\u00f3wki wchodz\u0105 w sk\u0142ad zespo\u0142u. Sprawd\u017a, kiedy stosowa\u0107 amenity=* a kiedy landuse=education.","note":"Children RSPO: 83998;124463"}},{"id":83998,"type":"Feature","geometry":{"type":"Point","coordinates":[21.30099,53.867129999999996]},"properties":{"isced:level":"3","ref:rspo":83998,"official_name":"Technikum Nr 1 w Mr\u0105gowie","name":"Technikum Nr 1 w Mr\u0105gowie","addr:country":"PL","addr:postcode":"11-700","addr:city":"Mr\u0105gowo","addr:street":"ul. Mrongowiusza","addr:housenumber":"13b","addr:teryt:simc":13427,"addr:teryt:sym_ul":964896,"contact:phone":"+48 897412461","contact:email":"zs2@post.pl","contact:website":"http:\/\/www.mragowo.edu.pl","ref:regon":"519495669","operator":"Powiat Mr\u0105gowski","operator:type":"government","amenity":"school","note":"Parent RSPO: 63484"}},{"id":75616,"type":"Feature","geometry":{"type":"Point","coordinates":[21.30711,53.86731]},"properties":{"ref:rspo":75616,"official_name":"Pa\u0144stwowa Szko\u0142a Muzyczna I St. w Mr\u0105gowie","name":"Pa\u0144stwowa Szko\u0142a Muzyczna I St. w Mr\u0105gowie","addr:country":"PL","addr:postcode":"11-700","addr:city":"Mr\u0105gowo","addr:street":"ul. Roosevelta","addr:housenumber":"29","addr:teryt:simc":18854,"addr:teryt:sym_ul":964896,"contact:phone":"+48 897412447","contact:email":"sekretariat@psmmragowo.pl","contact:website":"http:\/\/psmmragowo.pl","ref:regon":"000705373","operator":"Ministerstwo Kultury I Dziedzictwa Narodowego","operator:type":"public","amenity":"music_school"}},{"id":63489,"type":"Feature","geometry":{"type":"Point","coordinates":[21.30195,53.86747]},"properties":{"ref:rspo":63489,"official_name":"Zesp\u00f3\u0142 Szk\u00f3\u0142 Specjalnych w Mr\u0105gowie","name":"Zesp\u00f3\u0142 Szk\u00f3\u0142 Specjalnych w Mr\u0105gowie","addr:country":"PL","addr:postcode":"11-700","addr:city":"Mr\u0105gowo","addr:street":"ul. Mrongowiusza","addr:housenumber":"13c","addr:teryt:simc":13427,"addr:teryt:sym_ul":964896,"contact:phone":"+48 897412024","contact:email":"dyrektor@zssmragowo.edu.pl","contact:website":"http:\/\/www.zssmragowo.edu.pl","ref:regon":"510998096","ref:vatin":"PL7422211987","operator":"Powiat Mr\u0105gowski","operator:type":"government","landuse":"education","fixme":"amenity=school, amenity=college albo landuse=education w zale\u017cno\u015bci od tego, jakie plac\u00f3wki wchodz\u0105 w sk\u0142ad zespo\u0142u. Sprawd\u017a, kiedy stosowa\u0107 amenity=* a kiedy landuse=education.","note":"Children RSPO: 82428;84003;84004;119327"}},{"id":82428,"type":"Feature","geometry":{"type":"Point","coordinates":[21.30195,53.867439999999995]},"properties":{"isced:level":"1;2","ref:rspo":82428,"official_name":"Szko\u0142a Podstawowa Specjalna w Mr\u0105gowie","name":"Szko\u0142a Podstawowa Specjalna w Mr\u0105gowie","addr:country":"PL","addr:postcode":"11-700","addr:city":"Mr\u0105gowo","addr:street":"ul. Mrongowiusza","addr:housenumber":"13c","addr:teryt:simc":13427,"addr:teryt:sym_ul":964896,"contact:phone":"+48 897412024","contact:email":"dyrektor@zssmragowo.edu.pl","contact:website":"http:\/\/www.zssmragowo.edu.pl","ref:regon":"519458250","operator":"Powiat Mr\u0105gowski","operator:type":"government","amenity":"school","note":"Parent RSPO: 63489"}},{"id":84003,"type":"Feature","geometry":{"type":"Point","coordinates":[21.30195,53.86741]},"properties":{"isced:level":"3","ref:rspo":84003,"official_name":"Bran\u017cowa Szko\u0142a I Stopnia Specjalna","name":"Bran\u017cowa Szko\u0142a I Stopnia Specjalna","addr:country":"PL","addr:postcode":"11-700","addr:city":"Mr\u0105gowo","addr:street":"ul. Mrongowiusza","addr:housenumber":"13c","addr:teryt:simc":13427,"addr:teryt:sym_ul":964896,"contact:phone":"+48 897412024","contact:email":"dyrektor@zssmragowo.edu.pl","contact:website":"http:\/\/www.zssmragowo.edu.pl","ref:regon":"519458243","operator":"Powiat Mr\u0105gowski","operator:type":"government","amenity":"school","note":"Parent RSPO: 63489"}},{"id":84004,"type":"Feature","geometry":{"type":"Point","coordinates":[21.30195,53.86738]},"properties":{"ref:rspo":84004,"official_name":"Szko\u0142a Specjalna Przysposabiaj\u0105ca Do Pracy w Mr\u0105gowie","name":"Szko\u0142a Specjalna Przysposabiaj\u0105ca Do Pracy w Mr\u0105gowie","addr:country":"PL","addr:postcode":"11-700","addr:city":"Mr\u0105gowo","addr:street":"ul. Mrongowiusza","addr:housenumber":"13c","addr:teryt:simc":13427,"addr:teryt:sym_ul":964896,"contact:phone":"+48 897412024","contact:email":"dyrektor@zssmragowo.edu.pl","contact:website":"http:\/\/www.zssmragowo.edu.pl\/","ref:regon":"280328249","operator":"Powiat Mr\u0105gowski","operator:type":"government","amenity":"school","note":"Parent RSPO: 63489"}},{"id":119327,"type":"Feature","geometry":{"type":"Point","coordinates":[21.30195,53.867349999999995]},"properties":{"ref:rspo":119327,"official_name":"Przedszkole Specjalne w Mr\u0105gowie","name":"Przedszkole Specjalne w Mr\u0105gowie","addr:country":"PL","addr:postcode":"11-700","addr:city":"Mr\u0105gowo","addr:street":"ul. Mrongowiusza","addr:housenumber":"13C","addr:teryt:simc":13427,"addr:teryt:sym_ul":964896,"contact:phone":"+48 897412024","contact:email":"dyrektor@zssmragowo.edu.pl","contact:website":"http:\/\/www.zssmragowo.edu.pl","ref:regon":"281527749","operator":"Powiat Mr\u0105gowski","operator:type":"government","amenity":"kindergarten","note":"Parent RSPO: 63489"}},{"id":84179,"type":"Feature","geometry":{"type":"Point","coordinates":[21.29005,53.86772]},"properties":{"isced:level":"1;2","ref:rspo":84179,"official_name":"Szko\u0142a Podstawowa Nr 4 im. Genera\u0142a Stefana \"Grota\" Roweckiego w Mr\u0105gowie","name":"Szko\u0142a Podstawowa Nr 4","addr:country":"PL","addr:postcode":"11-700","addr:city":"Mr\u0105gowo","addr:street":"os. Osiedle Mazurskie","addr:housenumber":"12","addr:teryt:simc":49680,"addr:teryt:sym_ul":964896,"contact:phone":"+48 897426971","contact:email":"zs4rowecki@wp.pl","contact:website":"http:\/\/www.sp4rowecki.edupage.org","ref:regon":"001400196","ref:vatin":"PL7422001557","operator":"Gmina Miasto Mr\u0105gowo","operator:type":"government","amenity":"school"}},{"id":63493,"type":"Feature","geometry":{"type":"Point","coordinates":[21.29711,53.87185]},"properties":{"ref:rspo":63493,"official_name":"Bursa Mi\u0119dzyszkolna w Mr\u0105gowie","name":"Bursa Mi\u0119dzyszkolna w Mr\u0105gowie","addr:country":"PL","addr:postcode":"11-700","addr:city":"Mr\u0105gowo","addr:street":"ul. Mrongowiusza","addr:housenumber":"65B","addr:teryt:simc":13427,"addr:teryt:sym_ul":964896,"contact:phone":"+48 897412043","contact:email":"bursa.mragowo@wp.pl","contact:website":"http:\/\/www.bursa.mragowo.pl","ref:regon":"510997398","ref:vatin":"PL7422211993","operator":"Powiat Mr\u0105gowski","operator:type":"government","building":"dormitory"}},{"id":120408,"type":"Feature","geometry":{"type":"Point","coordinates":[21.29711,53.87182]},"properties":{"ref:rspo":120408,"official_name":"Sezonowe Szkolne Schronisko M\u0142odzie\u017cowe w Mr\u0105gowie","name":"Sezonowe Szkolne Schronisko M\u0142odzie\u017cowe w Mr\u0105gowie","addr:country":"PL","addr:postcode":"11-700","addr:city":"Mr\u0105gowo","addr:street":"ul. Mrongowiusza","addr:housenumber":"65B","addr:teryt:simc":13427,"addr:teryt:sym_ul":964896,"contact:phone":"+48 897412043","contact:email":"bursa.mragowo@wp.pl","contact:website":"http:\/\/www.bursa.mragowo.pl","ref:regon":"281535447","operator":"Powiat Mr\u0105gowski","operator:type":"government","tourism":"hostel"}},{"id":56025,"type":"Feature","geometry":{"type":"Point","coordinates":[21.29839,53.87245]},"properties":{"ref:rspo":56025,"official_name":"Przedszkole Niepubliczne \"Nasze Pociechy\" w Mr\u0105gowie","name":"Przedszkole Niepubliczne \"Nasze Pociechy\" w Mr\u0105gowie","addr:country":"PL","addr:postcode":"11-700","addr:city":"Mr\u0105gowo","addr:street":"ul. Mrongowiusza","addr:housenumber":"59A","addr:teryt:simc":13427,"addr:teryt:sym_ul":964896,"contact:phone":"+48 897412262","contact:email":"naszepociechy001@gmail.com","ref:regon":"281438856","ref:vatin":"PL7421585272","operator":"Agnieszka Paradowska","operator:type":"private","amenity":"kindergarten"}},{"id":267915,"type":"Feature","geometry":{"type":"Point","coordinates":[21.29727,53.87282]},"properties":{"ref:rspo":267915,"official_name":"Centrum Kszta\u0142cenia Zawodowego I Ustawicznego w Mr\u0105gowie","name":"Centrum Kszta\u0142cenia Zawodowego I Ustawicznego w Mr\u0105gowie","addr:country":"PL","addr:postcode":"11-700","addr:city":"Mr\u0105gowo","addr:street":"ul. Mrongowiusza","addr:housenumber":"65","addr:teryt:simc":13427,"addr:teryt:sym_ul":964896,"contact:phone":"+48 897413195","contact:email":"dyrektor@ckziumragowo.pl","contact:website":"http:\/\/www.ckziumragowo.pl","ref:regon":"380749090","ref:vatin":"PL7422263990","operator":"Powiat Mr\u0105gowski","operator:type":"government","landuse":"education","fixme":"amenity=school, amenity=college albo landuse=education w zale\u017cno\u015bci od tego, jakie plac\u00f3wki wchodz\u0105 w sk\u0142ad zespo\u0142u. Sprawd\u017a, kiedy stosowa\u0107 amenity=* a kiedy landuse=education.","note":"Children RSPO: 82432;84000;84001;124618;124632;262838"}},{"id":82432,"type":"Feature","geometry":{"type":"Point","coordinates":[21.29727,53.872789999999995]},"properties":{"ref:rspo":82432,"official_name":"Centrum Kszta\u0142cenia Ustawicznego","name":"Centrum Kszta\u0142cenia Ustawicznego","addr:country":"PL","addr:postcode":"11-700","addr:city":"Mr\u0105gowo","addr:street":"ul. Mrongowiusza","addr:housenumber":"65","addr:teryt:simc":13427,"addr:teryt:sym_ul":964896,"contact:phone":"+48 897413092","contact:email":"dyrektor@ckziumragowo.pl","contact:website":"http:\/\/www.ckziumragowo.pl","ref:regon":"281445655","operator":"Powiat Mr\u0105gowski","operator:type":"government","amenity":"school","fixme":"amenity=school lub amenity=college","note":"Parent RSPO: 267915"}},{"id":84000,"type":"Feature","geometry":{"type":"Point","coordinates":[21.29727,53.87276]},"properties":{"isced:level":"3","ref:rspo":84000,"official_name":"Bran\u017cowa Szko\u0142a I Stopnia","name":"Bran\u017cowa Szko\u0142a I Stopnia","addr:country":"PL","addr:postcode":"11-700","addr:city":"Mr\u0105gowo","addr:street":"ul. Mrongowiusza","addr:housenumber":"65","addr:teryt:simc":13427,"addr:teryt:sym_ul":964896,"contact:phone":"+48 897413195","contact:email":"dyrektor@ckziumragowo.pl","contact:website":"http:\/\/ckziumragowo.pl","ref:regon":"519460530","operator":"Powiat Mr\u0105gowski","operator:type":"government","amenity":"school","note":"Parent RSPO: 267915"}},{"id":84001,"type":"Feature","geometry":{"type":"Point","coordinates":[21.29727,53.87273]},"properties":{"isced:level":"3","ref:rspo":84001,"official_name":"Technikum Nr 2 w Mr\u0105gowie","name":"Technikum Nr 2 w Mr\u0105gowie","addr:country":"PL","addr:postcode":"11-700","addr:city":"Mr\u0105gowo","addr:street":"ul. Mrongowiusza","addr:housenumber":"65","addr:teryt:simc":13427,"addr:teryt:sym_ul":964896,"contact:phone":"+48 897413195","contact:email":"dyrektor@ckziumragowo.pl","contact:website":"http:\/\/ckziumragowo.pl","ref:regon":"519482307","operator":"Powiat Mr\u0105gowski","operator:type":"government","amenity":"school","note":"Parent RSPO: 267915"}},{"id":124618,"type":"Feature","geometry":{"type":"Point","coordinates":[21.29727,53.872699999999995]},"properties":{"isced:level":"4","ref:rspo":124618,"official_name":"Szko\u0142a Policealna w Mr\u0105gowie","name":"Szko\u0142a Policealna w Mr\u0105gowie","addr:country":"PL","addr:postcode":"11-700","addr:city":"Mr\u0105gowo","addr:street":"ul. Mrongowiusza","addr:housenumber":"65","addr:teryt:simc":13427,"addr:teryt:sym_ul":964896,"contact:phone":"+48 897413195","contact:email":"dyrektor@ckziumragowo.pl","contact:website":"http:\/\/www.ckziumragowo.pl","ref:regon":"519481874","operator":"Powiat Mr\u0105gowski","operator:type":"government","amenity":"college","note":"Parent RSPO: 267915"}},{"id":124632,"type":"Feature","geometry":{"type":"Point","coordinates":[21.29727,53.87267]},"properties":{"isced:level":"3","ref:rspo":124632,"official_name":"Liceum Og\u00f3lnokszta\u0142c\u0105ce dla Doros\u0142ych","name":"Liceum Og\u00f3lnokszta\u0142c\u0105ce dla Doros\u0142ych","addr:country":"PL","addr:postcode":"11-700","addr:city":"Mr\u0105gowo","addr:street":"ul. Mrongowiusza","addr:housenumber":"65","addr:teryt:simc":13427,"addr:teryt:sym_ul":964896,"contact:phone":"+48 897413195","contact:email":"dyrektor@ckziumragowo.pl","contact:website":"http:\/\/www.ckziumragowo.pl","ref:regon":"519481880","operator":"Powiat Mr\u0105gowski","operator:type":"government","amenity":"school","note":"Parent RSPO: 267915"}},{"id":262838,"type":"Feature","geometry":{"type":"Point","coordinates":[21.29727,53.87264]},"properties":{"isced:level":"1;2","ref:rspo":262838,"official_name":"Szko\u0142a Podstawowa dla Doros\u0142ych","name":"Szko\u0142a Podstawowa dla Doros\u0142ych","addr:country":"PL","addr:postcode":"11-700","addr:city":"Mr\u0105gowo","addr:street":"ul. Mrongowiusza","addr:housenumber":"65","addr:teryt:simc":13427,"addr:teryt:sym_ul":964896,"contact:phone":"+48 897413195","contact:email":"dyrektor@ckziumragowo.pl","contact:website":"http:\/\/www.ckziumragowo.pl","ref:regon":"368063159","operator":"Powiat Mr\u0105gowski","operator:type":"government","amenity":"school","note":"Parent RSPO: 267915"}},{"id":273648,"type":"Feature","geometry":{"type":"Point","coordinates":[21.30566,53.87738]},"properties":{"ref:rspo":273648,"official_name":"Przedszkole Niepubliczne \"Nasze Pociechy\"","name":"Przedszkole Niepubliczne \"Nasze Pociechy\"","addr:country":"PL","addr:postcode":"11-700","addr:city":"Mr\u0105gowo","addr:street":"ul. Gi\u017cycka","addr:housenumber":"1","addr:teryt:simc":5541,"addr:teryt:sym_ul":964896,"contact:email":"naszpociechy001@gmail.com","ref:regon":"384543668","ref:vatin":"PL7422267108","operator":"Centrum Rozwoju  \"Nasze Pociechy\" Sp\u00f3\u0142ka Z Ograniczon\u0105 Odpowiedzialno\u015bci\u0105","operator:type":"private","amenity":"kindergarten"}}]}