{
    "type": "FeatureCollection",
    "features": [
        {
            "id": 5061,
            "type": "Feature",
            "geometry": {
                "type": "Point",
                "coordinates": [
                    21.137995,
                    53.7580748
                ]
            },
            "properties": {
                "isced:level": "1;2",
                "ref:rspo": 5061,
                "official_name": "Stowarzyszenie Edukator w \u0141om\u017cy Szko\u0142a Podstawowa w Koz\u0142owie",
                "name": "Stowarzyszenie Edukator w \u0141om\u017cy Szko\u0142a Podstawowa w Koz\u0142owie",
                "addr:country": "PL",
                "addr:postcode": "11-731",
                "addr:city": "Rybno",
                "addr:street": "ul. D\u0142uga",
                "addr:housenumber": "17",
                "addr:teryt:simc": 3839,
                "addr:teryt:sym_ul": 488071,
                "contact:phone": "+48 897427391",
                "contact:email": "sp.kozlowo@edukator.lomza.pl",
                "contact:website": "http:\/\/sosedukator.pl",
                "ref:regon": "281424110",
                "ref:vatin": "PL7181729859",
                "operator": "Spo\u0142eczno - O\u015bwiatowe Stowarzyszenie Pomocy Pokrzywdzonym I Niepe\u0142nosprawnym \"Edukator\"",
                "operator:type": "ngo",
                "amenity": "school"
            }
        },
        {
            "id": 35013,
            "type": "Feature",
            "geometry": {
                "type": "Point",
                "coordinates": [
                    21.13323,
                    53.84035
                ]
            },
            "properties": {
                "isced:level": "1;2",
                "ref:rspo": 35013,
                "official_name": "Szko\u0142a Podstawowa im. Janusza Korczaka w Sorkwitach",
                "name": "Szko\u0142a Podstawowa",
                "addr:country": "PL",
                "addr:postcode": "11-731",
                "addr:city": "Sorkwity",
                "addr:street": "ul. Szkolna",
                "addr:housenumber": "17B",
                "addr:teryt:simc": 21970,
                "addr:teryt:sym_ul": 488119,
                "contact:phone": "+48 897428153",
                "contact:email": "spsor@wp.pl",
                "contact:website": "https:\/\/spsorkwity.edupage.org\/",
                "ref:regon": "000269216",
                "ref:vatin": "PL7422258003",
                "operator": "Gmina Sorkwity",
                "operator:type": "government",
                "amenity": "school"
            }
        },
        {
            "id": 17854,
            "type": "Feature",
            "geometry": {
                "type": "Point",
                "coordinates": [
                    21.14614,
                    53.84452
                ]
            },
            "properties": {
                "ref:rspo": 17854,
                "official_name": "Niepubliczne Przedszkole \"S\u0142oneczko\"",
                "name": "Niepubliczne Przedszkole \"S\u0142oneczko\"",
                "addr:country": "PL",
                "addr:postcode": "11-731",
                "addr:city": "Sorkwity",
                "addr:street": "ul. Olszty\u0144ska",
                "addr:housenumber": "14",
                "addr:teryt:simc": 15016,
                "addr:teryt:sym_ul": 488119,
                "contact:phone": "+48 897428173",
                "contact:email": "przedszkolersorkwity@wp.pl",
                "contact:website": "http:\/\/sloneczko.schoolpage.pl",
                "ref:regon": "281431191",
                "ref:vatin": "PL7421041230",
                "operator": "Monika Jaworska",
                "operator:type": "private",
                "amenity": "kindergarten"
            }
        },
        {
            "id": 5062,
            "type": "Feature",
            "geometry": {
                "type": "Point",
                "coordinates": [
                    21.08652,
                    53.87666
                ]
            },
            "properties": {
                "isced:level": "1;2",
                "ref:rspo": 5062,
                "official_name": "Stowarzyszenie Edukator w \u0141om\u017cy Szko\u0142a Podstawowa w Choszczewie",
                "name": "Stowarzyszenie Edukator w \u0141om\u017cy Szko\u0142a Podstawowa w Choszczewie",
                "addr:country": "PL",
                "addr:postcode": "11-731",
                "addr:place": "Choszczewo",
                "addr:housenumber": "62",
                "addr:teryt:sym_ul": 487887,
                "contact:phone": "+48 897428111",
                "contact:email": "sp.choszczewo@edukator.lomza.pl",
                "contact:website": "http:\/\/sosedukator.pl",
                "ref:regon": "281424096",
                "ref:vatin": "PL7181729859",
                "operator": "Spo\u0142eczno - O\u015bwiatowe Stowarzyszenie Pomocy Pokrzywdzonym I Niepe\u0142nosprawnym \"Edukator\"",
                "operator:type": "ngo",
                "amenity": "school"
            }
        },
        {
            "id": 49603,
            "type": "Feature",
            "geometry": {
                "type": "Point",
                "coordinates": [
                    21.1774,
                    53.91833
                ]
            },
            "properties": {
                "isced:level": "1;2",
                "ref:rspo": 49603,
                "official_name": "Szko\u0142a Podstawowa im. Ireny Sendlerowej w Warpunach Z Siedzib\u0105 w Zyndakach",
                "name": "Szko\u0142a Podstawowa",
                "addr:country": "PL",
                "addr:postcode": "11-731",
                "addr:place": "Zyndaki",
                "addr:housenumber": "2",
                "addr:teryt:sym_ul": 488243,
                "contact:phone": "+48 897429423",
                "contact:email": "zespwarpuny@wp.pl",
                "contact:website": "http:\/\/spwarpuny.edupage.org",
                "ref:regon": "001209104",
                "ref:vatin": "PL7422258026",
                "operator": "Gmina Sorkwity",
                "operator:type": "government",
                "amenity": "school"
            }
        },
        {
            "id": 17900,
            "type": "Feature",
            "geometry": {
                "type": "Point",
                "coordinates": [
                    21.17458,
                    53.92136
                ]
            },
            "properties": {
                "ref:rspo": 17900,
                "official_name": "Niepubliczne Przedszkole \"Krasnale\"",
                "name": "Niepubliczne Przedszkole \"Krasnale\"",
                "addr:country": "PL",
                "addr:postcode": "11-731",
                "addr:city": "Warpuny",
                "addr:street": "ul. Wolno\u015bci",
                "addr:housenumber": "3",
                "addr:teryt:simc": 24687,
                "addr:teryt:sym_ul": 488237,
                "contact:phone": "+48 504032787",
                "contact:email": "aga.czamara@wp.pl",
                "contact:website": "http:\/\/przedszkole-zyndaki.przyjd\u017a.com",
                "ref:regon": "281431216",
                "ref:vatin": "PL7421601367",
                "operator": "Agnieszka Czamara",
                "operator:type": "private",
                "amenity": "kindergarten"
            }
        }
    ]
}