{
    "type": "FeatureCollection",
    "features": [
        {
            "id": 66444,
            "type": "Feature",
            "geometry": {
                "type": "Point",
                "coordinates": [
                    21.56504,
                    53.79528
                ]
            },
            "properties": {
                "isced:level": "3",
                "ref:rspo": 66444,
                "official_name": "Spo\u0142eczne Liceum Og\u00f3lnokszta\u0142c\u0105ce im. Marion D\u00f6nhoff w Miko\u0142ajkach",
                "name": "Spo\u0142eczne Liceum Og\u00f3lnokszta\u0142c\u0105ce",
                "addr:postcode": "11-730",
                "addr:city": "Miko\u0142ajki",
                "addr:street": "Le\u015bna",
                "addr:housenumber": "2A",
                "addr:teryt:simc": 977723,
                "addr:teryt:sym_ul": 10898,
                "phone": "+48 874216674",
                "email": "dyrektor@sto-mikolajki.org.pl",
                "website": "http:\/\/www.sto-mikolajki.pl",
                "ref:regon": "281440965",
                "ref:vatin": "PL8451071934",
                "operator": "Samodzielne Ko\u0142o Terenowe Nr 93 Spo\u0142ecznego Towarzystwa O\u015bwiatowego W Miko\u0142ajkach",
                "operator:type": "ngo",
                "amenity": "school"
            }
        },
        {
            "id": 122141,
            "type": "Feature",
            "geometry": {
                "type": "Point",
                "coordinates": [
                    21.56504,
                    53.795249999999996
                ]
            },
            "properties": {
                "isced:level": "1;2",
                "ref:rspo": 122141,
                "official_name": "Spo\u0142eczna Szko\u0142a Podstawowa Spo\u0142ecznego Towarzystwa O\u015bwiatowego w Miko\u0142ajkach",
                "name": "Spo\u0142eczna Szko\u0142a Podstawowa Spo\u0142ecznego Towarzystwa O\u015bwiatowego w Miko\u0142ajkach",
                "addr:postcode": "11-730",
                "addr:city": "Miko\u0142ajki",
                "addr:street": "Le\u015bna",
                "addr:housenumber": "2",
                "addr:door": "A",
                "addr:teryt:simc": 977723,
                "addr:teryt:sym_ul": 10898,
                "phone": "+48 874216674",
                "email": "dyrektor@sto-mikolajki.org.pl",
                "website": "http:\/\/sto-mikolajki.org.pl",
                "ref:regon": "281569357",
                "ref:vatin": "PL8451071934",
                "operator": "Samodzielne Ko\u0142o Terenowe Nr 93 Spo\u0142ecznego Towarzystwa O\u015bwiatowego W Miko\u0142ajkach",
                "operator:type": "ngo",
                "amenity": "school"
            }
        },
        {
            "id": 22534,
            "type": "Feature",
            "geometry": {
                "type": "Point",
                "coordinates": [
                    21.5857199,
                    53.79873
                ]
            },
            "properties": {
                "ref:rspo": 22534,
                "official_name": "Przedszkole Samorz\u0105dowe w Miko\u0142ajkach",
                "name": "Przedszkole Samorz\u0105dowe w Miko\u0142ajkach",
                "addr:postcode": "11-730",
                "addr:city": "Miko\u0142ajki",
                "addr:street": "\u0141ab\u0119dzia",
                "addr:housenumber": "1",
                "addr:teryt:simc": 977723,
                "addr:teryt:sym_ul": 11474,
                "phone": "+48 874216434",
                "email": "przedszkole.promyczek@gmail.com",
                "website": "http:\/\/promyczek-mikolajki.przedszkolowo.pl",
                "ref:regon": "001011247",
                "operator": "Gmina Miko\u0142ajki",
                "operator:type": "government",
                "amenity": "kindergarten",
                "note": "Parent RSPO: 20897"
            }
        },
        {
            "id": 20897,
            "type": "Feature",
            "geometry": {
                "type": "Point",
                "coordinates": [
                    21.5822687,
                    53.7996099
                ]
            },
            "properties": {
                "ref:rspo": 20897,
                "official_name": "Zesp\u00f3\u0142 O\u015bwiatowy",
                "name": "Zesp\u00f3\u0142 O\u015bwiatowy",
                "addr:postcode": "11-730",
                "addr:city": "Miko\u0142ajki",
                "addr:street": "Papie\u017ca Jana Paw\u0142a II",
                "addr:housenumber": "7",
                "addr:teryt:simc": 977723,
                "addr:teryt:sym_ul": 7127,
                "phone": "+48 874216434",
                "email": "sp@mikolajki.pl",
                "website": "http:\/\/spmikolajki.edupage.org",
                "ref:regon": "510954236",
                "ref:vatin": "PL7421909208",
                "operator": "Gmina Miko\u0142ajki",
                "operator:type": "government",
                "landuse": "education",
                "fixme": "amenity=school, amenity=college albo landuse=education w zale\u017cno\u015bci od tego, jakie plac\u00f3wki wchodz\u0105 w sk\u0142ad zespo\u0142u. Sprawd\u017a, kiedy stosowa\u0107 amenity=* a kiedy landuse=education.",
                "note": "Children RSPO: 22533;22534"
            }
        },
        {
            "id": 22533,
            "type": "Feature",
            "geometry": {
                "type": "Point",
                "coordinates": [
                    21.5822687,
                    53.7995799
                ]
            },
            "properties": {
                "isced:level": "1;2",
                "ref:rspo": 22533,
                "official_name": "Szko\u0142a Podstawowa w Miko\u0142ajkach",
                "name": "Szko\u0142a Podstawowa w Miko\u0142ajkach",
                "addr:postcode": "11-730",
                "addr:city": "Miko\u0142ajki",
                "addr:street": "Papie\u017ca Jana Paw\u0142a II",
                "addr:housenumber": "7",
                "addr:teryt:simc": 977723,
                "addr:teryt:sym_ul": 7127,
                "phone": "+48 874216434",
                "email": "sp@mikolajki.pl",
                "website": "http:\/\/spmikolajki.edupage.org",
                "ref:regon": "000262668",
                "operator": "Gmina Miko\u0142ajki",
                "operator:type": "government",
                "amenity": "school",
                "note": "Parent RSPO: 20897"
            }
        },
        {
            "id": 20390,
            "type": "Feature",
            "geometry": {
                "type": "Point",
                "coordinates": [
                    21.57436,
                    53.80372
                ]
            },
            "properties": {
                "ref:rspo": 20390,
                "official_name": "Przedszkole Niepubliczne \"Bajkowy Domek\"",
                "name": "Przedszkole Niepubliczne \"Bajkowy Domek\"",
                "addr:postcode": "11-730",
                "addr:city": "Miko\u0142ajki",
                "addr:street": "Kolejowa",
                "addr:housenumber": "6",
                "addr:teryt:simc": 977723,
                "addr:teryt:sym_ul": 8828,
                "phone": "+48 500237977",
                "email": "bajkowydomek@op.pl",
                "website": "http:\/\/bajkowydomek.org",
                "ref:regon": "281432167",
                "ref:vatin": "PL2910078276",
                "operator": "Ma\u0142gorzata Pupek",
                "operator:type": "private",
                "amenity": "kindergarten"
            }
        },
        {
            "id": 63460,
            "type": "Feature",
            "geometry": {
                "type": "Point",
                "coordinates": [
                    21.57196,
                    53.80418
                ]
            },
            "properties": {
                "ref:rspo": 63460,
                "official_name": "O\u015brodek Rehabilitacyjno-Edukacyjno-Wychowawczy w Miko\u0142ajkach",
                "name": "O\u015brodek Rehabilitacyjno-Edukacyjno-Wychowawczy w Miko\u0142ajkach",
                "addr:postcode": "11-730",
                "addr:city": "Miko\u0142ajki",
                "addr:street": "Kolejowa",
                "addr:housenumber": "13",
                "addr:teryt:simc": 977723,
                "addr:teryt:sym_ul": 8828,
                "phone": "+48 874219981",
                "email": "orewmikolajki@wp.pl",
                "website": "http:\/\/www.orewmikolajki.mazury.pl",
                "ref:regon": "281444696",
                "ref:vatin": "PL7421986752",
                "operator": "Polskie Stowarzyszenie Na Rzecz Os\u00f3b Z Niepe\u0142nosprawno\u015bci\u0105 Intelektualn\u0105 Ko\u0142o W Miko\u0142ajkach",
                "operator:type": "ngo",
                "amenity": "school"
            }
        },
        {
            "id": 22347,
            "type": "Feature",
            "geometry": {
                "type": "Point",
                "coordinates": [
                    21.45278,
                    53.82637
                ]
            },
            "properties": {
                "isced:level": "1;2",
                "ref:rspo": 22347,
                "official_name": "Szko\u0142a Podstawowa w Baranowie",
                "name": "Szko\u0142a Podstawowa w Baranowie",
                "addr:postcode": "11-730",
                "addr:place": "Baranowo",
                "addr:housenumber": "29",
                "addr:teryt:simc": 762017,
                "phone": "+48 874213015",
                "email": "zsbaranowo@interia.pl",
                "website": "http:\/\/www.baranowosp.edupage.org",
                "ref:regon": "001154633",
                "ref:vatin": "PL7422044868",
                "operator": "Gmina Miko\u0142ajki",
                "operator:type": "government",
                "amenity": "school"
            }
        },
        {
            "id": 20301,
            "type": "Feature",
            "geometry": {
                "type": "Point",
                "coordinates": [
                    21.63422,
                    53.84897
                ]
            },
            "properties": {
                "isced:level": "1;2",
                "ref:rspo": 20301,
                "official_name": "Szko\u0142a Podstawowa w Wo\u017anicach",
                "name": "Szko\u0142a Podstawowa w Wo\u017anicach",
                "addr:postcode": "11-730",
                "addr:place": "Wo\u017anice",
                "addr:housenumber": "11A",
                "addr:teryt:simc": 762371,
                "phone": "+48 874213507",
                "email": "szp_woznice@wp.pl",
                "website": "http:\/\/spwoznice.edupage.org",
                "ref:regon": "001154656",
                "ref:vatin": "PL7421909065",
                "operator": "Gmina Miko\u0142ajki",
                "operator:type": "government",
                "amenity": "school"
            }
        },
        {
            "id": 19667,
            "type": "Feature",
            "geometry": {
                "type": "Point",
                "coordinates": [
                    21.67673,
                    53.85957
                ]
            },
            "properties": {
                "isced:level": "1;2",
                "ref:rspo": 19667,
                "official_name": "Szko\u0142a Podstawowa im. Marii Konopnickiej w Olszewie",
                "name": "Szko\u0142a Podstawowa",
                "addr:postcode": "11-730",
                "addr:place": "Olszewo",
                "addr:housenumber": "20",
                "addr:teryt:simc": 762170,
                "phone": "+48 874213602",
                "email": "spolszewo@op.pl",
                "website": "http:\/\/spolszewo.edupage.org",
                "ref:regon": "001154640",
                "ref:vatin": "PL7421909177",
                "operator": "Gmina Miko\u0142ajki",
                "operator:type": "government",
                "amenity": "school"
            }
        },
        {
            "id": 129299,
            "type": "Feature",
            "geometry": {
                "type": "Point",
                "coordinates": [
                    21.49746,
                    53.87078
                ]
            },
            "properties": {
                "ref:rspo": 129299,
                "official_name": "Szkolne Schronisko M\u0142odzie\u017cowe \"Zst Mazury\"",
                "name": "Szkolne Schronisko M\u0142odzie\u017cowe \"Zst Mazury\"",
                "addr:postcode": "11-730",
                "addr:place": "Jora Wielka",
                "addr:housenumber": "1",
                "addr:teryt:simc": 762129,
                "phone": "+48 243642730",
                "email": "sekretariat_zst@go2.pl",
                "website": "http:\/\/zstplock.pl",
                "ref:regon": "362550579",
                "ref:vatin": "PL7743182775",
                "operator": "Gmina - Miasto P\u0142ock",
                "operator:type": "government",
                "tourism": "hostel",
                "note": "Parent RSPO: 47967"
            }
        }
    ]
}