{
    "type": "FeatureCollection",
    "features": [
        {
            "id": 25858,
            "type": "Feature",
            "geometry": {
                "type": "Point",
                "coordinates": [
                    19.26006,
                    51.60709
                ]
            },
            "properties": {
                "isced:level": "1;2",
                "ref:rspo": 25858,
                "official_name": "Szko\u0142a Podstawowa im. W\u0142adys\u0142awa Stanis\u0142awa Reymonta w Mogilnie Du\u017cym",
                "name": "Szko\u0142a Podstawowa",
                "addr:country": "PL",
                "addr:postcode": "95-082",
                "addr:place": "Mogilno Du\u017ce",
                "addr:housenumber": "21",
                "addr:teryt:simc": 702860,
                "contact:phone": "+48 436772628",
                "contact:email": "spwmd@wp.pl",
                "contact:website": "https:\/\/spmogilno.edupage.org\/",
                "ref:regon": "001149862",
                "ref:vatin": "PL7311749979",
                "operator": "Gmina Dobro\u0144",
                "operator:type": "government",
                "amenity": "school"
            }
        },
        {
            "id": 276407,
            "type": "Feature",
            "geometry": {
                "type": "Point",
                "coordinates": [
                    19.24181,
                    51.62591
                ]
            },
            "properties": {
                "ref:rspo": 276407,
                "official_name": "Niepubliczny Punkt Przedszkolny Zmys\u0142olandia Play&Learn",
                "name": "Niepubliczny Punkt Przedszkolny Zmys\u0142olandia Play&Learn",
                "addr:country": "PL",
                "addr:postcode": "95-082",
                "addr:city": "Dobro\u0144",
                "addr:street": "11 Listopada",
                "addr:housenumber": "2",
                "addr:teryt:simc": 990758,
                "addr:teryt:sym_ul": 11205,
                "ref:regon": "387124245",
                "operator": "Aleksandra Rosi\u0144ska",
                "operator:type": "private",
                "amenity": "kindergarten"
            }
        },
        {
            "id": 25806,
            "type": "Feature",
            "geometry": {
                "type": "Point",
                "coordinates": [
                    19.24484,
                    51.635
                ]
            },
            "properties": {
                "isced:level": "1;2",
                "ref:rspo": 25806,
                "official_name": "Szko\u0142a Podstawowa im. Jana Paw\u0142a II w Dobroniu",
                "name": "Szko\u0142a Podstawowa",
                "addr:country": "PL",
                "addr:postcode": "95-082",
                "addr:city": "Dobro\u0144",
                "addr:street": "Henryka Sienkiewicza",
                "addr:housenumber": "39",
                "addr:teryt:simc": 990758,
                "addr:teryt:sym_ul": 19830,
                "contact:phone": "+48 436772614",
                "contact:email": "szkoladobron@o2.pl",
                "contact:website": "http:\/\/www.szkoladobron.pl",
                "ref:regon": "000552314",
                "ref:vatin": "PL7311750853",
                "operator": "Gmina Dobro\u0144",
                "operator:type": "government",
                "amenity": "school"
            }
        },
        {
            "id": 25717,
            "type": "Feature",
            "geometry": {
                "type": "Point",
                "coordinates": [
                    19.2455,
                    51.63711
                ]
            },
            "properties": {
                "ref:rspo": 25717,
                "official_name": "Publiczne Przedszkole w Dobroniu",
                "name": "Publiczne Przedszkole w Dobroniu",
                "addr:country": "PL",
                "addr:postcode": "95-082",
                "addr:city": "Dobro\u0144",
                "addr:street": "Henryka Sienkiewicza",
                "addr:housenumber": "60",
                "addr:teryt:simc": 990758,
                "addr:teryt:sym_ul": 19830,
                "contact:phone": "+48 436772032",
                "contact:email": "przedszkole.dobron@interia.pl",
                "contact:website": "http:\/\/www.przedszkole.dobron.eu",
                "ref:regon": "472893630",
                "ref:vatin": "PL7312041998",
                "operator": "Gmina Dobro\u0144",
                "operator:type": "government",
                "amenity": "kindergarten"
            }
        },
        {
            "id": 29035,
            "type": "Feature",
            "geometry": {
                "type": "Point",
                "coordinates": [
                    19.28665,
                    51.64418
                ]
            },
            "properties": {
                "isced:level": "1;2",
                "ref:rspo": 29035,
                "official_name": "Szko\u0142a Podstawowa im. Jadwigi Wajs\u00f3wny w Chechle Drugim",
                "name": "Szko\u0142a Podstawowa",
                "addr:country": "PL",
                "addr:postcode": "95-082",
                "addr:city": "Chech\u0142o Drugie",
                "addr:street": "Lipowa",
                "addr:housenumber": "1",
                "addr:teryt:simc": 702682,
                "addr:teryt:sym_ul": 11139,
                "contact:phone": "+48 422156915",
                "contact:email": "chechlo@o2.pl",
                "contact:website": "http:\/\/www.spchechlo.szkolnastrona.pl\/",
                "ref:regon": "001149827",
                "operator": "Gmina Dobro\u0144",
                "operator:type": "government",
                "amenity": "school"
            }
        }
    ]
}