{
    "type": "FeatureCollection",
    "features": [
        {
            "id": 124647,
            "type": "Feature",
            "geometry": {
                "type": "Point",
                "coordinates": [
                    19.32548,
                    51.74307
                ]
            },
            "properties": {
                "ref:rspo": 124647,
                "official_name": "Niepubliczne Przedszkole \"Oliwkowy Gaj\"",
                "name": "Niepubliczne Przedszkole \"Oliwkowy Gaj\"",
                "addr:postcode": "95-050",
                "addr:city": "Konstantyn\u00f3w \u0141\u00f3dzki",
                "addr:street": "1 Maja",
                "addr:housenumber": "12",
                "addr:city:simc": 958826,
                "addr:street:sym_ul": 11926,
                "phone": "+48 604356712",
                "email": "przedszkole.oliwkowygaj@gmail.com",
                "website": "http:\/\/www.oliwkowygaj.com.pl",
                "ref:regon": "101835063",
                "operator": "Amira Odeh",
                "operator:type": "private",
                "amenity": "kindergarten"
            }
        },
        {
            "id": 48935,
            "type": "Feature",
            "geometry": {
                "type": "Point",
                "coordinates": [
                    19.31244,
                    51.74526
                ]
            },
            "properties": {
                "ref:rspo": 48935,
                "official_name": "Niepubliczne Przedszkole \"Pokaz \u015awiat\"",
                "name": "Niepubliczne Przedszkole \"Pokaz \u015awiat\"",
                "addr:postcode": "95-050",
                "addr:city": "Konstantyn\u00f3w \u0141\u00f3dzki",
                "addr:street": "Legion\u00f3w",
                "addr:housenumber": "16",
                "addr:city:simc": 958826,
                "addr:street:sym_ul": 10769,
                "phone": "+48 422110507",
                "email": "pokazswiat@onet.pl",
                "website": "http:\/\/www.pokazswiat.dlaprzedszkoli.eu",
                "ref:regon": "101487372",
                "ref:vatin": "PL7271013780",
                "operator": "Jolanta Marciniak",
                "operator:type": "private",
                "amenity": "kindergarten"
            }
        },
        {
            "id": 72675,
            "type": "Feature",
            "geometry": {
                "type": "Point",
                "coordinates": [
                    19.32667,
                    51.74723
                ]
            },
            "properties": {
                "ref:rspo": 72675,
                "official_name": "Integracyjne Niepubliczne Przedszkole \"Cytrynka\"",
                "name": "Integracyjne Niepubliczne Przedszkole \"Cytrynka\"",
                "addr:postcode": "95-050",
                "addr:city": "Konstantyn\u00f3w \u0141\u00f3dzki",
                "addr:street": "\u0141\u00f3dzka",
                "addr:housenumber": "1",
                "addr:city:simc": 958826,
                "addr:street:sym_ul": 11710,
                "phone": "+48 693437058",
                "email": "biuro@przedszkolecamelot.pl",
                "website": "http:\/\/przedszkolecamelot.pl\/kontakt",
                "ref:regon": "101493250",
                "ref:vatin": "PL7312047162",
                "operator": "\"Fundacja Eko-Koncept\"",
                "operator:type": "ngo",
                "amenity": "kindergarten"
            }
        },
        {
            "id": 18694,
            "type": "Feature",
            "geometry": {
                "type": "Point",
                "coordinates": [
                    19.31427,
                    51.74804
                ]
            },
            "properties": {
                "isced:level": "4",
                "ref:rspo": 18694,
                "official_name": "Policealne Studium Zawodowe w Konstantynowie \u0141\u00f3dzkim",
                "name": "Policealne Studium Zawodowe w Konstantynowie \u0141\u00f3dzkim",
                "addr:postcode": "95-050",
                "addr:city": "Konstantyn\u00f3w \u0141\u00f3dzki",
                "addr:street": "Jana Kili\u0144skiego",
                "addr:housenumber": "75",
                "addr:city:simc": 958826,
                "addr:street:sym_ul": 8435,
                "phone": "+48 426111407",
                "email": "bkwielkopolan@gmail.com",
                "ref:regon": "101473772",
                "operator": "Beata Wielkopolan",
                "operator:type": "private",
                "amenity": "college"
            }
        },
        {
            "id": 18870,
            "type": "Feature",
            "geometry": {
                "type": "Point",
                "coordinates": [
                    19.31427,
                    51.74801
                ]
            },
            "properties": {
                "isced:level": "3",
                "ref:rspo": 18870,
                "official_name": "I Liceum Og\u00f3lnokszta\u0142c\u0105ce dla Doros\u0142ych w Konstantynowie \u0141\u00f3dzkim",
                "name": "I Liceum Og\u00f3lnokszta\u0142c\u0105ce dla Doros\u0142ych w Konstantynowie \u0141\u00f3dzkim",
                "addr:postcode": "95-050",
                "addr:city": "Konstantyn\u00f3w \u0141\u00f3dzki",
                "addr:street": "Jana Kili\u0144skiego",
                "addr:housenumber": "75",
                "addr:city:simc": 958826,
                "addr:street:sym_ul": 8435,
                "phone": "+48 607956436",
                "email": "bkwielkopolan@gmail.com",
                "ref:regon": "101473097",
                "operator": "Beata Wielkopolan",
                "operator:type": "private",
                "amenity": "school"
            }
        },
        {
            "id": 83426,
            "type": "Feature",
            "geometry": {
                "type": "Point",
                "coordinates": [
                    19.31427,
                    51.747980000000005
                ]
            },
            "properties": {
                "isced:level": "1;2",
                "ref:rspo": 83426,
                "official_name": "Szko\u0142a Podstawowa Nr 2 im. Boles\u0142awa \u015acibiorka w Konstantynowie \u0141\u00f3dzkim",
                "name": "Szko\u0142a Podstawowa Nr 2",
                "addr:postcode": "95-050",
                "addr:city": "Konstantyn\u00f3w \u0141\u00f3dzki",
                "addr:street": "Jana Kili\u0144skiego",
                "addr:housenumber": "75",
                "addr:city:simc": 958826,
                "addr:street:sym_ul": 8435,
                "phone": "+48 422111011",
                "email": "sekretariat@sp2konstantynow.pl",
                "website": "http:\/\/www.sp2konstantynow.pl",
                "ref:regon": "000732329",
                "ref:vatin": "PL7271021288",
                "operator": "Gmina Konstantyn\u00f3w \u0141\u00f3dzki",
                "operator:type": "government",
                "amenity": "school"
            }
        },
        {
            "id": 83425,
            "type": "Feature",
            "geometry": {
                "type": "Point",
                "coordinates": [
                    19.35418,
                    51.74819
                ]
            },
            "properties": {
                "isced:level": "1;2",
                "ref:rspo": 83425,
                "official_name": "Szko\u0142a Podstawowa Nr 1 im. Kr\u00f3lowej Jadwigi w Konstantynowie \u0141\u00f3dzkim",
                "name": "Szko\u0142a Podstawowa Nr 1",
                "addr:postcode": "95-050",
                "addr:city": "Konstantyn\u00f3w \u0141\u00f3dzki",
                "addr:street": "\u0141\u00f3dzka",
                "addr:housenumber": "117",
                "addr:city:simc": 958826,
                "addr:street:sym_ul": 11710,
                "phone": "+48 422111132",
                "email": "sekretariat@sp1konstantynow.pl",
                "website": "http:\/\/www.sp1konstantynow.pl",
                "ref:regon": "470009592",
                "ref:vatin": "PL7271021319",
                "operator": "Gmina Konstantyn\u00f3w \u0141\u00f3dzki",
                "operator:type": "government",
                "amenity": "school"
            }
        },
        {
            "id": 16473,
            "type": "Feature",
            "geometry": {
                "type": "Point",
                "coordinates": [
                    19.31626,
                    51.74925
                ]
            },
            "properties": {
                "ref:rspo": 16473,
                "official_name": "Poradnia Psychologiczno-Pedagogiczna w Konstantynowie \u0141\u00f3dzkim",
                "name": "Poradnia Psychologiczno-Pedagogiczna w Konstantynowie \u0141\u00f3dzkim",
                "addr:postcode": "95-050",
                "addr:city": "Konstantyn\u00f3w \u0141\u00f3dzki",
                "addr:street": "Jana Paw\u0142a II",
                "addr:housenumber": "44",
                "addr:city:simc": 958826,
                "addr:street:sym_ul": 7123,
                "phone": "+48 422111248",
                "email": "sekretariat@pppkonstantynow.pl",
                "website": "http:\/\/pppkonstantynow.pl",
                "ref:regon": "472914786",
                "ref:vatin": "PL7271045053",
                "operator": "Powiat Pabianicki",
                "operator:type": "government",
                "healthcare": "counselling",
                "counselling_type": "education",
                "fixme": "w zale\u017cno\u015bci od przedmiotu dzia\u0142alno\u015bci (np. healthcare=counselling + counselling_type=education albo healthcare=psychotherapist)"
            }
        },
        {
            "id": 11603,
            "type": "Feature",
            "geometry": {
                "type": "Point",
                "coordinates": [
                    19.32625,
                    51.74941
                ]
            },
            "properties": {
                "ref:rspo": 11603,
                "official_name": "Zesp\u00f3\u0142 Szk\u00f3\u0142 Specjalnych Nr 4 im. Marii Grzegorzewskiej w Konstantynowie \u0141\u00f3dzkim",
                "name": "Zesp\u00f3\u0142 Szk\u00f3\u0142 Specjalnych Nr 4",
                "addr:postcode": "95-050",
                "addr:city": "Konstantyn\u00f3w \u0141\u00f3dzki",
                "addr:street": "Zgierska",
                "addr:housenumber": "10",
                "addr:city:simc": 958826,
                "addr:street:sym_ul": 26018,
                "phone": "+48 422111560",
                "email": "zsskonst@interia.pl",
                "website": "http:\/\/www.zsskonst.pl",
                "ref:regon": "472378164",
                "ref:vatin": "PL7311790574",
                "operator": "Powiat Pabianicki",
                "operator:type": "government",
                "landuse": "education",
                "fixme": "amenity=school, amenity=college albo landuse=education w zale\u017cno\u015bci od tego, jakie plac\u00f3wki wchodz\u0105 w sk\u0142ad zespo\u0142u. Sprawd\u017a, kiedy stosowa\u0107 amenity=* a kiedy landuse=education.",
                "note": "Children RSPO: 12214;12299"
            }
        },
        {
            "id": 12214,
            "type": "Feature",
            "geometry": {
                "type": "Point",
                "coordinates": [
                    19.32625,
                    51.749379999999995
                ]
            },
            "properties": {
                "isced:level": "1;2",
                "ref:rspo": 12214,
                "official_name": "Szko\u0142a Podstawowa Specjalna Nr 4 im. Marii Grzegorzewskiej w Konstantynowie \u0141\u00f3dzkim",
                "name": "Szko\u0142a Podstawowa Specjalna Nr 4",
                "addr:postcode": "95-050",
                "addr:city": "Konstantyn\u00f3w \u0141\u00f3dzki",
                "addr:street": "Zgierska",
                "addr:housenumber": "10",
                "addr:city:simc": 958826,
                "addr:street:sym_ul": 26018,
                "phone": "+48 422111560",
                "email": "zsskonst@interia.pl",
                "ref:regon": "000732341",
                "operator": "Powiat Pabianicki",
                "operator:type": "government",
                "amenity": "school",
                "note": "Parent RSPO: 11603"
            }
        },
        {
            "id": 12299,
            "type": "Feature",
            "geometry": {
                "type": "Point",
                "coordinates": [
                    19.32625,
                    51.74935
                ]
            },
            "properties": {
                "ref:rspo": 12299,
                "official_name": "Szko\u0142a Specjalna Przysposabiaj\u0105ca Do Pracy w Konstantynowie \u0141\u00f3dzkim",
                "name": "Szko\u0142a Specjalna Przysposabiaj\u0105ca Do Pracy w Konstantynowie \u0141\u00f3dzkim",
                "addr:postcode": "95-050",
                "addr:city": "Konstantyn\u00f3w \u0141\u00f3dzki",
                "addr:street": "Zgierska",
                "addr:housenumber": "10",
                "addr:city:simc": 958826,
                "addr:street:sym_ul": 26018,
                "phone": "+48 422111560",
                "email": "zsskonst@interia.pl",
                "ref:regon": "100241999",
                "operator": "Powiat Pabianicki",
                "operator:type": "government",
                "amenity": "school",
                "note": "Parent RSPO: 11603"
            }
        },
        {
            "id": 48936,
            "type": "Feature",
            "geometry": {
                "type": "Point",
                "coordinates": [
                    19.31691,
                    51.74947
                ]
            },
            "properties": {
                "ref:rspo": 48936,
                "official_name": "Niepubliczne Przedszkole \"Barwne Dzieci\"",
                "name": "Niepubliczne Przedszkole \"Barwne Dzieci\"",
                "addr:postcode": "95-050",
                "addr:city": "Konstantyn\u00f3w \u0141\u00f3dzki",
                "addr:street": "Jana Paw\u0142a II",
                "addr:housenumber": "41",
                "addr:city:simc": 958826,
                "addr:street:sym_ul": 7123,
                "phone": "+48 422111304",
                "email": "przedszkole@barwnedzieci.pl",
                "website": "http:\/\/www.barwnedzieci.pl",
                "ref:regon": "101487538",
                "ref:vatin": "PL7311807435",
                "operator": "Agata Majtczak",
                "operator:type": "private",
                "amenity": "kindergarten"
            }
        },
        {
            "id": 6257,
            "type": "Feature",
            "geometry": {
                "type": "Point",
                "coordinates": [
                    19.32633,
                    51.74969
                ]
            },
            "properties": {
                "ref:rspo": 6257,
                "official_name": "Niepubliczne Przedszkole \"Magnolki\"",
                "name": "Niepubliczne Przedszkole \"Magnolki\"",
                "addr:postcode": "95-050",
                "addr:city": "Konstantyn\u00f3w \u0141\u00f3dzki",
                "addr:street": "Zgierska",
                "addr:housenumber": "12",
                "addr:city:simc": 958826,
                "addr:street:sym_ul": 26018,
                "phone": "+48 698646500",
                "email": "magnolki@wp.pl",
                "website": "http:\/\/www.magnolki.pl",
                "ref:regon": "101459097",
                "ref:vatin": "PL7271040050",
                "operator": "Marzena Borowiecka",
                "operator:type": "private",
                "amenity": "kindergarten"
            }
        },
        {
            "id": 48934,
            "type": "Feature",
            "geometry": {
                "type": "Point",
                "coordinates": [
                    19.31944,
                    51.75027
                ]
            },
            "properties": {
                "ref:rspo": 48934,
                "official_name": "Przedszkole Nr 1 Z Grup\u0105 \u017b\u0142obkow\u0105",
                "name": "Przedszkole Nr 1 Z Grup\u0105 \u017b\u0142obkow\u0105",
                "addr:postcode": "95-050",
                "addr:city": "Konstantyn\u00f3w \u0141\u00f3dzki",
                "addr:street": "Ignacego Daszy\u0144skiego",
                "addr:housenumber": "3\/5",
                "addr:city:simc": 958826,
                "addr:street:sym_ul": 3639,
                "phone": "+48 422111606",
                "email": "sekretariat@p1konstantynow.pl",
                "website": "http:\/\/www.bip.p1konstantynow.wikom.pl",
                "ref:regon": "470915534",
                "ref:vatin": "PL7271120582",
                "operator": "Gmina Konstantyn\u00f3w \u0141\u00f3dzki",
                "operator:type": "government",
                "amenity": "kindergarten"
            }
        },
        {
            "id": 72681,
            "type": "Feature",
            "geometry": {
                "type": "Point",
                "coordinates": [
                    19.32225,
                    51.75041
                ]
            },
            "properties": {
                "ref:rspo": 72681,
                "official_name": "Przedszkole Nr 2 Z Oddzia\u0142ami Integracyjnymi I Oddzia\u0142em Specjalnym",
                "name": "Przedszkole Nr 2 Z Oddzia\u0142ami Integracyjnymi I Oddzia\u0142em Specjalnym",
                "addr:postcode": "95-050",
                "addr:city": "Konstantyn\u00f3w \u0141\u00f3dzki",
                "addr:street": "Sadowa",
                "addr:housenumber": "8",
                "addr:city:simc": 958826,
                "addr:street:sym_ul": 19404,
                "phone": "+48 422111790",
                "email": "sekretariat@p2konstantynow.pl",
                "website": "http:\/\/www.bip.p2konstantynow.wikom.pl",
                "ref:regon": "470009801",
                "ref:vatin": "PL7271080931",
                "operator": "Gmina Konstantyn\u00f3w \u0141\u00f3dzki",
                "operator:type": "government",
                "amenity": "kindergarten"
            }
        },
        {
            "id": 278718,
            "type": "Feature",
            "geometry": {
                "type": "Point",
                "coordinates": [
                    19.3687,
                    51.75062
                ]
            },
            "properties": {
                "ref:rspo": 278718,
                "official_name": "Chatka U Puchatka",
                "name": "Chatka U Puchatka",
                "addr:postcode": "95-050",
                "addr:city": "Konstantyn\u00f3w \u0141\u00f3dzki",
                "addr:street": "\u0141\u00f3dzka",
                "addr:housenumber": "173\/175",
                "addr:city:simc": 958826,
                "addr:street:sym_ul": 11710,
                "ref:regon": "520045709",
                "operator": "Robert Szcz\u0119sny",
                "operator:type": "private",
                "amenity": "kindergarten"
            }
        },
        {
            "id": 48933,
            "type": "Feature",
            "geometry": {
                "type": "Point",
                "coordinates": [
                    19.32228,
                    51.7511
                ]
            },
            "properties": {
                "isced:level": "1;2",
                "ref:rspo": 48933,
                "official_name": "Szko\u0142a Podstawowa Nr 5 im. I Armii Wojska Polskiego w Konstantynowie \u0141\u00f3dzkim",
                "name": "Szko\u0142a Podstawowa Nr 5",
                "addr:postcode": "95-050",
                "addr:city": "Konstantyn\u00f3w \u0141\u00f3dzki",
                "addr:street": "Sadowa",
                "addr:housenumber": "5\/7",
                "addr:city:simc": 958826,
                "addr:street:sym_ul": 19404,
                "phone": "+48 422111197",
                "email": "sekretariat@sp5.konstantynow.pl",
                "website": "http:\/\/www.sp5konstantynow.wikom.pl",
                "ref:regon": "470780991",
                "ref:vatin": "PL7271045082",
                "operator": "Gmina Konstantyn\u00f3w \u0141\u00f3dzki",
                "operator:type": "government",
                "amenity": "school"
            }
        },
        {
            "id": 133565,
            "type": "Feature",
            "geometry": {
                "type": "Point",
                "coordinates": [
                    19.30723,
                    51.75112
                ]
            },
            "properties": {
                "ref:rspo": 133565,
                "official_name": "Przedszkole Nr 3 Bajka",
                "name": "Przedszkole Nr 3 Bajka",
                "addr:postcode": "95-050",
                "addr:city": "Konstantyn\u00f3w \u0141\u00f3dzki",
                "addr:street": "Lutomierska",
                "addr:housenumber": "4",
                "addr:city:simc": 958826,
                "addr:street:sym_ul": 11455,
                "phone": "+48 791990199",
                "email": "p3@bajka.konstantynow.pl",
                "website": "https:\/\/p3bajka.bip.gov.pl\/",
                "ref:regon": "367418347",
                "ref:vatin": "PL7312057717",
                "operator": "Gmina Konstantyn\u00f3w \u0141\u00f3dzki",
                "operator:type": "government",
                "amenity": "kindergarten"
            }
        },
        {
            "id": 64698,
            "type": "Feature",
            "geometry": {
                "type": "Point",
                "coordinates": [
                    19.32074,
                    51.75157
                ]
            },
            "properties": {
                "ref:rspo": 64698,
                "official_name": "Centrum J\u0119zyk\u00f3w Obcych \"Jodar\"",
                "name": "Centrum J\u0119zyk\u00f3w Obcych \"Jodar\"",
                "addr:postcode": "95-050",
                "addr:city": "Konstantyn\u00f3w \u0141\u00f3dzki",
                "addr:street": "Majora Henryka Sucharskiego",
                "addr:housenumber": "6",
                "addr:city:simc": 958826,
                "addr:street:sym_ul": 21499,
                "phone": "+48 422112240",
                "email": "jodar@home.pl",
                "website": "http:\/\/www.jodar.pl",
                "ref:regon": "101491050",
                "ref:vatin": "PL7271363416",
                "operator": "Dariusz Czo\u0142nowski",
                "operator:type": "private",
                "fixme": "w zale\u017cno\u015bci od przedmiotu dzia\u0142alno\u015bci (np. amenity=training + training=*, amenity=dancing_school, amenity=language_school, amenity=music_school)"
            }
        },
        {
            "id": 129738,
            "type": "Feature",
            "geometry": {
                "type": "Point",
                "coordinates": [
                    19.32074,
                    51.75154
                ]
            },
            "properties": {
                "ref:rspo": 129738,
                "official_name": "Centrum J\u0119zyk\u00f3w Obcych ,,Jodar\"",
                "name": "Centrum J\u0119zyk\u00f3w Obcych ,,Jodar\"",
                "addr:postcode": "95-050",
                "addr:city": "Konstantyn\u00f3w \u0141\u00f3dzki",
                "addr:street": "Majora Henryka Sucharskiego",
                "addr:housenumber": "6",
                "addr:city:simc": 958826,
                "addr:street:sym_ul": 21499,
                "phone": "+48 422112240",
                "email": "czolnos@o2.pl",
                "ref:regon": "362809706",
                "operator": "Dariusz Czo\u0142nowski",
                "operator:type": "private",
                "fixme": "w zale\u017cno\u015bci od przedmiotu dzia\u0142alno\u015bci (np. amenity=training + training=*, amenity=dancing_school, amenity=language_school, amenity=music_school)"
            }
        },
        {
            "id": 105089,
            "type": "Feature",
            "geometry": {
                "type": "Point",
                "coordinates": [
                    19.26772,
                    51.76056
                ]
            },
            "properties": {
                "ref:rspo": 105089,
                "official_name": "Zak\u0142ad Poprawczy I Schronisko dla Nieletnich w Konstantynowie \u0141\u00f3dzkim",
                "name": "Zak\u0142ad Poprawczy I Schronisko dla Nieletnich w Konstantynowie \u0141\u00f3dzkim",
                "addr:postcode": "95-050",
                "addr:city": "Konstantyn\u00f3w \u0141\u00f3dzki",
                "addr:street": "Ignacew",
                "addr:housenumber": "9",
                "addr:city:simc": 958826,
                "addr:street:sym_ul": 6863,
                "phone": "+48 422111258",
                "email": "sekretariat@konstantynow.zpisdn.gov.pl",
                "website": "http:\/\/www.konstantynow.zpisdn.gov.pl",
                "ref:regon": "000323370",
                "operator": "Ministerstwo Sprawiedliwo\u015bci",
                "operator:type": "public",
                "note": "Children RSPO: 124931;124933"
            }
        },
        {
            "id": 124931,
            "type": "Feature",
            "geometry": {
                "type": "Point",
                "coordinates": [
                    19.26772,
                    51.760529999999996
                ]
            },
            "properties": {
                "isced:level": "1;2",
                "ref:rspo": 124931,
                "official_name": "Szko\u0142a Podstawowa Nr 6 w Zak\u0142adzie Poprawczym I Schronisku dla Nieletnich w Konstantynowie \u0141\u00f3dzkim",
                "name": "Szko\u0142a Podstawowa Nr 6 w Zak\u0142adzie Poprawczym I Schronisku dla Nieletnich w Konstantynowie \u0141\u00f3dzkim",
                "addr:postcode": "95-050",
                "addr:city": "Konstantyn\u00f3w \u0141\u00f3dzki",
                "addr:street": "Ignacew",
                "addr:housenumber": "9",
                "addr:city:simc": 958826,
                "addr:street:sym_ul": 6863,
                "phone": "+48 422111258",
                "email": "sekretariat@konstantynow.zpisdn.gov.pl",
                "website": "http:\/\/www.konstantynow.zpisdn.gov.pl",
                "ref:regon": "101839180",
                "operator": "Ministerstwo Sprawiedliwo\u015bci",
                "operator:type": "public",
                "amenity": "school",
                "note": "Parent RSPO: 105089"
            }
        },
        {
            "id": 124933,
            "type": "Feature",
            "geometry": {
                "type": "Point",
                "coordinates": [
                    19.26772,
                    51.7605
                ]
            },
            "properties": {
                "isced:level": "3",
                "ref:rspo": 124933,
                "official_name": "Bran\u017cowa Szko\u0142a I Stopnia w Zak\u0142adzie Poprawczym I Schronisku dla Nieletnich w Konstantynowie \u0141\u00f3dzkim",
                "name": "Bran\u017cowa Szko\u0142a I Stopnia w Zak\u0142adzie Poprawczym I Schronisku dla Nieletnich w Konstantynowie \u0141\u00f3dzkim",
                "addr:postcode": "95-050",
                "addr:city": "Konstantyn\u00f3w \u0141\u00f3dzki",
                "addr:street": "Ignacew",
                "addr:housenumber": "9",
                "addr:city:simc": 958826,
                "addr:street:sym_ul": 6863,
                "phone": "+48 422111258",
                "email": "sekretariat@konstantynow.zpisdn.gov.pl",
                "website": "http:\/\/www.konstantynow.zpisdn.gov.pl",
                "ref:regon": "101839167",
                "operator": "Ministerstwo Sprawiedliwo\u015bci",
                "operator:type": "public",
                "amenity": "school",
                "note": "Parent RSPO: 105089"
            }
        }
    ]
}