{
    "type": "FeatureCollection",
    "features": [
        {
            "id": 37676,
            "type": "Feature",
            "geometry": {
                "type": "Point",
                "coordinates": [
                    19.41855,
                    51.66269
                ]
            },
            "properties": {
                "isced:level": "1;2",
                "ref:rspo": 37676,
                "official_name": "Szko\u0142a Podstawowa im. Igora Sikiryckiego w Woli Zaradzy\u0144skiej",
                "name": "Szko\u0142a Podstawowa",
                "addr:postcode": "95-054",
                "addr:city": "Wola Zaradzy\u0144ska",
                "addr:street": "\"Majora Henryka Dobrza\u0144skiego \"\"Hubala\"\"\"",
                "addr:housenumber": "55",
                "addr:teryt:simc": 414960,
                "addr:teryt:sym_ul": 6771,
                "phone": "+48 422137346",
                "email": "szkola@spwzaradzynska.pl",
                "website": "http:\/\/www.spwzaradzynska.pl",
                "ref:regon": "001103096",
                "ref:vatin": "PL7311129455",
                "operator": "Gmina Ksawer\u00f3w",
                "operator:type": "government",
                "amenity": "school"
            }
        },
        {
            "id": 133452,
            "type": "Feature",
            "geometry": {
                "type": "Point",
                "coordinates": [
                    19.39742,
                    51.67445
                ]
            },
            "properties": {
                "ref:rspo": 133452,
                "official_name": "E-Maluch",
                "name": "E-Maluch",
                "addr:postcode": "95-054",
                "addr:city": "Ksawer\u00f3w",
                "addr:street": "\u0141\u00f3dzka",
                "addr:housenumber": "106",
                "addr:teryt:simc": 414730,
                "addr:teryt:sym_ul": 11710,
                "phone": "+48 669557485",
                "email": "emaluchrafal@gmail.com",
                "ref:regon": "367335271",
                "operator": "Ma\u0142gorzata Piekarska",
                "operator:type": "private",
                "amenity": "kindergarten"
            }
        },
        {
            "id": 278148,
            "type": "Feature",
            "geometry": {
                "type": "Point",
                "coordinates": [
                    19.4201799,
                    51.67877
                ]
            },
            "properties": {
                "ref:rspo": 278148,
                "official_name": "Przedszkole Niepubliczne Widzimisie",
                "name": "Przedszkole Niepubliczne Widzimisie",
                "addr:postcode": "95-054",
                "addr:city": "Ksawer\u00f3w",
                "addr:street": "Tymiankowa",
                "addr:housenumber": "16",
                "addr:teryt:simc": 414730,
                "addr:teryt:sym_ul": 23245,
                "email": "kontakt@widzimisie.edu.pl",
                "website": "http:\/\/www.widzimisie.edu.pl",
                "ref:regon": "389848266",
                "operator": "Ma\u0142gorzata Florczak",
                "operator:type": "private",
                "amenity": "kindergarten"
            }
        },
        {
            "id": 38766,
            "type": "Feature",
            "geometry": {
                "type": "Point",
                "coordinates": [
                    19.39504,
                    51.6822
                ]
            },
            "properties": {
                "isced:level": "1;2",
                "ref:rspo": 38766,
                "official_name": "Szko\u0142a Podstawowa im. Dr Henryka Jordana w Ksawerowie",
                "name": "Szko\u0142a Podstawowa",
                "addr:postcode": "95-054",
                "addr:city": "Ksawer\u00f3w",
                "addr:street": "Zachodnia",
                "addr:housenumber": "33",
                "addr:teryt:simc": 414730,
                "addr:teryt:sym_ul": 25305,
                "phone": "+48 422158168",
                "email": "sekretariat@spksawerow.pl",
                "website": "http:\/\/www.spksawerow.pl",
                "ref:regon": "000270478",
                "ref:vatin": "PL7311298413",
                "operator": "Gmina Ksawer\u00f3w",
                "operator:type": "government",
                "amenity": "school"
            }
        },
        {
            "id": 38767,
            "type": "Feature",
            "geometry": {
                "type": "Point",
                "coordinates": [
                    19.37878,
                    51.68313
                ]
            },
            "properties": {
                "ref:rspo": 38767,
                "official_name": "Gminne Przedszkole w Widzewie",
                "name": "Gminne Przedszkole w Widzewie",
                "addr:postcode": "95-054",
                "addr:city": "Ksawer\u00f3w",
                "addr:street": "Rzepakowa",
                "addr:housenumber": "12",
                "addr:teryt:simc": 414730,
                "addr:teryt:sym_ul": 19339,
                "phone": "+48 422158354",
                "email": "przedszkole0@op.pl",
                "website": "http:\/\/www.przedszkoleksawerow.pl",
                "ref:regon": "470820733",
                "ref:vatin": "PL7311436772",
                "operator": "Gmina Ksawer\u00f3w",
                "operator:type": "government",
                "amenity": "kindergarten"
            }
        },
        {
            "id": 41285,
            "type": "Feature",
            "geometry": {
                "type": "Point",
                "coordinates": [
                    19.38672,
                    51.68551
                ]
            },
            "properties": {
                "ref:rspo": 41285,
                "official_name": "Zesp\u00f3\u0142 Szk\u00f3\u0142 Centrum Kszta\u0142cenia Rolniczego im. Mjr. Pil. W\u0142adys\u0142awa Szcze\u015bniewskiego w Widzewie",
                "name": "Zesp\u00f3\u0142 Szk\u00f3\u0142 Centrum Kszta\u0142cenia Rolniczego",
                "addr:postcode": "95-054",
                "addr:city": "Widzew",
                "addr:street": "Szkolna",
                "addr:housenumber": "12",
                "addr:teryt:simc": 414760,
                "addr:teryt:sym_ul": 21970,
                "phone": "+48 422158033",
                "email": "sekretariat@zskcr.pl",
                "website": "http:\/\/www.zsr-widzew.pl",
                "ref:regon": "100461407",
                "ref:vatin": "PL7311420245",
                "operator": "Ministerstwo Rolnictwa I Rozwoju Wsi",
                "operator:type": "public",
                "landuse": "education",
                "fixme": "amenity=school, amenity=college albo landuse=education w zale\u017cno\u015bci od tego, jakie plac\u00f3wki wchodz\u0105 w sk\u0142ad zespo\u0142u. Sprawd\u017a, kiedy stosowa\u0107 amenity=* a kiedy landuse=education.",
                "note": "Children RSPO: 52706;52710;56563;56564;276196"
            }
        },
        {
            "id": 52706,
            "type": "Feature",
            "geometry": {
                "type": "Point",
                "coordinates": [
                    19.38672,
                    51.68548
                ]
            },
            "properties": {
                "isced:level": "3",
                "ref:rspo": 52706,
                "official_name": "Technikum w Widzewie",
                "name": "Technikum w Widzewie",
                "addr:postcode": "95-054",
                "addr:city": "Widzew",
                "addr:street": "Szkolna",
                "addr:housenumber": "12",
                "addr:teryt:simc": 414760,
                "addr:teryt:sym_ul": 21970,
                "phone": "+48 422158033",
                "email": "sekretariat@zsckr.pl",
                "website": "http:\/\/www.zsr-widzew.pl",
                "ref:regon": "100468935",
                "operator": "Ministerstwo Rolnictwa I Rozwoju Wsi",
                "operator:type": "public",
                "amenity": "school",
                "note": "Parent RSPO: 41285"
            }
        },
        {
            "id": 52710,
            "type": "Feature",
            "geometry": {
                "type": "Point",
                "coordinates": [
                    19.38672,
                    51.68545
                ]
            },
            "properties": {
                "isced:level": "3",
                "ref:rspo": 52710,
                "official_name": "Bran\u017cowa Szko\u0142a I Stopnia w Widzewie",
                "name": "Bran\u017cowa Szko\u0142a I Stopnia w Widzewie",
                "addr:postcode": "95-054",
                "addr:city": "Widzew",
                "addr:street": "Szkolna",
                "addr:housenumber": "12",
                "addr:teryt:simc": 414760,
                "addr:teryt:sym_ul": 21970,
                "phone": "+48 422158033",
                "email": "sekretariat@zsckr.pl",
                "website": "http:\/\/www.zsr-widzew.pl",
                "ref:regon": "100468929",
                "operator": "Ministerstwo Rolnictwa I Rozwoju Wsi",
                "operator:type": "public",
                "amenity": "school",
                "note": "Parent RSPO: 41285"
            }
        },
        {
            "id": 56563,
            "type": "Feature",
            "geometry": {
                "type": "Point",
                "coordinates": [
                    19.38672,
                    51.68542
                ]
            },
            "properties": {
                "isced:level": "4",
                "ref:rspo": 56563,
                "official_name": "Szko\u0142a Policealna w Widzewie",
                "name": "Szko\u0142a Policealna w Widzewie",
                "addr:postcode": "95-054",
                "addr:city": "Widzew",
                "addr:street": "Szkolna",
                "addr:housenumber": "12",
                "addr:teryt:simc": 414760,
                "addr:teryt:sym_ul": 21970,
                "phone": "+48 422158033",
                "email": "sekretariat@zsckr.pl",
                "website": "http:\/\/www.zsr-widzew.pl",
                "ref:regon": "101333982",
                "operator": "Ministerstwo Rolnictwa I Rozwoju Wsi",
                "operator:type": "public",
                "amenity": "college",
                "note": "Parent RSPO: 41285"
            }
        },
        {
            "id": 56564,
            "type": "Feature",
            "geometry": {
                "type": "Point",
                "coordinates": [
                    19.38672,
                    51.68539
                ]
            },
            "properties": {
                "ref:rspo": 56564,
                "official_name": "Centrum Kszta\u0142cenia Ustawicznego w Widzewie",
                "name": "Centrum Kszta\u0142cenia Ustawicznego w Widzewie",
                "addr:postcode": "95-054",
                "addr:city": "Widzew",
                "addr:street": "Szkolna",
                "addr:housenumber": "12",
                "addr:teryt:simc": 414760,
                "addr:teryt:sym_ul": 21970,
                "phone": "+48 422158033",
                "email": "sekretariat@zsckr.pl",
                "website": "http:\/\/www.zsr-widzew.pl",
                "ref:regon": "101489359",
                "operator": "Ministerstwo Rolnictwa I Rozwoju Wsi",
                "operator:type": "public",
                "fixme": "w zale\u017cno\u015bci od przedmiotu dzia\u0142alno\u015bci (np. amenity=training + training=*, amenity=dancing_school, amenity=language_school, amenity=music_school)",
                "note": "Parent RSPO: 41285"
            }
        },
        {
            "id": 276196,
            "type": "Feature",
            "geometry": {
                "type": "Point",
                "coordinates": [
                    19.38672,
                    51.68536
                ]
            },
            "properties": {
                "isced:level": "3",
                "ref:rspo": 276196,
                "official_name": "Bran\u017cowa Szko\u0142a II Stopnia w Widzewie",
                "name": "Bran\u017cowa Szko\u0142a II Stopnia w Widzewie",
                "addr:postcode": "95-054",
                "addr:city": "Widzew",
                "addr:street": "Szkolna",
                "addr:housenumber": "12",
                "addr:teryt:simc": 414760,
                "addr:teryt:sym_ul": 21970,
                "phone": "+48 422158033",
                "email": "sekretariat@zsrcku.pl",
                "website": "http:\/\/www.zsr-widzew.pl",
                "ref:regon": "387027482",
                "operator": "Ministerstwo Rolnictwa I Rozwoju Wsi",
                "operator:type": "public",
                "amenity": "school",
                "note": "Parent RSPO: 41285"
            }
        },
        {
            "id": 40038,
            "type": "Feature",
            "geometry": {
                "type": "Point",
                "coordinates": [
                    19.39821,
                    51.68572
                ]
            },
            "properties": {
                "ref:rspo": 40038,
                "official_name": "Przedszkole Zgromadzenia Si\u00f3str Karmelitanek Dzieci\u0105tka Jezus",
                "name": "Przedszkole Zgromadzenia Si\u00f3str Karmelitanek Dzieci\u0105tka Jezus",
                "addr:postcode": "95-054",
                "addr:city": "Ksawer\u00f3w",
                "addr:street": "Gwiezdna",
                "addr:housenumber": "16",
                "addr:teryt:simc": 414730,
                "addr:teryt:sym_ul": 6424,
                "phone": "+48 422138361",
                "email": "kontakt@przedszkole-karmelitanek.pl",
                "website": "http:\/\/przedszkole-karmelitanek.pl",
                "ref:regon": "101487580",
                "ref:vatin": "PL7311718826",
                "operator": "Zgromadzenie Si\u00f3str Karmelitanek Dzieci\u0105tka Jezus, Prowincja \u0141\u00f3dzka",
                "operator:type": "religious",
                "amenity": "kindergarten"
            }
        }
    ]
}