{"type":"FeatureCollection","features":[{"id":111078,"type":"Feature","geometry":{"type":"Point","coordinates":[19.2185,51.75046]},"properties":{"isced:level":"1;2","ref:rspo":111078,"official_name":"Szko\u0142a Podstawowa im. Or\u0142a Bia\u0142ego w Lutomiersku","name":"Szko\u0142a Podstawowa","addr:country":"PL","addr:postcode":"95-083","addr:city":"Lutomiersk","addr:street":"ul. Pi\u0142sudskiego","addr:housenumber":"1","addr:teryt:simc":16252,"addr:teryt:sym_ul":705893,"contact:phone":"+48 436775102","contact:email":"szkola_lutomiersk@lutomiersk.pl","contact:website":"https:\/\/splutomiersk.edupage.org","ref:regon":"000271638","ref:vatin":"PL7311994360","operator":"Gmina Lutomiersk","operator:type":"government","amenity":"school"}},{"id":106647,"type":"Feature","geometry":{"type":"Point","coordinates":[19.21874,51.75544]},"properties":{"ref:rspo":106647,"official_name":"Zesp\u00f3\u0142 Szk\u00f3\u0142 Salezja\u0144skich im. Ks. Antoniego Chlondowskiego w Lutomiersku","name":"Zesp\u00f3\u0142 Szk\u00f3\u0142 Salezja\u0144skich","addr:country":"PL","addr:postcode":"95-083","addr:city":"Lutomiersk","addr:street":"ul. Kopernika","addr:housenumber":"3","addr:teryt:simc":9276,"addr:teryt:sym_ul":705893,"contact:phone":"+48 436774980","contact:email":"lutomiersk@salezjanie.pl","contact:website":"http:\/\/lutomiersk.salezjanie.pl","ref:regon":"101094750","operator":"Towarzystwo Salezja\u0144skie - Inspektoria (Prowincja) \u015aw.stanis\u0142awa Kostki","operator:type":"religious","landuse":"education","fixme":"amenity=school, amenity=college albo landuse=education w zale\u017cno\u015bci od tego, jakie plac\u00f3wki wchodz\u0105 w sk\u0142ad zespo\u0142u. Sprawd\u017a, kiedy stosowa\u0107 amenity=* a kiedy landuse=education.","note":"Children RSPO: 106180;109162;271157"}},{"id":106180,"type":"Feature","geometry":{"type":"Point","coordinates":[19.21874,51.75541]},"properties":{"isced:level":"3","ref:rspo":106180,"official_name":"Salezja\u0144ska Og\u00f3lnokszta\u0142c\u0105ca Szko\u0142a Muzyczna II St. im. Ks. Antoniego Chlondowskiego w Lutomiersku","name":"Salezja\u0144ska Og\u00f3lnokszta\u0142c\u0105ca Szko\u0142a Muzyczna II St.","addr:country":"PL","addr:postcode":"95-083","addr:city":"Lutomiersk","addr:street":"ul. Kopernika","addr:housenumber":"3","addr:teryt:simc":9276,"addr:teryt:sym_ul":705893,"contact:phone":"+48 422369110","ref:regon":"101567585","operator":"Towarzystwo Salezja\u0144skie - Inspektoria (Prowincja) \u015aw.stanis\u0142awa Kostki","operator:type":"religious","amenity":"school","note":"Parent RSPO: 106647"}},{"id":109162,"type":"Feature","geometry":{"type":"Point","coordinates":[19.21874,51.75538]},"properties":{"ref:rspo":109162,"official_name":"Salezja\u0144ska Szko\u0142a Muzyczna II St. im. Ks. Antoniego Chlondowskiego w Lutomiersku","name":"Salezja\u0144ska Szko\u0142a Muzyczna II St.","addr:country":"PL","addr:postcode":"95-083","addr:city":"Lutomiersk","addr:street":"ul. Miko\u0142aja Kopernika","addr:housenumber":"3","addr:teryt:simc":9282,"addr:teryt:sym_ul":705893,"contact:phone":"+48 422369110","ref:regon":"101548116","operator":"Towarzystwo Salezja\u0144skie - Inspektoria (Prowincja) \u015aw.stanis\u0142awa Kostki","operator:type":"religious","amenity":"music_school","note":"Parent RSPO: 106647"}},{"id":271157,"type":"Feature","geometry":{"type":"Point","coordinates":[19.21874,51.75535]},"properties":{"ref:rspo":271157,"official_name":"Salezja\u0144ska Szko\u0142a Muzyczna I St. im. Ks. Antoniego Chlondowskiego w Lutomiersku","name":"Salezja\u0144ska Szko\u0142a Muzyczna I St.","addr:country":"PL","addr:postcode":"95-083","addr:city":"Lutomiersk","addr:street":"ul. Kopernika","addr:housenumber":"3","addr:teryt:simc":9276,"addr:teryt:sym_ul":705893,"contact:phone":"+48 422369110","contact:email":"lutomiersk@salezjanie.pl","contact:website":"http:\/\/lutomiersk.salezjanie.pl","ref:regon":"383125153","operator":"Towarzystwo Salezja\u0144skie - Inspektoria (Prowincja) \u015aw.stanis\u0142awa Kostki","operator:type":"religious","amenity":"music_school","note":"Parent RSPO: 106647"}},{"id":111333,"type":"Feature","geometry":{"type":"Point","coordinates":[19.21272,51.76408]},"properties":{"ref:rspo":111333,"official_name":"Przedszkole Niepubliczne Zgromadzenia Si\u00f3str Urszulanek Sjk \u015aw. Urszuli Led\u00f3chowskiej w Kazimierzu","name":"Przedszkole Niepubliczne Zgromadzenia Si\u00f3str Urszulanek Sjk \u015aw. Urszuli Led\u00f3chowskiej w Kazimierzu","addr:country":"PL","addr:postcode":"95-083","addr:city":"Kazimierz","addr:street":"ul. Jana Kili\u0144skiego","addr:housenumber":"50","addr:teryt:simc":8435,"addr:teryt:sym_ul":705812,"contact:phone":"+48 436776396","contact:email":"przedszkolekazimierz@op.pl","ref:regon":"101568202","ref:vatin":"PL7311896545","operator":"Centrum \u0141\u00f3dzko-Sieradzkie Zgromadzenie Si\u00f3str Urszulanek Serca Jezusa Konaj\u0105cego","operator:type":"religious","amenity":"kindergarten"}},{"id":47264,"type":"Feature","geometry":{"type":"Point","coordinates":[19.21183,51.76887]},"properties":{"isced:level":"1;2","ref:rspo":47264,"official_name":"Szko\u0142a Podstawowa im.marii Konopnickiej\nW Kazimierzu","name":"Szko\u0142a Podstawowa im.marii Konopnickiej\nW Kazimierzu","addr:country":"PL","addr:postcode":"95-083","addr:city":"Kazimierz","addr:street":"ul. Sienkiewicza","addr:housenumber":"25","addr:teryt:simc":19830,"addr:teryt:sym_ul":705812,"contact:phone":"+48 436776026","contact:email":"szkola_kazimierz@op.pl","ref:regon":"001150121","ref:vatin":"PL7311994354","operator":"Gmina Lutomiersk","operator:type":"government","amenity":"school"}},{"id":129141,"type":"Feature","geometry":{"type":"Point","coordinates":[19.26744,51.77203]},"properties":{"ref:rspo":129141,"official_name":"Niepubliczny Punkt Przedszkolny Le\u015bne Dzieci","name":"Niepubliczny Punkt Przedszkolny Le\u015bne Dzieci","addr:country":"PL","addr:postcode":"95-083","addr:city":"Babiczki","addr:street":"ul. Lipowa","addr:housenumber":"29","addr:teryt:simc":11139,"addr:teryt:sym_ul":705628,"contact:phone":"+48 790565876","ref:regon":"362492095","operator":"Monika Podpora-\u015awirk","operator:type":"private","amenity":"kindergarten"}},{"id":59818,"type":"Feature","geometry":{"type":"Point","coordinates":[19.12441,51.7904]},"properties":{"isced:level":"1;2","ref:rspo":59818,"official_name":"Szko\u0142a Podstawowa im. Adama Mickiewicza \nW Szyd\u0142owie","name":"Szko\u0142a Podstawowa","addr:country":"PL","addr:postcode":"95-083","addr:place":"Szyd\u0142\u00f3w","addr:housenumber":"1","addr:teryt:sym_ul":706160,"contact:phone":"+48 436775628","contact:email":"spszydlow1@wp.pl","contact:website":"http:\/\/spszydlow1.edupage.org","ref:regon":"001150138","ref:vatin":"PL7311994377","operator":"Gmina Lutomiersk","operator:type":"government","amenity":"school"}}]}