{
    "type": "FeatureCollection",
    "features": [
        {
            "id": 278640,
            "type": "Feature",
            "geometry": {
                "type": "Point",
                "coordinates": [
                    20.89182,
                    52.23926
                ]
            },
            "properties": {
                "ref:rspo": 278640,
                "official_name": "Niepubliczne Przedszkole Zielona Polana",
                "name": "Niepubliczne Przedszkole Zielona Polana",
                "addr:postcode": "05-082",
                "addr:city": "Blizne \u0141aszczy\u0144skiego",
                "addr:street": "Go\u015bcinna",
                "addr:housenumber": "15\/19",
                "addr:city:simc": 8651,
                "addr:street:sym_ul": 5876,
                "phone": "+48 507028666",
                "email": "kontakt@przedszkolezielonapolana.pl",
                "website": "http:\/\/www.przedszkolezielonapolana.pl",
                "ref:regon": "520007198",
                "operator": "Dobra Edukacja Sp\u00f3\u0142ka Z Ograniczon\u0105 Odpowiedzialno\u015bci\u0105",
                "operator:type": "private",
                "amenity": "kindergarten"
            }
        },
        {
            "id": 278320,
            "type": "Feature",
            "geometry": {
                "type": "Point",
                "coordinates": [
                    20.87404,
                    52.24165
                ]
            },
            "properties": {
                "isced:level": "3",
                "ref:rspo": 278320,
                "official_name": "Niepubliczne Liceum Og\u00f3lnokszta\u0142c\u0105ce Fundacji Adys",
                "name": "Niepubliczne Liceum Og\u00f3lnokszta\u0142c\u0105ce Fundacji Adys",
                "addr:postcode": "05-082",
                "addr:city": "Lubicz\u00f3w",
                "addr:street": "Warszawska",
                "addr:housenumber": "65b",
                "addr:city:simc": 8898,
                "addr:street:sym_ul": 23682,
                "phone": "+48 222167356",
                "email": "adys@adys.edu.pl",
                "website": "http:\/\/www.adys.edu.pl",
                "ref:regon": "389858129",
                "operator": "Fundacja Adys",
                "operator:type": "ngo",
                "amenity": "school"
            }
        },
        {
            "id": 278442,
            "type": "Feature",
            "geometry": {
                "type": "Point",
                "coordinates": [
                    20.87404,
                    52.24162
                ]
            },
            "properties": {
                "isced:level": "1;2",
                "ref:rspo": 278442,
                "official_name": "Niepubliczna Szko\u0142a Podstawowa Fundacji Adys",
                "name": "Niepubliczna Szko\u0142a Podstawowa Fundacji Adys",
                "addr:postcode": "05-082",
                "addr:city": "Lubicz\u00f3w",
                "addr:street": "Warszawska",
                "addr:housenumber": "65b",
                "addr:city:simc": 8898,
                "addr:street:sym_ul": 23682,
                "phone": "+48 222167356",
                "email": "adys@adys.edu.pl",
                "website": "http:\/\/www.adys.edu.pl",
                "ref:regon": "389895277",
                "operator": "Fundacja Adys",
                "operator:type": "ngo",
                "amenity": "school"
            }
        },
        {
            "id": 128589,
            "type": "Feature",
            "geometry": {
                "type": "Point",
                "coordinates": [
                    20.87571,
                    52.24183
                ]
            },
            "properties": {
                "isced:level": "1;2",
                "ref:rspo": 128589,
                "official_name": "\"Big Ben\" Niepubliczna Polsko-Brytyjska Szko\u0142a Podstawowa",
                "name": "\"Big Ben\" Niepubliczna Polsko-Brytyjska Szko\u0142a Podstawowa",
                "addr:postcode": "05-082",
                "addr:city": "Lubicz\u00f3w",
                "addr:street": "Warszawska",
                "addr:housenumber": "57",
                "addr:city:simc": 8898,
                "addr:street:sym_ul": 23682,
                "phone": "+48 517951287",
                "email": "a.warzycha-druzd@big-ben.edu.pl",
                "website": "http:\/\/www.big-ben.edu.pl",
                "ref:regon": "362332664",
                "ref:vatin": "PL5222723865",
                "operator": "Nova Szko\u0142a  Sp\u00f3\u0142ka Z Ograniczon\u0105 Odpowiedzialno\u015bci\u0105",
                "operator:type": "private",
                "amenity": "school"
            }
        },
        {
            "id": 52984,
            "type": "Feature",
            "geometry": {
                "type": "Point",
                "coordinates": [
                    20.883583,
                    52.243455
                ]
            },
            "properties": {
                "isced:level": "1;2",
                "ref:rspo": 52984,
                "official_name": "Niepubliczna Szko\u0142a Podstawowa Nr 61 Pro Futuro Z Oddzia\u0142ami Dwuj\u0119zycznymi",
                "name": "Niepubliczna Szko\u0142a Podstawowa Nr 61 Pro Futuro Z Oddzia\u0142ami Dwuj\u0119zycznymi",
                "addr:postcode": "05-082",
                "addr:city": "Blizne \u0141aszczy\u0144skiego",
                "addr:street": "Przysz\u0142o\u015bci",
                "addr:housenumber": "4",
                "addr:city:simc": 8651,
                "addr:street:sym_ul": 18000,
                "phone": "+48 228613130",
                "email": "sekretariat@profuturo.edu.pl",
                "website": "http:\/\/www.profuturo.edu.pl",
                "ref:regon": "146396045",
                "ref:vatin": "PL5222821473",
                "operator": "Szko\u0142y I Przedszkola Pro Futuro Sp\u00f3\u0142ka Z Ograniczon\u0105 Odpowiedzialno\u015bci\u0105",
                "operator:type": "private",
                "amenity": "school"
            }
        },
        {
            "id": 276176,
            "type": "Feature",
            "geometry": {
                "type": "Point",
                "coordinates": [
                    20.883583,
                    52.243424999999995
                ]
            },
            "properties": {
                "isced:level": "3",
                "ref:rspo": 276176,
                "official_name": "Niepubliczne Liceum Og\u00f3lnokszta\u0142c\u0105ce Pro Futuro Z Oddzia\u0142ami Dwuj\u0119zycznymi",
                "name": "Niepubliczne Liceum Og\u00f3lnokszta\u0142c\u0105ce Pro Futuro Z Oddzia\u0142ami Dwuj\u0119zycznymi",
                "addr:postcode": "05-082",
                "addr:city": "Blizne \u0141aszczy\u0144skiego",
                "addr:street": "Przysz\u0142o\u015bci",
                "addr:housenumber": "4",
                "addr:city:simc": 8651,
                "addr:street:sym_ul": 18000,
                "email": "sekretariat@profuturo.edu.pl",
                "website": "http:\/\/profuturo.edu.pl\/liceum\/",
                "ref:regon": "387017354",
                "operator": "Szko\u0142y I Przedszkola Pro Futuro Sp\u00f3\u0142ka Z Ograniczon\u0105 Odpowiedzialno\u015bci\u0105",
                "operator:type": "private",
                "amenity": "school"
            }
        },
        {
            "id": 277272,
            "type": "Feature",
            "geometry": {
                "type": "Point",
                "coordinates": [
                    20.883583,
                    52.243395
                ]
            },
            "properties": {
                "ref:rspo": 277272,
                "official_name": "Poradnia Psychologiczno-Pedagogiczna Pro Futuro",
                "name": "Poradnia Psychologiczno-Pedagogiczna Pro Futuro",
                "addr:postcode": "05-082",
                "addr:city": "Blizne \u0141aszczy\u0144skiego",
                "addr:street": "Przysz\u0142o\u015bci",
                "addr:housenumber": "4",
                "addr:city:simc": 8651,
                "addr:street:sym_ul": 18000,
                "email": "sekretariat@profuturo.edu.pl",
                "website": "http:\/\/profuturo.edu.pl\/",
                "ref:regon": "388484885",
                "operator": "Szko\u0142y I Przedszkola Pro Futuro Sp\u00f3\u0142ka Z Ograniczon\u0105 Odpowiedzialno\u015bci\u0105",
                "operator:type": "private",
                "healthcare": "counselling",
                "counselling_type": "education",
                "fixme": "w zale\u017cno\u015bci od przedmiotu dzia\u0142alno\u015bci (np. healthcare=counselling + counselling_type=education albo healthcare=psychotherapist)"
            }
        },
        {
            "id": 21807,
            "type": "Feature",
            "geometry": {
                "type": "Point",
                "coordinates": [
                    20.8815,
                    52.24353
                ]
            },
            "properties": {
                "ref:rspo": 21807,
                "official_name": "Przedszkole w Bliznem Jasi\u0144skiego",
                "name": "Przedszkole w Bliznem Jasi\u0144skiego",
                "addr:postcode": "05-082",
                "addr:city": "Blizne Jasi\u0144skiego",
                "addr:street": "Tadeusza Ko\u015bciuszki",
                "addr:housenumber": "1B",
                "addr:city:simc": 8645,
                "addr:street:sym_ul": 9582,
                "phone": "+48 227211569",
                "email": "info@przedszkoleblizne.edu.pl",
                "website": "http:\/\/www.przedszkoleblizne.edu.pl",
                "ref:regon": "142446094",
                "ref:vatin": "PL1182036115",
                "operator": "Gmina Stare Babice",
                "operator:type": "government",
                "amenity": "kindergarten"
            }
        },
        {
            "id": 133420,
            "type": "Feature",
            "geometry": {
                "type": "Point",
                "coordinates": [
                    20.81892,
                    52.24394
                ]
            },
            "properties": {
                "isced:level": "1;2",
                "ref:rspo": 133420,
                "official_name": "Szko\u0142a Podstawowa im. Genera\u0142a Mariusza Zaruskiego w Zielonkach- Parceli",
                "name": "Szko\u0142a Podstawowa",
                "addr:postcode": "05-082",
                "addr:city": "Zielonki-Parcela",
                "addr:street": "Po\u0142udniowa",
                "addr:housenumber": "2",
                "addr:city:simc": 9047,
                "addr:street:sym_ul": 17070,
                "phone": "+48 224871800",
                "email": "dyrektor@szkola-zielonki.pl",
                "ref:regon": "367263264",
                "operator": "Gmina Stare Babice",
                "operator:type": "government",
                "amenity": "school"
            }
        },
        {
            "id": 113488,
            "type": "Feature",
            "geometry": {
                "type": "Point",
                "coordinates": [
                    20.88307,
                    52.2449
                ]
            },
            "properties": {
                "ref:rspo": 113488,
                "official_name": "Niepubliczne Przedszkole Integracyjne \"Zielone S\u0142onie\"",
                "name": "Niepubliczne Przedszkole Integracyjne \"Zielone S\u0142onie\"",
                "addr:postcode": "05-082",
                "addr:city": "Blizne \u0141aszczy\u0144skiego",
                "addr:street": "\u0141aszczy\u0144skiego",
                "addr:housenumber": "3A",
                "addr:city:simc": 8651,
                "addr:street:sym_ul": 11540,
                "phone": "+48 532722037",
                "email": "kontakt@zieloneslonie.edu.pl",
                "website": "http:\/\/www.przedszkolezieloneslonie.pl",
                "ref:regon": "146620560",
                "ref:vatin": "PL5223002211",
                "operator": "Fundacja Na Rzecz Kszta\u0142towania Proekologicznych Postaw Spo\u0142ecznych Junona",
                "operator:type": "ngo",
                "amenity": "kindergarten"
            }
        },
        {
            "id": 39020,
            "type": "Feature",
            "geometry": {
                "type": "Point",
                "coordinates": [
                    20.87419,
                    52.24501
                ]
            },
            "properties": {
                "ref:rspo": 39020,
                "official_name": "Niepubliczne Przedszkole \"Weso\u0142y Brzd\u0105c\"",
                "name": "Niepubliczne Przedszkole \"Weso\u0142y Brzd\u0105c\"",
                "addr:postcode": "05-082",
                "addr:city": "Blizne Jasi\u0144skiego",
                "addr:street": "Tadeusza Ko\u015bciuszki",
                "addr:housenumber": "33",
                "addr:city:simc": 8645,
                "addr:street:sym_ul": 9582,
                "phone": "+48 509857222",
                "email": "kontakt@wesolybrzdac.pl",
                "website": "http:\/\/www.wesoly-brzdac.pl",
                "ref:regon": "146399954",
                "ref:vatin": "PL5222575560",
                "operator": "Grzegorz Weso\u0142owski",
                "operator:type": "private",
                "amenity": "kindergarten"
            }
        },
        {
            "id": 113971,
            "type": "Feature",
            "geometry": {
                "type": "Point",
                "coordinates": [
                    20.87779,
                    52.24509
                ]
            },
            "properties": {
                "ref:rspo": 113971,
                "official_name": "Poradnia Psychologiczno-Pedagogiczna w Bliznem Jasi\u0144skiego",
                "name": "Poradnia Psychologiczno-Pedagogiczna w Bliznem Jasi\u0144skiego",
                "addr:postcode": "05-082",
                "addr:city": "Blizne Jasi\u0144skiego",
                "addr:street": "Miko\u0142aja Kopernika",
                "addr:housenumber": "10",
                "addr:city:simc": 8645,
                "addr:street:sym_ul": 9282,
                "phone": "+48 227220570",
                "email": "sekretariat_blizne@zpppblonie.pl",
                "website": "http:\/\/www.zpppblonie.pl",
                "ref:regon": "146640433",
                "operator": "Powiat Warszawski Zachodni",
                "operator:type": "government",
                "healthcare": "counselling",
                "counselling_type": "education",
                "fixme": "w zale\u017cno\u015bci od przedmiotu dzia\u0142alno\u015bci (np. healthcare=counselling + counselling_type=education albo healthcare=psychotherapist)",
                "note": "Parent RSPO: 8053"
            }
        },
        {
            "id": 79032,
            "type": "Feature",
            "geometry": {
                "type": "Point",
                "coordinates": [
                    20.8556473,
                    52.2466364
                ]
            },
            "properties": {
                "ref:rspo": 79032,
                "official_name": "Niepubliczne Przedszkole Integracyjne \"T\u0119cza\"",
                "name": "Niepubliczne Przedszkole Integracyjne \"T\u0119cza\"",
                "addr:postcode": "05-082",
                "addr:city": "Latchorzew",
                "addr:street": "W\u0142adys\u0142awa Reymonta",
                "addr:housenumber": "1",
                "addr:city:simc": 8875,
                "addr:street:sym_ul": 18648,
                "phone": "+48 516041315",
                "email": "teczap1@wp.pl",
                "website": "http:\/\/www.przedszkole-tecza.edu.pl",
                "ref:regon": "146414620",
                "ref:vatin": "PL5222894012",
                "operator": "\"Wawrzyszko\" Sp\u00f3\u0142ka Jawna",
                "operator:type": "private",
                "amenity": "kindergarten"
            }
        },
        {
            "id": 278381,
            "type": "Feature",
            "geometry": {
                "type": "Point",
                "coordinates": [
                    20.84141,
                    52.25014
                ]
            },
            "properties": {
                "ref:rspo": 278381,
                "official_name": "Niepubliczne Przedszkole Mazanki",
                "name": "Niepubliczne Przedszkole Mazanki",
                "addr:postcode": "05-082",
                "addr:city": "Stare Babice",
                "addr:street": "Marsza\u0142ka J\u00f3zefa Pi\u0142sudskiego",
                "addr:housenumber": "3",
                "addr:city:simc": 8964,
                "addr:street:sym_ul": 16274,
                "phone": "+48 609005150",
                "email": "kontakt@mazanki.pl",
                "ref:regon": "389873258",
                "operator": "Mazanki Natalia Le\u015bniewska-Szmajda",
                "operator:type": "consortium",
                "amenity": "kindergarten"
            }
        },
        {
            "id": 19763,
            "type": "Feature",
            "geometry": {
                "type": "Point",
                "coordinates": [
                    20.7391599,
                    52.25169
                ]
            },
            "properties": {
                "ref:rspo": 19763,
                "official_name": "Zesp\u00f3\u0142 Szkolno-Przedszkolny w Borz\u0119cinie Du\u017cym",
                "name": "Zesp\u00f3\u0142 Szkolno-Przedszkolny w Borz\u0119cinie Du\u017cym",
                "addr:postcode": "05-083",
                "addr:city": "Borz\u0119cin Du\u017cy",
                "addr:street": "Warszawska",
                "addr:housenumber": "697",
                "addr:city:simc": 8668,
                "addr:street:sym_ul": 23682,
                "phone": "+48 227520524",
                "email": "sekretariat@zspborzecin.pl",
                "website": "http:\/\/www.babice-stare.waw.pl\/index2.php?op=48go=3",
                "ref:regon": "016676328",
                "ref:vatin": "PL1181573733",
                "operator": "Gmina Stare Babice",
                "operator:type": "government",
                "landuse": "education",
                "fixme": "amenity=school, amenity=college albo landuse=education w zale\u017cno\u015bci od tego, jakie plac\u00f3wki wchodz\u0105 w sk\u0142ad zespo\u0142u. Sprawd\u017a, kiedy stosowa\u0107 amenity=* a kiedy landuse=education.",
                "note": "Children RSPO: 21714;39022"
            }
        },
        {
            "id": 21714,
            "type": "Feature",
            "geometry": {
                "type": "Point",
                "coordinates": [
                    20.7391599,
                    52.25166
                ]
            },
            "properties": {
                "ref:rspo": 21714,
                "official_name": "Przedszkole w Borz\u0119cinie Du\u017cym",
                "name": "Przedszkole w Borz\u0119cinie Du\u017cym",
                "addr:postcode": "05-083",
                "addr:city": "Borz\u0119cin Du\u017cy",
                "addr:street": "Warszawska",
                "addr:housenumber": "697",
                "addr:city:simc": 8668,
                "addr:street:sym_ul": 23682,
                "phone": "+48 227520524",
                "email": "sekretariat@zspborzecin.pl",
                "ref:regon": "016676357",
                "operator": "Gmina Stare Babice",
                "operator:type": "government",
                "amenity": "kindergarten",
                "note": "Parent RSPO: 19763"
            }
        },
        {
            "id": 39022,
            "type": "Feature",
            "geometry": {
                "type": "Point",
                "coordinates": [
                    20.7391599,
                    52.251630000000006
                ]
            },
            "properties": {
                "isced:level": "1;2",
                "ref:rspo": 39022,
                "official_name": "Szko\u0142a Podstawowa im.armii Krajowej Grupy Kampinos w Borz\u0119cinie Du\u017cym",
                "name": "Szko\u0142a Podstawowa im.armii Krajowej Grupy Kampinos w Borz\u0119cinie Du\u017cym",
                "addr:postcode": "05-083",
                "addr:city": "Borz\u0119cin Du\u017cy",
                "addr:street": "Warszawska",
                "addr:housenumber": "697",
                "addr:city:simc": 8668,
                "addr:street:sym_ul": 23682,
                "phone": "+48 227520524",
                "email": "sekretariat@zspborzecin.pl",
                "website": "http:\/\/www.babice-stare.waw.pl\/index2.php?op=48go=3",
                "ref:regon": "001146616",
                "ref:vatin": "PL1180745126",
                "operator": "Gmina Stare Babice",
                "operator:type": "government",
                "amenity": "school",
                "note": "Parent RSPO: 19763"
            }
        },
        {
            "id": 93066,
            "type": "Feature",
            "geometry": {
                "type": "Point",
                "coordinates": [
                    20.82203,
                    52.25195
                ]
            },
            "properties": {
                "ref:rspo": 93066,
                "official_name": "Niepubliczne Przedszkole \"Irena Sobkowicz\"",
                "name": "Niepubliczne Przedszkole \"Irena Sobkowicz\"",
                "addr:postcode": "05-082",
                "addr:city": "Zielonki-Parcela",
                "addr:street": "Wieruchowska",
                "addr:housenumber": "87",
                "addr:city:simc": 9047,
                "addr:street:sym_ul": 24149,
                "phone": "+48 227331184",
                "email": "ol.sobkowicz@gmail.com",
                "website": "http:\/\/www.przedszkolak.waw.pl",
                "ref:regon": "146436655",
                "ref:vatin": "PL5211261929",
                "operator": "Irena Sobkowicz",
                "operator:type": "private",
                "amenity": "kindergarten"
            }
        },
        {
            "id": 128586,
            "type": "Feature",
            "geometry": {
                "type": "Point",
                "coordinates": [
                    20.85437,
                    52.25256
                ]
            },
            "properties": {
                "ref:rspo": 128586,
                "official_name": "Niepubliczne Przedszkole \"Krasnoludki Hop\"",
                "name": "Niepubliczne Przedszkole \"Krasnoludki Hop\"",
                "addr:postcode": "05-082",
                "addr:city": "Latchorzew",
                "addr:street": "Szarych Szereg\u00f3w",
                "addr:housenumber": "7",
                "addr:city:simc": 8875,
                "addr:street:sym_ul": 21787,
                "phone": "+48 603452047",
                "email": "beatamanelska@wp.pl",
                "website": "http:\/\/www.krasnoludki.edu.pl",
                "ref:regon": "362332629",
                "ref:vatin": "PL8792226148",
                "operator": "Beata Manelska",
                "operator:type": "private",
                "amenity": "kindergarten"
            }
        },
        {
            "id": 104575,
            "type": "Feature",
            "geometry": {
                "type": "Point",
                "coordinates": [
                    20.86366,
                    52.25277
                ]
            },
            "properties": {
                "ref:rspo": 104575,
                "official_name": "Niepubliczne Przedszkole \"Je\u017cyk\"",
                "name": "Niepubliczne Przedszkole \"Je\u017cyk\"",
                "addr:postcode": "05-082",
                "addr:city": "Latchorzew",
                "addr:street": "Aleksandra Janowskiego",
                "addr:housenumber": "17",
                "addr:city:simc": 8875,
                "addr:street:sym_ul": 7206,
                "phone": "+48 227220257",
                "email": "kontakt@jezyk.edu.pl",
                "website": "http:\/\/www.jezyk.edu.pl",
                "ref:regon": "146458409",
                "ref:vatin": "PL8231602861",
                "operator": "Monika Skwarska",
                "operator:type": "private",
                "amenity": "kindergarten"
            }
        },
        {
            "id": 118815,
            "type": "Feature",
            "geometry": {
                "type": "Point",
                "coordinates": [
                    20.8479195,
                    52.2539347
                ]
            },
            "properties": {
                "isced:level": "1;2",
                "ref:rspo": 118815,
                "official_name": "Niepubliczna Szko\u0142a Podstawowa \"Edulab\"",
                "name": "Niepubliczna Szko\u0142a Podstawowa \"Edulab\"",
                "addr:postcode": "05-082",
                "addr:city": "Stare Babice",
                "addr:street": "Genera\u0142a W\u0142adys\u0142awa Sikorskiego",
                "addr:housenumber": "9",
                "addr:city:simc": 8964,
                "addr:street:sym_ul": 19907,
                "phone": "+48 605449412",
                "email": "karolina.kozak@edulab.edu.pl",
                "website": "http:\/\/www.edulab.edu.pl",
                "ref:regon": "146821815",
                "ref:vatin": "PL1182085556",
                "operator": "Fundacja Laboratorium Edukacyjne Edulab",
                "operator:type": "ngo",
                "amenity": "school"
            }
        },
        {
            "id": 127342,
            "type": "Feature",
            "geometry": {
                "type": "Point",
                "coordinates": [
                    20.8479195,
                    52.2539047
                ]
            },
            "properties": {
                "ref:rspo": 127342,
                "official_name": "Niepubliczna Poradnia Psychologiczno-Pedagogiczna Edulab",
                "name": "Niepubliczna Poradnia Psychologiczno-Pedagogiczna Edulab",
                "addr:postcode": "05-082",
                "addr:city": "Stare Babice",
                "addr:street": "Genera\u0142a W\u0142adys\u0142awa Sikorskiego",
                "addr:housenumber": "9",
                "addr:city:simc": 8964,
                "addr:street:sym_ul": 19907,
                "phone": "+48 605449412",
                "email": "szkola@edulab.edu.pl",
                "website": "http:\/\/www.edulab.edu.pl\/",
                "ref:regon": "361387841",
                "operator": "Fundacja Laboratorium Edukacyjne Edulab",
                "operator:type": "ngo",
                "healthcare": "counselling",
                "counselling_type": "education",
                "fixme": "w zale\u017cno\u015bci od przedmiotu dzia\u0142alno\u015bci (np. healthcare=counselling + counselling_type=education albo healthcare=psychotherapist)"
            }
        },
        {
            "id": 19364,
            "type": "Feature",
            "geometry": {
                "type": "Point",
                "coordinates": [
                    20.84117,
                    52.25398
                ]
            },
            "properties": {
                "isced:level": "1;2",
                "ref:rspo": 19364,
                "official_name": "Szko\u0142a Podstawowa im. Henryka Sienkiewicza w Starych Babicach",
                "name": "Szko\u0142a Podstawowa",
                "addr:postcode": "05-082",
                "addr:city": "Stare Babice",
                "addr:street": "Polna",
                "addr:housenumber": "40",
                "addr:city:simc": 8964,
                "addr:street:sym_ul": 17011,
                "phone": "+48 227229129",
                "email": "szkola-starebabice@wp.pl",
                "website": "http:\/\/www.spstarebabice.szkolnastrona.pl",
                "ref:regon": "000272566",
                "ref:vatin": "PL1180745155",
                "operator": "Gmina Stare Babice",
                "operator:type": "government",
                "amenity": "school"
            }
        },
        {
            "id": 39019,
            "type": "Feature",
            "geometry": {
                "type": "Point",
                "coordinates": [
                    20.84117,
                    52.253949999999996
                ]
            },
            "properties": {
                "ref:rspo": 39019,
                "official_name": "Przedszkole w Starych Babicach",
                "name": "Przedszkole w Starych Babicach",
                "addr:postcode": "05-082",
                "addr:city": "Stare Babice",
                "addr:street": "Polna",
                "addr:housenumber": "40",
                "addr:city:simc": 8964,
                "addr:street:sym_ul": 17011,
                "phone": "+48 227229130",
                "email": "przedszkole.babice@wp.pl",
                "website": "http:\/\/www.babice-stare.waw.pl\/index2.php?op=48go=4",
                "ref:regon": "013003913",
                "ref:vatin": "PL1180745103",
                "operator": "Gmina Stare Babice",
                "operator:type": "government",
                "amenity": "kindergarten"
            }
        },
        {
            "id": 58191,
            "type": "Feature",
            "geometry": {
                "type": "Point",
                "coordinates": [
                    20.84117,
                    52.25392
                ]
            },
            "properties": {
                "ref:rspo": 58191,
                "official_name": "Prywatna Szko\u0142a Muzyczna I St. w Starych Babicach",
                "name": "Prywatna Szko\u0142a Muzyczna I St. w Starych Babicach",
                "addr:postcode": "05-082",
                "addr:city": "Stare Babice",
                "addr:street": "Polna",
                "addr:housenumber": "40",
                "addr:city:simc": 8964,
                "addr:street:sym_ul": 17011,
                "phone": "+48 227229129",
                "ref:regon": "146380630",
                "operator": "Ewa Smoniowska-D\u017cyga",
                "operator:type": "private",
                "amenity": "music_school"
            }
        },
        {
            "id": 123851,
            "type": "Feature",
            "geometry": {
                "type": "Point",
                "coordinates": [
                    20.75588,
                    52.25683
                ]
            },
            "properties": {
                "ref:rspo": 123851,
                "official_name": "Niepubliczne Przedszkole \"Zielona Akademia\"",
                "name": "Niepubliczne Przedszkole \"Zielona Akademia\"",
                "addr:postcode": "05-083",
                "addr:city": "Wierzbin",
                "addr:street": "Warszawska",
                "addr:housenumber": "768",
                "addr:city:simc": 9018,
                "addr:street:sym_ul": 23682,
                "phone": "+48 506014317",
                "email": "wierzbin@zielonaakademia.eu",
                "website": "http:\/\/www.zielonaakademia.pl",
                "ref:regon": "147357410",
                "ref:vatin": "PL5271188372",
                "operator": "Ewa Drozd",
                "operator:type": "private",
                "amenity": "kindergarten"
            }
        },
        {
            "id": 72842,
            "type": "Feature",
            "geometry": {
                "type": "Point",
                "coordinates": [
                    20.83876,
                    52.25843
                ]
            },
            "properties": {
                "ref:rspo": 72842,
                "official_name": "Centrum Artystyczne Fen",
                "name": "Centrum Artystyczne Fen",
                "addr:postcode": "05-082",
                "addr:city": "Stare Babice",
                "addr:street": "Pohulanka",
                "addr:housenumber": "23",
                "addr:city:simc": 8964,
                "addr:street:sym_ul": 16924,
                "phone": "+48 500400406",
                "email": "taniec-fen@wp.pl",
                "website": "http:\/\/www.szkolatanca-fen.pl",
                "ref:regon": "146401970",
                "operator": "Joanna Kilja\u0144czyk",
                "operator:type": "private",
                "fixme": "w zale\u017cno\u015bci od przedmiotu dzia\u0142alno\u015bci (np. amenity=training + training=*, amenity=dancing_school, amenity=language_school, amenity=music_school)"
            }
        },
        {
            "id": 104576,
            "type": "Feature",
            "geometry": {
                "type": "Point",
                "coordinates": [
                    20.83876,
                    52.258399999999995
                ]
            },
            "properties": {
                "ref:rspo": 104576,
                "official_name": "Niepubliczne Przedszkole \"Zaczarowany O\u0142\u00f3wek\"",
                "name": "Niepubliczne Przedszkole \"Zaczarowany O\u0142\u00f3wek\"",
                "addr:postcode": "05-082",
                "addr:city": "Stare Babice",
                "addr:street": "Pohulanka",
                "addr:housenumber": "23",
                "addr:city:simc": 8964,
                "addr:street:sym_ul": 16924,
                "phone": "+48 506671924",
                "email": "przedszkole@zaczarowany-olowek.pl",
                "website": "http:\/\/www.zaczarowany-olowek.pl",
                "ref:regon": "146458438",
                "ref:vatin": "PL5222723865",
                "operator": "Jolanta Buczy\u0144ska",
                "operator:type": "private",
                "amenity": "kindergarten"
            }
        },
        {
            "id": 133421,
            "type": "Feature",
            "geometry": {
                "type": "Point",
                "coordinates": [
                    20.79592,
                    52.26374
                ]
            },
            "properties": {
                "isced:level": "1;2",
                "ref:rspo": 133421,
                "official_name": "Szko\u0142a Podstawowa w Koczargach Starych",
                "name": "Szko\u0142a Podstawowa w Koczargach Starych",
                "addr:postcode": "05-080",
                "addr:city": "Koczargi Stare",
                "addr:street": "Akacjowa",
                "addr:housenumber": "12",
                "addr:city:simc": 8970,
                "addr:street:sym_ul": 157,
                "phone": "+48 227229029",
                "email": "szkola@szkola-koczargi.pl",
                "website": "http:\/\/szkola-koczargi.edupage.org",
                "ref:regon": "367263353",
                "operator": "Gmina Stare Babice",
                "operator:type": "government",
                "amenity": "school"
            }
        },
        {
            "id": 80314,
            "type": "Feature",
            "geometry": {
                "type": "Point",
                "coordinates": [
                    20.80968,
                    52.26731
                ]
            },
            "properties": {
                "ref:rspo": 80314,
                "official_name": "Niepubliczne Przedszkole \"S\u0142oneczny Domek\"",
                "name": "Niepubliczne Przedszkole \"S\u0142oneczny Domek\"",
                "addr:postcode": "05-080",
                "addr:city": "Lipk\u00f3w",
                "addr:street": "J\u00f3zefa Paschalisa Jakubowicza",
                "addr:housenumber": "24A",
                "addr:city:simc": 8881,
                "addr:street:sym_ul": 30382,
                "phone": "+48 227961754",
                "email": "przedszkole@slonecznydomek.info",
                "website": "http:\/\/www.slonecznydomek.info",
                "ref:regon": "146416026",
                "ref:vatin": "PL1180239423",
                "operator": "Ma\u0142gorzata Mika",
                "operator:type": "private",
                "amenity": "kindergarten"
            }
        },
        {
            "id": 120553,
            "type": "Feature",
            "geometry": {
                "type": "Point",
                "coordinates": [
                    20.84617,
                    52.27738
                ]
            },
            "properties": {
                "ref:rspo": 120553,
                "official_name": "Studio Muzyczne",
                "name": "Studio Muzyczne",
                "addr:postcode": "05-080",
                "addr:city": "Klaudyn",
                "addr:street": "Piotra Czajkowskiego",
                "addr:housenumber": "10",
                "addr:city:simc": 991031,
                "addr:street:sym_ul": 3235,
                "phone": "+48 227227450",
                "email": "dis.mar777@gmail.com",
                "ref:regon": "146919572",
                "operator": "Ewa Smoniowska-D\u017cyga",
                "operator:type": "private",
                "fixme": "w zale\u017cno\u015bci od przedmiotu dzia\u0142alno\u015bci (np. amenity=training + training=*, amenity=dancing_school, amenity=language_school, amenity=music_school)"
            }
        },
        {
            "id": 262269,
            "type": "Feature",
            "geometry": {
                "type": "Point",
                "coordinates": [
                    20.72635,
                    52.28524
                ]
            },
            "properties": {
                "ref:rspo": 262269,
                "official_name": "Niepubliczny Punkt Przedszkoleny \"Przedszkole Le\u015bne w Mariewie\"",
                "name": "Niepubliczny Punkt Przedszkoleny \"Przedszkole Le\u015bne w Mariewie\"",
                "addr:postcode": "05-083",
                "addr:city": "Mariew",
                "addr:street": "Kwiatowa",
                "addr:housenumber": "136A",
                "addr:city:simc": 8906,
                "addr:street:sym_ul": 10562,
                "phone": "+48 781952020",
                "email": "przedszkole@mariew.edu.pl",
                "website": "http:\/\/www.mariew.edu.pl",
                "ref:regon": "368000093",
                "operator": "Empathy For Future Katarzyna Pa\u0142yska",
                "operator:type": "consortium",
                "amenity": "kindergarten"
            }
        }
    ]
}