{"type":"FeatureCollection","features":[{"id":133414,"type":"Feature","geometry":{"type":"Point","coordinates":[20.88304,52.31976]},"properties":{"isced:level":"1;2","ref:rspo":133414,"official_name":"Szko\u0142a Podstawowa Nr 2 Z Oddzia\u0142ami Dwuj\u0119zycznymi im. Ireny Szewi\u0144skiej w \u0141omiankach","name":"Szko\u0142a Podstawowa Nr 2 Z Oddzia\u0142ami Dwuj\u0119zycznymi","addr:country":"PL","addr:postcode":"05-092","addr:city":"\u0141omianki","addr:street":"ul. Partyzant\u00f3w","addr:housenumber":"31","addr:teryt:simc":15733,"addr:teryt:sym_ul":920864,"contact:phone":"+48 228889720","contact:email":"sp2@edulomianki.pl","contact:website":"http:\/\/www.sp2.edulomianki.pl","ref:regon":"367257223","operator":"Gmina \u0141omianki","operator:type":"government","amenity":"school"}},{"id":130390,"type":"Feature","geometry":{"type":"Point","coordinates":[20.87803,52.31986]},"properties":{"ref:rspo":130390,"official_name":"Szko\u0142a Florystyczna Ma\u0142gorzaty Niskiej","name":"Szko\u0142a Florystyczna Ma\u0142gorzaty Niskiej","addr:country":"PL","addr:postcode":"05-092","addr:city":"\u0141omianki","addr:street":"ul. Kampinoska","addr:housenumber":"22","addr:teryt:simc":7922,"addr:teryt:sym_ul":920864,"contact:phone":"+48 507784204","contact:email":"szkola@florystyka.com","contact:website":"http:\/\/www.florystyka.com","ref:regon":"363948522","ref:vatin":"PL7741843758","operator":"Danuta Paw\u0142owska-Wi\u015bniewska","operator:type":"private","fixme":"w zale\u017cno\u015bci od przedmiotu dzia\u0142alno\u015bci (np. amenity=training + training=*, amenity=dancing_school, amenity=language_school, amenity=music_school)"}},{"id":72837,"type":"Feature","geometry":{"type":"Point","coordinates":[20.88407,52.32071]},"properties":{"ref:rspo":72837,"official_name":"Comartin Marcin Chodorowski","name":"Comartin Marcin Chodorowski","addr:country":"PL","addr:postcode":"05-092","addr:city":"\u0141omianki","addr:street":"ul. Partyzant\u00f3w","addr:housenumber":"21","addr:teryt:simc":15733,"addr:teryt:sym_ul":920864,"contact:phone":"+48 227519788","contact:email":"comartin@comartin.pl","contact:website":"http:\/\/comartin.pl","ref:regon":"146401600","operator":"Marcin Chodorowski","operator:type":"private","fixme":"w zale\u017cno\u015bci od przedmiotu dzia\u0142alno\u015bci (np. amenity=training + training=*, amenity=dancing_school, amenity=language_school, amenity=music_school)"}},{"id":18260,"type":"Feature","geometry":{"type":"Point","coordinates":[20.9196199,52.32339]},"properties":{"ref:rspo":18260,"official_name":"Przedszkole Niepubliczne Si\u00f3str Niepokalanek","name":"Przedszkole Niepubliczne Si\u00f3str Niepokalanek","addr:country":"PL","addr:postcode":"05-092","addr:city":"\u0141omianki","addr:street":"ul. Jana III Sobieskiego","addr:housenumber":"2","addr:teryt:simc":20431,"addr:teryt:sym_ul":920864,"contact:phone":"+48 227320469","contact:email":"ss.niep.ple@gmail.com","ref:regon":"146317241","ref:vatin":"PL1180196866","operator":"Zgromadzenie Si\u00f3str Niepokalanego Pocz\u0119cia Nmp Dom Generalny","operator:type":"religious","amenity":"kindergarten"}},{"id":13697,"type":"Feature","geometry":{"type":"Point","coordinates":[20.89579,52.32353]},"properties":{"isced:level":"1;2","ref:rspo":13697,"official_name":"Niepubliczna Szko\u0142a Podstawowa \"Moja Szko\u0142a\" im. Wandy Chotomskiej O Uprawnieniach Szko\u0142y Publicznej","name":"Niepubliczna Szko\u0142a Podstawowa \"Moja Szko\u0142a\"","addr:country":"PL","addr:postcode":"05-092","addr:city":"\u0141omianki","addr:street":"ul. R\u00f3wna","addr:housenumber":"26","addr:teryt:simc":18985,"addr:teryt:sym_ul":920864,"contact:phone":"+48 224979798","contact:email":"sekretariat@moja-szkola.org","contact:website":"http:\/\/www.moja-szkola.org","ref:regon":"146297952","operator":"Fundacja Per Aspera Ad Astra","operator:type":"ngo","amenity":"school"}},{"id":12727,"type":"Feature","geometry":{"type":"Point","coordinates":[20.88821,52.32391]},"properties":{"ref:rspo":12727,"official_name":"Przedszkole Niepubliczne Urszula Rytel","name":"Przedszkole Niepubliczne Urszula Rytel","addr:country":"PL","addr:postcode":"05-092","addr:city":"\u0141omianki","addr:street":"ul. Kalinowa","addr:housenumber":"8","addr:teryt:simc":7804,"addr:teryt:sym_ul":920864,"contact:phone":"+48 227513352","contact:email":"rytel.przedszkole@wp.pl","ref:regon":"146294451","ref:vatin":"PL1180257912","operator":"Urszula Rytel","operator:type":"private","amenity":"kindergarten"}},{"id":72844,"type":"Feature","geometry":{"type":"Point","coordinates":[20.91687,52.32584]},"properties":{"ref:rspo":72844,"official_name":"Akademia Pi\u0142karska Janusz Domaradzki","name":"Akademia Pi\u0142karska Janusz Domaradzki","addr:country":"PL","addr:postcode":"05-092","addr:city":"\u0141omianki","addr:street":"ul. 11 Listopada","addr:housenumber":"48","addr:teryt:simc":11205,"addr:teryt:sym_ul":920864,"contact:phone":"+48 602193575","contact:email":"biuro@akademia-pilkarska.pl","contact:website":"http:\/\/www.akademia.pilkarska.pl","ref:regon":"146402171","operator":"Janusz Domaradzki","operator:type":"private","fixme":"w zale\u017cno\u015bci od przedmiotu dzia\u0142alno\u015bci (np. amenity=training + training=*, amenity=dancing_school, amenity=language_school, amenity=music_school)"}},{"id":124884,"type":"Feature","geometry":{"type":"Point","coordinates":[20.89403,52.33168]},"properties":{"ref:rspo":124884,"official_name":"\"B\u0105belkowa Akademia\" Niepubliczne Przedszkole Z Oddzia\u0142ami Integracyjnymi","name":"\"B\u0105belkowa Akademia\" Niepubliczne Przedszkole Z Oddzia\u0142ami Integracyjnymi","addr:country":"PL","addr:postcode":"05-092","addr:city":"\u0141omianki","addr:street":"ul. Kolejowa","addr:housenumber":"42","addr:door":"3","addr:teryt:simc":8828,"addr:teryt:sym_ul":920864,"contact:phone":"+48 535504343","contact:email":"biuro@babelkowa-akademia.pl","contact:website":"http:\/\/www.babelkowa.akademia.pl","ref:regon":"147409904","ref:vatin":"PL1182080263","operator":"\"B\u0105belki\" Sp\u00f3\u0142ka Z Ograniczon\u0105 Odpowiedzialno\u015bci\u0105","operator:type":"private","amenity":"kindergarten"}},{"id":12102,"type":"Feature","geometry":{"type":"Point","coordinates":[20.8898,52.3322999]},"properties":{"ref:rspo":12102,"official_name":"Przedszkole Samorz\u0105dowe w D\u0105browie","name":"Przedszkole Samorz\u0105dowe w D\u0105browie","addr:country":"PL","addr:postcode":"05-092","addr:city":"\u0141omianki","addr:street":"ul. Kolejowa","addr:housenumber":"51","addr:teryt:simc":8828,"addr:teryt:sym_ul":920864,"contact:phone":"+48 227512470","contact:email":"dyrektor.przedszkoledabrowa@edulomianki.pl","contact:website":"http:\/\/www.przedszkoledabrowa.edulomianki.pl","ref:regon":"013007911","ref:vatin":"PL1181262619","operator":"Gmina \u0141omianki","operator:type":"government","amenity":"kindergarten"}},{"id":127318,"type":"Feature","geometry":{"type":"Point","coordinates":[20.86987,52.33375]},"properties":{"ref:rspo":127318,"official_name":"Przedszkole Niepubliczne \"M\u00f3j Ma\u0142y \u015awiat\"","name":"Przedszkole Niepubliczne \"M\u00f3j Ma\u0142y \u015awiat\"","addr:country":"PL","addr:postcode":"05-092","addr:city":"\u0141omianki","addr:street":"ul. Sierakowska","addr:housenumber":"47","addr:teryt:simc":19847,"addr:teryt:sym_ul":920864,"contact:phone":"+48 608393895","contact:email":"przedszkole@lingwista.org.pl","contact:website":"http:\/\/www.mojmalyswiat.pl","ref:regon":"361353894","operator":"Iwona Kostecka","operator:type":"private","amenity":"kindergarten"}},{"id":130030,"type":"Feature","geometry":{"type":"Point","coordinates":[20.89261,52.33433]},"properties":{"ref:rspo":130030,"official_name":"Szko\u0142a J\u0119zyk\u00f3w Obcych \"Progress\"","name":"Szko\u0142a J\u0119zyk\u00f3w Obcych \"Progress\"","addr:country":"PL","addr:postcode":"05-092","addr:city":"\u0141omianki","addr:street":"ul. Ferrytowa","addr:housenumber":"19","addr:teryt:simc":4955,"addr:teryt:sym_ul":920864,"contact:phone":"+48 227510555","contact:email":"progress@progress.edu.pl","ref:regon":"363327263","operator":"Progress Szko\u0142a J\u0119zyk\u00f3w Obcych S.c., P.kubacki, J.jarzy\u0144ska-Kubacka","operator:type":"consortium","fixme":"w zale\u017cno\u015bci od przedmiotu dzia\u0142alno\u015bci (np. amenity=training + training=*, amenity=dancing_school, amenity=language_school, amenity=music_school)"}},{"id":39625,"type":"Feature","geometry":{"type":"Point","coordinates":[20.88738,52.33447]},"properties":{"ref:rspo":39625,"official_name":"Niepubliczne Przedszkole \"T\u0119czowa Kraina\"","name":"Niepubliczne Przedszkole \"T\u0119czowa Kraina\"","addr:country":"PL","addr:postcode":"05-092","addr:city":"\u0141omianki","addr:street":"ul. Wi\u015blana","addr:housenumber":"54","addr:teryt:simc":24398,"addr:teryt:sym_ul":920864,"contact:email":"teczowakraina@onet.eu","contact:website":"http:\/\/www.przedszkole-teczowa-kraina.pl","ref:regon":"146355023","operator":"Jolanta Chrostowska","operator:type":"private","amenity":"kindergarten"}},{"id":267158,"type":"Feature","geometry":{"type":"Point","coordinates":[20.88858,52.33506]},"properties":{"isced:level":"3","ref:rspo":267158,"official_name":"Niepubliczne Liceum Og\u00f3lnokszta\u0142c\u0105ce Z Oddzia\u0142ami Dwuj\u0119zycznymi w \u0141omiankach","name":"Niepubliczne Liceum Og\u00f3lnokszta\u0142c\u0105ce Z Oddzia\u0142ami Dwuj\u0119zycznymi w \u0141omiankach","addr:country":"PL","addr:postcode":"05-092","addr:city":"\u0141omianki","addr:street":"ul. Wi\u015blana","addr:housenumber":"35","addr:teryt:simc":24398,"addr:teryt:sym_ul":920864,"contact:phone":"+48 228889222","contact:email":"dyrektor@eduspoleczna.pl","contact:website":"http:\/\/eduspoleczna.pl\/","ref:regon":"369969525","operator":"Edukacja Spo\u0142eczna Sp\u00f3\u0142ka Z Ograniczon\u0105 Odpowiedzialno\u015bci\u0105","operator:type":"private","amenity":"school"}},{"id":13726,"type":"Feature","geometry":{"type":"Point","coordinates":[20.89854,52.33514]},"properties":{"ref:rspo":13726,"official_name":"Przedszkole Niepubliczne \"Kidi-Mini\"","name":"Przedszkole Niepubliczne \"Kidi-Mini\"","addr:country":"PL","addr:postcode":"05-092","addr:city":"\u0141omianki","addr:street":"ul. Warszawska","addr:housenumber":"126","addr:teryt:simc":23682,"addr:teryt:sym_ul":920864,"contact:phone":"+48 227513300","contact:email":"przedszkole.kidi-mini@wp.pl","contact:website":"http:\/\/kidi-mini.pl","ref:regon":"146300312","operator":"Ewa Orlecka","operator:type":"private","amenity":"kindergarten"}},{"id":72840,"type":"Feature","geometry":{"type":"Point","coordinates":[20.89717,52.33523]},"properties":{"ref:rspo":72840,"official_name":"Angloschool","name":"Angloschool","addr:country":"PL","addr:postcode":"05-092","addr:city":"\u0141omianki","addr:street":"ul. Warszawska","addr:housenumber":"61A","addr:teryt:simc":23682,"addr:teryt:sym_ul":920864,"contact:phone":"+48 226638883","contact:email":"angloschool@angloschool.com.pl","contact:website":"http:\/\/www.angloschool.com.pl","ref:regon":"146401680","operator":"\"Angloschool\" Heintze A I R Sp\u00f3\u0142ka Jawna","operator:type":"consortium","fixme":"w zale\u017cno\u015bci od przedmiotu dzia\u0142alno\u015bci (np. amenity=training + training=*, amenity=dancing_school, amenity=language_school, amenity=music_school)"}},{"id":8480,"type":"Feature","geometry":{"type":"Point","coordinates":[20.88403,52.33535]},"properties":{"ref:rspo":8480,"official_name":"Europejskie Przedszkole Niepubliczne Dzieci\u0119ca Planeta","name":"Europejskie Przedszkole Niepubliczne Dzieci\u0119ca Planeta","addr:country":"PL","addr:postcode":"05-092","addr:city":"\u0141omianki","addr:street":"ul. Dzia\u0142kowa","addr:housenumber":"31","addr:teryt:simc":4572,"addr:teryt:sym_ul":920864,"contact:phone":"+48 513180799","contact:email":"przedszkole@dzieciecaplaneta.pl","contact:website":"http:\/\/www.dzieciecaplaneta.pl","ref:regon":"146280510","operator":"Jerzy Stanis\u0142awowski","operator:type":"private","amenity":"kindergarten"}},{"id":9541,"type":"Feature","geometry":{"type":"Point","coordinates":[20.89519,52.33632]},"properties":{"ref:rspo":9541,"official_name":"Polsko-Angielskie Przedszkole The Treehouse","name":"Polsko-Angielskie Przedszkole The Treehouse","addr:country":"PL","addr:postcode":"05-092","addr:city":"\u0141omianki","addr:street":"ul. Janusza Kusoci\u0144skiego","addr:housenumber":"3a","addr:teryt:simc":10493,"addr:teryt:sym_ul":920864,"contact:phone":"+48 227516555","contact:email":"treehouse@op.pl","contact:website":"http:\/\/www.treehouse.edu.pl","ref:regon":"146283097","ref:vatin":"PL1181694589","operator":"Sylwia Olsz\u00f3wka","operator:type":"private","amenity":"kindergarten"}},{"id":128445,"type":"Feature","geometry":{"type":"Point","coordinates":[20.89936,52.33643]},"properties":{"isced:level":"1;2","ref:rspo":128445,"official_name":"Kolegium \u015aw. Rodziny - Szko\u0142a Podstawowa","name":"Kolegium \u015aw. Rodziny - Szko\u0142a Podstawowa","addr:country":"PL","addr:postcode":"05-092","addr:city":"\u0141omianki","addr:street":"ul. Krzysztofa Kamila Baczy\u0144skiego","addr:housenumber":"9","addr:teryt:simc":569,"addr:teryt:sym_ul":920864,"contact:phone":"+48 885373381","contact:email":"kolegium@ksr.edu.pl","contact:website":"http:\/\/ksr.edu.pl","ref:regon":"362281286","operator":"Fundacja \"Pomoc Rodzinie\"","operator:type":"ngo","amenity":"school"}},{"id":128605,"type":"Feature","geometry":{"type":"Point","coordinates":[20.89936,52.3364]},"properties":{"isced:level":"3","ref:rspo":128605,"official_name":"Kolegium \u015aw. Rodziny - Liceum Og\u00f3lnokszta\u0142c\u0105ce","name":"Kolegium \u015aw. Rodziny - Liceum Og\u00f3lnokszta\u0142c\u0105ce","addr:country":"PL","addr:postcode":"05-092","addr:city":"\u0141omianki","addr:street":"ul. Krzysztofa Kamila Baczy\u0144skiego","addr:housenumber":"9","addr:teryt:simc":569,"addr:teryt:sym_ul":920864,"contact:phone":"+48 885373381","contact:email":"kolegium@ksr.edu.pl","contact:website":"http:\/\/www.ksr.edu.pl","ref:regon":"362332888","operator":"Fundacja \"Pomoc Rodzinie\"","operator:type":"ngo","amenity":"school"}},{"id":129331,"type":"Feature","geometry":{"type":"Point","coordinates":[20.89936,52.33637]},"properties":{"ref:rspo":129331,"official_name":"Niepubliczna Poradnia Psychologiczno-Pedagogiczna dla Dzieci I M\u0142odzie\u017cy Przy Centrum Rodziny w \u0141omiankach","name":"Niepubliczna Poradnia Psychologiczno-Pedagogiczna dla Dzieci I M\u0142odzie\u017cy Przy Centrum Rodziny w \u0141omiankach","addr:country":"PL","addr:postcode":"05-092","addr:city":"\u0141omianki","addr:street":"ul. Krzysztofa Kamila Baczy\u0144skiego","addr:housenumber":"9","addr:teryt:simc":569,"addr:teryt:sym_ul":920864,"contact:phone":"+48 604948933","contact:email":"agnieszka.skretowska@gmail.com","ref:regon":"362566988","operator":"Fundacja \"Pomoc Rodzinie\"","operator:type":"ngo","healthcare":"councelling","counselling_type":"education","fixme":"w zale\u017cno\u015bci od przedmiotu dzia\u0142alno\u015bci (np. healthcare=councelling + counselling_type=education albo healthcare=psychotherapist)"}},{"id":276268,"type":"Feature","geometry":{"type":"Point","coordinates":[20.89155,52.3367099]},"properties":{"ref:rspo":276268,"official_name":"Baby Ocean College Przedszkole Niepubliczne","name":"Baby Ocean College Przedszkole Niepubliczne","addr:country":"PL","addr:postcode":"05-092","addr:city":"\u0141omianki","addr:street":"ul. Osiedlowa","addr:housenumber":"20","addr:teryt:simc":15300,"addr:teryt:sym_ul":920864,"contact:phone":"+48 505996883","contact:email":"przedszkole@babyocean.pl","contact:website":"http:\/\/www.babyocean.pl","ref:regon":"387063816","operator":"Baby Ocean College Sp\u00f3\u0142ka Z Ograniczon\u0105 Odpowiedzialno\u015bci\u0105","operator:type":"private","amenity":"kindergarten"}},{"id":20793,"type":"Feature","geometry":{"type":"Point","coordinates":[20.89489,52.33696]},"properties":{"isced:level":"1;2","ref:rspo":20793,"official_name":"Szko\u0142a Podstawowa Nr 1 im. Marii Kownackiej w \u0141omiankach","name":"Szko\u0142a Podstawowa Nr 1","addr:country":"PL","addr:postcode":"05-092","addr:city":"\u0141omianki","addr:street":"ul. Warszawska","addr:housenumber":"73","addr:teryt:simc":23682,"addr:teryt:sym_ul":920864,"contact:phone":"+48 227511554","contact:email":"sp1lomianki@wp.pl","contact:website":"http:\/\/www.sp1lomianki.pl","ref:regon":"000269370","ref:vatin":"PL1181495329","operator":"Gmina \u0141omianki","operator:type":"government","amenity":"school"}},{"id":41984,"type":"Feature","geometry":{"type":"Point","coordinates":[20.89489,52.336929999999995]},"properties":{"ref:rspo":41984,"official_name":"Niepubliczna Szko\u0142a Muzyczna I St. w \u0141omiankach","name":"Niepubliczna Szko\u0142a Muzyczna I St. w \u0141omiankach","addr:country":"PL","addr:postcode":"05-092","addr:city":"\u0141omianki","addr:street":"ul. Warszawska","addr:housenumber":"73","addr:teryt:simc":23682,"addr:teryt:sym_ul":920864,"contact:phone":"+48 601658020","contact:email":"szkolamuzyczna01@gmail.com","ref:regon":"146399061","operator":"Lucjusz Pinkosz","operator:type":"private","amenity":"music_school"}},{"id":274153,"type":"Feature","geometry":{"type":"Point","coordinates":[20.89101,52.33918]},"properties":{"ref:rspo":274153,"official_name":"Master Edu","name":"Master Edu","addr:country":"PL","addr:postcode":"05-092","addr:city":"\u0141omianki","addr:street":"ul. Warszawska","addr:housenumber":"91","addr:door":"4","addr:teryt:simc":23682,"addr:teryt:sym_ul":920864,"contact:phone":"+48 693101314","contact:email":"lomianki@galileusz.com.pl","contact:website":"http:\/\/galileusz.com.pl\/lomianki","ref:regon":"385339266","operator":"Master Edu Katarzyna Lubowiecka-Niewiadomska Agnieszka \u017b\u00f3\u0142towska Sp\u00f3\u0142ka Cywilna","operator:type":"consortium","fixme":"w zale\u017cno\u015bci od przedmiotu dzia\u0142alno\u015bci (np. amenity=training + training=*, amenity=dancing_school, amenity=language_school, amenity=music_school)"}},{"id":12118,"type":"Feature","geometry":{"type":"Point","coordinates":[20.88682,52.34017]},"properties":{"ref:rspo":12118,"official_name":"Przedszkole Samorz\u0105dowe w \u0141omiankach","name":"Przedszkole Samorz\u0105dowe w \u0141omiankach","addr:country":"PL","addr:postcode":"05-092","addr:city":"\u0141omianki","addr:street":"ul. Szpitalna","addr:housenumber":"1","addr:teryt:simc":22073,"addr:teryt:sym_ul":920864,"contact:phone":"+48 227511089","contact:email":"ps.lomianki@wp.pl","ref:regon":"013007905","ref:vatin":"PL1181262430","operator":"Gmina \u0141omianki","operator:type":"government","amenity":"kindergarten"}},{"id":15756,"type":"Feature","geometry":{"type":"Point","coordinates":[20.8838,52.3411199]},"properties":{"ref:rspo":15756,"official_name":"Przedszkole Niepubliczne Si\u00f3str Salezjanek im.anio\u0142\u00f3w Str\u00f3\u017c\u00f3w","name":"Przedszkole Niepubliczne Si\u00f3str Salezjanek im.anio\u0142\u00f3w Str\u00f3\u017c\u00f3w","addr:country":"PL","addr:postcode":"05-092","addr:city":"\u0141omianki","addr:street":"ul. Warszawska","addr:housenumber":"123","addr:teryt:simc":23682,"addr:teryt:sym_ul":920864,"contact:phone":"+48 227510561","contact:email":"p.aniolowstrozow@gmail.com","contact:website":"http:\/\/www.lomianki.edu.pl","ref:regon":"146309193","ref:vatin":"PL1180818836","operator":"Zgromadzenie C\u00f3rek Maryi Wspomo\u017cycielki (Siostry Salezjanki) Inspektoria Warszawska","operator:type":"religious","amenity":"kindergarten"}},{"id":130331,"type":"Feature","geometry":{"type":"Point","coordinates":[20.88202,52.34252]},"properties":{"ref:rspo":130331,"official_name":"M\u0142odzie\u017cowy O\u015brodek Socjoterapii Nr 1","name":"M\u0142odzie\u017cowy O\u015brodek Socjoterapii Nr 1","addr:country":"PL","addr:postcode":"05-092","addr:city":"\u0141omianki","addr:street":"ul. Warszawska","addr:housenumber":"14","addr:teryt:simc":23682,"addr:teryt:sym_ul":920864,"contact:phone":"+48 227322798","contact:email":"sekretariat@moslomianki.pl","contact:website":"http:\/\/www.moslomianki.pl","ref:regon":"363878075","ref:vatin":"PL1182105827","operator":"\"Fundcja P\u00e9rie\"","operator:type":"ngo","fixme":"amenity=social facility + social_facility=group_home + social_facility:for=juvenile","note":"Children RSPO: 130341;278321"}},{"id":130341,"type":"Feature","geometry":{"type":"Point","coordinates":[20.88202,52.34249]},"properties":{"isced:level":"1;2","ref:rspo":130341,"official_name":"Szko\u0142a Podstawowa Specjalna","name":"Szko\u0142a Podstawowa Specjalna","addr:country":"PL","addr:postcode":"05-092","addr:city":"\u0141omianki","addr:street":"ul. Warszawska","addr:housenumber":"14","addr:teryt:simc":23682,"addr:teryt:sym_ul":920864,"contact:phone":"+48 692893893","contact:email":"sekretariat@moslomianki.pl","ref:regon":"363893778","ref:vatin":"PL1182105827","operator":"\"Fundcja P\u00e9rie\"","operator:type":"ngo","amenity":"school","note":"Parent RSPO: 130331"}},{"id":278321,"type":"Feature","geometry":{"type":"Point","coordinates":[20.88202,52.34246]},"properties":{"isced:level":"3","ref:rspo":278321,"official_name":"Niepubliczne Liceum Og\u00f3lnokszta\u0142c\u0105ce Specjalne","name":"Niepubliczne Liceum Og\u00f3lnokszta\u0142c\u0105ce Specjalne","addr:country":"PL","addr:postcode":"05-092","addr:city":"\u0141omianki","addr:street":"ul. Warszawska","addr:housenumber":"14","addr:teryt:simc":23682,"addr:teryt:sym_ul":920864,"contact:phone":"+48 227322798","contact:email":"sekretariat@moslomianki.pl","contact:website":"http:\/\/www.moslomianki.pl","ref:regon":"389858135","operator":"\"Fundcja P\u00e9rie\"","operator:type":"ngo","amenity":"school","note":"Parent RSPO: 130331"}},{"id":25330,"type":"Feature","geometry":{"type":"Point","coordinates":[20.8801099,52.34272]},"properties":{"isced:level":"1;2","ref:rspo":25330,"official_name":"Dwuj\u0119zyczna Szko\u0142a Podstawowa w \u0141omiankach","name":"Dwuj\u0119zyczna Szko\u0142a Podstawowa w \u0141omiankach","addr:country":"PL","addr:postcode":"05-092","addr:city":"\u0141omianki","addr:street":"ul. Warszawska","addr:housenumber":"141","addr:teryt:simc":23682,"addr:teryt:sym_ul":920864,"contact:phone":"+48 227511173","contact:email":"dyrektor@eduspoleczna.pl","contact:website":"http:\/\/www.eduspoleczna.pl","ref:regon":"146337048","operator":"Edukacja Spo\u0142eczna Sp\u00f3\u0142ka Z Ograniczon\u0105 Odpowiedzialno\u015bci\u0105","operator:type":"private","amenity":"school"}},{"id":121906,"type":"Feature","geometry":{"type":"Point","coordinates":[20.87667,52.34329]},"properties":{"ref:rspo":121906,"official_name":"Przedszkole Niepubliczne Montessori Children`s Academy","name":"Przedszkole Niepubliczne Montessori Children`s Academy","addr:country":"PL","addr:postcode":"05-092","addr:city":"\u0141omianki","addr:street":"ul. Stanis\u0142awa Konarskiego","addr:housenumber":"3","addr:teryt:simc":9111,"addr:teryt:sym_ul":920864,"contact:phone":"+48 793949442","contact:email":"biuro@montessoriacademy.com.pl","contact:website":"http:\/\/www.montessoriakademy.com.pl","ref:regon":"147097853","operator":"Teresa Niemyjska","operator:type":"private","amenity":"kindergarten"}},{"id":132105,"type":"Feature","geometry":{"type":"Point","coordinates":[20.87667,52.34326]},"properties":{"isced:level":"1;2","ref:rspo":132105,"official_name":"Niepubliczna Podstawowa Szko\u0142a Montessori","name":"Niepubliczna Podstawowa Szko\u0142a Montessori","addr:country":"PL","addr:postcode":"05-092","addr:city":"\u0141omianki","addr:street":"ul. Stanis\u0142awa Konarskiego","addr:housenumber":"3","addr:teryt:simc":9111,"addr:teryt:sym_ul":920864,"contact:phone":"+48 733874733","contact:email":"biuro@montessori-academy.pl","contact:website":"http:\/\/www.montessoriacademy.com.pl","ref:regon":"365467583","operator":"Teresa Niemyjska","operator:type":"private","amenity":"school"}},{"id":272347,"type":"Feature","geometry":{"type":"Point","coordinates":[20.89,52.34359]},"properties":{"ref:rspo":272347,"official_name":"Punkt Przedszkolny Laudame","name":"Punkt Przedszkolny Laudame","addr:country":"PL","addr:postcode":"05-092","addr:city":"\u0141omianki","addr:street":"ul. Wiejska","addr:housenumber":"1b","addr:teryt:simc":24048,"addr:teryt:sym_ul":920864,"contact:phone":"+48 535500324","contact:email":"laudame.lomianki@gmail.com","contact:website":"http:\/\/laudame.pl","ref:regon":"384149032","operator":"Laudame Sp\u00f3\u0142ka Z Ograniczon\u0105 Odpowiedzialno\u015bci\u0105","operator:type":"private","amenity":"kindergarten"}},{"id":272597,"type":"Feature","geometry":{"type":"Point","coordinates":[20.89,52.34356]},"properties":{"ref:rspo":272597,"official_name":"Niepubliczna Poradnia Psychologiczno-Pedagogiczna Laudame","name":"Niepubliczna Poradnia Psychologiczno-Pedagogiczna Laudame","addr:country":"PL","addr:postcode":"05-092","addr:city":"\u0141omianki","addr:street":"ul. Wiejska","addr:housenumber":"1B","addr:teryt:simc":24048,"addr:teryt:sym_ul":920864,"contact:phone":"+48 535500324","contact:email":"laudame.lomianki@gmail.com","contact:website":"http:\/\/laudame.pl\/lomianki\/","ref:regon":"384267547","operator":"Laudame Sp\u00f3\u0142ka Z Ograniczon\u0105 Odpowiedzialno\u015bci\u0105","operator:type":"private","healthcare":"councelling","counselling_type":"education","fixme":"w zale\u017cno\u015bci od przedmiotu dzia\u0142alno\u015bci (np. healthcare=councelling + counselling_type=education albo healthcare=psychotherapist)"}},{"id":4694,"type":"Feature","geometry":{"type":"Point","coordinates":[20.87486,52.3438]},"properties":{"isced:level":"3","ref:rspo":4694,"official_name":"Liceum Og\u00f3lnokszta\u0142c\u0105ce im. Karola Wojty\u0142y w \u0141omiankach","name":"Liceum Og\u00f3lnokszta\u0142c\u0105ce","addr:country":"PL","addr:postcode":"05-092","addr:city":"\u0141omianki","addr:street":"ul. Stanis\u0142awa Staszica","addr:housenumber":"2","addr:teryt:simc":21071,"addr:teryt:sym_ul":920864,"contact:phone":"+48 227516084","contact:email":"sekretariat@lolomianki.edu.pl","contact:website":"https:\/\/lolomianki.edu.pl\/","ref:regon":"016050178","ref:vatin":"PL1181466612","operator":"Gmina \u0141omianki","operator:type":"government","amenity":"school"}},{"id":8246,"type":"Feature","geometry":{"type":"Point","coordinates":[20.87486,52.34377]},"properties":{"isced:level":"3","ref:rspo":8246,"official_name":"Niepubliczne Liceum Og\u00f3lnokszta\u0142c\u0105ce Nr71 Szko\u0142a Mistrzostwa Sportowego Polskiego Zwi\u0105zku Koszyk\u00f3wki","name":"Niepubliczne Liceum Og\u00f3lnokszta\u0142c\u0105ce Nr71 Szko\u0142a Mistrzostwa Sportowego Polskiego Zwi\u0105zku Koszyk\u00f3wki","addr:country":"PL","addr:postcode":"05-092","addr:city":"\u0141omianki","addr:street":"ul. Stanis\u0142awa Staszica","addr:housenumber":"2","addr:teryt:simc":21071,"addr:teryt:sym_ul":920864,"contact:phone":"+48 227514974","contact:email":"smslomianki@pzkosz.pl","contact:website":"http:\/\/www.smslomianki.pl","ref:regon":"146297917","operator":"Polski Zwi\u0105zek Koszyk\u00f3wki","operator:type":"cooperative","amenity":"school"}},{"id":123141,"type":"Feature","geometry":{"type":"Point","coordinates":[20.87486,52.343740000000004]},"properties":{"isced:level":"3","ref:rspo":123141,"official_name":"Liceum Og\u00f3lnokszta\u0142cace dla Doros\u0142ych \"Edukator\"","name":"Liceum Og\u00f3lnokszta\u0142cace dla Doros\u0142ych \"Edukator\"","addr:country":"PL","addr:postcode":"05-092","addr:city":"\u0141omianki","addr:street":"ul. Stanis\u0142awa Staszica","addr:housenumber":"2","addr:teryt:simc":21071,"addr:teryt:sym_ul":920864,"contact:email":"kontakt@edukatorlomianki.pl","contact:website":"http:\/\/www.edukatorlomianki.pl","ref:regon":"147262810","operator":"Marta \u0141agowska","operator:type":"private","amenity":"school"}},{"id":124208,"type":"Feature","geometry":{"type":"Point","coordinates":[20.87486,52.34371]},"properties":{"isced:level":"4","ref:rspo":124208,"official_name":"Policealna Szko\u0142a Zawodowa \"Edukator\" w \u0141omiankach","name":"Policealna Szko\u0142a Zawodowa \"Edukator\" w \u0141omiankach","addr:country":"PL","addr:postcode":"05-092","addr:city":"\u0141omianki","addr:street":"ul. Stanis\u0142awa Staszica","addr:housenumber":"2","addr:teryt:simc":21071,"addr:teryt:sym_ul":920864,"contact:email":"kontakt@edukatorlomianki.pl","contact:website":"http:\/\/www.edukatorlomianki.pl","ref:regon":"147381488","operator":"Marta \u0141agowska","operator:type":"private","amenity":"college"}},{"id":263411,"type":"Feature","geometry":{"type":"Point","coordinates":[20.87486,52.34368]},"properties":{"isced:level":"1;2","ref:rspo":263411,"official_name":"Szko\u0142a Podstawowa Nr 3 Z Oddzia\u0142ami Dwuj\u0119zycznymi I Sportowymi im. Janusza Kusoci\u0144skiego w \u0141omiankach","name":"Szko\u0142a Podstawowa Nr 3 Z Oddzia\u0142ami Dwuj\u0119zycznymi I Sportowymi","addr:country":"PL","addr:postcode":"05-092","addr:city":"\u0141omianki","addr:street":"ul. Stanis\u0142awa Staszica","addr:housenumber":"2","addr:teryt:simc":21071,"addr:teryt:sym_ul":920864,"contact:phone":"+48 227515610","contact:email":"sp3@lomianki.pl","contact:website":"http:\/\/sp3.lomianki.pl","ref:regon":"368188091","operator":"Gmina \u0141omianki","operator:type":"government","amenity":"school"}},{"id":132587,"type":"Feature","geometry":{"type":"Point","coordinates":[20.87386,52.34556]},"properties":{"ref:rspo":132587,"official_name":"Punkt Przedszkolny Chmurka","name":"Punkt Przedszkolny Chmurka","addr:country":"PL","addr:postcode":"05-092","addr:city":"\u0141omianki","addr:street":"ul. Warszawska","addr:housenumber":"322","addr:teryt:simc":23682,"addr:teryt:sym_ul":920864,"contact:phone":"+48 692075431","contact:email":"chmurka322@gmail.com","contact:website":"http:\/\/www.przedszkolechmurka.pl","ref:regon":"365862807","operator":"Anna Urba\u0144ska","operator:type":"private","amenity":"kindergarten"}},{"id":12023,"type":"Feature","geometry":{"type":"Point","coordinates":[20.85568,52.34645]},"properties":{"ref:rspo":12023,"official_name":"Przedszkole Samorz\u0105dowe w Dziekanowie Le\u015bnym","name":"Przedszkole Samorz\u0105dowe w Dziekanowie Le\u015bnym","addr:country":"PL","addr:postcode":"05-092","addr:city":"Dziekan\u00f3w Le\u015bny","addr:street":"ul. Marii Konopnickiej","addr:housenumber":"65","addr:teryt:simc":9186,"addr:teryt:sym_ul":5115,"contact:phone":"+48 227513264","contact:email":"przedszkoledziekanowlesny@op.pl","ref:regon":"013007928","ref:vatin":"PL1181262401","operator":"Gmina \u0141omianki","operator:type":"government","amenity":"kindergarten"}},{"id":272437,"type":"Feature","geometry":{"type":"Point","coordinates":[20.85568,52.346419999999995]},"properties":{"ref:rspo":272437,"official_name":"Zesp\u00f3\u0142 Szk\u00f3\u0142 Specjalnych w Samodzielnym Zespole Publicznych Zak\u0142ad\u00f3w Opieki Zdrowotnej im. Dzieci Warszawy w Dziekanowie Le\u015bnym","name":"Zesp\u00f3\u0142 Szk\u00f3\u0142 Specjalnych w Samodzielnym Zespole Publicznych Zak\u0142ad\u00f3w Opieki Zdrowotnej","addr:country":"PL","addr:postcode":"05-092","addr:city":"Dziekan\u00f3w Le\u015bny","addr:street":"ul. Marii Konopnickiej","addr:housenumber":"65","addr:teryt:simc":9186,"addr:teryt:sym_ul":5115,"contact:phone":"+48 227657117","contact:email":"szkola.sekretariat@szpitaldziekanow.pl","contact:website":"http:\/\/www.szkoladziekanow.edu.pl","ref:regon":"384178068","operator":"Wojew\u00f3dztwo Mazowieckie","operator:type":"government","landuse":"education","fixme":"amenity=school, amenity=college albo landuse=education w zale\u017cno\u015bci od tego, jakie plac\u00f3wki wchodz\u0105 w sk\u0142ad zespo\u0142u. Sprawd\u017a, kiedy stosowa\u0107 amenity=* a kiedy landuse=education.","note":"Children RSPO: 39001;272338"}},{"id":39001,"type":"Feature","geometry":{"type":"Point","coordinates":[20.85568,52.34639]},"properties":{"isced:level":"1;2","ref:rspo":39001,"official_name":"Specjalna Szko\u0142a Podstawowa Z Oddzia\u0142ami Przedszkolnymi w Samodzielnym Zespole Publicznych Zak\u0142ad\u00f3w Opieki Zdrowotnej im. Dzieci Warszawy w Dziekanowie Le\u015bnym Wchodz\u0105ca w Sk\u0142ad Zespo\u0142u Szk\u00f3\u0142 Specjalnych w Samodzielnym Zespole Publicznych Zak\u0142a","name":"Specjalna Szko\u0142a Podstawowa Z Oddzia\u0142ami Przedszkolnymi w Samodzielnym Zespole Publicznych Zak\u0142ad\u00f3w Opieki Zdrowotnej","addr:country":"PL","addr:postcode":"05-092","addr:city":"Dziekan\u00f3w Le\u015bny","addr:street":"ul. Marii Konopnickiej","addr:housenumber":"65","addr:teryt:simc":9186,"addr:teryt:sym_ul":5115,"contact:phone":"+48 227657117","contact:email":"szkola.sekretariat@szpitaldziekanow.pl","contact:website":"https:\/\/szkoladziekanow.edu.pl\/","ref:regon":"006375764","operator":"Wojew\u00f3dztwo Mazowieckie","operator:type":"government","amenity":"school","note":"Parent RSPO: 272437"}},{"id":272338,"type":"Feature","geometry":{"type":"Point","coordinates":[20.85568,52.34636]},"properties":{"isced:level":"3","ref:rspo":272338,"official_name":"Specjalne Liceum Og\u00f3lnokszta\u0142c\u0105ce w Samodzielnym Zespole Publicznych Zak\u0142ad\u00f3w Opieki Zdrowotnej im. Dzieci Warszawy w Dziekanowie Le\u015bnym Wchodz\u0105ce w Sk\u0142ad Zespo\u0142u Szk\u00f3\u0142 Specjalnych w Samodzielnym Zespole Publicznych Zak\u0142ad\u00f3w Opieki Zdrowotne","name":"Specjalne Liceum Og\u00f3lnokszta\u0142c\u0105ce w Samodzielnym Zespole Publicznych Zak\u0142ad\u00f3w Opieki Zdrowotnej","addr:country":"PL","addr:postcode":"05-092","addr:city":"Dziekan\u00f3w Le\u015bny","addr:street":"ul. Marii Konopnickiej","addr:housenumber":"65","addr:teryt:simc":9186,"addr:teryt:sym_ul":5115,"contact:phone":"+48 227657117","contact:email":"szkola.sekretariat@szpitaldziekanow.pl","contact:website":"https:\/\/szkoladziekanow.edu.pl\/","ref:regon":"384137537","operator":"Wojew\u00f3dztwo Mazowieckie","operator:type":"government","amenity":"school","note":"Parent RSPO: 272437"}},{"id":266105,"type":"Feature","geometry":{"type":"Point","coordinates":[20.8570768,52.3468282]},"properties":{"ref:rspo":266105,"official_name":"Przedszkole Samorz\u0105dowe Nr 2 w Dziekanowie Le\u015bnym","name":"Przedszkole Samorz\u0105dowe Nr 2 w Dziekanowie Le\u015bnym","addr:country":"PL","addr:postcode":"05-092","addr:city":"Dziekan\u00f3w Le\u015bny","addr:street":"ul. por. Francisa Akinsa","addr:housenumber":"8","addr:teryt:simc":166,"addr:teryt:sym_ul":5115,"contact:phone":"+48 224276556","contact:email":"ps2dl@edulomianki.pl","ref:regon":"369264747","operator":"Gmina \u0141omianki","operator:type":"government","amenity":"kindergarten"}},{"id":21172,"type":"Feature","geometry":{"type":"Point","coordinates":[20.85726,52.34817]},"properties":{"isced:level":"1;2","ref:rspo":21172,"official_name":"Szko\u0142a Podstawowa im. Marii Konopnickiej w Dziekanowie Le\u015bnym","name":"Szko\u0142a Podstawowa","addr:country":"PL","addr:postcode":"05-092","addr:city":"Dziekan\u00f3w Le\u015bny","addr:street":"ul. por. Francisa Akinsa","addr:housenumber":"6","addr:teryt:simc":166,"addr:teryt:sym_ul":5115,"contact:phone":"+48 227512088","contact:email":"spdl@edulomianki.pl","contact:website":"http:\/\/spdl.edulomianki.pl","ref:regon":"001147484","ref:vatin":"PL1181748138","operator":"Gmina \u0141omianki","operator:type":"government","amenity":"school"}},{"id":113972,"type":"Feature","geometry":{"type":"Point","coordinates":[20.85726,52.34814]},"properties":{"ref:rspo":113972,"official_name":"Poradnia Psychologiczno-Pedagogiczna w Dziekanowie Le\u015bnym","name":"Poradnia Psychologiczno-Pedagogiczna w Dziekanowie Le\u015bnym","addr:country":"PL","addr:postcode":"05-092","addr:city":"Dziekan\u00f3w Le\u015bny","addr:street":"ul. por. Francisa Akinsa","addr:housenumber":"6","addr:teryt:simc":166,"addr:teryt:sym_ul":5115,"contact:phone":"+48 227515786","contact:email":"sekretariat_dziekanow@zpppblonie.pl","contact:website":"http:\/\/www.zpppblonie.pl","ref:regon":"146640864","operator":"Powiat Warszawski Zachodni","operator:type":"government","healthcare":"councelling","counselling_type":"education","fixme":"w zale\u017cno\u015bci od przedmiotu dzia\u0142alno\u015bci (np. healthcare=councelling + counselling_type=education albo healthcare=psychotherapist)","note":"Parent RSPO: 8053"}},{"id":107161,"type":"Feature","geometry":{"type":"Point","coordinates":[20.84506,52.3508799]},"properties":{"ref:rspo":107161,"official_name":"Przedszkole Niepubliczne \"Bajkowe Elfy\"","name":"Przedszkole Niepubliczne \"Bajkowe Elfy\"","addr:country":"PL","addr:postcode":"05-092","addr:city":"Dziekan\u00f3w Polski","addr:street":"ul. Mi\u0142a","addr:housenumber":"52","addr:teryt:simc":12947,"addr:teryt:sym_ul":5121,"contact:email":"bajkowe.elfy@gmail.com","contact:website":"http:\/\/www.bajkowe-elfy.pl","ref:regon":"146492040","ref:vatin":"PL5261612779","operator":"Ma\u0142gorzata Bojar","operator:type":"private","amenity":"kindergarten"}},{"id":133054,"type":"Feature","geometry":{"type":"Point","coordinates":[20.85388,52.35136]},"properties":{"ref:rspo":133054,"official_name":"Przedszkole Kids Story","name":"Przedszkole Kids Story","addr:country":"PL","addr:postcode":"05-092","addr:city":"Dziekan\u00f3w Le\u015bny","addr:street":"ul. Kolejowa","addr:housenumber":"222","addr:teryt:simc":8828,"addr:teryt:sym_ul":5115,"contact:phone":"+48 697612975","contact:email":"kontakt@kids-story.pl","contact:website":"http:\/\/www.kids-story.pl","ref:regon":"366555378","operator":"\u0141ukasz Chudzicki","operator:type":"private","amenity":"kindergarten"}},{"id":275298,"type":"Feature","geometry":{"type":"Point","coordinates":[20.8853,52.3515]},"properties":{"ref:rspo":275298,"official_name":"Punkt Przedszkolny Chmurka","name":"Punkt Przedszkolny Chmurka","addr:country":"PL","addr:postcode":"05-092","addr:city":"\u0141omianki Dolne","addr:street":"ul. Aleja Fryderyka Chopina","addr:housenumber":"86","addr:teryt:simc":44073,"addr:teryt:sym_ul":5167,"contact:phone":"+48 733043803","contact:email":"chmurka322@gmail.com","ref:regon":"386800342","operator":"Anna Urba\u0144ska","operator:type":"private","amenity":"kindergarten"}},{"id":11828,"type":"Feature","geometry":{"type":"Point","coordinates":[20.82649,52.35154]},"properties":{"isced:level":"1;2","ref:rspo":11828,"official_name":"Szko\u0142a Podstawowa im. Jadwigi I Romana Kobendz\u00f3w w Sadowej","name":"Szko\u0142a Podstawowa","addr:country":"PL","addr:postcode":"05-092","addr:city":"Sadowa","addr:street":"ul. Strzelecka","addr:housenumber":"35","addr:teryt:simc":21381,"addr:teryt:sym_ul":5180,"contact:phone":"+48 227512510","contact:email":"wiejska@sp-sadowa.edu.pl","contact:website":"http:\/\/www.sp-sadowa.szkolnastrona.pl","ref:regon":"001146705","ref:vatin":"PL1181517108","operator":"Gmina \u0141omianki","operator:type":"government","amenity":"school"}},{"id":12004,"type":"Feature","geometry":{"type":"Point","coordinates":[20.90512,52.35582]},"properties":{"ref:rspo":12004,"official_name":"Przedszkole Niepubliczne Akademia Ma\u0142ego Cz\u0142owieka","name":"Przedszkole Niepubliczne Akademia Ma\u0142ego Cz\u0142owieka","addr:country":"PL","addr:postcode":"05-092","addr:city":"\u0141omianki Dolne","addr:street":"ul. Brzegowa","addr:housenumber":"8d","addr:teryt:simc":2229,"addr:teryt:sym_ul":5167,"contact:phone":"+48 727528404","contact:email":"amc-lomianki@o2.pl","contact:website":"http:\/\/www.amc-lomianki.pl","ref:regon":"146294824","operator":"Gra\u017cyna \u015awiderska","operator:type":"private","amenity":"kindergarten"}},{"id":21170,"type":"Feature","geometry":{"type":"Point","coordinates":[20.83621,52.36778]},"properties":{"isced:level":"1;2","ref:rspo":21170,"official_name":"Szko\u0142a Podstawowa im. Por. Adolfa Pilcha Ps. G\u00f3ra-Dolina w Dziekanowie Polskim","name":"Szko\u0142a Podstawowa","addr:country":"PL","addr:postcode":"05-092","addr:city":"Dziekan\u00f3w Polski","addr:street":"ul. Rolnicza","addr:housenumber":"435","addr:teryt:simc":18821,"addr:teryt:sym_ul":5121,"contact:phone":"+48 227511023","contact:email":"sekretariat@spdziekanowpol.szkolnastrona.pl","contact:website":"http:\/\/www.spdziekanowpol.szkolnastrona.pl","ref:regon":"001146697","ref:vatin":"PL1181520553","operator":"Gmina \u0141omianki","operator:type":"government","amenity":"school"}},{"id":15893,"type":"Feature","geometry":{"type":"Point","coordinates":[20.82781,52.36979]},"properties":{"ref:rspo":15893,"official_name":"Punkt Przedszkolny \"Pippilandia\"","name":"Punkt Przedszkolny \"Pippilandia\"","addr:country":"PL","addr:postcode":"05-092","addr:city":"Dziekan\u00f3w Polski","addr:street":"ul. Rolnicza","addr:housenumber":"485","addr:door":"2","addr:teryt:simc":18821,"addr:teryt:sym_ul":5121,"contact:phone":"+48 605439275","contact:email":"grazynajakula@op.pl","ref:regon":"146331258","ref:vatin":"PL5311182968","operator":"Gra\u017cyna Jaku\u0142a","operator:type":"private","amenity":"kindergarten"}}]}