{"type":"FeatureCollection","features":[{"id":71187,"type":"Feature","geometry":{"type":"Point","coordinates":[20.70002,52.19461]},"properties":{"ref:rspo":71187,"official_name":"Przedszkole Publiczne w J\u00f3zefowie","name":"Przedszkole Publiczne w J\u00f3zefowie","addr:country":"PL","addr:postcode":"05-860","addr:city":"J\u00f3zef\u00f3w","addr:street":"ul. Kasztanowa","addr:housenumber":"12","addr:teryt:simc":8171,"addr:teryt:sym_ul":5820,"contact:phone":"+48 222926015","contact:email":"przedszkole-jozefow@wp.pl","contact:website":"http:\/\/www.pj.ozarow-mazowiecki.pl","ref:regon":"013003853","ref:vatin":"PL1181766142","operator":"Gmina O\u017car\u00f3w Mazowiecki","operator:type":"government","amenity":"kindergarten"}},{"id":71511,"type":"Feature","geometry":{"type":"Point","coordinates":[20.7066899,52.1985]},"properties":{"isced:level":"1;2","ref:rspo":71511,"official_name":"Szko\u0142a Podstawowa Nr2 im.obro\u0144c\u00f3w Warszawy","name":"Szko\u0142a Podstawowa Nr2 im.obro\u0144c\u00f3w Warszawy","addr:country":"PL","addr:postcode":"05-850","addr:city":"O\u017car\u00f3w Mazowiecki","addr:street":"ul. Lipowa","addr:housenumber":"11","addr:teryt:simc":11139,"addr:teryt:sym_ul":921415,"contact:phone":"+48 222921120","contact:email":"dyrektor@sp2.ozarow-mazowiecki.pl","contact:website":"http:\/\/www.sp2ozarowmaz.szkolnastrona.pl\/","ref:regon":"001248989","ref:vatin":"PL1181573785","operator":"Gmina O\u017car\u00f3w Mazowiecki","operator:type":"government","amenity":"school"}},{"id":71921,"type":"Feature","geometry":{"type":"Point","coordinates":[20.71145,52.19909]},"properties":{"isced:level":"1;2","ref:rspo":71921,"official_name":"Szko\u0142a Podstawowa im. Szarych Szereg\u00f3w","name":"Szko\u0142a Podstawowa","addr:country":"PL","addr:postcode":"05-860","addr:city":"P\u0142ochocin","addr:street":"ul. Lipowa","addr:housenumber":"3","addr:teryt:simc":11139,"addr:teryt:sym_ul":6037,"contact:phone":"+48 227225015","contact:email":"dyrektor@spp.ozarow-mazowiecki.pl","contact:website":"http:\/\/www.spplochocin.oswiata.org.pl","ref:regon":"001146680","ref:vatin":"PL1181477521","operator":"Gmina O\u017car\u00f3w Mazowiecki","operator:type":"government","amenity":"school"}},{"id":130629,"type":"Feature","geometry":{"type":"Point","coordinates":[20.78959,52.20066]},"properties":{"isced:level":"1;2","ref:rspo":130629,"official_name":"Szko\u0142a Podstawowa im. Wandy Rutkiewicz w Duchnicach","name":"Szko\u0142a Podstawowa","addr:country":"PL","addr:postcode":"05-850","addr:city":"Duchnice","addr:street":"ul. Duchnicka","addr:housenumber":"25","addr:teryt:simc":4348,"addr:teryt:sym_ul":5776,"contact:phone":"+48 225065780","contact:email":"dyrektor@spd.ozarow-mazowiecki.pl","contact:website":"http:\/\/spd.ozarow-mazowiecki.pl","ref:regon":"364271607","ref:vatin":"PL1182123831","operator":"Gmina O\u017car\u00f3w Mazowiecki","operator:type":"government","amenity":"school"}},{"id":123146,"type":"Feature","geometry":{"type":"Point","coordinates":[20.77719,52.20505]},"properties":{"ref:rspo":123146,"official_name":"Gliniarnia Ceramika Artystyczna Aleksandra Wola\u0144ska","name":"Gliniarnia Ceramika Artystyczna Aleksandra Wola\u0144ska","addr:country":"PL","addr:postcode":"05-850","addr:city":"O\u0142tarzew","addr:street":"ul. Duchnicka","addr:housenumber":"54","addr:teryt:simc":4348,"addr:teryt:sym_ul":5960,"contact:phone":"+48 691360432","ref:regon":"360606376","operator":"Aleksandra Wola\u0144ska","operator:type":"private","fixme":"w zale\u017cno\u015bci od przedmiotu dzia\u0142alno\u015bci (np. amenity=training + training=*, amenity=dancing_school, amenity=language_school, amenity=music_school)"}},{"id":262613,"type":"Feature","geometry":{"type":"Point","coordinates":[20.79864,52.20887]},"properties":{"isced:level":"1;2","ref:rspo":262613,"official_name":"Szko\u0142a Podstawowa im. Wincentego Pallottiego w O\u017carowie Mazowieckim","name":"Szko\u0142a Podstawowa","addr:country":"PL","addr:postcode":"05-850","addr:city":"O\u017car\u00f3w Mazowiecki","addr:street":"ul. Pozna\u0144ska","addr:housenumber":"183","addr:teryt:simc":17394,"addr:teryt:sym_ul":921415,"contact:phone":"+48 227224615","contact:email":"sekretariat@szkola-ozarow.pl","contact:website":"http:\/\/www.szkola-ozarow.pl\/","ref:regon":"368041838","operator":"Stowarzyszenie Apostolstwa Katolickiego {Ksi\u0119\u017ca Pallotyni}","operator:type":"ngo","amenity":"school"}},{"id":71143,"type":"Feature","geometry":{"type":"Point","coordinates":[20.84019,52.20934]},"properties":{"ref:rspo":71143,"official_name":"Przedszkole Publiczne w Broniszach","name":"Przedszkole Publiczne w Broniszach","addr:country":"PL","addr:postcode":"05-850","addr:city":"Bronisze","addr:street":"ul. Kwiatowa","addr:housenumber":"13","addr:teryt:simc":10562,"addr:teryt:sym_ul":5753,"contact:phone":"+48 227223201","contact:email":"przedszkole@pb.ozarow-mazowiecki.pl","contact:website":"http:\/\/www.przedszkolebronisze.edupage.org","ref:regon":"013003882","ref:vatin":"PL1181767526","operator":"Gmina O\u017car\u00f3w Mazowiecki","operator:type":"government","amenity":"kindergarten"}},{"id":125541,"type":"Feature","geometry":{"type":"Point","coordinates":[20.79244,52.2093599]},"properties":{"ref:rspo":125541,"official_name":"Niepubliczne Przedszkole J\u0119zykowo Sportowe Bajlandia","name":"Niepubliczne Przedszkole J\u0119zykowo Sportowe Bajlandia","addr:country":"PL","addr:postcode":"05-850","addr:city":"O\u017car\u00f3w Mazowiecki","addr:street":"ul. Spacerowa","addr:housenumber":"8","addr:teryt:simc":20641,"addr:teryt:sym_ul":921415,"contact:phone":"+48 227221370","contact:email":"ozarow.bajlandia@gmail.com","contact:website":"http:\/\/www.przedszkole-bajlandia.pl","ref:regon":"147455459","operator":"Krystyna Wnuk-Trz\u0119sa\u0142a","operator:type":"private","amenity":"kindergarten"}},{"id":125215,"type":"Feature","geometry":{"type":"Point","coordinates":[20.80869,52.21023]},"properties":{"ref:rspo":125215,"official_name":"Przedszkole Niepubliczne\n\"Berek'","name":"Przedszkole Niepubliczne\n\"Berek'","addr:country":"PL","addr:postcode":"05-850","addr:city":"O\u017car\u00f3w Mazowiecki","addr:street":"ul. Pozna\u0144ska","addr:housenumber":"232","addr:teryt:simc":17394,"addr:teryt:sym_ul":921415,"contact:phone":"+48 666883378","contact:email":"ela.wewior@wp.pl","contact:website":"http:\/\/www.przedszkoleberek.pl","ref:regon":"147430933","operator":"El\u017cbieta Wiewi\u00f3r","operator:type":"private","amenity":"kindergarten"}},{"id":71068,"type":"Feature","geometry":{"type":"Point","coordinates":[20.81699,52.21045]},"properties":{"ref:rspo":71068,"official_name":"Przedszkole Publiczne Nr2 Magiczny Ogr\u00f3d","name":"Przedszkole Publiczne Nr2 Magiczny Ogr\u00f3d","addr:country":"PL","addr:postcode":"05-850","addr:city":"O\u017car\u00f3w Mazowiecki","addr:street":"ul. Pozna\u0144ska","addr:housenumber":"135","addr:teryt:simc":17394,"addr:teryt:sym_ul":921415,"contact:phone":"+48 227221240","contact:email":"przedszkolepubliczne2@wp.pl","contact:website":"http:\/\/p2.ozarow-mazowiecki.pl","ref:regon":"013003847","ref:vatin":"PL1181766113","operator":"Gmina O\u017car\u00f3w Mazowiecki","operator:type":"government","amenity":"kindergarten"}},{"id":270689,"type":"Feature","geometry":{"type":"Point","coordinates":[20.81989,52.21074]},"properties":{"ref:rspo":270689,"official_name":"Prywatne Przedszkole \"\u015apiewaj\u0105ce Brzd\u0105ce\"","name":"Prywatne Przedszkole \"\u015apiewaj\u0105ce Brzd\u0105ce\"","addr:country":"PL","addr:postcode":"05-850","addr:city":"O\u017car\u00f3w Mazowiecki","addr:street":"ul. Pozna\u0144ska","addr:housenumber":"129\/133","addr:door":"budynek B","addr:teryt:simc":17394,"addr:teryt:sym_ul":921415,"contact:email":"ozarow@spiewajacebrzdace.pl","contact:website":"http:\/\/www.spiewajacebrzdace.pl","ref:regon":"382858623","operator":"Kamila Stypu\u0142a","operator:type":"private","amenity":"kindergarten"}},{"id":8091,"type":"Feature","geometry":{"type":"Point","coordinates":[20.81915,52.21076]},"properties":{"ref:rspo":8091,"official_name":"Zesp\u00f3\u0142 Szk\u00f3\u0142 Nr 1 w O\u017carowie Mazowieckim","name":"Zesp\u00f3\u0142 Szk\u00f3\u0142 Nr 1 w O\u017carowie Mazowieckim","addr:country":"PL","addr:postcode":"05-850","addr:city":"O\u017car\u00f3w Mazowiecki","addr:street":"ul. Pozna\u0144ska","addr:housenumber":"129\/131","addr:teryt:simc":17394,"addr:teryt:sym_ul":921415,"contact:phone":"+48 227224193","contact:email":"szkolaozarow@poczta.onet.pl","contact:website":"http:\/\/zs1ozarow.edupage.org","ref:regon":"012127027","ref:vatin":"PL5341465582","operator":"Powiat Warszawski Zachodni","operator:type":"government","landuse":"education","fixme":"amenity=school, amenity=college albo landuse=education w zale\u017cno\u015bci od tego, jakie plac\u00f3wki wchodz\u0105 w sk\u0142ad zespo\u0142u. Sprawd\u017a, kiedy stosowa\u0107 amenity=* a kiedy landuse=education.","note":"Children RSPO: 31367;126868;126884"}},{"id":31367,"type":"Feature","geometry":{"type":"Point","coordinates":[20.81915,52.21073]},"properties":{"isced:level":"3","ref:rspo":31367,"official_name":"Technikum im. Tony Halika w Zespole Szk\u00f3\u0142 Nr 1 w O\u017carowie Mazowieckim","name":"Technikum","addr:country":"PL","addr:postcode":"05-850","addr:city":"O\u017car\u00f3w Mazowiecki","addr:street":"ul. Pozna\u0144ska","addr:housenumber":"129\/131","addr:teryt:simc":17394,"addr:teryt:sym_ul":921415,"contact:phone":"+48 227224193","contact:email":"szkolaozarow@poczta.onet.pl","contact:website":"http:\/\/www.zs1ozarow.edupage.org","ref:regon":"010996820","operator":"Powiat Warszawski Zachodni","operator:type":"government","amenity":"school","note":"Parent RSPO: 8091"}},{"id":126868,"type":"Feature","geometry":{"type":"Point","coordinates":[20.81915,52.2107]},"properties":{"isced:level":"3","ref:rspo":126868,"official_name":"Liceum Og\u00f3lnokszta\u0142c\u0105ce w Zespole Szk\u00f3\u0142 Nr 1 w O\u017carowie Mazowieckim","name":"Liceum Og\u00f3lnokszta\u0142c\u0105ce w Zespole Szk\u00f3\u0142 Nr 1 w O\u017carowie Mazowieckim","addr:country":"PL","addr:postcode":"05-850","addr:city":"O\u017car\u00f3w Mazowiecki","addr:street":"ul. Pozna\u0144ska","addr:housenumber":"129\/131","addr:teryt:simc":17394,"addr:teryt:sym_ul":921415,"contact:phone":"+48 227224193","contact:email":"szkolaozarow@poczta.onet.pl","contact:website":"http:\/\/www.zs1ozarow.edupage.org","ref:regon":"013168360","operator":"Powiat Warszawski Zachodni","operator:type":"government","amenity":"school","note":"Parent RSPO: 8091"}},{"id":126884,"type":"Feature","geometry":{"type":"Point","coordinates":[20.81915,52.21067]},"properties":{"isced:level":"3","ref:rspo":126884,"official_name":"Bran\u017cowa Szko\u0142a I Stopnia w Zespole Szk\u00f3\u0142 Nr 1 w O\u017carowie Mazowieckim","name":"Bran\u017cowa Szko\u0142a I Stopnia w Zespole Szk\u00f3\u0142 Nr 1 w O\u017carowie Mazowieckim","addr:country":"PL","addr:postcode":"05-850","addr:city":"O\u017car\u00f3w Mazowiecki","addr:street":"ul. Pozna\u0144ska","addr:housenumber":"129\/131","addr:teryt:simc":17394,"addr:teryt:sym_ul":921415,"contact:phone":"+48 227224193","contact:email":"szkolaozarow@poczta.onet.pl","contact:website":"http:\/\/www.sz1ozarow.edupage.org","ref:regon":"360853838","operator":"Powiat Warszawski Zachodni","operator:type":"government","amenity":"school","note":"Parent RSPO: 8091"}},{"id":120771,"type":"Feature","geometry":{"type":"Point","coordinates":[20.8033499,52.2110399]},"properties":{"ref:rspo":120771,"official_name":"Niepubliczna Poradnia Psychologiczno-Pedagogiczna Poradnia O\u017carowska Anna Jaro\u0144","name":"Niepubliczna Poradnia Psychologiczno-Pedagogiczna Poradnia O\u017carowska Anna Jaro\u0144","addr:country":"PL","addr:postcode":"05-850","addr:city":"O\u017car\u00f3w Mazowiecki","addr:street":"ul. O\u017carowska","addr:housenumber":"27","addr:door":"U1","addr:teryt:simc":15494,"addr:teryt:sym_ul":921415,"contact:email":"info@poradniaozarowska.pl","contact:website":"http:\/\/poradniaozarowska.pl","ref:regon":"146962846","operator":"Anna Jaro\u0144","operator:type":"private","healthcare":"councelling","counselling_type":"education","fixme":"w zale\u017cno\u015bci od przedmiotu dzia\u0142alno\u015bci (np. healthcare=councelling + counselling_type=education albo healthcare=psychotherapist)"}},{"id":70936,"type":"Feature","geometry":{"type":"Point","coordinates":[20.8035,52.21137]},"properties":{"ref:rspo":70936,"official_name":"Przedszkole Publiczne Nr 1 Z Oddzia\u0142ami Integracyjnymi","name":"Przedszkole Publiczne Nr 1 Z Oddzia\u0142ami Integracyjnymi","addr:country":"PL","addr:postcode":"05-850","addr:city":"O\u017car\u00f3w Mazowiecki","addr:street":"ul. O\u017carowska","addr:housenumber":"34","addr:teryt:simc":15494,"addr:teryt:sym_ul":921415,"contact:phone":"+48 227221040","contact:email":"ozarowska@p1.ozarow-mazowiecki.pl","contact:website":"http:\/\/www.p1.ozarow-mazowiecki.pl","ref:regon":"013003830","ref:vatin":"PL1181766159","operator":"Gmina O\u017car\u00f3w Mazowiecki","operator:type":"government","amenity":"kindergarten"}},{"id":72894,"type":"Feature","geometry":{"type":"Point","coordinates":[20.79465,52.21163]},"properties":{"isced:level":"1;2","ref:rspo":72894,"official_name":"Szko\u0142a Podstawowa Nr1 im. Janusza Kusocinskiego","name":"Szko\u0142a Podstawowa Nr1","addr:country":"PL","addr:postcode":"05-850","addr:city":"O\u017car\u00f3w Mazowiecki","addr:street":"ul. Szkolna","addr:housenumber":"2","addr:teryt:simc":21970,"addr:teryt:sym_ul":921415,"contact:phone":"+48 227211019","contact:email":"sekretariat-glowny@sp1.ozarow-mazowiecki.pl","contact:website":"http:\/\/www.sp1ozarow.pl","ref:regon":"000264472","ref:vatin":"PL1181428468","operator":"Gmina O\u017car\u00f3w Mazowiecki","operator:type":"government","amenity":"school"}},{"id":72105,"type":"Feature","geometry":{"type":"Point","coordinates":[20.69235,52.21204]},"properties":{"isced:level":"1;2","ref:rspo":72105,"official_name":"Szko\u0142a Podstawowa im. Marsza\u0142ka J\u00f3zefa Pi\u0142sudskiego","name":"Szko\u0142a Podstawowa","addr:country":"PL","addr:postcode":"05-860","addr:city":"\u015awi\u0119cice","addr:street":"ul. Pozna\u0144ska","addr:housenumber":"541","addr:teryt:simc":17394,"addr:teryt:sym_ul":6095,"contact:phone":"+48 227225028","contact:email":"sekretarz@sps.ozarow-mazowiecki.pl","contact:website":"http:\/\/sps.ozarow-mazowiecki.pl","ref:regon":"016134640","ref:vatin":"PL1181479690","operator":"Gmina O\u017car\u00f3w Mazowiecki","operator:type":"government","amenity":"school"}},{"id":278319,"type":"Feature","geometry":{"type":"Point","coordinates":[20.82367,52.21246]},"properties":{"ref:rspo":278319,"official_name":"Akademia Kompetencji Keller Polska","name":"Akademia Kompetencji Keller Polska","addr:country":"PL","addr:postcode":"05-850","addr:city":"O\u017car\u00f3w Mazowiecki","addr:street":"ul. Pozna\u0144ska","addr:housenumber":"172","addr:teryt:simc":17394,"addr:teryt:sym_ul":921415,"contact:phone":"+48 224489200","contact:email":"keller-polska@keller.com","contact:website":"http:\/\/www.keller.com.pl","ref:regon":"389858112","operator":"\"Keller - Polska\" Sp\u00f3\u0142ka Z Ograniczon\u0105 Odpowiedzialno\u015bci\u0105","operator:type":"private","fixme":"w zale\u017cno\u015bci od przedmiotu dzia\u0142alno\u015bci (np. amenity=training + training=*, amenity=dancing_school, amenity=language_school, amenity=music_school)"}},{"id":263915,"type":"Feature","geometry":{"type":"Point","coordinates":[20.79303,52.21323]},"properties":{"ref:rspo":263915,"official_name":"Niepubliczna Poradnia Psychologiczno-Pedagogiczna \"Nasza Klinika\"","name":"Niepubliczna Poradnia Psychologiczno-Pedagogiczna \"Nasza Klinika\"","addr:country":"PL","addr:postcode":"05-850","addr:city":"O\u017car\u00f3w Mazowiecki","addr:street":"ul. Romana Dmowskiego","addr:housenumber":"39","addr:teryt:simc":3868,"addr:teryt:sym_ul":921415,"ref:regon":"368240331","operator":"Tamar Sp\u00f3\u0142ka Z Ograniczon\u0105 Odpowiedzialno\u015bci\u0105","operator:type":"private","healthcare":"councelling","counselling_type":"education","fixme":"w zale\u017cno\u015bci od przedmiotu dzia\u0142alno\u015bci (np. healthcare=councelling + counselling_type=education albo healthcare=psychotherapist)"}},{"id":275636,"type":"Feature","geometry":{"type":"Point","coordinates":[20.79303,52.2132]},"properties":{"isced:level":"1;2","ref:rspo":275636,"official_name":"Niepubliczna Specjalna Szko\u0142a Podstawowa Z Oddzia\u0142ami Przedszkolnymi Realizuj\u0105ca Program Rehabilitacji \"Nasza Szko\u0142a\"","name":"Niepubliczna Specjalna Szko\u0142a Podstawowa Z Oddzia\u0142ami Przedszkolnymi Realizuj\u0105ca Program Rehabilitacji \"Nasza Szko\u0142a\"","addr:country":"PL","addr:postcode":"05-850","addr:city":"O\u017car\u00f3w Mazowiecki","addr:street":"ul. Romana Dmowskiego","addr:housenumber":"39","addr:teryt:simc":3868,"addr:teryt:sym_ul":921415,"contact:phone":"+48 227221580","contact:email":"berkowska@aga.org.pl","contact:website":"http:\/\/aga.org.pl","ref:regon":"386930079","operator":"Stowarzyszenie \"Po Pierwsze Rodzina\"","operator:type":"ngo","amenity":"school"}},{"id":92373,"type":"Feature","geometry":{"type":"Point","coordinates":[20.78604,52.21752]},"properties":{"ref:rspo":92373,"official_name":"Przedszkole Niepubliczne Zgromadzenia Si\u00f3str Urszulanek S.j.k. im. \u015aw. Urszuli Led\u00f3chowskiej","name":"Przedszkole Niepubliczne Zgromadzenia Si\u00f3str Urszulanek S.j.k.","addr:country":"PL","addr:postcode":"05-850","addr:city":"O\u017car\u00f3w Mazowiecki","addr:street":"ul. Jana Zamoyskiego","addr:housenumber":"21\/23","addr:teryt:simc":25579,"addr:teryt:sym_ul":921415,"contact:phone":"+48 227221073","contact:email":"przedszkole.ozarow@urszulanki.pl","ref:regon":"146436649","ref:vatin":"PL5341559395","operator":"Dom Zakonny Zgromadzenia Si\u00f3str Urszulanek Serca Jezusa Konaj\u0105cego","operator:type":"religious","amenity":"kindergarten"}},{"id":126735,"type":"Feature","geometry":{"type":"Point","coordinates":[20.77732,52.22025]},"properties":{"ref:rspo":126735,"official_name":"Przedszkole Niepubliczne \"Szcz\u0119\u015bliwa Gwiazdeczka\"","name":"Przedszkole Niepubliczne \"Szcz\u0119\u015bliwa Gwiazdeczka\"","addr:country":"PL","addr:postcode":"05-850","addr:city":"O\u017car\u00f3w Mazowiecki","addr:street":"ul. J\u00f3zefa Hallera","addr:housenumber":"10\/8b","addr:teryt:simc":6487,"addr:teryt:sym_ul":921415,"contact:phone":"+48 509766613","contact:email":"zapisy@gwiazdeczka.com.pl","contact:website":"http:\/\/gwiazdeczka.com.pl","ref:regon":"360690193","operator":"Dane Do Uzupe\u0142nienia","operator:type":"private","amenity":"kindergarten"}},{"id":131606,"type":"Feature","geometry":{"type":"Point","coordinates":[20.84796,52.22684]},"properties":{"ref:rspo":131606,"official_name":"Publiczne Przedszkole Akademia Pod Modrzewiem","name":"Publiczne Przedszkole Akademia Pod Modrzewiem","addr:country":"PL","addr:postcode":"05-850","addr:city":"Macierzysz","addr:street":"ul. Sochaczewska","addr:housenumber":"89a","addr:teryt:simc":20463,"addr:teryt:sym_ul":5894,"contact:phone":"+48 504047426","contact:email":"akademia.macierzysz@gmail.com","contact:website":"http:\/\/www.akademiapodmodrzewiem.pl","ref:regon":"365324079","operator":"Stowarzyszenie Edu.akcja","operator:type":"ngo","amenity":"kindergarten"}},{"id":130105,"type":"Feature","geometry":{"type":"Point","coordinates":[20.78424,52.2300899]},"properties":{"ref:rspo":130105,"official_name":"Przedszkole Niepubliczne Edufrajda","name":"Przedszkole Niepubliczne Edufrajda","addr:country":"PL","addr:postcode":"05-850","addr:city":"Kaputy","addr:street":"ul. Sochaczewska","addr:housenumber":"213","addr:teryt:simc":20463,"addr:teryt:sym_ul":5842,"contact:phone":"+48 507104120","contact:email":"biuro@nowatorska.edu.pl","contact:website":"http:\/\/www.edufrajda.edu.pl","ref:regon":"363484956","operator":"\"Fundacja Nowatorska Edukacja\"","operator:type":"ngo","amenity":"kindergarten"}},{"id":130844,"type":"Feature","geometry":{"type":"Point","coordinates":[20.78424,52.2300599]},"properties":{"ref:rspo":130844,"official_name":"Nowatorska Poradnia Psychologiczno-Pedagogiczna","name":"Nowatorska Poradnia Psychologiczno-Pedagogiczna","addr:country":"PL","addr:postcode":"05-850","addr:city":"Kaputy","addr:street":"ul. Sochaczewska","addr:housenumber":"213","addr:teryt:simc":20463,"addr:teryt:sym_ul":5842,"contact:phone":"+48 577105055","contact:email":"biuro@nowatorska.edu.pl","ref:regon":"364620870","operator":"\"Fundacja Nowatorska Edukacja\"","operator:type":"ngo","healthcare":"councelling","counselling_type":"education","fixme":"w zale\u017cno\u015bci od przedmiotu dzia\u0142alno\u015bci (np. healthcare=councelling + counselling_type=education albo healthcare=psychotherapist)"}},{"id":272684,"type":"Feature","geometry":{"type":"Point","coordinates":[20.78393,52.23032]},"properties":{"isced:level":"1;2","ref:rspo":272684,"official_name":"Szko\u0142a Podstawowa Edujoy","name":"Szko\u0142a Podstawowa Edujoy","addr:country":"PL","addr:postcode":"05-850","addr:city":"Kaputy","addr:street":"ul. Sochaczewska","addr:housenumber":"215","addr:teryt:simc":20463,"addr:teryt:sym_ul":5842,"contact:email":"sekretariat@edujoy.pl","contact:website":"http:\/\/www.edujoy.pl","ref:regon":"384274777","ref:vatin":"PL1182199521","operator":"\"Fundacja Nowatorska Edukacja\"","operator:type":"ngo","amenity":"school"}},{"id":273050,"type":"Feature","geometry":{"type":"Point","coordinates":[20.78393,52.23029]},"properties":{"ref:rspo":273050,"official_name":"Nowatorski Instytut Kszta\u0142cenia","name":"Nowatorski Instytut Kszta\u0142cenia","addr:country":"PL","addr:postcode":"05-850","addr:city":"Kaputy","addr:street":"ul. Sochaczewska","addr:housenumber":"215","addr:teryt:simc":20463,"addr:teryt:sym_ul":5842,"contact:email":"biuro@nowatorska.edu.pl","contact:website":"http:\/\/www.nowatorska.pl","ref:regon":"384360620","operator":"\"Fundacja Nowatorska Edukacja\"","operator:type":"ngo","fixme":"w zale\u017cno\u015bci od przedmiotu dzia\u0142alno\u015bci (np. amenity=training + training=*, amenity=dancing_school, amenity=language_school, amenity=music_school)"}},{"id":267262,"type":"Feature","geometry":{"type":"Point","coordinates":[20.7634,52.23208]},"properties":{"isced:level":"1;2","ref:rspo":267262,"official_name":"Szko\u0142a Podstawowa w Umiastowie","name":"Szko\u0142a Podstawowa w Umiastowie","addr:country":"PL","addr:postcode":"05-850","addr:city":"Umiast\u00f3w","addr:street":"ul. Umiastowska","addr:housenumber":"74","addr:teryt:simc":23347,"addr:teryt:sym_ul":6103,"contact:phone":"+48 227221004","contact:email":"sekretarz@spu.ozarow-mazowiecki.pl","contact:website":"http:\/\/spu.ozarow-mazowiecki","ref:regon":"380038620","operator":"Gmina O\u017car\u00f3w Mazowiecki","operator:type":"government","amenity":"school"}}]}