{"type":"FeatureCollection","features":[{"id":74176,"type":"Feature","geometry":{"type":"Point","coordinates":[14.502960205078,35.87553024292]},"properties":{"ref:rspo":74176,"official_name":"Pedagogiczna Biblioteka Wojew\u00f3dzka im. Komisji Eukacji Narodowej w Warszawie Filia w B\u0142oniu","name":"Pedagogiczna Biblioteka Wojew\u00f3dzka","addr:country":"PL","addr:postcode":"05-870","addr:city":"B\u0142onie","addr:street":"ul. Jana Paw\u0142a II","addr:housenumber":"1B","addr:teryt:simc":7123,"addr:teryt:sym_ul":920249,"contact:phone":"+48 227253691","contact:email":"pbw.blonie@pbw.waw.pl","contact:website":"http:\/\/www.pbw.waw.pl","ref:regon":"107317530","ref:vatin":"PL5251563074","operator":"Wojew\u00f3dztwo Mazowieckie","operator:type":"government","amenity":"library","note":"Parent RSPO: 28033"}},{"id":120655,"type":"Feature","geometry":{"type":"Point","coordinates":[20.601685,52.181438]},"properties":{"ref:rspo":120655,"official_name":"Przedszkole Montessori \"Patison\"","name":"Przedszkole Montessori \"Patison\"","addr:country":"PL","addr:postcode":"05-870","addr:place":"Stare Faszczyce","addr:housenumber":"19A","addr:teryt:sym_ul":402,"contact:phone":"+48 507832170","contact:email":"biuro@przedszkolepatison.pl","contact:website":"http:\/\/www.przedszkolepatison.pl","ref:regon":"146934040","ref:vatin":"PL5262651681","operator":"Julia Janowska","operator:type":"private","amenity":"kindergarten"}},{"id":8244,"type":"Feature","geometry":{"type":"Point","coordinates":[20.5626997,52.1828849]},"properties":{"ref:rspo":8244,"official_name":"Przedszkole Publiczne Nr6 \"Iskierka\" w Bieniewicach","name":"Przedszkole Publiczne Nr6 \"Iskierka\" w Bieniewicach","addr:country":"PL","addr:postcode":"05-870","addr:city":"Bieniewice","addr:street":"ul. B\u0142o\u0144ska","addr:housenumber":"62","addr:teryt:simc":1469,"addr:teryt:sym_ul":46,"contact:phone":"+48 227251190","contact:email":"iskierka@blonie.pl","contact:website":"http:\/\/www.iskierka.blonie.pl","ref:regon":"013005970","ref:vatin":"PL5291289076","operator":"Gmina B\u0142onie","operator:type":"government","amenity":"kindergarten"}},{"id":26885,"type":"Feature","geometry":{"type":"Point","coordinates":[20.5626997,52.182854899999995]},"properties":{"isced:level":"1;2","ref:rspo":26885,"official_name":"Szko\u0142a Podstawowa im. Jana Paw\u0142a II w Bieniewicach","name":"Szko\u0142a Podstawowa","addr:country":"PL","addr:postcode":"05-870","addr:city":"Bieniewice","addr:street":"ul. B\u0142o\u0144ska","addr:housenumber":"62","addr:teryt:simc":1469,"addr:teryt:sym_ul":46,"contact:phone":"+48 227253093","contact:email":"sp_bieniewice@poczta.onet.pl","contact:website":"http:\/\/www.zsbieniewice.blonie.pl","ref:regon":"000799760","ref:vatin":"PL1181694649","operator":"Gmina B\u0142onie","operator:type":"government","amenity":"school"}},{"id":7574,"type":"Feature","geometry":{"type":"Point","coordinates":[20.61238,52.18525]},"properties":{"ref:rspo":7574,"official_name":"Przedszkole Publiczne Nr 4 \"Stokrotka\"","name":"Przedszkole Publiczne Nr 4 \"Stokrotka\"","addr:country":"PL","addr:postcode":"05-870","addr:city":"B\u0142onie","addr:street":"ul. Grodziska","addr:housenumber":"15","addr:teryt:simc":6159,"addr:teryt:sym_ul":920249,"contact:phone":"+48 227253250","contact:email":"stokrotkablonie4@wp.pl","contact:website":"http:\/\/www.przedszkolestokrotka.blonie.pl","ref:regon":"013005958","ref:vatin":"PL5291289047","operator":"Gmina B\u0142onie","operator:type":"government","amenity":"kindergarten"}},{"id":271761,"type":"Feature","geometry":{"type":"Point","coordinates":[20.61274,52.18614]},"properties":{"ref:rspo":271761,"official_name":"Przedszkole Kolumbus Junior","name":"Przedszkole Kolumbus Junior","addr:country":"PL","addr:postcode":"05-870","addr:city":"B\u0142onie","addr:street":"ul. \u0141\u0105ki","addr:housenumber":"2A","addr:teryt:simc":11588,"addr:teryt:sym_ul":920249,"contact:email":"przedszkole@kolumbusjunior.pl","ref:regon":"383605670","operator":"Edujunior Sp\u00f3\u0142ka Z Ograniczon\u0105 Odpowiedzialno\u015bci\u0105","operator:type":"private","amenity":"kindergarten"}},{"id":4530,"type":"Feature","geometry":{"type":"Point","coordinates":[20.6158,52.18614]},"properties":{"ref:rspo":4530,"official_name":"Zesp\u00f3\u0142 Szk\u00f3\u0142 Nr 1 im. Melchiora Wa\u0144kowicza","name":"Zesp\u00f3\u0142 Szk\u00f3\u0142 Nr 1","addr:country":"PL","addr:postcode":"05-870","addr:city":"B\u0142onie","addr:street":"ul. \u0141\u0105ki","addr:housenumber":"2","addr:teryt:simc":11588,"addr:teryt:sym_ul":920249,"contact:phone":"+48 227254848","contact:email":"szkola.blonie@wp.pl","contact:website":"http:\/\/zs1-blonie.pl","ref:regon":"000035085","ref:vatin":"PL5291279770","operator":"Powiat Warszawski Zachodni","operator:type":"government","landuse":"education","fixme":"amenity=school, amenity=college albo landuse=education w zale\u017cno\u015bci od tego, jakie plac\u00f3wki wchodz\u0105 w sk\u0142ad zespo\u0142u. Sprawd\u017a, kiedy stosowa\u0107 amenity=* a kiedy landuse=education.","note":"Children RSPO: 30197;30395;126806;126866"}},{"id":270229,"type":"Feature","geometry":{"type":"Point","coordinates":[20.6158,52.18611]},"properties":{"ref:rspo":270229,"official_name":"Black Sparrow School","name":"Black Sparrow School","addr:country":"PL","addr:postcode":"05-870","addr:city":"B\u0142onie","addr:street":"ul. \u0141\u0105ki","addr:housenumber":"2","addr:teryt:simc":11588,"addr:teryt:sym_ul":920249,"contact:email":"biuro@blacksparrow.pl","ref:regon":"382229070","operator":"Black Sparrow Corp. Mateusz Wr\u00f3bel","operator:type":"consortium","fixme":"w zale\u017cno\u015bci od przedmiotu dzia\u0142alno\u015bci (np. amenity=training + training=*, amenity=dancing_school, amenity=language_school, amenity=music_school)"}},{"id":270230,"type":"Feature","geometry":{"type":"Point","coordinates":[20.6158,52.186080000000004]},"properties":{"ref:rspo":270230,"official_name":"Sparrow School","name":"Sparrow School","addr:country":"PL","addr:postcode":"05-870","addr:city":"B\u0142onie","addr:street":"ul. \u0141\u0105ki","addr:housenumber":"2","addr:teryt:simc":11588,"addr:teryt:sym_ul":920249,"contact:email":"biuro@blacksparrow.pl","ref:regon":"382229152","operator":"Black Sparrow Corp. Mateusz Wr\u00f3bel","operator:type":"consortium","fixme":"w zale\u017cno\u015bci od przedmiotu dzia\u0142alno\u015bci (np. amenity=training + training=*, amenity=dancing_school, amenity=language_school, amenity=music_school)"}},{"id":30197,"type":"Feature","geometry":{"type":"Point","coordinates":[20.6158,52.18605]},"properties":{"isced:level":"3","ref:rspo":30197,"official_name":"Ii Liceum Og\u00f3lnokszta\u0142c\u0105ce w Zespole Szk\u00f3\u0142 Nr 1 im. Melchiora Wa\u0144kowicza w B\u0142oniu","name":"Ii Liceum Og\u00f3lnokszta\u0142c\u0105ce w Zespole Szk\u00f3\u0142 Nr 1","addr:country":"PL","addr:postcode":"05-870","addr:city":"B\u0142onie","addr:street":"ul. \u0141\u0105ki","addr:housenumber":"2","addr:teryt:simc":11588,"addr:teryt:sym_ul":920249,"contact:phone":"+48 227254848","contact:email":"szkola.blonie@wp.pl","contact:website":"http:\/\/www.zs1-blonie.pl","ref:regon":"015547965","operator":"Powiat Warszawski Zachodni","operator:type":"government","amenity":"school","note":"Parent RSPO: 4530"}},{"id":30395,"type":"Feature","geometry":{"type":"Point","coordinates":[20.6158,52.18602]},"properties":{"isced:level":"3","ref:rspo":30395,"official_name":"Technikum Nr 1 w Zespole Szk\u00f3\u0142 Nr 1 im. Melchiora Wa\u0144kowicza w B\u0142oniu","name":"Technikum Nr 1 w Zespole Szk\u00f3\u0142 Nr 1","addr:country":"PL","addr:postcode":"05-870","addr:city":"B\u0142onie","addr:street":"ul. \u0141\u0105ki","addr:housenumber":"2","addr:teryt:simc":11588,"addr:teryt:sym_ul":920249,"contact:phone":"+48 227254848","contact:email":"szkola.blonie@wp.pl","contact:website":"http:\/\/www.zs1-blonie.pl","ref:regon":"015547959","operator":"Powiat Warszawski Zachodni","operator:type":"government","amenity":"school","note":"Parent RSPO: 4530"}},{"id":126806,"type":"Feature","geometry":{"type":"Point","coordinates":[20.6158,52.185990000000004]},"properties":{"ref:rspo":126806,"official_name":"Centrum Kszta\u0142cenia Ustawicznego w Zespole Szk\u00f3\u0142 Nr 1 im. Melchiora Wa\u0144kowicza","name":"Centrum Kszta\u0142cenia Ustawicznego w Zespole Szk\u00f3\u0142 Nr 1","addr:country":"PL","addr:postcode":"05-870","addr:city":"B\u0142onie","addr:street":"ul. \u0141\u0105ki","addr:housenumber":"2","addr:teryt:simc":11588,"addr:teryt:sym_ul":920249,"contact:phone":"+48 227254848","contact:email":"zs@zs1-blonie.pl","contact:website":"http:\/\/www.zs1-blonie.pl","ref:regon":"015569636","operator":"Powiat Warszawski Zachodni","operator:type":"government","amenity":"school","fixme":"amenity=school lub amenity=college","note":"Children RSPO: 126810;126865Parent RSPO: 4530"}},{"id":126866,"type":"Feature","geometry":{"type":"Point","coordinates":[20.6158,52.18596]},"properties":{"isced:level":"3","ref:rspo":126866,"official_name":"Bran\u017cowa Szko\u0142a I Stopnia w Zespole Szk\u00f3\u0142 Nr 1 im. Melchiora Wa\u0144kowicza w B\u0142oniu","name":"Bran\u017cowa Szko\u0142a I Stopnia w Zespole Szk\u00f3\u0142 Nr 1","addr:country":"PL","addr:postcode":"05-870","addr:city":"B\u0142onie","addr:street":"ul. \u0141\u0105ki","addr:housenumber":"2","addr:teryt:simc":11588,"addr:teryt:sym_ul":920249,"contact:phone":"+48 227254848","contact:email":"szkola.blonie@wp.pl","contact:website":"http:\/\/www.zs1-blonie.pl","ref:regon":"015547988","operator":"Powiat Warszawski Zachodni","operator:type":"government","amenity":"school","note":"Parent RSPO: 4530"}},{"id":126810,"type":"Feature","geometry":{"type":"Point","coordinates":[20.6158,52.18593]},"properties":{"isced:level":"3","ref:rspo":126810,"official_name":"Liceum Og\u00f3lnokszta\u0142c\u0105ce dla Doros\u0142ych w Centrum Kszta\u0142cenia Ustawicznego w Zespole Szk\u00f3\u0142 Nr 1 im. Melchiora Wa\u0144kowicza w B\u0142oniu","name":"Liceum Og\u00f3lnokszta\u0142c\u0105ce dla Doros\u0142ych w Centrum Kszta\u0142cenia Ustawicznego w Zespole Szk\u00f3\u0142 Nr 1","addr:country":"PL","addr:postcode":"05-870","addr:city":"B\u0142onie","addr:street":"ul. \u0141\u0105ki","addr:housenumber":"2","addr:teryt:simc":11588,"addr:teryt:sym_ul":920249,"contact:phone":"+48 227254848","contact:email":"sekretariat@zs1-blonie.pl","contact:website":"http:\/\/www.zs1-blonie.pl","ref:regon":"015569671","operator":"Powiat Warszawski Zachodni","operator:type":"government","amenity":"school","note":"Parent RSPO: 126806"}},{"id":126865,"type":"Feature","geometry":{"type":"Point","coordinates":[20.6158,52.185900000000004]},"properties":{"isced:level":"4","ref:rspo":126865,"official_name":"Szko\u0142a Policealna w Centrum Kszta\u0142cenia Ustawicznego w Zespole Szk\u00f3\u0142 Nr 1 im. Melchiora Wa\u0144kowicza w B\u0142oniu","name":"Szko\u0142a Policealna w Centrum Kszta\u0142cenia Ustawicznego w Zespole Szk\u00f3\u0142 Nr 1","addr:country":"PL","addr:postcode":"05-870","addr:city":"B\u0142onie","addr:street":"ul. \u0141\u0105ki","addr:housenumber":"2","addr:teryt:simc":11588,"addr:teryt:sym_ul":920249,"contact:phone":"+48 227254848","contact:email":"sekretariat@zs1-blonie.pl","contact:website":"http:\/\/www.zs1-blonie.pl","ref:regon":"141118850","operator":"Powiat Warszawski Zachodni","operator:type":"government","amenity":"college","note":"Parent RSPO: 126806"}},{"id":108865,"type":"Feature","geometry":{"type":"Point","coordinates":[20.61989,52.18719]},"properties":{"ref:rspo":108865,"official_name":"Niepubliczne Przedszkole \"Pod Bocianem\"","name":"Niepubliczne Przedszkole \"Pod Bocianem\"","addr:country":"PL","addr:postcode":"05-870","addr:city":"B\u0142onie","addr:street":"ul. Orzeszkowej","addr:housenumber":"14","addr:teryt:simc":15209,"addr:teryt:sym_ul":920249,"contact:phone":"+48 509644222","contact:email":"biuro@podbocianem.edu.pl","contact:website":"http:\/\/www.podbocianem.edu.pl","ref:regon":"146515024","ref:vatin":"PL5340210495","operator":"Agnieszka Pawlak","operator:type":"private","amenity":"kindergarten"}},{"id":8053,"type":"Feature","geometry":{"type":"Point","coordinates":[20.6184,52.19119]},"properties":{"ref:rspo":8053,"official_name":"Zesp\u00f3\u0142 Poradni Psychologiczno-Pedagogicznych Powiatu Warszawskiego Zachodniego im. Ireny Sendlerowej","name":"Zesp\u00f3\u0142 Poradni Psychologiczno-Pedagogicznych Powiatu Warszawskiego Zachodniego","addr:country":"PL","addr:postcode":"05-870","addr:city":"B\u0142onie","addr:street":"ul. Pi\u0142sudskiego","addr:housenumber":"10a","addr:teryt:simc":16252,"addr:teryt:sym_ul":920249,"contact:phone":"+48 227254611","contact:email":"sekretariat@zpppblonie.pl","contact:website":"http:\/\/www.zpppblonie.pl","ref:regon":"142170462","ref:vatin":"PL1181520777","operator":"Powiat Warszawski Zachodni","operator:type":"government","landuse":"education","fixme":"amenity=school, amenity=college albo landuse=education w zale\u017cno\u015bci od tego, jakie plac\u00f3wki wchodz\u0105 w sk\u0142ad zespo\u0142u. Sprawd\u017a, kiedy stosowa\u0107 amenity=* a kiedy landuse=education.","note":"Children RSPO: 110486;113971;113972"}},{"id":110486,"type":"Feature","geometry":{"type":"Point","coordinates":[20.6184,52.191159999999996]},"properties":{"ref:rspo":110486,"official_name":"Poradnia Psychologiczno-Pedagogiczna w B\u0142oniu","name":"Poradnia Psychologiczno-Pedagogiczna w B\u0142oniu","addr:country":"PL","addr:postcode":"05-870","addr:city":"B\u0142onie","addr:street":"ul. Pi\u0142sudskiego","addr:housenumber":"10a","addr:teryt:simc":16252,"addr:teryt:sym_ul":920249,"contact:phone":"+48 227254611","contact:email":"sekretariat@zpppblonie.pl","contact:website":"http:\/\/www.zpppblonie.pl","ref:regon":"146558743","operator":"Powiat Warszawski Zachodni","operator:type":"government","healthcare":"councelling","counselling_type":"education","fixme":"w zale\u017cno\u015bci od przedmiotu dzia\u0142alno\u015bci (np. healthcare=councelling + counselling_type=education albo healthcare=psychotherapist)","note":"Parent RSPO: 8053"}},{"id":6337,"type":"Feature","geometry":{"type":"Point","coordinates":[20.62108,52.19208]},"properties":{"ref:rspo":6337,"official_name":"Przedszkole Z Oddzia\u0142ami Integracyjnymi Nr 3 w B\u0142oniu","name":"Przedszkole Z Oddzia\u0142ami Integracyjnymi Nr 3 w B\u0142oniu","addr:country":"PL","addr:postcode":"05-870","addr:city":"B\u0142onie","addr:street":"ul. Ksi\u0119cia J\u00f3zefa Poniatowskiego","addr:housenumber":"12B","addr:teryt:simc":17113,"addr:teryt:sym_ul":920249,"contact:phone":"+48 227253635","contact:email":"przedszkole.blonie@wp.pl","contact:website":"http:\/\/www.brzechwa.blonie.pl","ref:regon":"010377636","ref:vatin":"PL5291289030","operator":"Gmina B\u0142onie","operator:type":"government","amenity":"kindergarten"}},{"id":6336,"type":"Feature","geometry":{"type":"Point","coordinates":[20.6201,52.19215]},"properties":{"ref:rspo":6336,"official_name":"Przedszkole Publiczne Nr 2 \"Promyczek\"","name":"Przedszkole Publiczne Nr 2 \"Promyczek\"","addr:country":"PL","addr:postcode":"05-870","addr:city":"B\u0142onie","addr:street":"ul. Marsza\u0142ka J\u00f3zefa Pi\u0142sudskiego","addr:housenumber":"25A","addr:teryt:simc":36029,"addr:teryt:sym_ul":920249,"contact:phone":"+48 227254633","contact:email":"przedszkole.promyczek@wp.pl","contact:website":"http:\/\/www.przedszkole-promyczek.pl","ref:regon":"013005941","ref:vatin":"PL5291289082","operator":"Gmina B\u0142onie","operator:type":"government","amenity":"kindergarten"}},{"id":124968,"type":"Feature","geometry":{"type":"Point","coordinates":[20.529219,52.192738]},"properties":{"ref:rspo":124968,"official_name":"\"Krasnalowa Akademia\" Punkt Przedszkolny","name":"\"Krasnalowa Akademia\" Punkt Przedszkolny","addr:country":"PL","addr:postcode":"05-870","addr:city":"Bramki","addr:street":"ul. D\u0142uga","addr:housenumber":"91A","addr:teryt:simc":3839,"addr:teryt:sym_ul":98,"contact:phone":"+48 794611700","contact:email":"lechnioola@wp.pl","contact:website":"http:\/\/www.krasnalowaakademia.pl","ref:regon":"147417588","ref:vatin":"PL1181577091","operator":"Aleksandra Cie\u015blik-Go\u0142\u0119biewska","operator:type":"private","amenity":"kindergarten"}},{"id":22413,"type":"Feature","geometry":{"type":"Point","coordinates":[20.61786,52.19283]},"properties":{"isced:level":"3","ref:rspo":22413,"official_name":"I Liceum Og\u00f3lnokszta\u0142c\u0105ce im. W\u0142adys\u0142awa Broniewskiego w B\u0142oniu","name":"I Liceum Og\u00f3lnokszta\u0142c\u0105ce","addr:country":"PL","addr:postcode":"05-870","addr:city":"B\u0142onie","addr:street":"ul. Stefana Okrzei","addr:housenumber":"3","addr:teryt:simc":14914,"addr:teryt:sym_ul":920249,"contact:phone":"+48 227253142","contact:email":"1liceumblonie@wp.pl","contact:website":"http:\/\/www.1loblonie.edupage.org","ref:regon":"015194580","ref:vatin":"PL1181647503","operator":"Gmina B\u0142onie","operator:type":"government","amenity":"school"}},{"id":196413,"type":"Feature","geometry":{"type":"Point","coordinates":[20.61786,52.1928]},"properties":{"isced:level":"1;2","ref:rspo":196413,"official_name":"Szko\u0142a Podstawowa Nr 3 im. Hugona Ko\u0142\u0142\u0105taja w B\u0142oniu","name":"Szko\u0142a Podstawowa Nr 3","addr:country":"PL","addr:postcode":"05-870","addr:city":"B\u0142onie","addr:street":"ul. Okrzei","addr:housenumber":"3","addr:teryt:simc":14909,"addr:teryt:sym_ul":920249,"contact:phone":"+48 227319556","contact:email":"sp3blonie@gmail.com","contact:website":"https:\/\/sp3blonie.edupage.org","ref:regon":"367992224","ref:vatin":"PL1182152927","operator":"Gmina B\u0142onie","operator:type":"government","amenity":"school"}},{"id":10385,"type":"Feature","geometry":{"type":"Point","coordinates":[20.6225099,52.19298]},"properties":{"isced:level":"1;2","ref:rspo":10385,"official_name":"Szko\u0142a Podstawowa Nr 1 im. Miko\u0142aja Kopernika w B\u0142oniu","name":"Szko\u0142a Podstawowa Nr 1","addr:country":"PL","addr:postcode":"05-870","addr:city":"B\u0142onie","addr:street":"ul. Ksi\u0119cia J\u00f3zefa Poniatowskiego","addr:housenumber":"19","addr:teryt:simc":17113,"addr:teryt:sym_ul":920249,"contact:phone":"+48 227253048","contact:email":"sekretariat@sp1blonie.pl","contact:website":"http:\/\/www.sp1blonie.pl","ref:regon":"000800516","ref:vatin":"PL5291177199","operator":"Gmina B\u0142onie","operator:type":"government","amenity":"school"}},{"id":124290,"type":"Feature","geometry":{"type":"Point","coordinates":[20.61333,52.1958]},"properties":{"isced:level":"1;2","ref:rspo":124290,"official_name":"Szko\u0142a Podstawowa Kolumbus Z Oddzia\u0142ami Dwuj\u0119zycznymi","name":"Szko\u0142a Podstawowa Kolumbus Z Oddzia\u0142ami Dwuj\u0119zycznymi","addr:country":"PL","addr:postcode":"05-870","addr:city":"B\u0142onie","addr:street":"ul. Traugutta","addr:housenumber":"14","addr:teryt:simc":22961,"addr:teryt:sym_ul":920249,"contact:phone":"+48 505800013","contact:email":"biuro@szkolakolumbus.pl","contact:website":"http:\/\/www.szkolakolumbus.pl","ref:regon":"147385925","ref:vatin":"PL1182099848","operator":"Szko\u0142a Sp\u00f3\u0142ka Z Ograniczon\u0105 Odpowiedzialno\u015bci\u0105","operator:type":"private","amenity":"school"}},{"id":14768,"type":"Feature","geometry":{"type":"Point","coordinates":[20.61112,52.19639]},"properties":{"isced:level":"1;2","ref:rspo":14768,"official_name":"Szko\u0142a Podstawowa Nr 2 Z Oddzia\u0142ami Integracyjnymi im. Janusza Korczaka w B\u0142oniu","name":"Szko\u0142a Podstawowa Nr 2 Z Oddzia\u0142ami Integracyjnymi","addr:country":"PL","addr:postcode":"05-870","addr:city":"B\u0142onie","addr:street":"ul. Gabriela Narutowicza","addr:housenumber":"21","addr:teryt:simc":14018,"addr:teryt:sym_ul":920249,"contact:phone":"+48 227253260","contact:email":"sp2@blonie.pl","contact:website":"http:\/\/www.sp2blonie.edupage.org","ref:regon":"000265721","ref:vatin":"PL5291175415","operator":"Gmina B\u0142onie","operator:type":"government","amenity":"school"}},{"id":262225,"type":"Feature","geometry":{"type":"Point","coordinates":[20.61571,52.19691]},"properties":{"isced:level":"1;2","ref:rspo":262225,"official_name":"Szko\u0142a Podstawowa Nr 4 im. \u015aw. Maksymiliana Marii Kolbego w B\u0142oniu","name":"Szko\u0142a Podstawowa Nr 4","addr:country":"PL","addr:postcode":"05-870","addr:city":"B\u0142onie","addr:street":"ul. Narutowicza","addr:housenumber":"4","addr:teryt:simc":14015,"addr:teryt:sym_ul":920249,"contact:phone":"+48 227319959","contact:email":"sp4blonie@gmail.com","contact:website":"http:\/\/www.gim2blonie.edupage.org","ref:regon":"367998818","ref:vatin":"PL1182152910","operator":"Gmina B\u0142onie","operator:type":"government","amenity":"school"}},{"id":263855,"type":"Feature","geometry":{"type":"Point","coordinates":[20.61571,52.19688]},"properties":{"ref:rspo":263855,"official_name":"Niepubliczna Szko\u0142a Muzyczna I St. Akolada w B\u0142oniu","name":"Niepubliczna Szko\u0142a Muzyczna I St. Akolada w B\u0142oniu","addr:country":"PL","addr:postcode":"05-870","addr:city":"B\u0142onie","addr:street":"ul. Gabriela Narutowicza","addr:housenumber":"4","addr:teryt:simc":14018,"addr:teryt:sym_ul":920249,"contact:email":"szkola@muzycznablonie.pl","contact:website":"http:\/\/muzycznablonie.pl","ref:regon":"368230640","operator":"Magdalena Artman-Zalewska","operator:type":"private","amenity":"music_school"}},{"id":24127,"type":"Feature","geometry":{"type":"Point","coordinates":[20.60718,52.20197]},"properties":{"ref:rspo":24127,"official_name":"Niepubliczne Dwuj\u0119zyczne Przedszkole Hilaris","name":"Niepubliczne Dwuj\u0119zyczne Przedszkole Hilaris","addr:country":"PL","addr:postcode":"05-870","addr:city":"B\u0142onie","addr:street":"ul. Passowska","addr:housenumber":"16a","addr:teryt:simc":15772,"addr:teryt:sym_ul":920249,"contact:phone":"+48 224985525","contact:email":"sekretariat@antie.pl","contact:website":"http:\/\/www.przedszkole.antie.pl","ref:regon":"146331181","ref:vatin":"PL5291549011","operator":"Agnieszka Ositek","operator:type":"private","amenity":"kindergarten"}},{"id":128276,"type":"Feature","geometry":{"type":"Point","coordinates":[20.60718,52.20194]},"properties":{"isced:level":"1;2","ref:rspo":128276,"official_name":"Niepubliczna Dwuj\u0119zyczna Szko\u0142a Podstawowa Hilaris","name":"Niepubliczna Dwuj\u0119zyczna Szko\u0142a Podstawowa Hilaris","addr:country":"PL","addr:postcode":"05-870","addr:city":"B\u0142onie","addr:street":"ul. Passowska","addr:housenumber":"16A","addr:teryt:simc":15772,"addr:teryt:sym_ul":920249,"contact:phone":"+48 224985525","contact:email":"hilaris@antie.pl","contact:website":"http:\/\/www.hilaris.edu.pl","ref:regon":"362214700","ref:vatin":"PL5291549011","operator":"Agnieszka Ositek","operator:type":"private","amenity":"school"}},{"id":109388,"type":"Feature","geometry":{"type":"Point","coordinates":[20.62299,52.20262]},"properties":{"ref:rspo":109388,"official_name":"Niepubliczne Przedszkole \"Zielona Akademia\"","name":"Niepubliczne Przedszkole \"Zielona Akademia\"","addr:country":"PL","addr:postcode":"05-870","addr:city":"B\u0142onie","addr:street":"ul. Solidarno\u015bci","addr:housenumber":"19A","addr:teryt:simc":20532,"addr:teryt:sym_ul":920249,"contact:phone":"+48 506014317","contact:email":"blonie@zielonaakademia.eu","contact:website":"http:\/\/zielonaakademia.pl","ref:regon":"146527560","ref:vatin":"PL1181943696","operator":"Zielona Akademia Ewa Drozd, Katarzyna Adamek S.c.","operator:type":"private","amenity":"kindergarten"}},{"id":21900,"type":"Feature","geometry":{"type":"Point","coordinates":[20.6481536,52.2161468]},"properties":{"ref:rspo":21900,"official_name":"Przedszkole Publiczne Nr 5 im. \"Kubusia Puchatka\" w Radzikowie","name":"Przedszkole Publiczne Nr 5","addr:country":"PL","addr:postcode":"05-870","addr:place":"Radzik\u00f3w","addr:housenumber":"B\/N","addr:teryt:sym_ul":336,"contact:phone":"+48 227319338","contact:email":"kubuspuchatek@blonie.pl","contact:website":"http:\/\/www.kubuspuchatek.blonie.pl","ref:regon":"013005964","ref:vatin":"PL5291289053","operator":"Gmina B\u0142onie","operator:type":"government","amenity":"kindergarten"}}]}