{
    "type": "FeatureCollection",
    "features": [
        {
            "id": 271882,
            "type": "Feature",
            "geometry": {
                "type": "Point",
                "coordinates": [
                    20.5311052,
                    52.2475303
                ]
            },
            "properties": {
                "ref:rspo": 271882,
                "official_name": "Niepubliczne Przedszkole Terapeutyczne \"Logopedica\"",
                "name": "Niepubliczne Przedszkole Terapeutyczne \"Logopedica\"",
                "addr:postcode": "05-084",
                "addr:place": "Czarn\u00f3w",
                "addr:housenumber": "8",
                "addr:city:simc": 4357,
                "email": "przedszkole@logopedicaleszno.pl",
                "website": "http:\/\/logopedicaleszno.pl",
                "ref:regon": "383727685",
                "operator": "Logopedica Sp\u00f3\u0142ka Z Ograniczon\u0105 Odpowiedzialno\u015bci\u0105",
                "operator:type": "private",
                "amenity": "kindergarten"
            }
        },
        {
            "id": 50356,
            "type": "Feature",
            "geometry": {
                "type": "Point",
                "coordinates": [
                    20.592857,
                    52.258415
                ]
            },
            "properties": {
                "isced:level": "4",
                "ref:rspo": 50356,
                "official_name": "Pa\u0144stwowa Szko\u0142a Sztuki Cyrkowej w Julinku",
                "name": "Pa\u0144stwowa Szko\u0142a Sztuki Cyrkowej w Julinku",
                "addr:postcode": "05-084",
                "addr:place": "Julinek",
                "addr:housenumber": "1",
                "addr:city:simc": 4423,
                "phone": "+48 226462589",
                "email": "sekretariat@cyrkowa.edu.pl",
                "website": "http:\/\/www.cyrkowa.edu.pl",
                "ref:regon": "016027430",
                "ref:vatin": "PL5213026279",
                "operator": "Ministerstwo Kultury I Dziedzictwa Narodowego",
                "operator:type": "public",
                "amenity": "college"
            }
        },
        {
            "id": 8142,
            "type": "Feature",
            "geometry": {
                "type": "Point",
                "coordinates": [
                    20.657667,
                    52.264351
                ]
            },
            "properties": {
                "ref:rspo": 8142,
                "official_name": "Specjalny O\u015brodek Szkolno-Wychowawczy im. P\u0142k. Jerzego Strza\u0142kowskiego",
                "name": "Specjalny O\u015brodek Szkolno-Wychowawczy",
                "addr:postcode": "05-084",
                "addr:city": "Leszno",
                "addr:street": "Sochaczewska",
                "addr:housenumber": "4",
                "addr:city:simc": 4452,
                "addr:street:sym_ul": 20463,
                "phone": "+48 227259038",
                "email": "sekretariat@soswleszno.pl",
                "website": "http:\/\/soswleszno.edupage.org",
                "ref:regon": "000199734",
                "ref:vatin": "PL5291248858",
                "operator": "Powiat Warszawski Zachodni",
                "operator:type": "government",
                "amenity": "school",
                "note": "Children RSPO: 35107;35173;38996;119064"
            }
        },
        {
            "id": 21993,
            "type": "Feature",
            "geometry": {
                "type": "Point",
                "coordinates": [
                    20.657667,
                    52.264320999999995
                ]
            },
            "properties": {
                "ref:rspo": 21993,
                "official_name": "Publiczne Przedszkole Przyjaci\u00f3\u0142 Puszczy Kampinoskiej w Zaborowie",
                "name": "Publiczne Przedszkole Przyjaci\u00f3\u0142 Puszczy Kampinoskiej w Zaborowie",
                "addr:postcode": "05-083",
                "addr:city": "Zabor\u00f3w",
                "addr:street": "Szkolna",
                "addr:housenumber": "6",
                "addr:city:simc": 4676,
                "addr:street:sym_ul": 21970,
                "phone": "+48 784650311",
                "email": "ppzaborow@op.pl",
                "ref:regon": "141922575",
                "ref:vatin": "PL1182003601",
                "operator": "Gmina Leszno",
                "operator:type": "government",
                "amenity": "kindergarten"
            }
        },
        {
            "id": 22109,
            "type": "Feature",
            "geometry": {
                "type": "Point",
                "coordinates": [
                    20.657667,
                    52.264291
                ]
            },
            "properties": {
                "ref:rspo": 22109,
                "official_name": "Publiczne Przedszkole Nr 1 w Lesznie",
                "name": "Publiczne Przedszkole Nr 1 w Lesznie",
                "addr:postcode": "05-084",
                "addr:city": "Leszno",
                "addr:street": "Polna",
                "addr:housenumber": "22",
                "addr:city:simc": 4452,
                "addr:street:sym_ul": 17011,
                "phone": "+48 227258289",
                "email": "sekretariat@przedszkoleleszno.pl",
                "ref:regon": "013000671",
                "ref:vatin": "PL1181810541",
                "operator": "Gmina Leszno",
                "operator:type": "government",
                "amenity": "kindergarten"
            }
        },
        {
            "id": 26514,
            "type": "Feature",
            "geometry": {
                "type": "Point",
                "coordinates": [
                    20.657667,
                    52.264261
                ]
            },
            "properties": {
                "isced:level": "1;2",
                "ref:rspo": 26514,
                "official_name": "Szko\u0142a Podstawowa im. Powsta\u0144c\u00f3w 1863 Roku w Zaborowie",
                "name": "Szko\u0142a Podstawowa",
                "addr:postcode": "05-083",
                "addr:city": "Zabor\u00f3w",
                "addr:street": "Sto\u0142eczna",
                "addr:housenumber": "182",
                "addr:city:simc": 4676,
                "addr:street:sym_ul": 21242,
                "phone": "+48 227259716",
                "email": "zspzaborow@wp.pl",
                "website": "http:\/\/www.szkolazaborow.edupage.org",
                "ref:regon": "001147426",
                "operator": "Gmina Leszno",
                "operator:type": "government",
                "amenity": "school"
            }
        },
        {
            "id": 31060,
            "type": "Feature",
            "geometry": {
                "type": "Point",
                "coordinates": [
                    20.657667,
                    52.264230999999995
                ]
            },
            "properties": {
                "isced:level": "1;2",
                "ref:rspo": 31060,
                "official_name": "Szko\u0142a Podstawowa im. Stefana Batorego w Lesznie",
                "name": "Szko\u0142a Podstawowa",
                "addr:postcode": "05-084",
                "addr:city": "Leszno",
                "addr:street": "Le\u015bna",
                "addr:housenumber": "13",
                "addr:city:simc": 4452,
                "addr:street:sym_ul": 10898,
                "phone": "+48 227258012",
                "email": "sekretariat@szkolaleszno.com",
                "website": "http:\/\/www.szkolaleszno.com",
                "ref:regon": "000268317",
                "operator": "Gmina Leszno",
                "operator:type": "government",
                "amenity": "school"
            }
        },
        {
            "id": 120040,
            "type": "Feature",
            "geometry": {
                "type": "Point",
                "coordinates": [
                    20.657667,
                    52.264201
                ]
            },
            "properties": {
                "ref:rspo": 120040,
                "official_name": "Sosnowa Akademia Przedszkolaka",
                "name": "Sosnowa Akademia Przedszkolaka",
                "addr:postcode": "05-084",
                "addr:city": "Leszno",
                "addr:street": "Le\u015bna",
                "addr:housenumber": "19",
                "addr:city:simc": 4452,
                "addr:street:sym_ul": 10898,
                "phone": "+48 508480443",
                "email": "sosnowaakademia@op.pl",
                "website": "http:\/\/sosnowaakademia.pl",
                "ref:regon": "146882308",
                "operator": "Aneta Gajewska",
                "operator:type": "private",
                "amenity": "kindergarten"
            }
        },
        {
            "id": 125165,
            "type": "Feature",
            "geometry": {
                "type": "Point",
                "coordinates": [
                    20.657667,
                    52.264171
                ]
            },
            "properties": {
                "ref:rspo": 125165,
                "official_name": "Niepubliczne Przedszkole Artystyczne \"Tw\u00f3rczy Przedszkolak\"",
                "name": "Niepubliczne Przedszkole Artystyczne \"Tw\u00f3rczy Przedszkolak\"",
                "addr:postcode": "05-084",
                "addr:city": "Leszno",
                "addr:street": "Juliana Tuwima",
                "addr:housenumber": "19",
                "addr:city:simc": 4452,
                "addr:street:sym_ul": 23194,
                "phone": "+48 511341488",
                "email": "kontakt@tworczyprzedszkolak.pl",
                "website": "http:\/\/www.tworczyprzedszkolak.pl",
                "ref:regon": "147428497",
                "operator": "Marian Szostak",
                "operator:type": "private",
                "amenity": "kindergarten"
            }
        },
        {
            "id": 270343,
            "type": "Feature",
            "geometry": {
                "type": "Point",
                "coordinates": [
                    20.657667,
                    52.264140999999995
                ]
            },
            "properties": {
                "ref:rspo": 270343,
                "official_name": "Akademia Rozwoju I Treningu",
                "name": "Akademia Rozwoju I Treningu",
                "addr:postcode": "05-084",
                "addr:city": "Leszno",
                "addr:street": "Le\u015bna",
                "addr:housenumber": "13",
                "addr:city:simc": 4452,
                "addr:street:sym_ul": 10898,
                "phone": "+48 532748771",
                "email": "akademia@artjust.pl",
                "website": "http:\/\/www.rozwojtrening.pl",
                "ref:regon": "382399078",
                "operator": "Art.just.- Po Prostu Sztuka Sp\u00f3\u0142ka Z Ograniczon\u0105 Odpowiedzialno\u015bci\u0105",
                "operator:type": "private",
                "fixme": "w zale\u017cno\u015bci od przedmiotu dzia\u0142alno\u015bci (np. amenity=training + training=*, amenity=dancing_school, amenity=language_school, amenity=music_school)"
            }
        },
        {
            "id": 35107,
            "type": "Feature",
            "geometry": {
                "type": "Point",
                "coordinates": [
                    20.657667,
                    52.264111
                ]
            },
            "properties": {
                "isced:level": "3",
                "ref:rspo": 35107,
                "official_name": "Bran\u017cowa Szko\u0142a Specjalna I Stopnia w Specjalnym O\u015brodku Szkolno-Wychowawczym im. P\u0142k. J. Strza\u0142kowskiego w Lesznie",
                "name": "Bran\u017cowa Szko\u0142a Specjalna I Stopnia w Specjalnym O\u015brodku Szkolno-Wychowawczym",
                "addr:postcode": "05-084",
                "addr:city": "Leszno",
                "addr:street": "Sochaczewska",
                "addr:housenumber": "4",
                "addr:city:simc": 4452,
                "addr:street:sym_ul": 20463,
                "phone": "+48 227259038",
                "email": "soswleszno@interia.pl",
                "website": "http:\/\/soswleszno.edupage.org",
                "ref:regon": "015797484",
                "operator": "Powiat Warszawski Zachodni",
                "operator:type": "government",
                "amenity": "school",
                "note": "Parent RSPO: 8142"
            }
        },
        {
            "id": 35173,
            "type": "Feature",
            "geometry": {
                "type": "Point",
                "coordinates": [
                    20.657667,
                    52.264081
                ]
            },
            "properties": {
                "ref:rspo": 35173,
                "official_name": "Szko\u0142a Specjalna Przysposabiaj\u0105ca Do Pracy w Specjalnym O\u015brodku Szkolno-Wychowawczym im. P\u0142k. J. Strza\u0142kowskiego w Lesznie",
                "name": "Szko\u0142a Specjalna Przysposabiaj\u0105ca Do Pracy w Specjalnym O\u015brodku Szkolno-Wychowawczym",
                "addr:postcode": "05-084",
                "addr:city": "Leszno",
                "addr:street": "Sochaczewska",
                "addr:housenumber": "4",
                "addr:city:simc": 4452,
                "addr:street:sym_ul": 20463,
                "phone": "+48 227259038",
                "email": "soswleszno@interia.pl",
                "website": "http:\/\/soswleszno.edupage.org",
                "ref:regon": "000959694",
                "operator": "Powiat Warszawski Zachodni",
                "operator:type": "government",
                "amenity": "school",
                "note": "Parent RSPO: 8142"
            }
        },
        {
            "id": 38996,
            "type": "Feature",
            "geometry": {
                "type": "Point",
                "coordinates": [
                    20.657667,
                    52.264050999999995
                ]
            },
            "properties": {
                "isced:level": "1;2",
                "ref:rspo": 38996,
                "official_name": "Publiczna Szko\u0142a Podstawowa Specjalna w Specjalnym O\u015brodku Szkolno-Wychowawczym im. P\u0142k. J. Strza\u0142kowskiego w Lesznie",
                "name": "Publiczna Szko\u0142a Podstawowa Specjalna w Specjalnym O\u015brodku Szkolno-Wychowawczym",
                "addr:postcode": "05-084",
                "addr:city": "Leszno",
                "addr:street": "Sochaczewska",
                "addr:housenumber": "4",
                "addr:city:simc": 4452,
                "addr:street:sym_ul": 20463,
                "phone": "+48 227259038",
                "email": "soswleszno@interia.pl",
                "website": "http:\/\/soswleszno.edupage.org",
                "ref:regon": "015797461",
                "operator": "Powiat Warszawski Zachodni",
                "operator:type": "government",
                "amenity": "school",
                "note": "Parent RSPO: 8142"
            }
        },
        {
            "id": 119064,
            "type": "Feature",
            "geometry": {
                "type": "Point",
                "coordinates": [
                    20.657667,
                    52.264021
                ]
            },
            "properties": {
                "ref:rspo": 119064,
                "official_name": "Publiczne Przedszkole Specjalne Nr 2 w Specjalnym O\u015brodku Szkolno-Wychowawczym im. P\u0142k Jerzego Strza\u0142kowskiego w Lesznie",
                "name": "Publiczne Przedszkole Specjalne Nr 2 w Specjalnym O\u015brodku Szkolno-Wychowawczym",
                "addr:postcode": "05-084",
                "addr:city": "Leszno",
                "addr:street": "Sochaczewska",
                "addr:housenumber": "4",
                "addr:city:simc": 4452,
                "addr:street:sym_ul": 20463,
                "phone": "+48 227259038",
                "email": "soswleszno@interia.pl",
                "website": "http:\/\/soswleszno.edupage.org",
                "ref:regon": "146834090",
                "operator": "Powiat Warszawski Zachodni",
                "operator:type": "government",
                "amenity": "kindergarten",
                "note": "Parent RSPO: 8142"
            }
        }
    ]
}