{
    "type": "FeatureCollection",
    "features": [
        {
            "id": 129632,
            "type": "Feature",
            "geometry": {
                "type": "Point",
                "coordinates": [
                    21.70243,
                    52.51757
                ]
            },
            "properties": {
                "ref:rspo": 129632,
                "official_name": "Szko\u0142a Terapii Psychosomatycznej",
                "name": "Szko\u0142a Terapii Psychosomatycznej",
                "addr:country": "PL",
                "addr:postcode": "07-130",
                "addr:city": "\u0141och\u00f3w",
                "addr:street": "Marii Konopnickiej",
                "addr:housenumber": "1",
                "addr:teryt:simc": 9186,
                "addr:teryt:sym_ul": 975492,
                "contact:phone": "+48 607213573",
                "contact:email": "biuro@interp.pl",
                "ref:regon": "362696018",
                "operator": "Marta U\u0142aszewska- \u017buk",
                "operator:type": "private"
            }
        },
        {
            "id": 11916,
            "type": "Feature",
            "geometry": {
                "type": "Point",
                "coordinates": [
                    21.77059,
                    52.51868
                ]
            },
            "properties": {
                "isced:level": "1;2",
                "ref:rspo": 11916,
                "official_name": "Szko\u0142a Podstawowa im. Henryka Sienkiewicza w Kamionnie",
                "name": "Szko\u0142a Podstawowa",
                "addr:country": "PL",
                "addr:postcode": "07-130",
                "addr:city": "Kamionna",
                "addr:street": "Szkolna",
                "addr:housenumber": "18",
                "addr:teryt:simc": 21970,
                "addr:teryt:sym_ul": 678937,
                "contact:phone": "+48 257927127",
                "contact:email": "zskamionna@wp.pl",
                "ref:regon": "001135200",
                "ref:vatin": "PL8241657272",
                "operator": "Gmina \u0141och\u00f3w",
                "operator:type": "government",
                "amenity": "school"
            }
        },
        {
            "id": 10760,
            "type": "Feature",
            "geometry": {
                "type": "Point",
                "coordinates": [
                    21.7008699,
                    52.52605
                ]
            },
            "properties": {
                "isced:level": "1;2",
                "ref:rspo": 10760,
                "official_name": "Szko\u0142a Podstawowa Nr 3 im. Marii Konopnickiej w \u0141ochowie",
                "name": "Szko\u0142a Podstawowa Nr 3",
                "addr:country": "PL",
                "addr:postcode": "07-130",
                "addr:city": "\u0141och\u00f3w",
                "addr:street": "1 Maja",
                "addr:housenumber": "47",
                "addr:teryt:simc": 11926,
                "addr:teryt:sym_ul": 975492,
                "contact:phone": "+48 256750273",
                "contact:email": "pspnr3wlochowie@op.pl",
                "contact:website": "http:\/\/www.trojkalochow.pl",
                "ref:regon": "711685950",
                "ref:vatin": "PL8241657237",
                "operator": "Gmina \u0141och\u00f3w",
                "operator:type": "government",
                "amenity": "school"
            }
        },
        {
            "id": 10763,
            "type": "Feature",
            "geometry": {
                "type": "Point",
                "coordinates": [
                    21.69173,
                    52.5305
                ]
            },
            "properties": {
                "ref:rspo": 10763,
                "official_name": "Samorz\u0105dowe Przedszkole Nr 1",
                "name": "Samorz\u0105dowe Przedszkole Nr 1",
                "addr:country": "PL",
                "addr:postcode": "07-130",
                "addr:city": "\u0141och\u00f3w",
                "addr:street": "Kolejowa",
                "addr:housenumber": "23",
                "addr:teryt:simc": 8828,
                "addr:teryt:sym_ul": 975492,
                "contact:phone": "+48 256751164",
                "contact:email": "przedszkolak11@wp.pl",
                "contact:website": "http:\/\/www.przedszkolelochow.przedszkolowo.pl",
                "ref:regon": "710006912",
                "ref:vatin": "PL8241657214",
                "operator": "Gmina \u0141och\u00f3w",
                "operator:type": "government",
                "amenity": "kindergarten"
            }
        },
        {
            "id": 127331,
            "type": "Feature",
            "geometry": {
                "type": "Point",
                "coordinates": [
                    21.69257,
                    52.53152
                ]
            },
            "properties": {
                "ref:rspo": 127331,
                "official_name": "Niepubliczna Poradnia Psychologiczno-Pedagogiczna w \u0141ochowie",
                "name": "Niepubliczna Poradnia Psychologiczno-Pedagogiczna w \u0141ochowie",
                "addr:country": "PL",
                "addr:postcode": "07-130",
                "addr:city": "\u0141och\u00f3w",
                "addr:street": "1 Maja",
                "addr:housenumber": "23",
                "addr:teryt:simc": 11926,
                "addr:teryt:sym_ul": 975492,
                "contact:phone": "+48 517500366",
                "ref:regon": "361362953",
                "operator": "Anna Kurzec",
                "operator:type": "private",
                "healthcare": "counselling",
                "counselling_type": "education",
                "fixme": "w zale\u017cno\u015bci od przedmiotu dzia\u0142alno\u015bci (np. healthcare=counselling + counselling_type=education albo healthcare=psychotherapist)"
            }
        },
        {
            "id": 35296,
            "type": "Feature",
            "geometry": {
                "type": "Point",
                "coordinates": [
                    21.62846,
                    52.5324
                ]
            },
            "properties": {
                "isced:level": "1;2",
                "ref:rspo": 35296,
                "official_name": "Katolicka Publiczna Szko\u0142a Podstawowa \"Julin\" w Kaliskach",
                "name": "Katolicka Publiczna Szko\u0142a Podstawowa \"Julin\" w Kaliskach",
                "addr:country": "PL",
                "addr:postcode": "07-130",
                "addr:place": "Kaliska",
                "addr:housenumber": "50",
                "addr:teryt:sym_ul": 678883,
                "contact:phone": "+48 256752152",
                "contact:email": "spjulin@wp.pl",
                "contact:website": "http:\/\/www.kpspjulin.szkolnastrona.pl",
                "ref:regon": "146357861",
                "ref:vatin": "PL8241763040",
                "operator": "Stowarzyszenie Rozwoju Wsi \"Julin\"",
                "operator:type": "ngo",
                "amenity": "school"
            }
        },
        {
            "id": 129285,
            "type": "Feature",
            "geometry": {
                "type": "Point",
                "coordinates": [
                    21.6896,
                    52.53336
                ]
            },
            "properties": {
                "ref:rspo": 129285,
                "official_name": "Terapeutyczny Niepubliczny Punkt Przedszkolny \"M\u00f3j \u015awiat\"",
                "name": "Terapeutyczny Niepubliczny Punkt Przedszkolny \"M\u00f3j \u015awiat\"",
                "addr:country": "PL",
                "addr:postcode": "07-130",
                "addr:city": "\u0141och\u00f3w",
                "addr:street": "1 Maja",
                "addr:housenumber": "2D",
                "addr:teryt:simc": 11926,
                "addr:teryt:sym_ul": 975492,
                "contact:phone": "+48 517500366",
                "contact:email": "biuro@poradnia-lochow.pl",
                "contact:website": "http:\/\/www.poradnia-lochow.pl",
                "ref:regon": "362544722",
                "operator": "Anna Kurzec",
                "operator:type": "private",
                "amenity": "kindergarten"
            }
        },
        {
            "id": 127767,
            "type": "Feature",
            "geometry": {
                "type": "Point",
                "coordinates": [
                    21.67948,
                    52.53765
                ]
            },
            "properties": {
                "ref:rspo": 127767,
                "official_name": "Zesp\u00f3\u0142 Szk\u00f3\u0142 Ponadpodstawowych w \u0141ochowie",
                "name": "Zesp\u00f3\u0142 Szk\u00f3\u0142 Ponadpodstawowych w \u0141ochowie",
                "addr:country": "PL",
                "addr:postcode": "07-130",
                "addr:city": "\u0141och\u00f3w",
                "addr:street": "Stanis\u0142awa Wyspia\u0144skiego",
                "addr:housenumber": "18",
                "addr:teryt:simc": 25081,
                "addr:teryt:sym_ul": 975492,
                "contact:phone": "+48 531252650",
                "contact:email": "zkoros@zsplochow.pl",
                "contact:website": "http:\/\/www.zsplochow.pl",
                "ref:regon": "361838090",
                "ref:vatin": "PL8241361666",
                "operator": "Powiat W\u0119growski",
                "operator:type": "government",
                "landuse": "education",
                "fixme": "amenity=school, amenity=college albo landuse=education w zale\u017cno\u015bci od tego, jakie plac\u00f3wki wchodz\u0105 w sk\u0142ad zespo\u0142u. Sprawd\u017a, kiedy stosowa\u0107 amenity=* a kiedy landuse=education.",
                "note": "Children RSPO: 82634;127847"
            }
        },
        {
            "id": 82634,
            "type": "Feature",
            "geometry": {
                "type": "Point",
                "coordinates": [
                    21.67948,
                    52.53762
                ]
            },
            "properties": {
                "isced:level": "3",
                "ref:rspo": 82634,
                "official_name": "Liceum Og\u00f3lnokszta\u0142c\u0105ce im. Marii Sadzewiczowej w \u0141ochowie",
                "name": "Liceum Og\u00f3lnokszta\u0142c\u0105ce",
                "addr:country": "PL",
                "addr:postcode": "07-130",
                "addr:city": "\u0141och\u00f3w",
                "addr:street": "Stanis\u0142awa Wyspia\u0144skiego",
                "addr:housenumber": "18",
                "addr:teryt:simc": 25081,
                "addr:teryt:sym_ul": 975492,
                "contact:phone": "+48 531252652",
                "contact:email": "zkoros@zsplochow.pl",
                "contact:website": "http:\/\/www.zsplochow.pl",
                "ref:regon": "712538493",
                "ref:vatin": "PL8241361666",
                "operator": "Powiat W\u0119growski",
                "operator:type": "government",
                "amenity": "school",
                "note": "Parent RSPO: 127767"
            }
        },
        {
            "id": 127847,
            "type": "Feature",
            "geometry": {
                "type": "Point",
                "coordinates": [
                    21.67948,
                    52.53759
                ]
            },
            "properties": {
                "isced:level": "3",
                "ref:rspo": 127847,
                "official_name": "Technikum w \u0141ochowie",
                "name": "Technikum w \u0141ochowie",
                "addr:country": "PL",
                "addr:postcode": "07-130",
                "addr:city": "\u0141och\u00f3w",
                "addr:street": "Stanis\u0142awa Wyspia\u0144skiego",
                "addr:housenumber": "18",
                "addr:teryt:simc": 25081,
                "addr:teryt:sym_ul": 975492,
                "contact:phone": "+48 530907234",
                "contact:email": "zkoros@zsplochow.pl",
                "contact:website": "http:\/\/www.zsplochow.pl",
                "ref:regon": "361897134",
                "ref:vatin": "PL8241361666",
                "operator": "Powiat W\u0119growski",
                "operator:type": "government",
                "amenity": "school",
                "note": "Parent RSPO: 127767"
            }
        },
        {
            "id": 84048,
            "type": "Feature",
            "geometry": {
                "type": "Point",
                "coordinates": [
                    21.67939,
                    52.53828
                ]
            },
            "properties": {
                "isced:level": "4",
                "ref:rspo": 84048,
                "official_name": "Szko\u0142a Policealna Twp w \u0141ochowie",
                "name": "Szko\u0142a Policealna Twp w \u0141ochowie",
                "addr:country": "PL",
                "addr:postcode": "07-130",
                "addr:city": "\u0141och\u00f3w",
                "addr:street": "Stanis\u0142awa Wyspia\u0144skiego",
                "addr:housenumber": "20",
                "addr:teryt:simc": 25081,
                "addr:teryt:sym_ul": 975492,
                "contact:phone": "+48 604803076",
                "contact:email": "a.nowotka@wp.pl",
                "contact:website": "http:\/\/www.twplochow.pl",
                "ref:regon": "146417712",
                "ref:vatin": "PL8211160549",
                "operator": "Towarzystwo Wiedzy Powszechnej Oddzia\u0142 Regionalny W Siedlcach",
                "operator:type": "ngo",
                "amenity": "college"
            }
        },
        {
            "id": 84136,
            "type": "Feature",
            "geometry": {
                "type": "Point",
                "coordinates": [
                    21.67939,
                    52.53825
                ]
            },
            "properties": {
                "isced:level": "3",
                "ref:rspo": 84136,
                "official_name": "Liceum Og\u00f3lnokszta\u0142c\u0105ce dla Doros\u0142ych Twp w \u0141ochowie",
                "name": "Liceum Og\u00f3lnokszta\u0142c\u0105ce dla Doros\u0142ych Twp w \u0141ochowie",
                "addr:country": "PL",
                "addr:postcode": "07-130",
                "addr:city": "\u0141och\u00f3w",
                "addr:street": "Stanis\u0142awa Wyspia\u0144skiego",
                "addr:housenumber": "20",
                "addr:teryt:simc": 25081,
                "addr:teryt:sym_ul": 975492,
                "contact:phone": "+48 256755657",
                "contact:email": "twp@siedlce.net",
                "contact:website": "http:\/\/www.twp.siedlce.net",
                "ref:regon": "146457479",
                "ref:vatin": "PL8211160549",
                "operator": "Towarzystwo Wiedzy Powszechnej Oddzia\u0142 Regionalny W Siedlcach",
                "operator:type": "ngo",
                "amenity": "school"
            }
        },
        {
            "id": 262437,
            "type": "Feature",
            "geometry": {
                "type": "Point",
                "coordinates": [
                    21.67939,
                    52.53822
                ]
            },
            "properties": {
                "isced:level": "1;2",
                "ref:rspo": 262437,
                "official_name": "Szko\u0142a Podstawowa Nr 2 im. Janusza Korczaka w \u0141ochowie",
                "name": "Szko\u0142a Podstawowa Nr 2",
                "addr:country": "PL",
                "addr:postcode": "07-130",
                "addr:city": "\u0141och\u00f3w",
                "addr:street": "Stanis\u0142awa Wyspia\u0144skiego",
                "addr:housenumber": "20",
                "addr:teryt:simc": 25081,
                "addr:teryt:sym_ul": 975492,
                "contact:phone": "+48 256751206",
                "contact:email": "sp2lochow@gmail.com",
                "contact:website": "http:\/\/www.sp2lochow.pl",
                "ref:regon": "368012423",
                "ref:vatin": "PL8241805672",
                "operator": "Gmina \u0141och\u00f3w",
                "operator:type": "government",
                "amenity": "school"
            }
        },
        {
            "id": 11287,
            "type": "Feature",
            "geometry": {
                "type": "Point",
                "coordinates": [
                    21.69903,
                    52.54024
                ]
            },
            "properties": {
                "isced:level": "1;2",
                "ref:rspo": 11287,
                "official_name": "Szko\u0142a Podstawowa Nr 1 im. Baonu \"Nadbu\u017ca\u0144skiego\" Ak w \u0141ochowie",
                "name": "Szko\u0142a Podstawowa Nr 1",
                "addr:country": "PL",
                "addr:postcode": "07-130",
                "addr:city": "\u0141och\u00f3w",
                "addr:street": "Stefana \u017beromskiego",
                "addr:housenumber": "3",
                "addr:teryt:simc": 26469,
                "addr:teryt:sym_ul": 975492,
                "contact:phone": "+48 256751122",
                "contact:email": "szkola-p1@wp.pl",
                "contact:website": "http:\/\/sp1lochow.edupage.org",
                "ref:regon": "001135156",
                "ref:vatin": "PL8241657208",
                "operator": "Gmina \u0141och\u00f3w",
                "operator:type": "government",
                "amenity": "school"
            }
        },
        {
            "id": 11909,
            "type": "Feature",
            "geometry": {
                "type": "Point",
                "coordinates": [
                    21.64415,
                    52.54304
                ]
            },
            "properties": {
                "isced:level": "1;2",
                "ref:rspo": 11909,
                "official_name": "Szko\u0142a Podstawowa im. Wincentego Witosa w Gwizda\u0142ach",
                "name": "Szko\u0142a Podstawowa",
                "addr:country": "PL",
                "addr:postcode": "07-130",
                "addr:city": "Gwizda\u0142y",
                "addr:street": "Szkolna",
                "addr:housenumber": "9",
                "addr:teryt:simc": 21970,
                "addr:teryt:sym_ul": 678794,
                "contact:phone": "+48 256751146",
                "contact:email": "szkolagwizdaly@wp.pl",
                "contact:website": "http:\/\/zsgwizdaly.pl",
                "ref:regon": "001135179",
                "ref:vatin": "PL8241657220",
                "operator": "Gmina \u0141och\u00f3w",
                "operator:type": "government",
                "amenity": "school"
            }
        },
        {
            "id": 35079,
            "type": "Feature",
            "geometry": {
                "type": "Point",
                "coordinates": [
                    21.76323,
                    52.55343
                ]
            },
            "properties": {
                "isced:level": "1;2",
                "ref:rspo": 35079,
                "official_name": "Szko\u0142a Podstawowa im. Or\u0142a Bia\u0142ego w Ostr\u00f3wku",
                "name": "Szko\u0142a Podstawowa",
                "addr:country": "PL",
                "addr:postcode": "07-132",
                "addr:city": "Ostr\u00f3wek",
                "addr:street": "Szkolna",
                "addr:housenumber": "2",
                "addr:teryt:simc": 21970,
                "addr:teryt:sym_ul": 679144,
                "contact:phone": "+48 256755209",
                "contact:email": "spostrowek@interia.pl",
                "ref:regon": "001135239",
                "ref:vatin": "PL8241754331",
                "operator": "Gmina \u0141och\u00f3w",
                "operator:type": "government",
                "amenity": "school"
            }
        },
        {
            "id": 84133,
            "type": "Feature",
            "geometry": {
                "type": "Point",
                "coordinates": [
                    21.76302,
                    52.55413
                ]
            },
            "properties": {
                "isced:level": "4",
                "ref:rspo": 84133,
                "official_name": "Szko\u0142a Policealna Twp w Ostr\u00f3wku",
                "name": "Szko\u0142a Policealna Twp w Ostr\u00f3wku",
                "addr:country": "PL",
                "addr:postcode": "07-132",
                "addr:city": "Ostr\u00f3wek",
                "addr:street": "Zaciszna",
                "addr:housenumber": "8",
                "addr:teryt:simc": 25316,
                "addr:teryt:sym_ul": 679144,
                "contact:phone": "+48 256751538",
                "contact:email": "twp@siedlce.net",
                "contact:website": "http:\/\/www.twp.siedlce.net",
                "ref:regon": "146417971",
                "ref:vatin": "PL8211160549",
                "operator": "Towarzystwo Wiedzy Powszechnej Oddzia\u0142 Regionalny W Siedlcach",
                "operator:type": "ngo",
                "amenity": "college"
            }
        },
        {
            "id": 131342,
            "type": "Feature",
            "geometry": {
                "type": "Point",
                "coordinates": [
                    21.76445,
                    52.55982
                ]
            },
            "properties": {
                "ref:rspo": 131342,
                "official_name": "Zesp\u00f3\u0142 Szk\u00f3\u0142 Ponadpodstawowych w Ostr\u00f3wku",
                "name": "Zesp\u00f3\u0142 Szk\u00f3\u0142 Ponadpodstawowych w Ostr\u00f3wku",
                "addr:country": "PL",
                "addr:postcode": "07-132",
                "addr:city": "Ostr\u00f3wek",
                "addr:street": "Fabryczna",
                "addr:housenumber": "57",
                "addr:teryt:simc": 4863,
                "addr:teryt:sym_ul": 679144,
                "contact:phone": "+48 256755657",
                "contact:email": "zszostrowek@wp.pl",
                "contact:website": "http:\/\/www.szkolazawodowa.cba.pl",
                "ref:regon": "365131630",
                "operator": "Powiat W\u0119growski",
                "operator:type": "government",
                "landuse": "education",
                "fixme": "amenity=school, amenity=college albo landuse=education w zale\u017cno\u015bci od tego, jakie plac\u00f3wki wchodz\u0105 w sk\u0142ad zespo\u0142u. Sprawd\u017a, kiedy stosowa\u0107 amenity=* a kiedy landuse=education.",
                "note": "Children RSPO: 82635;131365"
            }
        },
        {
            "id": 82635,
            "type": "Feature",
            "geometry": {
                "type": "Point",
                "coordinates": [
                    21.76445,
                    52.55979
                ]
            },
            "properties": {
                "isced:level": "3",
                "ref:rspo": 82635,
                "official_name": "Bran\u017cowa Szko\u0142a I Stopnia w Ostr\u00f3wku",
                "name": "Bran\u017cowa Szko\u0142a I Stopnia w Ostr\u00f3wku",
                "addr:country": "PL",
                "addr:postcode": "07-132",
                "addr:city": "Ostr\u00f3wek",
                "addr:street": "Fabryczna",
                "addr:housenumber": "57",
                "addr:teryt:simc": 4863,
                "addr:teryt:sym_ul": 679144,
                "contact:phone": "+48 256755657",
                "contact:email": "zszostrowek@wp.pl",
                "contact:website": "http:\/\/www.szkolazawodowa.cba.pl",
                "ref:regon": "000031880",
                "ref:vatin": "PL8241361330",
                "operator": "Powiat W\u0119growski",
                "operator:type": "government",
                "amenity": "school",
                "note": "Parent RSPO: 131342"
            }
        },
        {
            "id": 131365,
            "type": "Feature",
            "geometry": {
                "type": "Point",
                "coordinates": [
                    21.76445,
                    52.559760000000004
                ]
            },
            "properties": {
                "isced:level": "3",
                "ref:rspo": 131365,
                "official_name": "Liceum Og\u00f3lnokszta\u0142c\u0105ce dla Doros\u0142ych w Ostr\u00f3wku",
                "name": "Liceum Og\u00f3lnokszta\u0142c\u0105ce dla Doros\u0142ych w Ostr\u00f3wku",
                "addr:country": "PL",
                "addr:postcode": "07-132",
                "addr:city": "Ostr\u00f3wek",
                "addr:street": "Fabryczna",
                "addr:housenumber": "57",
                "addr:teryt:simc": 4863,
                "addr:teryt:sym_ul": 679144,
                "contact:phone": "+48 256755657",
                "contact:email": "zszostrowek@wp.pl",
                "contact:website": "http:\/\/www.szkolazawodowa.cba.pl",
                "ref:regon": "365139152",
                "operator": "Powiat W\u0119growski",
                "operator:type": "government",
                "amenity": "school",
                "note": "Parent RSPO: 131342"
            }
        },
        {
            "id": 119533,
            "type": "Feature",
            "geometry": {
                "type": "Point",
                "coordinates": [
                    21.80626,
                    52.56021
                ]
            },
            "properties": {
                "isced:level": "1;2",
                "ref:rspo": 119533,
                "official_name": "Publiczna Szko\u0142a Podstawowa Stowarzyszenia Przyjaci\u00f3\u0142 Szk\u00f3\u0142 Katolickich",
                "name": "Publiczna Szko\u0142a Podstawowa Stowarzyszenia Przyjaci\u00f3\u0142 Szk\u00f3\u0142 Katolickich",
                "addr:country": "PL",
                "addr:postcode": "07-132",
                "addr:place": "Ogrodniki",
                "addr:housenumber": "1A",
                "addr:teryt:sym_ul": 679138,
                "contact:phone": "+48 256755204",
                "contact:email": "spskogrodniki@gmail.com",
                "contact:website": "http:\/\/facebook.com\/szkolaogrodniki\/",
                "ref:regon": "146851963",
                "ref:vatin": "PL8241801562",
                "operator": "Stowarzyszenie Przyjaci\u00f3\u0142 Szk\u00f3\u0142 Katolickich",
                "operator:type": "ngo",
                "amenity": "school"
            }
        },
        {
            "id": 129485,
            "type": "Feature",
            "geometry": {
                "type": "Point",
                "coordinates": [
                    21.72215,
                    52.57867
                ]
            },
            "properties": {
                "ref:rspo": 129485,
                "official_name": "Przedszkole Niepubliczne \"Mikilandia\"",
                "name": "Przedszkole Niepubliczne \"Mikilandia\"",
                "addr:country": "PL",
                "addr:postcode": "07-132",
                "addr:place": "\u0141osiewice",
                "addr:housenumber": "76",
                "addr:teryt:sym_ul": 679049,
                "contact:phone": "+48 506288883",
                "contact:email": "przedszkole-mikilandia@wp.pl",
                "contact:website": "http:\/\/www.mikilandia.pl",
                "ref:regon": "362638877",
                "ref:vatin": "PL8241726547",
                "operator": "Judyta Rogala",
                "operator:type": "private",
                "amenity": "kindergarten"
            }
        }
    ]
}