{"type":"FeatureCollection","features":[{"id":83854,"type":"Feature","geometry":{"type":"Point","coordinates":[22.01987,52.39219]},"properties":{"isced:level":"4","ref:rspo":83854,"official_name":"Szko\u0142a Policealna Twp w W\u0119growie","name":"Szko\u0142a Policealna Twp w W\u0119growie","addr:country":"PL","addr:postcode":"07-100","addr:city":"W\u0119gr\u00f3w","addr:street":"ul. Adama Mickiewicza","addr:housenumber":"23","addr:teryt:simc":12740,"addr:teryt:sym_ul":975871,"contact:phone":"+48 257920161","contact:email":"twpwegrow@poczta.onet.pl","ref:regon":"146417741","ref:vatin":"PL8211160549","operator":"Towarzystwo Wiedzy Powszechnej Oddzia\u0142 Regionalny W Siedlcach","operator:type":"ngo","amenity":"college"}},{"id":84134,"type":"Feature","geometry":{"type":"Point","coordinates":[22.01987,52.39216]},"properties":{"isced:level":"3","ref:rspo":84134,"official_name":"Liceum Og\u00f3lnokszta\u0142c\u0105ce dla Doros\u0142ych Twp w W\u0119growie","name":"Liceum Og\u00f3lnokszta\u0142c\u0105ce dla Doros\u0142ych Twp w W\u0119growie","addr:country":"PL","addr:postcode":"07-100","addr:city":"W\u0119gr\u00f3w","addr:street":"ul. Adama Mickiewicza","addr:housenumber":"23","addr:teryt:simc":12740,"addr:teryt:sym_ul":975871,"contact:phone":"+48 257920161","ref:regon":"146457723","ref:vatin":"PL8211160549","operator":"Towarzystwo Wiedzy Powszechnej Oddzia\u0142 Regionalny W Siedlcach","operator:type":"ngo","amenity":"school"}},{"id":92828,"type":"Feature","geometry":{"type":"Point","coordinates":[22.01987,52.39213]},"properties":{"ref:rspo":92828,"official_name":"Specjalny O\u015brodek Szkolno-Wychowawczy w W\u0119growie","name":"Specjalny O\u015brodek Szkolno-Wychowawczy w W\u0119growie","addr:country":"PL","addr:postcode":"07-100","addr:city":"W\u0119gr\u00f3w","addr:street":"ul. Adama Mickiewicza","addr:housenumber":"23","addr:teryt:simc":12740,"addr:teryt:sym_ul":975871,"contact:phone":"+48 257920161","contact:email":"soszw.wegrow@wp.pl","contact:website":"http:\/\/soszwegrow.biposwiata.pl","ref:regon":"711647228","ref:vatin":"PL8241572423","operator":"Powiat W\u0119growski","operator:type":"government","amenity":"school","note":"Children RSPO: 109753;111744;111745;128234"}},{"id":264262,"type":"Feature","geometry":{"type":"Point","coordinates":[22.01987,52.3921]},"properties":{"ref:rspo":264262,"official_name":"Specjalistyczna Poradnia Psychologiczno-Pedagogiczna \"Szansa\" w W\u0119growie","name":"Specjalistyczna Poradnia Psychologiczno-Pedagogiczna \"Szansa\" w W\u0119growie","addr:country":"PL","addr:postcode":"07-100","addr:city":"W\u0119gr\u00f3w","addr:street":"ul. Adama Mickiewicza","addr:housenumber":"23","addr:teryt:simc":12740,"addr:teryt:sym_ul":975871,"contact:phone":"+48 257920161","contact:email":"sponiawegrow@onet.pl","ref:regon":"368296633","operator":"Stowarzyszenie Pomocy Osobom Niepe\u0142nosprawnym I Autystycznym \"Sponia - W\u0119gr\u00f3w\"","operator:type":"ngo","healthcare":"councelling","counselling_type":"education","fixme":"w zale\u017cno\u015bci od przedmiotu dzia\u0142alno\u015bci (np. healthcare=councelling + counselling_type=education albo healthcare=psychotherapist)"}},{"id":275318,"type":"Feature","geometry":{"type":"Point","coordinates":[22.01987,52.39207]},"properties":{"ref:rspo":275318,"official_name":"Niepubliczna Plac\u00f3wka Kszta\u0142cenia Ustawicznego \"Hr Alphabet Z Siedzib\u0105 w W\u0119growie\"","name":"Niepubliczna Plac\u00f3wka Kszta\u0142cenia Ustawicznego \"Hr Alphabet Z Siedzib\u0105 w W\u0119growie\"","addr:country":"PL","addr:postcode":"07-100","addr:city":"W\u0119gr\u00f3w","addr:street":"ul. Adama Mickiewicza","addr:housenumber":"23","addr:teryt:simc":12740,"addr:teryt:sym_ul":975871,"ref:regon":"386805345","operator":"Hr Alphabet Sp\u00f3\u0142ka Z Ograniczon\u0105 Odpowiedzialno\u015bci\u0105","operator:type":"private","fixme":"w zale\u017cno\u015bci od przedmiotu dzia\u0142alno\u015bci (np. amenity=training + training=*, amenity=dancing_school, amenity=language_school, amenity=music_school)"}},{"id":109753,"type":"Feature","geometry":{"type":"Point","coordinates":[22.01987,52.39204]},"properties":{"isced:level":"1;2","ref:rspo":109753,"official_name":"Szko\u0142a Podstawowa Specjalna im. Kornela Makuszy\u0144skiego w W\u0119growie","name":"Szko\u0142a Podstawowa Specjalna","addr:country":"PL","addr:postcode":"07-100","addr:city":"W\u0119gr\u00f3w","addr:street":"ul. Adama Mickiewicza","addr:housenumber":"23","addr:teryt:simc":12740,"addr:teryt:sym_ul":975871,"contact:phone":"+48 257920161","contact:email":"soszw.wegrow@w.pl","contact:website":"http:\/\/soswwegrow.biposwiata.pl","ref:regon":"712542402","ref:vatin":"PL8241572423","operator":"Powiat W\u0119growski","operator:type":"government","amenity":"school","note":"Parent RSPO: 92828"}},{"id":111744,"type":"Feature","geometry":{"type":"Point","coordinates":[22.01987,52.39201]},"properties":{"isced:level":"3","ref:rspo":111744,"official_name":"Bran\u017cowa Szko\u0142a I Stopnia im. Kornela Makuszy\u0144skiego w W\u0119growie","name":"Bran\u017cowa Szko\u0142a I Stopnia","addr:country":"PL","addr:postcode":"07-100","addr:city":"W\u0119gr\u00f3w","addr:street":"ul. Adama Mickiewicza","addr:housenumber":"23","addr:teryt:simc":12740,"addr:teryt:sym_ul":975871,"contact:phone":"+48 257920161","contact:email":"soszw.wegrow@wp.pl","contact:website":"http:\/\/soswwegrow.biposwiata.pl","ref:regon":"712542425","ref:vatin":"PL8241572423","operator":"Powiat W\u0119growski","operator:type":"government","amenity":"school","note":"Parent RSPO: 92828"}},{"id":111745,"type":"Feature","geometry":{"type":"Point","coordinates":[22.01987,52.39198]},"properties":{"ref:rspo":111745,"official_name":"Szko\u0142a Specjalna Przysposabiaj\u0105ca Do Pracy w W\u0119growie","name":"Szko\u0142a Specjalna Przysposabiaj\u0105ca Do Pracy w W\u0119growie","addr:country":"PL","addr:postcode":"07-100","addr:city":"W\u0119gr\u00f3w","addr:street":"ul. Adama Mickiewicza","addr:housenumber":"23","addr:teryt:simc":12740,"addr:teryt:sym_ul":975871,"contact:phone":"+48 257920161","contact:email":"soszw.wegrow@wp.pl","contact:website":"http:\/\/soswwegrow.biposwiata.pl","ref:regon":"140952717","ref:vatin":"PL8241572423","operator":"Powiat W\u0119growski","operator:type":"government","amenity":"school","note":"Parent RSPO: 92828"}},{"id":128234,"type":"Feature","geometry":{"type":"Point","coordinates":[22.01987,52.39195]},"properties":{"ref:rspo":128234,"official_name":"Przedszkole Specjalne w Specjalnym O\u015brodku Szkolno-Wychowawczym w W\u0119growie","name":"Przedszkole Specjalne w Specjalnym O\u015brodku Szkolno-Wychowawczym w W\u0119growie","addr:country":"PL","addr:postcode":"07-100","addr:city":"W\u0119gr\u00f3w","addr:street":"ul. Adama Mickiewicza","addr:housenumber":"23","addr:teryt:simc":12740,"addr:teryt:sym_ul":975871,"contact:phone":"+48 257920161","contact:email":"soszw.wegrow@wp.pl","contact:website":"http:\/\/soswwegrow.biposwiata.pl","ref:regon":"362193889","ref:vatin":"PL8241572423","operator":"Powiat W\u0119growski","operator:type":"government","amenity":"kindergarten","note":"Parent RSPO: 92828"}},{"id":81496,"type":"Feature","geometry":{"type":"Point","coordinates":[22.0151,52.39449]},"properties":{"ref:rspo":81496,"official_name":"Poradnia Psychologiczno-Pedagogiczna w W\u0119growie","name":"Poradnia Psychologiczno-Pedagogiczna w W\u0119growie","addr:country":"PL","addr:postcode":"07-100","addr:city":"W\u0119gr\u00f3w","addr:street":"ul. marsz. J\u00f3zefa Pi\u0142sudskiego","addr:housenumber":"23","addr:teryt:simc":16274,"addr:teryt:sym_ul":975871,"contact:phone":"+48 257924700","contact:email":"ppp_wegrow@wp.pl","contact:website":"http:\/\/www.poradnia.wegrow.pl","ref:regon":"000994437","ref:vatin":"PL8241302333","operator":"Powiat W\u0119growski","operator:type":"government","healthcare":"councelling","counselling_type":"education","fixme":"w zale\u017cno\u015bci od przedmiotu dzia\u0142alno\u015bci (np. healthcare=councelling + counselling_type=education albo healthcare=psychotherapist)"}},{"id":68699,"type":"Feature","geometry":{"type":"Point","coordinates":[22.0151,52.394459999999995]},"properties":{"ref:rspo":68699,"official_name":"Biblioteka Pedagogiczna im. Heleny Radli\u0144skiej w Siedlcach Filia w W\u0119growie","name":"Biblioteka Pedagogiczna","addr:country":"PL","addr:postcode":"07-100","addr:city":"W\u0119gr\u00f3w","addr:street":"ul. marsz. J\u00f3zefa Pi\u0142sudskiego","addr:housenumber":"23","addr:teryt:simc":16274,"addr:teryt:sym_ul":975871,"contact:phone":"+48 257922346","contact:email":"wegrow@bpsiedlce.pl","contact:website":"http:\/\/www.bpsiedlce.pl","ref:regon":"711690885","ref:vatin":"PL8211061132","operator":"Wojew\u00f3dztwo Mazowieckie","operator:type":"government","amenity":"library","note":"Parent RSPO: 28040"}},{"id":42905,"type":"Feature","geometry":{"type":"Point","coordinates":[22.02337,52.39537]},"properties":{"ref:rspo":42905,"official_name":"Przedszkole Nr 2 Pod S\u0142oneczkiem w W\u0119growie","name":"Przedszkole Nr 2 Pod S\u0142oneczkiem w W\u0119growie","addr:country":"PL","addr:postcode":"07-100","addr:city":"W\u0119gr\u00f3w","addr:street":"ul. 11 Listopada","addr:housenumber":"1","addr:teryt:simc":11205,"addr:teryt:sym_ul":975871,"contact:phone":"+48 257924352","contact:email":"podsloneczkiem@wp.pl","ref:regon":"711673148","ref:vatin":"PL8241606671","operator":"Miasto W\u0119gr\u00f3w","operator:type":"government","amenity":"kindergarten"}},{"id":81107,"type":"Feature","geometry":{"type":"Point","coordinates":[22.01132,52.39539]},"properties":{"ref:rspo":81107,"official_name":"Zesp\u00f3\u0142 Szk\u00f3\u0142 Ponadpodstawowych im. Jana Kochanowskiego w W\u0119growie","name":"Zesp\u00f3\u0142 Szk\u00f3\u0142 Ponadpodstawowych","addr:country":"PL","addr:postcode":"07-100","addr:city":"W\u0119gr\u00f3w","addr:street":"ul. Bohater\u00f3w Warszawy","addr:housenumber":"10","addr:teryt:simc":1679,"addr:teryt:sym_ul":975871,"contact:phone":"+48 257922676","contact:email":"sekretariat@zsp.wegrow.pl","contact:website":"http:\/\/www.zsp.wegrow.pl","ref:regon":"000201572","ref:vatin":"PL8241361376","operator":"Powiat W\u0119growski","operator:type":"government","landuse":"education","fixme":"amenity=school, amenity=college albo landuse=education w zale\u017cno\u015bci od tego, jakie plac\u00f3wki wchodz\u0105 w sk\u0142ad zespo\u0142u. Sprawd\u017a, kiedy stosowa\u0107 amenity=* a kiedy landuse=education.","note":"Children RSPO: 109390;109392;109399;109612;127761"}},{"id":109390,"type":"Feature","geometry":{"type":"Point","coordinates":[22.01132,52.39536]},"properties":{"isced:level":"3","ref:rspo":109390,"official_name":"Ii Liceum Og\u00f3lnokszta\u0142c\u0105ce w W\u0119growie","name":"Ii Liceum Og\u00f3lnokszta\u0142c\u0105ce w W\u0119growie","addr:country":"PL","addr:postcode":"07-100","addr:city":"W\u0119gr\u00f3w","addr:street":"ul. Bohater\u00f3w Warszawy","addr:housenumber":"10","addr:teryt:simc":1679,"addr:teryt:sym_ul":975871,"contact:phone":"+48 257922676","contact:email":"sekretariat@zsp.wegrow.pl","contact:website":"http:\/\/www.zsp.wegrow.pl","ref:regon":"712542460","ref:vatin":"PL8241361376","operator":"Powiat W\u0119growski","operator:type":"government","amenity":"school","note":"Parent RSPO: 81107"}},{"id":109392,"type":"Feature","geometry":{"type":"Point","coordinates":[22.01132,52.39533]},"properties":{"isced:level":"3","ref:rspo":109392,"official_name":"Bran\u017cowa Szko\u0142a I Stopnia w W\u0119growie","name":"Bran\u017cowa Szko\u0142a I Stopnia w W\u0119growie","addr:country":"PL","addr:postcode":"07-100","addr:city":"W\u0119gr\u00f3w","addr:street":"ul. Bohater\u00f3w Warszawy","addr:housenumber":"10","addr:teryt:simc":1679,"addr:teryt:sym_ul":975871,"contact:phone":"+48 257922676","contact:email":"sekretariat@zsp.wegrow.pl","contact:website":"http:\/\/www.zsp.wegrow.pl","ref:regon":"712542508","ref:vatin":"PL8241361376","operator":"Powiat W\u0119growski","operator:type":"government","amenity":"school","note":"Parent RSPO: 81107"}},{"id":109399,"type":"Feature","geometry":{"type":"Point","coordinates":[22.01132,52.3953]},"properties":{"isced:level":"3","ref:rspo":109399,"official_name":"Technikum w W\u0119growie","name":"Technikum w W\u0119growie","addr:country":"PL","addr:postcode":"07-100","addr:city":"W\u0119gr\u00f3w","addr:street":"ul. Bohater\u00f3w Warszawy","addr:housenumber":"10","addr:teryt:simc":1679,"addr:teryt:sym_ul":975871,"contact:phone":"+48 257922676","contact:email":"sekretariat@zsp.wegrow.pl","contact:website":"http:\/\/www.zsp.wegrow.pl","ref:regon":"712576737","ref:vatin":"PL8241361376","operator":"Powiat W\u0119growski","operator:type":"government","amenity":"school","note":"Parent RSPO: 81107"}},{"id":109612,"type":"Feature","geometry":{"type":"Point","coordinates":[22.01132,52.39527]},"properties":{"isced:level":"4","ref:rspo":109612,"official_name":"Szko\u0142a Policealna w W\u0119growie","name":"Szko\u0142a Policealna w W\u0119growie","addr:country":"PL","addr:postcode":"07-100","addr:city":"W\u0119gr\u00f3w","addr:street":"ul. Bohater\u00f3w Warszawy","addr:housenumber":"10","addr:teryt:simc":1679,"addr:teryt:sym_ul":975871,"contact:phone":"+48 257922676","contact:email":"sekretariat@zsp.wegrow.pl","contact:website":"http:\/\/www.zspwegrow.pl","ref:regon":"146533708","ref:vatin":"PL8241361376","operator":"Powiat W\u0119growski","operator:type":"government","amenity":"college","note":"Parent RSPO: 81107"}},{"id":127761,"type":"Feature","geometry":{"type":"Point","coordinates":[22.01132,52.39524]},"properties":{"isced:level":"3","ref:rspo":127761,"official_name":"Liceum Og\u00f3lnokszta\u0142c\u0105ce dla Doros\u0142ych w W\u0119growie","name":"Liceum Og\u00f3lnokszta\u0142c\u0105ce dla Doros\u0142ych w W\u0119growie","addr:country":"PL","addr:postcode":"07-100","addr:city":"W\u0119gr\u00f3w","addr:street":"ul. Bohater\u00f3w Warszawy","addr:housenumber":"10","addr:teryt:simc":1679,"addr:teryt:sym_ul":975871,"contact:phone":"+48 257922676","contact:email":"sekretariat@zsp.wegrow.pl","contact:website":"http:\/\/www.zsp.wegrow.pl","ref:regon":"361837103","ref:vatin":"PL8241361376","operator":"Powiat W\u0119growski","operator:type":"government","amenity":"school","note":"Parent RSPO: 81107"}},{"id":106483,"type":"Feature","geometry":{"type":"Point","coordinates":[22.08071,52.39566]},"properties":{"ref:rspo":106483,"official_name":"Przedszkole Artystyczne \"Koala\"","name":"Przedszkole Artystyczne \"Koala\"","addr:country":"PL","addr:postcode":"07-100","addr:city":"W\u0119gr\u00f3w","addr:street":"ul. Willowa","addr:housenumber":"13","addr:teryt:simc":24317,"addr:teryt:sym_ul":975871,"contact:phone":"+48 502147517","contact:email":"info@koalaprzedszkole.pl","ref:regon":"146474118","ref:vatin":"PL8251329078","operator":"Marek Piasecki \"Biopaliwa\", Przedszkole Artystyczne Koala","operator:type":"private","amenity":"kindergarten"}},{"id":42877,"type":"Feature","geometry":{"type":"Point","coordinates":[22.01395,52.39577]},"properties":{"ref:rspo":42877,"official_name":"Przedszkole Nr 1 im. Czes\u0142awa Janczarskiego w W\u0119growie","name":"Przedszkole Nr 1","addr:country":"PL","addr:postcode":"07-100","addr:city":"W\u0119gr\u00f3w","addr:street":"ul. Klonowa","addr:housenumber":"4","addr:teryt:simc":8574,"addr:teryt:sym_ul":975871,"contact:phone":"+48 257923314","contact:email":"przedszkole.nr1@serwus.pl","contact:website":"http:\/\/przedszkole1.wegrow.pl","ref:regon":"711673154","ref:vatin":"PL8241606688","operator":"Miasto W\u0119gr\u00f3w","operator:type":"government","amenity":"kindergarten"}},{"id":81241,"type":"Feature","geometry":{"type":"Point","coordinates":[22.02016,52.39763]},"properties":{"isced:level":"3","ref:rspo":81241,"official_name":"I Liceum Og\u00f3lnokszta\u0142c\u0105ce im. Adama Mickiewicza w W\u0119growie","name":"I Liceum Og\u00f3lnokszta\u0142c\u0105ce","addr:country":"PL","addr:postcode":"07-100","addr:city":"W\u0119gr\u00f3w","addr:street":"ul. Adama Mickiewicza","addr:housenumber":"3","addr:teryt:simc":12740,"addr:teryt:sym_ul":975871,"contact:phone":"+48 257924424","contact:email":"lo_weg@poczta.onet.pl","contact:website":"http:\/\/www.lowegrow.aplus.pl","ref:regon":"000258649","ref:vatin":"PL8241275240","operator":"Powiat W\u0119growski","operator:type":"government","amenity":"school"}},{"id":42873,"type":"Feature","geometry":{"type":"Point","coordinates":[22.02365,52.39837]},"properties":{"isced:level":"1;2","ref:rspo":42873,"official_name":"Szko\u0142a Podstawowa Nr 2 im. Jana Paw\u0142a II w W\u0119growie","name":"Szko\u0142a Podstawowa Nr 2","addr:country":"PL","addr:postcode":"07-100","addr:city":"W\u0119gr\u00f3w","addr:street":"ul. Tadeusza Ko\u015bciuszki","addr:housenumber":"16","addr:teryt:simc":9582,"addr:teryt:sym_ul":975871,"contact:phone":"+48 257923097","contact:email":"spwegrow@gmail.com","ref:regon":"001137379","ref:vatin":"PL8241147861","operator":"Miasto W\u0119gr\u00f3w","operator:type":"government","amenity":"school"}},{"id":78210,"type":"Feature","geometry":{"type":"Point","coordinates":[22.02405,52.39942]},"properties":{"ref:rspo":78210,"official_name":"Katolickie Przedszkole \u015aw. Antoniego w W\u0119growie","name":"Katolickie Przedszkole \u015aw. Antoniego w W\u0119growie","addr:country":"PL","addr:postcode":"07-100","addr:city":"W\u0119gr\u00f3w","addr:street":"ul. Tadeusza Ko\u015bciuszki","addr:housenumber":"27a","addr:teryt:simc":9582,"addr:teryt:sym_ul":975871,"contact:phone":"+48 885052052","contact:email":"antoniwegrow@gmail.com","contact:website":"http:\/\/www.przedszkole.klasztor.pl","ref:regon":"146417630","ref:vatin":"PL8241791987","operator":"Parafia Rzymskokatolicka \u015aw. Piotra Z Alkantary I \u015aw. Antoniego Z Padwy","operator:type":"religious","amenity":"kindergarten"}},{"id":121379,"type":"Feature","geometry":{"type":"Point","coordinates":[22.02138,52.39949]},"properties":{"ref:rspo":121379,"official_name":"Niepubliczny Punkt Przedszkolny \"Bajka\"","name":"Niepubliczny Punkt Przedszkolny \"Bajka\"","addr:country":"PL","addr:postcode":"07-100","addr:city":"W\u0119gr\u00f3w","addr:street":"ul. Tadeusza Ko\u015bciuszki","addr:housenumber":"23","addr:teryt:simc":9582,"addr:teryt:sym_ul":975871,"contact:phone":"+48 530916986","contact:email":"bajka.wegrow@gmail.com","ref:regon":"147047594","operator":"Hanna Ufnal","operator:type":"private","amenity":"kindergarten"}},{"id":42917,"type":"Feature","geometry":{"type":"Point","coordinates":[22.01133,52.40084]},"properties":{"ref:rspo":42917,"official_name":"Przedszkole Nr 3 im. Marii Konopnickiej w W\u0119growie","name":"Przedszkole Nr 3","addr:country":"PL","addr:postcode":"07-100","addr:city":"W\u0119gr\u00f3w","addr:street":"ul. Henryka Wieniawskiego","addr:housenumber":"1","addr:teryt:simc":24123,"addr:teryt:sym_ul":975871,"contact:phone":"+48 257922745","contact:email":"przedszkole.3@wp.pl","ref:regon":"711673094","ref:vatin":"PL8241606725","operator":"Miasto W\u0119gr\u00f3w","operator:type":"government","amenity":"kindergarten"}},{"id":126657,"type":"Feature","geometry":{"type":"Point","coordinates":[22.02468,52.40463]},"properties":{"ref:rspo":126657,"official_name":"Niepubliczna Poradnia Psychologiczno-Pedagogiczna \"Centrum Wspierania Rozwoju\" w W\u0119growie","name":"Niepubliczna Poradnia Psychologiczno-Pedagogiczna \"Centrum Wspierania Rozwoju\" w W\u0119growie","addr:country":"PL","addr:postcode":"07-100","addr:city":"W\u0119gr\u00f3w","addr:street":"ul. Karola Szamoty","addr:housenumber":"42A","addr:teryt:simc":21754,"addr:teryt:sym_ul":975871,"contact:phone":"+48 608464229","contact:email":"cwr@onet.eu","ref:regon":"360592674","operator":"Monika Doktorska","operator:type":"private","healthcare":"councelling","counselling_type":"education","fixme":"w zale\u017cno\u015bci od przedmiotu dzia\u0142alno\u015bci (np. healthcare=councelling + counselling_type=education albo healthcare=psychotherapist)"}},{"id":262736,"type":"Feature","geometry":{"type":"Point","coordinates":[22.02445,52.40556]},"properties":{"isced:level":"1;2","ref:rspo":262736,"official_name":"Szko\u0142a Podstawowa Nr 1 im. Jana Dobrogosta Krasi\u0144skiego w W\u0119growie","name":"Szko\u0142a Podstawowa Nr 1","addr:country":"PL","addr:postcode":"07-100","addr:city":"W\u0119gr\u00f3w","addr:street":"ul. Karola Szamoty","addr:housenumber":"35","addr:teryt:simc":21754,"addr:teryt:sym_ul":975871,"contact:phone":"+48 257922331","contact:email":"gimnazjum.wegrow@wp.pl","contact:website":"http:\/\/sp1.wegrow.pl","ref:regon":"368054255","operator":"Miasto W\u0119gr\u00f3w","operator:type":"government","amenity":"school"}}]}