{
    "type": "FeatureCollection",
    "features": [
        {
            "id": 87258,
            "type": "Feature",
            "geometry": {
                "type": "Point",
                "coordinates": [
                    21.91679,
                    52.26921
                ]
            },
            "properties": {
                "isced:level": "1;2",
                "ref:rspo": 87258,
                "official_name": "Samorz\u0105dowa Szko\u0142a Podstawowa im. Powsta\u0144c\u00f3w Styczniowych w Ruchnie",
                "name": "Samorz\u0105dowa Szko\u0142a Podstawowa",
                "addr:country": "PL",
                "addr:postcode": "07-100",
                "addr:city": "Ruchna",
                "addr:street": "Siedlecka",
                "addr:housenumber": "5",
                "addr:teryt:simc": 19769,
                "addr:teryt:sym_ul": 678044,
                "contact:phone": "+48 257926488",
                "contact:email": "sspruchna@poczta.onet.pl",
                "ref:regon": "001125175",
                "ref:vatin": "PL8241600160",
                "operator": "Gmina Liw",
                "operator:type": "government",
                "amenity": "school"
            }
        },
        {
            "id": 87287,
            "type": "Feature",
            "geometry": {
                "type": "Point",
                "coordinates": [
                    22.00819,
                    52.3055
                ]
            },
            "properties": {
                "ref:rspo": 87287,
                "official_name": "Samorz\u0105dowe\nPrzedszkole w Wyszkowie",
                "name": "Samorz\u0105dowe\nPrzedszkole w Wyszkowie",
                "addr:country": "PL",
                "addr:postcode": "07-100",
                "addr:place": "Wyszk\u00f3w",
                "addr:housenumber": "28",
                "addr:teryt:sym_ul": 678200,
                "contact:phone": "+48 257931481",
                "contact:email": "przedszkolewyszkow@gmail.com",
                "contact:website": "http:\/\/przedszkolewyszkow-przedszkolowo.pl",
                "ref:regon": "711673929",
                "ref:vatin": "PL8241601030",
                "operator": "Gmina Liw",
                "operator:type": "government",
                "amenity": "kindergarten"
            }
        },
        {
            "id": 87532,
            "type": "Feature",
            "geometry": {
                "type": "Point",
                "coordinates": [
                    22.00967,
                    52.3057
                ]
            },
            "properties": {
                "isced:level": "1;2",
                "ref:rspo": 87532,
                "official_name": "Samorz\u0105dowa Szko\u0142a Podstawowa Im Kornela Makuszy\u0144skiego w Wyszkowie",
                "name": "Samorz\u0105dowa Szko\u0142a Podstawowa Im Kornela Makuszy\u0144skiego w Wyszkowie",
                "addr:country": "PL",
                "addr:postcode": "07-100",
                "addr:place": "Wyszk\u00f3w",
                "addr:housenumber": "29A",
                "addr:teryt:sym_ul": 678200,
                "contact:phone": "+48 257931422",
                "contact:email": "sspwyszkow@op.pl",
                "ref:regon": "001125152",
                "ref:vatin": "PL8241600361",
                "operator": "Gmina Liw",
                "operator:type": "government",
                "amenity": "school"
            }
        },
        {
            "id": 86735,
            "type": "Feature",
            "geometry": {
                "type": "Point",
                "coordinates": [
                    22.06129,
                    52.3340699
                ]
            },
            "properties": {
                "isced:level": "1;2",
                "ref:rspo": 86735,
                "official_name": "Samorz\u0105dowa Szko\u0142a Podstawowa w Zaj\u0105cu",
                "name": "Samorz\u0105dowa Szko\u0142a Podstawowa w Zaj\u0105cu",
                "addr:country": "PL",
                "addr:postcode": "07-100",
                "addr:place": "Zaj\u0105c",
                "addr:housenumber": "41",
                "addr:teryt:sym_ul": 678239,
                "contact:phone": "+48 257931508",
                "contact:email": "sspzajac@vp.pl",
                "ref:regon": "001125146",
                "ref:vatin": "PL8241600935",
                "operator": "Gmina Liw",
                "operator:type": "government",
                "amenity": "school"
            }
        },
        {
            "id": 87257,
            "type": "Feature",
            "geometry": {
                "type": "Point",
                "coordinates": [
                    21.9563099,
                    52.37228
                ]
            },
            "properties": {
                "isced:level": "1;2",
                "ref:rspo": 87257,
                "official_name": "Samorz\u0105dowa Szko\u0142a Podstawowa w Liwie im. Stefana Batorego",
                "name": "Samorz\u0105dowa Szko\u0142a Podstawowa w Liwie",
                "addr:country": "PL",
                "addr:postcode": "07-100",
                "addr:city": "Liw",
                "addr:street": "Ksi\u0119dza Karola Rafa\u0142a Leszczy\u0144skiego",
                "addr:housenumber": "2",
                "addr:teryt:simc": 39505,
                "addr:teryt:sym_ul": 677926,
                "contact:phone": "+48 605573968",
                "contact:email": "szkolaliw@op.pl",
                "ref:regon": "001226350",
                "ref:vatin": "PL8241600444",
                "operator": "Gmina Liw",
                "operator:type": "government",
                "amenity": "school"
            }
        },
        {
            "id": 87261,
            "type": "Feature",
            "geometry": {
                "type": "Point",
                "coordinates": [
                    22.06471,
                    52.37233
                ]
            },
            "properties": {
                "ref:rspo": 87261,
                "official_name": "Samorz\u0105dowe Przedszkole w Ruchnie",
                "name": "Samorz\u0105dowe Przedszkole w Ruchnie",
                "addr:country": "PL",
                "addr:postcode": "07-100",
                "addr:city": "Ruchna",
                "addr:street": "Akacjowa",
                "addr:housenumber": "17",
                "addr:teryt:simc": 157,
                "addr:teryt:sym_ul": 678044,
                "contact:phone": "+48 257926402",
                "contact:email": "przedszkole.ruchna@wp.pl",
                "ref:regon": "711674248",
                "ref:vatin": "PL8241601142",
                "operator": "Gmina Liw",
                "operator:type": "government",
                "amenity": "kindergarten"
            }
        },
        {
            "id": 87259,
            "type": "Feature",
            "geometry": {
                "type": "Point",
                "coordinates": [
                    21.96657,
                    52.37455
                ]
            },
            "properties": {
                "ref:rspo": 87259,
                "official_name": "Samorz\u0105dowe Przedszkole w Liwie",
                "name": "Samorz\u0105dowe Przedszkole w Liwie",
                "addr:country": "PL",
                "addr:postcode": "17-100",
                "addr:city": "Liw",
                "addr:street": "Kozia",
                "addr:housenumber": "2",
                "addr:teryt:simc": 9704,
                "addr:teryt:sym_ul": 677926,
                "contact:phone": "+48 257925711",
                "contact:email": "przedszkole.liw1@wp.pl",
                "ref:regon": "711674202",
                "ref:vatin": "PL8241600970",
                "operator": "Gmina Liw",
                "operator:type": "government",
                "amenity": "kindergarten"
            }
        },
        {
            "id": 87256,
            "type": "Feature",
            "geometry": {
                "type": "Point",
                "coordinates": [
                    21.94914,
                    52.45595
                ]
            },
            "properties": {
                "isced:level": "1;2",
                "ref:rspo": 87256,
                "official_name": "Samorz\u0105dowa Szko\u0142a Podstawowa im. Bohater\u00f3w Wrzesnia 1939 w Starejwsi",
                "name": "Samorz\u0105dowa Szko\u0142a Podstawowa",
                "addr:country": "PL",
                "addr:postcode": "07-100",
                "addr:city": "Starawie\u015b",
                "addr:street": "Szkolna",
                "addr:housenumber": "1",
                "addr:teryt:simc": 21970,
                "addr:teryt:sym_ul": 678096,
                "contact:phone": "+48 257931871",
                "contact:email": "sspstarawies@wp.pl",
                "ref:regon": "001125169",
                "ref:vatin": "PL8241600289",
                "operator": "Gmina Liw",
                "operator:type": "government",
                "amenity": "school"
            }
        },
        {
            "id": 87260,
            "type": "Feature",
            "geometry": {
                "type": "Point",
                "coordinates": [
                    21.94914,
                    52.45592
                ]
            },
            "properties": {
                "ref:rspo": 87260,
                "official_name": "Samorz\u0105dowe Przedszkole w Starejwsi",
                "name": "Samorz\u0105dowe Przedszkole w Starejwsi",
                "addr:country": "PL",
                "addr:postcode": "07-100",
                "addr:city": "Starawie\u015b",
                "addr:street": "Szkolna",
                "addr:housenumber": "1",
                "addr:teryt:simc": 21970,
                "addr:teryt:sym_ul": 678096,
                "contact:phone": "+48 257931928",
                "contact:email": "przedszkole36@op.pl",
                "ref:regon": "711674254",
                "ref:vatin": "PL8241601107",
                "operator": "Gmina Liw",
                "operator:type": "government",
                "amenity": "kindergarten"
            }
        }
    ]
}