{
    "type": "FeatureCollection",
    "features": [
        {
            "id": 20566,
            "type": "Feature",
            "geometry": {
                "type": "Point",
                "coordinates": [
                    21.0253,
                    52.4613
                ]
            },
            "properties": {
                "ref:rspo": 20566,
                "official_name": "Samorz\u0105dowe Przedszkole w Zegrzu",
                "name": "Samorz\u0105dowe Przedszkole w Zegrzu",
                "addr:postcode": "05-131",
                "addr:city": "Zegrze",
                "addr:street": "Oficerska",
                "addr:housenumber": "2",
                "addr:city:simc": 8467,
                "addr:street:sym_ul": 14806,
                "email": "przedszkole.zegrze@gmail.com",
                "website": "http:\/\/pzegrze.przedszkola.net.pl",
                "ref:regon": "142540829",
                "ref:vatin": "PL5361891135",
                "operator": "Miasto I Gmina Serock",
                "operator:type": "government",
                "amenity": "kindergarten"
            }
        },
        {
            "id": 48867,
            "type": "Feature",
            "geometry": {
                "type": "Point",
                "coordinates": [
                    21.0223799,
                    52.46319
                ]
            },
            "properties": {
                "isced:level": "1;2",
                "ref:rspo": 48867,
                "official_name": "Szko\u0142a Podstawowa im.wojska Polskiego w Zegrzu",
                "name": "Szko\u0142a Podstawowa im.wojska Polskiego w Zegrzu",
                "addr:postcode": "05-131",
                "addr:city": "Zegrze",
                "addr:street": "Oficerska",
                "addr:housenumber": "3",
                "addr:city:simc": 8467,
                "addr:street:sym_ul": 14806,
                "phone": "+48 227654080",
                "email": "sekretariat@spzegrze.pl",
                "website": "http:\/\/www.spzegrze.pl",
                "ref:regon": "001146823",
                "ref:vatin": "PL5361664913",
                "operator": "Miasto I Gmina Serock",
                "operator:type": "government",
                "amenity": "school"
            }
        },
        {
            "id": 20563,
            "type": "Feature",
            "geometry": {
                "type": "Point",
                "coordinates": [
                    21.04389,
                    52.47735
                ]
            },
            "properties": {
                "isced:level": "1;2",
                "ref:rspo": 20563,
                "official_name": "Szko\u0142a Podstawowa im.jerzego Szaniawskiego w Jadwisinie",
                "name": "Szko\u0142a Podstawowa im.jerzego Szaniawskiego w Jadwisinie",
                "addr:postcode": "05-140",
                "addr:city": "Jadwisin",
                "addr:street": "Szkolna",
                "addr:housenumber": "46",
                "addr:city:simc": 8237,
                "addr:street:sym_ul": 21970,
                "phone": "+48 227827548",
                "email": "spjadwisin@post.pl",
                "website": "http:\/\/www.spjadwisin.szkolnastrona.pl\/index.php",
                "ref:regon": "001146830",
                "ref:vatin": "PL5361664907",
                "operator": "Miasto I Gmina Serock",
                "operator:type": "government",
                "amenity": "school"
            }
        },
        {
            "id": 268417,
            "type": "Feature",
            "geometry": {
                "type": "Point",
                "coordinates": [
                    21.03687,
                    52.48595
                ]
            },
            "properties": {
                "ref:rspo": 268417,
                "official_name": "Niepubliczne Przedszkole \"Magiczny Las\"",
                "name": "Niepubliczne Przedszkole \"Magiczny Las\"",
                "addr:postcode": "05-140",
                "addr:city": "Stasi Las",
                "addr:street": "Jutrzenki",
                "addr:housenumber": "7",
                "addr:city:simc": 8361,
                "addr:street:sym_ul": 7699,
                "phone": "+48 575755441",
                "email": "info@magicznylas.edu.pl",
                "website": "http:\/\/www.magicznylas.edu.pl",
                "ref:regon": "381151413",
                "ref:vatin": "PL5361935246",
                "operator": "Magiczny Las Sp\u00f3\u0142ka Z Ograniczon\u0105 Odpowiedzialno\u015bci\u0105",
                "operator:type": "private",
                "amenity": "kindergarten"
            }
        },
        {
            "id": 273067,
            "type": "Feature",
            "geometry": {
                "type": "Point",
                "coordinates": [
                    21.04266,
                    52.48606
                ]
            },
            "properties": {
                "ref:rspo": 273067,
                "official_name": "Niepubliczna Poradnia Psychologiczno - Pedagogiczna \"Motyl\"",
                "name": "Niepubliczna Poradnia Psychologiczno - Pedagogiczna \"Motyl\"",
                "addr:postcode": "05-140",
                "addr:city": "Serock",
                "addr:street": "Warszawska",
                "addr:housenumber": "24",
                "addr:city:simc": 921645,
                "addr:street:sym_ul": 23682,
                "email": "marzena.skrzypkowska@terapiamotyl.pl",
                "ref:regon": "384366114",
                "operator": "Marzena Skrzypkowska",
                "operator:type": "private",
                "healthcare": "counselling",
                "counselling_type": "education",
                "fixme": "w zale\u017cno\u015bci od przedmiotu dzia\u0142alno\u015bci (np. healthcare=counselling + counselling_type=education albo healthcare=psychotherapist)"
            }
        },
        {
            "id": 18442,
            "type": "Feature",
            "geometry": {
                "type": "Point",
                "coordinates": [
                    20.984844,
                    52.5054079
                ]
            },
            "properties": {
                "ref:rspo": 18442,
                "official_name": "Zesp\u00f3\u0142 Szkolno-Przedszkolny w Woli Kie\u0142pi\u0144skiej",
                "name": "Zesp\u00f3\u0142 Szkolno-Przedszkolny w Woli Kie\u0142pi\u0144skiej",
                "addr:postcode": "05-140",
                "addr:place": "Wola Kie\u0142pi\u0144ska",
                "addr:housenumber": "1",
                "addr:city:simc": 8390,
                "phone": "+48 227827550",
                "email": "szkola@zsp-wola-kielpinska.edu.pl",
                "website": "http:\/\/www.zsp-wola-kielpinska.pl",
                "ref:regon": "001146817",
                "ref:vatin": "PL5361664959",
                "operator": "Miasto I Gmina Serock",
                "operator:type": "government",
                "landuse": "education",
                "fixme": "amenity=school, amenity=college albo landuse=education w zale\u017cno\u015bci od tego, jakie plac\u00f3wki wchodz\u0105 w sk\u0142ad zespo\u0142u. Sprawd\u017a, kiedy stosowa\u0107 amenity=* a kiedy landuse=education.",
                "note": "Children RSPO: 48870;48871"
            }
        },
        {
            "id": 48870,
            "type": "Feature",
            "geometry": {
                "type": "Point",
                "coordinates": [
                    20.984844,
                    52.5053779
                ]
            },
            "properties": {
                "ref:rspo": 48870,
                "official_name": "Przedszkole w Woli Kie\u0142pi\u0144skiej",
                "name": "Przedszkole w Woli Kie\u0142pi\u0144skiej",
                "addr:postcode": "05-140",
                "addr:place": "Wola Kie\u0142pi\u0144ska",
                "addr:housenumber": "1",
                "addr:city:simc": 8415,
                "phone": "+48 227827550",
                "email": "szkola@zsp-wola-kielpinska.edu.pl",
                "website": "http:\/\/www.zsp-wola-kielpinska.pl",
                "ref:regon": "015791257",
                "ref:vatin": "PL5361664971",
                "operator": "Miasto I Gmina Serock",
                "operator:type": "government",
                "amenity": "kindergarten",
                "note": "Parent RSPO: 18442"
            }
        },
        {
            "id": 48871,
            "type": "Feature",
            "geometry": {
                "type": "Point",
                "coordinates": [
                    20.984844,
                    52.505347900000004
                ]
            },
            "properties": {
                "isced:level": "1;2",
                "ref:rspo": 48871,
                "official_name": "Szko\u0142a Podstawowa im.witolda Zglenickiego w Woli Kie\u0142pi\u0144skiej",
                "name": "Szko\u0142a Podstawowa im.witolda Zglenickiego w Woli Kie\u0142pi\u0144skiej",
                "addr:postcode": "05-140",
                "addr:place": "Wola Kie\u0142pi\u0144ska",
                "addr:housenumber": "1",
                "addr:city:simc": 8415,
                "phone": "+48 227827550",
                "email": "szkola@zsp-wola-kielpinska.edu.pl",
                "website": "http:\/\/www.zsp-wola-kielpinska.pl",
                "ref:regon": "015791234",
                "ref:vatin": "PL5361664971",
                "operator": "Miasto I Gmina Serock",
                "operator:type": "government",
                "amenity": "school",
                "note": "Parent RSPO: 18442"
            }
        },
        {
            "id": 27728,
            "type": "Feature",
            "geometry": {
                "type": "Point",
                "coordinates": [
                    21.06973,
                    52.50878
                ]
            },
            "properties": {
                "ref:rspo": 27728,
                "official_name": "Dom Wczas\u00f3w Dzieci\u0119cych",
                "name": "Dom Wczas\u00f3w Dzieci\u0119cych",
                "addr:postcode": "05-140",
                "addr:city": "Serock",
                "addr:street": "Wyzwolenia",
                "addr:housenumber": "31",
                "addr:city:simc": 921645,
                "addr:street:sym_ul": 25133,
                "phone": "+48 227826843",
                "email": "sekretariat@integracjaserock.pl",
                "website": "http:\/\/www.integracjaserock.pl",
                "ref:regon": "146348856",
                "operator": "Krajowy Komitet Wychowania Resocjalizuj\u0105cego",
                "operator:type": "ngo",
                "leisure": "resort"
            }
        },
        {
            "id": 29717,
            "type": "Feature",
            "geometry": {
                "type": "Point",
                "coordinates": [
                    21.06973,
                    52.50875
                ]
            },
            "properties": {
                "ref:rspo": 29717,
                "official_name": "Szkolne Schronisko M\u0142odzie\u017cowe Krajowego Komitetu Wychowania Resocjalizuj\u0105cego",
                "name": "Szkolne Schronisko M\u0142odzie\u017cowe Krajowego Komitetu Wychowania Resocjalizuj\u0105cego",
                "addr:postcode": "05-140",
                "addr:city": "Serock",
                "addr:street": "Wyzwolenia",
                "addr:housenumber": "31",
                "addr:city:simc": 921645,
                "addr:street:sym_ul": 25133,
                "phone": "+48 227826843",
                "email": "sekretariat@integracjaserock.pl",
                "website": "http:\/\/integracjaserock.pl",
                "ref:regon": "146348900",
                "operator": "Krajowy Komitet Wychowania Resocjalizuj\u0105cego",
                "operator:type": "ngo",
                "tourism": "hostel"
            }
        },
        {
            "id": 20565,
            "type": "Feature",
            "geometry": {
                "type": "Point",
                "coordinates": [
                    21.067670822144,
                    52.511680603027
                ]
            },
            "properties": {
                "ref:rspo": 20565,
                "official_name": "Samorz\u0105dowe Przedszkole im.krasnala Ha\u0142aba\u0142y w Serocku",
                "name": "Samorz\u0105dowe Przedszkole im.krasnala Ha\u0142aba\u0142y w Serocku",
                "addr:postcode": "05-140",
                "addr:city": "Serock",
                "addr:street": "W\u0142odzimierza Wolskiego",
                "addr:housenumber": "15",
                "addr:city:simc": 921645,
                "addr:street:sym_ul": 24699,
                "phone": "+48 227827312",
                "email": "przedszkole.serock@neostrada.pl",
                "website": "http:\/\/przedszkole-serock.edupage.org",
                "ref:regon": "013003563",
                "ref:vatin": "PL5361575931",
                "operator": "Miasto I Gmina Serock",
                "operator:type": "government",
                "amenity": "kindergarten"
            }
        },
        {
            "id": 24329,
            "type": "Feature",
            "geometry": {
                "type": "Point",
                "coordinates": [
                    21.067670822144,
                    52.511650603027
                ]
            },
            "properties": {
                "ref:rspo": 24329,
                "official_name": "Powiatowy Zesp\u00f3\u0142 Szk\u00f3\u0142 Ponadpodstawowych im. W\u0142odzimierza Wolskiego w Serocku",
                "name": "Powiatowy Zesp\u00f3\u0142 Szk\u00f3\u0142 Ponadpodstawowych",
                "addr:postcode": "05-140",
                "addr:city": "Serock",
                "addr:street": "W\u0142odzimierza Wolskiego",
                "addr:housenumber": "8",
                "addr:city:simc": 921645,
                "addr:street:sym_ul": 24699,
                "phone": "+48 227827101",
                "email": "sekretariat@pzspserock.pl",
                "website": "http:\/\/www.pzspserock.pl",
                "ref:regon": "000860174",
                "ref:vatin": "PL5361295812",
                "operator": "Powiat Legionowski",
                "operator:type": "government",
                "landuse": "education",
                "fixme": "amenity=school, amenity=college albo landuse=education w zale\u017cno\u015bci od tego, jakie plac\u00f3wki wchodz\u0105 w sk\u0142ad zespo\u0142u. Sprawd\u017a, kiedy stosowa\u0107 amenity=* a kiedy landuse=education.",
                "note": "Children RSPO: 34598;34599;34601"
            }
        },
        {
            "id": 34598,
            "type": "Feature",
            "geometry": {
                "type": "Point",
                "coordinates": [
                    21.067670822144,
                    52.511620603027005
                ]
            },
            "properties": {
                "isced:level": "3",
                "ref:rspo": 34598,
                "official_name": "Liceum Og\u00f3lnokszta\u0142c\u0105ce",
                "name": "Liceum Og\u00f3lnokszta\u0142c\u0105ce",
                "addr:postcode": "05-140",
                "addr:city": "Serock",
                "addr:street": "W\u0142odzimierza Wolskiego",
                "addr:housenumber": "8",
                "addr:city:simc": 921645,
                "addr:street:sym_ul": 24699,
                "phone": "+48 227827101",
                "email": "sekretariat@pzspserock.pl",
                "website": "http:\/\/www.pzspserock.pl",
                "ref:regon": "015547362",
                "operator": "Powiat Legionowski",
                "operator:type": "government",
                "amenity": "school",
                "note": "Parent RSPO: 24329"
            }
        },
        {
            "id": 34599,
            "type": "Feature",
            "geometry": {
                "type": "Point",
                "coordinates": [
                    21.067670822144,
                    52.511590603027
                ]
            },
            "properties": {
                "isced:level": "3",
                "ref:rspo": 34599,
                "official_name": "Bran\u017cowa Szko\u0142a I Stopnia",
                "name": "Bran\u017cowa Szko\u0142a I Stopnia",
                "addr:postcode": "05-140",
                "addr:city": "Serock",
                "addr:street": "W\u0142odzimierza Wolskiego",
                "addr:housenumber": "8",
                "addr:city:simc": 921645,
                "addr:street:sym_ul": 24699,
                "phone": "+48 227827101",
                "email": "sekretariat@pzspserock.pl",
                "website": "http:\/\/www.pzspserock.pl",
                "ref:regon": "015547379",
                "operator": "Powiat Legionowski",
                "operator:type": "government",
                "amenity": "school",
                "note": "Parent RSPO: 24329"
            }
        },
        {
            "id": 34601,
            "type": "Feature",
            "geometry": {
                "type": "Point",
                "coordinates": [
                    21.067670822144,
                    52.511560603027
                ]
            },
            "properties": {
                "isced:level": "3",
                "ref:rspo": 34601,
                "official_name": "Technikum",
                "name": "Technikum",
                "addr:postcode": "05-140",
                "addr:city": "Serock",
                "addr:street": "W\u0142odzimierza Wolskiego",
                "addr:housenumber": "8",
                "addr:city:simc": 921645,
                "addr:street:sym_ul": 24699,
                "phone": "+48 227827101",
                "email": "sekretariat@pzspserock.pl",
                "website": "http:\/\/www.pzspserock.pl",
                "ref:regon": "015509373",
                "operator": "Powiat Legionowski",
                "operator:type": "government",
                "amenity": "school",
                "note": "Parent RSPO: 24329"
            }
        },
        {
            "id": 20562,
            "type": "Feature",
            "geometry": {
                "type": "Point",
                "coordinates": [
                    21.0709899,
                    52.51626
                ]
            },
            "properties": {
                "isced:level": "1;2",
                "ref:rspo": 20562,
                "official_name": "Szko\u0142a Podstawowa im.miko\u0142aja Kopernika w Serocku",
                "name": "Szko\u0142a Podstawowa im.miko\u0142aja Kopernika w Serocku",
                "addr:postcode": "05-140",
                "addr:city": "Serock",
                "addr:street": "Pu\u0142tuska",
                "addr:housenumber": "68",
                "addr:city:simc": 921645,
                "addr:street:sym_ul": 18168,
                "phone": "+48 227827311",
                "email": "szkola@spserock.pl",
                "website": "http:\/\/www.spserock.edupage.org",
                "ref:regon": "000799931",
                "ref:vatin": "PL5361664942",
                "operator": "Miasto I Gmina Serock",
                "operator:type": "government",
                "amenity": "school"
            }
        },
        {
            "id": 23051,
            "type": "Feature",
            "geometry": {
                "type": "Point",
                "coordinates": [
                    21.06932,
                    52.5197999
                ]
            },
            "properties": {
                "ref:rspo": 23051,
                "official_name": "Niepubliczne Przedszkole \"Weso\u0142e Skrzaty\"",
                "name": "Niepubliczne Przedszkole \"Weso\u0142e Skrzaty\"",
                "addr:postcode": "05-140",
                "addr:city": "Serock",
                "addr:street": "Pu\u0142tuska",
                "addr:housenumber": "53D",
                "addr:city:simc": 921645,
                "addr:street:sym_ul": 18168,
                "phone": "+48 665794495",
                "email": "dzulia2@op.pl",
                "website": "http:\/\/www.wesoleskrzaty.edu.pl",
                "ref:regon": "146328256",
                "ref:vatin": "PL5681434988",
                "operator": "Marzena Kisiel - Gryc",
                "operator:type": "private",
                "amenity": "kindergarten"
            }
        }
    ]
}