{
    "type": "FeatureCollection",
    "features": [
        {
            "id": 265611,
            "type": "Feature",
            "geometry": {
                "type": "Point",
                "coordinates": [
                    20.93206,
                    52.38638
                ]
            },
            "properties": {
                "ref:rspo": 265611,
                "official_name": "Regipio Language School",
                "name": "Regipio Language School",
                "addr:postcode": "05-120",
                "addr:city": "Legionowo",
                "addr:street": "Polankowa",
                "addr:housenumber": "11",
                "addr:city:simc": 920806,
                "addr:street:sym_ul": 16975,
                "phone": "+48 784627248",
                "email": "regipio.szkola@gmail.com",
                "ref:regon": "368797884",
                "operator": "Regina Szuszkiewicz",
                "operator:type": "private",
                "fixme": "w zale\u017cno\u015bci od przedmiotu dzia\u0142alno\u015bci (np. amenity=training + training=*, amenity=dancing_school, amenity=language_school, amenity=music_school)"
            }
        },
        {
            "id": 131120,
            "type": "Feature",
            "geometry": {
                "type": "Point",
                "coordinates": [
                    20.93456,
                    52.38692
                ]
            },
            "properties": {
                "ref:rspo": 131120,
                "official_name": "Punkt Przedszkolny Uliczka Kwiatowa",
                "name": "Punkt Przedszkolny Uliczka Kwiatowa",
                "addr:postcode": "05-120",
                "addr:city": "Legionowo",
                "addr:street": "Kwiatowa",
                "addr:housenumber": "147",
                "addr:city:simc": 920806,
                "addr:street:sym_ul": 10562,
                "phone": "+48 501801441",
                "email": "laubes@wp.pl",
                "ref:regon": "364955910",
                "operator": "Laubes Sp\u00f3\u0142ka Z Ograniczon\u0105 Odpowiedzialno\u015bci\u0105",
                "operator:type": "consortium",
                "amenity": "kindergarten"
            }
        },
        {
            "id": 89664,
            "type": "Feature",
            "geometry": {
                "type": "Point",
                "coordinates": [
                    20.9368,
                    52.39084
                ]
            },
            "properties": {
                "isced:level": "1;2",
                "ref:rspo": 89664,
                "official_name": "Szko\u0142a Podstawowa Nr 1 im. Miko\u0142aja Kopernika w Legionowie",
                "name": "Szko\u0142a Podstawowa Nr 1",
                "addr:postcode": "05-120",
                "addr:city": "Legionowo",
                "addr:street": "Zakopia\u0144ska",
                "addr:housenumber": "4",
                "addr:city:simc": 920806,
                "addr:street:sym_ul": 25458,
                "phone": "+48 227845452",
                "email": "sekretariat@zs1.legionowo.pl",
                "website": "http:\/\/www.sp1.legionowo.pl",
                "ref:regon": "000800580",
                "operator": "Gmina Miejska Legionowo",
                "operator:type": "government",
                "amenity": "school"
            }
        },
        {
            "id": 267116,
            "type": "Feature",
            "geometry": {
                "type": "Point",
                "coordinates": [
                    20.9368,
                    52.390809999999995
                ]
            },
            "properties": {
                "ref:rspo": 267116,
                "official_name": "Groteam - Szkolenia Specjalistyczne",
                "name": "Groteam - Szkolenia Specjalistyczne",
                "addr:postcode": "05-120",
                "addr:city": "Legionowo",
                "addr:street": "Zakopia\u0144ska",
                "addr:housenumber": "4",
                "addr:city:simc": 920806,
                "addr:street:sym_ul": 25458,
                "email": "groteamedu@gmail.com",
                "ref:regon": "369940645",
                "operator": "Tomasz Grochowski",
                "operator:type": "private",
                "fixme": "w zale\u017cno\u015bci od przedmiotu dzia\u0142alno\u015bci (np. amenity=training + training=*, amenity=dancing_school, amenity=language_school, amenity=music_school)"
            }
        },
        {
            "id": 71619,
            "type": "Feature",
            "geometry": {
                "type": "Point",
                "coordinates": [
                    20.93899,
                    52.39099
                ]
            },
            "properties": {
                "ref:rspo": 71619,
                "official_name": "Przedszkole Miejskie Integracyjne Nr 5 im. Misia Uszatka w Legionowie",
                "name": "Przedszkole Miejskie Integracyjne Nr 5",
                "addr:postcode": "05-120",
                "addr:city": "Legionowo",
                "addr:street": "Kwiatowa",
                "addr:housenumber": "80",
                "addr:city:simc": 920806,
                "addr:street:sym_ul": 10562,
                "phone": "+48 223504141",
                "email": "pmi5@wp.pl",
                "website": "http:\/\/www.pm5.legionowo.pl",
                "ref:regon": "013004060",
                "ref:vatin": "PL5361645560",
                "operator": "Gmina Miejska Legionowo",
                "operator:type": "government",
                "amenity": "kindergarten"
            }
        },
        {
            "id": 86942,
            "type": "Feature",
            "geometry": {
                "type": "Point",
                "coordinates": [
                    20.91944,
                    52.39116
                ]
            },
            "properties": {
                "ref:rspo": 86942,
                "official_name": "Niepubliczne Przedszkole ,,Akademia Zucha''",
                "name": "Niepubliczne Przedszkole ,,Akademia Zucha''",
                "addr:postcode": "05-120",
                "addr:city": "Legionowo",
                "addr:street": "Husarska",
                "addr:housenumber": "19",
                "addr:city:simc": 920806,
                "addr:street:sym_ul": 6815,
                "phone": "+48 223080800",
                "email": "biuro@akademiazucha.pl",
                "website": "http:\/\/www.akademiazucha.pl",
                "ref:regon": "146393383",
                "ref:vatin": "PL5252069293",
                "operator": "Agnieszka Dudewicz",
                "operator:type": "private",
                "amenity": "kindergarten"
            }
        },
        {
            "id": 276304,
            "type": "Feature",
            "geometry": {
                "type": "Point",
                "coordinates": [
                    20.91767,
                    52.3912
                ]
            },
            "properties": {
                "ref:rspo": 276304,
                "official_name": "Niepubliczne Przedszkole \"T\u0119czowa Akademia\"",
                "name": "Niepubliczne Przedszkole \"T\u0119czowa Akademia\"",
                "addr:postcode": "05-120",
                "addr:city": "Legionowo",
                "addr:street": "Husarska",
                "addr:housenumber": "16",
                "addr:door": "307",
                "addr:city:simc": 920806,
                "addr:street:sym_ul": 6815,
                "phone": "+48 512458782",
                "email": "budzynska_marta@wp.pl",
                "website": "http:\/\/teczowaakademia.pl",
                "ref:regon": "387085545",
                "operator": "Marianna Budzy\u0144ska",
                "operator:type": "private",
                "amenity": "kindergarten"
            }
        },
        {
            "id": 75168,
            "type": "Feature",
            "geometry": {
                "type": "Point",
                "coordinates": [
                    20.91777,
                    52.39158
                ]
            },
            "properties": {
                "ref:rspo": 75168,
                "official_name": "Przedszkole Miejskie Z Oddzia\u0142ami Integracyjnymi Nr 7 im. Janusza Korczaka",
                "name": "Przedszkole Miejskie Z Oddzia\u0142ami Integracyjnymi Nr 7",
                "addr:postcode": "05-120",
                "addr:city": "Legionowo",
                "addr:street": "Husarska",
                "addr:housenumber": "18A",
                "addr:city:simc": 920806,
                "addr:street:sym_ul": 6815,
                "phone": "+48 227321372",
                "email": "przedszkole-siodemka@wp.pl",
                "website": "http:\/\/www.pm7.legionowo.pl",
                "ref:regon": "013004031",
                "ref:vatin": "PL5361645608",
                "operator": "Gmina Miejska Legionowo",
                "operator:type": "government",
                "amenity": "kindergarten"
            }
        },
        {
            "id": 90540,
            "type": "Feature",
            "geometry": {
                "type": "Point",
                "coordinates": [
                    20.92651,
                    52.39208
                ]
            },
            "properties": {
                "ref:rspo": 90540,
                "official_name": "Zesp\u00f3\u0142 Szkolno- Przedszkolny,,Milenium''\nNiepubliczna Szko\u0142a Podstawowa im. Jana Paw\u0142a II Niepubliczne Przedszkole ,, Chatka Puchatka''",
                "name": "Zesp\u00f3\u0142 Szkolno- Przedszkolny,,Milenium''\nNiepubliczna Szko\u0142a Podstawowa",
                "addr:postcode": "05-120",
                "addr:city": "Legionowo",
                "addr:street": "Marsza\u0142ka J\u00f3zefa Pi\u0142sudskiego",
                "addr:housenumber": "47",
                "addr:city:simc": 920806,
                "addr:street:sym_ul": 16274,
                "phone": "+48 227742662",
                "email": "sekretariat@szkolalegionowo.pl",
                "website": "http:\/\/www.szkolamilenium.pl",
                "ref:regon": "146407211",
                "ref:vatin": "PL5361632623",
                "operator": "Paulina Petrykat-\u017bmijewska",
                "operator:type": "private",
                "landuse": "education",
                "fixme": "amenity=school, amenity=college albo landuse=education w zale\u017cno\u015bci od tego, jakie plac\u00f3wki wchodz\u0105 w sk\u0142ad zespo\u0142u. Sprawd\u017a, kiedy stosowa\u0107 amenity=* a kiedy landuse=education.",
                "note": "Children RSPO: 93048;93049"
            }
        },
        {
            "id": 93048,
            "type": "Feature",
            "geometry": {
                "type": "Point",
                "coordinates": [
                    20.92651,
                    52.39205
                ]
            },
            "properties": {
                "isced:level": "1;2",
                "ref:rspo": 93048,
                "official_name": "Niepubliczna Szko\u0142a Podstawowa im. Jana Paw\u0142a Ii",
                "name": "Niepubliczna Szko\u0142a Podstawowa",
                "addr:postcode": "05-120",
                "addr:city": "Legionowo",
                "addr:street": "Marsza\u0142ka J\u00f3zefa Pi\u0142sudskiego",
                "addr:housenumber": "47",
                "addr:city:simc": 920806,
                "addr:street:sym_ul": 16274,
                "phone": "+48 227742662",
                "email": "sekretariat@szkolalegionowo.pl",
                "website": "http:\/\/www.szkolalegionowo.pl",
                "ref:regon": "146436448",
                "operator": "Paulina Petrykat-\u017bmijewska",
                "operator:type": "private",
                "amenity": "school",
                "note": "Parent RSPO: 90540"
            }
        },
        {
            "id": 93049,
            "type": "Feature",
            "geometry": {
                "type": "Point",
                "coordinates": [
                    20.92651,
                    52.39202
                ]
            },
            "properties": {
                "ref:rspo": 93049,
                "official_name": "Niepubliczne Przedszkole ,, Chatka Puchatka''",
                "name": "Niepubliczne Przedszkole ,, Chatka Puchatka''",
                "addr:postcode": "05-120",
                "addr:city": "Legionowo",
                "addr:street": "Marsza\u0142ka J\u00f3zefa Pi\u0142sudskiego",
                "addr:housenumber": "47",
                "addr:city:simc": 920806,
                "addr:street:sym_ul": 16274,
                "phone": "+48 227742662",
                "email": "sekratariat@szkolalegionowo.pl",
                "website": "http:\/\/www.szkolalegionowo.pl",
                "ref:regon": "146436365",
                "operator": "Paulina Petrykat-\u017bmijewska",
                "operator:type": "private",
                "amenity": "kindergarten",
                "note": "Parent RSPO: 90540"
            }
        },
        {
            "id": 274997,
            "type": "Feature",
            "geometry": {
                "type": "Point",
                "coordinates": [
                    20.9258099,
                    52.39431
                ]
            },
            "properties": {
                "ref:rspo": 274997,
                "official_name": "Zesp\u00f3\u0142 Szkolno-Przedszkolny Nr 3",
                "name": "Zesp\u00f3\u0142 Szkolno-Przedszkolny Nr 3",
                "addr:postcode": "05-120",
                "addr:city": "Legionowo",
                "addr:street": "Kr\u00f3lowej Jadwigi",
                "addr:housenumber": "7",
                "addr:city:simc": 920806,
                "addr:street:sym_ul": 10003,
                "phone": "+48 227745636",
                "email": "sekretariat@sp7.legionowo.pl",
                "ref:regon": "386480110",
                "operator": "Gmina Miejska Legionowo",
                "operator:type": "government",
                "landuse": "education",
                "fixme": "amenity=school, amenity=college albo landuse=education w zale\u017cno\u015bci od tego, jakie plac\u00f3wki wchodz\u0105 w sk\u0142ad zespo\u0142u. Sprawd\u017a, kiedy stosowa\u0107 amenity=* a kiedy landuse=education.",
                "note": "Children RSPO: 71636;86936"
            }
        },
        {
            "id": 71636,
            "type": "Feature",
            "geometry": {
                "type": "Point",
                "coordinates": [
                    20.9258099,
                    52.394279999999995
                ]
            },
            "properties": {
                "ref:rspo": 71636,
                "official_name": "Przedszkole Miejskie Nr 12 im. Kr\u00f3la Maciusia",
                "name": "Przedszkole Miejskie Nr 12",
                "addr:postcode": "05-120",
                "addr:city": "Legionowo",
                "addr:street": "Kr\u00f3lowej Jadwigi",
                "addr:housenumber": "7",
                "addr:city:simc": 920806,
                "addr:street:sym_ul": 10003,
                "phone": "+48 227745838",
                "email": "sekretariat@pm12.legionowo.pl",
                "website": "http:\/\/www.pm12.legionowo.pl",
                "ref:regon": "013003994",
                "ref:vatin": "PL5361645637",
                "operator": "Gmina Miejska Legionowo",
                "operator:type": "government",
                "amenity": "kindergarten",
                "note": "Parent RSPO: 274997"
            }
        },
        {
            "id": 86936,
            "type": "Feature",
            "geometry": {
                "type": "Point",
                "coordinates": [
                    20.9258099,
                    52.39425
                ]
            },
            "properties": {
                "isced:level": "1;2",
                "ref:rspo": 86936,
                "official_name": "Szko\u0142a Podstawowa Nr 7 im. VII Obwodu ''Obro\u017ca''ak w Legionowie",
                "name": "Szko\u0142a Podstawowa Nr 7",
                "addr:postcode": "05-120",
                "addr:city": "Legionowo",
                "addr:street": "Kr\u00f3lowej Jadwigi",
                "addr:housenumber": "7",
                "addr:city:simc": 920806,
                "addr:street:sym_ul": 10003,
                "phone": "+48 227745636",
                "email": "sekretariat@sp7.legionowo.pl",
                "website": "http:\/\/www.sp7.legionowo.pl",
                "ref:regon": "001246163",
                "ref:vatin": "PL5361645525",
                "operator": "Gmina Miejska Legionowo",
                "operator:type": "government",
                "amenity": "school",
                "note": "Parent RSPO: 274997"
            }
        },
        {
            "id": 119972,
            "type": "Feature",
            "geometry": {
                "type": "Point",
                "coordinates": [
                    20.93814,
                    52.39576
                ]
            },
            "properties": {
                "ref:rspo": 119972,
                "official_name": "Niepubliczna Poradnia Psychologiczno-Pedagogiczna In-Sens",
                "name": "Niepubliczna Poradnia Psychologiczno-Pedagogiczna In-Sens",
                "addr:postcode": "05-120",
                "addr:city": "Legionowo",
                "addr:street": "Jagiello\u0144ska",
                "addr:housenumber": "2",
                "addr:city:simc": 920806,
                "addr:street:sym_ul": 7029,
                "phone": "+48 604979962",
                "email": "biuro@in-sens.pl",
                "ref:regon": "146873516",
                "ref:vatin": "PL5661722589",
                "operator": "Andrzej Olszewski",
                "operator:type": "private",
                "healthcare": "counselling",
                "counselling_type": "education",
                "fixme": "w zale\u017cno\u015bci od przedmiotu dzia\u0142alno\u015bci (np. healthcare=counselling + counselling_type=education albo healthcare=psychotherapist)"
            }
        },
        {
            "id": 24175,
            "type": "Feature",
            "geometry": {
                "type": "Point",
                "coordinates": [
                    20.93093,
                    52.39621
                ]
            },
            "properties": {
                "isced:level": "3",
                "ref:rspo": 24175,
                "official_name": "Liceum Og\u00f3lnokszta\u0142c\u0105ce im. Marii Konopnickiej w Legionowie",
                "name": "Liceum Og\u00f3lnokszta\u0142c\u0105ce",
                "addr:postcode": "05-120",
                "addr:city": "Legionowo",
                "addr:street": "Marsza\u0142ka J\u00f3zefa Pi\u0142sudskiego",
                "addr:housenumber": "26",
                "addr:city:simc": 920806,
                "addr:street:sym_ul": 16274,
                "phone": "+48 227742724",
                "email": "sekretariat@lokonopnicka.pl",
                "website": "http:\/\/lokonopnicka.pl",
                "ref:regon": "015505004",
                "ref:vatin": "PL5361919750",
                "operator": "Powiat Legionowski",
                "operator:type": "government",
                "amenity": "school"
            }
        },
        {
            "id": 71623,
            "type": "Feature",
            "geometry": {
                "type": "Point",
                "coordinates": [
                    20.92073,
                    52.39633
                ]
            },
            "properties": {
                "ref:rspo": 71623,
                "official_name": "Przedszkole Miejskie Nr 9 ,,Akademia Przygody''",
                "name": "Przedszkole Miejskie Nr 9 ,,Akademia Przygody''",
                "addr:postcode": "05-120",
                "addr:city": "Legionowo",
                "addr:street": "Kr\u00f3lowej Jadwigi",
                "addr:housenumber": "11",
                "addr:city:simc": 920806,
                "addr:street:sym_ul": 10003,
                "phone": "+48 227744033",
                "email": "pm-dziewiatka@o2.pl",
                "website": "http:\/\/www.pm9.legionowo.pl",
                "ref:regon": "013004019",
                "ref:vatin": "PL5361645614",
                "operator": "Gmina Miejska Legionowo",
                "operator:type": "government",
                "amenity": "kindergarten"
            }
        },
        {
            "id": 91029,
            "type": "Feature",
            "geometry": {
                "type": "Point",
                "coordinates": [
                    20.92073,
                    52.3963
                ]
            },
            "properties": {
                "isced:level": "3",
                "ref:rspo": 91029,
                "official_name": "Ii Liceum Og\u00f3lnokszta\u0142c\u0105ce im. Kr\u00f3la Jana III Sobieskiego w Legionowie",
                "name": "Ii Liceum Og\u00f3lnokszta\u0142c\u0105ce",
                "addr:postcode": "05-120",
                "addr:city": "Legionowo",
                "addr:street": "Kr\u00f3lowej Jadwigi",
                "addr:housenumber": "11",
                "addr:city:simc": 920806,
                "addr:street:sym_ul": 10003,
                "phone": "+48 227744031",
                "email": "sekretariat@2lo.legionowo.pl",
                "website": "http:\/\/www.zso2.legionowo.pl",
                "ref:regon": "017161780",
                "operator": "Gmina Miejska Legionowo",
                "operator:type": "government",
                "amenity": "school"
            }
        },
        {
            "id": 130067,
            "type": "Feature",
            "geometry": {
                "type": "Point",
                "coordinates": [
                    20.91786,
                    52.39729
                ]
            },
            "properties": {
                "ref:rspo": 130067,
                "official_name": "Konwaliowy Domek Ii",
                "name": "Konwaliowy Domek Ii",
                "addr:postcode": "05-120",
                "addr:city": "Legionowo",
                "addr:street": "Jana III Sobieskiego",
                "addr:housenumber": "63",
                "addr:city:simc": 920806,
                "addr:street:sym_ul": 20431,
                "phone": "+48 696180044",
                "email": "konwaliowydomek@gmail.com",
                "ref:regon": "363410484",
                "operator": "Izabela Bajda",
                "operator:type": "private",
                "amenity": "kindergarten"
            }
        },
        {
            "id": 90534,
            "type": "Feature",
            "geometry": {
                "type": "Point",
                "coordinates": [
                    20.92407,
                    52.39756
                ]
            },
            "properties": {
                "ref:rspo": 90534,
                "official_name": "Niepubliczne Przedszkole Si\u00f3str Misjonarek \u015awi\u0119tej Rodziny",
                "name": "Niepubliczne Przedszkole Si\u00f3str Misjonarek \u015awi\u0119tej Rodziny",
                "addr:postcode": "05-120",
                "addr:city": "Legionowo",
                "addr:street": "Genera\u0142a J\u00f3zefa Sowi\u0144skiego",
                "addr:housenumber": "17",
                "addr:city:simc": 920806,
                "addr:street:sym_ul": 20625,
                "phone": "+48 227840304",
                "email": "przedszkolemsf@gmail.com",
                "ref:regon": "146407240",
                "ref:vatin": "PL5361645353",
                "operator": "Zg.ss. Misjonarek \u015awi\u0119tej Rodziny, Dom Zakonny",
                "operator:type": "religious",
                "amenity": "kindergarten"
            }
        },
        {
            "id": 16548,
            "type": "Feature",
            "geometry": {
                "type": "Point",
                "coordinates": [
                    20.92744,
                    52.39764
                ]
            },
            "properties": {
                "ref:rspo": 16548,
                "official_name": "Centrum Rozwoju Edukacji A-Z",
                "name": "Centrum Rozwoju Edukacji A-Z",
                "addr:postcode": "05-120",
                "addr:city": "Legionowo",
                "addr:street": "Aleja 3 Maja",
                "addr:housenumber": "26",
                "addr:door": "35",
                "addr:city:simc": 920806,
                "addr:street:sym_ul": 30066,
                "phone": "+48 224356812",
                "ref:regon": "146306993",
                "operator": "Marzena Roth",
                "operator:type": "private",
                "amenity": "training"
            }
        },
        {
            "id": 71605,
            "type": "Feature",
            "geometry": {
                "type": "Point",
                "coordinates": [
                    20.92876,
                    52.39805
                ]
            },
            "properties": {
                "ref:rspo": 71605,
                "official_name": "Przedszkole Miejskie Nr 6 T\u0119czowa Sz\u00f3stka",
                "name": "Przedszkole Miejskie Nr 6 T\u0119czowa Sz\u00f3stka",
                "addr:postcode": "05-120",
                "addr:city": "Legionowo",
                "addr:street": "W\u0142adys\u0142awa Broniewskiego",
                "addr:housenumber": "3",
                "addr:city:simc": 920806,
                "addr:street:sym_ul": 2125,
                "phone": "+48 227744413",
                "email": "przedszkolem6@gmail.com",
                "website": "http:\/\/www.pm6.legionowo.pl",
                "ref:regon": "013004054",
                "ref:vatin": "PL5361645583",
                "operator": "Gmina Miejska Legionowo",
                "operator:type": "government",
                "amenity": "kindergarten"
            }
        },
        {
            "id": 27985,
            "type": "Feature",
            "geometry": {
                "type": "Point",
                "coordinates": [
                    20.93502,
                    52.39885
                ]
            },
            "properties": {
                "isced:level": "4",
                "ref:rspo": 27985,
                "official_name": "Szko\u0142a Policealna Centrum Nauki I Biznesu \"\u017bak\" w Legionowie",
                "name": "Szko\u0142a Policealna Centrum Nauki I Biznesu \"\u017bak\" w Legionowie",
                "addr:postcode": "05-120",
                "addr:city": "Legionowo",
                "addr:street": "W\u0142adys\u0142awa Reymonta",
                "addr:housenumber": "13",
                "addr:city:simc": 920806,
                "addr:street:sym_ul": 18648,
                "email": "legionowo@zak.edu.pl",
                "website": "http:\/\/www.zak.edu.pl",
                "ref:regon": "146369628",
                "operator": "Centrum Nauki I Biznesu \"\u017bak\" Sp\u00f3\u0142ka Z Ograniczon\u0105 Odpowiedzialno\u015bci\u0105",
                "operator:type": "private",
                "amenity": "college"
            }
        },
        {
            "id": 29504,
            "type": "Feature",
            "geometry": {
                "type": "Point",
                "coordinates": [
                    20.93502,
                    52.39882
                ]
            },
            "properties": {
                "isced:level": "3",
                "ref:rspo": 29504,
                "official_name": "Liceum Og\u00f3lnokszta\u0142c\u0105ce dla Doros\u0142ych \"\u017bak\"",
                "name": "Liceum Og\u00f3lnokszta\u0142c\u0105ce dla Doros\u0142ych \"\u017bak\"",
                "addr:postcode": "05-120",
                "addr:city": "Legionowo",
                "addr:street": "W\u0142adys\u0142awa Reymonta",
                "addr:housenumber": "13",
                "addr:city:simc": 920806,
                "addr:street:sym_ul": 18648,
                "email": "legionowo@zak.edu.pl",
                "website": "http:\/\/www.zak.edu.pl",
                "ref:regon": "146353610",
                "operator": "Centrum Nauki I Biznesu \"\u017bak\" Sp\u00f3\u0142ka Z Ograniczon\u0105 Odpowiedzialno\u015bci\u0105",
                "operator:type": "private",
                "amenity": "school"
            }
        },
        {
            "id": 126888,
            "type": "Feature",
            "geometry": {
                "type": "Point",
                "coordinates": [
                    20.93502,
                    52.398790000000005
                ]
            },
            "properties": {
                "isced:level": "4",
                "ref:rspo": 126888,
                "official_name": "Szko\u0142a Policealna Opieki Medycznej \"\u017bak\" w Legionowie",
                "name": "Szko\u0142a Policealna Opieki Medycznej \"\u017bak\" w Legionowie",
                "addr:postcode": "05-120",
                "addr:city": "Legionowo",
                "addr:street": "W\u0142adys\u0142awa Reymonta",
                "addr:housenumber": "13",
                "addr:city:simc": 920806,
                "addr:street:sym_ul": 18648,
                "email": "legionowo@zak.edu.pl",
                "website": "http:\/\/www.zak.edu.pl\/legionowo",
                "ref:regon": "360854861",
                "operator": "Centrum Nauki I Biznesu \"\u017bak\" Sp\u00f3\u0142ka Z Ograniczon\u0105 Odpowiedzialno\u015bci\u0105",
                "operator:type": "private",
                "amenity": "college"
            }
        },
        {
            "id": 85372,
            "type": "Feature",
            "geometry": {
                "type": "Point",
                "coordinates": [
                    20.92511,
                    52.39894
                ]
            },
            "properties": {
                "ref:rspo": 85372,
                "official_name": "Zesp\u00f3\u0142 Szk\u00f3\u0142 Salezja\u0144skich w Legionowie",
                "name": "Zesp\u00f3\u0142 Szk\u00f3\u0142 Salezja\u0144skich w Legionowie",
                "addr:postcode": "05-120",
                "addr:city": "Legionowo",
                "addr:street": "Adama Mickiewicza",
                "addr:housenumber": "35A",
                "addr:city:simc": 920806,
                "addr:street:sym_ul": 12740,
                "phone": "+48 227843177",
                "email": "zss.legionowo@gmail.com",
                "website": "http:\/\/salezy.pl",
                "ref:regon": "142899878",
                "ref:vatin": "PL5361906173",
                "operator": "Towarzystwo Salezja\u0144skie - Inspektoria (Prowincja) \u015aw.stanis\u0142awa Kostki",
                "operator:type": "religious",
                "landuse": "education",
                "fixme": "amenity=school, amenity=college albo landuse=education w zale\u017cno\u015bci od tego, jakie plac\u00f3wki wchodz\u0105 w sk\u0142ad zespo\u0142u. Sprawd\u017a, kiedy stosowa\u0107 amenity=* a kiedy landuse=education.",
                "note": "Children RSPO: 27415;133457"
            }
        },
        {
            "id": 27415,
            "type": "Feature",
            "geometry": {
                "type": "Point",
                "coordinates": [
                    20.92511,
                    52.39891
                ]
            },
            "properties": {
                "isced:level": "3",
                "ref:rspo": 27415,
                "official_name": "Salezja\u0144skie Liceum Og\u00f3lnokszta\u0142c\u0105ce im. \u015aw. Jana Bosko",
                "name": "Salezja\u0144skie Liceum Og\u00f3lnokszta\u0142c\u0105ce",
                "addr:postcode": "05-120",
                "addr:city": "Legionowo",
                "addr:street": "Adama Mickiewicza",
                "addr:housenumber": "35A",
                "addr:city:simc": 920806,
                "addr:street:sym_ul": 12740,
                "phone": "+48 227843177",
                "email": "zss.legionowo@gmail.com",
                "website": "http:\/\/salezy.pl",
                "ref:regon": "146350758",
                "operator": "Towarzystwo Salezja\u0144skie - Inspektoria (Prowincja) \u015aw.stanis\u0142awa Kostki",
                "operator:type": "religious",
                "amenity": "school",
                "note": "Parent RSPO: 85372"
            }
        },
        {
            "id": 133457,
            "type": "Feature",
            "geometry": {
                "type": "Point",
                "coordinates": [
                    20.92511,
                    52.398880000000005
                ]
            },
            "properties": {
                "isced:level": "1;2",
                "ref:rspo": 133457,
                "official_name": "Salezja\u0144ska Szko\u0142a Podstawowa",
                "name": "Salezja\u0144ska Szko\u0142a Podstawowa",
                "addr:postcode": "05-120",
                "addr:city": "Legionowo",
                "addr:street": "Adama Mickiewicza",
                "addr:housenumber": "35A",
                "addr:city:simc": 920806,
                "addr:street:sym_ul": 12740,
                "phone": "+48 227843177",
                "email": "zss.legionowo@gmail.com",
                "website": "http:\/\/salezy.pl",
                "ref:regon": "367335905",
                "operator": "Towarzystwo Salezja\u0144skie - Inspektoria (Prowincja) \u015aw.stanis\u0142awa Kostki",
                "operator:type": "religious",
                "amenity": "school",
                "note": "Parent RSPO: 85372"
            }
        },
        {
            "id": 90919,
            "type": "Feature",
            "geometry": {
                "type": "Point",
                "coordinates": [
                    20.92586,
                    52.3992099
                ]
            },
            "properties": {
                "isced:level": "1;2",
                "ref:rspo": 90919,
                "official_name": "Szko\u0142a Podstawowa Nr 3 im. Janusza Kusoci\u0144skiego w Legionowie",
                "name": "Szko\u0142a Podstawowa Nr 3",
                "addr:postcode": "05-120",
                "addr:city": "Legionowo",
                "addr:street": "W\u0142adys\u0142awa Broniewskiego",
                "addr:housenumber": "7",
                "addr:city:simc": 920806,
                "addr:street:sym_ul": 2125,
                "phone": "+48 227745529",
                "email": "sp3.legionowo@onet.pl",
                "website": "http:\/\/www.sp3.legionowo.pl",
                "ref:regon": "141884627",
                "operator": "Gmina Miejska Legionowo",
                "operator:type": "government",
                "amenity": "school"
            }
        },
        {
            "id": 71628,
            "type": "Feature",
            "geometry": {
                "type": "Point",
                "coordinates": [
                    20.92725,
                    52.3992999
                ]
            },
            "properties": {
                "ref:rspo": 71628,
                "official_name": "Przedszkole Miejskie Nr 10",
                "name": "Przedszkole Miejskie Nr 10",
                "addr:postcode": "05-120",
                "addr:city": "Legionowo",
                "addr:street": "W\u0142adys\u0142awa Broniewskiego",
                "addr:housenumber": "6",
                "addr:city:simc": 920806,
                "addr:street:sym_ul": 2125,
                "phone": "+48 227744591",
                "email": "pm10leg@o2.pl",
                "website": "http:\/\/www.pm10legionowo.pl",
                "ref:regon": "013004002",
                "ref:vatin": "PL5361645620",
                "operator": "Gmina Miejska Legionowo",
                "operator:type": "government",
                "amenity": "kindergarten"
            }
        },
        {
            "id": 29641,
            "type": "Feature",
            "geometry": {
                "type": "Point",
                "coordinates": [
                    20.95099,
                    52.39993
                ]
            },
            "properties": {
                "ref:rspo": 29641,
                "official_name": "Prywatna Szko\u0142a J\u0119zyk\u00f3w Obcych \"Sap\"",
                "name": "Prywatna Szko\u0142a J\u0119zyk\u00f3w Obcych \"Sap\"",
                "addr:postcode": "05-119",
                "addr:city": "Legionowo",
                "addr:street": "W\u0105ska",
                "addr:housenumber": "14",
                "addr:city:simc": 920806,
                "addr:street:sym_ul": 23795,
                "phone": "+48 227844908",
                "email": "psjo_sap@wp.pl",
                "website": "http:\/\/www.saplegionowo.pl",
                "ref:regon": "146342084",
                "operator": "Alina Pachelska",
                "operator:type": "private",
                "fixme": "w zale\u017cno\u015bci od przedmiotu dzia\u0142alno\u015bci (np. amenity=training + training=*, amenity=dancing_school, amenity=language_school, amenity=music_school)"
            }
        },
        {
            "id": 130314,
            "type": "Feature",
            "geometry": {
                "type": "Point",
                "coordinates": [
                    20.91721,
                    52.40023
                ]
            },
            "properties": {
                "ref:rspo": 130314,
                "official_name": "Niepubliczna Bursa Sportowa Lts Legionovia",
                "name": "Niepubliczna Bursa Sportowa Lts Legionovia",
                "addr:postcode": "05-120",
                "addr:city": "Legionowo",
                "addr:street": "Boles\u0142awa Chrobrego",
                "addr:housenumber": "50B",
                "addr:city:simc": 920806,
                "addr:street:sym_ul": 1742,
                "phone": "+48 227844145",
                "ref:regon": "363827400",
                "operator": "Legionowskie Towarzystwo Siatk\u00f3wki \"Legionovia\"",
                "operator:type": "ngo",
                "building": "dormitory"
            }
        },
        {
            "id": 273327,
            "type": "Feature",
            "geometry": {
                "type": "Point",
                "coordinates": [
                    20.90926,
                    52.40093
                ]
            },
            "properties": {
                "ref:rspo": 273327,
                "official_name": "Niepubliczne Przedszkole Tropiciele Zagadek",
                "name": "Niepubliczne Przedszkole Tropiciele Zagadek",
                "addr:postcode": "05-120",
                "addr:city": "Legionowo",
                "addr:street": "Hetma\u0144ska",
                "addr:housenumber": "52",
                "addr:city:simc": 920806,
                "addr:street:sym_ul": 6637,
                "phone": "+48 537652656",
                "email": "tropicielezagadek@gmail.com",
                "website": "http:\/\/www.tropicielezagadek.pl",
                "ref:regon": "384443872",
                "operator": "Angelika Sowi\u0144ska-\u015al\u0119zak",
                "operator:type": "private",
                "amenity": "kindergarten"
            }
        },
        {
            "id": 24760,
            "type": "Feature",
            "geometry": {
                "type": "Point",
                "coordinates": [
                    20.92427,
                    52.40153
                ]
            },
            "properties": {
                "ref:rspo": 24760,
                "official_name": "\"Protection\" Niepubliczna Plac\u00f3wka O\u015bwiatowa",
                "name": "\"Protection\" Niepubliczna Plac\u00f3wka O\u015bwiatowa",
                "addr:postcode": "05-120",
                "addr:city": "Legionowo",
                "addr:street": "Ksi\u0119dza Augustyna Kordeckiego",
                "addr:housenumber": "13",
                "addr:city:simc": 920806,
                "addr:street:sym_ul": 9345,
                "phone": "+48 227844814",
                "email": "owcsyl@wp.pl",
                "ref:regon": "146331985",
                "ref:vatin": "PL5361119506",
                "operator": "Sylwester Owczarek",
                "operator:type": "private",
                "fixme": "w zale\u017cno\u015bci od przedmiotu dzia\u0142alno\u015bci (np. amenity=training + training=*, amenity=dancing_school, amenity=language_school, amenity=music_school)"
            }
        },
        {
            "id": 91284,
            "type": "Feature",
            "geometry": {
                "type": "Point",
                "coordinates": [
                    20.92307,
                    52.40188
                ]
            },
            "properties": {
                "ref:rspo": 91284,
                "official_name": "Niepubliczne Przedszkole Si\u00f3str Urszulanek",
                "name": "Niepubliczne Przedszkole Si\u00f3str Urszulanek",
                "addr:postcode": "05-120",
                "addr:city": "Legionowo",
                "addr:street": "Ksi\u0119dza J\u00f3zefa Schabowskiego",
                "addr:housenumber": "4",
                "addr:city:simc": 920806,
                "addr:street:sym_ul": 30575,
                "phone": "+48 227740188",
                "email": "przedszkole.urszulanek@gmail.com",
                "website": "http:\/\/www.urszulanki-gandino.pl",
                "ref:regon": "146393762",
                "ref:vatin": "PL5361909154",
                "operator": "Dom Zakonny Zgromadzenia Si\u00f3str Urszulanek Niepokalanej Maryi Panny Z Gandino",
                "operator:type": "religious",
                "amenity": "kindergarten"
            }
        },
        {
            "id": 123988,
            "type": "Feature",
            "geometry": {
                "type": "Point",
                "coordinates": [
                    20.9240299,
                    52.402
                ]
            },
            "properties": {
                "ref:rspo": 123988,
                "official_name": "Niepubliczna Poradnia Psychologiczno-Pedagogiczna Ad Dictum",
                "name": "Niepubliczna Poradnia Psychologiczno-Pedagogiczna Ad Dictum",
                "addr:postcode": "05-120",
                "addr:city": "Legionowo",
                "addr:street": "Ksi\u0119dza Augustyna Kordeckiego",
                "addr:housenumber": "18",
                "addr:city:simc": 920806,
                "addr:street:sym_ul": 9345,
                "phone": "+48 609007249",
                "email": "centrum.terapeutyczne@ad-dictum.pl",
                "website": "http:\/\/www.ad-dictum.pl",
                "ref:regon": "147368000",
                "operator": "Edyta Piwnicka-Panfil",
                "operator:type": "private",
                "healthcare": "counselling",
                "counselling_type": "education",
                "fixme": "w zale\u017cno\u015bci od przedmiotu dzia\u0142alno\u015bci (np. healthcare=counselling + counselling_type=education albo healthcare=psychotherapist)"
            }
        },
        {
            "id": 268615,
            "type": "Feature",
            "geometry": {
                "type": "Point",
                "coordinates": [
                    20.9524,
                    52.40225
                ]
            },
            "properties": {
                "ref:rspo": 268615,
                "official_name": "Niepubliczne Przedszkole Integracyjne Magiczny \u015awiat Dziecka",
                "name": "Niepubliczne Przedszkole Integracyjne Magiczny \u015awiat Dziecka",
                "addr:postcode": "05-119",
                "addr:city": "Legionowo",
                "addr:street": "Stru\u017ca\u0144ska",
                "addr:housenumber": "2F",
                "addr:city:simc": 920806,
                "addr:street:sym_ul": 32558,
                "phone": "+48 600662194",
                "email": "legionowo@magicznyswiatdziecka.pl",
                "website": "http:\/\/www.magicznyswiatdziecka.pl",
                "ref:regon": "381216615",
                "operator": "Beata Sochacka",
                "operator:type": "private",
                "amenity": "kindergarten"
            }
        },
        {
            "id": 128543,
            "type": "Feature",
            "geometry": {
                "type": "Point",
                "coordinates": [
                    20.92434,
                    52.40307
                ]
            },
            "properties": {
                "ref:rspo": 128543,
                "official_name": "Terapeutyczny Punkt Przedszkolny In-Sens",
                "name": "Terapeutyczny Punkt Przedszkolny In-Sens",
                "addr:postcode": "05-120",
                "addr:city": "Legionowo",
                "addr:street": "Ksi\u0119dza Jana Ignacego Skorupki",
                "addr:housenumber": "28",
                "addr:city:simc": 920806,
                "addr:street:sym_ul": 20103,
                "phone": "+48 604979962",
                "email": "biuro@in-sens.pl",
                "ref:regon": "362311952",
                "operator": "Fundacja In-Sens",
                "operator:type": "ngo",
                "amenity": "kindergarten"
            }
        },
        {
            "id": 127320,
            "type": "Feature",
            "geometry": {
                "type": "Point",
                "coordinates": [
                    20.94422,
                    52.40312
                ]
            },
            "properties": {
                "ref:rspo": 127320,
                "official_name": "Niepubliczne Przedszkole ,,B\u0105bel''",
                "name": "Niepubliczne Przedszkole ,,B\u0105bel''",
                "addr:postcode": "05-119",
                "addr:city": "Legionowo",
                "addr:street": "Zegrzy\u0144ska",
                "addr:housenumber": "81A",
                "addr:city:simc": 920806,
                "addr:street:sym_ul": 25984,
                "phone": "+48 600970606",
                "email": "wiolettajozwiak4848@wp.pl",
                "ref:regon": "361354037",
                "ref:vatin": "PL5361708740",
                "operator": "Wioletta J\u00f3\u017awiak",
                "operator:type": "private",
                "amenity": "kindergarten"
            }
        },
        {
            "id": 110537,
            "type": "Feature",
            "geometry": {
                "type": "Point",
                "coordinates": [
                    20.93256,
                    52.40336
                ]
            },
            "properties": {
                "ref:rspo": 110537,
                "official_name": "Niepubliczne Przedszkole Mini Einstein",
                "name": "Niepubliczne Przedszkole Mini Einstein",
                "addr:postcode": "05-120",
                "addr:city": "Legionowo",
                "addr:street": "Kazimierza Wielkiego",
                "addr:housenumber": "10",
                "addr:city:simc": 920806,
                "addr:street:sym_ul": 8265,
                "phone": "+48 512205722",
                "email": "legionowo@minieinstein.pl",
                "website": "http:\/\/www.minieinstein.pl",
                "ref:regon": "146393800",
                "operator": "Ma\u0142gorzata Pa\u0142\u017cewicz",
                "operator:type": "private",
                "amenity": "kindergarten"
            }
        },
        {
            "id": 91246,
            "type": "Feature",
            "geometry": {
                "type": "Point",
                "coordinates": [
                    20.94821,
                    52.40366
                ]
            },
            "properties": {
                "ref:rspo": 91246,
                "official_name": "Przedszkole Miejskie Nr 11 w Legionowie",
                "name": "Przedszkole Miejskie Nr 11 w Legionowie",
                "addr:postcode": "05-120",
                "addr:city": "Legionowo",
                "addr:street": "Zegrzy\u0144ska",
                "addr:housenumber": "9",
                "addr:city:simc": 920806,
                "addr:street:sym_ul": 25984,
                "phone": "+48 227728598",
                "email": "przedszkolem11@o2.pl",
                "website": "http:\/\/www.pm11.legionowo.pl",
                "ref:regon": "017357921",
                "ref:vatin": "PL5361689385",
                "operator": "Gmina Miejska Legionowo",
                "operator:type": "government",
                "amenity": "kindergarten"
            }
        },
        {
            "id": 271359,
            "type": "Feature",
            "geometry": {
                "type": "Point",
                "coordinates": [
                    20.91692,
                    52.40395
                ]
            },
            "properties": {
                "isced:level": "3",
                "ref:rspo": 271359,
                "official_name": "Niepubliczne Liceum J\u0119zykowe Academy Of The Future",
                "name": "Niepubliczne Liceum J\u0119zykowe Academy Of The Future",
                "addr:postcode": "05-120",
                "addr:city": "Legionowo",
                "addr:street": "Parkowa",
                "addr:housenumber": "27B",
                "addr:city:simc": 920806,
                "addr:street:sym_ul": 15710,
                "phone": "+48 227320182",
                "email": "sekretariat@szkolamilenium.pl",
                "website": "http:\/\/www.academyofthefuture.pl",
                "ref:regon": "383302508",
                "operator": "Paulina Petrykat-\u017bmijewska",
                "operator:type": "private",
                "amenity": "school"
            }
        },
        {
            "id": 130732,
            "type": "Feature",
            "geometry": {
                "type": "Point",
                "coordinates": [
                    20.92513,
                    52.40449
                ]
            },
            "properties": {
                "ref:rspo": 130732,
                "official_name": "Niepubliczne Przedszkole Weso\u0142e S\u00f3wki",
                "name": "Niepubliczne Przedszkole Weso\u0142e S\u00f3wki",
                "addr:postcode": "05-120",
                "addr:city": "Legionowo",
                "addr:street": "Jagiello\u0144ska",
                "addr:housenumber": "40",
                "addr:city:simc": 920806,
                "addr:street:sym_ul": 7029,
                "phone": "+48 227321953",
                "email": "wesole.sowki@kzb-legionowo.pl",
                "website": "http:\/\/www.kzb-legionowo.pl",
                "ref:regon": "364446432",
                "ref:vatin": "PL5361914209",
                "operator": "Kzb Legionowo Sp\u00f3\u0142ka Z Ograniczon\u0105 Odpowiedzialno\u015bci\u0105",
                "operator:type": "cooperative",
                "amenity": "kindergarten"
            }
        },
        {
            "id": 129385,
            "type": "Feature",
            "geometry": {
                "type": "Point",
                "coordinates": [
                    20.92051,
                    52.40635
                ]
            },
            "properties": {
                "ref:rspo": 129385,
                "official_name": "Punkt Przedszkolny Drugi Dom Ii",
                "name": "Punkt Przedszkolny Drugi Dom Ii",
                "addr:postcode": "05-120",
                "addr:city": "Legionowo",
                "addr:street": "Jagiello\u0144ska",
                "addr:housenumber": "62",
                "addr:city:simc": 920806,
                "addr:street:sym_ul": 7029,
                "phone": "+48 501195032",
                "email": "przedszkole@drugi-dom.pl",
                "ref:regon": "362576700",
                "operator": "\"Witkowscy\" S.c. Jolanta I Jacek Witkowscy",
                "operator:type": "consortium",
                "amenity": "kindergarten"
            }
        },
        {
            "id": 71242,
            "type": "Feature",
            "geometry": {
                "type": "Point",
                "coordinates": [
                    20.91875,
                    52.40645
                ]
            },
            "properties": {
                "ref:rspo": 71242,
                "official_name": "Zesp\u00f3\u0142 Szkolno- Przedszkolny Nr 2 w Legionowie",
                "name": "Zesp\u00f3\u0142 Szkolno- Przedszkolny Nr 2 w Legionowie",
                "addr:postcode": "05-120",
                "addr:city": "Legionowo",
                "addr:street": "Jagiello\u0144ska",
                "addr:housenumber": "67",
                "addr:city:simc": 920806,
                "addr:street:sym_ul": 7029,
                "phone": "+48 227742754",
                "email": "sekretariat2@zsp2.legionowo.pl",
                "website": "http:\/\/www.zsp2.legionowo.pl",
                "ref:regon": "146091860",
                "ref:vatin": "PL5361911524",
                "operator": "Gmina Miejska Legionowo",
                "operator:type": "government",
                "landuse": "education",
                "fixme": "amenity=school, amenity=college albo landuse=education w zale\u017cno\u015bci od tego, jakie plac\u00f3wki wchodz\u0105 w sk\u0142ad zespo\u0142u. Sprawd\u017a, kiedy stosowa\u0107 amenity=* a kiedy landuse=education.",
                "note": "Children RSPO: 89722;90917"
            }
        },
        {
            "id": 89722,
            "type": "Feature",
            "geometry": {
                "type": "Point",
                "coordinates": [
                    20.91875,
                    52.40642
                ]
            },
            "properties": {
                "isced:level": "1;2",
                "ref:rspo": 89722,
                "official_name": "Szko\u0142a Podstawowa Nr 2 im. Kornela Makuszy\u0144skiego w Legionowie",
                "name": "Szko\u0142a Podstawowa Nr 2",
                "addr:postcode": "05-120",
                "addr:city": "Legionowo",
                "addr:street": "Jagiello\u0144ska",
                "addr:housenumber": "67",
                "addr:city:simc": 920806,
                "addr:street:sym_ul": 7029,
                "phone": "+48 227742754",
                "email": "sekretariat2@zsp2.legionowo.pl",
                "website": "http:\/\/www.zsp2.legionowo.pl",
                "ref:regon": "000800597",
                "operator": "Gmina Miejska Legionowo",
                "operator:type": "government",
                "amenity": "school",
                "note": "Parent RSPO: 71242"
            }
        },
        {
            "id": 90917,
            "type": "Feature",
            "geometry": {
                "type": "Point",
                "coordinates": [
                    20.91875,
                    52.40639
                ]
            },
            "properties": {
                "ref:rspo": 90917,
                "official_name": "Przedszkole Miejskie Nr 2 w Legionowie",
                "name": "Przedszkole Miejskie Nr 2 w Legionowie",
                "addr:postcode": "05-120",
                "addr:city": "Legionowo",
                "addr:street": "Jagiello\u0144ska",
                "addr:housenumber": "67",
                "addr:city:simc": 920806,
                "addr:street:sym_ul": 7029,
                "phone": "+48 227742754",
                "email": "sekretariat2@zsp2.legionowo.pl",
                "website": "http:\/\/www.zsp2.legionowo.pl",
                "ref:regon": "013004083",
                "operator": "Gmina Miejska Legionowo",
                "operator:type": "government",
                "amenity": "kindergarten",
                "note": "Parent RSPO: 71242"
            }
        },
        {
            "id": 86607,
            "type": "Feature",
            "geometry": {
                "type": "Point",
                "coordinates": [
                    20.92016,
                    52.40649
                ]
            },
            "properties": {
                "ref:rspo": 86607,
                "official_name": "Punkt Przedszkolny ,,Drugi Dom''",
                "name": "Punkt Przedszkolny ,,Drugi Dom''",
                "addr:postcode": "05-120",
                "addr:city": "Legionowo",
                "addr:street": "Parkowa",
                "addr:housenumber": "13",
                "addr:city:simc": 920806,
                "addr:street:sym_ul": 15710,
                "email": "przedszkole@drugi-dom.pl",
                "website": "http:\/\/www.drugi-dom.pl",
                "ref:regon": "146393443",
                "ref:vatin": "PL1132506406",
                "operator": "\"Witkowscy\" S.c. Jolanta I Jacek Witkowscy",
                "operator:type": "consortium",
                "amenity": "kindergarten"
            }
        },
        {
            "id": 23172,
            "type": "Feature",
            "geometry": {
                "type": "Point",
                "coordinates": [
                    20.91834,
                    52.40741
                ]
            },
            "properties": {
                "ref:rspo": 23172,
                "official_name": "Poradnia Psychologiczno - Pedagogiczna w Legionowie",
                "name": "Poradnia Psychologiczno - Pedagogiczna w Legionowie",
                "addr:postcode": "05-120",
                "addr:city": "Legionowo",
                "addr:street": "Jagiello\u0144ska",
                "addr:housenumber": "69",
                "addr:city:simc": 920806,
                "addr:street:sym_ul": 7029,
                "phone": "+48 227743814",
                "email": "poradnia@ppplegionowo.pl",
                "website": "http:\/\/www.ppplegionowo.pl",
                "ref:regon": "000837672",
                "ref:vatin": "PL5361696149",
                "operator": "Powiat Legionowski",
                "operator:type": "government",
                "healthcare": "counselling",
                "counselling_type": "education",
                "fixme": "w zale\u017cno\u015bci od przedmiotu dzia\u0142alno\u015bci (np. healthcare=counselling + counselling_type=education albo healthcare=psychotherapist)"
            }
        },
        {
            "id": 23810,
            "type": "Feature",
            "geometry": {
                "type": "Point",
                "coordinates": [
                    20.91834,
                    52.407379999999996
                ]
            },
            "properties": {
                "ref:rspo": 23810,
                "official_name": "Powiatowy Zesp\u00f3\u0142 Szk\u00f3\u0142 I Plac\u00f3wek Specjalnych",
                "name": "Powiatowy Zesp\u00f3\u0142 Szk\u00f3\u0142 I Plac\u00f3wek Specjalnych",
                "addr:postcode": "05-120",
                "addr:city": "Legionowo",
                "addr:street": "Jagiello\u0144ska",
                "addr:housenumber": "69",
                "addr:city:simc": 920806,
                "addr:street:sym_ul": 7029,
                "phone": "+48 227742763",
                "email": "sekretariat@pzsips.legionowski.pl",
                "website": "http:\/\/www.pzsips.legionowski.pl",
                "ref:regon": "000959263",
                "ref:vatin": "PL5361645554",
                "operator": "Powiat Legionowski",
                "operator:type": "government",
                "landuse": "education",
                "fixme": "amenity=school, amenity=college albo landuse=education w zale\u017cno\u015bci od tego, jakie plac\u00f3wki wchodz\u0105 w sk\u0142ad zespo\u0142u. Sprawd\u017a, kiedy stosowa\u0107 amenity=* a kiedy landuse=education.",
                "note": "Children RSPO: 30080;34675;34684"
            }
        },
        {
            "id": 68571,
            "type": "Feature",
            "geometry": {
                "type": "Point",
                "coordinates": [
                    20.91834,
                    52.40735
                ]
            },
            "properties": {
                "ref:rspo": 68571,
                "official_name": "Niepubliczna Szko\u0142a Muzyczna I St. E.p. Guba\u0142a w Legionowie",
                "name": "Niepubliczna Szko\u0142a Muzyczna I St. E.p. Guba\u0142a w Legionowie",
                "addr:postcode": "05-120",
                "addr:city": "Legionowo",
                "addr:street": "Jagiello\u0144ska",
                "addr:housenumber": "69",
                "addr:city:simc": 920806,
                "addr:street:sym_ul": 7029,
                "phone": "+48 227843038",
                "email": "gubala@wp.pl",
                "ref:regon": "146392231",
                "operator": "Pawe\u0142 Guba\u0142a",
                "operator:type": "private",
                "amenity": "music_school"
            }
        },
        {
            "id": 30080,
            "type": "Feature",
            "geometry": {
                "type": "Point",
                "coordinates": [
                    20.91834,
                    52.40732
                ]
            },
            "properties": {
                "isced:level": "1;2",
                "ref:rspo": 30080,
                "official_name": "Szko\u0142a Podstawowa Specjalna",
                "name": "Szko\u0142a Podstawowa Specjalna",
                "addr:postcode": "05-120",
                "addr:city": "Legionowo",
                "addr:street": "Jagiello\u0144ska",
                "addr:housenumber": "69",
                "addr:city:simc": 920806,
                "addr:street:sym_ul": 7029,
                "phone": "+48 227742763",
                "email": "sekretariat@pzsips.legionowski.pl",
                "website": "http:\/\/www.pzsips.legionowski.pl",
                "ref:regon": "015529565",
                "operator": "Powiat Legionowski",
                "operator:type": "government",
                "amenity": "school",
                "note": "Parent RSPO: 23810"
            }
        },
        {
            "id": 34675,
            "type": "Feature",
            "geometry": {
                "type": "Point",
                "coordinates": [
                    20.91834,
                    52.407289999999996
                ]
            },
            "properties": {
                "ref:rspo": 34675,
                "official_name": "Szko\u0142a Specjalna Przysposabiaj\u0105ca Do Pracy",
                "name": "Szko\u0142a Specjalna Przysposabiaj\u0105ca Do Pracy",
                "addr:postcode": "05-120",
                "addr:city": "Legionowo",
                "addr:street": "Jagiello\u0144ska",
                "addr:housenumber": "69",
                "addr:city:simc": 920806,
                "addr:street:sym_ul": 7029,
                "phone": "+48 227742763",
                "email": "sekretariat@pzsips.legionowski.pl",
                "website": "http:\/\/www.pzsips.legionowski.pl",
                "ref:regon": "140202092",
                "operator": "Powiat Legionowski",
                "operator:type": "government",
                "amenity": "school",
                "note": "Parent RSPO: 23810"
            }
        },
        {
            "id": 34684,
            "type": "Feature",
            "geometry": {
                "type": "Point",
                "coordinates": [
                    20.91834,
                    52.40726
                ]
            },
            "properties": {
                "ref:rspo": 34684,
                "official_name": "Przedszkole Specjalne",
                "name": "Przedszkole Specjalne",
                "addr:postcode": "05-120",
                "addr:city": "Legionowo",
                "addr:street": "Jagiello\u0144ska",
                "addr:housenumber": "69",
                "addr:city:simc": 920806,
                "addr:street:sym_ul": 7029,
                "phone": "+48 227742763",
                "email": "sekretariat@pzsips.legionowski.pl",
                "website": "http:\/\/www.pzsips.legionowski.pl",
                "ref:regon": "141506820",
                "operator": "Powiat Legionowski",
                "operator:type": "government",
                "amenity": "kindergarten",
                "note": "Parent RSPO: 23810"
            }
        },
        {
            "id": 24726,
            "type": "Feature",
            "geometry": {
                "type": "Point",
                "coordinates": [
                    20.9518099,
                    52.40758
                ]
            },
            "properties": {
                "ref:rspo": 24726,
                "official_name": "Szkolenie I Obs\u0142uga Inspektorska Bhp",
                "name": "Szkolenie I Obs\u0142uga Inspektorska Bhp",
                "addr:postcode": "05-119",
                "addr:city": "Legionowo",
                "addr:street": "Zegrzy\u0144ska",
                "addr:housenumber": "31",
                "addr:door": "33",
                "addr:city:simc": 920806,
                "addr:street:sym_ul": 25984,
                "phone": "+48 227681430",
                "email": "bogumilmik@gmail.com",
                "ref:regon": "146331910",
                "ref:vatin": "PL5361197127",
                "operator": "Helena Miko\u0142ajczak",
                "operator:type": "private",
                "fixme": "w zale\u017cno\u015bci od przedmiotu dzia\u0142alno\u015bci (np. amenity=training + training=*, amenity=dancing_school, amenity=language_school, amenity=music_school)"
            }
        },
        {
            "id": 89657,
            "type": "Feature",
            "geometry": {
                "type": "Point",
                "coordinates": [
                    20.95455,
                    52.40807
                ]
            },
            "properties": {
                "isced:level": "1;2",
                "ref:rspo": 89657,
                "official_name": "Szko\u0142a Podstawowa Nr 8 im. 1 Warszawskiej Dywizji Piechoty w Legionowie",
                "name": "Szko\u0142a Podstawowa Nr 8",
                "addr:postcode": "05-119",
                "addr:city": "Legionowo",
                "addr:street": "Zegrzy\u0144ska",
                "addr:housenumber": "3",
                "addr:city:simc": 920806,
                "addr:street:sym_ul": 25984,
                "phone": "+48 227745950",
                "email": "sp8leg@wp.pl",
                "website": "https:\/\/www.sp8.legionowo.pl\/",
                "ref:regon": "011527782",
                "operator": "Gmina Miejska Legionowo",
                "operator:type": "government",
                "amenity": "school"
            }
        },
        {
            "id": 75167,
            "type": "Feature",
            "geometry": {
                "type": "Point",
                "coordinates": [
                    20.9518172,
                    52.4096228
                ]
            },
            "properties": {
                "ref:rspo": 75167,
                "official_name": "Przedszkole Miejskie Nr3 im. Kosza\u0142ka Opa\u0142ka w Legionowie",
                "name": "Przedszkole Miejskie Nr3",
                "addr:postcode": "05-119",
                "addr:city": "Legionowo",
                "addr:street": "Zegrzy\u0144ska",
                "addr:housenumber": "71",
                "addr:city:simc": 920806,
                "addr:street:sym_ul": 25984,
                "phone": "+48 227729666",
                "email": "przedszkolem3@o2.pl",
                "website": "http:\/\/www.pm3.legionowo.pl",
                "ref:regon": "017434018",
                "ref:vatin": "PL5361695405",
                "operator": "Gmina Miejska Legionowo",
                "operator:type": "government",
                "amenity": "kindergarten"
            }
        },
        {
            "id": 24253,
            "type": "Feature",
            "geometry": {
                "type": "Point",
                "coordinates": [
                    20.91786,
                    52.41169
                ]
            },
            "properties": {
                "ref:rspo": 24253,
                "official_name": "Powiatowy Zesp\u00f3\u0142 Szk\u00f3\u0142 Ponadpodstawowych im. Jerzego Siwi\u0144skiego w Legionowie",
                "name": "Powiatowy Zesp\u00f3\u0142 Szk\u00f3\u0142 Ponadpodstawowych",
                "addr:postcode": "05-120",
                "addr:city": "Legionowo",
                "addr:street": "Targowa",
                "addr:housenumber": "73a",
                "addr:city:simc": 920806,
                "addr:street:sym_ul": 22659,
                "phone": "+48 227742872",
                "email": "sekretariat@pzsplegionowo.pl",
                "website": "http:\/\/www.pzsplegionowo.pl",
                "ref:regon": "000190041",
                "ref:vatin": "PL5361645531",
                "operator": "Powiat Legionowski",
                "operator:type": "government",
                "landuse": "education",
                "fixme": "amenity=school, amenity=college albo landuse=education w zale\u017cno\u015bci od tego, jakie plac\u00f3wki wchodz\u0105 w sk\u0142ad zespo\u0142u. Sprawd\u017a, kiedy stosowa\u0107 amenity=* a kiedy landuse=education.",
                "note": "Children RSPO: 34573;34617;34636"
            }
        },
        {
            "id": 34573,
            "type": "Feature",
            "geometry": {
                "type": "Point",
                "coordinates": [
                    20.91786,
                    52.41166
                ]
            },
            "properties": {
                "isced:level": "3",
                "ref:rspo": 34573,
                "official_name": "Technikum",
                "name": "Technikum",
                "addr:postcode": "05-120",
                "addr:city": "Legionowo",
                "addr:street": "Targowa",
                "addr:housenumber": "73A",
                "addr:city:simc": 920806,
                "addr:street:sym_ul": 22659,
                "phone": "+48 227742872",
                "email": "sekretariat@pzsplegionowo.pl",
                "website": "http:\/\/www.pzsplegionowo.pl",
                "ref:regon": "015541017",
                "operator": "Powiat Legionowski",
                "operator:type": "government",
                "amenity": "school",
                "note": "Parent RSPO: 24253"
            }
        },
        {
            "id": 34617,
            "type": "Feature",
            "geometry": {
                "type": "Point",
                "coordinates": [
                    20.91786,
                    52.41163
                ]
            },
            "properties": {
                "isced:level": "4",
                "ref:rspo": 34617,
                "official_name": "Szko\u0142a Policealna",
                "name": "Szko\u0142a Policealna",
                "addr:postcode": "05-120",
                "addr:city": "Legionowo",
                "addr:street": "Targowa",
                "addr:housenumber": "73A",
                "addr:city:simc": 920806,
                "addr:street:sym_ul": 22659,
                "phone": "+48 227742872",
                "email": "sekretariat@pzsplegionowo.pl",
                "website": "http:\/\/www.pzsplegionowo.pl",
                "ref:regon": "140137153",
                "operator": "Powiat Legionowski",
                "operator:type": "government",
                "amenity": "college",
                "note": "Parent RSPO: 24253"
            }
        },
        {
            "id": 34636,
            "type": "Feature",
            "geometry": {
                "type": "Point",
                "coordinates": [
                    20.91786,
                    52.4116
                ]
            },
            "properties": {
                "isced:level": "3",
                "ref:rspo": 34636,
                "official_name": "Bran\u017cowa Szko\u0142a I Stopnia",
                "name": "Bran\u017cowa Szko\u0142a I Stopnia",
                "addr:postcode": "05-120",
                "addr:city": "Legionowo",
                "addr:street": "Targowa",
                "addr:housenumber": "73A",
                "addr:city:simc": 920806,
                "addr:street:sym_ul": 22659,
                "phone": "+48 227742872",
                "email": "sekretariat@pzsplegionowo.pl",
                "website": "http:\/\/www.pzsplegionowo.pl",
                "ref:regon": "015507032",
                "operator": "Powiat Legionowski",
                "operator:type": "government",
                "amenity": "school",
                "note": "Parent RSPO: 24253"
            }
        },
        {
            "id": 90551,
            "type": "Feature",
            "geometry": {
                "type": "Point",
                "coordinates": [
                    20.9314,
                    52.41277
                ]
            },
            "properties": {
                "isced:level": "1;2",
                "ref:rspo": 90551,
                "official_name": "Spo\u0142eczna Szko\u0142a Podstawowa Z Oddzia\u0142ami Dwuj\u0119zycznymi Nr 35 im. Noblist\u00f3w Polskich Spo\u0142ecznego Towarzystawa O\u015bwiatowego w Legionowie",
                "name": "Spo\u0142eczna Szko\u0142a Podstawowa Z Oddzia\u0142ami Dwuj\u0119zycznymi Nr 35",
                "addr:postcode": "05-120",
                "addr:city": "Legionowo",
                "addr:street": "Targowa",
                "addr:housenumber": "22",
                "addr:city:simc": 920806,
                "addr:street:sym_ul": 22659,
                "phone": "+48 227743416",
                "email": "sekretariat@sto35.edu.pl",
                "website": "http:\/\/www.sto35.edu.pl",
                "ref:regon": "146407145",
                "ref:vatin": "PL5361222227",
                "operator": "Samodzielne Ko\u0142o Terenowe Nr 132 Spo\u0142ecznego Towarzystwa O\u015bwiatowego",
                "operator:type": "ngo",
                "amenity": "school"
            }
        },
        {
            "id": 86938,
            "type": "Feature",
            "geometry": {
                "type": "Point",
                "coordinates": [
                    20.94293,
                    52.4140299
                ]
            },
            "properties": {
                "ref:rspo": 86938,
                "official_name": "Zesp\u00f3\u0142 Szkolno -Przedszkolny im. Legion\u00f3w Polskich 1914-1918 w Legionowie",
                "name": "Zesp\u00f3\u0142 Szkolno -Przedszkolny",
                "addr:postcode": "05-119",
                "addr:city": "Legionowo",
                "addr:street": "Jana Paw\u0142a I",
                "addr:housenumber": "2",
                "addr:city:simc": 920806,
                "addr:street:sym_ul": 7119,
                "phone": "+48 227742382",
                "email": "sekretariat@zsp.legionowo.pl",
                "website": "http:\/\/www.zsp.legionowo.pl",
                "ref:regon": "015804511",
                "ref:vatin": "PL5361756816",
                "operator": "Gmina Miejska Legionowo",
                "operator:type": "government",
                "landuse": "education",
                "fixme": "amenity=school, amenity=college albo landuse=education w zale\u017cno\u015bci od tego, jakie plac\u00f3wki wchodz\u0105 w sk\u0142ad zespo\u0142u. Sprawd\u017a, kiedy stosowa\u0107 amenity=* a kiedy landuse=education.",
                "note": "Children RSPO: 91247;91265"
            }
        },
        {
            "id": 91247,
            "type": "Feature",
            "geometry": {
                "type": "Point",
                "coordinates": [
                    20.94293,
                    52.4139999
                ]
            },
            "properties": {
                "isced:level": "1;2",
                "ref:rspo": 91247,
                "official_name": "Szko\u0142a Podstawowa Nr 4 im. Legionow\u00f3w Polskich 1914-1918 w Legionowie",
                "name": "Szko\u0142a Podstawowa Nr 4",
                "addr:postcode": "05-119",
                "addr:city": "Legionowo",
                "addr:street": "Jana Paw\u0142a I",
                "addr:housenumber": "2",
                "addr:city:simc": 920806,
                "addr:street:sym_ul": 7119,
                "phone": "+48 227742382",
                "email": "sekretariat@zsp.legionowo.pl",
                "website": "http:\/\/www.zsp.legionowo.pl",
                "ref:regon": "000800611",
                "operator": "Gmina Miejska Legionowo",
                "operator:type": "government",
                "amenity": "school",
                "note": "Parent RSPO: 86938"
            }
        },
        {
            "id": 91265,
            "type": "Feature",
            "geometry": {
                "type": "Point",
                "coordinates": [
                    20.94293,
                    52.413969900000005
                ]
            },
            "properties": {
                "ref:rspo": 91265,
                "official_name": "Przedszkole Miejskie Nr 14 w Legionowie \"Kraina Marze\u0144\"",
                "name": "Przedszkole Miejskie Nr 14 w Legionowie \"Kraina Marze\u0144\"",
                "addr:postcode": "05-119",
                "addr:city": "Legionowo",
                "addr:street": "Jana Paw\u0142a I",
                "addr:housenumber": "2",
                "addr:city:simc": 920806,
                "addr:street:sym_ul": 7119,
                "phone": "+48 227742382",
                "email": "sekretariat@zsp.legionowo.pl",
                "website": "http:\/\/www.zsp.legionowo.pl",
                "ref:regon": "013003988",
                "operator": "Gmina Miejska Legionowo",
                "operator:type": "government",
                "amenity": "kindergarten",
                "note": "Parent RSPO: 86938"
            }
        },
        {
            "id": 86939,
            "type": "Feature",
            "geometry": {
                "type": "Point",
                "coordinates": [
                    20.93699,
                    52.4177
                ]
            },
            "properties": {
                "ref:rspo": 86939,
                "official_name": "Przedszkole Miejskie Nr1",
                "name": "Przedszkole Miejskie Nr1",
                "addr:postcode": "05-119",
                "addr:city": "Legionowo",
                "addr:street": "Olszankowa",
                "addr:housenumber": "E",
                "addr:city:simc": 920806,
                "addr:street:sym_ul": 15002,
                "phone": "+48 227740733",
                "email": "przedszkole-jedynka@o2.pl",
                "website": "http:\/\/www.pm1.legionowo.pl",
                "ref:regon": "010427570",
                "ref:vatin": "PL5361645494",
                "operator": "Gmina Miejska Legionowo",
                "operator:type": "government",
                "amenity": "kindergarten"
            }
        }
    ]
}