{"type":"FeatureCollection","features":[{"id":131703,"type":"Feature","geometry":{"type":"Point","coordinates":[20.94306,52.36682]},"properties":{"ref:rspo":131703,"official_name":"Niepubliczne Przedszkole Artystyczno-Sportowe \"Ku\u017ania Talent\u00f3w\"","name":"Niepubliczne Przedszkole Artystyczno-Sportowe \"Ku\u017ania Talent\u00f3w\"","addr:country":"PL","addr:postcode":"05-110","addr:city":"Jab\u0142onna","addr:street":"ul. Marmurowa","addr:housenumber":"98","addr:teryt:simc":12387,"addr:teryt:sym_ul":3004,"contact:phone":"+48 690680109","contact:email":"przedszkolekuzniatalentow@wp.pl","contact:website":"http:\/\/www.kuzniatalentow.net","ref:regon":"365337142","operator":"Grzegorz Ba\u0142dyga","operator:type":"private","amenity":"kindergarten"}},{"id":276718,"type":"Feature","geometry":{"type":"Point","coordinates":[20.93206,52.37368]},"properties":{"ref:rspo":276718,"official_name":"Przedszkole Niepubliczne \"Zdobywcy \u015awiata\"","name":"Przedszkole Niepubliczne \"Zdobywcy \u015awiata\"","addr:country":"PL","addr:postcode":"05-110","addr:city":"Jab\u0142onna","addr:street":"inne Aleja Kardyna\u0142a Stefana Wyszy\u0144skiego","addr:housenumber":"22","addr:teryt:simc":52691,"addr:teryt:sym_ul":3004,"contact:phone":"+48 530570370","contact:email":"info@zdobywcyswiata.edu.pl","contact:website":"http:\/\/zdobywcyswiata.edu.pl","ref:regon":"387418691","operator":"Aleksandra Pawe\u0142czyk","operator:type":"private","amenity":"kindergarten"}},{"id":275889,"type":"Feature","geometry":{"type":"Point","coordinates":[21.312347,52.379219]},"properties":{"ref:rspo":275889,"official_name":"Niepubliczne Przedszkole Artystyczno-Sportowe Ku\u017ania Talent\u00f3w w Rajszewie","name":"Niepubliczne Przedszkole Artystyczno-Sportowe Ku\u017ania Talent\u00f3w w Rajszewie","addr:country":"PL","addr:postcode":"05-110","addr:city":"Rajszew","addr:street":"ul. Mazowiecka","addr:housenumber":"114","addr:teryt:simc":12540,"addr:teryt:sym_ul":3040,"contact:phone":"+48 690680109","contact:email":"przedszkolekuzniatalentow@wp.pl","contact:website":"http:\/\/www.kuzniatalentow.net","ref:regon":"386949506","operator":"Grzegorz Ba\u0142dyga","operator:type":"private","amenity":"kindergarten"}},{"id":278267,"type":"Feature","geometry":{"type":"Point","coordinates":[20.88954,52.41081]},"properties":{"ref:rspo":278267,"official_name":"Terapeutyczny Punkt Przedszkolny In-Sens","name":"Terapeutyczny Punkt Przedszkolny In-Sens","addr:country":"PL","addr:postcode":"05-123","addr:city":"Chotom\u00f3w","addr:street":"ul. Kwiatowa","addr:housenumber":"1","addr:teryt:simc":10562,"addr:teryt:sym_ul":2973,"contact:phone":"+48 604979962","contact:email":"biuro@in-sens.pl","contact:website":"http:\/\/przedszkole-in-sens.pl","ref:regon":"389855450","operator":"Fundacja In-Sens","operator:type":"ngo","amenity":"kindergarten"}},{"id":61898,"type":"Feature","geometry":{"type":"Point","coordinates":[20.884618,52.415708]},"properties":{"isced:level":"1;2","ref:rspo":61898,"official_name":"Szko\u0142a Podstawowa Nr 1 im. Stefana Krasi\u0144skiego w Chotomowie","name":"Szko\u0142a Podstawowa Nr 1","addr:country":"PL","addr:postcode":"05-123","addr:city":"Chotom\u00f3w","addr:street":"ul. Partyzant\u00f3w","addr:housenumber":"124","addr:teryt:simc":15733,"addr:teryt:sym_ul":2973,"contact:phone":"+48 227726284","contact:email":"sekretariat@spchotomow.edu.pl","contact:website":"http:\/\/www.spchotomow.edu.pl","ref:regon":"001147455","ref:vatin":"PL5361643489","operator":"Gmina Jab\u0142onna","operator:type":"government","amenity":"school"}},{"id":87126,"type":"Feature","geometry":{"type":"Point","coordinates":[20.884618,52.415678]},"properties":{"ref:rspo":87126,"official_name":"Przedszkole Gminne w Chotomowie","name":"Przedszkole Gminne w Chotomowie","addr:country":"PL","addr:postcode":"05-123","addr:city":"Chotom\u00f3w","addr:street":"ul. gen. Lucjana \u017beligowskiego","addr:housenumber":"27","addr:teryt:simc":26446,"addr:teryt:sym_ul":2973,"contact:phone":"+48 227722002","contact:email":"przedszkolechot@wp.pl","contact:website":"http:\/\/www.przedszkolechotomow.pl","ref:regon":"141535476","ref:vatin":"PL5361846927","operator":"Gmina Jab\u0142onna","operator:type":"government","amenity":"kindergarten"}},{"id":114801,"type":"Feature","geometry":{"type":"Point","coordinates":[20.884618,52.415648000000004]},"properties":{"ref:rspo":114801,"official_name":"Przedszkole Niepubliczne Ws Wyspa Smyk\u00f3w","name":"Przedszkole Niepubliczne Ws Wyspa Smyk\u00f3w","addr:country":"PL","addr:postcode":"05-123","addr:city":"Chotom\u00f3w","addr:street":"ul. Pi\u0119kna","addr:housenumber":"26","addr:teryt:simc":16191,"addr:teryt:sym_ul":2973,"contact:phone":"+48 662703789","contact:email":"poczta@przedszkole-ws.info","contact:website":"http:\/\/www.przedszkole-ws.info","ref:regon":"146698220","ref:vatin":"PL5361116525","operator":"Katarzyna Pietrzykowska","operator:type":"private","amenity":"kindergarten"}},{"id":120658,"type":"Feature","geometry":{"type":"Point","coordinates":[20.884618,52.415618]},"properties":{"ref:rspo":120658,"official_name":"Punkt Przedszkolny \"Przy Lesie\"","name":"Punkt Przedszkolny \"Przy Lesie\"","addr:country":"PL","addr:postcode":"05-123","addr:city":"Chotom\u00f3w","addr:street":"ul. Partyzant\u00f3w","addr:housenumber":"118","addr:teryt:simc":15733,"addr:teryt:sym_ul":2973,"contact:phone":"+48 661333171","contact:email":"smaciejewska@przedszkole.info.pl","contact:website":"http:\/\/przedszkole.info.pl","ref:regon":"146934086","operator":"J&J S.c.","operator:type":"consortium","amenity":"kindergarten"}},{"id":262245,"type":"Feature","geometry":{"type":"Point","coordinates":[20.884618,52.415588]},"properties":{"isced:level":"1;2","ref:rspo":262245,"official_name":"Szko\u0142a Podstawowa Nr 2 im.or\u0142a Bia\u0142ego w Chotomowie","name":"Szko\u0142a Podstawowa Nr 2 im.or\u0142a Bia\u0142ego w Chotomowie","addr:country":"PL","addr:postcode":"05-123","addr:city":"Chotom\u00f3w","addr:street":"ul. Partyzant\u00f3w","addr:housenumber":"23","addr:teryt:simc":15733,"addr:teryt:sym_ul":2973,"contact:phone":"+48 227825011","contact:email":"sekretariat@sp2chotomow.pl","contact:website":"https:\/\/sp2chotomow.edupage.org","ref:regon":"367999367","ref:vatin":"PL5361929702","operator":"Gmina Jab\u0142onna","operator:type":"government","amenity":"school"}},{"id":85817,"type":"Feature","geometry":{"type":"Point","coordinates":[20.959905,52.448235]},"properties":{"isced:level":"1;2","ref:rspo":85817,"official_name":"Szko\u0142a Podstawowa im. Armii Krajowej w Jab\u0142onnie","name":"Szko\u0142a Podstawowa","addr:country":"PL","addr:postcode":"05-110","addr:city":"Jab\u0142onna","addr:street":"ul. Szkolna","addr:housenumber":"2","addr:teryt:simc":21970,"addr:teryt:sym_ul":3004,"contact:phone":"+48 227824643","contact:email":"sekretariat@sp-jablonna.pl","contact:website":"http:\/\/www.sp-jablonna.pl\/","ref:regon":"000627354","ref:vatin":"PL5361643466","operator":"Gmina Jab\u0142onna","operator:type":"government","amenity":"school"}},{"id":110488,"type":"Feature","geometry":{"type":"Point","coordinates":[20.959905,52.448204999999994]},"properties":{"ref:rspo":110488,"official_name":"Prywatne Przedszkole Europejskie Tutorland","name":"Prywatne Przedszkole Europejskie Tutorland","addr:country":"PL","addr:postcode":"05-110","addr:city":"Jab\u0142onna","addr:street":"ul. Piaskowa","addr:housenumber":"5","addr:teryt:simc":16033,"addr:teryt:sym_ul":3004,"contact:phone":"+48 507526951","contact:email":"tutorland@op.pl","contact:website":"http:\/\/tutorland-przedszkole.pl","ref:regon":"146558861","ref:vatin":"PL5361078279","operator":"Danuta Grzywacz","operator:type":"private","amenity":"kindergarten"}},{"id":110489,"type":"Feature","geometry":{"type":"Point","coordinates":[20.959905,52.448175]},"properties":{"isced:level":"1;2","ref:rspo":110489,"official_name":"Niepubliczna Szko\u0142a Podstawowa \"Sapere Aude\"","name":"Niepubliczna Szko\u0142a Podstawowa \"Sapere Aude\"","addr:country":"PL","addr:postcode":"05-110","addr:city":"Rajszew","addr:street":"ul. Modli\u0144ska","addr:housenumber":"75","addr:teryt:simc":13171,"addr:teryt:sym_ul":3040,"contact:phone":"+48 661333179","contact:email":"amieszkian@szkola-sa.pl","contact:website":"http:\/\/szkola-sa.pl","ref:regon":"146558890","ref:vatin":"PL5361733755","operator":"J&J S.c.","operator:type":"consortium","amenity":"school"}},{"id":111095,"type":"Feature","geometry":{"type":"Point","coordinates":[20.959905,52.448145]},"properties":{"ref:rspo":111095,"official_name":"Punkt Przedszkolny \"Zielone Jab\u0142uszko\"","name":"Punkt Przedszkolny \"Zielone Jab\u0142uszko\"","addr:country":"PL","addr:postcode":"05-110","addr:city":"Jab\u0142onna","addr:street":"ul. Koszteli","addr:housenumber":"1","addr:door":"37-38","addr:teryt:simc":35256,"addr:teryt:sym_ul":3004,"contact:phone":"+48 504681216","contact:email":"kon84@icloud.com","ref:regon":"146569296","ref:vatin":"PL9660885392","operator":"Marzena Konsek","operator:type":"private","amenity":"kindergarten"}},{"id":113954,"type":"Feature","geometry":{"type":"Point","coordinates":[20.959905,52.448114999999994]},"properties":{"ref:rspo":113954,"official_name":"Niepubliczne Przedszkole \"Bajkowy Dom\"","name":"Niepubliczne Przedszkole \"Bajkowy Dom\"","addr:country":"PL","addr:postcode":"05-110","addr:city":"Jab\u0142onna","addr:street":"ul. Modli\u0144ska","addr:housenumber":"112","addr:teryt:simc":13171,"addr:teryt:sym_ul":3004,"contact:phone":"+48 227824236","contact:email":"sekretariatbajkowydom@op.pl","contact:website":"https:\/\/przedszkolebajkowydom.pl\/","ref:regon":"146646252","ref:vatin":"PL5242129792","operator":"Ewa Kobus","operator:type":"private","amenity":"kindergarten"}},{"id":114806,"type":"Feature","geometry":{"type":"Point","coordinates":[20.959905,52.448085]},"properties":{"ref:rspo":114806,"official_name":"Przedszkola Pomara\u0144czowa Ciuchcia Sp.z O.o. Sp. Komandytowa","name":"Przedszkola Pomara\u0144czowa Ciuchcia Sp.z O.o. Sp. Komandytowa","addr:country":"PL","addr:postcode":"05-110","addr:city":"Jab\u0142onna","addr:street":"ul. Przylesie","addr:housenumber":"14","addr:teryt:simc":17952,"addr:teryt:sym_ul":3004,"contact:phone":"+48 535130035","contact:email":"jablonna@pomaranczowa-ciuchcia.pl","ref:regon":"146701258","ref:vatin":"PL5222455844","operator":"Przedszkola Pomara\u0144czowa Ciuchcia Sp\u00f3\u0142ka Z Ograniczon\u0105 Odpowiedzialno\u015bci\u0105 Sp\u00f3\u0142ka Komandytowa","operator:type":"private","amenity":"kindergarten"}},{"id":120659,"type":"Feature","geometry":{"type":"Point","coordinates":[20.959905,52.448055]},"properties":{"ref:rspo":120659,"official_name":"Niepubliczne Przedszkole \"Przy Lesie\"","name":"Niepubliczne Przedszkole \"Przy Lesie\"","addr:country":"PL","addr:postcode":"05-110","addr:city":"Jab\u0142onna","addr:street":"ul. Przylesie","addr:housenumber":"60","addr:teryt:simc":17952,"addr:teryt:sym_ul":3004,"contact:phone":"+48 661333171","contact:email":"kbalcerzak@przedszkole.info.pl","contact:website":"http:\/\/www.przedszkole.info.pl","ref:regon":"146934130","operator":"J&J S.c.","operator:type":"consortium","amenity":"kindergarten"}},{"id":120660,"type":"Feature","geometry":{"type":"Point","coordinates":[20.959905,52.448024999999994]},"properties":{"ref:rspo":120660,"official_name":"Niepubliczne Przedszkole \"Przy Lesie\"","name":"Niepubliczne Przedszkole \"Przy Lesie\"","addr:country":"PL","addr:postcode":"05-110","addr:city":"Rajszew","addr:street":"ul. Modli\u0144ska","addr:housenumber":"75","addr:teryt:simc":13171,"addr:teryt:sym_ul":3040,"contact:phone":"+48 661333174","contact:email":"pzalewska@przedszkole.info.pl","contact:website":"http:\/\/www.przedszkole.info.pl","ref:regon":"146934169","operator":"J&J S.c.","operator:type":"consortium","amenity":"kindergarten"}},{"id":120661,"type":"Feature","geometry":{"type":"Point","coordinates":[20.959905,52.447995]},"properties":{"ref:rspo":120661,"official_name":"Przedszkole Niepubliczne Sportowo-J\u0119zykowe \"Sportu\u015b\"","name":"Przedszkole Niepubliczne Sportowo-J\u0119zykowe \"Sportu\u015b\"","addr:country":"PL","addr:postcode":"05-101","addr:city":"Skierdy","addr:street":"ul. Pawia","addr:housenumber":"91\/93","addr:teryt:simc":15832,"addr:teryt:sym_ul":3079,"contact:phone":"+48 534144144","contact:email":"biuro@przedszkolesportowe.com","contact:website":"http:\/\/przedszkolesportowe.com","ref:regon":"146934206","operator":"Fit4Fun Sp\u00f3\u0142ka Z Ograniczon\u0105 Odpowiedzialno\u015bci\u0105","operator:type":"consortium","amenity":"kindergarten"}},{"id":123179,"type":"Feature","geometry":{"type":"Point","coordinates":[20.959905,52.447964999999996]},"properties":{"ref:rspo":123179,"official_name":"Studium Ochrony Os\u00f3b, Mienia I Us\u0142ug Detektywistycznych \"Crimen II\"","name":"Studium Ochrony Os\u00f3b, Mienia I Us\u0142ug Detektywistycznych \"Crimen II\"","addr:country":"PL","addr:postcode":"05-110","addr:city":"Jab\u0142onna","addr:street":"ul. Szkolna","addr:housenumber":"2","addr:teryt:simc":21970,"addr:teryt:sym_ul":3004,"contact:email":"biuro@crimen.pl","ref:regon":"147269544","operator":"Eugeniusz Zdu\u0144ski","operator:type":"private","fixme":"w zale\u017cno\u015bci od przedmiotu dzia\u0142alno\u015bci (np. amenity=training + training=*, amenity=dancing_school, amenity=language_school, amenity=music_school)"}},{"id":123644,"type":"Feature","geometry":{"type":"Point","coordinates":[20.959905,52.447934999999994]},"properties":{"ref:rspo":123644,"official_name":"Przedszkole Gminne w Jab\u0142onnie","name":"Przedszkole Gminne w Jab\u0142onnie","addr:country":"PL","addr:postcode":"05-110","addr:city":"Jab\u0142onna","addr:street":"ul. Modli\u0144ska","addr:housenumber":"103B","addr:teryt:simc":13171,"addr:teryt:sym_ul":3004,"contact:phone":"+48 227320209","contact:email":"pgjablonna@wp.pl","contact:website":"http:\/\/www.przedszkolejablonna.pl","ref:regon":"147336157","ref:vatin":"PL5361916757","operator":"Gmina Jab\u0142onna","operator:type":"government","amenity":"kindergarten"}},{"id":131559,"type":"Feature","geometry":{"type":"Point","coordinates":[20.959905,52.447905]},"properties":{"ref:rspo":131559,"official_name":"Zesp\u00f3\u0142 Szkolno-Przedszkolny Akademia Dobrej Edukacji","name":"Zesp\u00f3\u0142 Szkolno-Przedszkolny Akademia Dobrej Edukacji","addr:country":"PL","addr:postcode":"05-110","addr:city":"Jab\u0142onna","addr:street":"ul. Chotomowska","addr:housenumber":"81","addr:teryt:simc":2868,"addr:teryt:sym_ul":3004,"contact:phone":"+48 885100242","contact:email":"ade.jablonna@dobraedukacja.edu.pl","contact:website":"https:\/\/jablonna.dobraedukacja.edu.pl\/","ref:regon":"365234407","operator":"Stowarzyszenie \"Dobra Edukacja\"","operator:type":"ngo","landuse":"education","fixme":"amenity=school, amenity=college albo landuse=education w zale\u017cno\u015bci od tego, jakie plac\u00f3wki wchodz\u0105 w sk\u0142ad zespo\u0142u. Sprawd\u017a, kiedy stosowa\u0107 amenity=* a kiedy landuse=education.","note":"Children RSPO: 131696;131697"}},{"id":268116,"type":"Feature","geometry":{"type":"Point","coordinates":[20.959905,52.447874999999996]},"properties":{"isced:level":"3","ref:rspo":268116,"official_name":"Niepubliczne Liceum Og\u00f3lnokszta\u0142c\u0105ce Sapere Aude","name":"Niepubliczne Liceum Og\u00f3lnokszta\u0142c\u0105ce Sapere Aude","addr:country":"PL","addr:postcode":"05-110","addr:city":"Rajszew","addr:street":"ul. Modli\u0144ska","addr:housenumber":"75","addr:teryt:simc":13171,"addr:teryt:sym_ul":3040,"contact:email":"amieszkian@gimnazjum-sa.pl","ref:regon":"380948919","operator":"S\u0142awomir Karnowski","operator:type":"private","amenity":"school"}},{"id":131696,"type":"Feature","geometry":{"type":"Point","coordinates":[20.959905,52.447844999999994]},"properties":{"isced:level":"1;2","ref:rspo":131696,"official_name":"Szko\u0142a Podstawowa Akademia Dobrej Edukacji w Jab\u0142onnie","name":"Szko\u0142a Podstawowa Akademia Dobrej Edukacji w Jab\u0142onnie","addr:country":"PL","addr:postcode":"05-110","addr:city":"Jab\u0142onna","addr:street":"ul. Chotomowska","addr:housenumber":"81","addr:teryt:simc":2868,"addr:teryt:sym_ul":3004,"contact:phone":"+48 885100242","contact:email":"ade.jablonna@dobraedukacja.edu.pl","contact:website":"https:\/\/jablonna.dobraedukacja.edu.pl\/","ref:regon":"365336830","operator":"Stowarzyszenie \"Dobra Edukacja\"","operator:type":"ngo","amenity":"school","note":"Parent RSPO: 131559"}},{"id":131697,"type":"Feature","geometry":{"type":"Point","coordinates":[20.959905,52.447815]},"properties":{"ref:rspo":131697,"official_name":"Przedszkole Akademia Dobrej Edukacji w Jab\u0142onnie","name":"Przedszkole Akademia Dobrej Edukacji w Jab\u0142onnie","addr:country":"PL","addr:postcode":"05-110","addr:city":"Jab\u0142onna","addr:street":"ul. Chotomowska","addr:housenumber":"81","addr:teryt:simc":2868,"addr:teryt:sym_ul":3004,"contact:phone":"+48 885100242","contact:email":"ade.jablonna@dobraedukacja.edu.pl","contact:website":"https:\/\/jablonna.dobraedukacja.edu.pl\/","ref:regon":"365336929","operator":"Stowarzyszenie \"Dobra Edukacja\"","operator:type":"ngo","amenity":"kindergarten","note":"Parent RSPO: 131559"}}]}