{
    "type": "FeatureCollection",
    "features": [
        {
            "id": 8528,
            "type": "Feature",
            "geometry": {
                "type": "Point",
                "coordinates": [
                    20.95235,
                    52.42471
                ]
            },
            "properties": {
                "ref:rspo": 8528,
                "official_name": "Przedszkole Samorz\u0105dowe Nr 3",
                "name": "Przedszkole Samorz\u0105dowe Nr 3",
                "addr:country": "PL",
                "addr:postcode": "05-119",
                "addr:city": "\u0141ajski",
                "addr:street": "ul. Ko\u015bcielna",
                "addr:housenumber": "63",
                "addr:teryt:simc": 9546,
                "addr:teryt:sym_ul": 8533,
                "contact:phone": "+48 227822276",
                "contact:email": "sekretariat@przedszkolelajski.edu.pl",
                "contact:website": "http:\/\/przedszkolelajski.edu.pl\/",
                "ref:regon": "013006840",
                "ref:vatin": "PL5361664474",
                "operator": "Gmina Wieliszew",
                "operator:type": "government",
                "amenity": "kindergarten"
            }
        },
        {
            "id": 52946,
            "type": "Feature",
            "geometry": {
                "type": "Point",
                "coordinates": [
                    20.95235,
                    52.424679999999995
                ]
            },
            "properties": {
                "isced:level": "1;2",
                "ref:rspo": 52946,
                "official_name": "Szko\u0142a Podstawowa im. Stanis\u0142awa Moniuszki",
                "name": "Szko\u0142a Podstawowa",
                "addr:country": "PL",
                "addr:postcode": "05-119",
                "addr:city": "\u0141ajski",
                "addr:street": "ul. Ko\u015bcielna",
                "addr:housenumber": "63",
                "addr:teryt:simc": 9546,
                "addr:teryt:sym_ul": 8533,
                "contact:phone": "+48 227822283",
                "contact:email": "splajski@wp.pl",
                "ref:regon": "010445680",
                "ref:vatin": "PL5361910559",
                "operator": "Gmina Wieliszew",
                "operator:type": "government",
                "amenity": "school"
            }
        },
        {
            "id": 8524,
            "type": "Feature",
            "geometry": {
                "type": "Point",
                "coordinates": [
                    20.7777,
                    52.43297
                ]
            },
            "properties": {
                "isced:level": "1;2",
                "ref:rspo": 8524,
                "official_name": "Szko\u0142a Podstawowa im. J\u00f3zefa Wybickiego w Jan\u00f3wku",
                "name": "Szko\u0142a Podstawowa",
                "addr:country": "PL",
                "addr:postcode": "05-124",
                "addr:city": "Jan\u00f3wek Pierwszy",
                "addr:street": "ul. Dworcowa",
                "addr:housenumber": "5",
                "addr:teryt:simc": 4434,
                "addr:teryt:sym_ul": 8496,
                "contact:phone": "+48 227755223",
                "contact:email": "szkolajanowek@wp.pl",
                "contact:website": "http:\/\/spjanowek.szkolnastrona.pl",
                "ref:regon": "001146579",
                "ref:vatin": "PL5361664422",
                "operator": "Gmina Wieliszew",
                "operator:type": "government",
                "amenity": "school"
            }
        },
        {
            "id": 8525,
            "type": "Feature",
            "geometry": {
                "type": "Point",
                "coordinates": [
                    20.7777,
                    52.432939999999995
                ]
            },
            "properties": {
                "ref:rspo": 8525,
                "official_name": "Przedszkole Samorz\u0105dowe Nr 6 w Jan\u00f3wku",
                "name": "Przedszkole Samorz\u0105dowe Nr 6 w Jan\u00f3wku",
                "addr:country": "PL",
                "addr:postcode": "05-124",
                "addr:city": "Jan\u00f3wek Pierwszy",
                "addr:street": "ul. Dworcowa",
                "addr:housenumber": "1",
                "addr:teryt:simc": 4434,
                "addr:teryt:sym_ul": 8496,
                "contact:phone": "+48 227755228",
                "contact:email": "psj@wieliszew.pl",
                "ref:regon": "013006870",
                "ref:vatin": "PL5361664480",
                "operator": "Gmina Wieliszew",
                "operator:type": "government",
                "amenity": "kindergarten"
            }
        },
        {
            "id": 278606,
            "type": "Feature",
            "geometry": {
                "type": "Point",
                "coordinates": [
                    20.94122,
                    52.43369
                ]
            },
            "properties": {
                "ref:rspo": 278606,
                "official_name": "Niepubliczne Przedszkole \"Zatoka Przyg\u00f3d\"",
                "name": "Niepubliczne Przedszkole \"Zatoka Przyg\u00f3d\"",
                "addr:country": "PL",
                "addr:postcode": "05-119",
                "addr:city": "\u0141ajski",
                "addr:street": "ul. Nowodworska",
                "addr:housenumber": "122a",
                "addr:teryt:simc": 14418,
                "addr:teryt:sym_ul": 8533,
                "contact:email": "biuro@zatoka-przygod.pl",
                "contact:website": "http:\/\/zatoka-przygod.pl",
                "ref:regon": "389993637",
                "operator": "Patrycja Kardas",
                "operator:type": "private",
                "amenity": "kindergarten"
            }
        },
        {
            "id": 8523,
            "type": "Feature",
            "geometry": {
                "type": "Point",
                "coordinates": [
                    20.86415,
                    52.44026
                ]
            },
            "properties": {
                "isced:level": "1;2",
                "ref:rspo": 8523,
                "official_name": "Szko\u0142a Podstawowa im. Bronis\u0142awa Soko\u0142a",
                "name": "Szko\u0142a Podstawowa",
                "addr:country": "PL",
                "addr:postcode": "05-123",
                "addr:city": "Olszewnica Stara",
                "addr:street": "ul. Warszawska",
                "addr:housenumber": "40",
                "addr:teryt:simc": 23682,
                "addr:teryt:sym_ul": 8616,
                "contact:phone": "+48 227823024",
                "contact:email": "spolszewnica@onet.pl",
                "contact:website": "http:\/\/rob.olszewnicaszkola.pl",
                "ref:regon": "010445711",
                "ref:vatin": "PL5361664439",
                "operator": "Gmina Wieliszew",
                "operator:type": "government",
                "amenity": "school"
            }
        },
        {
            "id": 8526,
            "type": "Feature",
            "geometry": {
                "type": "Point",
                "coordinates": [
                    20.86304,
                    52.44179
                ]
            },
            "properties": {
                "ref:rspo": 8526,
                "official_name": "Przedszkole Samorz\u0105dowe Nr 1",
                "name": "Przedszkole Samorz\u0105dowe Nr 1",
                "addr:country": "PL",
                "addr:postcode": "05-135",
                "addr:city": "Wieliszew",
                "addr:street": "ul. Krzysztofa Kamila Baczy\u0144skiego",
                "addr:housenumber": "1",
                "addr:teryt:simc": 569,
                "addr:teryt:sym_ul": 8639,
                "contact:phone": "+48 227822436",
                "contact:email": "sekretariat@ps1.wieliszew.pl",
                "ref:regon": "011829419",
                "ref:vatin": "PL5361664451",
                "operator": "Gmina Wieliszew",
                "operator:type": "government",
                "amenity": "kindergarten"
            }
        },
        {
            "id": 131897,
            "type": "Feature",
            "geometry": {
                "type": "Point",
                "coordinates": [
                    20.81371,
                    52.44454
                ]
            },
            "properties": {
                "ref:rspo": 131897,
                "official_name": "Kraina Malucha Monika Kilja\u0144ska Jaros\u0142aw Kilja\u0144ski S.c.",
                "name": "Kraina Malucha Monika Kilja\u0144ska Jaros\u0142aw Kilja\u0144ski S.c.",
                "addr:country": "PL",
                "addr:postcode": "05-124",
                "addr:city": "Krubin",
                "addr:street": "ul. Wincentego Witosa",
                "addr:housenumber": "1",
                "addr:teryt:simc": 24459,
                "addr:teryt:sym_ul": 8527,
                "contact:phone": "+48 501361494",
                "contact:email": "kontakt@krainamalucha.com",
                "contact:website": "http:\/\/krainamalucha.com",
                "ref:regon": "365374999",
                "operator": "Kraina Malucha Monika Kilja\u0144ska , Jaros\u0142aw Kilja\u0144ski Sp\u00f3\u0142ka Cywilna",
                "operator:type": "consortium",
                "amenity": "kindergarten"
            }
        },
        {
            "id": 268816,
            "type": "Feature",
            "geometry": {
                "type": "Point",
                "coordinates": [
                    20.97423,
                    52.44746
                ]
            },
            "properties": {
                "ref:rspo": 268816,
                "official_name": "Niepubliczne Przedszkole \"\u015awiat Malucha\"",
                "name": "Niepubliczne Przedszkole \"\u015awiat Malucha\"",
                "addr:country": "PL",
                "addr:postcode": "05-135",
                "addr:city": "Wieliszew",
                "addr:street": "ul. Al. Solidarno\u015bci",
                "addr:housenumber": "7a",
                "addr:teryt:simc": 51080,
                "addr:teryt:sym_ul": 8639,
                "contact:email": "info@swiatmalucha.edu.pl",
                "contact:website": "http:\/\/www.swiatmalucha.edu.pl",
                "ref:regon": "381254231",
                "operator": "\u015awiat Malucha Rados\u0142aw Jankowski, Monika Jankowska Sp\u00f3\u0142ka Cywilna",
                "operator:type": "private",
                "amenity": "kindergarten"
            }
        },
        {
            "id": 262659,
            "type": "Feature",
            "geometry": {
                "type": "Point",
                "coordinates": [
                    20.9689,
                    52.44755
                ]
            },
            "properties": {
                "isced:level": "1;2",
                "ref:rspo": 262659,
                "official_name": "Szko\u0142a Podstawowa Nr 2 im. Jana Paw\u0142a Ii",
                "name": "Szko\u0142a Podstawowa Nr 2",
                "addr:country": "PL",
                "addr:postcode": "05-135",
                "addr:city": "Wieliszew",
                "addr:street": "ul. Ko\u015bcielna",
                "addr:housenumber": "27",
                "addr:teryt:simc": 9546,
                "addr:teryt:sym_ul": 8639,
                "contact:phone": "+48 227653388",
                "contact:email": "sp2@wieliszew.pl",
                "contact:website": "http:\/\/sp2wieliszew.szkolnastrona.pl\/",
                "ref:regon": "368047491",
                "ref:vatin": "PL5361929872",
                "operator": "Gmina Wieliszew",
                "operator:type": "government",
                "amenity": "school"
            }
        },
        {
            "id": 8521,
            "type": "Feature",
            "geometry": {
                "type": "Point",
                "coordinates": [
                    20.96824,
                    52.45137
                ]
            },
            "properties": {
                "isced:level": "1;2",
                "ref:rspo": 8521,
                "official_name": "Szko\u0142a Podstawowa Nr 1 im. Tadeusza Ko\u015bciuszki",
                "name": "Szko\u0142a Podstawowa Nr 1",
                "addr:country": "PL",
                "addr:postcode": "05-135",
                "addr:city": "Wieliszew",
                "addr:street": "ul. Modli\u0144ska",
                "addr:housenumber": "60",
                "addr:teryt:simc": 13171,
                "addr:teryt:sym_ul": 8639,
                "contact:phone": "+48 227822184",
                "contact:email": "sp1@wieliszew.pl",
                "contact:website": "http:\/\/wieliszewsp.szkolnastrona.pl",
                "ref:regon": "001146941",
                "ref:vatin": "PL5361664391",
                "operator": "Gmina Wieliszew",
                "operator:type": "government",
                "amenity": "school"
            }
        },
        {
            "id": 274840,
            "type": "Feature",
            "geometry": {
                "type": "Point",
                "coordinates": [
                    20.88965,
                    52.45353
                ]
            },
            "properties": {
                "ref:rspo": 274840,
                "official_name": "Przedszkole Samorz\u0105dowe w Skrzeszewie",
                "name": "Przedszkole Samorz\u0105dowe w Skrzeszewie",
                "addr:country": "PL",
                "addr:postcode": "05-124",
                "addr:city": "Skrzeszew",
                "addr:street": "ul. Szkolna",
                "addr:housenumber": "10A",
                "addr:teryt:simc": 21970,
                "addr:teryt:sym_ul": 8591,
                "contact:email": "pss@wieliszew.pl",
                "contact:website": "http:\/\/psskrzeszew.wieliszew.pl",
                "ref:regon": "386327940",
                "ref:vatin": "PL5361948651",
                "operator": "Gmina Wieliszew",
                "operator:type": "government",
                "amenity": "kindergarten"
            }
        },
        {
            "id": 8529,
            "type": "Feature",
            "geometry": {
                "type": "Point",
                "coordinates": [
                    20.8895358,
                    52.4537178
                ]
            },
            "properties": {
                "isced:level": "1;2",
                "ref:rspo": 8529,
                "official_name": "Szko\u0142a Podstawowa im. Kornela Makuszy\u0144skiego",
                "name": "Szko\u0142a Podstawowa",
                "addr:country": "PL",
                "addr:postcode": "05-124",
                "addr:city": "Skrzeszew",
                "addr:street": "ul. Szkolna",
                "addr:housenumber": "10",
                "addr:teryt:simc": 21970,
                "addr:teryt:sym_ul": 8591,
                "contact:phone": "+48 227823095",
                "contact:email": "sp_sekretariat@op.pl",
                "contact:website": "http:\/\/spskrzeszew.edupage.org\/",
                "ref:regon": "000637950",
                "ref:vatin": "PL5361664416",
                "operator": "Gmina Wieliszew",
                "operator:type": "government",
                "amenity": "school"
            }
        },
        {
            "id": 8530,
            "type": "Feature",
            "geometry": {
                "type": "Point",
                "coordinates": [
                    20.91562,
                    52.4658
                ]
            },
            "properties": {
                "ref:rspo": 8530,
                "official_name": "Zesp\u00f3\u0142 Szk\u00f3\u0142 w Wieliszewie",
                "name": "Zesp\u00f3\u0142 Szk\u00f3\u0142 w Wieliszewie",
                "addr:country": "PL",
                "addr:postcode": "05-140",
                "addr:city": "Komornica",
                "addr:street": "ul. Nasielska",
                "addr:housenumber": "7",
                "addr:teryt:simc": 14027,
                "addr:teryt:sym_ul": 8510,
                "contact:phone": "+48 227742021",
                "contact:email": "zs.debe@wp.pl",
                "contact:website": "http:\/\/zspkomornica.szkolnastrona.pl",
                "ref:regon": "000189569",
                "ref:vatin": "PL5361558418",
                "operator": "Gmina Wieliszew",
                "operator:type": "government",
                "landuse": "education",
                "fixme": "amenity=school, amenity=college albo landuse=education w zale\u017cno\u015bci od tego, jakie plac\u00f3wki wchodz\u0105 w sk\u0142ad zespo\u0142u. Sprawd\u017a, kiedy stosowa\u0107 amenity=* a kiedy landuse=education.",
                "note": "Children RSPO: 34220;34225;52948"
            }
        },
        {
            "id": 34220,
            "type": "Feature",
            "geometry": {
                "type": "Point",
                "coordinates": [
                    20.91562,
                    52.46577
                ]
            },
            "properties": {
                "isced:level": "3",
                "ref:rspo": 34220,
                "official_name": "Liceum Og\u00f3lnokszta\u0142c\u0105ce w Komornicy",
                "name": "Liceum Og\u00f3lnokszta\u0142c\u0105ce w Komornicy",
                "addr:country": "PL",
                "addr:postcode": "05-140",
                "addr:city": "Komornica",
                "addr:street": "ul. Nasielska",
                "addr:housenumber": "7",
                "addr:teryt:simc": 14027,
                "addr:teryt:sym_ul": 8510,
                "contact:phone": "+48 227742021",
                "contact:email": "zs.debe@wp.pl",
                "contact:website": "http:\/\/zspkomornica.szkolnastrona.pl",
                "ref:regon": "015822147",
                "ref:vatin": "PL5361558418",
                "operator": "Gmina Wieliszew",
                "operator:type": "government",
                "amenity": "school",
                "note": "Parent RSPO: 8530"
            }
        },
        {
            "id": 34225,
            "type": "Feature",
            "geometry": {
                "type": "Point",
                "coordinates": [
                    20.91562,
                    52.465740000000004
                ]
            },
            "properties": {
                "isced:level": "3",
                "ref:rspo": 34225,
                "official_name": "Technikum w Komornicy",
                "name": "Technikum w Komornicy",
                "addr:country": "PL",
                "addr:postcode": "05-140",
                "addr:city": "Komornica",
                "addr:street": "ul. Nasielska",
                "addr:housenumber": "7",
                "addr:teryt:simc": 14027,
                "addr:teryt:sym_ul": 8510,
                "contact:phone": "+48 227742021",
                "contact:email": "zs.debe@wp.pl",
                "contact:website": "http:\/\/zspkomornica.szkolnastrona.pl",
                "ref:regon": "015822182",
                "ref:vatin": "PL5361558418",
                "operator": "Gmina Wieliszew",
                "operator:type": "government",
                "amenity": "school",
                "note": "Parent RSPO: 8530"
            }
        },
        {
            "id": 52948,
            "type": "Feature",
            "geometry": {
                "type": "Point",
                "coordinates": [
                    20.91562,
                    52.46571
                ]
            },
            "properties": {
                "isced:level": "3",
                "ref:rspo": 52948,
                "official_name": "Bran\u017cowa Szko\u0142a I Stopnia w Komornicy",
                "name": "Bran\u017cowa Szko\u0142a I Stopnia w Komornicy",
                "addr:country": "PL",
                "addr:postcode": "05-140",
                "addr:city": "Komornica",
                "addr:street": "ul. Nasielska",
                "addr:housenumber": "7",
                "addr:teryt:simc": 14027,
                "addr:teryt:sym_ul": 8510,
                "contact:phone": "+48 227742021",
                "contact:email": "zs.debe@wp.pl",
                "contact:website": "http:\/\/zspkomornica.szkolnastrona.pl",
                "ref:regon": "015822199",
                "ref:vatin": "PL5361558418",
                "operator": "Gmina Wieliszew",
                "operator:type": "government",
                "amenity": "school",
                "note": "Parent RSPO: 8530"
            }
        },
        {
            "id": 8527,
            "type": "Feature",
            "geometry": {
                "type": "Point",
                "coordinates": [
                    20.94756,
                    52.4707099
                ]
            },
            "properties": {
                "ref:rspo": 8527,
                "official_name": "Przedszkole Samorz\u0105dowe Nr 2",
                "name": "Przedszkole Samorz\u0105dowe Nr 2",
                "addr:country": "PL",
                "addr:postcode": "05-135",
                "addr:city": "Wieliszew",
                "addr:street": "ul. 600-lecia",
                "addr:housenumber": "32",
                "addr:teryt:simc": 65,
                "addr:teryt:sym_ul": 8639,
                "contact:phone": "+48 227823818",
                "contact:email": "ps2wieliszew@interia.pl",
                "ref:regon": "013006834",
                "ref:vatin": "PL5361664468",
                "operator": "Gmina Wieliszew",
                "operator:type": "government",
                "amenity": "kindergarten"
            }
        }
    ]
}