{
    "type": "FeatureCollection",
    "features": [
        {
            "id": 81200,
            "type": "Feature",
            "geometry": {
                "type": "Point",
                "coordinates": [
                    18.67912,
                    50.09542
                ]
            },
            "properties": {
                "isced:level": "1;2",
                "ref:rspo": 81200,
                "official_name": "Szko\u0142a Podstawowa im. W\u0142adys\u0142awa Broniewskiego w Szczejkowicach",
                "name": "Szko\u0142a Podstawowa",
                "addr:postcode": "44-246",
                "addr:city": "Szczejkowice",
                "addr:street": "Wiejska",
                "addr:housenumber": "20",
                "addr:city:simc": 214103,
                "addr:street:sym_ul": 24048,
                "phone": "+48 324317855",
                "email": "sp.szczejkowice@wp.pl",
                "website": "http:\/\/www.spszczejkowice.c0.pl",
                "ref:regon": "000730767",
                "ref:vatin": "PL6422679158",
                "operator": "Gmina I Miasto Czerwionka-Leszczyny",
                "operator:type": "government",
                "amenity": "school"
            }
        },
        {
            "id": 81199,
            "type": "Feature",
            "geometry": {
                "type": "Point",
                "coordinates": [
                    18.72684,
                    50.0973
                ]
            },
            "properties": {
                "isced:level": "1;2",
                "ref:rspo": 81199,
                "official_name": "Szko\u0142a Podstawowa im. Stefana \u017beromskiego w Palowicach",
                "name": "Szko\u0142a Podstawowa",
                "addr:postcode": "44-246",
                "addr:city": "Palowice",
                "addr:street": "D\u0119bowa",
                "addr:housenumber": "3",
                "addr:city:simc": 214008,
                "addr:street:sym_ul": 3811,
                "phone": "+48 324274000",
                "email": "sp.palowice@wp.pl",
                "ref:regon": "000730780",
                "ref:vatin": "PL6422679141",
                "operator": "Gmina I Miasto Czerwionka-Leszczyny",
                "operator:type": "government",
                "amenity": "school"
            }
        },
        {
            "id": 25849,
            "type": "Feature",
            "geometry": {
                "type": "Point",
                "coordinates": [
                    18.543935775757,
                    50.106132507324
                ]
            },
            "properties": {
                "ref:rspo": 25849,
                "official_name": "Przedszkole nr 1 z Oddzia\u0142em Integracyjnym \"Promyczek\" w Czerwionce-Leszczynach",
                "name": "Przedszkole nr 1 z Oddzia\u0142em Integracyjnym \"Promyczek\" w Czerwionce-Leszczynach",
                "addr:postcode": "44-238",
                "addr:place": "Czerwionka-Leszczyny",
                "addr:housenumber": "62",
                "addr:city:simc": 939409,
                "phone": "+48 324311641",
                "email": "promyczek_nr1@op.pl",
                "website": "http:\/\/www.promyczek1.pl",
                "ref:regon": "271507660",
                "ref:vatin": "PL6422678897",
                "operator": "Gmina I Miasto Czerwionka-Leszczyny",
                "operator:type": "government",
                "amenity": "kindergarten"
            }
        },
        {
            "id": 44577,
            "type": "Feature",
            "geometry": {
                "type": "Point",
                "coordinates": [
                    18.63025,
                    50.1211399
                ]
            },
            "properties": {
                "isced:level": "1;2",
                "ref:rspo": 44577,
                "official_name": "Szko\u0142a Podstawowa im.paw\u0142a Stalmacha w Przeg\u0119dzy",
                "name": "Szko\u0142a Podstawowa im.paw\u0142a Stalmacha w Przeg\u0119dzy",
                "addr:postcode": "44-238",
                "addr:city": "Przeg\u0119dza",
                "addr:street": "Szkolna",
                "addr:housenumber": "1",
                "addr:city:simc": 214043,
                "addr:street:sym_ul": 21970,
                "phone": "+48 324314333",
                "email": "sekretariat@spprzegedza.pl",
                "website": "http:\/\/www.spprzegedza.pl",
                "ref:regon": "000730738",
                "ref:vatin": "PL6422679129",
                "operator": "Gmina I Miasto Czerwionka-Leszczyny",
                "operator:type": "government",
                "amenity": "school"
            }
        },
        {
            "id": 81201,
            "type": "Feature",
            "geometry": {
                "type": "Point",
                "coordinates": [
                    18.66723,
                    50.12897
                ]
            },
            "properties": {
                "isced:level": "1;2",
                "ref:rspo": 81201,
                "official_name": "Szko\u0142a Podstawowa w Stanowicach",
                "name": "Szko\u0142a Podstawowa w Stanowicach",
                "addr:postcode": "44-237",
                "addr:city": "Stanowice",
                "addr:street": "Szkolna",
                "addr:housenumber": "17A",
                "addr:city:simc": 214066,
                "addr:street:sym_ul": 21970,
                "phone": "+48 324312824",
                "email": "sp.stanowice@wp.pl",
                "website": "http:\/\/www.spstanowice.edupage.org",
                "ref:regon": "000730744",
                "ref:vatin": "PL6422678414",
                "operator": "Gmina I Miasto Czerwionka-Leszczyny",
                "operator:type": "government",
                "amenity": "school"
            }
        },
        {
            "id": 25856,
            "type": "Feature",
            "geometry": {
                "type": "Point",
                "coordinates": [
                    18.71322,
                    50.13387
                ]
            },
            "properties": {
                "ref:rspo": 25856,
                "official_name": "Przedszkole \"Bajkowy Ogr\u00f3d\" w Be\u0142ku",
                "name": "Przedszkole \"Bajkowy Ogr\u00f3d\" w Be\u0142ku",
                "addr:postcode": "44-230",
                "addr:city": "Be\u0142k",
                "addr:street": "Szymochy",
                "addr:housenumber": "16A",
                "addr:city:simc": 213925,
                "addr:street:sym_ul": 22255,
                "phone": "+48 324311202",
                "email": "p-belk@wp.pl",
                "website": "http:\/\/przedszkolebelk.pl",
                "ref:regon": "271507766",
                "ref:vatin": "PL6422678727",
                "operator": "Gmina I Miasto Czerwionka-Leszczyny",
                "operator:type": "government",
                "amenity": "kindergarten"
            }
        },
        {
            "id": 106230,
            "type": "Feature",
            "geometry": {
                "type": "Point",
                "coordinates": [
                    18.71322,
                    50.13384
                ]
            },
            "properties": {
                "isced:level": "1;2",
                "ref:rspo": 106230,
                "official_name": "Szko\u0142a Podstawowa im. Franciszka Rducha w Be\u0142ku",
                "name": "Szko\u0142a Podstawowa",
                "addr:postcode": "44-237",
                "addr:city": "Be\u0142k",
                "addr:street": "Szymochy",
                "addr:housenumber": "16",
                "addr:city:simc": 213925,
                "addr:street:sym_ul": 22255,
                "phone": "+48 324316242",
                "email": "zs5.belk@wp.pl",
                "website": "http:\/\/spbelk.czerwionka-leszczyny.pl",
                "ref:regon": "000730750",
                "ref:vatin": "PL6422955486",
                "operator": "Gmina I Miasto Czerwionka-Leszczyny",
                "operator:type": "government",
                "amenity": "school"
            }
        },
        {
            "id": 103844,
            "type": "Feature",
            "geometry": {
                "type": "Point",
                "coordinates": [
                    18.64152,
                    50.13783
                ]
            },
            "properties": {
                "isced:level": "1;2",
                "ref:rspo": 103844,
                "official_name": "Szko\u0142a Podstawowa nr 1 im. Jana Paw\u0142a II w Czerwionce-Leszczynach",
                "name": "Szko\u0142a Podstawowa nr 1",
                "addr:postcode": "44-238",
                "addr:city": "Czerwionka-Leszczyny",
                "addr:street": "Ksi\u0119dza Pojdy",
                "addr:housenumber": "77c",
                "addr:city:simc": 939409,
                "addr:street:sym_ul": 44286,
                "phone": "+48 324311330",
                "email": "sekretariat@sp1leszczyny.pl",
                "website": "http:\/\/www.sp1leszczyny.pl",
                "ref:regon": "000730655",
                "ref:vatin": "PL6422955463",
                "operator": "Gmina I Miasto Czerwionka-Leszczyny",
                "operator:type": "government",
                "amenity": "school"
            }
        },
        {
            "id": 269315,
            "type": "Feature",
            "geometry": {
                "type": "Point",
                "coordinates": [
                    18.6325499,
                    50.13872
                ]
            },
            "properties": {
                "ref:rspo": 269315,
                "official_name": "Chrze\u015bcija\u0144skie Przedszkole \"Genesis\"",
                "name": "Chrze\u015bcija\u0144skie Przedszkole \"Genesis\"",
                "addr:postcode": "44-238",
                "addr:city": "Czerwionka-Leszczyny",
                "addr:street": "Fryderyka Chopina",
                "addr:housenumber": "3",
                "addr:city:simc": 939409,
                "addr:street:sym_ul": 2844,
                "phone": "+48 324414531",
                "email": "ewawolnicka@przedszkole-genesis.pl",
                "website": "http:\/\/przedszkole-genesis.pl",
                "ref:regon": "381438066",
                "operator": "Genesis Poland Sp\u00f3\u0142ka Z Ograniczon\u0105 Odpowiedzialno\u015bci\u0105",
                "operator:type": "private",
                "amenity": "kindergarten"
            }
        },
        {
            "id": 26925,
            "type": "Feature",
            "geometry": {
                "type": "Point",
                "coordinates": [
                    18.62184,
                    50.13956
                ]
            },
            "properties": {
                "isced:level": "1;2",
                "ref:rspo": 26925,
                "official_name": "Szko\u0142a Podstawowa nr 3 im. W\u0142.broniewskiego",
                "name": "Szko\u0142a Podstawowa nr 3",
                "addr:postcode": "44-238",
                "addr:city": "Czerwionka-Leszczyny",
                "addr:street": "W\u0142adys\u0142awa Broniewskiego",
                "addr:housenumber": "11",
                "addr:city:simc": 939409,
                "addr:street:sym_ul": 2120,
                "phone": "+48 324229628",
                "email": "sekretariat@sp3leszczyny.pl",
                "website": "http:\/\/www.sp3leszczyny.pl",
                "ref:regon": "000730678",
                "ref:vatin": "PL6422679023",
                "operator": "Gmina I Miasto Czerwionka-Leszczyny",
                "operator:type": "government",
                "amenity": "school"
            }
        },
        {
            "id": 9965,
            "type": "Feature",
            "geometry": {
                "type": "Point",
                "coordinates": [
                    18.63807,
                    50.1401899
                ]
            },
            "properties": {
                "ref:rspo": 9965,
                "official_name": "Zesp\u00f3\u0142 Szk\u00f3\u0142 Specjalnych im. Weronki Sherborne Czerwionka-Leszczyny",
                "name": "Zesp\u00f3\u0142 Szk\u00f3\u0142 Specjalnych",
                "addr:postcode": "44-238",
                "addr:city": "Czerwionka-Leszczyny",
                "addr:street": "Przedszkolna",
                "addr:housenumber": "1",
                "addr:city:simc": 939409,
                "addr:street:sym_ul": 17683,
                "phone": "+48 324312991",
                "email": "zssczerwionka-leszczyny@wp.pl",
                "ref:regon": "276618594",
                "operator": "Powiat Rybnicki",
                "operator:type": "government",
                "landuse": "education",
                "fixme": "amenity=school, amenity=college albo landuse=education w zale\u017cno\u015bci od tego, jakie plac\u00f3wki wchodz\u0105 w sk\u0142ad zespo\u0142u. Sprawd\u017a, kiedy stosowa\u0107 amenity=* a kiedy landuse=education.",
                "note": "Children RSPO: 13082;13112"
            }
        },
        {
            "id": 13082,
            "type": "Feature",
            "geometry": {
                "type": "Point",
                "coordinates": [
                    18.63807,
                    50.1401599
                ]
            },
            "properties": {
                "isced:level": "1;2",
                "ref:rspo": 13082,
                "official_name": "Szko\u0142a Podstawowa Specjalna",
                "name": "Szko\u0142a Podstawowa Specjalna",
                "addr:postcode": "44-238",
                "addr:city": "Czerwionka-Leszczyny",
                "addr:street": "Przedszkolna",
                "addr:housenumber": "1",
                "addr:city:simc": 939409,
                "addr:street:sym_ul": 17683,
                "phone": "+48 324312991",
                "email": "zssczerwionka-leszczyny@wp.pl",
                "ref:regon": "271579369",
                "operator": "Powiat Rybnicki",
                "operator:type": "government",
                "amenity": "school",
                "note": "Parent RSPO: 9965"
            }
        },
        {
            "id": 13112,
            "type": "Feature",
            "geometry": {
                "type": "Point",
                "coordinates": [
                    18.63807,
                    50.140129900000005
                ]
            },
            "properties": {
                "ref:rspo": 13112,
                "official_name": "Szko\u0142a Przysposabiaj\u0105ca do Pracy",
                "name": "Szko\u0142a Przysposabiaj\u0105ca do Pracy",
                "addr:postcode": "44-238",
                "addr:city": "Czerwionka-Leszczyny",
                "addr:street": "Przedszkolna",
                "addr:housenumber": "1",
                "addr:city:simc": 939409,
                "addr:street:sym_ul": 17683,
                "phone": "+48 324312991",
                "email": "zssczerwionka-leszczyny@wp.pl",
                "ref:regon": "242694593",
                "operator": "Powiat Rybnicki",
                "operator:type": "government",
                "amenity": "school",
                "note": "Parent RSPO: 9965"
            }
        },
        {
            "id": 25855,
            "type": "Feature",
            "geometry": {
                "type": "Point",
                "coordinates": [
                    18.62552,
                    50.14045
                ]
            },
            "properties": {
                "ref:rspo": 25855,
                "official_name": "Przedszkole nr 11 im. Jana Brzechwy",
                "name": "Przedszkole nr 11",
                "addr:postcode": "44-238",
                "addr:city": "Czerwionka-Leszczyny",
                "addr:street": "Morcinka",
                "addr:housenumber": "6",
                "addr:city:simc": 939409,
                "addr:street:sym_ul": 13278,
                "phone": "+48 324311233",
                "email": "sekretariat@p11.czerwionka-leszczyny.pl",
                "website": "http:\/\/p11.czerwionka-leszczyny.pl",
                "ref:regon": "271507750",
                "ref:vatin": "PL6422678733",
                "operator": "Gmina I Miasto Czerwionka-Leszczyny",
                "operator:type": "government",
                "amenity": "kindergarten"
            }
        },
        {
            "id": 25850,
            "type": "Feature",
            "geometry": {
                "type": "Point",
                "coordinates": [
                    18.62213,
                    50.14158
                ]
            },
            "properties": {
                "ref:rspo": 25850,
                "official_name": "Przedszkole nr 3 im. Janusza Korczaka w Czerwionce-Leszczynach",
                "name": "Przedszkole nr 3",
                "addr:postcode": "44-238",
                "addr:city": "Czerwionka-Leszczyny",
                "addr:street": "Mostowa",
                "addr:housenumber": "3",
                "addr:city:simc": 939409,
                "addr:street:sym_ul": 13379,
                "phone": "+48 324311006",
                "email": "sekretariat@p3.czerwionka-leszczyny",
                "website": "http:\/\/p3.czerwionka-leszczyny.pl",
                "ref:regon": "271507683",
                "ref:vatin": "PL6422678874",
                "operator": "Gmina I Miasto Czerwionka-Leszczyny",
                "operator:type": "government",
                "amenity": "kindergarten"
            }
        },
        {
            "id": 25854,
            "type": "Feature",
            "geometry": {
                "type": "Point",
                "coordinates": [
                    18.68381,
                    50.14718
                ]
            },
            "properties": {
                "ref:rspo": 25854,
                "official_name": "Przedszkole nr 10 im. Juliana Tuwima w Czerwionce-Leszczynach",
                "name": "Przedszkole nr 10",
                "addr:postcode": "44-230",
                "addr:city": "Czerwionka-Leszczyny",
                "addr:street": "Jana Paw\u0142a II",
                "addr:housenumber": "18",
                "addr:city:simc": 939409,
                "addr:street:sym_ul": 7123,
                "phone": "+48 324312040",
                "email": "przedszkole.10@wp.pl",
                "website": "http:\/\/www.przedszkoletuwima.edupage.org",
                "ref:regon": "271507743",
                "ref:vatin": "PL6422678756",
                "operator": "Gmina I Miasto Czerwionka-Leszczyny",
                "operator:type": "government",
                "amenity": "kindergarten"
            }
        },
        {
            "id": 120033,
            "type": "Feature",
            "geometry": {
                "type": "Point",
                "coordinates": [
                    18.68852,
                    50.14886
                ]
            },
            "properties": {
                "ref:rspo": 120033,
                "official_name": "Prywatne Niepubliczne Przedszkole \"Karolinka\"",
                "name": "Prywatne Niepubliczne Przedszkole \"Karolinka\"",
                "addr:postcode": "44-230",
                "addr:city": "Czerwionka-Leszczyny",
                "addr:street": "Lipowa",
                "addr:housenumber": "2A",
                "addr:city:simc": 939409,
                "addr:street:sym_ul": 11139,
                "phone": "+48 509774850",
                "email": "czeslaw.pawlas@gmail.com",
                "website": "http:\/\/www.karolinkaprzedszkole.pl",
                "ref:regon": "243372070",
                "ref:vatin": "PL6471006761",
                "operator": "Firma Handlowo Us\u0142ugowa Czes\u0142aw Pawlas",
                "operator:type": "consortium",
                "amenity": "kindergarten"
            }
        },
        {
            "id": 104481,
            "type": "Feature",
            "geometry": {
                "type": "Point",
                "coordinates": [
                    18.67473,
                    50.15067
                ]
            },
            "properties": {
                "isced:level": "1;2",
                "ref:rspo": 104481,
                "official_name": "Szko\u0142a Podstawowa nr 5 im. Henryka Sienkiewicza",
                "name": "Szko\u0142a Podstawowa nr 5",
                "addr:postcode": "44-230",
                "addr:city": "Czerwionka-Leszczyny",
                "addr:street": "Szkolna",
                "addr:housenumber": "3",
                "addr:city:simc": 939409,
                "addr:street:sym_ul": 21970,
                "phone": "+48 324312946",
                "email": "zs3.czerwionka@wp.pl",
                "website": "http:\/\/sp5.czerwionka-leszczyny.pl",
                "ref:regon": "000730690",
                "ref:vatin": "PL6422955842",
                "operator": "Gmina I Miasto Czerwionka-Leszczyny",
                "operator:type": "government",
                "amenity": "school"
            }
        },
        {
            "id": 25851,
            "type": "Feature",
            "geometry": {
                "type": "Point",
                "coordinates": [
                    18.67197,
                    50.15082
                ]
            },
            "properties": {
                "ref:rspo": 25851,
                "official_name": "Przedszkole nr 6 \"Pod Jarz\u0119bin\u0105\"",
                "name": "Przedszkole nr 6 \"Pod Jarz\u0119bin\u0105\"",
                "addr:postcode": "44-230",
                "addr:city": "Czerwionka-Leszczyny",
                "addr:street": "Wolno\u015bci",
                "addr:housenumber": "11",
                "addr:city:simc": 939409,
                "addr:street:sym_ul": 24687,
                "phone": "+48 324311517",
                "email": "sekretariat@p6.czerwionka-leszczyny.pl",
                "ref:regon": "271507708",
                "ref:vatin": "PL6422678868",
                "operator": "Gmina I Miasto Czerwionka-Leszczyny",
                "operator:type": "government",
                "amenity": "kindergarten"
            }
        },
        {
            "id": 103845,
            "type": "Feature",
            "geometry": {
                "type": "Point",
                "coordinates": [
                    18.6843,
                    50.15388
                ]
            },
            "properties": {
                "isced:level": "1;2",
                "ref:rspo": 103845,
                "official_name": "Szko\u0142a Podstawowa nr 4 w Czerwionce-Leszczynach",
                "name": "Szko\u0142a Podstawowa nr 4 w Czerwionce-Leszczynach",
                "addr:postcode": "44-230",
                "addr:city": "Czerwionka-Leszczyny",
                "addr:street": "Furgo\u0142a",
                "addr:housenumber": "71",
                "addr:city:simc": 939409,
                "addr:street:sym_ul": 5213,
                "phone": "+48 324312926",
                "email": "zs2czerwionka@wp.pl",
                "website": "http:\/\/www.zs2czerwionka.szkolnastrona.pl",
                "ref:regon": "000730684",
                "ref:vatin": "PL6422955084",
                "operator": "Gmina I Miasto Czerwionka-Leszczyny",
                "operator:type": "government",
                "amenity": "school"
            }
        },
        {
            "id": 8065,
            "type": "Feature",
            "geometry": {
                "type": "Point",
                "coordinates": [
                    18.66395,
                    50.15557
                ]
            },
            "properties": {
                "ref:rspo": 8065,
                "official_name": "Poradnia Psychologiczno Pedagogiczna Czerwionka-Leszczyny",
                "name": "Poradnia Psychologiczno Pedagogiczna Czerwionka-Leszczyny",
                "addr:postcode": "44-230",
                "addr:city": "Czerwionka-Leszczyny",
                "addr:street": "3 Maja",
                "addr:housenumber": "42",
                "addr:city:simc": 939409,
                "addr:street:sym_ul": 11937,
                "phone": "+48 324311267",
                "email": "pppczerwionka@wp.pl",
                "ref:regon": "001354830",
                "ref:vatin": "PL6422492715",
                "operator": "Powiat Rybnicki",
                "operator:type": "government",
                "healthcare": "counselling",
                "counselling_type": "education",
                "fixme": "w zale\u017cno\u015bci od przedmiotu dzia\u0142alno\u015bci (np. healthcare=counselling + counselling_type=education albo healthcare=psychotherapist)"
            }
        },
        {
            "id": 9925,
            "type": "Feature",
            "geometry": {
                "type": "Point",
                "coordinates": [
                    18.66395,
                    50.155539999999995
                ]
            },
            "properties": {
                "ref:rspo": 9925,
                "official_name": "Zesp\u00f3\u0142 Szk\u00f3\u0142 Czerwionka-Leszczyny",
                "name": "Zesp\u00f3\u0142 Szk\u00f3\u0142 Czerwionka-Leszczyny",
                "addr:postcode": "44-230",
                "addr:city": "Czerwionka-Leszczyny",
                "addr:street": "3 Maja",
                "addr:housenumber": "42",
                "addr:city:simc": 939409,
                "addr:street:sym_ul": 11937,
                "phone": "+48 324311466",
                "email": "zsczl@poczta.onet.pl",
                "ref:regon": "272839878",
                "operator": "Powiat Rybnicki",
                "operator:type": "government",
                "landuse": "education",
                "fixme": "amenity=school, amenity=college albo landuse=education w zale\u017cno\u015bci od tego, jakie plac\u00f3wki wchodz\u0105 w sk\u0142ad zespo\u0142u. Sprawd\u017a, kiedy stosowa\u0107 amenity=* a kiedy landuse=education.",
                "note": "Children RSPO: 13439;13455;29087;35194;275460"
            }
        },
        {
            "id": 10981,
            "type": "Feature",
            "geometry": {
                "type": "Point",
                "coordinates": [
                    18.66395,
                    50.15551
                ]
            },
            "properties": {
                "ref:rspo": 10981,
                "official_name": "Powiatowe Ognisko Pracy Pozaszkolnej Czerwionka -Leszczyny",
                "name": "Powiatowe Ognisko Pracy Pozaszkolnej Czerwionka -Leszczyny",
                "addr:postcode": "44-230",
                "addr:city": "Czerwionka-Leszczyny",
                "addr:street": "3 Maja",
                "addr:housenumber": "42",
                "addr:city:simc": 939409,
                "addr:street:sym_ul": 11937,
                "phone": "+48 327231234",
                "email": "popp_czerwionka@op.pl",
                "ref:regon": "272248456",
                "operator": "Powiat Rybnicki",
                "operator:type": "government",
                "amenity": "community_centre",
                "community_centre:for": "child;juvenile"
            }
        },
        {
            "id": 13439,
            "type": "Feature",
            "geometry": {
                "type": "Point",
                "coordinates": [
                    18.66395,
                    50.15548
                ]
            },
            "properties": {
                "isced:level": "3",
                "ref:rspo": 13439,
                "official_name": "Zesp\u00f3\u0142 Szk\u00f3\u0142 - Technikum",
                "name": "Zesp\u00f3\u0142 Szk\u00f3\u0142 - Technikum",
                "addr:postcode": "44-230",
                "addr:city": "Czerwionka-Leszczyny",
                "addr:street": "3 Maja",
                "addr:housenumber": "42",
                "addr:city:simc": 939409,
                "addr:street:sym_ul": 11937,
                "phone": "+48 324311466",
                "email": "zsczl@poczta.onet.pl",
                "ref:regon": "273545535",
                "operator": "Powiat Rybnicki",
                "operator:type": "government",
                "amenity": "school",
                "note": "Parent RSPO: 9925"
            }
        },
        {
            "id": 13455,
            "type": "Feature",
            "geometry": {
                "type": "Point",
                "coordinates": [
                    18.66395,
                    50.155449999999995
                ]
            },
            "properties": {
                "isced:level": "3",
                "ref:rspo": 13455,
                "official_name": "Zesp\u00f3\u0142 Szk\u00f3\u0142 - Liceum Og\u00f3lnokszta\u0142c\u0105ce dla Doros\u0142ych",
                "name": "Zesp\u00f3\u0142 Szk\u00f3\u0142 - Liceum Og\u00f3lnokszta\u0142c\u0105ce dla Doros\u0142ych",
                "addr:postcode": "44-230",
                "addr:city": "Czerwionka-Leszczyny",
                "addr:street": "3 Maja",
                "addr:housenumber": "42",
                "addr:city:simc": 939409,
                "addr:street:sym_ul": 11937,
                "phone": "+48 324311466",
                "email": "zsczl@poczta.onet.pl",
                "ref:regon": "241695490",
                "operator": "Powiat Rybnicki",
                "operator:type": "government",
                "amenity": "school",
                "note": "Parent RSPO: 9925"
            }
        },
        {
            "id": 29087,
            "type": "Feature",
            "geometry": {
                "type": "Point",
                "coordinates": [
                    18.66395,
                    50.15542
                ]
            },
            "properties": {
                "isced:level": "3",
                "ref:rspo": 29087,
                "official_name": "Zesp\u00f3\u0142 Szk\u00f3\u0142 - Liceum Og\u00f3lnokszta\u0142c\u0105ce im. Wilhelma Szewczyka",
                "name": "Zesp\u00f3\u0142 Szk\u00f3\u0142 - Liceum Og\u00f3lnokszta\u0142c\u0105ce",
                "addr:postcode": "44-230",
                "addr:city": "Czerwionka-Leszczyny",
                "addr:street": "3 Maja",
                "addr:housenumber": "42",
                "addr:city:simc": 939409,
                "addr:street:sym_ul": 11937,
                "phone": "+48 324311466",
                "email": "zsczl@poczta.onet.pl",
                "ref:regon": "271540380",
                "operator": "Powiat Rybnicki",
                "operator:type": "government",
                "amenity": "school",
                "note": "Parent RSPO: 9925"
            }
        },
        {
            "id": 35194,
            "type": "Feature",
            "geometry": {
                "type": "Point",
                "coordinates": [
                    18.66395,
                    50.15539
                ]
            },
            "properties": {
                "isced:level": "3",
                "ref:rspo": 35194,
                "official_name": "Bran\u017cowa Szko\u0142a I Stopnia",
                "name": "Bran\u017cowa Szko\u0142a I Stopnia",
                "addr:postcode": "44-230",
                "addr:city": "Czerwionka-Leszczyny",
                "addr:street": "3 Maja",
                "addr:housenumber": "42",
                "addr:city:simc": 939409,
                "addr:street:sym_ul": 11937,
                "phone": "+48 324311466",
                "email": "zsczl@poczta.onet.pl",
                "ref:regon": "271982125",
                "operator": "Powiat Rybnicki",
                "operator:type": "government",
                "amenity": "school",
                "note": "Parent RSPO: 9925"
            }
        },
        {
            "id": 275460,
            "type": "Feature",
            "geometry": {
                "type": "Point",
                "coordinates": [
                    18.66395,
                    50.155359999999995
                ]
            },
            "properties": {
                "isced:level": "3",
                "ref:rspo": 275460,
                "official_name": "Bran\u017cowa Szko\u0142a II Stopnia",
                "name": "Bran\u017cowa Szko\u0142a II Stopnia",
                "addr:postcode": "44-230",
                "addr:city": "Czerwionka-Leszczyny",
                "addr:street": "3 Maja",
                "addr:housenumber": "42",
                "addr:city:simc": 939409,
                "addr:street:sym_ul": 11937,
                "phone": "+48 324311466",
                "email": "zsczl@poczta.onet.pl",
                "website": "http:\/\/www.zscl.pl",
                "ref:regon": "386920879",
                "operator": "Powiat Rybnicki",
                "operator:type": "government",
                "amenity": "school",
                "note": "Parent RSPO: 9925"
            }
        },
        {
            "id": 44576,
            "type": "Feature",
            "geometry": {
                "type": "Point",
                "coordinates": [
                    18.59983,
                    50.15866
                ]
            },
            "properties": {
                "isced:level": "1;2",
                "ref:rspo": 44576,
                "official_name": "Szko\u0142a Podstawowa im. St.ligonia w Ksi\u0105\u017cenicach",
                "name": "Szko\u0142a Podstawowa",
                "addr:postcode": "44-213",
                "addr:city": "Ksi\u0105\u017cenice",
                "addr:street": "Ksi\u0119dza Pojdy",
                "addr:housenumber": "100",
                "addr:city:simc": 213960,
                "addr:street:sym_ul": 44286,
                "phone": "+48 324311024",
                "email": "dyrektor@spksiazenice.czerwionka-leszczyny.pl",
                "website": "http:\/\/www.spksiazenice.czerwionka-leszczyny.pl",
                "ref:regon": "000730773",
                "ref:vatin": "PL6422678472",
                "operator": "Gmina I Miasto Czerwionka-Leszczyny",
                "operator:type": "government",
                "amenity": "school"
            }
        },
        {
            "id": 68668,
            "type": "Feature",
            "geometry": {
                "type": "Point",
                "coordinates": [
                    18.59983,
                    50.158629999999995
                ]
            },
            "properties": {
                "ref:rspo": 68668,
                "official_name": "Niepubliczna Szko\u0142a Muzyczna I St. Egida w Ksi\u0105\u017cenicach",
                "name": "Niepubliczna Szko\u0142a Muzyczna I St. Egida w Ksi\u0105\u017cenicach",
                "addr:postcode": "44-213",
                "addr:city": "Ksi\u0105\u017cenice",
                "addr:street": "Ksi\u0119dza Pojdy",
                "addr:housenumber": "100",
                "addr:city:simc": 213960,
                "addr:street:sym_ul": 44286,
                "email": "muzyczna.egida@onet.pl",
                "website": "http:\/\/szkolamuzycznaegida.wix",
                "ref:regon": "243086230",
                "operator": "Andrzej Podorski",
                "operator:type": "private",
                "amenity": "music_school"
            }
        },
        {
            "id": 114199,
            "type": "Feature",
            "geometry": {
                "type": "Point",
                "coordinates": [
                    18.59983,
                    50.1586
                ]
            },
            "properties": {
                "ref:rspo": 114199,
                "official_name": "Niepubliczna Szko\u0142a Muzyczna II St. Egida w Ksi\u0105\u017cenicach",
                "name": "Niepubliczna Szko\u0142a Muzyczna II St. Egida w Ksi\u0105\u017cenicach",
                "addr:postcode": "44-213",
                "addr:city": "Ksi\u0105\u017cenice",
                "addr:street": "Ksi\u0119dza Pojdy",
                "addr:housenumber": "100",
                "addr:city:simc": 213960,
                "addr:street:sym_ul": 44286,
                "email": "muzyczna.egida@onet.pl",
                "website": "http:\/\/szkolamuzycznaegida.wix",
                "ref:regon": "243251107",
                "operator": "Andrzej Podorski",
                "operator:type": "private",
                "amenity": "music_school"
            }
        },
        {
            "id": 25852,
            "type": "Feature",
            "geometry": {
                "type": "Point",
                "coordinates": [
                    18.66153,
                    50.15982
                ]
            },
            "properties": {
                "ref:rspo": 25852,
                "official_name": "Przedszkole nr 7 im. Skarbnikowa Willa",
                "name": "Przedszkole nr 7",
                "addr:postcode": "44-230",
                "addr:city": "Czerwionka-Leszczyny",
                "addr:street": "M\u0142y\u0144ska",
                "addr:housenumber": "2",
                "addr:city:simc": 939409,
                "addr:street:sym_ul": 13132,
                "phone": "+48 324312355",
                "email": "dyrektor@p7.czerwionka-leszczyny.pl",
                "website": "http:\/\/p7.czerwionka-leszczyny.pl",
                "ref:regon": "271507714",
                "ref:vatin": "PL6422678851",
                "operator": "Gmina I Miasto Czerwionka-Leszczyny",
                "operator:type": "government",
                "amenity": "kindergarten"
            }
        },
        {
            "id": 79356,
            "type": "Feature",
            "geometry": {
                "type": "Point",
                "coordinates": [
                    18.72226,
                    50.16795
                ]
            },
            "properties": {
                "isced:level": "1;2",
                "ref:rspo": 79356,
                "official_name": "Szko\u0142a Podstawowa nr 8 im. Romana I Zdzis\u0142awa Pietras\u00f3w",
                "name": "Szko\u0142a Podstawowa nr 8",
                "addr:postcode": "44-230",
                "addr:city": "Czerwionka-Leszczyny",
                "addr:street": "Prosta",
                "addr:housenumber": "17",
                "addr:city:simc": 939409,
                "addr:street:sym_ul": 17547,
                "phone": "+48 324273544",
                "email": "sp8.debiensko@wp.pl",
                "website": "http:\/\/www.sp8debiensko.pl",
                "ref:regon": "000730721",
                "ref:vatin": "PL6422679164",
                "operator": "Gmina I Miasto Czerwionka-Leszczyny",
                "operator:type": "government",
                "amenity": "school"
            }
        },
        {
            "id": 104579,
            "type": "Feature",
            "geometry": {
                "type": "Point",
                "coordinates": [
                    18.65466,
                    50.16986
                ]
            },
            "properties": {
                "isced:level": "1;2",
                "ref:rspo": 104579,
                "official_name": "Szko\u0142a Podstawowa nr 6 im. Stanis\u0142awa Moniuszki",
                "name": "Szko\u0142a Podstawowa nr 6",
                "addr:postcode": "44-230",
                "addr:city": "Czerwionka-Leszczyny",
                "addr:street": "Gliwicka",
                "addr:housenumber": "2",
                "addr:city:simc": 939409,
                "addr:street:sym_ul": 5583,
                "phone": "+48 324312446",
                "email": "dyrektor@sp6czuchow1.pl",
                "website": "http:\/\/www.http:\/\/sp6czuchow.szkolnastrona.pl",
                "ref:regon": "000730709",
                "ref:vatin": "PL6422955492",
                "operator": "Gmina I Miasto Czerwionka-Leszczyny",
                "operator:type": "government",
                "amenity": "school"
            }
        },
        {
            "id": 196365,
            "type": "Feature",
            "geometry": {
                "type": "Point",
                "coordinates": [
                    18.7025599,
                    50.17087
                ]
            },
            "properties": {
                "isced:level": "1;2",
                "ref:rspo": 196365,
                "official_name": "Szko\u0142a Podstawowa nr 7 w Czerwionce-Leszczynach",
                "name": "Szko\u0142a Podstawowa nr 7 w Czerwionce-Leszczynach",
                "addr:postcode": "44-230",
                "addr:city": "Czerwionka-Leszczyny",
                "addr:street": "Hugona Ko\u0142\u0142\u0105taja",
                "addr:housenumber": "1",
                "addr:city:simc": 939409,
                "addr:street:sym_ul": 9000,
                "phone": "+48 324311855",
                "email": "g6.debiensko@wp.pl",
                "website": "http:\/\/www.sp7debiensko.pl",
                "ref:regon": "367995620",
                "ref:vatin": "PL6423204049",
                "operator": "Gmina I Miasto Czerwionka-Leszczyny",
                "operator:type": "government",
                "amenity": "school"
            }
        },
        {
            "id": 25853,
            "type": "Feature",
            "geometry": {
                "type": "Point",
                "coordinates": [
                    18.70322,
                    50.17136
                ]
            },
            "properties": {
                "ref:rspo": 25853,
                "official_name": "Przedszkole nr 8 \"Krasnala Ha\u0142aba\u0142y\"",
                "name": "Przedszkole nr 8 \"Krasnala Ha\u0142aba\u0142y\"",
                "addr:postcode": "44-230",
                "addr:city": "Czerwionka-Leszczyny",
                "addr:street": "Hugona Ko\u0142\u0142\u0105taja",
                "addr:housenumber": "2",
                "addr:city:simc": 939409,
                "addr:street:sym_ul": 9000,
                "phone": "+48 324311159",
                "email": "dyrektor@p8.czerwionka-leszczyny.pl",
                "website": "https:\/\/p8.czerwionka-leszczyny.pl",
                "ref:regon": "271507720",
                "ref:vatin": "PL6422678779",
                "operator": "Gmina I Miasto Czerwionka-Leszczyny",
                "operator:type": "government",
                "amenity": "kindergarten"
            }
        }
    ]
}