{
    "type": "FeatureCollection",
    "features": [
        {
            "id": 15132,
            "type": "Feature",
            "geometry": {
                "type": "Point",
                "coordinates": [
                    18.39989,
                    50.08041
                ]
            },
            "properties": {
                "ref:rspo": 15132,
                "official_name": "Przedszkole w Czernicy\u201eBajkowe Wzg\u00f3rze\"",
                "name": "Przedszkole w Czernicy\u201eBajkowe Wzg\u00f3rze\"",
                "addr:postcode": "44-282",
                "addr:city": "Czernica",
                "addr:street": "Wolno\u015bci",
                "addr:housenumber": "41",
                "addr:city:simc": 214126,
                "addr:street:sym_ul": 24687,
                "phone": "+48 324305888",
                "email": "przedszkoleczernica@op.pl",
                "website": "http:\/\/czernicaprzedszkole.blogspot.com",
                "ref:regon": "271511822",
                "ref:vatin": "PL6422776938",
                "operator": "Gmina Gaszowice",
                "operator:type": "government",
                "amenity": "kindergarten"
            }
        },
        {
            "id": 15252,
            "type": "Feature",
            "geometry": {
                "type": "Point",
                "coordinates": [
                    18.39989,
                    50.08038
                ]
            },
            "properties": {
                "isced:level": "1;2",
                "ref:rspo": 15252,
                "official_name": "Szko\u0142a Podstawowa im. Henryka Miko\u0142aja G\u00f3reckiego w Czernicy",
                "name": "Szko\u0142a Podstawowa",
                "addr:postcode": "44-282",
                "addr:city": "Czernica",
                "addr:street": "Wolno\u015bci",
                "addr:housenumber": "41",
                "addr:city:simc": 214126,
                "addr:street:sym_ul": 24687,
                "phone": "+48 324305060",
                "email": "spczernica@gaszowice.pl",
                "website": "http:\/\/czernicasp.edupage.org",
                "ref:regon": "001193120",
                "ref:vatin": "PL6422771645",
                "operator": "Gmina Gaszowice",
                "operator:type": "government",
                "amenity": "school"
            }
        },
        {
            "id": 262809,
            "type": "Feature",
            "geometry": {
                "type": "Point",
                "coordinates": [
                    18.4303,
                    50.09598
                ]
            },
            "properties": {
                "isced:level": "1;2",
                "ref:rspo": 262809,
                "official_name": "Szko\u0142a Podstawowa im. Ziemi \u015aL\u0105skiej w Piecach",
                "name": "Szko\u0142a Podstawowa",
                "addr:postcode": "44-293",
                "addr:city": "Piece",
                "addr:street": "Rydu\u0142towska",
                "addr:housenumber": "9",
                "addr:city:simc": 214209,
                "addr:street:sym_ul": 19211,
                "phone": "+48 324305519",
                "email": "sppiece@gaszowice.pl",
                "ref:regon": "368061373",
                "operator": "Gmina Gaszowice",
                "operator:type": "government",
                "amenity": "school"
            }
        },
        {
            "id": 15062,
            "type": "Feature",
            "geometry": {
                "type": "Point",
                "coordinates": [
                    18.4290999,
                    50.09643
                ]
            },
            "properties": {
                "isced:level": "1;2",
                "ref:rspo": 15062,
                "official_name": "Szko\u0142a Podstawowa im. Tadeusza Ko\u015bciuszki w Gaszowicach",
                "name": "Szko\u0142a Podstawowa",
                "addr:postcode": "44-293",
                "addr:city": "Gaszowice",
                "addr:street": "Rydu\u0142towska",
                "addr:housenumber": "8",
                "addr:city:simc": 214155,
                "addr:street:sym_ul": 19211,
                "phone": "+48 324305580",
                "email": "sekretariat@spgaszowice.pl",
                "website": "http:\/\/gaszowicesp.edupage.org",
                "ref:regon": "000562330",
                "ref:vatin": "PL6422771639",
                "operator": "Gmina Gaszowice",
                "operator:type": "government",
                "amenity": "school"
            }
        },
        {
            "id": 14949,
            "type": "Feature",
            "geometry": {
                "type": "Point",
                "coordinates": [
                    18.42998,
                    50.0965599
                ]
            },
            "properties": {
                "ref:rspo": 14949,
                "official_name": "Przedszkole im. Przyjaci\u00f3\u0142 Kubusia Puchatka w Gaszowicach",
                "name": "Przedszkole",
                "addr:postcode": "44-293",
                "addr:city": "Gaszowice",
                "addr:street": "Rydu\u0142towska",
                "addr:housenumber": "5",
                "addr:city:simc": 214155,
                "addr:street:sym_ul": 19211,
                "phone": "+48 324305466",
                "email": "przedszkole@gaszowice.pl",
                "website": "http:\/\/www.przedszkole.gaszowice.pl",
                "ref:regon": "271511816",
                "ref:vatin": "PL6422782028",
                "operator": "Gmina Gaszowice",
                "operator:type": "government",
                "amenity": "kindergarten"
            }
        },
        {
            "id": 123895,
            "type": "Feature",
            "geometry": {
                "type": "Point",
                "coordinates": [
                    18.44726,
                    50.10056
                ]
            },
            "properties": {
                "ref:rspo": 123895,
                "official_name": "Zesp\u00f3\u0142 Szkolno - Przedszkolny w Szczerbicach",
                "name": "Zesp\u00f3\u0142 Szkolno - Przedszkolny w Szczerbicach",
                "addr:postcode": "44-293",
                "addr:city": "Szczerbice",
                "addr:street": "Szkolna",
                "addr:housenumber": "6",
                "addr:city:simc": 214221,
                "addr:street:sym_ul": 21970,
                "phone": "+48 324305516",
                "email": "sekretariat@zspszczerbice.pl",
                "website": "http:\/\/szczerbicesp.edupage.org",
                "ref:regon": "243636340",
                "ref:vatin": "PL6423187285",
                "operator": "Gmina Gaszowice",
                "operator:type": "government",
                "landuse": "education",
                "fixme": "amenity=school, amenity=college albo landuse=education w zale\u017cno\u015bci od tego, jakie plac\u00f3wki wchodz\u0105 w sk\u0142ad zespo\u0142u. Sprawd\u017a, kiedy stosowa\u0107 amenity=* a kiedy landuse=education.",
                "note": "Children RSPO: 15377;124061"
            }
        },
        {
            "id": 15377,
            "type": "Feature",
            "geometry": {
                "type": "Point",
                "coordinates": [
                    18.44726,
                    50.10053
                ]
            },
            "properties": {
                "isced:level": "1;2",
                "ref:rspo": 15377,
                "official_name": "Szko\u0142a Podstawowa im. Zygmunta Biernackiego w Szczerbicach",
                "name": "Szko\u0142a Podstawowa",
                "addr:postcode": "44-293",
                "addr:city": "Szczerbice",
                "addr:street": "Szkolna",
                "addr:housenumber": "6",
                "addr:city:simc": 214221,
                "addr:street:sym_ul": 21970,
                "phone": "+48 324305516",
                "email": "sekretariat@zspszczerbice.pl",
                "website": "http:\/\/szczerbicesp.edupage.org",
                "ref:regon": "001193142",
                "ref:vatin": "PL6423187285",
                "operator": "Gmina Gaszowice",
                "operator:type": "government",
                "amenity": "school",
                "note": "Parent RSPO: 123895"
            }
        },
        {
            "id": 124061,
            "type": "Feature",
            "geometry": {
                "type": "Point",
                "coordinates": [
                    18.44726,
                    50.100500000000004
                ]
            },
            "properties": {
                "ref:rspo": 124061,
                "official_name": "Przedszkole w Szczerbicach",
                "name": "Przedszkole w Szczerbicach",
                "addr:postcode": "44-293",
                "addr:city": "Szczerbice",
                "addr:street": "Szkolna",
                "addr:housenumber": "6",
                "addr:city:simc": 214221,
                "addr:street:sym_ul": 21970,
                "phone": "+48 324305516",
                "email": "sekretariat@zspszczerbice.pl",
                "website": "http:\/\/szczerbicesp.edupage.org",
                "ref:regon": "243643356",
                "ref:vatin": "PL6423187285",
                "operator": "Gmina Gaszowice",
                "operator:type": "government",
                "amenity": "kindergarten",
                "note": "Parent RSPO: 123895"
            }
        },
        {
            "id": 120980,
            "type": "Feature",
            "geometry": {
                "type": "Point",
                "coordinates": [
                    18.42504,
                    50.10944
                ]
            },
            "properties": {
                "ref:rspo": 120980,
                "official_name": "Niepubliczne Przedszkole \"T\u0119czowa Kraina\"",
                "name": "Niepubliczne Przedszkole \"T\u0119czowa Kraina\"",
                "addr:postcode": "44-293",
                "addr:city": "Gaszowice",
                "addr:street": "Wiejska",
                "addr:housenumber": "72A",
                "addr:city:simc": 214155,
                "addr:street:sym_ul": 24048,
                "phone": "+48 509993182",
                "email": "agnieszka.badura@gmail.com",
                "ref:regon": "243432783",
                "ref:vatin": "PL6422688884",
                "operator": "Agnieszka Badura",
                "operator:type": "private",
                "amenity": "kindergarten"
            }
        }
    ]
}