{
    "type": "FeatureCollection",
    "features": [
        {
            "id": 64431,
            "type": "Feature",
            "geometry": {
                "type": "Point",
                "coordinates": [
                    18.57736,
                    50.01504
                ]
            },
            "properties": {
                "isced:level": "1;2",
                "ref:rspo": 64431,
                "official_name": "Szko\u0142a Podstawowa Nr 2 im. \u015awi\u0119tej Jadwigi w \u015awierklanach",
                "name": "Szko\u0142a Podstawowa Nr 2",
                "addr:country": "PL",
                "addr:postcode": "44-266",
                "addr:city": "\u015awierklany",
                "addr:street": "ul. 3 Maja",
                "addr:housenumber": "18",
                "addr:teryt:simc": 11937,
                "addr:teryt:sym_ul": 999765,
                "contact:phone": "+48 324304187",
                "contact:email": "sekretariat@spjadwiga.edu.pl",
                "contact:website": "http:\/\/www.spjadwiga.edu.pl",
                "ref:regon": "000273896",
                "ref:vatin": "PL6422656588",
                "operator": "Gmina \u015awierklany",
                "operator:type": "government",
                "amenity": "school"
            }
        },
        {
            "id": 65124,
            "type": "Feature",
            "geometry": {
                "type": "Point",
                "coordinates": [
                    18.57736,
                    50.01501
                ]
            },
            "properties": {
                "ref:rspo": 65124,
                "official_name": "Przedszkole Nr 2 w \u015awierklanach",
                "name": "Przedszkole Nr 2 w \u015awierklanach",
                "addr:country": "PL",
                "addr:postcode": "44-266",
                "addr:city": "\u015awierklany",
                "addr:street": "ul. 3 Maja",
                "addr:housenumber": "18",
                "addr:teryt:simc": 11937,
                "addr:teryt:sym_ul": 999765,
                "contact:phone": "+48 324304039",
                "contact:email": "biuro@przedszkole2.edu.pl",
                "ref:regon": "271512879",
                "ref:vatin": "PL6422715983",
                "operator": "Gmina \u015awierklany",
                "operator:type": "government",
                "amenity": "kindergarten"
            }
        },
        {
            "id": 64430,
            "type": "Feature",
            "geometry": {
                "type": "Point",
                "coordinates": [
                    18.59096,
                    50.02616
                ]
            },
            "properties": {
                "isced:level": "1;2",
                "ref:rspo": 64430,
                "official_name": "Szko\u0142a Podstawowa Nr 1 im.ludwika Holesza w \u015awierklanach",
                "name": "Szko\u0142a Podstawowa Nr 1 im.ludwika Holesza w \u015awierklanach",
                "addr:country": "PL",
                "addr:postcode": "44-266",
                "addr:city": "\u015awierklany",
                "addr:street": "ul. Bory\u0144ska",
                "addr:housenumber": "6",
                "addr:teryt:simc": 1898,
                "addr:teryt:sym_ul": 999765,
                "contact:phone": "+48 324304189",
                "contact:email": "sekretariat@sp1.swierklany.pl",
                "ref:regon": "001199015",
                "ref:vatin": "PL6422656602",
                "operator": "Gmina \u015awierklany",
                "operator:type": "government",
                "amenity": "school"
            }
        },
        {
            "id": 65123,
            "type": "Feature",
            "geometry": {
                "type": "Point",
                "coordinates": [
                    18.59096,
                    50.026129999999995
                ]
            },
            "properties": {
                "ref:rspo": 65123,
                "official_name": "Przedszkole Nr 1 w \u015awierklanach",
                "name": "Przedszkole Nr 1 w \u015awierklanach",
                "addr:country": "PL",
                "addr:postcode": "44-266",
                "addr:city": "\u015awierklany",
                "addr:street": "ul. Bory\u0144ska",
                "addr:housenumber": "6",
                "addr:teryt:simc": 1898,
                "addr:teryt:sym_ul": 999765,
                "contact:phone": "+48 324304630",
                "contact:email": "p.swierklany.g@gmail.com",
                "ref:regon": "271512885",
                "ref:vatin": "PL6422716008",
                "operator": "Gmina \u015awierklany",
                "operator:type": "government",
                "amenity": "kindergarten"
            }
        },
        {
            "id": 64432,
            "type": "Feature",
            "geometry": {
                "type": "Point",
                "coordinates": [
                    18.56826,
                    50.04243
                ]
            },
            "properties": {
                "isced:level": "1;2",
                "ref:rspo": 64432,
                "official_name": "Szko\u0142a Podstawowa im. Stanis\u0142awa Staszica w Jankowicach",
                "name": "Szko\u0142a Podstawowa",
                "addr:country": "PL",
                "addr:postcode": "44-264",
                "addr:city": "Jankowice",
                "addr:street": "ul. R\u00f3wnoleg\u0142a",
                "addr:housenumber": "5",
                "addr:teryt:simc": 18992,
                "addr:teryt:sym_ul": 222261,
                "contact:phone": "+48 324305137",
                "contact:email": "staszic.jankowice@op.pl",
                "contact:website": "http:\/\/www.spjankowice.pl",
                "ref:regon": "001199021",
                "ref:vatin": "PL6422656594",
                "operator": "Gmina \u015awierklany",
                "operator:type": "government",
                "amenity": "school"
            }
        },
        {
            "id": 65125,
            "type": "Feature",
            "geometry": {
                "type": "Point",
                "coordinates": [
                    18.56826,
                    50.0424
                ]
            },
            "properties": {
                "ref:rspo": 65125,
                "official_name": "Przedszkole w Jankowicach",
                "name": "Przedszkole w Jankowicach",
                "addr:country": "PL",
                "addr:postcode": "44-264",
                "addr:city": "Jankowice",
                "addr:street": "ul. R\u00f3wnoleg\u0142a",
                "addr:housenumber": "5",
                "addr:teryt:simc": 18992,
                "addr:teryt:sym_ul": 222261,
                "contact:phone": "+48 324305157",
                "contact:email": "pjnr1@vp.pl",
                "ref:regon": "271512856",
                "ref:vatin": "PL6422716020",
                "operator": "Gmina \u015awierklany",
                "operator:type": "government",
                "amenity": "kindergarten"
            }
        }
    ]
}