{"type":"FeatureCollection","features":[{"id":12108,"type":"Feature","geometry":{"type":"Point","coordinates":[18.35739,50.09176]},"properties":{"ref:rspo":12108,"official_name":"Zesp\u00f3\u0142 Szkolno-Przedszkolny w Pstr\u0105\u017cnej","name":"Zesp\u00f3\u0142 Szkolno-Przedszkolny w Pstr\u0105\u017cnej","addr:country":"PL","addr:postcode":"44-284","addr:city":"Pstr\u0105\u017cna","addr:street":"ul. Szkolna","addr:housenumber":"5","addr:teryt:simc":21970,"addr:teryt:sym_ul":216473,"contact:phone":"+48 324300057","contact:email":"zsp.pstrazna@lyski.pl","contact:website":"http:\/\/zsppstrazna.pl","ref:regon":"277602709","ref:vatin":"PL6422738702","operator":"Gmina Lyski","operator:type":"government","landuse":"education","fixme":"amenity=school, amenity=college albo landuse=education w zale\u017cno\u015bci od tego, jakie plac\u00f3wki wchodz\u0105 w sk\u0142ad zespo\u0142u. Sprawd\u017a, kiedy stosowa\u0107 amenity=* a kiedy landuse=education.","note":"Children RSPO: 17200;17201"}},{"id":17200,"type":"Feature","geometry":{"type":"Point","coordinates":[18.35739,50.09173]},"properties":{"isced:level":"1;2","ref:rspo":17200,"official_name":"Zesp\u00f3\u0142 Szkolno-Przedszkolny w Pstr\u0105\u017cnej - Szko\u0142a Podstawowa im. Kazimierza Wielkiego w Pstr\u0105\u017cnej","name":"Zesp\u00f3\u0142 Szkolno-Przedszkolny w Pstr\u0105\u017cnej - Szko\u0142a Podstawowa","addr:country":"PL","addr:postcode":"44-284","addr:city":"Pstr\u0105\u017cna","addr:street":"ul. Szkolna","addr:housenumber":"5","addr:teryt:simc":21970,"addr:teryt:sym_ul":216473,"contact:phone":"+48 324300057","contact:email":"zsp.pstrazna@lyski.pl","contact:website":"http:\/\/zsppstrazna.pl","ref:regon":"001191730","ref:vatin":"PL6422738702","operator":"Gmina Lyski","operator:type":"government","amenity":"school","note":"Parent RSPO: 12108"}},{"id":17201,"type":"Feature","geometry":{"type":"Point","coordinates":[18.35739,50.0917]},"properties":{"ref:rspo":17201,"official_name":"Zesp\u00f3\u0142 Szkolno-Przedszkolny w Pstr\u0105\u017cnej - Przedszkole Publiczne w Pstr\u0105\u017cnej","name":"Zesp\u00f3\u0142 Szkolno-Przedszkolny w Pstr\u0105\u017cnej - Przedszkole Publiczne w Pstr\u0105\u017cnej","addr:country":"PL","addr:postcode":"44-284","addr:city":"Pstr\u0105\u017cna","addr:street":"ul. Szkolna","addr:housenumber":"5","addr:teryt:simc":21970,"addr:teryt:sym_ul":216473,"contact:phone":"+48 324300302","contact:email":"zsp.pstrazna@lyski.pl","ref:regon":"271512313","ref:vatin":"PL6422738702","operator":"Gmina Lyski","operator:type":"government","amenity":"kindergarten","note":"Parent RSPO: 12108"}},{"id":12111,"type":"Feature","geometry":{"type":"Point","coordinates":[18.3908099,50.12019]},"properties":{"ref:rspo":12111,"official_name":"Zesp\u00f3\u0142 Szkolno-Przedszkolny w Lyskach","name":"Zesp\u00f3\u0142 Szkolno-Przedszkolny w Lyskach","addr:country":"PL","addr:postcode":"44-295","addr:city":"Lyski","addr:street":"ul. Dworcowa","addr:housenumber":"4","addr:teryt:simc":4434,"addr:teryt:sym_ul":216361,"contact:phone":"+48 324300024","contact:email":"zsp.lyski@lyski.pl","contact:website":"http:\/\/zsplyski.pl","ref:regon":"277602804","ref:vatin":"PL6422738688","operator":"Gmina Lyski","operator:type":"government","landuse":"education","fixme":"amenity=school, amenity=college albo landuse=education w zale\u017cno\u015bci od tego, jakie plac\u00f3wki wchodz\u0105 w sk\u0142ad zespo\u0142u. Sprawd\u017a, kiedy stosowa\u0107 amenity=* a kiedy landuse=education.","note":"Children RSPO: 17503;17504"}},{"id":17503,"type":"Feature","geometry":{"type":"Point","coordinates":[18.3908099,50.12016]},"properties":{"isced:level":"1;2","ref:rspo":17503,"official_name":"Zesp\u00f3\u0142 Szkolno -Przedszkolny w Lyskach - Szko\u0142a im. Jana III Sobieskiego w Lyskach","name":"Zesp\u00f3\u0142 Szkolno -Przedszkolny w Lyskach - Szko\u0142a","addr:country":"PL","addr:postcode":"44-295","addr:city":"Lyski","addr:street":"ul. Dworcowa","addr:housenumber":"4","addr:teryt:simc":4434,"addr:teryt:sym_ul":216361,"contact:phone":"+48 324300024","contact:email":"zsp.lyski@lyski.pl","contact:website":"http:\/\/www.zsplyski.pl","ref:regon":"000272141","ref:vatin":"PL6422738688","operator":"Gmina Lyski","operator:type":"government","amenity":"school","note":"Parent RSPO: 12111"}},{"id":17504,"type":"Feature","geometry":{"type":"Point","coordinates":[18.3908099,50.12013]},"properties":{"ref:rspo":17504,"official_name":"Zesp\u00f3\u0142 Szkolno-Przedszkolny w Lyskach - Przedszkole Publiczne w Lyskach","name":"Zesp\u00f3\u0142 Szkolno-Przedszkolny w Lyskach - Przedszkole Publiczne w Lyskach","addr:country":"PL","addr:postcode":"44-295","addr:city":"Lyski","addr:street":"ul. Dworcowa","addr:housenumber":"4","addr:teryt:simc":4434,"addr:teryt:sym_ul":216361,"contact:phone":"+48 324300024","contact:email":"zsp.lyski@lyski.pl","contact:website":"http:\/\/zsplyski.pl","ref:regon":"271512282","ref:vatin":"PL6422738688","operator":"Gmina Lyski","operator:type":"government","amenity":"kindergarten","note":"Parent RSPO: 12111"}},{"id":15271,"type":"Feature","geometry":{"type":"Point","coordinates":[18.29554,50.12389]},"properties":{"isced:level":"1;2","ref:rspo":15271,"official_name":"Szko\u0142a Podstawowa w Raszczycach","name":"Szko\u0142a Podstawowa w Raszczycach","addr:country":"PL","addr:postcode":"47-435","addr:city":"Raszczyce","addr:street":"ul. Szkolna","addr:housenumber":"3","addr:teryt:simc":21970,"addr:teryt:sym_ul":216496,"contact:phone":"+48 324300075","contact:email":"sp.raszczyce@lyski.pl","contact:website":"http:\/\/www.spraszczyce.szkolnastrona.pl","ref:regon":"001191746","ref:vatin":"PL6423096358","operator":"Gmina Lyski","operator:type":"government","amenity":"school"}},{"id":12109,"type":"Feature","geometry":{"type":"Point","coordinates":[18.32877,50.13464]},"properties":{"ref:rspo":12109,"official_name":"Zesp\u00f3\u0142 Szkolno-Przedszkolny w Adamowicach","name":"Zesp\u00f3\u0142 Szkolno-Przedszkolny w Adamowicach","addr:country":"PL","addr:postcode":"47-435","addr:city":"Adamowice","addr:street":"ul. Szkolna","addr:housenumber":"7","addr:teryt:simc":21970,"addr:teryt:sym_ul":216295,"contact:phone":"+48 324300066","contact:email":"zsp.adamowice@lyski.pl","contact:website":"http:\/\/zspadamowice.edupage.org","ref:regon":"277601609","ref:vatin":"PL6422738725","operator":"Gmina Lyski","operator:type":"government","landuse":"education","fixme":"amenity=school, amenity=college albo landuse=education w zale\u017cno\u015bci od tego, jakie plac\u00f3wki wchodz\u0105 w sk\u0142ad zespo\u0142u. Sprawd\u017a, kiedy stosowa\u0107 amenity=* a kiedy landuse=education.","note":"Children RSPO: 55696;55697"}},{"id":55696,"type":"Feature","geometry":{"type":"Point","coordinates":[18.32877,50.134609999999995]},"properties":{"isced:level":"1;2","ref:rspo":55696,"official_name":"Zesp\u00f3\u0142 Szkolno-Przedszkolny w Adamowicach \nSzko\u0142a Podstawowa im. Floriana Adamskiego w Adamowicach","name":"Zesp\u00f3\u0142 Szkolno-Przedszkolny w Adamowicach \nSzko\u0142a Podstawowa","addr:country":"PL","addr:postcode":"47-435","addr:city":"Adamowice","addr:street":"ul. Szkolna","addr:housenumber":"7","addr:teryt:simc":21970,"addr:teryt:sym_ul":216295,"contact:phone":"+48 324300066","contact:email":"zsp.adamowice@lyski.pl","contact:website":"http:\/\/www.zspadamowice.edupage.org","ref:regon":"001191114","ref:vatin":"PL6422738725","operator":"Gmina Lyski","operator:type":"government","amenity":"school","note":"Parent RSPO: 12109"}},{"id":55697,"type":"Feature","geometry":{"type":"Point","coordinates":[18.32877,50.13458]},"properties":{"ref:rspo":55697,"official_name":"Zesp\u00f3\u0142 Szkolno-Przedszkolny w Adamowicach Przedszkole Publiczne w Adamowicach","name":"Zesp\u00f3\u0142 Szkolno-Przedszkolny w Adamowicach Przedszkole Publiczne w Adamowicach","addr:country":"PL","addr:postcode":"47-435","addr:city":"Adamowice","addr:street":"ul. Szkolna","addr:housenumber":"7","addr:teryt:simc":21970,"addr:teryt:sym_ul":216295,"contact:phone":"+48 324300066","contact:email":"zsp.adamowice@lyski.pl","contact:website":"http:\/\/www.zspadamowice.edupage.org","ref:regon":"271512230","ref:vatin":"PL6422738725","operator":"Gmina Lyski","operator:type":"government","amenity":"kindergarten","note":"Parent RSPO: 12109"}},{"id":17203,"type":"Feature","geometry":{"type":"Point","coordinates":[18.44129,50.14449]},"properties":{"ref:rspo":17203,"official_name":"Zesp\u00f3\u0142 Szkolno-Przedszkolny w Zwonowicach - Przedszkole Publiczne w Zwonowicach","name":"Zesp\u00f3\u0142 Szkolno-Przedszkolny w Zwonowicach - Przedszkole Publiczne w Zwonowicach","addr:country":"PL","addr:postcode":"44-292","addr:city":"Zwonowice","addr:street":"ul. Sumi\u0144ska","addr:housenumber":"1","addr:teryt:simc":21579,"addr:teryt:sym_ul":216533,"contact:phone":"+48 324210580","contact:email":"zsp.zwonowice@lyski.pl","ref:regon":"271512342","ref:vatin":"PL6422738694","operator":"Gmina Lyski","operator:type":"government","amenity":"kindergarten","note":"Parent RSPO: 12107"}},{"id":12107,"type":"Feature","geometry":{"type":"Point","coordinates":[18.4368,50.1448899]},"properties":{"ref:rspo":12107,"official_name":"Zesp\u00f3\u0142 Szkolno-Przedszkolny w Zwonowicach","name":"Zesp\u00f3\u0142 Szkolno-Przedszkolny w Zwonowicach","addr:country":"PL","addr:postcode":"44-292","addr:city":"Zwonowice","addr:street":"ul. Sumi\u0144ska","addr:housenumber":"9d","addr:teryt:simc":21579,"addr:teryt:sym_ul":216533,"contact:phone":"+48 324210133","contact:email":"zsp.zwonowice@lyski.pl","contact:website":"http:\/\/zspzwonowice.pl","ref:regon":"277601555","ref:vatin":"PL6422738694","operator":"Gmina Lyski","operator:type":"government","landuse":"education","fixme":"amenity=school, amenity=college albo landuse=education w zale\u017cno\u015bci od tego, jakie plac\u00f3wki wchodz\u0105 w sk\u0142ad zespo\u0142u. Sprawd\u017a, kiedy stosowa\u0107 amenity=* a kiedy landuse=education.","note":"Children RSPO: 17202;17203"}},{"id":17202,"type":"Feature","geometry":{"type":"Point","coordinates":[18.4368,50.1448599]},"properties":{"isced:level":"1;2","ref:rspo":17202,"official_name":"Zesp\u00f3\u0142 Szkolno-Przedszkolny w Zwonowicach - Szko\u0142a Podstawowa im. Ks. Konstantego Damrota w Zwonowicach","name":"Zesp\u00f3\u0142 Szkolno-Przedszkolny w Zwonowicach - Szko\u0142a Podstawowa","addr:country":"PL","addr:postcode":"44-292","addr:city":"Zwonowice","addr:street":"ul. Sumi\u0144ska","addr:housenumber":"9d","addr:teryt:simc":21579,"addr:teryt:sym_ul":216533,"contact:phone":"+48 324210133","contact:email":"zsp.zwonowice@lyski.pl","contact:website":"http:\/\/zsp.zwonowice.pl","ref:regon":"001191769","ref:vatin":"PL6422738694","operator":"Gmina Lyski","operator:type":"government","amenity":"school","note":"Parent RSPO: 12107"}}]}