{"type":"FeatureCollection","features":[{"id":84409,"type":"Feature","geometry":{"type":"Point","coordinates":[21.61721,51.09818]},"properties":{"ref:rspo":84409,"official_name":"Zesp\u00f3\u0142 Plac\u00f3wek O\u015bwiatowych w D\u0142ugowoli","name":"Zesp\u00f3\u0142 Plac\u00f3wek O\u015bwiatowych w D\u0142ugowoli","addr:country":"PL","addr:postcode":"27-300","addr:place":"D\u0142ugowola Pierwsza","addr:housenumber":"103","addr:teryt:sym_ul":628000,"contact:phone":"+48 483785001","contact:email":"dlugowola@op.pl","ref:regon":"145983668","ref:vatin":"PL5090015716","operator":"Miasto I Gmina Lipsko","operator:type":"government","landuse":"education","fixme":"amenity=school, amenity=college albo landuse=education w zale\u017cno\u015bci od tego, jakie plac\u00f3wki wchodz\u0105 w sk\u0142ad zespo\u0142u. Sprawd\u017a, kiedy stosowa\u0107 amenity=* a kiedy landuse=education.","note":"Children RSPO: 114557;114558"}},{"id":114557,"type":"Feature","geometry":{"type":"Point","coordinates":[21.61721,51.09815]},"properties":{"isced:level":"1;2","ref:rspo":114557,"official_name":"Publiczna Szko\u0142a Podstawowa w D\u0142ugowoli","name":"Publiczna Szko\u0142a Podstawowa w D\u0142ugowoli","addr:country":"PL","addr:postcode":"27-300","addr:place":"D\u0142ugowola Pierwsza","addr:housenumber":"103","addr:teryt:sym_ul":628000,"contact:phone":"+48 483785001","contact:email":"dlugowola@op.pl","contact:website":"http:\/\/www.dlugowola.szkolnastrona.pl","ref:regon":"001195052","operator":"Miasto I Gmina Lipsko","operator:type":"government","amenity":"school","note":"Parent RSPO: 84409"}},{"id":114558,"type":"Feature","geometry":{"type":"Point","coordinates":[21.61721,51.09812]},"properties":{"ref:rspo":114558,"official_name":"Przedszkole Publiczne Samorz\u0105dowe w D\u0142ugowoli","name":"Przedszkole Publiczne Samorz\u0105dowe w D\u0142ugowoli","addr:country":"PL","addr:postcode":"27-300","addr:place":"D\u0142ugowola Pierwsza","addr:housenumber":"103","addr:teryt:sym_ul":628000,"contact:phone":"+48 483785001","ref:regon":"670928944","operator":"Miasto I Gmina Lipsko","operator:type":"government","amenity":"kindergarten","note":"Parent RSPO: 84409"}},{"id":74170,"type":"Feature","geometry":{"type":"Point","coordinates":[21.6421199,51.15343]},"properties":{"ref:rspo":74170,"official_name":"Biblioteka Pedagogiczna w Radomiu Filia w Lipsku","name":"Biblioteka Pedagogiczna w Radomiu Filia w Lipsku","addr:country":"PL","addr:postcode":"27-300","addr:city":"Lipsko","addr:street":"ul. Biblioteczna","addr:housenumber":"3a","addr:teryt:simc":1209,"addr:teryt:sym_ul":973613,"contact:phone":"+48 483701200","contact:email":"lipsko@bp.radom.pl","contact:website":"http:\/\/www.lipsko.bp.radom.pl","ref:regon":"930868000","ref:vatin":"PL7961063028","operator":"Wojew\u00f3dztwo Mazowieckie","operator:type":"government","amenity":"library","note":"Parent RSPO: 28003"}},{"id":84410,"type":"Feature","geometry":{"type":"Point","coordinates":[21.5544,51.15365]},"properties":{"ref:rspo":84410,"official_name":"Zesp\u00f3\u0142 Plac\u00f3wek O\u015bwiatowych w Kr\u0119pie Ko\u015bcielnej","name":"Zesp\u00f3\u0142 Plac\u00f3wek O\u015bwiatowych w Kr\u0119pie Ko\u015bcielnej","addr:country":"PL","addr:postcode":"27-300","addr:place":"Kr\u0119pa Ko\u015bcielna","addr:housenumber":"48","addr:teryt:sym_ul":628193,"contact:phone":"+48 483771036","contact:email":"pspkrepa@wp.pl","contact:website":"http:\/\/pspkrepa.szkolnastrona.pl","ref:regon":"146412940","ref:vatin":"PL5090015751","operator":"Miasto I Gmina Lipsko","operator:type":"government","landuse":"education","fixme":"amenity=school, amenity=college albo landuse=education w zale\u017cno\u015bci od tego, jakie plac\u00f3wki wchodz\u0105 w sk\u0142ad zespo\u0142u. Sprawd\u017a, kiedy stosowa\u0107 amenity=* a kiedy landuse=education.","note":"Children RSPO: 114546;114555"}},{"id":114546,"type":"Feature","geometry":{"type":"Point","coordinates":[21.5544,51.15362]},"properties":{"isced:level":"1;2","ref:rspo":114546,"official_name":"Publiczna Szko\u0142a Podstawowa im. Batalion\u00f3w Ch\u0142opskich w Kr\u0119pie Ko\u015bcielnej","name":"Publiczna Szko\u0142a Podstawowa","addr:country":"PL","addr:postcode":"27-300","addr:place":"Kr\u0119pa Ko\u015bcielna","addr:housenumber":"48","addr:teryt:sym_ul":628193,"contact:phone":"+48 483771036","contact:email":"pspkrepa@wp.pl","contact:website":"http:\/\/pspkrepa.szkolnastrona.pl","ref:regon":"001194673","operator":"Miasto I Gmina Lipsko","operator:type":"government","amenity":"school","note":"Parent RSPO: 84410"}},{"id":114555,"type":"Feature","geometry":{"type":"Point","coordinates":[21.5544,51.15359]},"properties":{"ref:rspo":114555,"official_name":"Publiczne Przedszkole Samorz\u0105dowe w Kr\u0119pie Ko\u015bcielnej","name":"Publiczne Przedszkole Samorz\u0105dowe w Kr\u0119pie Ko\u015bcielnej","addr:country":"PL","addr:postcode":"27-300","addr:place":"Kr\u0119pa Ko\u015bcielna","addr:housenumber":"48","addr:teryt:sym_ul":628193,"contact:phone":"+48 483771036","ref:regon":"670928950","operator":"Miasto I Gmina Lipsko","operator:type":"government","amenity":"kindergarten","note":"Parent RSPO: 84410"}},{"id":80445,"type":"Feature","geometry":{"type":"Point","coordinates":[21.64896,51.16119]},"properties":{"ref:rspo":80445,"official_name":"Przedszkole Publiczne Samorz\u0105dowe w Lipsku","name":"Przedszkole Publiczne Samorz\u0105dowe w Lipsku","addr:country":"PL","addr:postcode":"27-300","addr:city":"Lipsko","addr:street":"ul. Partyzant\u00f3w","addr:housenumber":"6","addr:teryt:simc":15733,"addr:teryt:sym_ul":973613,"contact:phone":"+48 483780047","contact:email":"przedszkolelipsko@vp.pl","contact:website":"http:\/\/przedszkolelipsko.ipm.pl","ref:regon":"670928938","ref:vatin":"PL5090015691","operator":"Miasto I Gmina Lipsko","operator:type":"government","amenity":"kindergarten"}},{"id":17620,"type":"Feature","geometry":{"type":"Point","coordinates":[21.65123,51.16196]},"properties":{"ref:rspo":17620,"official_name":"Zesp\u00f3\u0142 Szk\u00f3\u0142 Og\u00f3lnokszta\u0142c\u0105cych I Technicznych im. Jana Paw\u0142a II w Lipsku","name":"Zesp\u00f3\u0142 Szk\u00f3\u0142 Og\u00f3lnokszta\u0142c\u0105cych I Technicznych","addr:country":"PL","addr:postcode":"27-300","addr:city":"Lipsko","addr:street":"ul. Zwole\u0144ska","addr:housenumber":"12","addr:teryt:simc":26313,"addr:teryt:sym_ul":973613,"contact:phone":"+48 483780137","contact:email":"zsplipsko@gmail.com","contact:website":"http:\/\/www.zsoit-lipsko.pl","ref:regon":"000184081","ref:vatin":"PL8111258131","operator":"Powiat Lipski","operator:type":"government","landuse":"education","fixme":"amenity=school, amenity=college albo landuse=education w zale\u017cno\u015bci od tego, jakie plac\u00f3wki wchodz\u0105 w sk\u0142ad zespo\u0142u. Sprawd\u017a, kiedy stosowa\u0107 amenity=* a kiedy landuse=education.","note":"Children RSPO: 19076;19129;19194;107166;275927;278643"}},{"id":18479,"type":"Feature","geometry":{"type":"Point","coordinates":[21.65123,51.16193]},"properties":{"ref:rspo":18479,"official_name":"Poradnia Psychologiczno-Pedagogiczna w Lipsku","name":"Poradnia Psychologiczno-Pedagogiczna w Lipsku","addr:country":"PL","addr:postcode":"27-300","addr:city":"Lipsko","addr:street":"ul. Zwole\u0144ska","addr:housenumber":"12","addr:teryt:simc":26313,"addr:teryt:sym_ul":973613,"contact:phone":"+48 483780158","contact:email":"sekretariat@poradniapplipsko.pl","contact:website":"http:\/\/www.poradniapplipsko.pl","ref:regon":"671977169","ref:vatin":"PL5090028222","operator":"Powiat Lipski","operator:type":"government","healthcare":"councelling","counselling_type":"education","fixme":"w zale\u017cno\u015bci od przedmiotu dzia\u0142alno\u015bci (np. healthcare=councelling + counselling_type=education albo healthcare=psychotherapist)"}},{"id":21713,"type":"Feature","geometry":{"type":"Point","coordinates":[21.65123,51.1619]},"properties":{"isced:level":"3","ref:rspo":21713,"official_name":"Niepubliczne Liceum Og\u00f3lnokszta\u0142c\u0105ce dla Doros\u0142ych w Lipsku Zak\u0142adu Doskonalenia Zawodowego w Kielcach","name":"Niepubliczne Liceum Og\u00f3lnokszta\u0142c\u0105ce dla Doros\u0142ych w Lipsku Zak\u0142adu Doskonalenia Zawodowego w Kielcach","addr:country":"PL","addr:postcode":"27-300","addr:city":"Lipsko","addr:street":"ul. Zwole\u0144ska","addr:housenumber":"12","addr:teryt:simc":26313,"addr:teryt:sym_ul":973613,"contact:phone":"+48 483780150","contact:email":"lipsko@zdz.kielce.pl","contact:website":"http:\/\/www.zdz.kielce.pl","ref:regon":"146377214","operator":"Zak\u0142ad Doskonalenia Zawodowego W Kielcach","operator:type":"ngo","amenity":"school"}},{"id":19076,"type":"Feature","geometry":{"type":"Point","coordinates":[21.65123,51.16187]},"properties":{"isced:level":"3","ref:rspo":19076,"official_name":"Liceum Og\u00f3lnokszta\u0142c\u0105ce w Lipsku","name":"Liceum Og\u00f3lnokszta\u0142c\u0105ce w Lipsku","addr:country":"PL","addr:postcode":"27-300","addr:city":"Lipsko","addr:street":"ul. Zwole\u0144ska","addr:housenumber":"12","addr:teryt:simc":26313,"addr:teryt:sym_ul":973613,"contact:phone":"+48 483780137","contact:email":"mmejzner1@gmail.com","contact:website":"http:\/\/www.zsplipsko.com","ref:regon":"672973890","operator":"Powiat Lipski","operator:type":"government","amenity":"school","note":"Parent RSPO: 17620"}},{"id":19129,"type":"Feature","geometry":{"type":"Point","coordinates":[21.65123,51.16184]},"properties":{"isced:level":"3","ref:rspo":19129,"official_name":"Technikum w Lipsku","name":"Technikum w Lipsku","addr:country":"PL","addr:postcode":"27-300","addr:city":"Lipsko","addr:street":"ul. Zwole\u0144ska","addr:housenumber":"12","addr:teryt:simc":26313,"addr:teryt:sym_ul":973613,"contact:phone":"+48 483780137","contact:email":"mmejzner1@gmail.com","contact:website":"http:\/\/www.zsplipsko.com","ref:regon":"672973972","operator":"Powiat Lipski","operator:type":"government","amenity":"school","note":"Parent RSPO: 17620"}},{"id":19194,"type":"Feature","geometry":{"type":"Point","coordinates":[21.65123,51.16181]},"properties":{"isced:level":"3","ref:rspo":19194,"official_name":"Bran\u017cowa Szko\u0142a I Stopnia w Lipsku","name":"Bran\u017cowa Szko\u0142a I Stopnia w Lipsku","addr:country":"PL","addr:postcode":"27-300","addr:city":"Lipsko","addr:street":"ul. Zwole\u0144ska","addr:housenumber":"12","addr:teryt:simc":26313,"addr:teryt:sym_ul":973613,"contact:phone":"+48 483780137","contact:email":"zsplipsko@gmail.com","contact:website":"http:\/\/www.zsplipsko.com","ref:regon":"672973943","operator":"Powiat Lipski","operator:type":"government","amenity":"school","note":"Parent RSPO: 17620"}},{"id":107166,"type":"Feature","geometry":{"type":"Point","coordinates":[21.65123,51.16178]},"properties":{"isced:level":"3","ref:rspo":107166,"official_name":"Liceum Og\u00f3lnokszta\u0142c\u0105ce dla Doros\u0142ych w Lipsku","name":"Liceum Og\u00f3lnokszta\u0142c\u0105ce dla Doros\u0142ych w Lipsku","addr:country":"PL","addr:postcode":"27-300","addr:city":"Lipsko","addr:street":"ul. Zwole\u0144ska","addr:housenumber":"12","addr:teryt:simc":26313,"addr:teryt:sym_ul":973613,"contact:phone":"+48 483780137","contact:email":"zsplipsko@gmail.com","contact:website":"http:\/\/www.zsplipsko.com","ref:regon":"146067086","operator":"Powiat Lipski","operator:type":"government","amenity":"school","note":"Parent RSPO: 17620"}},{"id":275927,"type":"Feature","geometry":{"type":"Point","coordinates":[21.65123,51.16175]},"properties":{"isced:level":"3","ref:rspo":275927,"official_name":"Bran\u017cowa Szko\u0142a II Stopnia w Lipsku","name":"Bran\u017cowa Szko\u0142a II Stopnia w Lipsku","addr:country":"PL","addr:postcode":"27-300","addr:city":"Lipsko","addr:street":"ul. Zwole\u0144ska","addr:housenumber":"12","addr:teryt:simc":26313,"addr:teryt:sym_ul":973613,"contact:phone":"+48 483780137","contact:email":"zsplipsko@gmail.com","contact:website":"http:\/\/www.zsoit-lipsko.pl","ref:regon":"386963794","operator":"Powiat Lipski","operator:type":"government","amenity":"school","note":"Parent RSPO: 17620"}},{"id":278643,"type":"Feature","geometry":{"type":"Point","coordinates":[21.65123,51.16172]},"properties":{"isced:level":"4","ref:rspo":278643,"official_name":"Szko\u0142a Policealna w Lipsku","name":"Szko\u0142a Policealna w Lipsku","addr:country":"PL","addr:postcode":"27-300","addr:city":"Lipsko","addr:street":"ul. Zwole\u0144ska","addr:housenumber":"12","addr:teryt:simc":26313,"addr:teryt:sym_ul":973613,"contact:phone":"+48 483780137","contact:email":"zsplipsko@gmail.com","contact:website":"http:\/\/zsoit-lipsko.pl","ref:regon":"520015743","operator":"Powiat Lipski","operator:type":"government","amenity":"college","note":"Parent RSPO: 17620"}},{"id":21569,"type":"Feature","geometry":{"type":"Point","coordinates":[21.6519,51.16237]},"properties":{"ref:rspo":21569,"official_name":"Centrum Kszta\u0142cenia Zawodowego w Lipsku Zak\u0142adu Doskonalenia Zawodowego w Kielcach","name":"Centrum Kszta\u0142cenia Zawodowego w Lipsku Zak\u0142adu Doskonalenia Zawodowego w Kielcach","addr:country":"PL","addr:postcode":"27-300","addr:city":"Lipsko","addr:street":"ul. Zwole\u0144ska","addr:housenumber":"14","addr:teryt:simc":26313,"addr:teryt:sym_ul":973613,"contact:phone":"+48 483780150","contact:email":"lipsko@zdz.kielce.pl","contact:website":"http:\/\/www.zdz.kielce.pl","ref:regon":"146324459","operator":"Zak\u0142ad Doskonalenia Zawodowego W Kielcach","operator:type":"ngo","fixme":"w zale\u017cno\u015bci od przedmiotu dzia\u0142alno\u015bci (np. amenity=training + training=*, amenity=dancing_school, amenity=language_school, amenity=music_school) albo amenity=school, amenity=college, albo landuse=education w zale\u017cno\u015bci od tego, jakie plac\u00f3wki wchodz\u0105 w sk\u0142ad zespo\u0142u. Sprawd\u017a, kiedy stosowa\u0107 amenity=* a kiedy landuse=education."}},{"id":22129,"type":"Feature","geometry":{"type":"Point","coordinates":[21.6519,51.16234]},"properties":{"isced:level":"4","ref:rspo":22129,"official_name":"Niepubliczna Szko\u0142a Policealna dla Doros\u0142ych w Lipsku Zak\u0142adu Doskonalenia Zawodowego w Kielcach","name":"Niepubliczna Szko\u0142a Policealna dla Doros\u0142ych w Lipsku Zak\u0142adu Doskonalenia Zawodowego w Kielcach","addr:country":"PL","addr:postcode":"27-300","addr:city":"Lipsko","addr:street":"ul. Zwole\u0144ska","addr:housenumber":"14","addr:teryt:simc":26313,"addr:teryt:sym_ul":973613,"contact:phone":"+48 483780150","contact:email":"lipsko@zdz.kielce.pl","contact:website":"http:\/\/www.zdz.kielce.pl","ref:regon":"146329646","operator":"Zak\u0142ad Doskonalenia Zawodowego W Kielcach","operator:type":"ngo","amenity":"college"}},{"id":84406,"type":"Feature","geometry":{"type":"Point","coordinates":[21.65203,51.16361]},"properties":{"isced:level":"1;2","ref:rspo":84406,"official_name":"Publiczna Szko\u0142a Podstawowa im. A.g. Bema w Lipsku","name":"Publiczna Szko\u0142a Podstawowa","addr:country":"PL","addr:postcode":"27-300","addr:city":"Lipsko","addr:street":"ul. Zwole\u0144ska","addr:housenumber":"16","addr:teryt:simc":26313,"addr:teryt:sym_ul":973613,"contact:phone":"+48 483780151","contact:email":"psp@lipsko.eu","contact:website":"http:\/\/sp-lipsko.szkolnastrona.pl\/","ref:regon":"000556393","ref:vatin":"PL5090015685","operator":"Miasto I Gmina Lipsko","operator:type":"government","amenity":"school"}},{"id":17405,"type":"Feature","geometry":{"type":"Point","coordinates":[21.55762,51.18847]},"properties":{"ref:rspo":17405,"official_name":"Specjalny O\u015brodek Szkolno-Wychowawczy im.kawaler\u00f3w Orderu U\u015bmiechu w Hucie","name":"Specjalny O\u015brodek Szkolno-Wychowawczy im.kawaler\u00f3w Orderu U\u015bmiechu w Hucie","addr:country":"PL","addr:postcode":"27-300","addr:place":"Huta","addr:housenumber":"3","addr:teryt:sym_ul":628075,"contact:phone":"+48 483771026","contact:email":"sosw_huta@poczta.onet.pl","contact:website":"http:\/\/www.soswhuta.szkolnastrona.pl","ref:regon":"001100086","ref:vatin":"PL8111056769","operator":"Powiat Lipski","operator:type":"government","amenity":"school","note":"Children RSPO: 18658;18779;18864"}},{"id":18658,"type":"Feature","geometry":{"type":"Point","coordinates":[21.55762,51.18844]},"properties":{"ref:rspo":18658,"official_name":"Publiczne Przedszkole Specjalne w Specjalnym O\u015brodku Szkolno - Wychowawczym I.m. Kawaler\u00f3w Orderu U\u015bmiechu w Hucie","name":"Publiczne Przedszkole Specjalne w Specjalnym O\u015brodku Szkolno - Wychowawczym I.m. Kawaler\u00f3w Orderu U\u015bmiechu w Hucie","addr:country":"PL","addr:postcode":"27-300","addr:place":"Huta","addr:housenumber":"3","addr:teryt:sym_ul":628075,"contact:phone":"+48 483771026","contact:email":"sosw_huta@poczta.onet.pl","ref:regon":"146315785","operator":"Powiat Lipski","operator:type":"government","amenity":"kindergarten","note":"Parent RSPO: 17405"}},{"id":18779,"type":"Feature","geometry":{"type":"Point","coordinates":[21.55762,51.188410000000005]},"properties":{"isced:level":"1;2","ref:rspo":18779,"official_name":"Szko\u0142a Podstawowa Specjalna w Hucie","name":"Szko\u0142a Podstawowa Specjalna w Hucie","addr:country":"PL","addr:postcode":"27-300","addr:place":"Huta","addr:housenumber":"3","addr:teryt:sym_ul":628075,"contact:phone":"+48 483771026","contact:email":"sosw_huta@poczta.onet.pl","ref:regon":"672973044","operator":"Powiat Lipski","operator:type":"government","amenity":"school","note":"Parent RSPO: 17405"}},{"id":18864,"type":"Feature","geometry":{"type":"Point","coordinates":[21.55762,51.18838]},"properties":{"ref:rspo":18864,"official_name":"Szko\u0142a Specjalna Przysposabiaj\u0105ca Do Pracy w Hucie","name":"Szko\u0142a Specjalna Przysposabiaj\u0105ca Do Pracy w Hucie","addr:country":"PL","addr:postcode":"27-300","addr:place":"Huta","addr:housenumber":"3","addr:teryt:sym_ul":628075,"contact:phone":"+48 483771026","contact:email":"sosw_huta@poczta.onet.pl","ref:regon":"140227838","operator":"Powiat Lipski","operator:type":"government","amenity":"school","note":"Parent RSPO: 17405"}},{"id":84407,"type":"Feature","geometry":{"type":"Point","coordinates":[21.70272,51.19262]},"properties":{"isced:level":"1;2","ref:rspo":84407,"official_name":"Publiczna Szko\u0142a Podstawowa im. Stefana \u017beromskiego w Woli Soleckiej Pierwszej","name":"Publiczna Szko\u0142a Podstawowa","addr:country":"PL","addr:postcode":"27-300","addr:place":"Wola Solecka Pierwsza","addr:housenumber":"173","addr:teryt:sym_ul":628508,"contact:phone":"+48 483780092","contact:email":"pspwolasolecka@op.pl","contact:website":"http:\/\/www.pspwolasolecka.pl","ref:regon":"001194549","ref:vatin":"PL5090015739","operator":"Miasto I Gmina Lipsko","operator:type":"government","amenity":"school"}}]}