{
    "type": "FeatureCollection",
    "features": [
        {
            "id": 58764,
            "type": "Feature",
            "geometry": {
                "type": "Point",
                "coordinates": [
                    21.39737,
                    51.0864199
                ]
            },
            "properties": {
                "isced:level": "1;2",
                "ref:rspo": 58764,
                "official_name": "Niepubliczna Szko\u0142a Podstawowa",
                "name": "Niepubliczna Szko\u0142a Podstawowa",
                "addr:postcode": "27-350",
                "addr:place": "Kochan\u00f3wka",
                "addr:housenumber": "83",
                "addr:teryt:simc": 636471,
                "phone": "+48 486167061",
                "email": "kochanowka1@op.pl",
                "ref:regon": "146412212",
                "ref:vatin": "PL5090006628",
                "operator": "Stowarzyszenie Rozwoju Wsi Kochan\u00f3wka",
                "operator:type": "ngo",
                "amenity": "school"
            }
        },
        {
            "id": 58932,
            "type": "Feature",
            "geometry": {
                "type": "Point",
                "coordinates": [
                    21.39737,
                    51.0863899
                ]
            },
            "properties": {
                "ref:rspo": 58932,
                "official_name": "Ma\u0142e Przedszkole w Kochan\u00f3wce",
                "name": "Ma\u0142e Przedszkole w Kochan\u00f3wce",
                "addr:postcode": "27-350",
                "addr:place": "Kochan\u00f3wka",
                "addr:housenumber": "83",
                "addr:teryt:simc": 636471,
                "phone": "+48 486167061",
                "email": "kochanowka1@op.pl",
                "ref:regon": "146371571",
                "operator": "Stowarzyszenie Rozwoju Wsi Kochan\u00f3wka",
                "operator:type": "ngo",
                "amenity": "kindergarten"
            }
        },
        {
            "id": 17383,
            "type": "Feature",
            "geometry": {
                "type": "Point",
                "coordinates": [
                    21.46663,
                    51.08852
                ]
            },
            "properties": {
                "ref:rspo": 17383,
                "official_name": "Zesp\u00f3\u0142 Szk\u00f3\u0142 Technicznych w Siennie",
                "name": "Zesp\u00f3\u0142 Szk\u00f3\u0142 Technicznych w Siennie",
                "addr:postcode": "27-350",
                "addr:city": "Sienno",
                "addr:street": "Szkolna",
                "addr:housenumber": "41",
                "addr:teryt:simc": 636650,
                "addr:teryt:sym_ul": 21970,
                "phone": "+48 483786028",
                "email": "zspsienno@gmail.com",
                "website": "http:\/\/www.zstsienno.witrynaszkolna.pl",
                "ref:regon": "000234436",
                "ref:vatin": "PL8111243566",
                "operator": "Powiat Lipski",
                "operator:type": "government",
                "landuse": "education",
                "fixme": "amenity=school, amenity=college albo landuse=education w zale\u017cno\u015bci od tego, jakie plac\u00f3wki wchodz\u0105 w sk\u0142ad zespo\u0142u. Sprawd\u017a, kiedy stosowa\u0107 amenity=* a kiedy landuse=education.",
                "note": "Children RSPO: 19314;19365;19652;128951;275929"
            }
        },
        {
            "id": 19314,
            "type": "Feature",
            "geometry": {
                "type": "Point",
                "coordinates": [
                    21.46663,
                    51.08849
                ]
            },
            "properties": {
                "isced:level": "3",
                "ref:rspo": 19314,
                "official_name": "Bran\u017cowa Szko\u0142a I Stopnia im. Ks. Mjr Stanis\u0142awa Doma\u0144skiego w Siennie",
                "name": "Bran\u017cowa Szko\u0142a I Stopnia",
                "addr:postcode": "27-350",
                "addr:city": "Sienno",
                "addr:street": "Szkolna",
                "addr:housenumber": "41",
                "addr:teryt:simc": 636650,
                "addr:teryt:sym_ul": 21970,
                "phone": "+48 483786028",
                "email": "zspsienno@gmail.com",
                "website": "http:\/\/www.zspsienno.witrynaszkolna.pl",
                "ref:regon": "140250033",
                "operator": "Powiat Lipski",
                "operator:type": "government",
                "amenity": "school",
                "note": "Parent RSPO: 17383"
            }
        },
        {
            "id": 19365,
            "type": "Feature",
            "geometry": {
                "type": "Point",
                "coordinates": [
                    21.46663,
                    51.088460000000005
                ]
            },
            "properties": {
                "isced:level": "3",
                "ref:rspo": 19365,
                "official_name": "Technikum im. Ks. Mjr Stanis\u0142awa Doma\u0144skiego w Siennie",
                "name": "Technikum",
                "addr:postcode": "27-350",
                "addr:city": "Sienno",
                "addr:street": "Szkolna",
                "addr:housenumber": "41",
                "addr:teryt:simc": 636650,
                "addr:teryt:sym_ul": 21970,
                "phone": "+48 483786028",
                "email": "zspsienno@gmail.com",
                "website": "http:\/\/www.zspsienno.witrynaszkolna.pl",
                "ref:regon": "672973848",
                "operator": "Powiat Lipski",
                "operator:type": "government",
                "amenity": "school",
                "note": "Parent RSPO: 17383"
            }
        },
        {
            "id": 19652,
            "type": "Feature",
            "geometry": {
                "type": "Point",
                "coordinates": [
                    21.46663,
                    51.08843
                ]
            },
            "properties": {
                "isced:level": "4",
                "ref:rspo": 19652,
                "official_name": "Szko\u0142a Policealna im. Ks. Mjr Stanis\u0142awa Doma\u0144skiego w Siennie",
                "name": "Szko\u0142a Policealna",
                "addr:postcode": "27-350",
                "addr:city": "Sienno",
                "addr:street": "Szkolna",
                "addr:housenumber": "41",
                "addr:teryt:simc": 636650,
                "addr:teryt:sym_ul": 21970,
                "phone": "+48 483786028",
                "email": "zspsienno@gmail.com",
                "website": "http:\/\/www.zspsienno.witrynaszkolna.pl",
                "ref:regon": "140126994",
                "operator": "Powiat Lipski",
                "operator:type": "government",
                "amenity": "college",
                "note": "Parent RSPO: 17383"
            }
        },
        {
            "id": 128951,
            "type": "Feature",
            "geometry": {
                "type": "Point",
                "coordinates": [
                    21.46663,
                    51.0884
                ]
            },
            "properties": {
                "isced:level": "3",
                "ref:rspo": 128951,
                "official_name": "Liceum Og\u00f3\u0142nokszta\u0142c\u0105ce dla Doros\u0142ych w Siennie",
                "name": "Liceum Og\u00f3\u0142nokszta\u0142c\u0105ce dla Doros\u0142ych w Siennie",
                "addr:postcode": "27-350",
                "addr:city": "Sienno",
                "addr:street": "Szkolna",
                "addr:housenumber": "41",
                "addr:teryt:simc": 636650,
                "addr:teryt:sym_ul": 21970,
                "phone": "+48 483786028",
                "email": "zspsienno@gmail.com",
                "website": "http:\/\/www.zspsienno.witrynaszkolna.pl",
                "ref:regon": "362441956",
                "operator": "Powiat Lipski",
                "operator:type": "government",
                "amenity": "school",
                "note": "Parent RSPO: 17383"
            }
        },
        {
            "id": 275929,
            "type": "Feature",
            "geometry": {
                "type": "Point",
                "coordinates": [
                    21.46663,
                    51.088370000000005
                ]
            },
            "properties": {
                "isced:level": "3",
                "ref:rspo": 275929,
                "official_name": "Bran\u017cowa Szko\u0142a II Stopnia w Siennie",
                "name": "Bran\u017cowa Szko\u0142a II Stopnia w Siennie",
                "addr:postcode": "27-350",
                "addr:city": "Sienno",
                "addr:street": "Szkolna",
                "addr:housenumber": "41",
                "addr:teryt:simc": 636650,
                "addr:teryt:sym_ul": 21970,
                "phone": "+48 483786028",
                "email": "zspsienno@gmail.com",
                "website": "http:\/\/www.zspsienno.witrynaszkolna.pl",
                "ref:regon": "386963825",
                "operator": "Powiat Lipski",
                "operator:type": "government",
                "amenity": "school",
                "note": "Parent RSPO: 17383"
            }
        },
        {
            "id": 57361,
            "type": "Feature",
            "geometry": {
                "type": "Point",
                "coordinates": [
                    21.4681399,
                    51.08885
                ]
            },
            "properties": {
                "ref:rspo": 57361,
                "official_name": "Zesp\u00f3\u0142 Szk\u00f3\u0142 Og\u00f3lnokszta\u0142c\u0105cych w Siennie",
                "name": "Zesp\u00f3\u0142 Szk\u00f3\u0142 Og\u00f3lnokszta\u0142c\u0105cych w Siennie",
                "addr:postcode": "27-350",
                "addr:city": "Sienno",
                "addr:street": "Szkolna",
                "addr:housenumber": "6",
                "addr:teryt:simc": 636650,
                "addr:teryt:sym_ul": 21970,
                "phone": "+48 483786093",
                "email": "sienno@poczta.onet.pl",
                "website": "http:\/\/www.edusienno.pl",
                "ref:regon": "000725111",
                "operator": "Gmina Sienno",
                "operator:type": "government",
                "landuse": "education",
                "fixme": "amenity=school, amenity=college albo landuse=education w zale\u017cno\u015bci od tego, jakie plac\u00f3wki wchodz\u0105 w sk\u0142ad zespo\u0142u. Sprawd\u017a, kiedy stosowa\u0107 amenity=* a kiedy landuse=education.",
                "note": "Children RSPO: 86569;86571"
            }
        },
        {
            "id": 131185,
            "type": "Feature",
            "geometry": {
                "type": "Point",
                "coordinates": [
                    21.4681399,
                    51.08882
                ]
            },
            "properties": {
                "ref:rspo": 131185,
                "official_name": "Szko\u0142a Muzyczna I Stopnia w Siennie",
                "name": "Szko\u0142a Muzyczna I Stopnia w Siennie",
                "addr:postcode": "27-350",
                "addr:city": "Sienno",
                "addr:street": "Szkolna",
                "addr:housenumber": "6",
                "addr:teryt:simc": 636650,
                "addr:teryt:sym_ul": 21970,
                "phone": "+48 483786093",
                "email": "sienno@poczta.onet.pl",
                "website": "http:\/\/www.edusienno.pl",
                "ref:regon": "365015071",
                "ref:vatin": "PL8111243419",
                "operator": "Gmina Sienno",
                "operator:type": "government",
                "amenity": "music_school"
            }
        },
        {
            "id": 86569,
            "type": "Feature",
            "geometry": {
                "type": "Point",
                "coordinates": [
                    21.4681399,
                    51.08879
                ]
            },
            "properties": {
                "isced:level": "1;2",
                "ref:rspo": 86569,
                "official_name": "Publiczna Szko\u0142a Podstawowa im.teofila Banacha w Siennie",
                "name": "Publiczna Szko\u0142a Podstawowa im.teofila Banacha w Siennie",
                "addr:postcode": "27-350",
                "addr:city": "Sienno",
                "addr:street": "Szkolna",
                "addr:housenumber": "6",
                "addr:teryt:simc": 636650,
                "addr:teryt:sym_ul": 21970,
                "phone": "+48 483786093",
                "email": "sienno@poczta.onet.pl",
                "website": "http:\/\/www.edusienno.pl",
                "ref:regon": "000556401",
                "ref:vatin": "PL8111243419",
                "operator": "Gmina Sienno",
                "operator:type": "government",
                "amenity": "school",
                "note": "Parent RSPO: 57361"
            }
        },
        {
            "id": 86571,
            "type": "Feature",
            "geometry": {
                "type": "Point",
                "coordinates": [
                    21.4681399,
                    51.08876
                ]
            },
            "properties": {
                "isced:level": "3",
                "ref:rspo": 86571,
                "official_name": "Liceum Og\u00f3lnokszta\u0142c\u0105ce im. Ks. Prof. Dr Hab. W\u0142odzimierza Sedlaka",
                "name": "Liceum Og\u00f3lnokszta\u0142c\u0105ce",
                "addr:postcode": "27-350",
                "addr:city": "Sienno",
                "addr:street": "Szkolna",
                "addr:housenumber": "6",
                "addr:teryt:simc": 636650,
                "addr:teryt:sym_ul": 21970,
                "phone": "+48 483786093",
                "email": "sienno@poczta.onet.pl",
                "website": "http:\/\/www.edusienno.pl",
                "ref:regon": "673009209",
                "ref:vatin": "PL8111243419",
                "operator": "Gmina Sienno",
                "operator:type": "government",
                "amenity": "school",
                "note": "Parent RSPO: 57361"
            }
        },
        {
            "id": 86654,
            "type": "Feature",
            "geometry": {
                "type": "Point",
                "coordinates": [
                    21.49152,
                    51.15321
                ]
            },
            "properties": {
                "isced:level": "1;2",
                "ref:rspo": 86654,
                "official_name": "Publiczna Szko\u0142a Podstawowa im.dionizego Czachowskiego w Jaworze Soleckim",
                "name": "Publiczna Szko\u0142a Podstawowa im.dionizego Czachowskiego w Jaworze Soleckim",
                "addr:postcode": "27-350",
                "addr:place": "Jawor Solecki",
                "addr:housenumber": "68",
                "addr:teryt:simc": 636353,
                "phone": "+48 483771056",
                "email": "zsjawor@home.pl",
                "website": "http:\/\/www.zsjawor.home.pl",
                "ref:regon": "001145999",
                "ref:vatin": "PL8111683265",
                "operator": "Gmina Sienno",
                "operator:type": "government",
                "amenity": "school"
            }
        }
    ]
}