{
    "type": "FeatureCollection",
    "features": [
        {
            "id": 278474,
            "type": "Feature",
            "geometry": {
                "type": "Point",
                "coordinates": [
                    21.70808,
                    51.71188
                ]
            },
            "properties": {
                "isced:level": "1;2",
                "ref:rspo": 278474,
                "official_name": "Publiczna Szko\u0142a Podstawowa w Kaleniu Drugim",
                "name": "Publiczna Szko\u0142a Podstawowa w Kaleniu Drugim",
                "addr:country": "PL",
                "addr:postcode": "08-460",
                "addr:place": "Kale\u0144 Drugi",
                "addr:housenumber": "65",
                "addr:teryt:sym_ul": 688315,
                "contact:phone": "+48 256825249",
                "contact:email": "szkolakalen@o2.pl",
                "ref:regon": "389912159",
                "ref:vatin": "PL8261861024",
                "operator": "Stowarzyszenie Ziemi Sobolewskiej \"Rozwijamy\"",
                "operator:type": "ngo",
                "amenity": "school"
            }
        },
        {
            "id": 64780,
            "type": "Feature",
            "geometry": {
                "type": "Point",
                "coordinates": [
                    21.6617,
                    51.7372
                ]
            },
            "properties": {
                "ref:rspo": 64780,
                "official_name": "Publiczne Przedszkole w Sobolewie\nJa\u015b I Ma\u0142gosia",
                "name": "Publiczne Przedszkole w Sobolewie\nJa\u015b I Ma\u0142gosia",
                "addr:country": "PL",
                "addr:postcode": "08-460",
                "addr:city": "Sobolew",
                "addr:street": "ul. kard. Wyszy\u0144skiego",
                "addr:housenumber": "42",
                "addr:teryt:simc": 25103,
                "addr:teryt:sym_ul": 688427,
                "contact:email": "ppsobolew@wp.pl",
                "ref:regon": "710006355",
                "ref:vatin": "PL8261861260",
                "operator": "Gmina Sobolew",
                "operator:type": "government",
                "amenity": "kindergarten"
            }
        },
        {
            "id": 74441,
            "type": "Feature",
            "geometry": {
                "type": "Point",
                "coordinates": [
                    21.6709299,
                    51.73936
                ]
            },
            "properties": {
                "ref:rspo": 74441,
                "official_name": "Zesp\u00f3\u0142 Szk\u00f3\u0142 Ponadpodstawowych im. Tadeusza Ko\u015bciuszki w Sobolewie",
                "name": "Zesp\u00f3\u0142 Szk\u00f3\u0142 Ponadpodstawowych",
                "addr:country": "PL",
                "addr:postcode": "08-460",
                "addr:city": "Sobolew",
                "addr:street": "ul. Ko\u015bciuszki",
                "addr:housenumber": "19",
                "addr:teryt:simc": 9572,
                "addr:teryt:sym_ul": 688427,
                "contact:phone": "+48 256825049",
                "contact:email": "poczta@losobolew.pl",
                "contact:website": "http:\/\/www.losobolew.pl",
                "ref:regon": "712082076",
                "ref:vatin": "PL8261102583",
                "operator": "Powiat Garwoli\u0144ski",
                "operator:type": "government",
                "landuse": "education",
                "fixme": "amenity=school, amenity=college albo landuse=education w zale\u017cno\u015bci od tego, jakie plac\u00f3wki wchodz\u0105 w sk\u0142ad zespo\u0142u. Sprawd\u017a, kiedy stosowa\u0107 amenity=* a kiedy landuse=education.",
                "note": "Children RSPO: 109161;109406;109833"
            }
        },
        {
            "id": 109161,
            "type": "Feature",
            "geometry": {
                "type": "Point",
                "coordinates": [
                    21.6709299,
                    51.739329999999995
                ]
            },
            "properties": {
                "isced:level": "3",
                "ref:rspo": 109161,
                "official_name": "Bran\u017cowa Szko\u0142a I Stopnia w Sobolewie",
                "name": "Bran\u017cowa Szko\u0142a I Stopnia w Sobolewie",
                "addr:country": "PL",
                "addr:postcode": "08-460",
                "addr:city": "Sobolew",
                "addr:street": "ul. Ko\u015bciuszki",
                "addr:housenumber": "19",
                "addr:teryt:simc": 9572,
                "addr:teryt:sym_ul": 688427,
                "contact:phone": "+48 256825049",
                "contact:email": "poczta@losobolew.pl",
                "contact:website": "http:\/\/www.losobolew.pl",
                "ref:regon": "712102063",
                "operator": "Powiat Garwoli\u0144ski",
                "operator:type": "government",
                "amenity": "school",
                "note": "Parent RSPO: 74441"
            }
        },
        {
            "id": 109406,
            "type": "Feature",
            "geometry": {
                "type": "Point",
                "coordinates": [
                    21.6709299,
                    51.7393
                ]
            },
            "properties": {
                "isced:level": "3",
                "ref:rspo": 109406,
                "official_name": "Liceum Og\u00f3lnokszta\u0142c\u0105ce im. Tadeusza Ko\u015bciuszki w Sobolewie",
                "name": "Liceum Og\u00f3lnokszta\u0142c\u0105ce",
                "addr:country": "PL",
                "addr:postcode": "08-460",
                "addr:city": "Sobolew",
                "addr:street": "ul. Ko\u015bciuszki",
                "addr:housenumber": "19",
                "addr:teryt:simc": 9572,
                "addr:teryt:sym_ul": 688427,
                "contact:phone": "+48 256825049",
                "contact:email": "poczta@losobolew.pl",
                "contact:website": "http:\/\/www.losobolew.pl",
                "ref:regon": "712082892",
                "operator": "Powiat Garwoli\u0144ski",
                "operator:type": "government",
                "amenity": "school",
                "note": "Parent RSPO: 74441"
            }
        },
        {
            "id": 109833,
            "type": "Feature",
            "geometry": {
                "type": "Point",
                "coordinates": [
                    21.6709299,
                    51.73927
                ]
            },
            "properties": {
                "isced:level": "3",
                "ref:rspo": 109833,
                "official_name": "Liceum Og\u00f3lnokszta\u0142c\u0105ce dla Doros\u0142ych w Sobolewie",
                "name": "Liceum Og\u00f3lnokszta\u0142c\u0105ce dla Doros\u0142ych w Sobolewie",
                "addr:country": "PL",
                "addr:postcode": "08-460",
                "addr:city": "Sobolew",
                "addr:street": "ul. Ko\u015bciuszki",
                "addr:housenumber": "19",
                "addr:teryt:simc": 9572,
                "addr:teryt:sym_ul": 688427,
                "contact:phone": "+48 256825049",
                "contact:email": "poczta@losobolew.pl",
                "contact:website": "http:\/\/www.losobolew.pl",
                "ref:regon": "712104240",
                "operator": "Powiat Garwoli\u0144ski",
                "operator:type": "government",
                "amenity": "school",
                "note": "Parent RSPO: 74441"
            }
        },
        {
            "id": 64769,
            "type": "Feature",
            "geometry": {
                "type": "Point",
                "coordinates": [
                    21.6715,
                    51.73946
                ]
            },
            "properties": {
                "isced:level": "1;2",
                "ref:rspo": 64769,
                "official_name": "Publiczna Szko\u0142a Podstawowa im. Henryka Sienkiewicza w Sobolewie",
                "name": "Publiczna Szko\u0142a Podstawowa",
                "addr:country": "PL",
                "addr:postcode": "08-460",
                "addr:city": "Sobolew",
                "addr:street": "ul. Ko\u015bciuszki",
                "addr:housenumber": "17",
                "addr:teryt:simc": 9572,
                "addr:teryt:sym_ul": 688427,
                "contact:phone": "+48 256825679",
                "contact:email": "podstawowa.sobolew@wp.pl",
                "contact:website": "http:\/\/szkola-sobolew.pl",
                "ref:regon": "000718045",
                "ref:vatin": "PL8261460911",
                "operator": "Gmina Sobolew",
                "operator:type": "government",
                "amenity": "school"
            }
        },
        {
            "id": 64774,
            "type": "Feature",
            "geometry": {
                "type": "Point",
                "coordinates": [
                    21.70881,
                    51.75815
                ]
            },
            "properties": {
                "isced:level": "1;2",
                "ref:rspo": 64774,
                "official_name": "Publiczna Szko\u0142a Podstawowa w Sokole",
                "name": "Publiczna Szko\u0142a Podstawowa w Sokole",
                "addr:country": "PL",
                "addr:postcode": "08-460",
                "addr:place": "Sok\u00f3\u0142",
                "addr:housenumber": "49",
                "addr:teryt:sym_ul": 688539,
                "contact:phone": "+48 256825321",
                "contact:email": "szkolasokol49@wp.pl",
                "contact:website": "http:\/\/szkolasokol.edu.pl",
                "ref:regon": "001128191",
                "ref:vatin": "PL8261551507",
                "operator": "Gmina Sobolew",
                "operator:type": "government",
                "amenity": "school"
            }
        },
        {
            "id": 74437,
            "type": "Feature",
            "geometry": {
                "type": "Point",
                "coordinates": [
                    21.67632,
                    51.77043
                ]
            },
            "properties": {
                "ref:rspo": 74437,
                "official_name": "Specjalny O\u015brodek Szkolno-Wychowawczy w Przy\u0142\u0119ku",
                "name": "Specjalny O\u015brodek Szkolno-Wychowawczy w Przy\u0142\u0119ku",
                "addr:country": "PL",
                "addr:postcode": "08-460",
                "addr:place": "Przy\u0142\u0119k",
                "addr:housenumber": "25",
                "addr:teryt:sym_ul": 688404,
                "contact:phone": "+48 256833602",
                "contact:email": "sosw25@onet.pl",
                "contact:website": "http:\/\/www.sosw25.pl",
                "ref:regon": "000891358",
                "ref:vatin": "PL8261734320",
                "operator": "Powiat Garwoli\u0144ski",
                "operator:type": "government",
                "amenity": "school",
                "note": "Children RSPO: 110988"
            }
        },
        {
            "id": 110988,
            "type": "Feature",
            "geometry": {
                "type": "Point",
                "coordinates": [
                    21.67632,
                    51.770399999999995
                ]
            },
            "properties": {
                "isced:level": "1;2",
                "ref:rspo": 110988,
                "official_name": "Szko\u0142a Podstawowa Specjalna w Przy\u0142\u0119ku",
                "name": "Szko\u0142a Podstawowa Specjalna w Przy\u0142\u0119ku",
                "addr:country": "PL",
                "addr:postcode": "08-460",
                "addr:place": "Przy\u0142\u0119k",
                "addr:housenumber": "25",
                "addr:teryt:sym_ul": 688404,
                "contact:phone": "+48 256833602",
                "contact:email": "sosw25@onet.pl",
                "contact:website": "http:\/\/www.sosw25.pl",
                "ref:regon": "712370289",
                "operator": "Powiat Garwoli\u0144ski",
                "operator:type": "government",
                "amenity": "school",
                "note": "Parent RSPO: 74437"
            }
        },
        {
            "id": 278430,
            "type": "Feature",
            "geometry": {
                "type": "Point",
                "coordinates": [
                    21.77503,
                    51.77545
                ]
            },
            "properties": {
                "isced:level": "1;2",
                "ref:rspo": 278430,
                "official_name": "Publiczna Szko\u0142a Podstawowa w Anielowie",
                "name": "Publiczna Szko\u0142a Podstawowa w Anielowie",
                "addr:country": "PL",
                "addr:postcode": "08-460",
                "addr:place": "Aniel\u00f3w",
                "addr:housenumber": "16",
                "addr:teryt:sym_ul": 688172,
                "contact:phone": "+48 256818990",
                "contact:email": "anielowszkola@o2.pl",
                "ref:regon": "389886309",
                "ref:vatin": "PL8261476007",
                "operator": "Stowarzyszenie Ziemi Sobolewskiej \"Rozwijamy\"",
                "operator:type": "ngo",
                "amenity": "school"
            }
        },
        {
            "id": 104067,
            "type": "Feature",
            "geometry": {
                "type": "Point",
                "coordinates": [
                    21.72497,
                    51.78044
                ]
            },
            "properties": {
                "ref:rspo": 104067,
                "official_name": "Zesp\u00f3\u0142 Szkolno-Przedszkolny w Go\u0144czycach",
                "name": "Zesp\u00f3\u0142 Szkolno-Przedszkolny w Go\u0144czycach",
                "addr:country": "PL",
                "addr:postcode": "08-460",
                "addr:place": "Go\u0144czyce",
                "addr:housenumber": "106",
                "addr:teryt:sym_ul": 688255,
                "contact:phone": "+48 256833631",
                "contact:email": "sekretariat@zsgonczyce.pl",
                "ref:regon": "712538234",
                "ref:vatin": "PL8261531686",
                "operator": "Gmina Sobolew",
                "operator:type": "government",
                "landuse": "education",
                "fixme": "amenity=school, amenity=college albo landuse=education w zale\u017cno\u015bci od tego, jakie plac\u00f3wki wchodz\u0105 w sk\u0142ad zespo\u0142u. Sprawd\u017a, kiedy stosowa\u0107 amenity=* a kiedy landuse=education.",
                "note": "Children RSPO: 104837;106023"
            }
        },
        {
            "id": 104837,
            "type": "Feature",
            "geometry": {
                "type": "Point",
                "coordinates": [
                    21.72497,
                    51.780409999999996
                ]
            },
            "properties": {
                "ref:rspo": 104837,
                "official_name": "Publiczne Przedszkole w Go\u0144czycach",
                "name": "Publiczne Przedszkole w Go\u0144czycach",
                "addr:country": "PL",
                "addr:postcode": "08-460",
                "addr:place": "Go\u0144czyce",
                "addr:housenumber": "106",
                "addr:teryt:sym_ul": 688255,
                "contact:phone": "+48 256833631",
                "ref:regon": "710006361",
                "operator": "Gmina Sobolew",
                "operator:type": "government",
                "amenity": "kindergarten",
                "note": "Parent RSPO: 104067"
            }
        },
        {
            "id": 106023,
            "type": "Feature",
            "geometry": {
                "type": "Point",
                "coordinates": [
                    21.72497,
                    51.78038
                ]
            },
            "properties": {
                "isced:level": "1;2",
                "ref:rspo": 106023,
                "official_name": "Publiczna Szko\u0142a w Go\u0144czycach",
                "name": "Publiczna Szko\u0142a w Go\u0144czycach",
                "addr:country": "PL",
                "addr:postcode": "08-460",
                "addr:place": "Go\u0144czyce",
                "addr:housenumber": "106",
                "addr:teryt:sym_ul": 688255,
                "contact:phone": "+48 256833631",
                "contact:email": "sekretariat@zsgonczyce.pl",
                "contact:website": "http:\/\/www.zsgonczyce.pl",
                "ref:regon": "001128162",
                "operator": "Gmina Sobolew",
                "operator:type": "government",
                "amenity": "school",
                "note": "Parent RSPO: 104067"
            }
        },
        {
            "id": 124655,
            "type": "Feature",
            "geometry": {
                "type": "Point",
                "coordinates": [
                    21.69354,
                    51.79822
                ]
            },
            "properties": {
                "isced:level": "1;2",
                "ref:rspo": 124655,
                "official_name": "Niepubliczna Szko\u0142a Podstawowa Ku\u017ania Talent\u00f3w w Chotyni",
                "name": "Niepubliczna Szko\u0142a Podstawowa Ku\u017ania Talent\u00f3w w Chotyni",
                "addr:country": "PL",
                "addr:postcode": "08-460",
                "addr:place": "Chotynia",
                "addr:housenumber": "33",
                "addr:teryt:sym_ul": 688195,
                "contact:phone": "+48 604377786",
                "contact:email": "aga_glasek@o2.pl",
                "ref:regon": "147402730",
                "operator": "Agnieszka G\u0142asek",
                "operator:type": "private",
                "amenity": "school"
            }
        },
        {
            "id": 132085,
            "type": "Feature",
            "geometry": {
                "type": "Point",
                "coordinates": [
                    21.69354,
                    51.79819
                ]
            },
            "properties": {
                "ref:rspo": 132085,
                "official_name": "Przedszkole Niepubliczne Puchatkowo Oddzia\u0142 w Chotyni",
                "name": "Przedszkole Niepubliczne Puchatkowo Oddzia\u0142 w Chotyni",
                "addr:country": "PL",
                "addr:postcode": "08-460",
                "addr:place": "Chotynia",
                "addr:housenumber": "33",
                "addr:teryt:sym_ul": 688195,
                "contact:phone": "+48 604377786",
                "contact:email": "ada_glasek@o2.pl",
                "ref:regon": "365453807",
                "operator": "Agnieszka G\u0142asek",
                "operator:type": "private",
                "amenity": "kindergarten"
            }
        }
    ]
}