{
    "type": "FeatureCollection",
    "features": [
        {
            "id": 90601,
            "type": "Feature",
            "geometry": {
                "type": "Point",
                "coordinates": [
                    21.82674,
                    51.78666
                ]
            },
            "properties": {
                "isced:level": "1;2",
                "ref:rspo": 90601,
                "official_name": "Szko\u0142a Podstawowa im. Tadeusza Ko\u015bciuszki w Stefanowie",
                "name": "Szko\u0142a Podstawowa",
                "addr:postcode": "08-430",
                "addr:place": "Stefan\u00f3w",
                "addr:housenumber": "108",
                "addr:teryt:simc": 697018,
                "phone": "+48 256290571",
                "email": "spstefanow@interia.pl",
                "ref:regon": "001135541",
                "ref:vatin": "PL8262099475",
                "operator": "Gmina \u017belech\u00f3w",
                "operator:type": "government",
                "amenity": "school"
            }
        },
        {
            "id": 82486,
            "type": "Feature",
            "geometry": {
                "type": "Point",
                "coordinates": [
                    21.86316,
                    51.79139
                ]
            },
            "properties": {
                "isced:level": "1;2",
                "ref:rspo": 82486,
                "official_name": "Szko\u0142a Podstawowa im. Henryka Sienkiewicza w Starym K\u0119b\u0142owie",
                "name": "Szko\u0142a Podstawowa",
                "addr:postcode": "08-430",
                "addr:place": "Stary K\u0119b\u0142\u00f3w",
                "addr:housenumber": "23",
                "addr:teryt:simc": 696987,
                "phone": "+48 257541124",
                "email": "spkeblow23@op.pl",
                "ref:regon": "001135535",
                "ref:vatin": "PL8261873613",
                "operator": "Gmina \u017belech\u00f3w",
                "operator:type": "government",
                "amenity": "school"
            }
        },
        {
            "id": 131122,
            "type": "Feature",
            "geometry": {
                "type": "Point",
                "coordinates": [
                    21.84435,
                    51.8013199
                ]
            },
            "properties": {
                "ref:rspo": 131122,
                "official_name": "Niepubliczna Poradnia Psychologiczno-Pedagogiczna w \u017belechowie",
                "name": "Niepubliczna Poradnia Psychologiczno-Pedagogiczna w \u017belechowie",
                "addr:postcode": "08-430",
                "addr:place": "Wola \u017belechowska",
                "addr:housenumber": "105 A",
                "addr:teryt:simc": 697136,
                "phone": "+48 609619327",
                "email": "kamola@pro.onet.pl",
                "ref:regon": "364955926",
                "operator": "Medi-Kam Sp\u00f3\u0142ka Z Ograniczon\u0105 Odpowiedzialno\u015bci\u0105",
                "operator:type": "private",
                "healthcare": "counselling",
                "counselling_type": "education",
                "fixme": "w zale\u017cno\u015bci od przedmiotu dzia\u0142alno\u015bci (np. healthcare=counselling + counselling_type=education albo healthcare=psychotherapist)"
            }
        },
        {
            "id": 83315,
            "type": "Feature",
            "geometry": {
                "type": "Point",
                "coordinates": [
                    21.83156,
                    51.81134
                ]
            },
            "properties": {
                "isced:level": "1;2",
                "ref:rspo": 83315,
                "official_name": "Szko\u0142a Podstawowa w Woli \u017belechowskiej",
                "name": "Szko\u0142a Podstawowa w Woli \u017belechowskiej",
                "addr:postcode": "08-430",
                "addr:place": "Wola \u017belechowska",
                "addr:housenumber": "10",
                "addr:teryt:simc": 697136,
                "phone": "+48 257541302",
                "email": "nauczyciele.wola@op.pl",
                "ref:regon": "001226309",
                "ref:vatin": "PL8261873352",
                "operator": "Gmina \u017belech\u00f3w",
                "operator:type": "government",
                "amenity": "school"
            }
        },
        {
            "id": 91141,
            "type": "Feature",
            "geometry": {
                "type": "Point",
                "coordinates": [
                    21.90482,
                    51.81159
                ]
            },
            "properties": {
                "isced:level": "1;2",
                "ref:rspo": 91141,
                "official_name": "Szko\u0142a Podstawowa im. Romualda Traugutta w \u017belechowie",
                "name": "Szko\u0142a Podstawowa",
                "addr:postcode": "08-430",
                "addr:city": "\u017belech\u00f3w",
                "addr:street": "Ogrodowa",
                "addr:housenumber": "3",
                "addr:teryt:simc": 975983,
                "addr:teryt:sym_ul": 14834,
                "phone": "+48 257541315",
                "email": "zs_ogrodowazelechow@o2.pl",
                "website": "http:\/\/www.spzelechow.pl",
                "ref:regon": "000718140",
                "ref:vatin": "PL8262099481",
                "operator": "Gmina \u017belech\u00f3w",
                "operator:type": "government",
                "amenity": "school"
            }
        },
        {
            "id": 108868,
            "type": "Feature",
            "geometry": {
                "type": "Point",
                "coordinates": [
                    21.90184,
                    51.8117
                ]
            },
            "properties": {
                "isced:level": "3",
                "ref:rspo": 108868,
                "official_name": "Liceum Og\u00f3lnokszta\u0142c\u0105ce im. Joachima Lelewela w \u017belechowie",
                "name": "Liceum Og\u00f3lnokszta\u0142c\u0105ce",
                "addr:postcode": "08-430",
                "addr:city": "\u017belech\u00f3w",
                "addr:street": "Szkolna",
                "addr:housenumber": "3",
                "addr:teryt:simc": 975983,
                "addr:teryt:sym_ul": 21970,
                "phone": "+48 257541034",
                "email": "lo_zelechow@poczta.onet.pl",
                "website": "http:\/\/www.lelewelzelechow.net",
                "ref:regon": "712006610",
                "operator": "Powiat Garwoli\u0144ski",
                "operator:type": "government",
                "amenity": "school"
            }
        },
        {
            "id": 83314,
            "type": "Feature",
            "geometry": {
                "type": "Point",
                "coordinates": [
                    21.90382,
                    51.81205
                ]
            },
            "properties": {
                "ref:rspo": 83314,
                "official_name": "Publiczne Przedszkole Pluszowy Mi\u015b w \u017belechowie Ul. Ogrodowa 1",
                "name": "Publiczne Przedszkole Pluszowy Mi\u015b w \u017belechowie Ul. Ogrodowa 1",
                "addr:postcode": "08-430",
                "addr:city": "\u017belech\u00f3w",
                "addr:street": "Ogrodowa",
                "addr:housenumber": "1",
                "addr:teryt:simc": 975983,
                "addr:teryt:sym_ul": 14834,
                "phone": "+48 257541033",
                "email": "ppzelechow@o2.pl",
                "ref:regon": "712543070",
                "ref:vatin": "PL8261873375",
                "operator": "Gmina \u017belech\u00f3w",
                "operator:type": "government",
                "amenity": "kindergarten"
            }
        },
        {
            "id": 52525,
            "type": "Feature",
            "geometry": {
                "type": "Point",
                "coordinates": [
                    21.89835,
                    51.81238
                ]
            },
            "properties": {
                "ref:rspo": 52525,
                "official_name": "Zesp\u00f3\u0142 Szk\u00f3\u0142 Ponadpodstawowych im. Ignacego Wyssogoty Zakrzewskiego w \u017belechowie",
                "name": "Zesp\u00f3\u0142 Szk\u00f3\u0142 Ponadpodstawowych",
                "addr:postcode": "08-430",
                "addr:city": "\u017belech\u00f3w",
                "addr:street": "Marsza\u0142ka J\u00f3zefa Pi\u0142sudskiego",
                "addr:housenumber": "45",
                "addr:teryt:simc": 975983,
                "addr:teryt:sym_ul": 36029,
                "phone": "+48 257541169",
                "email": "szkola@zspzelechow.pl",
                "website": "http:\/\/www.zspzelechow.pl",
                "ref:regon": "000181674",
                "ref:vatin": "PL8261405792",
                "operator": "Powiat Garwoli\u0144ski",
                "operator:type": "government",
                "landuse": "education",
                "fixme": "amenity=school, amenity=college albo landuse=education w zale\u017cno\u015bci od tego, jakie plac\u00f3wki wchodz\u0105 w sk\u0142ad zespo\u0142u. Sprawd\u017a, kiedy stosowa\u0107 amenity=* a kiedy landuse=education.",
                "note": "Children RSPO: 109231;109381"
            }
        },
        {
            "id": 109231,
            "type": "Feature",
            "geometry": {
                "type": "Point",
                "coordinates": [
                    21.89835,
                    51.812349999999995
                ]
            },
            "properties": {
                "isced:level": "3",
                "ref:rspo": 109231,
                "official_name": "Bran\u017cowa Szko\u0142a I Stopnia w \u017belechowie",
                "name": "Bran\u017cowa Szko\u0142a I Stopnia w \u017belechowie",
                "addr:postcode": "08-430",
                "addr:city": "\u017belech\u00f3w",
                "addr:street": "Marsza\u0142ka J\u00f3zefa Pi\u0142sudskiego",
                "addr:housenumber": "45",
                "addr:teryt:simc": 975983,
                "addr:teryt:sym_ul": 36029,
                "phone": "+48 257541169",
                "email": "szkola@zspzelechow.pl",
                "website": "http:\/\/www.zspzelechow.pl",
                "ref:regon": "712369560",
                "operator": "Powiat Garwoli\u0144ski",
                "operator:type": "government",
                "amenity": "school",
                "note": "Parent RSPO: 52525"
            }
        },
        {
            "id": 109381,
            "type": "Feature",
            "geometry": {
                "type": "Point",
                "coordinates": [
                    21.89835,
                    51.81232
                ]
            },
            "properties": {
                "isced:level": "3",
                "ref:rspo": 109381,
                "official_name": "Technikum w \u017belechowie",
                "name": "Technikum w \u017belechowie",
                "addr:postcode": "08-400",
                "addr:city": "\u017belech\u00f3w",
                "addr:street": "Marsza\u0142ka J\u00f3zefa Pi\u0142sudskiego",
                "addr:housenumber": "45",
                "addr:teryt:simc": 975983,
                "addr:teryt:sym_ul": 36029,
                "phone": "+48 257541169",
                "email": "szkola@zspzelechow.pl",
                "website": "http:\/\/www.zspzelechow.pl",
                "ref:regon": "712486780",
                "operator": "Powiat Garwoli\u0144ski",
                "operator:type": "government",
                "amenity": "school",
                "note": "Parent RSPO: 52525"
            }
        },
        {
            "id": 82484,
            "type": "Feature",
            "geometry": {
                "type": "Point",
                "coordinates": [
                    21.83431,
                    51.83244
                ]
            },
            "properties": {
                "isced:level": "1;2",
                "ref:rspo": 82484,
                "official_name": "Szko\u0142a Podstawowa im.ks.jana Twardowskiego w Starym Goniwilku",
                "name": "Szko\u0142a Podstawowa im.ks.jana Twardowskiego w Starym Goniwilku",
                "addr:postcode": "08-430",
                "addr:place": "Stary Goniwilk",
                "addr:housenumber": "41",
                "addr:teryt:simc": 696958,
                "phone": "+48 257541297",
                "email": "spgoniwilk@poczta.onet.pl",
                "ref:regon": "001135529",
                "ref:vatin": "PL8261873636",
                "operator": "Gmina \u017belech\u00f3w",
                "operator:type": "government",
                "amenity": "school"
            }
        }
    ]
}