{
    "type": "FeatureCollection",
    "features": [
        {
            "id": 48608,
            "type": "Feature",
            "geometry": {
                "type": "Point",
                "coordinates": [
                    21.648216247559,
                    51.825885772705
                ]
            },
            "properties": {
                "isced:level": "1;2",
                "ref:rspo": 48608,
                "official_name": "Szko\u0142a Podstawowa im. Or\u0142a Bia\u0142ego w Micha\u0142\u00f3wce",
                "name": "Szko\u0142a Podstawowa",
                "addr:country": "PL",
                "addr:postcode": "08-400",
                "addr:place": "Micha\u0142\u00f3wka",
                "addr:housenumber": "3",
                "addr:teryt:simc": 670976,
                "contact:phone": "+48 256822375",
                "contact:email": "spmichalowka@garwolin-gmina.pl",
                "contact:website": "http:\/\/www.michalowka.edu.pl",
                "ref:regon": "000720088",
                "operator": "Gmina Garwolin",
                "operator:type": "government",
                "amenity": "school"
            }
        },
        {
            "id": 50851,
            "type": "Feature",
            "geometry": {
                "type": "Point",
                "coordinates": [
                    21.648216247559,
                    51.825855772705
                ]
            },
            "properties": {
                "ref:rspo": 50851,
                "official_name": "Publicze Przedszkole \"Le\u015bne Skrzaty\" w Micha\u0142\u00f3wce",
                "name": "Publicze Przedszkole \"Le\u015bne Skrzaty\" w Micha\u0142\u00f3wce",
                "addr:country": "PL",
                "addr:postcode": "08-400",
                "addr:place": "Micha\u0142\u00f3wka",
                "addr:housenumber": "3",
                "addr:teryt:simc": 670976,
                "contact:phone": "+48 256824521",
                "contact:email": "ppmichalowka@garwolin-gmina.pl",
                "ref:regon": "710006183",
                "ref:vatin": "PL8261871459",
                "operator": "Gmina Garwolin",
                "operator:type": "government",
                "amenity": "kindergarten"
            }
        },
        {
            "id": 83952,
            "type": "Feature",
            "geometry": {
                "type": "Point",
                "coordinates": [
                    21.648216247559,
                    51.825825772705
                ]
            },
            "properties": {
                "isced:level": "1;2",
                "ref:rspo": 83952,
                "official_name": "Szko\u0142a Filialna w Krystynie",
                "name": "Szko\u0142a Filialna w Krystynie",
                "addr:country": "PL",
                "addr:postcode": "08-410",
                "addr:place": "Krystyna",
                "addr:housenumber": "78A",
                "addr:teryt:simc": 670999,
                "contact:phone": "+48 256231080",
                "contact:email": "zspwolarebkowska@garwolin-gmina.pl",
                "ref:regon": "111760300",
                "ref:vatin": "PL8261871732",
                "operator": "Gmina Garwolin",
                "operator:type": "government",
                "amenity": "school",
                "note": "Parent RSPO: 50849"
            }
        },
        {
            "id": 49298,
            "type": "Feature",
            "geometry": {
                "type": "Point",
                "coordinates": [
                    21.5989,
                    51.85537
                ]
            },
            "properties": {
                "isced:level": "1;2",
                "ref:rspo": 49298,
                "official_name": "Szko\u0142a Podstawowa im. Ks. Bronis\u0142awa Markiewicza w Rudzie Talubskiej",
                "name": "Szko\u0142a Podstawowa",
                "addr:country": "PL",
                "addr:postcode": "08-400",
                "addr:city": "Ruda Talubska",
                "addr:street": "Akacjowa",
                "addr:housenumber": "10",
                "addr:teryt:simc": 671183,
                "addr:teryt:sym_ul": 157,
                "contact:phone": "+48 257531797",
                "contact:email": "sprudatalubska@garwolin-gmina.pl",
                "contact:website": "http:\/\/www.zsrt.pl",
                "ref:regon": "001117589",
                "operator": "Gmina Garwolin",
                "operator:type": "government",
                "amenity": "school"
            }
        },
        {
            "id": 49963,
            "type": "Feature",
            "geometry": {
                "type": "Point",
                "coordinates": [
                    21.51575,
                    51.85602
                ]
            },
            "properties": {
                "isced:level": "1;2",
                "ref:rspo": 49963,
                "official_name": "Szko\u0142a Podstawowa im. Marii W\u00f3jcik w Wilkowyi",
                "name": "Szko\u0142a Podstawowa",
                "addr:country": "PL",
                "addr:postcode": "08-410",
                "addr:place": "Wilkowyja",
                "addr:housenumber": "48",
                "addr:teryt:simc": 671409,
                "contact:phone": "+48 256814308",
                "contact:email": "spwilkowyja@garwolin-gmina.pl",
                "ref:regon": "001117595",
                "ref:vatin": "PL8261873174",
                "operator": "Gmina Garwolin",
                "operator:type": "government",
                "amenity": "school"
            }
        },
        {
            "id": 124785,
            "type": "Feature",
            "geometry": {
                "type": "Point",
                "coordinates": [
                    21.631460189819,
                    51.864398956299
                ]
            },
            "properties": {
                "ref:rspo": 124785,
                "official_name": "Niepubliczne Przedszkole \"Bajkolandia\" w Sulbinach",
                "name": "Niepubliczne Przedszkole \"Bajkolandia\" w Sulbinach",
                "addr:country": "PL",
                "addr:postcode": "08-400",
                "addr:city": "Sulbiny",
                "addr:street": "D\u0119bowa",
                "addr:housenumber": "3 B",
                "addr:teryt:simc": 671272,
                "addr:teryt:sym_ul": 3811,
                "contact:phone": "+48 600882927",
                "contact:email": "anet1411@o2.pl",
                "ref:regon": "147405480",
                "ref:vatin": "PL8261774644",
                "operator": "Aneta Jurkowska",
                "operator:type": "private",
                "amenity": "kindergarten"
            }
        },
        {
            "id": 49892,
            "type": "Feature",
            "geometry": {
                "type": "Point",
                "coordinates": [
                    21.55837,
                    51.88236
                ]
            },
            "properties": {
                "isced:level": "1;2",
                "ref:rspo": 49892,
                "official_name": "Szko\u0142a Podstawowa im. Armii Krajowej w R\u0119bkowie",
                "name": "Szko\u0142a Podstawowa",
                "addr:country": "PL",
                "addr:postcode": "08-410",
                "addr:city": "R\u0119bk\u00f3w",
                "addr:street": "Starowiejska",
                "addr:housenumber": "8",
                "addr:teryt:simc": 671125,
                "addr:teryt:sym_ul": 20998,
                "contact:phone": "+48 256815161",
                "contact:email": "sprebkow@garwolin-gmina.pl",
                "contact:website": "http:\/\/www.szkolarebkow.edupage.org",
                "ref:regon": "001117572",
                "ref:vatin": "PL8261871442",
                "operator": "Gmina Garwolin",
                "operator:type": "government",
                "amenity": "school"
            }
        },
        {
            "id": 49720,
            "type": "Feature",
            "geometry": {
                "type": "Point",
                "coordinates": [
                    21.42715,
                    51.8944199
                ]
            },
            "properties": {
                "isced:level": "1;2",
                "ref:rspo": 49720,
                "official_name": "Szko\u0142a Podstawowa w Woli W\u0142adys\u0142awowskiej",
                "name": "Szko\u0142a Podstawowa w Woli W\u0142adys\u0142awowskiej",
                "addr:country": "PL",
                "addr:postcode": "08-410",
                "addr:place": "Wola W\u0142adys\u0142awowska",
                "addr:housenumber": "27",
                "addr:teryt:simc": 671527,
                "contact:phone": "+48 256231369",
                "contact:email": "spwolawladyslawowska@garwolin-gmina.pl",
                "ref:regon": "001117610",
                "ref:vatin": "PL8261873139",
                "operator": "Gmina Garwolin",
                "operator:type": "government",
                "amenity": "school"
            }
        },
        {
            "id": 123219,
            "type": "Feature",
            "geometry": {
                "type": "Point",
                "coordinates": [
                    21.557673,
                    51.9026913
                ]
            },
            "properties": {
                "ref:rspo": 123219,
                "official_name": "Zesp\u00f3\u0142 Szkolno-Przedszkolny w Woli R\u0119bkowskiej",
                "name": "Zesp\u00f3\u0142 Szkolno-Przedszkolny w Woli R\u0119bkowskiej",
                "addr:country": "PL",
                "addr:postcode": "08-410",
                "addr:city": "Wola R\u0119bkowska",
                "addr:street": "D\u0142uga",
                "addr:housenumber": "90",
                "addr:teryt:simc": 671473,
                "addr:teryt:sym_ul": 3839,
                "contact:phone": "+48 256815213",
                "contact:email": "zspwolarebkowska@garwolin-gmina.pl",
                "ref:regon": "147275533",
                "ref:vatin": "PL8262190827",
                "operator": "Gmina Garwolin",
                "operator:type": "government",
                "landuse": "education",
                "fixme": "amenity=school, amenity=college albo landuse=education w zale\u017cno\u015bci od tego, jakie plac\u00f3wki wchodz\u0105 w sk\u0142ad zespo\u0142u. Sprawd\u017a, kiedy stosowa\u0107 amenity=* a kiedy landuse=education.",
                "note": "Children RSPO: 50849;50850"
            }
        },
        {
            "id": 50849,
            "type": "Feature",
            "geometry": {
                "type": "Point",
                "coordinates": [
                    21.557673,
                    51.9026613
                ]
            },
            "properties": {
                "isced:level": "1;2",
                "ref:rspo": 50849,
                "official_name": "Szko\u0142a Podstawowa im. \u015aw. Jana Paw\u0142a II w Woli R\u0119bkowskiej w Zespole Szkolno-Przedszkolnym w Woli R\u0119bkowskiej",
                "name": "Szko\u0142a Podstawowa",
                "addr:country": "PL",
                "addr:postcode": "08-410",
                "addr:city": "Wola R\u0119bkowska",
                "addr:street": "D\u0142uga",
                "addr:housenumber": "90",
                "addr:teryt:simc": 671473,
                "addr:teryt:sym_ul": 3839,
                "contact:phone": "+48 256815213",
                "contact:email": "zspwolarebkowska@wp.pl",
                "ref:regon": "001117603",
                "ref:vatin": "PL8262190827",
                "operator": "Gmina Garwolin",
                "operator:type": "government",
                "amenity": "school",
                "note": "Children RSPO: 83952Parent RSPO: 123219"
            }
        },
        {
            "id": 50850,
            "type": "Feature",
            "geometry": {
                "type": "Point",
                "coordinates": [
                    21.557673,
                    51.9026313
                ]
            },
            "properties": {
                "ref:rspo": 50850,
                "official_name": "Publiczne Przedszkole \"S\u0142oneczko\" w Woli R\u0119bkowskiej",
                "name": "Publiczne Przedszkole \"S\u0142oneczko\" w Woli R\u0119bkowskiej",
                "addr:country": "PL",
                "addr:postcode": "08-410",
                "addr:city": "Wola R\u0119bkowska",
                "addr:street": "D\u0142uga",
                "addr:housenumber": "90",
                "addr:teryt:simc": 671473,
                "addr:teryt:sym_ul": 3839,
                "contact:phone": "+48 256815213",
                "contact:email": "zspwolarebkowska@wp.pl",
                "ref:regon": "710006190",
                "ref:vatin": "PL8261873197",
                "operator": "Gmina Garwolin",
                "operator:type": "government",
                "amenity": "kindergarten",
                "note": "Parent RSPO: 123219"
            }
        },
        {
            "id": 52701,
            "type": "Feature",
            "geometry": {
                "type": "Point",
                "coordinates": [
                    21.58019,
                    51.9199
                ]
            },
            "properties": {
                "ref:rspo": 52701,
                "official_name": "Zesp\u00f3\u0142 Szk\u00f3\u0142 im. Stanis\u0142awa Staszica w Mi\u0119tnem",
                "name": "Zesp\u00f3\u0142 Szk\u00f3\u0142",
                "addr:country": "PL",
                "addr:postcode": "08-400",
                "addr:city": "Mi\u0119tne",
                "addr:street": "G\u0142\u00f3wna",
                "addr:housenumber": "49",
                "addr:teryt:simc": 671020,
                "addr:teryt:sym_ul": 5635,
                "contact:phone": "+48 256823081",
                "contact:email": "mietne@wp.pl",
                "contact:website": "http:\/\/www.mietne.edu.pl",
                "ref:regon": "000097382",
                "ref:vatin": "PL8261386623",
                "operator": "Powiat Garwoli\u0144ski",
                "operator:type": "government",
                "landuse": "education",
                "fixme": "amenity=school, amenity=college albo landuse=education w zale\u017cno\u015bci od tego, jakie plac\u00f3wki wchodz\u0105 w sk\u0142ad zespo\u0142u. Sprawd\u017a, kiedy stosowa\u0107 amenity=* a kiedy landuse=education.",
                "note": "Children RSPO: 108997;109004"
            }
        },
        {
            "id": 108997,
            "type": "Feature",
            "geometry": {
                "type": "Point",
                "coordinates": [
                    21.58019,
                    51.919869999999996
                ]
            },
            "properties": {
                "isced:level": "3",
                "ref:rspo": 108997,
                "official_name": "Bran\u017cowa Szko\u0142a I Stopnia w Mi\u0119tnem",
                "name": "Bran\u017cowa Szko\u0142a I Stopnia w Mi\u0119tnem",
                "addr:country": "PL",
                "addr:postcode": "08-400",
                "addr:city": "Mi\u0119tne",
                "addr:street": "G\u0142\u00f3wna",
                "addr:housenumber": "49",
                "addr:teryt:simc": 671020,
                "addr:teryt:sym_ul": 5635,
                "contact:phone": "+48 256823088",
                "contact:email": "mietne@wp.pl",
                "contact:website": "http:\/\/www.mietne.edu.pl",
                "ref:regon": "712549634",
                "operator": "Powiat Garwoli\u0144ski",
                "operator:type": "government",
                "amenity": "school",
                "note": "Parent RSPO: 52701"
            }
        },
        {
            "id": 109004,
            "type": "Feature",
            "geometry": {
                "type": "Point",
                "coordinates": [
                    21.58019,
                    51.91984
                ]
            },
            "properties": {
                "isced:level": "3",
                "ref:rspo": 109004,
                "official_name": "Technikum w Mi\u0119tnem",
                "name": "Technikum w Mi\u0119tnem",
                "addr:country": "PL",
                "addr:postcode": "08-400",
                "addr:city": "Mi\u0119tne",
                "addr:street": "G\u0142\u00f3wna",
                "addr:housenumber": "49",
                "addr:teryt:simc": 671020,
                "addr:teryt:sym_ul": 5635,
                "contact:phone": "+48 256823088",
                "contact:email": "mietne@wp.pl",
                "contact:website": "http:\/\/www.mietne.edu.pl",
                "ref:regon": "142003422",
                "operator": "Powiat Garwoli\u0144ski",
                "operator:type": "government",
                "amenity": "school",
                "note": "Parent RSPO: 52701"
            }
        }
    ]
}