{
    "type": "FeatureCollection",
    "features": [
        {
            "id": 274331,
            "type": "Feature",
            "geometry": {
                "type": "Point",
                "coordinates": [
                    21.47321,
                    51.94276
                ]
            },
            "properties": {
                "ref:rspo": 274331,
                "official_name": "Centrum Kszta\u0142cenia Ustawicznego Akademia \u0141ucznica",
                "name": "Centrum Kszta\u0142cenia Ustawicznego Akademia \u0141ucznica",
                "addr:country": "PL",
                "addr:postcode": "08-440",
                "addr:place": "\u0141ucznica",
                "addr:housenumber": "12",
                "addr:teryt:sym_ul": 683950,
                "contact:phone": "+48 256231408",
                "contact:email": "biuro.lucznica@gmail.com",
                "contact:website": "http:\/\/www.lucznica.org.pl",
                "ref:regon": "385579987",
                "operator": "Stowarzyszenie \"Akademia \u0141ucznica\"",
                "operator:type": "ngo",
                "fixme": "w zale\u017cno\u015bci od przedmiotu dzia\u0142alno\u015bci (np. amenity=training + training=*, amenity=dancing_school, amenity=language_school, amenity=music_school)"
            }
        },
        {
            "id": 49924,
            "type": "Feature",
            "geometry": {
                "type": "Point",
                "coordinates": [
                    21.5897599,
                    51.94953
                ]
            },
            "properties": {
                "isced:level": "1;2",
                "ref:rspo": 49924,
                "official_name": "Publiczna Szko\u0142a Podstawowa im. Juliana Tuwima w Tr\u0105bkach",
                "name": "Publiczna Szko\u0142a Podstawowa",
                "addr:country": "PL",
                "addr:postcode": "08-440",
                "addr:city": "Tr\u0105bki",
                "addr:street": "Osadnicza",
                "addr:housenumber": "4",
                "addr:teryt:simc": 15227,
                "addr:teryt:sym_ul": 684010,
                "contact:phone": "+48 256854890",
                "contact:email": "psptrabki@wp.pl",
                "contact:website": "http:\/\/www.psptrabki.szkolnastrona.pl",
                "ref:regon": "001135328",
                "ref:vatin": "PL8261871583",
                "operator": "Miasto I Gmina Pilawa",
                "operator:type": "government",
                "amenity": "school"
            }
        },
        {
            "id": 57252,
            "type": "Feature",
            "geometry": {
                "type": "Point",
                "coordinates": [
                    21.52882,
                    51.95831
                ]
            },
            "properties": {
                "ref:rspo": 57252,
                "official_name": "Przedszkole Samorz\u0105dowe im. Misia Uszatka w Pilawie",
                "name": "Przedszkole Samorz\u0105dowe",
                "addr:country": "PL",
                "addr:postcode": "08-440",
                "addr:city": "Pilawa",
                "addr:street": "Wojska Polskiego",
                "addr:housenumber": "4",
                "addr:teryt:simc": 24628,
                "addr:teryt:sym_ul": 975753,
                "contact:phone": "+48 256856135",
                "contact:email": "przedszkole_pilawa@onet.pl",
                "contact:website": "http:\/\/www.przedszkolemisiauszatka.pl",
                "ref:regon": "711672137",
                "ref:vatin": "PL8261873501",
                "operator": "Miasto I Gmina Pilawa",
                "operator:type": "government",
                "amenity": "kindergarten"
            }
        },
        {
            "id": 77607,
            "type": "Feature",
            "geometry": {
                "type": "Point",
                "coordinates": [
                    21.52689,
                    51.96049
                ]
            },
            "properties": {
                "isced:level": "1;2",
                "ref:rspo": 77607,
                "official_name": "Publiczna Szko\u0142a Podstawowa im. H. Sienkiewicza w Pilawie",
                "name": "Publiczna Szko\u0142a Podstawowa",
                "addr:country": "PL",
                "addr:postcode": "08-440",
                "addr:city": "Pilawa",
                "addr:street": "Le\u015bna",
                "addr:housenumber": "6",
                "addr:teryt:simc": 10898,
                "addr:teryt:sym_ul": 975753,
                "contact:phone": "+48 256856101",
                "contact:email": "sekretariat5@o2.pl",
                "contact:website": "http:\/\/www.psppilawaedupage.org",
                "ref:regon": "000593721",
                "ref:vatin": "PL8261871554",
                "operator": "Miasto I Gmina Pilawa",
                "operator:type": "government",
                "amenity": "school"
            }
        },
        {
            "id": 271558,
            "type": "Feature",
            "geometry": {
                "type": "Point",
                "coordinates": [
                    21.52689,
                    51.96046
                ]
            },
            "properties": {
                "isced:level": "3",
                "ref:rspo": 271558,
                "official_name": "Liceum Og\u00f3lnokszta\u0142c\u0105ce w Pilawie",
                "name": "Liceum Og\u00f3lnokszta\u0142c\u0105ce w Pilawie",
                "addr:country": "PL",
                "addr:postcode": "08-440",
                "addr:city": "Pilawa",
                "addr:street": "Le\u015bna",
                "addr:housenumber": "6",
                "addr:teryt:simc": 10898,
                "addr:teryt:sym_ul": 975753,
                "contact:phone": "+48 256856700",
                "contact:email": "szkola-pilawa@neostrada.pl",
                "ref:regon": "383408833",
                "operator": "Miasto I Gmina Pilawa",
                "operator:type": "government",
                "amenity": "school"
            }
        },
        {
            "id": 70923,
            "type": "Feature",
            "geometry": {
                "type": "Point",
                "coordinates": [
                    21.5604799,
                    51.97319
                ]
            },
            "properties": {
                "isced:level": "1;2",
                "ref:rspo": 70923,
                "official_name": "Publiczna Szko\u0142a Podstawowa w Puzn\u00f3wce",
                "name": "Publiczna Szko\u0142a Podstawowa w Puzn\u00f3wce",
                "addr:country": "PL",
                "addr:postcode": "08-440",
                "addr:place": "Puzn\u00f3wka",
                "addr:housenumber": "136",
                "addr:teryt:sym_ul": 684004,
                "contact:phone": "+48 256856102",
                "contact:email": "sppuznowka@o2.pl",
                "contact:website": "http:\/\/www.sppuznowka.szkolnastrona.pl",
                "ref:regon": "001135311",
                "ref:vatin": "PL8261871560",
                "operator": "Miasto I Gmina Pilawa",
                "operator:type": "government",
                "amenity": "school"
            }
        },
        {
            "id": 70925,
            "type": "Feature",
            "geometry": {
                "type": "Point",
                "coordinates": [
                    21.55303,
                    52.01042
                ]
            },
            "properties": {
                "isced:level": "1;2",
                "ref:rspo": 70925,
                "official_name": "Publiczna Szko\u0142a Podstawowa im. Kardyna\u0142a Stefana Wyszy\u0144skiego w Goc\u0142awiu",
                "name": "Publiczna Szko\u0142a Podstawowa",
                "addr:country": "PL",
                "addr:postcode": "08-440",
                "addr:city": "Goc\u0142aw",
                "addr:street": "Szkolna",
                "addr:housenumber": "2",
                "addr:teryt:simc": 21970,
                "addr:teryt:sym_ul": 683884,
                "contact:phone": "+48 256855857",
                "contact:email": "pspgoclaw@gazeta.pl",
                "contact:website": "http:\/\/www.spgoclaw.cba.pl",
                "ref:regon": "001135305",
                "ref:vatin": "PL8261871608",
                "operator": "Miasto I Gmina Pilawa",
                "operator:type": "government",
                "amenity": "school"
            }
        }
    ]
}