{
    "type": "FeatureCollection",
    "features": [
        {
            "id": 263757,
            "type": "Feature",
            "geometry": {
                "type": "Point",
                "coordinates": [
                    21.40164,
                    51.82484
                ]
            },
            "properties": {
                "isced:level": "1;2",
                "ref:rspo": 263757,
                "official_name": "Niepubliczna Szko\u0142a Podstawowa Specjalna im. Macieja Lewczuka Przy O\u015brodku Socjoterapeutycznym \"Wsp\u00f3lny Dom\" w Wildze",
                "name": "Niepubliczna Szko\u0142a Podstawowa Specjalna",
                "addr:postcode": "08-470",
                "addr:city": "Osiedle Wilga",
                "addr:street": "Plac My\u015bliwski",
                "addr:housenumber": "1",
                "addr:city:simc": 694095,
                "addr:street:sym_ul": 53250,
                "phone": "+48 256853150",
                "email": "wilga.szkola@wp.pl",
                "website": "http:\/\/www.wspolnydom-wilga.pl",
                "ref:regon": "368219845",
                "operator": "Stowarzyszenie Przyjaci\u00f3\u0142 O\u015brodka Socjoterapeutycznego \"Wsp\u00f3lny Dom\" W Wildze",
                "operator:type": "ngo",
                "amenity": "school"
            }
        },
        {
            "id": 272813,
            "type": "Feature",
            "geometry": {
                "type": "Point",
                "coordinates": [
                    21.40164,
                    51.82481
                ]
            },
            "properties": {
                "isced:level": "3",
                "ref:rspo": 272813,
                "official_name": "Niepubliczne Liceum Og\u00f3lnokszta\u0142c\u0105ce Specjalne Przy O\u015brodku Socjoterapeutycznym Wsp\u00f3lny Dom w Wildze",
                "name": "Niepubliczne Liceum Og\u00f3lnokszta\u0142c\u0105ce Specjalne Przy O\u015brodku Socjoterapeutycznym Wsp\u00f3lny Dom w Wildze",
                "addr:postcode": "08-470",
                "addr:city": "Osiedle Wilga",
                "addr:street": "Plac My\u015bliwski",
                "addr:housenumber": "1",
                "addr:city:simc": 694095,
                "addr:street:sym_ul": 53250,
                "phone": "+48 256853150",
                "email": "wilga.szkola@wp.pl",
                "website": "http:\/\/wspolnydom-wilga.pl",
                "ref:regon": "384294521",
                "operator": "Stowarzyszenie Przyjaci\u00f3\u0142 O\u015brodka Socjoterapeutycznego \"Wsp\u00f3lny Dom\" W Wildze",
                "operator:type": "ngo",
                "amenity": "school",
                "note": "Parent RSPO: 62112"
            }
        },
        {
            "id": 30397,
            "type": "Feature",
            "geometry": {
                "type": "Point",
                "coordinates": [
                    21.48619,
                    51.83822
                ]
            },
            "properties": {
                "isced:level": "1;2",
                "ref:rspo": 30397,
                "official_name": "Publiczna Szko\u0142a Podstawowa w \u017babie\u0144cu",
                "name": "Publiczna Szko\u0142a Podstawowa w \u017babie\u0144cu",
                "addr:postcode": "08-470",
                "addr:place": "Nowy \u017babieniec",
                "addr:housenumber": "2",
                "addr:city:simc": 693977,
                "phone": "+48 256814383",
                "email": "spzabieniec2003@wp.pl",
                "ref:regon": "001137178",
                "ref:vatin": "PL8261873518",
                "operator": "Gmina Wilga",
                "operator:type": "government",
                "amenity": "school"
            }
        },
        {
            "id": 62112,
            "type": "Feature",
            "geometry": {
                "type": "Point",
                "coordinates": [
                    21.409679412842,
                    51.840511322021
                ]
            },
            "properties": {
                "ref:rspo": 62112,
                "official_name": "O\u015brodek Socjoterapeutyczny \"Wsp\u00f3lny Dom\" w Wildze",
                "name": "O\u015brodek Socjoterapeutyczny \"Wsp\u00f3lny Dom\" w Wildze",
                "addr:postcode": "08-470",
                "addr:city": "Osiedle Wilga",
                "addr:street": "Plac My\u015bliwski",
                "addr:housenumber": "1",
                "addr:city:simc": 694095,
                "addr:street:sym_ul": 33271,
                "phone": "+48 256853150",
                "email": "oswdom@wp.pl",
                "website": "http:\/\/www.wspolnydom-wilga.pl",
                "ref:regon": "146399428",
                "operator": "Stowarzyszenie Przyjaci\u00f3\u0142 O\u015brodka Socjoterapeutycznego \"Wsp\u00f3lny Dom\" W Wildze",
                "operator:type": "ngo",
                "fixme": "amenity=social_facility + social_facility=group_home + social_facility:for=juvenile",
                "note": "Children RSPO: 272813"
            }
        },
        {
            "id": 2990,
            "type": "Feature",
            "geometry": {
                "type": "Point",
                "coordinates": [
                    21.37729,
                    51.8514399
                ]
            },
            "properties": {
                "ref:rspo": 2990,
                "official_name": "Publiczne Przedszkole w Wildze",
                "name": "Publiczne Przedszkole w Wildze",
                "addr:postcode": "08-470",
                "addr:city": "Wilga",
                "addr:street": "Adama Mickiewicza",
                "addr:housenumber": "8",
                "addr:city:simc": 694310,
                "addr:street:sym_ul": 12740,
                "phone": "+48 256820356",
                "email": "przedszkole@przedszkolewilga.edu.pl",
                "website": "http:\/\/www.przedszkolewilga.edu.pl",
                "ref:regon": "142719385",
                "ref:vatin": "PL8261877350",
                "operator": "Gmina Wilga",
                "operator:type": "government",
                "amenity": "kindergarten"
            }
        },
        {
            "id": 30457,
            "type": "Feature",
            "geometry": {
                "type": "Point",
                "coordinates": [
                    21.37729,
                    51.8514099
                ]
            },
            "properties": {
                "isced:level": "1;2",
                "ref:rspo": 30457,
                "official_name": "Publiczna Szko\u0142a Podstawowa im. Adama Mickiewicza w Wildze",
                "name": "Publiczna Szko\u0142a Podstawowa",
                "addr:postcode": "08-470",
                "addr:city": "Wilga",
                "addr:street": "Adama Mickiewicza",
                "addr:housenumber": "8",
                "addr:city:simc": 694310,
                "addr:street:sym_ul": 12740,
                "phone": "+48 256853103",
                "email": "spwilga@wp.pl",
                "ref:regon": "000554000",
                "ref:vatin": "PL8261873412",
                "operator": "Gmina Wilga",
                "operator:type": "government",
                "amenity": "school"
            }
        },
        {
            "id": 31138,
            "type": "Feature",
            "geometry": {
                "type": "Point",
                "coordinates": [
                    21.33069,
                    51.85258
                ]
            },
            "properties": {
                "isced:level": "1;2",
                "ref:rspo": 31138,
                "official_name": "Publiczna Szko\u0142a Podstawowa w K\u0119pie Celejowskiej",
                "name": "Publiczna Szko\u0142a Podstawowa w K\u0119pie Celejowskiej",
                "addr:postcode": "08-470",
                "addr:place": "Zakrzew",
                "addr:housenumber": "37",
                "addr:city:simc": 694362,
                "phone": "+48 256853111",
                "email": "spkepacelejowska@gmail.com",
                "website": "http:\/\/spzakrzew.szkolnastrona.pl",
                "ref:regon": "001137155",
                "ref:vatin": "PL8261873547",
                "operator": "Gmina Wilga",
                "operator:type": "government",
                "amenity": "school"
            }
        },
        {
            "id": 52822,
            "type": "Feature",
            "geometry": {
                "type": "Point",
                "coordinates": [
                    21.46584,
                    51.86145
                ]
            },
            "properties": {
                "ref:rspo": 52822,
                "official_name": "Specjalny O\u015brodek Szkolno-Wychowawczy im. Marii Konopnickiej w Trzciance",
                "name": "Specjalny O\u015brodek Szkolno-Wychowawczy",
                "addr:postcode": "08-470",
                "addr:place": "Trzcianka",
                "addr:housenumber": "95",
                "addr:city:simc": 694178,
                "phone": "+48 256814091",
                "email": "sosw12@op.pl",
                "website": "http:\/\/www.soswtrzcianka.pl",
                "ref:regon": "000891341",
                "ref:vatin": "PL8261170768",
                "operator": "Powiat Garwoli\u0144ski",
                "operator:type": "government",
                "amenity": "school",
                "note": "Children RSPO: 128338;263686"
            }
        },
        {
            "id": 128338,
            "type": "Feature",
            "geometry": {
                "type": "Point",
                "coordinates": [
                    21.46584,
                    51.861419999999995
                ]
            },
            "properties": {
                "ref:rspo": 128338,
                "official_name": "Szko\u0142a Specjalna Przysposabiaj\u0105ca Do Pracy w Trzciance",
                "name": "Szko\u0142a Specjalna Przysposabiaj\u0105ca Do Pracy w Trzciance",
                "addr:postcode": "08-470",
                "addr:place": "Trzcianka",
                "addr:housenumber": "95",
                "addr:city:simc": 694178,
                "phone": "+48 256814091",
                "email": "sosw12@op.pl",
                "website": "http:\/\/www.soswtrzcianka.pl",
                "ref:regon": "362235470",
                "operator": "Powiat Garwoli\u0144ski",
                "operator:type": "government",
                "amenity": "school",
                "note": "Parent RSPO: 52822"
            }
        },
        {
            "id": 263686,
            "type": "Feature",
            "geometry": {
                "type": "Point",
                "coordinates": [
                    21.46584,
                    51.86139
                ]
            },
            "properties": {
                "isced:level": "1;2",
                "ref:rspo": 263686,
                "official_name": "Szko\u0142a Podstawowa Specjalna w Trzciance",
                "name": "Szko\u0142a Podstawowa Specjalna w Trzciance",
                "addr:postcode": "08-470",
                "addr:place": "Trzcianka",
                "addr:housenumber": "95",
                "addr:city:simc": 694178,
                "phone": "+48 256814091",
                "email": "sosw12@op.pl",
                "website": "http:\/\/www.soswtrzcianka.pl\/",
                "ref:regon": "368217071",
                "operator": "Powiat Garwoli\u0144ski",
                "operator:type": "government",
                "amenity": "school",
                "note": "Parent RSPO: 52822"
            }
        },
        {
            "id": 264204,
            "type": "Feature",
            "geometry": {
                "type": "Point",
                "coordinates": [
                    21.47074,
                    51.86175
                ]
            },
            "properties": {
                "ref:rspo": 264204,
                "official_name": "Integracyjny Punkt Przedszkolny \"Bratki\"",
                "name": "Integracyjny Punkt Przedszkolny \"Bratki\"",
                "addr:postcode": "08-470",
                "addr:place": "Trzcianka",
                "addr:housenumber": "82",
                "addr:city:simc": 694178,
                "phone": "+48 516120094",
                "email": "mariamich@autograf.pl",
                "ref:regon": "368285010",
                "operator": "Stowarzyszenie Fiore",
                "operator:type": "ngo",
                "amenity": "kindergarten"
            }
        },
        {
            "id": 31103,
            "type": "Feature",
            "geometry": {
                "type": "Point",
                "coordinates": [
                    21.33668,
                    51.88405
                ]
            },
            "properties": {
                "isced:level": "1;2",
                "ref:rspo": 31103,
                "official_name": "Publiczna Szko\u0142a Podstawowa im. O. Stanis\u0142awa Papczy\u0144skiego w Maria\u0144skim Porzeczu",
                "name": "Publiczna Szko\u0142a Podstawowa",
                "addr:postcode": "08-470",
                "addr:place": "Maria\u0144skie Porzecze",
                "addr:housenumber": "36",
                "addr:city:simc": 693925,
                "phone": "+48 256835695",
                "email": "spmarporz@wp.pl",
                "ref:regon": "001137161",
                "ref:vatin": "PL8261873429",
                "operator": "Gmina Wilga",
                "operator:type": "government",
                "amenity": "school"
            }
        }
    ]
}