{
    "type": "FeatureCollection",
    "features": [
        {
            "id": 53818,
            "type": "Feature",
            "geometry": {
                "type": "Point",
                "coordinates": [
                    21.6001,
                    51.7886499
                ]
            },
            "properties": {
                "ref:rspo": 53818,
                "official_name": "Zesp\u00f3\u0142 Szk\u00f3\u0142 Nr 2 w \u0141askarzewie",
                "name": "Zesp\u00f3\u0142 Szk\u00f3\u0142 Nr 2 w \u0141askarzewie",
                "addr:country": "PL",
                "addr:postcode": "08-450",
                "addr:city": "\u0141askarzew",
                "addr:street": "ul. Kolejowa",
                "addr:housenumber": "13",
                "addr:teryt:simc": 8828,
                "addr:teryt:sym_ul": 975434,
                "contact:phone": "+48 256845060",
                "contact:email": "2gim_laskarzew@wp.pl",
                "ref:regon": "140463869",
                "ref:vatin": "PL8261873470",
                "operator": "Miasto \u0141askarzew",
                "operator:type": "government",
                "landuse": "education",
                "fixme": "amenity=school, amenity=college albo landuse=education w zale\u017cno\u015bci od tego, jakie plac\u00f3wki wchodz\u0105 w sk\u0142ad zespo\u0142u. Sprawd\u017a, kiedy stosowa\u0107 amenity=* a kiedy landuse=education.",
                "note": "Children RSPO: 58899;58900"
            }
        },
        {
            "id": 74445,
            "type": "Feature",
            "geometry": {
                "type": "Point",
                "coordinates": [
                    21.6001,
                    51.7886199
                ]
            },
            "properties": {
                "isced:level": "3",
                "ref:rspo": 74445,
                "official_name": "Liceum Og\u00f3lnokszta\u0142c\u0105ce dla Doros\u0142ych w \u0141askarzewie",
                "name": "Liceum Og\u00f3lnokszta\u0142c\u0105ce dla Doros\u0142ych w \u0141askarzewie",
                "addr:country": "PL",
                "addr:postcode": "08-450",
                "addr:city": "\u0141askarzew",
                "addr:street": "ul. Kolejowa",
                "addr:housenumber": "13",
                "addr:teryt:simc": 8828,
                "addr:teryt:sym_ul": 975434,
                "contact:phone": "+48 256845060",
                "ref:regon": "146399575",
                "operator": "Joanna Dzioba",
                "operator:type": "private",
                "amenity": "school"
            }
        },
        {
            "id": 272806,
            "type": "Feature",
            "geometry": {
                "type": "Point",
                "coordinates": [
                    21.6001,
                    51.788589900000005
                ]
            },
            "properties": {
                "isced:level": "3",
                "ref:rspo": 272806,
                "official_name": "Zaoczne Liceum Og\u00f3lnokszta\u0142c\u0105ce w \u0141askarzewie",
                "name": "Zaoczne Liceum Og\u00f3lnokszta\u0142c\u0105ce w \u0141askarzewie",
                "addr:country": "PL",
                "addr:postcode": "08-450",
                "addr:city": "\u0141askarzew",
                "addr:street": "ul. Kolejowa",
                "addr:housenumber": "13",
                "addr:teryt:simc": 8828,
                "addr:teryt:sym_ul": 975434,
                "contact:phone": "+48 696469922",
                "contact:email": "marcin_matusiak111@wp.pl",
                "ref:regon": "384293562",
                "operator": "Marcin Matusiak",
                "operator:type": "private",
                "amenity": "school"
            }
        },
        {
            "id": 58899,
            "type": "Feature",
            "geometry": {
                "type": "Point",
                "coordinates": [
                    21.6001,
                    51.7885599
                ]
            },
            "properties": {
                "isced:level": "3",
                "ref:rspo": 58899,
                "official_name": "Bran\u017cowa Szko\u0142a I Stopnia w \u0141askarzewie,",
                "name": "Bran\u017cowa Szko\u0142a I Stopnia w \u0141askarzewie,",
                "addr:country": "PL",
                "addr:postcode": "08-450",
                "addr:city": "\u0141askarzew",
                "addr:street": "ul. Kolejowa",
                "addr:housenumber": "13",
                "addr:teryt:simc": 8828,
                "addr:teryt:sym_ul": 975434,
                "contact:phone": "+48 256845960",
                "contact:email": "2gim_laskarzew@wp.pl",
                "contact:website": "https:\/\/sp2laskarzew.pl",
                "ref:regon": "710438244",
                "ref:vatin": "PL8261873493",
                "operator": "Miasto \u0141askarzew",
                "operator:type": "government",
                "amenity": "school",
                "note": "Parent RSPO: 53818"
            }
        },
        {
            "id": 58900,
            "type": "Feature",
            "geometry": {
                "type": "Point",
                "coordinates": [
                    21.6001,
                    51.7885299
                ]
            },
            "properties": {
                "isced:level": "1;2",
                "ref:rspo": 58900,
                "official_name": "Szko\u0142a Podstawowa Nr 2 im. Jana Paw\u0142a II w \u0141askarzewie",
                "name": "Szko\u0142a Podstawowa Nr 2",
                "addr:country": "PL",
                "addr:postcode": "08-450",
                "addr:city": "\u0141askarzew",
                "addr:street": "ul. Kolejowa",
                "addr:housenumber": "13",
                "addr:teryt:simc": 8828,
                "addr:teryt:sym_ul": 975434,
                "contact:phone": "+48 256845060",
                "contact:email": "2gim_laskarzew@wp.pl",
                "contact:website": "https:\/\/splaskarzew.pl",
                "ref:regon": "001135104",
                "operator": "Miasto \u0141askarzew",
                "operator:type": "government",
                "amenity": "school",
                "note": "Parent RSPO: 53818"
            }
        },
        {
            "id": 53810,
            "type": "Feature",
            "geometry": {
                "type": "Point",
                "coordinates": [
                    21.58818,
                    51.79153
                ]
            },
            "properties": {
                "ref:rspo": 53810,
                "official_name": "Publiczne Przedszkole \"Le\u015bny Zak\u0105tek\" \nUl. Alejowa 23A, 08-450 \u0141askarzew",
                "name": "Publiczne Przedszkole \"Le\u015bny Zak\u0105tek\" \nUl. Alejowa 23A, 08-450 \u0141askarzew",
                "addr:country": "PL",
                "addr:postcode": "08-450",
                "addr:city": "\u0141askarzew",
                "addr:street": "ul. Alejowa",
                "addr:housenumber": "23",
                "addr:door": "A",
                "addr:teryt:simc": 219,
                "addr:teryt:sym_ul": 975434,
                "contact:phone": "+48 256845012",
                "contact:email": "laskarzewprzedszkole@gmail.com",
                "contact:website": "http:\/\/laskarzewprzedszkole.pl",
                "ref:regon": "712543353",
                "ref:vatin": "PL8261390694",
                "operator": "Miasto \u0141askarzew",
                "operator:type": "government",
                "amenity": "kindergarten"
            }
        },
        {
            "id": 53817,
            "type": "Feature",
            "geometry": {
                "type": "Point",
                "coordinates": [
                    21.58818,
                    51.7915
                ]
            },
            "properties": {
                "ref:rspo": 53817,
                "official_name": "Zesp\u00f3\u0142 Szk\u00f3\u0142 Nr 1 im. Szarych Szereg\u00f3w w \u0141askarzewie",
                "name": "Zesp\u00f3\u0142 Szk\u00f3\u0142 Nr 1",
                "addr:country": "PL",
                "addr:postcode": "08-450",
                "addr:city": "\u0141askarzew",
                "addr:street": "ul. Alejowa",
                "addr:housenumber": "23",
                "addr:teryt:simc": 219,
                "addr:teryt:sym_ul": 975434,
                "contact:phone": "+48 256845021",
                "contact:email": "szkola1lo.laskarzew@wp.pl",
                "contact:website": "http:\/\/www.szkola1.neostrada.pl",
                "ref:regon": "711664209",
                "ref:vatin": "PL8261873464",
                "operator": "Miasto \u0141askarzew",
                "operator:type": "government",
                "landuse": "education",
                "fixme": "amenity=school, amenity=college albo landuse=education w zale\u017cno\u015bci od tego, jakie plac\u00f3wki wchodz\u0105 w sk\u0142ad zespo\u0142u. Sprawd\u017a, kiedy stosowa\u0107 amenity=* a kiedy landuse=education.",
                "note": "Children RSPO: 55944;55945"
            }
        },
        {
            "id": 55944,
            "type": "Feature",
            "geometry": {
                "type": "Point",
                "coordinates": [
                    21.58818,
                    51.791470000000004
                ]
            },
            "properties": {
                "isced:level": "1;2",
                "ref:rspo": 55944,
                "official_name": "Szko\u0142a Podstawowa Nr 1 w \u0141askarzew",
                "name": "Szko\u0142a Podstawowa Nr 1 w \u0141askarzew",
                "addr:country": "PL",
                "addr:postcode": "08-450",
                "addr:city": "\u0141askarzew",
                "addr:street": "ul. Alejowa",
                "addr:housenumber": "23",
                "addr:teryt:simc": 219,
                "addr:teryt:sym_ul": 975434,
                "contact:phone": "+48 256845021",
                "contact:email": "szkola1.laskarzew@wp.pl",
                "ref:regon": "712373336",
                "operator": "Miasto \u0141askarzew",
                "operator:type": "government",
                "amenity": "school",
                "note": "Parent RSPO: 53817"
            }
        },
        {
            "id": 55945,
            "type": "Feature",
            "geometry": {
                "type": "Point",
                "coordinates": [
                    21.58818,
                    51.79144
                ]
            },
            "properties": {
                "isced:level": "3",
                "ref:rspo": 55945,
                "official_name": "Liceum Og\u00f3lnokszta\u0142c\u0105ce w \u0141askarzewie",
                "name": "Liceum Og\u00f3lnokszta\u0142c\u0105ce w \u0141askarzewie",
                "addr:country": "PL",
                "addr:postcode": "08-450",
                "addr:city": "\u0141askarzew",
                "addr:street": "ul. Alejowa",
                "addr:housenumber": "23",
                "addr:teryt:simc": 219,
                "addr:teryt:sym_ul": 975434,
                "contact:phone": "+48 256845806",
                "contact:email": "szkola1lo.laskarzew@wp.pl",
                "ref:regon": "712373307",
                "operator": "Miasto \u0141askarzew",
                "operator:type": "government",
                "amenity": "school",
                "note": "Parent RSPO: 53817"
            }
        }
    ]
}