{
    "type": "FeatureCollection",
    "features": [
        {
            "id": 3884,
            "type": "Feature",
            "geometry": {
                "type": "Point",
                "coordinates": [
                    17.49485,
                    50.84664
                ]
            },
            "properties": {
                "ref:rspo": 3884,
                "official_name": "O\u015brodek Szkolenia \u201eEdukator\u201d",
                "name": "O\u015brodek Szkolenia \u201eEdukator\u201d",
                "addr:country": "PL",
                "addr:postcode": "49-300",
                "addr:city": "Brzeg",
                "addr:street": "Chor\u0105\u017cych",
                "addr:housenumber": "42",
                "addr:teryt:simc": 965252,
                "addr:teryt:sym_ul": 28832,
                "contact:phone": "+48 606894967",
                "contact:email": "osedukator@wp.pl",
                "ref:regon": "161475801",
                "operator": "Ryszard Janklowski",
                "operator:type": "private",
                "fixme": "w zale\u017cno\u015bci od przedmiotu dzia\u0142alno\u015bci (np. amenity=training + training=*, amenity=dancing_school, amenity=language_school, amenity=music_school)"
            }
        },
        {
            "id": 25117,
            "type": "Feature",
            "geometry": {
                "type": "Point",
                "coordinates": [
                    17.46407,
                    50.84682
                ]
            },
            "properties": {
                "ref:rspo": 25117,
                "official_name": "Plac\u00f3wka Kszta\u0142cenia Ustawicznego \u201eNatura\u201d",
                "name": "Plac\u00f3wka Kszta\u0142cenia Ustawicznego \u201eNatura\u201d",
                "addr:country": "PL",
                "addr:postcode": "49-305",
                "addr:city": "Brzeg",
                "addr:street": "Prusa",
                "addr:housenumber": "14",
                "addr:teryt:simc": 965252,
                "addr:teryt:sym_ul": 17574,
                "contact:phone": "+48 774115617",
                "contact:email": "krzysztof.drozd@op.pl",
                "ref:regon": "161484830",
                "operator": "Krzysztof Drozd",
                "operator:type": "private",
                "fixme": "w zale\u017cno\u015bci od przedmiotu dzia\u0142alno\u015bci (np. amenity=training + training=*, amenity=dancing_school, amenity=language_school, amenity=music_school)"
            }
        },
        {
            "id": 13437,
            "type": "Feature",
            "geometry": {
                "type": "Point",
                "coordinates": [
                    17.46357,
                    50.84888
                ]
            },
            "properties": {
                "ref:rspo": 13437,
                "official_name": "Przedszkole Publiczne Nr 10",
                "name": "Przedszkole Publiczne Nr 10",
                "addr:country": "PL",
                "addr:postcode": "49-300",
                "addr:city": "Brzeg",
                "addr:street": "Ksi\u0119dza Makarskiego",
                "addr:housenumber": "5",
                "addr:teryt:simc": 965252,
                "addr:teryt:sym_ul": 40046,
                "contact:phone": "+48 774046325",
                "contact:email": "pp10@brzeg.pl",
                "contact:website": "http:\/\/www.pp10brzeg.wodip.opole.pl",
                "ref:regon": "160293073",
                "operator": "Gmina Brzeg",
                "operator:type": "government",
                "amenity": "kindergarten"
            }
        },
        {
            "id": 58787,
            "type": "Feature",
            "geometry": {
                "type": "Point",
                "coordinates": [
                    17.46244,
                    50.8508
                ]
            },
            "properties": {
                "isced:level": "1;2",
                "ref:rspo": 58787,
                "official_name": "Publiczna Szko\u0142a Podstawowa Nr 6 im. Tadeusza Ko\u015bciuszki",
                "name": "Publiczna Szko\u0142a Podstawowa Nr 6",
                "addr:country": "PL",
                "addr:postcode": "49-300",
                "addr:city": "Brzeg",
                "addr:street": "Poprzeczna",
                "addr:housenumber": "1",
                "addr:teryt:simc": 965252,
                "addr:teryt:sym_ul": 17171,
                "contact:phone": "+48 774045840",
                "contact:email": "zs1@brzeg.pl",
                "contact:website": "http:\/\/psp6brzeg.pl",
                "ref:regon": "000698650",
                "operator": "Gmina Brzeg",
                "operator:type": "government",
                "amenity": "school"
            }
        },
        {
            "id": 3298,
            "type": "Feature",
            "geometry": {
                "type": "Point",
                "coordinates": [
                    17.46203,
                    50.85093
                ]
            },
            "properties": {
                "ref:rspo": 3298,
                "official_name": "Poradnia Psychologiczno-Pedagogiczna w Brzegu",
                "name": "Poradnia Psychologiczno-Pedagogiczna w Brzegu",
                "addr:country": "PL",
                "addr:postcode": "49-300",
                "addr:city": "Brzeg",
                "addr:street": "Poprzeczna",
                "addr:housenumber": "3c",
                "addr:teryt:simc": 965252,
                "addr:teryt:sym_ul": 17171,
                "contact:phone": "+48 774163207",
                "contact:email": "sekretariat@poradnia-brzeg.edu.pl",
                "contact:website": "http:\/\/www.poradnia-brzeg.edu.pl",
                "ref:regon": "000743296",
                "ref:vatin": "PL7471619441",
                "operator": "Powiat Brzeski",
                "operator:type": "government",
                "healthcare": "counselling",
                "counselling_type": "education",
                "fixme": "w zale\u017cno\u015bci od przedmiotu dzia\u0142alno\u015bci (np. healthcare=counselling + counselling_type=education albo healthcare=psychotherapist)"
            }
        },
        {
            "id": 40729,
            "type": "Feature",
            "geometry": {
                "type": "Point",
                "coordinates": [
                    17.46404,
                    50.8516
                ]
            },
            "properties": {
                "ref:rspo": 40729,
                "official_name": "Publiczne Przedszkole Nr 7 Integracyjne",
                "name": "Publiczne Przedszkole Nr 7 Integracyjne",
                "addr:country": "PL",
                "addr:postcode": "49-305",
                "addr:city": "Brzeg",
                "addr:street": "Gaj",
                "addr:housenumber": "1",
                "addr:teryt:simc": 965252,
                "addr:teryt:sym_ul": 5246,
                "contact:phone": "+48 774045760",
                "contact:email": "pp7@brzeg.pl",
                "contact:website": "http:\/\/pp7brzeg.pl",
                "ref:regon": "160292613",
                "operator": "Gmina Brzeg",
                "operator:type": "government",
                "amenity": "kindergarten"
            }
        },
        {
            "id": 2960,
            "type": "Feature",
            "geometry": {
                "type": "Point",
                "coordinates": [
                    17.46685,
                    50.8519099
                ]
            },
            "properties": {
                "isced:level": "3",
                "ref:rspo": 2960,
                "official_name": "Ii Liceum Og\u00f3lnokszta\u0142c\u0105ce im. Zbigniewa Herberta w Brzegu",
                "name": "Ii Liceum Og\u00f3lnokszta\u0142c\u0105ce",
                "addr:country": "PL",
                "addr:postcode": "49-305",
                "addr:city": "Brzeg",
                "addr:street": "1 Maja",
                "addr:housenumber": "7",
                "addr:teryt:simc": 965252,
                "addr:teryt:sym_ul": 11926,
                "contact:phone": "+48 774111408",
                "contact:email": "lo2brzeg@wodip.opole.pl",
                "contact:website": "http:\/\/lo2brzeg.wodip.opole.pl",
                "ref:regon": "532400897",
                "ref:vatin": "PL7471042148",
                "operator": "Powiat Brzeski",
                "operator:type": "government",
                "amenity": "school"
            }
        },
        {
            "id": 122146,
            "type": "Feature",
            "geometry": {
                "type": "Point",
                "coordinates": [
                    17.47704,
                    50.85249
                ]
            },
            "properties": {
                "ref:rspo": 122146,
                "official_name": "Security Consulting- Maras Waldemar",
                "name": "Security Consulting- Maras Waldemar",
                "addr:country": "PL",
                "addr:postcode": "49-300",
                "addr:city": "Brzeg",
                "addr:street": "Nysa\u0144ska",
                "addr:housenumber": "13",
                "addr:door": "4",
                "addr:teryt:simc": 965252,
                "addr:teryt:sym_ul": 14558,
                "contact:phone": "+48 696425265",
                "contact:email": "biuro@s-c.edu.pl",
                "contact:website": "http:\/\/www.s-c.edu.pl",
                "ref:regon": "161574762",
                "operator": "Waldemar Maras",
                "operator:type": "private",
                "fixme": "w zale\u017cno\u015bci od przedmiotu dzia\u0142alno\u015bci (np. amenity=training + training=*, amenity=dancing_school, amenity=language_school, amenity=music_school)"
            }
        },
        {
            "id": 58791,
            "type": "Feature",
            "geometry": {
                "type": "Point",
                "coordinates": [
                    17.4551,
                    50.8536
                ]
            },
            "properties": {
                "ref:rspo": 58791,
                "official_name": "Sebastian Ko\u0142odziejczyk Niepubliczne Przedszkole \"Akademia Skrzata\"",
                "name": "Sebastian Ko\u0142odziejczyk Niepubliczne Przedszkole \"Akademia Skrzata\"",
                "addr:country": "PL",
                "addr:postcode": "49-300",
                "addr:city": "Brzeg",
                "addr:street": "Marii Konopnickiej",
                "addr:housenumber": "2",
                "addr:teryt:simc": 965252,
                "addr:teryt:sym_ul": 9182,
                "contact:phone": "+48 513607833",
                "contact:email": "adademia.skrzata@gmail.com",
                "contact:website": "http:\/\/adademia-skrzata.pl",
                "ref:regon": "161490232",
                "operator": "Sebastian Ko\u0142odziejczyk",
                "operator:type": "private",
                "amenity": "kindergarten"
            }
        },
        {
            "id": 123680,
            "type": "Feature",
            "geometry": {
                "type": "Point",
                "coordinates": [
                    17.4551,
                    50.85357
                ]
            },
            "properties": {
                "ref:rspo": 123680,
                "official_name": "Sebastian Ko\u0142odziejczyk Niepubliczne Przedszkole \"Akademia Skrzata Bis\"",
                "name": "Sebastian Ko\u0142odziejczyk Niepubliczne Przedszkole \"Akademia Skrzata Bis\"",
                "addr:country": "PL",
                "addr:postcode": "49-300",
                "addr:city": "Brzeg",
                "addr:street": "Marii Konopnickiej",
                "addr:housenumber": "2",
                "addr:teryt:simc": 965252,
                "addr:teryt:sym_ul": 9182,
                "contact:phone": "+48 883671355",
                "contact:email": "akademia.skrzata@gmail.com",
                "contact:website": "http:\/\/akademia-skrzata.pl",
                "ref:regon": "161598573",
                "operator": "Sebastian Ko\u0142odziejczyk",
                "operator:type": "private",
                "amenity": "kindergarten"
            }
        },
        {
            "id": 13434,
            "type": "Feature",
            "geometry": {
                "type": "Point",
                "coordinates": [
                    17.46916,
                    50.85437
                ]
            },
            "properties": {
                "ref:rspo": 13434,
                "official_name": "Przedszkole Publiczne Nr 8",
                "name": "Przedszkole Publiczne Nr 8",
                "addr:country": "PL",
                "addr:postcode": "49-300",
                "addr:city": "Brzeg",
                "addr:street": "Towarowa",
                "addr:housenumber": "2",
                "addr:teryt:simc": 965252,
                "addr:teryt:sym_ul": 22907,
                "contact:phone": "+48 774045710",
                "contact:email": "pp8@brzeg.pl",
                "contact:website": "http:\/\/www.pp8brzeg.pl",
                "ref:regon": "160294316",
                "operator": "Gmina Brzeg",
                "operator:type": "government",
                "amenity": "kindergarten"
            }
        },
        {
            "id": 15879,
            "type": "Feature",
            "geometry": {
                "type": "Point",
                "coordinates": [
                    17.47263,
                    50.85512
                ]
            },
            "properties": {
                "ref:rspo": 15879,
                "official_name": "Akademia Sukcesu Junior",
                "name": "Akademia Sukcesu Junior",
                "addr:country": "PL",
                "addr:postcode": "49-300",
                "addr:city": "Brzeg",
                "addr:street": "Trzech Kotwic",
                "addr:housenumber": "11B",
                "addr:teryt:simc": 965252,
                "addr:teryt:sym_ul": 23082,
                "contact:phone": "+48 774026344",
                "contact:email": "ueproject@wp.pl",
                "contact:website": "http:\/\/www.krafcconsulting.pl",
                "ref:regon": "161481285",
                "operator": "Dane Do Uzupe\u0142nienia",
                "operator:type": "private",
                "fixme": "w zale\u017cno\u015bci od przedmiotu dzia\u0142alno\u015bci (np. amenity=training + training=*, amenity=dancing_school, amenity=language_school, amenity=music_school)"
            }
        },
        {
            "id": 75574,
            "type": "Feature",
            "geometry": {
                "type": "Point",
                "coordinates": [
                    17.4708,
                    50.85593
                ]
            },
            "properties": {
                "ref:rspo": 75574,
                "official_name": "Pa\u0144stwowa Szko\u0142a Muzyczna I St. im. J\u00f3zefa Elsnera w Brzegu",
                "name": "Pa\u0144stwowa Szko\u0142a Muzyczna I St.",
                "addr:country": "PL",
                "addr:postcode": "49-300",
                "addr:city": "Brzeg",
                "addr:street": "Piastowska",
                "addr:housenumber": "18",
                "addr:teryt:simc": 965252,
                "addr:teryt:sym_ul": 16046,
                "contact:phone": "+48 774240165",
                "ref:regon": "000284262",
                "operator": "Ministerstwo Kultury I Dziedzictwa Narodowego",
                "operator:type": "public",
                "amenity": "music_school"
            }
        },
        {
            "id": 13435,
            "type": "Feature",
            "geometry": {
                "type": "Point",
                "coordinates": [
                    17.46811,
                    50.85619
                ]
            },
            "properties": {
                "ref:rspo": 13435,
                "official_name": "Przedszkole Publiczne Nr 1",
                "name": "Przedszkole Publiczne Nr 1",
                "addr:country": "PL",
                "addr:postcode": "49-300",
                "addr:city": "Brzeg",
                "addr:street": "Jana Paw\u0142a II",
                "addr:housenumber": "7",
                "addr:teryt:simc": 965252,
                "addr:teryt:sym_ul": 7123,
                "contact:phone": "+48 774045715",
                "contact:email": "pp1@brzeg.pl",
                "contact:website": "http:\/\/www.pp1brzeg.edu.pl",
                "ref:regon": "160293699",
                "operator": "Gmina Brzeg",
                "operator:type": "government",
                "amenity": "kindergarten"
            }
        },
        {
            "id": 13433,
            "type": "Feature",
            "geometry": {
                "type": "Point",
                "coordinates": [
                    17.4828699,
                    50.85626
                ]
            },
            "properties": {
                "ref:rspo": 13433,
                "official_name": "Przedszkole Publiczne Nr 5",
                "name": "Przedszkole Publiczne Nr 5",
                "addr:country": "PL",
                "addr:postcode": "49-300",
                "addr:city": "Brzeg",
                "addr:street": "Bohater\u00f3w Monte Cassino",
                "addr:housenumber": "1",
                "addr:teryt:simc": 965252,
                "addr:teryt:sym_ul": 1651,
                "contact:phone": "+48 774045800",
                "contact:email": "pp5@brzeg.pl",
                "contact:website": "http:\/\/www.pp5brzeg.pl",
                "ref:regon": "160291921",
                "operator": "Gmina Brzeg",
                "operator:type": "government",
                "amenity": "kindergarten"
            }
        },
        {
            "id": 13438,
            "type": "Feature",
            "geometry": {
                "type": "Point",
                "coordinates": [
                    17.4709,
                    50.85704
                ]
            },
            "properties": {
                "ref:rspo": 13438,
                "official_name": "Przedszkole Publiczne Nr 11",
                "name": "Przedszkole Publiczne Nr 11",
                "addr:country": "PL",
                "addr:postcode": "49-300",
                "addr:city": "Brzeg",
                "addr:street": "Spacerowa",
                "addr:housenumber": "2",
                "addr:teryt:simc": 965252,
                "addr:teryt:sym_ul": 20641,
                "contact:phone": "+48 774045935",
                "contact:email": "pp11@brzeg.pl",
                "ref:regon": "160292731",
                "operator": "Gmina Brzeg",
                "operator:type": "government",
                "amenity": "kindergarten"
            }
        },
        {
            "id": 2937,
            "type": "Feature",
            "geometry": {
                "type": "Point",
                "coordinates": [
                    17.46524,
                    50.8571
                ]
            },
            "properties": {
                "isced:level": "3",
                "ref:rspo": 2937,
                "official_name": "I Liceum Og\u00f3lnokszta\u0142c\u0105ce im. Boles\u0142awa Chrobrego w Brzegu",
                "name": "I Liceum Og\u00f3lnokszta\u0142c\u0105ce",
                "addr:country": "PL",
                "addr:postcode": "49-300",
                "addr:city": "Brzeg",
                "addr:street": "Armii Krajowej",
                "addr:housenumber": "7",
                "addr:teryt:simc": 965252,
                "addr:teryt:sym_ul": 432,
                "contact:phone": "+48 774163625",
                "contact:email": "lo1brzeg@wodip.opole.pl",
                "contact:website": "http:\/\/lo1brzeg.szkolnastrona.pl",
                "ref:regon": "532397563",
                "ref:vatin": "PL7471067208",
                "operator": "Powiat Brzeski",
                "operator:type": "government",
                "amenity": "school"
            }
        },
        {
            "id": 276028,
            "type": "Feature",
            "geometry": {
                "type": "Point",
                "coordinates": [
                    17.46337,
                    50.85727
                ]
            },
            "properties": {
                "ref:rspo": 276028,
                "official_name": "Niepubliczna Plac\u00f3wka Kszta\u0142cenia Ustawicznego dla Doros\u0142ych. Studio Urody",
                "name": "Niepubliczna Plac\u00f3wka Kszta\u0142cenia Ustawicznego dla Doros\u0142ych. Studio Urody",
                "addr:country": "PL",
                "addr:postcode": "49-300",
                "addr:city": "Brzeg",
                "addr:street": "Armii Krajowej",
                "addr:housenumber": "24",
                "addr:door": "1",
                "addr:teryt:simc": 965252,
                "addr:teryt:sym_ul": 432,
                "contact:phone": "+48 774442264",
                "contact:email": "katarzynalewick@gmail.com",
                "contact:website": "http:\/\/permanentnybrzeg.pl",
                "ref:regon": "386969182",
                "operator": "Anna K\u0142embicka",
                "operator:type": "private",
                "fixme": "w zale\u017cno\u015bci od przedmiotu dzia\u0142alno\u015bci (np. amenity=training + training=*, amenity=dancing_school, amenity=language_school, amenity=music_school)"
            }
        },
        {
            "id": 3883,
            "type": "Feature",
            "geometry": {
                "type": "Point",
                "coordinates": [
                    17.4655099,
                    50.85788
                ]
            },
            "properties": {
                "ref:rspo": 3883,
                "official_name": "Zesp\u00f3\u0142 Szk\u00f3\u0142 Ekonomicznych w Brzegu",
                "name": "Zesp\u00f3\u0142 Szk\u00f3\u0142 Ekonomicznych w Brzegu",
                "addr:country": "PL",
                "addr:postcode": "49-300",
                "addr:city": "Brzeg",
                "addr:street": "Jana Paw\u0142a II",
                "addr:housenumber": "28",
                "addr:teryt:simc": 965252,
                "addr:teryt:sym_ul": 7123,
                "contact:phone": "+48 774162794",
                "contact:email": "zse_brzeg@wodip.opole.pl",
                "contact:website": "http:\/\/zsebrzeg.pl",
                "ref:regon": "001418517",
                "ref:vatin": "PL7471052224",
                "operator": "Powiat Brzeski",
                "operator:type": "government",
                "landuse": "education",
                "fixme": "amenity=school, amenity=college albo landuse=education w zale\u017cno\u015bci od tego, jakie plac\u00f3wki wchodz\u0105 w sk\u0142ad zespo\u0142u. Sprawd\u017a, kiedy stosowa\u0107 amenity=* a kiedy landuse=education.",
                "note": "Children RSPO: 6673;6689;6745;6761;6767"
            }
        },
        {
            "id": 6673,
            "type": "Feature",
            "geometry": {
                "type": "Point",
                "coordinates": [
                    17.4655099,
                    50.85785
                ]
            },
            "properties": {
                "isced:level": "3",
                "ref:rspo": 6673,
                "official_name": "Ii Liceum Og\u00f3lnokszta\u0142c\u0105ce dla Doros\u0142ych w Brzegu",
                "name": "Ii Liceum Og\u00f3lnokszta\u0142c\u0105ce dla Doros\u0142ych w Brzegu",
                "addr:country": "PL",
                "addr:postcode": "49-300",
                "addr:city": "Brzeg",
                "addr:street": "Jana Paw\u0142a II",
                "addr:housenumber": "28",
                "addr:teryt:simc": 965252,
                "addr:teryt:sym_ul": 7123,
                "contact:phone": "+48 774162794",
                "contact:email": "zse_brzeg@wodip.opole.pl",
                "contact:website": "http:\/\/www.zse_brzeg.wodip.opole.pl",
                "ref:regon": "160016072",
                "operator": "Powiat Brzeski",
                "operator:type": "government",
                "amenity": "school",
                "note": "Parent RSPO: 3883"
            }
        },
        {
            "id": 6689,
            "type": "Feature",
            "geometry": {
                "type": "Point",
                "coordinates": [
                    17.4655099,
                    50.857820000000004
                ]
            },
            "properties": {
                "isced:level": "4",
                "ref:rspo": 6689,
                "official_name": "Szko\u0142a Policealna Nr 2 dla Zaoczna w Brzegu",
                "name": "Szko\u0142a Policealna Nr 2 dla Zaoczna w Brzegu",
                "addr:country": "PL",
                "addr:postcode": "49-300",
                "addr:city": "Brzeg",
                "addr:street": "Jana Paw\u0142a II",
                "addr:housenumber": "28",
                "addr:teryt:simc": 965252,
                "addr:teryt:sym_ul": 7123,
                "contact:phone": "+48 774162794",
                "contact:email": "zse_brzeg@wodip.opole.pl",
                "contact:website": "http:\/\/www.zse_brzeg.wodip.opole.pl",
                "ref:regon": "160099164",
                "operator": "Powiat Brzeski",
                "operator:type": "government",
                "amenity": "college",
                "note": "Parent RSPO: 3883"
            }
        },
        {
            "id": 6745,
            "type": "Feature",
            "geometry": {
                "type": "Point",
                "coordinates": [
                    17.4655099,
                    50.85779
                ]
            },
            "properties": {
                "isced:level": "4",
                "ref:rspo": 6745,
                "official_name": "Szko\u0142a Policealna Nr 2 Dzienna w Brzegu",
                "name": "Szko\u0142a Policealna Nr 2 Dzienna w Brzegu",
                "addr:country": "PL",
                "addr:postcode": "49-300",
                "addr:city": "Brzeg",
                "addr:street": "Jana Paw\u0142a II",
                "addr:housenumber": "28",
                "addr:teryt:simc": 965252,
                "addr:teryt:sym_ul": 7123,
                "contact:phone": "+48 774162794",
                "contact:email": "zse_brzeg@wodip.opole.pl",
                "contact:website": "http:\/\/www.zse_brzeg.wodip.opole.pl",
                "ref:regon": "161478107",
                "operator": "Powiat Brzeski",
                "operator:type": "government",
                "amenity": "college",
                "note": "Parent RSPO: 3883"
            }
        },
        {
            "id": 6761,
            "type": "Feature",
            "geometry": {
                "type": "Point",
                "coordinates": [
                    17.4655099,
                    50.85776
                ]
            },
            "properties": {
                "isced:level": "3",
                "ref:rspo": 6761,
                "official_name": "Technikum Nr 2 w Brzegu",
                "name": "Technikum Nr 2 w Brzegu",
                "addr:country": "PL",
                "addr:postcode": "49-300",
                "addr:city": "Brzeg",
                "addr:street": "Jana Paw\u0142a II",
                "addr:housenumber": "28",
                "addr:teryt:simc": 965252,
                "addr:teryt:sym_ul": 7123,
                "contact:phone": "+48 774162794",
                "contact:email": "zse_brzeg@wodip.opole.pl",
                "contact:website": "http:\/\/www.zse_brzeg.wodip.opole.pl",
                "ref:regon": "532334284",
                "operator": "Powiat Brzeski",
                "operator:type": "government",
                "amenity": "school",
                "note": "Parent RSPO: 3883"
            }
        },
        {
            "id": 6767,
            "type": "Feature",
            "geometry": {
                "type": "Point",
                "coordinates": [
                    17.4655099,
                    50.857730000000004
                ]
            },
            "properties": {
                "isced:level": "3",
                "ref:rspo": 6767,
                "official_name": "Bran\u017cowa Szko\u0142a I Stopnia Nr 2 w Brzegu",
                "name": "Bran\u017cowa Szko\u0142a I Stopnia Nr 2 w Brzegu",
                "addr:country": "PL",
                "addr:postcode": "49-300",
                "addr:city": "Brzeg",
                "addr:street": "Jana Paw\u0142a II",
                "addr:housenumber": "28",
                "addr:teryt:simc": 965252,
                "addr:teryt:sym_ul": 7123,
                "contact:phone": "+48 774162794",
                "contact:email": "zse_brzeg@wodip.opole.pl",
                "contact:website": "http:\/\/www.zse_brzeg.wodip.opole.pl",
                "ref:regon": "160016050",
                "operator": "Powiat Brzeski",
                "operator:type": "government",
                "amenity": "school",
                "note": "Parent RSPO: 3883"
            }
        },
        {
            "id": 3496,
            "type": "Feature",
            "geometry": {
                "type": "Point",
                "coordinates": [
                    17.48152,
                    50.85809
                ]
            },
            "properties": {
                "ref:rspo": 3496,
                "official_name": "Zesp\u00f3\u0142 Szk\u00f3\u0142 Medycznych w Brzegu",
                "name": "Zesp\u00f3\u0142 Szk\u00f3\u0142 Medycznych w Brzegu",
                "addr:country": "PL",
                "addr:postcode": "49-300",
                "addr:city": "Brzeg",
                "addr:street": "Ofiar Katynia",
                "addr:housenumber": "25",
                "addr:teryt:simc": 965252,
                "addr:teryt:sym_ul": 14793,
                "contact:phone": "+48 774162383",
                "contact:email": "sekretariat@medykbrzeg.pl",
                "contact:website": "http:\/\/www.medykbrzeg.pl\/",
                "ref:regon": "160230351",
                "operator": "Wojew\u00f3dztwo Opolskie",
                "operator:type": "government",
                "landuse": "education",
                "fixme": "amenity=school, amenity=college albo landuse=education w zale\u017cno\u015bci od tego, jakie plac\u00f3wki wchodz\u0105 w sk\u0142ad zespo\u0142u. Sprawd\u017a, kiedy stosowa\u0107 amenity=* a kiedy landuse=education.",
                "note": "Children RSPO: 91386;91387"
            }
        },
        {
            "id": 91386,
            "type": "Feature",
            "geometry": {
                "type": "Point",
                "coordinates": [
                    17.48152,
                    50.858059999999995
                ]
            },
            "properties": {
                "isced:level": "4",
                "ref:rspo": 91386,
                "official_name": "Wojew\u00f3dzka Szko\u0142a Polcealna Dzienna im. Hanny Chrzanowskiej w Brzegu",
                "name": "Wojew\u00f3dzka Szko\u0142a Polcealna Dzienna",
                "addr:country": "PL",
                "addr:postcode": "49-300",
                "addr:city": "Brzeg",
                "addr:street": "Ofiar Katynia",
                "addr:housenumber": "25",
                "addr:teryt:simc": 965252,
                "addr:teryt:sym_ul": 14793,
                "contact:phone": "+48 774162383",
                "contact:email": "sekretariat@medykbrzeg.pl",
                "contact:website": "http:\/\/www.medykbrzeg.pl",
                "ref:regon": "531151848",
                "operator": "Wojew\u00f3dztwo Opolskie",
                "operator:type": "government",
                "amenity": "college",
                "note": "Parent RSPO: 3496"
            }
        },
        {
            "id": 91387,
            "type": "Feature",
            "geometry": {
                "type": "Point",
                "coordinates": [
                    17.48152,
                    50.85803
                ]
            },
            "properties": {
                "isced:level": "4",
                "ref:rspo": 91387,
                "official_name": "Wojew\u00f3dzka Szko\u0142a Policealna Stacjonarna I Zaoczna w Brzegu",
                "name": "Wojew\u00f3dzka Szko\u0142a Policealna Stacjonarna I Zaoczna w Brzegu",
                "addr:country": "PL",
                "addr:postcode": "49-300",
                "addr:city": "Brzeg",
                "addr:street": "Ofiar Katynia",
                "addr:housenumber": "25",
                "addr:teryt:simc": 965252,
                "addr:teryt:sym_ul": 14793,
                "contact:phone": "+48 774162383",
                "contact:email": "sekretariat@medykbrzeg.pl",
                "contact:website": "http:\/\/www.medykbrzeg.pl",
                "ref:regon": "160230345",
                "operator": "Wojew\u00f3dztwo Opolskie",
                "operator:type": "government",
                "amenity": "college",
                "note": "Parent RSPO: 3496"
            }
        },
        {
            "id": 104327,
            "type": "Feature",
            "geometry": {
                "type": "Point",
                "coordinates": [
                    17.48152,
                    50.858
                ]
            },
            "properties": {
                "ref:rspo": 104327,
                "official_name": "Pedagogiczna Biblioteka Wojew\u00f3dzka w Opolu - Filia w Brzegu",
                "name": "Pedagogiczna Biblioteka Wojew\u00f3dzka w Opolu - Filia w Brzegu",
                "addr:country": "PL",
                "addr:postcode": "49-300",
                "addr:city": "Brzeg",
                "addr:street": "Ofiar Katynia",
                "addr:housenumber": "25",
                "addr:teryt:simc": 965252,
                "addr:teryt:sym_ul": 14793,
                "contact:phone": "+48 774163475",
                "contact:email": "brzeg@pedagogiczna.pl",
                "contact:website": "http:\/\/www.pedagogiczna.pl",
                "ref:regon": "743497000",
                "operator": "Wojew\u00f3dztwo Opolskie",
                "operator:type": "government",
                "amenity": "library",
                "note": "Parent RSPO: 55538"
            }
        },
        {
            "id": 13054,
            "type": "Feature",
            "geometry": {
                "type": "Point",
                "coordinates": [
                    17.47103,
                    50.8588499
                ]
            },
            "properties": {
                "isced:level": "1;2",
                "ref:rspo": 13054,
                "official_name": "Publiczna Szko\u0142a Podstawowa Nr 1 im. Stefana \u017beromskiego",
                "name": "Publiczna Szko\u0142a Podstawowa Nr 1",
                "addr:country": "PL",
                "addr:postcode": "49-300",
                "addr:city": "Brzeg",
                "addr:street": "Boles\u0142awa Chrobrego",
                "addr:housenumber": "13",
                "addr:teryt:simc": 965252,
                "addr:teryt:sym_ul": 1742,
                "contact:phone": "+48 774045755",
                "contact:email": "sp1brzeg@wodip.opole.pl",
                "contact:website": "http:\/\/www.sp1brzeg.wodip.opole.pl",
                "ref:regon": "000698800",
                "operator": "Gmina Brzeg",
                "operator:type": "government",
                "amenity": "school"
            }
        },
        {
            "id": 14236,
            "type": "Feature",
            "geometry": {
                "type": "Point",
                "coordinates": [
                    17.47103,
                    50.8588199
                ]
            },
            "properties": {
                "isced:level": "3",
                "ref:rspo": 14236,
                "official_name": "Iii Prywatne Liceum Og\u00f3lnokszta\u0142c\u0105ce dla Doros\u0142ych \"Twoja-Szko\u0142a\" w Brzegu",
                "name": "Iii Prywatne Liceum Og\u00f3lnokszta\u0142c\u0105ce dla Doros\u0142ych \"Twoja-Szko\u0142a\" w Brzegu",
                "addr:country": "PL",
                "addr:postcode": "49-300",
                "addr:city": "Brzeg",
                "addr:street": "Boles\u0142awa Chrobrego",
                "addr:housenumber": "13",
                "addr:teryt:simc": 965252,
                "addr:teryt:sym_ul": 1742,
                "contact:phone": "+48 774162586",
                "contact:email": "brzeg@twoja-szkola.pl",
                "contact:website": "http:\/\/www.twoja-szkola.pl",
                "ref:regon": "161481859",
                "operator": "Angelika Kubala",
                "operator:type": "private",
                "amenity": "school"
            }
        },
        {
            "id": 115647,
            "type": "Feature",
            "geometry": {
                "type": "Point",
                "coordinates": [
                    17.47103,
                    50.858789900000005
                ]
            },
            "properties": {
                "isced:level": "1;2",
                "ref:rspo": 115647,
                "official_name": "Niepubliczna Szko\u0142a Podstawowa im. \u015aw. Tomasza Z Akwinu w Brzegu",
                "name": "Niepubliczna Szko\u0142a Podstawowa",
                "addr:country": "PL",
                "addr:postcode": "49-300",
                "addr:city": "Brzeg",
                "addr:street": "Boles\u0142awa Chrobrego",
                "addr:housenumber": "13",
                "addr:teryt:simc": 965252,
                "addr:teryt:sym_ul": 1742,
                "contact:phone": "+48 501609714",
                "contact:email": "szkolaswtomaszazakwinu@gmail.com",
                "contact:website": "http:\/\/nspbrzeg.szkolnastrona.pl",
                "ref:regon": "161540987",
                "operator": "Stowarzyszenie Na Rzecz Utworzenia I Rozwoju Katolickiego Zespo\u0142u Szkolno-Przedszkolnego W Brzegu",
                "operator:type": "ngo",
                "amenity": "school"
            }
        },
        {
            "id": 128813,
            "type": "Feature",
            "geometry": {
                "type": "Point",
                "coordinates": [
                    17.47103,
                    50.8587599
                ]
            },
            "properties": {
                "isced:level": "4",
                "ref:rspo": 128813,
                "official_name": "Prywatna Szko\u0142a Policealna \"Twoja-Szko\u0142a\" Nr 1 w Brzegu",
                "name": "Prywatna Szko\u0142a Policealna \"Twoja-Szko\u0142a\" Nr 1 w Brzegu",
                "addr:country": "PL",
                "addr:postcode": "49-300",
                "addr:city": "Brzeg",
                "addr:street": "Boles\u0142awa Chrobrego",
                "addr:housenumber": "13",
                "addr:teryt:simc": 965252,
                "addr:teryt:sym_ul": 1742,
                "contact:phone": "+48 774162586",
                "contact:email": "brzeg@twoja-szkola.pl",
                "contact:website": "http:\/\/twoja-szkola.pl\/oddzial\/opolskie\/brzeg",
                "ref:regon": "362399734",
                "operator": "Angelika Kubala",
                "operator:type": "private",
                "amenity": "college"
            }
        },
        {
            "id": 277976,
            "type": "Feature",
            "geometry": {
                "type": "Point",
                "coordinates": [
                    17.47103,
                    50.8587299
                ]
            },
            "properties": {
                "isced:level": "3",
                "ref:rspo": 277976,
                "official_name": "Niepubliczne Liceum Og\u00f3lnokszta\u0142c\u0105ce im. \u015aw. Tomasza Z Akwinu w Brzegu",
                "name": "Niepubliczne Liceum Og\u00f3lnokszta\u0142c\u0105ce",
                "addr:country": "PL",
                "addr:postcode": "49-300",
                "addr:city": "Brzeg",
                "addr:street": "Boles\u0142awa Chrobrego",
                "addr:housenumber": "13",
                "addr:teryt:simc": 965252,
                "addr:teryt:sym_ul": 1742,
                "contact:email": "szkolaswtomaszzakwinu@gmail.com",
                "ref:regon": "389726190",
                "operator": "Stowarzyszenie Na Rzecz Utworzenia I Rozwoju Katolickiego Zespo\u0142u Szkolno-Przedszkolnego W Brzegu",
                "operator:type": "ngo",
                "amenity": "school"
            }
        },
        {
            "id": 3928,
            "type": "Feature",
            "geometry": {
                "type": "Point",
                "coordinates": [
                    17.4635,
                    50.85891
                ]
            },
            "properties": {
                "ref:rspo": 3928,
                "official_name": "Zesp\u00f3\u0142 Szk\u00f3\u0142 Zawodowych Nr 1 im. Marii Sk\u0142odowskiej-Curie w Brzegu",
                "name": "Zesp\u00f3\u0142 Szk\u00f3\u0142 Zawodowych Nr 1",
                "addr:country": "PL",
                "addr:postcode": "49-300",
                "addr:city": "Brzeg",
                "addr:street": "S\u0142owia\u0144ska",
                "addr:housenumber": "18",
                "addr:teryt:simc": 965252,
                "addr:teryt:sym_ul": 20294,
                "contact:phone": "+48 774163512",
                "contact:email": "sekretariat.zsz1brzeg@op.pl",
                "contact:website": "http:\/\/www.zsz1brzeg.wodip.opole.pl",
                "ref:regon": "000743072",
                "ref:vatin": "PL7471029403",
                "operator": "Powiat Brzeski",
                "operator:type": "government",
                "landuse": "education",
                "fixme": "amenity=school, amenity=college albo landuse=education w zale\u017cno\u015bci od tego, jakie plac\u00f3wki wchodz\u0105 w sk\u0142ad zespo\u0142u. Sprawd\u017a, kiedy stosowa\u0107 amenity=* a kiedy landuse=education.",
                "note": "Children RSPO: 6405;6425;6432"
            }
        },
        {
            "id": 6405,
            "type": "Feature",
            "geometry": {
                "type": "Point",
                "coordinates": [
                    17.4635,
                    50.85888
                ]
            },
            "properties": {
                "isced:level": "3",
                "ref:rspo": 6405,
                "official_name": "Technikum Nr 1 w Brzegu",
                "name": "Technikum Nr 1 w Brzegu",
                "addr:country": "PL",
                "addr:postcode": "49-300",
                "addr:city": "Brzeg",
                "addr:street": "S\u0142owia\u0144ska",
                "addr:housenumber": "18",
                "addr:teryt:simc": 965252,
                "addr:teryt:sym_ul": 20294,
                "contact:phone": "+48 774163512",
                "contact:email": "sekretariat.zsz1brzeg@op.pl",
                "contact:website": "http:\/\/www.zsz1brzeg.edu.pl",
                "ref:regon": "532337006",
                "operator": "Powiat Brzeski",
                "operator:type": "government",
                "amenity": "school",
                "note": "Parent RSPO: 3928"
            }
        },
        {
            "id": 6425,
            "type": "Feature",
            "geometry": {
                "type": "Point",
                "coordinates": [
                    17.4635,
                    50.858850000000004
                ]
            },
            "properties": {
                "isced:level": "3",
                "ref:rspo": 6425,
                "official_name": "Bran\u017cowa Szko\u0142a I Stopnia Nr 1 w Brzegu",
                "name": "Bran\u017cowa Szko\u0142a I Stopnia Nr 1 w Brzegu",
                "addr:country": "PL",
                "addr:postcode": "49-300",
                "addr:city": "Brzeg",
                "addr:street": "S\u0142owia\u0144ska",
                "addr:housenumber": "18",
                "addr:teryt:simc": 965252,
                "addr:teryt:sym_ul": 20294,
                "contact:phone": "+48 774163512",
                "contact:email": "sekretariat.zsz1brzeg@op.pl",
                "contact:website": "http:\/\/www.zsz1brzeg.wodip.opole.pl",
                "ref:regon": "161477941",
                "operator": "Powiat Brzeski",
                "operator:type": "government",
                "amenity": "school",
                "note": "Parent RSPO: 3928"
            }
        },
        {
            "id": 6432,
            "type": "Feature",
            "geometry": {
                "type": "Point",
                "coordinates": [
                    17.4635,
                    50.85882
                ]
            },
            "properties": {
                "isced:level": "4",
                "ref:rspo": 6432,
                "official_name": "Szko\u0142a Policealna Nr 1 Zaoczna w Brzegu",
                "name": "Szko\u0142a Policealna Nr 1 Zaoczna w Brzegu",
                "addr:country": "PL",
                "addr:postcode": "49-300",
                "addr:city": "Brzeg",
                "addr:street": "S\u0142owia\u0144ska",
                "addr:housenumber": "18",
                "addr:teryt:simc": 965252,
                "addr:teryt:sym_ul": 20294,
                "contact:phone": "+48 774163512",
                "contact:email": "sekretariat.zsz1brzeg@op.pl",
                "contact:website": "http:\/\/www.zsz1brzeg.wodip.opole.pl",
                "ref:regon": "160039593",
                "operator": "Powiat Brzeski",
                "operator:type": "government",
                "amenity": "college",
                "note": "Parent RSPO: 3928"
            }
        },
        {
            "id": 13430,
            "type": "Feature",
            "geometry": {
                "type": "Point",
                "coordinates": [
                    17.47901,
                    50.85905
                ]
            },
            "properties": {
                "ref:rspo": 13430,
                "official_name": "Przedszkole Publiczne Nr 2",
                "name": "Przedszkole Publiczne Nr 2",
                "addr:country": "PL",
                "addr:postcode": "49-300",
                "addr:city": "Brzeg",
                "addr:street": "Ofiar Katynia",
                "addr:housenumber": "9",
                "addr:teryt:simc": 965252,
                "addr:teryt:sym_ul": 14793,
                "contact:phone": "+48 774045985",
                "contact:email": "pp2@brzeg.pl",
                "ref:regon": "160292955",
                "operator": "Gmina Brzeg",
                "operator:type": "government",
                "amenity": "kindergarten"
            }
        },
        {
            "id": 13055,
            "type": "Feature",
            "geometry": {
                "type": "Point",
                "coordinates": [
                    17.47633,
                    50.85906
                ]
            },
            "properties": {
                "isced:level": "1;2",
                "ref:rspo": 13055,
                "official_name": "Publiczna Szko\u0142a Podstawowa Nr 3 im. Jana Kochanowskiego",
                "name": "Publiczna Szko\u0142a Podstawowa Nr 3",
                "addr:country": "PL",
                "addr:postcode": "49-300",
                "addr:city": "Brzeg",
                "addr:street": "Kamienna",
                "addr:housenumber": "2",
                "addr:teryt:simc": 965252,
                "addr:teryt:sym_ul": 7879,
                "contact:phone": "+48 774045150",
                "contact:email": "psp3@brzeg.pl",
                "contact:website": "http:\/\/www.psp3.szkolnastrona.pl",
                "ref:regon": "000698621",
                "operator": "Gmina Brzeg",
                "operator:type": "government",
                "amenity": "school"
            }
        },
        {
            "id": 279307,
            "type": "Feature",
            "geometry": {
                "type": "Point",
                "coordinates": [
                    17.47633,
                    50.85903
                ]
            },
            "properties": {
                "isced:level": "4",
                "ref:rspo": 279307,
                "official_name": "Policealna Szko\u0142a Edukacji Innowacyjnej w Brzegu",
                "name": "Policealna Szko\u0142a Edukacji Innowacyjnej w Brzegu",
                "addr:country": "PL",
                "addr:postcode": "49-300",
                "addr:city": "Brzeg",
                "addr:street": "Kamienna",
                "addr:housenumber": "2",
                "addr:teryt:simc": 965252,
                "addr:teryt:sym_ul": 7879,
                "contact:email": "edukacja@ipt.pl",
                "ref:regon": "521185499",
                "operator": "Instytut Post\u0119powania Tw\u00f3rczego Sp\u00f3\u0142ka Z Ograniczon\u0105 Odpowiedzialno\u015bci\u0105",
                "operator:type": "private",
                "amenity": "college"
            }
        },
        {
            "id": 4683,
            "type": "Feature",
            "geometry": {
                "type": "Point",
                "coordinates": [
                    17.47542,
                    50.85973
                ]
            },
            "properties": {
                "ref:rspo": 4683,
                "official_name": "Zesp\u00f3\u0142 Szk\u00f3\u0142 Budowlanych im. Ksi\u0119cia Jerzego II Piasta w Brzegu",
                "name": "Zesp\u00f3\u0142 Szk\u00f3\u0142 Budowlanych",
                "addr:country": "PL",
                "addr:postcode": "49-300",
                "addr:city": "Brzeg",
                "addr:street": "Kamienna",
                "addr:housenumber": "3",
                "addr:teryt:simc": 965252,
                "addr:teryt:sym_ul": 7879,
                "contact:phone": "+48 774162507",
                "contact:email": "zsbbrzeg@o2.pl",
                "contact:website": "http:\/\/www.zsbbrzeg.pl",
                "ref:regon": "000743066",
                "ref:vatin": "PL7471034930",
                "operator": "Powiat Brzeski",
                "operator:type": "government",
                "landuse": "education",
                "fixme": "amenity=school, amenity=college albo landuse=education w zale\u017cno\u015bci od tego, jakie plac\u00f3wki wchodz\u0105 w sk\u0142ad zespo\u0142u. Sprawd\u017a, kiedy stosowa\u0107 amenity=* a kiedy landuse=education.",
                "note": "Children RSPO: 7497;7521;7571;275829"
            }
        },
        {
            "id": 7497,
            "type": "Feature",
            "geometry": {
                "type": "Point",
                "coordinates": [
                    17.47542,
                    50.8597
                ]
            },
            "properties": {
                "isced:level": "4",
                "ref:rspo": 7497,
                "official_name": "Szko\u0142a Policealna Nr 3 Zaoczna w Brzegu",
                "name": "Szko\u0142a Policealna Nr 3 Zaoczna w Brzegu",
                "addr:country": "PL",
                "addr:postcode": "49-300",
                "addr:city": "Brzeg",
                "addr:street": "Kamienna",
                "addr:housenumber": "3",
                "addr:teryt:simc": 965252,
                "addr:teryt:sym_ul": 7879,
                "contact:phone": "+48 774162507",
                "contact:email": "zsbbrzeg@o2.pl",
                "contact:website": "http:\/\/www.zsbbrzeg.wodip.opole.pl",
                "ref:regon": "161478403",
                "operator": "Powiat Brzeski",
                "operator:type": "government",
                "amenity": "college",
                "note": "Parent RSPO: 4683"
            }
        },
        {
            "id": 7521,
            "type": "Feature",
            "geometry": {
                "type": "Point",
                "coordinates": [
                    17.47542,
                    50.85967
                ]
            },
            "properties": {
                "isced:level": "3",
                "ref:rspo": 7521,
                "official_name": "Technikum Nr 3 w Brzegu",
                "name": "Technikum Nr 3 w Brzegu",
                "addr:country": "PL",
                "addr:postcode": "49-300",
                "addr:city": "Brzeg",
                "addr:street": "Kamienna",
                "addr:housenumber": "3",
                "addr:teryt:simc": 965252,
                "addr:teryt:sym_ul": 7879,
                "contact:phone": "+48 774162507",
                "contact:email": "zsbbrzeg@o2.pl",
                "contact:website": "http:\/\/www.zsbbrzeg.pl",
                "ref:regon": "532385608",
                "operator": "Powiat Brzeski",
                "operator:type": "government",
                "amenity": "school",
                "note": "Parent RSPO: 4683"
            }
        },
        {
            "id": 7571,
            "type": "Feature",
            "geometry": {
                "type": "Point",
                "coordinates": [
                    17.47542,
                    50.85964
                ]
            },
            "properties": {
                "isced:level": "3",
                "ref:rspo": 7571,
                "official_name": "Bran\u017cowa Szko\u0142a I Stopnia Nr 3 w Brzegu",
                "name": "Bran\u017cowa Szko\u0142a I Stopnia Nr 3 w Brzegu",
                "addr:country": "PL",
                "addr:postcode": "49-300",
                "addr:city": "Brzeg",
                "addr:street": "Kamienna",
                "addr:housenumber": "3",
                "addr:teryt:simc": 965252,
                "addr:teryt:sym_ul": 7879,
                "contact:phone": "+48 774162507",
                "contact:email": "zsbbrzeg@o2.pl",
                "contact:website": "http:\/\/www.zsbbrzeg@o2.pl",
                "ref:regon": "532337756",
                "operator": "Powiat Brzeski",
                "operator:type": "government",
                "amenity": "school",
                "note": "Parent RSPO: 4683"
            }
        },
        {
            "id": 275829,
            "type": "Feature",
            "geometry": {
                "type": "Point",
                "coordinates": [
                    17.47542,
                    50.859609999999996
                ]
            },
            "properties": {
                "isced:level": "3",
                "ref:rspo": 275829,
                "official_name": "Bran\u017cowa Szko\u0142a II Stopnia Nr 3 w Brzegu",
                "name": "Bran\u017cowa Szko\u0142a II Stopnia Nr 3 w Brzegu",
                "addr:country": "PL",
                "addr:postcode": "49-300",
                "addr:city": "Brzeg",
                "addr:street": "Kamienna",
                "addr:housenumber": "3",
                "addr:teryt:simc": 965252,
                "addr:teryt:sym_ul": 7879,
                "contact:phone": "+48 774162507",
                "contact:email": "zsbbrzeg@o2.pl",
                "contact:website": "http:\/\/zsbbrzeg.pl",
                "ref:regon": "386940698",
                "operator": "Powiat Brzeski",
                "operator:type": "government",
                "amenity": "school",
                "note": "Parent RSPO: 4683"
            }
        },
        {
            "id": 4436,
            "type": "Feature",
            "geometry": {
                "type": "Point",
                "coordinates": [
                    17.467109680176,
                    50.860641479492
                ]
            },
            "properties": {
                "ref:rspo": 4436,
                "official_name": "Zesp\u00f3\u0142 Szk\u00f3\u0142 Specjalnych w Brzegu",
                "name": "Zesp\u00f3\u0142 Szk\u00f3\u0142 Specjalnych w Brzegu",
                "addr:country": "PL",
                "addr:postcode": "49-300",
                "addr:city": "Brzeg",
                "addr:street": "Sergiusza Mossora",
                "addr:housenumber": "4",
                "addr:teryt:simc": 965252,
                "addr:teryt:sym_ul": 29649,
                "contact:phone": "+48 774163571",
                "contact:email": "zssbrzeg@wodip.opole.pl",
                "contact:website": "http:\/\/zssbrzeg.wodip.opole.pl",
                "ref:regon": "000703842",
                "ref:vatin": "PL7471338676",
                "operator": "Powiat Brzeski",
                "operator:type": "government",
                "landuse": "education",
                "fixme": "amenity=school, amenity=college albo landuse=education w zale\u017cno\u015bci od tego, jakie plac\u00f3wki wchodz\u0105 w sk\u0142ad zespo\u0142u. Sprawd\u017a, kiedy stosowa\u0107 amenity=* a kiedy landuse=education.",
                "note": "Children RSPO: 5956;127714"
            }
        },
        {
            "id": 5956,
            "type": "Feature",
            "geometry": {
                "type": "Point",
                "coordinates": [
                    17.467109680176,
                    50.860611479492
                ]
            },
            "properties": {
                "isced:level": "1;2",
                "ref:rspo": 5956,
                "official_name": "Publiczna Szko\u0142a Podstawowa Nr 7 Specjalna w Brzegu",
                "name": "Publiczna Szko\u0142a Podstawowa Nr 7 Specjalna w Brzegu",
                "addr:country": "PL",
                "addr:postcode": "49-300",
                "addr:city": "Brzeg",
                "addr:street": "Sergiusza Mossora",
                "addr:housenumber": "4",
                "addr:teryt:simc": 965252,
                "addr:teryt:sym_ul": 29649,
                "contact:phone": "+48 774163571",
                "contact:email": "zssbrzeg@wodip.opole.pl",
                "contact:website": "http:\/\/zssbrzeg.wodip.opole.pl",
                "ref:regon": "532233956",
                "operator": "Powiat Brzeski",
                "operator:type": "government",
                "amenity": "school",
                "note": "Parent RSPO: 4436"
            }
        },
        {
            "id": 127714,
            "type": "Feature",
            "geometry": {
                "type": "Point",
                "coordinates": [
                    17.467109680176,
                    50.860581479492005
                ]
            },
            "properties": {
                "ref:rspo": 127714,
                "official_name": "Szko\u0142a Specjalna Przysposabiaj\u0105ca Do Pracy w Brzegu",
                "name": "Szko\u0142a Specjalna Przysposabiaj\u0105ca Do Pracy w Brzegu",
                "addr:country": "PL",
                "addr:postcode": "49-300",
                "addr:city": "Brzeg",
                "addr:street": "Sergiusza Mossora",
                "addr:housenumber": "4",
                "addr:teryt:simc": 965252,
                "addr:teryt:sym_ul": 29649,
                "contact:phone": "+48 774163571",
                "contact:email": "zssbrzeg@wodip.opole.pl",
                "contact:website": "http:\/\/zssbrzeg.wodip.opole.pl",
                "ref:regon": "361807875",
                "operator": "Powiat Brzeski",
                "operator:type": "government",
                "amenity": "school",
                "note": "Parent RSPO: 4436"
            }
        },
        {
            "id": 126801,
            "type": "Feature",
            "geometry": {
                "type": "Point",
                "coordinates": [
                    17.468,
                    50.86099
                ]
            },
            "properties": {
                "ref:rspo": 126801,
                "official_name": "Centrum Szkole\u0144 Specjalistycznych \"Dorot\"",
                "name": "Centrum Szkole\u0144 Specjalistycznych \"Dorot\"",
                "addr:country": "PL",
                "addr:postcode": "49-300",
                "addr:city": "Brzeg",
                "addr:street": "D\u0142uga",
                "addr:housenumber": "55",
                "addr:teryt:simc": 965252,
                "addr:teryt:sym_ul": 3839,
                "contact:phone": "+48 604227956",
                "contact:email": "cuf.dorot.brzeg@gmail.com",
                "ref:regon": "360740471",
                "operator": "Dorota Jakubik",
                "operator:type": "private",
                "fixme": "w zale\u017cno\u015bci od przedmiotu dzia\u0142alno\u015bci (np. amenity=training + training=*, amenity=dancing_school, amenity=language_school, amenity=music_school)"
            }
        },
        {
            "id": 13436,
            "type": "Feature",
            "geometry": {
                "type": "Point",
                "coordinates": [
                    17.47388,
                    50.86135
                ]
            },
            "properties": {
                "ref:rspo": 13436,
                "official_name": "Przedszkole Publiczne Nr 6",
                "name": "Przedszkole Publiczne Nr 6",
                "addr:country": "PL",
                "addr:postcode": "49-300",
                "addr:city": "Brzeg",
                "addr:street": "Wysoka",
                "addr:housenumber": "1",
                "addr:teryt:simc": 965252,
                "addr:teryt:sym_ul": 25067,
                "contact:phone": "+48 774045565",
                "contact:email": "pp6@brzeg.pl",
                "contact:website": "http:\/\/www.pp6brzeg.pl",
                "ref:regon": "160293080",
                "operator": "Gmina Brzeg",
                "operator:type": "government",
                "amenity": "kindergarten"
            }
        },
        {
            "id": 13432,
            "type": "Feature",
            "geometry": {
                "type": "Point",
                "coordinates": [
                    17.46517,
                    50.86215
                ]
            },
            "properties": {
                "ref:rspo": 13432,
                "official_name": "Przedszkole Publiczne Nr 4",
                "name": "Przedszkole Publiczne Nr 4",
                "addr:country": "PL",
                "addr:postcode": "49-300",
                "addr:city": "Brzeg",
                "addr:street": "Boles\u0142awa Chrobrego",
                "addr:housenumber": "37",
                "addr:teryt:simc": 965252,
                "addr:teryt:sym_ul": 1742,
                "contact:phone": "+48 774045995",
                "contact:email": "pp4@brzeg.pl",
                "contact:website": "http:\/\/www.pp4brzeg.pl",
                "ref:regon": "160292659",
                "operator": "Gmina Brzeg",
                "operator:type": "government",
                "amenity": "kindergarten"
            }
        },
        {
            "id": 13056,
            "type": "Feature",
            "geometry": {
                "type": "Point",
                "coordinates": [
                    17.46122,
                    50.8622
                ]
            },
            "properties": {
                "isced:level": "1;2",
                "ref:rspo": 13056,
                "official_name": "Publiczna Szko\u0142a Podstawowa Nr 5 im. Miko\u0142aja Kopernika",
                "name": "Publiczna Szko\u0142a Podstawowa Nr 5",
                "addr:country": "PL",
                "addr:postcode": "49-300",
                "addr:city": "Brzeg",
                "addr:street": "Robotnicza",
                "addr:housenumber": "22",
                "addr:teryt:simc": 965252,
                "addr:teryt:sym_ul": 18695,
                "contact:phone": "+48 774047155",
                "contact:email": "psp5@brzeg.pl",
                "contact:website": "http:\/\/www.psp5brzeg.szkolnastrona.pl",
                "ref:regon": "000698644",
                "operator": "Gmina Brzeg",
                "operator:type": "government",
                "amenity": "school"
            }
        },
        {
            "id": 132906,
            "type": "Feature",
            "geometry": {
                "type": "Point",
                "coordinates": [
                    17.48373,
                    50.86246
                ]
            },
            "properties": {
                "ref:rspo": 132906,
                "official_name": "O\u015brodek Szkolenia Operator\u00f3w Maszyn Roboczych \"Somar\"",
                "name": "O\u015brodek Szkolenia Operator\u00f3w Maszyn Roboczych \"Somar\"",
                "addr:country": "PL",
                "addr:postcode": "49-306",
                "addr:city": "Brzeg",
                "addr:street": "Grobli",
                "addr:housenumber": "12A",
                "addr:teryt:simc": 965252,
                "addr:teryt:sym_ul": 6128,
                "contact:phone": "+48 774160788",
                "contact:email": "biuro@somar-sc.pl",
                "contact:website": "http:\/\/www.somar-sc.pl",
                "ref:regon": "366308941",
                "operator": "Krzysztof Baran",
                "operator:type": "private",
                "fixme": "w zale\u017cno\u015bci od przedmiotu dzia\u0142alno\u015bci (np. amenity=training + training=*, amenity=dancing_school, amenity=language_school, amenity=music_school)"
            }
        },
        {
            "id": 58789,
            "type": "Feature",
            "geometry": {
                "type": "Point",
                "coordinates": [
                    17.45019,
                    50.8632
                ]
            },
            "properties": {
                "isced:level": "1;2",
                "ref:rspo": 58789,
                "official_name": "Publiczna Szko\u0142a Podstawowa Nr 8",
                "name": "Publiczna Szko\u0142a Podstawowa Nr 8",
                "addr:country": "PL",
                "addr:postcode": "49-300",
                "addr:city": "Brzeg",
                "addr:street": "Lompy",
                "addr:housenumber": "1",
                "addr:teryt:simc": 965252,
                "addr:teryt:sym_ul": 11246,
                "contact:phone": "+48 774045215",
                "contact:email": "psp8@brzeg.pl",
                "contact:website": "http:\/\/e-osemka.pl",
                "ref:regon": "000698667",
                "operator": "Gmina Brzeg",
                "operator:type": "government",
                "amenity": "school"
            }
        },
        {
            "id": 13431,
            "type": "Feature",
            "geometry": {
                "type": "Point",
                "coordinates": [
                    17.4521799,
                    50.86336
                ]
            },
            "properties": {
                "ref:rspo": 13431,
                "official_name": "Przedszkole Publiczne Nr 3",
                "name": "Przedszkole Publiczne Nr 3",
                "addr:country": "PL",
                "addr:postcode": "49-300",
                "addr:city": "Brzeg",
                "addr:street": "Zielona",
                "addr:housenumber": "23",
                "addr:teryt:simc": 965252,
                "addr:teryt:sym_ul": 26081,
                "contact:phone": "+48 774045721",
                "contact:email": "pp3@brzeg.pl",
                "contact:website": "http:\/\/www.pp3brzeg.wodip.opole.pl",
                "ref:regon": "160293660",
                "operator": "Gmina Brzeg",
                "operator:type": "government",
                "amenity": "kindergarten"
            }
        }
    ]
}