{
    "type": "FeatureCollection",
    "features": [
        {
            "id": 17654,
            "type": "Feature",
            "geometry": {
                "type": "Point",
                "coordinates": [
                    17.659990310669,
                    50.72827911377
                ]
            },
            "properties": {
                "ref:rspo": 17654,
                "official_name": "Przedszkole Publiczne w Przeczy",
                "name": "Przedszkole Publiczne w Przeczy",
                "addr:postcode": "49-345",
                "addr:place": "Przecza",
                "addr:housenumber": "19",
                "addr:city:simc": 498230,
                "phone": "+48 774120004",
                "email": "pp.przecza@op.pl",
                "ref:regon": "530584108",
                "ref:vatin": "PL7471675988",
                "operator": "Gmina Lewin Brzeski",
                "operator:type": "government",
                "amenity": "kindergarten"
            }
        },
        {
            "id": 17649,
            "type": "Feature",
            "geometry": {
                "type": "Point",
                "coordinates": [
                    17.6129399,
                    50.74922
                ]
            },
            "properties": {
                "ref:rspo": 17649,
                "official_name": "Przedszkole Publiczne nr 1 w Lewinie Brzeskim",
                "name": "Przedszkole Publiczne nr 1 w Lewinie Brzeskim",
                "addr:postcode": "49-340",
                "addr:city": "Lewin Brzeski",
                "addr:street": "Aleja Wojska Polskiego",
                "addr:housenumber": "13",
                "addr:city:simc": 965720,
                "addr:street:sym_ul": 24623,
                "phone": "+48 774127201",
                "email": "pp1lb@o2.pl",
                "website": "http:\/\/pp1lewinbrzeski.przedszkolowo.pl",
                "ref:regon": "530584060",
                "ref:vatin": "PL7471689683",
                "operator": "Gmina Lewin Brzeski",
                "operator:type": "government",
                "amenity": "kindergarten"
            }
        },
        {
            "id": 17651,
            "type": "Feature",
            "geometry": {
                "type": "Point",
                "coordinates": [
                    17.62161,
                    50.74951
                ]
            },
            "properties": {
                "ref:rspo": 17651,
                "official_name": "Przedszkole Publiczne nr 2",
                "name": "Przedszkole Publiczne nr 2",
                "addr:postcode": "49-340",
                "addr:city": "Lewin Brzeski",
                "addr:street": "Gabriela Narutowicza",
                "addr:housenumber": "2",
                "addr:city:simc": 965720,
                "addr:street:sym_ul": 14015,
                "phone": "+48 774127682",
                "email": "ppnr2lewinb@poczta.onet.pl",
                "ref:regon": "530584054",
                "ref:vatin": "PL7471689708",
                "operator": "Gmina Lewin Brzeski",
                "operator:type": "government",
                "amenity": "kindergarten"
            }
        },
        {
            "id": 22515,
            "type": "Feature",
            "geometry": {
                "type": "Point",
                "coordinates": [
                    17.61571,
                    50.75488
                ]
            },
            "properties": {
                "isced:level": "1;2",
                "ref:rspo": 22515,
                "official_name": "Publiczna Szko\u0142a Podstawowa im. Miko\u0142aja Kopernika w Lewinie Brzeskim",
                "name": "Publiczna Szko\u0142a Podstawowa",
                "addr:postcode": "49-340",
                "addr:city": "Lewin Brzeski",
                "addr:street": "Tadeusza Ko\u015bciuszki",
                "addr:housenumber": "61",
                "addr:city:simc": 965720,
                "addr:street:sym_ul": 9572,
                "phone": "+48 774127591",
                "email": "splewbrze@gazeta.pl",
                "website": "http:\/\/www.sp_lewin_brzeski.wodip.opole.pl",
                "ref:regon": "000256550",
                "ref:vatin": "PL7471619582",
                "operator": "Gmina Lewin Brzeski",
                "operator:type": "government",
                "amenity": "school"
            }
        },
        {
            "id": 17653,
            "type": "Feature",
            "geometry": {
                "type": "Point",
                "coordinates": [
                    17.68171,
                    50.75773
                ]
            },
            "properties": {
                "ref:rspo": 17653,
                "official_name": "Przedszkole Publiczne w Skorogoszczy",
                "name": "Przedszkole Publiczne w Skorogoszczy",
                "addr:postcode": "49-345",
                "addr:city": "Skorogoszcz",
                "addr:street": "Juliusza S\u0142owackiego",
                "addr:housenumber": "1",
                "addr:city:simc": 498282,
                "addr:street:sym_ul": 20286,
                "phone": "+48 774121083",
                "email": "ppskorogoszcz@gmail.com",
                "ref:regon": "530584077",
                "ref:vatin": "PL7471674374",
                "operator": "Gmina Lewin Brzeski",
                "operator:type": "government",
                "amenity": "kindergarten"
            }
        },
        {
            "id": 18648,
            "type": "Feature",
            "geometry": {
                "type": "Point",
                "coordinates": [
                    17.67901,
                    50.76021
                ]
            },
            "properties": {
                "isced:level": "1;2",
                "ref:rspo": 18648,
                "official_name": "Publiczna Szko\u0142a Podstawowa im. Kawaler\u00f3w Orderu U\u015bmiechu",
                "name": "Publiczna Szko\u0142a Podstawowa",
                "addr:postcode": "49-345",
                "addr:city": "Skorogoszcz",
                "addr:street": "Zamkowa",
                "addr:housenumber": "6",
                "addr:city:simc": 498282,
                "addr:street:sym_ul": 25547,
                "phone": "+48 774121753",
                "email": "psp@skorogoszcz.pl",
                "website": "http:\/\/psp.skorogoszcz.pl",
                "ref:regon": "001183468",
                "ref:vatin": "PL7471619607",
                "operator": "Gmina Lewin Brzeski",
                "operator:type": "government",
                "amenity": "school"
            }
        },
        {
            "id": 17652,
            "type": "Feature",
            "geometry": {
                "type": "Point",
                "coordinates": [
                    17.56819,
                    50.79023
                ]
            },
            "properties": {
                "ref:rspo": 17652,
                "official_name": "Przedszkole Publiczne nr 1",
                "name": "Przedszkole Publiczne nr 1",
                "addr:postcode": "49-330",
                "addr:city": "\u0141osi\u00f3w",
                "addr:street": "G\u0142\u00f3wna",
                "addr:housenumber": "32",
                "addr:city:simc": 498187,
                "addr:street:sym_ul": 5635,
                "phone": "+48 774125396",
                "email": "przedszkolelosiow@wp.pl",
                "ref:regon": "530584083",
                "ref:vatin": "PL7471674316",
                "operator": "Gmina Lewin Brzeski",
                "operator:type": "government",
                "amenity": "kindergarten"
            }
        },
        {
            "id": 4301,
            "type": "Feature",
            "geometry": {
                "type": "Point",
                "coordinates": [
                    17.55594,
                    50.79277
                ]
            },
            "properties": {
                "ref:rspo": 4301,
                "official_name": "Dzia\u0142 Metodyki Doradztwa, Szkole\u0144 I Wydawnictw",
                "name": "Dzia\u0142 Metodyki Doradztwa, Szkole\u0144 I Wydawnictw",
                "addr:postcode": "49-330",
                "addr:city": "\u0141osi\u00f3w",
                "addr:street": "G\u0142\u00f3wna",
                "addr:housenumber": "1",
                "addr:city:simc": 498187,
                "addr:street:sym_ul": 5635,
                "phone": "+48 774125391",
                "email": "szkolenia@oodr.pl",
                "ref:regon": "161476054",
                "operator": "Opolski O\u015brodek Doradztwa Rolniczego \u0141osi\u00f3w",
                "operator:type": "private",
                "fixme": "w zale\u017cno\u015bci od przedmiotu dzia\u0142alno\u015bci (np. amenity=training + training=*, amenity=dancing_school, amenity=language_school, amenity=music_school)"
            }
        },
        {
            "id": 18650,
            "type": "Feature",
            "geometry": {
                "type": "Point",
                "coordinates": [
                    17.57162,
                    50.79341
                ]
            },
            "properties": {
                "isced:level": "1;2",
                "ref:rspo": 18650,
                "official_name": "Publiczna Szko\u0142a Podstawowa w \u0141osiowie im. Juliusza S\u0142owackiego",
                "name": "Publiczna Szko\u0142a Podstawowa w \u0141osiowie",
                "addr:postcode": "49-330",
                "addr:city": "\u0141osi\u00f3w",
                "addr:street": "Juliusza S\u0142owackiego",
                "addr:housenumber": "9",
                "addr:city:simc": 498187,
                "addr:street:sym_ul": 20286,
                "phone": "+48 774125326",
                "email": "splosiow@wodip.opole.pl",
                "website": "http:\/\/www.psplosiow.opole.pl",
                "ref:regon": "001183422",
                "ref:vatin": "PL7471619665",
                "operator": "Gmina Lewin Brzeski",
                "operator:type": "government",
                "amenity": "school"
            }
        }
    ]
}