{
    "type": "FeatureCollection",
    "features": [
        {
            "id": 5292,
            "type": "Feature",
            "geometry": {
                "type": "Point",
                "coordinates": [
                    19.18253,
                    51.5683099
                ]
            },
            "properties": {
                "isced:level": "1;2",
                "ref:rspo": 5292,
                "official_name": "Niepubliczna Szko\u0142a Podstawowa im. Lotnik\u00f3w \u0141askich w Teodorach",
                "name": "Niepubliczna Szko\u0142a Podstawowa",
                "addr:postcode": "98-100",
                "addr:place": "Teodory",
                "addr:housenumber": "62",
                "addr:city:simc": 707308,
                "phone": "+48 436752191",
                "email": "sekretariat@szkolateodory.pl",
                "website": "http:\/\/szkolateodory.pl",
                "ref:regon": "101457052",
                "ref:vatin": "PL8311632344",
                "operator": "Wiejskie Stowarzyszenie \"Nasze Sprawy\"",
                "operator:type": "ngo",
                "amenity": "school"
            }
        },
        {
            "id": 68053,
            "type": "Feature",
            "geometry": {
                "type": "Point",
                "coordinates": [
                    19.18253,
                    51.5682799
                ]
            },
            "properties": {
                "ref:rspo": 68053,
                "official_name": "Niepubliczne Przedszkole w Teodorach",
                "name": "Niepubliczne Przedszkole w Teodorach",
                "addr:postcode": "98-100",
                "addr:place": "Teodory",
                "addr:housenumber": "62",
                "addr:city:simc": 707308,
                "phone": "+48 436752191",
                "email": "przedszkole@szkolateodory.pl",
                "website": "http:\/\/www.szkolateodory.pl\/przedszkole",
                "ref:regon": "101493912",
                "ref:vatin": "PL8311615564",
                "operator": "Wiejskie Stowarzyszenie \"Nasze Sprawy\"",
                "operator:type": "ngo",
                "amenity": "kindergarten"
            }
        },
        {
            "id": 44611,
            "type": "Feature",
            "geometry": {
                "type": "Point",
                "coordinates": [
                    19.10189,
                    51.5704
                ]
            },
            "properties": {
                "isced:level": "1;2",
                "ref:rspo": 44611,
                "official_name": "Niepubliczna Szko\u0142a Podstawowa w \u0141opatkach",
                "name": "Niepubliczna Szko\u0142a Podstawowa w \u0141opatkach",
                "addr:postcode": "98-100",
                "addr:place": "\u0141opatki",
                "addr:housenumber": "24",
                "addr:city:simc": 707053,
                "phone": "+48 436753642",
                "email": "splopatki@go2.pl",
                "ref:regon": "101485522",
                "ref:vatin": "PL8311632367",
                "operator": "Wiejskie Stowarzyszenie \"Wie\u015b Dzieciom\"",
                "operator:type": "ngo",
                "amenity": "school"
            }
        },
        {
            "id": 106241,
            "type": "Feature",
            "geometry": {
                "type": "Point",
                "coordinates": [
                    19.10189,
                    51.57037
                ]
            },
            "properties": {
                "ref:rspo": 106241,
                "official_name": "Niepubliczne Przedszkole \"Iskierka\" w \u0141opatkach",
                "name": "Niepubliczne Przedszkole \"Iskierka\" w \u0141opatkach",
                "addr:postcode": "98-100",
                "addr:place": "\u0141opatki",
                "addr:housenumber": "24",
                "addr:city:simc": 707053,
                "phone": "+48 436753642",
                "email": "splopatki@go2.pl",
                "ref:regon": "101529975",
                "ref:vatin": "PL8311632628",
                "operator": "Wiejskie Stowarzyszenie \"Wie\u015b Dzieciom\"",
                "operator:type": "ngo",
                "amenity": "kindergarten"
            }
        },
        {
            "id": 20252,
            "type": "Feature",
            "geometry": {
                "type": "Point",
                "coordinates": [
                    19.16381,
                    51.58691
                ]
            },
            "properties": {
                "ref:rspo": 20252,
                "official_name": "Zesp\u00f3\u0142 Szk\u00f3\u0142 Mundurowo - Technicznych w Ostrowie",
                "name": "Zesp\u00f3\u0142 Szk\u00f3\u0142 Mundurowo - Technicznych w Ostrowie",
                "addr:postcode": "98-100",
                "addr:city": "Ostr\u00f3w",
                "addr:street": "Dworska",
                "addr:housenumber": "2",
                "addr:city:simc": 707165,
                "addr:street:sym_ul": 4446,
                "phone": "+48 436753461",
                "email": "kontakt@zsmt.pl",
                "website": "http:\/\/www.zsmt.pl",
                "ref:regon": "000097330",
                "ref:vatin": "PL8311287373",
                "operator": "Powiat \u0141aski",
                "operator:type": "government",
                "landuse": "education",
                "fixme": "amenity=school, amenity=college albo landuse=education w zale\u017cno\u015bci od tego, jakie plac\u00f3wki wchodz\u0105 w sk\u0142ad zespo\u0142u. Sprawd\u017a, kiedy stosowa\u0107 amenity=* a kiedy landuse=education.",
                "note": "Children RSPO: 21224;21247"
            }
        },
        {
            "id": 21224,
            "type": "Feature",
            "geometry": {
                "type": "Point",
                "coordinates": [
                    19.16381,
                    51.58688
                ]
            },
            "properties": {
                "isced:level": "3",
                "ref:rspo": 21224,
                "official_name": "Liceum Og\u00f3lnokszta\u0142c\u0105ce w Zespole Szk\u00f3\u0142 Mundurowo - Technicznych w Ostrowie",
                "name": "Liceum Og\u00f3lnokszta\u0142c\u0105ce w Zespole Szk\u00f3\u0142 Mundurowo - Technicznych w Ostrowie",
                "addr:postcode": "98-100",
                "addr:city": "Ostr\u00f3w",
                "addr:street": "Dworska",
                "addr:housenumber": "2",
                "addr:city:simc": 707165,
                "addr:street:sym_ul": 4446,
                "phone": "+48 436753461",
                "email": "kontakt@zsmt.pl",
                "ref:regon": "100541431",
                "operator": "Powiat \u0141aski",
                "operator:type": "government",
                "amenity": "school",
                "note": "Parent RSPO: 20252"
            }
        },
        {
            "id": 21247,
            "type": "Feature",
            "geometry": {
                "type": "Point",
                "coordinates": [
                    19.16381,
                    51.586850000000005
                ]
            },
            "properties": {
                "isced:level": "3",
                "ref:rspo": 21247,
                "official_name": "Bran\u017cowa Szko\u0142a I Stopnia w Zespole Szk\u00f3\u0142 Mundurowo - Technicznych w Ostrowie",
                "name": "Bran\u017cowa Szko\u0142a I Stopnia w Zespole Szk\u00f3\u0142 Mundurowo - Technicznych w Ostrowie",
                "addr:postcode": "98-100",
                "addr:city": "Ostr\u00f3w",
                "addr:street": "Dworska",
                "addr:housenumber": "2",
                "addr:city:simc": 707165,
                "addr:street:sym_ul": 4446,
                "phone": "+48 436753461",
                "email": "kontakt@zsmt.pl",
                "ref:regon": "731501495",
                "operator": "Powiat \u0141aski",
                "operator:type": "government",
                "amenity": "school",
                "note": "Parent RSPO: 20252"
            }
        },
        {
            "id": 132973,
            "type": "Feature",
            "geometry": {
                "type": "Point",
                "coordinates": [
                    19.1618688,
                    51.5874151
                ]
            },
            "properties": {
                "ref:rspo": 132973,
                "official_name": "Niepubliczne Przedszkole \"Dzieciak Plus\"",
                "name": "Niepubliczne Przedszkole \"Dzieciak Plus\"",
                "addr:postcode": "98-100",
                "addr:city": "\u0141ask",
                "addr:street": "D\u0119bowa",
                "addr:housenumber": "1",
                "addr:city:simc": 976296,
                "addr:street:sym_ul": 3811,
                "phone": "+48 608449119",
                "email": "przedszkole@dzieciakplus.pl",
                "website": "http:\/\/www.dzieciakplus.pl",
                "ref:regon": "366431601",
                "ref:vatin": "PL8311410359",
                "operator": "Aleksandra Owczarek",
                "operator:type": "private",
                "amenity": "kindergarten"
            }
        },
        {
            "id": 4993,
            "type": "Feature",
            "geometry": {
                "type": "Point",
                "coordinates": [
                    19.13557,
                    51.58749
                ]
            },
            "properties": {
                "ref:rspo": 4993,
                "official_name": "Przedszkole Publiczne Nr 5 im. Juliana Tuwima w \u0141asku",
                "name": "Przedszkole Publiczne Nr 5",
                "addr:postcode": "98-100",
                "addr:city": "\u0141ask",
                "addr:street": "Jana Paw\u0142a II",
                "addr:housenumber": "11",
                "addr:city:simc": 976296,
                "addr:street:sym_ul": 7123,
                "phone": "+48 436753564",
                "email": "pp5lask@wikom.pl",
                "website": "http:\/\/www.pp5lask.wikom.pl",
                "ref:regon": "731495240",
                "ref:vatin": "PL8311563637",
                "operator": "Gmina \u0141ask",
                "operator:type": "government",
                "amenity": "kindergarten"
            }
        },
        {
            "id": 20275,
            "type": "Feature",
            "geometry": {
                "type": "Point",
                "coordinates": [
                    19.15369,
                    51.58785
                ]
            },
            "properties": {
                "ref:rspo": 20275,
                "official_name": "Poradnia Psychologiczno - Pedagogiczna w \u0141asku",
                "name": "Poradnia Psychologiczno - Pedagogiczna w \u0141asku",
                "addr:postcode": "98-100",
                "addr:city": "\u0141ask",
                "addr:street": "Stefana Batorego",
                "addr:housenumber": "31",
                "addr:city:simc": 976296,
                "addr:street:sym_ul": 891,
                "phone": "+48 436752046",
                "email": "ppplask@wikom.pl",
                "website": "http:\/\/www.ppplask.wikom.pl",
                "ref:regon": "000734943",
                "ref:vatin": "PL8311521426",
                "operator": "Powiat \u0141aski",
                "operator:type": "government",
                "healthcare": "counselling",
                "counselling_type": "education",
                "fixme": "w zale\u017cno\u015bci od przedmiotu dzia\u0142alno\u015bci (np. healthcare=counselling + counselling_type=education albo healthcare=psychotherapist)"
            }
        },
        {
            "id": 4977,
            "type": "Feature",
            "geometry": {
                "type": "Point",
                "coordinates": [
                    19.1346,
                    51.58819
                ]
            },
            "properties": {
                "ref:rspo": 4977,
                "official_name": "Przedszkole Publiczne Nr 1 w \u0141asku",
                "name": "Przedszkole Publiczne Nr 1 w \u0141asku",
                "addr:postcode": "98-100",
                "addr:city": "\u0141ask",
                "addr:street": "Jana Paw\u0142a II",
                "addr:housenumber": "6b",
                "addr:city:simc": 976296,
                "addr:street:sym_ul": 7123,
                "phone": "+48 436753450",
                "email": "przedszkolenr1.lask@wp.pl",
                "website": "http:\/\/www.pp1lask.wikom.pl",
                "ref:regon": "731495263",
                "ref:vatin": "PL8311563666",
                "operator": "Gmina \u0141ask",
                "operator:type": "government",
                "amenity": "kindergarten"
            }
        },
        {
            "id": 3724,
            "type": "Feature",
            "geometry": {
                "type": "Point",
                "coordinates": [
                    19.14813,
                    51.58836
                ]
            },
            "properties": {
                "ref:rspo": 3724,
                "official_name": "Niepubliczny Punkt Przedszkolny \"Pty\u015b\"",
                "name": "Niepubliczny Punkt Przedszkolny \"Pty\u015b\"",
                "addr:postcode": "98-100",
                "addr:city": "\u0141ask",
                "addr:street": "Stefana Batorego",
                "addr:housenumber": "42",
                "addr:city:simc": 976296,
                "addr:street:sym_ul": 891,
                "phone": "+48 504767642",
                "email": "ptys.lask@interia.pl",
                "ref:regon": "101453019",
                "ref:vatin": "PL7581074184",
                "operator": "Agnieszka Kasprzak",
                "operator:type": "private",
                "amenity": "kindergarten"
            }
        },
        {
            "id": 48673,
            "type": "Feature",
            "geometry": {
                "type": "Point",
                "coordinates": [
                    19.134,
                    51.58871
                ]
            },
            "properties": {
                "ref:rspo": 48673,
                "official_name": "Przedszkole Publiczne Nr 3 im. \"Misiaczek\" w \u0141asku",
                "name": "Przedszkole Publiczne Nr 3",
                "addr:postcode": "98-100",
                "addr:city": "\u0141ask",
                "addr:street": "Gabriela Narutowicza",
                "addr:housenumber": "11a",
                "addr:city:simc": 976296,
                "addr:street:sym_ul": 14018,
                "phone": "+48 436752032",
                "email": "misiaczek.lask@op.pl",
                "website": "http:\/\/www.pp3misiaczek.wikom.pl",
                "ref:regon": "731495257",
                "ref:vatin": "PL8311563672",
                "operator": "Gmina \u0141ask",
                "operator:type": "government",
                "amenity": "kindergarten"
            }
        },
        {
            "id": 40543,
            "type": "Feature",
            "geometry": {
                "type": "Point",
                "coordinates": [
                    19.14649,
                    51.58878
                ]
            },
            "properties": {
                "ref:rspo": 40543,
                "official_name": "Przedszkole Publiczne Nr 6 im. \"S\u0142oneczko\" w \u0141asku",
                "name": "Przedszkole Publiczne Nr 6",
                "addr:postcode": "98-100",
                "addr:city": "\u0141ask",
                "addr:street": "Stefana Batorego",
                "addr:housenumber": "32",
                "addr:city:simc": 976296,
                "addr:street:sym_ul": 891,
                "phone": "+48 436753270",
                "email": "pp6lask@wikom.pl",
                "website": "http:\/\/www.pp6lask.wikom.pl",
                "ref:regon": "731495228",
                "ref:vatin": "PL8311563620",
                "operator": "Gmina \u0141ask",
                "operator:type": "government",
                "amenity": "kindergarten"
            }
        },
        {
            "id": 20291,
            "type": "Feature",
            "geometry": {
                "type": "Point",
                "coordinates": [
                    19.12793,
                    51.5888599
                ]
            },
            "properties": {
                "ref:rspo": 20291,
                "official_name": "Specjalny O\u015brodek Szkolno-Wychowawczy w \u0141asku",
                "name": "Specjalny O\u015brodek Szkolno-Wychowawczy w \u0141asku",
                "addr:postcode": "98-100",
                "addr:city": "\u0141ask",
                "addr:street": "Adama Mickiewicza",
                "addr:housenumber": "6",
                "addr:city:simc": 976296,
                "addr:street:sym_ul": 12740,
                "phone": "+48 436752637",
                "email": "sekretariat@soszwl.com",
                "website": "http:\/\/www.soszwl.pl",
                "ref:regon": "000198864",
                "ref:vatin": "PL8311137679",
                "operator": "Powiat \u0141aski",
                "operator:type": "government",
                "amenity": "school",
                "note": "Children RSPO: 12488;50404;61418;61453"
            }
        },
        {
            "id": 12488,
            "type": "Feature",
            "geometry": {
                "type": "Point",
                "coordinates": [
                    19.12793,
                    51.5888299
                ]
            },
            "properties": {
                "ref:rspo": 12488,
                "official_name": "Przedszkole Specjalne Nr 7 w Specjalnym O\u015brodku Szkolno - Wychowawczym w \u0141asku",
                "name": "Przedszkole Specjalne Nr 7 w Specjalnym O\u015brodku Szkolno - Wychowawczym w \u0141asku",
                "addr:postcode": "98-100",
                "addr:city": "\u0141ask",
                "addr:street": "Adama Mickiewicza",
                "addr:housenumber": "6",
                "addr:city:simc": 976296,
                "addr:street:sym_ul": 12740,
                "phone": "+48 436752637",
                "email": "dyrektor@soszwl.com",
                "website": "http:\/\/www.soszwl.pl\/",
                "ref:regon": "101465790",
                "ref:vatin": "PL8311137679",
                "operator": "Powiat \u0141aski",
                "operator:type": "government",
                "amenity": "kindergarten",
                "note": "Parent RSPO: 20291"
            }
        },
        {
            "id": 50404,
            "type": "Feature",
            "geometry": {
                "type": "Point",
                "coordinates": [
                    19.12793,
                    51.588799900000005
                ]
            },
            "properties": {
                "isced:level": "1;2",
                "ref:rspo": 50404,
                "official_name": "Szko\u0142a Podstawowa Specjalna Nr 6 w \u0141asku",
                "name": "Szko\u0142a Podstawowa Specjalna Nr 6 w \u0141asku",
                "addr:postcode": "98-100",
                "addr:city": "\u0141ask",
                "addr:street": "Adama Mickiewicza",
                "addr:housenumber": "6",
                "addr:city:simc": 976296,
                "addr:street:sym_ul": 12740,
                "phone": "+48 436752637",
                "email": "sekretariat@soszwl.com",
                "ref:regon": "000733470",
                "operator": "Powiat \u0141aski",
                "operator:type": "government",
                "amenity": "school",
                "note": "Parent RSPO: 20291"
            }
        },
        {
            "id": 61418,
            "type": "Feature",
            "geometry": {
                "type": "Point",
                "coordinates": [
                    19.12793,
                    51.5887699
                ]
            },
            "properties": {
                "isced:level": "3",
                "ref:rspo": 61418,
                "official_name": "Bran\u017cowa Szko\u0142a Specjalna I Stopnia Nr 3 w \u0141asku",
                "name": "Bran\u017cowa Szko\u0142a Specjalna I Stopnia Nr 3 w \u0141asku",
                "addr:postcode": "98-100",
                "addr:city": "\u0141ask",
                "addr:street": "Adama Mickiewicza",
                "addr:housenumber": "6",
                "addr:city:simc": 976296,
                "addr:street:sym_ul": 12740,
                "phone": "+48 436756825",
                "email": "sekretariat@soszwl.com",
                "ref:regon": "731642250",
                "operator": "Powiat \u0141aski",
                "operator:type": "government",
                "amenity": "school",
                "note": "Parent RSPO: 20291"
            }
        },
        {
            "id": 61453,
            "type": "Feature",
            "geometry": {
                "type": "Point",
                "coordinates": [
                    19.12793,
                    51.5887399
                ]
            },
            "properties": {
                "ref:rspo": 61453,
                "official_name": "Szko\u0142a Specjalna Przysposabiaj\u0105ca Do Pracy w \u0141asku",
                "name": "Szko\u0142a Specjalna Przysposabiaj\u0105ca Do Pracy w \u0141asku",
                "addr:postcode": "98-100",
                "addr:city": "\u0141ask",
                "addr:street": "Adama Mickiewicza",
                "addr:housenumber": "6",
                "addr:city:simc": 976296,
                "addr:street:sym_ul": 12740,
                "phone": "+48 436756825",
                "email": "sekretariat@soszwl.com",
                "ref:regon": "100221577",
                "operator": "Powiat \u0141aski",
                "operator:type": "government",
                "amenity": "school",
                "note": "Parent RSPO: 20291"
            }
        },
        {
            "id": 15669,
            "type": "Feature",
            "geometry": {
                "type": "Point",
                "coordinates": [
                    19.13776,
                    51.59003
                ]
            },
            "properties": {
                "ref:rspo": 15669,
                "official_name": "Zesp\u00f3\u0142 Szk\u00f3\u0142 Ponadpodstawowych Nr 1 w \u0141asku",
                "name": "Zesp\u00f3\u0142 Szk\u00f3\u0142 Ponadpodstawowych Nr 1 w \u0141asku",
                "addr:postcode": "98-100",
                "addr:city": "\u0141ask",
                "addr:street": "9 Maja",
                "addr:housenumber": "28",
                "addr:city:simc": 976296,
                "addr:street:sym_ul": 11941,
                "phone": "+48 436752103",
                "email": "ekonomik1@ekonomik1.pl",
                "website": "http:\/\/www.ekonomik1.pl",
                "ref:regon": "000656976",
                "ref:vatin": "PL8311039675",
                "operator": "Powiat \u0141aski",
                "operator:type": "government",
                "landuse": "education",
                "fixme": "amenity=school, amenity=college albo landuse=education w zale\u017cno\u015bci od tego, jakie plac\u00f3wki wchodz\u0105 w sk\u0142ad zespo\u0142u. Sprawd\u017a, kiedy stosowa\u0107 amenity=* a kiedy landuse=education.",
                "note": "Children RSPO: 17050;17061;17176"
            }
        },
        {
            "id": 17050,
            "type": "Feature",
            "geometry": {
                "type": "Point",
                "coordinates": [
                    19.13776,
                    51.589999999999996
                ]
            },
            "properties": {
                "isced:level": "3",
                "ref:rspo": 17050,
                "official_name": "Technikum Nr 1 w Zespole Szk\u00f3\u0142 Ponadpodstawowych Nr 1 w \u0141asku",
                "name": "Technikum Nr 1 w Zespole Szk\u00f3\u0142 Ponadpodstawowych Nr 1 w \u0141asku",
                "addr:postcode": "98-100",
                "addr:city": "\u0141ask",
                "addr:street": "9 Maja",
                "addr:housenumber": "28",
                "addr:city:simc": 976296,
                "addr:street:sym_ul": 11941,
                "phone": "+48 436752103",
                "email": "ekonomik1@ekonomik1.pl",
                "website": "http:\/\/www.ekonomik1.pl",
                "ref:regon": "731589745",
                "operator": "Powiat \u0141aski",
                "operator:type": "government",
                "amenity": "school",
                "note": "Parent RSPO: 15669"
            }
        },
        {
            "id": 17061,
            "type": "Feature",
            "geometry": {
                "type": "Point",
                "coordinates": [
                    19.13776,
                    51.58997
                ]
            },
            "properties": {
                "isced:level": "3",
                "ref:rspo": 17061,
                "official_name": "Ii Liceum Og\u00f3lnokszta\u0142c\u0105ce w \u0141asku",
                "name": "Ii Liceum Og\u00f3lnokszta\u0142c\u0105ce w \u0141asku",
                "addr:postcode": "98-100",
                "addr:city": "\u0141ask",
                "addr:street": "9 Maja",
                "addr:housenumber": "28",
                "addr:city:simc": 976296,
                "addr:street:sym_ul": 11941,
                "phone": "+48 436752103",
                "email": "ekonomik1@ekonomik1.pl",
                "website": "http:\/\/www.ekonomik1.pl",
                "ref:regon": "731502141",
                "operator": "Powiat \u0141aski",
                "operator:type": "government",
                "amenity": "school",
                "note": "Parent RSPO: 15669"
            }
        },
        {
            "id": 17176,
            "type": "Feature",
            "geometry": {
                "type": "Point",
                "coordinates": [
                    19.13776,
                    51.58994
                ]
            },
            "properties": {
                "isced:level": "3",
                "ref:rspo": 17176,
                "official_name": "Bran\u017cowa Szko\u0142a I Stopnia Nr 1 w Zespole Szk\u00f3\u0142 Ponadpodstawowych Nr 1 w \u0141asku",
                "name": "Bran\u017cowa Szko\u0142a I Stopnia Nr 1 w Zespole Szk\u00f3\u0142 Ponadpodstawowych Nr 1 w \u0141asku",
                "addr:postcode": "98-100",
                "addr:city": "\u0141ask",
                "addr:street": "9 Maja",
                "addr:housenumber": "28",
                "addr:city:simc": 976296,
                "addr:street:sym_ul": 11941,
                "phone": "+48 436752103",
                "email": "ekonomik1@ekonomik1.pl",
                "website": "http:\/\/www.ekonomik1.pl",
                "ref:regon": "731502158",
                "operator": "Powiat \u0141aski",
                "operator:type": "government",
                "amenity": "school",
                "note": "Parent RSPO: 15669"
            }
        },
        {
            "id": 40655,
            "type": "Feature",
            "geometry": {
                "type": "Point",
                "coordinates": [
                    19.13435,
                    51.59026
                ]
            },
            "properties": {
                "isced:level": "1;2",
                "ref:rspo": 40655,
                "official_name": "Szko\u0142a Podstawowa Nr 1 im. Tadeusza Ko\u015bciuszki w \u0141asku",
                "name": "Szko\u0142a Podstawowa Nr 1",
                "addr:postcode": "98-100",
                "addr:city": "\u0141ask",
                "addr:street": "9 Maja",
                "addr:housenumber": "12",
                "addr:city:simc": 976296,
                "addr:street:sym_ul": 11941,
                "phone": "+48 436753521",
                "email": "sp1lask@wikom.pl",
                "website": "http:\/\/www.sp1lask.wikom.pl",
                "ref:regon": "000733518",
                "ref:vatin": "PL8311561667",
                "operator": "Gmina \u0141ask",
                "operator:type": "government",
                "amenity": "school"
            }
        },
        {
            "id": 19595,
            "type": "Feature",
            "geometry": {
                "type": "Point",
                "coordinates": [
                    19.13336,
                    51.5904
                ]
            },
            "properties": {
                "ref:rspo": 19595,
                "official_name": "Biblioteka Pedagogiczna w Sieradzu Filia w \u0141asku",
                "name": "Biblioteka Pedagogiczna w Sieradzu Filia w \u0141asku",
                "addr:postcode": "98-100",
                "addr:city": "\u0141ask",
                "addr:street": "9 Maja",
                "addr:housenumber": "6",
                "addr:city:simc": 976296,
                "addr:street:sym_ul": 11941,
                "phone": "+48 436752027",
                "email": "filialask@bpsieradz.pl",
                "ref:regon": "734920000",
                "operator": "Wojew\u00f3dztwo \u0141\u00f3dzkie",
                "operator:type": "government",
                "amenity": "library",
                "note": "Parent RSPO: 12847"
            }
        },
        {
            "id": 7276,
            "type": "Feature",
            "geometry": {
                "type": "Point",
                "coordinates": [
                    19.12902,
                    51.59053
                ]
            },
            "properties": {
                "isced:level": "3",
                "ref:rspo": 7276,
                "official_name": "I Liceum Og\u00f3lnokszta\u0142c\u0105ce im. Tadeusza Ko\u015bciuszki w \u0141asku",
                "name": "I Liceum Og\u00f3lnokszta\u0142c\u0105ce",
                "addr:postcode": "98-100",
                "addr:city": "\u0141ask",
                "addr:street": "Adama Mickiewicza",
                "addr:housenumber": "1",
                "addr:city:simc": 976296,
                "addr:street:sym_ul": 12740,
                "phone": "+48 436753526",
                "email": "sekretariat@1lo-lask.pl",
                "website": "http:\/\/www.1lo-lask.pl\/",
                "ref:regon": "000228855",
                "ref:vatin": "PL8311247273",
                "operator": "Powiat \u0141aski",
                "operator:type": "government",
                "amenity": "school"
            }
        },
        {
            "id": 12772,
            "type": "Feature",
            "geometry": {
                "type": "Point",
                "coordinates": [
                    19.12902,
                    51.5905
                ]
            },
            "properties": {
                "ref:rspo": 12772,
                "official_name": "O\u015brodek Kszta\u0142cenia Ustawicznego \"Amaran\"",
                "name": "O\u015brodek Kszta\u0142cenia Ustawicznego \"Amaran\"",
                "addr:postcode": "98-100",
                "addr:city": "\u0141ask",
                "addr:street": "Adama Mickiewicza",
                "addr:housenumber": "1",
                "addr:city:simc": 976296,
                "addr:street:sym_ul": 12740,
                "phone": "+48 505121191",
                "email": "marek.aulak@wp.pl",
                "ref:regon": "101466111",
                "ref:vatin": "PL8311004406",
                "operator": "Marek Aulak",
                "operator:type": "private",
                "fixme": "w zale\u017cno\u015bci od przedmiotu dzia\u0142alno\u015bci (np. amenity=training + training=*, amenity=dancing_school, amenity=language_school, amenity=music_school)"
            }
        },
        {
            "id": 20963,
            "type": "Feature",
            "geometry": {
                "type": "Point",
                "coordinates": [
                    19.13638,
                    51.59079
                ]
            },
            "properties": {
                "ref:rspo": 20963,
                "official_name": "O\u015brodek Kszta\u0142cenia Zawodowego - Cech Rzemios\u0142 im. Jana \u0141askiego w \u0141asku",
                "name": "O\u015brodek Kszta\u0142cenia Zawodowego - Cech Rzemios\u0142",
                "addr:postcode": "98-100",
                "addr:city": "\u0141ask",
                "addr:street": "Tadeusza Ko\u015bciuszki",
                "addr:housenumber": "22",
                "addr:city:simc": 976296,
                "addr:street:sym_ul": 9582,
                "phone": "+48 436753531",
                "email": "cechlask@op.pl",
                "ref:regon": "101474990",
                "ref:vatin": "PL8311029760",
                "operator": "Izba Rzemie\u015blnicza W \u0141odzi",
                "operator:type": "cooperative",
                "fixme": "w zale\u017cno\u015bci od przedmiotu dzia\u0142alno\u015bci (np. amenity=training + training=*, amenity=dancing_school, amenity=language_school, amenity=music_school)"
            }
        },
        {
            "id": 66470,
            "type": "Feature",
            "geometry": {
                "type": "Point",
                "coordinates": [
                    19.1615499,
                    51.59155
                ]
            },
            "properties": {
                "isced:level": "1;2",
                "ref:rspo": 66470,
                "official_name": "Szko\u0142a Podstawowa Nr 5 im. Miko\u0142aja Kopernika w \u0141asku",
                "name": "Szko\u0142a Podstawowa Nr 5",
                "addr:postcode": "98-100",
                "addr:city": "\u0141ask",
                "addr:street": "Szkolna",
                "addr:housenumber": "1",
                "addr:city:simc": 976296,
                "addr:street:sym_ul": 21970,
                "phone": "+48 436761023",
                "email": "sp5lask@prospen.pl",
                "website": "http:\/\/www.sp5lask.szkolnastrona.pl",
                "ref:regon": "730038871",
                "ref:vatin": "PL8311561638",
                "operator": "Gmina \u0141ask",
                "operator:type": "government",
                "amenity": "school"
            }
        },
        {
            "id": 20712,
            "type": "Feature",
            "geometry": {
                "type": "Point",
                "coordinates": [
                    19.1360199,
                    51.59192
                ]
            },
            "properties": {
                "ref:rspo": 20712,
                "official_name": "Mi\u0119dzyszkolny O\u015brodek Sportowy w \u0141asku",
                "name": "Mi\u0119dzyszkolny O\u015brodek Sportowy w \u0141asku",
                "addr:postcode": "98-100",
                "addr:city": "\u0141ask",
                "addr:street": "Warszawska",
                "addr:housenumber": "13",
                "addr:city:simc": 976296,
                "addr:street:sym_ul": 23682,
                "ref:regon": "001060910",
                "ref:vatin": "PL8311524117",
                "operator": "Powiat \u0141aski",
                "operator:type": "government",
                "leisure": "sports_centre"
            }
        },
        {
            "id": 4330,
            "type": "Feature",
            "geometry": {
                "type": "Point",
                "coordinates": [
                    19.06322,
                    51.59232
                ]
            },
            "properties": {
                "isced:level": "1;2",
                "ref:rspo": 4330,
                "official_name": "Szko\u0142a Podstawowa im. Janusza Korczaka w Okupie",
                "name": "Szko\u0142a Podstawowa",
                "addr:postcode": "98-100",
                "addr:city": "Okup Ma\u0142y",
                "addr:street": "Akacjowa",
                "addr:housenumber": "4",
                "addr:city:simc": 707107,
                "addr:street:sym_ul": 157,
                "phone": "+48 436751125",
                "email": "sp_okup@o2.pl",
                "website": "http:\/\/www.spokup.wikom.pl",
                "ref:regon": "000734742",
                "ref:vatin": "PL8311561710",
                "operator": "Gmina \u0141ask",
                "operator:type": "government",
                "amenity": "school"
            }
        },
        {
            "id": 20978,
            "type": "Feature",
            "geometry": {
                "type": "Point",
                "coordinates": [
                    19.13126,
                    51.59351
                ]
            },
            "properties": {
                "ref:rspo": 20978,
                "official_name": "Liga Obrony Kraju O\u015brodek Kszta\u0142cenia Pozaszkolnego w \u0141asku",
                "name": "Liga Obrony Kraju O\u015brodek Kszta\u0142cenia Pozaszkolnego w \u0141asku",
                "addr:postcode": "98-100",
                "addr:city": "\u0141ask",
                "addr:street": "Stefana \u017beromskiego",
                "addr:housenumber": "14",
                "addr:city:simc": 976296,
                "addr:street:sym_ul": 26469,
                "phone": "+48 436753747",
                "email": "biuro.lask@lok.org.pl",
                "ref:regon": "101476121",
                "ref:vatin": "PL8310003356",
                "operator": "Liga Obrony Kraju",
                "operator:type": "ngo",
                "fixme": "w zale\u017cno\u015bci od przedmiotu dzia\u0142alno\u015bci (np. amenity=training + training=*, amenity=dancing_school, amenity=language_school, amenity=music_school)"
            }
        },
        {
            "id": 40827,
            "type": "Feature",
            "geometry": {
                "type": "Point",
                "coordinates": [
                    19.12335,
                    51.60578
                ]
            },
            "properties": {
                "isced:level": "1;2",
                "ref:rspo": 40827,
                "official_name": "Szko\u0142a Podstawowa im. Wojska Polskiego w Wiewi\u00f3rczynie",
                "name": "Szko\u0142a Podstawowa",
                "addr:postcode": "98-100",
                "addr:city": "Wiewi\u00f3rczyn",
                "addr:street": "Szkolna",
                "addr:housenumber": "1",
                "addr:city:simc": 707314,
                "addr:street:sym_ul": 21970,
                "phone": "+48 436753647",
                "email": "spwiewiorczyn@go2.pl",
                "website": "http:\/\/www.szkolawiewiorczyn.pl",
                "ref:regon": "000269156",
                "ref:vatin": "PL8311561785",
                "operator": "Gmina \u0141ask",
                "operator:type": "government",
                "amenity": "school"
            }
        },
        {
            "id": 49369,
            "type": "Feature",
            "geometry": {
                "type": "Point",
                "coordinates": [
                    19.1927,
                    51.61025
                ]
            },
            "properties": {
                "ref:rspo": 49369,
                "official_name": "Przedszkole Publiczne Nr 4 im. \"Le\u015bne Skrzaty\" w \u0141asku",
                "name": "Przedszkole Publiczne Nr 4",
                "addr:postcode": "98-100",
                "addr:city": "\u0141ask",
                "addr:street": "\u0141\u0105czna",
                "addr:housenumber": "1",
                "addr:city:simc": 976296,
                "addr:street:sym_ul": 11577,
                "phone": "+48 436754460",
                "email": "pp4lask@op.pl",
                "website": "http:\/\/www.pp4lask.com.pl",
                "ref:regon": "731495234",
                "ref:vatin": "PL8311563643",
                "operator": "Gmina \u0141ask",
                "operator:type": "government",
                "amenity": "kindergarten"
            }
        },
        {
            "id": 56976,
            "type": "Feature",
            "geometry": {
                "type": "Point",
                "coordinates": [
                    19.20671,
                    51.6123
                ]
            },
            "properties": {
                "ref:rspo": 56976,
                "official_name": "Zesp\u00f3\u0142 Szk\u00f3\u0142 Og\u00f3lnokszta\u0142c\u0105cych im. Ignacego Jana Paderewskiego w \u0141asku - Kolumnie",
                "name": "Zesp\u00f3\u0142 Szk\u00f3\u0142 Og\u00f3lnokszta\u0142c\u0105cych",
                "addr:postcode": "98-100",
                "addr:city": "\u0141ask",
                "addr:street": "Toru\u0144ska",
                "addr:housenumber": "1",
                "addr:city:simc": 976296,
                "addr:street:sym_ul": 22902,
                "phone": "+48 436754660",
                "email": "sekretariat@kolumnazso.pl",
                "website": "http:\/\/www.kolumnazso.pl",
                "ref:regon": "730196200",
                "ref:vatin": "PL8311425013",
                "operator": "Gmina \u0141ask",
                "operator:type": "government",
                "landuse": "education",
                "fixme": "amenity=school, amenity=college albo landuse=education w zale\u017cno\u015bci od tego, jakie plac\u00f3wki wchodz\u0105 w sk\u0142ad zespo\u0142u. Sprawd\u017a, kiedy stosowa\u0107 amenity=* a kiedy landuse=education.",
                "note": "Children RSPO: 65136;66295"
            }
        },
        {
            "id": 65136,
            "type": "Feature",
            "geometry": {
                "type": "Point",
                "coordinates": [
                    19.20671,
                    51.612269999999995
                ]
            },
            "properties": {
                "isced:level": "3",
                "ref:rspo": 65136,
                "official_name": "Liceum Og\u00f3lnokszta\u0142c\u0105ce w Zespole Szk\u00f3\u0142 Og\u00f3lnokszta\u0142c\u0105cych im. Ignacego Jana Paderewskiego w \u0141asku - Kolumnie",
                "name": "Liceum Og\u00f3lnokszta\u0142c\u0105ce w Zespole Szk\u00f3\u0142 Og\u00f3lnokszta\u0142c\u0105cych",
                "addr:postcode": "98-100",
                "addr:city": "\u0141ask",
                "addr:street": "Toru\u0144ska",
                "addr:housenumber": "1",
                "addr:city:simc": 976296,
                "addr:street:sym_ul": 22902,
                "phone": "+48 436754660",
                "email": "sekretariat@kolumnazso.pl",
                "website": "http:\/\/www.kolumnazso.pl",
                "ref:regon": "731502402",
                "ref:vatin": "PL8311561762",
                "operator": "Gmina \u0141ask",
                "operator:type": "government",
                "amenity": "school",
                "note": "Parent RSPO: 56976"
            }
        },
        {
            "id": 66295,
            "type": "Feature",
            "geometry": {
                "type": "Point",
                "coordinates": [
                    19.20671,
                    51.61224
                ]
            },
            "properties": {
                "isced:level": "1;2",
                "ref:rspo": 66295,
                "official_name": "Szko\u0142a Podstawowa Nr 4 w Zespole Szk\u00f3\u0142 Og\u00f3lnokszta\u0142c\u0105cych im. Ignacego Jana Paderewskiego w \u0141asku - Kolumnie",
                "name": "Szko\u0142a Podstawowa Nr 4 w Zespole Szk\u00f3\u0142 Og\u00f3lnokszta\u0142c\u0105cych",
                "addr:postcode": "98-100",
                "addr:city": "\u0141ask",
                "addr:street": "Toru\u0144ska",
                "addr:housenumber": "1",
                "addr:city:simc": 976296,
                "addr:street:sym_ul": 22902,
                "phone": "+48 436754660",
                "email": "sekretariat@kolumnazso.pl",
                "website": "http:\/\/www.kolumnazso.pl",
                "ref:regon": "000733547",
                "ref:vatin": "PL8311561733",
                "operator": "Gmina \u0141ask",
                "operator:type": "government",
                "amenity": "school",
                "note": "Parent RSPO: 56976"
            }
        },
        {
            "id": 4346,
            "type": "Feature",
            "geometry": {
                "type": "Point",
                "coordinates": [
                    19.05333,
                    51.64522
                ]
            },
            "properties": {
                "isced:level": "1;2",
                "ref:rspo": 4346,
                "official_name": "Szko\u0142a Podstawowa im. Jana Paw\u0142a II w Ba\u0142uczu",
                "name": "Szko\u0142a Podstawowa",
                "addr:postcode": "98-100",
                "addr:place": "Kolonia Ba\u0142ucz",
                "addr:housenumber": "32",
                "addr:city:simc": 706898,
                "phone": "+48 436751225",
                "email": "sekretariat@spbalucz.pl",
                "website": "http:\/\/www.spbalucz.pl",
                "ref:regon": "000734771",
                "ref:vatin": "PL8311561644",
                "operator": "Gmina \u0141ask",
                "operator:type": "government",
                "amenity": "school"
            }
        },
        {
            "id": 3668,
            "type": "Feature",
            "geometry": {
                "type": "Point",
                "coordinates": [
                    19.09076,
                    51.67271
                ]
            },
            "properties": {
                "isced:level": "1;2",
                "ref:rspo": 3668,
                "official_name": "Niepubliczna Szko\u0142a Podstawowa we Wrzeszczewicach",
                "name": "Niepubliczna Szko\u0142a Podstawowa we Wrzeszczewicach",
                "addr:postcode": "98-100",
                "addr:place": "Wrzeszczewice",
                "addr:housenumber": "14",
                "addr:city:simc": 707403,
                "phone": "+48 436751421",
                "email": "spwrzeszczewice@poczta.onet.pl",
                "ref:regon": "101452497",
                "ref:vatin": "PL8311632338",
                "operator": "Stowarzyszenie \"Nasza Szko\u0142a - Wrzeszczewice\"",
                "operator:type": "ngo",
                "amenity": "school"
            }
        },
        {
            "id": 105511,
            "type": "Feature",
            "geometry": {
                "type": "Point",
                "coordinates": [
                    19.09076,
                    51.67268
                ]
            },
            "properties": {
                "ref:rspo": 105511,
                "official_name": "Niepubliczne Przedszkole \"Promyczek\" we Wrzeszczewicach",
                "name": "Niepubliczne Przedszkole \"Promyczek\" we Wrzeszczewicach",
                "addr:postcode": "98-100",
                "addr:place": "Wrzeszczewice",
                "addr:housenumber": "14",
                "addr:city:simc": 707403,
                "phone": "+48 436751421",
                "email": "spwrzeszczewice@poczta.onet.pl",
                "ref:regon": "101523501",
                "ref:vatin": "PL8311632580",
                "operator": "Stowarzyszenie \"Nasza Szko\u0142a - Wrzeszczewice\"",
                "operator:type": "ngo",
                "amenity": "kindergarten"
            }
        }
    ]
}