{"type":"FeatureCollection","features":[{"id":87427,"type":"Feature","geometry":{"type":"Point","coordinates":[19.92285,50.10695]},"properties":{"isced:level":"1;2","ref:rspo":87427,"official_name":"Szko\u0142a Podstawowa w Wi\u0144sku","name":"Szko\u0142a Podstawowa w Wi\u0144sku","addr:country":"PL","addr:postcode":"56-160","addr:city":"Wi\u0144sko","addr:street":"ul. Na Piaski","addr:housenumber":"12","addr:teryt:simc":13642,"addr:teryt:sym_ul":882939,"contact:phone":"+48 713898029","contact:email":"szkola@spwinsko.pl","contact:website":"http:\/\/www.spwinsko.pl","ref:regon":"000592414","operator":"Gmina Winsko","operator:type":"government","amenity":"school"}},{"id":87448,"type":"Feature","geometry":{"type":"Point","coordinates":[19.92267,50.10705]},"properties":{"ref:rspo":87448,"official_name":"Przedszkole Samorz\u0105dowe w Wi\u0144sku","name":"Przedszkole Samorz\u0105dowe w Wi\u0144sku","addr:country":"PL","addr:postcode":"56-160","addr:city":"Wi\u0144sko","addr:street":"ul. Na Piaski","addr:housenumber":"10","addr:teryt:simc":13642,"addr:teryt:sym_ul":882939,"contact:phone":"+48 713809056","contact:email":"sekretariat@pswinsko.pl","contact:website":"http:\/\/pswinsko.pl","ref:regon":"000924655","operator":"Gmina Winsko","operator:type":"government","amenity":"kindergarten"}},{"id":85209,"type":"Feature","geometry":{"type":"Point","coordinates":[16.50682,51.3954]},"properties":{"isced:level":"1;2","ref:rspo":85209,"official_name":"Szko\u0142a Podstawowa im. Jana Markiewicza w Orzeszkowie","name":"Szko\u0142a Podstawowa","addr:country":"PL","addr:postcode":"56-160","addr:place":"Orzeszk\u00f3w","addr:housenumber":"9","addr:teryt:sym_ul":882773,"contact:phone":"+48 713896194","contact:email":"sekretariat@sporzeszkow.pl","contact:website":"http:\/\/www.sporzeszkow.pl","ref:regon":"001181162","ref:vatin":"PL9880203940","operator":"Gmina Winsko","operator:type":"government","amenity":"school"}},{"id":87196,"type":"Feature","geometry":{"type":"Point","coordinates":[16.51023,51.44345]},"properties":{"isced:level":"1;2","ref:rspo":87196,"official_name":"Szko\u0142a Podstawowa im. \u015awi\u0119tego Miko\u0142aja Z Miry w Krzelowie","name":"Szko\u0142a Podstawowa","addr:country":"PL","addr:postcode":"56-160","addr:place":"Krzel\u00f3w","addr:housenumber":"125","addr:teryt:sym_ul":882709,"contact:phone":"+48 713899119","contact:email":"sekretariat@spkrzelow.pl","contact:website":"http:\/\/www.spkrzelow.szkolnastrona.pl","ref:regon":"001181392","ref:vatin":"PL9880234113","operator":"Gmina Winsko","operator:type":"government","amenity":"school"}},{"id":265515,"type":"Feature","geometry":{"type":"Point","coordinates":[16.73604,51.44891]},"properties":{"isced:level":"1;2","ref:rspo":265515,"official_name":"Szko\u0142a Podstawowa im. Jana Adama De Garnier w G\u0142\u0119bowicach","name":"Szko\u0142a Podstawowa","addr:country":"PL","addr:postcode":"56-160","addr:place":"G\u0142\u0119bowice","addr:housenumber":"10","addr:teryt:sym_ul":882610,"contact:phone":"+48 713890496","contact:email":"sekretariat@spglebowice.pl","contact:website":"http:\/\/www.spglebowice.edupage.org","ref:regon":"368760786","operator":"Gmina Winsko","operator:type":"government","amenity":"school"}}]}