{
    "type": "FeatureCollection",
    "features": [
        {
            "id": 85494,
            "type": "Feature",
            "geometry": {
                "type": "Point",
                "coordinates": [
                    19.25438,
                    50.15708
                ]
            },
            "properties": {
                "isced:level": "1;2",
                "ref:rspo": 85494,
                "official_name": "Szko\u0142a Podstawowa Nr 22 im. Genera\u0142a J\u00f3zefa Bema w Jaworznie",
                "name": "Szko\u0142a Podstawowa Nr 22",
                "addr:postcode": "43-608",
                "addr:city": "Jaworzno",
                "addr:street": "Szymona Banasika",
                "addr:housenumber": "1",
                "addr:city:simc": 940335,
                "addr:street:sym_ul": 671,
                "phone": "+48 327629338",
                "email": "sekretariat@sp22.jaworzno.edu.pl",
                "website": "http:\/\/www.sp22.jaworzno.edu.pl",
                "ref:regon": "000729008",
                "ref:vatin": "PL6321925360",
                "operator": "Gmina Miasta Jaworzna",
                "operator:type": "government",
                "amenity": "school"
            }
        },
        {
            "id": 80402,
            "type": "Feature",
            "geometry": {
                "type": "Point",
                "coordinates": [
                    19.31246,
                    50.16157
                ]
            },
            "properties": {
                "isced:level": "1;2",
                "ref:rspo": 80402,
                "official_name": "Szko\u0142a Podstawowa Nr 20 w Jaworznie",
                "name": "Szko\u0142a Podstawowa Nr 20 w Jaworznie",
                "addr:postcode": "43-607",
                "addr:city": "Jaworzno",
                "addr:street": "Nauczycielska",
                "addr:housenumber": "20",
                "addr:city:simc": 940335,
                "addr:street:sym_ul": 14048,
                "phone": "+48 327629345",
                "email": "szkola@sp20.jaworzno.edu.pl",
                "website": "http:\/\/sp20.jaworzno.edu.pl",
                "ref:regon": "000729155",
                "ref:vatin": "PL6321925153",
                "operator": "Gmina Miasta Jaworzna",
                "operator:type": "government",
                "amenity": "school"
            }
        },
        {
            "id": 42833,
            "type": "Feature",
            "geometry": {
                "type": "Point",
                "coordinates": [
                    19.2472299,
                    50.16163
                ]
            },
            "properties": {
                "ref:rspo": 42833,
                "official_name": "Przedszkole Miejskie Nr 19 w Jaworznie",
                "name": "Przedszkole Miejskie Nr 19 w Jaworznie",
                "addr:postcode": "43-600",
                "addr:city": "Jaworzno",
                "addr:street": "Wygoda",
                "addr:housenumber": "18",
                "addr:city:simc": 940335,
                "addr:street:sym_ul": 24983,
                "phone": "+48 327629310",
                "email": "przedszkole19@jaworzno.edu.pl",
                "website": "http:\/\/przedszkole19jaworzno.edupage.org",
                "ref:regon": "272001282",
                "ref:vatin": "PL6321925176",
                "operator": "Gmina Miasta Jaworzna",
                "operator:type": "government",
                "amenity": "kindergarten"
            }
        },
        {
            "id": 262720,
            "type": "Feature",
            "geometry": {
                "type": "Point",
                "coordinates": [
                    19.23967,
                    50.16472
                ]
            },
            "properties": {
                "isced:level": "1;2",
                "ref:rspo": 262720,
                "official_name": "Szko\u0142a Podstawowa Nr 21 im. Kazimierza Wielkiego w Jaworznie",
                "name": "Szko\u0142a Podstawowa Nr 21",
                "addr:postcode": "43-600",
                "addr:city": "Jaworzno",
                "addr:street": "Zwyci\u0119stwa",
                "addr:housenumber": "30",
                "addr:city:simc": 940335,
                "addr:street:sym_ul": 26326,
                "phone": "+48 327629333",
                "email": "sp21@jaworzno.edu.pl",
                "website": "http:\/\/www.sp21.jaworzno.edu.pl\/",
                "ref:regon": "368052807",
                "ref:vatin": "PL6322018003",
                "operator": "Gmina Miasta Jaworzna",
                "operator:type": "government",
                "amenity": "school"
            }
        },
        {
            "id": 61606,
            "type": "Feature",
            "geometry": {
                "type": "Point",
                "coordinates": [
                    19.25377,
                    50.17921
                ]
            },
            "properties": {
                "ref:rspo": 61606,
                "official_name": "Niepubliczne Przedszkole Wielospecjalistyczne \"Mali Zdobywcy\"",
                "name": "Niepubliczne Przedszkole Wielospecjalistyczne \"Mali Zdobywcy\"",
                "addr:postcode": "43-608",
                "addr:city": "Jaworzno",
                "addr:street": "Ksi\u0119dza Jana Suli\u0144skiego",
                "addr:housenumber": "41",
                "addr:city:simc": 940335,
                "addr:street:sym_ul": 21559,
                "phone": "+48 730470537",
                "email": "npddn@op.pl",
                "website": "http:\/\/www.orwddn.pl",
                "ref:regon": "243079849",
                "ref:vatin": "PL6321026064",
                "operator": "Stowarzyszenie Rodzin Na Rzecz Dzieci \"Sprawnych Inaczej\"",
                "operator:type": "ngo",
                "amenity": "kindergarten"
            }
        },
        {
            "id": 272956,
            "type": "Feature",
            "geometry": {
                "type": "Point",
                "coordinates": [
                    19.25377,
                    50.179179999999995
                ]
            },
            "properties": {
                "ref:rspo": 272956,
                "official_name": "O\u015brodek Rewalidacyjno-Wychowawczy dla Dzieci I M\u0142odzie\u017cy Niepe\u0142nosprawnej",
                "name": "O\u015brodek Rewalidacyjno-Wychowawczy dla Dzieci I M\u0142odzie\u017cy Niepe\u0142nosprawnej",
                "addr:postcode": "43-600",
                "addr:city": "Jaworzno",
                "addr:street": "Ksi\u0119dza Jana Suli\u0144skiego",
                "addr:housenumber": "41",
                "addr:city:simc": 940335,
                "addr:street:sym_ul": 21559,
                "phone": "+48 326163515",
                "email": "orw@op.pl",
                "ref:regon": "384335065",
                "operator": "Stowarzyszenie Rodzin Na Rzecz Dzieci \"Sprawnych Inaczej\"",
                "operator:type": "ngo",
                "amenity": "school"
            }
        },
        {
            "id": 55070,
            "type": "Feature",
            "geometry": {
                "type": "Point",
                "coordinates": [
                    19.28615,
                    50.18295
                ]
            },
            "properties": {
                "isced:level": "1;2",
                "ref:rspo": 55070,
                "official_name": "Szko\u0142a Podstawowa Nr 14 im. Majora Henryka Sucharskiego w Jaworznie",
                "name": "Szko\u0142a Podstawowa Nr 14",
                "addr:postcode": "43-600",
                "addr:city": "Jaworzno",
                "addr:street": "Juliana Ursyna Niemcewicza",
                "addr:housenumber": "7a",
                "addr:city:simc": 940335,
                "addr:street:sym_ul": 14177,
                "phone": "+48 327629326",
                "email": "sekretariat@sp14.jaworzno.edu.pl",
                "website": "http:\/\/www.sp14.jaworzno.edu.pl",
                "ref:regon": "000729095",
                "ref:vatin": "PL6321925325",
                "operator": "Gmina Miasta Jaworzna",
                "operator:type": "government",
                "amenity": "school"
            }
        },
        {
            "id": 127258,
            "type": "Feature",
            "geometry": {
                "type": "Point",
                "coordinates": [
                    19.28615,
                    50.182919999999996
                ]
            },
            "properties": {
                "ref:rspo": 127258,
                "official_name": "Niepubliczny Instytut Kszta\u0142cenia Acadia",
                "name": "Niepubliczny Instytut Kszta\u0142cenia Acadia",
                "addr:postcode": "43-600",
                "addr:city": "Jaworzno",
                "addr:street": "Juliana Ursyna Niemcewicza",
                "addr:housenumber": "7a",
                "addr:city:simc": 940335,
                "addr:street:sym_ul": 14177,
                "phone": "+48 600910973",
                "ref:regon": "361272919",
                "operator": "Urszula Gnyp",
                "operator:type": "private",
                "fixme": "w zale\u017cno\u015bci od przedmiotu dzia\u0142alno\u015bci (np. amenity=training + training=*, amenity=dancing_school, amenity=language_school, amenity=music_school)"
            }
        },
        {
            "id": 73051,
            "type": "Feature",
            "geometry": {
                "type": "Point",
                "coordinates": [
                    19.32708,
                    50.18519
                ]
            },
            "properties": {
                "ref:rspo": 73051,
                "official_name": "Plac\u00f3wka Kszta\u0142cenia Ustawicznego \"An-Mar-No-Po\u017c\" S.c.",
                "name": "Plac\u00f3wka Kszta\u0142cenia Ustawicznego \"An-Mar-No-Po\u017c\" S.c.",
                "addr:postcode": "43-600",
                "addr:city": "Jaworzno",
                "addr:street": "Kasztanowa",
                "addr:housenumber": "90",
                "addr:city:simc": 940335,
                "addr:street:sym_ul": 8171,
                "phone": "+48 326163902",
                "email": "nopoz@vp.pl",
                "ref:regon": "243088280",
                "ref:vatin": "PL6321006742",
                "operator": "Marian Sikora",
                "operator:type": "private",
                "fixme": "w zale\u017cno\u015bci od przedmiotu dzia\u0142alno\u015bci (np. amenity=training + training=*, amenity=dancing_school, amenity=language_school, amenity=music_school)"
            }
        },
        {
            "id": 43331,
            "type": "Feature",
            "geometry": {
                "type": "Point",
                "coordinates": [
                    19.32339,
                    50.18715
                ]
            },
            "properties": {
                "isced:level": "1;2",
                "ref:rspo": 43331,
                "official_name": "Szko\u0142a Podstawowa Nr 19 im. Miko\u0142aja Kopernika w Jaworznie",
                "name": "Szko\u0142a Podstawowa Nr 19",
                "addr:postcode": "43-600",
                "addr:city": "Jaworzno",
                "addr:street": "Kasztanowa",
                "addr:housenumber": "33",
                "addr:city:simc": 940335,
                "addr:street:sym_ul": 8171,
                "phone": "+48 327629267",
                "email": "sekretariat@sp19.jaworzno.edu.pl",
                "ref:regon": "000729149",
                "ref:vatin": "PL6321925029",
                "operator": "Gmina Miasta Jaworzna",
                "operator:type": "government",
                "amenity": "school"
            }
        },
        {
            "id": 111475,
            "type": "Feature",
            "geometry": {
                "type": "Point",
                "coordinates": [
                    19.25637,
                    50.18861
                ]
            },
            "properties": {
                "ref:rspo": 111475,
                "official_name": "Niepubliczne Przedszkole \"Zaczarowany Domek\"",
                "name": "Niepubliczne Przedszkole \"Zaczarowany Domek\"",
                "addr:postcode": "43-600",
                "addr:city": "Jaworzno",
                "addr:street": "Fryderyka Chopina",
                "addr:housenumber": "98",
                "addr:city:simc": 940335,
                "addr:street:sym_ul": 2849,
                "phone": "+48 326164059",
                "email": "zaczarowanydomek@vp.pl",
                "website": "http:\/\/www.zaczarowanydomek.pl",
                "ref:regon": "243207052",
                "ref:vatin": "PL9542727884",
                "operator": "Dorota Mikulska - Pad\u0142o",
                "operator:type": "private",
                "amenity": "kindergarten"
            }
        },
        {
            "id": 262672,
            "type": "Feature",
            "geometry": {
                "type": "Point",
                "coordinates": [
                    19.26841,
                    50.19156
                ]
            },
            "properties": {
                "isced:level": "1;2",
                "ref:rspo": 262672,
                "official_name": "Szko\u0142a Podstawowa Nr 4 im. Adama Mickiewicza w Jaworznie",
                "name": "Szko\u0142a Podstawowa Nr 4",
                "addr:postcode": "43-600",
                "addr:city": "Jaworzno",
                "addr:street": "Karola Olszewskiego",
                "addr:housenumber": "76",
                "addr:city:simc": 940335,
                "addr:street:sym_ul": 15008,
                "phone": "+48 327629213",
                "email": "sekretariat@sp4.jaworzno.edu.pl",
                "website": "http:\/\/www.sp4.jaworzno.edu.pl",
                "ref:regon": "368049892",
                "ref:vatin": "PL6322018026",
                "operator": "Gmina Miasta Jaworzna",
                "operator:type": "government",
                "amenity": "school"
            }
        },
        {
            "id": 120232,
            "type": "Feature",
            "geometry": {
                "type": "Point",
                "coordinates": [
                    19.27186,
                    50.19373
                ]
            },
            "properties": {
                "ref:rspo": 120232,
                "official_name": "Niepubliczne Przedszkole \"Alladyn\" w Jaworznie",
                "name": "Niepubliczne Przedszkole \"Alladyn\" w Jaworznie",
                "addr:postcode": "43-600",
                "addr:city": "Jaworzno",
                "addr:street": "Karola Olszewskiego",
                "addr:housenumber": "40",
                "addr:city:simc": 940335,
                "addr:street:sym_ul": 15008,
                "phone": "+48 792790190",
                "email": "alladyn.jaworzno@gmail.com",
                "website": "https:\/\/alladyn.jaworzno.pl\/",
                "ref:regon": "243376725",
                "operator": "Margareta Gaj",
                "operator:type": "private",
                "amenity": "kindergarten"
            }
        },
        {
            "id": 42530,
            "type": "Feature",
            "geometry": {
                "type": "Point",
                "coordinates": [
                    19.25929,
                    50.19549
                ]
            },
            "properties": {
                "ref:rspo": 42530,
                "official_name": "Przedszkole Miejskie Nr 15 w Jaworznie",
                "name": "Przedszkole Miejskie Nr 15 w Jaworznie",
                "addr:postcode": "43-600",
                "addr:city": "Jaworzno",
                "addr:street": "Azot",
                "addr:housenumber": "16",
                "addr:city:simc": 940335,
                "addr:street:sym_ul": 521,
                "phone": "+48 327629237",
                "email": "przedszkole15@jaworzno.edu.pl",
                "website": "http:\/\/www.przedszkole15.jaworzno.edu.pl",
                "ref:regon": "272001253",
                "ref:vatin": "PL6321925118",
                "operator": "Gmina Miasta Jaworzna",
                "operator:type": "government",
                "amenity": "kindergarten"
            }
        },
        {
            "id": 69949,
            "type": "Feature",
            "geometry": {
                "type": "Point",
                "coordinates": [
                    19.26198,
                    50.19597
                ]
            },
            "properties": {
                "isced:level": "1;2",
                "ref:rspo": 69949,
                "official_name": "Uniwersytecka Katolicka Szko\u0142a Podstawowa",
                "name": "Uniwersytecka Katolicka Szko\u0142a Podstawowa",
                "addr:postcode": "43-600",
                "addr:city": "Jaworzno",
                "addr:street": "Fryderyka Chopina",
                "addr:housenumber": "40",
                "addr:city:simc": 940335,
                "addr:street:sym_ul": 2849,
                "phone": "+48 695896259",
                "email": "spjaw@kana.edu.pl",
                "website": "http:\/\/kana.edu.pl",
                "ref:regon": "243083489",
                "operator": "Fundacja Kana",
                "operator:type": "ngo",
                "amenity": "school"
            }
        },
        {
            "id": 119576,
            "type": "Feature",
            "geometry": {
                "type": "Point",
                "coordinates": [
                    19.26198,
                    50.19594
                ]
            },
            "properties": {
                "ref:rspo": 119576,
                "official_name": "Katolickie Przedszkole - Akademia Ma\u0142ego Skauta",
                "name": "Katolickie Przedszkole - Akademia Ma\u0142ego Skauta",
                "addr:postcode": "43-602",
                "addr:city": "Jaworzno",
                "addr:street": "Fryderyka Chopina",
                "addr:housenumber": "40",
                "addr:city:simc": 940335,
                "addr:street:sym_ul": 2849,
                "phone": "+48 323631030",
                "email": "przedszkole@kana.edu.pl",
                "ref:regon": "243358420",
                "operator": "Fundacja Kana",
                "operator:type": "ngo",
                "amenity": "kindergarten"
            }
        },
        {
            "id": 120338,
            "type": "Feature",
            "geometry": {
                "type": "Point",
                "coordinates": [
                    19.26198,
                    50.195910000000005
                ]
            },
            "properties": {
                "isced:level": "3",
                "ref:rspo": 120338,
                "official_name": "Uniwersyteckie Katolickie Liceum Og\u00f3lnokszta\u0142c\u0105ce",
                "name": "Uniwersyteckie Katolickie Liceum Og\u00f3lnokszta\u0142c\u0105ce",
                "addr:postcode": "43-602",
                "addr:city": "Jaworzno",
                "addr:street": "Fryderyka Chopina",
                "addr:housenumber": "40",
                "addr:city:simc": 940335,
                "addr:street:sym_ul": 2849,
                "phone": "+48 323631030",
                "email": "lojaw@kana.edu.pl",
                "website": "http:\/\/kana.edu.pl",
                "ref:regon": "243379770",
                "operator": "Fundacja Kana",
                "operator:type": "ngo",
                "amenity": "school"
            }
        },
        {
            "id": 132525,
            "type": "Feature",
            "geometry": {
                "type": "Point",
                "coordinates": [
                    19.26198,
                    50.19588
                ]
            },
            "properties": {
                "isced:level": "1;2",
                "ref:rspo": 132525,
                "official_name": "Katolicka Szko\u0142a Podstawowa",
                "name": "Katolicka Szko\u0142a Podstawowa",
                "addr:postcode": "43-600",
                "addr:city": "Jaworzno",
                "addr:street": "Fryderyka Chopina",
                "addr:housenumber": "40",
                "addr:city:simc": 940335,
                "addr:street:sym_ul": 2849,
                "phone": "+48 323631030",
                "email": "szkola@kana.edu.pl",
                "website": "http:\/\/www.kana.edu.pl",
                "ref:regon": "365725430",
                "operator": "Fundacja Kana",
                "operator:type": "ngo",
                "amenity": "school"
            }
        },
        {
            "id": 276135,
            "type": "Feature",
            "geometry": {
                "type": "Point",
                "coordinates": [
                    19.26198,
                    50.19585
                ]
            },
            "properties": {
                "isced:level": "1;2",
                "ref:rspo": 276135,
                "official_name": "Niepubliczna Szko\u0142a Podstawowa \"Szko\u0142a Domowa\"",
                "name": "Niepubliczna Szko\u0142a Podstawowa \"Szko\u0142a Domowa\"",
                "addr:postcode": "43-600",
                "addr:city": "Jaworzno",
                "addr:street": "Fryderyka Chopina",
                "addr:housenumber": "40",
                "addr:city:simc": 940335,
                "addr:street:sym_ul": 2849,
                "phone": "+48 882555299",
                "email": "szkoladomowa@onet.pl",
                "ref:regon": "386999266",
                "operator": "Fundacja Nie!Mo\u017cliwe",
                "operator:type": "ngo",
                "amenity": "school"
            }
        },
        {
            "id": 41457,
            "type": "Feature",
            "geometry": {
                "type": "Point",
                "coordinates": [
                    19.26574,
                    50.19788
                ]
            },
            "properties": {
                "ref:rspo": 41457,
                "official_name": "Przedszkole Miejskie Nr 10 w Jaworznie",
                "name": "Przedszkole Miejskie Nr 10 w Jaworznie",
                "addr:postcode": "43-600",
                "addr:city": "Jaworzno",
                "addr:street": "Juliana Tuwima",
                "addr:housenumber": "6",
                "addr:city:simc": 940335,
                "addr:street:sym_ul": 23196,
                "phone": "+48 327516590",
                "email": "pm10jaw@interia.pl",
                "website": "http:\/\/www.pm10.jaworzno.edu.pl",
                "ref:regon": "272001218",
                "ref:vatin": "PL6321925012",
                "operator": "Gmina Miasta Jaworzna",
                "operator:type": "government",
                "amenity": "kindergarten"
            }
        },
        {
            "id": 70418,
            "type": "Feature",
            "geometry": {
                "type": "Point",
                "coordinates": [
                    19.2719099,
                    50.19796
                ]
            },
            "properties": {
                "ref:rspo": 70418,
                "official_name": "O\u015brodek Szkolenia \"Kawo\" w Jaworznie",
                "name": "O\u015brodek Szkolenia \"Kawo\" w Jaworznie",
                "addr:postcode": "43-600",
                "addr:city": "Jaworzno",
                "addr:street": "Stefana Dwornickiego",
                "addr:housenumber": "18a",
                "addr:door": "22",
                "addr:city:simc": 940335,
                "addr:street:sym_ul": 4443,
                "phone": "+48 327516604",
                "ref:regon": "243083414",
                "ref:vatin": "PL6321750601",
                "operator": "Dane Do Uzupe\u0142nienia",
                "operator:type": "private"
            }
        },
        {
            "id": 70992,
            "type": "Feature",
            "geometry": {
                "type": "Point",
                "coordinates": [
                    19.27592,
                    50.19796
                ]
            },
            "properties": {
                "ref:rspo": 70992,
                "official_name": "Biuro Spraw Pracowniczych \"Rachmistrz\"",
                "name": "Biuro Spraw Pracowniczych \"Rachmistrz\"",
                "addr:postcode": "43-600",
                "addr:city": "Jaworzno",
                "addr:street": "Kopalniana",
                "addr:housenumber": "8",
                "addr:city:simc": 940335,
                "addr:street:sym_ul": 9243,
                "phone": "+48 327517444",
                "email": "kancelaria.rachmistrz@gmail.com",
                "ref:regon": "243083265",
                "ref:vatin": "PL6321201840",
                "operator": "Dane Do Uzupe\u0142nienia",
                "operator:type": "private"
            }
        },
        {
            "id": 270353,
            "type": "Feature",
            "geometry": {
                "type": "Point",
                "coordinates": [
                    19.26449,
                    50.19822
                ]
            },
            "properties": {
                "ref:rspo": 270353,
                "official_name": "X-Men Centrum Edukacji Zawodowej Sp. Z O.o.",
                "name": "X-Men Centrum Edukacji Zawodowej Sp. Z O.o.",
                "addr:postcode": "43-600",
                "addr:city": "Jaworzno",
                "addr:street": "Fryderyka Chopina",
                "addr:housenumber": "100C",
                "addr:city:simc": 940335,
                "addr:street:sym_ul": 2849,
                "phone": "+48 694678607",
                "ref:regon": "382418723",
                "ref:vatin": "PL6322016263",
                "operator": "Krzysztof Szmandra Przedsi\u0119biorstwo Us\u0142ugowo-Handlowe \"Efekt\"",
                "operator:type": "private",
                "fixme": "w zale\u017cno\u015bci od przedmiotu dzia\u0142alno\u015bci (np. amenity=training + training=*, amenity=dancing_school, amenity=language_school, amenity=music_school)"
            }
        },
        {
            "id": 28026,
            "type": "Feature",
            "geometry": {
                "type": "Point",
                "coordinates": [
                    19.26716,
                    50.19926
                ]
            },
            "properties": {
                "ref:rspo": 28026,
                "official_name": "Przedszkole Miejskie Nr 1 w Jaworznie",
                "name": "Przedszkole Miejskie Nr 1 w Jaworznie",
                "addr:postcode": "43-600",
                "addr:city": "Jaworzno",
                "addr:street": "Karola Szymanowskiego",
                "addr:housenumber": "10",
                "addr:city:simc": 940335,
                "addr:street:sym_ul": 22238,
                "phone": "+48 326164134",
                "email": "przedszkole1@jaworzno.edu.pl",
                "website": "http:\/\/www.pm01jaw.edupage.org",
                "ref:regon": "272001135",
                "ref:vatin": "PL6321925259",
                "operator": "Gmina Miasta Jaworzna",
                "operator:type": "government",
                "amenity": "kindergarten"
            }
        },
        {
            "id": 56402,
            "type": "Feature",
            "geometry": {
                "type": "Point",
                "coordinates": [
                    19.2696963,
                    50.1992858
                ]
            },
            "properties": {
                "ref:rspo": 56402,
                "official_name": "Niepubliczne Przedszkole \"Pod Arkadami\" w Jaworznie",
                "name": "Niepubliczne Przedszkole \"Pod Arkadami\" w Jaworznie",
                "addr:postcode": "43-600",
                "addr:city": "Jaworzno",
                "addr:street": "Jana Matejki",
                "addr:housenumber": "24",
                "addr:city:simc": 940335,
                "addr:street:sym_ul": 12489,
                "phone": "+48 327452244",
                "email": "przedszkole@podarkadami.edu.pl",
                "website": "http:\/\/www.podarkadami.edu.pl",
                "ref:regon": "243079559",
                "ref:vatin": "PL6321800078",
                "operator": "Joanna Gancarczyk",
                "operator:type": "private",
                "amenity": "kindergarten"
            }
        },
        {
            "id": 125592,
            "type": "Feature",
            "geometry": {
                "type": "Point",
                "coordinates": [
                    19.2696963,
                    50.199255799999996
                ]
            },
            "properties": {
                "ref:rspo": 125592,
                "official_name": "O\u015brodek Szkolenia I Doskonalenia Kadr",
                "name": "O\u015brodek Szkolenia I Doskonalenia Kadr",
                "addr:postcode": "43-600",
                "addr:city": "Jaworzno",
                "addr:street": "Jana Matejki",
                "addr:housenumber": "24",
                "addr:city:simc": 940335,
                "addr:street:sym_ul": 12489,
                "phone": "+48 326156469",
                "email": "sisg@interia.pl",
                "ref:regon": "243689186",
                "operator": "Stowarzyszenie Inicjatyw Spo\u0142eczno - Gospodarczych",
                "operator:type": "ngo",
                "fixme": "w zale\u017cno\u015bci od przedmiotu dzia\u0142alno\u015bci (np. amenity=training + training=*, amenity=dancing_school, amenity=language_school, amenity=music_school)"
            }
        },
        {
            "id": 262704,
            "type": "Feature",
            "geometry": {
                "type": "Point",
                "coordinates": [
                    19.28182,
                    50.19957
                ]
            },
            "properties": {
                "isced:level": "1;2",
                "ref:rspo": 262704,
                "official_name": "Szko\u0142a Podstawowa Nr 13 w Jaworznie",
                "name": "Szko\u0142a Podstawowa Nr 13 w Jaworznie",
                "addr:postcode": "43-600",
                "addr:city": "Jaworzno",
                "addr:street": "Urz\u0119dnicza",
                "addr:housenumber": "11",
                "addr:city:simc": 940335,
                "addr:street:sym_ul": 23421,
                "phone": "+48 327517707",
                "email": "sp13@jaworzno.edu.pl",
                "website": "http:\/\/sp13jaworzno.edupage.org",
                "ref:regon": "368052150",
                "ref:vatin": "PL6322018061",
                "operator": "Gmina Miasta Jaworzna",
                "operator:type": "government",
                "amenity": "school"
            }
        },
        {
            "id": 7186,
            "type": "Feature",
            "geometry": {
                "type": "Point",
                "coordinates": [
                    19.27197,
                    50.19983
                ]
            },
            "properties": {
                "ref:rspo": 7186,
                "official_name": "Zesp\u00f3\u0142 Szkolno-Przedszkolny Nr 1 w Jaworznie",
                "name": "Zesp\u00f3\u0142 Szkolno-Przedszkolny Nr 1 w Jaworznie",
                "addr:postcode": "43-600",
                "addr:city": "Jaworzno",
                "addr:street": "Jana Matejki",
                "addr:housenumber": "3",
                "addr:city:simc": 940335,
                "addr:street:sym_ul": 12489,
                "phone": "+48 327629133",
                "email": "sekretariat@zszp1.jaworzno.edu.pl",
                "website": "http:\/\/www.zszp1.jaworzno.edu.pl",
                "ref:regon": "243025552",
                "operator": "Gmina Miasta Jaworzna",
                "operator:type": "government",
                "landuse": "education",
                "fixme": "amenity=school, amenity=college albo landuse=education w zale\u017cno\u015bci od tego, jakie plac\u00f3wki wchodz\u0105 w sk\u0142ad zespo\u0142u. Sprawd\u017a, kiedy stosowa\u0107 amenity=* a kiedy landuse=education.",
                "note": "Children RSPO: 42869;61312"
            }
        },
        {
            "id": 42869,
            "type": "Feature",
            "geometry": {
                "type": "Point",
                "coordinates": [
                    19.27197,
                    50.199799999999996
                ]
            },
            "properties": {
                "ref:rspo": 42869,
                "official_name": "Przedszkole Miejskie Nr 22 w Jaworznie",
                "name": "Przedszkole Miejskie Nr 22 w Jaworznie",
                "addr:postcode": "43-600",
                "addr:city": "Jaworzno",
                "addr:street": "Jana Matejki",
                "addr:housenumber": "3",
                "addr:city:simc": 940335,
                "addr:street:sym_ul": 12489,
                "phone": "+48 327629133",
                "email": "sekretariat@zszp1.jaworzno.edu.pl",
                "website": "http:\/\/www.zszp1.jaworzno.edu.pl",
                "ref:regon": "272001313",
                "ref:vatin": "PL6322008513",
                "operator": "Gmina Miasta Jaworzna",
                "operator:type": "government",
                "amenity": "kindergarten",
                "note": "Parent RSPO: 7186"
            }
        },
        {
            "id": 61312,
            "type": "Feature",
            "geometry": {
                "type": "Point",
                "coordinates": [
                    19.27197,
                    50.19977
                ]
            },
            "properties": {
                "isced:level": "1;2",
                "ref:rspo": 61312,
                "official_name": "Szko\u0142a Podstawowa Nr 1 im. Tadeusza Ko\u015bciuszki w Jaworznie",
                "name": "Szko\u0142a Podstawowa Nr 1",
                "addr:postcode": "43-600",
                "addr:city": "Jaworzno",
                "addr:street": "Jana Matejki",
                "addr:housenumber": "3",
                "addr:city:simc": 940335,
                "addr:street:sym_ul": 12489,
                "phone": "+48 327629133",
                "email": "sekretariat@zszp1.jaworzno.edu.pl",
                "website": "http:\/\/www.zszp1.jaworzno.edu.pl",
                "ref:regon": "000729161",
                "ref:vatin": "PL6321925319",
                "operator": "Gmina Miasta Jaworzna",
                "operator:type": "government",
                "amenity": "school",
                "note": "Parent RSPO: 7186"
            }
        },
        {
            "id": 17709,
            "type": "Feature",
            "geometry": {
                "type": "Point",
                "coordinates": [
                    19.28018,
                    50.20014
                ]
            },
            "properties": {
                "ref:rspo": 17709,
                "official_name": "Centrum Edukacji \"Proteuss\"",
                "name": "Centrum Edukacji \"Proteuss\"",
                "addr:postcode": "43-600",
                "addr:city": "Jaworzno",
                "addr:street": "Zag\u0142oby",
                "addr:housenumber": "6",
                "addr:city:simc": 940335,
                "addr:street:sym_ul": 25353,
                "phone": "+48 326163470",
                "email": "biuro@proteuss.pl",
                "website": "http:\/\/www.proteuss.pl",
                "ref:regon": "243048464",
                "ref:vatin": "PL6321924372",
                "operator": "Dane Do Uzupe\u0142nienia",
                "operator:type": "private",
                "amenity": "training"
            }
        },
        {
            "id": 125917,
            "type": "Feature",
            "geometry": {
                "type": "Point",
                "coordinates": [
                    19.28018,
                    50.200109999999995
                ]
            },
            "properties": {
                "ref:rspo": 125917,
                "official_name": "Proteuss Company Sp. Z O.o.",
                "name": "Proteuss Company Sp. Z O.o.",
                "addr:postcode": "43-600",
                "addr:city": "Jaworzno",
                "addr:street": "Zag\u0142oby",
                "addr:housenumber": "6",
                "addr:city:simc": 940335,
                "addr:street:sym_ul": 25353,
                "phone": "+48 326163470",
                "ref:regon": "360099608",
                "operator": "Proteuss Company Sp\u00f3\u0142ka Z Ograniczon\u0105 Odpowiedzialno\u015bci\u0105",
                "operator:type": "private",
                "fixme": "w zale\u017cno\u015bci od przedmiotu dzia\u0142alno\u015bci (np. amenity=training + training=*, amenity=dancing_school, amenity=language_school, amenity=music_school)"
            }
        },
        {
            "id": 126319,
            "type": "Feature",
            "geometry": {
                "type": "Point",
                "coordinates": [
                    19.27324,
                    50.20066
                ]
            },
            "properties": {
                "ref:rspo": 126319,
                "official_name": "Sp\u00f3\u0142ka Us\u0142ug G\u00f3rniczych Sp. Z O.o. O\u015brodek Szkoleniowy",
                "name": "Sp\u00f3\u0142ka Us\u0142ug G\u00f3rniczych Sp. Z O.o. O\u015brodek Szkoleniowy",
                "addr:postcode": "43-600",
                "addr:city": "Jaworzno",
                "addr:street": "Grunwaldzka",
                "addr:housenumber": "37A",
                "addr:city:simc": 940335,
                "addr:street:sym_ul": 6260,
                "phone": "+48 326185180",
                "ref:regon": "360224700",
                "operator": "Sp\u00f3\u0142ka Us\u0142ug G\u00f3rniczych Sp\u00f3\u0142ka Z Ograniczon\u0105 Odpowiedzialno\u015bci\u0105",
                "operator:type": "private",
                "fixme": "w zale\u017cno\u015bci od przedmiotu dzia\u0142alno\u015bci (np. amenity=training + training=*, amenity=dancing_school, amenity=language_school, amenity=music_school)"
            }
        },
        {
            "id": 86486,
            "type": "Feature",
            "geometry": {
                "type": "Point",
                "coordinates": [
                    19.27524,
                    50.20281
                ]
            },
            "properties": {
                "isced:level": "3",
                "ref:rspo": 86486,
                "official_name": "Liceum Og\u00f3lnokszta\u0142c\u0105ce dla Doros\u0142ych \"\u017bak\" w Jaworznie",
                "name": "Liceum Og\u00f3lnokszta\u0142c\u0105ce dla Doros\u0142ych \"\u017bak\" w Jaworznie",
                "addr:postcode": "43-600",
                "addr:city": "Jaworzno",
                "addr:street": "Henryka Sienkiewicza",
                "addr:housenumber": "3",
                "addr:city:simc": 940335,
                "addr:street:sym_ul": 19834,
                "phone": "+48 327518927",
                "email": "jaworzno@zak.edu.pl",
                "website": "http:\/\/www.zak.edu.pl",
                "ref:regon": "243099757",
                "ref:vatin": "PL7292597869",
                "operator": "Centrum Nauki I Biznesu \"\u017bak\" Sp\u00f3\u0142ka Z Ograniczon\u0105 Odpowiedzialno\u015bci\u0105",
                "operator:type": "private",
                "amenity": "school"
            }
        },
        {
            "id": 86602,
            "type": "Feature",
            "geometry": {
                "type": "Point",
                "coordinates": [
                    19.27524,
                    50.20278
                ]
            },
            "properties": {
                "isced:level": "4",
                "ref:rspo": 86602,
                "official_name": "Szko\u0142a Policealna Centrum Nauki I Biznesu \"\u017bak\" w Jaworznie",
                "name": "Szko\u0142a Policealna Centrum Nauki I Biznesu \"\u017bak\" w Jaworznie",
                "addr:postcode": "43-600",
                "addr:city": "Jaworzno",
                "addr:street": "Henryka Sienkiewicza",
                "addr:housenumber": "3",
                "addr:city:simc": 940335,
                "addr:street:sym_ul": 19834,
                "phone": "+48 327518927",
                "email": "jaworzno@zak.edu.pl",
                "website": "http:\/\/www.zak.edu.pl",
                "ref:regon": "243101365",
                "ref:vatin": "PL7292597869",
                "operator": "Centrum Nauki I Biznesu \"\u017bak\" Sp\u00f3\u0142ka Z Ograniczon\u0105 Odpowiedzialno\u015bci\u0105",
                "operator:type": "private",
                "amenity": "college"
            }
        },
        {
            "id": 91229,
            "type": "Feature",
            "geometry": {
                "type": "Point",
                "coordinates": [
                    19.27524,
                    50.20275
                ]
            },
            "properties": {
                "ref:rspo": 91229,
                "official_name": "O\u015brodek Szkoleniowy Centrum Nauki I Biznesu \"\u017bak\" w Jaworznie",
                "name": "O\u015brodek Szkoleniowy Centrum Nauki I Biznesu \"\u017bak\" w Jaworznie",
                "addr:postcode": "43-600",
                "addr:city": "Jaworzno",
                "addr:street": "Henryka Sienkiewicza",
                "addr:housenumber": "3",
                "addr:city:simc": 940335,
                "addr:street:sym_ul": 19834,
                "phone": "+48 327518927",
                "email": "jaworzno@zak.edu.pl",
                "ref:regon": "243110915",
                "ref:vatin": "PL7292597869",
                "operator": "Centrum Nauki I Biznesu \"\u017bak\" Sp\u00f3\u0142ka Z Ograniczon\u0105 Odpowiedzialno\u015bci\u0105",
                "operator:type": "private",
                "fixme": "w zale\u017cno\u015bci od przedmiotu dzia\u0142alno\u015bci (np. amenity=training + training=*, amenity=dancing_school, amenity=language_school, amenity=music_school)"
            }
        },
        {
            "id": 129112,
            "type": "Feature",
            "geometry": {
                "type": "Point",
                "coordinates": [
                    19.27524,
                    50.20272
                ]
            },
            "properties": {
                "isced:level": "4",
                "ref:rspo": 129112,
                "official_name": "Szko\u0142a Policealna Opieki Medycznej \"\u017bak\" w Jaworznie",
                "name": "Szko\u0142a Policealna Opieki Medycznej \"\u017bak\" w Jaworznie",
                "addr:postcode": "43-600",
                "addr:city": "Jaworzno",
                "addr:street": "Henryka Sienkiewicza",
                "addr:housenumber": "3",
                "addr:city:simc": 940335,
                "addr:street:sym_ul": 19834,
                "phone": "+48 327518927",
                "email": "jaworzno@zak.edu.pl",
                "ref:regon": "362474128",
                "operator": "Centrum Nauki I Biznesu \"\u017bak\" Sp\u00f3\u0142ka Z Ograniczon\u0105 Odpowiedzialno\u015bci\u0105",
                "operator:type": "private",
                "amenity": "college"
            }
        },
        {
            "id": 268970,
            "type": "Feature",
            "geometry": {
                "type": "Point",
                "coordinates": [
                    19.27524,
                    50.20269
                ]
            },
            "properties": {
                "isced:level": "4",
                "ref:rspo": 268970,
                "official_name": "Szko\u0142a Policealna Medyczna \"\u017bak\" w Jaworznie",
                "name": "Szko\u0142a Policealna Medyczna \"\u017bak\" w Jaworznie",
                "addr:postcode": "43-600",
                "addr:city": "Jaworzno",
                "addr:street": "Henryka Sienkiewicza",
                "addr:housenumber": "3",
                "addr:city:simc": 940335,
                "addr:street:sym_ul": 19834,
                "phone": "+48 327518927",
                "email": "centrala@zak.edu.pl",
                "website": "http:\/\/www.zak.edu.pl",
                "ref:regon": "381318244",
                "operator": "Centrum Nauki I Biznesu \"\u017bak\" Sp\u00f3\u0142ka Z Ograniczon\u0105 Odpowiedzialno\u015bci\u0105",
                "operator:type": "private",
                "amenity": "college"
            }
        },
        {
            "id": 70350,
            "type": "Feature",
            "geometry": {
                "type": "Point",
                "coordinates": [
                    19.27683,
                    50.20309
                ]
            },
            "properties": {
                "ref:rspo": 70350,
                "official_name": "Centrum Edukacji Europejskiej - O\u015brodek Szkolenia \"Europartner\"",
                "name": "Centrum Edukacji Europejskiej - O\u015brodek Szkolenia \"Europartner\"",
                "addr:postcode": "43-600",
                "addr:city": "Jaworzno",
                "addr:street": "S\u0105dowa",
                "addr:housenumber": "5 A",
                "addr:city:simc": 940335,
                "addr:street:sym_ul": 19581,
                "phone": "+48 728970097",
                "email": "biuro@europartner.edu.pl",
                "website": "http:\/\/www.europartner.edu.pl",
                "ref:regon": "243083354",
                "ref:vatin": "PL6321951363",
                "operator": "Europartner Sp\u00f3\u0142ka Z Ograniczon\u0105 Odpowiedzialno\u015bci\u0105",
                "operator:type": "private",
                "fixme": "w zale\u017cno\u015bci od przedmiotu dzia\u0142alno\u015bci (np. amenity=training + training=*, amenity=dancing_school, amenity=language_school, amenity=music_school)"
            }
        },
        {
            "id": 42874,
            "type": "Feature",
            "geometry": {
                "type": "Point",
                "coordinates": [
                    19.2145699,
                    50.20327
                ]
            },
            "properties": {
                "ref:rspo": 42874,
                "official_name": "Centrum Kszta\u0142cenia Zawodowego w Jaworznie",
                "name": "Centrum Kszta\u0142cenia Zawodowego w Jaworznie",
                "addr:postcode": "43-600",
                "addr:city": "Jaworzno",
                "addr:street": "Promienna",
                "addr:housenumber": "66",
                "addr:city:simc": 940335,
                "addr:street:sym_ul": 17534,
                "phone": "+48 327629172",
                "email": "sekretariat@ckz.jaworzno.edu.pl",
                "website": "http:\/\/www.ckz.jaworzno.edu.pl",
                "ref:regon": "241294822",
                "ref:vatin": "PL6321993410",
                "operator": "Gmina Miasta Jaworzna",
                "operator:type": "government",
                "fixme": "w zale\u017cno\u015bci od przedmiotu dzia\u0142alno\u015bci (np. amenity=training + training=*, amenity=dancing_school, amenity=language_school, amenity=music_school) albo amenity=school, amenity=college, albo landuse=education w zale\u017cno\u015bci od tego, jakie plac\u00f3wki wchodz\u0105 w sk\u0142ad zespo\u0142u. Sprawd\u017a, kiedy stosowa\u0107 amenity=* a kiedy landuse=education."
            }
        },
        {
            "id": 130945,
            "type": "Feature",
            "geometry": {
                "type": "Point",
                "coordinates": [
                    19.2057,
                    50.20361
                ]
            },
            "properties": {
                "ref:rspo": 130945,
                "official_name": "Centrum Kszta\u0142cenia Zawodowego I Ustawicznego w Jaworznie",
                "name": "Centrum Kszta\u0142cenia Zawodowego I Ustawicznego w Jaworznie",
                "addr:postcode": "43-600",
                "addr:city": "Jaworzno",
                "addr:street": "Promienna",
                "addr:housenumber": "65",
                "addr:city:simc": 940335,
                "addr:street:sym_ul": 17534,
                "phone": "+48 327629200",
                "email": "sekretariat@ckziu.jaworzno.pl",
                "website": "http:\/\/www.ckziu.jaworzno.pl",
                "ref:regon": "364759912",
                "ref:vatin": "PL6322015418",
                "operator": "Gmina Miasta Jaworzna",
                "operator:type": "government",
                "landuse": "education",
                "fixme": "amenity=school, amenity=college albo landuse=education w zale\u017cno\u015bci od tego, jakie plac\u00f3wki wchodz\u0105 w sk\u0142ad zespo\u0142u. Sprawd\u017a, kiedy stosowa\u0107 amenity=* a kiedy landuse=education.",
                "note": "Children RSPO: 42879;111658;111659;111676;111697;111700"
            }
        },
        {
            "id": 42879,
            "type": "Feature",
            "geometry": {
                "type": "Point",
                "coordinates": [
                    19.2057,
                    50.203579999999995
                ]
            },
            "properties": {
                "isced:level": "3",
                "ref:rspo": 42879,
                "official_name": "Technikum Energetyczne",
                "name": "Technikum Energetyczne",
                "addr:postcode": "43-603",
                "addr:city": "Jaworzno",
                "addr:street": "Promienna",
                "addr:housenumber": "65",
                "addr:city:simc": 940335,
                "addr:street:sym_ul": 17534,
                "phone": "+48 327629200",
                "email": "sekretariat@ckziu.jaworzno.pl",
                "website": "http:\/\/www.ckziu.jaworzno.pl",
                "ref:regon": "242608211",
                "ref:vatin": "PL6322006804",
                "operator": "Gmina Miasta Jaworzna",
                "operator:type": "government",
                "amenity": "school",
                "note": "Parent RSPO: 130945"
            }
        },
        {
            "id": 111658,
            "type": "Feature",
            "geometry": {
                "type": "Point",
                "coordinates": [
                    19.2057,
                    50.20355
                ]
            },
            "properties": {
                "isced:level": "3",
                "ref:rspo": 111658,
                "official_name": "Technikum Nr 5 w Jaworznie",
                "name": "Technikum Nr 5 w Jaworznie",
                "addr:postcode": "43-603",
                "addr:city": "Jaworzno",
                "addr:street": "Promienna",
                "addr:housenumber": "65",
                "addr:city:simc": 940335,
                "addr:street:sym_ul": 17534,
                "phone": "+48 327629200",
                "email": "sekretariat@ckziu.jaworzno.pl",
                "website": "http:\/\/www.ckziu.jaworzno.pl",
                "ref:regon": "273536631",
                "ref:vatin": "PL6321894091",
                "operator": "Gmina Miasta Jaworzna",
                "operator:type": "government",
                "amenity": "school",
                "note": "Parent RSPO: 130945"
            }
        },
        {
            "id": 111659,
            "type": "Feature",
            "geometry": {
                "type": "Point",
                "coordinates": [
                    19.2057,
                    50.20352
                ]
            },
            "properties": {
                "isced:level": "3",
                "ref:rspo": 111659,
                "official_name": "Bran\u017cowa Szko\u0142a I St. Nr 5 w Jaworznie",
                "name": "Bran\u017cowa Szko\u0142a I St. Nr 5 w Jaworznie",
                "addr:postcode": "43-603",
                "addr:city": "Jaworzno",
                "addr:street": "Promienna",
                "addr:housenumber": "65",
                "addr:city:simc": 940335,
                "addr:street:sym_ul": 17534,
                "phone": "+48 327629200",
                "email": "sekretariat@ckziu.jaworzno.pl",
                "website": "http:\/\/www.ckziu.jaworzno.pl",
                "ref:regon": "000741216",
                "ref:vatin": "PL6321894091",
                "operator": "Gmina Miasta Jaworzna",
                "operator:type": "government",
                "amenity": "school",
                "note": "Parent RSPO: 130945"
            }
        },
        {
            "id": 111676,
            "type": "Feature",
            "geometry": {
                "type": "Point",
                "coordinates": [
                    19.2057,
                    50.203489999999995
                ]
            },
            "properties": {
                "isced:level": "4",
                "ref:rspo": 111676,
                "official_name": "Szko\u0142a Policealna Nr 3 w Jaworznie",
                "name": "Szko\u0142a Policealna Nr 3 w Jaworznie",
                "addr:postcode": "43-603",
                "addr:city": "Jaworzno",
                "addr:street": "Promienna",
                "addr:housenumber": "65",
                "addr:city:simc": 940335,
                "addr:street:sym_ul": 17534,
                "phone": "+48 327629200",
                "email": "sekretariat@ckziu.jaworzno.pl",
                "website": "http:\/\/www.ckziu.jaworzno.pl",
                "ref:regon": "277597760",
                "ref:vatin": "PL6321894091",
                "operator": "Gmina Miasta Jaworzna",
                "operator:type": "government",
                "amenity": "college",
                "note": "Parent RSPO: 130945"
            }
        },
        {
            "id": 111697,
            "type": "Feature",
            "geometry": {
                "type": "Point",
                "coordinates": [
                    19.2057,
                    50.20346
                ]
            },
            "properties": {
                "isced:level": "3",
                "ref:rspo": 111697,
                "official_name": "Technikum Nr 6 im. Kr\u00f3la Jana III Sobieskiego w Jaworznie",
                "name": "Technikum Nr 6",
                "addr:postcode": "43-603",
                "addr:city": "Jaworzno",
                "addr:street": "Promienna",
                "addr:housenumber": "65",
                "addr:city:simc": 940335,
                "addr:street:sym_ul": 17534,
                "phone": "+48 327629200",
                "email": "sekretariat@ckziu.jaworzno.pl",
                "website": "http:\/\/www.ckziu.jaworzno.pl",
                "ref:regon": "000023596",
                "ref:vatin": "PL6321894145",
                "operator": "Gmina Miasta Jaworzna",
                "operator:type": "government",
                "amenity": "school",
                "note": "Parent RSPO: 130945"
            }
        },
        {
            "id": 111700,
            "type": "Feature",
            "geometry": {
                "type": "Point",
                "coordinates": [
                    19.2057,
                    50.20343
                ]
            },
            "properties": {
                "isced:level": "3",
                "ref:rspo": 111700,
                "official_name": "Liceum Og\u00f3lnokszta\u0142c\u0105ce dla Doros\u0142ych w Jaworznie",
                "name": "Liceum Og\u00f3lnokszta\u0142c\u0105ce dla Doros\u0142ych w Jaworznie",
                "addr:postcode": "43-603",
                "addr:city": "Jaworzno",
                "addr:street": "Promienna",
                "addr:housenumber": "65",
                "addr:city:simc": 940335,
                "addr:street:sym_ul": 17534,
                "phone": "+48 327629200",
                "email": "sekretariat@ckziu.jaworzno.pl",
                "website": "http:\/\/www.ckziu.jaworzno.pl",
                "ref:regon": "278082577",
                "ref:vatin": "PL6321894145",
                "operator": "Gmina Miasta Jaworzna",
                "operator:type": "government",
                "amenity": "school",
                "note": "Parent RSPO: 130945"
            }
        },
        {
            "id": 124961,
            "type": "Feature",
            "geometry": {
                "type": "Point",
                "coordinates": [
                    19.27616,
                    50.20385
                ]
            },
            "properties": {
                "ref:rspo": 124961,
                "official_name": "Centrum Szkoleniowe C.m.t. Sp. Z O.o.",
                "name": "Centrum Szkoleniowe C.m.t. Sp. Z O.o.",
                "addr:postcode": "43-600",
                "addr:city": "Jaworzno",
                "addr:street": "Juliusza S\u0142owackiego",
                "addr:housenumber": "4a",
                "addr:city:simc": 940335,
                "addr:street:sym_ul": 20291,
                "phone": "+48 327007600",
                "email": "sekretariat@cmt.edu.pl",
                "ref:regon": "243669120",
                "operator": "C.m.t. Sp\u00f3\u0142ka Z Ograniczon\u0105 Odpowiedzialno\u015bci\u0105",
                "operator:type": "private",
                "fixme": "w zale\u017cno\u015bci od przedmiotu dzia\u0142alno\u015bci (np. amenity=training + training=*, amenity=dancing_school, amenity=language_school, amenity=music_school)"
            }
        },
        {
            "id": 109691,
            "type": "Feature",
            "geometry": {
                "type": "Point",
                "coordinates": [
                    19.2736899,
                    50.2040999
                ]
            },
            "properties": {
                "ref:rspo": 109691,
                "official_name": "O\u015brodek Szkolenia \"Audytorium\"",
                "name": "O\u015brodek Szkolenia \"Audytorium\"",
                "addr:postcode": "43-600",
                "addr:city": "Jaworzno",
                "addr:street": "Farna",
                "addr:housenumber": "2",
                "addr:city:simc": 940335,
                "addr:street:sym_ul": 4907,
                "phone": "+48 501738664",
                "email": "audutorium@interia.pl",
                "website": "http:\/\/www.audytorium.pl",
                "ref:regon": "243186500",
                "operator": "Jbaudytorium Bro\u017cek",
                "operator:type": "private",
                "fixme": "w zale\u017cno\u015bci od przedmiotu dzia\u0142alno\u015bci (np. amenity=training + training=*, amenity=dancing_school, amenity=language_school, amenity=music_school)"
            }
        },
        {
            "id": 38554,
            "type": "Feature",
            "geometry": {
                "type": "Point",
                "coordinates": [
                    19.27447,
                    50.20429
                ]
            },
            "properties": {
                "ref:rspo": 38554,
                "official_name": "Pedagogiczna Biblioteka Wojew\u00f3dzka im. J. Lompy w Katowicach Filia w Jaworznie",
                "name": "Pedagogiczna Biblioteka Wojew\u00f3dzka",
                "addr:postcode": "43-600",
                "addr:city": "Jaworzno",
                "addr:street": "Rynek G\u0142\u00f3wny",
                "addr:housenumber": "17",
                "addr:city:simc": 940335,
                "addr:street:sym_ul": 38504,
                "phone": "+48 326162695",
                "email": "jaworzno@pbw.katowice.pl",
                "website": "http:\/\/www.jaworzno.pbw.katowice.pl",
                "ref:regon": "195400000",
                "ref:vatin": "PL6341759249",
                "operator": "Wojew\u00f3dztwo \u015al\u0105skie",
                "operator:type": "government",
                "amenity": "library",
                "note": "Parent RSPO: 25643"
            }
        },
        {
            "id": 70990,
            "type": "Feature",
            "geometry": {
                "type": "Point",
                "coordinates": [
                    19.25929,
                    50.20483
                ]
            },
            "properties": {
                "ref:rspo": 70990,
                "official_name": "Niepubliczne Przedszkole \"Genesis\"",
                "name": "Niepubliczne Przedszkole \"Genesis\"",
                "addr:postcode": "43-600",
                "addr:city": "Jaworzno",
                "addr:street": "Le\u015bna",
                "addr:housenumber": "21",
                "addr:city:simc": 940335,
                "addr:street:sym_ul": 10898,
                "phone": "+48 327531520",
                "email": "piotrwolnicki@przedszkole-genesis.pl",
                "website": "http:\/\/www.przedszkole-genesis.pl",
                "ref:regon": "243083288",
                "ref:vatin": "PL9542708510",
                "operator": "Genesis Poland Sp\u00f3\u0142ka Z Ograniczon\u0105 Odpowiedzialno\u015bci\u0105",
                "operator:type": "private",
                "amenity": "kindergarten"
            }
        },
        {
            "id": 42325,
            "type": "Feature",
            "geometry": {
                "type": "Point",
                "coordinates": [
                    19.25456,
                    50.20572
                ]
            },
            "properties": {
                "isced:level": "1;2",
                "ref:rspo": 42325,
                "official_name": "Szko\u0142a Podstawowa Nr 15 im. Jana Brzechwy w Jaworznie",
                "name": "Szko\u0142a Podstawowa Nr 15",
                "addr:postcode": "43-609",
                "addr:city": "Jaworzno",
                "addr:street": "Le\u015bna",
                "addr:housenumber": "49",
                "addr:city:simc": 940335,
                "addr:street:sym_ul": 10898,
                "phone": "+48 326163476",
                "email": "sekretariat@sp15.jaworzno.edu.pl",
                "website": "http:\/\/sp15.jaworzno.edu.pl",
                "ref:regon": "000729103",
                "ref:vatin": "PL6321925130",
                "operator": "Gmina Miasta Jaworzna",
                "operator:type": "government",
                "amenity": "school"
            }
        },
        {
            "id": 42381,
            "type": "Feature",
            "geometry": {
                "type": "Point",
                "coordinates": [
                    19.25669,
                    50.20648
                ]
            },
            "properties": {
                "ref:rspo": 42381,
                "official_name": "Przedszkole Miejskie Nr 12 Integracyjne w Jaworznie",
                "name": "Przedszkole Miejskie Nr 12 Integracyjne w Jaworznie",
                "addr:postcode": "43-600",
                "addr:city": "Jaworzno",
                "addr:street": "Aleksandra Fredry",
                "addr:housenumber": "16",
                "addr:city:simc": 940335,
                "addr:street:sym_ul": 5172,
                "phone": "+48 327629126",
                "email": "sekretariat@przedszkole12.jaworzno.edu.pl",
                "website": "http:\/\/przedszkole12.jaworzno.edu.pl",
                "ref:regon": "272001224",
                "ref:vatin": "PL6321925035",
                "operator": "Gmina Miasta Jaworzna",
                "operator:type": "government",
                "amenity": "kindergarten"
            }
        },
        {
            "id": 41333,
            "type": "Feature",
            "geometry": {
                "type": "Point",
                "coordinates": [
                    19.27083,
                    50.20658
                ]
            },
            "properties": {
                "ref:rspo": 41333,
                "official_name": "Przedszkole Miejskie Nr 9 w Jaworznie",
                "name": "Przedszkole Miejskie Nr 9 w Jaworznie",
                "addr:postcode": "43-600",
                "addr:city": "Jaworzno",
                "addr:street": "3 Maja",
                "addr:housenumber": "16",
                "addr:city:simc": 940335,
                "addr:street:sym_ul": 11937,
                "phone": "+48 326163165",
                "email": "przedszkole9@jaworzno.edu.pl",
                "website": "http:\/\/pm9.jaworzno.edu.pl",
                "ref:regon": "272001201",
                "ref:vatin": "PL6321925058",
                "operator": "Gmina Miasta Jaworzna",
                "operator:type": "government",
                "amenity": "kindergarten"
            }
        },
        {
            "id": 56168,
            "type": "Feature",
            "geometry": {
                "type": "Point",
                "coordinates": [
                    19.26665,
                    50.20748
                ]
            },
            "properties": {
                "ref:rspo": 56168,
                "official_name": "Centrum Edukacyjne Progress w Jaworznie",
                "name": "Centrum Edukacyjne Progress w Jaworznie",
                "addr:postcode": "43-600",
                "addr:city": "Jaworzno",
                "addr:street": "Ignacego Paderewskiego",
                "addr:housenumber": "43",
                "addr:city:simc": 940335,
                "addr:street:sym_ul": 15529,
                "phone": "+48 508302749",
                "email": "biuro@progress-ce-edu.pl",
                "website": "http:\/\/progress-ce.edu.pl",
                "ref:regon": "243088914",
                "ref:vatin": "PL6321018047",
                "operator": "Barbara \u0141atka",
                "operator:type": "private",
                "fixme": "w zale\u017cno\u015bci od przedmiotu dzia\u0142alno\u015bci (np. amenity=training + training=*, amenity=dancing_school, amenity=language_school, amenity=music_school)"
            }
        },
        {
            "id": 130859,
            "type": "Feature",
            "geometry": {
                "type": "Point",
                "coordinates": [
                    19.26665,
                    50.207449999999994
                ]
            },
            "properties": {
                "ref:rspo": 130859,
                "official_name": "Przedsiebiorstwo Handlowo Us\u0142ugowo Szkoleniowe \"Atut\"",
                "name": "Przedsiebiorstwo Handlowo Us\u0142ugowo Szkoleniowe \"Atut\"",
                "addr:postcode": "43-600",
                "addr:city": "Jaworzno",
                "addr:street": "Ignacego Paderewskiego",
                "addr:housenumber": "43",
                "addr:city:simc": 940335,
                "addr:street:sym_ul": 15529,
                "phone": "+48 605888578",
                "email": "szkolenia@phus-atut.pl",
                "website": "http:\/\/www.phus-atut.pl",
                "ref:regon": "364624968",
                "operator": "Przemys\u0142aw \u0141aszczyk Przedsi\u0119biorstwo Handlowo Us\u0142ugowo Szkoleniowe Atut",
                "operator:type": "consortium",
                "fixme": "w zale\u017cno\u015bci od przedmiotu dzia\u0142alno\u015bci (np. amenity=training + training=*, amenity=dancing_school, amenity=language_school, amenity=music_school)"
            }
        },
        {
            "id": 42758,
            "type": "Feature",
            "geometry": {
                "type": "Point",
                "coordinates": [
                    19.2704999,
                    50.20759
                ]
            },
            "properties": {
                "isced:level": "1;2",
                "ref:rspo": 42758,
                "official_name": "Szko\u0142a Podstawowa Nr 16 im. Konstytucji 3 Maja w Jaworznie",
                "name": "Szko\u0142a Podstawowa Nr 16",
                "addr:postcode": "43-600",
                "addr:city": "Jaworzno",
                "addr:street": "3 Maja",
                "addr:housenumber": "18",
                "addr:city:simc": 940335,
                "addr:street:sym_ul": 11937,
                "phone": "+48 326163761",
                "email": "sekretariat@sp16.jaworzno.edu.pl",
                "website": "http:\/\/www.sp16.jaworzno.edu.pl",
                "ref:regon": "000729110",
                "ref:vatin": "PL6321925101",
                "operator": "Gmina Miasta Jaworzna",
                "operator:type": "government",
                "amenity": "school"
            }
        },
        {
            "id": 60371,
            "type": "Feature",
            "geometry": {
                "type": "Point",
                "coordinates": [
                    19.25318,
                    50.20867
                ]
            },
            "properties": {
                "ref:rspo": 60371,
                "official_name": "Zesp\u00f3\u0142 Szk\u00f3\u0142 Og\u00f3lnokszta\u0142c\u0105cych w Jaworznie",
                "name": "Zesp\u00f3\u0142 Szk\u00f3\u0142 Og\u00f3lnokszta\u0142c\u0105cych w Jaworznie",
                "addr:postcode": "43-600",
                "addr:city": "Jaworzno",
                "addr:street": "Towarowa",
                "addr:housenumber": "61",
                "addr:city:simc": 940335,
                "addr:street:sym_ul": 22907,
                "phone": "+48 326165149",
                "email": "sekretariat@zso.jaworzno.edu.pl",
                "website": "http:\/\/www.zso.jaworzno.edu.pl",
                "ref:regon": "273219570",
                "ref:vatin": "PL6321925213",
                "operator": "Gmina Miasta Jaworzna",
                "operator:type": "government",
                "landuse": "education",
                "fixme": "amenity=school, amenity=college albo landuse=education w zale\u017cno\u015bci od tego, jakie plac\u00f3wki wchodz\u0105 w sk\u0142ad zespo\u0142u. Sprawd\u017a, kiedy stosowa\u0107 amenity=* a kiedy landuse=education.",
                "note": "Children RSPO: 74792;262696"
            }
        },
        {
            "id": 74008,
            "type": "Feature",
            "geometry": {
                "type": "Point",
                "coordinates": [
                    19.25318,
                    50.208639999999995
                ]
            },
            "properties": {
                "ref:rspo": 74008,
                "official_name": "Przedszkole Miejskie Nr 26 w Jaworznie",
                "name": "Przedszkole Miejskie Nr 26 w Jaworznie",
                "addr:postcode": "43-609",
                "addr:city": "Jaworzno",
                "addr:street": "Towarowa",
                "addr:housenumber": "61",
                "addr:city:simc": 940335,
                "addr:street:sym_ul": 22907,
                "phone": "+48 327629162",
                "email": "przedszkole26@jaworzno.edu.pl",
                "website": "http:\/\/www.pm26.jaworzno.edu.pl",
                "ref:regon": "272001359",
                "ref:vatin": "PL6321924998",
                "operator": "Gmina Miasta Jaworzna",
                "operator:type": "government",
                "amenity": "kindergarten"
            }
        },
        {
            "id": 74792,
            "type": "Feature",
            "geometry": {
                "type": "Point",
                "coordinates": [
                    19.25318,
                    50.20861
                ]
            },
            "properties": {
                "isced:level": "3",
                "ref:rspo": 74792,
                "official_name": "Iii Liceum Og\u00f3lnokszta\u0142c\u0105ce im. Or\u0142a Bia\u0142ego w Jaworznie",
                "name": "Iii Liceum Og\u00f3lnokszta\u0142c\u0105ce",
                "addr:postcode": "43-609",
                "addr:city": "Jaworzno",
                "addr:street": "Towarowa",
                "addr:housenumber": "61",
                "addr:city:simc": 940335,
                "addr:street:sym_ul": 22907,
                "phone": "+48 326165149",
                "email": "sekretariat@zso.jaworzno.edu.pl",
                "website": "http:\/\/www.zso.jaworzno.edu.pl",
                "ref:regon": "272219058",
                "ref:vatin": "PL6321925213",
                "operator": "Gmina Miasta Jaworzna",
                "operator:type": "government",
                "amenity": "school",
                "note": "Parent RSPO: 60371"
            }
        },
        {
            "id": 262696,
            "type": "Feature",
            "geometry": {
                "type": "Point",
                "coordinates": [
                    19.25318,
                    50.20858
                ]
            },
            "properties": {
                "isced:level": "1;2",
                "ref:rspo": 262696,
                "official_name": "Szko\u0142a Podstawowa Nr 2 Z Oddzia\u0142ami Integracyjnymi I Oddzia\u0142ami Dwuj\u0119zycznymi im. Or\u0142a Bia\u0142ego w Jaworznie",
                "name": "Szko\u0142a Podstawowa Nr 2 Z Oddzia\u0142ami Integracyjnymi I Oddzia\u0142ami Dwuj\u0119zycznymi",
                "addr:postcode": "43-600",
                "addr:city": "Jaworzno",
                "addr:street": "Towarowa",
                "addr:housenumber": "61",
                "addr:city:simc": 940335,
                "addr:street:sym_ul": 22907,
                "phone": "+48 326165149",
                "email": "sekretariat@zso.jaworzno.edu.pl",
                "website": "http:\/\/www.zso.jaworzno.edu.pl",
                "ref:regon": "368052055",
                "ref:vatin": "PL6321894116",
                "operator": "Gmina Miasta Jaworzna",
                "operator:type": "government",
                "amenity": "school",
                "note": "Parent RSPO: 60371"
            }
        },
        {
            "id": 55129,
            "type": "Feature",
            "geometry": {
                "type": "Point",
                "coordinates": [
                    19.27311,
                    50.21005
                ]
            },
            "properties": {
                "ref:rspo": 55129,
                "official_name": "Zesp\u00f3\u0142 Szk\u00f3\u0142 Ponadpodstawowych Nr 3 im. Jana Paw\u0142a II w Jaworznie",
                "name": "Zesp\u00f3\u0142 Szk\u00f3\u0142 Ponadpodstawowych Nr 3",
                "addr:postcode": "43-600",
                "addr:city": "Jaworzno",
                "addr:street": "P\u00f3\u0142nocna",
                "addr:housenumber": "9a",
                "addr:city:simc": 940335,
                "addr:street:sym_ul": 17421,
                "phone": "+48 326167991",
                "email": "sekretariat@zsp3.jaworzno.edu.pl",
                "website": "http:\/\/www.zsp3.jaworzno.edu.pl",
                "ref:regon": "271505419",
                "ref:vatin": "PL6321894139",
                "operator": "Gmina Miasta Jaworzna",
                "operator:type": "government",
                "landuse": "education",
                "fixme": "amenity=school, amenity=college albo landuse=education w zale\u017cno\u015bci od tego, jakie plac\u00f3wki wchodz\u0105 w sk\u0142ad zespo\u0142u. Sprawd\u017a, kiedy stosowa\u0107 amenity=* a kiedy landuse=education.",
                "note": "Children RSPO: 111601;111639;111652;266371"
            }
        },
        {
            "id": 111601,
            "type": "Feature",
            "geometry": {
                "type": "Point",
                "coordinates": [
                    19.27311,
                    50.21002
                ]
            },
            "properties": {
                "isced:level": "3",
                "ref:rspo": 111601,
                "official_name": "Technikum Nr 1 w Jaworznie",
                "name": "Technikum Nr 1 w Jaworznie",
                "addr:postcode": "43-600",
                "addr:city": "Jaworzno",
                "addr:street": "P\u00f3\u0142nocna",
                "addr:housenumber": "9a",
                "addr:city:simc": 940335,
                "addr:street:sym_ul": 17421,
                "phone": "+48 326167991",
                "email": "sekretariat@zsp3.jaworzno.edu.pl",
                "website": "http:\/\/www.zsp3.jaworzno.edu.pl",
                "ref:regon": "272113207",
                "ref:vatin": "PL6321894139",
                "operator": "Gmina Miasta Jaworzna",
                "operator:type": "government",
                "amenity": "school",
                "note": "Parent RSPO: 55129"
            }
        },
        {
            "id": 111639,
            "type": "Feature",
            "geometry": {
                "type": "Point",
                "coordinates": [
                    19.27311,
                    50.209990000000005
                ]
            },
            "properties": {
                "isced:level": "3",
                "ref:rspo": 111639,
                "official_name": "Bran\u017cowa Szko\u0142a I St. Nr 1 w Jaworznie",
                "name": "Bran\u017cowa Szko\u0142a I St. Nr 1 w Jaworznie",
                "addr:postcode": "43-600",
                "addr:city": "Jaworzno",
                "addr:street": "P\u00f3\u0142nocna",
                "addr:housenumber": "9a",
                "addr:city:simc": 940335,
                "addr:street:sym_ul": 17421,
                "phone": "+48 326167991",
                "email": "sekretariat@zsp3.jaworzno.edu.pl",
                "website": "http:\/\/www.zsp3.jaworzno.edu.pl",
                "ref:regon": "272113199",
                "ref:vatin": "PL6321894139",
                "operator": "Gmina Miasta Jaworzna",
                "operator:type": "government",
                "amenity": "school",
                "note": "Parent RSPO: 55129"
            }
        },
        {
            "id": 111652,
            "type": "Feature",
            "geometry": {
                "type": "Point",
                "coordinates": [
                    19.27311,
                    50.20996
                ]
            },
            "properties": {
                "isced:level": "4",
                "ref:rspo": 111652,
                "official_name": "Szko\u0142a Policealna Nr 1 w Jaworznie",
                "name": "Szko\u0142a Policealna Nr 1 w Jaworznie",
                "addr:postcode": "43-600",
                "addr:city": "Jaworzno",
                "addr:street": "P\u00f3\u0142nocna",
                "addr:housenumber": "9a",
                "addr:city:simc": 940335,
                "addr:street:sym_ul": 17421,
                "phone": "+48 326167991",
                "email": "sekretariat@zsp3.jaworzno.edu.pl",
                "website": "http:\/\/www.zsp3.jaworzno.edu.pl",
                "ref:regon": "276929414",
                "ref:vatin": "PL6321894139",
                "operator": "Gmina Miasta Jaworzna",
                "operator:type": "government",
                "amenity": "college",
                "note": "Parent RSPO: 55129"
            }
        },
        {
            "id": 266371,
            "type": "Feature",
            "geometry": {
                "type": "Point",
                "coordinates": [
                    19.27311,
                    50.20993
                ]
            },
            "properties": {
                "isced:level": "3",
                "ref:rspo": 266371,
                "official_name": "I Liceum Og\u00f3lnokszta\u0142c\u0105ce dla Doros\u0142ych w Jaworznie",
                "name": "I Liceum Og\u00f3lnokszta\u0142c\u0105ce dla Doros\u0142ych w Jaworznie",
                "addr:postcode": "43-600",
                "addr:city": "Jaworzno",
                "addr:street": "P\u00f3\u0142nocna",
                "addr:housenumber": "9a",
                "addr:city:simc": 940335,
                "addr:street:sym_ul": 17421,
                "phone": "+48 326167991",
                "email": "sekretariat@zsp3.jaworzno.edu.pl",
                "website": "http:\/\/www.zsp3.jaworzno.edu.pl",
                "ref:regon": "369449547",
                "ref:vatin": "PL6321894139",
                "operator": "Gmina Miasta Jaworzna",
                "operator:type": "government",
                "amenity": "school",
                "note": "Parent RSPO: 55129"
            }
        },
        {
            "id": 120532,
            "type": "Feature",
            "geometry": {
                "type": "Point",
                "coordinates": [
                    19.25166,
                    50.21037
                ]
            },
            "properties": {
                "ref:rspo": 120532,
                "official_name": "O\u015brodek Edukacji Kadr Pro-Kadr",
                "name": "O\u015brodek Edukacji Kadr Pro-Kadr",
                "addr:postcode": "43-600",
                "addr:city": "Jaworzno",
                "addr:street": "al. marsz. J\u00f3zefa Pi\u0142sudskiego",
                "addr:housenumber": "42",
                "addr:door": "21",
                "addr:city:simc": 940335,
                "addr:street:sym_ul": 16270,
                "phone": "+48 327262305",
                "email": "bc.kontakt@wp.pl",
                "website": "http:\/\/www.bc.kontakt.pl",
                "ref:regon": "243391340",
                "operator": "Dane Do Uzupe\u0142nienia",
                "operator:type": "private"
            }
        },
        {
            "id": 89347,
            "type": "Feature",
            "geometry": {
                "type": "Point",
                "coordinates": [
                    19.26598,
                    50.2121799
                ]
            },
            "properties": {
                "isced:level": "3",
                "ref:rspo": 89347,
                "official_name": "I Liceum Og\u00f3lnokszta\u0142c\u0105ce im. Tadeusza Ko\u015bciuszki w Jaworznie",
                "name": "I Liceum Og\u00f3lnokszta\u0142c\u0105ce",
                "addr:postcode": "43-600",
                "addr:city": "Jaworzno",
                "addr:street": "Licealna",
                "addr:housenumber": "3",
                "addr:city:simc": 940335,
                "addr:street:sym_ul": 11033,
                "phone": "+48 326163846",
                "email": "sekretariat@lo1.jaworzno.edu.pl",
                "website": "http:\/\/www.1lo.jaworzno.pl",
                "ref:regon": "000729178",
                "ref:vatin": "PL6321901112",
                "operator": "Gmina Miasta Jaworzna",
                "operator:type": "government",
                "amenity": "school"
            }
        },
        {
            "id": 41117,
            "type": "Feature",
            "geometry": {
                "type": "Point",
                "coordinates": [
                    19.26129,
                    50.21258
                ]
            },
            "properties": {
                "ref:rspo": 41117,
                "official_name": "Przedszkole Miejskie Nr 5 w Jaworznie",
                "name": "Przedszkole Miejskie Nr 5 w Jaworznie",
                "addr:postcode": "43-600",
                "addr:city": "Jaworzno",
                "addr:street": "11 Listopada",
                "addr:housenumber": "3",
                "addr:city:simc": 940335,
                "addr:street:sym_ul": 11205,
                "phone": "+48 326163464",
                "email": "przedszkole5@jaworzno.edu.pl",
                "website": "http:\/\/www.przedszkole5jaworzno.edupage.pl",
                "ref:regon": "272001170",
                "ref:vatin": "PL6321925294",
                "operator": "Gmina Miasta Jaworzna",
                "operator:type": "government",
                "amenity": "kindergarten"
            }
        },
        {
            "id": 74157,
            "type": "Feature",
            "geometry": {
                "type": "Point",
                "coordinates": [
                    19.2561399,
                    50.21269
                ]
            },
            "properties": {
                "isced:level": "1;2",
                "ref:rspo": 74157,
                "official_name": "Szko\u0142a Podstawowa Nr 7 Z Oddzia\u0142ami Integracyjnymi im. Marii Sk\u0142odowskiej-Curie w Jaworznie",
                "name": "Szko\u0142a Podstawowa Nr 7 Z Oddzia\u0142ami Integracyjnymi",
                "addr:postcode": "43-609",
                "addr:city": "Jaworzno",
                "addr:street": "\u0141awczana",
                "addr:housenumber": "12",
                "addr:city:simc": 940335,
                "addr:street:sym_ul": 11543,
                "phone": "+48 327629180",
                "email": "sekretariat@sp7.jaworzno.edu.pl",
                "website": "http:\/\/www.sp7.jaworzno.edu.pl",
                "ref:regon": "000729221",
                "ref:vatin": "PL6321925302",
                "operator": "Gmina Miasta Jaworzna",
                "operator:type": "government",
                "amenity": "school"
            }
        },
        {
            "id": 64874,
            "type": "Feature",
            "geometry": {
                "type": "Point",
                "coordinates": [
                    19.23384,
                    50.21388
                ]
            },
            "properties": {
                "ref:rspo": 64874,
                "official_name": "Grupa Cargo Sp\u00f3\u0142ka Z Ograniczon\u0105 Odpowiedzialno\u015bci\u0105 Sp\u00f3\u0142ka Komandytowa",
                "name": "Grupa Cargo Sp\u00f3\u0142ka Z Ograniczon\u0105 Odpowiedzialno\u015bci\u0105 Sp\u00f3\u0142ka Komandytowa",
                "addr:postcode": "43-603",
                "addr:city": "Jaworzno",
                "addr:street": "Karola Darwina",
                "addr:housenumber": "17",
                "addr:city:simc": 940335,
                "addr:street:sym_ul": 3624,
                "phone": "+48 326156725",
                "email": "biuro@cargo.edu.pl",
                "website": "http:\/\/www.cargo.edu.pl",
                "ref:regon": "243083762",
                "ref:vatin": "PL6322008683",
                "operator": "Grupa Cargo Sp\u00f3\u0142ka Z Ograniczon\u0105 Odpowiedzialno\u015bci\u0105 Sp\u00f3\u0142ka Komandytowa",
                "operator:type": "private",
                "fixme": "w zale\u017cno\u015bci od przedmiotu dzia\u0142alno\u015bci (np. amenity=training + training=*, amenity=dancing_school, amenity=language_school, amenity=music_school)"
            }
        },
        {
            "id": 128452,
            "type": "Feature",
            "geometry": {
                "type": "Point",
                "coordinates": [
                    19.23384,
                    50.21385
                ]
            },
            "properties": {
                "ref:rspo": 128452,
                "official_name": "Grupa Cargo Sp\u00f3\u0142ka Z Ograniczon\u0105 Odpowiedzialno\u015bci\u0105",
                "name": "Grupa Cargo Sp\u00f3\u0142ka Z Ograniczon\u0105 Odpowiedzialno\u015bci\u0105",
                "addr:postcode": "43-603",
                "addr:city": "Jaworzno",
                "addr:street": "Karola Darwina",
                "addr:housenumber": "17",
                "addr:city:simc": 940335,
                "addr:street:sym_ul": 3624,
                "phone": "+48 324138800",
                "email": "biuro@cargo.edu.pl",
                "ref:regon": "362283635",
                "operator": "Grupa Cargo Sp\u00f3\u0142ka Z Ograniczon\u0105 Odpowiedzialno\u015bci\u0105",
                "operator:type": "private",
                "fixme": "w zale\u017cno\u015bci od przedmiotu dzia\u0142alno\u015bci (np. amenity=training + training=*, amenity=dancing_school, amenity=language_school, amenity=music_school)"
            }
        },
        {
            "id": 59788,
            "type": "Feature",
            "geometry": {
                "type": "Point",
                "coordinates": [
                    19.34817,
                    50.21428
                ]
            },
            "properties": {
                "isced:level": "1;2",
                "ref:rspo": 59788,
                "official_name": "Szko\u0142a Podstawowa Nr 18 im. Tadeusza Ko\u015bciuszki w Jaworznie",
                "name": "Szko\u0142a Podstawowa Nr 18",
                "addr:postcode": "43-600",
                "addr:city": "Jaworzno",
                "addr:street": "Ksi\u0119dza Andrzeja Mroczka",
                "addr:housenumber": "53c",
                "addr:city:simc": 940335,
                "addr:street:sym_ul": 13421,
                "phone": "+48 327629260",
                "email": "sekretariat@sp18.jaworzno.edu.pl",
                "website": "http:\/\/www.sp18.jaworzno.edu.pl",
                "ref:regon": "000729132",
                "ref:vatin": "PL6321925331",
                "operator": "Gmina Miasta Jaworzna",
                "operator:type": "government",
                "amenity": "school"
            }
        },
        {
            "id": 74801,
            "type": "Feature",
            "geometry": {
                "type": "Point",
                "coordinates": [
                    19.35152,
                    50.2144
                ]
            },
            "properties": {
                "ref:rspo": 74801,
                "official_name": "Przedszkole Miejskie Nr 4 w Jaworznie",
                "name": "Przedszkole Miejskie Nr 4 w Jaworznie",
                "addr:postcode": "43-600",
                "addr:city": "Jaworzno",
                "addr:street": "Wyzwolenia",
                "addr:housenumber": "4",
                "addr:city:simc": 940335,
                "addr:street:sym_ul": 25133,
                "phone": "+48 327629252",
                "email": "przedszkole4@jaworzno.edu.pl",
                "website": "http:\/\/www.przedszkolemiejskie4.edupage.org",
                "ref:regon": "272001164",
                "ref:vatin": "PL6321925288",
                "operator": "Gmina Miasta Jaworzna",
                "operator:type": "government",
                "amenity": "kindergarten"
            }
        },
        {
            "id": 71500,
            "type": "Feature",
            "geometry": {
                "type": "Point",
                "coordinates": [
                    19.26454,
                    50.21459
                ]
            },
            "properties": {
                "isced:level": "1;2",
                "ref:rspo": 71500,
                "official_name": "Szko\u0142a Podstawowa Nr 6 im. Stefana \u017beromskiego w Jaworznie",
                "name": "Szko\u0142a Podstawowa Nr 6",
                "addr:postcode": "43-600",
                "addr:city": "Jaworzno",
                "addr:street": "Lipowa",
                "addr:housenumber": "24",
                "addr:city:simc": 940335,
                "addr:street:sym_ul": 11139,
                "phone": "+48 327629275",
                "email": "sekretariat@sp6.jaworzno.edu.pl",
                "website": "http:\/\/www.sp6.jaworzno.edu.pl",
                "ref:regon": "000729215",
                "ref:vatin": "PL6321925348",
                "operator": "Gmina Miasta Jaworzna",
                "operator:type": "government",
                "amenity": "school"
            }
        },
        {
            "id": 73994,
            "type": "Feature",
            "geometry": {
                "type": "Point",
                "coordinates": [
                    19.25284,
                    50.2149
                ]
            },
            "properties": {
                "ref:rspo": 73994,
                "official_name": "Przedszkole Miejskie Nr 27 im.majki Je\u017cowskiej w Jaworznie",
                "name": "Przedszkole Miejskie Nr 27 im.majki Je\u017cowskiej w Jaworznie",
                "addr:postcode": "43-609",
                "addr:city": "Jaworzno",
                "addr:street": "al. marsz. J\u00f3zefa Pi\u0142sudskiego",
                "addr:housenumber": "78",
                "addr:city:simc": 940335,
                "addr:street:sym_ul": 16270,
                "phone": "+48 326165353",
                "email": "przedszkole27@jaworzno.edu.pl",
                "website": "http:\/\/pm27.jaworzno.edu.pl",
                "ref:regon": "272001365",
                "ref:vatin": "PL6321925006",
                "operator": "Gmina Miasta Jaworzna",
                "operator:type": "government",
                "amenity": "kindergarten"
            }
        },
        {
            "id": 42461,
            "type": "Feature",
            "geometry": {
                "type": "Point",
                "coordinates": [
                    19.216598510742,
                    50.215251922607
                ]
            },
            "properties": {
                "ref:rspo": 42461,
                "official_name": "Przedszkole Miejskie Nr 14 Z Oddzia\u0142ami Integracyjnymi w Jaworznie",
                "name": "Przedszkole Miejskie Nr 14 Z Oddzia\u0142ami Integracyjnymi w Jaworznie",
                "addr:postcode": "43-600",
                "addr:city": "Jaworzno",
                "addr:street": "Wincentego Muchy",
                "addr:housenumber": "6",
                "addr:city:simc": 940335,
                "addr:street:sym_ul": 13474,
                "phone": "+48 327629302",
                "email": "przedszkole14@jaworzno.edu.pl",
                "website": "http:\/\/www.przedszkole14.jaworzno.edu.pl",
                "ref:regon": "272001247",
                "ref:vatin": "PL6321925041",
                "operator": "Gmina Miasta Jaworzna",
                "operator:type": "government",
                "amenity": "kindergarten"
            }
        },
        {
            "id": 42748,
            "type": "Feature",
            "geometry": {
                "type": "Point",
                "coordinates": [
                    19.216598510742,
                    50.215221922607
                ]
            },
            "properties": {
                "ref:rspo": 42748,
                "official_name": "Przedszkole Miejskie Nr 18 w Jaworznie",
                "name": "Przedszkole Miejskie Nr 18 w Jaworznie",
                "addr:postcode": "43-607",
                "addr:city": "Jaworzno",
                "addr:street": "Na Stoku",
                "addr:housenumber": "12",
                "addr:city:simc": 940335,
                "addr:street:sym_ul": 13678,
                "phone": "+48 327629230",
                "email": "przedszkole18@jaworzno.edu.pl",
                "website": "http:\/\/www.pm18.edupage.org",
                "ref:regon": "272001276",
                "ref:vatin": "PL6321925087",
                "operator": "Gmina Miasta Jaworzna",
                "operator:type": "government",
                "amenity": "kindergarten"
            }
        },
        {
            "id": 278502,
            "type": "Feature",
            "geometry": {
                "type": "Point",
                "coordinates": [
                    19.25364,
                    50.21559
                ]
            },
            "properties": {
                "ref:rspo": 278502,
                "official_name": "Niepubliczna Plac\u00f3wka Kszta\u0142cenia Ustawicznego Kreator Rozwi\u0105za\u0144",
                "name": "Niepubliczna Plac\u00f3wka Kszta\u0142cenia Ustawicznego Kreator Rozwi\u0105za\u0144",
                "addr:postcode": "43-600",
                "addr:city": "Jaworzno",
                "addr:street": "Grunwaldzka",
                "addr:housenumber": "229",
                "addr:door": "5",
                "addr:city:simc": 940335,
                "addr:street:sym_ul": 6260,
                "phone": "+48 535480787",
                "email": "biuro@krrk.pl",
                "ref:regon": "389980540",
                "operator": "Renata Kucia",
                "operator:type": "private",
                "fixme": "w zale\u017cno\u015bci od przedmiotu dzia\u0142alno\u015bci (np. amenity=training + training=*, amenity=dancing_school, amenity=language_school, amenity=music_school)"
            }
        },
        {
            "id": 70995,
            "type": "Feature",
            "geometry": {
                "type": "Point",
                "coordinates": [
                    19.25221,
                    50.2157399
                ]
            },
            "properties": {
                "ref:rspo": 70995,
                "official_name": "Ii Niepubliczne Przedszkole M\u0142odych Talent\u00f3w 100 Bajek",
                "name": "Ii Niepubliczne Przedszkole M\u0142odych Talent\u00f3w 100 Bajek",
                "addr:postcode": "43-600",
                "addr:city": "Jaworzno",
                "addr:street": "Aleja Marsza\u0142ka J\u00f3zefa Pi\u0142sudskiego",
                "addr:housenumber": "86",
                "addr:city:simc": 940335,
                "addr:street:sym_ul": 50016,
                "phone": "+48 609773484",
                "email": "100bajekjaworzno@gmail.com",
                "website": "http:\/\/www.przedszkole100bajek.pl",
                "ref:regon": "243084030",
                "ref:vatin": "PL6281128113",
                "operator": "Monika Lorek-S\u0119dzielowska",
                "operator:type": "private",
                "amenity": "kindergarten"
            }
        },
        {
            "id": 269302,
            "type": "Feature",
            "geometry": {
                "type": "Point",
                "coordinates": [
                    19.25221,
                    50.2157099
                ]
            },
            "properties": {
                "ref:rspo": 269302,
                "official_name": "Niepubliczna Poradnia Psychologiczno - Pedagogiczna Centrum Terapii Miofuncjonalnej Klinika J\u0119zyka",
                "name": "Niepubliczna Poradnia Psychologiczno - Pedagogiczna Centrum Terapii Miofuncjonalnej Klinika J\u0119zyka",
                "addr:postcode": "43-600",
                "addr:city": "Jaworzno",
                "addr:street": "Aleja Marsza\u0142ka J\u00f3zefa Pi\u0142sudskiego",
                "addr:housenumber": "86",
                "addr:city:simc": 940335,
                "addr:street:sym_ul": 50016,
                "phone": "+48 609773484",
                "email": "monikalorek@gmail.com",
                "ref:regon": "381429890",
                "operator": "Monika Lorek-S\u0119dzielowska",
                "operator:type": "private",
                "healthcare": "counselling",
                "counselling_type": "education",
                "fixme": "w zale\u017cno\u015bci od przedmiotu dzia\u0142alno\u015bci (np. healthcare=counselling + counselling_type=education albo healthcare=psychotherapist)"
            }
        },
        {
            "id": 119068,
            "type": "Feature",
            "geometry": {
                "type": "Point",
                "coordinates": [
                    19.26319,
                    50.216
                ]
            },
            "properties": {
                "ref:rspo": 119068,
                "official_name": "Niepubliczne Przedszkole \"R\u00f3\u017cowe Okulary\"",
                "name": "Niepubliczne Przedszkole \"R\u00f3\u017cowe Okulary\"",
                "addr:postcode": "43-600",
                "addr:city": "Jaworzno",
                "addr:street": "Dzia\u0142kowa",
                "addr:housenumber": "28",
                "addr:city:simc": 940335,
                "addr:street:sym_ul": 4572,
                "phone": "+48 664136714",
                "email": "rozowe.okulary@vp.pl",
                "website": "http:\/\/www.rozoweokulary.edu.pl",
                "ref:regon": "243350192",
                "ref:vatin": "PL6321128238",
                "operator": "Agata Gottel",
                "operator:type": "private",
                "amenity": "kindergarten"
            }
        },
        {
            "id": 130323,
            "type": "Feature",
            "geometry": {
                "type": "Point",
                "coordinates": [
                    19.25259,
                    50.21714
                ]
            },
            "properties": {
                "ref:rspo": 130323,
                "official_name": "Biuro Specjalistycznych Us\u0142ug In\u017cynieryjnych Ekocarbon Grzegorz Gaj",
                "name": "Biuro Specjalistycznych Us\u0142ug In\u017cynieryjnych Ekocarbon Grzegorz Gaj",
                "addr:postcode": "43-600",
                "addr:city": "Jaworzno",
                "addr:street": "Grunwaldzka",
                "addr:housenumber": "235",
                "addr:door": "110",
                "addr:city:simc": 940335,
                "addr:street:sym_ul": 6260,
                "phone": "+48 604365990",
                "email": "zugjaworzno@onet.eu",
                "ref:regon": "363842634",
                "operator": "Biuro Specjalistycznych Us\u0142ug In\u017cynieryjnych Ekocarbon Grzegorz Gaj",
                "operator:type": "consortium",
                "fixme": "w zale\u017cno\u015bci od przedmiotu dzia\u0142alno\u015bci (np. amenity=training + training=*, amenity=dancing_school, amenity=language_school, amenity=music_school)"
            }
        },
        {
            "id": 132229,
            "type": "Feature",
            "geometry": {
                "type": "Point",
                "coordinates": [
                    19.26118,
                    50.2175
                ]
            },
            "properties": {
                "ref:rspo": 132229,
                "official_name": "Niepubliczne Przedszkole \"Malutkie Misie\" w Jaworznie",
                "name": "Niepubliczne Przedszkole \"Malutkie Misie\" w Jaworznie",
                "addr:postcode": "43-600",
                "addr:city": "Jaworzno",
                "addr:street": "Bursztynowa",
                "addr:housenumber": "3",
                "addr:city:simc": 940335,
                "addr:street:sym_ul": 2462,
                "phone": "+48 791111031",
                "email": "kontakt@malutkiemisie.pl",
                "website": "http:\/\/www.malutkiemisie.pl",
                "ref:regon": "365519009",
                "operator": "Robert Siata",
                "operator:type": "private",
                "amenity": "kindergarten"
            }
        },
        {
            "id": 58963,
            "type": "Feature",
            "geometry": {
                "type": "Point",
                "coordinates": [
                    19.25061,
                    50.2222
                ]
            },
            "properties": {
                "ref:rspo": 58963,
                "official_name": "Przedszkole Miejskie Nr 25 w Jaworznie",
                "name": "Przedszkole Miejskie Nr 25 w Jaworznie",
                "addr:postcode": "43-600",
                "addr:city": "Jaworzno",
                "addr:street": "Ignacego Mo\u015bcickiego",
                "addr:housenumber": "21",
                "addr:city:simc": 940335,
                "addr:street:sym_ul": 13390,
                "phone": "+48 327629313",
                "email": "przedszkole25@jaworzno.edu.pl",
                "website": "http:\/\/www.przedszkole25.jaworzno.edu.pl",
                "ref:regon": "272001342",
                "ref:vatin": "PL6321925147",
                "operator": "Gmina Miasta Jaworzna",
                "operator:type": "government",
                "amenity": "kindergarten"
            }
        },
        {
            "id": 52354,
            "type": "Feature",
            "geometry": {
                "type": "Point",
                "coordinates": [
                    19.23264,
                    50.22272
                ]
            },
            "properties": {
                "ref:rspo": 52354,
                "official_name": "Zesp\u00f3\u0142 Szk\u00f3\u0142 Ponadpodstawowych Nr 2 w Jaworznie",
                "name": "Zesp\u00f3\u0142 Szk\u00f3\u0142 Ponadpodstawowych Nr 2 w Jaworznie",
                "addr:postcode": "43-603",
                "addr:city": "Jaworzno",
                "addr:street": "Inwalid\u00f3w Wojennych",
                "addr:housenumber": "16",
                "addr:city:simc": 940335,
                "addr:street:sym_ul": 6921,
                "phone": "+48 327629384",
                "email": "sekretariat@zsp2.jaworzno.edu.pl",
                "website": "http:\/\/www.zsp2.jaworzno.pl",
                "ref:regon": "000024420",
                "ref:vatin": "PL6321894116",
                "operator": "Gmina Miasta Jaworzna",
                "operator:type": "government",
                "landuse": "education",
                "fixme": "amenity=school, amenity=college albo landuse=education w zale\u017cno\u015bci od tego, jakie plac\u00f3wki wchodz\u0105 w sk\u0142ad zespo\u0142u. Sprawd\u017a, kiedy stosowa\u0107 amenity=* a kiedy landuse=education.",
                "note": "Children RSPO: 111566;111569;111571;111572;262732"
            }
        },
        {
            "id": 111566,
            "type": "Feature",
            "geometry": {
                "type": "Point",
                "coordinates": [
                    19.23264,
                    50.22269
                ]
            },
            "properties": {
                "isced:level": "3",
                "ref:rspo": 111566,
                "official_name": "Iv Liceum Og\u00f3lnokszta\u0142c\u0105ce w Jaworznie",
                "name": "Iv Liceum Og\u00f3lnokszta\u0142c\u0105ce w Jaworznie",
                "addr:postcode": "43-603",
                "addr:city": "Jaworzno",
                "addr:street": "Inwalid\u00f3w Wojennych",
                "addr:housenumber": "16",
                "addr:city:simc": 940335,
                "addr:street:sym_ul": 6921,
                "phone": "+48 327629384",
                "email": "sekretariat@zsp2.jaworzno.eud.pl",
                "website": "http:\/\/www.zsp2.jaworzno.edu.pl",
                "ref:regon": "276943331",
                "ref:vatin": "PL6321894116",
                "operator": "Gmina Miasta Jaworzna",
                "operator:type": "government",
                "amenity": "school",
                "note": "Parent RSPO: 52354"
            }
        },
        {
            "id": 111569,
            "type": "Feature",
            "geometry": {
                "type": "Point",
                "coordinates": [
                    19.23264,
                    50.222660000000005
                ]
            },
            "properties": {
                "isced:level": "3",
                "ref:rspo": 111569,
                "official_name": "Technikum Nr 2 w Jaworznie",
                "name": "Technikum Nr 2 w Jaworznie",
                "addr:postcode": "43-600",
                "addr:city": "Jaworzno",
                "addr:street": "Inwalid\u00f3w Wojennych",
                "addr:housenumber": "16",
                "addr:city:simc": 940335,
                "addr:street:sym_ul": 6921,
                "phone": "+48 327629384",
                "email": "sekretariat@zsp2.jaworzno.edu.pl",
                "website": "http:\/\/www.zsp2.jaworzno.pl",
                "ref:regon": "272167172",
                "ref:vatin": "PL6321894116",
                "operator": "Gmina Miasta Jaworzna",
                "operator:type": "government",
                "amenity": "school",
                "note": "Parent RSPO: 52354"
            }
        },
        {
            "id": 111571,
            "type": "Feature",
            "geometry": {
                "type": "Point",
                "coordinates": [
                    19.23264,
                    50.22263
                ]
            },
            "properties": {
                "isced:level": "3",
                "ref:rspo": 111571,
                "official_name": "Bran\u017cowa Szko\u0142a I St. Nr 2 w Jaworznie",
                "name": "Bran\u017cowa Szko\u0142a I St. Nr 2 w Jaworznie",
                "addr:postcode": "43-603",
                "addr:city": "Jaworzno",
                "addr:street": "Inwalid\u00f3w Wojennych",
                "addr:housenumber": "16",
                "addr:city:simc": 940335,
                "addr:street:sym_ul": 6921,
                "phone": "+48 327629384",
                "email": "sekretariat@zsp2.jaworzno.eud.pl",
                "website": "http:\/\/www.zsp2.jaworzno.pl",
                "ref:regon": "272167166",
                "ref:vatin": "PL6321894116",
                "operator": "Gmina Miasta Jaworzna",
                "operator:type": "government",
                "amenity": "school",
                "note": "Parent RSPO: 52354"
            }
        },
        {
            "id": 111572,
            "type": "Feature",
            "geometry": {
                "type": "Point",
                "coordinates": [
                    19.23264,
                    50.2226
                ]
            },
            "properties": {
                "isced:level": "4",
                "ref:rspo": 111572,
                "official_name": "Szko\u0142a Policealna Nr 2 w Jaworznie",
                "name": "Szko\u0142a Policealna Nr 2 w Jaworznie",
                "addr:postcode": "43-603",
                "addr:city": "Jaworzno",
                "addr:street": "Inwalid\u00f3w Wojennych",
                "addr:housenumber": "16",
                "addr:city:simc": 940335,
                "addr:street:sym_ul": 6921,
                "phone": "+48 327629382",
                "email": "zsz_2jaw@interia.pl",
                "website": "http:\/\/www.zsp2.jaworzno.pl",
                "ref:regon": "272660560",
                "ref:vatin": "PL6321894116",
                "operator": "Gmina Miasta Jaworzna",
                "operator:type": "government",
                "amenity": "college",
                "note": "Parent RSPO: 52354"
            }
        },
        {
            "id": 262732,
            "type": "Feature",
            "geometry": {
                "type": "Point",
                "coordinates": [
                    19.23264,
                    50.222570000000005
                ]
            },
            "properties": {
                "isced:level": "1;2",
                "ref:rspo": 262732,
                "official_name": "Szko\u0142a Podstawowa dla Doros\u0142ych w Jaworznie",
                "name": "Szko\u0142a Podstawowa dla Doros\u0142ych w Jaworznie",
                "addr:postcode": "43-600",
                "addr:city": "Jaworzno",
                "addr:street": "Inwalid\u00f3w Wojennych",
                "addr:housenumber": "16",
                "addr:city:simc": 940335,
                "addr:street:sym_ul": 6921,
                "phone": "+48 326155709",
                "email": "sekretariat@zsp2.jaworzno.edu.pl",
                "ref:regon": "368053623",
                "ref:vatin": "PL6321894116",
                "operator": "Gmina Miasta Jaworzna",
                "operator:type": "government",
                "amenity": "school",
                "note": "Parent RSPO: 52354"
            }
        },
        {
            "id": 75026,
            "type": "Feature",
            "geometry": {
                "type": "Point",
                "coordinates": [
                    19.23345,
                    50.22301
                ]
            },
            "properties": {
                "ref:rspo": 75026,
                "official_name": "Poradnia Psychologiczno-Pedagogiczna w Jaworznie",
                "name": "Poradnia Psychologiczno-Pedagogiczna w Jaworznie",
                "addr:postcode": "43-603",
                "addr:city": "Jaworzno",
                "addr:street": "Inwalid\u00f3w Wojennych",
                "addr:housenumber": "14",
                "addr:city:simc": 940335,
                "addr:street:sym_ul": 6921,
                "phone": "+48 327629137",
                "email": "sekretariat@ppp.jaworzno.edu.pl",
                "website": "http:\/\/www.ppp.jaworzno.edu.pl",
                "ref:regon": "000729050",
                "ref:vatin": "PL6321157725",
                "operator": "Gmina Miasta Jaworzna",
                "operator:type": "government",
                "healthcare": "counselling",
                "counselling_type": "education",
                "fixme": "w zale\u017cno\u015bci od przedmiotu dzia\u0142alno\u015bci (np. healthcare=counselling + counselling_type=education albo healthcare=psychotherapist)"
            }
        },
        {
            "id": 13685,
            "type": "Feature",
            "geometry": {
                "type": "Point",
                "coordinates": [
                    19.23862,
                    50.22435
                ]
            },
            "properties": {
                "isced:level": "1;2",
                "ref:rspo": 13685,
                "official_name": "Szko\u0142a Podstawowa Nr 5 im. Komisji Edukacji Narodowej w Jaworznie",
                "name": "Szko\u0142a Podstawowa Nr 5",
                "addr:postcode": "43-603",
                "addr:city": "Jaworzno",
                "addr:street": "Aleksandra Puszkina",
                "addr:housenumber": "5",
                "addr:city:simc": 940335,
                "addr:street:sym_ul": 18209,
                "phone": "+48 327629359",
                "email": "sekretariat@sp5.jaworzno.edu.pl",
                "website": "http:\/\/www.sp5-jaworzno.edupage.org",
                "ref:regon": "000729209",
                "ref:vatin": "PL6321925064",
                "operator": "Gmina Miasta Jaworzna",
                "operator:type": "government",
                "amenity": "school"
            }
        },
        {
            "id": 41230,
            "type": "Feature",
            "geometry": {
                "type": "Point",
                "coordinates": [
                    19.23862,
                    50.22432
                ]
            },
            "properties": {
                "ref:rspo": 41230,
                "official_name": "Przedszkole Miejskie Nr 7 w Jaworznie",
                "name": "Przedszkole Miejskie Nr 7 w Jaworznie",
                "addr:postcode": "43-603",
                "addr:city": "Jaworzno",
                "addr:street": "Aleksandra Puszkina",
                "addr:housenumber": "5",
                "addr:city:simc": 940335,
                "addr:street:sym_ul": 18209,
                "phone": "+48 327629256",
                "email": "pm7jaw@interia.pl",
                "website": "http:\/\/www.przedszkole7.jaworzno.edu.pl",
                "ref:regon": "272001193",
                "ref:vatin": "PL6321925070",
                "operator": "Gmina Miasta Jaworzna",
                "operator:type": "government",
                "amenity": "kindergarten"
            }
        },
        {
            "id": 89414,
            "type": "Feature",
            "geometry": {
                "type": "Point",
                "coordinates": [
                    19.23592,
                    50.22474
                ]
            },
            "properties": {
                "ref:rspo": 89414,
                "official_name": "Niepubliczne Przedszkole \"Weso\u0142e Przedszkolaki\" Z Oddzia\u0142ami Specjalnymi",
                "name": "Niepubliczne Przedszkole \"Weso\u0142e Przedszkolaki\" Z Oddzia\u0142ami Specjalnymi",
                "addr:postcode": "43-603",
                "addr:city": "Jaworzno",
                "addr:street": "Inwalid\u00f3w Wojennych",
                "addr:housenumber": "4",
                "addr:city:simc": 940335,
                "addr:street:sym_ul": 6921,
                "phone": "+48 327526162",
                "email": "wesoleprzedszkolaki.jaworzno@gmail.com",
                "website": "http:\/\/www.wesoleprzedszkolaki.jaworzno.pl",
                "ref:regon": "243109250",
                "ref:vatin": "PL6322008571",
                "operator": "\"Weso\u0142e Przedszkolaki\" Sp\u00f3\u0142ka Z Ograniczon\u0105 Odpowiedzialno\u015bci\u0105",
                "operator:type": "private",
                "amenity": "kindergarten"
            }
        },
        {
            "id": 130322,
            "type": "Feature",
            "geometry": {
                "type": "Point",
                "coordinates": [
                    19.23592,
                    50.224709999999995
                ]
            },
            "properties": {
                "isced:level": "4",
                "ref:rspo": 130322,
                "official_name": "Akademia Realizacji D\u017awi\u0119ku w Jaworznie Szko\u0142a Policealna",
                "name": "Akademia Realizacji D\u017awi\u0119ku w Jaworznie Szko\u0142a Policealna",
                "addr:postcode": "43-603",
                "addr:city": "Jaworzno",
                "addr:street": "Inwalid\u00f3w Wojennych",
                "addr:housenumber": "4",
                "addr:city:simc": 940335,
                "addr:street:sym_ul": 6921,
                "phone": "+48 537766777",
                "email": "dorota.smolik@ard.edu.pl",
                "website": "http:\/\/www.ard.edu.pl",
                "ref:regon": "363842315",
                "operator": "Krzysztof Maszota",
                "operator:type": "private",
                "amenity": "college"
            }
        },
        {
            "id": 42481,
            "type": "Feature",
            "geometry": {
                "type": "Point",
                "coordinates": [
                    19.23717,
                    50.22479
                ]
            },
            "properties": {
                "ref:rspo": 42481,
                "official_name": "M\u0142odzie\u017cowy Dom Kultury im. Jaworzniak\u00f3w w Jaworznie",
                "name": "M\u0142odzie\u017cowy Dom Kultury",
                "addr:postcode": "43-600",
                "addr:city": "Jaworzno",
                "addr:street": "Inwalid\u00f3w Wojennych",
                "addr:housenumber": "2",
                "addr:city:simc": 940335,
                "addr:street:sym_ul": 6921,
                "phone": "+48 327629220",
                "email": "mdkjaworzno@onet.pl",
                "website": "http:\/\/www.mdk.jaw.pl",
                "ref:regon": "271590891",
                "ref:vatin": "PL6321901141",
                "operator": "Gmina Miasta Jaworzna",
                "operator:type": "government",
                "amenity": "community_centre",
                "community_centre:for": "juvenile"
            }
        },
        {
            "id": 42041,
            "type": "Feature",
            "geometry": {
                "type": "Point",
                "coordinates": [
                    19.23655,
                    50.22502
                ]
            },
            "properties": {
                "ref:rspo": 42041,
                "official_name": "Pa\u0144stwowa Szko\u0142a Muzyczna I St. im. Gra\u017cyny Bacewicz w Jaworznie",
                "name": "Pa\u0144stwowa Szko\u0142a Muzyczna I St.",
                "addr:postcode": "43-600",
                "addr:city": "Jaworzno",
                "addr:street": "Inwalid\u00f3w Wojennych",
                "addr:housenumber": "2a",
                "addr:city:simc": 940335,
                "addr:street:sym_ul": 6921,
                "phone": "+48 327629319",
                "email": "sekretariat@psm.jaworzno.edu.pl",
                "website": "http:\/\/www.psmjaworzno.edu.pl",
                "ref:regon": "000276972",
                "ref:vatin": "PL6321901193",
                "operator": "Gmina Miasta Jaworzna",
                "operator:type": "government",
                "amenity": "music_school"
            }
        },
        {
            "id": 70531,
            "type": "Feature",
            "geometry": {
                "type": "Point",
                "coordinates": [
                    19.23603,
                    50.22531
                ]
            },
            "properties": {
                "ref:rspo": 70531,
                "official_name": "Zesp\u00f3\u0142 Niepublicznych Szk\u00f3\u0142 dla Doros\u0142ych",
                "name": "Zesp\u00f3\u0142 Niepublicznych Szk\u00f3\u0142 dla Doros\u0142ych",
                "addr:postcode": "43-600",
                "addr:city": "Jaworzno",
                "addr:street": "Grunwaldzka",
                "addr:housenumber": "285",
                "addr:city:simc": 940335,
                "addr:street:sym_ul": 6260,
                "phone": "+48 327526492",
                "email": "zs@szkolenialider.pl",
                "website": "http:\/\/www.szkolenialider.pl",
                "ref:regon": "243088883",
                "ref:vatin": "PL6321873775",
                "operator": "Centrum Kszta\u0142cenia I Promocji Kadr Lider Sp\u00f3\u0142ka Z Ograniczon\u0105 Odpowiedzialno\u015bci\u0105",
                "operator:type": "private",
                "landuse": "education",
                "fixme": "amenity=school, amenity=college albo landuse=education w zale\u017cno\u015bci od tego, jakie plac\u00f3wki wchodz\u0105 w sk\u0142ad zespo\u0142u. Sprawd\u017a, kiedy stosowa\u0107 amenity=* a kiedy landuse=education."
            }
        },
        {
            "id": 42929,
            "type": "Feature",
            "geometry": {
                "type": "Point",
                "coordinates": [
                    19.19817,
                    50.22586
                ]
            },
            "properties": {
                "ref:rspo": 42929,
                "official_name": "Przedszkole Miejskie Nr 24 Z Oddzia\u0142ami Integracyjnymi I Specjalnymi w Jaworznie",
                "name": "Przedszkole Miejskie Nr 24 Z Oddzia\u0142ami Integracyjnymi I Specjalnymi w Jaworznie",
                "addr:postcode": "43-603",
                "addr:city": "Jaworzno",
                "addr:street": "Czwartak\u00f3w",
                "addr:housenumber": "1",
                "addr:city:simc": 940335,
                "addr:street:sym_ul": 3496,
                "phone": "+48 327629248",
                "email": "przedszkole24@jaworzno.edu.pl",
                "website": "http:\/\/www.przedszkole24.jaworzno.edu.pl",
                "ref:regon": "272001336",
                "ref:vatin": "PL6321925182",
                "operator": "Gmina Miasta Jaworzna",
                "operator:type": "government",
                "amenity": "kindergarten"
            }
        },
        {
            "id": 89261,
            "type": "Feature",
            "geometry": {
                "type": "Point",
                "coordinates": [
                    19.23903,
                    50.22702
                ]
            },
            "properties": {
                "isced:level": "3",
                "ref:rspo": 89261,
                "official_name": "Ii Liceum Og\u00f3lnokszta\u0142c\u0105ce im. Czes\u0142awa Mi\u0142osza w Jaworznie",
                "name": "Ii Liceum Og\u00f3lnokszta\u0142c\u0105ce",
                "addr:postcode": "43-603",
                "addr:city": "Jaworzno",
                "addr:street": "Marii Curie-Sk\u0142odowskiej",
                "addr:housenumber": "6",
                "addr:city:simc": 940335,
                "addr:street:sym_ul": 3148,
                "phone": "+48 327629368",
                "email": "lo2@jaworzno.edu.pl",
                "website": "http:\/\/www.lo2.jaworzno.edu.pl",
                "ref:regon": "001282779",
                "ref:vatin": "PL6321901106",
                "operator": "Gmina Miasta Jaworzna",
                "operator:type": "government",
                "amenity": "school"
            }
        },
        {
            "id": 132750,
            "type": "Feature",
            "geometry": {
                "type": "Point",
                "coordinates": [
                    19.21115,
                    50.22765
                ]
            },
            "properties": {
                "ref:rspo": 132750,
                "official_name": "Fabryka Talent\u00f3w",
                "name": "Fabryka Talent\u00f3w",
                "addr:postcode": "43-600",
                "addr:city": "Jaworzno",
                "addr:street": "Katowicka",
                "addr:housenumber": "31b",
                "addr:city:simc": 940335,
                "addr:street:sym_ul": 8206,
                "phone": "+48 507020055",
                "email": "biuro@fabrykatalentow.com",
                "ref:regon": "366183706",
                "operator": "Fabryka Talent\u00f3w Sp\u00f3\u0142ka Z Ograniczon\u0105 Odpowiedzialno\u015bci\u0105",
                "operator:type": "private",
                "fixme": "w zale\u017cno\u015bci od przedmiotu dzia\u0142alno\u015bci (np. amenity=training + training=*, amenity=dancing_school, amenity=language_school, amenity=music_school)"
            }
        },
        {
            "id": 262708,
            "type": "Feature",
            "geometry": {
                "type": "Point",
                "coordinates": [
                    19.22982,
                    50.22792
                ]
            },
            "properties": {
                "isced:level": "1;2",
                "ref:rspo": 262708,
                "official_name": "Szko\u0142a Podstawowa Nr 17 im. Polskich Noblist\u00f3w w Jaworznie",
                "name": "Szko\u0142a Podstawowa Nr 17",
                "addr:postcode": "43-600",
                "addr:city": "Jaworzno",
                "addr:street": "Starowiejska",
                "addr:housenumber": "15",
                "addr:city:simc": 940335,
                "addr:street:sym_ul": 20998,
                "phone": "+48 327629218",
                "email": "sekretariat@sp17.jaworzno.edu.pl",
                "website": "http:\/\/www.sp17.jaworzno.edu.pl",
                "ref:regon": "368052836",
                "ref:vatin": "PL6322018055",
                "operator": "Gmina Miasta Jaworzna",
                "operator:type": "government",
                "amenity": "school"
            }
        },
        {
            "id": 70361,
            "type": "Feature",
            "geometry": {
                "type": "Point",
                "coordinates": [
                    19.21047,
                    50.22796
                ]
            },
            "properties": {
                "ref:rspo": 70361,
                "official_name": "Niepubliczne Przedszkole \"Mali Artysci\"",
                "name": "Niepubliczne Przedszkole \"Mali Artysci\"",
                "addr:postcode": "43-600",
                "addr:city": "Jaworzno",
                "addr:street": "Katowicka",
                "addr:housenumber": "31d",
                "addr:city:simc": 940335,
                "addr:street:sym_ul": 8206,
                "phone": "+48 326155374",
                "email": "maliartysci.info@wp.pl",
                "ref:regon": "243083390",
                "ref:vatin": "PL6442055082",
                "operator": "Dane Do Uzupe\u0142nienia",
                "operator:type": "private",
                "amenity": "kindergarten"
            }
        },
        {
            "id": 85493,
            "type": "Feature",
            "geometry": {
                "type": "Point",
                "coordinates": [
                    19.25906,
                    50.22811
                ]
            },
            "properties": {
                "isced:level": "1;2",
                "ref:rspo": 85493,
                "official_name": "Szko\u0142a Podstawowa Nr 3 Z Oddzia\u0142ami Integracyjnymi im. Jana Kochanowskiego w Jaworznie",
                "name": "Szko\u0142a Podstawowa Nr 3 Z Oddzia\u0142ami Integracyjnymi",
                "addr:postcode": "42-600",
                "addr:city": "Jaworzno",
                "addr:street": "Marcina Kasprzaka",
                "addr:housenumber": "6",
                "addr:city:simc": 940335,
                "addr:street:sym_ul": 8157,
                "phone": "+48 327629270",
                "email": "sekretariat@sp3.jaworzno.edu.pl",
                "website": "http:\/\/www.sp3.jaworzno.edu.pl",
                "ref:regon": "000729184",
                "ref:vatin": "PL6321901187",
                "operator": "Gmina Miasta Jaworzna",
                "operator:type": "government",
                "amenity": "school"
            }
        },
        {
            "id": 55126,
            "type": "Feature",
            "geometry": {
                "type": "Point",
                "coordinates": [
                    19.23186,
                    50.22846
                ]
            },
            "properties": {
                "ref:rspo": 55126,
                "official_name": "Zesp\u00f3\u0142 Szk\u00f3\u0142 Ponadpodstawowych Nr 4 im. Kr\u00f3lowej Jadwigi w Jaworznie",
                "name": "Zesp\u00f3\u0142 Szk\u00f3\u0142 Ponadpodstawowych Nr 4",
                "addr:postcode": "43-603",
                "addr:city": "Jaworzno",
                "addr:street": "Armii Krajowej",
                "addr:housenumber": "5",
                "addr:city:simc": 940335,
                "addr:street:sym_ul": 432,
                "phone": "+48 327629389",
                "email": "sekretariat@zsp4.jaworzno.edu.pl",
                "website": "http:\/\/www.zsp4.jaworzno.edu.pl",
                "ref:regon": "000181616",
                "ref:vatin": "PL6321894151",
                "operator": "Gmina Miasta Jaworzna",
                "operator:type": "government",
                "landuse": "education",
                "fixme": "amenity=school, amenity=college albo landuse=education w zale\u017cno\u015bci od tego, jakie plac\u00f3wki wchodz\u0105 w sk\u0142ad zespo\u0142u. Sprawd\u017a, kiedy stosowa\u0107 amenity=* a kiedy landuse=education.",
                "note": "Children RSPO: 111715;111732;111739"
            }
        },
        {
            "id": 111715,
            "type": "Feature",
            "geometry": {
                "type": "Point",
                "coordinates": [
                    19.23186,
                    50.228429999999996
                ]
            },
            "properties": {
                "isced:level": "3",
                "ref:rspo": 111715,
                "official_name": "Technikum Nr 4 w Jaworznie",
                "name": "Technikum Nr 4 w Jaworznie",
                "addr:postcode": "43-603",
                "addr:city": "Jaworzno",
                "addr:street": "Armii Krajowej",
                "addr:housenumber": "5",
                "addr:city:simc": 940335,
                "addr:street:sym_ul": 432,
                "phone": "+48 327629389",
                "email": "sekretariat@zsp4.jaworzno.edu.pl",
                "website": "http:\/\/www.zsp4.jaworzno.edu.pl",
                "ref:regon": "273701478",
                "ref:vatin": "PL6321894151",
                "operator": "Gmina Miasta Jaworzna",
                "operator:type": "government",
                "amenity": "school",
                "note": "Parent RSPO: 55126"
            }
        },
        {
            "id": 111732,
            "type": "Feature",
            "geometry": {
                "type": "Point",
                "coordinates": [
                    19.23186,
                    50.2284
                ]
            },
            "properties": {
                "isced:level": "3",
                "ref:rspo": 111732,
                "official_name": "Bran\u017cowa Szko\u0142a I St. Nr 4 w Jaworznie",
                "name": "Bran\u017cowa Szko\u0142a I St. Nr 4 w Jaworznie",
                "addr:postcode": "43-603",
                "addr:city": "Jaworzno",
                "addr:street": "Armii Krajowej",
                "addr:housenumber": "5",
                "addr:city:simc": 940335,
                "addr:street:sym_ul": 432,
                "phone": "+48 327629389",
                "email": "sekretariat@zsp4.jaworzno.edu.pl",
                "website": "http:\/\/www.zsp4.jaworzno.edu.pl",
                "ref:regon": "272167597",
                "ref:vatin": "PL6321894151",
                "operator": "Gmina Miasta Jaworzna",
                "operator:type": "government",
                "amenity": "school",
                "note": "Parent RSPO: 55126"
            }
        },
        {
            "id": 111739,
            "type": "Feature",
            "geometry": {
                "type": "Point",
                "coordinates": [
                    19.23186,
                    50.22837
                ]
            },
            "properties": {
                "isced:level": "4",
                "ref:rspo": 111739,
                "official_name": "Szko\u0142a Policealna Nr 5 w Jaworznie",
                "name": "Szko\u0142a Policealna Nr 5 w Jaworznie",
                "addr:postcode": "43-603",
                "addr:city": "Jaworzno",
                "addr:street": "Armii Krajowej",
                "addr:housenumber": "5",
                "addr:city:simc": 940335,
                "addr:street:sym_ul": 432,
                "phone": "+48 327629389",
                "email": "sekretariat@zsp4.jaworzno.edu.pl",
                "website": "http:\/\/www.zsp4.jaworzno.edu.pl",
                "ref:regon": "240122846",
                "ref:vatin": "PL6321894151",
                "operator": "Gmina Miasta Jaworzna",
                "operator:type": "government",
                "amenity": "college",
                "note": "Parent RSPO: 55126"
            }
        },
        {
            "id": 80441,
            "type": "Feature",
            "geometry": {
                "type": "Point",
                "coordinates": [
                    19.21431,
                    50.23028
                ]
            },
            "properties": {
                "isced:level": "1;2",
                "ref:rspo": 80441,
                "official_name": "Szko\u0142a Podstawowa Nr 8 im. Janusza Korczaka w Jaworznie",
                "name": "Szko\u0142a Podstawowa Nr 8",
                "addr:postcode": "43-603",
                "addr:city": "Jaworzno",
                "addr:street": "Sp\u00f3\u0142dzielcza",
                "addr:housenumber": "9",
                "addr:city:simc": 940335,
                "addr:street:sym_ul": 20696,
                "phone": "+48 327629363",
                "email": "sp8@jaworzno.edu.pl",
                "website": "http:\/\/sp8.jaworzno.edu.pl",
                "ref:regon": "000729238",
                "ref:vatin": "PL6321925242",
                "operator": "Gmina Miasta Jaworzna",
                "operator:type": "government",
                "amenity": "school"
            }
        },
        {
            "id": 262684,
            "type": "Feature",
            "geometry": {
                "type": "Point",
                "coordinates": [
                    19.3165,
                    50.23372
                ]
            },
            "properties": {
                "isced:level": "1;2",
                "ref:rspo": 262684,
                "official_name": "Szko\u0142a Podstawowa Nr 11 w Jaworznie",
                "name": "Szko\u0142a Podstawowa Nr 11 w Jaworznie",
                "addr:postcode": "43-602",
                "addr:city": "Jaworzno",
                "addr:street": "Jana III Sobieskiego",
                "addr:housenumber": "61",
                "addr:city:simc": 940335,
                "addr:street:sym_ul": 20431,
                "phone": "+48 327629234",
                "email": "sp11@jaworzno.edu.pl",
                "website": "http:\/\/sp11.jaworzno.edu.pl\/",
                "ref:regon": "368051216",
                "ref:vatin": "PL6322018078",
                "operator": "Gmina Miasta Jaworzna",
                "operator:type": "government",
                "amenity": "school"
            }
        },
        {
            "id": 42863,
            "type": "Feature",
            "geometry": {
                "type": "Point",
                "coordinates": [
                    19.29488,
                    50.23822
                ]
            },
            "properties": {
                "ref:rspo": 42863,
                "official_name": "Specjalny O\u015brodek Szkolno-Wychowawczy im.jana Paw\u0142a II w Jaworznie",
                "name": "Specjalny O\u015brodek Szkolno-Wychowawczy im.jana Paw\u0142a II w Jaworznie",
                "addr:postcode": "43-602",
                "addr:city": "Jaworzno",
                "addr:street": "Wolno\u015bci",
                "addr:housenumber": "11",
                "addr:city:simc": 940335,
                "addr:street:sym_ul": 24687,
                "phone": "+48 327629145",
                "email": "sekretariat@sosw.jaworzno.edu.pl",
                "website": "http:\/\/sosw.jaworzno.edu.pl",
                "ref:regon": "000196842",
                "ref:vatin": "PL6321280118",
                "operator": "Gmina Miasta Jaworzna",
                "operator:type": "government",
                "amenity": "school",
                "note": "Children RSPO: 81637;81747;81793"
            }
        },
        {
            "id": 81637,
            "type": "Feature",
            "geometry": {
                "type": "Point",
                "coordinates": [
                    19.29488,
                    50.238189999999996
                ]
            },
            "properties": {
                "isced:level": "1;2",
                "ref:rspo": 81637,
                "official_name": "Szko\u0142a Podstawowa Nr 23 w Jaworznie",
                "name": "Szko\u0142a Podstawowa Nr 23 w Jaworznie",
                "addr:postcode": "43-602",
                "addr:city": "Jaworzno",
                "addr:street": "Wolno\u015bci",
                "addr:housenumber": "11",
                "addr:city:simc": 940335,
                "addr:street:sym_ul": 24687,
                "phone": "+48 327629145",
                "email": "sekretariat@sosw.jaworzno.edu.pl",
                "website": "http:\/\/sosw.jaworzno.edu.pl",
                "ref:regon": "000729043",
                "ref:vatin": "PL6321280118",
                "operator": "Gmina Miasta Jaworzna",
                "operator:type": "government",
                "amenity": "school",
                "note": "Parent RSPO: 42863"
            }
        },
        {
            "id": 81747,
            "type": "Feature",
            "geometry": {
                "type": "Point",
                "coordinates": [
                    19.29488,
                    50.23816
                ]
            },
            "properties": {
                "isced:level": "3",
                "ref:rspo": 81747,
                "official_name": "Bran\u017cowa Szko\u0142a I St. Nr 7 w Jaworznie",
                "name": "Bran\u017cowa Szko\u0142a I St. Nr 7 w Jaworznie",
                "addr:postcode": "43-602",
                "addr:city": "Jaworzno",
                "addr:street": "Wolno\u015bci",
                "addr:housenumber": "11",
                "addr:city:simc": 940335,
                "addr:street:sym_ul": 24687,
                "phone": "+48 327629145",
                "email": "sekretariat@sosw.jaworzno.edu.pl",
                "website": "http:\/\/sosw.jaworzno.edu.pl",
                "ref:regon": "277903322",
                "ref:vatin": "PL6321280118",
                "operator": "Gmina Miasta Jaworzna",
                "operator:type": "government",
                "amenity": "school",
                "note": "Parent RSPO: 42863"
            }
        },
        {
            "id": 81793,
            "type": "Feature",
            "geometry": {
                "type": "Point",
                "coordinates": [
                    19.29488,
                    50.23813
                ]
            },
            "properties": {
                "ref:rspo": 81793,
                "official_name": "Szko\u0142a Przysposabiaj\u0105ca Do Pracy w Jaworznie",
                "name": "Szko\u0142a Przysposabiaj\u0105ca Do Pracy w Jaworznie",
                "addr:postcode": "43-602",
                "addr:city": "Jaworzno",
                "addr:street": "Wolno\u015bci",
                "addr:housenumber": "11",
                "addr:city:simc": 940335,
                "addr:street:sym_ul": 24687,
                "phone": "+48 327629145",
                "email": "sekretariat@sosw.jaworzno.edu.pl",
                "website": "http:\/\/sosw.jaworzno.edu.pl",
                "ref:regon": "240160812",
                "ref:vatin": "PL6321280118",
                "operator": "Gmina Miasta Jaworzna",
                "operator:type": "government",
                "amenity": "school",
                "note": "Parent RSPO: 42863"
            }
        },
        {
            "id": 55082,
            "type": "Feature",
            "geometry": {
                "type": "Point",
                "coordinates": [
                    19.27456,
                    50.2430499
                ]
            },
            "properties": {
                "isced:level": "1;2",
                "ref:rspo": 55082,
                "official_name": "Szko\u0142a Podstawowa Nr 9 im.henryka Sienkiewicza w Jaworznie",
                "name": "Szko\u0142a Podstawowa Nr 9 im.henryka Sienkiewicza w Jaworznie",
                "addr:postcode": "43-602",
                "addr:city": "Jaworzno",
                "addr:street": "Stefana Batorego",
                "addr:housenumber": "48",
                "addr:city:simc": 940335,
                "addr:street:sym_ul": 891,
                "phone": "+48 327629277",
                "email": "sp9@jaworzno.edu.pl",
                "website": "http:\/\/www.sp9.jaworzno.edu.pl",
                "ref:regon": "000729244",
                "ref:vatin": "PL6321925354",
                "operator": "Gmina Miasta Jaworzna",
                "operator:type": "government",
                "amenity": "school"
            }
        },
        {
            "id": 42191,
            "type": "Feature",
            "geometry": {
                "type": "Point",
                "coordinates": [
                    19.28934,
                    50.24306
                ]
            },
            "properties": {
                "ref:rspo": 42191,
                "official_name": "Zesp\u00f3\u0142 Szkolno-Przedszkolny Nr 3 w Jaworznie",
                "name": "Zesp\u00f3\u0142 Szkolno-Przedszkolny Nr 3 w Jaworznie",
                "addr:postcode": "43-602",
                "addr:city": "Jaworzno",
                "addr:street": "Koszarowa",
                "addr:housenumber": "20",
                "addr:city:simc": 940335,
                "addr:street:sym_ul": 9512,
                "phone": "+48 327629351",
                "email": "sekretariat@zs3.jaworzno.edu.pl",
                "website": "http:\/\/zs3.jaworzno.edu.pl",
                "ref:regon": "278282313",
                "ref:vatin": "PL6321925236",
                "operator": "Gmina Miasta Jaworzna",
                "operator:type": "government",
                "landuse": "education",
                "fixme": "amenity=school, amenity=college albo landuse=education w zale\u017cno\u015bci od tego, jakie plac\u00f3wki wchodz\u0105 w sk\u0142ad zespo\u0142u. Sprawd\u017a, kiedy stosowa\u0107 amenity=* a kiedy landuse=education.",
                "note": "Children RSPO: 79004;80449"
            }
        },
        {
            "id": 79004,
            "type": "Feature",
            "geometry": {
                "type": "Point",
                "coordinates": [
                    19.28934,
                    50.24303
                ]
            },
            "properties": {
                "isced:level": "1;2",
                "ref:rspo": 79004,
                "official_name": "Szko\u0142a Podstawowa Nr 10 im. Wojska Polskiego w Jaworznie",
                "name": "Szko\u0142a Podstawowa Nr 10",
                "addr:postcode": "43-602",
                "addr:city": "Jaworzno",
                "addr:street": "Koszarowa",
                "addr:housenumber": "20",
                "addr:city:simc": 940335,
                "addr:street:sym_ul": 9512,
                "phone": "+48 327629351",
                "email": "sekretariat@zs3.jaworzno.edu.pl",
                "website": "http:\/\/www.zs3.jaworzno.edu.pl",
                "ref:regon": "000729250",
                "ref:vatin": "PL6321925236",
                "operator": "Gmina Miasta Jaworzna",
                "operator:type": "government",
                "amenity": "school",
                "note": "Parent RSPO: 42191"
            }
        },
        {
            "id": 80449,
            "type": "Feature",
            "geometry": {
                "type": "Point",
                "coordinates": [
                    19.28934,
                    50.243
                ]
            },
            "properties": {
                "ref:rspo": 80449,
                "official_name": "Przedszkole Miejskie Nr 3 w Jaworznie",
                "name": "Przedszkole Miejskie Nr 3 w Jaworznie",
                "addr:postcode": "43-602",
                "addr:city": "Jaworzno",
                "addr:street": "Koszarowa",
                "addr:housenumber": "20",
                "addr:city:simc": 940335,
                "addr:street:sym_ul": 9512,
                "phone": "+48 327629357",
                "email": "przedszkole@zs3.jaworzno.edu.pl",
                "website": "http:\/\/www.zs3.jaworzno.edu.pl",
                "ref:regon": "272001158",
                "ref:vatin": "PL6321925236",
                "operator": "Gmina Miasta Jaworzna",
                "operator:type": "government",
                "amenity": "kindergarten",
                "note": "Parent RSPO: 42191"
            }
        },
        {
            "id": 74291,
            "type": "Feature",
            "geometry": {
                "type": "Point",
                "coordinates": [
                    19.29131,
                    50.24405
                ]
            },
            "properties": {
                "ref:rspo": 74291,
                "official_name": "Przedszkole Miejskie Nr 17 w Jaworznie",
                "name": "Przedszkole Miejskie Nr 17 w Jaworznie",
                "addr:postcode": "43-602",
                "addr:city": "Jaworzno",
                "addr:street": "Tadeusza Ko\u015bciuszki",
                "addr:housenumber": "2a",
                "addr:city:simc": 940335,
                "addr:street:sym_ul": 9582,
                "phone": "+48 327629240",
                "email": "przedszkole17@jaworzno.edu.pl",
                "website": "http:\/\/www.przedszkole17jaworzno.edupage.org",
                "ref:regon": "272001260",
                "ref:vatin": "PL6321925093",
                "operator": "Gmina Miasta Jaworzna",
                "operator:type": "government",
                "amenity": "kindergarten"
            }
        },
        {
            "id": 74320,
            "type": "Feature",
            "geometry": {
                "type": "Point",
                "coordinates": [
                    19.296,
                    50.24504
                ]
            },
            "properties": {
                "ref:rspo": 74320,
                "official_name": "Przedszkole Miejskie Nr 2 w Jaworznie",
                "name": "Przedszkole Miejskie Nr 2 w Jaworznie",
                "addr:postcode": "43-603",
                "addr:city": "Jaworzno",
                "addr:street": "Genera\u0142a Feliksa Kami\u0144skiego",
                "addr:housenumber": "12",
                "addr:city:simc": 940335,
                "addr:street:sym_ul": 52243,
                "phone": "+48 327629246",
                "email": "przedszkole2@jaworzno.edu.pl",
                "website": "http:\/\/www.przedszkole2.jaworzno.edu.pl",
                "ref:regon": "272001141",
                "ref:vatin": "PL6321925265",
                "operator": "Gmina Miasta Jaworzna",
                "operator:type": "government",
                "amenity": "kindergarten"
            }
        },
        {
            "id": 7557,
            "type": "Feature",
            "geometry": {
                "type": "Point",
                "coordinates": [
                    19.25513,
                    50.24514
                ]
            },
            "properties": {
                "ref:rspo": 7557,
                "official_name": "Zesp\u00f3\u0142 Szkolno-Przedszkolny Nr 2 w Jaworznie",
                "name": "Zesp\u00f3\u0142 Szkolno-Przedszkolny Nr 2 w Jaworznie",
                "addr:postcode": "43-602",
                "addr:city": "Jaworzno",
                "addr:street": "Chropacz\u00f3wka",
                "addr:housenumber": "101",
                "addr:city:simc": 940335,
                "addr:street:sym_ul": 2891,
                "phone": "+48 327629281",
                "email": "sekretariat@zszp2.jaworzno.edu.pl",
                "website": "http:\/\/zszp2.jaworzno.edu.pl",
                "ref:regon": "243025842",
                "operator": "Gmina Miasta Jaworzna",
                "operator:type": "government",
                "landuse": "education",
                "fixme": "amenity=school, amenity=college albo landuse=education w zale\u017cno\u015bci od tego, jakie plac\u00f3wki wchodz\u0105 w sk\u0142ad zespo\u0142u. Sprawd\u017a, kiedy stosowa\u0107 amenity=* a kiedy landuse=education.",
                "note": "Children RSPO: 42193;262689"
            }
        },
        {
            "id": 42193,
            "type": "Feature",
            "geometry": {
                "type": "Point",
                "coordinates": [
                    19.25513,
                    50.24511
                ]
            },
            "properties": {
                "ref:rspo": 42193,
                "official_name": "Przedszkole Miejskie Nr 6 w Jaworznie",
                "name": "Przedszkole Miejskie Nr 6 w Jaworznie",
                "addr:postcode": "43-602",
                "addr:city": "Jaworzno",
                "addr:street": "Chropacz\u00f3wka",
                "addr:housenumber": "101",
                "addr:city:simc": 940335,
                "addr:street:sym_ul": 2891,
                "phone": "+48 327629285",
                "email": "pm6jaw@interia.pl",
                "website": "http:\/\/pm6.jaworzno.edu.pl",
                "ref:regon": "272001187",
                "ref:vatin": "PL6322008536",
                "operator": "Gmina Miasta Jaworzna",
                "operator:type": "government",
                "amenity": "kindergarten",
                "note": "Parent RSPO: 7557"
            }
        },
        {
            "id": 262689,
            "type": "Feature",
            "geometry": {
                "type": "Point",
                "coordinates": [
                    19.25513,
                    50.24508
                ]
            },
            "properties": {
                "isced:level": "1;2",
                "ref:rspo": 262689,
                "official_name": "Szko\u0142a Podstawowa Nr 12 w Jaworznie",
                "name": "Szko\u0142a Podstawowa Nr 12 w Jaworznie",
                "addr:postcode": "43-600",
                "addr:city": "Jaworzno",
                "addr:street": "Chropacz\u00f3wka",
                "addr:housenumber": "101",
                "addr:city:simc": 940335,
                "addr:street:sym_ul": 2891,
                "phone": "+48 327629281",
                "email": "sekretariat@zszp2.jaworzno.edu.pl",
                "website": "http:\/\/sp12.jaworzno.edu.pl\/",
                "ref:regon": "368051251",
                "ref:vatin": "PL6322008536",
                "operator": "Gmina Miasta Jaworzna",
                "operator:type": "government",
                "amenity": "school",
                "note": "Parent RSPO: 7557"
            }
        }
    ]
}