{
    "type": "FeatureCollection",
    "features": [
        {
            "id": 24139,
            "type": "Feature",
            "geometry": {
                "type": "Point",
                "coordinates": [
                    18.6031,
                    49.91911
                ]
            },
            "properties": {
                "ref:rspo": 24139,
                "official_name": "Publiczne Przedszkole nr 12 z Oddzia\u0142em Integracyjnym",
                "name": "Publiczne Przedszkole nr 12 z Oddzia\u0142em Integracyjnym",
                "addr:postcode": "44-335",
                "addr:city": "Jastrz\u0119bie-Zdr\u00f3j",
                "addr:street": "Cieszy\u0144ska",
                "addr:housenumber": "148",
                "addr:city:simc": 940163,
                "addr:street:sym_ul": 3061,
                "phone": "+48 324752315",
                "email": "poczta@pp12.jastrzebie.pl",
                "website": "http:\/\/www.pp12.jastrzebie.pl",
                "ref:regon": "272000986",
                "ref:vatin": "PL6332027676",
                "operator": "Jastrz\u0119bie-Zdr\u00f3j - Miasto Na Prawach Powiatu",
                "operator:type": "government",
                "amenity": "kindergarten"
            }
        },
        {
            "id": 63420,
            "type": "Feature",
            "geometry": {
                "type": "Point",
                "coordinates": [
                    18.60245,
                    49.9217
                ]
            },
            "properties": {
                "isced:level": "1;2",
                "ref:rspo": 63420,
                "official_name": "Szko\u0142a Podstawowa nr 17 im. Jana Brzechwy",
                "name": "Szko\u0142a Podstawowa nr 17",
                "addr:postcode": "44-337",
                "addr:city": "Jastrz\u0119bie-Zdr\u00f3j",
                "addr:street": "Ksi\u0119dza Emanuela P\u0142onki",
                "addr:housenumber": "23",
                "addr:city:simc": 940163,
                "addr:street:sym_ul": 31402,
                "phone": "+48 324717268",
                "email": "poczta@sp17.jastrzebie.pl",
                "website": "http:\/\/www.sp17jastrzebie.pl",
                "ref:regon": "000728724",
                "ref:vatin": "PL6332027943",
                "operator": "Jastrz\u0119bie-Zdr\u00f3j - Miasto Na Prawach Powiatu",
                "operator:type": "government",
                "amenity": "school"
            }
        },
        {
            "id": 269970,
            "type": "Feature",
            "geometry": {
                "type": "Point",
                "coordinates": [
                    18.5539665,
                    49.9261668
                ]
            },
            "properties": {
                "ref:rspo": 269970,
                "official_name": "Akademia Talent\u00f3w Bursa Niepubliczna Plac\u00f3wka Opieku\u0144czo-Wychowawcza",
                "name": "Akademia Talent\u00f3w Bursa Niepubliczna Plac\u00f3wka Opieku\u0144czo-Wychowawcza",
                "addr:postcode": "44-268",
                "addr:city": "Jastrz\u0119bie-Zdr\u00f3j",
                "addr:street": "Miko\u0142aja Reja",
                "addr:housenumber": "10",
                "addr:city:simc": 940163,
                "addr:street:sym_ul": 18565,
                "email": "bursa@jastrzebskiwegiel.pl",
                "ref:regon": "381911396",
                "operator": "Klub Sportowy Jastrz\u0119bie-Borynia",
                "operator:type": "ngo",
                "building": "dormitory"
            }
        },
        {
            "id": 126531,
            "type": "Feature",
            "geometry": {
                "type": "Point",
                "coordinates": [
                    18.60125,
                    49.9273499
                ]
            },
            "properties": {
                "ref:rspo": 126531,
                "official_name": "Niepubliczne Przedszkole \"Mali Pasjonaci\" z Oddzia\u0142em Integracyjnym",
                "name": "Niepubliczne Przedszkole \"Mali Pasjonaci\" z Oddzia\u0142em Integracyjnym",
                "addr:postcode": "44-337",
                "addr:city": "Jastrz\u0119bie-Zdr\u00f3j",
                "addr:street": "Libowiec",
                "addr:housenumber": "6 c",
                "addr:city:simc": 940163,
                "addr:street:sym_ul": 11029,
                "phone": "+48 324409990",
                "email": "kontakt@przedszkolemalipasjonaci.pl",
                "website": "http:\/\/www.przedszkolemalipasjonaci.pl",
                "ref:regon": "360435354",
                "ref:vatin": "PL6332233223",
                "operator": "Koag Sp\u00f3\u0142ka Z Ograniczon\u0105 Odpowiedzialno\u015bci\u0105",
                "operator:type": "private",
                "amenity": "kindergarten"
            }
        },
        {
            "id": 119067,
            "type": "Feature",
            "geometry": {
                "type": "Point",
                "coordinates": [
                    18.64572,
                    49.93148
                ]
            },
            "properties": {
                "ref:rspo": 119067,
                "official_name": "Przedszkole Niepubliczne \"Berek\"",
                "name": "Przedszkole Niepubliczne \"Berek\"",
                "addr:postcode": "44-336",
                "addr:city": "Jastrz\u0119bie-Zdr\u00f3j",
                "addr:street": "Libowiec",
                "addr:housenumber": "55",
                "addr:city:simc": 940163,
                "addr:street:sym_ul": 11029,
                "phone": "+48 608596973",
                "email": "przedszkole@berek.edu.pl",
                "website": "http:\/\/www.berek.edu.pl",
                "ref:regon": "243348918",
                "ref:vatin": "PL6331587723",
                "operator": "Eugeniusz S\u0142awik",
                "operator:type": "private",
                "amenity": "kindergarten"
            }
        },
        {
            "id": 24138,
            "type": "Feature",
            "geometry": {
                "type": "Point",
                "coordinates": [
                    18.64483,
                    49.93673
                ]
            },
            "properties": {
                "ref:rspo": 24138,
                "official_name": "Publiczne Przedszkole nr 11",
                "name": "Publiczne Przedszkole nr 11",
                "addr:postcode": "44-336",
                "addr:city": "Jastrz\u0119bie-Zdr\u00f3j",
                "addr:street": "Klubowa",
                "addr:housenumber": "2",
                "addr:city:simc": 940163,
                "addr:street:sym_ul": 8585,
                "phone": "+48 324712193",
                "email": "pp11@um.jastrzebie.pl",
                "ref:regon": "272000970",
                "ref:vatin": "PL6332027653",
                "operator": "Jastrz\u0119bie-Zdr\u00f3j - Miasto Na Prawach Powiatu",
                "operator:type": "government",
                "amenity": "kindergarten"
            }
        },
        {
            "id": 63422,
            "type": "Feature",
            "geometry": {
                "type": "Point",
                "coordinates": [
                    18.54046,
                    49.93894
                ]
            },
            "properties": {
                "isced:level": "1;2",
                "ref:rspo": 63422,
                "official_name": "Szko\u0142a Podstawowa nr 16 im. Prof. Rudolfa Ranoszka",
                "name": "Szko\u0142a Podstawowa nr 16",
                "addr:postcode": "44-338",
                "addr:city": "Jastrz\u0119bie-Zdr\u00f3j",
                "addr:street": "Komuny Paryskiej",
                "addr:housenumber": "18c",
                "addr:city:simc": 940163,
                "addr:street:sym_ul": 9101,
                "phone": "+48 324745201",
                "email": "poczta@sp16.jastrzebie.pl",
                "website": "http:\/\/www.sp16.jastrzebie.pl",
                "ref:regon": "000728718",
                "ref:vatin": "PL6332027937",
                "operator": "Jastrz\u0119bie-Zdr\u00f3j - Miasto Na Prawach Powiatu",
                "operator:type": "government",
                "amenity": "school"
            }
        },
        {
            "id": 272123,
            "type": "Feature",
            "geometry": {
                "type": "Point",
                "coordinates": [
                    18.5844,
                    49.94014
                ]
            },
            "properties": {
                "ref:rspo": 272123,
                "official_name": "Zesp\u00f3\u0142 Szk\u00f3\u0142 Mistrzostwa Sportowego \"Jastrz\u0119bski W\u0119giel\"",
                "name": "Zesp\u00f3\u0142 Szk\u00f3\u0142 Mistrzostwa Sportowego \"Jastrz\u0119bski W\u0119giel\"",
                "addr:postcode": "44-330",
                "addr:city": "Jastrz\u0119bie-Zdr\u00f3j",
                "addr:street": "Janusza Kusoci\u0144skiego",
                "addr:housenumber": "47",
                "addr:city:simc": 940163,
                "addr:street:sym_ul": 10493,
                "phone": "+48 324340044",
                "email": "szkola@jastrzebskiwegiel.pl",
                "website": "http:\/\/www.akademiatalentowjw.pl",
                "ref:regon": "383943466",
                "ref:vatin": "PL6330009579",
                "operator": "Klub Sportowy Jastrz\u0119bie-Borynia",
                "operator:type": "ngo",
                "landuse": "education",
                "fixme": "amenity=school, amenity=college albo landuse=education w zale\u017cno\u015bci od tego, jakie plac\u00f3wki wchodz\u0105 w sk\u0142ad zespo\u0142u. Sprawd\u017a, kiedy stosowa\u0107 amenity=* a kiedy landuse=education.",
                "note": "Children RSPO: 269931;269932"
            }
        },
        {
            "id": 269931,
            "type": "Feature",
            "geometry": {
                "type": "Point",
                "coordinates": [
                    18.5844,
                    49.94011
                ]
            },
            "properties": {
                "isced:level": "1;2",
                "ref:rspo": 269931,
                "official_name": "Niepubliczna Sportowa Szko\u0142a Podstawowa z Oddzia\u0142ami Mistrzostwa Sportowego \"Jastrz\u0119bski W\u0119giel\"",
                "name": "Niepubliczna Sportowa Szko\u0142a Podstawowa z Oddzia\u0142ami Mistrzostwa Sportowego \"Jastrz\u0119bski W\u0119giel\"",
                "addr:postcode": "44-268",
                "addr:city": "Jastrz\u0119bie-Zdr\u00f3j",
                "addr:street": "Janusza Kusoci\u0144skiego",
                "addr:housenumber": "47",
                "addr:city:simc": 940163,
                "addr:street:sym_ul": 10493,
                "phone": "+48 324340044",
                "email": "szkola@jastrzebskiwegiel.pl",
                "website": "http:\/\/www.akademiatalentowjw.pl",
                "ref:regon": "381862976",
                "operator": "Klub Sportowy Jastrz\u0119bie-Borynia",
                "operator:type": "ngo",
                "amenity": "school",
                "note": "Parent RSPO: 272123"
            }
        },
        {
            "id": 269932,
            "type": "Feature",
            "geometry": {
                "type": "Point",
                "coordinates": [
                    18.5844,
                    49.94008
                ]
            },
            "properties": {
                "isced:level": "3",
                "ref:rspo": 269932,
                "official_name": "Niepubliczne Liceum Og\u00f3lnokszta\u0142c\u0105ce Mistrzostwa Sportowego \"Jastrz\u0119bski W\u0119giel\"",
                "name": "Niepubliczne Liceum Og\u00f3lnokszta\u0142c\u0105ce Mistrzostwa Sportowego \"Jastrz\u0119bski W\u0119giel\"",
                "addr:postcode": "44-268",
                "addr:city": "Jastrz\u0119bie-Zdr\u00f3j",
                "addr:street": "Janusza Kusoci\u0144skiego",
                "addr:housenumber": "47",
                "addr:city:simc": 940163,
                "addr:street:sym_ul": 10493,
                "phone": "+48 324340044",
                "email": "szkola@jastrzebskiwegiel.pl",
                "website": "http:\/\/www.akademiatalentowjw.pl",
                "ref:regon": "381863409",
                "operator": "Klub Sportowy Jastrz\u0119bie-Borynia",
                "operator:type": "ngo",
                "amenity": "school",
                "note": "Parent RSPO: 272123"
            }
        },
        {
            "id": 24267,
            "type": "Feature",
            "geometry": {
                "type": "Point",
                "coordinates": [
                    18.58231,
                    49.9403099
                ]
            },
            "properties": {
                "ref:rspo": 24267,
                "official_name": "Publiczne Przedszkole nr 20",
                "name": "Publiczne Przedszkole nr 20",
                "addr:postcode": "44-335",
                "addr:city": "Jastrz\u0119bie-Zdr\u00f3j",
                "addr:street": "Bronis\u0142awa Czecha",
                "addr:housenumber": "8",
                "addr:door": "B",
                "addr:city:simc": 940163,
                "addr:street:sym_ul": 3333,
                "phone": "+48 324762266",
                "email": "poczta@pp20.jastrzebie.pl",
                "website": "http:\/\/www.pp20.pl",
                "ref:regon": "272001069",
                "ref:vatin": "PL6332027771",
                "operator": "Jastrz\u0119bie-Zdr\u00f3j - Miasto Na Prawach Powiatu",
                "operator:type": "government",
                "amenity": "kindergarten"
            }
        },
        {
            "id": 109039,
            "type": "Feature",
            "geometry": {
                "type": "Point",
                "coordinates": [
                    18.57995,
                    49.94085
                ]
            },
            "properties": {
                "isced:level": "1;2",
                "ref:rspo": 109039,
                "official_name": "Szko\u0142a Podstawowa nr 20 im. Henryka Jordana",
                "name": "Szko\u0142a Podstawowa nr 20",
                "addr:postcode": "44-330",
                "addr:city": "Jastrz\u0119bie-Zdr\u00f3j",
                "addr:street": "Bronis\u0142awa Czecha",
                "addr:housenumber": "20 A",
                "addr:city:simc": 940163,
                "addr:street:sym_ul": 3333,
                "phone": "+48 324761302",
                "email": "poczta@sp20.jastrzebie.pl",
                "website": "http:\/\/www.sp20.jastrzebie.pl",
                "ref:regon": "001016670",
                "ref:vatin": "PL6332116368",
                "operator": "Jastrz\u0119bie-Zdr\u00f3j - Miasto Na Prawach Powiatu",
                "operator:type": "government",
                "amenity": "school"
            }
        },
        {
            "id": 107624,
            "type": "Feature",
            "geometry": {
                "type": "Point",
                "coordinates": [
                    18.55659,
                    49.9418
                ]
            },
            "properties": {
                "ref:rspo": 107624,
                "official_name": "O\u015brodek Szkolenia Ppg \"Row-Jas\" Sp. z o.o.",
                "name": "O\u015brodek Szkolenia Ppg \"Row-Jas\" Sp. z o.o.",
                "addr:postcode": "44-330",
                "addr:city": "Jastrz\u0119bie-Zdr\u00f3j",
                "addr:street": "Kasztanowa",
                "addr:housenumber": "2",
                "addr:city:simc": 940163,
                "addr:street:sym_ul": 8171,
                "phone": "+48 327332694",
                "email": "bhpppgrowjas@gmail.com",
                "ref:regon": "243168790",
                "ref:vatin": "PL6331922067",
                "operator": "Przedsi\u0119biorstwo Produkcyjno G\u00f3rnicze \"Row-Jas\" Sp\u00f3\u0142ka Z Ograniczon\u0105 Odpowiedzialno\u015bci\u0105",
                "operator:type": "private",
                "fixme": "w zale\u017cno\u015bci od przedmiotu dzia\u0142alno\u015bci (np. amenity=training + training=*, amenity=dancing_school, amenity=language_school, amenity=music_school)"
            }
        },
        {
            "id": 263554,
            "type": "Feature",
            "geometry": {
                "type": "Point",
                "coordinates": [
                    18.56427,
                    49.9424
                ]
            },
            "properties": {
                "ref:rspo": 263554,
                "official_name": "O\u015brodek Kszta\u0142cenia Zak\u0142ad Wsparcia Produkcji Jsw S.a.",
                "name": "O\u015brodek Kszta\u0142cenia Zak\u0142ad Wsparcia Produkcji Jsw S.a.",
                "addr:postcode": "44-330",
                "addr:city": "Jastrz\u0119bie-Zdr\u00f3j",
                "addr:street": "Towarowa",
                "addr:housenumber": "1",
                "addr:city:simc": 940163,
                "addr:street:sym_ul": 22907,
                "email": "jsw@jsw.pl",
                "website": "http:\/\/www.jsw.pl",
                "ref:regon": "368200053",
                "operator": "Jastrz\u0119bska Sp\u00f3\u0142ka W\u0119glowa Sp\u00f3\u0142ka Akcyjna",
                "operator:type": "private",
                "fixme": "w zale\u017cno\u015bci od przedmiotu dzia\u0142alno\u015bci (np. amenity=training + training=*, amenity=dancing_school, amenity=language_school, amenity=music_school)"
            }
        },
        {
            "id": 104061,
            "type": "Feature",
            "geometry": {
                "type": "Point",
                "coordinates": [
                    18.56833,
                    49.9431299
                ]
            },
            "properties": {
                "ref:rspo": 104061,
                "official_name": "Bi System Piotr Bia\u0142ecki",
                "name": "Bi System Piotr Bia\u0142ecki",
                "addr:postcode": "44-330",
                "addr:city": "Jastrz\u0119bie-Zdr\u00f3j",
                "addr:street": "Energetyk\u00f3w",
                "addr:housenumber": "8",
                "addr:city:simc": 940163,
                "addr:street:sym_ul": 4805,
                "phone": "+48 324751982",
                "email": "wsporysz@bialecki.pl",
                "ref:regon": "243126483",
                "ref:vatin": "PL6330001276",
                "operator": "Piotr Bia\u0142ecki",
                "operator:type": "private",
                "fixme": "w zale\u017cno\u015bci od przedmiotu dzia\u0142alno\u015bci (np. amenity=training + training=*, amenity=dancing_school, amenity=language_school, amenity=music_school)"
            }
        },
        {
            "id": 278759,
            "type": "Feature",
            "geometry": {
                "type": "Point",
                "coordinates": [
                    18.56833,
                    49.9430999
                ]
            },
            "properties": {
                "isced:level": "3",
                "ref:rspo": 278759,
                "official_name": "Niepubliczna Szko\u0142a Bran\u017cowa II Stopnia",
                "name": "Niepubliczna Szko\u0142a Bran\u017cowa II Stopnia",
                "addr:postcode": "44-330",
                "addr:city": "Jastrz\u0119bie-Zdr\u00f3j",
                "addr:street": "Energetyk\u00f3w",
                "addr:housenumber": "8",
                "addr:city:simc": 940163,
                "addr:street:sym_ul": 4805,
                "phone": "+48 324110504",
                "ref:regon": "520056720",
                "operator": "Bia\u0142ecki Sp\u00f3\u0142ka Z Ograniczon\u0105 Odpowiedzialno\u015bci\u0105",
                "operator:type": "private",
                "amenity": "school"
            }
        },
        {
            "id": 24136,
            "type": "Feature",
            "geometry": {
                "type": "Point",
                "coordinates": [
                    18.59587,
                    49.94314
                ]
            },
            "properties": {
                "ref:rspo": 24136,
                "official_name": "Publiczne Przedszkole nr 8",
                "name": "Publiczne Przedszkole nr 8",
                "addr:postcode": "44-335",
                "addr:city": "Jastrz\u0119bie-Zdr\u00f3j",
                "addr:street": "Wielkopolska",
                "addr:housenumber": "24",
                "addr:city:simc": 940163,
                "addr:street:sym_ul": 24096,
                "phone": "+48 324719697",
                "email": "poczta@pp8.jastrzebie.pl",
                "website": "http:\/\/pp8.przedszkolowo.pl",
                "ref:regon": "272000940",
                "ref:vatin": "PL6332027624",
                "operator": "Jastrz\u0119bie-Zdr\u00f3j - Miasto Na Prawach Powiatu",
                "operator:type": "government",
                "amenity": "kindergarten"
            }
        },
        {
            "id": 24321,
            "type": "Feature",
            "geometry": {
                "type": "Point",
                "coordinates": [
                    18.54008,
                    49.94336
                ]
            },
            "properties": {
                "ref:rspo": 24321,
                "official_name": "Publiczne Przedszkole nr 26",
                "name": "Publiczne Przedszkole nr 26",
                "addr:postcode": "44-338",
                "addr:city": "Jastrz\u0119bie-Zdr\u00f3j",
                "addr:street": "Wiejska",
                "addr:housenumber": "35",
                "addr:door": "i",
                "addr:city:simc": 940163,
                "addr:street:sym_ul": 24048,
                "phone": "+48 324736083",
                "email": "poczta@pp26.jastrzebie.pl",
                "website": "http:\/\/www.pp26.republika.pl",
                "ref:regon": "272001129",
                "ref:vatin": "PL6332027825",
                "operator": "Jastrz\u0119bie-Zdr\u00f3j - Miasto Na Prawach Powiatu",
                "operator:type": "government",
                "amenity": "kindergarten"
            }
        },
        {
            "id": 44234,
            "type": "Feature",
            "geometry": {
                "type": "Point",
                "coordinates": [
                    18.59591,
                    49.94363
                ]
            },
            "properties": {
                "isced:level": "1;2",
                "ref:rspo": 44234,
                "official_name": "Szko\u0142a Podstawowa nr 9 im. Gustawa Morcinka",
                "name": "Szko\u0142a Podstawowa nr 9",
                "addr:postcode": "44-335",
                "addr:city": "Jastrz\u0119bie-Zdr\u00f3j",
                "addr:street": "Wielkopolska",
                "addr:housenumber": "22",
                "addr:city:simc": 940163,
                "addr:street:sym_ul": 24096,
                "phone": "+48 324712917",
                "email": "poczta@sp9.jastrzebie.pl",
                "website": "http:\/\/www.sp9.jastrzebie.pl",
                "ref:regon": "000728641",
                "ref:vatin": "PL6332027877",
                "operator": "Jastrz\u0119bie-Zdr\u00f3j - Miasto Na Prawach Powiatu",
                "operator:type": "government",
                "amenity": "school"
            }
        },
        {
            "id": 24133,
            "type": "Feature",
            "geometry": {
                "type": "Point",
                "coordinates": [
                    18.60194,
                    49.94489
                ]
            },
            "properties": {
                "ref:rspo": 24133,
                "official_name": "Publiczne Przedszkole nr 5",
                "name": "Publiczne Przedszkole nr 5",
                "addr:postcode": "44-335",
                "addr:city": "Jastrz\u0119bie-Zdr\u00f3j",
                "addr:street": "Kaszubska",
                "addr:housenumber": "4",
                "addr:city:simc": 940163,
                "addr:street:sym_ul": 8183,
                "phone": "+48 324713481",
                "email": "poczta@pp5.jastrzebie.pl",
                "website": "http:\/\/przedszkole5.jastrzebie.edupage.org",
                "ref:regon": "272000911",
                "ref:vatin": "PL6332027593",
                "operator": "Jastrz\u0119bie-Zdr\u00f3j - Miasto Na Prawach Powiatu",
                "operator:type": "government",
                "amenity": "kindergarten"
            }
        },
        {
            "id": 30379,
            "type": "Feature",
            "geometry": {
                "type": "Point",
                "coordinates": [
                    18.59509,
                    49.94553
                ]
            },
            "properties": {
                "ref:rspo": 30379,
                "official_name": "Zesp\u00f3\u0142 Szk\u00f3\u0142 Handlowych",
                "name": "Zesp\u00f3\u0142 Szk\u00f3\u0142 Handlowych",
                "addr:postcode": "44-335",
                "addr:city": "Jastrz\u0119bie-Zdr\u00f3j",
                "addr:street": "Wielkopolska",
                "addr:housenumber": "20",
                "addr:city:simc": 940163,
                "addr:street:sym_ul": 24096,
                "phone": "+48 324713062",
                "email": "zsh@um.jastrzebie.pl",
                "website": "http:\/\/www.zsh.internetdsl.pl",
                "ref:regon": "270207890",
                "ref:vatin": "PL6331009222",
                "operator": "Jastrz\u0119bie-Zdr\u00f3j - Miasto Na Prawach Powiatu",
                "operator:type": "government",
                "landuse": "education",
                "fixme": "amenity=school, amenity=college albo landuse=education w zale\u017cno\u015bci od tego, jakie plac\u00f3wki wchodz\u0105 w sk\u0142ad zespo\u0142u. Sprawd\u017a, kiedy stosowa\u0107 amenity=* a kiedy landuse=education.",
                "note": "Children RSPO: 109866;110052"
            }
        },
        {
            "id": 88561,
            "type": "Feature",
            "geometry": {
                "type": "Point",
                "coordinates": [
                    18.59509,
                    49.945499999999996
                ]
            },
            "properties": {
                "ref:rspo": 88561,
                "official_name": "Zesp\u00f3\u0142 Szk\u00f3\u0142 Si\u00f3str Salezjanek",
                "name": "Zesp\u00f3\u0142 Szk\u00f3\u0142 Si\u00f3str Salezjanek",
                "addr:postcode": "44-335",
                "addr:city": "Jastrz\u0119bie-Zdr\u00f3j",
                "addr:street": "Wielkopolska",
                "addr:housenumber": "20",
                "addr:city:simc": 940163,
                "addr:street:sym_ul": 24096,
                "phone": "+48 324733200",
                "email": "liceum@post.pl",
                "website": "http:\/\/www.szkolasalez.waw.pl",
                "ref:regon": "243102896",
                "ref:vatin": "PL6332161564",
                "operator": "Zgromadzenie C\u00f3rek Maryi Wspomo\u017cycielki (Siostry Salezjanki) Inspektoria Warszawska",
                "operator:type": "religious",
                "landuse": "education",
                "fixme": "amenity=school, amenity=college albo landuse=education w zale\u017cno\u015bci od tego, jakie plac\u00f3wki wchodz\u0105 w sk\u0142ad zespo\u0142u. Sprawd\u017a, kiedy stosowa\u0107 amenity=* a kiedy landuse=education.",
                "note": "Children RSPO: 113988;262276"
            }
        },
        {
            "id": 109866,
            "type": "Feature",
            "geometry": {
                "type": "Point",
                "coordinates": [
                    18.59509,
                    49.94547
                ]
            },
            "properties": {
                "isced:level": "3",
                "ref:rspo": 109866,
                "official_name": "Bran\u017cowa Szko\u0142a I Stopnia nr 2",
                "name": "Bran\u017cowa Szko\u0142a I Stopnia nr 2",
                "addr:postcode": "44-335",
                "addr:city": "Jastrz\u0119bie-Zdr\u00f3j",
                "addr:street": "Wielkopolska",
                "addr:housenumber": "20",
                "addr:city:simc": 940163,
                "addr:street:sym_ul": 24096,
                "phone": "+48 324713062",
                "email": "zsh@um.jastrzebie.pl",
                "website": "http:\/\/www.zsh.internetdsl.pl",
                "ref:regon": "271580094",
                "ref:vatin": "PL6331009222",
                "operator": "Jastrz\u0119bie-Zdr\u00f3j - Miasto Na Prawach Powiatu",
                "operator:type": "government",
                "amenity": "school",
                "note": "Parent RSPO: 30379"
            }
        },
        {
            "id": 110052,
            "type": "Feature",
            "geometry": {
                "type": "Point",
                "coordinates": [
                    18.59509,
                    49.94544
                ]
            },
            "properties": {
                "isced:level": "3",
                "ref:rspo": 110052,
                "official_name": "Technikum nr 3 im. Zes\u0142a\u0144c\u00f3w Sybiru",
                "name": "Technikum nr 3",
                "addr:postcode": "44-335",
                "addr:city": "Jastrz\u0119bie-Zdr\u00f3j",
                "addr:street": "Wielkopolska",
                "addr:housenumber": "20",
                "addr:city:simc": 940163,
                "addr:street:sym_ul": 24096,
                "phone": "+48 324713062",
                "email": "zsh@um.jastrzebie.pl",
                "website": "http:\/\/www.zsh.jastrzebie.pl",
                "ref:regon": "276206450",
                "ref:vatin": "PL6331009222",
                "operator": "Jastrz\u0119bie-Zdr\u00f3j - Miasto Na Prawach Powiatu",
                "operator:type": "government",
                "amenity": "school",
                "note": "Parent RSPO: 30379"
            }
        },
        {
            "id": 113988,
            "type": "Feature",
            "geometry": {
                "type": "Point",
                "coordinates": [
                    18.59509,
                    49.945409999999995
                ]
            },
            "properties": {
                "isced:level": "3",
                "ref:rspo": 113988,
                "official_name": "Publiczne Liceum Og\u00f3lnokszta\u0142c\u0105ce Si\u00f3str Salezjanek im. Maryi Wspomo\u017cycielki",
                "name": "Publiczne Liceum Og\u00f3lnokszta\u0142c\u0105ce Si\u00f3str Salezjanek",
                "addr:postcode": "44-335",
                "addr:city": "Jastrz\u0119bie-Zdr\u00f3j",
                "addr:street": "Wielkopolska",
                "addr:housenumber": "20",
                "addr:city:simc": 940163,
                "addr:street:sym_ul": 24096,
                "phone": "+48 324733200",
                "email": "liceum@post.pl",
                "website": "http:\/\/www.szkolasalez.waw.pl",
                "ref:regon": "243242752",
                "ref:vatin": "PL6332088169",
                "operator": "Zgromadzenie C\u00f3rek Maryi Wspomo\u017cycielki (Siostry Salezjanki) Inspektoria Warszawska",
                "operator:type": "religious",
                "amenity": "school",
                "note": "Parent RSPO: 88561"
            }
        },
        {
            "id": 262276,
            "type": "Feature",
            "geometry": {
                "type": "Point",
                "coordinates": [
                    18.59509,
                    49.94538
                ]
            },
            "properties": {
                "isced:level": "1;2",
                "ref:rspo": 262276,
                "official_name": "Publiczna Szko\u0142a Podstawowa Si\u00f3str Salezjanek im. Maryi Wspomo\u017cycielki w Jastrz\u0119biu-Zdroju",
                "name": "Publiczna Szko\u0142a Podstawowa Si\u00f3str Salezjanek",
                "addr:postcode": "44-335",
                "addr:city": "Jastrz\u0119bie-Zdr\u00f3j",
                "addr:street": "Wielkopolska",
                "addr:housenumber": "20",
                "addr:city:simc": 940163,
                "addr:street:sym_ul": 24096,
                "phone": "+48 324733200",
                "email": "liceum@post.pl",
                "website": "http:\/\/www.salezjanki.szkola.pl",
                "ref:regon": "367996676",
                "operator": "Zgromadzenie C\u00f3rek Maryi Wspomo\u017cycielki (Siostry Salezjanki) Inspektoria Warszawska",
                "operator:type": "religious",
                "amenity": "school",
                "note": "Parent RSPO: 88561"
            }
        },
        {
            "id": 24130,
            "type": "Feature",
            "geometry": {
                "type": "Point",
                "coordinates": [
                    18.5703,
                    49.94555
                ]
            },
            "properties": {
                "ref:rspo": 24130,
                "official_name": "Publiczne Przedszkole nr 2",
                "name": "Publiczne Przedszkole nr 2",
                "addr:postcode": "44-330",
                "addr:city": "Jastrz\u0119bie-Zdr\u00f3j",
                "addr:street": "Marii Konopnickiej",
                "addr:housenumber": "1",
                "addr:city:simc": 940163,
                "addr:street:sym_ul": 9186,
                "phone": "+48 324752318",
                "email": "pp-2jastrzebie@o2.pl",
                "website": "http:\/\/pp2zdroj.szkolnastrona.pl",
                "ref:regon": "272000880",
                "ref:vatin": "PL6332027564",
                "operator": "Jastrz\u0119bie-Zdr\u00f3j - Miasto Na Prawach Powiatu",
                "operator:type": "government",
                "amenity": "kindergarten"
            }
        },
        {
            "id": 131012,
            "type": "Feature",
            "geometry": {
                "type": "Point",
                "coordinates": [
                    18.5919,
                    49.94635
                ]
            },
            "properties": {
                "ref:rspo": 131012,
                "official_name": "Niepubliczna Poradnia Psychologiczno-Pedagogiczna \"Cedit\"",
                "name": "Niepubliczna Poradnia Psychologiczno-Pedagogiczna \"Cedit\"",
                "addr:postcode": "44-335",
                "addr:city": "Jastrz\u0119bie-Zdr\u00f3j",
                "addr:street": "Beskidzka",
                "addr:housenumber": "1",
                "addr:door": "137",
                "addr:city:simc": 940163,
                "addr:street:sym_ul": 1103,
                "phone": "+48 513472420",
                "email": "kat.janota@gmail.com",
                "ref:regon": "364867122",
                "operator": "Katarzyna Zawora",
                "operator:type": "private",
                "healthcare": "counselling",
                "counselling_type": "education",
                "fixme": "w zale\u017cno\u015bci od przedmiotu dzia\u0142alno\u015bci (np. healthcare=counselling + counselling_type=education albo healthcare=psychotherapist)"
            }
        },
        {
            "id": 19841,
            "type": "Feature",
            "geometry": {
                "type": "Point",
                "coordinates": [
                    18.57154,
                    49.94654
                ]
            },
            "properties": {
                "ref:rspo": 19841,
                "official_name": "Pa\u0144stwowa Szko\u0142a Muzyczna I I II St. im. Prof. J\u00f3zefa \u015awidra w Jastrz\u0119biu-Zdroju",
                "name": "Pa\u0144stwowa Szko\u0142a Muzyczna I I II St.",
                "addr:postcode": "44-330",
                "addr:city": "Jastrz\u0119bie-Zdr\u00f3j",
                "addr:street": "Tadeusza Ko\u015bciuszki",
                "addr:housenumber": "13a",
                "addr:city:simc": 940163,
                "addr:street:sym_ul": 9582,
                "phone": "+48 324763705",
                "email": "szkola@psmjastrzebie.pl",
                "website": "http:\/\/www.psmjastrzebie.pl",
                "ref:regon": "003556590",
                "operator": "Ministerstwo Kultury I Dziedzictwa Narodowego",
                "operator:type": "public",
                "landuse": "education",
                "fixme": "amenity=school, amenity=college albo landuse=education w zale\u017cno\u015bci od tego, jakie plac\u00f3wki wchodz\u0105 w sk\u0142ad zespo\u0142u. Sprawd\u017a, kiedy stosowa\u0107 amenity=* a kiedy landuse=education.",
                "note": "Children RSPO: 92783;92784"
            }
        },
        {
            "id": 92783,
            "type": "Feature",
            "geometry": {
                "type": "Point",
                "coordinates": [
                    18.57154,
                    49.946509999999996
                ]
            },
            "properties": {
                "ref:rspo": 92783,
                "official_name": "Pa\u0144stwowa Szko\u0142a Muzyczna I St. w Jastrz\u0119biu-Zdroju",
                "name": "Pa\u0144stwowa Szko\u0142a Muzyczna I St. w Jastrz\u0119biu-Zdroju",
                "addr:postcode": "44-330",
                "addr:city": "Jastrz\u0119bie-Zdr\u00f3j",
                "addr:street": "Tadeusza Ko\u015bciuszki",
                "addr:housenumber": "13a",
                "addr:city:simc": 940163,
                "addr:street:sym_ul": 9582,
                "phone": "+48 324763705",
                "email": "szkolamuzjastrzebie@poczta.internetdsl.pl",
                "website": "http:\/\/szkola-muzyczna.pl",
                "ref:regon": "240066036",
                "operator": "Ministerstwo Kultury I Dziedzictwa Narodowego",
                "operator:type": "public",
                "amenity": "music_school",
                "note": "Parent RSPO: 19841"
            }
        },
        {
            "id": 92784,
            "type": "Feature",
            "geometry": {
                "type": "Point",
                "coordinates": [
                    18.57154,
                    49.94648
                ]
            },
            "properties": {
                "ref:rspo": 92784,
                "official_name": "Pa\u0144stwowa Szko\u0142a Muzyczna II St. w Jastrz\u0119biu-Zdroju",
                "name": "Pa\u0144stwowa Szko\u0142a Muzyczna II St. w Jastrz\u0119biu-Zdroju",
                "addr:postcode": "44-330",
                "addr:city": "Jastrz\u0119bie-Zdr\u00f3j",
                "addr:street": "Tadeusza Ko\u015bciuszki",
                "addr:housenumber": "13a",
                "addr:city:simc": 940163,
                "addr:street:sym_ul": 9582,
                "phone": "+48 324763705",
                "ref:regon": "240066065",
                "operator": "Ministerstwo Kultury I Dziedzictwa Narodowego",
                "operator:type": "public",
                "amenity": "music_school",
                "note": "Parent RSPO: 19841"
            }
        },
        {
            "id": 24134,
            "type": "Feature",
            "geometry": {
                "type": "Point",
                "coordinates": [
                    18.59362,
                    49.94682
                ]
            },
            "properties": {
                "ref:rspo": 24134,
                "official_name": "Publiczne Przedszkole nr 6",
                "name": "Publiczne Przedszkole nr 6",
                "addr:postcode": "44-335",
                "addr:city": "Jastrz\u0119bie-Zdr\u00f3j",
                "addr:street": "Wielkopolska",
                "addr:housenumber": "18",
                "addr:city:simc": 940163,
                "addr:street:sym_ul": 24096,
                "phone": "+48 324716555",
                "email": "pp6@um.jastrzebie.pl",
                "website": "http:\/\/pp6-jastrzebiezdroj.przedszkolowo.pl",
                "ref:regon": "272000928",
                "ref:vatin": "PL6332027601",
                "operator": "Jastrz\u0119bie-Zdr\u00f3j - Miasto Na Prawach Powiatu",
                "operator:type": "government",
                "amenity": "kindergarten"
            }
        },
        {
            "id": 24378,
            "type": "Feature",
            "geometry": {
                "type": "Point",
                "coordinates": [
                    18.56636,
                    49.94688
                ]
            },
            "properties": {
                "ref:rspo": 24378,
                "official_name": "Przedszkole Specjalne w Jastrz\u0119biu-Zdroju",
                "name": "Przedszkole Specjalne w Jastrz\u0119biu-Zdroju",
                "addr:postcode": "44-330",
                "addr:city": "Jastrz\u0119bie-Zdr\u00f3j",
                "addr:street": "1 Maja",
                "addr:housenumber": "61",
                "addr:city:simc": 940163,
                "addr:street:sym_ul": 11926,
                "phone": "+48 324762441",
                "email": "poczta@ps.jastrzebie.pl",
                "ref:regon": "272152897",
                "ref:vatin": "PL6332028049",
                "operator": "Jastrz\u0119bie-Zdr\u00f3j - Miasto Na Prawach Powiatu",
                "operator:type": "government",
                "amenity": "kindergarten"
            }
        },
        {
            "id": 24141,
            "type": "Feature",
            "geometry": {
                "type": "Point",
                "coordinates": [
                    18.60821,
                    49.94692
                ]
            },
            "properties": {
                "ref:rspo": 24141,
                "official_name": "Publiczne Przedszkole nr 14 z Oddzia\u0142ami Integracyjnymi I Oddzia\u0142em Specjalnym",
                "name": "Publiczne Przedszkole nr 14 z Oddzia\u0142ami Integracyjnymi I Oddzia\u0142em Specjalnym",
                "addr:postcode": "44-335",
                "addr:city": "Jastrz\u0119bie-Zdr\u00f3j",
                "addr:street": "Zielona",
                "addr:housenumber": "2",
                "addr:city:simc": 940163,
                "addr:street:sym_ul": 26081,
                "phone": "+48 324715264",
                "email": "poczta@pp14.jastrzebie.pl",
                "ref:regon": "272001000",
                "ref:vatin": "PL6332027707",
                "operator": "Jastrz\u0119bie-Zdr\u00f3j - Miasto Na Prawach Powiatu",
                "operator:type": "government",
                "amenity": "kindergarten"
            }
        },
        {
            "id": 10979,
            "type": "Feature",
            "geometry": {
                "type": "Point",
                "coordinates": [
                    18.57177,
                    49.94701
                ]
            },
            "properties": {
                "ref:rspo": 10979,
                "official_name": "Zesp\u00f3\u0142 Szk\u00f3\u0142 Specjalnych Przy Wojew\u00f3dzkim Szpitalu Rehabilitacyjnym dla Dzieci w Jastrz\u0119biu Zdroju",
                "name": "Zesp\u00f3\u0142 Szk\u00f3\u0142 Specjalnych Przy Wojew\u00f3dzkim Szpitalu Rehabilitacyjnym dla Dzieci w Jastrz\u0119biu Zdroju",
                "addr:postcode": "44-330",
                "addr:city": "Jastrz\u0119bie-Zdr\u00f3j",
                "addr:street": "Tadeusza Ko\u015bciuszki",
                "addr:housenumber": "14",
                "addr:city:simc": 940163,
                "addr:street:sym_ul": 9582,
                "phone": "+48 324762500",
                "email": "zssjastrzebie@szkolaszpital.pl",
                "website": "http:\/\/www.szkolaszpital.pl",
                "ref:regon": "276671648",
                "ref:vatin": "PL6332039892",
                "operator": "Wojew\u00f3dztwo \u015al\u0105skie",
                "operator:type": "government",
                "landuse": "education",
                "fixme": "amenity=school, amenity=college albo landuse=education w zale\u017cno\u015bci od tego, jakie plac\u00f3wki wchodz\u0105 w sk\u0142ad zespo\u0142u. Sprawd\u017a, kiedy stosowa\u0107 amenity=* a kiedy landuse=education.",
                "note": "Children RSPO: 118710;118719"
            }
        },
        {
            "id": 118710,
            "type": "Feature",
            "geometry": {
                "type": "Point",
                "coordinates": [
                    18.57177,
                    49.946979999999996
                ]
            },
            "properties": {
                "isced:level": "1;2",
                "ref:rspo": 118710,
                "official_name": "Szko\u0142a Podstawowa Specjalna nr 24 w Jastrz\u0119biu-Zdroju",
                "name": "Szko\u0142a Podstawowa Specjalna nr 24 w Jastrz\u0119biu-Zdroju",
                "addr:postcode": "44-330",
                "addr:city": "Jastrz\u0119bie-Zdr\u00f3j",
                "addr:street": "Tadeusza Ko\u015bciuszki",
                "addr:housenumber": "14",
                "addr:city:simc": 940163,
                "addr:street:sym_ul": 9582,
                "phone": "+48 324762500",
                "email": "zssjastrzebie@wp.pl",
                "website": "http:\/\/www.szkolaszpital.pl",
                "ref:regon": "000784540",
                "operator": "Wojew\u00f3dztwo \u015al\u0105skie",
                "operator:type": "government",
                "amenity": "school",
                "note": "Parent RSPO: 10979"
            }
        },
        {
            "id": 118719,
            "type": "Feature",
            "geometry": {
                "type": "Point",
                "coordinates": [
                    18.57177,
                    49.94695
                ]
            },
            "properties": {
                "isced:level": "3",
                "ref:rspo": 118719,
                "official_name": "Liceum Og\u00f3lnokszta\u0142c\u0105ce Specjalne nr Vii",
                "name": "Liceum Og\u00f3lnokszta\u0142c\u0105ce Specjalne nr Vii",
                "addr:postcode": "44-330",
                "addr:city": "Jastrz\u0119bie-Zdr\u00f3j",
                "addr:street": "Tadeusza Ko\u015bciuszki",
                "addr:housenumber": "14",
                "addr:city:simc": 940163,
                "addr:street:sym_ul": 9582,
                "phone": "+48 324762500",
                "email": "zssjastrzebie@wp.pl",
                "website": "http:\/\/www.szkolaszpital.pl",
                "ref:regon": "243337381",
                "operator": "Wojew\u00f3dztwo \u015al\u0105skie",
                "operator:type": "government",
                "amenity": "school",
                "note": "Parent RSPO: 10979"
            }
        },
        {
            "id": 43615,
            "type": "Feature",
            "geometry": {
                "type": "Point",
                "coordinates": [
                    18.57096,
                    49.94743
                ]
            },
            "properties": {
                "isced:level": "1;2",
                "ref:rspo": 43615,
                "official_name": "Szko\u0142a Podstawowa nr 4 im. Ludwika Jerzego Kerna",
                "name": "Szko\u0142a Podstawowa nr 4",
                "addr:postcode": "44-330",
                "addr:city": "Jastrz\u0119bie-Zdr\u00f3j",
                "addr:street": "Tadeusza Ko\u015bciuszki",
                "addr:housenumber": "19",
                "addr:city:simc": 940163,
                "addr:street:sym_ul": 9582,
                "phone": "+48 324761735",
                "email": "poczta@sp4.jastrzebie.pl",
                "website": "http:\/\/www.sp4jastrzebie-zdroj.edupage.org",
                "ref:regon": "000728598",
                "ref:vatin": "PL6332027848",
                "operator": "Jastrz\u0119bie-Zdr\u00f3j - Miasto Na Prawach Powiatu",
                "operator:type": "government",
                "amenity": "school"
            }
        },
        {
            "id": 24132,
            "type": "Feature",
            "geometry": {
                "type": "Point",
                "coordinates": [
                    18.60156,
                    49.94744
                ]
            },
            "properties": {
                "ref:rspo": 24132,
                "official_name": "Publiczne Przedszkole nr 4",
                "name": "Publiczne Przedszkole nr 4",
                "addr:postcode": "44-335",
                "addr:city": "Jastrz\u0119bie-Zdr\u00f3j",
                "addr:street": "Kurpiowska",
                "addr:housenumber": "15",
                "addr:door": "A",
                "addr:city:simc": 940163,
                "addr:street:sym_ul": 10468,
                "phone": "+48 324716410",
                "email": "pp4@um.jastrzebie.pl",
                "website": "http:\/\/www.pp4.jastrzebie.edupage.org",
                "ref:regon": "272000905",
                "ref:vatin": "PL6332027587",
                "operator": "Jastrz\u0119bie-Zdr\u00f3j - Miasto Na Prawach Powiatu",
                "operator:type": "government",
                "amenity": "kindergarten"
            }
        },
        {
            "id": 107636,
            "type": "Feature",
            "geometry": {
                "type": "Point",
                "coordinates": [
                    18.59931,
                    49.94752
                ]
            },
            "properties": {
                "ref:rspo": 107636,
                "official_name": "Edukacja Pozaszkolna Anderski",
                "name": "Edukacja Pozaszkolna Anderski",
                "addr:postcode": "44-335",
                "addr:city": "Jastrz\u0119bie-Zdr\u00f3j",
                "addr:street": "Mazowiecka",
                "addr:housenumber": "2",
                "addr:city:simc": 940163,
                "addr:street:sym_ul": 12540,
                "phone": "+48 324555515",
                "email": "ewelina@anderski.pl",
                "website": "http:\/\/www.yamahajastrzebie.pl",
                "ref:regon": "243168820",
                "ref:vatin": "PL6470521308",
                "operator": "Roman Anderski",
                "operator:type": "private",
                "fixme": "w zale\u017cno\u015bci od przedmiotu dzia\u0142alno\u015bci (np. amenity=training + training=*, amenity=dancing_school, amenity=language_school, amenity=music_school)"
            }
        },
        {
            "id": 24142,
            "type": "Feature",
            "geometry": {
                "type": "Point",
                "coordinates": [
                    18.6168,
                    49.94761
                ]
            },
            "properties": {
                "ref:rspo": 24142,
                "official_name": "Publiczne Przedszkole nr 15",
                "name": "Publiczne Przedszkole nr 15",
                "addr:postcode": "44-335",
                "addr:city": "Jastrz\u0119bie-Zdr\u00f3j",
                "addr:street": "Szkolna",
                "addr:housenumber": "9",
                "addr:city:simc": 940163,
                "addr:street:sym_ul": 21970,
                "phone": "+48 324716254",
                "email": "pp15@um.jastrzebie.pl",
                "website": "http:\/\/www.pp15.jastrzebie.pl",
                "ref:regon": "272001017",
                "ref:vatin": "PL6332027713",
                "operator": "Jastrz\u0119bie-Zdr\u00f3j - Miasto Na Prawach Powiatu",
                "operator:type": "government",
                "amenity": "kindergarten"
            }
        },
        {
            "id": 131578,
            "type": "Feature",
            "geometry": {
                "type": "Point",
                "coordinates": [
                    18.61314,
                    49.94787
                ]
            },
            "properties": {
                "ref:rspo": 131578,
                "official_name": "Niepubliczny Terapeutyczny Punkt Przedszkolny \"S\u0142oneczna Kraina\"",
                "name": "Niepubliczny Terapeutyczny Punkt Przedszkolny \"S\u0142oneczna Kraina\"",
                "addr:postcode": "44-335",
                "addr:city": "Jastrz\u0119bie-Zdr\u00f3j",
                "addr:street": "Turystyczna",
                "addr:housenumber": "36",
                "addr:city:simc": 940163,
                "addr:street:sym_ul": 23184,
                "email": "d.szalanska@tppsk.pl",
                "ref:regon": "365231403",
                "ref:vatin": "PL6332010977",
                "operator": "Centrum Rozwoju I Terapii Sp\u00f3\u0142ka Z Ograniczon\u0105 Odpowiedzialno\u015bci\u0105",
                "operator:type": "private",
                "amenity": "kindergarten"
            }
        },
        {
            "id": 107243,
            "type": "Feature",
            "geometry": {
                "type": "Point",
                "coordinates": [
                    18.5686399,
                    49.94789
                ]
            },
            "properties": {
                "ref:rspo": 107243,
                "official_name": "O\u015brodek Wspierania Przedsi\u0119biorczo\u015bci",
                "name": "O\u015brodek Wspierania Przedsi\u0119biorczo\u015bci",
                "addr:postcode": "44-330",
                "addr:city": "Jastrz\u0119bie-Zdr\u00f3j",
                "addr:street": "1 Maja",
                "addr:housenumber": "45",
                "addr:city:simc": 940163,
                "addr:street:sym_ul": 11926,
                "phone": "+48 324792911",
                "email": "inkubator@xm.pl",
                "website": "http:\/\/www.inkubator.xm.pl",
                "ref:regon": "243159531",
                "ref:vatin": "PL6331004354",
                "operator": "Fundacja \"Jastrz\u0119bski Inkubator Przedsi\u0119biorczo\u015bci\" W Likwidacji",
                "operator:type": "ngo",
                "fixme": "w zale\u017cno\u015bci od przedmiotu dzia\u0142alno\u015bci (np. amenity=training + training=*, amenity=dancing_school, amenity=language_school, amenity=music_school)"
            }
        },
        {
            "id": 108750,
            "type": "Feature",
            "geometry": {
                "type": "Point",
                "coordinates": [
                    18.61789,
                    49.94835
                ]
            },
            "properties": {
                "isced:level": "1;2",
                "ref:rspo": 108750,
                "official_name": "Szko\u0142a Podstawowa Specjalna nr 23 im. Ks. Prof. J\u00f3zefa Tischnera",
                "name": "Szko\u0142a Podstawowa Specjalna nr 23",
                "addr:postcode": "44-335",
                "addr:city": "Jastrz\u0119bie-Zdr\u00f3j",
                "addr:street": "Szkolna",
                "addr:housenumber": "5",
                "addr:city:simc": 940163,
                "addr:street:sym_ul": 21970,
                "phone": "+48 509574214",
                "email": "poczta@sp23.jastrzebie.pl",
                "website": "http:\/\/www.spsnr23tischner.pl",
                "ref:regon": "276604244",
                "ref:vatin": "PL6332079816",
                "operator": "Jastrz\u0119bie-Zdr\u00f3j - Miasto Na Prawach Powiatu",
                "operator:type": "government",
                "amenity": "school"
            }
        },
        {
            "id": 120273,
            "type": "Feature",
            "geometry": {
                "type": "Point",
                "coordinates": [
                    18.57947,
                    49.94856
                ]
            },
            "properties": {
                "ref:rspo": 120273,
                "official_name": "Niepubliczne Przedszkole J\u0119zykowe \"Secret\"",
                "name": "Niepubliczne Przedszkole J\u0119zykowe \"Secret\"",
                "addr:postcode": "44-335",
                "addr:city": "Jastrz\u0119bie-Zdr\u00f3j",
                "addr:street": "11 Listopada",
                "addr:housenumber": "12",
                "addr:city:simc": 940163,
                "addr:street:sym_ul": 11205,
                "phone": "+48 795929235",
                "email": "wierzbinska.kasia@wp.pl",
                "ref:regon": "243376978",
                "ref:vatin": "PL6331910621",
                "operator": "Katarzyna Wierzbi\u0144ska",
                "operator:type": "private",
                "amenity": "kindergarten"
            }
        },
        {
            "id": 104383,
            "type": "Feature",
            "geometry": {
                "type": "Point",
                "coordinates": [
                    18.59599,
                    49.94864
                ]
            },
            "properties": {
                "ref:rspo": 104383,
                "official_name": "Centrum Szkoleniowe - Ap Edukacja",
                "name": "Centrum Szkoleniowe - Ap Edukacja",
                "addr:postcode": "44-335",
                "addr:city": "Jastrz\u0119bie-Zdr\u00f3j",
                "addr:street": "Wielkopolska",
                "addr:housenumber": "1h",
                "addr:city:simc": 940163,
                "addr:street:sym_ul": 24096,
                "phone": "+48 324711571",
                "email": "k.krepec@apedukacja.pl",
                "website": "http:\/\/www.apedukacja.pl",
                "ref:regon": "243130349",
                "ref:vatin": "PL7251886909",
                "operator": "\"Ap Edukacja\" Sp\u00f3\u0142ka Z Ograniczon\u0105 Odpowiedzialno\u015bci\u0105",
                "operator:type": "private",
                "fixme": "w zale\u017cno\u015bci od przedmiotu dzia\u0142alno\u015bci (np. amenity=training + training=*, amenity=dancing_school, amenity=language_school, amenity=music_school)"
            }
        },
        {
            "id": 273555,
            "type": "Feature",
            "geometry": {
                "type": "Point",
                "coordinates": [
                    18.58702,
                    49.94875
                ]
            },
            "properties": {
                "ref:rspo": 273555,
                "official_name": "Niepubliczne Przedszkole Little Giants - Mali Giganci",
                "name": "Niepubliczne Przedszkole Little Giants - Mali Giganci",
                "addr:postcode": "44-335",
                "addr:city": "Jastrz\u0119bie-Zdr\u00f3j",
                "addr:street": "Aleja Jana Paw\u0142a II",
                "addr:housenumber": "1",
                "addr:city:simc": 940163,
                "addr:street:sym_ul": 33262,
                "phone": "+48 518620631",
                "email": "przedszkole.pszczyna@maligiganci.eu",
                "website": "http:\/\/maligiganci.eu",
                "ref:regon": "384505277",
                "operator": "Dg & Jg Sp\u00f3\u0142ka Z Ograniczon\u0105 Odpowiedzialno\u015bci\u0105",
                "operator:type": "private",
                "amenity": "kindergarten"
            }
        },
        {
            "id": 43825,
            "type": "Feature",
            "geometry": {
                "type": "Point",
                "coordinates": [
                    18.60367,
                    49.94877
                ]
            },
            "properties": {
                "isced:level": "1;2",
                "ref:rspo": 43825,
                "official_name": "Szko\u0142a Podstawowa z Oddzia\u0142ami Integracyjnymi nr 5 im. W\u0142adys\u0142awa Broniewskiego",
                "name": "Szko\u0142a Podstawowa z Oddzia\u0142ami Integracyjnymi nr 5",
                "addr:postcode": "44-335",
                "addr:city": "Jastrz\u0119bie-Zdr\u00f3j",
                "addr:street": "Mazurska",
                "addr:housenumber": "6",
                "addr:city:simc": 940163,
                "addr:street:sym_ul": 12555,
                "phone": "+48 324714704",
                "email": "poczta@sp5.jastrzebie.pl",
                "website": "http:\/\/www.sp5jastrzebie.szkolnastrona.pl\/",
                "ref:regon": "000728606",
                "ref:vatin": "PL6332027854",
                "operator": "Jastrz\u0119bie-Zdr\u00f3j - Miasto Na Prawach Powiatu",
                "operator:type": "government",
                "amenity": "school"
            }
        },
        {
            "id": 119378,
            "type": "Feature",
            "geometry": {
                "type": "Point",
                "coordinates": [
                    18.57303,
                    49.94878
                ]
            },
            "properties": {
                "ref:rspo": 119378,
                "official_name": "Niepubliczne Przedszkole Centrum Logopedycznego z Oddzia\u0142ami Integracyjnymi I Oddzia\u0142ami Specjalnymi",
                "name": "Niepubliczne Przedszkole Centrum Logopedycznego z Oddzia\u0142ami Integracyjnymi I Oddzia\u0142ami Specjalnymi",
                "addr:postcode": "44-330",
                "addr:city": "Jastrz\u0119bie-Zdr\u00f3j",
                "addr:street": "1 Maja",
                "addr:housenumber": "13 A",
                "addr:city:simc": 940163,
                "addr:street:sym_ul": 11926,
                "phone": "+48 324761025",
                "email": "przedszkole@logopedia.pl",
                "website": "http:\/\/www.logopedia.net.pl",
                "ref:regon": "243356579",
                "ref:vatin": "PL7720014258",
                "operator": "Jan Koz\u0142owski",
                "operator:type": "private",
                "amenity": "kindergarten"
            }
        },
        {
            "id": 268007,
            "type": "Feature",
            "geometry": {
                "type": "Point",
                "coordinates": [
                    18.57303,
                    49.94875
                ]
            },
            "properties": {
                "ref:rspo": 268007,
                "official_name": "Publiczna Specjalistyczna Poradnia Psychologiczno-Pedagogiczna \"Wczesnego Wspomagania Rozwoju Dziecka\" w Jastrz\u0119biu-Zdroju",
                "name": "Publiczna Specjalistyczna Poradnia Psychologiczno-Pedagogiczna \"Wczesnego Wspomagania Rozwoju Dziecka\" w Jastrz\u0119biu-Zdroju",
                "addr:postcode": "44-330",
                "addr:city": "Jastrz\u0119bie-Zdr\u00f3j",
                "addr:street": "1 Maja",
                "addr:housenumber": "13a",
                "addr:city:simc": 940163,
                "addr:street:sym_ul": 11926,
                "phone": "+48 324761025",
                "email": "poradnia.jastrzebie@logopedia.pl",
                "website": "http:\/\/www.logopedia.pl",
                "ref:regon": "380849784",
                "operator": "Jan Koz\u0142owski",
                "operator:type": "private",
                "fixme": "w zale\u017cno\u015bci od przedmiotu dzia\u0142alno\u015bci (np. healthcare=counselling + counselling_type=education albo healthcare=psychotherapist)"
            }
        },
        {
            "id": 273467,
            "type": "Feature",
            "geometry": {
                "type": "Point",
                "coordinates": [
                    18.57303,
                    49.94872
                ]
            },
            "properties": {
                "ref:rspo": 273467,
                "official_name": "Niepubliczny Terapeutyczny Punkt Przedszkolny Centrum Logopedycznego w Jastrz\u0119biu-Zdroju",
                "name": "Niepubliczny Terapeutyczny Punkt Przedszkolny Centrum Logopedycznego w Jastrz\u0119biu-Zdroju",
                "addr:postcode": "44-335",
                "addr:city": "Jastrz\u0119bie-Zdr\u00f3j",
                "addr:street": "1 Maja",
                "addr:housenumber": "13a",
                "addr:city:simc": 940163,
                "addr:street:sym_ul": 11926,
                "phone": "+48 324761025",
                "email": "punkt.jastrzebie@gmail.com",
                "ref:regon": "384479670",
                "operator": "Jan Koz\u0142owski",
                "operator:type": "private",
                "amenity": "kindergarten"
            }
        },
        {
            "id": 24233,
            "type": "Feature",
            "geometry": {
                "type": "Point",
                "coordinates": [
                    18.6147199,
                    49.94891
                ]
            },
            "properties": {
                "ref:rspo": 24233,
                "official_name": "Publiczne Przedszkole nr 19",
                "name": "Publiczne Przedszkole nr 19",
                "addr:postcode": "44-335",
                "addr:city": "Jastrz\u0119bie-Zdr\u00f3j",
                "addr:street": "Turystyczna",
                "addr:housenumber": "49",
                "addr:city:simc": 940163,
                "addr:street:sym_ul": 23184,
                "phone": "+48 324717859",
                "email": "pp19@um.jastrzebie.pl",
                "ref:regon": "272001052",
                "ref:vatin": "PL6332027765",
                "operator": "Jastrz\u0119bie-Zdr\u00f3j - Miasto Na Prawach Powiatu",
                "operator:type": "government",
                "amenity": "kindergarten"
            }
        },
        {
            "id": 26455,
            "type": "Feature",
            "geometry": {
                "type": "Point",
                "coordinates": [
                    18.57701,
                    49.94908
                ]
            },
            "properties": {
                "ref:rspo": 26455,
                "official_name": "Zesp\u00f3\u0142 Szk\u00f3\u0142 nr 9 Specjalnych im. Dr Miko\u0142aja Witczaka",
                "name": "Zesp\u00f3\u0142 Szk\u00f3\u0142 nr 9 Specjalnych",
                "addr:postcode": "44-330",
                "addr:city": "Jastrz\u0119bie-Zdr\u00f3j",
                "addr:street": "11 Listopada",
                "addr:housenumber": "4",
                "addr:city:simc": 940163,
                "addr:street:sym_ul": 11205,
                "phone": "+48 324761389",
                "email": "poczta@zssp9.jastrzebie.pl",
                "website": "http:\/\/www.zssp9.jastrzebie.pl",
                "ref:regon": "000835905",
                "ref:vatin": "PL6331807627",
                "operator": "Jastrz\u0119bie-Zdr\u00f3j - Miasto Na Prawach Powiatu",
                "operator:type": "government",
                "landuse": "education",
                "fixme": "amenity=school, amenity=college albo landuse=education w zale\u017cno\u015bci od tego, jakie plac\u00f3wki wchodz\u0105 w sk\u0142ad zespo\u0142u. Sprawd\u017a, kiedy stosowa\u0107 amenity=* a kiedy landuse=education.",
                "note": "Children RSPO: 108725;108729;108749;272834"
            }
        },
        {
            "id": 108725,
            "type": "Feature",
            "geometry": {
                "type": "Point",
                "coordinates": [
                    18.57701,
                    49.94905
                ]
            },
            "properties": {
                "isced:level": "1;2",
                "ref:rspo": 108725,
                "official_name": "Szko\u0142a Podstawowa nr 22 Specjalna",
                "name": "Szko\u0142a Podstawowa nr 22 Specjalna",
                "addr:postcode": "44-330",
                "addr:city": "Jastrz\u0119bie-Zdr\u00f3j",
                "addr:street": "11 Listopada",
                "addr:housenumber": "4",
                "addr:city:simc": 940163,
                "addr:street:sym_ul": 11205,
                "phone": "+48 324761389",
                "email": "poczta@zssp9.jastrzebie.pl",
                "website": "http:\/\/www.zssp9.jastrzebie.pl",
                "ref:regon": "000728782",
                "ref:vatin": "PL6331807627",
                "operator": "Jastrz\u0119bie-Zdr\u00f3j - Miasto Na Prawach Powiatu",
                "operator:type": "government",
                "amenity": "school",
                "note": "Parent RSPO: 26455"
            }
        },
        {
            "id": 108729,
            "type": "Feature",
            "geometry": {
                "type": "Point",
                "coordinates": [
                    18.57701,
                    49.949020000000004
                ]
            },
            "properties": {
                "isced:level": "3",
                "ref:rspo": 108729,
                "official_name": "Bran\u017cowa Szko\u0142a I Stopnia nr 4 Specjalna",
                "name": "Bran\u017cowa Szko\u0142a I Stopnia nr 4 Specjalna",
                "addr:postcode": "44-330",
                "addr:city": "Jastrz\u0119bie-Zdr\u00f3j",
                "addr:street": "11 Listopada",
                "addr:housenumber": "4",
                "addr:city:simc": 940163,
                "addr:street:sym_ul": 11205,
                "phone": "+48 324761389",
                "email": "poczta@zssp9.jastrzebie.pl",
                "website": "http:\/\/www.zssp9.jastrzebie.pl",
                "ref:regon": "000837287",
                "ref:vatin": "PL6331807627",
                "operator": "Jastrz\u0119bie-Zdr\u00f3j - Miasto Na Prawach Powiatu",
                "operator:type": "government",
                "amenity": "school",
                "note": "Parent RSPO: 26455"
            }
        },
        {
            "id": 108749,
            "type": "Feature",
            "geometry": {
                "type": "Point",
                "coordinates": [
                    18.57701,
                    49.94899
                ]
            },
            "properties": {
                "ref:rspo": 108749,
                "official_name": "Szko\u0142a Specjalna Przysposabiaj\u0105ca do Pracy",
                "name": "Szko\u0142a Specjalna Przysposabiaj\u0105ca do Pracy",
                "addr:postcode": "44-330",
                "addr:city": "Jastrz\u0119bie-Zdr\u00f3j",
                "addr:street": "11 Listopada",
                "addr:housenumber": "4",
                "addr:city:simc": 940163,
                "addr:street:sym_ul": 11205,
                "phone": "+48 324761389",
                "email": "poczta@zssp9.jastrzebie.pl",
                "website": "http:\/\/www.zssp9.jastrzebie.pl",
                "ref:regon": "278276933",
                "ref:vatin": "PL6331807627",
                "operator": "Jastrz\u0119bie-Zdr\u00f3j - Miasto Na Prawach Powiatu",
                "operator:type": "government",
                "amenity": "school",
                "note": "Parent RSPO: 26455"
            }
        },
        {
            "id": 272834,
            "type": "Feature",
            "geometry": {
                "type": "Point",
                "coordinates": [
                    18.57701,
                    49.94896
                ]
            },
            "properties": {
                "isced:level": "3",
                "ref:rspo": 272834,
                "official_name": "Technikum Specjalne nr 6",
                "name": "Technikum Specjalne nr 6",
                "addr:postcode": "44-330",
                "addr:city": "Jastrz\u0119bie-Zdr\u00f3j",
                "addr:street": "11 Listopada",
                "addr:housenumber": "4",
                "addr:city:simc": 940163,
                "addr:street:sym_ul": 11205,
                "phone": "+48 324761389",
                "email": "poczta@zssp9.jastrzebie.pl",
                "website": "http:\/\/zssp9.jastrzebie.pl",
                "ref:regon": "384303102",
                "ref:vatin": "PL6331807627",
                "operator": "Jastrz\u0119bie-Zdr\u00f3j - Miasto Na Prawach Powiatu",
                "operator:type": "government",
                "amenity": "school",
                "note": "Parent RSPO: 26455"
            }
        },
        {
            "id": 131833,
            "type": "Feature",
            "geometry": {
                "type": "Point",
                "coordinates": [
                    18.60858,
                    49.94933
                ]
            },
            "properties": {
                "ref:rspo": 131833,
                "official_name": "Przedsi\u0119biorstwo Us\u0142ugowo-Szkoleniowe Zak\u0142ad Szkolenia",
                "name": "Przedsi\u0119biorstwo Us\u0142ugowo-Szkoleniowe Zak\u0142ad Szkolenia",
                "addr:postcode": "44-335",
                "addr:city": "Jastrz\u0119bie-Zdr\u00f3j",
                "addr:street": "Zielona",
                "addr:housenumber": "16A",
                "addr:city:simc": 940163,
                "addr:street:sym_ul": 26081,
                "phone": "+48 600854652",
                "email": "b.donder@wp.pl",
                "ref:regon": "365364475",
                "operator": "Donder Bernadeta Przedsi\u0119biorstwo Us\u0142ugowo-Szkoleniowe",
                "operator:type": "consortium",
                "fixme": "w zale\u017cno\u015bci od przedmiotu dzia\u0142alno\u015bci (np. amenity=training + training=*, amenity=dancing_school, amenity=language_school, amenity=music_school)"
            }
        },
        {
            "id": 44649,
            "type": "Feature",
            "geometry": {
                "type": "Point",
                "coordinates": [
                    18.61924,
                    49.94954
                ]
            },
            "properties": {
                "isced:level": "1;2",
                "ref:rspo": 44649,
                "official_name": "Szko\u0142a Podstawowa nr 12 im. Jerzego Kukuczki",
                "name": "Szko\u0142a Podstawowa nr 12",
                "addr:postcode": "44-335",
                "addr:city": "Jastrz\u0119bie-Zdr\u00f3j",
                "addr:street": "Szkolna",
                "addr:housenumber": "7",
                "addr:city:simc": 940163,
                "addr:street:sym_ul": 21970,
                "phone": "+48 324710126",
                "email": "poczta@sp12.jastrzebie.pl",
                "website": "http:\/\/www.sp12jastrzebie.szkolnastrona.pl",
                "ref:regon": "000728670",
                "ref:vatin": "PL6332027908",
                "operator": "Jastrz\u0119bie-Zdr\u00f3j - Miasto Na Prawach Powiatu",
                "operator:type": "government",
                "amenity": "school"
            }
        },
        {
            "id": 44054,
            "type": "Feature",
            "geometry": {
                "type": "Point",
                "coordinates": [
                    18.6003599,
                    49.94955
                ]
            },
            "properties": {
                "isced:level": "1;2",
                "ref:rspo": 44054,
                "official_name": "Szko\u0142a Podstawowa nr 6 im. Janusza Korczaka",
                "name": "Szko\u0142a Podstawowa nr 6",
                "addr:postcode": "44-335",
                "addr:city": "Jastrz\u0119bie-Zdr\u00f3j",
                "addr:street": "\u015al\u0105ska",
                "addr:housenumber": "6",
                "addr:city:simc": 940163,
                "addr:street:sym_ul": 22308,
                "phone": "+48 324715633",
                "email": "poczta@sp6.jastrzebie.pl",
                "website": "http:\/\/www.sp6.jastrzebie.pl",
                "ref:regon": "000728612",
                "ref:vatin": "PL6332013013",
                "operator": "Jastrz\u0119bie-Zdr\u00f3j - Miasto Na Prawach Powiatu",
                "operator:type": "government",
                "amenity": "school"
            }
        },
        {
            "id": 133585,
            "type": "Feature",
            "geometry": {
                "type": "Point",
                "coordinates": [
                    18.6003599,
                    49.94952
                ]
            },
            "properties": {
                "ref:rspo": 133585,
                "official_name": "\"Og\u00f3lnopolskie Centrum Bezpiecze\u0144stwa\" Niepubliczna Plac\u00f3wka Kszta\u0142cenia Ustawicznego I Praktycznego",
                "name": "\"Og\u00f3lnopolskie Centrum Bezpiecze\u0144stwa\" Niepubliczna Plac\u00f3wka Kszta\u0142cenia Ustawicznego I Praktycznego",
                "addr:postcode": "44-335",
                "addr:city": "Jastrz\u0119bie-Zdr\u00f3j",
                "addr:street": "\u015al\u0105ska",
                "addr:housenumber": "6",
                "addr:city:simc": 940163,
                "addr:street:sym_ul": 22308,
                "phone": "+48 697501089",
                "email": "biuro@bezpieczniewfirmie.pl",
                "website": "http:\/\/bezpieczniewfirmie.pl",
                "ref:regon": "367443760",
                "ref:vatin": "PL6332030980",
                "operator": "Faryna Marcin \"Far-Med\"",
                "operator:type": "consortium",
                "fixme": "w zale\u017cno\u015bci od przedmiotu dzia\u0142alno\u015bci (np. amenity=training + training=*, amenity=dancing_school, amenity=language_school, amenity=music_school)"
            }
        },
        {
            "id": 30260,
            "type": "Feature",
            "geometry": {
                "type": "Point",
                "coordinates": [
                    18.58128,
                    49.94959
                ]
            },
            "properties": {
                "ref:rspo": 30260,
                "official_name": "Zesp\u00f3\u0142 Szk\u00f3\u0142 Zawodowych",
                "name": "Zesp\u00f3\u0142 Szk\u00f3\u0142 Zawodowych",
                "addr:postcode": "44-330",
                "addr:city": "Jastrz\u0119bie-Zdr\u00f3j",
                "addr:street": "11 Listopada",
                "addr:housenumber": "45",
                "addr:city:simc": 940163,
                "addr:street:sym_ul": 11205,
                "phone": "+48 324762071",
                "email": "poczta@zsz.jastrzebie.pl",
                "website": "http:\/\/www.zsz.jastrzebie.pl",
                "ref:regon": "273067490",
                "ref:vatin": "PL6331838237",
                "operator": "Jastrz\u0119bie-Zdr\u00f3j - Miasto Na Prawach Powiatu",
                "operator:type": "government",
                "landuse": "education",
                "fixme": "amenity=school, amenity=college albo landuse=education w zale\u017cno\u015bci od tego, jakie plac\u00f3wki wchodz\u0105 w sk\u0142ad zespo\u0142u. Sprawd\u017a, kiedy stosowa\u0107 amenity=* a kiedy landuse=education.",
                "note": "Children RSPO: 109063;109890;276152"
            }
        },
        {
            "id": 109063,
            "type": "Feature",
            "geometry": {
                "type": "Point",
                "coordinates": [
                    18.58128,
                    49.94956
                ]
            },
            "properties": {
                "isced:level": "3",
                "ref:rspo": 109063,
                "official_name": "Bran\u017cowa Szko\u0142a I Stopnia nr 3 im. Porozumienia Jastrz\u0119bskiego",
                "name": "Bran\u017cowa Szko\u0142a I Stopnia nr 3",
                "addr:postcode": "44-330",
                "addr:city": "Jastrz\u0119bie-Zdr\u00f3j",
                "addr:street": "11 Listopada",
                "addr:housenumber": "45",
                "addr:city:simc": 940163,
                "addr:street:sym_ul": 11205,
                "phone": "+48 324762071",
                "email": "poczta@zsz.jastrzebie.pl",
                "website": "http:\/\/www.zsz.jastrzebie.pl",
                "ref:regon": "000695500",
                "ref:vatin": "PL6331838237",
                "operator": "Jastrz\u0119bie-Zdr\u00f3j - Miasto Na Prawach Powiatu",
                "operator:type": "government",
                "amenity": "school",
                "note": "Parent RSPO: 30260"
            }
        },
        {
            "id": 109890,
            "type": "Feature",
            "geometry": {
                "type": "Point",
                "coordinates": [
                    18.58128,
                    49.94953
                ]
            },
            "properties": {
                "isced:level": "3",
                "ref:rspo": 109890,
                "official_name": "Technikum nr 5",
                "name": "Technikum nr 5",
                "addr:postcode": "44-330",
                "addr:city": "Jastrz\u0119bie-Zdr\u00f3j",
                "addr:street": "11 Listopada",
                "addr:housenumber": "45",
                "addr:city:simc": 940163,
                "addr:street:sym_ul": 11205,
                "phone": "+48 324762071",
                "email": "poczta@zsz.jastrzebie.pl",
                "website": "http:\/\/www.zsz.jastrzebie.pl",
                "ref:regon": "240721802",
                "ref:vatin": "PL6331838237",
                "operator": "Jastrz\u0119bie-Zdr\u00f3j - Miasto Na Prawach Powiatu",
                "operator:type": "government",
                "amenity": "school",
                "note": "Parent RSPO: 30260"
            }
        },
        {
            "id": 276152,
            "type": "Feature",
            "geometry": {
                "type": "Point",
                "coordinates": [
                    18.58128,
                    49.9495
                ]
            },
            "properties": {
                "isced:level": "3",
                "ref:rspo": 276152,
                "official_name": "Bran\u017cowa Szko\u0142a II Stopnia nr 1",
                "name": "Bran\u017cowa Szko\u0142a II Stopnia nr 1",
                "addr:postcode": "44-335",
                "addr:city": "Jastrz\u0119bie-Zdr\u00f3j",
                "addr:street": "11 Listopada",
                "addr:housenumber": "45",
                "addr:city:simc": 940163,
                "addr:street:sym_ul": 11205,
                "phone": "+48 324762071",
                "email": "poczta@zsz.jastrzebie.pl",
                "website": "http:\/\/www.zsz.jastrzebie.pl",
                "ref:regon": "387004920",
                "operator": "Jastrz\u0119bie-Zdr\u00f3j - Miasto Na Prawach Powiatu",
                "operator:type": "government",
                "amenity": "school",
                "note": "Parent RSPO: 30260"
            }
        },
        {
            "id": 24208,
            "type": "Feature",
            "geometry": {
                "type": "Point",
                "coordinates": [
                    18.6077,
                    49.94968
                ]
            },
            "properties": {
                "ref:rspo": 24208,
                "official_name": "Publiczne Przedszkole nr 17 Imienia Majki Je\u017cowskiej",
                "name": "Publiczne Przedszkole nr 17 Imienia Majki Je\u017cowskiej",
                "addr:postcode": "44-335",
                "addr:city": "Jastrz\u0119bie-Zdr\u00f3j",
                "addr:street": "Miodowa",
                "addr:housenumber": "6",
                "addr:city:simc": 940163,
                "addr:street:sym_ul": 12991,
                "phone": "+48 324712204",
                "email": "poczta@pp17.jastrzebie.pl",
                "website": "http:\/\/www.pp17.webd.pl",
                "ref:regon": "272001030",
                "ref:vatin": "PL6332027742",
                "operator": "Jastrz\u0119bie-Zdr\u00f3j - Miasto Na Prawach Powiatu",
                "operator:type": "government",
                "amenity": "kindergarten"
            }
        },
        {
            "id": 24281,
            "type": "Feature",
            "geometry": {
                "type": "Point",
                "coordinates": [
                    18.57422,
                    49.9497
                ]
            },
            "properties": {
                "ref:rspo": 24281,
                "official_name": "Publiczne Przedszkole nr 23",
                "name": "Publiczne Przedszkole nr 23",
                "addr:postcode": "44-330",
                "addr:city": "Jastrz\u0119bie-Zdr\u00f3j",
                "addr:street": "1 Maja",
                "addr:housenumber": "3",
                "addr:door": "A",
                "addr:city:simc": 940163,
                "addr:street:sym_ul": 11926,
                "phone": "+48 324762348",
                "email": "poczta@pp23.jastrzebie.pl",
                "website": "http:\/\/www.pp23",
                "ref:regon": "272001098",
                "ref:vatin": "PL6332027802",
                "operator": "Jastrz\u0119bie-Zdr\u00f3j - Miasto Na Prawach Powiatu",
                "operator:type": "government",
                "amenity": "kindergarten"
            }
        },
        {
            "id": 276156,
            "type": "Feature",
            "geometry": {
                "type": "Point",
                "coordinates": [
                    18.57452,
                    49.94985
                ]
            },
            "properties": {
                "ref:rspo": 276156,
                "official_name": "Niepubliczne Przedszkole Terapeutyczne \"Na Majowej\"",
                "name": "Niepubliczne Przedszkole Terapeutyczne \"Na Majowej\"",
                "addr:postcode": "44-335",
                "addr:city": "Jastrz\u0119bie-Zdr\u00f3j",
                "addr:street": "1 Maja",
                "addr:housenumber": "1a",
                "addr:city:simc": 940163,
                "addr:street:sym_ul": 11926,
                "phone": "+48 531054045",
                "email": "przedszkole@namajowej.pl",
                "ref:regon": "387005658",
                "operator": "Lucyna Kubaszczyk",
                "operator:type": "private",
                "amenity": "kindergarten"
            }
        },
        {
            "id": 107663,
            "type": "Feature",
            "geometry": {
                "type": "Point",
                "coordinates": [
                    18.60635,
                    49.95043
                ]
            },
            "properties": {
                "ref:rspo": 107663,
                "official_name": "Tower Szko\u0142a J\u0119zyka Angielskiego Piotr Dyrda",
                "name": "Tower Szko\u0142a J\u0119zyka Angielskiego Piotr Dyrda",
                "addr:postcode": "44-335",
                "addr:city": "Jastrz\u0119bie-Zdr\u00f3j",
                "addr:street": "Harcerska",
                "addr:housenumber": "2a",
                "addr:city:simc": 940163,
                "addr:street:sym_ul": 6523,
                "phone": "+48 693543737",
                "email": "piotr@towerschool.pl",
                "website": "http:\/\/www.towerschool.pl",
                "ref:regon": "243168808",
                "ref:vatin": "PL6511337459",
                "operator": "Piotr Dyrda",
                "operator:type": "private",
                "fixme": "w zale\u017cno\u015bci od przedmiotu dzia\u0142alno\u015bci (np. amenity=training + training=*, amenity=dancing_school, amenity=language_school, amenity=music_school)"
            }
        },
        {
            "id": 63412,
            "type": "Feature",
            "geometry": {
                "type": "Point",
                "coordinates": [
                    18.61019,
                    49.95064
                ]
            },
            "properties": {
                "ref:rspo": 63412,
                "official_name": "Mi\u0119dzyszkolny O\u015brodek Sportowy",
                "name": "Mi\u0119dzyszkolny O\u015brodek Sportowy",
                "addr:postcode": "44-335",
                "addr:city": "Jastrz\u0119bie-Zdr\u00f3j",
                "addr:street": "Harcerska",
                "addr:housenumber": "14b",
                "addr:city:simc": 940163,
                "addr:street:sym_ul": 6523,
                "phone": "+48 324714466",
                "email": "poczta@mos.jastrzebie.pl",
                "website": "http:\/\/www.mos.jastrzebie.pl",
                "ref:regon": "271446970",
                "ref:vatin": "PL6331821604",
                "operator": "Jastrz\u0119bie-Zdr\u00f3j - Miasto Na Prawach Powiatu",
                "operator:type": "government",
                "leisure": "sports_centre"
            }
        },
        {
            "id": 104942,
            "type": "Feature",
            "geometry": {
                "type": "Point",
                "coordinates": [
                    18.57688,
                    49.95078
                ]
            },
            "properties": {
                "ref:rspo": 104942,
                "official_name": "Firma Handlowo-Us\u0142ugowa A Priori",
                "name": "Firma Handlowo-Us\u0142ugowa A Priori",
                "addr:postcode": "44-330",
                "addr:city": "Jastrz\u0119bie-Zdr\u00f3j",
                "addr:street": "11 Listopada",
                "addr:housenumber": "9",
                "addr:city:simc": 940163,
                "addr:street:sym_ul": 11205,
                "phone": "+48 324700581",
                "email": "dzialszkolen@fhuapriori.pl",
                "website": "http:\/\/www.fhuapriori.pl",
                "ref:regon": "243132526",
                "ref:vatin": "PL6331014631",
                "operator": "Agnieszka Zab\u0142ocka",
                "operator:type": "private",
                "fixme": "w zale\u017cno\u015bci od przedmiotu dzia\u0142alno\u015bci (np. amenity=training + training=*, amenity=dancing_school, amenity=language_school, amenity=music_school)"
            }
        },
        {
            "id": 91369,
            "type": "Feature",
            "geometry": {
                "type": "Point",
                "coordinates": [
                    18.59869,
                    49.9508
                ]
            },
            "properties": {
                "isced:level": "3",
                "ref:rspo": 91369,
                "official_name": "Liceum Og\u00f3lnokszta\u0142c\u0105ce dla Doros\u0142ych \"\u017bak\" w Jastrz\u0119biu-Zdroju",
                "name": "Liceum Og\u00f3lnokszta\u0142c\u0105ce dla Doros\u0142ych \"\u017bak\" w Jastrz\u0119biu-Zdroju",
                "addr:postcode": "44-335",
                "addr:city": "Jastrz\u0119bie-Zdr\u00f3j",
                "addr:street": "Aleja J\u00f3zefa Pi\u0142sudskiego",
                "addr:housenumber": "25",
                "addr:city:simc": 940163,
                "addr:street:sym_ul": 43602,
                "phone": "+48 324704092",
                "email": "jastrzebiezdroj@zak.edu.pl",
                "website": "http:\/\/www.zak.edu.pl",
                "ref:regon": "243114913",
                "ref:vatin": "PL7292597869",
                "operator": "Centrum Nauki I Biznesu \"\u017bak\" Sp\u00f3\u0142ka Z Ograniczon\u0105 Odpowiedzialno\u015bci\u0105",
                "operator:type": "private",
                "amenity": "school"
            }
        },
        {
            "id": 91385,
            "type": "Feature",
            "geometry": {
                "type": "Point",
                "coordinates": [
                    18.59869,
                    49.95077
                ]
            },
            "properties": {
                "isced:level": "4",
                "ref:rspo": 91385,
                "official_name": "Szko\u0142a Policealna Bezpiecze\u0144stwa I Higieny Pracy \"\u017bak\"",
                "name": "Szko\u0142a Policealna Bezpiecze\u0144stwa I Higieny Pracy \"\u017bak\"",
                "addr:postcode": "44-335",
                "addr:city": "Jastrz\u0119bie-Zdr\u00f3j",
                "addr:street": "Aleja J\u00f3zefa Pi\u0142sudskiego",
                "addr:housenumber": "25",
                "addr:city:simc": 940163,
                "addr:street:sym_ul": 43602,
                "phone": "+48 324704092",
                "email": "jastrzebiezdroj@zak.edu.pl",
                "website": "http:\/\/www.zak.edu.pl",
                "ref:regon": "243114936",
                "ref:vatin": "PL7292597869",
                "operator": "Centrum Nauki I Biznesu \"\u017bak\" Sp\u00f3\u0142ka Z Ograniczon\u0105 Odpowiedzialno\u015bci\u0105",
                "operator:type": "private",
                "amenity": "college"
            }
        },
        {
            "id": 92163,
            "type": "Feature",
            "geometry": {
                "type": "Point",
                "coordinates": [
                    18.59869,
                    49.95074
                ]
            },
            "properties": {
                "isced:level": "4",
                "ref:rspo": 92163,
                "official_name": "Szko\u0142a Policealna Centrum Nauki I Biznesu \"\u017bak\"",
                "name": "Szko\u0142a Policealna Centrum Nauki I Biznesu \"\u017bak\"",
                "addr:postcode": "44-335",
                "addr:city": "Jastrz\u0119bie-Zdr\u00f3j",
                "addr:street": "Aleja J\u00f3zefa Pi\u0142sudskiego",
                "addr:housenumber": "25",
                "addr:city:simc": 940163,
                "addr:street:sym_ul": 43602,
                "phone": "+48 324704092",
                "email": "jastrzebiezdroj@zak.edu.pl",
                "website": "http:\/\/www.zak.edu.pl",
                "ref:regon": "243118450",
                "ref:vatin": "PL7292597869",
                "operator": "Centrum Nauki I Biznesu \"\u017bak\" Sp\u00f3\u0142ka Z Ograniczon\u0105 Odpowiedzialno\u015bci\u0105",
                "operator:type": "private",
                "amenity": "college"
            }
        },
        {
            "id": 92173,
            "type": "Feature",
            "geometry": {
                "type": "Point",
                "coordinates": [
                    18.59869,
                    49.95071
                ]
            },
            "properties": {
                "ref:rspo": 92173,
                "official_name": "O\u015brodek Szkoleniowy Centrum Nauki I Biznesu \"\u017bak\" w Jastrz\u0119biu-Zdroju",
                "name": "O\u015brodek Szkoleniowy Centrum Nauki I Biznesu \"\u017bak\" w Jastrz\u0119biu-Zdroju",
                "addr:postcode": "44-335",
                "addr:city": "Jastrz\u0119bie-Zdr\u00f3j",
                "addr:street": "Aleja J\u00f3zefa Pi\u0142sudskiego",
                "addr:housenumber": "25",
                "addr:city:simc": 940163,
                "addr:street:sym_ul": 43602,
                "phone": "+48 324704092",
                "email": "jastrzebiezdroj@zak.edu.pl",
                "website": "http:\/\/www.zak.edu.pl",
                "ref:regon": "243118443",
                "ref:vatin": "PL7292597869",
                "operator": "Centrum Nauki I Biznesu \"\u017bak\" Sp\u00f3\u0142ka Z Ograniczon\u0105 Odpowiedzialno\u015bci\u0105",
                "operator:type": "private",
                "fixme": "w zale\u017cno\u015bci od przedmiotu dzia\u0142alno\u015bci (np. amenity=training + training=*, amenity=dancing_school, amenity=language_school, amenity=music_school) albo amenity=school, amenity=college, albo landuse=education w zale\u017cno\u015bci od tego, jakie plac\u00f3wki wchodz\u0105 w sk\u0142ad zespo\u0142u. Sprawd\u017a, kiedy stosowa\u0107 amenity=* a kiedy landuse=education."
            }
        },
        {
            "id": 130152,
            "type": "Feature",
            "geometry": {
                "type": "Point",
                "coordinates": [
                    18.59869,
                    49.95068
                ]
            },
            "properties": {
                "isced:level": "4",
                "ref:rspo": 130152,
                "official_name": "Szko\u0142a Policealna Medyczna \"\u017bak\" w Jastrz\u0119biu-Zdroju",
                "name": "Szko\u0142a Policealna Medyczna \"\u017bak\" w Jastrz\u0119biu-Zdroju",
                "addr:postcode": "44-335",
                "addr:city": "Jastrz\u0119bie-Zdr\u00f3j",
                "addr:street": "Aleja J\u00f3zefa Pi\u0142sudskiego",
                "addr:housenumber": "25",
                "addr:city:simc": 940163,
                "addr:street:sym_ul": 43602,
                "phone": "+48 324704092",
                "email": "jastrzebiezdroj@zak.edu.pl",
                "website": "http:\/\/www.zak.edu.pl",
                "ref:regon": "363542547",
                "ref:vatin": "PL7292597869",
                "operator": "Centrum Nauki I Biznesu \"\u017bak\" Sp\u00f3\u0142ka Z Ograniczon\u0105 Odpowiedzialno\u015bci\u0105",
                "operator:type": "private",
                "amenity": "college"
            }
        },
        {
            "id": 130153,
            "type": "Feature",
            "geometry": {
                "type": "Point",
                "coordinates": [
                    18.59869,
                    49.95065
                ]
            },
            "properties": {
                "isced:level": "4",
                "ref:rspo": 130153,
                "official_name": "Szko\u0142a Policealna Opieki Medycznej \"\u017bak\" w Jastrz\u0119biu-Zdroju",
                "name": "Szko\u0142a Policealna Opieki Medycznej \"\u017bak\" w Jastrz\u0119biu-Zdroju",
                "addr:postcode": "44-335",
                "addr:city": "Jastrz\u0119bie-Zdr\u00f3j",
                "addr:street": "Aleja J\u00f3zefa Pi\u0142sudskiego",
                "addr:housenumber": "25",
                "addr:city:simc": 940163,
                "addr:street:sym_ul": 43602,
                "phone": "+48 324704092",
                "email": "jastrzebiezdroj@zak.edu.pl",
                "website": "http:\/\/www.zak.edu.pl",
                "ref:regon": "363542435",
                "ref:vatin": "PL7292597869",
                "operator": "Centrum Nauki I Biznesu \"\u017bak\" Sp\u00f3\u0142ka Z Ograniczon\u0105 Odpowiedzialno\u015bci\u0105",
                "operator:type": "private",
                "amenity": "college"
            }
        },
        {
            "id": 89796,
            "type": "Feature",
            "geometry": {
                "type": "Point",
                "coordinates": [
                    18.57416,
                    49.95117
                ]
            },
            "properties": {
                "isced:level": "3",
                "ref:rspo": 89796,
                "official_name": "Liceum Og\u00f3lnokszta\u0142c\u0105ce Teb Edukacja dla Doros\u0142ych",
                "name": "Liceum Og\u00f3lnokszta\u0142c\u0105ce Teb Edukacja dla Doros\u0142ych",
                "addr:postcode": "44-335",
                "addr:city": "Jastrz\u0119bie-Zdr\u00f3j",
                "addr:street": "Zdrojowa",
                "addr:housenumber": "5",
                "addr:city:simc": 940163,
                "addr:street:sym_ul": 25944,
                "phone": "+48 324731108",
                "email": "jastrzebie@teb.pl",
                "website": "http:\/\/www.teb.pl",
                "ref:regon": "243106842",
                "ref:vatin": "PL7781456499",
                "operator": "Teb Edukacja Sp\u00f3\u0142ka Z Ograniczon\u0105 Odpowiedzialno\u015bci\u0105",
                "operator:type": "private",
                "amenity": "school"
            }
        },
        {
            "id": 89842,
            "type": "Feature",
            "geometry": {
                "type": "Point",
                "coordinates": [
                    18.57416,
                    49.951139999999995
                ]
            },
            "properties": {
                "isced:level": "4",
                "ref:rspo": 89842,
                "official_name": "Medyczna Szko\u0142a Policealna Teb Edukacja w Jastrz\u0119biu-Zdroju",
                "name": "Medyczna Szko\u0142a Policealna Teb Edukacja w Jastrz\u0119biu-Zdroju",
                "addr:postcode": "44-335",
                "addr:city": "Jastrz\u0119bie-Zdr\u00f3j",
                "addr:street": "Zdrojowa",
                "addr:housenumber": "5",
                "addr:city:simc": 940163,
                "addr:street:sym_ul": 25944,
                "phone": "+48 324731108",
                "email": "jastrzebie@teb.pl",
                "website": "http:\/\/www.teb.pl",
                "ref:regon": "243106799",
                "ref:vatin": "PL7781456499",
                "operator": "Teb Edukacja Sp\u00f3\u0142ka Z Ograniczon\u0105 Odpowiedzialno\u015bci\u0105",
                "operator:type": "private",
                "amenity": "college"
            }
        },
        {
            "id": 89892,
            "type": "Feature",
            "geometry": {
                "type": "Point",
                "coordinates": [
                    18.57416,
                    49.95111
                ]
            },
            "properties": {
                "isced:level": "4",
                "ref:rspo": 89892,
                "official_name": "Niepubliczna Szko\u0142a Policealna Teb Edukacja w Jastrz\u0119biu-Zdroju",
                "name": "Niepubliczna Szko\u0142a Policealna Teb Edukacja w Jastrz\u0119biu-Zdroju",
                "addr:postcode": "44-335",
                "addr:city": "Jastrz\u0119bie-Zdr\u00f3j",
                "addr:street": "Zdrojowa",
                "addr:housenumber": "5",
                "addr:city:simc": 940163,
                "addr:street:sym_ul": 25944,
                "phone": "+48 324731108",
                "email": "jastrzebie@teb.pl",
                "website": "http:\/\/www.teb.pl",
                "ref:regon": "243108114",
                "ref:vatin": "PL7781456499",
                "operator": "Teb Edukacja Sp\u00f3\u0142ka Z Ograniczon\u0105 Odpowiedzialno\u015bci\u0105",
                "operator:type": "private",
                "amenity": "college"
            }
        },
        {
            "id": 91359,
            "type": "Feature",
            "geometry": {
                "type": "Point",
                "coordinates": [
                    18.57416,
                    49.95108
                ]
            },
            "properties": {
                "isced:level": "3",
                "ref:rspo": 91359,
                "official_name": "Technikum Teb Edukacja w Jastrz\u0119biu-Zdroju",
                "name": "Technikum Teb Edukacja w Jastrz\u0119biu-Zdroju",
                "addr:postcode": "44-335",
                "addr:city": "Jastrz\u0119bie-Zdr\u00f3j",
                "addr:street": "Zdrojowa",
                "addr:housenumber": "5",
                "addr:city:simc": 940163,
                "addr:street:sym_ul": 25944,
                "phone": "+48 324731108",
                "email": "jastrzebie@teb.pl",
                "website": "http:\/\/www.teb.pl",
                "ref:regon": "243113842",
                "ref:vatin": "PL7781456499",
                "operator": "Teb Edukacja Sp\u00f3\u0142ka Z Ograniczon\u0105 Odpowiedzialno\u015bci\u0105",
                "operator:type": "private",
                "amenity": "school"
            }
        },
        {
            "id": 127115,
            "type": "Feature",
            "geometry": {
                "type": "Point",
                "coordinates": [
                    18.57416,
                    49.951049999999995
                ]
            },
            "properties": {
                "ref:rspo": 127115,
                "official_name": "Niepubliczna Plac\u00f3wka Kszta\u0142cenia Ustawicznego Teb Edukacja",
                "name": "Niepubliczna Plac\u00f3wka Kszta\u0142cenia Ustawicznego Teb Edukacja",
                "addr:postcode": "44-335",
                "addr:city": "Jastrz\u0119bie-Zdr\u00f3j",
                "addr:street": "Zdrojowa",
                "addr:housenumber": "5",
                "addr:city:simc": 940163,
                "addr:street:sym_ul": 25944,
                "phone": "+48 324731108",
                "email": "jastrzebie@teb.pl",
                "website": "http:\/\/www.teb.pl",
                "ref:regon": "361123310",
                "ref:vatin": "PL7781456499",
                "operator": "Teb Edukacja Sp\u00f3\u0142ka Z Ograniczon\u0105 Odpowiedzialno\u015bci\u0105",
                "operator:type": "private",
                "fixme": "w zale\u017cno\u015bci od przedmiotu dzia\u0142alno\u015bci (np. amenity=training + training=*, amenity=dancing_school, amenity=language_school, amenity=music_school)"
            }
        },
        {
            "id": 277951,
            "type": "Feature",
            "geometry": {
                "type": "Point",
                "coordinates": [
                    18.57416,
                    49.95102
                ]
            },
            "properties": {
                "isced:level": "3",
                "ref:rspo": 277951,
                "official_name": "Liceum Og\u00f3lnokszta\u0142c\u0105ce Teb Edukacja w Jastrz\u0119biu-Zdroju",
                "name": "Liceum Og\u00f3lnokszta\u0142c\u0105ce Teb Edukacja w Jastrz\u0119biu-Zdroju",
                "addr:postcode": "44-335",
                "addr:city": "Jastrz\u0119bie-Zdr\u00f3j",
                "addr:street": "Zdrojowa",
                "addr:housenumber": "5",
                "addr:city:simc": 940163,
                "addr:street:sym_ul": 25944,
                "phone": "+48 324731108",
                "email": "jastrzebie@teb-edukacja.pl",
                "ref:regon": "389701646",
                "operator": "Teb Edukacja Sp\u00f3\u0142ka Z Ograniczon\u0105 Odpowiedzialno\u015bci\u0105",
                "operator:type": "private",
                "amenity": "school"
            }
        },
        {
            "id": 44547,
            "type": "Feature",
            "geometry": {
                "type": "Point",
                "coordinates": [
                    18.60819,
                    49.95133
                ]
            },
            "properties": {
                "isced:level": "1;2",
                "ref:rspo": 44547,
                "official_name": "Szko\u0142a Podstawowa nr 10 im. Marii Sk\u0142odowskiej-Curie",
                "name": "Szko\u0142a Podstawowa nr 10",
                "addr:postcode": "44-335",
                "addr:city": "Jastrz\u0119bie-Zdr\u00f3j",
                "addr:street": "Zielona",
                "addr:housenumber": "2a",
                "addr:city:simc": 940163,
                "addr:street:sym_ul": 26081,
                "phone": "+48 324713988",
                "email": "poczta@sp10.jastrzebie.pl",
                "website": "http:\/\/www.sp10.jastrzebie.pl",
                "ref:regon": "000728658",
                "ref:vatin": "PL6332013504",
                "operator": "Jastrz\u0119bie-Zdr\u00f3j - Miasto Na Prawach Powiatu",
                "operator:type": "government",
                "amenity": "school"
            }
        },
        {
            "id": 26338,
            "type": "Feature",
            "geometry": {
                "type": "Point",
                "coordinates": [
                    18.61124,
                    49.95144
                ]
            },
            "properties": {
                "ref:rspo": 26338,
                "official_name": "Zesp\u00f3\u0142 Szk\u00f3\u0142 nr 6 im. Kr\u00f3la Jana III Sobieskiego",
                "name": "Zesp\u00f3\u0142 Szk\u00f3\u0142 nr 6",
                "addr:postcode": "44-335",
                "addr:city": "Jastrz\u0119bie-Zdr\u00f3j",
                "addr:street": "Harcerska",
                "addr:housenumber": "12",
                "addr:city:simc": 940163,
                "addr:street:sym_ul": 6523,
                "phone": "+48 324717264",
                "email": "szkola@zs6sobieski.edu.pl",
                "website": "http:\/\/www.zs6sobieski.pl",
                "ref:regon": "000835408",
                "ref:vatin": "PL6331820220",
                "operator": "Jastrz\u0119bie-Zdr\u00f3j - Miasto Na Prawach Powiatu",
                "operator:type": "government",
                "landuse": "education",
                "fixme": "amenity=school, amenity=college albo landuse=education w zale\u017cno\u015bci od tego, jakie plac\u00f3wki wchodz\u0105 w sk\u0142ad zespo\u0142u. Sprawd\u017a, kiedy stosowa\u0107 amenity=* a kiedy landuse=education.",
                "note": "Children RSPO: 108716;108718"
            }
        },
        {
            "id": 78030,
            "type": "Feature",
            "geometry": {
                "type": "Point",
                "coordinates": [
                    18.61124,
                    49.951409999999996
                ]
            },
            "properties": {
                "ref:rspo": 78030,
                "official_name": "Centrum Kszta\u0142cenia Zawodowego",
                "name": "Centrum Kszta\u0142cenia Zawodowego",
                "addr:postcode": "44-335",
                "addr:city": "Jastrz\u0119bie-Zdr\u00f3j",
                "addr:street": "Harcerska",
                "addr:housenumber": "12",
                "addr:city:simc": 940163,
                "addr:street:sym_ul": 6523,
                "phone": "+48 324740279",
                "email": "sekretariat@ckz.jastrzebie.pl",
                "website": "http:\/\/www.ckp.aplaus.pl",
                "ref:regon": "276852775",
                "ref:vatin": "PL6332032996",
                "operator": "Jastrz\u0119bie-Zdr\u00f3j - Miasto Na Prawach Powiatu",
                "operator:type": "government",
                "fixme": "w zale\u017cno\u015bci od przedmiotu dzia\u0142alno\u015bci (np. amenity=training + training=*, amenity=dancing_school, amenity=language_school, amenity=music_school) albo amenity=school, amenity=college, albo landuse=education w zale\u017cno\u015bci od tego, jakie plac\u00f3wki wchodz\u0105 w sk\u0142ad zespo\u0142u. Sprawd\u017a, kiedy stosowa\u0107 amenity=* a kiedy landuse=education."
            }
        },
        {
            "id": 108716,
            "type": "Feature",
            "geometry": {
                "type": "Point",
                "coordinates": [
                    18.61124,
                    49.95138
                ]
            },
            "properties": {
                "isced:level": "3",
                "ref:rspo": 108716,
                "official_name": "Technikum nr 4",
                "name": "Technikum nr 4",
                "addr:postcode": "44-335",
                "addr:city": "Jastrz\u0119bie-Zdr\u00f3j",
                "addr:street": "Harcerska",
                "addr:housenumber": "12",
                "addr:city:simc": 940163,
                "addr:street:sym_ul": 6523,
                "phone": "+48 324717264",
                "email": "szkola@zs6sobieski.edu.pl",
                "website": "http:\/\/www.zs6sobieski.pl",
                "ref:regon": "271082172",
                "ref:vatin": "PL6331820220",
                "operator": "Jastrz\u0119bie-Zdr\u00f3j - Miasto Na Prawach Powiatu",
                "operator:type": "government",
                "amenity": "school",
                "note": "Parent RSPO: 26338"
            }
        },
        {
            "id": 108718,
            "type": "Feature",
            "geometry": {
                "type": "Point",
                "coordinates": [
                    18.61124,
                    49.95135
                ]
            },
            "properties": {
                "isced:level": "3",
                "ref:rspo": 108718,
                "official_name": "Iv Liceum Og\u00f3lnokszta\u0142c\u0105ce",
                "name": "Iv Liceum Og\u00f3lnokszta\u0142c\u0105ce",
                "addr:postcode": "44-335",
                "addr:city": "Jastrz\u0119bie-Zdr\u00f3j",
                "addr:street": "Harcerska",
                "addr:housenumber": "12",
                "addr:city:simc": 940163,
                "addr:street:sym_ul": 6523,
                "phone": "+48 324717264",
                "email": "szkola@zs6sobieski.edu.pl",
                "website": "http:\/\/www.zs6sobieski.pl",
                "ref:regon": "272138182",
                "ref:vatin": "PL6331820220",
                "operator": "Jastrz\u0119bie-Zdr\u00f3j - Miasto Na Prawach Powiatu",
                "operator:type": "government",
                "amenity": "school",
                "note": "Parent RSPO: 26338"
            }
        },
        {
            "id": 87296,
            "type": "Feature",
            "geometry": {
                "type": "Point",
                "coordinates": [
                    18.59288,
                    49.95177
                ]
            },
            "properties": {
                "ref:rspo": 87296,
                "official_name": "Poradnia Psychologiczno-Pedagogiczna",
                "name": "Poradnia Psychologiczno-Pedagogiczna",
                "addr:postcode": "44-335",
                "addr:city": "Jastrz\u0119bie-Zdr\u00f3j",
                "addr:street": "Wroc\u0142awska",
                "addr:housenumber": "12",
                "addr:city:simc": 940163,
                "addr:street:sym_ul": 24806,
                "phone": "+48 324717878",
                "email": "poczta@ppp.jastrzebie.pl",
                "website": "http:\/\/www.ppp.jastrzebie.pl",
                "ref:regon": "000844784",
                "ref:vatin": "PL6331839596",
                "operator": "Jastrz\u0119bie-Zdr\u00f3j - Miasto Na Prawach Powiatu",
                "operator:type": "government",
                "healthcare": "counselling",
                "counselling_type": "education",
                "fixme": "w zale\u017cno\u015bci od przedmiotu dzia\u0142alno\u015bci (np. healthcare=counselling + counselling_type=education albo healthcare=psychotherapist)"
            }
        },
        {
            "id": 26316,
            "type": "Feature",
            "geometry": {
                "type": "Point",
                "coordinates": [
                    18.57171,
                    49.9520399
                ]
            },
            "properties": {
                "ref:rspo": 26316,
                "official_name": "Zesp\u00f3\u0142 Szk\u00f3\u0142 nr 5 im. Jana Paw\u0142a Ii",
                "name": "Zesp\u00f3\u0142 Szk\u00f3\u0142 nr 5",
                "addr:postcode": "44-330",
                "addr:city": "Jastrz\u0119bie-Zdr\u00f3j",
                "addr:street": "Stanis\u0142awa Staszica",
                "addr:housenumber": "10",
                "addr:city:simc": 940163,
                "addr:street:sym_ul": 21065,
                "phone": "+48 507051420",
                "email": "poczta@zs5.jastrzebie.pl",
                "website": "http:\/\/www.zs5.jastrzebie.pl",
                "ref:regon": "273605680",
                "ref:vatin": "PL6331921688",
                "operator": "Jastrz\u0119bie-Zdr\u00f3j - Miasto Na Prawach Powiatu",
                "operator:type": "government",
                "landuse": "education",
                "fixme": "amenity=school, amenity=college albo landuse=education w zale\u017cno\u015bci od tego, jakie plac\u00f3wki wchodz\u0105 w sk\u0142ad zespo\u0142u. Sprawd\u017a, kiedy stosowa\u0107 amenity=* a kiedy landuse=education.",
                "note": "Children RSPO: 81674;87215;262271"
            }
        },
        {
            "id": 81674,
            "type": "Feature",
            "geometry": {
                "type": "Point",
                "coordinates": [
                    18.57171,
                    49.9520099
                ]
            },
            "properties": {
                "isced:level": "3",
                "ref:rspo": 81674,
                "official_name": "Technikum nr 2",
                "name": "Technikum nr 2",
                "addr:postcode": "44-330",
                "addr:city": "Jastrz\u0119bie-Zdr\u00f3j",
                "addr:street": "Stanis\u0142awa Staszica",
                "addr:housenumber": "10",
                "addr:city:simc": 940163,
                "addr:street:sym_ul": 21065,
                "phone": "+48 507051420",
                "email": "poczta@zs5.jastrzebie.pl",
                "website": "http:\/\/www.zsnr5.edu.pl",
                "ref:regon": "271082166",
                "operator": "Jastrz\u0119bie-Zdr\u00f3j - Miasto Na Prawach Powiatu",
                "operator:type": "government",
                "amenity": "school",
                "note": "Parent RSPO: 26316"
            }
        },
        {
            "id": 87215,
            "type": "Feature",
            "geometry": {
                "type": "Point",
                "coordinates": [
                    18.57171,
                    49.951979900000005
                ]
            },
            "properties": {
                "isced:level": "3",
                "ref:rspo": 87215,
                "official_name": "V Liceum Og\u00f3lnokszta\u0142c\u0105ce",
                "name": "V Liceum Og\u00f3lnokszta\u0142c\u0105ce",
                "addr:postcode": "44-330",
                "addr:city": "Jastrz\u0119bie-Zdr\u00f3j",
                "addr:street": "Stanis\u0142awa Staszica",
                "addr:housenumber": "10",
                "addr:city:simc": 940163,
                "addr:street:sym_ul": 21065,
                "phone": "+48 507051420",
                "email": "poczta@zs5.jastrzebie.pl",
                "website": "http:\/\/www.zsnr5.edu.pl",
                "ref:regon": "278283100",
                "operator": "Jastrz\u0119bie-Zdr\u00f3j - Miasto Na Prawach Powiatu",
                "operator:type": "government",
                "amenity": "school",
                "note": "Parent RSPO: 26316"
            }
        },
        {
            "id": 262271,
            "type": "Feature",
            "geometry": {
                "type": "Point",
                "coordinates": [
                    18.57171,
                    49.9519499
                ]
            },
            "properties": {
                "isced:level": "1;2",
                "ref:rspo": 262271,
                "official_name": "Szko\u0142a Podstawowa nr 2 Mistrzostwa Sportowego",
                "name": "Szko\u0142a Podstawowa nr 2 Mistrzostwa Sportowego",
                "addr:postcode": "44-330",
                "addr:city": "Jastrz\u0119bie-Zdr\u00f3j",
                "addr:street": "Stanis\u0142awa Staszica",
                "addr:housenumber": "10",
                "addr:city:simc": 940163,
                "addr:street:sym_ul": 21065,
                "phone": "+48 507051420",
                "email": "poczta@zs5.jastrzebie.pl",
                "ref:regon": "367996096",
                "operator": "Jastrz\u0119bie-Zdr\u00f3j - Miasto Na Prawach Powiatu",
                "operator:type": "government",
                "amenity": "school",
                "note": "Parent RSPO: 26316"
            }
        },
        {
            "id": 69810,
            "type": "Feature",
            "geometry": {
                "type": "Point",
                "coordinates": [
                    18.59359,
                    49.95247
                ]
            },
            "properties": {
                "isced:level": "3",
                "ref:rspo": 69810,
                "official_name": "Iii Liceum Og\u00f3lnokszta\u0142c\u0105ce",
                "name": "Iii Liceum Og\u00f3lnokszta\u0142c\u0105ce",
                "addr:postcode": "44-335",
                "addr:city": "Jastrz\u0119bie-Zdr\u00f3j",
                "addr:street": "Wroc\u0142awska",
                "addr:housenumber": "6",
                "addr:city:simc": 940163,
                "addr:street:sym_ul": 24806,
                "phone": "+48 324713562",
                "email": "poczta@zs3.jastrzebie.pl",
                "website": "http:\/\/www.zs3.jastrzebie.pl",
                "ref:regon": "272728653",
                "operator": "Jastrz\u0119bie-Zdr\u00f3j - Miasto Na Prawach Powiatu",
                "operator:type": "government",
                "amenity": "school"
            }
        },
        {
            "id": 114865,
            "type": "Feature",
            "geometry": {
                "type": "Point",
                "coordinates": [
                    18.59359,
                    49.952439999999996
                ]
            },
            "properties": {
                "ref:rspo": 114865,
                "official_name": "Centrum Szkoleniowe Reactive",
                "name": "Centrum Szkoleniowe Reactive",
                "addr:postcode": "44-335",
                "addr:city": "Jastrz\u0119bie-Zdr\u00f3j",
                "addr:street": "Wroc\u0142awska",
                "addr:housenumber": "6",
                "addr:city:simc": 940163,
                "addr:street:sym_ul": 24806,
                "phone": "+48 600179380",
                "email": "mzygmuntowicz@o2.pl",
                "ref:regon": "243281775",
                "ref:vatin": "PL5482486646",
                "operator": "Monika Zygmuntowicz",
                "operator:type": "private",
                "fixme": "w zale\u017cno\u015bci od przedmiotu dzia\u0142alno\u015bci (np. amenity=training + training=*, amenity=dancing_school, amenity=language_school, amenity=music_school) albo amenity=school, amenity=college, albo landuse=education w zale\u017cno\u015bci od tego, jakie plac\u00f3wki wchodz\u0105 w sk\u0142ad zespo\u0142u. Sprawd\u017a, kiedy stosowa\u0107 amenity=* a kiedy landuse=education."
            }
        },
        {
            "id": 63423,
            "type": "Feature",
            "geometry": {
                "type": "Point",
                "coordinates": [
                    18.598300933838,
                    49.952518463135
                ]
            },
            "properties": {
                "isced:level": "1;2",
                "ref:rspo": 63423,
                "official_name": "Szko\u0142a Podstawowa nr 21 im. Prof. Jana Miodka",
                "name": "Szko\u0142a Podstawowa nr 21",
                "addr:postcode": "44-335",
                "addr:city": "Jastrz\u0119bie-Zdr\u00f3j",
                "addr:street": "Ksi\u0119dza Jana Twardowskiego",
                "addr:housenumber": "31",
                "addr:city:simc": 940163,
                "addr:street:sym_ul": 38718,
                "phone": "+48 324716188",
                "email": "poczta@sp21.jastrzebie.pl",
                "website": "http:\/\/www.sp21jastrzebie.edupage.org",
                "ref:regon": "271587386",
                "ref:vatin": "PL6332027995",
                "operator": "Jastrz\u0119bie-Zdr\u00f3j - Miasto Na Prawach Powiatu",
                "operator:type": "government",
                "amenity": "school"
            }
        },
        {
            "id": 109042,
            "type": "Feature",
            "geometry": {
                "type": "Point",
                "coordinates": [
                    18.598300933838,
                    49.952488463135
                ]
            },
            "properties": {
                "isced:level": "1;2",
                "ref:rspo": 109042,
                "official_name": "Szko\u0142a Podstawowa nr 15 im. Marii Konopnickiej",
                "name": "Szko\u0142a Podstawowa nr 15",
                "addr:postcode": "44-336",
                "addr:city": "Jastrz\u0119bie-Zdr\u00f3j",
                "addr:street": "Niepodleg\u0142o\u015bci",
                "addr:housenumber": "34",
                "addr:city:simc": 940163,
                "addr:street:sym_ul": 14203,
                "phone": "+48 324737373",
                "email": "sekretariat@sp15.jastrzebie.pl",
                "website": "http:\/\/www.sp15jz.pl",
                "ref:regon": "000728701",
                "operator": "Jastrz\u0119bie-Zdr\u00f3j - Miasto Na Prawach Powiatu",
                "operator:type": "government",
                "amenity": "school"
            }
        },
        {
            "id": 133950,
            "type": "Feature",
            "geometry": {
                "type": "Point",
                "coordinates": [
                    18.60816,
                    49.95321
                ]
            },
            "properties": {
                "isced:level": "1;2",
                "ref:rspo": 133950,
                "official_name": "Szko\u0142a Podstawowa nr 13 im. Ks. Franciszka Blachnickiego",
                "name": "Szko\u0142a Podstawowa nr 13",
                "addr:postcode": "44-335",
                "addr:city": "Jastrz\u0119bie-Zdr\u00f3j",
                "addr:street": "Katowicka",
                "addr:housenumber": "35",
                "addr:city:simc": 940163,
                "addr:street:sym_ul": 8206,
                "phone": "+48 324710197",
                "email": "sekretariat@sp13.jastrzebie.pl",
                "website": "http:\/\/www.naszatrzynastka.pl",
                "ref:regon": "367748748",
                "operator": "Jastrz\u0119bie-Zdr\u00f3j - Miasto Na Prawach Powiatu",
                "operator:type": "government",
                "amenity": "school"
            }
        },
        {
            "id": 24275,
            "type": "Feature",
            "geometry": {
                "type": "Point",
                "coordinates": [
                    18.59055,
                    49.9539
                ]
            },
            "properties": {
                "ref:rspo": 24275,
                "official_name": "Publiczne Przedszkole nr 21",
                "name": "Publiczne Przedszkole nr 21",
                "addr:postcode": "44-335",
                "addr:city": "Jastrz\u0119bie-Zdr\u00f3j",
                "addr:street": "Opolska",
                "addr:housenumber": "5",
                "addr:city:simc": 940163,
                "addr:street:sym_ul": 15095,
                "phone": "+48 324714239",
                "email": "poczta@pp21.jastrzebie.pl",
                "website": "http:\/\/jastrzebiepp21.pl",
                "ref:regon": "272001075",
                "ref:vatin": "PL6332027788",
                "operator": "Jastrz\u0119bie-Zdr\u00f3j - Miasto Na Prawach Powiatu",
                "operator:type": "government",
                "amenity": "kindergarten"
            }
        },
        {
            "id": 80648,
            "type": "Feature",
            "geometry": {
                "type": "Point",
                "coordinates": [
                    18.61586,
                    49.9539199
                ]
            },
            "properties": {
                "isced:level": "3",
                "ref:rspo": 80648,
                "official_name": "I Liceum Og\u00f3lnokszta\u0142c\u0105ce z Oddzia\u0142ami Dwuj\u0119zycznymi im. Stanis\u0142awa Staszica",
                "name": "I Liceum Og\u00f3lnokszta\u0142c\u0105ce z Oddzia\u0142ami Dwuj\u0119zycznymi",
                "addr:postcode": "44-335",
                "addr:city": "Jastrz\u0119bie-Zdr\u00f3j",
                "addr:street": "Graniczna",
                "addr:housenumber": "2",
                "addr:city:simc": 940163,
                "addr:street:sym_ul": 6075,
                "phone": "+48 324712346",
                "email": "sekretariat@1lo.jastrzebie.pl",
                "website": "http:\/\/www.1lo.jastrzebie.pl",
                "ref:regon": "000728753",
                "ref:vatin": "PL6331807604",
                "operator": "Jastrz\u0119bie-Zdr\u00f3j - Miasto Na Prawach Powiatu",
                "operator:type": "government",
                "amenity": "school"
            }
        },
        {
            "id": 88697,
            "type": "Feature",
            "geometry": {
                "type": "Point",
                "coordinates": [
                    18.59224,
                    49.95404
                ]
            },
            "properties": {
                "isced:level": "1;2",
                "ref:rspo": 88697,
                "official_name": "Szko\u0142a Podstawowa nr 19 im. Juliana Tuwima",
                "name": "Szko\u0142a Podstawowa nr 19",
                "addr:postcode": "44-335",
                "addr:city": "Jastrz\u0119bie-Zdr\u00f3j",
                "addr:street": "Opolska",
                "addr:housenumber": "3",
                "addr:city:simc": 940163,
                "addr:street:sym_ul": 15095,
                "phone": "+48 324713193",
                "email": "poczta@sp19.jastrzebie.pl",
                "website": "http:\/\/www.sp19jastrzebie.edupage.org",
                "ref:regon": "000728747",
                "ref:vatin": "PL6332027972",
                "operator": "Jastrz\u0119bie-Zdr\u00f3j - Miasto Na Prawach Powiatu",
                "operator:type": "government",
                "amenity": "school"
            }
        },
        {
            "id": 26151,
            "type": "Feature",
            "geometry": {
                "type": "Point",
                "coordinates": [
                    18.59517,
                    49.9545699
                ]
            },
            "properties": {
                "ref:rspo": 26151,
                "official_name": "Zesp\u00f3\u0142 Szk\u00f3\u0142 nr 2 im. Wojciecha Korfantego",
                "name": "Zesp\u00f3\u0142 Szk\u00f3\u0142 nr 2",
                "addr:postcode": "44-335",
                "addr:city": "Jastrz\u0119bie-Zdr\u00f3j",
                "addr:street": "Pozna\u0144ska",
                "addr:housenumber": "1a",
                "addr:city:simc": 940163,
                "addr:street:sym_ul": 17394,
                "phone": "+48 324711633",
                "email": "poczta@zs2.jastrzebie.pl",
                "website": "http:\/\/www.zs2.jastrzebie.pl",
                "ref:regon": "000815481",
                "ref:vatin": "PL6331861414",
                "operator": "Jastrz\u0119bie-Zdr\u00f3j - Miasto Na Prawach Powiatu",
                "operator:type": "government",
                "landuse": "education",
                "fixme": "amenity=school, amenity=college albo landuse=education w zale\u017cno\u015bci od tego, jakie plac\u00f3wki wchodz\u0105 w sk\u0142ad zespo\u0142u. Sprawd\u017a, kiedy stosowa\u0107 amenity=* a kiedy landuse=education.",
                "note": "Children RSPO: 68054;68310;68632;80649;276154"
            }
        },
        {
            "id": 68054,
            "type": "Feature",
            "geometry": {
                "type": "Point",
                "coordinates": [
                    18.59517,
                    49.9545399
                ]
            },
            "properties": {
                "isced:level": "3",
                "ref:rspo": 68054,
                "official_name": "Technikum nr 1",
                "name": "Technikum nr 1",
                "addr:postcode": "44-335",
                "addr:city": "Jastrz\u0119bie-Zdr\u00f3j",
                "addr:street": "Pozna\u0144ska",
                "addr:housenumber": "1a",
                "addr:city:simc": 940163,
                "addr:street:sym_ul": 17394,
                "phone": "+48 324711633",
                "email": "poczta@zs2.jastrzebie.pl",
                "website": "http:\/\/www.zs2.nj.pl",
                "ref:regon": "273707771",
                "operator": "Jastrz\u0119bie-Zdr\u00f3j - Miasto Na Prawach Powiatu",
                "operator:type": "government",
                "amenity": "school",
                "note": "Parent RSPO: 26151"
            }
        },
        {
            "id": 68310,
            "type": "Feature",
            "geometry": {
                "type": "Point",
                "coordinates": [
                    18.59517,
                    49.954509900000005
                ]
            },
            "properties": {
                "isced:level": "3",
                "ref:rspo": 68310,
                "official_name": "Ii Liceum Og\u00f3lnokszta\u0142c\u0105ce",
                "name": "Ii Liceum Og\u00f3lnokszta\u0142c\u0105ce",
                "addr:postcode": "44-335",
                "addr:city": "Jastrz\u0119bie-Zdr\u00f3j",
                "addr:street": "Pozna\u0144ska",
                "addr:housenumber": "1a",
                "addr:city:simc": 940163,
                "addr:street:sym_ul": 17394,
                "phone": "+48 324711633",
                "email": "poczta@zs2.jastrzebie.pl",
                "website": "http:\/\/www.zs2.nj.pl",
                "ref:regon": "000728760",
                "operator": "Jastrz\u0119bie-Zdr\u00f3j - Miasto Na Prawach Powiatu",
                "operator:type": "government",
                "amenity": "school",
                "note": "Parent RSPO: 26151"
            }
        },
        {
            "id": 68632,
            "type": "Feature",
            "geometry": {
                "type": "Point",
                "coordinates": [
                    18.59517,
                    49.9544799
                ]
            },
            "properties": {
                "isced:level": "3",
                "ref:rspo": 68632,
                "official_name": "Bran\u017cowa Szko\u0142a I Stopnia nr 1",
                "name": "Bran\u017cowa Szko\u0142a I Stopnia nr 1",
                "addr:postcode": "44-335",
                "addr:city": "Jastrz\u0119bie-Zdr\u00f3j",
                "addr:street": "Pozna\u0144ska",
                "addr:housenumber": "1a",
                "addr:city:simc": 940163,
                "addr:street:sym_ul": 17394,
                "phone": "+48 324711633",
                "email": "poczta@zs2.jastrzebie.pl",
                "website": "http:\/\/www.zs2.nj.pl",
                "ref:regon": "272137870",
                "operator": "Jastrz\u0119bie-Zdr\u00f3j - Miasto Na Prawach Powiatu",
                "operator:type": "government",
                "amenity": "school",
                "note": "Parent RSPO: 26151"
            }
        },
        {
            "id": 80649,
            "type": "Feature",
            "geometry": {
                "type": "Point",
                "coordinates": [
                    18.59517,
                    49.9544499
                ]
            },
            "properties": {
                "isced:level": "4",
                "ref:rspo": 80649,
                "official_name": "Szko\u0142a Policealna nr 2",
                "name": "Szko\u0142a Policealna nr 2",
                "addr:postcode": "44-335",
                "addr:city": "Jastrz\u0119bie-Zdr\u00f3j",
                "addr:street": "Pozna\u0144ska",
                "addr:housenumber": "1a",
                "addr:city:simc": 940163,
                "addr:street:sym_ul": 17394,
                "phone": "+48 324711633",
                "email": "poczta@zs2.jastrzebie.pl",
                "website": "http:\/\/www.zs2.nj.pl",
                "ref:regon": "240170957",
                "operator": "Jastrz\u0119bie-Zdr\u00f3j - Miasto Na Prawach Powiatu",
                "operator:type": "government",
                "amenity": "college",
                "note": "Parent RSPO: 26151"
            }
        },
        {
            "id": 276154,
            "type": "Feature",
            "geometry": {
                "type": "Point",
                "coordinates": [
                    18.59517,
                    49.954419900000005
                ]
            },
            "properties": {
                "isced:level": "3",
                "ref:rspo": 276154,
                "official_name": "Bran\u017cowa Szko\u0142a II Stopnia nr 2",
                "name": "Bran\u017cowa Szko\u0142a II Stopnia nr 2",
                "addr:postcode": "44-335",
                "addr:city": "Jastrz\u0119bie-Zdr\u00f3j",
                "addr:street": "Pozna\u0144ska",
                "addr:housenumber": "1a",
                "addr:city:simc": 940163,
                "addr:street:sym_ul": 17394,
                "phone": "+48 324711633",
                "email": "poczta@zs2.jastrzebie.pl",
                "website": "http:\/\/www.zs2.jastrzebie.pl",
                "ref:regon": "387005115",
                "operator": "Jastrz\u0119bie-Zdr\u00f3j - Miasto Na Prawach Powiatu",
                "operator:type": "government",
                "amenity": "school",
                "note": "Parent RSPO: 26151"
            }
        },
        {
            "id": 24184,
            "type": "Feature",
            "geometry": {
                "type": "Point",
                "coordinates": [
                    18.60624,
                    49.95522
                ]
            },
            "properties": {
                "ref:rspo": 24184,
                "official_name": "Publiczne Przedszkole nr 18",
                "name": "Publiczne Przedszkole nr 18",
                "addr:postcode": "44-335",
                "addr:city": "Jastrz\u0119bie-Zdr\u00f3j",
                "addr:street": "Katowicka",
                "addr:housenumber": "17",
                "addr:door": "A",
                "addr:city:simc": 940163,
                "addr:street:sym_ul": 8206,
                "phone": "+48 324716481",
                "email": "pp18@um.jastrzebie.pl",
                "ref:regon": "272001046",
                "ref:vatin": "PL6332027759",
                "operator": "Jastrz\u0119bie-Zdr\u00f3j - Miasto Na Prawach Powiatu",
                "operator:type": "government",
                "amenity": "kindergarten"
            }
        },
        {
            "id": 89384,
            "type": "Feature",
            "geometry": {
                "type": "Point",
                "coordinates": [
                    18.57775,
                    49.95622
                ]
            },
            "properties": {
                "ref:rspo": 89384,
                "official_name": "Niepubliczny O\u015brodek Rewalidacyjno-Wychowawczy Przy Zak\u0142adzie Leczniczo Opieku\u0144czym dla Dzieci \"Betlejem\" w Jastrz\u0119biu-Zdroju",
                "name": "Niepubliczny O\u015brodek Rewalidacyjno-Wychowawczy Przy Zak\u0142adzie Leczniczo Opieku\u0144czym dla Dzieci \"Betlejem\" w Jastrz\u0119biu-Zdroju",
                "addr:postcode": "44-330",
                "addr:city": "Jastrz\u0119bie-Zdr\u00f3j",
                "addr:street": "Pszczy\u0144ska",
                "addr:housenumber": "11",
                "addr:city:simc": 940163,
                "addr:street:sym_ul": 18045,
                "phone": "+48 324340149",
                "email": "dyrekcja@norw.edu.pl",
                "website": "http:\/\/www.norw.edu.pl",
                "ref:regon": "243104470",
                "ref:vatin": "PL6332154736",
                "operator": "Prowincja Polska Zgromadzenia C\u00f3rek Bo\u017cej Mi\u0142o\u015bci \"Instytut Marii\"",
                "operator:type": "religious",
                "amenity": "school"
            }
        },
        {
            "id": 24135,
            "type": "Feature",
            "geometry": {
                "type": "Point",
                "coordinates": [
                    18.60152,
                    49.95769
                ]
            },
            "properties": {
                "ref:rspo": 24135,
                "official_name": "Publiczne Przedszkole nr 7",
                "name": "Publiczne Przedszkole nr 7",
                "addr:postcode": "44-335",
                "addr:city": "Jastrz\u0119bie-Zdr\u00f3j",
                "addr:street": "Pszczy\u0144ska",
                "addr:housenumber": "158",
                "addr:city:simc": 940163,
                "addr:street:sym_ul": 18045,
                "phone": "+48 324714626",
                "email": "pp7jastrzebie@neostrada.pl",
                "ref:regon": "272000934",
                "ref:vatin": "PL6332027618",
                "operator": "Jastrz\u0119bie-Zdr\u00f3j - Miasto Na Prawach Powiatu",
                "operator:type": "government",
                "amenity": "kindergarten",
                "note": "Parent RSPO: 275325"
            }
        },
        {
            "id": 120100,
            "type": "Feature",
            "geometry": {
                "type": "Point",
                "coordinates": [
                    18.62998,
                    49.95926
                ]
            },
            "properties": {
                "ref:rspo": 120100,
                "official_name": "Przedszkole Pod T\u0119cz\u0105",
                "name": "Przedszkole Pod T\u0119cz\u0105",
                "addr:postcode": "44-335",
                "addr:city": "Jastrz\u0119bie-Zdr\u00f3j",
                "addr:street": "Wojciecha Korfantego",
                "addr:housenumber": "14",
                "addr:city:simc": 940163,
                "addr:street:sym_ul": 9357,
                "phone": "+48 513022555",
                "email": "przedszkole@przedszkolepodtecza.pl",
                "website": "http:\/\/www.przedszkolepodtecza.pl",
                "ref:regon": "243374092",
                "ref:vatin": "PL5482128355",
                "operator": "Alina Lerch",
                "operator:type": "private",
                "amenity": "kindergarten"
            }
        },
        {
            "id": 275325,
            "type": "Feature",
            "geometry": {
                "type": "Point",
                "coordinates": [
                    18.59742,
                    49.95965
                ]
            },
            "properties": {
                "ref:rspo": 275325,
                "official_name": "Zesp\u00f3\u0142 Szkolno-Przedszkolny nr 1",
                "name": "Zesp\u00f3\u0142 Szkolno-Przedszkolny nr 1",
                "addr:postcode": "44-335",
                "addr:city": "Jastrz\u0119bie-Zdr\u00f3j",
                "addr:street": "Pszczy\u0144ska",
                "addr:housenumber": "125",
                "addr:city:simc": 940163,
                "addr:street:sym_ul": 18045,
                "phone": "+48 324741586",
                "email": "poczta@zsp1.jastrzebie.pl",
                "ref:regon": "386811529",
                "operator": "Jastrz\u0119bie-Zdr\u00f3j - Miasto Na Prawach Powiatu",
                "operator:type": "government",
                "landuse": "education",
                "fixme": "amenity=school, amenity=college albo landuse=education w zale\u017cno\u015bci od tego, jakie plac\u00f3wki wchodz\u0105 w sk\u0142ad zespo\u0142u. Sprawd\u017a, kiedy stosowa\u0107 amenity=* a kiedy landuse=education.",
                "note": "Children RSPO: 24135;63417"
            }
        },
        {
            "id": 63417,
            "type": "Feature",
            "geometry": {
                "type": "Point",
                "coordinates": [
                    18.59742,
                    49.95962
                ]
            },
            "properties": {
                "isced:level": "1;2",
                "ref:rspo": 63417,
                "official_name": "Szko\u0142a Podstawowa nr 1 im. Wojska Polskiego",
                "name": "Szko\u0142a Podstawowa nr 1",
                "addr:postcode": "44-335",
                "addr:city": "Jastrz\u0119bie-Zdr\u00f3j",
                "addr:street": "Pszczy\u0144ska",
                "addr:housenumber": "125",
                "addr:city:simc": 940163,
                "addr:street:sym_ul": 18045,
                "phone": "+48 324741586",
                "email": "poczta@zsp1.jastrzebie.pl",
                "website": "https:\/\/zsp1.jastrzebie.pl",
                "ref:regon": "000728569",
                "ref:vatin": "PL6332013527",
                "operator": "Jastrz\u0119bie-Zdr\u00f3j - Miasto Na Prawach Powiatu",
                "operator:type": "government",
                "amenity": "school",
                "note": "Parent RSPO: 275325"
            }
        },
        {
            "id": 123293,
            "type": "Feature",
            "geometry": {
                "type": "Point",
                "coordinates": [
                    18.5664,
                    49.96307
                ]
            },
            "properties": {
                "ref:rspo": 123293,
                "official_name": "O\u015brodek Kszta\u0142cenia Jsw Szkolenie I G\u00f3rnictwo",
                "name": "O\u015brodek Kszta\u0142cenia Jsw Szkolenie I G\u00f3rnictwo",
                "addr:postcode": "44-330",
                "addr:city": "Jastrz\u0119bie-Zdr\u00f3j",
                "addr:street": "G\u00f3rnicza",
                "addr:housenumber": "1",
                "addr:city:simc": 940163,
                "addr:street:sym_ul": 5962,
                "phone": "+48 327561620",
                "email": "jswsig@jswsig.pl",
                "website": "http:\/\/www.jswsig.pl",
                "ref:regon": "243589668",
                "ref:vatin": "PL6332232554",
                "operator": "Jsw Szkolenie I G\u00f3rnictwo Sp\u00f3\u0142ka Z Ograniczon\u0105 Odpowiedzialno\u015bci\u0105",
                "operator:type": "private",
                "fixme": "w zale\u017cno\u015bci od przedmiotu dzia\u0142alno\u015bci (np. amenity=training + training=*, amenity=dancing_school, amenity=language_school, amenity=music_school)"
            }
        },
        {
            "id": 24131,
            "type": "Feature",
            "geometry": {
                "type": "Point",
                "coordinates": [
                    18.57076,
                    49.96496
                ]
            },
            "properties": {
                "ref:rspo": 24131,
                "official_name": "Publiczne Przedszkole nr 3",
                "name": "Publiczne Przedszkole nr 3",
                "addr:postcode": "44-330",
                "addr:city": "Jastrz\u0119bie-Zdr\u00f3j",
                "addr:street": "Piast\u00f3w",
                "addr:housenumber": "2",
                "addr:city:simc": 940163,
                "addr:street:sym_ul": 16057,
                "phone": "+48 324734766",
                "email": "poczta@pp3.jastrzebie.pl",
                "ref:regon": "272000897",
                "ref:vatin": "PL6332027570",
                "operator": "Jastrz\u0119bie-Zdr\u00f3j - Miasto Na Prawach Powiatu",
                "operator:type": "government",
                "amenity": "kindergarten"
            }
        },
        {
            "id": 30472,
            "type": "Feature",
            "geometry": {
                "type": "Point",
                "coordinates": [
                    18.57361,
                    49.9652699
                ]
            },
            "properties": {
                "ref:rspo": 30472,
                "official_name": "Zesp\u00f3\u0142 Szk\u00f3\u0142 Mistrzostwa Sportowego",
                "name": "Zesp\u00f3\u0142 Szk\u00f3\u0142 Mistrzostwa Sportowego",
                "addr:postcode": "44-335",
                "addr:city": "Jastrz\u0119bie-Zdr\u00f3j",
                "addr:street": "Piast\u00f3w",
                "addr:housenumber": "15",
                "addr:city:simc": 940163,
                "addr:street:sym_ul": 16057,
                "phone": "+48 324751501",
                "email": "poczta@zsms.jastrzebie.pl",
                "website": "http:\/\/www.zsms.jastrzebie.pl",
                "ref:regon": "241230207",
                "ref:vatin": "PL6332194687",
                "operator": "Jastrz\u0119bie-Zdr\u00f3j - Miasto Na Prawach Powiatu",
                "operator:type": "government",
                "landuse": "education",
                "fixme": "amenity=school, amenity=college albo landuse=education w zale\u017cno\u015bci od tego, jakie plac\u00f3wki wchodz\u0105 w sk\u0142ad zespo\u0142u. Sprawd\u017a, kiedy stosowa\u0107 amenity=* a kiedy landuse=education.",
                "note": "Children RSPO: 48145;63424"
            }
        },
        {
            "id": 48145,
            "type": "Feature",
            "geometry": {
                "type": "Point",
                "coordinates": [
                    18.57361,
                    49.9652399
                ]
            },
            "properties": {
                "isced:level": "3",
                "ref:rspo": 48145,
                "official_name": "Vi Liceum Og\u00f3lnokszta\u0142c\u0105ce Mistrzostwa Sportowego",
                "name": "Vi Liceum Og\u00f3lnokszta\u0142c\u0105ce Mistrzostwa Sportowego",
                "addr:postcode": "44-335",
                "addr:city": "Jastrz\u0119bie-Zdr\u00f3j",
                "addr:street": "Piast\u00f3w",
                "addr:housenumber": "15",
                "addr:city:simc": 940163,
                "addr:street:sym_ul": 16057,
                "phone": "+48 324751501",
                "email": "poczta@zsms.jastrzebie.pl",
                "website": "http:\/\/www.zsms.jastrzebie.pl",
                "ref:regon": "241567496",
                "ref:vatin": "PL6332194687",
                "operator": "Jastrz\u0119bie-Zdr\u00f3j - Miasto Na Prawach Powiatu",
                "operator:type": "government",
                "amenity": "school",
                "note": "Parent RSPO: 30472"
            }
        },
        {
            "id": 63424,
            "type": "Feature",
            "geometry": {
                "type": "Point",
                "coordinates": [
                    18.57361,
                    49.965209900000005
                ]
            },
            "properties": {
                "isced:level": "1;2",
                "ref:rspo": 63424,
                "official_name": "Szko\u0142a Podstawowa nr 3 z Oddzia\u0142ami Mistrzostwa Sportowego",
                "name": "Szko\u0142a Podstawowa nr 3 z Oddzia\u0142ami Mistrzostwa Sportowego",
                "addr:postcode": "44-335",
                "addr:city": "Jastrz\u0119bie-Zdr\u00f3j",
                "addr:street": "Piast\u00f3w",
                "addr:housenumber": "15",
                "addr:city:simc": 940163,
                "addr:street:sym_ul": 16057,
                "phone": "+48 324751501",
                "email": "poczta@zsms.jastrzebie.pl",
                "website": "http:\/\/www.zsms.jastrzebie.pl",
                "ref:regon": "000728581",
                "ref:vatin": "PL6332194687",
                "operator": "Jastrz\u0119bie-Zdr\u00f3j - Miasto Na Prawach Powiatu",
                "operator:type": "government",
                "amenity": "school",
                "note": "Parent RSPO: 30472"
            }
        },
        {
            "id": 107674,
            "type": "Feature",
            "geometry": {
                "type": "Point",
                "coordinates": [
                    18.62147,
                    49.96578
                ]
            },
            "properties": {
                "ref:rspo": 107674,
                "official_name": "O\u015brodek Szkolenia Zawodowego Jastrz\u0119bskiego Towarzystwa Gospodarczego \"Antracyt\" Sp. z o.o.",
                "name": "O\u015brodek Szkolenia Zawodowego Jastrz\u0119bskiego Towarzystwa Gospodarczego \"Antracyt\" Sp. z o.o.",
                "addr:postcode": "44-335",
                "addr:city": "Jastrz\u0119bie-Zdr\u00f3j",
                "addr:street": "Rybnicka",
                "addr:housenumber": "6E",
                "addr:city:simc": 940163,
                "addr:street:sym_ul": 19179,
                "phone": "+48 327565810",
                "website": "http:\/\/www.antracyt.home.pl",
                "ref:regon": "243168814",
                "ref:vatin": "PL6331002591",
                "operator": "Jastrz\u0119bskie Towarzystwo Gospodarcze \"Antracyt\" Sp\u00f3\u0142ka Z Ograniczon\u0105 Odpowiedzialno\u015bci\u0105",
                "operator:type": "private",
                "fixme": "w zale\u017cno\u015bci od przedmiotu dzia\u0142alno\u015bci (np. amenity=training + training=*, amenity=dancing_school, amenity=language_school, amenity=music_school)"
            }
        },
        {
            "id": 24143,
            "type": "Feature",
            "geometry": {
                "type": "Point",
                "coordinates": [
                    18.61842,
                    49.96895
                ]
            },
            "properties": {
                "ref:rspo": 24143,
                "official_name": "Publiczne Przedszkole nr 16 im. Misia Uszatka",
                "name": "Publiczne Przedszkole nr 16",
                "addr:postcode": "44-335",
                "addr:city": "Jastrz\u0119bie-Zdr\u00f3j",
                "addr:street": "Ruchu Oporu",
                "addr:housenumber": "25",
                "addr:city:simc": 940163,
                "addr:street:sym_ul": 19039,
                "phone": "+48 324340495",
                "email": "poczta@pp16.jastrzebie.pl",
                "ref:regon": "272001023",
                "ref:vatin": "PL6332027736",
                "operator": "Jastrz\u0119bie-Zdr\u00f3j - Miasto Na Prawach Powiatu",
                "operator:type": "government",
                "amenity": "kindergarten"
            }
        },
        {
            "id": 24140,
            "type": "Feature",
            "geometry": {
                "type": "Point",
                "coordinates": [
                    18.62587,
                    49.98593
                ]
            },
            "properties": {
                "ref:rspo": 24140,
                "official_name": "Publiczne Przedszkole nr 13",
                "name": "Publiczne Przedszkole nr 13",
                "addr:postcode": "44-268",
                "addr:city": "Jastrz\u0119bie-Zdr\u00f3j",
                "addr:street": "Gagarina",
                "addr:housenumber": "118",
                "addr:city:simc": 940163,
                "addr:street:sym_ul": 5237,
                "phone": "+48 324757879",
                "email": "przedszkole13jastrzebie@wp.pl",
                "website": "http:\/\/www.p13jz.edupage.org",
                "ref:regon": "272000992",
                "ref:vatin": "PL6332027699",
                "operator": "Jastrz\u0119bie-Zdr\u00f3j - Miasto Na Prawach Powiatu",
                "operator:type": "government",
                "amenity": "kindergarten"
            }
        },
        {
            "id": 89090,
            "type": "Feature",
            "geometry": {
                "type": "Point",
                "coordinates": [
                    18.6255351,
                    49.98903
                ]
            },
            "properties": {
                "ref:rspo": 89090,
                "official_name": "Przedszkole Niepubliczne z Oddzia\u0142ami Integracyjnymi \"Dzwoneczek\"",
                "name": "Przedszkole Niepubliczne z Oddzia\u0142ami Integracyjnymi \"Dzwoneczek\"",
                "addr:postcode": "44-268",
                "addr:city": "Jastrz\u0119bie-Zdr\u00f3j",
                "addr:street": "Powsta\u0144c\u00f3w \u015al\u0105skich",
                "addr:housenumber": "109",
                "addr:city:simc": 940163,
                "addr:street:sym_ul": 17366,
                "phone": "+48 324711559",
                "email": "sekretariat@przedszkoledzwoneczek.pl",
                "website": "http:\/\/www.przedszkoledzwoneczek.pl",
                "ref:regon": "243104501",
                "ref:vatin": "PL6332175201",
                "operator": "Adez S.c.   Daria Stachniak,  Zuzanna Gruszczy\u0144ska",
                "operator:type": "consortium",
                "amenity": "kindergarten"
            }
        },
        {
            "id": 24297,
            "type": "Feature",
            "geometry": {
                "type": "Point",
                "coordinates": [
                    18.62425,
                    49.99022
                ]
            },
            "properties": {
                "ref:rspo": 24297,
                "official_name": "Publiczne Przedszkole nr 24",
                "name": "Publiczne Przedszkole nr 24",
                "addr:postcode": "44-268",
                "addr:city": "Jastrz\u0119bie-Zdr\u00f3j",
                "addr:street": "Aleksandra Fredry",
                "addr:housenumber": "15",
                "addr:city:simc": 940163,
                "addr:street:sym_ul": 5172,
                "phone": "+48 324711768",
                "email": "publiczne.przedszkole.nr24@wp.pl",
                "ref:regon": "272001106",
                "ref:vatin": "PL6332027819",
                "operator": "Jastrz\u0119bie-Zdr\u00f3j - Miasto Na Prawach Powiatu",
                "operator:type": "government",
                "amenity": "kindergarten"
            }
        },
        {
            "id": 110002,
            "type": "Feature",
            "geometry": {
                "type": "Point",
                "coordinates": [
                    18.6241999,
                    49.99059
                ]
            },
            "properties": {
                "isced:level": "1;2",
                "ref:rspo": 110002,
                "official_name": "Szko\u0142a Podstawowa nr 18 im. Henryka S\u0142awika",
                "name": "Szko\u0142a Podstawowa nr 18",
                "addr:postcode": "44-268",
                "addr:city": "Jastrz\u0119bie-Zdr\u00f3j",
                "addr:street": "os. 1000-lecia",
                "addr:housenumber": "9",
                "addr:city:simc": 940163,
                "addr:street:sym_ul": 6,
                "phone": "+48 324715839",
                "email": "poczta@sp18.jastrzebie.pl",
                "website": "http:\/\/www.sp18.jastrzebie.pl",
                "ref:regon": "000728730",
                "ref:vatin": "PL6332027966",
                "operator": "Jastrz\u0119bie-Zdr\u00f3j - Miasto Na Prawach Powiatu",
                "operator:type": "government",
                "amenity": "school"
            }
        },
        {
            "id": 274578,
            "type": "Feature",
            "geometry": {
                "type": "Point",
                "coordinates": [
                    18.61048,
                    49.99582
                ]
            },
            "properties": {
                "ref:rspo": 274578,
                "official_name": "Przedszkole Niepubliczne z Oddzia\u0142ami Integracyjnymi I Specjalnymi \"Dzwoneczek II\"",
                "name": "Przedszkole Niepubliczne z Oddzia\u0142ami Integracyjnymi I Specjalnymi \"Dzwoneczek II\"",
                "addr:postcode": "44-268",
                "addr:city": "Jastrz\u0119bie-Zdr\u00f3j",
                "addr:street": "Odpolany",
                "addr:housenumber": "5",
                "addr:city:simc": 940163,
                "addr:street:sym_ul": 31406,
                "email": "sekretariat@przedszkoledzwoneczek.pl",
                "ref:regon": "385990429",
                "operator": "Adez S.c.   Daria Stachniak,  Zuzanna Gruszczy\u0144ska",
                "operator:type": "consortium",
                "amenity": "kindergarten"
            }
        },
        {
            "id": 24137,
            "type": "Feature",
            "geometry": {
                "type": "Point",
                "coordinates": [
                    18.64415,
                    50.01016
                ]
            },
            "properties": {
                "ref:rspo": 24137,
                "official_name": "Publiczne Przedszkole nr 10",
                "name": "Publiczne Przedszkole nr 10",
                "addr:postcode": "44-268",
                "addr:city": "Jastrz\u0119bie-Zdr\u00f3j",
                "addr:street": "Edukacyjna",
                "addr:housenumber": "13A",
                "addr:city:simc": 940163,
                "addr:street:sym_ul": 4733,
                "phone": "+48 324714969",
                "email": "poczta@pp10.jastrzebie.pl",
                "website": "http:\/\/pp10.jastrzebie.pl",
                "ref:regon": "272000963",
                "ref:vatin": "PL6332027647",
                "operator": "Jastrz\u0119bie-Zdr\u00f3j - Miasto Na Prawach Powiatu",
                "operator:type": "government",
                "amenity": "kindergarten"
            }
        },
        {
            "id": 109230,
            "type": "Feature",
            "geometry": {
                "type": "Point",
                "coordinates": [
                    18.64415,
                    50.01013
                ]
            },
            "properties": {
                "isced:level": "1;2",
                "ref:rspo": 109230,
                "official_name": "Szko\u0142a Podstawowa nr 14 im. Ziemi \u015aL\u0105skiej",
                "name": "Szko\u0142a Podstawowa nr 14",
                "addr:postcode": "44-268",
                "addr:city": "Jastrz\u0119bie-Zdr\u00f3j",
                "addr:street": "Edukacyjna",
                "addr:housenumber": "13",
                "addr:city:simc": 940163,
                "addr:street:sym_ul": 4733,
                "phone": "+48 324710669",
                "email": "sekretariat@sp14.jastrzebie.pl",
                "website": "http:\/\/www.zs8-jastrzebiezdroj.pl",
                "ref:regon": "000728693",
                "operator": "Jastrz\u0119bie-Zdr\u00f3j - Miasto Na Prawach Powiatu",
                "operator:type": "government",
                "amenity": "school"
            }
        }
    ]
}