{
    "type": "FeatureCollection",
    "features": [
        {
            "id": 3523,
            "type": "Feature",
            "geometry": {
                "type": "Point",
                "coordinates": [
                    22.41952,
                    54.10512
                ]
            },
            "properties": {
                "isced:level": "1;2",
                "ref:rspo": 3523,
                "official_name": "Szko\u0142a Podstawowa w Sto\u017cnem",
                "name": "Szko\u0142a Podstawowa w Sto\u017cnem",
                "addr:country": "PL",
                "addr:postcode": "19-420",
                "addr:place": "Sto\u017cne",
                "addr:housenumber": "6",
                "addr:teryt:sym_ul": 760521,
                "contact:phone": "+48 875238679",
                "contact:email": "spstozne@kowaleoleckie.eu",
                "contact:website": "http:\/\/spstozne.edu.pl",
                "ref:regon": "001164755",
                "ref:vatin": "PL8471449293",
                "operator": "Gmina Kowale Oleckie",
                "operator:type": "government",
                "amenity": "school"
            }
        },
        {
            "id": 125676,
            "type": "Feature",
            "geometry": {
                "type": "Point",
                "coordinates": [
                    22.41952,
                    54.10509
                ]
            },
            "properties": {
                "ref:rspo": 125676,
                "official_name": "Punkt Przedszkolny w Sto\u017cnem",
                "name": "Punkt Przedszkolny w Sto\u017cnem",
                "addr:country": "PL",
                "addr:postcode": "19-420",
                "addr:place": "Sto\u017cne",
                "addr:housenumber": "6",
                "addr:teryt:sym_ul": 760521,
                "contact:phone": "+48 752238679",
                "contact:email": "spstozne@kowale.fr.pl",
                "ref:regon": "281631903",
                "operator": "Gmina Kowale Oleckie",
                "operator:type": "government",
                "amenity": "kindergarten"
            }
        },
        {
            "id": 121529,
            "type": "Feature",
            "geometry": {
                "type": "Point",
                "coordinates": [
                    22.3209899,
                    54.12667
                ]
            },
            "properties": {
                "ref:rspo": 121529,
                "official_name": "Punkt Przedszkolny w Sok\u00f3\u0142kach",
                "name": "Punkt Przedszkolny w Sok\u00f3\u0142kach",
                "addr:country": "PL",
                "addr:postcode": "19-420",
                "addr:place": "Sok\u00f3\u0142ki",
                "addr:housenumber": "45",
                "addr:teryt:sym_ul": 760490,
                "contact:phone": "+48 875238510",
                "contact:email": "spsokolki@op.pl",
                "ref:regon": "281559809",
                "operator": "Gmina Kowale Oleckie",
                "operator:type": "government",
                "amenity": "kindergarten"
            }
        },
        {
            "id": 9818,
            "type": "Feature",
            "geometry": {
                "type": "Point",
                "coordinates": [
                    22.3220199,
                    54.12681
                ]
            },
            "properties": {
                "isced:level": "1;2",
                "ref:rspo": 9818,
                "official_name": "Szko\u0142a Podstawowa im. Marii Konopnickiej w Sok\u00f3\u0142kach",
                "name": "Szko\u0142a Podstawowa",
                "addr:country": "PL",
                "addr:postcode": "19-420",
                "addr:place": "Sok\u00f3\u0142ki",
                "addr:housenumber": "47",
                "addr:teryt:sym_ul": 760490,
                "contact:phone": "+48 875238510",
                "contact:email": "spsokolki@op.pl",
                "contact:website": "http:\/\/www.zssokolki.pl",
                "ref:regon": "511403952",
                "ref:vatin": "PL8471457826",
                "operator": "Gmina Kowale Oleckie",
                "operator:type": "government",
                "amenity": "school"
            }
        },
        {
            "id": 3499,
            "type": "Feature",
            "geometry": {
                "type": "Point",
                "coordinates": [
                    22.4243,
                    54.16693
                ]
            },
            "properties": {
                "isced:level": "1;2",
                "ref:rspo": 3499,
                "official_name": "Szko\u0142a Podstawowa im. Jana Paw\u0142a II w Kowalach Oleckich",
                "name": "Szko\u0142a Podstawowa",
                "addr:country": "PL",
                "addr:postcode": "19-420",
                "addr:city": "Kowale Oleckie",
                "addr:street": "Wincentego Witosa",
                "addr:housenumber": "6",
                "addr:teryt:simc": 24454,
                "addr:teryt:sym_ul": 760432,
                "contact:phone": "+48 875238239",
                "contact:email": "spkowaleoleckie@wp.pl",
                "contact:website": "http:\/\/www.spkowaleoleckie.pl",
                "ref:regon": "000265187",
                "ref:vatin": "PL8471449376",
                "operator": "Gmina Kowale Oleckie",
                "operator:type": "government",
                "amenity": "school"
            }
        },
        {
            "id": 3524,
            "type": "Feature",
            "geometry": {
                "type": "Point",
                "coordinates": [
                    22.41476,
                    54.17003
                ]
            },
            "properties": {
                "ref:rspo": 3524,
                "official_name": "Przedszkole Samorz\u0105dowe w Kowalach Oleckich",
                "name": "Przedszkole Samorz\u0105dowe w Kowalach Oleckich",
                "addr:country": "PL",
                "addr:postcode": "19-420",
                "addr:city": "Kowale Oleckie",
                "addr:street": "Tadeusza Ko\u015bciuszki",
                "addr:housenumber": "88",
                "addr:door": "2",
                "addr:teryt:simc": 9572,
                "addr:teryt:sym_ul": 760432,
                "contact:phone": "+48 875238728",
                "contact:email": "przedszkole@kowaleoleckie.eu",
                "contact:website": "http:\/\/przedszkolekowaleoleckie.superszkolna.pl",
                "ref:regon": "001011201",
                "ref:vatin": "PL8471449347",
                "operator": "Gmina Kowale Oleckie",
                "operator:type": "government",
                "amenity": "kindergarten"
            }
        }
    ]
}