{
    "type": "FeatureCollection",
    "features": [
        {
            "id": 267618,
            "type": "Feature",
            "geometry": {
                "type": "Point",
                "coordinates": [
                    22.49686,
                    53.91641
                ]
            },
            "properties": {
                "ref:rspo": 267618,
                "official_name": "Zesp\u00f3\u0142 Wychowania Przedszkolnego w Kijewie",
                "name": "Zesp\u00f3\u0142 Wychowania Przedszkolnego w Kijewie",
                "addr:postcode": "19-404",
                "addr:place": "Kijewo",
                "addr:housenumber": "29",
                "addr:city:simc": 763459,
                "email": "spg@olecko.edu.pl",
                "ref:regon": "380434391",
                "operator": "Gmina Olecko",
                "operator:type": "government",
                "amenity": "kindergarten"
            }
        },
        {
            "id": 79350,
            "type": "Feature",
            "geometry": {
                "type": "Point",
                "coordinates": [
                    22.43905,
                    53.94595
                ]
            },
            "properties": {
                "ref:rspo": 79350,
                "official_name": "Zesp\u00f3\u0142 Wychowania Przedszkolnego Przy Szkole Podstawowej im.marsza\u0142ka J\u00f3zefa Pi\u0142sudskiego w G\u0105skach",
                "name": "Zesp\u00f3\u0142 Wychowania Przedszkolnego Przy Szkole Podstawowej im.marsza\u0142ka J\u00f3zefa Pi\u0142sudskiego w G\u0105skach",
                "addr:postcode": "19-400",
                "addr:place": "G\u0105ski",
                "addr:housenumber": "14",
                "addr:city:simc": 763360,
                "phone": "+48 875230376",
                "email": "spg@olecko.edu.pl",
                "website": "http:\/\/www.spg.olecko.edu.pl",
                "ref:regon": "281444986",
                "operator": "Gmina Olecko",
                "operator:type": "government",
                "amenity": "kindergarten"
            }
        },
        {
            "id": 79842,
            "type": "Feature",
            "geometry": {
                "type": "Point",
                "coordinates": [
                    22.43905,
                    53.94592
                ]
            },
            "properties": {
                "isced:level": "1;2",
                "ref:rspo": 79842,
                "official_name": "Szko\u0142a Podstawowa im.marsza\u0142ka J\u00f3zefa Pi\u0142sudskiego w G\u0105skach",
                "name": "Szko\u0142a Podstawowa im.marsza\u0142ka J\u00f3zefa Pi\u0142sudskiego w G\u0105skach",
                "addr:postcode": "19-400",
                "addr:place": "G\u0105ski",
                "addr:housenumber": "14",
                "addr:city:simc": 763360,
                "phone": "+48 875230376",
                "email": "spg@olecko.edu.pl",
                "website": "http:\/\/www.spg.olecko.edu.pl",
                "ref:regon": "001154722",
                "ref:vatin": "PL8471024725",
                "operator": "Gmina Olecko",
                "operator:type": "government",
                "amenity": "school"
            }
        },
        {
            "id": 70117,
            "type": "Feature",
            "geometry": {
                "type": "Point",
                "coordinates": [
                    22.51323,
                    54.02159
                ]
            },
            "properties": {
                "ref:rspo": 70117,
                "official_name": "Przedszkole Niepubliczne \"Bajka\"",
                "name": "Przedszkole Niepubliczne \"Bajka\"",
                "addr:postcode": "19-400",
                "addr:city": "Olecko",
                "addr:street": "Osiedle Osiedle Lesk",
                "addr:housenumber": "1a",
                "addr:city:simc": 977798,
                "addr:street:sym_ul": 38629,
                "email": "jolantalenkiewicz@op.pl",
                "ref:regon": "281441670",
                "operator": "Jolanta Lenkiewicz",
                "operator:type": "private",
                "amenity": "kindergarten"
            }
        },
        {
            "id": 35276,
            "type": "Feature",
            "geometry": {
                "type": "Point",
                "coordinates": [
                    22.48952,
                    54.02622
                ]
            },
            "properties": {
                "isced:level": "1;2",
                "ref:rspo": 35276,
                "official_name": "Szko\u0142a Podstawowa nr 4 z Oddzia\u0142ami Integracyjnymi im.ks.jana Twardowskiego w Olecku",
                "name": "Szko\u0142a Podstawowa nr 4 z Oddzia\u0142ami Integracyjnymi im.ks.jana Twardowskiego w Olecku",
                "addr:postcode": "19-400",
                "addr:city": "Olecko",
                "addr:street": "Osiedle Osiedle Siejnik I",
                "addr:housenumber": "14",
                "addr:city:simc": 977798,
                "addr:street:sym_ul": 38634,
                "phone": "+48 875239100",
                "email": "sp4@sp4.olecko.pl",
                "website": "http:\/\/www.sp4.olecko.pl",
                "ref:regon": "001154691",
                "operator": "Gmina Olecko",
                "operator:type": "government",
                "amenity": "school"
            }
        },
        {
            "id": 5629,
            "type": "Feature",
            "geometry": {
                "type": "Point",
                "coordinates": [
                    22.51118,
                    54.02765
                ]
            },
            "properties": {
                "isced:level": "3",
                "ref:rspo": 5629,
                "official_name": "I Liceum Og\u00f3lnokszta\u0142c\u0105ce im. Jana Kochanowskiego w Olecku",
                "name": "I Liceum Og\u00f3lnokszta\u0142c\u0105ce",
                "addr:postcode": "19-400",
                "addr:city": "Olecko",
                "addr:street": "Tadeusza Ko\u015bciuszki",
                "addr:housenumber": "29",
                "addr:city:simc": 977798,
                "addr:street:sym_ul": 9572,
                "phone": "+48 875234183",
                "email": "sekretariat@lo.olecko.pl",
                "website": "http:\/\/www.lo.olecko.pl",
                "ref:regon": "000695723",
                "ref:vatin": "PL8471025802",
                "operator": "Powiat Olecki",
                "operator:type": "government",
                "amenity": "school"
            }
        },
        {
            "id": 35274,
            "type": "Feature",
            "geometry": {
                "type": "Point",
                "coordinates": [
                    22.5081,
                    54.0292
                ]
            },
            "properties": {
                "isced:level": "1;2",
                "ref:rspo": 35274,
                "official_name": "Szko\u0142a Podstawowa nr 1 im.henryka Sienkiewicza w Olecku",
                "name": "Szko\u0142a Podstawowa nr 1 im.henryka Sienkiewicza w Olecku",
                "addr:postcode": "19-400",
                "addr:city": "Olecko",
                "addr:street": "Tadeusza Ko\u015bciuszki",
                "addr:housenumber": "20",
                "addr:city:simc": 977798,
                "addr:street:sym_ul": 9572,
                "phone": "+48 875230497",
                "email": "sp1@um.olecko.pl",
                "website": "http:\/\/www.sp1.olecko.edu.pl",
                "ref:regon": "001154679",
                "ref:vatin": "PL8471024211",
                "operator": "Gmina Olecko",
                "operator:type": "government",
                "amenity": "school"
            }
        },
        {
            "id": 7797,
            "type": "Feature",
            "geometry": {
                "type": "Point",
                "coordinates": [
                    22.498319625854,
                    54.031558990479
                ]
            },
            "properties": {
                "ref:rspo": 7797,
                "official_name": "Plac\u00f3wka O\u015bwiatowo-Wychowawcza Tanmuz Bogus\u0142aw Szlaszy\u0144ski",
                "name": "Plac\u00f3wka O\u015bwiatowo-Wychowawcza Tanmuz Bogus\u0142aw Szlaszy\u0144ski",
                "addr:postcode": "19-400",
                "addr:city": "Olecko",
                "addr:street": "Janusza Korczaka",
                "addr:housenumber": "2",
                "addr:city:simc": 977798,
                "addr:street:sym_ul": 9329,
                "phone": "+48 875204282",
                "email": "tanmuz@tanmuz.pl",
                "website": "http:\/\/tanmuz.pl\/",
                "ref:regon": "281424297",
                "ref:vatin": "PL8471138848",
                "operator": "Bogus\u0142aw Szlaszy\u0144ski",
                "operator:type": "private",
                "fixme": "w zale\u017cno\u015bci od przedmiotu dzia\u0142alno\u015bci (np. amenity=training + training=*, amenity=dancing_school, amenity=language_school, amenity=music_school)"
            }
        },
        {
            "id": 70113,
            "type": "Feature",
            "geometry": {
                "type": "Point",
                "coordinates": [
                    22.50912,
                    54.03298
                ]
            },
            "properties": {
                "ref:rspo": 70113,
                "official_name": "Przedszkole Niepubliczne \"Smyk\"",
                "name": "Przedszkole Niepubliczne \"Smyk\"",
                "addr:postcode": "19-400",
                "addr:city": "Olecko",
                "addr:street": "W\u0142adys\u0142awa Broniewskiego",
                "addr:housenumber": "9",
                "addr:city:simc": 977798,
                "addr:street:sym_ul": 2120,
                "phone": "+48 694650282",
                "email": "smyk.olecko@gmail.com",
                "website": "http:\/\/www.smyk.olecko.pl",
                "ref:regon": "281441657",
                "operator": "Renata Dunaj",
                "operator:type": "private",
                "amenity": "kindergarten"
            }
        },
        {
            "id": 35275,
            "type": "Feature",
            "geometry": {
                "type": "Point",
                "coordinates": [
                    22.49832,
                    54.03403
                ]
            },
            "properties": {
                "isced:level": "1;2",
                "ref:rspo": 35275,
                "official_name": "Szko\u0142a Podstawowa nr 3 im.jana Paw\u0142a II w Olecku",
                "name": "Szko\u0142a Podstawowa nr 3 im.jana Paw\u0142a II w Olecku",
                "addr:postcode": "19-400",
                "addr:city": "Olecko",
                "addr:street": "Kolejowa",
                "addr:housenumber": "33",
                "addr:city:simc": 977798,
                "addr:street:sym_ul": 8828,
                "phone": "+48 875202085",
                "email": "sp3@um.olecko.pl",
                "website": "http:\/\/www.sp3.olecko.edu.pl",
                "ref:regon": "001154685",
                "ref:vatin": "PL8471024323",
                "operator": "Gmina Olecko",
                "operator:type": "government",
                "amenity": "school"
            }
        },
        {
            "id": 26697,
            "type": "Feature",
            "geometry": {
                "type": "Point",
                "coordinates": [
                    22.5092,
                    54.03476
                ]
            },
            "properties": {
                "ref:rspo": 26697,
                "official_name": "Oleckie Centrum Szkolenia Kierowc\u00f3w Jerzy Miliszewski",
                "name": "Oleckie Centrum Szkolenia Kierowc\u00f3w Jerzy Miliszewski",
                "addr:postcode": "19-400",
                "addr:city": "Olecko",
                "addr:street": "Aleje Lipowe",
                "addr:housenumber": "3",
                "addr:city:simc": 977798,
                "addr:street:sym_ul": 36228,
                "phone": "+48 875202336",
                "email": "ocsk_jm@o2.pl",
                "website": "http:\/\/www.ocsk-prawko-olecko.pl",
                "ref:regon": "281434887",
                "ref:vatin": "PL8471002913",
                "operator": "Jerzy Miliszewski",
                "operator:type": "private",
                "fixme": "w zale\u017cno\u015bci od przedmiotu dzia\u0142alno\u015bci (np. amenity=training + training=*, amenity=dancing_school, amenity=language_school, amenity=music_school)"
            }
        },
        {
            "id": 29101,
            "type": "Feature",
            "geometry": {
                "type": "Point",
                "coordinates": [
                    22.50082,
                    54.03545
                ]
            },
            "properties": {
                "ref:rspo": 29101,
                "official_name": "Przedszkole z Oddzia\u0142ami Integracyjnymi Krasnal w Olecku",
                "name": "Przedszkole z Oddzia\u0142ami Integracyjnymi Krasnal w Olecku",
                "addr:postcode": "19-400",
                "addr:city": "Olecko",
                "addr:street": "Zielona",
                "addr:housenumber": "1",
                "addr:city:simc": 977798,
                "addr:street:sym_ul": 26081,
                "phone": "+48 875203212",
                "email": "pzoi@olecko.edu.pl",
                "website": "http:\/\/www.pzoi.olecko.edu.pl",
                "ref:regon": "790160097",
                "ref:vatin": "PL8471060359",
                "operator": "Gmina Olecko",
                "operator:type": "government",
                "amenity": "kindergarten"
            }
        },
        {
            "id": 273432,
            "type": "Feature",
            "geometry": {
                "type": "Point",
                "coordinates": [
                    22.50281,
                    54.03546
                ]
            },
            "properties": {
                "ref:rspo": 273432,
                "official_name": "Niepubliczne Przedszkole Abc",
                "name": "Niepubliczne Przedszkole Abc",
                "addr:postcode": "19-400",
                "addr:city": "Olecko",
                "addr:street": "Kolejowa",
                "addr:housenumber": "8",
                "addr:city:simc": 977798,
                "addr:street:sym_ul": 8828,
                "phone": "+48 514254525",
                "email": "dortes@wp.pl",
                "ref:regon": "384469765",
                "operator": "Dorota Smokowska",
                "operator:type": "private",
                "amenity": "kindergarten"
            }
        },
        {
            "id": 7796,
            "type": "Feature",
            "geometry": {
                "type": "Point",
                "coordinates": [
                    22.51051,
                    54.03706
                ]
            },
            "properties": {
                "isced:level": "3",
                "ref:rspo": 7796,
                "official_name": "Spo\u0142eczne Liceum Og\u00f3lnokszta\u0142c\u0105ce Spo\u0142ecznego Towarzystwa O\u015bwiatowego",
                "name": "Spo\u0142eczne Liceum Og\u00f3lnokszta\u0142c\u0105ce Spo\u0142ecznego Towarzystwa O\u015bwiatowego",
                "addr:postcode": "19-400",
                "addr:city": "Olecko",
                "addr:street": "M\u0142ynowa",
                "addr:housenumber": "8",
                "addr:city:simc": 977798,
                "addr:street:sym_ul": 13124,
                "phone": "+48 875202418",
                "email": "zssto-olecko@wp.pl",
                "website": "http:\/\/www.spoleczna.olecko.edu.pl",
                "ref:regon": "281427700",
                "operator": "Samodzielne Ko\u0142o Terenowe Nr 177 Spo\u0142ecznego Towarzystwa O\u015bwiatowego",
                "operator:type": "ngo",
                "amenity": "school"
            }
        },
        {
            "id": 66274,
            "type": "Feature",
            "geometry": {
                "type": "Point",
                "coordinates": [
                    22.51051,
                    54.037029999999994
                ]
            },
            "properties": {
                "isced:level": "1;2",
                "ref:rspo": 66274,
                "official_name": "Spo\u0142eczna Szko\u0142a Podstawowa Spo\u0142ecznego Towarzystwa O\u015bwiatowego w Olecku",
                "name": "Spo\u0142eczna Szko\u0142a Podstawowa Spo\u0142ecznego Towarzystwa O\u015bwiatowego w Olecku",
                "addr:postcode": "19-400",
                "addr:city": "Olecko",
                "addr:street": "M\u0142ynowa",
                "addr:housenumber": "8",
                "addr:city:simc": 977798,
                "addr:street:sym_ul": 13124,
                "phone": "+48 875202418",
                "email": "zssto-olecko@wp.pl",
                "website": "http:\/\/spoleczna.olecko.edu.pl",
                "ref:regon": "281444727",
                "operator": "Samodzielne Ko\u0142o Terenowe Nr 177 Spo\u0142ecznego Towarzystwa O\u015bwiatowego",
                "operator:type": "ngo",
                "amenity": "school"
            }
        },
        {
            "id": 123467,
            "type": "Feature",
            "geometry": {
                "type": "Point",
                "coordinates": [
                    22.50911,
                    54.03757
                ]
            },
            "properties": {
                "ref:rspo": 123467,
                "official_name": "Przedszkole Niepubliczne \"Kubu\u015b I Przyjaciele\"",
                "name": "Przedszkole Niepubliczne \"Kubu\u015b I Przyjaciele\"",
                "addr:postcode": "19-400",
                "addr:city": "Olecko",
                "addr:street": "W\u0105ska",
                "addr:housenumber": "1",
                "addr:city:simc": 977798,
                "addr:street:sym_ul": 23795,
                "phone": "+48 501555340",
                "email": "edytakarniej@wp.pl",
                "ref:regon": "281605739",
                "operator": "Edyta Karniej",
                "operator:type": "private",
                "amenity": "kindergarten"
            }
        },
        {
            "id": 75617,
            "type": "Feature",
            "geometry": {
                "type": "Point",
                "coordinates": [
                    22.50778,
                    54.03852
                ]
            },
            "properties": {
                "ref:rspo": 75617,
                "official_name": "Pa\u0144stwowa Szko\u0142a Muzyczna I St. im. Ignacego Jana Paderewskiego w Olecku",
                "name": "Pa\u0144stwowa Szko\u0142a Muzyczna I St.",
                "addr:postcode": "19-400",
                "addr:city": "Olecko",
                "addr:street": "1 Maja",
                "addr:housenumber": "1",
                "addr:city:simc": 977798,
                "addr:street:sym_ul": 11926,
                "phone": "+48 875203097",
                "email": "psm.olecko@gmail.com",
                "website": "http:\/\/psmolecko.pl",
                "ref:regon": "000285698",
                "operator": "Ministerstwo Kultury I Dziedzictwa Narodowego",
                "operator:type": "government",
                "amenity": "music_school"
            }
        },
        {
            "id": 125995,
            "type": "Feature",
            "geometry": {
                "type": "Point",
                "coordinates": [
                    22.5101,
                    54.03998
                ]
            },
            "properties": {
                "ref:rspo": 125995,
                "official_name": "Powiatowe Centrum Wspierania Edukacji w Olecku",
                "name": "Powiatowe Centrum Wspierania Edukacji w Olecku",
                "addr:postcode": "19-400",
                "addr:city": "Olecko",
                "addr:street": "Zamkowa",
                "addr:housenumber": "2",
                "addr:city:simc": 977798,
                "addr:street:sym_ul": 25547,
                "phone": "+48 875239338",
                "email": "ppp@powiat.olecko.pl",
                "website": "http:\/\/pcwe.olecko.pl\/",
                "ref:regon": "281614804",
                "operator": "Powiat Olecki",
                "operator:type": "government",
                "landuse": "education",
                "fixme": "amenity=school, amenity=college albo landuse=education w zale\u017cno\u015bci od tego, jakie plac\u00f3wki wchodz\u0105 w sk\u0142ad zespo\u0142u. Sprawd\u017a, kiedy stosowa\u0107 amenity=* a kiedy landuse=education.",
                "note": "Children RSPO: 5364;126028"
            }
        },
        {
            "id": 5364,
            "type": "Feature",
            "geometry": {
                "type": "Point",
                "coordinates": [
                    22.5101,
                    54.03995
                ]
            },
            "properties": {
                "ref:rspo": 5364,
                "official_name": "Poradnia Psychologiczno-Pedagogiczna w Olecku",
                "name": "Poradnia Psychologiczno-Pedagogiczna w Olecku",
                "addr:postcode": "19-400",
                "addr:city": "Olecko",
                "addr:street": "Zamkowa",
                "addr:housenumber": "2",
                "addr:city:simc": 977798,
                "addr:street:sym_ul": 25547,
                "phone": "+48 875239338",
                "email": "ppp@powiat.olecko.pl",
                "website": "http:\/\/www.poradnia-olecko.pl",
                "ref:regon": "000695775",
                "ref:vatin": "PL8471025682",
                "operator": "Powiat Olecki",
                "operator:type": "government",
                "healthcare": "counselling",
                "counselling_type": "education",
                "fixme": "w zale\u017cno\u015bci od przedmiotu dzia\u0142alno\u015bci (np. healthcare=counselling + counselling_type=education albo healthcare=psychotherapist)",
                "note": "Parent RSPO: 125995"
            }
        },
        {
            "id": 5611,
            "type": "Feature",
            "geometry": {
                "type": "Point",
                "coordinates": [
                    22.50993,
                    54.04066
                ]
            },
            "properties": {
                "ref:rspo": 5611,
                "official_name": "Zesp\u00f3\u0142 Szk\u00f3\u0142 Technicznych w Olecku",
                "name": "Zesp\u00f3\u0142 Szk\u00f3\u0142 Technicznych w Olecku",
                "addr:postcode": "19-400",
                "addr:city": "Olecko",
                "addr:street": "Plac Zamkowy",
                "addr:housenumber": "2",
                "addr:city:simc": 977798,
                "addr:street:sym_ul": 38633,
                "phone": "+48 875202253",
                "email": "zst@zst.olecko.pl",
                "website": "http:\/\/www.zst.olecko.pl",
                "ref:regon": "000182975",
                "ref:vatin": "PL8471026078",
                "operator": "Powiat Olecki",
                "operator:type": "government",
                "landuse": "education",
                "fixme": "amenity=school, amenity=college albo landuse=education w zale\u017cno\u015bci od tego, jakie plac\u00f3wki wchodz\u0105 w sk\u0142ad zespo\u0142u. Sprawd\u017a, kiedy stosowa\u0107 amenity=* a kiedy landuse=education.",
                "note": "Children RSPO: 31503;31558;40976;40977;42976;264491"
            }
        },
        {
            "id": 31503,
            "type": "Feature",
            "geometry": {
                "type": "Point",
                "coordinates": [
                    22.50993,
                    54.04063
                ]
            },
            "properties": {
                "isced:level": "3",
                "ref:rspo": 31503,
                "official_name": "Bran\u017cowa Szko\u0142a I Stopnia nr 2",
                "name": "Bran\u017cowa Szko\u0142a I Stopnia nr 2",
                "addr:postcode": "19-400",
                "addr:city": "Olecko",
                "addr:street": "Plac Zamkowy",
                "addr:housenumber": "2",
                "addr:city:simc": 977798,
                "addr:street:sym_ul": 38633,
                "phone": "+48 875202253",
                "email": "zst@zst.olecko.pl",
                "website": "http:\/\/www.zst.olecko.pl",
                "ref:regon": "519457657",
                "operator": "Powiat Olecki",
                "operator:type": "government",
                "amenity": "school",
                "note": "Parent RSPO: 5611"
            }
        },
        {
            "id": 31558,
            "type": "Feature",
            "geometry": {
                "type": "Point",
                "coordinates": [
                    22.50993,
                    54.040600000000005
                ]
            },
            "properties": {
                "isced:level": "3",
                "ref:rspo": 31558,
                "official_name": "Technikum nr 2",
                "name": "Technikum nr 2",
                "addr:postcode": "19-400",
                "addr:city": "Olecko",
                "addr:street": "Plac Zamkowy",
                "addr:housenumber": "2",
                "addr:city:simc": 977798,
                "addr:street:sym_ul": 38633,
                "phone": "+48 875202253",
                "email": "zst@zst.olecko.pl",
                "website": "http:\/\/www.zst.olecko.pl",
                "ref:regon": "280044799",
                "operator": "Powiat Olecki",
                "operator:type": "government",
                "amenity": "school",
                "note": "Parent RSPO: 5611"
            }
        },
        {
            "id": 40976,
            "type": "Feature",
            "geometry": {
                "type": "Point",
                "coordinates": [
                    22.50993,
                    54.04057
                ]
            },
            "properties": {
                "isced:level": "4",
                "ref:rspo": 40976,
                "official_name": "Szko\u0142a Policealna nr 2",
                "name": "Szko\u0142a Policealna nr 2",
                "addr:postcode": "19-400",
                "addr:city": "Olecko",
                "addr:street": "Plac Zamkowy",
                "addr:housenumber": "2",
                "addr:city:simc": 977798,
                "addr:street:sym_ul": 38633,
                "phone": "+48 875202253",
                "email": "zst@zst.olecko.pl",
                "website": "http:\/\/www.zst.olecko.pl",
                "ref:regon": "280044820",
                "operator": "Powiat Olecki",
                "operator:type": "government",
                "amenity": "college",
                "note": "Parent RSPO: 5611"
            }
        },
        {
            "id": 40977,
            "type": "Feature",
            "geometry": {
                "type": "Point",
                "coordinates": [
                    22.50993,
                    54.04054
                ]
            },
            "properties": {
                "ref:rspo": 40977,
                "official_name": "Centrum Kszta\u0142cenia Zawodowego Przy Zespole Szk\u00f3\u0142 Technicznych w Olecku",
                "name": "Centrum Kszta\u0142cenia Zawodowego Przy Zespole Szk\u00f3\u0142 Technicznych w Olecku",
                "addr:postcode": "19-400",
                "addr:city": "Olecko",
                "addr:street": "Plac Zamkowy",
                "addr:housenumber": "2",
                "addr:city:simc": 977798,
                "addr:street:sym_ul": 38633,
                "phone": "+48 875202253",
                "email": "zst@zst.olecko.pl",
                "website": "http:\/\/www.zst.olecko.pl",
                "ref:regon": "519457775",
                "operator": "Powiat Olecki",
                "operator:type": "government",
                "fixme": "w zale\u017cno\u015bci od przedmiotu dzia\u0142alno\u015bci (np. amenity=training + training=*, amenity=dancing_school, amenity=language_school, amenity=music_school) albo amenity=school, amenity=college, albo landuse=education w zale\u017cno\u015bci od tego, jakie plac\u00f3wki wchodz\u0105 w sk\u0142ad zespo\u0142u. Sprawd\u017a, kiedy stosowa\u0107 amenity=* a kiedy landuse=education.",
                "note": "Parent RSPO: 5611"
            }
        },
        {
            "id": 42976,
            "type": "Feature",
            "geometry": {
                "type": "Point",
                "coordinates": [
                    22.50993,
                    54.040510000000005
                ]
            },
            "properties": {
                "isced:level": "3",
                "ref:rspo": 42976,
                "official_name": "Ii Liceum Og\u00f3lnokszta\u0142c\u0105ce dla Doros\u0142ych",
                "name": "Ii Liceum Og\u00f3lnokszta\u0142c\u0105ce dla Doros\u0142ych",
                "addr:postcode": "19-400",
                "addr:city": "Olecko",
                "addr:street": "Plac Zamkowy",
                "addr:housenumber": "2",
                "addr:city:simc": 977798,
                "addr:street:sym_ul": 38633,
                "phone": "+48 875202253",
                "email": "zst@zst.olecko.pl",
                "website": "http:\/\/www.zst.olecko.pl",
                "ref:regon": "281437590",
                "operator": "Powiat Olecki",
                "operator:type": "government",
                "amenity": "school",
                "note": "Parent RSPO: 5611"
            }
        },
        {
            "id": 264491,
            "type": "Feature",
            "geometry": {
                "type": "Point",
                "coordinates": [
                    22.50993,
                    54.04048
                ]
            },
            "properties": {
                "isced:level": "1;2",
                "ref:rspo": 264491,
                "official_name": "Szko\u0142a Podstawowa dla Doros\u0142ych",
                "name": "Szko\u0142a Podstawowa dla Doros\u0142ych",
                "addr:postcode": "19-400",
                "addr:city": "Olecko",
                "addr:street": "Plac Zamkowy",
                "addr:housenumber": "2",
                "addr:city:simc": 977798,
                "addr:street:sym_ul": 38633,
                "phone": "+48 875202253",
                "email": "zst@zst.olecko.pl",
                "website": "http:\/\/www.zst.olecko.pl",
                "ref:regon": "368366380",
                "operator": "Powiat Olecki",
                "operator:type": "government",
                "amenity": "school",
                "note": "Parent RSPO: 5611"
            }
        },
        {
            "id": 5786,
            "type": "Feature",
            "geometry": {
                "type": "Point",
                "coordinates": [
                    22.49808,
                    54.0408
                ]
            },
            "properties": {
                "ref:rspo": 5786,
                "official_name": "O\u015brodek Szkolno-Wychowawczy dla Dzieci G\u0142uchych im. \u015aw. Filipa Smaldone w Olecku",
                "name": "O\u015brodek Szkolno-Wychowawczy dla Dzieci G\u0142uchych",
                "addr:postcode": "19-400",
                "addr:city": "Olecko",
                "addr:street": "S\u0142owia\u0144ska",
                "addr:housenumber": "2",
                "addr:city:simc": 977798,
                "addr:street:sym_ul": 20294,
                "phone": "+48 875203062",
                "email": "oswolecko@gmail.com",
                "website": "http:\/\/www.oswg.olecko.pl",
                "ref:regon": "000192620",
                "ref:vatin": "PL8471024151",
                "operator": "Powiat Olecki",
                "operator:type": "government",
                "amenity": "school",
                "note": "Children RSPO: 66767;68657;69260;69369;69375"
            }
        },
        {
            "id": 66767,
            "type": "Feature",
            "geometry": {
                "type": "Point",
                "coordinates": [
                    22.49808,
                    54.040769999999995
                ]
            },
            "properties": {
                "isced:level": "1;2",
                "ref:rspo": 66767,
                "official_name": "Specjalna Szko\u0142a Podstawowa nr 5",
                "name": "Specjalna Szko\u0142a Podstawowa nr 5",
                "addr:postcode": "19-400",
                "addr:city": "Olecko",
                "addr:street": "S\u0142owia\u0144ska",
                "addr:housenumber": "2",
                "addr:city:simc": 977798,
                "addr:street:sym_ul": 20294,
                "phone": "+48 875203062",
                "email": "osw_gluchych_olecko@poczta.fm",
                "website": "http:\/\/www.oswg.olecko.pl",
                "ref:regon": "000192488",
                "operator": "Powiat Olecki",
                "operator:type": "government",
                "amenity": "school",
                "note": "Parent RSPO: 5786"
            }
        },
        {
            "id": 68657,
            "type": "Feature",
            "geometry": {
                "type": "Point",
                "coordinates": [
                    22.49808,
                    54.04074
                ]
            },
            "properties": {
                "isced:level": "4",
                "ref:rspo": 68657,
                "official_name": "Specjalna Szko\u0142a Policealna nr 3",
                "name": "Specjalna Szko\u0142a Policealna nr 3",
                "addr:postcode": "19-400",
                "addr:city": "Olecko",
                "addr:street": "S\u0142owia\u0144ska",
                "addr:housenumber": "2",
                "addr:city:simc": 977798,
                "addr:street:sym_ul": 20294,
                "phone": "+48 875203062",
                "email": "osw_gluchych_olecko@poczta.fm",
                "website": "http:\/\/www.oswg.olecko.pl",
                "ref:regon": "280109168",
                "operator": "Powiat Olecki",
                "operator:type": "government",
                "amenity": "college",
                "note": "Parent RSPO: 5786"
            }
        },
        {
            "id": 69260,
            "type": "Feature",
            "geometry": {
                "type": "Point",
                "coordinates": [
                    22.49808,
                    54.04071
                ]
            },
            "properties": {
                "ref:rspo": 69260,
                "official_name": "Specjalna Szko\u0142a Przysposabiaj\u0105ca do Pracy",
                "name": "Specjalna Szko\u0142a Przysposabiaj\u0105ca do Pracy",
                "addr:postcode": "19-400",
                "addr:city": "Olecko",
                "addr:street": "S\u0142owia\u0144ska",
                "addr:housenumber": "2",
                "addr:city:simc": 977798,
                "addr:street:sym_ul": 20294,
                "phone": "+48 875203062",
                "email": "osw_gluchych_olecko@poczta.fm",
                "website": "http:\/\/www.oswg.olecko.pl",
                "ref:regon": "280289680",
                "operator": "Powiat Olecki",
                "operator:type": "government",
                "amenity": "school",
                "note": "Parent RSPO: 5786"
            }
        },
        {
            "id": 69369,
            "type": "Feature",
            "geometry": {
                "type": "Point",
                "coordinates": [
                    22.49808,
                    54.040679999999995
                ]
            },
            "properties": {
                "isced:level": "3",
                "ref:rspo": 69369,
                "official_name": "Bran\u017cowa Szko\u0142a Specjalna I Stopnia nr 3",
                "name": "Bran\u017cowa Szko\u0142a Specjalna I Stopnia nr 3",
                "addr:postcode": "19-400",
                "addr:city": "Olecko",
                "addr:street": "S\u0142owia\u0144ska",
                "addr:housenumber": "2",
                "addr:city:simc": 977798,
                "addr:street:sym_ul": 20294,
                "phone": "+48 875203062",
                "email": "osw_gluchych_olecko@poczta.fm",
                "website": "http:\/\/www.oswg.olecko.pl",
                "ref:regon": "519556922",
                "operator": "Powiat Olecki",
                "operator:type": "government",
                "amenity": "school",
                "note": "Parent RSPO: 5786"
            }
        },
        {
            "id": 69375,
            "type": "Feature",
            "geometry": {
                "type": "Point",
                "coordinates": [
                    22.49808,
                    54.04065
                ]
            },
            "properties": {
                "isced:level": "3",
                "ref:rspo": 69375,
                "official_name": "Technikum Specjalne nr 3",
                "name": "Technikum Specjalne nr 3",
                "addr:postcode": "19-400",
                "addr:city": "Olecko",
                "addr:street": "S\u0142owia\u0144ska",
                "addr:housenumber": "2",
                "addr:city:simc": 977798,
                "addr:street:sym_ul": 20294,
                "phone": "+48 875203062",
                "email": "osw_gluchych_olecko@poczta.fm",
                "website": "http:\/\/www.oswg.olecko.pl",
                "ref:regon": "280289696",
                "operator": "Powiat Olecki",
                "operator:type": "government",
                "amenity": "school",
                "note": "Parent RSPO: 5786"
            }
        },
        {
            "id": 262489,
            "type": "Feature",
            "geometry": {
                "type": "Point",
                "coordinates": [
                    22.49886,
                    54.04084
                ]
            },
            "properties": {
                "isced:level": "1;2",
                "ref:rspo": 262489,
                "official_name": "Szko\u0142a Podstawowa nr 2 im.miko\u0142aja Kopernika w Olecku",
                "name": "Szko\u0142a Podstawowa nr 2 im.miko\u0142aja Kopernika w Olecku",
                "addr:postcode": "19-400",
                "addr:city": "Olecko",
                "addr:street": "S\u0142owia\u0144ska",
                "addr:housenumber": "1",
                "addr:city:simc": 977798,
                "addr:street:sym_ul": 20294,
                "phone": "+48 875202086",
                "email": "sp2@olecko.edu.pl",
                "website": "http:\/\/www.sp2.olecko.edu.pl",
                "ref:regon": "368022700",
                "operator": "Gmina Olecko",
                "operator:type": "government",
                "amenity": "school"
            }
        },
        {
            "id": 22182,
            "type": "Feature",
            "geometry": {
                "type": "Point",
                "coordinates": [
                    22.502,
                    54.04093
                ]
            },
            "properties": {
                "ref:rspo": 22182,
                "official_name": "Zak\u0142ad Doskonalenia Zawodowego w Bia\u0142ymstoku O\u015brodek Kszta\u0142cenia Zawodowego w Olecku",
                "name": "Zak\u0142ad Doskonalenia Zawodowego w Bia\u0142ymstoku O\u015brodek Kszta\u0142cenia Zawodowego w Olecku",
                "addr:postcode": "19-400",
                "addr:city": "Olecko",
                "addr:street": "Armii Krajowej",
                "addr:housenumber": "22A",
                "addr:city:simc": 977798,
                "addr:street:sym_ul": 432,
                "phone": "+48 875202635",
                "email": "olecko@zdz.bialystok.pl",
                "website": "http:\/\/www.zdz.bialystok.pl",
                "ref:regon": "281432960",
                "operator": "Zak\u0142ad Doskonalenia Zawodowego",
                "operator:type": "ngo",
                "fixme": "w zale\u017cno\u015bci od przedmiotu dzia\u0142alno\u015bci (np. amenity=training + training=*, amenity=dancing_school, amenity=language_school, amenity=music_school)"
            }
        },
        {
            "id": 274428,
            "type": "Feature",
            "geometry": {
                "type": "Point",
                "coordinates": [
                    22.502,
                    54.0409
                ]
            },
            "properties": {
                "isced:level": "3",
                "ref:rspo": 274428,
                "official_name": "Liceum Og\u00f3lnokszta\u0142c\u0105ce dla Doros\u0142ych Zak\u0142adu Doskonalenia Zawodowego w Bia\u0142ymstoku z Siedzib\u0105 w Olecku",
                "name": "Liceum Og\u00f3lnokszta\u0142c\u0105ce dla Doros\u0142ych Zak\u0142adu Doskonalenia Zawodowego w Bia\u0142ymstoku z Siedzib\u0105 w Olecku",
                "addr:postcode": "19-400",
                "addr:city": "Olecko",
                "addr:street": "Armii Krajowej",
                "addr:housenumber": "22A",
                "addr:city:simc": 977798,
                "addr:street:sym_ul": 432,
                "phone": "+48 875202635",
                "email": "olecko@zdz.bialystok.pl",
                "website": "http:\/\/olecko.zdz.bialystok.pl\/szkola",
                "ref:regon": "385790162",
                "operator": "Zak\u0142ad Doskonalenia Zawodowego",
                "operator:type": "ngo",
                "amenity": "school"
            }
        },
        {
            "id": 7791,
            "type": "Feature",
            "geometry": {
                "type": "Point",
                "coordinates": [
                    22.50115,
                    54.04117
                ]
            },
            "properties": {
                "ref:rspo": 7791,
                "official_name": "Niepubliczna Poradnia Psychologiczno-Pedagogiczna w Olecku",
                "name": "Niepubliczna Poradnia Psychologiczno-Pedagogiczna w Olecku",
                "addr:postcode": "19-400",
                "addr:city": "Olecko",
                "addr:street": "Armii Krajowej",
                "addr:housenumber": "26",
                "addr:city:simc": 977798,
                "addr:street:sym_ul": 432,
                "phone": "+48 602617750",
                "email": "dacnadziejeolecko@wp.pl",
                "website": "https:\/\/ce-olecko.edupage.org\/text8\/",
                "ref:regon": "281424860",
                "ref:vatin": "PL8471447905",
                "operator": "Stowarzyszenie \"Da\u0107 Nadziej\u0119\" W Olecku",
                "operator:type": "ngo",
                "healthcare": "counselling",
                "counselling_type": "education",
                "fixme": "w zale\u017cno\u015bci od przedmiotu dzia\u0142alno\u015bci (np. healthcare=counselling + counselling_type=education albo healthcare=psychotherapist)"
            }
        },
        {
            "id": 126028,
            "type": "Feature",
            "geometry": {
                "type": "Point",
                "coordinates": [
                    22.50024,
                    54.04134
                ]
            },
            "properties": {
                "ref:rspo": 126028,
                "official_name": "Powiatowa Biblioteka Pedagogiczna w Olecku",
                "name": "Powiatowa Biblioteka Pedagogiczna w Olecku",
                "addr:postcode": "19-400",
                "addr:city": "Olecko",
                "addr:street": "Armii Krajowej",
                "addr:housenumber": "30",
                "addr:city:simc": 977798,
                "addr:street:sym_ul": 432,
                "phone": "+48 875239353",
                "email": "biblioteka_olecko@op.pl",
                "website": "http:\/\/pcwe.olecko.pl\/biblioteka\/home.html",
                "ref:regon": "281615614",
                "ref:vatin": "PL8471614042",
                "operator": "Powiat Olecki",
                "operator:type": "government",
                "amenity": "library",
                "note": "Parent RSPO: 125995"
            }
        },
        {
            "id": 70115,
            "type": "Feature",
            "geometry": {
                "type": "Point",
                "coordinates": [
                    22.4902,
                    54.04466
                ]
            },
            "properties": {
                "ref:rspo": 70115,
                "official_name": "Integracyjne Przedszkole Niepubliczne \"Jedyneczka\"Anna Derencz",
                "name": "Integracyjne Przedszkole Niepubliczne \"Jedyneczka\"Anna Derencz",
                "addr:postcode": "19-400",
                "addr:city": "Olecko",
                "addr:street": "Wiejska",
                "addr:housenumber": "14a",
                "addr:city:simc": 977798,
                "addr:street:sym_ul": 24048,
                "phone": "+48 667308208",
                "email": "annaderencz@yahoo.com",
                "website": "http:\/\/www.jedyneczkaolecko.pl",
                "ref:regon": "281441663",
                "operator": "Anna Derencz",
                "operator:type": "private",
                "amenity": "kindergarten"
            }
        },
        {
            "id": 7766,
            "type": "Feature",
            "geometry": {
                "type": "Point",
                "coordinates": [
                    22.49301,
                    54.04474
                ]
            },
            "properties": {
                "ref:rspo": 7766,
                "official_name": "Centrum Edukacyjno-Terapeutyczne w Olecku",
                "name": "Centrum Edukacyjno-Terapeutyczne w Olecku",
                "addr:postcode": "19-400",
                "addr:city": "Olecko",
                "addr:street": "Wiejska",
                "addr:housenumber": "12",
                "addr:door": "B",
                "addr:city:simc": 977798,
                "addr:street:sym_ul": 24048,
                "email": "ceolecko@wp.pl",
                "website": "https:\/\/ce-olecko.edupage.org\/",
                "ref:regon": "281427717",
                "ref:vatin": "PL8471447905",
                "operator": "Stowarzyszenie \"Da\u0107 Nadziej\u0119\" W Olecku",
                "operator:type": "ngo",
                "landuse": "education",
                "fixme": "amenity=school, amenity=college albo landuse=education w zale\u017cno\u015bci od tego, jakie plac\u00f3wki wchodz\u0105 w sk\u0142ad zespo\u0142u. Sprawd\u017a, kiedy stosowa\u0107 amenity=* a kiedy landuse=education.",
                "note": "Children RSPO: 114967;114974"
            }
        },
        {
            "id": 114967,
            "type": "Feature",
            "geometry": {
                "type": "Point",
                "coordinates": [
                    22.49301,
                    54.044709999999995
                ]
            },
            "properties": {
                "isced:level": "1;2",
                "ref:rspo": 114967,
                "official_name": "Specjalna Szko\u0142a Podstawowa z Oddzia\u0142ami Przedszkolnymi w Centrum Edukacyjno-Terapeutycznym w Olecku",
                "name": "Specjalna Szko\u0142a Podstawowa z Oddzia\u0142ami Przedszkolnymi w Centrum Edukacyjno-Terapeutycznym w Olecku",
                "addr:postcode": "19-400",
                "addr:city": "Olecko",
                "addr:street": "Wiejska",
                "addr:housenumber": "12 B",
                "addr:city:simc": 977798,
                "addr:street:sym_ul": 24048,
                "phone": "+48 698404538",
                "email": "ceolecko@wp.pl",
                "website": "http:\/\/www.ce-olecko.edupage.org",
                "ref:regon": "281504688",
                "operator": "Stowarzyszenie \"Da\u0107 Nadziej\u0119\" W Olecku",
                "operator:type": "ngo",
                "amenity": "school",
                "note": "Parent RSPO: 7766"
            }
        },
        {
            "id": 114974,
            "type": "Feature",
            "geometry": {
                "type": "Point",
                "coordinates": [
                    22.49301,
                    54.04468
                ]
            },
            "properties": {
                "ref:rspo": 114974,
                "official_name": "Specjalna Szko\u0142a Przysposabiaj\u0105ca do Pracy w Centrum Edukacyjno-Terapeutycznym w Olecku",
                "name": "Specjalna Szko\u0142a Przysposabiaj\u0105ca do Pracy w Centrum Edukacyjno-Terapeutycznym w Olecku",
                "addr:postcode": "19-400",
                "addr:city": "Olecko",
                "addr:street": "Wiejska",
                "addr:housenumber": "12 B",
                "addr:city:simc": 977798,
                "addr:street:sym_ul": 24048,
                "phone": "+48 698404538",
                "email": "ceolecko@wp.pl",
                "website": "http:\/\/www.ce-olecko.edupage.org",
                "ref:regon": "281505357",
                "operator": "Stowarzyszenie \"Da\u0107 Nadziej\u0119\" W Olecku",
                "operator:type": "ngo",
                "amenity": "school",
                "note": "Parent RSPO: 7766"
            }
        },
        {
            "id": 5887,
            "type": "Feature",
            "geometry": {
                "type": "Point",
                "coordinates": [
                    22.49416,
                    54.04681
                ]
            },
            "properties": {
                "ref:rspo": 5887,
                "official_name": "Zesp\u00f3\u0142 Szk\u00f3\u0142 Licealnych I Zawodowych w Olecku",
                "name": "Zesp\u00f3\u0142 Szk\u00f3\u0142 Licealnych I Zawodowych w Olecku",
                "addr:postcode": "19-400",
                "addr:city": "Olecko",
                "addr:street": "Go\u0142dapska",
                "addr:housenumber": "29",
                "addr:city:simc": 977798,
                "addr:street:sym_ul": 5759,
                "phone": "+48 875202251",
                "email": "zsliz.olecko1@gmail.com",
                "website": "http:\/\/www.zsliz.olecko.szkolnastrona.pl",
                "ref:regon": "000096951",
                "ref:vatin": "PL8471022703",
                "operator": "Powiat Olecki",
                "operator:type": "government",
                "landuse": "education",
                "fixme": "amenity=school, amenity=college albo landuse=education w zale\u017cno\u015bci od tego, jakie plac\u00f3wki wchodz\u0105 w sk\u0142ad zespo\u0142u. Sprawd\u017a, kiedy stosowa\u0107 amenity=* a kiedy landuse=education.",
                "note": "Children RSPO: 59935;59936;59938"
            }
        },
        {
            "id": 59935,
            "type": "Feature",
            "geometry": {
                "type": "Point",
                "coordinates": [
                    22.49416,
                    54.04678
                ]
            },
            "properties": {
                "isced:level": "3",
                "ref:rspo": 59935,
                "official_name": "Technikum nr 1",
                "name": "Technikum nr 1",
                "addr:postcode": "19-400",
                "addr:city": "Olecko",
                "addr:street": "Go\u0142dapska",
                "addr:housenumber": "29",
                "addr:city:simc": 977798,
                "addr:street:sym_ul": 5759,
                "phone": "+48 875202251",
                "email": "zsliz.olecko1@gmail.com",
                "website": "http:\/\/www.zsliz.olecko.szkolnastrona.pl",
                "ref:regon": "280045623",
                "operator": "Powiat Olecki",
                "operator:type": "government",
                "amenity": "school",
                "note": "Parent RSPO: 5887"
            }
        },
        {
            "id": 59936,
            "type": "Feature",
            "geometry": {
                "type": "Point",
                "coordinates": [
                    22.49416,
                    54.04675
                ]
            },
            "properties": {
                "isced:level": "3",
                "ref:rspo": 59936,
                "official_name": "Bran\u017cowa Szko\u0142a I Stopnia nr 1",
                "name": "Bran\u017cowa Szko\u0142a I Stopnia nr 1",
                "addr:postcode": "19-400",
                "addr:city": "Olecko",
                "addr:street": "Go\u0142dapska",
                "addr:housenumber": "29",
                "addr:city:simc": 977798,
                "addr:street:sym_ul": 5759,
                "phone": "+48 875202251",
                "email": "zsliz.olecko1@gmail.com",
                "website": "http:\/\/www.zsliz.olecko.szkolnastrona.pl",
                "ref:regon": "281439850",
                "operator": "Powiat Olecki",
                "operator:type": "government",
                "amenity": "school",
                "note": "Parent RSPO: 5887"
            }
        },
        {
            "id": 59938,
            "type": "Feature",
            "geometry": {
                "type": "Point",
                "coordinates": [
                    22.49416,
                    54.04672
                ]
            },
            "properties": {
                "isced:level": "4",
                "ref:rspo": 59938,
                "official_name": "Szko\u0142a Policealna nr 1",
                "name": "Szko\u0142a Policealna nr 1",
                "addr:postcode": "19-400",
                "addr:city": "Olecko",
                "addr:street": "Go\u0142dapska",
                "addr:housenumber": "29",
                "addr:city:simc": 977798,
                "addr:street:sym_ul": 5759,
                "phone": "+48 875202251",
                "email": "zsliz.olecko1@gmail.com",
                "website": "http:\/\/www.zsliz.olecko.szkolnastrona.pl",
                "ref:regon": "280045630",
                "operator": "Powiat Olecki",
                "operator:type": "government",
                "amenity": "college",
                "note": "Parent RSPO: 5887"
            }
        },
        {
            "id": 35269,
            "type": "Feature",
            "geometry": {
                "type": "Point",
                "coordinates": [
                    22.50299,
                    54.0854
                ]
            },
            "properties": {
                "isced:level": "1;2",
                "ref:rspo": 35269,
                "official_name": "Szko\u0142a Podstawowa w Babkach Oleckich",
                "name": "Szko\u0142a Podstawowa w Babkach Oleckich",
                "addr:postcode": "19-400",
                "addr:place": "Babki Oleckie",
                "addr:housenumber": "12",
                "addr:city:simc": 763258,
                "phone": "+48 875206228",
                "email": "spbo@olecko.edu.pl",
                "website": "http:\/\/www.spbabkioleckie.edupage.org",
                "ref:regon": "519454854",
                "operator": "Gmina Olecko",
                "operator:type": "government",
                "amenity": "school"
            }
        },
        {
            "id": 79349,
            "type": "Feature",
            "geometry": {
                "type": "Point",
                "coordinates": [
                    22.50299,
                    54.08537
                ]
            },
            "properties": {
                "ref:rspo": 79349,
                "official_name": "Zesp\u00f3\u0142 Wychowania Przedszkolnego Przy Szkole Podstawowej w Babkach Oleckich",
                "name": "Zesp\u00f3\u0142 Wychowania Przedszkolnego Przy Szkole Podstawowej w Babkach Oleckich",
                "addr:postcode": "19-400",
                "addr:place": "Babki Oleckie",
                "addr:housenumber": "12",
                "addr:city:simc": 763258,
                "phone": "+48 875206228",
                "email": "spbo@olecko.edu.pl",
                "website": "http:\/\/www.spbabkioleckie.edupage.org",
                "ref:regon": "281444957",
                "operator": "Gmina Olecko",
                "operator:type": "government",
                "amenity": "kindergarten"
            }
        },
        {
            "id": 35267,
            "type": "Feature",
            "geometry": {
                "type": "Point",
                "coordinates": [
                    22.51114,
                    54.11457
                ]
            },
            "properties": {
                "isced:level": "1;2",
                "ref:rspo": 35267,
                "official_name": "Szko\u0142a Podstawowa w Judzikach",
                "name": "Szko\u0142a Podstawowa w Judzikach",
                "addr:postcode": "19-400",
                "addr:place": "Judziki",
                "addr:housenumber": "5",
                "addr:city:simc": 763442,
                "phone": "+48 875207696",
                "email": "zsj@hot.pl",
                "website": "http:\/\/zsj.olecko.edu.pl",
                "ref:regon": "519454908",
                "operator": "Gmina Olecko",
                "operator:type": "government",
                "amenity": "school"
            }
        },
        {
            "id": 83639,
            "type": "Feature",
            "geometry": {
                "type": "Point",
                "coordinates": [
                    22.51114,
                    54.11454
                ]
            },
            "properties": {
                "ref:rspo": 83639,
                "official_name": "Zesp\u00f3\u0142 Wychowania Przedszkolnego Przy Szkole Podstawowej w Judzikach",
                "name": "Zesp\u00f3\u0142 Wychowania Przedszkolnego Przy Szkole Podstawowej w Judzikach",
                "addr:postcode": "19-400",
                "addr:place": "Judziki",
                "addr:housenumber": "5",
                "addr:city:simc": 763442,
                "phone": "+48 875207696",
                "email": "zsj@hot.pl",
                "website": "http:\/\/zsj.olecko.edu.pl",
                "ref:regon": "281445879",
                "operator": "Gmina Olecko",
                "operator:type": "government",
                "amenity": "kindergarten"
            }
        }
    ]
}