{
    "type": "FeatureCollection",
    "features": [
        {
            "id": 10360,
            "type": "Feature",
            "geometry": {
                "type": "Point",
                "coordinates": [
                    19.4069,
                    52.12412
                ]
            },
            "properties": {
                "ref:rspo": 10360,
                "official_name": "Zesp\u00f3\u0142 Wychowania Przedszkolnego w Szkole Podstawowej w Kterach",
                "name": "Zesp\u00f3\u0142 Wychowania Przedszkolnego w Szkole Podstawowej w Kterach",
                "addr:postcode": "99-314",
                "addr:place": "Ktery",
                "addr:housenumber": "34",
                "addr:city:simc": 568054,
                "email": "spkterya@wp.pl",
                "ref:regon": "101467211",
                "operator": "Gmina Krzy\u017can\u00f3w",
                "operator:type": "government",
                "amenity": "kindergarten"
            }
        },
        {
            "id": 59552,
            "type": "Feature",
            "geometry": {
                "type": "Point",
                "coordinates": [
                    19.4069,
                    52.124089999999995
                ]
            },
            "properties": {
                "isced:level": "1;2",
                "ref:rspo": 59552,
                "official_name": "Szko\u0142a Podstawowa im. Prof. W\u0142adys\u0142awa Szafera w Kterach",
                "name": "Szko\u0142a Podstawowa",
                "addr:postcode": "99-314",
                "addr:place": "Ktery",
                "addr:housenumber": "34",
                "addr:city:simc": 568054,
                "phone": "+48 243562612",
                "email": "spkterya@wp.pl",
                "ref:regon": "472905942",
                "ref:vatin": "PL7752353791",
                "operator": "Gmina Krzy\u017can\u00f3w",
                "operator:type": "government",
                "amenity": "school"
            }
        },
        {
            "id": 34355,
            "type": "Feature",
            "geometry": {
                "type": "Point",
                "coordinates": [
                    19.41234,
                    52.17869
                ]
            },
            "properties": {
                "ref:rspo": 34355,
                "official_name": "Zesp\u00f3\u0142 Szk\u00f3\u0142 Centrum Kszta\u0142cenia Rolniczego im. Macieja Rataja w Mieczys\u0142awowie",
                "name": "Zesp\u00f3\u0142 Szk\u00f3\u0142 Centrum Kszta\u0142cenia Rolniczego",
                "addr:postcode": "99-314",
                "addr:place": "Mieczys\u0142aw\u00f3w",
                "addr:housenumber": "2",
                "addr:city:simc": 568410,
                "phone": "+48 242542085",
                "email": "zsckrmieczyslawow@wp.pl",
                "website": "http:\/\/www.mieczyslawow.edu.pl",
                "ref:regon": "000097034",
                "ref:vatin": "PL7752552705",
                "operator": "Ministerstwo Rolnictwa I Rozwoju Wsi",
                "operator:type": "public",
                "landuse": "education",
                "fixme": "amenity=school, amenity=college albo landuse=education w zale\u017cno\u015bci od tego, jakie plac\u00f3wki wchodz\u0105 w sk\u0142ad zespo\u0142u. Sprawd\u017a, kiedy stosowa\u0107 amenity=* a kiedy landuse=education.",
                "note": "Children RSPO: 104991;105005;119906;129102"
            }
        },
        {
            "id": 104991,
            "type": "Feature",
            "geometry": {
                "type": "Point",
                "coordinates": [
                    19.41234,
                    52.17866
                ]
            },
            "properties": {
                "isced:level": "3",
                "ref:rspo": 104991,
                "official_name": "Technikum w Mieczys\u0142awowie",
                "name": "Technikum w Mieczys\u0142awowie",
                "addr:postcode": "99-314",
                "addr:place": "Mieczys\u0142aw\u00f3w",
                "addr:housenumber": "2",
                "addr:city:simc": 568410,
                "phone": "+48 242542085",
                "email": "zsckrmieczyslawow@wp.pl",
                "website": "http:\/\/www.mieczyslawow.edu.pl",
                "ref:regon": "472895729",
                "operator": "Ministerstwo Rolnictwa I Rozwoju Wsi",
                "operator:type": "public",
                "amenity": "school",
                "note": "Parent RSPO: 34355"
            }
        },
        {
            "id": 105005,
            "type": "Feature",
            "geometry": {
                "type": "Point",
                "coordinates": [
                    19.41234,
                    52.178630000000005
                ]
            },
            "properties": {
                "isced:level": "3",
                "ref:rspo": 105005,
                "official_name": "Bran\u017cowa Szko\u0142a I Stopnia w Mieczys\u0142awowie",
                "name": "Bran\u017cowa Szko\u0142a I Stopnia w Mieczys\u0142awowie",
                "addr:postcode": "99-314",
                "addr:place": "Mieczys\u0142aw\u00f3w",
                "addr:housenumber": "2",
                "addr:city:simc": 568410,
                "phone": "+48 242542085",
                "email": "zsckrmieczyslawow@wp.pl",
                "website": "http:\/\/www.mieczyslawow.edu.pl",
                "ref:regon": "101300669",
                "operator": "Ministerstwo Rolnictwa I Rozwoju Wsi",
                "operator:type": "public",
                "amenity": "school",
                "note": "Parent RSPO: 34355"
            }
        },
        {
            "id": 119906,
            "type": "Feature",
            "geometry": {
                "type": "Point",
                "coordinates": [
                    19.41234,
                    52.1786
                ]
            },
            "properties": {
                "ref:rspo": 119906,
                "official_name": "Centrum Kszta\u0142cenia Ustawicznego w Mieczys\u0142awowie",
                "name": "Centrum Kszta\u0142cenia Ustawicznego w Mieczys\u0142awowie",
                "addr:postcode": "99-314",
                "addr:place": "Mieczys\u0142aw\u00f3w",
                "addr:housenumber": "2",
                "addr:city:simc": 568410,
                "phone": "+48 243562748",
                "email": "zsckrmieczyslawow@wp.pl",
                "website": "http:\/\/www.mieczyslawow.edu.pl",
                "ref:regon": "101664437",
                "operator": "Ministerstwo Rolnictwa I Rozwoju Wsi",
                "operator:type": "public",
                "fixme": "w zale\u017cno\u015bci od przedmiotu dzia\u0142alno\u015bci (np. amenity=training + training=*, amenity=dancing_school, amenity=language_school, amenity=music_school)",
                "note": "Parent RSPO: 34355"
            }
        },
        {
            "id": 129102,
            "type": "Feature",
            "geometry": {
                "type": "Point",
                "coordinates": [
                    19.46275,
                    52.1841099
                ]
            },
            "properties": {
                "isced:level": "4",
                "ref:rspo": 129102,
                "official_name": "Szko\u0142a Policealna w Mieczys\u0142awowie",
                "name": "Szko\u0142a Policealna w Mieczys\u0142awowie",
                "addr:postcode": "99-314",
                "addr:place": "Krzy\u017can\u00f3w",
                "addr:housenumber": "2",
                "addr:city:simc": 568019,
                "phone": "+48 242542085",
                "email": "zsckrmieczyslawow@wp.pl",
                "website": "http:\/\/www.mieczyslawow.edu.pl",
                "ref:regon": "362478356",
                "operator": "Ministerstwo Rolnictwa I Rozwoju Wsi",
                "operator:type": "public",
                "amenity": "college",
                "note": "Parent RSPO: 34355"
            }
        },
        {
            "id": 10362,
            "type": "Feature",
            "geometry": {
                "type": "Point",
                "coordinates": [
                    19.44109,
                    52.18745
                ]
            },
            "properties": {
                "ref:rspo": 10362,
                "official_name": "Zesp\u00f3\u0142 Wychowania Przedszkolnego w Szkole Podstawowej w Krzy\u017canowie",
                "name": "Zesp\u00f3\u0142 Wychowania Przedszkolnego w Szkole Podstawowej w Krzy\u017canowie",
                "addr:postcode": "99-314",
                "addr:place": "Krzy\u017can\u00f3w",
                "addr:housenumber": "6",
                "addr:city:simc": 568019,
                "phone": "+48 243562223",
                "email": "sp.krzyzanow@op.pl",
                "ref:regon": "101462260",
                "operator": "Gmina Krzy\u017can\u00f3w",
                "operator:type": "government",
                "amenity": "kindergarten"
            }
        },
        {
            "id": 59561,
            "type": "Feature",
            "geometry": {
                "type": "Point",
                "coordinates": [
                    19.44109,
                    52.187419999999996
                ]
            },
            "properties": {
                "isced:level": "1;2",
                "ref:rspo": 59561,
                "official_name": "Szko\u0142a Podstawowa im. Kornela Makuszy\u0144skiego w Krzy\u017canowie",
                "name": "Szko\u0142a Podstawowa",
                "addr:postcode": "99-314",
                "addr:place": "Krzy\u017can\u00f3w",
                "addr:housenumber": "6",
                "addr:city:simc": 568019,
                "phone": "+48 243562223",
                "email": "sp.krzyzanow@op.pl",
                "website": "http:\/\/spkrzyzanow.pl",
                "ref:regon": "001112959",
                "ref:vatin": "PL7752300381",
                "operator": "Gmina Krzy\u017can\u00f3w",
                "operator:type": "government",
                "amenity": "school"
            }
        },
        {
            "id": 4775,
            "type": "Feature",
            "geometry": {
                "type": "Point",
                "coordinates": [
                    19.46525,
                    52.21196
                ]
            },
            "properties": {
                "isced:level": "1;2",
                "ref:rspo": 4775,
                "official_name": "Szko\u0142a Podstawowa im. Ireny Kosmowskiej w Kaszewach Dwornych",
                "name": "Szko\u0142a Podstawowa",
                "addr:postcode": "99-314",
                "addr:place": "Kaszewy Dworne",
                "addr:housenumber": "19",
                "addr:city:simc": 567959,
                "phone": "+48 243562193",
                "email": "spkaszewy@interia.pl",
                "website": "http:\/\/www.spkaszewy.edupage.org",
                "ref:regon": "001112936",
                "ref:vatin": "PL7752300688",
                "operator": "Gmina Krzy\u017can\u00f3w",
                "operator:type": "government",
                "amenity": "school"
            }
        },
        {
            "id": 10361,
            "type": "Feature",
            "geometry": {
                "type": "Point",
                "coordinates": [
                    19.46525,
                    52.211929999999995
                ]
            },
            "properties": {
                "ref:rspo": 10361,
                "official_name": "Zesp\u00f3\u0142 Wychowania Przedszkolnego w Szkole Podstawowej w Kaszewach Dwornych",
                "name": "Zesp\u00f3\u0142 Wychowania Przedszkolnego w Szkole Podstawowej w Kaszewach Dwornych",
                "addr:postcode": "99-314",
                "addr:place": "Kaszewy Dworne",
                "addr:housenumber": "19",
                "addr:city:simc": 567959,
                "phone": "+48 243562193",
                "email": "spkaszewy@interia.pl",
                "ref:regon": "101462225",
                "operator": "Gmina Krzy\u017can\u00f3w",
                "operator:type": "government",
                "amenity": "kindergarten"
            }
        }
    ]
}