{"type":"FeatureCollection","features":[{"id":132829,"type":"Feature","geometry":{"type":"Point","coordinates":[19.38539,52.22142]},"properties":{"isced:level":"3","ref:rspo":132829,"official_name":"Akademickie Liceum Og\u00f3lnokszta\u0142c\u0105ce Z Oddzia\u0142ami Dwuj\u0119zycznymi im. Prof. Zbigniewa Religi w Kutnie","name":"Akademickie Liceum Og\u00f3lnokszta\u0142c\u0105ce Z Oddzia\u0142ami Dwuj\u0119zycznymi","addr:country":"PL","addr:postcode":"99-300","addr:city":"Kutno","addr:street":"ul. J\u00f3zef\u00f3w","addr:housenumber":"9","addr:teryt:simc":7635,"addr:teryt:sym_ul":969103,"contact:phone":"+48 243898020","contact:email":"liceum@polfarmex.pl","contact:website":"http:\/\/www.liceum.polfarmex.pl","ref:regon":"366233491","operator":"Fundacja Rodziny Wo\u015bko","operator:type":"ngo","amenity":"school"}},{"id":31727,"type":"Feature","geometry":{"type":"Point","coordinates":[19.36313,52.22251]},"properties":{"isced:level":"1;2","ref:rspo":31727,"official_name":"Szko\u0142a Podstawowa Nr 6 im. Marii Sk\u0142odowskiej - Curie w Kutnie","name":"Szko\u0142a Podstawowa Nr 6","addr:country":"PL","addr:postcode":"99-300","addr:city":"Kutno","addr:street":"ul. \u0141\u0105koszy\u0144ska","addr:housenumber":"9","addr:teryt:simc":11593,"addr:teryt:sym_ul":969103,"contact:phone":"+48 242533911","contact:email":"sp6@edu.kutno.pl","contact:website":"http:\/\/www.sp6kutno.edupage.org","ref:regon":"000903280","ref:vatin":"PL7751058989","operator":"Miasto Kutno","operator:type":"government","amenity":"school"}},{"id":128308,"type":"Feature","geometry":{"type":"Point","coordinates":[19.36313,52.22248]},"properties":{"ref:rspo":128308,"official_name":"Punkt Przedszkolny Nr 2 w Kutnie","name":"Punkt Przedszkolny Nr 2 w Kutnie","addr:country":"PL","addr:postcode":"99-300","addr:city":"Kutno","addr:street":"ul. \u0141\u0105koszy\u0144ska","addr:housenumber":"9","addr:teryt:simc":11593,"addr:teryt:sym_ul":969103,"contact:phone":"+48 242533911","contact:email":"spnr_6@gazeta.pl","ref:regon":"362231288","operator":"Miasto Kutno","operator:type":"government","amenity":"kindergarten"}},{"id":122700,"type":"Feature","geometry":{"type":"Point","coordinates":[19.37264,52.2243799]},"properties":{"ref:rspo":122700,"official_name":"Niepubliczne Przedszkole Maluchowo","name":"Niepubliczne Przedszkole Maluchowo","addr:country":"PL","addr:postcode":"99-300","addr:city":"Kutno","addr:street":"ul. Warszawskie Przedmie\u015bcie","addr:housenumber":"31","addr:teryt:simc":23687,"addr:teryt:sym_ul":969103,"contact:phone":"+48 242524479","ref:regon":"101756808","operator":"\"Mi\u0119dzynarodowe Centrum Rozwoju\" Sp\u00f3\u0142dzielnia Socjalna","operator:type":"cooperative","amenity":"kindergarten"}},{"id":31184,"type":"Feature","geometry":{"type":"Point","coordinates":[19.34775,52.22469]},"properties":{"ref:rspo":31184,"official_name":"Przedszkole Miejskie Nr 5 \"Stokrotka\"","name":"Przedszkole Miejskie Nr 5 \"Stokrotka\"","addr:country":"PL","addr:postcode":"99-300","addr:city":"Kutno","addr:street":"ul. Barcewicza","addr:housenumber":"13","addr:teryt:simc":32495,"addr:teryt:sym_ul":969103,"contact:phone":"+48 242547762","contact:email":"pm5@edu.kutno.pl","contact:website":"http:\/\/www.pm5kutno.wikom.pl","ref:regon":"610169994","ref:vatin":"PL7751735533","operator":"Miasto Kutno","operator:type":"government","amenity":"kindergarten"}},{"id":11806,"type":"Feature","geometry":{"type":"Point","coordinates":[19.35072,52.22487]},"properties":{"ref:rspo":11806,"official_name":"Pa\u0144stwowa Szko\u0142a Muzyczna I I II St. im. Karola Kurpi\u0144skiego w Kutnie","name":"Pa\u0144stwowa Szko\u0142a Muzyczna I I II St.","addr:country":"PL","addr:postcode":"99-300","addr:city":"Kutno","addr:street":"ul. Pa\u0142acowa","addr:housenumber":"10","addr:teryt:simc":15590,"addr:teryt:sym_ul":969103,"contact:phone":"+48 243371800","contact:email":"sekretariat@psmkutno.pl","contact:website":"http:\/\/www.psmkutno.pl","ref:regon":"000276995","operator":"Ministerstwo Kultury I Dziedzictwa Narodowego","operator:type":"public","landuse":"education","fixme":"amenity=school, amenity=college albo landuse=education w zale\u017cno\u015bci od tego, jakie plac\u00f3wki wchodz\u0105 w sk\u0142ad zespo\u0142u. Sprawd\u017a, kiedy stosowa\u0107 amenity=* a kiedy landuse=education.","note":"Children RSPO: 78080;78082"}},{"id":78080,"type":"Feature","geometry":{"type":"Point","coordinates":[19.35072,52.22484]},"properties":{"ref:rspo":78080,"official_name":"Pa\u0144stwowa Szko\u0142a Muzyczna I St. w Kutnie","name":"Pa\u0144stwowa Szko\u0142a Muzyczna I St. w Kutnie","addr:country":"PL","addr:postcode":"99-300","addr:city":"Kutno","addr:street":"ul. Pa\u0142acowa","addr:housenumber":"10","addr:teryt:simc":15590,"addr:teryt:sym_ul":969103,"contact:phone":"+48 243371800","contact:email":"sekretariat@psmkutno.pl","contact:website":"http:\/\/www.psmkutno.pl","ref:regon":"100021810","operator":"Ministerstwo Kultury I Dziedzictwa Narodowego","operator:type":"public","amenity":"music_school","note":"Children RSPO: 115424Parent RSPO: 11806"}},{"id":78082,"type":"Feature","geometry":{"type":"Point","coordinates":[19.35072,52.224810000000005]},"properties":{"ref:rspo":78082,"official_name":"Pa\u0144stwowa Szko\u0142a Muzyczna II St. w Kutnie","name":"Pa\u0144stwowa Szko\u0142a Muzyczna II St. w Kutnie","addr:country":"PL","addr:postcode":"99-300","addr:city":"Kutno","addr:street":"ul. Pa\u0142acowa","addr:housenumber":"10","addr:teryt:simc":15590,"addr:teryt:sym_ul":969103,"contact:phone":"+48 243371800","contact:email":"sekretariat@psmkutno.pl","contact:website":"http:\/\/www.psmkutno.pl","ref:regon":"100021849","operator":"Ministerstwo Kultury I Dziedzictwa Narodowego","operator:type":"public","amenity":"music_school","note":"Parent RSPO: 11806"}},{"id":273360,"type":"Feature","geometry":{"type":"Point","coordinates":[19.38672,52.22489]},"properties":{"ref:rspo":273360,"official_name":"Niepubliczne Przedszkole Mi\u015b","name":"Niepubliczne Przedszkole Mi\u015b","addr:country":"PL","addr:postcode":"99-300","addr:city":"Kutno","addr:street":"ul. Dojazd","addr:housenumber":"5","addr:teryt:simc":4001,"addr:teryt:sym_ul":969103,"contact:email":"sekretariat@mis-przedszkole.pl","ref:regon":"384455384","operator":"Ewa Wojtczak-Szcz\u0119sna","operator:type":"private","amenity":"kindergarten"}},{"id":34265,"type":"Feature","geometry":{"type":"Point","coordinates":[19.37747,52.22623]},"properties":{"isced:level":"1;2","ref:rspo":34265,"official_name":"Szko\u0142a Podstawowa Nr 9 im.w\u0142.jagie\u0142\u0142y w Kutnie","name":"Szko\u0142a Podstawowa Nr 9 im.w\u0142.jagie\u0142\u0142y w Kutnie","addr:country":"PL","addr:postcode":"99-301","addr:city":"Kutno","addr:street":"ul. W\u0142adys\u0142awa Jagie\u0142\u0142y","addr:housenumber":"6","addr:teryt:simc":24494,"addr:teryt:sym_ul":969103,"contact:phone":"+48 242536368","contact:email":"sp9kutno@op.pl","contact:website":"http:\/\/www.sp9kutno.edupage.org","ref:regon":"001070630","ref:vatin":"PL7751062560","operator":"Miasto Kutno","operator:type":"government","amenity":"school"}},{"id":18152,"type":"Feature","geometry":{"type":"Point","coordinates":[19.37747,52.2262]},"properties":{"ref:rspo":18152,"official_name":"Pedagogiczna Biblioteka Wojew\u00f3dzka im. Prof. Tadeusza Kotarbi\u0144skiego w \u0141odzi Filia w Kutnie","name":"Pedagogiczna Biblioteka Wojew\u00f3dzka","addr:country":"PL","addr:postcode":"99-301","addr:city":"Kutno","addr:street":"ul. W\u0142adys\u0142awa Jagie\u0142\u0142y","addr:housenumber":"6","addr:teryt:simc":24494,"addr:teryt:sym_ul":969103,"contact:phone":"+48 242534636","contact:email":"pbw13@mazurek.man.lodz.pl","ref:regon":"196836000","operator":"Wojew\u00f3dztwo \u0141\u00f3dzkie","operator:type":"government","amenity":"library","note":"Parent RSPO: 14754"}},{"id":29454,"type":"Feature","geometry":{"type":"Point","coordinates":[19.3709,52.22694]},"properties":{"ref:rspo":29454,"official_name":"Przedszkole Miejskie Nr 16 \"Calineczka\" w Kutnie","name":"Przedszkole Miejskie Nr 16 \"Calineczka\" w Kutnie","addr:country":"PL","addr:postcode":"99-300","addr:city":"Kutno","addr:street":"ul. Wilcza","addr:housenumber":"5","addr:teryt:simc":24261,"addr:teryt:sym_ul":969103,"contact:phone":"+48 242540816","contact:email":"pm16@edu.kutno.pl","contact:website":"http:\/\/www.pm16kutno.wikom.pl","ref:regon":"610024847","ref:vatin":"PL7751071429","operator":"Miasto Kutno","operator:type":"government","amenity":"kindergarten"}},{"id":30989,"type":"Feature","geometry":{"type":"Point","coordinates":[19.37633,52.22698]},"properties":{"ref:rspo":30989,"official_name":"Przedszkole Miejskie Nr 15 \"Bajka\"","name":"Przedszkole Miejskie Nr 15 \"Bajka\"","addr:country":"PL","addr:postcode":"99-300","addr:city":"Kutno","addr:street":"ul. W\u0142adys\u0142awa Jagie\u0142\u0142y","addr:housenumber":"4a","addr:teryt:simc":24494,"addr:teryt:sym_ul":969103,"contact:phone":"+48 242536110","contact:email":"pm15@edu.kutno.pl","contact:website":"http:\/\/www.przedszkolenr15.kutno.pl","ref:regon":"610024830","ref:vatin":"PL7751062695","operator":"Miasto Kutno","operator:type":"government","amenity":"kindergarten"}},{"id":107478,"type":"Feature","geometry":{"type":"Point","coordinates":[19.37545,52.22751]},"properties":{"ref:rspo":107478,"official_name":"Centrum Kszta\u0142cenia w Kutnie","name":"Centrum Kszta\u0142cenia w Kutnie","addr:country":"PL","addr:postcode":"99-300","addr:city":"Kutno","addr:street":"ul. W\u0142adys\u0142awa Jagie\u0142\u0142y","addr:housenumber":"2","addr:teryt:simc":24494,"addr:teryt:sym_ul":969103,"contact:phone":"+48 243553616","contact:email":"centrum@zdz-kutno.pl","contact:website":"http:\/\/www.zdz-kutno.pl","ref:regon":"101541002","operator":"Zak\u0142ad Doskonalenia Zawodowego W Warszawie","operator:type":"ngo","fixme":"w zale\u017cno\u015bci od przedmiotu dzia\u0142alno\u015bci (np. amenity=training + training=*, amenity=dancing_school, amenity=language_school, amenity=music_school)"}},{"id":31284,"type":"Feature","geometry":{"type":"Point","coordinates":[19.36713,52.22825]},"properties":{"ref:rspo":31284,"official_name":"Przedszkole Miejskie Nr 8 \"Promyczek\"","name":"Przedszkole Miejskie Nr 8 \"Promyczek\"","addr:country":"PL","addr:postcode":"99-300","addr:city":"Kutno","addr:street":"ul. dr. Antoniego Troczewskiego","addr:housenumber":"2a","addr:teryt:simc":22997,"addr:teryt:sym_ul":969103,"contact:phone":"+48 242537992","contact:email":"pm8@edu.kutno.pl","contact:website":"http:\/\/www.pm8.kutno.pl","ref:regon":"610024818","ref:vatin":"PL7751653491","operator":"Miasto Kutno","operator:type":"government","amenity":"kindergarten"}},{"id":8268,"type":"Feature","geometry":{"type":"Point","coordinates":[19.34822,52.22827]},"properties":{"isced:level":"3","ref:rspo":8268,"official_name":"Technikum Stowarzyszenia Przyjaci\u00f3\u0142 Szk\u00f3\u0142 Katolickich","name":"Technikum Stowarzyszenia Przyjaci\u00f3\u0142 Szk\u00f3\u0142 Katolickich","addr:country":"PL","addr:postcode":"99-300","addr:city":"Kutno","addr:street":"ul. 1 Maja","addr:housenumber":"26A","addr:teryt:simc":11926,"addr:teryt:sym_ul":969103,"contact:email":"klo_kutno@op.pl","contact:website":"http:\/\/www.kutno.spsk.pl","ref:regon":"101461125","operator":"Stowarzyszenie Przyjaci\u00f3\u0142 Szk\u00f3\u0142 Katolickich","operator:type":"ngo","amenity":"school"}},{"id":31145,"type":"Feature","geometry":{"type":"Point","coordinates":[19.34822,52.22824]},"properties":{"isced:level":"3","ref:rspo":31145,"official_name":"Katolickie Liceum Og\u00f3lnokszta\u0142c\u0105ce Stowarzyszenia Przyjaci\u00f3\u0142 Szk\u00f3\u0142 Katolickich im. \u015aw. Stanis\u0142awa Kostki w Kutnie","name":"Katolickie Liceum Og\u00f3lnokszta\u0142c\u0105ce Stowarzyszenia Przyjaci\u00f3\u0142 Szk\u00f3\u0142 Katolickich","addr:country":"PL","addr:postcode":"99-300","addr:city":"Kutno","addr:street":"ul. 1 Maja","addr:housenumber":"26A","addr:teryt:simc":11926,"addr:teryt:sym_ul":969103,"contact:email":"klo_kutno@op.pl","contact:website":"http:\/\/www.kutno.spsk.pl","ref:regon":"101489425","ref:vatin":"PL7752544870","operator":"Stowarzyszenie Przyjaci\u00f3\u0142 Szk\u00f3\u0142 Katolickich","operator:type":"ngo","amenity":"school"}},{"id":272907,"type":"Feature","geometry":{"type":"Point","coordinates":[19.34822,52.228210000000004]},"properties":{"isced:level":"3","ref:rspo":272907,"official_name":"Technikum Stowarzyszenia Przyjaci\u00f3\u0142 Szk\u00f3\u0142 Katolickich w Kutnie","name":"Technikum Stowarzyszenia Przyjaci\u00f3\u0142 Szk\u00f3\u0142 Katolickich w Kutnie","addr:country":"PL","addr:postcode":"99-300","addr:city":"Kutno","addr:street":"ul. 1 Maja","addr:housenumber":"26a","addr:teryt:simc":11926,"addr:teryt:sym_ul":969103,"contact:email":"klo_kutno@op.pl","contact:website":"http:\/\/www.kutno.spsk.pl","ref:regon":"384313840","operator":"Stowarzyszenie Przyjaci\u00f3\u0142 Szk\u00f3\u0142 Katolickich","operator:type":"ngo","amenity":"school"}},{"id":30357,"type":"Feature","geometry":{"type":"Point","coordinates":[19.34179,52.22835]},"properties":{"ref:rspo":30357,"official_name":"Specjalny O\u015brodek \nSzkolno - Wychowawczy Nr 1 im. Marii Konopnickiej w Kutnie","name":"Specjalny O\u015brodek \nSzkolno - Wychowawczy Nr 1","addr:country":"PL","addr:postcode":"99-300","addr:city":"Kutno","addr:street":"ul. Przemys\u0142owa","addr:housenumber":"6","addr:teryt:simc":17742,"addr:teryt:sym_ul":969103,"contact:phone":"+48 242547439","contact:email":"sosw1kutno@onet.eu","contact:website":"http:\/\/sosw1kutno.edupage.org","ref:regon":"001098544","ref:vatin":"PL7752197227","operator":"Powiat Kutnowski","operator:type":"government","amenity":"school","note":"Children RSPO: 49160;49162;49163"}},{"id":49160,"type":"Feature","geometry":{"type":"Point","coordinates":[19.34179,52.22832]},"properties":{"isced:level":"1;2","ref:rspo":49160,"official_name":"Szko\u0142a Podstawowa Specjalna Nr 10 w Kutnie","name":"Szko\u0142a Podstawowa Specjalna Nr 10 w Kutnie","addr:country":"PL","addr:postcode":"99-300","addr:city":"Kutno","addr:street":"ul. Przemys\u0142owa","addr:housenumber":"6","addr:teryt:simc":17742,"addr:teryt:sym_ul":969103,"contact:phone":"+48 242547439","contact:email":"sosw1kutno@onet.eu","contact:website":"http:\/\/sosw1kutno.edupage.org","ref:regon":"472902323","operator":"Powiat Kutnowski","operator:type":"government","amenity":"school","note":"Parent RSPO: 30357"}},{"id":49162,"type":"Feature","geometry":{"type":"Point","coordinates":[19.34179,52.22829]},"properties":{"isced:level":"3","ref:rspo":49162,"official_name":"Bran\u017cowa Szko\u0142a Specjalna I Stopnia Nr 5 w Kutnie","name":"Bran\u017cowa Szko\u0142a Specjalna I Stopnia Nr 5 w Kutnie","addr:country":"PL","addr:postcode":"99-300","addr:city":"Kutno","addr:street":"ul. Przemys\u0142owa","addr:housenumber":"6","addr:teryt:simc":17742,"addr:teryt:sym_ul":969103,"contact:phone":"+48 242547439","contact:email":"sosw1kutno@onet.eu","contact:website":"http:\/\/sosw1kutno.edupage.org","ref:regon":"001101571","operator":"Powiat Kutnowski","operator:type":"government","amenity":"school","note":"Parent RSPO: 30357"}},{"id":49163,"type":"Feature","geometry":{"type":"Point","coordinates":[19.34179,52.22826]},"properties":{"ref:rspo":49163,"official_name":"Szko\u0142a Specjalna Przysposabiaj\u0105ca Do Pracy w Kutnie","name":"Szko\u0142a Specjalna Przysposabiaj\u0105ca Do Pracy w Kutnie","addr:country":"PL","addr:postcode":"99-300","addr:city":"Kutno","addr:street":"ul. Przemys\u0142owa","addr:housenumber":"6","addr:teryt:simc":17742,"addr:teryt:sym_ul":969103,"contact:phone":"+48 242547439","contact:email":"sosw1kutno@onet.eu","contact:website":"http:\/\/sosw1kutno.edupage.org","ref:regon":"473271824","operator":"Powiat Kutnowski","operator:type":"government","amenity":"school","note":"Parent RSPO: 30357"}},{"id":263969,"type":"Feature","geometry":{"type":"Point","coordinates":[19.36764,52.22874]},"properties":{"isced:level":"1;2","ref:rspo":263969,"official_name":"Szko\u0142a Podstawowa Nr 7 im. Adama Mickiewicza","name":"Szko\u0142a Podstawowa Nr 7","addr:country":"PL","addr:postcode":"99-300","addr:city":"Kutno","addr:street":"ul. dr. Antoniego Troczewskiego","addr:housenumber":"2","addr:teryt:simc":22997,"addr:teryt:sym_ul":969103,"contact:phone":"+48 243554461","contact:email":"sp7kutno@onet.pl","ref:regon":"368246055","ref:vatin":"PL7752656072","operator":"Miasto Kutno","operator:type":"government","amenity":"school"}},{"id":272980,"type":"Feature","geometry":{"type":"Point","coordinates":[19.35342,52.22894]},"properties":{"ref:rspo":272980,"official_name":"Terapeutyczny Punkt Przedszkolny \"To Tu\"","name":"Terapeutyczny Punkt Przedszkolny \"To Tu\"","addr:country":"PL","addr:postcode":"99-300","addr:city":"Kutno","addr:street":"ul. Henryka Sienkiewicza","addr:housenumber":"40","addr:teryt:simc":19834,"addr:teryt:sym_ul":969103,"contact:email":"przedszkole@proaperte.pl","ref:regon":"384346399","operator":"Fundacja \"Pro Aperte\"","operator:type":"ngo","amenity":"kindergarten"}},{"id":31728,"type":"Feature","geometry":{"type":"Point","coordinates":[19.36238,52.22908]},"properties":{"isced:level":"1;2","ref:rspo":31728,"official_name":"Publiczna Katolicka Szko\u0142a Podstawowa im. \u015aw. Stanis\u0142awa Kostki w Kutnie","name":"Publiczna Katolicka Szko\u0142a Podstawowa","addr:country":"PL","addr:postcode":"99-300","addr:city":"Kutno","addr:street":"ul. Papie\u017ca Jana Paw\u0142a II","addr:housenumber":"2","addr:teryt:simc":7127,"addr:teryt:sym_ul":969103,"contact:phone":"+48 242541461","contact:email":"ksp_kutno@interia.pl","contact:website":"http:\/\/www.spkatolicka.edupage.org","ref:regon":"101483049","ref:vatin":"PL7752580972","operator":"Parafia Rzym.-Kat. Pw.\u015bwi\u0119tego Wawrzy\u0144ca","operator:type":"religious","amenity":"school"}},{"id":39685,"type":"Feature","geometry":{"type":"Point","coordinates":[19.3673499,52.22986]},"properties":{"ref:rspo":39685,"official_name":"O\u015brodek Kszta\u0142cenia Zawodowego w Kutnie","name":"O\u015brodek Kszta\u0142cenia Zawodowego w Kutnie","addr:country":"PL","addr:postcode":"99-300","addr:city":"Kutno","addr:street":"ul. kard. Stefana Wyszy\u0144skiego","addr:housenumber":"11","addr:teryt:simc":25107,"addr:teryt:sym_ul":969103,"contact:phone":"+48 243551805","contact:email":"kutno@zdz-plock.com.pl","contact:website":"http:\/\/www.zdz.kutno.pl","ref:regon":"101492657","ref:vatin":"PL7741079234","operator":"Zak\u0142ad Doskonalenia Zawodowego W P\u0142ocku","operator:type":"ngo","fixme":"w zale\u017cno\u015bci od przedmiotu dzia\u0142alno\u015bci (np. amenity=training + training=*, amenity=dancing_school, amenity=language_school, amenity=music_school)"}},{"id":41206,"type":"Feature","geometry":{"type":"Point","coordinates":[19.3673499,52.22983]},"properties":{"ref:rspo":41206,"official_name":"Niepubliczna Poradnia Psychologiczno-Pedagogiczna w Kutnie","name":"Niepubliczna Poradnia Psychologiczno-Pedagogiczna w Kutnie","addr:country":"PL","addr:postcode":"99-300","addr:city":"Kutno","addr:street":"ul. kard. Stefana Wyszy\u0144skiego","addr:housenumber":"11","addr:teryt:simc":25107,"addr:teryt:sym_ul":969103,"contact:phone":"+48 604248376","contact:email":"psychoporadnia1@wp.pl","contact:website":"http:\/\/www.psychoporadnia.eu","ref:regon":"101484853","ref:vatin":"PL7751548995","operator":"Wanda Justy\u0144ska","operator:type":"private","healthcare":"councelling","counselling_type":"education","fixme":"w zale\u017cno\u015bci od przedmiotu dzia\u0142alno\u015bci (np. healthcare=councelling + counselling_type=education albo healthcare=psychotherapist)"}},{"id":31030,"type":"Feature","geometry":{"type":"Point","coordinates":[19.36735,52.22986]},"properties":{"isced:level":"3","ref:rspo":31030,"official_name":"I Liceum Og\u00f3lnokszta\u0142c\u0105ce Pul im. 37 \u0141\u0119czyckiego Pu\u0142ku Piechoty w Kutnie","name":"I Liceum Og\u00f3lnokszta\u0142c\u0105ce Pul","addr:country":"PL","addr:postcode":"99-300","addr:city":"Kutno","addr:street":"ul. Kardyna\u0142a Stefana Wyszy\u0144skiego","addr:housenumber":"11","addr:teryt:simc":35421,"addr:teryt:sym_ul":969103,"contact:email":"kutno@pulliceum.edu.pl","contact:website":"http:\/\/www.pulliceum.edu.pl","ref:regon":"101530949","ref:vatin":"PL7741183411","operator":"P\u0142ocki Uniwersytet Ludowy Im.wincentego Witosa","operator:type":"ngo","amenity":"school"}},{"id":34264,"type":"Feature","geometry":{"type":"Point","coordinates":[19.36387,52.23099]},"properties":{"ref:rspo":34264,"official_name":"Przedszkole Niepubliczne Zgromadzenia Si\u00f3str Pasjonistek \u015aw. Paw\u0142a Od Krzy\u017ca im. Dzieci\u0105tka Jezus w Kutnie","name":"Przedszkole Niepubliczne Zgromadzenia Si\u00f3str Pasjonistek \u015aw. Paw\u0142a Od Krzy\u017ca","addr:country":"PL","addr:postcode":"99-300","addr:city":"Kutno","addr:street":"ul. Kardyna\u0142a Stefana Wyszy\u0144skiego","addr:housenumber":"3","addr:teryt:simc":35421,"addr:teryt:sym_ul":969103,"contact:phone":"+48 242546925","contact:email":"przedszkole.siostrykutno@interia.pl","contact:website":"http:\/\/www.przedszkole.siostrykutno.szkolnastrona.pl","ref:regon":"101484942","ref:vatin":"PL7752362287","operator":"Wiceprowincja Zgromadzenia Si\u00f3str Pasjonistek \u015aw. Paw\u0142a Od Krzy\u017ca","operator:type":"religious","amenity":"kindergarten"}},{"id":132970,"type":"Feature","geometry":{"type":"Point","coordinates":[19.36144,52.23171]},"properties":{"ref:rspo":132970,"official_name":"Zesp\u00f3\u0142 Szk\u00f3\u0142 Ponadgimnazjalnych Pascal w Kutnie","name":"Zesp\u00f3\u0142 Szk\u00f3\u0142 Ponadgimnazjalnych Pascal w Kutnie","addr:country":"PL","addr:postcode":"99-300","addr:city":"Kutno","addr:street":"pl. Plac Wolno\u015bci","addr:housenumber":"3","addr:teryt:simc":16414,"addr:teryt:sym_ul":969103,"contact:phone":"+48 531508908","contact:email":"kutno@pascal.edu.pl","contact:website":"http:\/\/www.pascal.edu.pl","ref:regon":"366427918","operator":"Grupa Pascal Sp\u00f3\u0142ka Z Ograniczon\u0105 Odpowiedzialno\u015bci\u0105","operator:type":"private","landuse":"education","fixme":"amenity=school, amenity=college albo landuse=education w zale\u017cno\u015bci od tego, jakie plac\u00f3wki wchodz\u0105 w sk\u0142ad zespo\u0142u. Sprawd\u017a, kiedy stosowa\u0107 amenity=* a kiedy landuse=education.","note":"Children RSPO: 129255;129259;129379;129381"}},{"id":129255,"type":"Feature","geometry":{"type":"Point","coordinates":[19.36144,52.23168]},"properties":{"isced:level":"3","ref:rspo":129255,"official_name":"Liceum Og\u00f3lnokszta\u0142c\u0105ce dla Doros\u0142ych \"Pascal\" w Kutnie","name":"Liceum Og\u00f3lnokszta\u0142c\u0105ce dla Doros\u0142ych \"Pascal\" w Kutnie","addr:country":"PL","addr:postcode":"99-300","addr:city":"Kutno","addr:street":"pl. Plac Wolno\u015bci","addr:housenumber":"3","addr:teryt:simc":16414,"addr:teryt:sym_ul":969103,"contact:phone":"+48 531508908","contact:email":"kutno@pascal.edu.pl","contact:website":"http:\/\/www.pascal.edu.pl","ref:regon":"362531524","ref:vatin":"PL7262651222","operator":"Grupa Pascal Sp\u00f3\u0142ka Z Ograniczon\u0105 Odpowiedzialno\u015bci\u0105","operator:type":"private","amenity":"school","note":"Parent RSPO: 132970"}},{"id":129259,"type":"Feature","geometry":{"type":"Point","coordinates":[19.36144,52.23165]},"properties":{"isced:level":"4","ref:rspo":129259,"official_name":"Policealna Szko\u0142a Zawodowa \"Pascal\" w Kutnie","name":"Policealna Szko\u0142a Zawodowa \"Pascal\" w Kutnie","addr:country":"PL","addr:postcode":"99-300","addr:city":"Kutno","addr:street":"pl. Plac Wolno\u015bci","addr:housenumber":"3","addr:teryt:simc":16414,"addr:teryt:sym_ul":969103,"contact:phone":"+48 531508908","contact:email":"kutno@pascal.edu.pl","contact:website":"http:\/\/www.pascal.edu.pl","ref:regon":"362531530","ref:vatin":"PL7262651222","operator":"Grupa Pascal Sp\u00f3\u0142ka Z Ograniczon\u0105 Odpowiedzialno\u015bci\u0105","operator:type":"private","amenity":"college","note":"Parent RSPO: 132970"}},{"id":129379,"type":"Feature","geometry":{"type":"Point","coordinates":[19.36144,52.23162]},"properties":{"isced:level":"4","ref:rspo":129379,"official_name":"Stacjonarna Policealna Szko\u0142a Medyczna \"Pascal\" w Kutnie","name":"Stacjonarna Policealna Szko\u0142a Medyczna \"Pascal\" w Kutnie","addr:country":"PL","addr:postcode":"99-300","addr:city":"Kutno","addr:street":"pl. Plac Wolno\u015bci","addr:housenumber":"3","addr:teryt:simc":16414,"addr:teryt:sym_ul":969103,"contact:phone":"+48 531508908","contact:email":"kutno@pascal.edu.pl","contact:website":"http:\/\/www.pascal.edu.pl","ref:regon":"362578661","ref:vatin":"PL7262651222","operator":"Grupa Pascal Sp\u00f3\u0142ka Z Ograniczon\u0105 Odpowiedzialno\u015bci\u0105","operator:type":"private","amenity":"college","note":"Parent RSPO: 132970"}},{"id":129381,"type":"Feature","geometry":{"type":"Point","coordinates":[19.36144,52.23159]},"properties":{"isced:level":"4","ref:rspo":129381,"official_name":"Policealna Szko\u0142a Medyczna \"Pascal\" w Kutnie","name":"Policealna Szko\u0142a Medyczna \"Pascal\" w Kutnie","addr:country":"PL","addr:postcode":"99-300","addr:city":"Kutno","addr:street":"pl. Plac Wolno\u015bci","addr:housenumber":"3","addr:teryt:simc":16414,"addr:teryt:sym_ul":969103,"contact:phone":"+48 531508908","contact:email":"kutno@pascal.edu.pl","contact:website":"http:\/\/www.pascal.edu.pl","ref:regon":"362578715","ref:vatin":"PL7262651222","operator":"Grupa Pascal Sp\u00f3\u0142ka Z Ograniczon\u0105 Odpowiedzialno\u015bci\u0105","operator:type":"private","amenity":"college","note":"Parent RSPO: 132970"}},{"id":123847,"type":"Feature","geometry":{"type":"Point","coordinates":[19.35755,52.2319]},"properties":{"isced:level":"4","ref:rspo":123847,"official_name":"Prywatna Policealna Szko\u0142a Awangarda w Kutnie","name":"Prywatna Policealna Szko\u0142a Awangarda w Kutnie","addr:country":"PL","addr:postcode":"99-300","addr:city":"Kutno","addr:street":"pl. marsz. J\u00f3zefa Pi\u0142sudskiego","addr:housenumber":"13","addr:teryt:simc":16272,"addr:teryt:sym_ul":969103,"contact:phone":"+48 538301142","contact:email":"kutno@awangarda.edu.pl","contact:website":"http:\/\/www.awangarda.edu.pl","ref:regon":"101819561","operator":"Paula Pawelec","operator:type":"private","amenity":"college"}},{"id":8906,"type":"Feature","geometry":{"type":"Point","coordinates":[19.36343,52.232]},"properties":{"isced:level":"3","ref:rspo":8906,"official_name":"Liceum Og\u00f3lnokszta\u0142c\u0105ce dla Doros\u0142ych Zdz w Warszawie Centrum Kszta\u0142cenia w Kutnie","name":"Liceum Og\u00f3lnokszta\u0142c\u0105ce dla Doros\u0142ych Zdz w Warszawie Centrum Kszta\u0142cenia w Kutnie","addr:country":"PL","addr:postcode":"99-300","addr:city":"Kutno","addr:street":"ul. Ko\u015bciuszki","addr:housenumber":"10","addr:teryt:simc":9572,"addr:teryt:sym_ul":969103,"contact:phone":"+48 243553826","contact:email":"szkola@zdz-kutno.pl","contact:website":"http:\/\/www.zdz-kutno.pl","ref:regon":"101461711","operator":"Zak\u0142ad Doskonalenia Zawodowego W Warszawie","operator:type":"ngo","amenity":"school"}},{"id":39688,"type":"Feature","geometry":{"type":"Point","coordinates":[19.36343,52.23197]},"properties":{"isced:level":"3","ref:rspo":39688,"official_name":"Bran\u017cowa Szko\u0142a I Stopnia Zak\u0142adu Doskonalenia Zawodowego w Warszawie Centrum Kszta\u0142cenia w Kutnie","name":"Bran\u017cowa Szko\u0142a I Stopnia Zak\u0142adu Doskonalenia Zawodowego w Warszawie Centrum Kszta\u0142cenia w Kutnie","addr:country":"PL","addr:postcode":"99-300","addr:city":"Kutno","addr:street":"ul. Ko\u015bciuszki","addr:housenumber":"10","addr:teryt:simc":9572,"addr:teryt:sym_ul":969103,"contact:phone":"+48 243553826","contact:email":"szkola@zdz-kutno.pl","contact:website":"http:\/\/www.szkola.zdz-kutno.pl","ref:regon":"101504969","ref:vatin":"PL5260251374","operator":"Zak\u0142ad Doskonalenia Zawodowego W Warszawie","operator:type":"ngo","amenity":"school"}},{"id":39692,"type":"Feature","geometry":{"type":"Point","coordinates":[19.36343,52.23194]},"properties":{"isced:level":"4","ref:rspo":39692,"official_name":"Szko\u0142a Policealna Zak\u0142adu Doskonalenia Zawodowego w Warszawie Centrum Kszta\u0142cenia w Kutnie","name":"Szko\u0142a Policealna Zak\u0142adu Doskonalenia Zawodowego w Warszawie Centrum Kszta\u0142cenia w Kutnie","addr:country":"PL","addr:postcode":"99-300","addr:city":"Kutno","addr:street":"ul. Ko\u015bciuszki","addr:housenumber":"10","addr:teryt:simc":9572,"addr:teryt:sym_ul":969103,"contact:phone":"+48 243553826","contact:email":"szkola@zdz-kutno.pl","contact:website":"http:\/\/www.szkola.zdz-kutno.pl","ref:regon":"101492344","ref:vatin":"PL5260251374","operator":"Zak\u0142ad Doskonalenia Zawodowego W Warszawie","operator:type":"ngo","amenity":"college"}},{"id":128171,"type":"Feature","geometry":{"type":"Point","coordinates":[19.36343,52.23191]},"properties":{"isced:level":"3","ref:rspo":128171,"official_name":"Liceum Og\u00f3lnokszta\u0142c\u0105ce Zak\u0142adu Doskonalenia Zawodowego w Warszawie Centrum Kszta\u0142cenia w Kutnie","name":"Liceum Og\u00f3lnokszta\u0142c\u0105ce Zak\u0142adu Doskonalenia Zawodowego w Warszawie Centrum Kszta\u0142cenia w Kutnie","addr:country":"PL","addr:postcode":"99-300","addr:city":"Kutno","addr:street":"ul. Ko\u015bciuszki","addr:housenumber":"10","addr:teryt:simc":9572,"addr:teryt:sym_ul":969103,"contact:phone":"+48 243553826","contact:email":"szkola@zdz-kutno.pl","contact:website":"http:\/\/szkola.zdz-kutno.pl","ref:regon":"362142082","ref:vatin":"PL5260251374","operator":"Zak\u0142ad Doskonalenia Zawodowego W Warszawie","operator:type":"ngo","amenity":"school"}},{"id":128173,"type":"Feature","geometry":{"type":"Point","coordinates":[19.36343,52.23188]},"properties":{"isced:level":"3","ref:rspo":128173,"official_name":"Technikum Zak\u0142adu Doskonalenia Zawodowego w Warszawie Centrum Kszta\u0142cenia w Kutnie","name":"Technikum Zak\u0142adu Doskonalenia Zawodowego w Warszawie Centrum Kszta\u0142cenia w Kutnie","addr:country":"PL","addr:postcode":"99-300","addr:city":"Kutno","addr:street":"ul. Ko\u015bciuszki","addr:housenumber":"10","addr:teryt:simc":9572,"addr:teryt:sym_ul":969103,"contact:phone":"+48 243553826","contact:email":"szkola@zdz-kutno.pl","contact:website":"http:\/\/szkola.zdz-kutno.pl","ref:regon":"362142107","ref:vatin":"PL5260251374","operator":"Zak\u0142ad Doskonalenia Zawodowego W Warszawie","operator:type":"ngo","amenity":"school"}},{"id":276111,"type":"Feature","geometry":{"type":"Point","coordinates":[19.36343,52.23185]},"properties":{"isced:level":"3","ref:rspo":276111,"official_name":"Bran\u017cowa Szko\u0142a II Stopnia Zak\u0142adu Doskonalenia Zawodowego w Warszawie Centrum Kszta\u0142cenia w Kutnie","name":"Bran\u017cowa Szko\u0142a II Stopnia Zak\u0142adu Doskonalenia Zawodowego w Warszawie Centrum Kszta\u0142cenia w Kutnie","addr:country":"PL","addr:postcode":"99-300","addr:city":"Kutno","addr:street":"ul. Ko\u015bciuszki","addr:housenumber":"10","addr:teryt:simc":9572,"addr:teryt:sym_ul":969103,"contact:phone":"+48 243553826","contact:email":"szkola@zdz-kutno.pl","contact:website":"http:\/\/www.zdz-kutno.pl","ref:regon":"386994978","operator":"Zak\u0142ad Doskonalenia Zawodowego W Warszawie","operator:type":"ngo","amenity":"school"}},{"id":31717,"type":"Feature","geometry":{"type":"Point","coordinates":[19.3209044,52.2328526]},"properties":{"isced:level":"1;2","ref:rspo":31717,"official_name":"Szko\u0142a Podstawowa Nr 5 im. Henryka Sienkiewicza","name":"Szko\u0142a Podstawowa Nr 5","addr:country":"PL","addr:postcode":"99-300","addr:city":"Kutno","addr:street":"ul. Konduktorska","addr:housenumber":"13","addr:teryt:simc":9124,"addr:teryt:sym_ul":969103,"contact:phone":"+48 242533072","contact:email":"sp5@edu.kutno.pl","contact:website":"http:\/\/www.sp5kutno.edupage.org","ref:regon":"000903297","ref:vatin":"PL7751058529","operator":"Miasto Kutno","operator:type":"government","amenity":"school"}},{"id":128310,"type":"Feature","geometry":{"type":"Point","coordinates":[19.3209044,52.2328226]},"properties":{"ref:rspo":128310,"official_name":"Punkt Przedszkolny Nr 3 w Kutnie","name":"Punkt Przedszkolny Nr 3 w Kutnie","addr:country":"PL","addr:postcode":"99-300","addr:city":"Kutno","addr:street":"ul. Konduktorska","addr:housenumber":"13","addr:teryt:simc":9124,"addr:teryt:sym_ul":969103,"contact:phone":"+48 242533072","contact:email":"sp5kutno@wp.pl","ref:regon":"362231294","operator":"Miasto Kutno","operator:type":"government","amenity":"kindergarten"}},{"id":27156,"type":"Feature","geometry":{"type":"Point","coordinates":[19.36773,52.23307]},"properties":{"ref:rspo":27156,"official_name":"Zesp\u00f3\u0142 Szk\u00f3\u0142 Nr 1 \nIm. Stanis\u0142awa Staszica \nW Kutnie","name":"Zesp\u00f3\u0142 Szk\u00f3\u0142 Nr 1 \nIm. Stanis\u0142awa Staszica \nW Kutnie","addr:country":"PL","addr:postcode":"99-300","addr:city":"Kutno","addr:street":"ul. Oporowska","addr:housenumber":"7","addr:teryt:simc":15100,"addr:teryt:sym_ul":969103,"contact:phone":"+48 242542397","contact:email":"zs1_kutno@interia.pl","contact:website":"http:\/\/www.staszickutno.pl","ref:regon":"000180278","ref:vatin":"PL7751300456","operator":"Powiat Kutnowski","operator:type":"government","landuse":"education","fixme":"amenity=school, amenity=college albo landuse=education w zale\u017cno\u015bci od tego, jakie plac\u00f3wki wchodz\u0105 w sk\u0142ad zespo\u0142u. Sprawd\u017a, kiedy stosowa\u0107 amenity=* a kiedy landuse=education.","note":"Children RSPO: 44069;49890;53227;53229"}},{"id":44069,"type":"Feature","geometry":{"type":"Point","coordinates":[19.36773,52.233039999999995]},"properties":{"isced:level":"3","ref:rspo":44069,"official_name":"Iii Liceum Og\u00f3lnokszta\u0142c\u0105ce w Kutnie","name":"Iii Liceum Og\u00f3lnokszta\u0142c\u0105ce w Kutnie","addr:country":"PL","addr:postcode":"99-300","addr:city":"Kutno","addr:street":"ul. Oporowska","addr:housenumber":"7","addr:teryt:simc":15100,"addr:teryt:sym_ul":969103,"contact:phone":"+48 242542397","contact:email":"zs1_kutno@interia.pl","contact:website":"http:\/\/www.staszickutno.pl","ref:regon":"610349101","operator":"Powiat Kutnowski","operator:type":"government","amenity":"school","note":"Parent RSPO: 27156"}},{"id":49890,"type":"Feature","geometry":{"type":"Point","coordinates":[19.36773,52.23301]},"properties":{"isced:level":"4","ref:rspo":49890,"official_name":"Szko\u0142a Policealna Nr 1 w Kutnie","name":"Szko\u0142a Policealna Nr 1 w Kutnie","addr:country":"PL","addr:postcode":"99-300","addr:city":"Kutno","addr:street":"ul. Oporowska","addr:housenumber":"7","addr:teryt:simc":15100,"addr:teryt:sym_ul":969103,"contact:phone":"+48 242542397","contact:email":"zs1_kutno@interia.pl","contact:website":"http:\/\/www.zs1kutno.pl","ref:regon":"101487260","operator":"Powiat Kutnowski","operator:type":"government","amenity":"college","note":"Parent RSPO: 27156"}},{"id":53227,"type":"Feature","geometry":{"type":"Point","coordinates":[19.36773,52.23298]},"properties":{"isced:level":"3","ref:rspo":53227,"official_name":"Technikum Nr 1","name":"Technikum Nr 1","addr:country":"PL","addr:postcode":"99-300","addr:city":"Kutno","addr:street":"ul. Oporowska","addr:housenumber":"7","addr:teryt:simc":15100,"addr:teryt:sym_ul":969103,"contact:phone":"+48 242542397","contact:email":"zs1_kutno@interia.pl","contact:website":"http:\/\/www.staszickutno.pl","ref:regon":"472892139","operator":"Powiat Kutnowski","operator:type":"government","amenity":"school","note":"Parent RSPO: 27156"}},{"id":53229,"type":"Feature","geometry":{"type":"Point","coordinates":[19.36773,52.232949999999995]},"properties":{"isced:level":"3","ref:rspo":53229,"official_name":"Bran\u017cowa Szko\u0142a I Stopnia Nr 1 w Kutnie","name":"Bran\u017cowa Szko\u0142a I Stopnia Nr 1 w Kutnie","addr:country":"PL","addr:postcode":"99-300","addr:city":"Kutno","addr:street":"ul. Oporowska","addr:housenumber":"7","addr:teryt:simc":15100,"addr:teryt:sym_ul":969103,"contact:phone":"+48 242542397","contact:email":"zs1_kutno@interia.pl","contact:website":"http:\/\/www.staszickutno.pl","ref:regon":"472892122","operator":"Powiat Kutnowski","operator:type":"government","amenity":"school","note":"Parent RSPO: 27156"}},{"id":29703,"type":"Feature","geometry":{"type":"Point","coordinates":[19.36645,52.2331]},"properties":{"ref:rspo":29703,"official_name":"Centrum Kszta\u0142cenia Ustawicznego w Kutnie","name":"Centrum Kszta\u0142cenia Ustawicznego w Kutnie","addr:country":"PL","addr:postcode":"99-300","addr:city":"Kutno","addr:street":"ul. Staszica","addr:housenumber":"27","addr:teryt:simc":21065,"addr:teryt:sym_ul":969103,"contact:phone":"+48 242533518","contact:email":"ckukutno@wp.pl","contact:website":"http:\/\/www.ckukutno.pl","ref:regon":"472912600","ref:vatin":"PL7752358682","operator":"Powiat Kutnowski","operator:type":"government","amenity":"school","fixme":"amenity=school lub amenity=college","note":"Children RSPO: 49165;49166;269059;269061"}},{"id":49165,"type":"Feature","geometry":{"type":"Point","coordinates":[19.36645,52.23307]},"properties":{"isced:level":"4","ref:rspo":49165,"official_name":"Szko\u0142a Policealna Nr 5 w Kutnie","name":"Szko\u0142a Policealna Nr 5 w Kutnie","addr:country":"PL","addr:postcode":"99-300","addr:city":"Kutno","addr:street":"ul. Staszica","addr:housenumber":"27","addr:teryt:simc":21065,"addr:teryt:sym_ul":969103,"contact:phone":"+48 243553518","contact:email":"ckukutno@wp.pl","contact:website":"http:\/\/wwwckukutno.pl","ref:regon":"610353746","operator":"Powiat Kutnowski","operator:type":"government","amenity":"college","note":"Parent RSPO: 29703"}},{"id":49166,"type":"Feature","geometry":{"type":"Point","coordinates":[19.36645,52.23304]},"properties":{"isced:level":"3","ref:rspo":49166,"official_name":"V Liceum Og\u00f3lnokszta\u0142c\u0105ce dla Doros\u0142ych w Kutnie","name":"V Liceum Og\u00f3lnokszta\u0142c\u0105ce dla Doros\u0142ych w Kutnie","addr:country":"PL","addr:postcode":"99-300","addr:city":"Kutno","addr:street":"ul. Staszica","addr:housenumber":"27","addr:teryt:simc":21065,"addr:teryt:sym_ul":969103,"contact:phone":"+48 242533518","contact:email":"ckukutno@wp.pl","contact:website":"http:\/\/www.ckukutno.pl","ref:regon":"000196405","operator":"Powiat Kutnowski","operator:type":"government","amenity":"school","note":"Parent RSPO: 29703"}},{"id":279135,"type":"Feature","geometry":{"type":"Point","coordinates":[19.35208,52.23321]},"properties":{"isced:level":"3","ref:rspo":279135,"official_name":"Publiczne Liceum Og\u00f3lnokszta\u0142c\u0105ce dla Doros\u0142ych \"Pascal\" w Kutnie","name":"Publiczne Liceum Og\u00f3lnokszta\u0142c\u0105ce dla Doros\u0142ych \"Pascal\" w Kutnie","addr:country":"PL","addr:postcode":"99-300","addr:city":"Kutno","addr:street":"ul. Mickiewicza","addr:housenumber":"2","addr:teryt:simc":12734,"addr:teryt:sym_ul":969103,"contact:email":"kutno@pascal.edu.pl","contact:website":"http:\/\/www.pascal.edu.pl","ref:regon":"520738648","operator":"Grupa Pascal Sp\u00f3\u0142ka Z Ograniczon\u0105 Odpowiedzialno\u015bci\u0105","operator:type":"private","amenity":"school"}},{"id":31729,"type":"Feature","geometry":{"type":"Point","coordinates":[19.35204,52.23368]},"properties":{"isced:level":"1;2","ref:rspo":31729,"official_name":"Szko\u0142a Podstawowa Nr 4 im. Miko\u0142aja Kopernika w Kutnie","name":"Szko\u0142a Podstawowa Nr 4","addr:country":"PL","addr:postcode":"99-300","addr:city":"Kutno","addr:street":"ul. Narutowicza","addr:housenumber":"22","addr:teryt:simc":14015,"addr:teryt:sym_ul":969103,"contact:phone":"+48 242533967","contact:email":"sp4@edu.kutno.pl","contact:website":"http:\/\/www.czworka.kutno.pl","ref:regon":"000903305","ref:vatin":"PL7751112803","operator":"Miasto Kutno","operator:type":"government","amenity":"school"}},{"id":128307,"type":"Feature","geometry":{"type":"Point","coordinates":[19.35204,52.23365]},"properties":{"ref:rspo":128307,"official_name":"Punkt Przedszkolny Nr 1 w Kutnie","name":"Punkt Przedszkolny Nr 1 w Kutnie","addr:country":"PL","addr:postcode":"99-300","addr:city":"Kutno","addr:street":"ul. Narutowicza","addr:housenumber":"22","addr:teryt:simc":14015,"addr:teryt:sym_ul":969103,"contact:phone":"+48 242533967","contact:email":"pp1@edu.kutno.pl","ref:regon":"362231271","operator":"Miasto Kutno","operator:type":"government","amenity":"kindergarten"}},{"id":27182,"type":"Feature","geometry":{"type":"Point","coordinates":[19.36545,52.23456]},"properties":{"ref:rspo":27182,"official_name":"Zesp\u00f3\u0142 Szk\u00f3\u0142 Zawodowych Nr 2 \nIm. Dr Antoniego Troczewskiego \nW Kutnie","name":"Zesp\u00f3\u0142 Szk\u00f3\u0142 Zawodowych Nr 2 \nIm. Dr Antoniego Troczewskiego \nW Kutnie","addr:country":"PL","addr:postcode":"99-300","addr:city":"Kutno","addr:street":"ul. Ko\u015bciuszki","addr:housenumber":"11","addr:teryt:simc":9572,"addr:teryt:sym_ul":969103,"contact:phone":"+48 243555961","contact:email":"sekretariat@troczewski2.pl","contact:website":"http:\/\/www.troczewski.pl","ref:regon":"000180806","ref:vatin":"PL7751192802","operator":"Powiat Kutnowski","operator:type":"government","landuse":"education","fixme":"amenity=school, amenity=college albo landuse=education w zale\u017cno\u015bci od tego, jakie plac\u00f3wki wchodz\u0105 w sk\u0142ad zespo\u0142u. Sprawd\u017a, kiedy stosowa\u0107 amenity=* a kiedy landuse=education.","note":"Children RSPO: 49973;53230"}},{"id":49973,"type":"Feature","geometry":{"type":"Point","coordinates":[19.36545,52.23453]},"properties":{"isced:level":"3","ref:rspo":49973,"official_name":"Bran\u017cowa Szko\u0142a I Stopnia Nr 2 w Kutnie","name":"Bran\u017cowa Szko\u0142a I Stopnia Nr 2 w Kutnie","addr:country":"PL","addr:postcode":"99-300","addr:city":"Kutno","addr:street":"ul. Ko\u015bciuszki","addr:housenumber":"11","addr:teryt:simc":9572,"addr:teryt:sym_ul":969103,"contact:phone":"+48 243555961","contact:email":"zsz.troczewski@wp.pl","contact:website":"http:\/\/www.troczewski.pl","ref:regon":"472892642","operator":"Powiat Kutnowski","operator:type":"government","amenity":"school","note":"Parent RSPO: 27182"}},{"id":53230,"type":"Feature","geometry":{"type":"Point","coordinates":[19.36545,52.234500000000004]},"properties":{"isced:level":"3","ref:rspo":53230,"official_name":"Technikum Zawodowe Nr 2 w Kutnie","name":"Technikum Zawodowe Nr 2 w Kutnie","addr:country":"PL","addr:postcode":"99-300","addr:city":"Kutno","addr:street":"ul. Ko\u015bciuszki","addr:housenumber":"11","addr:teryt:simc":9572,"addr:teryt:sym_ul":969103,"contact:phone":"+48 243555961","contact:email":"sekretariat@troczewski2.pl","contact:website":"http:\/\/www.troczewski.pl","ref:regon":"472892493","operator":"Powiat Kutnowski","operator:type":"government","amenity":"school","note":"Parent RSPO: 27182"}},{"id":132843,"type":"Feature","geometry":{"type":"Point","coordinates":[19.35212,52.23464]},"properties":{"ref:rspo":132843,"official_name":"Niepubliczna Szko\u0142a Specjalna Przysposabiaj\u0105ca Do Pracy Polskiego Stowrzyszenia Na Rzecz Os\u00f3b Z Niepe\u0142nosprawno\u015bci\u0105 Intelektualn\u0105 Ko\u0142o w Kutnie","name":"Niepubliczna Szko\u0142a Specjalna Przysposabiaj\u0105ca Do Pracy Polskiego Stowrzyszenia Na Rzecz Os\u00f3b Z Niepe\u0142nosprawno\u015bci\u0105 Intelektualn\u0105 Ko\u0142o w Kutnie","addr:country":"PL","addr:postcode":"99-300","addr:city":"Kutno","addr:street":"ul. 29 Listopada","addr:housenumber":"23","addr:teryt:simc":11208,"addr:teryt:sym_ul":969103,"contact:phone":"+48 242533427","contact:email":"orew.niezabudka@poczta.onet.pl","contact:website":"http:\/\/psouu.kutno.pl","ref:regon":"366251922","operator":"Polskie Stowarzyszenie Na Rzecz Os\u00f3b Z Niepe\u0142nosprawno\u015bci\u0105 Intelektualn\u0105 Ko\u0142o W Kutnie","operator:type":"ngo","amenity":"school"}},{"id":20039,"type":"Feature","geometry":{"type":"Point","coordinates":[19.36666,52.23466]},"properties":{"ref:rspo":20039,"official_name":"Bursa Nr 1","name":"Bursa Nr 1","addr:country":"PL","addr:postcode":"99-300","addr:city":"Kutno","addr:street":"ul. Ko\u015bciuszki","addr:housenumber":"24b","addr:teryt:simc":9572,"addr:teryt:sym_ul":969103,"contact:phone":"+48 243557883","contact:email":"bursa1.kutno@op.pl","contact:website":"http:\/\/bursakutno.pl","ref:regon":"100064103","ref:vatin":"PL7752500045","operator":"Powiat Kutnowski","operator:type":"government","building":"dormitory"}},{"id":27497,"type":"Feature","geometry":{"type":"Point","coordinates":[19.36666,52.234629999999996]},"properties":{"ref:rspo":27497,"official_name":"Zesp\u00f3\u0142 Szk\u00f3\u0142 Nr 3 \nIm. W\u0142adys\u0142awa Grabskiego \nW Kutnie","name":"Zesp\u00f3\u0142 Szk\u00f3\u0142 Nr 3 \nIm. W\u0142adys\u0142awa Grabskiego \nW Kutnie","addr:country":"PL","addr:postcode":"99-300","addr:city":"Kutno","addr:street":"ul. Ko\u015bciuszki","addr:housenumber":"24","addr:teryt:simc":9572,"addr:teryt:sym_ul":969103,"contact:phone":"+48 243557879","contact:email":"sekretariat@grabski.edu.pl","contact:website":"http:\/\/www.grabski.edu.pl","ref:regon":"000333167","ref:vatin":"PL7751534237","operator":"Powiat Kutnowski","operator:type":"government","landuse":"education","fixme":"amenity=school, amenity=college albo landuse=education w zale\u017cno\u015bci od tego, jakie plac\u00f3wki wchodz\u0105 w sk\u0142ad zespo\u0142u. Sprawd\u017a, kiedy stosowa\u0107 amenity=* a kiedy landuse=education.","note":"Children RSPO: 53234;53235"}},{"id":30114,"type":"Feature","geometry":{"type":"Point","coordinates":[19.36666,52.2346]},"properties":{"ref:rspo":30114,"official_name":"Specjalny O\u015brodek Szkolno-Wychowawczy Nr 2 w Kutnie","name":"Specjalny O\u015brodek Szkolno-Wychowawczy Nr 2 w Kutnie","addr:country":"PL","addr:postcode":"99-300","addr:city":"Kutno","addr:street":"ul. Ko\u015bciuszki","addr:housenumber":"24a","addr:teryt:simc":9572,"addr:teryt:sym_ul":969103,"contact:phone":"+48 243557887","contact:email":"oswkutno@kki.pl","contact:website":"http:\/\/www.surdokutno.pl","ref:regon":"610029661","ref:vatin":"PL7752194996","operator":"Powiat Kutnowski","operator:type":"government","amenity":"school","note":"Children RSPO: 44070;44260;267856"}},{"id":53234,"type":"Feature","geometry":{"type":"Point","coordinates":[19.36666,52.23457]},"properties":{"isced:level":"3","ref:rspo":53234,"official_name":"Technikum Nr 3 w Kutnie","name":"Technikum Nr 3 w Kutnie","addr:country":"PL","addr:postcode":"99-300","addr:city":"Kutno","addr:street":"ul. Ko\u015bciuszki","addr:housenumber":"24","addr:teryt:simc":9572,"addr:teryt:sym_ul":969103,"contact:phone":"+48 243557879","contact:email":"sekretariat@grabski.edu.pl","contact:website":"http:\/\/www.grabski.edu.pl","ref:regon":"472895623","operator":"Powiat Kutnowski","operator:type":"government","amenity":"school","note":"Parent RSPO: 27497"}},{"id":53235,"type":"Feature","geometry":{"type":"Point","coordinates":[19.36666,52.234539999999996]},"properties":{"isced:level":"4","ref:rspo":53235,"official_name":"Szko\u0142a Policealna Nr 3 w Kutnie","name":"Szko\u0142a Policealna Nr 3 w Kutnie","addr:country":"PL","addr:postcode":"99-300","addr:city":"Kutno","addr:street":"ul. Ko\u015bciuszki","addr:housenumber":"24","addr:teryt:simc":9572,"addr:teryt:sym_ul":969103,"contact:phone":"+48 243557881","contact:email":"sekretariat@grabski.edu.pl","contact:website":"http:\/\/www.grabski.edu.pl","ref:regon":"101488555","operator":"Powiat Kutnowski","operator:type":"government","amenity":"college","note":"Parent RSPO: 27497"}},{"id":44070,"type":"Feature","geometry":{"type":"Point","coordinates":[19.36666,52.23451]},"properties":{"isced:level":"1;2","ref:rspo":44070,"official_name":"Szko\u0142a Podstawowa Specjalna Nr 13 w Kutnie","name":"Szko\u0142a Podstawowa Specjalna Nr 13 w Kutnie","addr:country":"PL","addr:postcode":"99-300","addr:city":"Kutno","addr:street":"ul. Ko\u015bciuszki","addr:housenumber":"24A","addr:teryt:simc":9572,"addr:teryt:sym_ul":969103,"contact:phone":"+48 243557887","contact:email":"oswkutno@kki.pl","contact:website":"http:\/\/www.surdokutno.pl","ref:regon":"472901252","operator":"Powiat Kutnowski","operator:type":"government","amenity":"school","note":"Parent RSPO: 30114"}},{"id":44260,"type":"Feature","geometry":{"type":"Point","coordinates":[19.36666,52.23448]},"properties":{"isced:level":"3","ref:rspo":44260,"official_name":"Bran\u017cowa Szko\u0142a Specjalna I Stopnia Nr 7 w Kutnie","name":"Bran\u017cowa Szko\u0142a Specjalna I Stopnia Nr 7 w Kutnie","addr:country":"PL","addr:postcode":"99-300","addr:city":"Kutno","addr:street":"ul. Ko\u015bciuszki","addr:housenumber":"24A","addr:teryt:simc":9572,"addr:teryt:sym_ul":969103,"contact:phone":"+48 243557887","contact:email":"oswkutno@kki.pl","contact:website":"http:\/\/www.surdokutno.pl","ref:regon":"100729123","operator":"Powiat Kutnowski","operator:type":"government","amenity":"school","note":"Parent RSPO: 30114"}},{"id":267856,"type":"Feature","geometry":{"type":"Point","coordinates":[19.36666,52.234449999999995]},"properties":{"isced:level":"3","ref:rspo":267856,"official_name":"Vii Liceum Og\u00f3lnokszta\u0142c\u0105ce Specjalne w Kutnie","name":"Vii Liceum Og\u00f3lnokszta\u0142c\u0105ce Specjalne w Kutnie","addr:country":"PL","addr:postcode":"99-300","addr:city":"Kutno","addr:street":"ul. Ko\u015bciuszki","addr:housenumber":"24A","addr:teryt:simc":9572,"addr:teryt:sym_ul":969103,"contact:phone":"+48 243557887","contact:email":"soswkutno2@poczta.onet.pl","contact:website":"http:\/\/www.surdokutno.pl","ref:regon":"380708492","operator":"Powiat Kutnowski","operator:type":"government","amenity":"school","note":"Parent RSPO: 30114"}},{"id":85157,"type":"Feature","geometry":{"type":"Point","coordinates":[19.35164,52.2347899]},"properties":{"ref:rspo":85157,"official_name":"O\u015brodek Rehabilitacyjno-Edukacyjno-Wychowawczy \"Niezabudka\" Polskiego Stowarzyszenia Na Rzecz Os\u00f3b Z Niepe\u0142nosprawno\u015bci\u0105 Intelektualn\u0105 Ko\u0142o w Kutnie","name":"O\u015brodek Rehabilitacyjno-Edukacyjno-Wychowawczy \"Niezabudka\" Polskiego Stowarzyszenia Na Rzecz Os\u00f3b Z Niepe\u0142nosprawno\u015bci\u0105 Intelektualn\u0105 Ko\u0142o w Kutnie","addr:country":"PL","addr:postcode":"99-300","addr:city":"Kutno","addr:street":"ul. 29 Listopada","addr:housenumber":"27","addr:teryt:simc":11208,"addr:teryt:sym_ul":969103,"contact:phone":"+48 242533427","contact:email":"orew.niezabudka@poczta.onet.pl","contact:website":"http:\/\/www.psouu.kutno.pl","ref:regon":"101500339","ref:vatin":"PL7751157036","operator":"Polskie Stowarzyszenie Na Rzecz Os\u00f3b Z Niepe\u0142nosprawno\u015bci\u0105 Intelektualn\u0105 Ko\u0142o W Kutnie","operator:type":"ngo","amenity":"school"}},{"id":19425,"type":"Feature","geometry":{"type":"Point","coordinates":[19.34733,52.23514]},"properties":{"isced:level":"3","ref:rspo":19425,"official_name":"Ii Liceum Og\u00f3lnokszta\u0142c\u0105ce im. Jana Kasprowicza w Kutnie","name":"Ii Liceum Og\u00f3lnokszta\u0142c\u0105ce","addr:country":"PL","addr:postcode":"99-300","addr:city":"Kutno","addr:street":"ul. Okrzei","addr:housenumber":"1a","addr:teryt:simc":14909,"addr:teryt:sym_ul":969103,"contact:phone":"+48 243557433","contact:email":"kasprowicz@kasprowicz.edu.pl","contact:website":"http:\/\/www.kasprowicz.edu.pl","ref:regon":"000205297","ref:vatin":"PL7752148660","operator":"Powiat Kutnowski","operator:type":"government","amenity":"school"}},{"id":20518,"type":"Feature","geometry":{"type":"Point","coordinates":[19.35971,52.2353499]},"properties":{"ref:rspo":20518,"official_name":"M\u0142odzie\u017cowy Dom Kultury w Kutnie","name":"M\u0142odzie\u017cowy Dom Kultury w Kutnie","addr:country":"PL","addr:postcode":"99-300","addr:city":"Kutno","addr:street":"ul. Staszica","addr:housenumber":"8","addr:teryt:simc":21065,"addr:teryt:sym_ul":969103,"contact:phone":"+48 242547937","contact:email":"mdkkutno@wp.pl","contact:website":"http:\/\/www.mdkkutno.pl","ref:regon":"610343943","ref:vatin":"PL7751987105","operator":"Powiat Kutnowski","operator:type":"government","amenity":"community_centre","community_centre:for":"juvenile"}},{"id":19391,"type":"Feature","geometry":{"type":"Point","coordinates":[19.36365,52.23548]},"properties":{"isced:level":"3","ref:rspo":19391,"official_name":"I Liceum Og\u00f3lnokszta\u0142c\u0105ce im. Gen. J. H. D\u0105browskiego w Kutnie","name":"I Liceum Og\u00f3lnokszta\u0142c\u0105ce","addr:country":"PL","addr:postcode":"99-300","addr:city":"Kutno","addr:street":"ul. Genera\u0142a D\u0105browskiego","addr:housenumber":"1","addr:teryt:simc":38361,"addr:teryt:sym_ul":969103,"contact:phone":"+48 243558080","contact:email":"dabrowski1@poczta.onet.pl","contact:website":"http:\/\/www.dabrowszczak.pl","ref:regon":"000204470","ref:vatin":"PL7752192201","operator":"Powiat Kutnowski","operator:type":"government","amenity":"school"}},{"id":263961,"type":"Feature","geometry":{"type":"Point","coordinates":[19.35883,52.23559]},"properties":{"isced:level":"1;2","ref:rspo":263961,"official_name":"Szko\u0142a Podstawowa Nr 2 im. Marsza\u0142ka J\u00f3zefa Pi\u0142sudskiego","name":"Szko\u0142a Podstawowa Nr 2","addr:country":"PL","addr:postcode":"99-300","addr:city":"Kutno","addr:street":"ul. Staszica","addr:housenumber":"6","addr:teryt:simc":21065,"addr:teryt:sym_ul":969103,"contact:phone":"+48 243551577","contact:email":"sp2kutno@tlen.pl","ref:regon":"368245067","ref:vatin":"PL7752656089","operator":"Miasto Kutno","operator:type":"government","amenity":"school"}},{"id":31427,"type":"Feature","geometry":{"type":"Point","coordinates":[19.36245,52.23682]},"properties":{"ref:rspo":31427,"official_name":"Integracyjne Przedszkole Miejskie Nr 3 w Kutnie \"Jarz\u0119binka\"","name":"Integracyjne Przedszkole Miejskie Nr 3 w Kutnie \"Jarz\u0119binka\"","addr:country":"PL","addr:postcode":"99-300","addr:city":"Kutno","addr:street":"ul. Genera\u0142a Bema","addr:housenumber":"15","addr:teryt:simc":30474,"addr:teryt:sym_ul":969103,"contact:phone":"+48 242547943","contact:email":"ipm3@edu.kutno.pl","contact:website":"http:\/\/www.ipm3kutno.wikom.pl","ref:regon":"610024764","ref:vatin":"PL7751062672","operator":"Miasto Kutno","operator:type":"government","amenity":"kindergarten"}},{"id":56346,"type":"Feature","geometry":{"type":"Point","coordinates":[19.30247,52.2371]},"properties":{"isced:level":"3","ref:rspo":56346,"official_name":"Technikum Zawodowe Nr 4 w Kutnie - Azorach","name":"Technikum Zawodowe Nr 4 w Kutnie - Azorach","addr:country":"PL","addr:postcode":"99-300","addr:city":"Kutno","addr:street":"ul. Osiedle Kolejowe","addr:housenumber":".","addr:door":".","addr:teryt:simc":38386,"addr:teryt:sym_ul":969103,"contact:phone":"+48 242547309","contact:email":"zs4kutno@op.pl","contact:website":"http:\/\/www.azory.org","ref:regon":"472892748","operator":"Powiat Kutnowski","operator:type":"government","amenity":"school","note":"Parent RSPO: 29536"}},{"id":21577,"type":"Feature","geometry":{"type":"Point","coordinates":[19.3715699,52.23886]},"properties":{"ref:rspo":21577,"official_name":"Poradnia Psychologiczno-Pedagogiczna w Kutnie","name":"Poradnia Psychologiczno-Pedagogiczna w Kutnie","addr:country":"PL","addr:postcode":"99-300","addr:city":"Kutno","addr:street":"ul. Ko\u015bciuszki","addr:housenumber":"52","addr:teryt:simc":9572,"addr:teryt:sym_ul":969103,"contact:phone":"+48 243557885","contact:email":"pppkutno@poczta.onet.pl","contact:website":"http:\/\/www.pppkutno.pl","ref:regon":"000941837","ref:vatin":"PL7752195004","operator":"Powiat Kutnowski","operator:type":"government","healthcare":"councelling","counselling_type":"education","fixme":"w zale\u017cno\u015bci od przedmiotu dzia\u0142alno\u015bci (np. healthcare=councelling + counselling_type=education albo healthcare=psychotherapist)"}},{"id":34266,"type":"Feature","geometry":{"type":"Point","coordinates":[19.3596661,52.2398793]},"properties":{"isced:level":"1;2","ref:rspo":34266,"official_name":"Szko\u0142a Podstawowa Nr 1 im.tadeusza Ko\u015bciuszki w Kutnie","name":"Szko\u0142a Podstawowa Nr 1 im.tadeusza Ko\u015bciuszki w Kutnie","addr:country":"PL","addr:postcode":"99-300","addr:city":"Kutno","addr:street":"ul. Kanclerza Andrzeja Zamoyskiego","addr:housenumber":"1","addr:teryt:simc":25580,"addr:teryt:sym_ul":969103,"contact:phone":"+48 242547072","contact:email":"sp1kutno@poczta.onet.pl","contact:website":"http:\/\/www.sp1kutno.pl","ref:regon":"000903334","ref:vatin":"PL7751058400","operator":"Miasto Kutno","operator:type":"government","amenity":"school"}},{"id":29129,"type":"Feature","geometry":{"type":"Point","coordinates":[19.35744,52.24171]},"properties":{"ref:rspo":29129,"official_name":"Przedszkole Miejskie Nr 17 w Kutnie \"Niezapominajka\"","name":"Przedszkole Miejskie Nr 17 w Kutnie \"Niezapominajka\"","addr:country":"PL","addr:postcode":"99-300","addr:city":"Kutno","addr:street":"ul. J\u00f3zefa Wybickiego","addr:housenumber":"1","addr:teryt:simc":24908,"addr:teryt:sym_ul":969103,"contact:phone":"+48 242535414","contact:email":"pmnr17@interia.pl","contact:website":"http:\/\/www.wikon.pl\/pm17kutno\/","ref:regon":"610024853","ref:vatin":"PL7751065995","operator":"Miasto Kutno","operator:type":"government","amenity":"kindergarten"}},{"id":29536,"type":"Feature","geometry":{"type":"Point","coordinates":[19.390712738037,52.242309570312]},"properties":{"ref:rspo":29536,"official_name":"Zesp\u00f3\u0142 Szk\u00f3\u0142 Nr 4 \nIm. Zygmunta Balickiego \nW Kutnie - Azorach","name":"Zesp\u00f3\u0142 Szk\u00f3\u0142 Nr 4 \nIm. Zygmunta Balickiego \nW Kutnie - Azorach","addr:country":"PL","addr:postcode":"99-300","addr:place":"Azory","addr:housenumber":".","addr:teryt:sym_ul":969126,"contact:phone":"+48 242547309","contact:email":"zs4kutno@op.pl","contact:website":"http:\/\/www.azory.org","ref:regon":"000127172","ref:vatin":"PL7751014176","operator":"Powiat Kutnowski","operator:type":"government","landuse":"education","fixme":"amenity=school, amenity=college albo landuse=education w zale\u017cno\u015bci od tego, jakie plac\u00f3wki wchodz\u0105 w sk\u0142ad zespo\u0142u. Sprawd\u017a, kiedy stosowa\u0107 amenity=* a kiedy landuse=education.","note":"Children RSPO: 53636;56344;56346"}},{"id":53636,"type":"Feature","geometry":{"type":"Point","coordinates":[19.390712738037,52.242279570312]},"properties":{"isced:level":"3","ref:rspo":53636,"official_name":"Iv Liceum Og\u00f3lnokszta\u0142c\u0105ce w Kutnie - Azorach","name":"Iv Liceum Og\u00f3lnokszta\u0142c\u0105ce w Kutnie - Azorach","addr:country":"PL","addr:postcode":"99-300","addr:place":"Azory","addr:housenumber":".","addr:teryt:sym_ul":969126,"contact:phone":"+48 242547309","contact:email":"zs4kutno@op.pl","contact:website":"http:\/\/www.azory.org","ref:regon":"101488549","operator":"Powiat Kutnowski","operator:type":"government","amenity":"school","note":"Parent RSPO: 29536"}},{"id":56344,"type":"Feature","geometry":{"type":"Point","coordinates":[19.390712738037,52.242249570312005]},"properties":{"isced:level":"3","ref:rspo":56344,"official_name":"Bran\u017cowa Szko\u0142a I Stopnia Nr 4 w Kutnie - Azorach","name":"Bran\u017cowa Szko\u0142a I Stopnia Nr 4 w Kutnie - Azorach","addr:country":"PL","addr:postcode":"99-300","addr:place":"Azory","addr:housenumber":".","addr:teryt:sym_ul":969126,"contact:phone":"+48 242547309","contact:email":"zs4kutno@op.pl","contact:website":"http:\/\/www.azory.org","ref:regon":"472892754","operator":"Powiat Kutnowski","operator:type":"government","amenity":"school","note":"Parent RSPO: 29536"}},{"id":266090,"type":"Feature","geometry":{"type":"Point","coordinates":[19.35065,52.24385]},"properties":{"ref:rspo":266090,"official_name":"Niepubliczne Przedszkole Be Happy","name":"Niepubliczne Przedszkole Be Happy","addr:country":"PL","addr:postcode":"99-300","addr:city":"Kutno","addr:street":"ul. Genera\u0142a Stefana \"Grota\" - Roweckiego","addr:housenumber":"3","addr:teryt:simc":51943,"addr:teryt:sym_ul":969103,"contact:email":"kontakt@behappykutno.pl","ref:regon":"369246560","operator":"Sp\u00f3\u0142dzielnia Socjalna Be Happy","operator:type":"cooperative","amenity":"kindergarten"}}]}