{
    "type": "FeatureCollection",
    "features": [
        {
            "id": 63404,
            "type": "Feature",
            "geometry": {
                "type": "Point",
                "coordinates": [
                    19.27787,
                    52.36271
                ]
            },
            "properties": {
                "ref:rspo": 63404,
                "official_name": "Przedszkole Lokalne im. Kubusia Puchatka w \u0141ani\u0119tach",
                "name": "Przedszkole Lokalne",
                "addr:country": "PL",
                "addr:postcode": "99-306",
                "addr:place": "\u0141ani\u0119ta",
                "addr:housenumber": "13a",
                "addr:teryt:simc": 569243,
                "contact:phone": "+48 243567098",
                "contact:email": "przedszkolelanieta@interia.pl",
                "ref:regon": "000903995",
                "ref:vatin": "PL7752321101",
                "operator": "Gmina \u0141ani\u0119ta",
                "operator:type": "government",
                "amenity": "kindergarten"
            }
        },
        {
            "id": 63405,
            "type": "Feature",
            "geometry": {
                "type": "Point",
                "coordinates": [
                    19.27787,
                    52.36268
                ]
            },
            "properties": {
                "isced:level": "1;2",
                "ref:rspo": 63405,
                "official_name": "Szko\u0142a Podstawowa im. Kornela Makuszy\u0144skiego w \u0141ani\u0119tach",
                "name": "Szko\u0142a Podstawowa",
                "addr:country": "PL",
                "addr:postcode": "99-306",
                "addr:place": "\u0141ani\u0119ta",
                "addr:housenumber": "13a",
                "addr:teryt:simc": 569243,
                "contact:phone": "+48 243567386",
                "contact:email": "lanietasp@wp.pl",
                "contact:website": "http:\/\/www.splanieta.szkolnastrona.pl",
                "ref:regon": "000630445",
                "ref:vatin": "PL7751124686",
                "operator": "Gmina \u0141ani\u0119ta",
                "operator:type": "government",
                "amenity": "school"
            }
        }
    ]
}