{"type":"FeatureCollection","features":[{"id":14861,"type":"Feature","geometry":{"type":"Point","coordinates":[21.07836,52.85751]},"properties":{"ref:rspo":14861,"official_name":"Zesp\u00f3\u0142 Szk\u00f3\u0142 im. \u017bo\u0142nierzy Armii Krajowej w Makowie Mazowieckim","name":"Zesp\u00f3\u0142 Szk\u00f3\u0142","addr:country":"PL","addr:postcode":"06-200","addr:city":"Mak\u00f3w Mazowiecki","addr:street":"ul. Du\u0144skiego Czerwonego Krzy\u017ca","addr:housenumber":"7","addr:teryt:simc":4406,"addr:teryt:sym_ul":966300,"contact:phone":"+48 297171269","contact:email":"zs.makow@interia.pl","contact:website":"http:\/\/zakmakow.edupage.org","ref:regon":"000202270","ref:vatin":"PL7571008547","operator":"Powiat Makowski","operator:type":"government","landuse":"education","fixme":"amenity=school, amenity=college albo landuse=education w zale\u017cno\u015bci od tego, jakie plac\u00f3wki wchodz\u0105 w sk\u0142ad zespo\u0142u. Sprawd\u017a, kiedy stosowa\u0107 amenity=* a kiedy landuse=education.","note":"Children RSPO: 25764;25998;26010;103745;128676"}},{"id":14944,"type":"Feature","geometry":{"type":"Point","coordinates":[21.07836,52.857479999999995]},"properties":{"ref:rspo":14944,"official_name":"Specjalny O\u015brodek Szkolno Wychowawczy im. Ks. Jana Twardowskiego w Makowie Mazowieckim","name":"Specjalny O\u015brodek Szkolno Wychowawczy","addr:country":"PL","addr:postcode":"06-200","addr:city":"Mak\u00f3w Mazowiecki","addr:street":"ul. Du\u0144skiego Czerwonego Krzy\u017ca","addr:housenumber":"5","addr:teryt:simc":4406,"addr:teryt:sym_ul":966300,"contact:phone":"+48 297171481","contact:email":"sosw-mm@wp.pl","contact:website":"http:\/\/www.soswmakow.eu","ref:regon":"000186312","ref:vatin":"PL7571014915","operator":"Powiat Makowski","operator:type":"government","amenity":"school","note":"Children RSPO: 28573;28582;28583;128674"}},{"id":17135,"type":"Feature","geometry":{"type":"Point","coordinates":[21.07836,52.85745]},"properties":{"ref:rspo":17135,"official_name":"Poradnia Psychologiczno - Pedagogiczna w Makowie Mazowieckim","name":"Poradnia Psychologiczno - Pedagogiczna w Makowie Mazowieckim","addr:country":"PL","addr:postcode":"06-200","addr:city":"Mak\u00f3w Mazowiecki","addr:street":"ul. Du\u0144skiego Czerwonego Krzy\u017ca","addr:housenumber":"3","addr:teryt:simc":4406,"addr:teryt:sym_ul":966300,"contact:phone":"+48 297171501","contact:email":"biuro@poradnia-makow.pl","contact:website":"http:\/\/www.poradnia-makow.pl","ref:regon":"000694445","ref:vatin":"PL7571375412","operator":"Powiat Makowski","operator:type":"government","healthcare":"councelling","counselling_type":"education","fixme":"w zale\u017cno\u015bci od przedmiotu dzia\u0142alno\u015bci (np. healthcare=councelling + counselling_type=education albo healthcare=psychotherapist)"}},{"id":25764,"type":"Feature","geometry":{"type":"Point","coordinates":[21.07836,52.85742]},"properties":{"isced:level":"3","ref:rspo":25764,"official_name":"Liceum Og\u00f3lnokszta\u0142c\u0105ce Nr II w Zespole Szk\u00f3\u0142 w Makowie Mazowieckim","name":"Liceum Og\u00f3lnokszta\u0142c\u0105ce Nr II w Zespole Szk\u00f3\u0142 w Makowie Mazowieckim","addr:country":"PL","addr:postcode":"06-200","addr:city":"Mak\u00f3w Mazowiecki","addr:street":"ul. Du\u0144skiego Czerwonego Krzy\u017ca","addr:housenumber":"7","addr:teryt:simc":4406,"addr:teryt:sym_ul":966300,"contact:phone":"+48 297171269","contact:email":"zs.makow@interia.pl","contact:website":"http:\/\/zakmakow.edupage.org","ref:regon":"551302160","operator":"Powiat Makowski","operator:type":"government","amenity":"school","note":"Parent RSPO: 14861"}},{"id":25998,"type":"Feature","geometry":{"type":"Point","coordinates":[21.07836,52.857389999999995]},"properties":{"isced:level":"3","ref:rspo":25998,"official_name":"Technikum w Zespole Szk\u00f3\u0142 w Makowie Mazowieckim","name":"Technikum w Zespole Szk\u00f3\u0142 w Makowie Mazowieckim","addr:country":"PL","addr:postcode":"06-200","addr:city":"Mak\u00f3w Mazowiecki","addr:street":"ul. Du\u0144skiego Czerwonego Krzy\u017ca","addr:housenumber":"7","addr:teryt:simc":4406,"addr:teryt:sym_ul":966300,"contact:phone":"+48 297171269","contact:email":"zs.makow@interia.pl","contact:website":"http:\/\/zakmakow.edupage.org","ref:regon":"551302102","operator":"Powiat Makowski","operator:type":"government","amenity":"school","note":"Parent RSPO: 14861"}},{"id":26010,"type":"Feature","geometry":{"type":"Point","coordinates":[21.07836,52.85736]},"properties":{"isced:level":"3","ref:rspo":26010,"official_name":"Bran\u017cowa Szko\u0142a I Stopnia w Zespole Szk\u00f3\u0142 w Makowie Mazowieckim","name":"Bran\u017cowa Szko\u0142a I Stopnia w Zespole Szk\u00f3\u0142 w Makowie Mazowieckim","addr:country":"PL","addr:postcode":"06-200","addr:city":"Mak\u00f3w Mazowiecki","addr:street":"ul. Du\u0144skiego Czerwonego Krzy\u017ca","addr:housenumber":"7","addr:teryt:simc":4406,"addr:teryt:sym_ul":966300,"contact:phone":"+48 297171269","contact:email":"zs.makow@interia.pl","contact:website":"http:\/\/zakmakow.edupage.org","ref:regon":"551302094","operator":"Powiat Makowski","operator:type":"government","amenity":"school","note":"Parent RSPO: 14861"}},{"id":103745,"type":"Feature","geometry":{"type":"Point","coordinates":[21.07836,52.85733]},"properties":{"isced:level":"3","ref:rspo":103745,"official_name":"Liceum Og\u00f3lnokszta\u0142c\u0105ce dla Doros\u0142ych w Zespole Szk\u00f3\u0142 w Makowie Mazowieckim","name":"Liceum Og\u00f3lnokszta\u0142c\u0105ce dla Doros\u0142ych w Zespole Szk\u00f3\u0142 w Makowie Mazowieckim","addr:country":"PL","addr:postcode":"06-200","addr:city":"Mak\u00f3w Mazowiecki","addr:street":"ul. Du\u0144skiego Czerwonego Krzy\u017ca","addr:housenumber":"7","addr:teryt:simc":4406,"addr:teryt:sym_ul":966300,"contact:phone":"+48 297171269","contact:email":"zs.makow@interia.pl","contact:website":"http:\/\/zakmakow.edupage.org","ref:regon":"146439702","operator":"Powiat Makowski","operator:type":"government","amenity":"school","note":"Parent RSPO: 14861"}},{"id":128676,"type":"Feature","geometry":{"type":"Point","coordinates":[21.07836,52.857299999999995]},"properties":{"isced:level":"4","ref:rspo":128676,"official_name":"Szko\u0142a Policealna dla Doros\u0142ych","name":"Szko\u0142a Policealna dla Doros\u0142ych","addr:country":"PL","addr:postcode":"06-200","addr:city":"Mak\u00f3w Mazowiecki","addr:street":"ul. Du\u0144skiego Czerwonego Krzy\u017ca","addr:housenumber":"7","addr:teryt:simc":4406,"addr:teryt:sym_ul":966300,"contact:phone":"+48 297171269","contact:email":"zs.makow@interia.pl","contact:website":"http:\/\/zakmakow.edupage.org","ref:regon":"362388564","operator":"Powiat Makowski","operator:type":"government","amenity":"college","note":"Parent RSPO: 14861"}},{"id":28573,"type":"Feature","geometry":{"type":"Point","coordinates":[21.07836,52.85727]},"properties":{"isced:level":"1;2","ref:rspo":28573,"official_name":"O\u015bmioletnia Szko\u0142a Podstawowa Specjalna w Specjalnym O\u015brodku Szkolno Wychowawczym w Makowie Mazowieckim","name":"O\u015bmioletnia Szko\u0142a Podstawowa Specjalna w Specjalnym O\u015brodku Szkolno Wychowawczym w Makowie Mazowieckim","addr:country":"PL","addr:postcode":"06-200","addr:city":"Mak\u00f3w Mazowiecki","addr:street":"ul. Du\u0144skiego Czerwonego Krzy\u017ca","addr:housenumber":"5","addr:teryt:simc":4406,"addr:teryt:sym_ul":966300,"contact:phone":"+48 297171481","contact:email":"sosw-mm@wp.pl","contact:website":"http:\/\/www.soswmakow.eu","ref:regon":"000932146","operator":"Powiat Makowski","operator:type":"government","amenity":"school","note":"Parent RSPO: 14944"}},{"id":28582,"type":"Feature","geometry":{"type":"Point","coordinates":[21.07836,52.85724]},"properties":{"isced:level":"3","ref:rspo":28582,"official_name":"Bran\u017cowa Szko\u0142a I Stopnia w Specjalnym O\u015brodku Szkolno Wychowawczym w Makowie Mazowieckim","name":"Bran\u017cowa Szko\u0142a I Stopnia w Specjalnym O\u015brodku Szkolno Wychowawczym w Makowie Mazowieckim","addr:country":"PL","addr:postcode":"06-200","addr:city":"Mak\u00f3w Mazowiecki","addr:street":"ul. Du\u0144skiego Czerwonego Krzy\u017ca","addr:housenumber":"5","addr:teryt:simc":4406,"addr:teryt:sym_ul":966300,"contact:phone":"+48 297171481","contact:email":"sosw-mm@wp.pl","contact:website":"http:\/\/soswmakow.eu","ref:regon":"000913060","operator":"Powiat Makowski","operator:type":"government","amenity":"school","note":"Parent RSPO: 14944"}},{"id":28583,"type":"Feature","geometry":{"type":"Point","coordinates":[21.07836,52.857209999999995]},"properties":{"ref:rspo":28583,"official_name":"Szko\u0142a Przysposabiaj\u0105ca Do Pracy w Specjalnym O\u015brodku Szkolno Wychowawczym w Makowie Mazowieckim","name":"Szko\u0142a Przysposabiaj\u0105ca Do Pracy w Specjalnym O\u015brodku Szkolno Wychowawczym w Makowie Mazowieckim","addr:country":"PL","addr:postcode":"06-200","addr:city":"Mak\u00f3w Mazowiecki","addr:street":"ul. Du\u0144skiego Czerwonego Krzy\u017ca","addr:housenumber":"5","addr:teryt:simc":4406,"addr:teryt:sym_ul":966300,"contact:phone":"+48 297171481","contact:email":"sosw-mm@wp.pl","contact:website":"http:\/\/www.soswmakow.eu","ref:regon":"551337900","operator":"Powiat Makowski","operator:type":"government","amenity":"school","note":"Parent RSPO: 14944"}},{"id":128674,"type":"Feature","geometry":{"type":"Point","coordinates":[21.07836,52.85718]},"properties":{"ref:rspo":128674,"official_name":"Przedszkole Specjalne","name":"Przedszkole Specjalne","addr:country":"PL","addr:postcode":"06-200","addr:city":"Mak\u00f3w Mazowiecki","addr:street":"ul. Du\u0144skiego Czerwonego Krzy\u017ca","addr:housenumber":"5","addr:teryt:simc":4406,"addr:teryt:sym_ul":966300,"contact:phone":"+48 297171481","contact:email":"sosw-mm@wp.pl","contact:website":"http:\/\/www.soswmakow.eu","ref:regon":"362388239","operator":"Powiat Makowski","operator:type":"government","amenity":"kindergarten","note":"Parent RSPO: 14944"}},{"id":89392,"type":"Feature","geometry":{"type":"Point","coordinates":[21.07836,52.85715]},"properties":{"ref:rspo":89392,"official_name":"Biblioteka Pedagogiczna w Ostro\u0142\u0119ce - Filia w Makowie Mazowieckim","name":"Biblioteka Pedagogiczna w Ostro\u0142\u0119ce - Filia w Makowie Mazowieckim","addr:country":"PL","addr:postcode":"06-200","addr:city":"Mak\u00f3w Mazowiecki","addr:street":"ul. Du\u0144skiego Czerwonego Krzy\u017ca","addr:housenumber":"3A","addr:teryt:simc":4406,"addr:teryt:sym_ul":966300,"contact:phone":"+48 297171010","contact:email":"makow@bp.ostroleka.pl","contact:website":"http:\/\/www.bpmakowmaz.pl","ref:regon":"694480000","ref:vatin":"PL7582120644","operator":"Wojew\u00f3dztwo Mazowieckie","operator:type":"government","amenity":"library","note":"Parent RSPO: 27001"}},{"id":90565,"type":"Feature","geometry":{"type":"Point","coordinates":[21.1088099,52.86085]},"properties":{"isced:level":"1;2","ref:rspo":90565,"official_name":"Szko\u0142a Podstawowa Nr1 im. W\u0142adys\u0142awa Broniewskiego","name":"Szko\u0142a Podstawowa Nr1","addr:country":"PL","addr:postcode":"06-200","addr:city":"Mak\u00f3w Mazowiecki","addr:street":"ul. Sportowa","addr:housenumber":"9","addr:teryt:simc":20683,"addr:teryt:sym_ul":966300,"contact:phone":"+48 297171042","contact:email":"zs1sekretariat@op.pl","ref:regon":"000694592","ref:vatin":"PL7571481663","operator":"Miasto Mak\u00f3w Mazowiecki","operator:type":"government","amenity":"school"}},{"id":46587,"type":"Feature","geometry":{"type":"Point","coordinates":[21.1016,52.86199]},"properties":{"ref:rspo":46587,"official_name":"Przedszkole Samorz\u0105dowe Nr 2","name":"Przedszkole Samorz\u0105dowe Nr 2","addr:country":"PL","addr:postcode":"06-200","addr:city":"Mak\u00f3w Mazowiecki","addr:street":"ul. Ko\u015bcielna","addr:housenumber":"13","addr:teryt:simc":9546,"addr:teryt:sym_ul":966300,"contact:phone":"+48 297171485","contact:email":"przedszkolesam2@poczta.onet.pl","ref:regon":"551207303","ref:vatin":"PL7571376274","operator":"Miasto Mak\u00f3w Mazowiecki","operator:type":"government","amenity":"kindergarten"}},{"id":124974,"type":"Feature","geometry":{"type":"Point","coordinates":[21.10003,52.86263]},"properties":{"ref:rspo":124974,"official_name":"Niepubliczne Przedszkole Pastelove","name":"Niepubliczne Przedszkole Pastelove","addr:country":"PL","addr:postcode":"06-200","addr:city":"Mak\u00f3w Mazowiecki","addr:street":"ul. Stanis\u0142awa Moniuszki","addr:housenumber":"14","addr:teryt:simc":13246,"addr:teryt:sym_ul":966300,"contact:phone":"+48 693701110","contact:email":"pasteloveprzedszkole@gmail.com","ref:regon":"147418470","operator":"Aleksandra \u017burawi\u0144ska","operator:type":"private","amenity":"kindergarten"}},{"id":40549,"type":"Feature","geometry":{"type":"Point","coordinates":[21.09757,52.86372]},"properties":{"isced:level":"3","ref:rspo":40549,"official_name":"Liceum Og\u00f3lnokszta\u0142c\u0105ce dla Doros\u0142ych w Makowie Mazowieckim","name":"Liceum Og\u00f3lnokszta\u0142c\u0105ce dla Doros\u0142ych w Makowie Mazowieckim","addr:country":"PL","addr:postcode":"06-200","addr:city":"Mak\u00f3w Mazowiecki","addr:street":"ul. gen. Pu\u0142askiego","addr:housenumber":"15","addr:teryt:simc":18093,"addr:teryt:sym_ul":966300,"contact:phone":"+48 256449311","ref:regon":"146364246","operator":"Dane Do Uzupe\u0142nienia","operator:type":"private","amenity":"school"}},{"id":90566,"type":"Feature","geometry":{"type":"Point","coordinates":[21.09757,52.86369]},"properties":{"isced:level":"1;2","ref:rspo":90566,"official_name":"Szko\u0142a Podstawowa Nr 2 im. Jana Kochanowskiego","name":"Szko\u0142a Podstawowa Nr 2","addr:country":"PL","addr:postcode":"06-200","addr:city":"Mak\u00f3w Mazowiecki","addr:street":"ul. Genera\u0142a Pu\u0142askiego","addr:housenumber":"15","addr:teryt:simc":38362,"addr:teryt:sym_ul":966300,"contact:phone":"+48 297171582","contact:email":"sp2mak@op.pl","ref:regon":"000694600","ref:vatin":"PL7571481686","operator":"Miasto Mak\u00f3w Mazowiecki","operator:type":"government","amenity":"school"}},{"id":124775,"type":"Feature","geometry":{"type":"Point","coordinates":[21.09757,52.86366]},"properties":{"isced:level":"3","ref:rspo":124775,"official_name":"Liceum Og\u00f3lnokszta\u0142c\u0105ce dla Doros\u0142ych w Makowiemazowieckim","name":"Liceum Og\u00f3lnokszta\u0142c\u0105ce dla Doros\u0142ych w Makowiemazowieckim","addr:country":"PL","addr:postcode":"06-200","addr:city":"Mak\u00f3w Mazowiecki","addr:street":"ul. Genera\u0142a Pu\u0142askiego","addr:housenumber":"15","addr:teryt:simc":38362,"addr:teryt:sym_ul":966300,"contact:phone":"+48 242606305","contact:email":"biuro@mgedukacja.pl","ref:regon":"147405190","operator":"Jadwiga Kowalczyk","operator:type":"private","amenity":"school"}},{"id":28621,"type":"Feature","geometry":{"type":"Point","coordinates":[21.09587,52.86477]},"properties":{"ref:rspo":28621,"official_name":"O\u015brodek Us\u0142ug Technicznych Szkoleniowych I Ekonomicznych Sim-Masz w Makowie Mazowieckim","name":"O\u015brodek Us\u0142ug Technicznych Szkoleniowych I Ekonomicznych Sim-Masz w Makowie Mazowieckim","addr:country":"PL","addr:postcode":"06-200","addr:city":"Mak\u00f3w Mazowiecki","addr:street":"ul. Adama Mickiewicza","addr:housenumber":"25","addr:teryt:simc":12740,"addr:teryt:sym_ul":966300,"contact:phone":"+48 297171552","ref:regon":"146340174","operator":"Andrzej Sza\u0142wi\u0144ski","operator:type":"private","fixme":"w zale\u017cno\u015bci od przedmiotu dzia\u0142alno\u015bci (np. amenity=training + training=*, amenity=dancing_school, amenity=language_school, amenity=music_school)"}},{"id":275127,"type":"Feature","geometry":{"type":"Point","coordinates":[21.10049,52.86586]},"properties":{"ref:rspo":275127,"official_name":"Miejski Zesp\u00f3\u0142 Przedszkoli Samorz\u0105dowych w Makowie Mazowieckim","name":"Miejski Zesp\u00f3\u0142 Przedszkoli Samorz\u0105dowych w Makowie Mazowieckim","addr:country":"PL","addr:postcode":"06-200","addr:city":"Mak\u00f3w Mazowiecki","addr:street":"ul. Przasnyska","addr:housenumber":"9","addr:teryt:simc":17618,"addr:teryt:sym_ul":966300,"contact:phone":"+48 297171020","ref:regon":"386602731","ref:vatin":"PL7571488582","operator":"Miasto Mak\u00f3w Mazowiecki","operator:type":"government","landuse":"education","fixme":"amenity=school, amenity=college albo landuse=education w zale\u017cno\u015bci od tego, jakie plac\u00f3wki wchodz\u0105 w sk\u0142ad zespo\u0142u. Sprawd\u017a, kiedy stosowa\u0107 amenity=* a kiedy landuse=education.","note":"Children RSPO: 46586;46588"}},{"id":46588,"type":"Feature","geometry":{"type":"Point","coordinates":[21.10049,52.865829999999995]},"properties":{"ref:rspo":46588,"official_name":"Przedszkole Samorz\u0105dowe Nr 1","name":"Przedszkole Samorz\u0105dowe Nr 1","addr:country":"PL","addr:postcode":"06-200","addr:city":"Mak\u00f3w Mazowiecki","addr:street":"ul. Przasnyska","addr:housenumber":"9","addr:teryt:simc":17618,"addr:teryt:sym_ul":966300,"contact:phone":"+48 297171020","contact:email":"przedszkole.nr1.mm@wp.pl","ref:regon":"000913048","ref:vatin":"PL7571376251","operator":"Miasto Mak\u00f3w Mazowiecki","operator:type":"government","amenity":"kindergarten","note":"Parent RSPO: 275127"}},{"id":14889,"type":"Feature","geometry":{"type":"Point","coordinates":[21.09807,52.86611]},"properties":{"isced:level":"3","ref:rspo":14889,"official_name":"Liceum Og\u00f3lnokszta\u0142c\u0105ce Nr I im. Marii Curie Sk\u0142odowskiej w Makowie Mazowieckim","name":"Liceum Og\u00f3lnokszta\u0142c\u0105ce Nr I","addr:country":"PL","addr:postcode":"06-200","addr:city":"Mak\u00f3w Mazowiecki","addr:street":"ul. Kopernika","addr:housenumber":"2","addr:teryt:simc":9276,"addr:teryt:sym_ul":966300,"contact:phone":"+48 297171285","contact:email":"lommak@o2.pl","contact:website":"http:\/\/www.lo-curie.pl","ref:regon":"000256640","ref:vatin":"PL7571252833","operator":"Powiat Makowski","operator:type":"government","amenity":"school"}},{"id":268907,"type":"Feature","geometry":{"type":"Point","coordinates":[21.09983,52.87023]},"properties":{"ref:rspo":268907,"official_name":"Niepubliczne Przedszkole J\u0119zykowo - Sportowe Happy Kids","name":"Niepubliczne Przedszkole J\u0119zykowo - Sportowe Happy Kids","addr:country":"PL","addr:postcode":"06-200","addr:city":"Mak\u00f3w Mazowiecki","addr:street":"ul. Przasnyska","addr:housenumber":"61","addr:teryt:simc":17618,"addr:teryt:sym_ul":966300,"contact:phone":"+48 669611293","contact:email":"happykids.makow@wp.pl","contact:website":"http:\/\/www.happykids.irtf.pl","ref:regon":"381283132","ref:vatin":"PL7571481410","operator":"R\u00f3\u017ca Chmielewska","operator:type":"private","amenity":"kindergarten"}},{"id":46586,"type":"Feature","geometry":{"type":"Point","coordinates":[21.09721,52.87411]},"properties":{"ref:rspo":46586,"official_name":"Przedszkole Samorz\u0105dowe Nr 4","name":"Przedszkole Samorz\u0105dowe Nr 4","addr:country":"PL","addr:postcode":"06-200","addr:city":"Mak\u00f3w Mazowiecki","addr:street":"ul. Przasnyska","addr:housenumber":"11","addr:teryt:simc":17618,"addr:teryt:sym_ul":966300,"contact:phone":"+48 297171286","contact:email":"przedszkole4makow@wp.pl","ref:regon":"551207310","ref:vatin":"PL7571376268","operator":"Miasto Mak\u00f3w Mazowiecki","operator:type":"government","amenity":"kindergarten","note":"Parent RSPO: 275127"}}]}