{
    "type": "FeatureCollection",
    "features": [
        {
            "id": 3516,
            "type": "Feature",
            "geometry": {
                "type": "Point",
                "coordinates": [
                    21.02702,
                    52.92406
                ]
            },
            "properties": {
                "isced:level": "1;2",
                "ref:rspo": 3516,
                "official_name": "Publiczna Szko\u0142a Podstawowa im.bohater\u00f3w Wrze\u015bnia w W\u0119grzynowie",
                "name": "Publiczna Szko\u0142a Podstawowa im.bohater\u00f3w Wrze\u015bnia w W\u0119grzynowie",
                "addr:country": "PL",
                "addr:postcode": "06-211",
                "addr:place": "W\u0119grzynowo",
                "addr:housenumber": "150",
                "addr:teryt:sym_ul": 517654,
                "contact:phone": "+48 297174541",
                "contact:email": "sp.weg@wp.pl",
                "contact:website": "http:\/\/sp-wegrzynowo.pl",
                "ref:regon": "001106775",
                "ref:vatin": "PL7571336636",
                "operator": "Gmina P\u0142oniawy-Bramura",
                "operator:type": "government",
                "amenity": "school"
            }
        },
        {
            "id": 7599,
            "type": "Feature",
            "geometry": {
                "type": "Point",
                "coordinates": [
                    20.99453,
                    52.9326
                ]
            },
            "properties": {
                "isced:level": "1;2",
                "ref:rspo": 7599,
                "official_name": "Publiczna Szko\u0142a Podstawowa im. Marii Sk\u0142odowskiej-Curie w Krasi\u0144cu",
                "name": "Publiczna Szko\u0142a Podstawowa",
                "addr:country": "PL",
                "addr:postcode": "06-211",
                "addr:place": "Krasiniec",
                "addr:housenumber": "18",
                "addr:teryt:sym_ul": 517619,
                "contact:phone": "+48 297174022",
                "contact:email": "sekretariat@zskrasiniec.szkolnastrona.pl",
                "ref:regon": "001106781",
                "ref:vatin": "PL7571336582",
                "operator": "Gmina P\u0142oniawy-Bramura",
                "operator:type": "government",
                "amenity": "school"
            }
        },
        {
            "id": 30365,
            "type": "Feature",
            "geometry": {
                "type": "Point",
                "coordinates": [
                    21.07678,
                    52.95129
                ]
            },
            "properties": {
                "isced:level": "3",
                "ref:rspo": 30365,
                "official_name": "Bran\u017cowa Szko\u0142a I Stopnia Przy O\u015brodku Szkolenia I Wychowania Ohp w Jaci\u0105\u017cku",
                "name": "Bran\u017cowa Szko\u0142a I Stopnia Przy O\u015brodku Szkolenia I Wychowania Ohp w Jaci\u0105\u017cku",
                "addr:country": "PL",
                "addr:postcode": "06-210",
                "addr:place": "Jaci\u0105\u017cek",
                "addr:housenumber": "64A",
                "addr:teryt:sym_ul": 517364,
                "contact:phone": "+48 297176419",
                "contact:email": "lucyna.zaleska@powiat-makowski.pl",
                "ref:regon": "146346343",
                "operator": "Powiat Makowski",
                "operator:type": "government",
                "amenity": "school"
            }
        },
        {
            "id": 269889,
            "type": "Feature",
            "geometry": {
                "type": "Point",
                "coordinates": [
                    21.07678,
                    52.95126
                ]
            },
            "properties": {
                "isced:level": "1;2",
                "ref:rspo": 269889,
                "official_name": "Szko\u0142a Podstawowa w Jaci\u0105\u017cku",
                "name": "Szko\u0142a Podstawowa w Jaci\u0105\u017cku",
                "addr:country": "PL",
                "addr:postcode": "06-210",
                "addr:place": "Jaci\u0105\u017cek",
                "addr:housenumber": "64A",
                "addr:teryt:sym_ul": 517364,
                "contact:phone": "+48 236734664",
                "contact:email": "kontakt@spjaciazek.pl",
                "contact:website": "http:\/\/spjaciazek.pl",
                "ref:regon": "381831467",
                "operator": "Zak\u0142ad Doskonalenia Zawodowego W Warszawie",
                "operator:type": "ngo",
                "amenity": "school"
            }
        },
        {
            "id": 3515,
            "type": "Feature",
            "geometry": {
                "type": "Point",
                "coordinates": [
                    21.05916,
                    52.98064
                ]
            },
            "properties": {
                "isced:level": "1;2",
                "ref:rspo": 3515,
                "official_name": "Publiczna Szko\u0142a Podstawowa im.arkadiusza Go\u0142asia w P\u0142oniawach-Bramurze",
                "name": "Publiczna Szko\u0142a Podstawowa im.arkadiusza Go\u0142asia w P\u0142oniawach-Bramurze",
                "addr:country": "PL",
                "addr:postcode": "06-210",
                "addr:place": "P\u0142oniawy-Bramura",
                "addr:housenumber": "80A",
                "addr:teryt:sym_ul": 517499,
                "contact:phone": "+48 297178014",
                "contact:email": "ploniawy@interia.pl",
                "contact:website": "http:\/\/spploniawy.edu.pl",
                "ref:regon": "000641012",
                "operator": "Gmina P\u0142oniawy-Bramura",
                "operator:type": "government",
                "amenity": "school"
            }
        },
        {
            "id": 3518,
            "type": "Feature",
            "geometry": {
                "type": "Point",
                "coordinates": [
                    21.04432,
                    53.02492
                ]
            },
            "properties": {
                "isced:level": "1;2",
                "ref:rspo": 3518,
                "official_name": "Publiczna Szko\u0142a Podstawowa im.\u015bw.stanis\u0142awa Kostki w Chodkowie Wielkim",
                "name": "Publiczna Szko\u0142a Podstawowa im.\u015bw.stanis\u0142awa Kostki w Chodkowie Wielkim",
                "addr:country": "PL",
                "addr:postcode": "06-210",
                "addr:place": "Chodkowo Wielkie",
                "addr:housenumber": "29",
                "addr:teryt:sym_ul": 517312,
                "contact:phone": "+48 295930325",
                "contact:email": "spchodkowo@interia.pl",
                "ref:regon": "001106798",
                "ref:vatin": "PL7571336547",
                "operator": "Gmina P\u0142oniawy-Bramura",
                "operator:type": "government",
                "amenity": "school"
            }
        }
    ]
}