{"type":"FeatureCollection","features":[{"id":6893,"type":"Feature","geometry":{"type":"Point","coordinates":[16.26648,50.74442]},"properties":{"ref:rspo":6893,"official_name":"M\u0142odzie\u017cowy O\u015brodek Socjoterapii w Wa\u0142brzychu","name":"M\u0142odzie\u017cowy O\u015brodek Socjoterapii w Wa\u0142brzychu","addr:country":"PL","addr:postcode":"58-303","addr:city":"Wa\u0142brzych","addr:street":"ul. Stanis\u0142awa Moniuszki","addr:housenumber":"118","addr:teryt:simc":13246,"addr:teryt:sym_ul":983681,"contact:phone":"+48 748431783","contact:email":"soswwalbrzych@wp.pl","ref:regon":"000212251","ref:vatin":"PL8861117883","operator":"Gmina Wa\u0142brzych - Miasto Na Prawach Powiatu","operator:type":"government","fixme":"amenity=social facility + social_facility=group_home + social_facility:for=juvenile","note":"Children RSPO: 8899"}},{"id":8899,"type":"Feature","geometry":{"type":"Point","coordinates":[16.26648,50.744389999999996]},"properties":{"isced:level":"1;2","ref:rspo":8899,"official_name":"Szko\u0142a Podstawowa Specjalna Nr 41 w Wa\u0142brzychu","name":"Szko\u0142a Podstawowa Specjalna Nr 41 w Wa\u0142brzychu","addr:country":"PL","addr:postcode":"58-303","addr:city":"Wa\u0142brzych","addr:street":"ul. Stanis\u0142awa Moniuszki","addr:housenumber":"118","addr:teryt:simc":13246,"addr:teryt:sym_ul":983681,"contact:phone":"+48 748431783","contact:email":"soswwalbrzych@wp.pl","ref:regon":"891514281","operator":"Gmina Wa\u0142brzych - Miasto Na Prawach Powiatu","operator:type":"government","amenity":"school","note":"Parent RSPO: 6893"}},{"id":6751,"type":"Feature","geometry":{"type":"Point","coordinates":[16.29369,50.74591]},"properties":{"isced:level":"1;2","ref:rspo":6751,"official_name":"Publiczna Szko\u0142a Podstawowa Nr 5 im. A. Cz. Centkiewicz\u00f3w w Wa\u0142brzychu","name":"Publiczna Szko\u0142a Podstawowa Nr 5","addr:country":"PL","addr:postcode":"58-303","addr:city":"Wa\u0142brzych","addr:street":"ul. Pozna\u0144ska","addr:housenumber":"8","addr:teryt:simc":17394,"addr:teryt:sym_ul":983681,"contact:phone":"+48 748423544","contact:email":"psp5@walbrzych.edu.pl","contact:website":"http:\/\/psp5walbrzych.superszkolna.pl","ref:regon":"000690921","ref:vatin":"PL8861067381","operator":"Gmina Wa\u0142brzych - Miasto Na Prawach Powiatu","operator:type":"government","amenity":"school"}},{"id":40074,"type":"Feature","geometry":{"type":"Point","coordinates":[16.29485,50.74997]},"properties":{"ref:rspo":40074,"official_name":"Przedszkole Niepubliczne \"Pod Grzybkiem\" w Wa\u0142brzychu","name":"Przedszkole Niepubliczne \"Pod Grzybkiem\" w Wa\u0142brzychu","addr:country":"PL","addr:postcode":"58-303","addr:city":"Wa\u0142brzych","addr:street":"ul. Niepodleg\u0142o\u015bci","addr:housenumber":"90","addr:teryt:simc":14203,"addr:teryt:sym_ul":983681,"contact:phone":"+48 748424182","contact:email":"przedszkole.pod.grzybkiem@wp.pl","ref:regon":"021991201","ref:vatin":"PL8862659066","operator":"Zofia Obel","operator:type":"private","amenity":"kindergarten"}},{"id":7189,"type":"Feature","geometry":{"type":"Point","coordinates":[16.26723,50.75401]},"properties":{"ref:rspo":7189,"official_name":"Zesp\u00f3\u0142 Szkolno-Przedszkolny Nr 2","name":"Zesp\u00f3\u0142 Szkolno-Przedszkolny Nr 2","addr:country":"PL","addr:postcode":"58-300","addr:city":"Wa\u0142brzych","addr:street":"ul. Kr\u00f3lewiecka","addr:housenumber":"7","addr:teryt:simc":9983,"addr:teryt:sym_ul":983681,"contact:phone":"+48 748424253","contact:email":"zsp2@walbrzych.edu.pl","ref:regon":"891542225","ref:vatin":"PL8862776240","operator":"Gmina Wa\u0142brzych - Miasto Na Prawach Powiatu","operator:type":"government","landuse":"education","fixme":"amenity=school, amenity=college albo landuse=education w zale\u017cno\u015bci od tego, jakie plac\u00f3wki wchodz\u0105 w sk\u0142ad zespo\u0142u. Sprawd\u017a, kiedy stosowa\u0107 amenity=* a kiedy landuse=education.","note":"Children RSPO: 11034;11045"}},{"id":11034,"type":"Feature","geometry":{"type":"Point","coordinates":[16.26723,50.75398]},"properties":{"isced:level":"1;2","ref:rspo":11034,"official_name":"Publiczna Szko\u0142a Podstawowa Nr 9 w Wa\u0142brzychu","name":"Publiczna Szko\u0142a Podstawowa Nr 9 w Wa\u0142brzychu","addr:country":"PL","addr:postcode":"58-300","addr:city":"Wa\u0142brzych","addr:street":"ul. Kr\u00f3lewiecka","addr:housenumber":"7","addr:teryt:simc":9983,"addr:teryt:sym_ul":983681,"contact:phone":"+48 748424253","contact:email":"sekretariat@zszpnr2.edu.pl","ref:regon":"000771230","ref:vatin":"PL8862776240","operator":"Gmina Wa\u0142brzych - Miasto Na Prawach Powiatu","operator:type":"government","amenity":"school","note":"Parent RSPO: 7189"}},{"id":11045,"type":"Feature","geometry":{"type":"Point","coordinates":[16.26723,50.75395]},"properties":{"ref:rspo":11045,"official_name":"Przedszkole Samorz\u0105dowe Nr 22","name":"Przedszkole Samorz\u0105dowe Nr 22","addr:country":"PL","addr:postcode":"58-300","addr:city":"Wa\u0142brzych","addr:street":"ul. Kr\u00f3lewiecka","addr:housenumber":"7","addr:teryt:simc":9983,"addr:teryt:sym_ul":983681,"contact:phone":"+48 748424253","contact:email":"sekretariat@zszpnr2.edu.pl","ref:regon":"890524320","ref:vatin":"PL8862776240","operator":"Gmina Wa\u0142brzych - Miasto Na Prawach Powiatu","operator:type":"government","amenity":"kindergarten","note":"Parent RSPO: 7189"}},{"id":130911,"type":"Feature","geometry":{"type":"Point","coordinates":[16.26638,50.75438]},"properties":{"ref:rspo":130911,"official_name":"Niepubliczne Przedszkole \"Romano Drom Pe Fedyr Dzipen\" w Wa\u0142brzychu","name":"Niepubliczne Przedszkole \"Romano Drom Pe Fedyr Dzipen\" w Wa\u0142brzychu","addr:country":"PL","addr:postcode":"58-300","addr:city":"Wa\u0142brzych","addr:street":"ul. Kr\u00f3lewiecka","addr:housenumber":"9","addr:teryt:simc":9983,"addr:teryt:sym_ul":983681,"contact:phone":"+48 748806860","contact:email":"salvator36@gmail.com","ref:regon":"364708501","operator":"Fundacja Pomocy Dzieciom I M\u0142odzie\u017cy \"Salvator\"","operator:type":"ngo","amenity":"kindergarten"}},{"id":5158,"type":"Feature","geometry":{"type":"Point","coordinates":[16.28255,50.75784]},"properties":{"ref:rspo":5158,"official_name":"Przedszkole Samorz\u0105dowe Nr 4","name":"Przedszkole Samorz\u0105dowe Nr 4","addr:country":"PL","addr:postcode":"58-300","addr:city":"Wa\u0142brzych","addr:street":"ul. M\u0105czna","addr:housenumber":"1a","addr:teryt:simc":12563,"addr:teryt:sym_ul":983681,"contact:phone":"+48 748425153","contact:email":"przedszkole4walbrzych@tlen.pl","ref:regon":"021400499","ref:vatin":"PL8862959696","operator":"Gmina Wa\u0142brzych - Miasto Na Prawach Powiatu","operator:type":"government","amenity":"kindergarten"}},{"id":7048,"type":"Feature","geometry":{"type":"Point","coordinates":[16.33395,50.75875]},"properties":{"ref:rspo":7048,"official_name":"Zesp\u00f3\u0142 Szk\u00f3\u0142 Nr 7 im. Komisji Edukacji Narodowej w Wa\u0142brzychu","name":"Zesp\u00f3\u0142 Szk\u00f3\u0142 Nr 7","addr:country":"PL","addr:postcode":"58-308","addr:city":"Wa\u0142brzych","addr:street":"ul. K\u0142odzka","addr:housenumber":"29","addr:teryt:simc":8622,"addr:teryt:sym_ul":983681,"contact:phone":"+48 748423607","contact:email":"poczta@liceum.hm.pl","contact:website":"http:\/\/www.zs7.walbrzych.pl","ref:regon":"000193246","ref:vatin":"PL8861918330","operator":"Gmina Wa\u0142brzych - Miasto Na Prawach Powiatu","operator:type":"government","landuse":"education","fixme":"amenity=school, amenity=college albo landuse=education w zale\u017cno\u015bci od tego, jakie plac\u00f3wki wchodz\u0105 w sk\u0142ad zespo\u0142u. Sprawd\u017a, kiedy stosowa\u0107 amenity=* a kiedy landuse=education.","note":"Children RSPO: 8081;8082;8083"}},{"id":8081,"type":"Feature","geometry":{"type":"Point","coordinates":[16.33395,50.75872]},"properties":{"isced:level":"3","ref:rspo":8081,"official_name":"Bran\u017cowa Szko\u0142a I Stopnia Nr 1 w Wa\u0142brzychu","name":"Bran\u017cowa Szko\u0142a I Stopnia Nr 1 w Wa\u0142brzychu","addr:country":"PL","addr:postcode":"58-308","addr:city":"Wa\u0142brzych","addr:street":"ul. K\u0142odzka","addr:housenumber":"29","addr:teryt:simc":8622,"addr:teryt:sym_ul":983681,"contact:phone":"+48 748423618","contact:email":"poczta@liceum.hm.pl","contact:website":"http:\/\/www.zs7.walbrzych.pl","ref:regon":"891420396","ref:vatin":"PL8861918330","operator":"Gmina Wa\u0142brzych - Miasto Na Prawach Powiatu","operator:type":"government","amenity":"school","note":"Parent RSPO: 7048"}},{"id":8082,"type":"Feature","geometry":{"type":"Point","coordinates":[16.33395,50.75869]},"properties":{"isced:level":"3","ref:rspo":8082,"official_name":"Technikum Nr 4 w Wa\u0142brzychu","name":"Technikum Nr 4 w Wa\u0142brzychu","addr:country":"PL","addr:postcode":"58-308","addr:city":"Wa\u0142brzych","addr:street":"ul. K\u0142odzka","addr:housenumber":"29","addr:teryt:simc":8622,"addr:teryt:sym_ul":983681,"contact:phone":"+48 748423618","contact:email":"poczta@liceum.hm.pl","contact:website":"http:\/\/www.zs7.walbrzych.pl","ref:regon":"891420338","ref:vatin":"PL8861918330","operator":"Gmina Wa\u0142brzych - Miasto Na Prawach Powiatu","operator:type":"government","amenity":"school","note":"Parent RSPO: 7048"}},{"id":8083,"type":"Feature","geometry":{"type":"Point","coordinates":[16.33395,50.75866]},"properties":{"isced:level":"4","ref:rspo":8083,"official_name":"Szko\u0142a Policealna w Wa\u0142brzychu","name":"Szko\u0142a Policealna w Wa\u0142brzychu","addr:country":"PL","addr:postcode":"58-308","addr:city":"Wa\u0142brzych","addr:street":"ul. K\u0142odzka","addr:housenumber":"29","addr:teryt:simc":8622,"addr:teryt:sym_ul":983681,"contact:phone":"+48 748423607","contact:email":"poczta@liceum.hm.pl","contact:website":"http:\/\/www.zs7.walbrzych.pl","ref:regon":"891420404","ref:vatin":"PL8861918330","operator":"Gmina Wa\u0142brzych - Miasto Na Prawach Powiatu","operator:type":"government","amenity":"college","note":"Parent RSPO: 7048"}},{"id":3962,"type":"Feature","geometry":{"type":"Point","coordinates":[16.24155,50.75962]},"properties":{"isced:level":"3","ref:rspo":3962,"official_name":"Iii Liceum Og\u00f3lnokszta\u0142c\u0105ce im.miko\u0142aja Kopernika","name":"Iii Liceum Og\u00f3lnokszta\u0142c\u0105ce im.miko\u0142aja Kopernika","addr:country":"PL","addr:postcode":"58-305","addr:city":"Wa\u0142brzych","addr:street":"ul. Henryka Jordana","addr:housenumber":"4","addr:teryt:simc":7606,"addr:teryt:sym_ul":983681,"contact:phone":"+48 748424263","contact:email":"sekretariat@3lo.walbrzych.pl","contact:website":"http:\/\/www.3lo.walbrzych.pl","ref:regon":"000718341","ref:vatin":"PL8862987913","operator":"Gmina Wa\u0142brzych - Miasto Na Prawach Powiatu","operator:type":"government","amenity":"school"}},{"id":132075,"type":"Feature","geometry":{"type":"Point","coordinates":[16.27295,50.76077]},"properties":{"ref:rspo":132075,"official_name":"Niepubliczna Plac\u00f3wka Edukacji Fundacji \"Razem\"","name":"Niepubliczna Plac\u00f3wka Edukacji Fundacji \"Razem\"","addr:country":"PL","addr:postcode":"58-300","addr:city":"Wa\u0142brzych","addr:street":"ul. Ludwiga van Beethovena","addr:housenumber":"1-2","addr:teryt:simc":34862,"addr:teryt:sym_ul":983681,"contact:phone":"+48 746663006","contact:email":"biuro@fundacjarazem.pl","ref:regon":"365451731","operator":"Fundacja \"Razem\"","operator:type":"ngo","fixme":"w zale\u017cno\u015bci od przedmiotu dzia\u0142alno\u015bci (np. amenity=training + training=*, amenity=dancing_school, amenity=language_school, amenity=music_school)"}},{"id":127254,"type":"Feature","geometry":{"type":"Point","coordinates":[16.28414,50.76139]},"properties":{"ref:rspo":127254,"official_name":"O\u015brodek Szkolenia Puh Auto-Stop Piotr Stok\u0142osa","name":"O\u015brodek Szkolenia Puh Auto-Stop Piotr Stok\u0142osa","addr:country":"PL","addr:postcode":"58-300","addr:city":"Wa\u0142brzych","addr:street":"ul. Adama Mickiewicza","addr:housenumber":"53","addr:door":"2","addr:teryt:simc":12740,"addr:teryt:sym_ul":983681,"contact:phone":"+48 604054108","contact:email":"stokloa@autostop.co","ref:regon":"361273221","operator":"Piotr Stok\u0142osa","operator:type":"private","fixme":"w zale\u017cno\u015bci od przedmiotu dzia\u0142alno\u015bci (np. amenity=training + training=*, amenity=dancing_school, amenity=language_school, amenity=music_school)"}},{"id":269959,"type":"Feature","geometry":{"type":"Point","coordinates":[16.28208,50.76246]},"properties":{"ref:rspo":269959,"official_name":"Botanical Clinic Academy Marlena Przew\u0142ocka-G\u0105ga\u0142a","name":"Botanical Clinic Academy Marlena Przew\u0142ocka-G\u0105ga\u0142a","addr:country":"PL","addr:postcode":"58-300","addr:city":"Wa\u0142brzych","addr:street":"ul. Zamkowa","addr:housenumber":"4","addr:teryt:simc":25547,"addr:teryt:sym_ul":983681,"contact:phone":"+48 695756516","contact:email":"botanicalclinic@gmail.com","ref:regon":"381903511","operator":"Marlena Przew\u0142ocka-G\u0105ga\u0142a","operator:type":"private","fixme":"w zale\u017cno\u015bci od przedmiotu dzia\u0142alno\u015bci (np. amenity=training + training=*, amenity=dancing_school, amenity=language_school, amenity=music_school)"}},{"id":103567,"type":"Feature","geometry":{"type":"Point","coordinates":[16.28086,50.7632]},"properties":{"ref:rspo":103567,"official_name":"Szko\u0142a Muzyczna II St. w Wa\u0142brzychu","name":"Szko\u0142a Muzyczna II St. w Wa\u0142brzychu","addr:country":"PL","addr:postcode":"58-300","addr:city":"Wa\u0142brzych","addr:street":"ul. Stanis\u0142awa Moniuszki","addr:housenumber":"41","addr:teryt:simc":13246,"addr:teryt:sym_ul":983681,"contact:phone":"+48 748424009","contact:email":"moniuszki@zsm.walbrzych.pl","contact:website":"http:\/\/zsm.walbrzych.pl","ref:regon":"891421272","operator":"Ministerstwo Kultury I Dziedzictwa Narodowego","operator:type":"public","amenity":"music_school","note":"Parent RSPO: 19324"}},{"id":103573,"type":"Feature","geometry":{"type":"Point","coordinates":[16.28086,50.763169999999995]},"properties":{"isced:level":"3","ref:rspo":103573,"official_name":"Og\u00f3lnokszta\u0142c\u0105ca Szko\u0142a Muzyczna II St. w Wa\u0142brzychu","name":"Og\u00f3lnokszta\u0142c\u0105ca Szko\u0142a Muzyczna II St. w Wa\u0142brzychu","addr:country":"PL","addr:postcode":"58-300","addr:city":"Wa\u0142brzych","addr:street":"ul. Stanis\u0142awa Moniuszki","addr:housenumber":"41","addr:teryt:simc":13246,"addr:teryt:sym_ul":983681,"contact:phone":"+48 748424009","contact:email":"moniuszki@zsm.walbrzych.pl","contact:website":"http:\/\/zsm.walbrzych.pl","ref:regon":"891422627","operator":"Ministerstwo Kultury I Dziedzictwa Narodowego","operator:type":"public","amenity":"school","note":"Parent RSPO: 19324"}},{"id":3961,"type":"Feature","geometry":{"type":"Point","coordinates":[16.28019,50.76349]},"properties":{"ref:rspo":3961,"official_name":"Poradnia Psychologiczno-Pedagogiczna","name":"Poradnia Psychologiczno-Pedagogiczna","addr:country":"PL","addr:postcode":"58-300","addr:city":"Wa\u0142brzych","addr:street":"ul. Jana Matejki","addr:housenumber":"7","addr:teryt:simc":12489,"addr:teryt:sym_ul":983681,"contact:phone":"+48 748422243","contact:email":"sekretariat@ppp.edu.pl","contact:website":"http:\/\/www.ppp.edu.pl","ref:regon":"891062910","ref:vatin":"PL8861117541","operator":"Gmina Wa\u0142brzych - Miasto Na Prawach Powiatu","operator:type":"government","healthcare":"councelling","counselling_type":"education","fixme":"w zale\u017cno\u015bci od przedmiotu dzia\u0142alno\u015bci (np. healthcare=councelling + counselling_type=education albo healthcare=psychotherapist)"}},{"id":278574,"type":"Feature","geometry":{"type":"Point","coordinates":[16.27987,50.76384]},"properties":{"ref:rspo":278574,"official_name":"Punkt Przedszkolny Edukacja I Wsparcie","name":"Punkt Przedszkolny Edukacja I Wsparcie","addr:country":"PL","addr:postcode":"58-300","addr:city":"Wa\u0142brzych","addr:street":"ul. Jana Matejki","addr:housenumber":"6","addr:teryt:simc":12489,"addr:teryt:sym_ul":983681,"contact:phone":"+48 784503935","contact:email":"d_sobczyk@laferpharm.com","ref:regon":"389978840","operator":"Daniel Sobczyk","operator:type":"private","amenity":"kindergarten"}},{"id":6896,"type":"Feature","geometry":{"type":"Point","coordinates":[16.28396,50.76401]},"properties":{"ref:rspo":6896,"official_name":"Zesp\u00f3\u0142 Szk\u00f3\u0142 Zawodowych Specjalnych w Wa\u0142brzychu","name":"Zesp\u00f3\u0142 Szk\u00f3\u0142 Zawodowych Specjalnych w Wa\u0142brzychu","addr:country":"PL","addr:postcode":"58-300","addr:city":"Wa\u0142brzych","addr:street":"ul. Adama Mickiewicza","addr:housenumber":"24","addr:teryt:simc":12740,"addr:teryt:sym_ul":983681,"contact:phone":"+48 748422580","contact:email":"sekretariat@zszs.walbrzych.pl","contact:website":"http:\/\/zszs.walbrzych.pl","ref:regon":"020204052","ref:vatin":"PL8862813768","operator":"Gmina Wa\u0142brzych - Miasto Na Prawach Powiatu","operator:type":"government","landuse":"education","fixme":"amenity=school, amenity=college albo landuse=education w zale\u017cno\u015bci od tego, jakie plac\u00f3wki wchodz\u0105 w sk\u0142ad zespo\u0142u. Sprawd\u017a, kiedy stosowa\u0107 amenity=* a kiedy landuse=education.","note":"Children RSPO: 8467;8468"}},{"id":8467,"type":"Feature","geometry":{"type":"Point","coordinates":[16.28396,50.76398]},"properties":{"isced:level":"3","ref:rspo":8467,"official_name":"Bran\u017cowa Szko\u0142a Specjalna I Stopnia w Wa\u0142brzychu","name":"Bran\u017cowa Szko\u0142a Specjalna I Stopnia w Wa\u0142brzychu","addr:country":"PL","addr:postcode":"58-300","addr:city":"Wa\u0142brzych","addr:street":"ul. Adama Mickiewicza","addr:housenumber":"24","addr:teryt:simc":12740,"addr:teryt:sym_ul":983681,"contact:phone":"+48 748422580","contact:email":"sekretariat@zszs.walbrzych.pl","contact:website":"http:\/\/www.zszs.walbrzych.pl","ref:regon":"000743669","ref:vatin":"PL8862414347","operator":"Gmina Wa\u0142brzych - Miasto Na Prawach Powiatu","operator:type":"government","amenity":"school","note":"Parent RSPO: 6896"}},{"id":8468,"type":"Feature","geometry":{"type":"Point","coordinates":[16.28396,50.76395]},"properties":{"ref:rspo":8468,"official_name":"Szko\u0142a Specjalna Przysposabiaj\u0105ca Do Pracy w Wa\u0142brzychu","name":"Szko\u0142a Specjalna Przysposabiaj\u0105ca Do Pracy w Wa\u0142brzychu","addr:country":"PL","addr:postcode":"58-300","addr:city":"Wa\u0142brzych","addr:street":"ul. Adama Mickiewicza","addr:housenumber":"24","addr:teryt:simc":12740,"addr:teryt:sym_ul":983681,"contact:phone":"+48 748422580","contact:email":"sekretariat@zszs.walbrzych.pl","contact:website":"http:\/\/www.zszs.walbrzych.pl","ref:regon":"020067796","ref:vatin":"PL8862795852","operator":"Gmina Wa\u0142brzych - Miasto Na Prawach Powiatu","operator:type":"government","amenity":"school","note":"Parent RSPO: 6896"}},{"id":264261,"type":"Feature","geometry":{"type":"Point","coordinates":[16.33482,50.76456]},"properties":{"ref:rspo":264261,"official_name":"Niepubliczne Przedszkole \"Akademia Przedszkolaka\"","name":"Niepubliczne Przedszkole \"Akademia Przedszkolaka\"","addr:country":"PL","addr:postcode":"58-308","addr:city":"Wa\u0142brzych","addr:street":"ul. Osiedle G\u00f3rnicze","addr:housenumber":"42","addr:teryt:simc":15251,"addr:teryt:sym_ul":983681,"contact:phone":"+48 748805076","contact:email":"galusmira@onet.pl","ref:regon":"368296640","operator":"Miros\u0142awa Galus","operator:type":"private","amenity":"kindergarten"}},{"id":130996,"type":"Feature","geometry":{"type":"Point","coordinates":[16.2489199,50.76457]},"properties":{"ref:rspo":130996,"official_name":"Zesp\u00f3\u0142 Szkolno-Przedszkolny Nr 1 w Wa\u0142brzychu","name":"Zesp\u00f3\u0142 Szkolno-Przedszkolny Nr 1 w Wa\u0142brzychu","addr:country":"PL","addr:postcode":"58-305","addr:city":"Wa\u0142brzych","addr:street":"ul. 1 Maja","addr:housenumber":"105","addr:teryt:simc":11926,"addr:teryt:sym_ul":983681,"contact:phone":"+48 748424368","contact:email":"zsp1@walbrzych.edu.pl","contact:website":"http:\/\/www.psp17.pl","ref:regon":"364876664","operator":"Gmina Wa\u0142brzych - Miasto Na Prawach Powiatu","operator:type":"government","landuse":"education","fixme":"amenity=school, amenity=college albo landuse=education w zale\u017cno\u015bci od tego, jakie plac\u00f3wki wchodz\u0105 w sk\u0142ad zespo\u0142u. Sprawd\u017a, kiedy stosowa\u0107 amenity=* a kiedy landuse=education.","note":"Children RSPO: 8822;131020"}},{"id":8822,"type":"Feature","geometry":{"type":"Point","coordinates":[16.2489199,50.76454]},"properties":{"isced:level":"1;2","ref:rspo":8822,"official_name":"Publiczna Szko\u0142a Podstawowa Nr 17 im.marii Konopnickiej w Wa\u0142brzychu","name":"Publiczna Szko\u0142a Podstawowa Nr 17 im.marii Konopnickiej w Wa\u0142brzychu","addr:country":"PL","addr:postcode":"58-305","addr:city":"Wa\u0142brzych","addr:street":"ul. 1 Maja","addr:housenumber":"105","addr:teryt:simc":11926,"addr:teryt:sym_ul":983681,"contact:phone":"+48 748424368","contact:email":"sekretariat@psp17.pl","ref:regon":"000691010","ref:vatin":"PL8861117653","operator":"Gmina Wa\u0142brzych - Miasto Na Prawach Powiatu","operator:type":"government","amenity":"school","note":"Parent RSPO: 130996"}},{"id":131020,"type":"Feature","geometry":{"type":"Point","coordinates":[16.2489199,50.76451]},"properties":{"ref:rspo":131020,"official_name":"Przedszkole Samorz\u0105dowe Nr 1 w Wa\u0142brzychu","name":"Przedszkole Samorz\u0105dowe Nr 1 w Wa\u0142brzychu","addr:country":"PL","addr:postcode":"58-305","addr:city":"Wa\u0142brzych","addr:street":"ul. 1 Maja","addr:housenumber":"105","addr:teryt:simc":11926,"addr:teryt:sym_ul":983681,"contact:phone":"+48 748424368","contact:email":"sekretariat@psp17.pl","ref:regon":"364889201","operator":"Gmina Wa\u0142brzych - Miasto Na Prawach Powiatu","operator:type":"government","amenity":"kindergarten","note":"Parent RSPO: 130996"}},{"id":9049,"type":"Feature","geometry":{"type":"Point","coordinates":[16.2850499,50.76491]},"properties":{"ref:rspo":9049,"official_name":"Przedszkole Niepubliczne \"Jedyneczka\"","name":"Przedszkole Niepubliczne \"Jedyneczka\"","addr:country":"PL","addr:postcode":"58-300","addr:city":"Wa\u0142brzych","addr:street":"ul. Adama Mickiewicza","addr:housenumber":"17a","addr:teryt:simc":12740,"addr:teryt:sym_ul":983681,"contact:phone":"+48 748426346","contact:email":"przedszkola@onet.pl","ref:regon":"021961795","ref:vatin":"PL8861071253","operator":"Katarzyna Toma\u0144ska","operator:type":"private","amenity":"kindergarten"}},{"id":120907,"type":"Feature","geometry":{"type":"Point","coordinates":[16.2850499,50.76488]},"properties":{"isced:level":"1;2","ref:rspo":120907,"official_name":"Niepubliczna Szko\u0142a Podstawowa \"Eureka-Szko\u0142a Z Klas\u0105\"","name":"Niepubliczna Szko\u0142a Podstawowa \"Eureka-Szko\u0142a Z Klas\u0105\"","addr:country":"PL","addr:postcode":"58-300","addr:city":"Wa\u0142brzych","addr:street":"ul. Adama Mickiewicza","addr:housenumber":"17a","addr:teryt:simc":12740,"addr:teryt:sym_ul":983681,"contact:phone":"+48 746402960","contact:email":"eureka.sekretariat@onet.pl","ref:regon":"022297359","operator":"Katarzyna Toma\u0144ska","operator:type":"private","amenity":"school"}},{"id":268081,"type":"Feature","geometry":{"type":"Point","coordinates":[16.27993,50.76579]},"properties":{"ref:rspo":268081,"official_name":"Zesp\u00f3\u0142 Szkolno-Przedszkolny Nr 5 w Wa\u0142brzychu","name":"Zesp\u00f3\u0142 Szkolno-Przedszkolny Nr 5 w Wa\u0142brzychu","addr:country":"PL","addr:postcode":"58-300","addr:city":"Wa\u0142brzych","addr:street":"ul. Boles\u0142awa Limanowskiego","addr:housenumber":"12","addr:teryt:simc":11074,"addr:teryt:sym_ul":983681,"contact:phone":"+48 748463309","contact:email":"zsp5@walbrzych.edu.pl","contact:website":"http:\/\/www.zsp5.walbrzych.edu.pl","ref:regon":"380935779","operator":"Gmina Wa\u0142brzych - Miasto Na Prawach Powiatu","operator:type":"government","landuse":"education","fixme":"amenity=school, amenity=college albo landuse=education w zale\u017cno\u015bci od tego, jakie plac\u00f3wki wchodz\u0105 w sk\u0142ad zespo\u0142u. Sprawd\u017a, kiedy stosowa\u0107 amenity=* a kiedy landuse=education.","note":"Children RSPO: 133644;267970"}},{"id":133644,"type":"Feature","geometry":{"type":"Point","coordinates":[16.27993,50.76576]},"properties":{"isced:level":"1;2","ref:rspo":133644,"official_name":"Publiczna Szko\u0142a Podstawowa Nr 1 w Wa\u0142brzychu","name":"Publiczna Szko\u0142a Podstawowa Nr 1 w Wa\u0142brzychu","addr:country":"PL","addr:postcode":"58-300","addr:city":"Wa\u0142brzych","addr:street":"ul. Boles\u0142awa Limanowskiego","addr:housenumber":"12","addr:teryt:simc":11074,"addr:teryt:sym_ul":983681,"contact:phone":"+48 748463309","contact:email":"zsp5@walbrzych.edu.pl","contact:website":"http:\/\/www.zsp5.walbrzych.edu.pl","ref:regon":"367514186","operator":"Gmina Wa\u0142brzych - Miasto Na Prawach Powiatu","operator:type":"government","amenity":"school","note":"Parent RSPO: 268081"}},{"id":267970,"type":"Feature","geometry":{"type":"Point","coordinates":[16.27993,50.765730000000005]},"properties":{"ref:rspo":267970,"official_name":"Przedszkole Samorz\u0105dowe Nr 5 w Wa\u0142brzychu","name":"Przedszkole Samorz\u0105dowe Nr 5 w Wa\u0142brzychu","addr:country":"PL","addr:postcode":"58-300","addr:city":"Wa\u0142brzych","addr:street":"ul. Boles\u0142awa Limanowskiego","addr:housenumber":"12","addr:teryt:simc":11074,"addr:teryt:sym_ul":983681,"contact:phone":"+48 748463309","contact:email":"zsp5@walbrzych.edu.pl","contact:website":"http:\/\/www.zsp5.walbrzych.edu.pl","ref:regon":"380808561","operator":"Gmina Wa\u0142brzych - Miasto Na Prawach Powiatu","operator:type":"government","amenity":"kindergarten","note":"Parent RSPO: 268081"}},{"id":7215,"type":"Feature","geometry":{"type":"Point","coordinates":[16.33386,50.76584]},"properties":{"isced:level":"3","ref:rspo":7215,"official_name":"Rzemie\u015blnicza Bran\u017cowa Szko\u0142a I Stopnia im. Stanis\u0142awa Palucha","name":"Rzemie\u015blnicza Bran\u017cowa Szko\u0142a I Stopnia","addr:country":"PL","addr:postcode":"58-308","addr:city":"Wa\u0142brzych","addr:street":"ul. Osiedle G\u00f3rnicze","addr:housenumber":"29","addr:teryt:simc":15251,"addr:teryt:sym_ul":983681,"contact:phone":"+48 748473886","contact:email":"nzsc@op.pl","contact:website":"http:\/\/www.szkolarzemiosl.pl","ref:regon":"021953703","ref:vatin":"PL8862679643","operator":"\"Rzemie\u015blnicza O\u015bwiata\" Sp\u00f3\u0142ka Z Ograniczon\u0105 Odpowiedzialno\u015bci\u0105","operator:type":"private","amenity":"school"}},{"id":9026,"type":"Feature","geometry":{"type":"Point","coordinates":[16.2957206,50.7671411]},"properties":{"isced:level":"1;2","ref:rspo":9026,"official_name":"Publiczna Szko\u0142a Podstawowa Nr 23 im.wojsk Ochrony Pogranicza w Wa\u0142brzychu","name":"Publiczna Szko\u0142a Podstawowa Nr 23 im.wojsk Ochrony Pogranicza w Wa\u0142brzychu","addr:country":"PL","addr:postcode":"58-301","addr:city":"Wa\u0142brzych","addr:street":"ul. Andrzeja Struga","addr:housenumber":"3","addr:teryt:simc":21308,"addr:teryt:sym_ul":983681,"contact:phone":"+48 748424400","contact:email":"psp23@walbrzych.edu.pl","contact:website":"http:\/\/www.psp23.pl","ref:regon":"000691062","ref:vatin":"PL8861019614","operator":"Gmina Wa\u0142brzych - Miasto Na Prawach Powiatu","operator:type":"government","amenity":"school"}},{"id":9202,"type":"Feature","geometry":{"type":"Point","coordinates":[16.28351,50.76824]},"properties":{"isced:level":"1;2","ref:rspo":9202,"official_name":"Publiczna Szko\u0142a Podstawowa Nr 28 im. Jana Paw\u0142a II w Wa\u0142brzychu","name":"Publiczna Szko\u0142a Podstawowa Nr 28","addr:country":"PL","addr:postcode":"58-300","addr:city":"Wa\u0142brzych","addr:street":"al. Wyzwolenia","addr:housenumber":"43","addr:teryt:simc":25130,"addr:teryt:sym_ul":983681,"contact:phone":"+48 748423692","contact:email":"psp28@walbrzych.edu.pl","contact:website":"http:\/\/www.psp28.walbrzych.edu.pl","ref:regon":"890032812","ref:vatin":"PL8861015562","operator":"Gmina Wa\u0142brzych - Miasto Na Prawach Powiatu","operator:type":"government","amenity":"school"}},{"id":13806,"type":"Feature","geometry":{"type":"Point","coordinates":[16.27974,50.76842]},"properties":{"isced:level":"3","ref:rspo":13806,"official_name":"Liceum Og\u00f3lnokszta\u0142c\u0105ce Teb Edukacja dla Doros\u0142ych","name":"Liceum Og\u00f3lnokszta\u0142c\u0105ce Teb Edukacja dla Doros\u0142ych","addr:country":"PL","addr:postcode":"58-300","addr:city":"Wa\u0142brzych","addr:street":"ul. Juliusza S\u0142owackiego","addr:housenumber":"7","addr:teryt:simc":20291,"addr:teryt:sym_ul":983681,"contact:phone":"+48 746670885","contact:email":"walbrzych@teb-edukacja.pl","contact:website":"http:\/\/www.teb.pl","ref:regon":"021967668","operator":"Teb Edukacja Sp\u00f3\u0142ka Z Ograniczon\u0105 Odpowiedzialno\u015bci\u0105","operator:type":"private","amenity":"school"}},{"id":13826,"type":"Feature","geometry":{"type":"Point","coordinates":[16.27974,50.76839]},"properties":{"ref:rspo":13826,"official_name":"Teb Edukacja Studium Kszta\u0142cenia Praktycznego","name":"Teb Edukacja Studium Kszta\u0142cenia Praktycznego","addr:country":"PL","addr:postcode":"58-300","addr:city":"Wa\u0142brzych","addr:street":"ul. Juliusza S\u0142owackiego","addr:housenumber":"7","addr:teryt:simc":20291,"addr:teryt:sym_ul":983681,"contact:phone":"+48 746670885","contact:email":"walbrzych@teb-edukacja.pl","contact:website":"http:\/\/www.teb.pl","ref:regon":"021967680","operator":"Teb Edukacja Sp\u00f3\u0142ka Z Ograniczon\u0105 Odpowiedzialno\u015bci\u0105","operator:type":"private","fixme":"w zale\u017cno\u015bci od przedmiotu dzia\u0142alno\u015bci (np. amenity=training + training=*, amenity=dancing_school, amenity=language_school, amenity=music_school)"}},{"id":123030,"type":"Feature","geometry":{"type":"Point","coordinates":[16.27974,50.76836]},"properties":{"isced:level":"4","ref:rspo":123030,"official_name":"Niepubliczna Szko\u0142a Policealna Teb Edukacja w Wa\u0142brzychu","name":"Niepubliczna Szko\u0142a Policealna Teb Edukacja w Wa\u0142brzychu","addr:country":"PL","addr:postcode":"58-300","addr:city":"Wa\u0142brzych","addr:street":"ul. Juliusza S\u0142owackiego","addr:housenumber":"7","addr:teryt:simc":20291,"addr:teryt:sym_ul":983681,"contact:phone":"+48 746670885","contact:email":"walbrzych@teb-edukacja.pl","contact:website":"http:\/\/www.teb.pl\/miasta\/walbrzych\/o-nas\/","ref:regon":"022412197","ref:vatin":"PL7781456499","operator":"Teb Edukacja Sp\u00f3\u0142ka Z Ograniczon\u0105 Odpowiedzialno\u015bci\u0105","operator:type":"private","amenity":"college"}},{"id":132173,"type":"Feature","geometry":{"type":"Point","coordinates":[16.27974,50.76833]},"properties":{"isced:level":"3","ref:rspo":132173,"official_name":"Technikum Teb Edukacja w Wa\u0142brzychu","name":"Technikum Teb Edukacja w Wa\u0142brzychu","addr:country":"PL","addr:postcode":"58-300","addr:city":"Wa\u0142brzych","addr:street":"ul. Juliusza S\u0142owackiego","addr:housenumber":"7","addr:teryt:simc":20291,"addr:teryt:sym_ul":983681,"contact:phone":"+48 748478364","contact:email":"walbrzych@teb-edukacja.pl","contact:website":"http:\/\/www.teb.pl","ref:regon":"365492782","operator":"Teb Edukacja Sp\u00f3\u0142ka Z Ograniczon\u0105 Odpowiedzialno\u015bci\u0105","operator:type":"private","amenity":"school"}},{"id":11145,"type":"Feature","geometry":{"type":"Point","coordinates":[16.28384,50.76862]},"properties":{"ref:rspo":11145,"official_name":"Przedszkole Niepubliczne \"Si\u00f3demka\" w Wa\u0142brzychu","name":"Przedszkole Niepubliczne \"Si\u00f3demka\" w Wa\u0142brzychu","addr:country":"PL","addr:postcode":"58-300","addr:city":"Wa\u0142brzych","addr:street":"al. Wyzwolenia","addr:housenumber":"36","addr:teryt:simc":25130,"addr:teryt:sym_ul":983681,"contact:phone":"+48 748424684","contact:email":"siodemka@wp.pl","contact:website":"http:\/\/www.przedszkolewalbrzych.pl","ref:regon":"021957227","ref:vatin":"PL8861163475","operator":"Cecylia Pa\u0142ka","operator:type":"private","amenity":"kindergarten"}},{"id":64631,"type":"Feature","geometry":{"type":"Point","coordinates":[16.28351,50.76919]},"properties":{"isced:level":"3","ref:rspo":64631,"official_name":"Ii Liceum Og\u00f3lnokszta\u0142c\u0105ce im.hugona Ko\u0142\u0142\u0105taja","name":"Ii Liceum Og\u00f3lnokszta\u0142c\u0105ce im.hugona Ko\u0142\u0142\u0105taja","addr:country":"PL","addr:postcode":"58-300","addr:city":"Wa\u0142brzych","addr:street":"al. Wyzwolenia","addr:housenumber":"34","addr:teryt:simc":25130,"addr:teryt:sym_ul":983681,"contact:phone":"+48 748423592","contact:email":"zs2@civ.pl","contact:website":"http:\/\/www.lo2.walbrzych.pl","ref:regon":"891417069","ref:vatin":"PL8862488127","operator":"Gmina Wa\u0142brzych - Miasto Na Prawach Powiatu","operator:type":"government","amenity":"school"}},{"id":12880,"type":"Feature","geometry":{"type":"Point","coordinates":[16.27711,50.76981]},"properties":{"isced:level":"3","ref:rspo":12880,"official_name":"Liceum Og\u00f3lnoksta\u0142c\u0105ce dla Doros\u0142ych \"\u017bak\"","name":"Liceum Og\u00f3lnoksta\u0142c\u0105ce dla Doros\u0142ych \"\u017bak\"","addr:country":"PL","addr:postcode":"58-300","addr:city":"Wa\u0142brzych","addr:street":"ul. Juliusza S\u0142owackiego","addr:housenumber":"19","addr:teryt:simc":20291,"addr:teryt:sym_ul":983681,"contact:phone":"+48 748433030","contact:email":"walbrzych@zak.edu.pl","contact:website":"http:\/\/www.zak.edu.pl","ref:regon":"021967728","ref:vatin":"PL7292597869","operator":"Centrum Nauki I Biznesu \"\u017bak\" Sp\u00f3\u0142ka Z Ograniczon\u0105 Odpowiedzialno\u015bci\u0105","operator:type":"private","amenity":"school"}},{"id":13352,"type":"Feature","geometry":{"type":"Point","coordinates":[16.27711,50.76978]},"properties":{"isced:level":"4","ref:rspo":13352,"official_name":"Szko\u0142a Policealna Centrum Nauki I Biznesu \"\u017bak\"","name":"Szko\u0142a Policealna Centrum Nauki I Biznesu \"\u017bak\"","addr:country":"PL","addr:postcode":"58-300","addr:city":"Wa\u0142brzych","addr:street":"ul. Juliusza S\u0142owackiego","addr:housenumber":"19","addr:teryt:simc":20291,"addr:teryt:sym_ul":983681,"contact:phone":"+48 748433030","contact:email":"v.kasiborska@zak.edu.pl","contact:website":"http:\/\/www.zak.edu.pl","ref:regon":"021967639","ref:vatin":"PL7292597869","operator":"Centrum Nauki I Biznesu \"\u017bak\" Sp\u00f3\u0142ka Z Ograniczon\u0105 Odpowiedzialno\u015bci\u0105","operator:type":"private","amenity":"college"}},{"id":13416,"type":"Feature","geometry":{"type":"Point","coordinates":[16.27711,50.76975]},"properties":{"ref:rspo":13416,"official_name":"O\u015brodek Szkoleniowy Centrum Nauki I Biznesu \"\u017bak\"","name":"O\u015brodek Szkoleniowy Centrum Nauki I Biznesu \"\u017bak\"","addr:country":"PL","addr:postcode":"58-300","addr:city":"Wa\u0142brzych","addr:street":"ul. Juliusza S\u0142owackiego","addr:housenumber":"19","addr:teryt:simc":20291,"addr:teryt:sym_ul":983681,"contact:phone":"+48 748433030","contact:email":"walbrzych@zak.edu.pl","contact:website":"http:\/\/www.zak.edu.pl","ref:regon":"021967243","ref:vatin":"PL7292597869","operator":"Centrum Nauki I Biznesu \"\u017bak\" Sp\u00f3\u0142ka Z Ograniczon\u0105 Odpowiedzialno\u015bci\u0105","operator:type":"private","fixme":"w zale\u017cno\u015bci od przedmiotu dzia\u0142alno\u015bci (np. amenity=training + training=*, amenity=dancing_school, amenity=language_school, amenity=music_school)"}},{"id":274188,"type":"Feature","geometry":{"type":"Point","coordinates":[16.27711,50.76972]},"properties":{"isced:level":"4","ref:rspo":274188,"official_name":"Publiczna Szko\u0142a Policealna Centrum Nauki I Bizesu \"\u017bak\" w Wa\u0142brzychu","name":"Publiczna Szko\u0142a Policealna Centrum Nauki I Bizesu \"\u017bak\" w Wa\u0142brzychu","addr:country":"PL","addr:postcode":"58-302","addr:city":"Wa\u0142brzych","addr:street":"ul. Juliusza S\u0142owackiego","addr:housenumber":"19","addr:teryt:simc":20291,"addr:teryt:sym_ul":983681,"contact:phone":"+48 748433030","contact:email":"walbrzych@zak.edu.pl","contact:website":"http:\/\/www.zak.edu.pl","ref:regon":"385405974","operator":"Centrum Nauki I Biznesu \"\u017bak\" Sp\u00f3\u0142ka Z Ograniczon\u0105 Odpowiedzialno\u015bci\u0105","operator:type":"private","amenity":"college"}},{"id":7087,"type":"Feature","geometry":{"type":"Point","coordinates":[16.27844,50.77061]},"properties":{"ref:rspo":7087,"official_name":"Zesp\u00f3\u0142 Szk\u00f3\u0142 Politechnicznych \"Energetyk' w Wa\u0142brzychu","name":"Zesp\u00f3\u0142 Szk\u00f3\u0142 Politechnicznych \"Energetyk' w Wa\u0142brzychu","addr:country":"PL","addr:postcode":"58-300","addr:city":"Wa\u0142brzych","addr:street":"al. Wyzwolenia","addr:housenumber":"5","addr:teryt:simc":25130,"addr:teryt:sym_ul":983681,"contact:phone":"+48 748426008","contact:email":"szkola@energetyk.walbrzych.pl","contact:website":"http:\/\/www.zsee.walbrzych.pl","ref:regon":"890050342","ref:vatin":"PL8862016227","operator":"Gmina Wa\u0142brzych - Miasto Na Prawach Powiatu","operator:type":"government","landuse":"education","fixme":"amenity=school, amenity=college albo landuse=education w zale\u017cno\u015bci od tego, jakie plac\u00f3wki wchodz\u0105 w sk\u0142ad zespo\u0142u. Sprawd\u017a, kiedy stosowa\u0107 amenity=* a kiedy landuse=education.","note":"Children RSPO: 9021;11288"}},{"id":9021,"type":"Feature","geometry":{"type":"Point","coordinates":[16.27844,50.770579999999995]},"properties":{"isced:level":"3","ref:rspo":9021,"official_name":"Bran\u017cowa Szko\u0142a I Stopnia Nr 3 w Wa\u0142brzychu","name":"Bran\u017cowa Szko\u0142a I Stopnia Nr 3 w Wa\u0142brzychu","addr:country":"PL","addr:postcode":"58-300","addr:city":"Wa\u0142brzych","addr:street":"al. Wyzwolenia","addr:housenumber":"5","addr:teryt:simc":25130,"addr:teryt:sym_ul":983681,"contact:phone":"+48 748426009","contact:email":"sznr8@zsee.walbrzych.pl","contact:website":"http:\/\/www.zsee.walbrzych.pl","ref:regon":"891418519","ref:vatin":"PL8862016227","operator":"Gmina Wa\u0142brzych - Miasto Na Prawach Powiatu","operator:type":"government","amenity":"school","note":"Parent RSPO: 7087"}},{"id":11288,"type":"Feature","geometry":{"type":"Point","coordinates":[16.27844,50.77055]},"properties":{"isced:level":"3","ref:rspo":11288,"official_name":"Technikum Nr 5 w Wa\u0142brzychu","name":"Technikum Nr 5 w Wa\u0142brzychu","addr:country":"PL","addr:postcode":"58-300","addr:city":"Wa\u0142brzych","addr:street":"al. Wyzwolenia","addr:housenumber":"5","addr:teryt:simc":25130,"addr:teryt:sym_ul":983681,"contact:phone":"+48 748426008","contact:email":"szkola@energetyk.walbrzych.pl","contact:website":"http:\/\/www.energetyk.walbrzych.pl","ref:regon":"891418577","ref:vatin":"PL8862016227","operator":"Gmina Wa\u0142brzych - Miasto Na Prawach Powiatu","operator:type":"government","amenity":"school","note":"Parent RSPO: 7087"}},{"id":274391,"type":"Feature","geometry":{"type":"Point","coordinates":[16.27796,50.77097]},"properties":{"ref:rspo":274391,"official_name":"Edukacja Teraz. Szkolenia-Doradztwo-Doskonalenie","name":"Edukacja Teraz. Szkolenia-Doradztwo-Doskonalenie","addr:country":"PL","addr:postcode":"58-300","addr:city":"Wa\u0142brzych","addr:street":"al. Wyzwolenia","addr:housenumber":"4","addr:teryt:simc":25130,"addr:teryt:sym_ul":983681,"contact:email":"ewa.jonek@gmail.pl","contact:website":"http:\/\/www.edukacjateraz.pl","ref:regon":"385680344","operator":"Ewa W\u0119grzyn-Jonek","operator:type":"private","amenity":"training"}},{"id":132279,"type":"Feature","geometry":{"type":"Point","coordinates":[16.29062,50.77164]},"properties":{"ref:rspo":132279,"official_name":"Niepubliczna Specjalistyczna Poradnia Wczesnego Wspomagania Rozwoju Dziecka","name":"Niepubliczna Specjalistyczna Poradnia Wczesnego Wspomagania Rozwoju Dziecka","addr:country":"PL","addr:postcode":"58-300","addr:city":"Wa\u0142brzych","addr:street":"ul. Ignacego Paderewskiego","addr:housenumber":"10","addr:teryt:simc":15529,"addr:teryt:sym_ul":983681,"contact:phone":"+48 748877183","contact:email":"sekretariat@szpital.walbrzych.pl","contact:website":"http:\/\/szpital.walbrzych.pl","ref:regon":"365526110","operator":"Specjalistyczny Szpital Ginekologiczno - Po\u0142o\u017cniczy Im. E. Biernackiego   W Wa\u0142brzychu","operator:type":"cooperative","healthcare":"councelling","counselling_type":"education","fixme":"w zale\u017cno\u015bci od przedmiotu dzia\u0142alno\u015bci (np. healthcare=councelling + counselling_type=education albo healthcare=psychotherapist)"}},{"id":72007,"type":"Feature","geometry":{"type":"Point","coordinates":[16.2775399,50.77191]},"properties":{"ref:rspo":72007,"official_name":"O\u015brodek Szkolenia Zawodowego Wa\u0142brzyskiej Rady Federacji Stowarzysze\u0144 Naukowo Technicznych Not w Wa\u0142brzychu","name":"O\u015brodek Szkolenia Zawodowego Wa\u0142brzyskiej Rady Federacji Stowarzysze\u0144 Naukowo Technicznych Not w Wa\u0142brzychu","addr:country":"PL","addr:postcode":"58-300","addr:city":"Wa\u0142brzych","addr:street":"ul. Andrzeja Szmidta","addr:housenumber":"4a","addr:teryt:simc":22007,"addr:teryt:sym_ul":983681,"contact:phone":"+48 748423569","contact:email":"notwalbrzych@wp.pl","ref:regon":"022002447","operator":"Wa\u0142brzyska Rada Federacji Stowarzysze\u0144 Naukowo - Technicznych Not","operator:type":"ngo","fixme":"w zale\u017cno\u015bci od przedmiotu dzia\u0142alno\u015bci (np. amenity=training + training=*, amenity=dancing_school, amenity=language_school, amenity=music_school) albo amenity=school, amenity=college, albo landuse=education w zale\u017cno\u015bci od tego, jakie plac\u00f3wki wchodz\u0105 w sk\u0142ad zespo\u0142u. Sprawd\u017a, kiedy stosowa\u0107 amenity=* a kiedy landuse=education."}},{"id":56313,"type":"Feature","geometry":{"type":"Point","coordinates":[16.29161,50.77197]},"properties":{"isced:level":"3","ref:rspo":56313,"official_name":"I Liceum Og\u00f3lnokszta\u0142c\u0105ce Z Oddzia\u0142mi Dwuj\u0119zycznymi im. Ignacego Paderewskiego","name":"I Liceum Og\u00f3lnokszta\u0142c\u0105ce Z Oddzia\u0142mi Dwuj\u0119zycznymi","addr:country":"PL","addr:postcode":"58-301","addr:city":"Wa\u0142brzych","addr:street":"ul. Ignacego Paderewskiego","addr:housenumber":"17","addr:teryt:simc":15529,"addr:teryt:sym_ul":983681,"contact:phone":"+48 748423683","contact:email":"zso1wch@wp.pl","contact:website":"http:\/\/www.1lo.walbrzych.pl","ref:regon":"891418330","operator":"Gmina Wa\u0142brzych - Miasto Na Prawach Powiatu","operator:type":"government","amenity":"school"}},{"id":9091,"type":"Feature","geometry":{"type":"Point","coordinates":[16.29911,50.77255]},"properties":{"ref:rspo":9091,"official_name":"Przedszkole Niepubliczne \"Bajka\"","name":"Przedszkole Niepubliczne \"Bajka\"","addr:country":"PL","addr:postcode":"58-301","addr:city":"Wa\u0142brzych","addr:street":"ul. Wojciecha Bogus\u0142awskiego","addr:housenumber":"2","addr:teryt:simc":1608,"addr:teryt:sym_ul":983681,"contact:phone":"+48 748423209","contact:email":"przedszkola@onet.pl","ref:regon":"021955004","ref:vatin":"PL8861071253","operator":"Katarzyna Toma\u0144ska","operator:type":"private","amenity":"kindergarten"}},{"id":57870,"type":"Feature","geometry":{"type":"Point","coordinates":[16.32948,50.77317]},"properties":{"ref:rspo":57870,"official_name":"Dolno\u015bL\u0105ski M\u0142odzie\u017cowy O\u015brodek Wychowawczy im. Marii Grzegorzewskiej w Wa\u0142brzychu","name":"Dolno\u015bL\u0105ski M\u0142odzie\u017cowy O\u015brodek Wychowawczy","addr:country":"PL","addr:postcode":"58-308","addr:city":"Wa\u0142brzych","addr:street":"ul. Strzegomska","addr:housenumber":"20","addr:teryt:simc":21359,"addr:teryt:sym_ul":983681,"contact:phone":"+48 748426128","contact:email":"mowwalbrzych@op.pl","contact:website":"http:\/\/mowwalbrzych.pl","ref:regon":"020733738","operator":"Wojew\u00f3dztwo Dolno\u015bl\u0105skie","operator:type":"government","fixme":"amenity=social facility + social_facility=group_home + social_facility:for=juvenile","note":"Children RSPO: 127214;272462"}},{"id":127214,"type":"Feature","geometry":{"type":"Point","coordinates":[16.32948,50.77314]},"properties":{"isced:level":"1;2","ref:rspo":127214,"official_name":"Szko\u0142a Podstawowa Specjalna Nr 33 w Dolno\u015bL\u0105skim M\u0142odzie\u017cowym O\u015brodku Wychowawczym im. Marii Grzegorzewskiej w Wa\u0142brzychu","name":"Szko\u0142a Podstawowa Specjalna Nr 33 w Dolno\u015bL\u0105skim M\u0142odzie\u017cowym O\u015brodku Wychowawczym","addr:country":"PL","addr:postcode":"58-308","addr:city":"Wa\u0142brzych","addr:street":"ul. Strzegomska","addr:housenumber":"20","addr:teryt:simc":21359,"addr:teryt:sym_ul":983681,"contact:phone":"+48 748426128","ref:regon":"020786634","operator":"Wojew\u00f3dztwo Dolno\u015bl\u0105skie","operator:type":"government","amenity":"school","note":"Parent RSPO: 57870"}},{"id":272462,"type":"Feature","geometry":{"type":"Point","coordinates":[16.32948,50.77311]},"properties":{"isced:level":"3","ref:rspo":272462,"official_name":"Bran\u017cowa Szko\u0142a Specjalna I Stopnia w Dolno\u015bL\u0105skim M\u0142odzie\u017cowym O\u015brodku Wychowawczym im. Marii Grzegorzewskiej w Wa\u0142brzychu","name":"Bran\u017cowa Szko\u0142a Specjalna I Stopnia w Dolno\u015bL\u0105skim M\u0142odzie\u017cowym O\u015brodku Wychowawczym","addr:country":"PL","addr:postcode":"58-308","addr:city":"Wa\u0142brzych","addr:street":"ul. Strzegomska","addr:housenumber":"20","addr:teryt:simc":21359,"addr:teryt:sym_ul":983681,"contact:phone":"+48 748426128","contact:email":"mowwalbrzych@op.pl","ref:regon":"384186381","operator":"Wojew\u00f3dztwo Dolno\u015bl\u0105skie","operator:type":"government","amenity":"school","note":"Parent RSPO: 57870"}},{"id":11186,"type":"Feature","geometry":{"type":"Point","coordinates":[16.27907,50.77367]},"properties":{"ref:rspo":11186,"official_name":"Przedszkole Niepubliczne Nr 2","name":"Przedszkole Niepubliczne Nr 2","addr:country":"PL","addr:postcode":"58-300","addr:city":"Wa\u0142brzych","addr:street":"ul. Stanis\u0142awa Wyspia\u0144skiego","addr:housenumber":"1","addr:teryt:simc":25084,"addr:teryt:sym_ul":983681,"contact:phone":"+48 748423677","contact:email":"niepubliczne2@wp.pl","ref:regon":"021961855","ref:vatin":"PL8861257147","operator":"Gra\u017cyna Skonieczna","operator:type":"private","amenity":"kindergarten"}},{"id":63949,"type":"Feature","geometry":{"type":"Point","coordinates":[16.27752,50.77478]},"properties":{"ref:rspo":63949,"official_name":"Dolno\u015bL\u0105ski Zesp\u00f3\u0142 Szk\u00f3\u0142 Specjalnych Przyszpitalnych w Wa\u0142brzychu","name":"Dolno\u015bL\u0105ski Zesp\u00f3\u0142 Szk\u00f3\u0142 Specjalnych Przyszpitalnych w Wa\u0142brzychu","addr:country":"PL","addr:postcode":"58-300","addr:city":"Wa\u0142brzych","addr:street":"ul. Stefana Batorego","addr:housenumber":"4","addr:teryt:simc":891,"addr:teryt:sym_ul":983681,"contact:phone":"+48 748421191","contact:email":"sekretariat-walbrzychdzssp@edu.dolnyslask.pl","contact:website":"http:\/\/www.zssp.walbrzych.pl","ref:regon":"000718230","operator":"Wojew\u00f3dztwo Dolno\u015bl\u0105skie","operator:type":"government","landuse":"education","fixme":"amenity=school, amenity=college albo landuse=education w zale\u017cno\u015bci od tego, jakie plac\u00f3wki wchodz\u0105 w sk\u0142ad zespo\u0142u. Sprawd\u017a, kiedy stosowa\u0107 amenity=* a kiedy landuse=education.","note":"Children RSPO: 121448;127093"}},{"id":121448,"type":"Feature","geometry":{"type":"Point","coordinates":[16.27752,50.77475]},"properties":{"isced:level":"1;2","ref:rspo":121448,"official_name":"Szko\u0142a Podstawowa Specjalna Nr 3 w Wa\u0142brzychu","name":"Szko\u0142a Podstawowa Specjalna Nr 3 w Wa\u0142brzychu","addr:country":"PL","addr:postcode":"58-300","addr:city":"Wa\u0142brzych","addr:street":"ul. Stefana Batorego","addr:housenumber":"4","addr:teryt:simc":891,"addr:teryt:sym_ul":983681,"contact:phone":"+48 748421191","contact:email":"zssp.walbrzych@interia.pl","contact:website":"http:\/\/www.zssp.walbrzych.pl","ref:regon":"891418382","operator":"Wojew\u00f3dztwo Dolno\u015bl\u0105skie","operator:type":"government","amenity":"school","note":"Parent RSPO: 63949"}},{"id":127093,"type":"Feature","geometry":{"type":"Point","coordinates":[16.27752,50.77472]},"properties":{"isced:level":"3","ref:rspo":127093,"official_name":"Liceum Og\u00f3lnokszta\u0142c\u0105ce Specjalne w Wa\u0142brzychu","name":"Liceum Og\u00f3lnokszta\u0142c\u0105ce Specjalne w Wa\u0142brzychu","addr:country":"PL","addr:postcode":"58-300","addr:city":"Wa\u0142brzych","addr:street":"ul. Stefana Batorego","addr:housenumber":"4","addr:teryt:simc":891,"addr:teryt:sym_ul":983681,"contact:phone":"+48 748421191","contact:email":"zssp.walbrzych@interia.pl","contact:website":"http:\/\/www.zssp.walbrzych.pl","ref:regon":"361090489","operator":"Wojew\u00f3dztwo Dolno\u015bl\u0105skie","operator:type":"government","amenity":"school","note":"Parent RSPO: 63949"}},{"id":71976,"type":"Feature","geometry":{"type":"Point","coordinates":[16.28825,50.77554]},"properties":{"ref:rspo":71976,"official_name":"O\u015brodek Szkolenia Technicznego w Wa\u0142brzychu","name":"O\u015brodek Szkolenia Technicznego w Wa\u0142brzychu","addr:country":"PL","addr:postcode":"58-301","addr:city":"Wa\u0142brzych","addr:street":"pl. Stanis\u0142awa Skar\u017cy\u0144skiego","addr:housenumber":"1","addr:teryt:simc":20026,"addr:teryt:sym_ul":983681,"contact:phone":"+48 748871168","contact:email":"ost@ost.org.pl","contact:website":"http:\/\/www.ost.org.pl","ref:regon":"021998798","operator":"O\u015brodek Szkolenia Technicznego Sp\u00f3\u0142ka Z Ograniczon\u0105 Odpowiedzialno\u015bci\u0105","operator:type":"private","fixme":"w zale\u017cno\u015bci od przedmiotu dzia\u0142alno\u015bci (np. amenity=training + training=*, amenity=dancing_school, amenity=language_school, amenity=music_school)"}},{"id":269583,"type":"Feature","geometry":{"type":"Point","coordinates":[16.2752899,50.7771]},"properties":{"ref:rspo":269583,"official_name":"Firma Szkoleniowa Magnum 44 Roman Musia\u0142","name":"Firma Szkoleniowa Magnum 44 Roman Musia\u0142","addr:country":"PL","addr:postcode":"58-300","addr:city":"Wa\u0142brzych","addr:street":"ul. Boles\u0142awa Chrobrego","addr:housenumber":"47","addr:door":"1","addr:teryt:simc":1742,"addr:teryt:sym_ul":983681,"contact:phone":"+48 743030022","contact:email":"szkolenia-magnum44@wp.pl","ref:regon":"381566924","operator":"Roman Musia\u0142","operator:type":"private","fixme":"w zale\u017cno\u015bci od przedmiotu dzia\u0142alno\u015bci (np. amenity=training + training=*, amenity=dancing_school, amenity=language_school, amenity=music_school)"}},{"id":133823,"type":"Feature","geometry":{"type":"Point","coordinates":[16.29688,50.7787]},"properties":{"ref:rspo":133823,"official_name":"Zesp\u00f3\u0142 Szkolno-Przedszkolny Nr 4 w Wa\u0142brzychu","name":"Zesp\u00f3\u0142 Szkolno-Przedszkolny Nr 4 w Wa\u0142brzychu","addr:country":"PL","addr:postcode":"58-302","addr:city":"Wa\u0142brzych","addr:street":"ul. 11 Listopada","addr:housenumber":"75","addr:teryt:simc":11205,"addr:teryt:sym_ul":983681,"contact:phone":"+48 748476508","contact:email":"zsp4walbrzych@onet.pl","contact:website":"http:\/\/zsp4walbrzych.superszkolna.pl","ref:regon":"367682498","operator":"Gmina Wa\u0142brzych - Miasto Na Prawach Powiatu","operator:type":"government","landuse":"education","fixme":"amenity=school, amenity=college albo landuse=education w zale\u017cno\u015bci od tego, jakie plac\u00f3wki wchodz\u0105 w sk\u0142ad zespo\u0142u. Sprawd\u017a, kiedy stosowa\u0107 amenity=* a kiedy landuse=education.","note":"Children RSPO: 6924;133878"}},{"id":6924,"type":"Feature","geometry":{"type":"Point","coordinates":[16.29688,50.77867]},"properties":{"isced:level":"1;2","ref:rspo":6924,"official_name":"Publiczna Szko\u0142a Podstawowa Nr 22 im. Gwark\u00f3w Dolno\u015bL\u0105skich w Wa\u0142brzychu","name":"Publiczna Szko\u0142a Podstawowa Nr 22","addr:country":"PL","addr:postcode":"58-302","addr:city":"Wa\u0142brzych","addr:street":"ul. 11 Listopada","addr:housenumber":"75","addr:teryt:simc":11205,"addr:teryt:sym_ul":983681,"contact:phone":"+48 748477804","contact:email":"zsp4walbrzych@onet.pl","ref:regon":"000691056","ref:vatin":"PL8862899586","operator":"Gmina Wa\u0142brzych - Miasto Na Prawach Powiatu","operator:type":"government","amenity":"school","note":"Parent RSPO: 133823"}},{"id":133878,"type":"Feature","geometry":{"type":"Point","coordinates":[16.29688,50.77864]},"properties":{"ref:rspo":133878,"official_name":"Przedszkole Samorz\u0105dowe Nr 3 w Wa\u0142brzychu","name":"Przedszkole Samorz\u0105dowe Nr 3 w Wa\u0142brzychu","addr:country":"PL","addr:postcode":"58-302","addr:city":"Wa\u0142brzych","addr:street":"ul. 11 Listopada","addr:housenumber":"75","addr:teryt:simc":11205,"addr:teryt:sym_ul":983681,"contact:phone":"+48 748476508","contact:email":"zsp4walbrzych@onet.pl","ref:regon":"367712555","operator":"Gmina Wa\u0142brzych - Miasto Na Prawach Powiatu","operator:type":"government","amenity":"kindergarten","note":"Parent RSPO: 133823"}},{"id":72114,"type":"Feature","geometry":{"type":"Point","coordinates":[16.3119799,50.77906]},"properties":{"ref:rspo":72114,"official_name":"Firma Us\u0142ugowa \"Partner\" Jolanta Maria Mr\u00f3z","name":"Firma Us\u0142ugowa \"Partner\" Jolanta Maria Mr\u00f3z","addr:country":"PL","addr:postcode":"58-307","addr:city":"Wa\u0142brzych","addr:street":"ul. Jod\u0142owa","addr:housenumber":"13","addr:teryt:simc":7582,"addr:teryt:sym_ul":983681,"contact:phone":"+48 748476936","contact:email":"partnermroz@gmail.com","contact:website":"http:\/\/www.partner-bhp.pl","ref:regon":"022000690","operator":"Jolanta Mr\u00f3z","operator:type":"private","fixme":"w zale\u017cno\u015bci od przedmiotu dzia\u0142alno\u015bci (np. amenity=training + training=*, amenity=dancing_school, amenity=language_school, amenity=music_school)"}},{"id":129170,"type":"Feature","geometry":{"type":"Point","coordinates":[16.2950899,50.7793]},"properties":{"ref:rspo":129170,"official_name":"Niepubliczne Przedszkole \"Mali Odkrywcy\" w Wa\u0142brzychu","name":"Niepubliczne Przedszkole \"Mali Odkrywcy\" w Wa\u0142brzychu","addr:country":"PL","addr:postcode":"58-302","addr:city":"Wa\u0142brzych","addr:street":"ul. 11 Listopada","addr:housenumber":"62","addr:teryt:simc":11205,"addr:teryt:sym_ul":983681,"contact:phone":"+48 883411906","contact:email":"maliodkrywcy@przedszkole-walbrzych.pl","ref:regon":"362507856","operator":"Tomasz O\u017cga","operator:type":"private","amenity":"kindergarten"}},{"id":13221,"type":"Feature","geometry":{"type":"Point","coordinates":[16.29482,50.7804]},"properties":{"ref:rspo":13221,"official_name":"Przedszkole Niepubliczne Zgromadzenia Si\u00f3str \u015aw. El\u017cbiety w Wa\u0142brzychu","name":"Przedszkole Niepubliczne Zgromadzenia Si\u00f3str \u015aw. El\u017cbiety w Wa\u0142brzychu","addr:country":"PL","addr:postcode":"58-302","addr:city":"Wa\u0142brzych","addr:street":"ul. 11 Listopada","addr:housenumber":"59","addr:teryt:simc":11205,"addr:teryt:sym_ul":983681,"contact:email":"pnzsse@tlen.pl","contact:website":"http:\/\/www.walbrzych.elzbietanki.wroclaw.pl","ref:regon":"021967734","ref:vatin":"PL8862668125","operator":"Zgromadzenie Si\u00f3str \u015aw.el\u017cbiety  Prowincja Wroc\u0142awska","operator:type":"religious","amenity":"kindergarten"}},{"id":8764,"type":"Feature","geometry":{"type":"Point","coordinates":[16.2525799,50.78143]},"properties":{"isced:level":"1;2","ref:rspo":8764,"official_name":"Publiczna Szko\u0142a Podstawowa Nr 6 im. Aleksandra Kami\u0144skiego w Wa\u0142brzychu","name":"Publiczna Szko\u0142a Podstawowa Nr 6","addr:country":"PL","addr:postcode":"58-304","addr:city":"Wa\u0142brzych","addr:street":"ul. gen. W\u0142adys\u0142awa Andersa","addr:housenumber":"50","addr:teryt:simc":285,"addr:teryt:sym_ul":983681,"contact:phone":"+48 748477720","contact:email":"psp6@walbrzych.edu.pl","contact:website":"https:\/\/szkola6.edupage.org\/","ref:regon":"000690938","ref:vatin":"PL8861077735","operator":"Gmina Wa\u0142brzych - Miasto Na Prawach Powiatu","operator:type":"government","amenity":"school"}},{"id":129183,"type":"Feature","geometry":{"type":"Point","coordinates":[16.28306,50.78272]},"properties":{"ref:rspo":129183,"official_name":"Wa\u0142brzyskie Centrum Wspomagania Rozwoju Niepubliczna Poradnia Psychologiczno-Pedagogiczna","name":"Wa\u0142brzyskie Centrum Wspomagania Rozwoju Niepubliczna Poradnia Psychologiczno-Pedagogiczna","addr:country":"PL","addr:postcode":"58-302","addr:city":"Wa\u0142brzych","addr:street":"ul. Armii Krajowej","addr:housenumber":"7a","addr:teryt:simc":432,"addr:teryt:sym_ul":983681,"contact:phone":"+48 697989739","contact:email":"kciostek@op.pl","contact:website":"http:\/\/poradnia-dzierzoniow.pl","ref:regon":"362507945","operator":"Katarzyna Ciostek","operator:type":"private","healthcare":"councelling","counselling_type":"education","fixme":"w zale\u017cno\u015bci od przedmiotu dzia\u0142alno\u015bci (np. healthcare=councelling + counselling_type=education albo healthcare=psychotherapist)"}},{"id":11277,"type":"Feature","geometry":{"type":"Point","coordinates":[16.25262,50.78323]},"properties":{"ref:rspo":11277,"official_name":"Przedszkole Niepubliczne \"T\u0119cza\" w Wa\u0142brzychu","name":"Przedszkole Niepubliczne \"T\u0119cza\" w Wa\u0142brzychu","addr:country":"PL","addr:postcode":"58-304","addr:city":"Wa\u0142brzych","addr:street":"ul. Ratuszowa","addr:housenumber":"5","addr:teryt:simc":18489,"addr:teryt:sym_ul":983681,"contact:phone":"+48 748476480","contact:email":"przedszkoletecza@op.pl","ref:regon":"021958215","ref:vatin":"PL8862658138","operator":"Tomasz Kurasiak","operator:type":"private","amenity":"kindergarten"}},{"id":123142,"type":"Feature","geometry":{"type":"Point","coordinates":[16.26038,50.78335]},"properties":{"ref:rspo":123142,"official_name":"Dolno\u015bL\u0105ski O\u015brodek Kszta\u0142cenia Kadr Alfa w Wa\u0142brzychu","name":"Dolno\u015bL\u0105ski O\u015brodek Kszta\u0142cenia Kadr Alfa w Wa\u0142brzychu","addr:country":"PL","addr:postcode":"58-304","addr:city":"Wa\u0142brzych","addr:street":"ul. Ludowa","addr:housenumber":"1C","addr:teryt:simc":11383,"addr:teryt:sym_ul":983681,"contact:phone":"+48 748439587","contact:email":"biuro@szkolenia-alfa.pl","contact:website":"http:\/\/www.szkolenia-alfa.pl","ref:regon":"022425544","ref:vatin":"PL8861933660","operator":"Roman Kogut","operator:type":"private","fixme":"w zale\u017cno\u015bci od przedmiotu dzia\u0142alno\u015bci (np. amenity=training + training=*, amenity=dancing_school, amenity=language_school, amenity=music_school)"}},{"id":18580,"type":"Feature","geometry":{"type":"Point","coordinates":[16.2855,50.78519]},"properties":{"ref:rspo":18580,"official_name":"Przedszkole Fundacji \"Clever\"","name":"Przedszkole Fundacji \"Clever\"","addr:country":"PL","addr:postcode":"58-302","addr:city":"Wa\u0142brzych","addr:street":"ul. Armii Krajowej","addr:housenumber":"35a","addr:teryt:simc":432,"addr:teryt:sym_ul":983681,"contact:phone":"+48 748425826","contact:email":"sekretariat@zsmk.pl","ref:regon":"021972267","ref:vatin":"PL8863000381","operator":"Fundacja \"Clever\"","operator:type":"ngo","amenity":"kindergarten"}},{"id":275763,"type":"Feature","geometry":{"type":"Point","coordinates":[16.28661,50.78534]},"properties":{"isced:level":"1;2","ref:rspo":275763,"official_name":"Niepubliczna Og\u00f3lnokszta\u0142c\u0105ca Szko\u0142a Muzyczna I Stopnia Clever w Wa\u0142brzychu","name":"Niepubliczna Og\u00f3lnokszta\u0142c\u0105ca Szko\u0142a Muzyczna I Stopnia Clever w Wa\u0142brzychu","addr:country":"PL","addr:postcode":"58-302","addr:city":"Wa\u0142brzych","addr:street":"ul. Armii Krajowej","addr:housenumber":"35A i 35 B","addr:teryt:simc":432,"addr:teryt:sym_ul":983681,"contact:email":"epiatek@szkolaclever.pl","ref:regon":"386944087","operator":"Clever Sp\u00f3\u0142ka Z Ograniczon\u0105 Odpowiedzialno\u015bci\u0105","operator:type":"private","amenity":"school"}},{"id":18559,"type":"Feature","geometry":{"type":"Point","coordinates":[16.28576,50.78544]},"properties":{"isced:level":"1;2","ref:rspo":18559,"official_name":"Szko\u0142a Podstawowa Fundacji \"Clever\"","name":"Szko\u0142a Podstawowa Fundacji \"Clever\"","addr:country":"PL","addr:postcode":"58-302","addr:city":"Wa\u0142brzych","addr:street":"ul. Armii Krajowej","addr:housenumber":"35b","addr:teryt:simc":432,"addr:teryt:sym_ul":983681,"contact:phone":"+48 748425826","contact:email":"sekretariat@zsmk.pl","ref:regon":"021972250","ref:vatin":"PL8861283162","operator":"Fundacja \"Clever\"","operator:type":"ngo","amenity":"school"}},{"id":104187,"type":"Feature","geometry":{"type":"Point","coordinates":[16.28576,50.78541]},"properties":{"ref:rspo":104187,"official_name":"O\u015brodek Doradczo-Szkoleniowy Fundacji \"Clever\"","name":"O\u015brodek Doradczo-Szkoleniowy Fundacji \"Clever\"","addr:country":"PL","addr:postcode":"58-302","addr:city":"Wa\u0142brzych","addr:street":"ul. Armii Krajowej","addr:housenumber":"35b","addr:teryt:simc":432,"addr:teryt:sym_ul":983681,"contact:phone":"+48 748425826","ref:regon":"022033689","operator":"Fundacja \"Clever\"","operator:type":"ngo","amenity":"training"}},{"id":130982,"type":"Feature","geometry":{"type":"Point","coordinates":[16.27886,50.78895]},"properties":{"ref:rspo":130982,"official_name":"Zesp\u00f3\u0142 Szkolno-Przedszkolny Nr 3 w Wa\u0142brzychu","name":"Zesp\u00f3\u0142 Szkolno-Przedszkolny Nr 3 w Wa\u0142brzychu","addr:country":"PL","addr:postcode":"58-302","addr:city":"Wa\u0142brzych","addr:street":"ul. Tytusa Cha\u0142ubi\u0144skiego","addr:housenumber":"13","addr:teryt:simc":2663,"addr:teryt:sym_ul":983681,"contact:phone":"+48 748477815","contact:email":"zsp3@walbrzych.edu.pl","ref:regon":"364829676","operator":"Gmina Wa\u0142brzych - Miasto Na Prawach Powiatu","operator:type":"government","landuse":"education","fixme":"amenity=school, amenity=college albo landuse=education w zale\u017cno\u015bci od tego, jakie plac\u00f3wki wchodz\u0105 w sk\u0142ad zespo\u0142u. Sprawd\u017a, kiedy stosowa\u0107 amenity=* a kiedy landuse=education.","note":"Children RSPO: 9506;130988"}},{"id":9506,"type":"Feature","geometry":{"type":"Point","coordinates":[16.27886,50.78892]},"properties":{"isced:level":"1;2","ref:rspo":9506,"official_name":"Publiczna Szko\u0142a Podstawowa Nr 30 im. Armii Krajowej w Wa\u0142brzychu","name":"Publiczna Szko\u0142a Podstawowa Nr 30","addr:country":"PL","addr:postcode":"58-302","addr:city":"Wa\u0142brzych","addr:street":"ul. Tytusa Cha\u0142ubi\u0144skiego","addr:housenumber":"13","addr:teryt:simc":2663,"addr:teryt:sym_ul":983681,"contact:phone":"+48 748477815","contact:email":"zsp3@walbrzych.edu.pl","ref:regon":"000718275","ref:vatin":"PL8861032862","operator":"Gmina Wa\u0142brzych - Miasto Na Prawach Powiatu","operator:type":"government","amenity":"school","note":"Parent RSPO: 130982"}},{"id":130988,"type":"Feature","geometry":{"type":"Point","coordinates":[16.27886,50.78889]},"properties":{"ref:rspo":130988,"official_name":"Przedszkole Samorz\u0105dowe Nr 2 w Wa\u0142brzychu","name":"Przedszkole Samorz\u0105dowe Nr 2 w Wa\u0142brzychu","addr:country":"PL","addr:postcode":"58-302","addr:city":"Wa\u0142brzych","addr:street":"ul. Tytusa Cha\u0142ubi\u0144skiego","addr:housenumber":"13","addr:teryt:simc":2663,"addr:teryt:sym_ul":983681,"contact:phone":"+48 748477815","contact:email":"zsp3@walbrzych.edu.pl","ref:regon":"364834890","operator":"Gmina Wa\u0142brzych - Miasto Na Prawach Powiatu","operator:type":"government","amenity":"kindergarten","note":"Parent RSPO: 130982"}},{"id":13248,"type":"Feature","geometry":{"type":"Point","coordinates":[16.2535,50.79017]},"properties":{"ref:rspo":13248,"official_name":"Przedszkole Niepubliczne \"Na Zielonym Wzg\u00f3rzu\" w Wa\u0142brzychu","name":"Przedszkole Niepubliczne \"Na Zielonym Wzg\u00f3rzu\" w Wa\u0142brzychu","addr:country":"PL","addr:postcode":"58-304","addr:city":"Wa\u0142brzych","addr:street":"ul. Ireny Grabowskiej","addr:housenumber":"59a","addr:teryt:simc":6046,"addr:teryt:sym_ul":983681,"contact:phone":"+48 748541635","contact:email":"enet-chasor@wp.pl","ref:regon":"021961460","ref:vatin":"PL8861399456","operator":"Ewa Wi\u015bniewska","operator:type":"private","amenity":"kindergarten"}},{"id":5076,"type":"Feature","geometry":{"type":"Point","coordinates":[16.26144,50.7917]},"properties":{"isced:level":"1;2","ref:rspo":5076,"official_name":"Publiczna Szko\u0142a Podstawowa Nr 2 im. Or\u0142a Bia\u0142ego w Wa\u0142brzychu","name":"Publiczna Szko\u0142a Podstawowa Nr 2","addr:country":"PL","addr:postcode":"58-304","addr:city":"Wa\u0142brzych","addr:street":"ul. Melchiora Wa\u0144kowicza","addr:housenumber":"13","addr:teryt:simc":23620,"addr:teryt:sym_ul":983681,"contact:phone":"+48 748470989","contact:email":"psp2@walbrzych.edu.pl","contact:website":"http:\/\/www.psp2walbrzych.pl","ref:regon":"891341320","ref:vatin":"PL8862609542","operator":"Gmina Wa\u0142brzych - Miasto Na Prawach Powiatu","operator:type":"government","amenity":"school"}},{"id":80542,"type":"Feature","geometry":{"type":"Point","coordinates":[16.26144,50.791669999999996]},"properties":{"ref:rspo":80542,"official_name":"Dolno\u015bL\u0105ski Zak\u0142ad Doskonalenia Zawodowego Oddzia\u0142 I we Wroc\u0142awiu O\u015brodek Kszta\u0142cenia Zawodowego w Wa\u0142brzychu","name":"Dolno\u015bL\u0105ski Zak\u0142ad Doskonalenia Zawodowego Oddzia\u0142 I we Wroc\u0142awiu O\u015brodek Kszta\u0142cenia Zawodowego w Wa\u0142brzychu","addr:country":"PL","addr:postcode":"58-304","addr:city":"Wa\u0142brzych","addr:street":"ul. Melchiora Wa\u0144kowicza","addr:housenumber":"7","addr:teryt:simc":23620,"addr:teryt:sym_ul":983681,"contact:phone":"+48 748481277","contact:email":"okz.walbrzych@dzdz.wroc.pl","contact:website":"http:\/\/www.dzdz.wroc.pl","ref:regon":"022034542","ref:vatin":"PL8960004550","operator":"Dolno\u015bl\u0105ski Zak\u0142ad Doskonalenia Zawodowego Oddzia\u0142 I We Wroc\u0142awiu","operator:type":"ngo","fixme":"w zale\u017cno\u015bci od przedmiotu dzia\u0142alno\u015bci (np. amenity=training + training=*, amenity=dancing_school, amenity=language_school, amenity=music_school)"}},{"id":119306,"type":"Feature","geometry":{"type":"Point","coordinates":[16.25302,50.79435]},"properties":{"ref:rspo":119306,"official_name":"Przedszkole Niepubliczne \"U Miko\u0142aja\" w Wa\u0142brzychu","name":"Przedszkole Niepubliczne \"U Miko\u0142aja\" w Wa\u0142brzychu","addr:country":"PL","addr:postcode":"58-304","addr:city":"Wa\u0142brzych","addr:street":"ul. gen. W\u0142adys\u0142awa Andersa","addr:housenumber":"171","addr:teryt:simc":285,"addr:teryt:sym_ul":983681,"contact:phone":"+48 502502024","contact:email":"bukowskamucha@tlen.pl","ref:regon":"022234413","operator":"Ramona Bukowska","operator:type":"private","amenity":"kindergarten"}},{"id":278618,"type":"Feature","geometry":{"type":"Point","coordinates":[16.31419,50.79623]},"properties":{"ref:rspo":278618,"official_name":"Niepubliczna Przedszkole Specjalne \"Niebieski S\u0142owik\" w Wa\u0142brzychu","name":"Niepubliczna Przedszkole Specjalne \"Niebieski S\u0142owik\" w Wa\u0142brzychu","addr:country":"PL","addr:postcode":"58-307","addr:city":"Wa\u0142brzych","addr:street":"ul. W\u0142adys\u0142awa Orkana","addr:housenumber":"67","addr:teryt:simc":15140,"addr:teryt:sym_ul":983681,"contact:phone":"+48 690499433","contact:email":"niebieskislonik.walbrzych@gmail.com","ref:regon":"520001110","operator":"Anna Kijak","operator:type":"private","amenity":"kindergarten"}},{"id":8280,"type":"Feature","geometry":{"type":"Point","coordinates":[16.28027,50.80199]},"properties":{"isced:level":"3","ref:rspo":8280,"official_name":"Iv Liceum Og\u00f3lnokszta\u0142c\u0105ce Z Oddzia\u0142ami Integracyjnymi I Sportowymi im. Janusza Kusoci\u0144skiego","name":"Iv Liceum Og\u00f3lnokszta\u0142c\u0105ce Z Oddzia\u0142ami Integracyjnymi I Sportowymi","addr:country":"PL","addr:postcode":"58-309","addr:city":"Wa\u0142brzych","addr:street":"ul. Alfreda Soko\u0142owskiego","addr:housenumber":"75","addr:teryt:simc":20502,"addr:teryt:sym_ul":983681,"contact:phone":"+48 746648880","contact:email":"sekretariat@4lo.walbrzych.pl","contact:website":"http:\/\/www.4lo.walbrzych.pl","ref:regon":"891418465","ref:vatin":"PL8862806550","operator":"Gmina Wa\u0142brzych - Miasto Na Prawach Powiatu","operator:type":"government","amenity":"school"}},{"id":19324,"type":"Feature","geometry":{"type":"Point","coordinates":[16.28686,50.80408]},"properties":{"ref:rspo":19324,"official_name":"Zesp\u00f3\u0142 Szk\u00f3\u0142 Muzycznych im. Stanis\u0142awa Moniuszki w Wa\u0142brzychu","name":"Zesp\u00f3\u0142 Szk\u00f3\u0142 Muzycznych","addr:country":"PL","addr:postcode":"58-309","addr:city":"Wa\u0142brzych","addr:street":"ul. Pi\u0119tnastolecia","addr:housenumber":"24","addr:teryt:simc":16197,"addr:teryt:sym_ul":983681,"contact:phone":"+48 748415730","contact:email":"sekretariat@zsm.walbrzych.pl","contact:website":"http:\/\/zsm.walbrzych.pl","ref:regon":"000280778","operator":"Ministerstwo Kultury I Dziedzictwa Narodowego","operator:type":"public","landuse":"education","fixme":"amenity=school, amenity=college albo landuse=education w zale\u017cno\u015bci od tego, jakie plac\u00f3wki wchodz\u0105 w sk\u0142ad zespo\u0142u. Sprawd\u017a, kiedy stosowa\u0107 amenity=* a kiedy landuse=education.","note":"Children RSPO: 103555;103567;103572;103573"}},{"id":103555,"type":"Feature","geometry":{"type":"Point","coordinates":[16.28686,50.80405]},"properties":{"ref:rspo":103555,"official_name":"Szko\u0142a Muzyczna I St. w Wa\u0142brzychu","name":"Szko\u0142a Muzyczna I St. w Wa\u0142brzychu","addr:country":"PL","addr:postcode":"58-309","addr:city":"Wa\u0142brzych","addr:street":"ul. Pi\u0119tnastolecia","addr:housenumber":"24","addr:teryt:simc":16197,"addr:teryt:sym_ul":983681,"contact:phone":"+48 748415730","ref:regon":"891421266","operator":"Ministerstwo Kultury I Dziedzictwa Narodowego","operator:type":"public","amenity":"music_school","note":"Parent RSPO: 19324"}},{"id":103572,"type":"Feature","geometry":{"type":"Point","coordinates":[16.28686,50.80402]},"properties":{"isced:level":"1;2","ref:rspo":103572,"official_name":"Og\u00f3lnokszta\u0142c\u0105ca Szko\u0142a Muzyczna I St. w Wa\u0142brzychu","name":"Og\u00f3lnokszta\u0142c\u0105ca Szko\u0142a Muzyczna I St. w Wa\u0142brzychu","addr:country":"PL","addr:postcode":"58-309","addr:city":"Wa\u0142brzych","addr:street":"ul. Pi\u0119tnastolecia","addr:housenumber":"24","addr:teryt:simc":16197,"addr:teryt:sym_ul":983681,"contact:phone":"+48 748415730","ref:regon":"891422610","operator":"Ministerstwo Kultury I Dziedzictwa Narodowego","operator:type":"public","amenity":"school","note":"Parent RSPO: 19324"}},{"id":123097,"type":"Feature","geometry":{"type":"Point","coordinates":[16.29291,50.80466]},"properties":{"ref:rspo":123097,"official_name":"Niebubliczna Plac\u00f3wka Kszta\u0142cenia Ustawicznego Fundacja Wa\u0142brzych 2000","name":"Niebubliczna Plac\u00f3wka Kszta\u0142cenia Ustawicznego Fundacja Wa\u0142brzych 2000","addr:country":"PL","addr:postcode":"58-309","addr:city":"Wa\u0142brzych","addr:street":"ul. Wroc\u0142awska","addr:housenumber":"53","addr:teryt:simc":24806,"addr:teryt:sym_ul":983681,"contact:phone":"+48 748434532","contact:email":"biuro@walbrzych2000.pl","contact:website":"http:\/\/www.walbrzych2000.pl","ref:regon":"022418120","ref:vatin":"PL8861010599","operator":"Fundacja \"Wa\u0142brzych 2000\"","operator:type":"ngo","fixme":"w zale\u017cno\u015bci od przedmiotu dzia\u0142alno\u015bci (np. amenity=training + training=*, amenity=dancing_school, amenity=language_school, amenity=music_school)"}},{"id":40076,"type":"Feature","geometry":{"type":"Point","coordinates":[16.27994,50.80627]},"properties":{"ref:rspo":40076,"official_name":"Niepubliczne Przedszkole J\u0119zykowe \"Micha\u0142ek\" w Wa\u0142brzychu","name":"Niepubliczne Przedszkole J\u0119zykowe \"Micha\u0142ek\" w Wa\u0142brzychu","addr:country":"PL","addr:postcode":"58-309","addr:city":"Wa\u0142brzych","addr:street":"ul. Obro\u0144c\u00f3w Westerplatte","addr:housenumber":"39","addr:teryt:simc":14655,"addr:teryt:sym_ul":983681,"contact:phone":"+48 746661522","contact:email":"biuro@przedszkole-michalek.pl","ref:regon":"021991170","ref:vatin":"PL8860007135","operator":"Green Vetro Sp\u00f3\u0142ka Z Ograniczon\u0105 Odpowiedzialno\u015bci\u0105","operator:type":"private","amenity":"kindergarten"}},{"id":128648,"type":"Feature","geometry":{"type":"Point","coordinates":[16.27994,50.806239999999995]},"properties":{"isced:level":"1;2","ref:rspo":128648,"official_name":"Niepubliczna J\u0119zykowa Szko\u0142a Podstawowa \"M\u0142ody Kopernik\" w Wa\u0142brzychu\"","name":"Niepubliczna J\u0119zykowa Szko\u0142a Podstawowa \"M\u0142ody Kopernik\" w Wa\u0142brzychu\"","addr:country":"PL","addr:postcode":"58-309","addr:city":"Wa\u0142brzych","addr:street":"ul. Obro\u0144c\u00f3w Westerplatte","addr:housenumber":"39","addr:teryt:simc":14655,"addr:teryt:sym_ul":983681,"contact:email":"sekretariat@mlody-kopernik.pl","contact:website":"http:\/\/mlody-kopernik.pl","ref:regon":"362355688","operator":"\"Tinea\" Sp\u00f3\u0142ka Z Ograniczon\u0105 Odpowiedzialno\u015bci\u0105","operator:type":"private","amenity":"school"}},{"id":278002,"type":"Feature","geometry":{"type":"Point","coordinates":[16.27994,50.80621]},"properties":{"isced:level":"4","ref:rspo":278002,"official_name":"Publiczna Szko\u0142a Policealna \"Pascal\" w Wa\u0142brzych","name":"Publiczna Szko\u0142a Policealna \"Pascal\" w Wa\u0142brzych","addr:country":"PL","addr:postcode":"58-309","addr:city":"Wa\u0142brzych","addr:street":"ul. Obro\u0144c\u00f3w Westerplatte","addr:housenumber":"39","addr:teryt:simc":14655,"addr:teryt:sym_ul":983681,"contact:phone":"+48 743003707","contact:email":"walbrzych@pascal.edu.pl","contact:website":"http:\/\/www.pascal.edu.pl","ref:regon":"389748636","operator":"Educa Sp\u00f3\u0142ka Z Ograniczon\u0105 Odpowiedzialno\u015bci\u0105","operator:type":"private","amenity":"college"}},{"id":272904,"type":"Feature","geometry":{"type":"Point","coordinates":[16.28373,50.80845]},"properties":{"ref:rspo":272904,"official_name":"Zesp\u00f3\u0142 Szk\u00f3\u0142 \"Pascal\" w Wa\u0142brzychu","name":"Zesp\u00f3\u0142 Szk\u00f3\u0142 \"Pascal\" w Wa\u0142brzychu","addr:country":"PL","addr:postcode":"58-309","addr:city":"Wa\u0142brzych","addr:street":"ul. G\u0142\u00f3wna","addr:housenumber":"6","addr:teryt:simc":5635,"addr:teryt:sym_ul":983681,"contact:phone":"+48 743003707","contact:email":"walbrzych@pascal.edu.pl","ref:regon":"384313550","operator":"Educa Sp\u00f3\u0142ka Z Ograniczon\u0105 Odpowiedzialno\u015bci\u0105","operator:type":"private","landuse":"education","fixme":"amenity=school, amenity=college albo landuse=education w zale\u017cno\u015bci od tego, jakie plac\u00f3wki wchodz\u0105 w sk\u0142ad zespo\u0142u. Sprawd\u017a, kiedy stosowa\u0107 amenity=* a kiedy landuse=education.","note":"Children RSPO: 269425;269492;269493;269494"}},{"id":269425,"type":"Feature","geometry":{"type":"Point","coordinates":[16.28373,50.80842]},"properties":{"isced:level":"4","ref:rspo":269425,"official_name":"Stacjonarna Policealna Szko\u0142a Medyczna \"Pascal\" w Wa\u0142brzychu","name":"Stacjonarna Policealna Szko\u0142a Medyczna \"Pascal\" w Wa\u0142brzychu","addr:country":"PL","addr:postcode":"58-309","addr:city":"Wa\u0142brzych","addr:street":"ul. G\u0142\u00f3wna","addr:housenumber":"6","addr:teryt:simc":5635,"addr:teryt:sym_ul":983681,"contact:phone":"+48 429420942","contact:email":"walbrzych@pascal.edu.pl","ref:regon":"381488153","operator":"Educa Sp\u00f3\u0142ka Z Ograniczon\u0105 Odpowiedzialno\u015bci\u0105","operator:type":"private","amenity":"college","note":"Parent RSPO: 272904"}},{"id":269492,"type":"Feature","geometry":{"type":"Point","coordinates":[16.28373,50.80839]},"properties":{"isced:level":"4","ref:rspo":269492,"official_name":"Policealna Szko\u0142a Medyczna \"Pascal\" w Wa\u0142brzychu","name":"Policealna Szko\u0142a Medyczna \"Pascal\" w Wa\u0142brzychu","addr:country":"PL","addr:postcode":"58-309","addr:city":"Wa\u0142brzych","addr:street":"ul. G\u0142\u00f3wna","addr:housenumber":"6","addr:teryt:simc":5635,"addr:teryt:sym_ul":983681,"contact:phone":"+48 429420942","contact:email":"walbrzych@pascal.edu.pl","ref:regon":"381521689","operator":"Educa Sp\u00f3\u0142ka Z Ograniczon\u0105 Odpowiedzialno\u015bci\u0105","operator:type":"private","amenity":"college","note":"Parent RSPO: 272904"}},{"id":269493,"type":"Feature","geometry":{"type":"Point","coordinates":[16.28373,50.80836]},"properties":{"isced:level":"4","ref:rspo":269493,"official_name":"Policealna Szko\u0142a Zawodowa \"Pascal w Wa\u0142brzychu","name":"Policealna Szko\u0142a Zawodowa \"Pascal w Wa\u0142brzychu","addr:country":"PL","addr:postcode":"58-309","addr:city":"Wa\u0142brzych","addr:street":"ul. G\u0142\u00f3wna","addr:housenumber":"6","addr:teryt:simc":5635,"addr:teryt:sym_ul":983681,"contact:phone":"+48 420420942","contact:email":"walbrzych@pascal.edu.pl","ref:regon":"381522111","operator":"Educa Sp\u00f3\u0142ka Z Ograniczon\u0105 Odpowiedzialno\u015bci\u0105","operator:type":"private","amenity":"college","note":"Parent RSPO: 272904"}},{"id":269494,"type":"Feature","geometry":{"type":"Point","coordinates":[16.28373,50.80833]},"properties":{"isced:level":"3","ref:rspo":269494,"official_name":"Liceum Og\u00f3lnokszta\u0142c\u0105ce dla Doros\u0142ych \"Pascal\" w Wa\u0142brzychu","name":"Liceum Og\u00f3lnokszta\u0142c\u0105ce dla Doros\u0142ych \"Pascal\" w Wa\u0142brzychu","addr:country":"PL","addr:postcode":"58-309","addr:city":"Wa\u0142brzych","addr:street":"ul. G\u0142\u00f3wna","addr:housenumber":"6","addr:teryt:simc":5635,"addr:teryt:sym_ul":983681,"contact:phone":"+48 429420942","contact:email":"walbrzych@pascal.edu.pl","ref:regon":"381522134","operator":"Educa Sp\u00f3\u0142ka Z Ograniczon\u0105 Odpowiedzialno\u015bci\u0105","operator:type":"private","amenity":"school","note":"Parent RSPO: 272904"}},{"id":270499,"type":"Feature","geometry":{"type":"Point","coordinates":[16.28144,50.80916]},"properties":{"ref:rspo":270499,"official_name":"Petra Consulting","name":"Petra Consulting","addr:country":"PL","addr:postcode":"58-309","addr:city":"Wa\u0142brzych","addr:street":"ul. W\u0142adys\u0142awa Broniewskiego","addr:housenumber":"65b","addr:teryt:simc":2125,"addr:teryt:sym_ul":983681,"contact:phone":"+48 746647459","contact:email":"biuro@petraconsulting.pl","contact:website":"http:\/\/www.petraconsulting.pl","ref:regon":"382667350","ref:vatin":"PL8862475231","operator":"Sylwia Petryna","operator:type":"private","fixme":"w zale\u017cno\u015bci od przedmiotu dzia\u0142alno\u015bci (np. amenity=training + training=*, amenity=dancing_school, amenity=language_school, amenity=music_school)"}},{"id":270501,"type":"Feature","geometry":{"type":"Point","coordinates":[16.28144,50.809129999999996]},"properties":{"ref:rspo":270501,"official_name":"Szko\u0142a Jazdy Grzegorz Drzewiecki","name":"Szko\u0142a Jazdy Grzegorz Drzewiecki","addr:country":"PL","addr:postcode":"58-309","addr:city":"Wa\u0142brzych","addr:street":"ul. W\u0142adys\u0142awa Broniewskiego","addr:housenumber":"65b","addr:teryt:simc":2125,"addr:teryt:sym_ul":983681,"contact:phone":"+48 746664244","contact:email":"biuro@drzewiecki.walbrzych.pl","contact:website":"http:\/\/www.drzewiecki.walbrzych.pl","ref:regon":"382667194","ref:vatin":"PL8861066364","operator":"Grzegorz Drzewiecki","operator:type":"private","fixme":"w zale\u017cno\u015bci od przedmiotu dzia\u0142alno\u015bci (np. amenity=training + training=*, amenity=dancing_school, amenity=language_school, amenity=music_school)"}},{"id":10053,"type":"Feature","geometry":{"type":"Point","coordinates":[16.27677,50.80936]},"properties":{"ref:rspo":10053,"official_name":"Przedszkole Samorz\u0105dowe Nr 17 im. Jana Brzechwy Z Oddzia\u0142ami Integracyjnymi I Specjalnymi w Wa\u0142brzychu Przy Ul. Hirszfelda 15 I Sosnowej 25 A","name":"Przedszkole Samorz\u0105dowe Nr 17","addr:country":"PL","addr:postcode":"58-309","addr:city":"Wa\u0142brzych","addr:street":"ul. Ludwika Hirszfelda","addr:housenumber":"15","addr:teryt:simc":6667,"addr:teryt:sym_ul":983681,"contact:phone":"+48 746656460","contact:email":"przedszkole17@gazeta.pl","ref:regon":"021403322","ref:vatin":"PL8862960044","operator":"Gmina Wa\u0142brzych - Miasto Na Prawach Powiatu","operator:type":"government","amenity":"kindergarten"}},{"id":274687,"type":"Feature","geometry":{"type":"Point","coordinates":[16.28934,50.80994]},"properties":{"ref:rspo":274687,"official_name":"Zesp\u00f3\u0142 Szkolno-Przedszkolny Nr 7 w Wa\u0142brzychu","name":"Zesp\u00f3\u0142 Szkolno-Przedszkolny Nr 7 w Wa\u0142brzychu","addr:country":"PL","addr:postcode":"58-309","addr:city":"Wa\u0142brzych","addr:street":"ul. Ksawerego Dunikowskiego","addr:housenumber":"39","addr:teryt:simc":4399,"addr:teryt:sym_ul":983681,"contact:phone":"+48 746644860","contact:email":"zsp7@walbrzych.edu.pl","contact:website":"http:\/\/www.psp37walbrzych.hb.pl","ref:regon":"386236947","operator":"Gmina Wa\u0142brzych - Miasto Na Prawach Powiatu","operator:type":"government","landuse":"education","fixme":"amenity=school, amenity=college albo landuse=education w zale\u017cno\u015bci od tego, jakie plac\u00f3wki wchodz\u0105 w sk\u0142ad zespo\u0142u. Sprawd\u017a, kiedy stosowa\u0107 amenity=* a kiedy landuse=education.","note":"Children RSPO: 10999;274692"}},{"id":10999,"type":"Feature","geometry":{"type":"Point","coordinates":[16.28934,50.809909999999995]},"properties":{"isced:level":"1;2","ref:rspo":10999,"official_name":"Publiczna Szko\u0142a Podstawowa Nr 37 Z Oddzia\u0142ami Sportowymi im. Stanis\u0142awa Staszica w Wa\u0142brzychu","name":"Publiczna Szko\u0142a Podstawowa Nr 37 Z Oddzia\u0142ami Sportowymi","addr:country":"PL","addr:postcode":"58-309","addr:city":"Wa\u0142brzych","addr:street":"ul. Ksawerego Dunikowskiego","addr:housenumber":"39","addr:teryt:simc":4399,"addr:teryt:sym_ul":983681,"contact:phone":"+48 746644860","contact:email":"zsp7@walbrzych.edu.pl","contact:website":"http:\/\/www.psp37walbrzych.hb","ref:regon":"000718312","ref:vatin":"PL8861067180","operator":"Gmina Wa\u0142brzych - Miasto Na Prawach Powiatu","operator:type":"government","amenity":"school","note":"Parent RSPO: 274687"}},{"id":274692,"type":"Feature","geometry":{"type":"Point","coordinates":[16.28934,50.80988]},"properties":{"ref:rspo":274692,"official_name":"Przedszkole Samorz\u0105dowe Nr 7 w Wa\u0142brzychu","name":"Przedszkole Samorz\u0105dowe Nr 7 w Wa\u0142brzychu","addr:country":"PL","addr:postcode":"58-309","addr:city":"Wa\u0142brzych","addr:street":"ul. Ksawerego Dunikowskiego","addr:housenumber":"39","addr:teryt:simc":4399,"addr:teryt:sym_ul":983681,"contact:phone":"+48 746663425","contact:email":"zsp7@walbrzych.edu.pl","contact:website":"http:\/\/www.psp37walbrzych.hb.pl","ref:regon":"386250545","operator":"Gmina Wa\u0142brzych - Miasto Na Prawach Powiatu","operator:type":"government","amenity":"kindergarten","note":"Parent RSPO: 274687"}},{"id":9671,"type":"Feature","geometry":{"type":"Point","coordinates":[16.27771,50.8103399]},"properties":{"isced:level":"1;2","ref:rspo":9671,"official_name":"Publiczna Szko\u0142a Podstawowa Nr 15 im. Jana Kochanowskiego w Wa\u0142brzychu","name":"Publiczna Szko\u0142a Podstawowa Nr 15","addr:country":"PL","addr:postcode":"58-309","addr:city":"Wa\u0142brzych","addr:street":"ul. Ludwika Hirszfelda","addr:housenumber":"1","addr:teryt:simc":6667,"addr:teryt:sym_ul":983681,"contact:phone":"+48 748415189","contact:email":"sekretariat@psp15.edu.pl","contact:website":"http:\/\/www.psp15.edu.pl","ref:regon":"000690996","ref:vatin":"PL8861032827","operator":"Gmina Wa\u0142brzych - Miasto Na Prawach Powiatu","operator:type":"government","amenity":"school"}},{"id":11135,"type":"Feature","geometry":{"type":"Point","coordinates":[16.27956,50.81074]},"properties":{"ref:rspo":11135,"official_name":"Przedszkole Niepubliczne \"Agatka\"","name":"Przedszkole Niepubliczne \"Agatka\"","addr:country":"PL","addr:postcode":"58-309","addr:city":"Wa\u0142brzych","addr:street":"ul. Zofii Na\u0142kowskiej","addr:housenumber":"2","addr:teryt:simc":13967,"addr:teryt:sym_ul":983681,"contact:phone":"+48 746656600","contact:email":"pnagatka@wp.pl","ref:regon":"021961803","ref:vatin":"PL8861346187","operator":"Hanna P\u0142onka","operator:type":"private","amenity":"kindergarten"}},{"id":11163,"type":"Feature","geometry":{"type":"Point","coordinates":[16.28308,50.81074]},"properties":{"ref:rspo":11163,"official_name":"Przedszkole Niepubliczne \"Wiolinka\"\nW Wa\u0142brzychu","name":"Przedszkole Niepubliczne \"Wiolinka\"\nW Wa\u0142brzychu","addr:country":"PL","addr:postcode":"58-309","addr:city":"Wa\u0142brzych","addr:street":"ul. Ksawerego Dunikowskiego","addr:housenumber":"13a","addr:teryt:simc":4399,"addr:teryt:sym_ul":983681,"contact:phone":"+48 746659660","contact:email":"ple-wiolinka1@wp.eu","ref:regon":"021969696","ref:vatin":"PL8862551736","operator":"Przedszkole Niepubliczne \"Wiolinka\" S.c. Miros\u0142awa Karykowska El\u017cbieta Kaczmarska Beata \u017burawska","operator:type":"consortium","amenity":"kindergarten"}},{"id":12759,"type":"Feature","geometry":{"type":"Point","coordinates":[16.28804,50.81139]},"properties":{"ref:rspo":12759,"official_name":"Zesp\u00f3\u0142 Szk\u00f3\u0142 Spo\u0142ecznych Nr 1 w Wa\u0142brzychu","name":"Zesp\u00f3\u0142 Szk\u00f3\u0142 Spo\u0142ecznych Nr 1 w Wa\u0142brzychu","addr:country":"PL","addr:postcode":"58-309","addr:city":"Wa\u0142brzych","addr:street":"ul. Jacka Malczewskiego","addr:housenumber":"22","addr:teryt:simc":12037,"addr:teryt:sym_ul":983681,"contact:phone":"+48 748402007","contact:email":"slo@hm.pl","contact:website":"http:\/\/www.slo.hm.pl","ref:regon":"021967303","ref:vatin":"PL8862747043","operator":"Wa\u0142brzyskie Towarzystwo O\u015bwiatowe","operator:type":"ngo","landuse":"education","fixme":"amenity=school, amenity=college albo landuse=education w zale\u017cno\u015bci od tego, jakie plac\u00f3wki wchodz\u0105 w sk\u0142ad zespo\u0142u. Sprawd\u017a, kiedy stosowa\u0107 amenity=* a kiedy landuse=education.","note":"Children RSPO: 64607"}},{"id":71428,"type":"Feature","geometry":{"type":"Point","coordinates":[16.28804,50.81136]},"properties":{"isced:level":"3","ref:rspo":71428,"official_name":"Sudeckie Centrum Edukacji Ustawicznej w Wa\u0142brzychu Liceum Og\u00f3lnokszta\u0142c\u0105ce dla Doros\u0142ych","name":"Sudeckie Centrum Edukacji Ustawicznej w Wa\u0142brzychu Liceum Og\u00f3lnokszta\u0142c\u0105ce dla Doros\u0142ych","addr:country":"PL","addr:postcode":"58-309","addr:city":"Wa\u0142brzych","addr:street":"ul. Jacka Malczewskiego","addr:housenumber":"22","addr:teryt:simc":12037,"addr:teryt:sym_ul":983681,"contact:phone":"+48 748402007","contact:email":"slo@hm.pl","contact:website":"http:\/\/www.slo.hm.pl","ref:regon":"022000550","operator":"Wa\u0142brzyskie Towarzystwo O\u015bwiatowe","operator:type":"ngo","amenity":"school"}},{"id":64607,"type":"Feature","geometry":{"type":"Point","coordinates":[16.28804,50.811330000000005]},"properties":{"isced:level":"3","ref:rspo":64607,"official_name":"Spo\u0142eczne Liceum Og\u00f3lnokszta\u0142c\u0105ce w Wa\u0142brzychu","name":"Spo\u0142eczne Liceum Og\u00f3lnokszta\u0142c\u0105ce w Wa\u0142brzychu","addr:country":"PL","addr:postcode":"58-309","addr:city":"Wa\u0142brzych","addr:street":"ul. Jacka Malczewskiego","addr:housenumber":"22","addr:teryt:simc":12037,"addr:teryt:sym_ul":983681,"contact:phone":"+48 748402007","contact:email":"slo@hm.pl","contact:website":"http:\/\/www.slo.hm.pl","ref:regon":"022000595","operator":"Wa\u0142brzyskie Towarzystwo O\u015bwiatowe","operator:type":"ngo","amenity":"school","note":"Parent RSPO: 12759"}},{"id":11309,"type":"Feature","geometry":{"type":"Point","coordinates":[16.2932099,50.81326]},"properties":{"isced:level":"1;2","ref:rspo":11309,"official_name":"Publiczna Szko\u0142a Podstawowa Specjalna Nr 10 w Wa\u0142brzychu im. Kawaler\u00f3w Orderu U\u015bmiechuu","name":"Publiczna Szko\u0142a Podstawowa Specjalna Nr 10 w Wa\u0142brzychu","addr:country":"PL","addr:postcode":"58-306","addr:city":"Wa\u0142brzych","addr:street":"ul. Ogrodowa","addr:housenumber":"5a","addr:teryt:simc":14834,"addr:teryt:sym_ul":983681,"contact:phone":"+48 746642512","contact:email":"sekretariat@psps10.pl","contact:website":"http:\/\/www.psps10.pl","ref:regon":"000718223","ref:vatin":"PL8862973584","operator":"Gmina Wa\u0142brzych - Miasto Na Prawach Powiatu","operator:type":"government","amenity":"school"}},{"id":11308,"type":"Feature","geometry":{"type":"Point","coordinates":[16.29369,50.8138999]},"properties":{"ref:rspo":11308,"official_name":"Zesp\u00f3\u0142 Szk\u00f3\u0142 Nr 5 im. M.t.hubera w Wa\u0142brzychu","name":"Zesp\u00f3\u0142 Szk\u00f3\u0142 Nr 5","addr:country":"PL","addr:postcode":"58-306","addr:city":"Wa\u0142brzych","addr:street":"ul. Ogrodowa","addr:housenumber":"2a","addr:teryt:simc":14834,"addr:teryt:sym_ul":983681,"contact:phone":"+48 748467475","contact:email":"szkola@zs5.mail.pl","contact:website":"http:\/\/zs5.walbrzych.pl","ref:regon":"000193476","ref:vatin":"PL8861067398","operator":"Gmina Wa\u0142brzych - Miasto Na Prawach Powiatu","operator:type":"government","landuse":"education","fixme":"amenity=school, amenity=college albo landuse=education w zale\u017cno\u015bci od tego, jakie plac\u00f3wki wchodz\u0105 w sk\u0142ad zespo\u0142u. Sprawd\u017a, kiedy stosowa\u0107 amenity=* a kiedy landuse=education.","note":"Children RSPO: 71645;71670;71692;73770;276078"}},{"id":73115,"type":"Feature","geometry":{"type":"Point","coordinates":[16.29369,50.8138699]},"properties":{"ref:rspo":73115,"official_name":"Zesp\u00f3\u0142 Szk\u00f3\u0142 Nr 5 im. T.hubera Centrum Kszta\u0142cenia Ustawicznego w Wa\u0142brzychu","name":"Zesp\u00f3\u0142 Szk\u00f3\u0142 Nr 5","addr:country":"PL","addr:postcode":"58-306","addr:city":"Wa\u0142brzych","addr:street":"ul. Ogrodowa","addr:housenumber":"2a","addr:teryt:simc":14834,"addr:teryt:sym_ul":983681,"contact:phone":"+48 748467474","contact:email":"szkola@zs5.mail.pl","contact:website":"http:\/\/www.zs5.walbrzych.pl","ref:regon":"000677620","operator":"Gmina Wa\u0142brzych - Miasto Na Prawach Powiatu","operator:type":"government","amenity":"school","fixme":"amenity=school lub amenity=college","note":"Children RSPO: 85326;133959"}},{"id":71645,"type":"Feature","geometry":{"type":"Point","coordinates":[16.29369,50.813839900000005]},"properties":{"isced:level":"3","ref:rspo":71645,"official_name":"Technikum Nr 2 w Wa\u0142brzychu","name":"Technikum Nr 2 w Wa\u0142brzychu","addr:country":"PL","addr:postcode":"58-306","addr:city":"Wa\u0142brzych","addr:street":"ul. Ogrodowa","addr:housenumber":"2a","addr:teryt:simc":14834,"addr:teryt:sym_ul":983681,"contact:phone":"+48 748467474","contact:email":"szkola@zs5.mail.pl","contact:website":"http:\/\/www.zs5.walbrzych.pl","ref:regon":"891420829","operator":"Gmina Wa\u0142brzych - Miasto Na Prawach Powiatu","operator:type":"government","amenity":"school","note":"Parent RSPO: 11308"}},{"id":71670,"type":"Feature","geometry":{"type":"Point","coordinates":[16.29369,50.8138099]},"properties":{"isced:level":"3","ref:rspo":71670,"official_name":"Bran\u017cowa Szko\u0142a I Stopnia Nr 2 w Wa\u0142brzychu","name":"Bran\u017cowa Szko\u0142a I Stopnia Nr 2 w Wa\u0142brzychu","addr:country":"PL","addr:postcode":"58-306","addr:city":"Wa\u0142brzych","addr:street":"ul. Ogrodowa","addr:housenumber":"2a","addr:teryt:simc":14834,"addr:teryt:sym_ul":983681,"contact:phone":"+48 748467474","contact:email":"szkola@zs5.mail.pl","contact:website":"http:\/\/www.zs5.walbrzych.pl","ref:regon":"891420812","operator":"Gmina Wa\u0142brzych - Miasto Na Prawach Powiatu","operator:type":"government","amenity":"school","note":"Parent RSPO: 11308"}},{"id":71692,"type":"Feature","geometry":{"type":"Point","coordinates":[16.29369,50.8137799]},"properties":{"isced:level":"4","ref:rspo":71692,"official_name":"Szko\u0142a Policealna dla Doros\u0142ych Nr 3 w Wa\u0142brzychu","name":"Szko\u0142a Policealna dla Doros\u0142ych Nr 3 w Wa\u0142brzychu","addr:country":"PL","addr:postcode":"58-306","addr:city":"Wa\u0142brzych","addr:street":"ul. Ogrodowa","addr:housenumber":"2a","addr:teryt:simc":14834,"addr:teryt:sym_ul":983681,"contact:phone":"+48 748467474","contact:email":"szkola@zs5.mail.pl","contact:website":"http:\/\/www.zs5.walbrzych.pl","ref:regon":"891420953","operator":"Gmina Wa\u0142brzych - Miasto Na Prawach Powiatu","operator:type":"government","amenity":"college","note":"Parent RSPO: 11308"}},{"id":73770,"type":"Feature","geometry":{"type":"Point","coordinates":[16.29369,50.813749900000005]},"properties":{"ref:rspo":73770,"official_name":"Centrum Kszta\u0142cenia Zawodowego w Wa\u0142brzychu","name":"Centrum Kszta\u0142cenia Zawodowego w Wa\u0142brzychu","addr:country":"PL","addr:postcode":"58-306","addr:city":"Wa\u0142brzych","addr:street":"ul. Ogrodowa","addr:housenumber":"2a","addr:teryt:simc":14834,"addr:teryt:sym_ul":983681,"contact:phone":"+48 748467474","contact:email":"szkola@zs5.mail.pl","contact:website":"http:\/\/www.zs5.mail.pl","ref:regon":"021015399","operator":"Gmina Wa\u0142brzych - Miasto Na Prawach Powiatu","operator:type":"government","fixme":"w zale\u017cno\u015bci od przedmiotu dzia\u0142alno\u015bci (np. amenity=training + training=*, amenity=dancing_school, amenity=language_school, amenity=music_school) albo amenity=school, amenity=college, albo landuse=education w zale\u017cno\u015bci od tego, jakie plac\u00f3wki wchodz\u0105 w sk\u0142ad zespo\u0142u. Sprawd\u017a, kiedy stosowa\u0107 amenity=* a kiedy landuse=education.","note":"Parent RSPO: 11308"}},{"id":276078,"type":"Feature","geometry":{"type":"Point","coordinates":[16.29369,50.8137199]},"properties":{"isced:level":"3","ref:rspo":276078,"official_name":"Bran\u017cowa Szko\u0142a II Stopnia","name":"Bran\u017cowa Szko\u0142a II Stopnia","addr:country":"PL","addr:postcode":"58-306","addr:city":"Wa\u0142brzych","addr:street":"ul. Ogrodowa","addr:housenumber":"2A","addr:teryt:simc":14834,"addr:teryt:sym_ul":983681,"contact:phone":"+48 748467474","contact:email":"szkola@zs5.mail.pl","contact:website":"http:\/\/zs5.walbrzych.pl","ref:regon":"386985086","operator":"Gmina Wa\u0142brzych - Miasto Na Prawach Powiatu","operator:type":"government","amenity":"school","note":"Parent RSPO: 11308"}},{"id":85326,"type":"Feature","geometry":{"type":"Point","coordinates":[16.29369,50.8136899]},"properties":{"isced:level":"3","ref:rspo":85326,"official_name":"Liceum Og\u00f3lnokszta\u0142c\u0105ce dla Doros\u0142ych w Wa\u0142brzychu","name":"Liceum Og\u00f3lnokszta\u0142c\u0105ce dla Doros\u0142ych w Wa\u0142brzychu","addr:country":"PL","addr:postcode":"58-306","addr:city":"Wa\u0142brzych","addr:street":"ul. Ogrodowa","addr:housenumber":"2a","addr:teryt:simc":14834,"addr:teryt:sym_ul":983681,"contact:phone":"+48 748467474","contact:email":"szkola@zs5.mail.pl","contact:website":"http:\/\/zs5.walbrzych.pl","ref:regon":"022012262","operator":"Gmina Wa\u0142brzych - Miasto Na Prawach Powiatu","operator:type":"government","amenity":"school","note":"Parent RSPO: 73115"}},{"id":133959,"type":"Feature","geometry":{"type":"Point","coordinates":[16.29369,50.813659900000005]},"properties":{"isced:level":"1;2","ref:rspo":133959,"official_name":"Szko\u0142a Podstawowa dla Doros\u0142ych w Wa\u0142brzychu","name":"Szko\u0142a Podstawowa dla Doros\u0142ych w Wa\u0142brzychu","addr:country":"PL","addr:postcode":"58-306","addr:city":"Wa\u0142brzych","addr:street":"ul. Ogrodowa","addr:housenumber":"2a","addr:teryt:simc":14834,"addr:teryt:sym_ul":983681,"contact:phone":"+48 748467474","contact:email":"szkola@zs5.mail.pl","ref:regon":"367753206","operator":"Gmina Wa\u0142brzych - Miasto Na Prawach Powiatu","operator:type":"government","amenity":"school","note":"Parent RSPO: 73115"}},{"id":13145,"type":"Feature","geometry":{"type":"Point","coordinates":[16.29952,50.81424]},"properties":{"ref:rspo":13145,"official_name":"Przedszkole Niepubliczne Nr 3","name":"Przedszkole Niepubliczne Nr 3","addr:country":"PL","addr:postcode":"58-306","addr:city":"Wa\u0142brzych","addr:street":"ul. Wroc\u0142awska","addr:housenumber":"95","addr:teryt:simc":24806,"addr:teryt:sym_ul":983681,"contact:phone":"+48 748468960","contact:email":"trojka95@wp.pl","ref:regon":"021967272","ref:vatin":"PL8861806708","operator":"Krystyna Bloch","operator:type":"private","amenity":"kindergarten"}},{"id":124222,"type":"Feature","geometry":{"type":"Point","coordinates":[16.31084,50.8192499]},"properties":{"ref:rspo":124222,"official_name":"Niepubliczne Przedszkole J\u0119zykowe \"Chatka Ma\u0142olatka II\" w Wa\u0142brzychu","name":"Niepubliczne Przedszkole J\u0119zykowe \"Chatka Ma\u0142olatka II\" w Wa\u0142brzychu","addr:country":"PL","addr:postcode":"58-306","addr:city":"Wa\u0142brzych","addr:street":"ul. Uczniowska","addr:housenumber":"16","addr:teryt:simc":23299,"addr:teryt:sym_ul":983681,"contact:phone":"+48 793390854","contact:email":"iwonapuszkar@op.pl","ref:regon":"022479215","operator":"Przedszkole \"Chatka Ma\u0142olatka Ii\" Sp\u00f3\u0142ka Z Ograniczon\u0105 Odpowiedzialno\u015bci\u0105","operator:type":"private","amenity":"kindergarten"}},{"id":20066,"type":"Feature","geometry":{"type":"Point","coordinates":[16.27281,50.8198]},"properties":{"ref:rspo":20066,"official_name":"Przedszkole Niepubliczne \"Ma\u0142gosia\" Z Oddzia\u0142em Integracyjnym","name":"Przedszkole Niepubliczne \"Ma\u0142gosia\" Z Oddzia\u0142em Integracyjnym","addr:country":"PL","addr:postcode":"58-316","addr:city":"Wa\u0142brzych","addr:street":"ul. Kasztela\u0144ska","addr:housenumber":"3","addr:teryt:simc":8179,"addr:teryt:sym_ul":983681,"contact:phone":"+48 746467040","ref:regon":"021973930","ref:vatin":"PL8862840305","operator":"Sebastian Matuszewski","operator:type":"private","amenity":"kindergarten"}},{"id":272448,"type":"Feature","geometry":{"type":"Point","coordinates":[16.27193,50.8203699]},"properties":{"ref:rspo":272448,"official_name":"Przedszkole Samorz\u0105dowe Nr 8 w Wa\u0142brzychu","name":"Przedszkole Samorz\u0105dowe Nr 8 w Wa\u0142brzychu","addr:country":"PL","addr:postcode":"58-316","addr:city":"Wa\u0142brzych","addr:street":"ul. Grodzka","addr:housenumber":"13","addr:teryt:simc":6163,"addr:teryt:sym_ul":983681,"contact:phone":"+48 746478860","contact:email":"przedszkole.nr8.walbrzych@gmail.com","ref:regon":"384175839","operator":"Gmina Wa\u0142brzych - Miasto Na Prawach Powiatu","operator:type":"government","amenity":"kindergarten","note":"Parent RSPO: 276185"}},{"id":276185,"type":"Feature","geometry":{"type":"Point","coordinates":[16.27455,50.82153]},"properties":{"ref:rspo":276185,"official_name":"Zesp\u00f3\u0142 Przedszkoli Samorz\u0105dowych Nr 1 w Wa\u0142brzychu","name":"Zesp\u00f3\u0142 Przedszkoli Samorz\u0105dowych Nr 1 w Wa\u0142brzychu","addr:country":"PL","addr:postcode":"58-316","addr:city":"Wa\u0142brzych","addr:street":"ul. Kasztela\u0144ska","addr:housenumber":"7","addr:teryt:simc":8179,"addr:teryt:sym_ul":983681,"contact:phone":"+48 746401178","contact:email":"z.przedszkolinr1walbrzych@gmail.com","ref:regon":"387024650","operator":"Gmina Wa\u0142brzych - Miasto Na Prawach Powiatu","operator:type":"government","landuse":"education","fixme":"amenity=school, amenity=college albo landuse=education w zale\u017cno\u015bci od tego, jakie plac\u00f3wki wchodz\u0105 w sk\u0142ad zespo\u0142u. Sprawd\u017a, kiedy stosowa\u0107 amenity=* a kiedy landuse=education.","note":"Children RSPO: 5247;272448"}},{"id":5247,"type":"Feature","geometry":{"type":"Point","coordinates":[16.27455,50.8215]},"properties":{"ref:rspo":5247,"official_name":"Przedszkole Samorz\u0105dowe Nr 14","name":"Przedszkole Samorz\u0105dowe Nr 14","addr:country":"PL","addr:postcode":"58-316","addr:city":"Wa\u0142brzych","addr:street":"ul. Kasztela\u0144ska","addr:housenumber":"7","addr:teryt:simc":8179,"addr:teryt:sym_ul":983681,"contact:phone":"+48 746401178","contact:email":"przedszkole14walbrzych@gmail.com","ref:regon":"021402601","ref:vatin":"PL8862960050","operator":"Gmina Wa\u0142brzych - Miasto Na Prawach Powiatu","operator:type":"government","amenity":"kindergarten","note":"Parent RSPO: 276185"}},{"id":125330,"type":"Feature","geometry":{"type":"Point","coordinates":[16.30383,50.82306]},"properties":{"ref:rspo":125330,"official_name":"Przedszkole Niepubliczne \"Bajkolandia\" w Wa\u0142brzychu","name":"Przedszkole Niepubliczne \"Bajkolandia\" w Wa\u0142brzychu","addr:country":"PL","addr:postcode":"58-306","addr:city":"Wa\u0142brzych","addr:street":"ul. Uczniowska","addr:housenumber":"1-2","addr:teryt:simc":23299,"addr:teryt:sym_ul":983681,"contact:phone":"+48 690499433","contact:email":"radoslawkornas@gmail.com","contact:website":"http:\/\/www.bajkolandia.walbrzych.pl","ref:regon":"022504172","operator":"Rados\u0142aw Kornas","operator:type":"private","amenity":"kindergarten"}},{"id":119600,"type":"Feature","geometry":{"type":"Point","coordinates":[16.27386,50.82358]},"properties":{"ref:rspo":119600,"official_name":"Niepubliczne Sportowe Przedszkole \"Olimpijczyk\" w Wa\u0142brzychu","name":"Niepubliczne Sportowe Przedszkole \"Olimpijczyk\" w Wa\u0142brzychu","addr:country":"PL","addr:postcode":"58-316","addr:city":"Wa\u0142brzych","addr:street":"ul. Grodzka","addr:housenumber":"71","addr:teryt:simc":6163,"addr:teryt:sym_ul":983681,"contact:phone":"+48 746651390","contact:email":"fundacjamojaszkola@wp.pl","ref:regon":"022244015","operator":"Fundacja \"Moja Szko\u0142a\"","operator:type":"ngo","amenity":"kindergarten"}},{"id":271787,"type":"Feature","geometry":{"type":"Point","coordinates":[16.27386,50.82355]},"properties":{"ref:rspo":271787,"official_name":"Zesp\u00f3\u0142 Szkolno-Przedszkolny Nr 6 w Wa\u0142brzychu","name":"Zesp\u00f3\u0142 Szkolno-Przedszkolny Nr 6 w Wa\u0142brzychu","addr:country":"PL","addr:postcode":"58-316","addr:city":"Wa\u0142brzych","addr:street":"ul. Grodzka","addr:housenumber":"71","addr:teryt:simc":6163,"addr:teryt:sym_ul":983681,"contact:phone":"+48 746648844","contact:email":"sekretariat@zsp6.walbrzych.pl","ref:regon":"383653337","operator":"Gmina Wa\u0142brzych - Miasto Na Prawach Powiatu","operator:type":"government","landuse":"education","fixme":"amenity=school, amenity=college albo landuse=education w zale\u017cno\u015bci od tego, jakie plac\u00f3wki wchodz\u0105 w sk\u0142ad zespo\u0142u. Sprawd\u017a, kiedy stosowa\u0107 amenity=* a kiedy landuse=education.","note":"Children RSPO: 10794;271786"}},{"id":10794,"type":"Feature","geometry":{"type":"Point","coordinates":[16.27386,50.82352]},"properties":{"isced:level":"1;2","ref:rspo":10794,"official_name":"Publiczna Szko\u0142a Podstawowa Nr 21 im. Olimpijczyk\u00f3w Polskich w Wa\u0142brzychu","name":"Publiczna Szko\u0142a Podstawowa Nr 21","addr:country":"PL","addr:postcode":"58-316","addr:city":"Wa\u0142brzych","addr:street":"ul. Grodzka","addr:housenumber":"71","addr:teryt:simc":6163,"addr:teryt:sym_ul":983681,"contact:phone":"+48 746648844","contact:email":"zsp6@walbrzych.edu.pl","contact:website":"http:\/\/zsp6.walbrzych.pl","ref:regon":"001094693","ref:vatin":"PL8861067300","operator":"Gmina Wa\u0142brzych - Miasto Na Prawach Powiatu","operator:type":"government","amenity":"school","note":"Parent RSPO: 271787"}},{"id":271786,"type":"Feature","geometry":{"type":"Point","coordinates":[16.27386,50.82349]},"properties":{"ref:rspo":271786,"official_name":"Przedszkole Samorz\u0105dowe Nr 6 w Wa\u0142brzychu","name":"Przedszkole Samorz\u0105dowe Nr 6 w Wa\u0142brzychu","addr:country":"PL","addr:postcode":"58-316","addr:city":"Wa\u0142brzych","addr:street":"ul. Grodzka","addr:housenumber":"71","addr:teryt:simc":6163,"addr:teryt:sym_ul":983681,"contact:phone":"+48 746648844","contact:email":"zsp6@walbrzych.edu.pl","ref:regon":"383653254","operator":"Gmina Wa\u0142brzych - Miasto Na Prawach Powiatu","operator:type":"government","amenity":"kindergarten","note":"Parent RSPO: 271787"}},{"id":12175,"type":"Feature","geometry":{"type":"Point","coordinates":[16.29057,50.82364]},"properties":{"isced:level":"3","ref:rspo":12175,"official_name":"Prywatne Liceum Og\u00f3lnokszta\u0142c\u0105ce Zgromadzenia Si\u00f3str Niepokalanego Pocz\u0119cia Nmp im. B\u0142.m.darowskiej w Wa\u0142brzychu","name":"Prywatne Liceum Og\u00f3lnokszta\u0142c\u0105ce Zgromadzenia Si\u00f3str Niepokalanego Pocz\u0119cia Nmp","addr:country":"PL","addr:postcode":"58-305","addr:city":"Wa\u0142brzych","addr:street":"pl. Marceliny Darowskiej","addr:housenumber":"1","addr:teryt:simc":3620,"addr:teryt:sym_ul":983681,"contact:phone":"+48 748485155","contact:email":"plosniep@pro.onet.pl","contact:website":"http:\/\/www.walbrzych.niepokalanki.pl","ref:regon":"021967705","ref:vatin":"PL8861382792","operator":"Zgromadzenie Si\u00f3str Niepokalanego Pocz\u0119cia Nmp Dom Zakonny","operator:type":"religious","amenity":"school"}},{"id":11065,"type":"Feature","geometry":{"type":"Point","coordinates":[16.28005,50.82636]},"properties":{"isced:level":"1;2","ref:rspo":11065,"official_name":"Publiczna Szko\u0142a Podstawowa Z Oddzia\u0142ami Integracyjnymi Nr 26 im. Komisji Edukacji Narodowej w Wa\u0142brzychu","name":"Publiczna Szko\u0142a Podstawowa Z Oddzia\u0142ami Integracyjnymi Nr 26","addr:country":"PL","addr:postcode":"58-316","addr:city":"Wa\u0142brzych","addr:street":"ul. Palisadowa","addr:housenumber":"48","addr:teryt:simc":15577,"addr:teryt:sym_ul":983681,"contact:phone":"+48 748432186","contact:email":"psp26@walbrzych.edu.pl","ref:regon":"890255890","ref:vatin":"PL8862807101","operator":"Gmina Wa\u0142brzych - Miasto Na Prawach Powiatu","operator:type":"government","amenity":"school"}}]}