{
    "type": "FeatureCollection",
    "features": [
        {
            "id": 127385,
            "type": "Feature",
            "geometry": {
                "type": "Point",
                "coordinates": [
                    16.0171696,
                    53.6746765
                ]
            },
            "properties": {
                "ref:rspo": 127385,
                "official_name": "Centrum Szkoleniowe \"Wirja\"",
                "name": "Centrum Szkoleniowe \"Wirja\"",
                "addr:postcode": "78-320",
                "addr:place": "Gawroniec",
                "addr:housenumber": "13",
                "addr:door": "2",
                "addr:city:simc": 310114,
                "phone": "+48 502049626",
                "ref:regon": "361499971",
                "operator": "Dane Do Uzupe\u0142nienia",
                "operator:type": "private"
            }
        },
        {
            "id": 278688,
            "type": "Feature",
            "geometry": {
                "type": "Point",
                "coordinates": [
                    16.045061,
                    53.693196
                ]
            },
            "properties": {
                "ref:rspo": 278688,
                "official_name": "O\u015brodek-Rehabilitacyjno-Edukacyjno-Wychowawczy w Toporzyku",
                "name": "O\u015brodek-Rehabilitacyjno-Edukacyjno-Wychowawczy w Toporzyku",
                "addr:postcode": "78-320",
                "addr:place": "Toporzyk",
                "addr:housenumber": "23",
                "addr:city:simc": 310090,
                "email": "radosc_z_zycia@wp.pl",
                "ref:regon": "520038715",
                "operator": "Stowarzyszenie Pomocy Dzieciom Niepe\u0142nosprawnym \"Rado\u015b\u0107 Z \u017bycia\"",
                "operator:type": "ngo",
                "amenity": "school"
            }
        },
        {
            "id": 79680,
            "type": "Feature",
            "geometry": {
                "type": "Point",
                "coordinates": [
                    16.07657,
                    53.74943
                ]
            },
            "properties": {
                "ref:rspo": 79680,
                "official_name": "Przedszkole Samorz\u0105dowe nr 2 Pod Jarz\u0119bink\u0105 w Po\u0142czynie-Zdroju",
                "name": "Przedszkole Samorz\u0105dowe nr 2 Pod Jarz\u0119bink\u0105 w Po\u0142czynie-Zdroju",
                "addr:postcode": "78-320",
                "addr:city": "Po\u0142czyn-Zdr\u00f3j",
                "addr:street": "Sobieskiego",
                "addr:housenumber": "10",
                "addr:city:simc": 950144,
                "addr:street:sym_ul": 20421,
                "phone": "+48 943662132",
                "email": "przedszkole2.polczynzdroj@onet.pl",
                "ref:regon": "320770606",
                "ref:vatin": "PL6722050909",
                "operator": "Gmina Po\u0142czyn Zdr\u00f3j",
                "operator:type": "government",
                "amenity": "kindergarten"
            }
        },
        {
            "id": 277654,
            "type": "Feature",
            "geometry": {
                "type": "Point",
                "coordinates": [
                    16.10081,
                    53.76161
                ]
            },
            "properties": {
                "ref:rspo": 277654,
                "official_name": "Zesp\u00f3\u0142 Szkolno-Przedszkolny z Oddzia\u0142ami Integracyjnymi",
                "name": "Zesp\u00f3\u0142 Szkolno-Przedszkolny z Oddzia\u0142ami Integracyjnymi",
                "addr:postcode": "78-320",
                "addr:city": "Po\u0142czyn-Zdr\u00f3j",
                "addr:street": "Mieszka I",
                "addr:housenumber": "19",
                "addr:city:simc": 950144,
                "addr:street:sym_ul": 12832,
                "phone": "+48 943650750",
                "email": "spnr2.polczyn@gimpol.pl",
                "website": "https:\/\/sp2polczyn.edupage.org",
                "ref:regon": "389262980",
                "operator": "Gmina Po\u0142czyn Zdr\u00f3j",
                "operator:type": "government",
                "landuse": "education",
                "fixme": "amenity=school, amenity=college albo landuse=education w zale\u017cno\u015bci od tego, jakie plac\u00f3wki wchodz\u0105 w sk\u0142ad zespo\u0142u. Sprawd\u017a, kiedy stosowa\u0107 amenity=* a kiedy landuse=education.",
                "note": "Children RSPO: 79679;262355"
            }
        },
        {
            "id": 79679,
            "type": "Feature",
            "geometry": {
                "type": "Point",
                "coordinates": [
                    16.10081,
                    53.761579999999995
                ]
            },
            "properties": {
                "ref:rspo": 79679,
                "official_name": "Przedszkole Samorz\u0105dowe nr 1 im. Kubusia Puchatka w Po\u0142czynie-Zdroju",
                "name": "Przedszkole Samorz\u0105dowe nr 1",
                "addr:postcode": "78-320",
                "addr:city": "Po\u0142czyn-Zdr\u00f3j",
                "addr:street": "Mieszka I",
                "addr:housenumber": "19",
                "addr:city:simc": 950144,
                "addr:street:sym_ul": 12832,
                "phone": "+48 943650750",
                "email": "spnr2.polczyn@gimpol.pl",
                "ref:regon": "320770635",
                "ref:vatin": "PL6722050890",
                "operator": "Gmina Po\u0142czyn Zdr\u00f3j",
                "operator:type": "government",
                "amenity": "kindergarten",
                "note": "Parent RSPO: 277654"
            }
        },
        {
            "id": 262355,
            "type": "Feature",
            "geometry": {
                "type": "Point",
                "coordinates": [
                    16.10081,
                    53.76155
                ]
            },
            "properties": {
                "isced:level": "1;2",
                "ref:rspo": 262355,
                "official_name": "Szko\u0142a Podstawowa nr 2 im. Miko\u0142aja Kopernika w Po\u0142czynie-Zdroju",
                "name": "Szko\u0142a Podstawowa nr 2",
                "addr:postcode": "78-320",
                "addr:city": "Po\u0142czyn-Zdr\u00f3j",
                "addr:street": "Mieszka I",
                "addr:housenumber": "19",
                "addr:city:simc": 950144,
                "addr:street:sym_ul": 12832,
                "phone": "+48 943650750",
                "email": "spnr2.polczyn@gimpol.pl",
                "ref:regon": "367990751",
                "operator": "Gmina Po\u0142czyn Zdr\u00f3j",
                "operator:type": "government",
                "amenity": "school",
                "note": "Parent RSPO: 277654"
            }
        },
        {
            "id": 79683,
            "type": "Feature",
            "geometry": {
                "type": "Point",
                "coordinates": [
                    16.10156,
                    53.76768
                ]
            },
            "properties": {
                "ref:rspo": 79683,
                "official_name": "Niepubliczne Przedszkole Si\u00f3str Salezjanek w Po\u0142czynie-Zdroju",
                "name": "Niepubliczne Przedszkole Si\u00f3str Salezjanek w Po\u0142czynie-Zdroju",
                "addr:postcode": "78-320",
                "addr:city": "Po\u0142czyn-Zdr\u00f3j",
                "addr:street": "W\u0105ska",
                "addr:housenumber": "5",
                "addr:city:simc": 950144,
                "addr:street:sym_ul": 23795,
                "phone": "+48 943662113",
                "email": "polczynp@cmw.osw.pl",
                "ref:regon": "321298726",
                "ref:vatin": "PL6721682406",
                "operator": "Zgromadzenie C\u00f3rek Maryi Wspomo\u017cycielki (Siostry Salezjanki) Inspektoria Wroc\u0142awska",
                "operator:type": "religious",
                "amenity": "kindergarten"
            }
        },
        {
            "id": 17064,
            "type": "Feature",
            "geometry": {
                "type": "Point",
                "coordinates": [
                    16.0951999,
                    53.76776
                ]
            },
            "properties": {
                "isced:level": "4",
                "ref:rspo": 17064,
                "official_name": "Szko\u0142a Policealna Zdz w Po\u0142czynie-Zdroju",
                "name": "Szko\u0142a Policealna Zdz w Po\u0142czynie-Zdroju",
                "addr:postcode": "78-320",
                "addr:city": "Po\u0142czyn-Zdr\u00f3j",
                "addr:street": "Grunwaldzka",
                "addr:housenumber": "34",
                "addr:city:simc": 950144,
                "addr:street:sym_ul": 6260,
                "phone": "+48 943664603",
                "email": "polczyn@zdz.slupsk.pl",
                "website": "http:\/\/www.ipolczynzdz.edu.pl",
                "ref:regon": "321277983",
                "operator": "Zak\u0142ad Doskonalenia Zawodowego W S\u0142upsku",
                "operator:type": "ngo",
                "amenity": "college"
            }
        },
        {
            "id": 17142,
            "type": "Feature",
            "geometry": {
                "type": "Point",
                "coordinates": [
                    16.0951999,
                    53.76773
                ]
            },
            "properties": {
                "isced:level": "3",
                "ref:rspo": 17142,
                "official_name": "Liceum Og\u00f3lnokszta\u0142cace dla Doros\u0142ych Zdz w Po\u0142czynie-Zdroju",
                "name": "Liceum Og\u00f3lnokszta\u0142cace dla Doros\u0142ych Zdz w Po\u0142czynie-Zdroju",
                "addr:postcode": "78-320",
                "addr:city": "Po\u0142czyn-Zdr\u00f3j",
                "addr:street": "Grunwaldzka",
                "addr:housenumber": "34",
                "addr:city:simc": 950144,
                "addr:street:sym_ul": 6260,
                "phone": "+48 943664603",
                "email": "polczyn@zdz.slupsk.pl",
                "website": "http:\/\/www.ipolczynzdz.edu.pl",
                "ref:regon": "321278020",
                "operator": "Zak\u0142ad Doskonalenia Zawodowego W S\u0142upsku",
                "operator:type": "ngo",
                "amenity": "school"
            }
        },
        {
            "id": 79677,
            "type": "Feature",
            "geometry": {
                "type": "Point",
                "coordinates": [
                    16.0951999,
                    53.767700000000005
                ]
            },
            "properties": {
                "isced:level": "1;2",
                "ref:rspo": 79677,
                "official_name": "Szko\u0142a Podstawowa nr 1 im. Adama Mickiewicza w Po\u0142czynie-Zdroju",
                "name": "Szko\u0142a Podstawowa nr 1",
                "addr:postcode": "78-320",
                "addr:city": "Po\u0142czyn-Zdr\u00f3j",
                "addr:street": "Grunwaldzka",
                "addr:housenumber": "34",
                "addr:city:simc": 950144,
                "addr:street:sym_ul": 6260,
                "phone": "+48 943662695",
                "email": "pspnr1@post.pl",
                "website": "http:\/\/www.psppolczyn.pl\/",
                "ref:regon": "000257035",
                "ref:vatin": "PL6721159053",
                "operator": "Gmina Po\u0142czyn Zdr\u00f3j",
                "operator:type": "government",
                "amenity": "school"
            }
        },
        {
            "id": 120707,
            "type": "Feature",
            "geometry": {
                "type": "Point",
                "coordinates": [
                    16.09393,
                    53.76843
                ]
            },
            "properties": {
                "ref:rspo": 120707,
                "official_name": "Zesp\u00f3\u0142 Plac\u00f3wek O\u015bwiatowych w Po\u0142czynie - Zdroju",
                "name": "Zesp\u00f3\u0142 Plac\u00f3wek O\u015bwiatowych w Po\u0142czynie - Zdroju",
                "addr:postcode": "78-320",
                "addr:city": "Po\u0142czyn-Zdr\u00f3j",
                "addr:street": "Grunwaldzka",
                "addr:housenumber": "33",
                "addr:city:simc": 950144,
                "addr:street:sym_ul": 6260,
                "phone": "+48 943662082",
                "email": "dwd@dwd-polczyn.pl",
                "website": "http:\/\/www.dwd-polczyn.pl",
                "ref:regon": "321443890",
                "operator": "Powiat \u015awidwi\u0144ski",
                "operator:type": "government",
                "landuse": "education",
                "fixme": "amenity=school, amenity=college albo landuse=education w zale\u017cno\u015bci od tego, jakie plac\u00f3wki wchodz\u0105 w sk\u0142ad zespo\u0142u. Sprawd\u017a, kiedy stosowa\u0107 amenity=* a kiedy landuse=education.",
                "note": "Children RSPO: 48373;120733"
            }
        },
        {
            "id": 48373,
            "type": "Feature",
            "geometry": {
                "type": "Point",
                "coordinates": [
                    16.09393,
                    53.7684
                ]
            },
            "properties": {
                "ref:rspo": 48373,
                "official_name": "Dom Wczas\u00f3w Dzieci\u0119cych w Po\u0142czynie - Zdroju",
                "name": "Dom Wczas\u00f3w Dzieci\u0119cych w Po\u0142czynie - Zdroju",
                "addr:postcode": "78-320",
                "addr:city": "Po\u0142czyn-Zdr\u00f3j",
                "addr:street": "Grunwaldzka",
                "addr:housenumber": "33",
                "addr:city:simc": 950144,
                "addr:street:sym_ul": 6260,
                "phone": "+48 943662093",
                "email": "dwd@dwd-polczyn.pl",
                "website": "http:\/\/www.dwd-polczyn.pl",
                "ref:regon": "331096831",
                "ref:vatin": "PL6721212959",
                "operator": "Powiat \u015awidwi\u0144ski",
                "operator:type": "government",
                "leisure": "resort",
                "note": "Parent RSPO: 120707"
            }
        },
        {
            "id": 120733,
            "type": "Feature",
            "geometry": {
                "type": "Point",
                "coordinates": [
                    16.09393,
                    53.768370000000004
                ]
            },
            "properties": {
                "ref:rspo": 120733,
                "official_name": "Bursa Szkolna w Po\u0142czynie - Zdroju",
                "name": "Bursa Szkolna w Po\u0142czynie - Zdroju",
                "addr:postcode": "78-320",
                "addr:city": "Po\u0142czyn-Zdr\u00f3j",
                "addr:street": "Grunwaldzka",
                "addr:housenumber": "33",
                "addr:city:simc": 950144,
                "addr:street:sym_ul": 6260,
                "phone": "+48 943662082",
                "email": "dwd@dwd-polczyn.pl",
                "website": "http:\/\/www.dwd-polczyn.pl",
                "ref:regon": "321444620",
                "operator": "Powiat \u015awidwi\u0144ski",
                "operator:type": "government",
                "building": "dormitory",
                "note": "Parent RSPO: 120707"
            }
        },
        {
            "id": 7496,
            "type": "Feature",
            "geometry": {
                "type": "Point",
                "coordinates": [
                    16.09983,
                    53.76881
                ]
            },
            "properties": {
                "ref:rspo": 7496,
                "official_name": "Zesp\u00f3\u0142 Szk\u00f3\u0142 w Po\u0142czynie - Zdroju",
                "name": "Zesp\u00f3\u0142 Szk\u00f3\u0142 w Po\u0142czynie - Zdroju",
                "addr:postcode": "78-320",
                "addr:city": "Po\u0142czyn-Zdr\u00f3j",
                "addr:street": "Stanis\u0142awa Staszica",
                "addr:housenumber": "6",
                "addr:city:simc": 950144,
                "addr:street:sym_ul": 21071,
                "phone": "+48 943662083",
                "email": "sekretariat@zspolczyn.edu.pl",
                "website": "http:\/\/www.zspolczyn.edu.pl",
                "ref:regon": "320710159",
                "ref:vatin": "PL6722047764",
                "operator": "Powiat \u015awidwi\u0144ski",
                "operator:type": "government",
                "landuse": "education",
                "fixme": "amenity=school, amenity=college albo landuse=education w zale\u017cno\u015bci od tego, jakie plac\u00f3wki wchodz\u0105 w sk\u0142ad zespo\u0142u. Sprawd\u017a, kiedy stosowa\u0107 amenity=* a kiedy landuse=education.",
                "note": "Children RSPO: 34809;35083;48717;48740"
            }
        },
        {
            "id": 34809,
            "type": "Feature",
            "geometry": {
                "type": "Point",
                "coordinates": [
                    16.09983,
                    53.76878
                ]
            },
            "properties": {
                "isced:level": "3",
                "ref:rspo": 34809,
                "official_name": "Liceum Og\u00f3lnokszta\u0142c\u0105ce im. Stanis\u0142awa Staszica",
                "name": "Liceum Og\u00f3lnokszta\u0142c\u0105ce",
                "addr:postcode": "78-320",
                "addr:city": "Po\u0142czyn-Zdr\u00f3j",
                "addr:street": "Stanis\u0142awa Staszica",
                "addr:housenumber": "6",
                "addr:city:simc": 950144,
                "addr:street:sym_ul": 21071,
                "phone": "+48 943662083",
                "email": "sekretariat@zspolczyn.edu.pl",
                "website": "http:\/\/www.zspolczyn.edu.pl",
                "ref:regon": "331096720",
                "ref:vatin": "PL6720008197",
                "operator": "Powiat \u015awidwi\u0144ski",
                "operator:type": "government",
                "amenity": "school",
                "note": "Parent RSPO: 7496"
            }
        },
        {
            "id": 35083,
            "type": "Feature",
            "geometry": {
                "type": "Point",
                "coordinates": [
                    16.09983,
                    53.768750000000004
                ]
            },
            "properties": {
                "isced:level": "3",
                "ref:rspo": 35083,
                "official_name": "Zaoczne Liceum Og\u00f3lnokszta\u0142c\u0105ce dla Doros\u0142ych",
                "name": "Zaoczne Liceum Og\u00f3lnokszta\u0142c\u0105ce dla Doros\u0142ych",
                "addr:postcode": "78-320",
                "addr:city": "Po\u0142czyn-Zdr\u00f3j",
                "addr:street": "Stanis\u0142awa Staszica",
                "addr:housenumber": "6",
                "addr:city:simc": 950144,
                "addr:street:sym_ul": 21071,
                "phone": "+48 943662083",
                "email": "sekretariat@zspolczyn.edu.pl",
                "website": "http:\/\/www.zspolczyn.pl",
                "ref:regon": "331432602",
                "operator": "Powiat \u015awidwi\u0144ski",
                "operator:type": "government",
                "amenity": "school",
                "note": "Parent RSPO: 7496"
            }
        },
        {
            "id": 48717,
            "type": "Feature",
            "geometry": {
                "type": "Point",
                "coordinates": [
                    16.09983,
                    53.76872
                ]
            },
            "properties": {
                "isced:level": "3",
                "ref:rspo": 48717,
                "official_name": "Bran\u017cowa Szko\u0142a I Stopnia",
                "name": "Bran\u017cowa Szko\u0142a I Stopnia",
                "addr:postcode": "78-320",
                "addr:city": "Po\u0142czyn-Zdr\u00f3j",
                "addr:street": "Stanis\u0142awa Staszica",
                "addr:housenumber": "6",
                "addr:city:simc": 950144,
                "addr:street:sym_ul": 21071,
                "phone": "+48 943662083",
                "email": "sekretariat@zspolczyn.edu.pl",
                "website": "http:\/\/www.zspolczyn.edu.pl",
                "ref:regon": "331354635",
                "operator": "Powiat \u015awidwi\u0144ski",
                "operator:type": "government",
                "amenity": "school",
                "note": "Parent RSPO: 7496"
            }
        },
        {
            "id": 48740,
            "type": "Feature",
            "geometry": {
                "type": "Point",
                "coordinates": [
                    16.09983,
                    53.76869
                ]
            },
            "properties": {
                "isced:level": "3",
                "ref:rspo": 48740,
                "official_name": "Technikum w Po\u0142czynie-Zdroju",
                "name": "Technikum w Po\u0142czynie-Zdroju",
                "addr:postcode": "78-320",
                "addr:city": "Po\u0142czyn-Zdr\u00f3j",
                "addr:street": "Stanis\u0142awa Staszica",
                "addr:housenumber": "6",
                "addr:city:simc": 950144,
                "addr:street:sym_ul": 21071,
                "phone": "+48 943662083",
                "email": "sekretariat@zspolczyn.edu.pl",
                "website": "http:\/\/www.zspolczyn.edu.pl",
                "ref:regon": "331354629",
                "operator": "Powiat \u015awidwi\u0144ski",
                "operator:type": "government",
                "amenity": "school",
                "note": "Parent RSPO: 7496"
            }
        },
        {
            "id": 60508,
            "type": "Feature",
            "geometry": {
                "type": "Point",
                "coordinates": [
                    16.09766,
                    53.76895
                ]
            },
            "properties": {
                "ref:rspo": 60508,
                "official_name": "Marek Kowalski Studium J\u0119zyka Angielskiego \"Green Hill\" w Po\u0142czynie-Zdroju",
                "name": "Marek Kowalski Studium J\u0119zyka Angielskiego \"Green Hill\" w Po\u0142czynie-Zdroju",
                "addr:postcode": "78-320",
                "addr:city": "Po\u0142czyn-Zdr\u00f3j",
                "addr:street": "22 Lipca",
                "addr:housenumber": "1",
                "addr:city:simc": 950144,
                "addr:street:sym_ul": 11102,
                "phone": "+48 943662857",
                "ref:regon": "321293108",
                "ref:vatin": "PL6721030075",
                "operator": "Dane Do Uzupe\u0142nienia",
                "operator:type": "private"
            }
        },
        {
            "id": 48366,
            "type": "Feature",
            "geometry": {
                "type": "Point",
                "coordinates": [
                    16.091899871826,
                    53.769649505615
                ]
            },
            "properties": {
                "ref:rspo": 48366,
                "official_name": "Poradnia Psychologiczno - Pedagogiczna w Po\u0142czynie - Zdroju",
                "name": "Poradnia Psychologiczno - Pedagogiczna w Po\u0142czynie - Zdroju",
                "addr:postcode": "78-320",
                "addr:city": "Po\u0142czyn-Zdr\u00f3j",
                "addr:street": "Jana Paw\u0142a II",
                "addr:housenumber": "4",
                "addr:city:simc": 950144,
                "addr:street:sym_ul": 7123,
                "phone": "+48 943662963",
                "email": "poradniapz@gmail.com",
                "website": "http:\/\/www.polczynzdroj.naszaporadnia.com",
                "ref:regon": "331096854",
                "ref:vatin": "PL6721187977",
                "operator": "Powiat \u015awidwi\u0144ski",
                "operator:type": "government",
                "healthcare": "counselling",
                "counselling_type": "education",
                "fixme": "w zale\u017cno\u015bci od przedmiotu dzia\u0142alno\u015bci (np. healthcare=counselling + counselling_type=education albo healthcare=psychotherapist)"
            }
        },
        {
            "id": 79682,
            "type": "Feature",
            "geometry": {
                "type": "Point",
                "coordinates": [
                    15.958573,
                    53.77543
                ]
            },
            "properties": {
                "ref:rspo": 79682,
                "official_name": "Przedszkole Samorz\u0105dowe S\u0142oneczna Kraina w Redle",
                "name": "Przedszkole Samorz\u0105dowe S\u0142oneczna Kraina w Redle",
                "addr:postcode": "78-320",
                "addr:place": "Red\u0142o",
                "addr:housenumber": "60",
                "addr:city:simc": 310019,
                "phone": "+48 943645475",
                "email": "ps.redlo@wp.pl",
                "ref:regon": "320770724",
                "ref:vatin": "PL6722050915",
                "operator": "Gmina Po\u0142czyn Zdr\u00f3j",
                "operator:type": "government",
                "amenity": "kindergarten"
            }
        },
        {
            "id": 92142,
            "type": "Feature",
            "geometry": {
                "type": "Point",
                "coordinates": [
                    15.97003,
                    53.776583
                ]
            },
            "properties": {
                "isced:level": "1;2",
                "ref:rspo": 92142,
                "official_name": "Szko\u0142a Podstawowa im. Jana Paw\u0142a II w Redle",
                "name": "Szko\u0142a Podstawowa",
                "addr:postcode": "78-320",
                "addr:place": "Red\u0142o",
                "addr:housenumber": "12",
                "addr:city:simc": 310019,
                "phone": "+48 943645578",
                "email": "zspredlo@wp.pl",
                "website": "http:\/\/www.szkola.redlo.eu",
                "ref:regon": "331038443",
                "ref:vatin": "PL6721752874",
                "operator": "Gmina Po\u0142czyn Zdr\u00f3j",
                "operator:type": "government",
                "amenity": "school"
            }
        },
        {
            "id": 79676,
            "type": "Feature",
            "geometry": {
                "type": "Point",
                "coordinates": [
                    16.0699079,
                    53.855105
                ]
            },
            "properties": {
                "isced:level": "1;2",
                "ref:rspo": 79676,
                "official_name": "Szko\u0142a Podstawowa im. Kardyna\u0142a Stefana Wyszy\u0144skiego w Bolkowie",
                "name": "Szko\u0142a Podstawowa",
                "addr:postcode": "78-320",
                "addr:place": "Bolkowo",
                "addr:housenumber": "10",
                "addr:city:simc": 309520,
                "phone": "+48 943661777",
                "email": "szkola_bolkowo@wp.pl",
                "ref:regon": "001175262",
                "ref:vatin": "PL6721159053",
                "operator": "Gmina Po\u0142czyn Zdr\u00f3j",
                "operator:type": "government",
                "amenity": "school"
            }
        }
    ]
}