{
    "type": "FeatureCollection",
    "features": [
        {
            "id": 9079,
            "type": "Feature",
            "geometry": {
                "type": "Point",
                "coordinates": [
                    15.77304,
                    53.7689
                ]
            },
            "properties": {
                "ref:rspo": 9079,
                "official_name": "Poradnia Psychologiczno-Pedagogiczna w \u015awidwinie",
                "name": "Poradnia Psychologiczno-Pedagogiczna w \u015awidwinie",
                "addr:country": "PL",
                "addr:postcode": "78-300",
                "addr:city": "\u015awidwin",
                "addr:street": "Drawska",
                "addr:housenumber": "32",
                "addr:teryt:simc": 4168,
                "addr:teryt:sym_ul": 950322,
                "contact:phone": "+48 943652330",
                "contact:email": "pppswidwin@tlen.pl",
                "contact:website": "http:\/\/www.poradniaswidwin.ovh.org",
                "ref:regon": "331248940",
                "ref:vatin": "PL6721825484",
                "operator": "Powiat \u015awidwi\u0144ski",
                "operator:type": "government",
                "healthcare": "counselling",
                "counselling_type": "education",
                "fixme": "w zale\u017cno\u015bci od przedmiotu dzia\u0142alno\u015bci (np. healthcare=counselling + counselling_type=education albo healthcare=psychotherapist)"
            }
        },
        {
            "id": 40943,
            "type": "Feature",
            "geometry": {
                "type": "Point",
                "coordinates": [
                    15.77356,
                    53.77061
                ]
            },
            "properties": {
                "ref:rspo": 40943,
                "official_name": "Publiczne Przedszkole Nr 1 im. Kubusia Puchatka w \u015awidwinie",
                "name": "Publiczne Przedszkole Nr 1",
                "addr:country": "PL",
                "addr:postcode": "78-300",
                "addr:city": "\u015awidwin",
                "addr:street": "Drawska",
                "addr:housenumber": "30",
                "addr:teryt:simc": 4168,
                "addr:teryt:sym_ul": 950322,
                "contact:phone": "+48 943652093",
                "contact:email": "ppn1-1991@o2.pl",
                "contact:website": "http:\/\/www.kubuspuchatek1991.pl",
                "ref:regon": "331360328",
                "operator": "Gmina Miejska \u015awidwin",
                "operator:type": "government",
                "amenity": "kindergarten"
            }
        },
        {
            "id": 41023,
            "type": "Feature",
            "geometry": {
                "type": "Point",
                "coordinates": [
                    15.77135,
                    53.77165
                ]
            },
            "properties": {
                "ref:rspo": 41023,
                "official_name": "Publiczne Przedszkole Nr 2 \"Pod Topol\u0105\" w \u015awidwinie",
                "name": "Publiczne Przedszkole Nr 2 \"Pod Topol\u0105\" w \u015awidwinie",
                "addr:country": "PL",
                "addr:postcode": "78-300",
                "addr:city": "\u015awidwin",
                "addr:street": "Sportowa",
                "addr:housenumber": "3",
                "addr:teryt:simc": 20683,
                "addr:teryt:sym_ul": 950322,
                "contact:phone": "+48 943653202",
                "contact:email": "podtopola3@op.pl",
                "contact:website": "http:\/\/www.podtopola.swidwin.pl\/",
                "ref:regon": "331360334",
                "ref:vatin": "PL6721759853",
                "operator": "Gmina Miejska \u015awidwin",
                "operator:type": "government",
                "amenity": "kindergarten"
            }
        },
        {
            "id": 114495,
            "type": "Feature",
            "geometry": {
                "type": "Point",
                "coordinates": [
                    15.76067,
                    53.77214
                ]
            },
            "properties": {
                "ref:rspo": 114495,
                "official_name": "O\u015brodek Rewalidacyjno-Wychowawczy w \u015awidwinie",
                "name": "O\u015brodek Rewalidacyjno-Wychowawczy w \u015awidwinie",
                "addr:country": "PL",
                "addr:postcode": "78-300",
                "addr:city": "\u015awidwin",
                "addr:street": "Szczeci\u0144ska",
                "addr:housenumber": "87",
                "addr:teryt:simc": 21805,
                "addr:teryt:sym_ul": 950322,
                "contact:phone": "+48 943652124",
                "contact:email": "sekretariat@soswslawoborze.pl",
                "ref:regon": "321372434",
                "operator": "Powiat \u015awidwi\u0144ski",
                "operator:type": "government",
                "amenity": "school",
                "note": "Parent RSPO: 114379"
            }
        },
        {
            "id": 262230,
            "type": "Feature",
            "geometry": {
                "type": "Point",
                "coordinates": [
                    15.7838,
                    53.77219
                ]
            },
            "properties": {
                "isced:level": "1;2",
                "ref:rspo": 262230,
                "official_name": "Publiczna Szko\u0142a Podstawowa Nr 4 im. Osadnik\u00f3w Wojskowych w \u015awidwinie",
                "name": "Publiczna Szko\u0142a Podstawowa Nr 4",
                "addr:country": "PL",
                "addr:postcode": "78-300",
                "addr:city": "\u015awidwin",
                "addr:street": "Kombatant\u00f3w Polskich",
                "addr:housenumber": "6",
                "addr:teryt:simc": 9046,
                "addr:teryt:sym_ul": 950322,
                "contact:phone": "+48 943653021",
                "contact:email": "dyrpsp4@swidwin.nazwa.pl",
                "ref:regon": "367992879",
                "operator": "Gmina Miejska \u015awidwin",
                "operator:type": "government",
                "amenity": "school"
            }
        },
        {
            "id": 7495,
            "type": "Feature",
            "geometry": {
                "type": "Point",
                "coordinates": [
                    15.76157,
                    53.77274
                ]
            },
            "properties": {
                "ref:rspo": 7495,
                "official_name": "Zesp\u00f3\u0142 Szk\u00f3\u0142 Rolniczych Centrum Kszta\u0142cenia Zawodowego im. Stefana \u017beromskiego w \u015awidwinie",
                "name": "Zesp\u00f3\u0142 Szk\u00f3\u0142 Rolniczych Centrum Kszta\u0142cenia Zawodowego",
                "addr:country": "PL",
                "addr:postcode": "78-300",
                "addr:city": "\u015awidwin",
                "addr:street": "Szczeci\u0144ska",
                "addr:housenumber": "88",
                "addr:teryt:simc": 21805,
                "addr:teryt:sym_ul": 950322,
                "contact:phone": "+48 943650812",
                "contact:email": "zsrckp@poczta.onet.pl",
                "contact:website": "http:\/\/www.zsrckp.com",
                "ref:regon": "331082332",
                "ref:vatin": "PL6721143224",
                "operator": "Powiat \u015awidwi\u0144ski",
                "operator:type": "government",
                "landuse": "education",
                "fixme": "amenity=school, amenity=college albo landuse=education w zale\u017cno\u015bci od tego, jakie plac\u00f3wki wchodz\u0105 w sk\u0142ad zespo\u0142u. Sprawd\u017a, kiedy stosowa\u0107 amenity=* a kiedy landuse=education.",
                "note": "Children RSPO: 17742;31958;31959;51246;55867;118434;275216"
            }
        },
        {
            "id": 127438,
            "type": "Feature",
            "geometry": {
                "type": "Point",
                "coordinates": [
                    15.76157,
                    53.77271
                ]
            },
            "properties": {
                "ref:rspo": 127438,
                "official_name": "Centrum Szkolenia Efekt",
                "name": "Centrum Szkolenia Efekt",
                "addr:country": "PL",
                "addr:postcode": "78-300",
                "addr:city": "\u015awidwin",
                "addr:street": "Szczeci\u0144ska",
                "addr:housenumber": "88",
                "addr:teryt:simc": 21805,
                "addr:teryt:sym_ul": 950322,
                "contact:phone": "+48 885808058",
                "ref:regon": "361579925",
                "operator": "Centrum Szkolenia Efekt Zofia Taczalska",
                "operator:type": "consortium"
            }
        },
        {
            "id": 17742,
            "type": "Feature",
            "geometry": {
                "type": "Point",
                "coordinates": [
                    15.76157,
                    53.77268
                ]
            },
            "properties": {
                "isced:level": "3",
                "ref:rspo": 17742,
                "official_name": "Bran\u017cowa Szko\u0142a I Stopnia Nr 1",
                "name": "Bran\u017cowa Szko\u0142a I Stopnia Nr 1",
                "addr:country": "PL",
                "addr:postcode": "78-300",
                "addr:city": "\u015awidwin",
                "addr:street": "Szczeci\u0144ska",
                "addr:housenumber": "88",
                "addr:teryt:simc": 21805,
                "addr:teryt:sym_ul": 950322,
                "contact:phone": "+48 943652582",
                "contact:email": "zsrckp@poczta.onet.pl",
                "contact:website": "http:\/\/www.zsrckp.com",
                "ref:regon": "331451918",
                "operator": "Powiat \u015awidwi\u0144ski",
                "operator:type": "government",
                "amenity": "school",
                "note": "Parent RSPO: 7495"
            }
        },
        {
            "id": 31958,
            "type": "Feature",
            "geometry": {
                "type": "Point",
                "coordinates": [
                    15.76157,
                    53.77265
                ]
            },
            "properties": {
                "isced:level": "3",
                "ref:rspo": 31958,
                "official_name": "Technikum",
                "name": "Technikum",
                "addr:country": "PL",
                "addr:postcode": "78-300",
                "addr:city": "\u015awidwin",
                "addr:street": "Szczeci\u0144ska",
                "addr:housenumber": "88",
                "addr:teryt:simc": 21805,
                "addr:teryt:sym_ul": 950322,
                "contact:phone": "+48 943652582",
                "contact:email": "zsrckp@poczta.onet.pl",
                "contact:website": "http:\/\/www.zsrckp.com",
                "ref:regon": "331451893",
                "operator": "Powiat \u015awidwi\u0144ski",
                "operator:type": "government",
                "amenity": "school",
                "note": "Parent RSPO: 7495"
            }
        },
        {
            "id": 31959,
            "type": "Feature",
            "geometry": {
                "type": "Point",
                "coordinates": [
                    15.76157,
                    53.772619999999996
                ]
            },
            "properties": {
                "isced:level": "4",
                "ref:rspo": 31959,
                "official_name": "Szko\u0142a Policealna Nr 1",
                "name": "Szko\u0142a Policealna Nr 1",
                "addr:country": "PL",
                "addr:postcode": "78-300",
                "addr:city": "\u015awidwin",
                "addr:street": "Szczeci\u0144ska",
                "addr:housenumber": "88",
                "addr:teryt:simc": 21805,
                "addr:teryt:sym_ul": 950322,
                "contact:phone": "+48 943652582",
                "contact:email": "zsrckp@poczta.onet.pl",
                "contact:website": "http:\/\/www.zsrckp.com",
                "ref:regon": "320092129",
                "operator": "Powiat \u015awidwi\u0144ski",
                "operator:type": "government",
                "amenity": "college",
                "note": "Parent RSPO: 7495"
            }
        },
        {
            "id": 51246,
            "type": "Feature",
            "geometry": {
                "type": "Point",
                "coordinates": [
                    15.76157,
                    53.77259
                ]
            },
            "properties": {
                "ref:rspo": 51246,
                "official_name": "Szkolne Schronisko M\u0142odzie\u017cowe",
                "name": "Szkolne Schronisko M\u0142odzie\u017cowe",
                "addr:country": "PL",
                "addr:postcode": "78-300",
                "addr:city": "\u015awidwin",
                "addr:street": "Szczeci\u0144ska",
                "addr:housenumber": "88",
                "addr:teryt:simc": 21805,
                "addr:teryt:sym_ul": 950322,
                "contact:phone": "+48 943652582",
                "contact:email": "zsrckp@poczta.onet.pl",
                "contact:website": "http:\/\/www.zsrckp.com",
                "ref:regon": "321290239",
                "operator": "Powiat \u015awidwi\u0144ski",
                "operator:type": "government",
                "tourism": "hostel",
                "note": "Parent RSPO: 7495"
            }
        },
        {
            "id": 55867,
            "type": "Feature",
            "geometry": {
                "type": "Point",
                "coordinates": [
                    15.76157,
                    53.77256
                ]
            },
            "properties": {
                "ref:rspo": 55867,
                "official_name": "Centrum Kszta\u0142cenia Zawodowego w \u015awidwinie",
                "name": "Centrum Kszta\u0142cenia Zawodowego w \u015awidwinie",
                "addr:country": "PL",
                "addr:postcode": "78-300",
                "addr:city": "\u015awidwin",
                "addr:street": "Szczeci\u0144ska",
                "addr:housenumber": "88",
                "addr:teryt:simc": 21805,
                "addr:teryt:sym_ul": 950322,
                "contact:phone": "+48 943652582",
                "contact:email": "zsrckp@poczta.onet.pl",
                "contact:website": "http:\/\/www.zsrckp.com",
                "ref:regon": "321290067",
                "operator": "Powiat \u015awidwi\u0144ski",
                "operator:type": "government",
                "fixme": "w zale\u017cno\u015bci od przedmiotu dzia\u0142alno\u015bci (np. amenity=training + training=*, amenity=dancing_school, amenity=language_school, amenity=music_school) albo amenity=school, amenity=college, albo landuse=education w zale\u017cno\u015bci od tego, jakie plac\u00f3wki wchodz\u0105 w sk\u0142ad zespo\u0142u. Sprawd\u017a, kiedy stosowa\u0107 amenity=* a kiedy landuse=education.",
                "note": "Parent RSPO: 7495"
            }
        },
        {
            "id": 118434,
            "type": "Feature",
            "geometry": {
                "type": "Point",
                "coordinates": [
                    15.76157,
                    53.772529999999996
                ]
            },
            "properties": {
                "isced:level": "3",
                "ref:rspo": 118434,
                "official_name": "Ii Liceum Og\u00f3lnokszta\u0142c\u0105ce dla Doros\u0142ych",
                "name": "Ii Liceum Og\u00f3lnokszta\u0142c\u0105ce dla Doros\u0142ych",
                "addr:country": "PL",
                "addr:postcode": "78-300",
                "addr:city": "\u015awidwin",
                "addr:street": "Szczeci\u0144ska",
                "addr:housenumber": "88",
                "addr:teryt:simc": 21805,
                "addr:teryt:sym_ul": 950322,
                "contact:phone": "+48 943652582",
                "contact:email": "zsrckp@poczta.onet.pl",
                "contact:website": "http:\/\/www.zsrckp.com",
                "ref:regon": "321408758",
                "operator": "Powiat \u015awidwi\u0144ski",
                "operator:type": "government",
                "amenity": "school",
                "note": "Parent RSPO: 7495"
            }
        },
        {
            "id": 275216,
            "type": "Feature",
            "geometry": {
                "type": "Point",
                "coordinates": [
                    15.76157,
                    53.7725
                ]
            },
            "properties": {
                "isced:level": "3",
                "ref:rspo": 275216,
                "official_name": "Bran\u017cowa Szko\u0142a II Stopnia",
                "name": "Bran\u017cowa Szko\u0142a II Stopnia",
                "addr:country": "PL",
                "addr:postcode": "78-300",
                "addr:city": "\u015awidwin",
                "addr:street": "Szczeci\u0144ska",
                "addr:housenumber": "88",
                "addr:teryt:simc": 21805,
                "addr:teryt:sym_ul": 950322,
                "contact:phone": "+48 943652582",
                "contact:email": "zsrckp@poczta.onet.pl",
                "contact:website": "http:\/\/www.zsrckp.com",
                "ref:regon": "386703001",
                "operator": "Powiat \u015awidwi\u0144ski",
                "operator:type": "government",
                "amenity": "school",
                "note": "Parent RSPO: 7495"
            }
        },
        {
            "id": 78933,
            "type": "Feature",
            "geometry": {
                "type": "Point",
                "coordinates": [
                    15.76157,
                    53.77247
                ]
            },
            "properties": {
                "isced:level": "1;2",
                "ref:rspo": 78933,
                "official_name": "Szko\u0142a Podstawowa Specjalna Nr 2 w S\u0142awoborzu - Filia w \u015awidwinie",
                "name": "Szko\u0142a Podstawowa Specjalna Nr 2 w S\u0142awoborzu - Filia w \u015awidwinie",
                "addr:country": "PL",
                "addr:postcode": "78-300",
                "addr:city": "\u015awidwin",
                "addr:street": "Szczeci\u0144ska",
                "addr:housenumber": "88",
                "addr:teryt:simc": 21805,
                "addr:teryt:sym_ul": 950322,
                "contact:phone": "+48 943652124",
                "contact:email": "sekretariat@soswslawoborze.pl",
                "contact:website": "http:\/\/www.soswslawoborze",
                "ref:regon": "331362340",
                "operator": "Powiat \u015awidwi\u0144ski",
                "operator:type": "government",
                "amenity": "school",
                "note": "Parent RSPO: 69224"
            }
        },
        {
            "id": 44424,
            "type": "Feature",
            "geometry": {
                "type": "Point",
                "coordinates": [
                    15.77816,
                    53.77464
                ]
            },
            "properties": {
                "ref:rspo": 44424,
                "official_name": "Angloj\u0119zyczne Przedszkole Happy Days",
                "name": "Angloj\u0119zyczne Przedszkole Happy Days",
                "addr:country": "PL",
                "addr:postcode": "78-300",
                "addr:city": "\u015awidwin",
                "addr:street": "Po\u0142czy\u0144ska",
                "addr:housenumber": "66",
                "addr:teryt:simc": 17059,
                "addr:teryt:sym_ul": 950322,
                "contact:phone": "+48 504483376",
                "contact:email": "zzatorska@o2.pl",
                "ref:regon": "321288969",
                "operator": "Zofia Zatorska",
                "operator:type": "private",
                "amenity": "kindergarten"
            }
        },
        {
            "id": 60505,
            "type": "Feature",
            "geometry": {
                "type": "Point",
                "coordinates": [
                    15.77816,
                    53.774609999999996
                ]
            },
            "properties": {
                "ref:rspo": 60505,
                "official_name": "English Courses Centre (Ecc) Zofia Zatorska",
                "name": "English Courses Centre (Ecc) Zofia Zatorska",
                "addr:country": "PL",
                "addr:postcode": "78-300",
                "addr:city": "\u015awidwin",
                "addr:street": "Po\u0142czy\u0144ska",
                "addr:housenumber": "66",
                "addr:teryt:simc": 17059,
                "addr:teryt:sym_ul": 950322,
                "contact:phone": "+48 943652540",
                "ref:regon": "321291121",
                "ref:vatin": "PL6721439806",
                "operator": "Dane Do Uzupe\u0142nienia",
                "operator:type": "private"
            }
        },
        {
            "id": 40668,
            "type": "Feature",
            "geometry": {
                "type": "Point",
                "coordinates": [
                    15.77418,
                    53.77497
                ]
            },
            "properties": {
                "isced:level": "1;2",
                "ref:rspo": 40668,
                "official_name": "Publiczna Szko\u0142a Podstawowa Nr 1 im. Or\u0142a Bia\u0142ego w \u015awidwinie",
                "name": "Publiczna Szko\u0142a Podstawowa Nr 1",
                "addr:country": "PL",
                "addr:postcode": "78-300",
                "addr:city": "\u015awidwin",
                "addr:street": "Plac Jana Paw\u0142a II",
                "addr:housenumber": "5",
                "addr:teryt:simc": 32635,
                "addr:teryt:sym_ul": 950322,
                "contact:phone": "+48 943652462",
                "contact:email": "sekretariat@sp1swidwin.pl",
                "contact:website": "http:\/\/www.sp1swidwin.edupage.org",
                "ref:regon": "001175463",
                "ref:vatin": "PL6721145588",
                "operator": "Gmina Miejska \u015awidwin",
                "operator:type": "government",
                "amenity": "school"
            }
        },
        {
            "id": 7396,
            "type": "Feature",
            "geometry": {
                "type": "Point",
                "coordinates": [
                    15.77277,
                    53.77647
                ]
            },
            "properties": {
                "ref:rspo": 7396,
                "official_name": "Zesp\u00f3\u0142 Szk\u00f3\u0142 im. W\u0142adys\u0142awa Broniewskiego w \u015awidwinie",
                "name": "Zesp\u00f3\u0142 Szk\u00f3\u0142",
                "addr:country": "PL",
                "addr:postcode": "78-300",
                "addr:city": "\u015awidwin",
                "addr:street": "Tadeusza Ko\u015bciuszki",
                "addr:housenumber": "28",
                "addr:teryt:simc": 9572,
                "addr:teryt:sym_ul": 950322,
                "contact:phone": "+48 943652474",
                "contact:email": "zespolwbron@pro.onet.pl",
                "contact:website": "http:\/\/www.zsswidwin.pl",
                "ref:regon": "331075378",
                "ref:vatin": "PL6721804878",
                "operator": "Powiat \u015awidwi\u0144ski",
                "operator:type": "government",
                "landuse": "education",
                "fixme": "amenity=school, amenity=college albo landuse=education w zale\u017cno\u015bci od tego, jakie plac\u00f3wki wchodz\u0105 w sk\u0142ad zespo\u0142u. Sprawd\u017a, kiedy stosowa\u0107 amenity=* a kiedy landuse=education.",
                "note": "Children RSPO: 34804;34807;48655"
            }
        },
        {
            "id": 34804,
            "type": "Feature",
            "geometry": {
                "type": "Point",
                "coordinates": [
                    15.77277,
                    53.77644
                ]
            },
            "properties": {
                "isced:level": "3",
                "ref:rspo": 34804,
                "official_name": "Bran\u017cowa Szko\u0142a I Stopnia Nr 2",
                "name": "Bran\u017cowa Szko\u0142a I Stopnia Nr 2",
                "addr:country": "PL",
                "addr:postcode": "78-300",
                "addr:city": "\u015awidwin",
                "addr:street": "Tadeusza Ko\u015bciuszki",
                "addr:housenumber": "28",
                "addr:teryt:simc": 9572,
                "addr:teryt:sym_ul": 950322,
                "contact:phone": "+48 943652474",
                "contact:email": "zespolwbron@pro.onet.pl",
                "contact:website": "http:\/\/www.zsswidwin.pl",
                "ref:regon": "331355391",
                "operator": "Powiat \u015awidwi\u0144ski",
                "operator:type": "government",
                "amenity": "school",
                "note": "Parent RSPO: 7396"
            }
        },
        {
            "id": 34807,
            "type": "Feature",
            "geometry": {
                "type": "Point",
                "coordinates": [
                    15.77277,
                    53.776410000000006
                ]
            },
            "properties": {
                "isced:level": "3",
                "ref:rspo": 34807,
                "official_name": "I Liceum Og\u00f3lnokszta\u0142c\u0105ce dla Doros\u0142ych",
                "name": "I Liceum Og\u00f3lnokszta\u0142c\u0105ce dla Doros\u0142ych",
                "addr:country": "PL",
                "addr:postcode": "78-300",
                "addr:city": "\u015awidwin",
                "addr:street": "Tadeusza Ko\u015bciuszki",
                "addr:housenumber": "28",
                "addr:teryt:simc": 9572,
                "addr:teryt:sym_ul": 950322,
                "contact:phone": "+48 943652474",
                "contact:email": "zespolwbron@pro.onet.pl",
                "contact:website": "http:\/\/www.zsswidwin.pl",
                "ref:regon": "321129107",
                "operator": "Powiat \u015awidwi\u0144ski",
                "operator:type": "government",
                "amenity": "school",
                "note": "Parent RSPO: 7396"
            }
        },
        {
            "id": 48655,
            "type": "Feature",
            "geometry": {
                "type": "Point",
                "coordinates": [
                    15.77277,
                    53.77638
                ]
            },
            "properties": {
                "isced:level": "3",
                "ref:rspo": 48655,
                "official_name": "Liceum Og\u00f3lnokszta\u0142c\u0105ce w \u015awidwinie",
                "name": "Liceum Og\u00f3lnokszta\u0142c\u0105ce w \u015awidwinie",
                "addr:country": "PL",
                "addr:postcode": "78-300",
                "addr:city": "\u015awidwin",
                "addr:street": "Tadeusza Ko\u015bciuszki",
                "addr:housenumber": "28",
                "addr:teryt:simc": 9572,
                "addr:teryt:sym_ul": 950322,
                "contact:phone": "+48 943652474",
                "contact:email": "zespolwbron@pro.onet.pl",
                "contact:website": "http:\/\/www.zsswidwin.pl",
                "ref:regon": "331355379",
                "operator": "Powiat \u015awidwi\u0144ski",
                "operator:type": "government",
                "amenity": "school",
                "note": "Parent RSPO: 7396"
            }
        },
        {
            "id": 41104,
            "type": "Feature",
            "geometry": {
                "type": "Point",
                "coordinates": [
                    15.82579,
                    53.77737
                ]
            },
            "properties": {
                "isced:level": "1;2",
                "ref:rspo": 41104,
                "official_name": "Publiczna Szko\u0142a Podstawowa Nr 3 im. Lotnik\u00f3w Polskich w \u015awidwinie",
                "name": "Publiczna Szko\u0142a Podstawowa Nr 3",
                "addr:country": "PL",
                "addr:postcode": "78-301",
                "addr:city": "\u015awidwin",
                "addr:street": "Szturmowc\u00f3w",
                "addr:housenumber": "1",
                "addr:teryt:simc": 22119,
                "addr:teryt:sym_ul": 950322,
                "contact:phone": "+48 943651041",
                "contact:email": "sp3sek@wp.pl",
                "contact:website": "http:\/\/www.sp3.swidwin.pl",
                "ref:regon": "001175470",
                "ref:vatin": "PL6721120766",
                "operator": "Gmina Miejska \u015awidwin",
                "operator:type": "government",
                "amenity": "school"
            }
        },
        {
            "id": 278649,
            "type": "Feature",
            "geometry": {
                "type": "Point",
                "coordinates": [
                    15.7733,
                    53.7782
                ]
            },
            "properties": {
                "ref:rspo": 278649,
                "official_name": "Niepubliczna Specjalistyczna Poradnia Psychologiczno-Pedagogiczna \"Synapsa\" Magdalena Feli\u0144ska w \u015awidwinie",
                "name": "Niepubliczna Specjalistyczna Poradnia Psychologiczno-Pedagogiczna \"Synapsa\" Magdalena Feli\u0144ska w \u015awidwinie",
                "addr:country": "PL",
                "addr:postcode": "78-300",
                "addr:city": "\u015awidwin",
                "addr:street": "Ksi\u0119dza Jerzego Popie\u0142uszki",
                "addr:housenumber": "37A",
                "addr:door": "3",
                "addr:teryt:simc": 17149,
                "addr:teryt:sym_ul": 950322,
                "contact:email": "mfelinska.logopeda@gmail.com",
                "ref:regon": "520013840",
                "operator": "Magdalena Feli\u0144ska",
                "operator:type": "private",
                "healthcare": "counselling",
                "counselling_type": "education",
                "fixme": "w zale\u017cno\u015bci od przedmiotu dzia\u0142alno\u015bci (np. healthcare=counselling + counselling_type=education albo healthcare=psychotherapist)"
            }
        },
        {
            "id": 60513,
            "type": "Feature",
            "geometry": {
                "type": "Point",
                "coordinates": [
                    15.77416,
                    53.78006
                ]
            },
            "properties": {
                "ref:rspo": 60513,
                "official_name": "Szko\u0142a J\u0119zyk\u00f3w Obcych \"Abi\" Joanna Kurlapska",
                "name": "Szko\u0142a J\u0119zyk\u00f3w Obcych \"Abi\" Joanna Kurlapska",
                "addr:country": "PL",
                "addr:postcode": "78-300",
                "addr:city": "\u015awidwin",
                "addr:street": "3 Marca",
                "addr:housenumber": "21",
                "addr:teryt:simc": 12265,
                "addr:teryt:sym_ul": 950322,
                "contact:phone": "+48 604251633",
                "ref:regon": "321293090",
                "ref:vatin": "PL8521857629",
                "operator": "Dane Do Uzupe\u0142nienia",
                "operator:type": "private"
            }
        },
        {
            "id": 43638,
            "type": "Feature",
            "geometry": {
                "type": "Point",
                "coordinates": [
                    15.77885,
                    53.78086
                ]
            },
            "properties": {
                "isced:level": "1;2",
                "ref:rspo": 43638,
                "official_name": "Publiczna Szko\u0142a Podstawowa Z Oddzia\u0142ami Integracyjnymi Nr 2 im. Ppor. Emilii Gierczak w \u015awidwinie",
                "name": "Publiczna Szko\u0142a Podstawowa Z Oddzia\u0142ami Integracyjnymi Nr 2",
                "addr:country": "PL",
                "addr:postcode": "78-300",
                "addr:city": "\u015awidwin",
                "addr:street": "Armii Krajowej",
                "addr:housenumber": "19",
                "addr:teryt:simc": 432,
                "addr:teryt:sym_ul": 950322,
                "contact:phone": "+48 943652234",
                "contact:email": "sp2swidwin@op.pl",
                "contact:website": "http:\/\/www.sp2swidwin.pl",
                "ref:regon": "000258840",
                "ref:vatin": "PL6721158823",
                "operator": "Gmina Miejska \u015awidwin",
                "operator:type": "government",
                "amenity": "school"
            }
        }
    ]
}