{
    "type": "FeatureCollection",
    "features": [
        {
            "id": 125558,
            "type": "Feature",
            "geometry": {
                "type": "Point",
                "coordinates": [
                    15.8633601,
                    53.747267
                ]
            },
            "properties": {
                "ref:rspo": 125558,
                "official_name": "Przedszkole \"Republika Malucha \" Towarzystwo Przyjaci\u00f3\u0142 Dzieci w Kluczkowie",
                "name": "Przedszkole \"Republika Malucha \" Towarzystwo Przyjaci\u00f3\u0142 Dzieci w Kluczkowie",
                "addr:postcode": "78-324",
                "addr:place": "Kluczkowo",
                "addr:housenumber": "9",
                "addr:teryt:simc": 312863,
                "phone": "+48 943425627",
                "email": "tpd@zeto.koszalin.pl",
                "ref:regon": "321581161",
                "operator": "Towarzystwo Przyjaci\u00f3\u0142 Dzieci Oddzia\u0142 Okr\u0119gowy W Koszalinie",
                "operator:type": "ngo",
                "amenity": "kindergarten"
            }
        },
        {
            "id": 267763,
            "type": "Feature",
            "geometry": {
                "type": "Point",
                "coordinates": [
                    15.692501,
                    53.758139
                ]
            },
            "properties": {
                "isced:level": "1;2",
                "ref:rspo": 267763,
                "official_name": "Publiczna Szko\u0142a Podstawowa w Oparznie",
                "name": "Publiczna Szko\u0142a Podstawowa w Oparznie",
                "addr:postcode": "78-300",
                "addr:place": "Oparzno",
                "addr:housenumber": "31",
                "addr:teryt:simc": 312952,
                "phone": "+48 943652455",
                "email": "spoparzno@onet.eu",
                "ref:regon": "380606107",
                "ref:vatin": "PL6722092078",
                "operator": "Gmina \u015awidwin",
                "operator:type": "government",
                "amenity": "school"
            }
        },
        {
            "id": 72708,
            "type": "Feature",
            "geometry": {
                "type": "Point",
                "coordinates": [
                    15.880596160889,
                    53.798034667969
                ]
            },
            "properties": {
                "isced:level": "1;2",
                "ref:rspo": 72708,
                "official_name": "Publiczna Szko\u0142a Podstawowa w Bierzwnicy",
                "name": "Publiczna Szko\u0142a Podstawowa w Bierzwnicy",
                "addr:postcode": "78-324",
                "addr:place": "Bierzwnica",
                "addr:housenumber": "52",
                "addr:teryt:simc": 1010383,
                "phone": "+48 943656180",
                "email": "zsbierzwnica@op.pl",
                "website": "http:\/\/zsbierzwnica.edupage.org",
                "ref:regon": "001175492",
                "ref:vatin": "PL6722022310",
                "operator": "Gmina \u015awidwin",
                "operator:type": "government",
                "amenity": "school"
            }
        },
        {
            "id": 72710,
            "type": "Feature",
            "geometry": {
                "type": "Point",
                "coordinates": [
                    15.679392,
                    53.815754
                ]
            },
            "properties": {
                "isced:level": "1;2",
                "ref:rspo": 72710,
                "official_name": "Publiczna Szko\u0142a Podstawowa im. Ziemi \u015awidwi\u0144skiej w Lekowie",
                "name": "Publiczna Szko\u0142a Podstawowa",
                "addr:postcode": "78-312",
                "addr:place": "Lekowo",
                "addr:housenumber": "44c",
                "addr:teryt:simc": 312892,
                "phone": "+48 943655693",
                "email": "sekretariat@zslekowo.pl",
                "website": "http:\/\/www.zslekowo.szkolnastrona.pl",
                "ref:regon": "001175530",
                "operator": "Gmina \u015awidwin",
                "operator:type": "government",
                "amenity": "school"
            }
        }
    ]
}