{
    "type": "FeatureCollection",
    "features": [
        {
            "id": 196398,
            "type": "Feature",
            "geometry": {
                "type": "Point",
                "coordinates": [
                    17.70037,
                    51.53871
                ]
            },
            "properties": {
                "isced:level": "1;2",
                "ref:rspo": 196398,
                "official_name": "Szko\u0142a Podstawowa w \u015awiecy",
                "name": "Szko\u0142a Podstawowa w \u015awiecy",
                "addr:country": "PL",
                "addr:postcode": "63-430",
                "addr:city": "\u015awieca",
                "addr:street": "Szkolna",
                "addr:housenumber": "5",
                "addr:teryt:simc": 205110,
                "addr:teryt:sym_ul": 21970,
                "contact:phone": "+48 627331036",
                "contact:email": "spswieca@odolanow.pl",
                "contact:website": "http:\/\/gimswieca.szkolnastrona.pl",
                "ref:regon": "367992201",
                "operator": "Gmina I Miasto Odolan\u00f3w",
                "operator:type": "government",
                "amenity": "school"
            }
        },
        {
            "id": 12706,
            "type": "Feature",
            "geometry": {
                "type": "Point",
                "coordinates": [
                    17.7265957,
                    51.5616662
                ]
            },
            "properties": {
                "isced:level": "1;2",
                "ref:rspo": 12706,
                "official_name": "Szko\u0142a Podstawowa Im Janusza Korczaka w Hucie",
                "name": "Szko\u0142a Podstawowa Im Janusza Korczaka w Hucie",
                "addr:country": "PL",
                "addr:postcode": "63-430",
                "addr:place": "Huta",
                "addr:housenumber": "63a",
                "addr:teryt:simc": 204990,
                "contact:phone": "+48 627331829",
                "contact:email": "sphuta1@vp.pl",
                "contact:website": "http:\/\/sphuta.szkolnastrona.pl",
                "ref:regon": "001228231",
                "operator": "Gmina I Miasto Odolan\u00f3w",
                "operator:type": "government",
                "amenity": "school"
            }
        },
        {
            "id": 9262,
            "type": "Feature",
            "geometry": {
                "type": "Point",
                "coordinates": [
                    17.58693,
                    51.56704
                ]
            },
            "properties": {
                "isced:level": "1;2",
                "ref:rspo": 9262,
                "official_name": "Szko\u0142a Podstawowa w Uciechowie",
                "name": "Szko\u0142a Podstawowa w Uciechowie",
                "addr:country": "PL",
                "addr:postcode": "63-430",
                "addr:city": "Uciech\u00f3w",
                "addr:street": "Odolanowska",
                "addr:housenumber": "38",
                "addr:teryt:simc": 205191,
                "addr:teryt:sym_ul": 14746,
                "contact:phone": "+48 627332253",
                "contact:email": "spuciechow@odolanow.pl",
                "ref:regon": "001228283",
                "operator": "Gmina I Miasto Odolan\u00f3w",
                "operator:type": "government",
                "amenity": "school"
            }
        },
        {
            "id": 123681,
            "type": "Feature",
            "geometry": {
                "type": "Point",
                "coordinates": [
                    17.66929,
                    51.57341
                ]
            },
            "properties": {
                "ref:rspo": 123681,
                "official_name": "Pa\u0144stwowa Szko\u0142a Muzyczna I Stopnia w Odolanowie",
                "name": "Pa\u0144stwowa Szko\u0142a Muzyczna I Stopnia w Odolanowie",
                "addr:country": "PL",
                "addr:postcode": "63-430",
                "addr:city": "Odolan\u00f3w",
                "addr:street": "Bartosza",
                "addr:housenumber": "7",
                "addr:teryt:simc": 937110,
                "addr:teryt:sym_ul": 807,
                "contact:phone": "+48 627331308",
                "contact:email": "jlizurej@wp.pl",
                "contact:website": "http:\/\/www.odk.odolanow.pl",
                "ref:regon": "302785616",
                "operator": "Gmina I Miasto Odolan\u00f3w",
                "operator:type": "government",
                "amenity": "music_school"
            }
        },
        {
            "id": 16474,
            "type": "Feature",
            "geometry": {
                "type": "Point",
                "coordinates": [
                    17.6724,
                    51.57396
                ]
            },
            "properties": {
                "ref:rspo": 16474,
                "official_name": "Przedszkole Im Kubusia Puchatka w Odolanowie",
                "name": "Przedszkole Im Kubusia Puchatka w Odolanowie",
                "addr:country": "PL",
                "addr:postcode": "63-430",
                "addr:city": "Odolan\u00f3w",
                "addr:street": "Plac Ko\u015bciuszki",
                "addr:housenumber": "4",
                "addr:teryt:simc": 937110,
                "addr:teryt:sym_ul": 33975,
                "contact:phone": "+48 627331419",
                "contact:email": "przedszkolekubus@wp.pl",
                "ref:regon": "250509201",
                "operator": "Gmina I Miasto Odolan\u00f3w",
                "operator:type": "government",
                "amenity": "kindergarten"
            }
        },
        {
            "id": 196406,
            "type": "Feature",
            "geometry": {
                "type": "Point",
                "coordinates": [
                    17.62455,
                    51.57419
                ]
            },
            "properties": {
                "isced:level": "1;2",
                "ref:rspo": 196406,
                "official_name": "Szko\u0142a Podstawowa w Raczycach",
                "name": "Szko\u0142a Podstawowa w Raczycach",
                "addr:country": "PL",
                "addr:postcode": "63-430",
                "addr:city": "Raczyce",
                "addr:street": "Odolanowska",
                "addr:housenumber": "80",
                "addr:teryt:simc": 205104,
                "addr:teryt:sym_ul": 14746,
                "contact:phone": "+48 627331869",
                "contact:email": "spraczyce@odolanow.pl",
                "contact:website": "http:\/\/sp.raczyce.szkolnastrona.pl",
                "ref:regon": "367993577",
                "operator": "Gmina I Miasto Odolan\u00f3w",
                "operator:type": "government",
                "amenity": "school"
            }
        },
        {
            "id": 118940,
            "type": "Feature",
            "geometry": {
                "type": "Point",
                "coordinates": [
                    17.66402,
                    51.57745
                ]
            },
            "properties": {
                "ref:rspo": 118940,
                "official_name": "Zesp\u00f3\u0142 Szk\u00f3\u0142 w Odolanowie",
                "name": "Zesp\u00f3\u0142 Szk\u00f3\u0142 w Odolanowie",
                "addr:country": "PL",
                "addr:postcode": "63-430",
                "addr:city": "Odolan\u00f3w",
                "addr:street": "Aleja Jana Paw\u0142a II",
                "addr:housenumber": "1",
                "addr:teryt:simc": 937110,
                "addr:teryt:sym_ul": 7120,
                "contact:phone": "+48 627331605",
                "contact:email": "spodolanow@odolanow.pl",
                "contact:website": "http:\/\/www.sp.odolanow.pl",
                "ref:regon": "302506480",
                "operator": "Gmina I Miasto Odolan\u00f3w",
                "operator:type": "government",
                "landuse": "education",
                "fixme": "amenity=school, amenity=college albo landuse=education w zale\u017cno\u015bci od tego, jakie plac\u00f3wki wchodz\u0105 w sk\u0142ad zespo\u0142u. Sprawd\u017a, kiedy stosowa\u0107 amenity=* a kiedy landuse=education.",
                "note": "Children RSPO: 9435;27872"
            }
        },
        {
            "id": 9435,
            "type": "Feature",
            "geometry": {
                "type": "Point",
                "coordinates": [
                    17.66402,
                    51.57742
                ]
            },
            "properties": {
                "isced:level": "1;2",
                "ref:rspo": 9435,
                "official_name": "Szko\u0142a Podstawowa im. Jana Paw\u0142a II i Gen. Kazimierza Glabisza w Odolanowie",
                "name": "Szko\u0142a Podstawowa",
                "addr:country": "PL",
                "addr:postcode": "63-430",
                "addr:city": "Odolan\u00f3w",
                "addr:street": "Aleja Jana Paw\u0142a II",
                "addr:housenumber": "1",
                "addr:teryt:simc": 937110,
                "addr:teryt:sym_ul": 7120,
                "contact:phone": "+48 627331441",
                "contact:email": "spodolanow@odolanow.pl",
                "contact:website": "http:\/\/www.sp.odolanow.pl",
                "ref:regon": "000263857",
                "operator": "Gmina I Miasto Odolan\u00f3w",
                "operator:type": "government",
                "amenity": "school",
                "note": "Parent RSPO: 118940"
            }
        },
        {
            "id": 27872,
            "type": "Feature",
            "geometry": {
                "type": "Point",
                "coordinates": [
                    17.66402,
                    51.57739
                ]
            },
            "properties": {
                "ref:rspo": 27872,
                "official_name": "Schronisko M\u0142odzie\u017cowe",
                "name": "Schronisko M\u0142odzie\u017cowe",
                "addr:country": "PL",
                "addr:postcode": "63-430",
                "addr:city": "Odolan\u00f3w",
                "addr:street": "Aleja Jana Paw\u0142a II",
                "addr:housenumber": "1",
                "addr:teryt:simc": 937110,
                "addr:teryt:sym_ul": 7120,
                "contact:phone": "+48 627331605",
                "contact:email": "spodolanow@odolanow.pl",
                "ref:regon": "302239240",
                "operator": "Gmina I Miasto Odolan\u00f3w",
                "operator:type": "government",
                "tourism": "hostel",
                "note": "Parent RSPO: 118940"
            }
        },
        {
            "id": 16391,
            "type": "Feature",
            "geometry": {
                "type": "Point",
                "coordinates": [
                    17.66016,
                    51.58061
                ]
            },
            "properties": {
                "isced:level": "3",
                "ref:rspo": 16391,
                "official_name": "Branzowa Szko\u0142a I Stopnia w Odolanowie",
                "name": "Branzowa Szko\u0142a I Stopnia w Odolanowie",
                "addr:country": "PL",
                "addr:postcode": "63-430",
                "addr:city": "Odolan\u00f3w",
                "addr:street": "Krotoszy\u0144ska",
                "addr:housenumber": "121",
                "addr:teryt:simc": 937110,
                "addr:teryt:sym_ul": 9969,
                "contact:phone": "+48 627331331",
                "contact:email": "branzowa@odolanow.pl",
                "contact:website": "http:\/\/www.zsz.odolanow.pl",
                "ref:regon": "251534069",
                "operator": "Gmina I Miasto Odolan\u00f3w",
                "operator:type": "government",
                "amenity": "school"
            }
        },
        {
            "id": 118479,
            "type": "Feature",
            "geometry": {
                "type": "Point",
                "coordinates": [
                    17.66016,
                    51.58058
                ]
            },
            "properties": {
                "ref:rspo": 118479,
                "official_name": "Zesp\u00f3\u0142 Szk\u00f3\u0142 Og\u00f3lnokszta\u0142c\u0105cych w Odolanowie",
                "name": "Zesp\u00f3\u0142 Szk\u00f3\u0142 Og\u00f3lnokszta\u0142c\u0105cych w Odolanowie",
                "addr:country": "PL",
                "addr:postcode": "63-430",
                "addr:city": "Odolan\u00f3w",
                "addr:street": "Krotoszy\u0144ska",
                "addr:housenumber": "121",
                "addr:teryt:simc": 937110,
                "addr:teryt:sym_ul": 9969,
                "contact:phone": "+48 627331316",
                "contact:email": "liceum@odolanow.pl",
                "contact:website": "http:\/\/www.liceum.odolanow.pl",
                "ref:regon": "302492831",
                "operator": "Gmina I Miasto Odolan\u00f3w",
                "operator:type": "government",
                "landuse": "education",
                "fixme": "amenity=school, amenity=college albo landuse=education w zale\u017cno\u015bci od tego, jakie plac\u00f3wki wchodz\u0105 w sk\u0142ad zespo\u0142u. Sprawd\u017a, kiedy stosowa\u0107 amenity=* a kiedy landuse=education.",
                "note": "Children RSPO: 7484;16235"
            }
        },
        {
            "id": 7484,
            "type": "Feature",
            "geometry": {
                "type": "Point",
                "coordinates": [
                    17.66016,
                    51.58055
                ]
            },
            "properties": {
                "isced:level": "3",
                "ref:rspo": 7484,
                "official_name": "Liceum Og\u00f3lnokszta\u0142c\u0105ce dla Doros\u0142ych",
                "name": "Liceum Og\u00f3lnokszta\u0142c\u0105ce dla Doros\u0142ych",
                "addr:country": "PL",
                "addr:postcode": "63-430",
                "addr:city": "Odolan\u00f3w",
                "addr:street": "Krotoszy\u0144ska",
                "addr:housenumber": "121",
                "addr:teryt:simc": 937110,
                "addr:teryt:sym_ul": 9969,
                "contact:phone": "+48 627331316",
                "contact:email": "liceum@odolanow.pl",
                "contact:website": "http:\/\/www.liceum.odolanow.pl",
                "ref:regon": "302200863",
                "operator": "Gmina I Miasto Odolan\u00f3w",
                "operator:type": "government",
                "amenity": "school",
                "note": "Parent RSPO: 118479"
            }
        },
        {
            "id": 16235,
            "type": "Feature",
            "geometry": {
                "type": "Point",
                "coordinates": [
                    17.66016,
                    51.58052
                ]
            },
            "properties": {
                "isced:level": "3",
                "ref:rspo": 16235,
                "official_name": "Liceum Og\u00f3lnokszta\u0142c\u0105ce im. W\u0142adys\u0142awa Jagie\u0142\u0142y w Odolanowie",
                "name": "Liceum Og\u00f3lnokszta\u0142c\u0105ce",
                "addr:country": "PL",
                "addr:postcode": "63-430",
                "addr:city": "Odolan\u00f3w",
                "addr:street": "Krotoszy\u0144ska",
                "addr:housenumber": "121",
                "addr:teryt:simc": 937110,
                "addr:teryt:sym_ul": 9969,
                "contact:phone": "+48 627331316",
                "contact:email": "liceum@odolanow.pl",
                "contact:website": "http:\/\/www.liceum.odolanow.pl",
                "ref:regon": "001072964",
                "operator": "Gmina I Miasto Odolan\u00f3w",
                "operator:type": "government",
                "amenity": "school",
                "note": "Parent RSPO: 118479"
            }
        },
        {
            "id": 273580,
            "type": "Feature",
            "geometry": {
                "type": "Point",
                "coordinates": [
                    17.66126,
                    51.58476
                ]
            },
            "properties": {
                "ref:rspo": 273580,
                "official_name": "Przedszkole Niepubliczne \"Akademia U\u015bmiechu\"",
                "name": "Przedszkole Niepubliczne \"Akademia U\u015bmiechu\"",
                "addr:country": "PL",
                "addr:postcode": "63-430",
                "addr:city": "Odolan\u00f3w",
                "addr:street": "Chwaliszewska",
                "addr:housenumber": "10",
                "addr:teryt:simc": 937110,
                "addr:teryt:sym_ul": 2937,
                "contact:phone": "+48 535036212",
                "contact:email": "akademia.usmiechu@vp.pl",
                "ref:regon": "384505981",
                "operator": "Us\u0142ugi Og\u00f3lnobudowlane \"Budan\" Andrzej Kwa\u015bniewski",
                "operator:type": "consortium",
                "amenity": "kindergarten"
            }
        },
        {
            "id": 11304,
            "type": "Feature",
            "geometry": {
                "type": "Point",
                "coordinates": [
                    17.69366,
                    51.59303
                ]
            },
            "properties": {
                "isced:level": "1;2",
                "ref:rspo": 11304,
                "official_name": "Szko\u0142a Podstawowa im. Polskich Sportowc\u00f3w w Tarcha\u0142ach Wielkich",
                "name": "Szko\u0142a Podstawowa",
                "addr:country": "PL",
                "addr:postcode": "63-430",
                "addr:city": "Tarcha\u0142y Wielkie",
                "addr:street": "Szkolna",
                "addr:housenumber": "69",
                "addr:teryt:simc": 205185,
                "addr:teryt:sym_ul": 21970,
                "contact:phone": "+48 627331368",
                "contact:email": "sptarchaly@odolanow.pl",
                "contact:website": "http:\/\/sptarchaly.szkolnastrona.pl",
                "ref:regon": "001228314",
                "operator": "Gmina I Miasto Odolan\u00f3w",
                "operator:type": "government",
                "amenity": "school",
                "note": "Children RSPO: 12582"
            }
        },
        {
            "id": 12654,
            "type": "Feature",
            "geometry": {
                "type": "Point",
                "coordinates": [
                    17.78803,
                    51.59638
                ]
            },
            "properties": {
                "isced:level": "1;2",
                "ref:rspo": 12654,
                "official_name": "Szko\u0142a Podstawowa im. Ignacego \u0141ukasiewicza w Garkach",
                "name": "Szko\u0142a Podstawowa",
                "addr:country": "PL",
                "addr:postcode": "63-430",
                "addr:city": "Garki",
                "addr:street": "Szkolna",
                "addr:housenumber": "2",
                "addr:teryt:simc": 204895,
                "addr:teryt:sym_ul": 21970,
                "contact:phone": "+48 627331020",
                "contact:email": "spgarki@odolanow.pl",
                "ref:regon": "001228290",
                "operator": "Gmina I Miasto Odolan\u00f3w",
                "operator:type": "government",
                "amenity": "school"
            }
        },
        {
            "id": 75559,
            "type": "Feature",
            "geometry": {
                "type": "Point",
                "coordinates": [
                    17.65077,
                    51.60616
                ]
            },
            "properties": {
                "isced:level": "1;2",
                "ref:rspo": 75559,
                "official_name": "Szko\u0142a Podstawowa w Nabyszycach Szko\u0142a Filialna w Gli\u015bnicy",
                "name": "Szko\u0142a Podstawowa w Nabyszycach Szko\u0142a Filialna w Gli\u015bnicy",
                "addr:country": "PL",
                "addr:postcode": "63-430",
                "addr:city": "Gli\u015bnica",
                "addr:street": "Odolanowska",
                "addr:housenumber": "25",
                "addr:teryt:simc": 204910,
                "addr:teryt:sym_ul": 14746,
                "contact:phone": "+48 627331592",
                "contact:email": "spnabyszyce@odolanow.pl",
                "ref:regon": "122826000",
                "operator": "Gmina I Miasto Odolan\u00f3w",
                "operator:type": "government",
                "amenity": "school",
                "note": "Parent RSPO: 11227"
            }
        },
        {
            "id": 12582,
            "type": "Feature",
            "geometry": {
                "type": "Point",
                "coordinates": [
                    17.7079031,
                    51.6077327
                ]
            },
            "properties": {
                "isced:level": "1;2",
                "ref:rspo": 12582,
                "official_name": "Szko\u0142a Podstawowa Im Polskich Sportowc\u00f3w w Tarcha\u0142ach Wielkich Szko\u0142a Filialna w Gorzycach Ma\u0142ych",
                "name": "Szko\u0142a Podstawowa Im Polskich Sportowc\u00f3w w Tarcha\u0142ach Wielkich Szko\u0142a Filialna w Gorzycach Ma\u0142ych",
                "addr:country": "PL",
                "addr:postcode": "63-430",
                "addr:place": "Gorzyce Ma\u0142e",
                "addr:housenumber": "43",
                "addr:teryt:simc": 204978,
                "contact:phone": "+48 627331218",
                "contact:email": "sptarchaly@o2.pl",
                "ref:regon": "122831400",
                "operator": "Gmina I Miasto Odolan\u00f3w",
                "operator:type": "government",
                "amenity": "school",
                "note": "Parent RSPO: 11304"
            }
        },
        {
            "id": 11227,
            "type": "Feature",
            "geometry": {
                "type": "Point",
                "coordinates": [
                    17.6497129,
                    51.627919
                ]
            },
            "properties": {
                "isced:level": "1;2",
                "ref:rspo": 11227,
                "official_name": "Szko\u0142a Podstawowa w Nabyszycach",
                "name": "Szko\u0142a Podstawowa w Nabyszycach",
                "addr:country": "PL",
                "addr:postcode": "63-430",
                "addr:place": "Nabyszyce",
                "addr:housenumber": "12",
                "addr:teryt:simc": 205044,
                "contact:phone": "+48 627331184",
                "contact:email": "spnabyszyce@odolanow.pl",
                "contact:website": "http:\/\/www.spnabyszyce.szkolnastrona.pl\/",
                "ref:regon": "001228260",
                "operator": "Gmina I Miasto Odolan\u00f3w",
                "operator:type": "government",
                "amenity": "school",
                "note": "Children RSPO: 75559"
            }
        },
        {
            "id": 196411,
            "type": "Feature",
            "geometry": {
                "type": "Point",
                "coordinates": [
                    17.67148,
                    51.63876
                ]
            },
            "properties": {
                "isced:level": "1;2",
                "ref:rspo": 196411,
                "official_name": "Szko\u0142a Podstawowa w Wierzbnie",
                "name": "Szko\u0142a Podstawowa w Wierzbnie",
                "addr:country": "PL",
                "addr:postcode": "63-430",
                "addr:city": "Wierzbno",
                "addr:street": "Szkolna",
                "addr:housenumber": "4",
                "addr:teryt:simc": 205216,
                "addr:teryt:sym_ul": 21970,
                "contact:phone": "+48 627331791",
                "contact:email": "spwwierzbnie@gmail.com",
                "ref:regon": "367993643",
                "operator": "Gmina I Miasto Odolan\u00f3w",
                "operator:type": "government",
                "amenity": "school"
            }
        }
    ]
}