{
    "type": "FeatureCollection",
    "features": [
        {
            "id": 7777,
            "type": "Feature",
            "geometry": {
                "type": "Point",
                "coordinates": [
                    17.79163,
                    51.59588
                ]
            },
            "properties": {
                "ref:rspo": 7777,
                "official_name": "Zesp\u00f3\u0142 Szkolno-Przedszkolny we Wt\u00f3rku",
                "name": "Zesp\u00f3\u0142 Szkolno-Przedszkolny we Wt\u00f3rku",
                "addr:country": "PL",
                "addr:postcode": "63-400",
                "addr:city": "Wt\u00f3rek",
                "addr:street": "Szkolna",
                "addr:housenumber": "12",
                "addr:teryt:simc": 21970,
                "addr:teryt:sym_ul": 206055,
                "contact:phone": "+48 627347622",
                "contact:email": "spwtorek@wp.pl",
                "contact:website": "http:\/\/www.zspwtorek.szkolna.net",
                "ref:regon": "302201532",
                "operator": "Gmina Ostr\u00f3w Wielkopolski",
                "operator:type": "government",
                "landuse": "education",
                "fixme": "amenity=school, amenity=college albo landuse=education w zale\u017cno\u015bci od tego, jakie plac\u00f3wki wchodz\u0105 w sk\u0142ad zespo\u0142u. Sprawd\u017a, kiedy stosowa\u0107 amenity=* a kiedy landuse=education.",
                "note": "Children RSPO: 110503;111970"
            }
        },
        {
            "id": 110503,
            "type": "Feature",
            "geometry": {
                "type": "Point",
                "coordinates": [
                    17.79163,
                    51.59585
                ]
            },
            "properties": {
                "isced:level": "1;2",
                "ref:rspo": 110503,
                "official_name": "Szko\u0142a Podstawowa we Wt\u00f3rku",
                "name": "Szko\u0142a Podstawowa we Wt\u00f3rku",
                "addr:country": "PL",
                "addr:postcode": "63-400",
                "addr:city": "Wt\u00f3rek",
                "addr:street": "Szkolna",
                "addr:housenumber": "12",
                "addr:teryt:simc": 21970,
                "addr:teryt:sym_ul": 206055,
                "contact:phone": "+48 627347622",
                "contact:email": "spwtorek@wp.pl",
                "contact:website": "http:\/\/zspwtorek.szkolna.net",
                "ref:regon": "001173300",
                "operator": "Gmina Ostr\u00f3w Wielkopolski",
                "operator:type": "government",
                "amenity": "school",
                "note": "Parent RSPO: 7777"
            }
        },
        {
            "id": 111970,
            "type": "Feature",
            "geometry": {
                "type": "Point",
                "coordinates": [
                    17.79163,
                    51.59582
                ]
            },
            "properties": {
                "ref:rspo": 111970,
                "official_name": "Przedszkole Publiczne we Wt\u00f3rku",
                "name": "Przedszkole Publiczne we Wt\u00f3rku",
                "addr:country": "PL",
                "addr:postcode": "63-400",
                "addr:city": "Wt\u00f3rek",
                "addr:street": "Szkolna",
                "addr:housenumber": "12",
                "addr:teryt:simc": 21970,
                "addr:teryt:sym_ul": 206055,
                "contact:phone": "+48 627347622",
                "ref:regon": "251596403",
                "operator": "Gmina Ostr\u00f3w Wielkopolski",
                "operator:type": "government",
                "amenity": "kindergarten",
                "note": "Parent RSPO: 7777"
            }
        },
        {
            "id": 110462,
            "type": "Feature",
            "geometry": {
                "type": "Point",
                "coordinates": [
                    17.770109176636,
                    51.621528625488
                ]
            },
            "properties": {
                "isced:level": "1;2",
                "ref:rspo": 110462,
                "official_name": "Szko\u0142a Podstawowa w Topoli Ma\u0142ej",
                "name": "Szko\u0142a Podstawowa w Topoli Ma\u0142ej",
                "addr:country": "PL",
                "addr:postcode": "63-400",
                "addr:city": "Topola Ma\u0142a",
                "addr:street": "Szkolna",
                "addr:housenumber": "115",
                "addr:teryt:simc": 21970,
                "addr:teryt:sym_ul": 206049,
                "contact:phone": "+48 627346591",
                "contact:email": "sp_topola@o2.pl",
                "contact:website": "http:\/\/zsptopolamalaedupage.org",
                "ref:regon": "001173346",
                "operator": "Gmina Ostr\u00f3w Wielkopolski",
                "operator:type": "government",
                "amenity": "school",
                "note": "Parent RSPO: 7776"
            }
        },
        {
            "id": 110465,
            "type": "Feature",
            "geometry": {
                "type": "Point",
                "coordinates": [
                    17.770109176636,
                    51.621498625487995
                ]
            },
            "properties": {
                "ref:rspo": 110465,
                "official_name": "Przedszkole Publiczne w Topoli Ma\u0142ej",
                "name": "Przedszkole Publiczne w Topoli Ma\u0142ej",
                "addr:country": "PL",
                "addr:postcode": "63-400",
                "addr:city": "Topola Ma\u0142a",
                "addr:street": "Szkolna",
                "addr:housenumber": "115",
                "addr:teryt:simc": 21970,
                "addr:teryt:sym_ul": 206049,
                "contact:phone": "+48 627346591",
                "contact:email": "sp_topola@o2.pl",
                "contact:website": "http:\/\/zsptopolamala.pl",
                "ref:regon": "251596395",
                "operator": "Gmina Ostr\u00f3w Wielkopolski",
                "operator:type": "government",
                "amenity": "kindergarten",
                "note": "Parent RSPO: 7776"
            }
        },
        {
            "id": 120788,
            "type": "Feature",
            "geometry": {
                "type": "Point",
                "coordinates": [
                    17.85471,
                    51.62192
                ]
            },
            "properties": {
                "ref:rspo": 120788,
                "official_name": "Zesp\u00f3\u0142 Szkolno-Przedszkolny w Wysocku Wielkim",
                "name": "Zesp\u00f3\u0142 Szkolno-Przedszkolny w Wysocku Wielkim",
                "addr:country": "PL",
                "addr:postcode": "63-400",
                "addr:city": "Wysocko Wielkie",
                "addr:street": "Sadowska",
                "addr:housenumber": "2",
                "addr:teryt:simc": 19408,
                "addr:teryt:sym_ul": 206084,
                "contact:phone": "+48 627355550",
                "contact:email": "sz.wysocko.w@wp.pl",
                "contact:website": "http:\/\/www.zspwysockow.szkolna.net",
                "ref:regon": "302579041",
                "operator": "Dane Do Uzupe\u0142nienia",
                "operator:type": "private",
                "landuse": "education",
                "fixme": "amenity=school, amenity=college albo landuse=education w zale\u017cno\u015bci od tego, jakie plac\u00f3wki wchodz\u0105 w sk\u0142ad zespo\u0142u. Sprawd\u017a, kiedy stosowa\u0107 amenity=* a kiedy landuse=education.",
                "note": "Children RSPO: 123570;123571"
            }
        },
        {
            "id": 123570,
            "type": "Feature",
            "geometry": {
                "type": "Point",
                "coordinates": [
                    17.85471,
                    51.62189
                ]
            },
            "properties": {
                "isced:level": "1;2",
                "ref:rspo": 123570,
                "official_name": "Niepubliczna Szko\u0142a Podstawowa w Wysocku Wielkim",
                "name": "Niepubliczna Szko\u0142a Podstawowa w Wysocku Wielkim",
                "addr:country": "PL",
                "addr:postcode": "63-400",
                "addr:city": "Wysocko Wielkie",
                "addr:street": "Sadowska",
                "addr:housenumber": "2",
                "addr:teryt:simc": 19408,
                "addr:teryt:sym_ul": 206084,
                "contact:phone": "+48 273555550",
                "contact:email": "sz.wysocko.w@wp.pl",
                "contact:website": "http:\/\/www.zspwysockow.szkolna.pl",
                "ref:regon": "302773990",
                "operator": "Stowarzyszenie Wspierania Edukacji I Rozwoju Wsi Wysocko Wielkie \"Nasze Wysocko\"",
                "operator:type": "ngo",
                "amenity": "school",
                "note": "Parent RSPO: 120788"
            }
        },
        {
            "id": 123571,
            "type": "Feature",
            "geometry": {
                "type": "Point",
                "coordinates": [
                    17.85471,
                    51.621860000000005
                ]
            },
            "properties": {
                "ref:rspo": 123571,
                "official_name": "Niepubliczne Przedszkole w Wysocku Wielkim",
                "name": "Niepubliczne Przedszkole w Wysocku Wielkim",
                "addr:country": "PL",
                "addr:postcode": "63-400",
                "addr:city": "Wysocko Wielkie",
                "addr:street": "Sadowska",
                "addr:housenumber": "2",
                "addr:teryt:simc": 19408,
                "addr:teryt:sym_ul": 206084,
                "contact:phone": "+48 273555550",
                "ref:regon": "302774009",
                "operator": "Stowarzyszenie Wspierania Edukacji I Rozwoju Wsi Wysocko Wielkie \"Nasze Wysocko\"",
                "operator:type": "ngo",
                "amenity": "kindergarten",
                "note": "Parent RSPO: 120788"
            }
        },
        {
            "id": 132126,
            "type": "Feature",
            "geometry": {
                "type": "Point",
                "coordinates": [
                    17.89373,
                    51.63783
                ]
            },
            "properties": {
                "ref:rspo": 132126,
                "official_name": "Niepubliczne Przedszkole \"Gucio\" Z Oddzia\u0142ami Terapeutycznymi we Wt\u00f3rku",
                "name": "Niepubliczne Przedszkole \"Gucio\" Z Oddzia\u0142ami Terapeutycznymi we Wt\u00f3rku",
                "addr:country": "PL",
                "addr:postcode": "63-400",
                "addr:city": "Wt\u00f3rek",
                "addr:street": "Ostrowska",
                "addr:housenumber": "37",
                "addr:teryt:simc": 15390,
                "addr:teryt:sym_ul": 206055,
                "contact:phone": "+48 693416689",
                "contact:email": "przedszkolaki.gucio@gmail.com",
                "ref:regon": "365478233",
                "operator": "Fundacja Wspomagania Rozwoju Dzieci I M\u0142odzie\u017cy \"Gucio\"",
                "operator:type": "ngo",
                "amenity": "kindergarten"
            }
        },
        {
            "id": 110452,
            "type": "Feature",
            "geometry": {
                "type": "Point",
                "coordinates": [
                    17.72803,
                    51.64035
                ]
            },
            "properties": {
                "isced:level": "1;2",
                "ref:rspo": 110452,
                "official_name": "Szko\u0142a Podstawowa w Gorzycach Wielkich",
                "name": "Szko\u0142a Podstawowa w Gorzycach Wielkich",
                "addr:country": "PL",
                "addr:postcode": "63-410",
                "addr:city": "Gorzyce Wielkie",
                "addr:street": "Szkolna",
                "addr:housenumber": "31a",
                "addr:teryt:simc": 21970,
                "addr:teryt:sym_ul": 205713,
                "contact:phone": "+48 627347418",
                "contact:email": "zsgorzyce@onet.eu",
                "contact:website": "http:\/\/www.zsgorzyce.szkolna.net",
                "ref:regon": "001173369",
                "operator": "Gmina Ostr\u00f3w Wielkopolski",
                "operator:type": "government",
                "amenity": "school"
            }
        },
        {
            "id": 72375,
            "type": "Feature",
            "geometry": {
                "type": "Point",
                "coordinates": [
                    17.72796,
                    51.64134
                ]
            },
            "properties": {
                "ref:rspo": 72375,
                "official_name": "Publiczne Przedszkole w Gorzycach Wielkich",
                "name": "Publiczne Przedszkole w Gorzycach Wielkich",
                "addr:country": "PL",
                "addr:postcode": "63-410",
                "addr:city": "Gorzyce Wielkie",
                "addr:street": "Szkolna",
                "addr:housenumber": "31b",
                "addr:teryt:simc": 21970,
                "addr:teryt:sym_ul": 205713,
                "contact:phone": "+48 627347395",
                "contact:email": "donata_jozefiak@vp.pl",
                "ref:regon": "251596455",
                "operator": "Gmina Ostr\u00f3w Wielkopolski",
                "operator:type": "government",
                "amenity": "kindergarten"
            }
        },
        {
            "id": 7776,
            "type": "Feature",
            "geometry": {
                "type": "Point",
                "coordinates": [
                    17.8198653,
                    51.6419135
                ]
            },
            "properties": {
                "ref:rspo": 7776,
                "official_name": "Zesp\u00f3\u0142 Szkolno-Przedszkolny w Topoli Ma\u0142ej",
                "name": "Zesp\u00f3\u0142 Szkolno-Przedszkolny w Topoli Ma\u0142ej",
                "addr:country": "PL",
                "addr:postcode": "63-410",
                "addr:place": "Topola Ma\u0142a",
                "addr:housenumber": "115",
                "addr:teryt:sym_ul": 206049,
                "contact:phone": "+48 501162646",
                "contact:email": "sp_topola@o2.pl",
                "contact:website": "http:\/\/zsptopolamala.edupage.org",
                "ref:regon": "302201414",
                "operator": "Gmina Ostr\u00f3w Wielkopolski",
                "operator:type": "government",
                "landuse": "education",
                "fixme": "amenity=school, amenity=college albo landuse=education w zale\u017cno\u015bci od tego, jakie plac\u00f3wki wchodz\u0105 w sk\u0142ad zespo\u0142u. Sprawd\u017a, kiedy stosowa\u0107 amenity=* a kiedy landuse=education.",
                "note": "Children RSPO: 110462;110465"
            }
        },
        {
            "id": 72380,
            "type": "Feature",
            "geometry": {
                "type": "Point",
                "coordinates": [
                    17.640334,
                    51.6552719
                ]
            },
            "properties": {
                "isced:level": "1;2",
                "ref:rspo": 72380,
                "official_name": "Szko\u0142a Podstawowa w Daniszynie",
                "name": "Szko\u0142a Podstawowa w Daniszynie",
                "addr:country": "PL",
                "addr:postcode": "63-410",
                "addr:place": "Daniszyn",
                "addr:housenumber": "35",
                "addr:teryt:sym_ul": 205630,
                "contact:phone": "+48 627348428",
                "contact:email": "daniszek@poczta.onet.pl",
                "contact:website": "http:\/\/spdaniszyn.szkolna.net",
                "ref:regon": "001173317",
                "ref:vatin": "PL6222364645",
                "operator": "Gmina Ostr\u00f3w Wielkopolski",
                "operator:type": "government",
                "amenity": "school"
            }
        },
        {
            "id": 72374,
            "type": "Feature",
            "geometry": {
                "type": "Point",
                "coordinates": [
                    17.641717,
                    51.65602
                ]
            },
            "properties": {
                "ref:rspo": 72374,
                "official_name": "Publiczne Przedszkole w Daniszynie",
                "name": "Publiczne Przedszkole w Daniszynie",
                "addr:country": "PL",
                "addr:postcode": "63-410",
                "addr:place": "Daniszyn",
                "addr:housenumber": "127b",
                "addr:teryt:sym_ul": 205630,
                "contact:phone": "+48 627348410",
                "contact:email": "ppdaniszyn@interia.pl",
                "contact:website": "http:\/\/przedszkoledaniszyn.edu.pl",
                "ref:regon": "251596461",
                "ref:vatin": "PL6222364645",
                "operator": "Gmina Ostr\u00f3w Wielkopolski",
                "operator:type": "government",
                "amenity": "kindergarten"
            }
        },
        {
            "id": 72376,
            "type": "Feature",
            "geometry": {
                "type": "Point",
                "coordinates": [
                    17.74588,
                    51.6571
                ]
            },
            "properties": {
                "ref:rspo": 72376,
                "official_name": "Publiczne Przedszkole w Lamkach",
                "name": "Publiczne Przedszkole w Lamkach",
                "addr:country": "PL",
                "addr:postcode": "63-400",
                "addr:city": "Lamki",
                "addr:street": "Szkolna",
                "addr:housenumber": "47",
                "addr:teryt:simc": 21970,
                "addr:teryt:sym_ul": 205819,
                "contact:phone": "+48 627349414",
                "contact:email": "przedszkole_wrobelka@wp.pl",
                "ref:regon": "251596366",
                "ref:vatin": "PL6222364645",
                "operator": "Gmina Ostr\u00f3w Wielkopolski",
                "operator:type": "government",
                "amenity": "kindergarten"
            }
        },
        {
            "id": 110447,
            "type": "Feature",
            "geometry": {
                "type": "Point",
                "coordinates": [
                    17.74588,
                    51.65707
                ]
            },
            "properties": {
                "isced:level": "1;2",
                "ref:rspo": 110447,
                "official_name": "Szko\u0142a Podstawowa w Lamkach",
                "name": "Szko\u0142a Podstawowa w Lamkach",
                "addr:country": "PL",
                "addr:postcode": "63-400",
                "addr:city": "Lamki",
                "addr:street": "Szkolna",
                "addr:housenumber": "47",
                "addr:teryt:simc": 21970,
                "addr:teryt:sym_ul": 205819,
                "contact:phone": "+48 627349418",
                "contact:email": "sz.pod.lamki@wp.pl",
                "contact:website": "http:\/\/www.splamki.pl",
                "ref:regon": "001173292",
                "operator": "Gmina Ostr\u00f3w Wielkopolski",
                "operator:type": "government",
                "amenity": "school"
            }
        },
        {
            "id": 120785,
            "type": "Feature",
            "geometry": {
                "type": "Point",
                "coordinates": [
                    17.65876,
                    51.66398
                ]
            },
            "properties": {
                "ref:rspo": 120785,
                "official_name": "Zesp\u00f3\u0142 Szkolno-Przedszkolny w \u0141\u0105kocinach",
                "name": "Zesp\u00f3\u0142 Szkolno-Przedszkolny w \u0141\u0105kocinach",
                "addr:country": "PL",
                "addr:postcode": "63-410",
                "addr:city": "\u0141\u0105kociny",
                "addr:street": "Szkolna",
                "addr:housenumber": "14",
                "addr:teryt:simc": 21970,
                "addr:teryt:sym_ul": 205877,
                "contact:phone": "+48 627348482",
                "contact:email": "sp_lakociny@op.pl",
                "contact:website": "http:\/\/zsplakociny.szkolnastrona.pl\/",
                "ref:regon": "302577125",
                "operator": "Dane Do Uzupe\u0142nienia",
                "operator:type": "private",
                "landuse": "education",
                "fixme": "amenity=school, amenity=college albo landuse=education w zale\u017cno\u015bci od tego, jakie plac\u00f3wki wchodz\u0105 w sk\u0142ad zespo\u0142u. Sprawd\u017a, kiedy stosowa\u0107 amenity=* a kiedy landuse=education.",
                "note": "Children RSPO: 120961;120963"
            }
        },
        {
            "id": 120961,
            "type": "Feature",
            "geometry": {
                "type": "Point",
                "coordinates": [
                    17.65876,
                    51.66395
                ]
            },
            "properties": {
                "isced:level": "1;2",
                "ref:rspo": 120961,
                "official_name": "Niepubliczna Szko\u0142a Podstawowa w \u0141\u0105kocinach",
                "name": "Niepubliczna Szko\u0142a Podstawowa w \u0141\u0105kocinach",
                "addr:country": "PL",
                "addr:postcode": "63-410",
                "addr:city": "\u0141\u0105kociny",
                "addr:street": "Szkolna",
                "addr:housenumber": "14",
                "addr:teryt:simc": 21970,
                "addr:teryt:sym_ul": 205877,
                "contact:phone": "+48 627348482",
                "contact:email": "sp_lakociny@op.pl",
                "contact:website": "http:\/\/zsplakociny.szkolnastrona.pl\/",
                "ref:regon": "302596163",
                "operator": "Dane Do Uzupe\u0142nienia",
                "operator:type": "private",
                "amenity": "school",
                "note": "Parent RSPO: 120785"
            }
        },
        {
            "id": 120963,
            "type": "Feature",
            "geometry": {
                "type": "Point",
                "coordinates": [
                    17.65876,
                    51.663920000000005
                ]
            },
            "properties": {
                "ref:rspo": 120963,
                "official_name": "Publiczne Przedszkole w \u0141\u0105kocinach",
                "name": "Publiczne Przedszkole w \u0141\u0105kocinach",
                "addr:country": "PL",
                "addr:postcode": "63-410",
                "addr:city": "\u0141\u0105kociny",
                "addr:street": "Szkolna",
                "addr:housenumber": "14",
                "addr:teryt:simc": 21970,
                "addr:teryt:sym_ul": 205877,
                "contact:phone": "+48 627348482",
                "ref:regon": "302596401",
                "operator": "Dane Do Uzupe\u0142nienia",
                "operator:type": "private",
                "amenity": "kindergarten",
                "note": "Parent RSPO: 120785"
            }
        },
        {
            "id": 72371,
            "type": "Feature",
            "geometry": {
                "type": "Point",
                "coordinates": [
                    17.87557,
                    51.67771
                ]
            },
            "properties": {
                "ref:rspo": 72371,
                "official_name": "Publiczne Przedszkole w Czekanowie",
                "name": "Publiczne Przedszkole w Czekanowie",
                "addr:country": "PL",
                "addr:postcode": "63-410",
                "addr:city": "Czekan\u00f3w",
                "addr:street": "Szkolna",
                "addr:housenumber": "6",
                "addr:teryt:simc": 21970,
                "addr:teryt:sym_ul": 205653,
                "contact:phone": "+48 627338610",
                "contact:email": "przedszkoleczekanow@wp.pl",
                "ref:regon": "251596426",
                "ref:vatin": "PL6222364645",
                "operator": "Gmina Ostr\u00f3w Wielkopolski",
                "operator:type": "government",
                "amenity": "kindergarten"
            }
        },
        {
            "id": 110442,
            "type": "Feature",
            "geometry": {
                "type": "Point",
                "coordinates": [
                    17.86342,
                    51.6917199
                ]
            },
            "properties": {
                "isced:level": "1;2",
                "ref:rspo": 110442,
                "official_name": "Szko\u0142a Podstawowa w Lewkowie",
                "name": "Szko\u0142a Podstawowa w Lewkowie",
                "addr:country": "PL",
                "addr:postcode": "63-410",
                "addr:city": "Lewk\u00f3w",
                "addr:street": "Szkolna",
                "addr:housenumber": "6",
                "addr:teryt:simc": 21970,
                "addr:teryt:sym_ul": 205848,
                "contact:phone": "+48 627350240",
                "contact:email": "splewkow@wp.pl",
                "contact:website": "http:\/\/www.zslewkow.szkolna.net",
                "ref:regon": "001173323",
                "operator": "Gmina Ostr\u00f3w Wielkopolski",
                "operator:type": "government",
                "amenity": "school"
            }
        },
        {
            "id": 88042,
            "type": "Feature",
            "geometry": {
                "type": "Point",
                "coordinates": [
                    17.86559,
                    51.6919899
                ]
            },
            "properties": {
                "ref:rspo": 88042,
                "official_name": "Publiczne Przedszkole w Lewkowie",
                "name": "Publiczne Przedszkole w Lewkowie",
                "addr:country": "PL",
                "addr:postcode": "63-410",
                "addr:city": "Lewk\u00f3w",
                "addr:street": "Szkolna",
                "addr:housenumber": "11a",
                "addr:teryt:simc": 21970,
                "addr:teryt:sym_ul": 205848,
                "contact:phone": "+48 627338712",
                "contact:email": "pplewkow@interia.pl",
                "ref:regon": "251596410",
                "ref:vatin": "PL6222364645",
                "operator": "Gmina Ostr\u00f3w Wielkopolski",
                "operator:type": "government",
                "amenity": "kindergarten"
            }
        },
        {
            "id": 132529,
            "type": "Feature",
            "geometry": {
                "type": "Point",
                "coordinates": [
                    17.861019134521,
                    51.692199707031
                ]
            },
            "properties": {
                "ref:rspo": 132529,
                "official_name": "Centrum Edukacji Bran",
                "name": "Centrum Edukacji Bran",
                "addr:country": "PL",
                "addr:postcode": "63-410",
                "addr:city": "Lewk\u00f3w",
                "addr:street": "Ostrowska",
                "addr:housenumber": "6",
                "addr:teryt:simc": 15390,
                "addr:teryt:sym_ul": 205848,
                "contact:phone": "+48 627338677",
                "contact:email": "biuro@bran.com.pl",
                "ref:regon": "365725737",
                "operator": "Centrum Edukacji Bran Arletta Nowicka",
                "operator:type": "consortium",
                "fixme": "w zale\u017cno\u015bci od przedmiotu dzia\u0142alno\u015bci (np. amenity=training + training=*, amenity=dancing_school, amenity=language_school, amenity=music_school)"
            }
        },
        {
            "id": 120787,
            "type": "Feature",
            "geometry": {
                "type": "Point",
                "coordinates": [
                    17.8144381,
                    51.6942949
                ]
            },
            "properties": {
                "ref:rspo": 120787,
                "official_name": "Zesp\u00f3\u0142 Szkolno-Przedszkolny we Franklinowie",
                "name": "Zesp\u00f3\u0142 Szkolno-Przedszkolny we Franklinowie",
                "addr:country": "PL",
                "addr:postcode": "63-400",
                "addr:place": "Franklin\u00f3w",
                "addr:housenumber": "43",
                "addr:teryt:sym_ul": 205699,
                "contact:phone": "+48 627349683",
                "contact:email": "sp_franklinow@wp.pl",
                "ref:regon": "302577042",
                "operator": "Dane Do Uzupe\u0142nienia",
                "operator:type": "private",
                "landuse": "education",
                "fixme": "amenity=school, amenity=college albo landuse=education w zale\u017cno\u015bci od tego, jakie plac\u00f3wki wchodz\u0105 w sk\u0142ad zespo\u0142u. Sprawd\u017a, kiedy stosowa\u0107 amenity=* a kiedy landuse=education.",
                "note": "Children RSPO: 120966;120967"
            }
        },
        {
            "id": 120966,
            "type": "Feature",
            "geometry": {
                "type": "Point",
                "coordinates": [
                    17.8144381,
                    51.6942649
                ]
            },
            "properties": {
                "isced:level": "1;2",
                "ref:rspo": 120966,
                "official_name": "Niepubliczna Szko\u0142a Podstawowa we Franklinowie",
                "name": "Niepubliczna Szko\u0142a Podstawowa we Franklinowie",
                "addr:country": "PL",
                "addr:postcode": "63-400",
                "addr:place": "Franklin\u00f3w",
                "addr:housenumber": "43",
                "addr:teryt:sym_ul": 205699,
                "contact:phone": "+48 627349683",
                "ref:regon": "302596335",
                "operator": "Dane Do Uzupe\u0142nienia",
                "operator:type": "private",
                "amenity": "school",
                "note": "Parent RSPO: 120787"
            }
        },
        {
            "id": 120967,
            "type": "Feature",
            "geometry": {
                "type": "Point",
                "coordinates": [
                    17.8144381,
                    51.694234900000005
                ]
            },
            "properties": {
                "ref:rspo": 120967,
                "official_name": "Publiczne Przedszkole we Franklinowie",
                "name": "Publiczne Przedszkole we Franklinowie",
                "addr:country": "PL",
                "addr:postcode": "63-400",
                "addr:place": "Franklin\u00f3w",
                "addr:housenumber": "43",
                "addr:teryt:sym_ul": 205699,
                "contact:phone": "+48 627349683",
                "ref:regon": "302596358",
                "operator": "Dane Do Uzupe\u0142nienia",
                "operator:type": "private",
                "amenity": "kindergarten",
                "note": "Parent RSPO: 120787"
            }
        },
        {
            "id": 120786,
            "type": "Feature",
            "geometry": {
                "type": "Point",
                "coordinates": [
                    17.8522919,
                    51.719739
                ]
            },
            "properties": {
                "ref:rspo": 120786,
                "official_name": "Zesp\u00f3\u0142 Szkolno-Przedszkolny w S\u0142aborowicach",
                "name": "Zesp\u00f3\u0142 Szkolno-Przedszkolny w S\u0142aborowicach",
                "addr:country": "PL",
                "addr:postcode": "63-410",
                "addr:place": "S\u0142aborowice",
                "addr:housenumber": "8",
                "addr:teryt:sym_ul": 205966,
                "contact:phone": "+48 627338905",
                "contact:email": "spslaborowice@wp.pl",
                "ref:regon": "302576976",
                "operator": "Dane Do Uzupe\u0142nienia",
                "operator:type": "private",
                "landuse": "education",
                "fixme": "amenity=school, amenity=college albo landuse=education w zale\u017cno\u015bci od tego, jakie plac\u00f3wki wchodz\u0105 w sk\u0142ad zespo\u0142u. Sprawd\u017a, kiedy stosowa\u0107 amenity=* a kiedy landuse=education.",
                "note": "Children RSPO: 120964;120965"
            }
        },
        {
            "id": 120964,
            "type": "Feature",
            "geometry": {
                "type": "Point",
                "coordinates": [
                    17.8522919,
                    51.719708999999995
                ]
            },
            "properties": {
                "isced:level": "1;2",
                "ref:rspo": 120964,
                "official_name": "Niepubliczna Szko\u0142a Podstawowa w S\u0142aborowicach",
                "name": "Niepubliczna Szko\u0142a Podstawowa w S\u0142aborowicach",
                "addr:country": "PL",
                "addr:postcode": "63-410",
                "addr:place": "S\u0142aborowice",
                "addr:housenumber": "8",
                "addr:teryt:sym_ul": 205966,
                "contact:phone": "+48 627338905",
                "contact:email": "spslaborowice@wp.pl",
                "contact:website": "http:\/\/www.zspslaborowice.szkolna.net",
                "ref:regon": "302596306",
                "operator": "Dane Do Uzupe\u0142nienia",
                "operator:type": "private",
                "amenity": "school",
                "note": "Parent RSPO: 120786"
            }
        },
        {
            "id": 120965,
            "type": "Feature",
            "geometry": {
                "type": "Point",
                "coordinates": [
                    17.8522919,
                    51.719679
                ]
            },
            "properties": {
                "ref:rspo": 120965,
                "official_name": "Publiczne Przedszkole w S\u0142aborowicach",
                "name": "Publiczne Przedszkole w S\u0142aborowicach",
                "addr:country": "PL",
                "addr:postcode": "63-410",
                "addr:place": "S\u0142aborowice",
                "addr:housenumber": "8",
                "addr:teryt:sym_ul": 205966,
                "contact:phone": "+48 627338905",
                "ref:regon": "302596312",
                "operator": "Dane Do Uzupe\u0142nienia",
                "operator:type": "private",
                "amenity": "kindergarten",
                "note": "Parent RSPO: 120786"
            }
        },
        {
            "id": 72385,
            "type": "Feature",
            "geometry": {
                "type": "Point",
                "coordinates": [
                    17.8144931,
                    51.7268619
                ]
            },
            "properties": {
                "isced:level": "1;2",
                "ref:rspo": 72385,
                "official_name": "Szko\u0142a Podstawowa w Szczurach",
                "name": "Szko\u0142a Podstawowa w Szczurach",
                "addr:country": "PL",
                "addr:postcode": "63-450",
                "addr:place": "Szczury",
                "addr:housenumber": "38",
                "addr:teryt:sym_ul": 206026,
                "contact:phone": "+48 627348795",
                "contact:email": "sp.szczury@onet.pl",
                "contact:website": "http:\/\/www.spszczury.szkolnastrona.pl",
                "ref:regon": "001173398",
                "ref:vatin": "PL6222364645",
                "operator": "Gmina Ostr\u00f3w Wielkopolski",
                "operator:type": "government",
                "amenity": "school"
            }
        },
        {
            "id": 10839,
            "type": "Feature",
            "geometry": {
                "type": "Point",
                "coordinates": [
                    17.80443,
                    51.7433459
                ]
            },
            "properties": {
                "ref:rspo": 10839,
                "official_name": "Publiczne Przedszkole w Biniewie",
                "name": "Publiczne Przedszkole w Biniewie",
                "addr:country": "PL",
                "addr:postcode": "63-450",
                "addr:place": "Biniew",
                "addr:housenumber": "26",
                "addr:teryt:sym_ul": 205587,
                "contact:phone": "+48 627348760",
                "contact:email": "ppbiniew@wp.pl",
                "contact:website": "http:\/\/ppbiniew.szkolnastrona.pl",
                "ref:regon": "302205501",
                "operator": "Gmina Ostr\u00f3w Wielkopolski",
                "operator:type": "government",
                "amenity": "kindergarten"
            }
        },
        {
            "id": 72372,
            "type": "Feature",
            "geometry": {
                "type": "Point",
                "coordinates": [
                    17.8185009,
                    51.775009
                ]
            },
            "properties": {
                "ref:rspo": 72372,
                "official_name": "Publiczne Przedszkole w Borowcu",
                "name": "Publiczne Przedszkole w Borowcu",
                "addr:country": "PL",
                "addr:postcode": "63-450",
                "addr:place": "Borowiec",
                "addr:housenumber": "16",
                "addr:teryt:sym_ul": 206010,
                "contact:phone": "+48 502633601",
                "ref:regon": "251596449",
                "ref:vatin": "PL6222364645",
                "operator": "Gmina Ostr\u00f3w Wielkopolski",
                "operator:type": "government",
                "amenity": "kindergarten"
            }
        },
        {
            "id": 110457,
            "type": "Feature",
            "geometry": {
                "type": "Point",
                "coordinates": [
                    17.8575231,
                    51.778683
                ]
            },
            "properties": {
                "isced:level": "1;2",
                "ref:rspo": 110457,
                "official_name": "Szko\u0142a Podstawowa w Sob\u00f3tce",
                "name": "Szko\u0142a Podstawowa w Sob\u00f3tce",
                "addr:country": "PL",
                "addr:postcode": "63-450",
                "addr:place": "Sob\u00f3tka",
                "addr:housenumber": "72",
                "addr:teryt:sym_ul": 206003,
                "contact:phone": "+48 627341260",
                "contact:email": "zssobotka@wp.pl",
                "contact:website": "http:\/\/www.zs-sobotka.osw24.pl",
                "ref:regon": "001173330",
                "operator": "Gmina Ostr\u00f3w Wielkopolski",
                "operator:type": "government",
                "amenity": "school"
            }
        },
        {
            "id": 72378,
            "type": "Feature",
            "geometry": {
                "type": "Point",
                "coordinates": [
                    17.8571772,
                    51.7793942
                ]
            },
            "properties": {
                "ref:rspo": 72378,
                "official_name": "Publiczne Przedszkole w Sob\u00f3tce",
                "name": "Publiczne Przedszkole w Sob\u00f3tce",
                "addr:country": "PL",
                "addr:postcode": "63-450",
                "addr:place": "Sob\u00f3tka",
                "addr:housenumber": "77",
                "addr:teryt:sym_ul": 206003,
                "contact:phone": "+48 627341212",
                "contact:email": "ppsobotka@wp.pl",
                "ref:regon": "251596372",
                "ref:vatin": "PL6222364645",
                "operator": "Gmina Ostr\u00f3w Wielkopolski",
                "operator:type": "government",
                "amenity": "kindergarten"
            }
        }
    ]
}