{
    "type": "FeatureCollection",
    "features": [
        {
            "id": 47069,
            "type": "Feature",
            "geometry": {
                "type": "Point",
                "coordinates": [
                    17.77358,
                    51.50399
                ]
            },
            "properties": {
                "isced:level": "1;2",
                "ref:rspo": 47069,
                "official_name": "Szko\u0142a Podstawowa w Czarnymlesie",
                "name": "Szko\u0142a Podstawowa w Czarnymlesie",
                "addr:postcode": "63-421",
                "addr:city": "Czarnylas",
                "addr:street": "Odolanowska",
                "addr:housenumber": "42",
                "addr:teryt:simc": 207385,
                "addr:teryt:sym_ul": 14746,
                "phone": "+48 627335009",
                "email": "sekretariat@spczarnylas.pl",
                "website": "http:\/\/www.zsczarnylas.pl",
                "ref:regon": "001173487",
                "operator": "Gmina Przygodzice",
                "operator:type": "government",
                "amenity": "school"
            }
        },
        {
            "id": 43950,
            "type": "Feature",
            "geometry": {
                "type": "Point",
                "coordinates": [
                    17.768030166626,
                    51.505981445312
                ]
            },
            "properties": {
                "ref:rspo": 43950,
                "official_name": "Publiczne Przedszkole Calineczka w Czarnymlesie",
                "name": "Publiczne Przedszkole Calineczka w Czarnymlesie",
                "addr:postcode": "63-421",
                "addr:city": "Czarnylas",
                "addr:street": "Ksi\u0119dza Wojciecha Liberskiego",
                "addr:housenumber": "3",
                "addr:teryt:simc": 207385,
                "addr:teryt:sym_ul": 55140,
                "phone": "+48 627335018",
                "email": "przedszkolecalineczka@wp.pl",
                "website": "http:\/\/www.przedszkole-calineczka.com",
                "ref:regon": "251598900",
                "operator": "Gmina Przygodzice",
                "operator:type": "government",
                "amenity": "kindergarten"
            }
        },
        {
            "id": 54273,
            "type": "Feature",
            "geometry": {
                "type": "Point",
                "coordinates": [
                    17.81916,
                    51.51122
                ]
            },
            "properties": {
                "ref:rspo": 54273,
                "official_name": "Szkolne Schronisko M\u0142odzie\u017cowe w Ludwikowie",
                "name": "Szkolne Schronisko M\u0142odzie\u017cowe w Ludwikowie",
                "addr:postcode": "63-421",
                "addr:city": "Ludwik\u00f3w",
                "addr:street": "Szkolna",
                "addr:housenumber": "13",
                "addr:teryt:simc": 207422,
                "addr:teryt:sym_ul": 21970,
                "phone": "+48 627350036",
                "email": "szkoladebnica@interia.pl",
                "ref:regon": "300806248",
                "operator": "Gmina Przygodzice",
                "operator:type": "government",
                "tourism": "hostel",
                "note": "Parent RSPO: 30274"
            }
        },
        {
            "id": 30274,
            "type": "Feature",
            "geometry": {
                "type": "Point",
                "coordinates": [
                    17.78563,
                    51.54661
                ]
            },
            "properties": {
                "ref:rspo": 30274,
                "official_name": "Zesp\u00f3\u0142 Szk\u00f3\u0142 w D\u0119bnicy",
                "name": "Zesp\u00f3\u0142 Szk\u00f3\u0142 w D\u0119bnicy",
                "addr:postcode": "63-421",
                "addr:city": "D\u0119bnica",
                "addr:street": "Ostrowska",
                "addr:housenumber": "140",
                "addr:teryt:simc": 207391,
                "addr:teryt:sym_ul": 15390,
                "phone": "+48 627350036",
                "email": "szkoladebnica@interia.pl",
                "website": "http:\/\/www.zsdebnica.pl",
                "ref:regon": "251596811",
                "operator": "Gmina Przygodzice",
                "operator:type": "government",
                "landuse": "education",
                "fixme": "amenity=school, amenity=college albo landuse=education w zale\u017cno\u015bci od tego, jakie plac\u00f3wki wchodz\u0105 w sk\u0142ad zespo\u0142u. Sprawd\u017a, kiedy stosowa\u0107 amenity=* a kiedy landuse=education.",
                "note": "Children RSPO: 49086;54273"
            }
        },
        {
            "id": 49086,
            "type": "Feature",
            "geometry": {
                "type": "Point",
                "coordinates": [
                    17.78563,
                    51.54658
                ]
            },
            "properties": {
                "isced:level": "1;2",
                "ref:rspo": 49086,
                "official_name": "Szko\u0142a Podstawowa im. Polskich Olimpijczyk\u00f3w w D\u0119bnicy",
                "name": "Szko\u0142a Podstawowa",
                "addr:postcode": "63-421",
                "addr:city": "D\u0119bnica",
                "addr:street": "Ostrowska",
                "addr:housenumber": "140",
                "addr:teryt:simc": 207391,
                "addr:teryt:sym_ul": 15390,
                "phone": "+48 627350036",
                "email": "szkoladebnica@interia.pl",
                "website": "http:\/\/www.zsdebnica.pl",
                "ref:regon": "001171991",
                "operator": "Gmina Przygodzice",
                "operator:type": "government",
                "amenity": "school",
                "note": "Parent RSPO: 30274"
            }
        },
        {
            "id": 31396,
            "type": "Feature",
            "geometry": {
                "type": "Point",
                "coordinates": [
                    17.79904,
                    51.54942
                ]
            },
            "properties": {
                "ref:rspo": 31396,
                "official_name": "Publiczne Przedszkole \"Stokrotka\" w D\u0119bnicy",
                "name": "Publiczne Przedszkole \"Stokrotka\" w D\u0119bnicy",
                "addr:postcode": "63-421",
                "addr:city": "D\u0119bnica",
                "addr:street": "Ostrowska",
                "addr:housenumber": "74",
                "addr:teryt:simc": 207391,
                "addr:teryt:sym_ul": 15390,
                "phone": "+48 627337134",
                "email": "przedszkole_debnica@interia.pl",
                "ref:regon": "251598885",
                "operator": "Gmina Przygodzice",
                "operator:type": "government",
                "amenity": "kindergarten"
            }
        },
        {
            "id": 44208,
            "type": "Feature",
            "geometry": {
                "type": "Point",
                "coordinates": [
                    17.923022,
                    51.5516299
                ]
            },
            "properties": {
                "isced:level": "1;2",
                "ref:rspo": 44208,
                "official_name": "Szko\u0142a Podstawowa im. Marii Konopnickiej w Przygodziczkach",
                "name": "Szko\u0142a Podstawowa",
                "addr:postcode": "63-421",
                "addr:place": "Przygodziczki",
                "addr:housenumber": "32",
                "addr:teryt:simc": 207468,
                "phone": "+48 627398124",
                "email": "s.p.przygodziczki@wp.pl",
                "website": "http:\/\/s-p-przygodziczki.pl",
                "ref:regon": "001173470",
                "operator": "Gmina Przygodzice",
                "operator:type": "government",
                "amenity": "school"
            }
        },
        {
            "id": 47068,
            "type": "Feature",
            "geometry": {
                "type": "Point",
                "coordinates": [
                    17.928181,
                    51.5662079
                ]
            },
            "properties": {
                "isced:level": "1;2",
                "ref:rspo": 47068,
                "official_name": "Szko\u0142a Podstawowa im. Kardyna\u0142a Karola Wojty\u0142y w Chynowej",
                "name": "Szko\u0142a Podstawowa",
                "addr:postcode": "63-421",
                "addr:place": "Chynowa",
                "addr:housenumber": "70a",
                "addr:teryt:simc": 207379,
                "phone": "+48 627398184",
                "email": "spchynowa@wp.pl",
                "website": "http:\/\/www.spchynowa.szkolna.net",
                "ref:regon": "001172000",
                "operator": "Gmina Przygodzice",
                "operator:type": "government",
                "amenity": "school"
            }
        },
        {
            "id": 26782,
            "type": "Feature",
            "geometry": {
                "type": "Point",
                "coordinates": [
                    17.82398,
                    51.58872
                ]
            },
            "properties": {
                "ref:rspo": 26782,
                "official_name": "Zesp\u00f3\u0142 Szk\u00f3\u0142 Ponadpodstawowych Centrum Kszta\u0142cenia Ustawicznego",
                "name": "Zesp\u00f3\u0142 Szk\u00f3\u0142 Ponadpodstawowych Centrum Kszta\u0142cenia Ustawicznego",
                "addr:postcode": "63-421",
                "addr:city": "Przygodzice",
                "addr:street": "PTR",
                "addr:housenumber": "6",
                "addr:teryt:simc": 207439,
                "addr:teryt:sym_ul": 18064,
                "phone": "+48 627336131",
                "email": "zspcku@poczta.onet.pl",
                "website": "https:\/\/zspcku.edupage.org\/",
                "ref:regon": "000099694",
                "ref:vatin": "PL6222164805",
                "operator": "Powiat Ostrowski",
                "operator:type": "government",
                "landuse": "education",
                "fixme": "amenity=school, amenity=college albo landuse=education w zale\u017cno\u015bci od tego, jakie plac\u00f3wki wchodz\u0105 w sk\u0142ad zespo\u0142u. Sprawd\u017a, kiedy stosowa\u0107 amenity=* a kiedy landuse=education.",
                "note": "Children RSPO: 47534;56755;56756;56757;68565;68566"
            }
        },
        {
            "id": 47534,
            "type": "Feature",
            "geometry": {
                "type": "Point",
                "coordinates": [
                    17.82398,
                    51.58869
                ]
            },
            "properties": {
                "isced:level": "3",
                "ref:rspo": 47534,
                "official_name": "Liceum Og\u00f3lnokszta\u0142c\u0105ce",
                "name": "Liceum Og\u00f3lnokszta\u0142c\u0105ce",
                "addr:postcode": "63-421",
                "addr:city": "Przygodzice",
                "addr:street": "PTR",
                "addr:housenumber": "6",
                "addr:teryt:simc": 207439,
                "addr:teryt:sym_ul": 18064,
                "phone": "+48 627336131",
                "email": "zspcku@poczta.onet.pl",
                "website": "https:\/\/zspcku.edupage.org\/",
                "ref:regon": "251595540",
                "operator": "Powiat Ostrowski",
                "operator:type": "government",
                "amenity": "school",
                "note": "Parent RSPO: 26782"
            }
        },
        {
            "id": 56755,
            "type": "Feature",
            "geometry": {
                "type": "Point",
                "coordinates": [
                    17.82398,
                    51.588660000000004
                ]
            },
            "properties": {
                "isced:level": "3",
                "ref:rspo": 56755,
                "official_name": "Technikum",
                "name": "Technikum",
                "addr:postcode": "63-421",
                "addr:city": "Przygodzice",
                "addr:street": "PTR",
                "addr:housenumber": "6",
                "addr:teryt:simc": 207439,
                "addr:teryt:sym_ul": 18064,
                "phone": "+48 627336131",
                "email": "zspcku@poczta.onet.pl",
                "website": "https:\/\/zspcku.edupage.org\/",
                "ref:regon": "251595579",
                "operator": "Powiat Ostrowski",
                "operator:type": "government",
                "amenity": "school",
                "note": "Parent RSPO: 26782"
            }
        },
        {
            "id": 56756,
            "type": "Feature",
            "geometry": {
                "type": "Point",
                "coordinates": [
                    17.82398,
                    51.58863
                ]
            },
            "properties": {
                "isced:level": "3",
                "ref:rspo": 56756,
                "official_name": "Bran\u017cowa Szko\u0142a I Stopnia",
                "name": "Bran\u017cowa Szko\u0142a I Stopnia",
                "addr:postcode": "63-421",
                "addr:city": "Przygodzice",
                "addr:street": "PTR",
                "addr:housenumber": "6",
                "addr:teryt:simc": 207439,
                "addr:teryt:sym_ul": 18064,
                "phone": "+48 627336131",
                "email": "zspcku@poczta.onet.pl",
                "website": "https:\/\/zspcku.edupage.org\/",
                "ref:regon": "251595562",
                "operator": "Powiat Ostrowski",
                "operator:type": "government",
                "amenity": "school",
                "note": "Parent RSPO: 26782"
            }
        },
        {
            "id": 56757,
            "type": "Feature",
            "geometry": {
                "type": "Point",
                "coordinates": [
                    17.82398,
                    51.5886
                ]
            },
            "properties": {
                "isced:level": "3",
                "ref:rspo": 56757,
                "official_name": "Liceum Og\u00f3lnokszta\u0142c\u0105ce dla Doros\u0142ych",
                "name": "Liceum Og\u00f3lnokszta\u0142c\u0105ce dla Doros\u0142ych",
                "addr:postcode": "63-421",
                "addr:city": "Przygodzice",
                "addr:street": "PTR",
                "addr:housenumber": "6",
                "addr:teryt:simc": 207439,
                "addr:teryt:sym_ul": 18064,
                "phone": "+48 627336131",
                "email": "zspcku@poczta.onet.pl",
                "website": "https:\/\/zspcku.edupage.org\/",
                "ref:regon": "302256697",
                "operator": "Powiat Ostrowski",
                "operator:type": "government",
                "amenity": "school",
                "note": "Parent RSPO: 26782"
            }
        },
        {
            "id": 68565,
            "type": "Feature",
            "geometry": {
                "type": "Point",
                "coordinates": [
                    17.82398,
                    51.588570000000004
                ]
            },
            "properties": {
                "isced:level": "4",
                "ref:rspo": 68565,
                "official_name": "Szko\u0142a Policealna",
                "name": "Szko\u0142a Policealna",
                "addr:postcode": "63-421",
                "addr:city": "Przygodzice",
                "addr:street": "PTR",
                "addr:housenumber": "6",
                "addr:teryt:simc": 207439,
                "addr:teryt:sym_ul": 18064,
                "phone": "+48 627336131",
                "email": "zspcku@poczta.onet.pl",
                "website": "https:\/\/zspcku.edupage.org\/",
                "ref:regon": "300127671",
                "operator": "Powiat Ostrowski",
                "operator:type": "government",
                "amenity": "college",
                "note": "Parent RSPO: 26782"
            }
        },
        {
            "id": 68566,
            "type": "Feature",
            "geometry": {
                "type": "Point",
                "coordinates": [
                    17.82398,
                    51.58854
                ]
            },
            "properties": {
                "ref:rspo": 68566,
                "official_name": "Centrum Kszta\u0142cenia Ustawicznego",
                "name": "Centrum Kszta\u0142cenia Ustawicznego",
                "addr:postcode": "63-421",
                "addr:city": "Przygodzice",
                "addr:street": "PTR",
                "addr:housenumber": "6",
                "addr:teryt:simc": 207439,
                "addr:teryt:sym_ul": 18064,
                "phone": "+48 627336131",
                "email": "zspcku@poczta.onet.pl",
                "ref:regon": "302261385",
                "operator": "Powiat Ostrowski",
                "operator:type": "government",
                "fixme": "w zale\u017cno\u015bci od przedmiotu dzia\u0142alno\u015bci (np. amenity=training + training=*, amenity=dancing_school, amenity=language_school, amenity=music_school)",
                "note": "Parent RSPO: 26782"
            }
        },
        {
            "id": 35337,
            "type": "Feature",
            "geometry": {
                "type": "Point",
                "coordinates": [
                    17.82591,
                    51.59053
                ]
            },
            "properties": {
                "ref:rspo": 35337,
                "official_name": "Publiczne Przedszkole im. Jasia I Ma\u0142gosi w Przygodzicach",
                "name": "Publiczne Przedszkole",
                "addr:postcode": "63-421",
                "addr:city": "Przygodzice",
                "addr:street": "S\u0142oneczna",
                "addr:housenumber": "3D",
                "addr:teryt:simc": 207439,
                "addr:teryt:sym_ul": 20254,
                "phone": "+48 625927337",
                "email": "przedszkoleprzygodzice@wp.pl",
                "website": "http:\/\/www.przedszkoleprzygodzice.pl",
                "ref:regon": "251598879",
                "operator": "Gmina Przygodzice",
                "operator:type": "government",
                "amenity": "kindergarten"
            }
        },
        {
            "id": 54272,
            "type": "Feature",
            "geometry": {
                "type": "Point",
                "coordinates": [
                    17.82542,
                    51.59106
                ]
            },
            "properties": {
                "isced:level": "1;2",
                "ref:rspo": 54272,
                "official_name": "Szko\u0142a Podstawowa im. Or\u0142a Bia\u0142ego w Przygodzicach",
                "name": "Szko\u0142a Podstawowa",
                "addr:postcode": "63-421",
                "addr:city": "Przygodzice",
                "addr:street": "Wysocka",
                "addr:housenumber": "2",
                "addr:teryt:simc": 207439,
                "addr:teryt:sym_ul": 25054,
                "phone": "+48 625927005",
                "email": "spprzygodzice@poczta.fm",
                "website": "http:\/\/www.zsprzygodzice.blink.pl",
                "ref:regon": "000552225",
                "operator": "Gmina Przygodzice",
                "operator:type": "government",
                "amenity": "school"
            }
        },
        {
            "id": 47071,
            "type": "Feature",
            "geometry": {
                "type": "Point",
                "coordinates": [
                    17.78945,
                    51.59604
                ]
            },
            "properties": {
                "isced:level": "1;2",
                "ref:rspo": 47071,
                "official_name": "Szko\u0142a Podstawowa im. Powsta\u0144c\u00f3w Wielkopolskich w Jankowie Przygodzkim",
                "name": "Szko\u0142a Podstawowa",
                "addr:postcode": "63-421",
                "addr:city": "Jank\u00f3w Przygodzki",
                "addr:street": "Szkolna",
                "addr:housenumber": "4",
                "addr:teryt:simc": 207416,
                "addr:teryt:sym_ul": 21970,
                "phone": "+48 627350672",
                "email": "spjankow@wp.pl",
                "website": "http:\/\/www.szkolajankowprzygodzki.pl",
                "ref:regon": "001173464",
                "operator": "Gmina Przygodzice",
                "operator:type": "government",
                "amenity": "school"
            }
        },
        {
            "id": 43951,
            "type": "Feature",
            "geometry": {
                "type": "Point",
                "coordinates": [
                    17.78803,
                    51.59638
                ]
            },
            "properties": {
                "ref:rspo": 43951,
                "official_name": "Publiczne Przedszkole Bajka w Jankowie Przygodzkim",
                "name": "Publiczne Przedszkole Bajka w Jankowie Przygodzkim",
                "addr:postcode": "63-421",
                "addr:city": "Jank\u00f3w Przygodzki",
                "addr:street": "Szkolna",
                "addr:housenumber": "2",
                "addr:teryt:simc": 207416,
                "addr:teryt:sym_ul": 21970,
                "phone": "+48 627382498",
                "email": "przedszkolejankow@wp.pl",
                "ref:regon": "251598891",
                "operator": "Gmina Przygodzice",
                "operator:type": "government",
                "amenity": "kindergarten"
            }
        },
        {
            "id": 49646,
            "type": "Feature",
            "geometry": {
                "type": "Point",
                "coordinates": [
                    17.84109,
                    51.61045
                ]
            },
            "properties": {
                "isced:level": "1;2",
                "ref:rspo": 49646,
                "official_name": "Szko\u0142a Podstawowa im. Miko\u0142aja Kopernika w Wysocku Ma\u0142ym",
                "name": "Szko\u0142a Podstawowa",
                "addr:postcode": "63-421",
                "addr:city": "Wysocko Ma\u0142e",
                "addr:street": "Ko\u015bcielna",
                "addr:housenumber": "22",
                "addr:teryt:simc": 207505,
                "addr:teryt:sym_ul": 9546,
                "phone": "+48 625926977",
                "email": "dyrspwysockom@poczta.fm",
                "website": "http:\/\/www.zs-wysockomale.edu.pl",
                "ref:regon": "001173458",
                "operator": "Gmina Przygodzice",
                "operator:type": "government",
                "amenity": "school"
            }
        }
    ]
}