{"type":"FeatureCollection","features":[{"id":59990,"type":"Feature","geometry":{"type":"Point","coordinates":[18.0768552,51.6766519]},"properties":{"isced:level":"1;2","ref:rspo":59990,"official_name":"Szko\u0142a Podstawowa Imienia B\u0142ogos\u0142awionego Ksi\u0119dza Jana Nepomucena Chrzana w Gostyczynie","name":"Szko\u0142a Podstawowa Imienia B\u0142ogos\u0142awionego Ksi\u0119dza Jana Nepomucena Chrzana w Gostyczynie","addr:country":"PL","addr:postcode":"63-460","addr:place":"Gostyczyna","addr:housenumber":"48","addr:teryt:sym_ul":204599,"contact:phone":"+48 627623003","contact:email":"spgostyczyna@noweskalmierzyce.pl","contact:website":"http:\/\/spgostyczyna.noweskalmierzyce.pl","ref:regon":"001228998","operator":"Gmina I Miasto Nowe Skalmierzyce","operator:type":"government","amenity":"school"}},{"id":49782,"type":"Feature","geometry":{"type":"Point","coordinates":[17.94998,51.67816]},"properties":{"isced:level":"1;2","ref:rspo":49782,"official_name":"Szko\u0142a Podstawowa Imienia Or\u0142a Bia\u0142ego w Biskupicach O\u0142obocznych","name":"Szko\u0142a Podstawowa Imienia Or\u0142a Bia\u0142ego w Biskupicach O\u0142obocznych","addr:country":"PL","addr:postcode":"63-460","addr:city":"Biskupice O\u0142oboczne","addr:street":"ul. Szkolna","addr:housenumber":"7","addr:teryt:simc":21970,"addr:teryt:sym_ul":204441,"contact:email":"spbiskupice@noweskalmierzyce.pl","contact:website":"http:\/\/www.spbiskupice.noweskalmierzyce.pl","ref:regon":"001228188","ref:vatin":"PL6222392937","operator":"Gmina I Miasto Nowe Skalmierzyce","operator:type":"government","amenity":"school"}},{"id":59102,"type":"Feature","geometry":{"type":"Point","coordinates":[17.98111,51.7029799]},"properties":{"isced:level":"1;2","ref:rspo":59102,"official_name":"Szko\u0142a Podstawowa Imienia Adama Mickiewicza w Skalmierzycach","name":"Szko\u0142a Podstawowa Imienia Adama Mickiewicza w Skalmierzycach","addr:country":"PL","addr:postcode":"63-460","addr:city":"Skalmierzyce","addr:street":"ul. Ostrowska","addr:housenumber":"16","addr:teryt:simc":15390,"addr:teryt:sym_ul":204748,"contact:phone":"+48 627621302","contact:email":"spskalmierzyce@noweskalmierzyce.pl","contact:website":"http:\/\/www.spskalmierzyce.noweskalmierzyce.pl","ref:regon":"001228171","ref:vatin":"PL6222392831","operator":"Gmina I Miasto Nowe Skalmierzyce","operator:type":"government","amenity":"school"}},{"id":49746,"type":"Feature","geometry":{"type":"Point","coordinates":[17.92258,51.7061]},"properties":{"ref:rspo":49746,"official_name":"Publiczne Przedszkole w Oci\u0105\u017cu","name":"Publiczne Przedszkole w Oci\u0105\u017cu","addr:country":"PL","addr:postcode":"63-460","addr:city":"Fabian\u00f3w","addr:street":"ul. Szkolna","addr:housenumber":"54","addr:teryt:simc":21970,"addr:teryt:sym_ul":204530,"contact:phone":"+48 625804138","contact:email":"ppociaz@noweskalmierzyce.pl","contact:website":"http:\/\/www.ppociaz.noweskalmierzyce.pl","ref:regon":"251476685","ref:vatin":"PL6222392860","operator":"Gmina I Miasto Nowe Skalmierzyce","operator:type":"government","amenity":"kindergarten"}},{"id":49731,"type":"Feature","geometry":{"type":"Point","coordinates":[17.99531,51.70621]},"properties":{"ref:rspo":49731,"official_name":"Publiczne Przedszkole Nr 2 \"Pod Kasztanami\" w Nowych Skalmierzycach","name":"Publiczne Przedszkole Nr 2 \"Pod Kasztanami\" w Nowych Skalmierzycach","addr:country":"PL","addr:postcode":"63-460","addr:city":"Nowe Skalmierzyce","addr:street":"ul. Kolejowa","addr:housenumber":"16","addr:teryt:simc":8828,"addr:teryt:sym_ul":937089,"contact:email":"podkasztanami@noweskalmierzyce.pl","contact:website":"http:\/\/www.podkasztanami.noweskalmierzyce.pl","ref:regon":"250648948","ref:vatin":"PL6222392877","operator":"Gmina I Miasto Nowe Skalmierzyce","operator:type":"government","amenity":"kindergarten"}},{"id":84708,"type":"Feature","geometry":{"type":"Point","coordinates":[17.9235599,51.70639]},"properties":{"isced:level":"1;2","ref:rspo":84708,"official_name":"Szko\u0142a Podstawowa Imienia Jana Paw\u0142a II w Oci\u0105\u017cu","name":"Szko\u0142a Podstawowa Imienia Jana Paw\u0142a II w Oci\u0105\u017cu","addr:country":"PL","addr:postcode":"63-460","addr:city":"Fabian\u00f3w","addr:street":"ul. Szkolna","addr:housenumber":"56","addr:teryt:simc":21970,"addr:teryt:sym_ul":204530,"contact:phone":"+48 627622116","contact:email":"zsociaz@noweskalmierzyce.pl","contact:website":"http:\/\/www.zsociaz.noweskalmierzyce.pl","ref:regon":"001228194","ref:vatin":"PL6222392848","operator":"Gmina I Miasto Nowe Skalmierzyce","operator:type":"government","amenity":"school"}},{"id":59076,"type":"Feature","geometry":{"type":"Point","coordinates":[17.99006,51.70699]},"properties":{"isced:level":"1;2","ref:rspo":59076,"official_name":"Szko\u0142a Podstawowa Z Oddzia\u0142ami Integracyjnymi Imienia Powsta\u0144c\u00f3w Wielkopolskich w Nowych Skalmierzycach","name":"Szko\u0142a Podstawowa Z Oddzia\u0142ami Integracyjnymi Imienia Powsta\u0144c\u00f3w Wielkopolskich w Nowych Skalmierzycach","addr:country":"PL","addr:postcode":"63-460","addr:city":"Nowe Skalmierzyce","addr:street":"ul. Ok\u00f3lna","addr:housenumber":"8","addr:teryt:simc":14890,"addr:teryt:sym_ul":937089,"contact:email":"sp@noweskalmierzyce.pl","contact:website":"http:\/\/www.sp.noweskalmierzyce.pl","ref:regon":"000640372","ref:vatin":"PL6222392908","operator":"Gmina I Miasto Nowe Skalmierzyce","operator:type":"government","amenity":"school"}},{"id":133879,"type":"Feature","geometry":{"type":"Point","coordinates":[17.99144,51.71017]},"properties":{"isced:level":"1;2","ref:rspo":133879,"official_name":"Szko\u0142a Podstawowa Imienia Polskich Noblist\u00f3w w Nowych Skalmierzycach","name":"Szko\u0142a Podstawowa Imienia Polskich Noblist\u00f3w w Nowych Skalmierzycach","addr:country":"PL","addr:postcode":"63-460","addr:city":"Nowe Skalmierzyce","addr:street":"ul. Kaliska","addr:housenumber":"52","addr:teryt:simc":7823,"addr:teryt:sym_ul":937089,"contact:phone":"+48 627621371","contact:email":"spnoweskalmierzyce@onet.pl","contact:website":"http:\/\/sppn.noweskalmierzyce.pl","ref:regon":"367704171","ref:vatin":"PL6222806095","operator":"Gmina I Miasto Nowe Skalmierzyce","operator:type":"government","amenity":"school"}},{"id":49706,"type":"Feature","geometry":{"type":"Point","coordinates":[17.98926,51.71096]},"properties":{"ref:rspo":49706,"official_name":"Publiczne Przedszkole Nr 1 \"Jarz\u0119binka\" w Nowych Skalmierzycach","name":"Publiczne Przedszkole Nr 1 \"Jarz\u0119binka\" w Nowych Skalmierzycach","addr:country":"PL","addr:postcode":"63-460","addr:city":"Nowe Skalmierzyce","addr:street":"ul. gen. Hallera","addr:housenumber":"1","addr:teryt:simc":6480,"addr:teryt:sym_ul":937089,"contact:email":"jarzebinka@noweskalmierzyce.pl","contact:website":"http:\/\/www.jarzebinka.noweskalmierzyce.pl","ref:regon":"251481516","ref:vatin":"PL6222392825","operator":"Gmina I Miasto Nowe Skalmierzyce","operator:type":"government","amenity":"kindergarten"}},{"id":49775,"type":"Feature","geometry":{"type":"Point","coordinates":[17.932999,51.754458]},"properties":{"isced:level":"1;2","ref:rspo":49775,"official_name":"Szko\u0142a Podstawowa Imienia Marii Konopnickiej w Droszewie","name":"Szko\u0142a Podstawowa Imienia Marii Konopnickiej w Droszewie","addr:country":"PL","addr:postcode":"63-460","addr:place":"Droszew","addr:housenumber":"21","addr:teryt:sym_ul":204493,"contact:email":"spdroszew@noweskalmierzyce.pl","contact:website":"http:\/\/www.spdroszew.noweskalmierzyce.pl","ref:regon":"001228981","ref:vatin":"PL6222392920","operator":"Gmina I Miasto Nowe Skalmierzyce","operator:type":"government","amenity":"school"}},{"id":59033,"type":"Feature","geometry":{"type":"Point","coordinates":[17.95067,51.77002]},"properties":{"ref:rspo":59033,"official_name":"Zesp\u00f3\u0142 Szkolno Przedszkolny w Kotowiecku","name":"Zesp\u00f3\u0142 Szkolno Przedszkolny w Kotowiecku","addr:country":"PL","addr:postcode":"63-460","addr:city":"Kotowiecko","addr:street":"ul. Kaliska","addr:housenumber":"4","addr:teryt:simc":7823,"addr:teryt:sym_ul":204607,"contact:email":"zspkotowiecko@noweskalmierzyce.pl","contact:website":"http:\/\/www.zspkotowiecko.noweskalmierzyce.pl","ref:regon":"251629172","operator":"Gmina I Miasto Nowe Skalmierzyce","operator:type":"government","landuse":"education","fixme":"amenity=school, amenity=college albo landuse=education w zale\u017cno\u015bci od tego, jakie plac\u00f3wki wchodz\u0105 w sk\u0142ad zespo\u0142u. Sprawd\u017a, kiedy stosowa\u0107 amenity=* a kiedy landuse=education.","note":"Children RSPO: 84705;84706"}},{"id":84705,"type":"Feature","geometry":{"type":"Point","coordinates":[17.95067,51.76999]},"properties":{"ref:rspo":84705,"official_name":"Publiczne Przedszkole w Kotowiecku","name":"Publiczne Przedszkole w Kotowiecku","addr:country":"PL","addr:postcode":"63-460","addr:city":"Kotowiecko","addr:street":"ul. Kaliska","addr:housenumber":"4","addr:teryt:simc":7823,"addr:teryt:sym_ul":204607,"contact:email":"zspkotowiecko@noweskalmierzyce.pl","contact:website":"http:\/\/www.zspkotowiecko.noweskalmierzyce.pl","ref:regon":"251477147","operator":"Gmina I Miasto Nowe Skalmierzyce","operator:type":"government","amenity":"kindergarten","note":"Parent RSPO: 59033"}},{"id":84706,"type":"Feature","geometry":{"type":"Point","coordinates":[17.95067,51.769960000000005]},"properties":{"isced:level":"1;2","ref:rspo":84706,"official_name":"Szko\u0142a Podstawowa Imienia Janusza Korczaka w Kotowiecku","name":"Szko\u0142a Podstawowa Imienia Janusza Korczaka w Kotowiecku","addr:country":"PL","addr:postcode":"63-460","addr:city":"Kotowiecko","addr:street":"ul. Kaliska","addr:housenumber":"4","addr:teryt:simc":7823,"addr:teryt:sym_ul":204607,"contact:phone":"+48 627624020","contact:email":"zspkotowiecko@noweskalmierzyce.pl","contact:website":"http:\/\/www.zspkotowiecko.noweskalmierzyce.pl","ref:regon":"001228219","operator":"Gmina I Miasto Nowe Skalmierzyce","operator:type":"government","amenity":"school","note":"Parent RSPO: 59033"}}]}