{
    "type": "FeatureCollection",
    "features": [
        {
            "id": 72747,
            "type": "Feature",
            "geometry": {
                "type": "Point",
                "coordinates": [
                    18.147026,
                    51.540535
                ]
            },
            "properties": {
                "isced:level": "1;2",
                "ref:rspo": 72747,
                "official_name": "Szko\u0142a Podstawowa w Zamo\u015bciu",
                "name": "Szko\u0142a Podstawowa w Zamo\u015bciu",
                "addr:country": "PL",
                "addr:postcode": "63-520",
                "addr:place": "Zamo\u015b\u0107",
                "addr:housenumber": "14",
                "addr:teryt:simc": 208522,
                "contact:phone": "+48 627399527",
                "contact:email": "spzamosc@sieroszewice.pl",
                "contact:website": "http:\/\/www.sp-zamosc.eu",
                "ref:regon": "001171979",
                "ref:vatin": "PL6222406496",
                "operator": "Gmina Sieroszewice",
                "operator:type": "government",
                "amenity": "school"
            }
        },
        {
            "id": 66219,
            "type": "Feature",
            "geometry": {
                "type": "Point",
                "coordinates": [
                    18.08607,
                    51.59854
                ]
            },
            "properties": {
                "ref:rspo": 66219,
                "official_name": "Publiczne Przedszkole w Wielowsi",
                "name": "Publiczne Przedszkole w Wielowsi",
                "addr:country": "PL",
                "addr:postcode": "63-405",
                "addr:city": "Wielowie\u015b",
                "addr:street": "S\u0142oneczna",
                "addr:housenumber": "7",
                "addr:teryt:simc": 208485,
                "addr:teryt:sym_ul": 20254,
                "contact:phone": "+48 627390060",
                "contact:email": "ppwielowies@sieroszewice.pl",
                "contact:website": "http:\/\/www.facebook.com\/publiczne przedszkole w wielowsi",
                "ref:regon": "251485230",
                "ref:vatin": "PL6222406533",
                "operator": "Gmina Sieroszewice",
                "operator:type": "government",
                "amenity": "kindergarten"
            }
        },
        {
            "id": 72765,
            "type": "Feature",
            "geometry": {
                "type": "Point",
                "coordinates": [
                    18.06318,
                    51.6008
                ]
            },
            "properties": {
                "isced:level": "1;2",
                "ref:rspo": 72765,
                "official_name": "Szko\u0142a Podstawowa w Masanowie",
                "name": "Szko\u0142a Podstawowa w Masanowie",
                "addr:country": "PL",
                "addr:postcode": "63-405",
                "addr:city": "Masan\u00f3w",
                "addr:street": "Lipowa",
                "addr:housenumber": "40",
                "addr:teryt:simc": 208290,
                "addr:teryt:sym_ul": 11139,
                "contact:phone": "+48 627390013",
                "contact:email": "spmasanow@sieroszewice.pl",
                "contact:website": "http:\/\/www.spmasanow.szkolna.net",
                "ref:regon": "001171985",
                "ref:vatin": "PL6222406510",
                "operator": "Gmina Sieroszewice",
                "operator:type": "government",
                "amenity": "school"
            }
        },
        {
            "id": 71316,
            "type": "Feature",
            "geometry": {
                "type": "Point",
                "coordinates": [
                    18.0851371,
                    51.6010169
                ]
            },
            "properties": {
                "isced:level": "1;2",
                "ref:rspo": 71316,
                "official_name": "Szko\u0142a Podstawowa w Wielowsi",
                "name": "Szko\u0142a Podstawowa w Wielowsi",
                "addr:country": "PL",
                "addr:postcode": "63-405",
                "addr:city": "Wielowie\u015b",
                "addr:street": "Grabowska",
                "addr:housenumber": "2",
                "addr:teryt:simc": 208485,
                "addr:teryt:sym_ul": 6038,
                "contact:phone": "+48 627390014",
                "contact:email": "spwielowies@sieroszewice.pl",
                "contact:website": "https:\/\/spwielowies.szkolna.net\/",
                "ref:regon": "251135151",
                "operator": "Gmina Sieroszewice",
                "operator:type": "government",
                "amenity": "school"
            }
        },
        {
            "id": 62446,
            "type": "Feature",
            "geometry": {
                "type": "Point",
                "coordinates": [
                    17.802925109863,
                    51.61540222168
                ]
            },
            "properties": {
                "isced:level": "1;2",
                "ref:rspo": 62446,
                "official_name": "Szko\u0142a Podstawowa im. Fryderyka Chopina w Strzy\u017cewie",
                "name": "Szko\u0142a Podstawowa",
                "addr:country": "PL",
                "addr:postcode": "63-405",
                "addr:city": "Strzy\u017cew",
                "addr:street": "Anny Wiesio\u0142owskiej",
                "addr:housenumber": "1",
                "addr:teryt:simc": 208427,
                "addr:teryt:sym_ul": 43148,
                "contact:phone": "+48 627398002",
                "contact:email": "spstrzyzew@sieroszewice.pl",
                "ref:regon": "001171904",
                "ref:vatin": "PL6222406467",
                "operator": "Gmina Sieroszewice",
                "operator:type": "government",
                "amenity": "school"
            }
        },
        {
            "id": 64777,
            "type": "Feature",
            "geometry": {
                "type": "Point",
                "coordinates": [
                    17.9402488,
                    51.6232064
                ]
            },
            "properties": {
                "ref:rspo": 64777,
                "official_name": "Publiczne Przedszkole w Westrzy",
                "name": "Publiczne Przedszkole w Westrzy",
                "addr:country": "PL",
                "addr:postcode": "63-405",
                "addr:place": "Westrza",
                "addr:housenumber": "30",
                "addr:teryt:simc": 208479,
                "contact:phone": "+48 627396174",
                "contact:email": "ppwestrza@sieroszewice.pl",
                "ref:regon": "251485307",
                "ref:vatin": "PL6222406421",
                "operator": "Gmina Sieroszewice",
                "operator:type": "government",
                "amenity": "kindergarten"
            }
        },
        {
            "id": 72766,
            "type": "Feature",
            "geometry": {
                "type": "Point",
                "coordinates": [
                    18.01555,
                    51.63197
                ]
            },
            "properties": {
                "isced:level": "1;2",
                "ref:rspo": 72766,
                "official_name": "Szko\u0142a Podstawowa w Rososzycy",
                "name": "Szko\u0142a Podstawowa w Rososzycy",
                "addr:country": "PL",
                "addr:postcode": "63-405",
                "addr:city": "Rososzyca",
                "addr:street": "Kaliska",
                "addr:housenumber": "3",
                "addr:teryt:simc": 208396,
                "addr:teryt:sym_ul": 7823,
                "contact:phone": "+48 627396088",
                "contact:email": "sprososzyca@sieroszewice.pl",
                "contact:website": "http:\/\/www.sp-rososzyca.edupage.org",
                "ref:regon": "000563921",
                "ref:vatin": "PL6222406556",
                "operator": "Gmina Sieroszewice",
                "operator:type": "government",
                "amenity": "school"
            }
        },
        {
            "id": 59750,
            "type": "Feature",
            "geometry": {
                "type": "Point",
                "coordinates": [
                    18.06812,
                    51.63344
                ]
            },
            "properties": {
                "isced:level": "1;2",
                "ref:rspo": 59750,
                "official_name": "Szko\u0142a Podstawowa w O\u0142oboku im. Ks. J\u00f3zefa Kuta",
                "name": "Szko\u0142a Podstawowa w O\u0142oboku",
                "addr:country": "PL",
                "addr:postcode": "63-405",
                "addr:city": "O\u0142obok",
                "addr:street": "Ko\u015bcielna",
                "addr:housenumber": "16",
                "addr:teryt:simc": 208338,
                "addr:teryt:sym_ul": 9546,
                "contact:phone": "+48 627390237",
                "contact:email": "spolobok@sieroszewice.pl",
                "contact:website": "http:\/\/www.szko\u0142ao\u0142obok.pl",
                "ref:regon": "001171927",
                "ref:vatin": "PL6222406473",
                "operator": "Gmina Sieroszewice",
                "operator:type": "government",
                "amenity": "school"
            }
        },
        {
            "id": 70651,
            "type": "Feature",
            "geometry": {
                "type": "Point",
                "coordinates": [
                    17.96187,
                    51.6369
                ]
            },
            "properties": {
                "isced:level": "1;2",
                "ref:rspo": 70651,
                "official_name": "Szko\u0142a Podstawowa w Sieroszewicach",
                "name": "Szko\u0142a Podstawowa w Sieroszewicach",
                "addr:country": "PL",
                "addr:postcode": "63-405",
                "addr:city": "Sieroszewice",
                "addr:street": "Szkolna",
                "addr:housenumber": "9",
                "addr:teryt:simc": 208404,
                "addr:teryt:sym_ul": 21970,
                "contact:phone": "+48 627396086",
                "contact:email": "spsieroszewice@sieroszewice.pl",
                "contact:website": "http:\/\/www.zssieroszewice.szkolna.net",
                "ref:regon": "251132307",
                "operator": "Gmina Sieroszewice",
                "operator:type": "government",
                "amenity": "school"
            }
        },
        {
            "id": 72763,
            "type": "Feature",
            "geometry": {
                "type": "Point",
                "coordinates": [
                    17.92353,
                    51.63793
                ]
            },
            "properties": {
                "isced:level": "1;2",
                "ref:rspo": 72763,
                "official_name": "Szko\u0142a Podstawowa w Parczewie",
                "name": "Szko\u0142a Podstawowa w Parczewie",
                "addr:country": "PL",
                "addr:postcode": "63-405",
                "addr:place": "Parczew",
                "addr:teryt:simc": 208344,
                "contact:phone": "+48 627396081",
                "contact:email": "spparczew@sieroszewice.pl",
                "contact:website": "http:\/\/www.spparczew.edu.pl",
                "ref:regon": "001171910",
                "ref:vatin": "PL6222406562",
                "operator": "Gmina Sieroszewice",
                "operator:type": "government",
                "amenity": "school"
            }
        },
        {
            "id": 72762,
            "type": "Feature",
            "geometry": {
                "type": "Point",
                "coordinates": [
                    17.9642,
                    51.64516
                ]
            },
            "properties": {
                "ref:rspo": 72762,
                "official_name": "Publiczne Przedszkole w Latowicach",
                "name": "Publiczne Przedszkole w Latowicach",
                "addr:country": "PL",
                "addr:postcode": "63-405",
                "addr:city": "Latowice",
                "addr:street": "\u015arodkowa",
                "addr:housenumber": "50",
                "addr:teryt:simc": 208261,
                "addr:teryt:sym_ul": 22419,
                "contact:phone": "+48 627396504",
                "contact:email": "pplatowice@sieroszewice.pl",
                "ref:regon": "251485260",
                "ref:vatin": "PL6222406579",
                "operator": "Gmina Sieroszewice",
                "operator:type": "government",
                "amenity": "kindergarten"
            }
        },
        {
            "id": 64611,
            "type": "Feature",
            "geometry": {
                "type": "Point",
                "coordinates": [
                    18.01359,
                    51.65686
                ]
            },
            "properties": {
                "ref:rspo": 64611,
                "official_name": "Publiczne Przedszkole w Psarach",
                "name": "Publiczne Przedszkole w Psarach",
                "addr:country": "PL",
                "addr:postcode": "63-405",
                "addr:city": "Psary",
                "addr:street": "Le\u015bna",
                "addr:housenumber": "2",
                "addr:teryt:simc": 208367,
                "addr:teryt:sym_ul": 10898,
                "contact:phone": "+48 627396788",
                "contact:email": "pppsary@sieroszewice.pl",
                "ref:regon": "251485342",
                "ref:vatin": "PL6222406438",
                "operator": "Gmina Sieroszewice",
                "operator:type": "government",
                "amenity": "kindergarten"
            }
        }
    ]
}