{"type":"FeatureCollection","features":[{"id":42793,"type":"Feature","geometry":{"type":"Point","coordinates":[17.7723799,51.67571]},"properties":{"isced:level":"1;2","ref:rspo":42793,"official_name":"Szko\u0142a Podstawowa im. \u015aw. Jana Paw\u0142a II w Rad\u0142owie","name":"Szko\u0142a Podstawowa","addr:country":"PL","addr:postcode":"63-440","addr:city":"Rad\u0142\u00f3w","addr:street":"ul. Wiejska","addr:housenumber":"52","addr:teryt:simc":24048,"addr:teryt:sym_ul":207735,"contact:phone":"+48 627354170","contact:email":"szkolaradlow@poczta.onet.pl","contact:website":"http:\/\/www.spradlow.szkolnastrona.pl","ref:regon":"001228320","ref:vatin":"PL6222648377","operator":"Gmina I Miasto Raszk\u00f3w","operator:type":"government","amenity":"school"}},{"id":35309,"type":"Feature","geometry":{"type":"Point","coordinates":[17.6432135,51.6914185]},"properties":{"isced:level":"1;2","ref:rspo":35309,"official_name":"Szko\u0142a Podstawowa im. Powstania Wielkopolskiego w Jankowie Zale\u015bnym","name":"Szko\u0142a Podstawowa","addr:country":"PL","addr:postcode":"63-440","addr:place":"Jank\u00f3w Zale\u015bny","addr:housenumber":"77","addr:teryt:sym_ul":207570,"contact:phone":"+48 627342113","contact:email":"jankowzal@o2.pl","contact:website":"http:\/\/www.spjankowzalesny.szkolnastrona.pl","ref:regon":"001228426","ref:vatin":"PL6222641151","operator":"Gmina I Miasto Raszk\u00f3w","operator:type":"government","amenity":"school"}},{"id":35038,"type":"Feature","geometry":{"type":"Point","coordinates":[17.7230719,51.7137399]},"properties":{"isced:level":"1;2","ref:rspo":35038,"official_name":"Szko\u0142a Podstawowa im. Arkadego Fiedlera I Armii Krajowej w Raszkowie Z Siedzib\u0105 w Pogrzybowie","name":"Szko\u0142a Podstawowa","addr:country":"PL","addr:postcode":"63-440","addr:place":"Pogrzyb\u00f3w","addr:housenumber":"1A","addr:teryt:sym_ul":207712,"contact:phone":"+48 627343381","contact:email":"spraszkow@wp.pl","contact:website":"http:\/\/www.sp.raszkow.pl","ref:regon":"000640389","ref:vatin":"PL6222647225","operator":"Gmina I Miasto Raszk\u00f3w","operator:type":"government","amenity":"school"}},{"id":55746,"type":"Feature","geometry":{"type":"Point","coordinates":[17.72805,51.71672]},"properties":{"ref:rspo":55746,"official_name":"Publiczne Przedszkole w Raszkowie im. Smerfy","name":"Publiczne Przedszkole w Raszkowie","addr:country":"PL","addr:postcode":"63-440","addr:city":"Raszk\u00f3w","addr:street":"ul. Ko\u015bcielna","addr:housenumber":"1","addr:teryt:simc":9546,"addr:teryt:sym_ul":937310,"contact:phone":"+48 627343318","contact:email":"pleraszkow@wp.pl","ref:regon":"251590352","ref:vatin":"PL6222659837","operator":"Gmina I Miasto Raszk\u00f3w","operator:type":"government","amenity":"kindergarten"}},{"id":40992,"type":"Feature","geometry":{"type":"Point","coordinates":[17.761822,51.7569764]},"properties":{"isced:level":"1;2","ref:rspo":40992,"official_name":"Szko\u0142a Podstawowa w Bieganinie","name":"Szko\u0142a Podstawowa w Bieganinie","addr:country":"PL","addr:postcode":"63-440","addr:place":"Bieganin","addr:housenumber":"27","addr:teryt:sym_ul":207511,"contact:phone":"+48 627344711","contact:email":"spbieganin@wp.pl","contact:website":"http:\/\/www.spbieganin.pl","ref:regon":"001228366","ref:vatin":"PL6222663690","operator":"Gmina I Miasto Raszk\u00f3w","operator:type":"government","amenity":"school","note":"Children RSPO: 114320"}},{"id":55744,"type":"Feature","geometry":{"type":"Point","coordinates":[17.7057166,51.769228]},"properties":{"ref:rspo":55744,"official_name":"Publiczne Przedszkole w Korytnicy","name":"Publiczne Przedszkole w Korytnicy","addr:country":"PL","addr:postcode":"63-440","addr:place":"Korytnica","addr:housenumber":"24","addr:teryt:sym_ul":207652,"contact:phone":"+48 627343070","contact:email":"sfkorytnica@autograf.pl","ref:regon":"251599904","operator":"Gmina I Miasto Raszk\u00f3w","operator:type":"government","amenity":"kindergarten","note":"Parent RSPO: 44143"}},{"id":83183,"type":"Feature","geometry":{"type":"Point","coordinates":[17.7057166,51.769197999999996]},"properties":{"isced:level":"1;2","ref:rspo":83183,"official_name":"Szko\u0142a Filialna w Korytnicy","name":"Szko\u0142a Filialna w Korytnicy","addr:country":"PL","addr:postcode":"63-440","addr:place":"Korytnica","addr:housenumber":"24","addr:teryt:sym_ul":207652,"contact:phone":"+48 627343070","contact:email":"sfkorytnica@autograf.pl","ref:regon":"251149740","operator":"Gmina I Miasto Raszk\u00f3w","operator:type":"government","amenity":"school","note":"Parent RSPO: 55738"}},{"id":114320,"type":"Feature","geometry":{"type":"Point","coordinates":[17.7964284,51.7832262]},"properties":{"isced:level":"1;2","ref:rspo":114320,"official_name":"Szko\u0142a Filialna w Grudzielcu","name":"Szko\u0142a Filialna w Grudzielcu","addr:country":"PL","addr:postcode":"63-440","addr:place":"Grudzielec","addr:housenumber":"95","addr:teryt:sym_ul":207563,"contact:phone":"+48 627343371","contact:email":"spbieganin@wp.pl","ref:regon":"122836600","operator":"Gmina I Miasto Raszk\u00f3w","operator:type":"government","amenity":"school","note":"Parent RSPO: 40992"}},{"id":40106,"type":"Feature","geometry":{"type":"Point","coordinates":[17.69925,51.78685]},"properties":{"isced:level":"1;2","ref:rspo":40106,"official_name":"Szko\u0142a Podstawowa w Ligocie","name":"Szko\u0142a Podstawowa w Ligocie","addr:country":"PL","addr:postcode":"63-440","addr:city":"Ligota","addr:street":"ul. Kaliska","addr:housenumber":"2","addr:teryt:simc":7823,"addr:teryt:sym_ul":207669,"contact:phone":"+48 627343091","contact:email":"spligota@interia.pl","contact:website":"http:\/\/www.spligota.szkolnastrona.pl","ref:regon":"001228350","ref:vatin":"PL6222645568","operator":"Gmina I Miasto Raszk\u00f3w","operator:type":"government","amenity":"school"}},{"id":44143,"type":"Feature","geometry":{"type":"Point","coordinates":[17.6883092,51.8083915]},"properties":{"ref:rspo":44143,"official_name":"Zesp\u00f3\u0142 Szk\u00f3\u0142 im. Or\u0142a Bia\u0142ego w Korytach","name":"Zesp\u00f3\u0142 Szk\u00f3\u0142","addr:country":"PL","addr:postcode":"63-440","addr:place":"Koryta","addr:housenumber":"66","addr:door":"B","addr:teryt:sym_ul":207646,"contact:phone":"+48 627343023","contact:email":"zespolkoryta@o2.pl","contact:website":"http:\/\/www.zespolkoryta.osw.pl","ref:regon":"001228337","ref:vatin":"PL6222645574","operator":"Gmina I Miasto Raszk\u00f3w","operator:type":"government","landuse":"education","fixme":"amenity=school, amenity=college albo landuse=education w zale\u017cno\u015bci od tego, jakie plac\u00f3wki wchodz\u0105 w sk\u0142ad zespo\u0142u. Sprawd\u017a, kiedy stosowa\u0107 amenity=* a kiedy landuse=education.","note":"Children RSPO: 55738;55744"}},{"id":55738,"type":"Feature","geometry":{"type":"Point","coordinates":[17.6883092,51.8083615]},"properties":{"isced:level":"1;2","ref:rspo":55738,"official_name":"Szko\u0142a Podstawowa w Korytach","name":"Szko\u0142a Podstawowa w Korytach","addr:country":"PL","addr:postcode":"63-440","addr:place":"Koryta","addr:housenumber":"66","addr:door":"B","addr:teryt:sym_ul":207646,"contact:phone":"+48 627343023","contact:email":"zespolkoryta@o2.pl","contact:website":"http:\/\/www.zespolkoryta.osw.pl","ref:regon":"251149740","operator":"Gmina I Miasto Raszk\u00f3w","operator:type":"government","amenity":"school","note":"Children RSPO: 83183Parent RSPO: 44143"}}]}