{
    "type": "FeatureCollection",
    "features": [
        {
            "id": 21133,
            "type": "Feature",
            "geometry": {
                "type": "Point",
                "coordinates": [
                    17.80093,
                    51.62579
                ]
            },
            "properties": {
                "ref:rspo": 21133,
                "official_name": "Przedszkole Nr 2 Jarz\u0119binka w Ostrowie Wielkopolskim",
                "name": "Przedszkole Nr 2 Jarz\u0119binka w Ostrowie Wielkopolskim",
                "addr:postcode": "63-400",
                "addr:city": "Ostr\u00f3w Wielkopolski",
                "addr:street": "Staroprzygodzka",
                "addr:housenumber": "112",
                "addr:door": "a",
                "addr:teryt:simc": 937132,
                "addr:teryt:sym_ul": 20973,
                "phone": "+48 627382550",
                "email": "przedszkole2ostrow@wp.pl",
                "ref:regon": "251589580",
                "ref:vatin": "PL6221797916",
                "operator": "Gmina Miasto Ostr\u00f3w Wielkopolski",
                "operator:type": "government",
                "amenity": "kindergarten"
            }
        },
        {
            "id": 24591,
            "type": "Feature",
            "geometry": {
                "type": "Point",
                "coordinates": [
                    17.80093,
                    51.62576
                ]
            },
            "properties": {
                "isced:level": "1;2",
                "ref:rspo": 24591,
                "official_name": "Szko\u0142a Podstawowa Nr 6 im. \"Macieja Rataja\" w Ostrowie Wielkopolskim",
                "name": "Szko\u0142a Podstawowa Nr 6",
                "addr:postcode": "63-400",
                "addr:city": "Ostr\u00f3w Wielkopolski",
                "addr:street": "Staroprzygodzka",
                "addr:housenumber": "112",
                "addr:teryt:simc": 937132,
                "addr:teryt:sym_ul": 20973,
                "phone": "+48 627382521",
                "email": "sekretariat@podstawowa6.pl",
                "ref:regon": "000694110",
                "ref:vatin": "PL6221797744",
                "operator": "Gmina Miasto Ostr\u00f3w Wielkopolski",
                "operator:type": "government",
                "amenity": "school"
            }
        },
        {
            "id": 60106,
            "type": "Feature",
            "geometry": {
                "type": "Point",
                "coordinates": [
                    17.80373,
                    51.63545
                ]
            },
            "properties": {
                "ref:rspo": 60106,
                "official_name": "O\u015brodek Kszta\u0142cenia Ustawicznego",
                "name": "O\u015brodek Kszta\u0142cenia Ustawicznego",
                "addr:postcode": "63-400",
                "addr:city": "Ostr\u00f3w Wielkopolski",
                "addr:street": "Budowlanych",
                "addr:housenumber": "5",
                "addr:teryt:simc": 937132,
                "addr:teryt:sym_ul": 2337,
                "phone": "+48 627361027",
                "email": "biuro@euro.ctiw.pl",
                "website": "http:\/\/www.euro.ctiw.pl",
                "ref:regon": "302258549",
                "operator": "Eurocentrum Innowacji I Przedsi\u0119biorczo\u015bci",
                "operator:type": "ngo",
                "fixme": "w zale\u017cno\u015bci od przedmiotu dzia\u0142alno\u015bci (np. amenity=training + training=*, amenity=dancing_school, amenity=language_school, amenity=music_school)"
            }
        },
        {
            "id": 21155,
            "type": "Feature",
            "geometry": {
                "type": "Point",
                "coordinates": [
                    17.80984,
                    51.63657
                ]
            },
            "properties": {
                "ref:rspo": 21155,
                "official_name": "Przedszkole Nr 17 Ciuchcia w Ostrowie Wielkopolskim",
                "name": "Przedszkole Nr 17 Ciuchcia w Ostrowie Wielkopolskim",
                "addr:postcode": "63-400",
                "addr:city": "Ostr\u00f3w Wielkopolski",
                "addr:street": "3 Maja",
                "addr:housenumber": "17",
                "addr:teryt:simc": 937132,
                "addr:teryt:sym_ul": 11937,
                "phone": "+48 625915354",
                "email": "przedszkole_nr17@wp.pl",
                "ref:regon": "251591104",
                "ref:vatin": "PL6221789288",
                "operator": "Gmina Miasto Ostr\u00f3w Wielkopolski",
                "operator:type": "government",
                "amenity": "kindergarten"
            }
        },
        {
            "id": 47497,
            "type": "Feature",
            "geometry": {
                "type": "Point",
                "coordinates": [
                    17.81472,
                    51.63691
                ]
            },
            "properties": {
                "ref:rspo": 47497,
                "official_name": "O\u015brodek Szkolenia Kursowego",
                "name": "O\u015brodek Szkolenia Kursowego",
                "addr:postcode": "63-400",
                "addr:city": "Ostr\u00f3w Wielkopolski",
                "addr:street": "Wroc\u0142awska",
                "addr:housenumber": "93",
                "addr:teryt:simc": 937132,
                "addr:teryt:sym_ul": 24806,
                "phone": "+48 627355090",
                "email": "biuro@osk.com.pl",
                "website": "http:\/\/www.osk.com.pl",
                "ref:regon": "302247563",
                "operator": "O\u015brodek Szkolenia Kursowego Pawlicki Sp\u00f3\u0142ka Z Ograniczon\u0105 Odpowiedzialno\u015bci\u0105",
                "operator:type": "private",
                "fixme": "w zale\u017cno\u015bci od przedmiotu dzia\u0142alno\u015bci (np. amenity=training + training=*, amenity=dancing_school, amenity=language_school, amenity=music_school)"
            }
        },
        {
            "id": 114688,
            "type": "Feature",
            "geometry": {
                "type": "Point",
                "coordinates": [
                    17.81486,
                    51.63712
                ]
            },
            "properties": {
                "ref:rspo": 114688,
                "official_name": "Niepubliczna Plac\u00f3wka Kszta\u0142cenia Ustawicznego Instytut 21",
                "name": "Niepubliczna Plac\u00f3wka Kszta\u0142cenia Ustawicznego Instytut 21",
                "addr:postcode": "63-400",
                "addr:city": "Ostr\u00f3w Wielkopolski",
                "addr:street": "Wroc\u0142awska",
                "addr:housenumber": "93A",
                "addr:teryt:simc": 937132,
                "addr:teryt:sym_ul": 24806,
                "phone": "+48 627356372",
                "ref:regon": "302432740",
                "operator": "\"Instytut 21\" Sp\u00f3\u0142ka Z Ograniczon\u0105 Odpowiedzialno\u015bci\u0105",
                "operator:type": "private",
                "fixme": "w zale\u017cno\u015bci od przedmiotu dzia\u0142alno\u015bci (np. amenity=training + training=*, amenity=dancing_school, amenity=language_school, amenity=music_school)"
            }
        },
        {
            "id": 24179,
            "type": "Feature",
            "geometry": {
                "type": "Point",
                "coordinates": [
                    17.828,
                    51.63866
                ]
            },
            "properties": {
                "isced:level": "1;2",
                "ref:rspo": 24179,
                "official_name": "Szko\u0142a Podstawowa Nr 9 im. \"Jana Paw\u0142a II\" w Ostrowie Wielkopolskim",
                "name": "Szko\u0142a Podstawowa Nr 9",
                "addr:postcode": "63-400",
                "addr:city": "Ostr\u00f3w Wielkopolski",
                "addr:street": "Adama Asnyka",
                "addr:housenumber": "26",
                "addr:teryt:simc": 937132,
                "addr:teryt:sym_ul": 467,
                "phone": "+48 625912381",
                "email": "sp9ostrow@promax.media.pl",
                "website": "http:\/\/www.sp9ostrow.pl",
                "ref:regon": "000694149",
                "ref:vatin": "PL6221781105",
                "operator": "Gmina Miasto Ostr\u00f3w Wielkopolski",
                "operator:type": "government",
                "amenity": "school"
            }
        },
        {
            "id": 24258,
            "type": "Feature",
            "geometry": {
                "type": "Point",
                "coordinates": [
                    17.81251,
                    51.63902
                ]
            },
            "properties": {
                "ref:rspo": 24258,
                "official_name": "Zesp\u00f3\u0142 Szk\u00f3\u0142 Transportowo - Elektrycznych Centrum Kszta\u0142cenia Ustawicznego",
                "name": "Zesp\u00f3\u0142 Szk\u00f3\u0142 Transportowo - Elektrycznych Centrum Kszta\u0142cenia Ustawicznego",
                "addr:postcode": "63-400",
                "addr:city": "Ostr\u00f3w Wielkopolski",
                "addr:street": "Kantaka",
                "addr:housenumber": "6",
                "addr:teryt:simc": 937132,
                "addr:teryt:sym_ul": 34287,
                "phone": "+48 627366709",
                "email": "zste@promax.media.pl",
                "website": "http:\/\/www.zste.webd.pl",
                "ref:regon": "000124995",
                "ref:vatin": "PL6221797810",
                "operator": "Powiat Ostrowski",
                "operator:type": "government",
                "landuse": "education",
                "fixme": "amenity=school, amenity=college albo landuse=education w zale\u017cno\u015bci od tego, jakie plac\u00f3wki wchodz\u0105 w sk\u0142ad zespo\u0142u. Sprawd\u017a, kiedy stosowa\u0107 amenity=* a kiedy landuse=education.",
                "note": "Children RSPO: 30776;30778;30782;30785;30786;125766;270244;275808"
            }
        },
        {
            "id": 30776,
            "type": "Feature",
            "geometry": {
                "type": "Point",
                "coordinates": [
                    17.81251,
                    51.63899
                ]
            },
            "properties": {
                "isced:level": "3",
                "ref:rspo": 30776,
                "official_name": "Technikum Nr 4",
                "name": "Technikum Nr 4",
                "addr:postcode": "63-400",
                "addr:city": "Ostr\u00f3w Wielkopolski",
                "addr:street": "Kantaka",
                "addr:housenumber": "6",
                "addr:teryt:simc": 937132,
                "addr:teryt:sym_ul": 34287,
                "phone": "+48 627366709",
                "email": "zste@promax.media.pl",
                "website": "http:\/\/www.zste.info.pl",
                "ref:regon": "251538044",
                "operator": "Powiat Ostrowski",
                "operator:type": "government",
                "amenity": "school",
                "note": "Parent RSPO: 24258"
            }
        },
        {
            "id": 30778,
            "type": "Feature",
            "geometry": {
                "type": "Point",
                "coordinates": [
                    17.81251,
                    51.638960000000004
                ]
            },
            "properties": {
                "isced:level": "3",
                "ref:rspo": 30778,
                "official_name": "Bran\u017cowa Szko\u0142a I Stopnia Nr 4",
                "name": "Bran\u017cowa Szko\u0142a I Stopnia Nr 4",
                "addr:postcode": "63-400",
                "addr:city": "Ostr\u00f3w Wielkopolski",
                "addr:street": "Kantaka",
                "addr:housenumber": "6",
                "addr:teryt:simc": 937132,
                "addr:teryt:sym_ul": 34287,
                "phone": "+48 627366709",
                "email": "zste@promax.media.pl",
                "website": "http:\/\/www.zste.info.pl",
                "ref:regon": "251538050",
                "operator": "Powiat Ostrowski",
                "operator:type": "government",
                "amenity": "school",
                "note": "Parent RSPO: 24258"
            }
        },
        {
            "id": 30782,
            "type": "Feature",
            "geometry": {
                "type": "Point",
                "coordinates": [
                    17.81251,
                    51.63893
                ]
            },
            "properties": {
                "isced:level": "4",
                "ref:rspo": 30782,
                "official_name": "Szko\u0142a Policealna Nr 4",
                "name": "Szko\u0142a Policealna Nr 4",
                "addr:postcode": "63-400",
                "addr:city": "Ostr\u00f3w Wielkopolski",
                "addr:street": "Kantaka",
                "addr:housenumber": "6",
                "addr:teryt:simc": 937132,
                "addr:teryt:sym_ul": 34287,
                "phone": "+48 627366709",
                "email": "zste@promax.media.pl",
                "website": "http:\/\/www.zste.info.pl",
                "ref:regon": "251634032",
                "operator": "Powiat Ostrowski",
                "operator:type": "government",
                "amenity": "college",
                "note": "Parent RSPO: 24258"
            }
        },
        {
            "id": 30785,
            "type": "Feature",
            "geometry": {
                "type": "Point",
                "coordinates": [
                    17.81251,
                    51.6389
                ]
            },
            "properties": {
                "isced:level": "3",
                "ref:rspo": 30785,
                "official_name": "Ii Liceum Og\u00f3lnokszta\u0142c\u0105ce dla Doros\u0142ych",
                "name": "Ii Liceum Og\u00f3lnokszta\u0142c\u0105ce dla Doros\u0142ych",
                "addr:postcode": "63-400",
                "addr:city": "Ostr\u00f3w Wielkopolski",
                "addr:street": "Kantaka",
                "addr:housenumber": "6",
                "addr:teryt:simc": 937132,
                "addr:teryt:sym_ul": 34287,
                "phone": "+48 627366709",
                "email": "zste@promax.media.pl",
                "website": "http:\/\/www.zste.info.pl",
                "ref:regon": "300924870",
                "operator": "Powiat Ostrowski",
                "operator:type": "government",
                "amenity": "school",
                "note": "Parent RSPO: 24258"
            }
        },
        {
            "id": 30786,
            "type": "Feature",
            "geometry": {
                "type": "Point",
                "coordinates": [
                    17.81251,
                    51.638870000000004
                ]
            },
            "properties": {
                "ref:rspo": 30786,
                "official_name": "Centrum Kszta\u0142cenia Ustawicznego",
                "name": "Centrum Kszta\u0142cenia Ustawicznego",
                "addr:postcode": "63-400",
                "addr:city": "Ostr\u00f3w Wielkopolski",
                "addr:street": "Kantaka",
                "addr:housenumber": "6",
                "addr:teryt:simc": 937132,
                "addr:teryt:sym_ul": 34287,
                "phone": "+48 627366709",
                "ref:regon": "251590398",
                "operator": "Powiat Ostrowski",
                "operator:type": "government",
                "fixme": "w zale\u017cno\u015bci od przedmiotu dzia\u0142alno\u015bci (np. amenity=training + training=*, amenity=dancing_school, amenity=language_school, amenity=music_school)",
                "note": "Parent RSPO: 24258"
            }
        },
        {
            "id": 125766,
            "type": "Feature",
            "geometry": {
                "type": "Point",
                "coordinates": [
                    17.81251,
                    51.63884
                ]
            },
            "properties": {
                "isced:level": "3",
                "ref:rspo": 125766,
                "official_name": "Vii Liceum Og\u00f3lnokszta\u0142c\u0105ce",
                "name": "Vii Liceum Og\u00f3lnokszta\u0142c\u0105ce",
                "addr:postcode": "63-400",
                "addr:city": "Ostr\u00f3w Wielkopolski",
                "addr:street": "Kantaka",
                "addr:housenumber": "6",
                "addr:teryt:simc": 937132,
                "addr:teryt:sym_ul": 34287,
                "phone": "+48 627366709",
                "email": "zste@promax.media.pl",
                "website": "http:\/\/www.zste.info.pl",
                "ref:regon": "302855222",
                "operator": "Powiat Ostrowski",
                "operator:type": "government",
                "amenity": "school",
                "note": "Parent RSPO: 24258"
            }
        },
        {
            "id": 270244,
            "type": "Feature",
            "geometry": {
                "type": "Point",
                "coordinates": [
                    17.81251,
                    51.63881
                ]
            },
            "properties": {
                "ref:rspo": 270244,
                "official_name": "Centrum Kszta\u0142cenia Zawodowego",
                "name": "Centrum Kszta\u0142cenia Zawodowego",
                "addr:postcode": "63-400",
                "addr:city": "Ostr\u00f3w Wielkopolski",
                "addr:street": "Kantaka",
                "addr:housenumber": "6",
                "addr:teryt:simc": 937132,
                "addr:teryt:sym_ul": 34287,
                "phone": "+48 627366709",
                "email": "zste@promax.media.pl",
                "ref:regon": "382251329",
                "operator": "Powiat Ostrowski",
                "operator:type": "government",
                "fixme": "w zale\u017cno\u015bci od przedmiotu dzia\u0142alno\u015bci (np. amenity=training + training=*, amenity=dancing_school, amenity=language_school, amenity=music_school) albo amenity=school, amenity=college, albo landuse=education w zale\u017cno\u015bci od tego, jakie plac\u00f3wki wchodz\u0105 w sk\u0142ad zespo\u0142u. Sprawd\u017a, kiedy stosowa\u0107 amenity=* a kiedy landuse=education.",
                "note": "Parent RSPO: 24258"
            }
        },
        {
            "id": 275808,
            "type": "Feature",
            "geometry": {
                "type": "Point",
                "coordinates": [
                    17.81251,
                    51.638780000000004
                ]
            },
            "properties": {
                "isced:level": "3",
                "ref:rspo": 275808,
                "official_name": "Bran\u017cowa Szko\u0142a II Stopnia Nr 1",
                "name": "Bran\u017cowa Szko\u0142a II Stopnia Nr 1",
                "addr:postcode": "63-400",
                "addr:city": "Ostr\u00f3w Wielkopolski",
                "addr:street": "Kantaka",
                "addr:housenumber": "6",
                "addr:teryt:simc": 937132,
                "addr:teryt:sym_ul": 34287,
                "phone": "+48 627366709",
                "email": "zste@promax.media.pl",
                "website": "http:\/\/www.zste.info.pl",
                "ref:regon": "386940617",
                "operator": "Powiat Ostrowski",
                "operator:type": "government",
                "amenity": "school",
                "note": "Parent RSPO: 24258"
            }
        },
        {
            "id": 47527,
            "type": "Feature",
            "geometry": {
                "type": "Point",
                "coordinates": [
                    17.82613,
                    51.63921
                ]
            },
            "properties": {
                "ref:rspo": 47527,
                "official_name": "Ostrowska Akademia Wiedzy",
                "name": "Ostrowska Akademia Wiedzy",
                "addr:postcode": "63-400",
                "addr:city": "Ostr\u00f3w Wielkopolski",
                "addr:street": "Szkolna",
                "addr:housenumber": "24",
                "addr:teryt:simc": 937132,
                "addr:teryt:sym_ul": 21970,
                "phone": "+48 627361160",
                "email": "ocwp@ocwp.org.pl",
                "ref:regon": "302248019",
                "operator": "Stowarzyszenie \"Ostrowskie Centrum Wspierania Przedsi\u0119biorczo\u015bci\"",
                "operator:type": "ngo",
                "fixme": "w zale\u017cno\u015bci od przedmiotu dzia\u0142alno\u015bci (np. amenity=training + training=*, amenity=dancing_school, amenity=language_school, amenity=music_school)"
            }
        },
        {
            "id": 20624,
            "type": "Feature",
            "geometry": {
                "type": "Point",
                "coordinates": [
                    17.82622,
                    51.63922
                ]
            },
            "properties": {
                "ref:rspo": 20624,
                "official_name": "Przedszkole Nr 15 w Ostrowie Wielkopolskim",
                "name": "Przedszkole Nr 15 w Ostrowie Wielkopolskim",
                "addr:postcode": "63-400",
                "addr:city": "Ostr\u00f3w Wielkopolski",
                "addr:street": "Szkolna",
                "addr:housenumber": "26",
                "addr:teryt:simc": 937132,
                "addr:teryt:sym_ul": 21970,
                "phone": "+48 627369565",
                "email": "przedszkole.p15@gmail.com",
                "ref:regon": "251589745",
                "ref:vatin": "PL6221797690",
                "operator": "Gmina Miasto Ostr\u00f3w Wielkopolski",
                "operator:type": "government",
                "amenity": "kindergarten"
            }
        },
        {
            "id": 20622,
            "type": "Feature",
            "geometry": {
                "type": "Point",
                "coordinates": [
                    17.8737,
                    51.6406599
                ]
            },
            "properties": {
                "ref:rspo": 20622,
                "official_name": "Przedszkole Nr 13 Sindbad w Ostrowie Wielkopolskim",
                "name": "Przedszkole Nr 13 Sindbad w Ostrowie Wielkopolskim",
                "addr:postcode": "63-400",
                "addr:city": "Ostr\u00f3w Wielkopolski",
                "addr:street": "J\u00f3zefa Bema",
                "addr:housenumber": "30",
                "addr:teryt:simc": 937132,
                "addr:teryt:sym_ul": 1010,
                "phone": "+48 625922202",
                "email": "pp13.ostrow@onet.eu",
                "ref:regon": "251589811",
                "ref:vatin": "PL6221797684",
                "operator": "Gmina Miasto Ostr\u00f3w Wielkopolski",
                "operator:type": "government",
                "amenity": "kindergarten"
            }
        },
        {
            "id": 24178,
            "type": "Feature",
            "geometry": {
                "type": "Point",
                "coordinates": [
                    17.8737,
                    51.6406299
                ]
            },
            "properties": {
                "isced:level": "1;2",
                "ref:rspo": 24178,
                "official_name": "Szko\u0142a Podstawowa Nr 7 im. \"Gen. J\u00f3zefa Bema\" w Ostrowie Wielkopolskim",
                "name": "Szko\u0142a Podstawowa Nr 7",
                "addr:postcode": "63-400",
                "addr:city": "Ostr\u00f3w Wielkopolski",
                "addr:street": "J\u00f3zefa Bema",
                "addr:housenumber": "30",
                "addr:teryt:simc": 937132,
                "addr:teryt:sym_ul": 1010,
                "phone": "+48 627359950",
                "email": "sp7ow@op.pl",
                "ref:regon": "000694126",
                "ref:vatin": "PL6221797626",
                "operator": "Gmina Miasto Ostr\u00f3w Wielkopolski",
                "operator:type": "government",
                "amenity": "school"
            }
        },
        {
            "id": 20615,
            "type": "Feature",
            "geometry": {
                "type": "Point",
                "coordinates": [
                    17.80895,
                    51.64194
                ]
            },
            "properties": {
                "ref:rspo": 20615,
                "official_name": "Przedszkole Nr 7 Bratek w Ostrowie Wielkopolskim",
                "name": "Przedszkole Nr 7 Bratek w Ostrowie Wielkopolskim",
                "addr:postcode": "63-400",
                "addr:city": "Ostr\u00f3w Wielkopolski",
                "addr:street": "Piastowska",
                "addr:housenumber": "21",
                "addr:teryt:simc": 937132,
                "addr:teryt:sym_ul": 16046,
                "phone": "+48 625916762",
                "email": "przedszkolebratek@onet.pl",
                "website": "http:\/\/przedszkolebratek.szkolnastrona.pl",
                "ref:regon": "251589739",
                "ref:vatin": "PL6221797968",
                "operator": "Gmina Miasto Ostr\u00f3w Wielkopolski",
                "operator:type": "government",
                "amenity": "kindergarten"
            }
        },
        {
            "id": 26661,
            "type": "Feature",
            "geometry": {
                "type": "Point",
                "coordinates": [
                    17.81144,
                    51.64194
                ]
            },
            "properties": {
                "isced:level": "1;2",
                "ref:rspo": 26661,
                "official_name": "Polsko-Kanadyjska Szko\u0142a Podstawowa im. A. Bella",
                "name": "Polsko-Kanadyjska Szko\u0142a Podstawowa",
                "addr:postcode": "63-400",
                "addr:city": "Ostr\u00f3w Wielkopolski",
                "addr:street": "Tadeusza Ko\u015bciuszki",
                "addr:housenumber": "21",
                "addr:teryt:simc": 937132,
                "addr:teryt:sym_ul": 9572,
                "phone": "+48 627352128",
                "email": "szkola@kanadyjka.edu.pl",
                "ref:regon": "302240450",
                "ref:vatin": "PL6222559981",
                "operator": "Fundacja Edukacji I Nauki",
                "operator:type": "ngo",
                "amenity": "school"
            }
        },
        {
            "id": 47507,
            "type": "Feature",
            "geometry": {
                "type": "Point",
                "coordinates": [
                    17.81144,
                    51.641909999999996
                ]
            },
            "properties": {
                "ref:rspo": 47507,
                "official_name": "Centrum Kszta\u0142cenia Ustawicznego w Ostrowie Wielkopolskim",
                "name": "Centrum Kszta\u0142cenia Ustawicznego w Ostrowie Wielkopolskim",
                "addr:postcode": "63-400",
                "addr:city": "Ostr\u00f3w Wielkopolski",
                "addr:street": "Tadeusza Ko\u015bciuszki",
                "addr:housenumber": "21",
                "addr:teryt:simc": 937132,
                "addr:teryt:sym_ul": 9572,
                "phone": "+48 627352128",
                "email": "fen@fen.edu.pl",
                "ref:regon": "302247793",
                "operator": "Fundacja Edukacji I Nauki",
                "operator:type": "ngo",
                "fixme": "w zale\u017cno\u015bci od przedmiotu dzia\u0142alno\u015bci (np. amenity=training + training=*, amenity=dancing_school, amenity=language_school, amenity=music_school)"
            }
        },
        {
            "id": 273073,
            "type": "Feature",
            "geometry": {
                "type": "Point",
                "coordinates": [
                    17.81144,
                    51.64188
                ]
            },
            "properties": {
                "isced:level": "3",
                "ref:rspo": 273073,
                "official_name": "Liceum Og\u00f3lnokszta\u0142c\u0105ce dla Doros\u0142ych \"Pascal\" w Ostrowie Wielkopolskim",
                "name": "Liceum Og\u00f3lnokszta\u0142c\u0105ce dla Doros\u0142ych \"Pascal\" w Ostrowie Wielkopolskim",
                "addr:postcode": "63-400",
                "addr:city": "Ostr\u00f3w Wielkopolski",
                "addr:street": "Tadeusza Ko\u015bciuszki",
                "addr:housenumber": "21",
                "addr:teryt:simc": 937132,
                "addr:teryt:sym_ul": 9572,
                "phone": "+48 223784630",
                "email": "federacja@fnpo.pl",
                "ref:regon": "384367036",
                "operator": "Federacja Niepublicznych Plac\u00f3wek O\u015bwiatowych Sp\u00f3\u0142ka Z Ograniczon\u0105 Odpowiedzialno\u015bci\u0105",
                "operator:type": "private",
                "amenity": "school"
            }
        },
        {
            "id": 273367,
            "type": "Feature",
            "geometry": {
                "type": "Point",
                "coordinates": [
                    17.81144,
                    51.64185
                ]
            },
            "properties": {
                "isced:level": "4",
                "ref:rspo": 273367,
                "official_name": "Zaoczna Policealna Szko\u0142a Zawodowa \"Pascal\" w Ostrowie Wielkopolskim",
                "name": "Zaoczna Policealna Szko\u0142a Zawodowa \"Pascal\" w Ostrowie Wielkopolskim",
                "addr:postcode": "63-400",
                "addr:city": "Ostr\u00f3w Wielkopolski",
                "addr:street": "Tadeusza Ko\u015bciuszki",
                "addr:housenumber": "21",
                "addr:teryt:simc": 937132,
                "addr:teryt:sym_ul": 9572,
                "phone": "+48 223784630",
                "email": "federacja@fnpo.pl",
                "ref:regon": "384458626",
                "operator": "Federacja Niepublicznych Plac\u00f3wek O\u015bwiatowych Sp\u00f3\u0142ka Z Ograniczon\u0105 Odpowiedzialno\u015bci\u0105",
                "operator:type": "private",
                "amenity": "college"
            }
        },
        {
            "id": 273594,
            "type": "Feature",
            "geometry": {
                "type": "Point",
                "coordinates": [
                    17.81144,
                    51.641819999999996
                ]
            },
            "properties": {
                "isced:level": "4",
                "ref:rspo": 273594,
                "official_name": "Zaoczna Policealna Szko\u0142a Medyczna \"Pascal\" w Ostrowie Wielkopolskim",
                "name": "Zaoczna Policealna Szko\u0142a Medyczna \"Pascal\" w Ostrowie Wielkopolskim",
                "addr:postcode": "63-400",
                "addr:city": "Ostr\u00f3w Wielkopolski",
                "addr:street": "Tadeusza Ko\u015bciuszki",
                "addr:housenumber": "21",
                "addr:teryt:simc": 937132,
                "addr:teryt:sym_ul": 9572,
                "phone": "+48 223784630",
                "email": "federacja@fnpo.pl",
                "ref:regon": "384506101",
                "operator": "Federacja Niepublicznych Plac\u00f3wek O\u015bwiatowych Sp\u00f3\u0142ka Z Ograniczon\u0105 Odpowiedzialno\u015bci\u0105",
                "operator:type": "private",
                "amenity": "college"
            }
        },
        {
            "id": 273595,
            "type": "Feature",
            "geometry": {
                "type": "Point",
                "coordinates": [
                    17.81144,
                    51.64179
                ]
            },
            "properties": {
                "isced:level": "4",
                "ref:rspo": 273595,
                "official_name": "Stacjonarna Policealna Szko\u0142a Medyczna \"Pascal\" w Ostrowie Wielkopolskim",
                "name": "Stacjonarna Policealna Szko\u0142a Medyczna \"Pascal\" w Ostrowie Wielkopolskim",
                "addr:postcode": "63-400",
                "addr:city": "Ostr\u00f3w Wielkopolski",
                "addr:street": "Tadeusza Ko\u015bciuszki",
                "addr:housenumber": "21",
                "addr:teryt:simc": 937132,
                "addr:teryt:sym_ul": 9572,
                "phone": "+48 223784630",
                "email": "federacja@fnpo.pl",
                "ref:regon": "384506124",
                "operator": "Federacja Niepublicznych Plac\u00f3wek O\u015bwiatowych Sp\u00f3\u0142ka Z Ograniczon\u0105 Odpowiedzialno\u015bci\u0105",
                "operator:type": "private",
                "amenity": "college"
            }
        },
        {
            "id": 24256,
            "type": "Feature",
            "geometry": {
                "type": "Point",
                "coordinates": [
                    17.81305,
                    51.6437
                ]
            },
            "properties": {
                "ref:rspo": 24256,
                "official_name": "Zesp\u00f3\u0142 Szk\u00f3\u0142 Specjalnych im. Janusza Korczaka",
                "name": "Zesp\u00f3\u0142 Szk\u00f3\u0142 Specjalnych",
                "addr:postcode": "63-400",
                "addr:city": "Ostr\u00f3w Wielkopolski",
                "addr:street": "Tadeusza Ko\u015bciuszki",
                "addr:housenumber": "5",
                "addr:teryt:simc": 937132,
                "addr:teryt:sym_ul": 9572,
                "phone": "+48 627355754",
                "email": "sekretariat@zssostrow.pl",
                "website": "http:\/\/www.zssostrow.pl",
                "ref:regon": "000694178",
                "ref:vatin": "PL6222303827",
                "operator": "Powiat Ostrowski",
                "operator:type": "government",
                "landuse": "education",
                "fixme": "amenity=school, amenity=college albo landuse=education w zale\u017cno\u015bci od tego, jakie plac\u00f3wki wchodz\u0105 w sk\u0142ad zespo\u0142u. Sprawd\u017a, kiedy stosowa\u0107 amenity=* a kiedy landuse=education.",
                "note": "Children RSPO: 30858;30861"
            }
        },
        {
            "id": 30858,
            "type": "Feature",
            "geometry": {
                "type": "Point",
                "coordinates": [
                    17.81305,
                    51.64367
                ]
            },
            "properties": {
                "isced:level": "1;2",
                "ref:rspo": 30858,
                "official_name": "Szko\u0142a Podstawowa Specjalna Nr 12 im. Janusza Korczaka",
                "name": "Szko\u0142a Podstawowa Specjalna Nr 12",
                "addr:postcode": "63-400",
                "addr:city": "Ostr\u00f3w Wielkopolski",
                "addr:street": "Tadeusza Ko\u015bciuszki",
                "addr:housenumber": "5",
                "addr:teryt:simc": 937132,
                "addr:teryt:sym_ul": 9572,
                "phone": "+48 627355754",
                "email": "sekretariat@zssostrow.pl",
                "website": "http:\/\/www.zssostrow.pl",
                "ref:regon": "251129535",
                "operator": "Powiat Ostrowski",
                "operator:type": "government",
                "amenity": "school",
                "note": "Parent RSPO: 24256"
            }
        },
        {
            "id": 30861,
            "type": "Feature",
            "geometry": {
                "type": "Point",
                "coordinates": [
                    17.81305,
                    51.643640000000005
                ]
            },
            "properties": {
                "ref:rspo": 30861,
                "official_name": "Szko\u0142a Specjalna Przysposabiaj\u0105ca Do Pracy",
                "name": "Szko\u0142a Specjalna Przysposabiaj\u0105ca Do Pracy",
                "addr:postcode": "63-400",
                "addr:city": "Ostr\u00f3w Wielkopolski",
                "addr:street": "Tadeusza Ko\u015bciuszki",
                "addr:housenumber": "5",
                "addr:teryt:simc": 937132,
                "addr:teryt:sym_ul": 9572,
                "phone": "+48 627355754",
                "email": "sekretariat@zssostrow.pl",
                "website": "http:\/\/www.zssostrow.pl",
                "ref:regon": "300394142",
                "operator": "Powiat Ostrowski",
                "operator:type": "government",
                "amenity": "school",
                "note": "Parent RSPO: 24256"
            }
        },
        {
            "id": 131821,
            "type": "Feature",
            "geometry": {
                "type": "Point",
                "coordinates": [
                    17.78529,
                    51.64371
                ]
            },
            "properties": {
                "ref:rspo": 131821,
                "official_name": "Plac\u00f3wka Kszta\u0142cenia Ustawicznego Perspektywa",
                "name": "Plac\u00f3wka Kszta\u0142cenia Ustawicznego Perspektywa",
                "addr:postcode": "63-400",
                "addr:city": "Ostr\u00f3w Wielkopolski",
                "addr:street": "Andrzeja Niegolewskiego",
                "addr:housenumber": "5",
                "addr:door": "1",
                "addr:teryt:simc": 937132,
                "addr:teryt:sym_ul": 14160,
                "phone": "+48 604883983",
                "email": "ewolanczyk@perspektywa.co",
                "ref:regon": "365353483",
                "operator": "Perspektywa Przestrze\u0144 Zdrowia I Rozwoju Sp\u00f3\u0142ka Z Ograniczon\u0105 Odpowiedzialno\u015bci\u0105",
                "operator:type": "private",
                "fixme": "w zale\u017cno\u015bci od przedmiotu dzia\u0142alno\u015bci (np. amenity=training + training=*, amenity=dancing_school, amenity=language_school, amenity=music_school)"
            }
        },
        {
            "id": 273079,
            "type": "Feature",
            "geometry": {
                "type": "Point",
                "coordinates": [
                    17.78529,
                    51.643679999999996
                ]
            },
            "properties": {
                "isced:level": "1;2",
                "ref:rspo": 273079,
                "official_name": "Szko\u0142a Kwitn\u0105cej Mysli w Ostrowie Wielkopolskim",
                "name": "Szko\u0142a Kwitn\u0105cej Mysli w Ostrowie Wielkopolskim",
                "addr:postcode": "63-400",
                "addr:city": "Ostr\u00f3w Wielkopolski",
                "addr:street": "Andrzeja Niegolewskiego",
                "addr:housenumber": "5",
                "addr:door": "1",
                "addr:teryt:simc": 937132,
                "addr:teryt:sym_ul": 14160,
                "email": "aspostrow@gmail.com",
                "website": "http:\/\/szkolakwitnacejmysli.pl",
                "ref:regon": "384368076",
                "operator": "Szko\u0142a Kwitn\u0105cej My\u015bli Sp\u00f3\u0142ka Z Ograniczon\u0105 Odpowiedzialno\u015bci\u0105",
                "operator:type": "private",
                "amenity": "school"
            }
        },
        {
            "id": 47510,
            "type": "Feature",
            "geometry": {
                "type": "Point",
                "coordinates": [
                    17.81493,
                    51.64382
                ]
            },
            "properties": {
                "isced:level": "3",
                "ref:rspo": 47510,
                "official_name": "Prywatne Liceum Og\u00f3lnokszta\u0142c\u0105ce dla Doros\u0142ych \"Twoja Szko\u0142a\" w Ostrowie Wielkopolskim",
                "name": "Prywatne Liceum Og\u00f3lnokszta\u0142c\u0105ce dla Doros\u0142ych \"Twoja Szko\u0142a\" w Ostrowie Wielkopolskim",
                "addr:postcode": "63-400",
                "addr:city": "Ostr\u00f3w Wielkopolski",
                "addr:street": "Wroc\u0142awska",
                "addr:housenumber": "51",
                "addr:teryt:simc": 937132,
                "addr:teryt:sym_ul": 24806,
                "phone": "+48 627301233",
                "email": "ostrowwielkopolski@twojaszkola.pl",
                "ref:regon": "302262019",
                "operator": "\"Casus\" Sp\u00f3\u0142ka Z Ograniczon\u0105 Odpowiedzialno\u015bci\u0105",
                "operator:type": "private",
                "amenity": "school"
            }
        },
        {
            "id": 133909,
            "type": "Feature",
            "geometry": {
                "type": "Point",
                "coordinates": [
                    17.81493,
                    51.643789999999996
                ]
            },
            "properties": {
                "isced:level": "1;2",
                "ref:rspo": 133909,
                "official_name": "Szko\u0142a Podstawowa Nr 2 im. Ewarysta Estkowskiego w Ostrowie Wielkopolskim",
                "name": "Szko\u0142a Podstawowa Nr 2",
                "addr:postcode": "63-400",
                "addr:city": "Ostr\u00f3w Wielkopolski",
                "addr:street": "Wroc\u0142awska",
                "addr:housenumber": "51",
                "addr:teryt:simc": 937132,
                "addr:teryt:sym_ul": 24806,
                "phone": "+48 627351713",
                "email": "sp2osw@gmail.com",
                "website": "http:\/\/sp2ostrowwlkp.pl",
                "ref:regon": "367721821",
                "operator": "Gmina Miasto Ostr\u00f3w Wielkopolski",
                "operator:type": "government",
                "amenity": "school"
            }
        },
        {
            "id": 24257,
            "type": "Feature",
            "geometry": {
                "type": "Point",
                "coordinates": [
                    17.814310073852,
                    51.644008636475
                ]
            },
            "properties": {
                "ref:rspo": 24257,
                "official_name": "Bursa Szkolna im. Stefana Rowi\u0144skiego",
                "name": "Bursa Szkolna",
                "addr:postcode": "63-400",
                "addr:city": "Ostr\u00f3w Wielkopolski",
                "addr:street": "Klemensa Tomczeka",
                "addr:housenumber": "34",
                "addr:teryt:simc": 937132,
                "addr:teryt:sym_ul": 27466,
                "phone": "+48 627356095",
                "email": "bursaostrow@poczta.onet.pl",
                "website": "http:\/\/www.bursa-ostrow.pl",
                "ref:regon": "000195021",
                "ref:vatin": "PL6221789549",
                "operator": "Powiat Ostrowski",
                "operator:type": "government",
                "building": "dormitory"
            }
        },
        {
            "id": 26516,
            "type": "Feature",
            "geometry": {
                "type": "Point",
                "coordinates": [
                    17.814310073853,
                    51.644008636475
                ]
            },
            "properties": {
                "ref:rspo": 26516,
                "official_name": "Publiczne Przedszkole Nr 1",
                "name": "Publiczne Przedszkole Nr 1",
                "addr:postcode": "63-400",
                "addr:city": "Ostr\u00f3w Wielkopolski",
                "addr:street": "Profesora Kaliny",
                "addr:housenumber": "2",
                "addr:teryt:simc": 937132,
                "addr:teryt:sym_ul": 51480,
                "phone": "+48 627385180",
                "email": "przedszkolenr1@przedszkolenr1.com",
                "ref:regon": "302241520",
                "ref:vatin": "PL6222418039",
                "operator": "Osiedlowe Stowarzyszenie \"Kr\u0119pianie\" W Ostrowie Wielkopolskim",
                "operator:type": "ngo",
                "amenity": "kindergarten"
            }
        },
        {
            "id": 25227,
            "type": "Feature",
            "geometry": {
                "type": "Point",
                "coordinates": [
                    17.77661,
                    51.6445
                ]
            },
            "properties": {
                "ref:rspo": 25227,
                "official_name": "Niepubliczne Przedszkole Maja",
                "name": "Niepubliczne Przedszkole Maja",
                "addr:postcode": "63-400",
                "addr:city": "Ostr\u00f3w Wielkopolski",
                "addr:street": "Tadeusza Rejtana",
                "addr:housenumber": "54",
                "addr:teryt:simc": 937132,
                "addr:teryt:sym_ul": 18573,
                "phone": "+48 609692976",
                "email": "centrummaja@centrummaja.pl",
                "ref:regon": "302236447",
                "ref:vatin": "PL6191367529",
                "operator": "Ma\u0142gorzata Dirbach-Kowalewska",
                "operator:type": "private",
                "amenity": "kindergarten"
            }
        },
        {
            "id": 25834,
            "type": "Feature",
            "geometry": {
                "type": "Point",
                "coordinates": [
                    17.82743,
                    51.64476
                ]
            },
            "properties": {
                "isced:level": "1;2",
                "ref:rspo": 25834,
                "official_name": "Szko\u0142a Podstawowa Nr 4 im. \"Kr\u00f3lowej Jadwigi\" w Ostrowie Wielkopolskim",
                "name": "Szko\u0142a Podstawowa Nr 4",
                "addr:postcode": "63-400",
                "addr:city": "Ostr\u00f3w Wielkopolski",
                "addr:street": "Ludwika Wary\u0144skiego",
                "addr:housenumber": "29",
                "addr:teryt:simc": 937132,
                "addr:teryt:sym_ul": 23707,
                "phone": "+48 625921442",
                "email": "sp4ostrow@wp.pl",
                "website": "http:\/\/www.sp4.nstrefa.pl\/",
                "ref:regon": "000694095",
                "ref:vatin": "PL6221790127",
                "operator": "Gmina Miasto Ostr\u00f3w Wielkopolski",
                "operator:type": "government",
                "amenity": "school"
            }
        },
        {
            "id": 20619,
            "type": "Feature",
            "geometry": {
                "type": "Point",
                "coordinates": [
                    17.8634,
                    51.64505
                ]
            },
            "properties": {
                "ref:rspo": 20619,
                "official_name": "Przedszkole Nr 3 Ja\u015b I Ma\u0142gosia w Ostrowie Wielkopolskim",
                "name": "Przedszkole Nr 3 Ja\u015b I Ma\u0142gosia w Ostrowie Wielkopolskim",
                "addr:postcode": "63-400",
                "addr:city": "Ostr\u00f3w Wielkopolski",
                "addr:street": "\u015awietlicowa",
                "addr:housenumber": "9",
                "addr:door": "a",
                "addr:teryt:simc": 937132,
                "addr:teryt:sym_ul": 22521,
                "phone": "+48 625911905",
                "email": "przedszkole3@promax.media.pl",
                "ref:regon": "251589975",
                "ref:vatin": "PL6221797891",
                "operator": "Gmina Miasto Ostr\u00f3w Wielkopolski",
                "operator:type": "government",
                "amenity": "kindergarten"
            }
        },
        {
            "id": 25833,
            "type": "Feature",
            "geometry": {
                "type": "Point",
                "coordinates": [
                    17.8634,
                    51.645019999999995
                ]
            },
            "properties": {
                "isced:level": "1;2",
                "ref:rspo": 25833,
                "official_name": "Szko\u0142a Podstawowa Nr 13 im. \"Stefana Rowi\u0144skiego\" w Ostrowie Wielkopolskim",
                "name": "Szko\u0142a Podstawowa Nr 13",
                "addr:postcode": "63-400",
                "addr:city": "Ostr\u00f3w Wielkopolski",
                "addr:street": "\u015awietlicowa",
                "addr:housenumber": "9",
                "addr:teryt:simc": 937132,
                "addr:teryt:sym_ul": 22521,
                "phone": "+48 627356995",
                "email": "szkola13ostrow@wp.pl",
                "ref:regon": "001171614",
                "ref:vatin": "PL6221797715",
                "operator": "Gmina Miasto Ostr\u00f3w Wielkopolski",
                "operator:type": "government",
                "amenity": "school"
            }
        },
        {
            "id": 21140,
            "type": "Feature",
            "geometry": {
                "type": "Point",
                "coordinates": [
                    17.81258,
                    51.64585
                ]
            },
            "properties": {
                "ref:rspo": 21140,
                "official_name": "Przedszkole Nr 6 w Ostrowie Wielkopolskim",
                "name": "Przedszkole Nr 6 w Ostrowie Wielkopolskim",
                "addr:postcode": "63-400",
                "addr:city": "Ostr\u00f3w Wielkopolski",
                "addr:street": "Ludwika Zamenhofa",
                "addr:housenumber": "9",
                "addr:teryt:simc": 937132,
                "addr:teryt:sym_ul": 25536,
                "phone": "+48 625917705",
                "email": "przedszkoleszesc@interia.pl",
                "ref:regon": "251590040",
                "ref:vatin": "PL6221870984",
                "operator": "Gmina Miasto Ostr\u00f3w Wielkopolski",
                "operator:type": "government",
                "amenity": "kindergarten"
            }
        },
        {
            "id": 24259,
            "type": "Feature",
            "geometry": {
                "type": "Point",
                "coordinates": [
                    17.81407,
                    51.64586
                ]
            },
            "properties": {
                "isced:level": "3",
                "ref:rspo": 24259,
                "official_name": "Ii Liceum Og\u00f3lnokszta\u0142c\u0105ce Z Oddzia\u0142ami Dwuj\u0119zycznymi im. W\u0142adys\u0142awa Reymonta",
                "name": "Ii Liceum Og\u00f3lnokszta\u0142c\u0105ce Z Oddzia\u0142ami Dwuj\u0119zycznymi",
                "addr:postcode": "63-400",
                "addr:city": "Ostr\u00f3w Wielkopolski",
                "addr:street": "Wroc\u0142awska",
                "addr:housenumber": "48",
                "addr:teryt:simc": 937132,
                "addr:teryt:sym_ul": 24806,
                "phone": "+48 627385528",
                "email": "reymontsekretariat@poczta.onet.pl",
                "website": "http:\/\/www.2liceum.osw.pl",
                "ref:regon": "250045687",
                "ref:vatin": "PL6221873362",
                "operator": "Powiat Ostrowski",
                "operator:type": "government",
                "amenity": "school"
            }
        },
        {
            "id": 20617,
            "type": "Feature",
            "geometry": {
                "type": "Point",
                "coordinates": [
                    17.82888,
                    51.64591
                ]
            },
            "properties": {
                "ref:rspo": 20617,
                "official_name": "Przedszkole Nr 9 Mi\u015b Uszatek w Ostrowie Wielkopolskim",
                "name": "Przedszkole Nr 9 Mi\u015b Uszatek w Ostrowie Wielkopolskim",
                "addr:postcode": "63-400",
                "addr:city": "Ostr\u00f3w Wielkopolski",
                "addr:street": "Jana Brzechwy",
                "addr:housenumber": "2",
                "addr:teryt:simc": 937132,
                "addr:teryt:sym_ul": 2225,
                "phone": "+48 625930704",
                "email": "uszatek9@poczta.onet.pl",
                "ref:regon": "251592606",
                "ref:vatin": "PL6221797649",
                "operator": "Gmina Miasto Ostr\u00f3w Wielkopolski",
                "operator:type": "government",
                "amenity": "kindergarten"
            }
        },
        {
            "id": 21391,
            "type": "Feature",
            "geometry": {
                "type": "Point",
                "coordinates": [
                    17.81006,
                    51.64635
                ]
            },
            "properties": {
                "ref:rspo": 21391,
                "official_name": "Zesp\u00f3\u0142 Szk\u00f3\u0142 Ekonomicznych im. J\u00f3zefa Gniazdowskiego",
                "name": "Zesp\u00f3\u0142 Szk\u00f3\u0142 Ekonomicznych",
                "addr:postcode": "63-400",
                "addr:city": "Ostr\u00f3w Wielkopolski",
                "addr:street": "Partyzancka",
                "addr:housenumber": "29",
                "addr:teryt:simc": 937132,
                "addr:teryt:sym_ul": 15729,
                "phone": "+48 625919556",
                "email": "zse@osw.pl",
                "website": "http:\/\/www.zse.osw.pl",
                "ref:regon": "000184129",
                "ref:vatin": "PL6221797804",
                "operator": "Powiat Ostrowski",
                "operator:type": "government",
                "landuse": "education",
                "fixme": "amenity=school, amenity=college albo landuse=education w zale\u017cno\u015bci od tego, jakie plac\u00f3wki wchodz\u0105 w sk\u0142ad zespo\u0142u. Sprawd\u017a, kiedy stosowa\u0107 amenity=* a kiedy landuse=education.",
                "note": "Children RSPO: 26215;26216;26218;26219;26222"
            }
        },
        {
            "id": 26215,
            "type": "Feature",
            "geometry": {
                "type": "Point",
                "coordinates": [
                    17.81006,
                    51.646319999999996
                ]
            },
            "properties": {
                "isced:level": "3",
                "ref:rspo": 26215,
                "official_name": "Technikum Nr 5",
                "name": "Technikum Nr 5",
                "addr:postcode": "63-400",
                "addr:city": "Ostr\u00f3w Wielkopolski",
                "addr:street": "Partyzancka",
                "addr:housenumber": "29",
                "addr:teryt:simc": 937132,
                "addr:teryt:sym_ul": 15729,
                "phone": "+48 625919556",
                "email": "zse@osw.pl",
                "ref:regon": "251599867",
                "operator": "Powiat Ostrowski",
                "operator:type": "government",
                "amenity": "school",
                "note": "Parent RSPO: 21391"
            }
        },
        {
            "id": 26216,
            "type": "Feature",
            "geometry": {
                "type": "Point",
                "coordinates": [
                    17.81006,
                    51.64629
                ]
            },
            "properties": {
                "isced:level": "3",
                "ref:rspo": 26216,
                "official_name": "Bran\u017cowa Szko\u0142a I Stopnia Nr 5",
                "name": "Bran\u017cowa Szko\u0142a I Stopnia Nr 5",
                "addr:postcode": "63-400",
                "addr:city": "Ostr\u00f3w Wielkopolski",
                "addr:street": "Partyzancka",
                "addr:housenumber": "29",
                "addr:teryt:simc": 937132,
                "addr:teryt:sym_ul": 15729,
                "phone": "+48 625919556",
                "email": "zse@osw.pl",
                "ref:regon": "251599880",
                "operator": "Powiat Ostrowski",
                "operator:type": "government",
                "amenity": "school",
                "note": "Parent RSPO: 21391"
            }
        },
        {
            "id": 26218,
            "type": "Feature",
            "geometry": {
                "type": "Point",
                "coordinates": [
                    17.81006,
                    51.64626
                ]
            },
            "properties": {
                "isced:level": "3",
                "ref:rspo": 26218,
                "official_name": "V Liceum Og\u00f3lnokszta\u0142c\u0105ce",
                "name": "V Liceum Og\u00f3lnokszta\u0142c\u0105ce",
                "addr:postcode": "63-400",
                "addr:city": "Ostr\u00f3w Wielkopolski",
                "addr:street": "Partyzancka",
                "addr:housenumber": "29",
                "addr:teryt:simc": 937132,
                "addr:teryt:sym_ul": 15729,
                "phone": "+48 625919556",
                "email": "zse@osw.pl",
                "ref:regon": "302237895",
                "operator": "Powiat Ostrowski",
                "operator:type": "government",
                "amenity": "school",
                "note": "Parent RSPO: 21391"
            }
        },
        {
            "id": 26219,
            "type": "Feature",
            "geometry": {
                "type": "Point",
                "coordinates": [
                    17.81006,
                    51.646229999999996
                ]
            },
            "properties": {
                "isced:level": "4",
                "ref:rspo": 26219,
                "official_name": "Szko\u0142a Policealna Nr 3",
                "name": "Szko\u0142a Policealna Nr 3",
                "addr:postcode": "63-400",
                "addr:city": "Ostr\u00f3w Wielkopolski",
                "addr:street": "Partyzancka",
                "addr:housenumber": "29",
                "addr:teryt:simc": 937132,
                "addr:teryt:sym_ul": 15729,
                "phone": "+48 625919556",
                "email": "zse@osw.pl",
                "ref:regon": "300108461",
                "operator": "Powiat Ostrowski",
                "operator:type": "government",
                "amenity": "college",
                "note": "Parent RSPO: 21391"
            }
        },
        {
            "id": 26222,
            "type": "Feature",
            "geometry": {
                "type": "Point",
                "coordinates": [
                    17.81006,
                    51.6462
                ]
            },
            "properties": {
                "isced:level": "3",
                "ref:rspo": 26222,
                "official_name": "V Liceum Og\u00f3lnokszta\u0142c\u0105ce dla Doros\u0142ych",
                "name": "V Liceum Og\u00f3lnokszta\u0142c\u0105ce dla Doros\u0142ych",
                "addr:postcode": "63-400",
                "addr:city": "Ostr\u00f3w Wielkopolski",
                "addr:street": "Partyzancka",
                "addr:housenumber": "29",
                "addr:teryt:simc": 937132,
                "addr:teryt:sym_ul": 15729,
                "phone": "+48 625919556",
                "email": "zse@osw.pl",
                "ref:regon": "302238831",
                "operator": "Powiat Ostrowski",
                "operator:type": "government",
                "amenity": "school",
                "note": "Parent RSPO: 21391"
            }
        },
        {
            "id": 4555,
            "type": "Feature",
            "geometry": {
                "type": "Point",
                "coordinates": [
                    17.8171,
                    51.6467
                ]
            },
            "properties": {
                "ref:rspo": 4555,
                "official_name": "Niepubliczne Przedszkole Og\u00f3lnodost\u0119pne im. S. W\u0142odzimiry Wojtczak",
                "name": "Niepubliczne Przedszkole Og\u00f3lnodost\u0119pne",
                "addr:postcode": "63-400",
                "addr:city": "Ostr\u00f3w Wielkopolski",
                "addr:street": "Gimnazjalna",
                "addr:housenumber": "13",
                "addr:door": "13",
                "addr:teryt:simc": 937132,
                "addr:teryt:sym_ul": 5527,
                "phone": "+48 668157379",
                "email": "przedszkole@osw.pl",
                "website": "http:\/\/www.przedszkole.osw.pl",
                "ref:regon": "302190573",
                "operator": "Zgromadzenie Si\u00f3str \u015aw. El\u017cbiety Prowincja Pozna\u0144ska",
                "operator:type": "religious",
                "amenity": "kindergarten"
            }
        },
        {
            "id": 50836,
            "type": "Feature",
            "geometry": {
                "type": "Point",
                "coordinates": [
                    17.8171,
                    51.64667
                ]
            },
            "properties": {
                "ref:rspo": 50836,
                "official_name": "Specjalny O\u015brodek Wychowawczy Zgromadzenia Si\u00f3str \u015aw. El\u017cbiety",
                "name": "Specjalny O\u015brodek Wychowawczy Zgromadzenia Si\u00f3str \u015aw. El\u017cbiety",
                "addr:postcode": "63-400",
                "addr:city": "Ostr\u00f3w Wielkopolski",
                "addr:street": "Gimnazjalna",
                "addr:housenumber": "13",
                "addr:teryt:simc": 937132,
                "addr:teryt:sym_ul": 5527,
                "phone": "+48 627362125",
                "email": "osrodek@osw.pl",
                "website": "http:\/\/www.osrodek.osw.pl",
                "ref:regon": "302261563",
                "operator": "Zgromadzenie Si\u00f3str \u015aw. El\u017cbiety Prowincja Pozna\u0144ska",
                "operator:type": "religious",
                "amenity": "social_facility",
                "social_facility": "group_home",
                "social_facility:for": "child;juvenile"
            }
        },
        {
            "id": 24283,
            "type": "Feature",
            "geometry": {
                "type": "Point",
                "coordinates": [
                    17.81738,
                    51.64709
                ]
            },
            "properties": {
                "isced:level": "3",
                "ref:rspo": 24283,
                "official_name": "I Liceum Og\u00f3lnokszta\u0142c\u0105ce im. Ks. J. Kompa\u0142\u0142y I W. Lipskiego",
                "name": "I Liceum Og\u00f3lnokszta\u0142c\u0105ce",
                "addr:postcode": "63-400",
                "addr:city": "Ostr\u00f3w Wielkopolski",
                "addr:street": "Gimnazjalna",
                "addr:housenumber": "9",
                "addr:teryt:simc": 937132,
                "addr:teryt:sym_ul": 5527,
                "phone": "+48 627366291",
                "email": "1lo.ostrowwielkopolski@gmail.com",
                "website": "http:\/\/www.1liceum.edu.pl",
                "ref:regon": "000245492",
                "ref:vatin": "PL6221051401",
                "operator": "Powiat Ostrowski",
                "operator:type": "government",
                "amenity": "school"
            }
        },
        {
            "id": 20625,
            "type": "Feature",
            "geometry": {
                "type": "Point",
                "coordinates": [
                    17.8127,
                    51.64739
                ]
            },
            "properties": {
                "ref:rspo": 20625,
                "official_name": "Przedszkole Nr 16 Kosza\u0142ek-Opa\u0142ek w Ostrowie Wielkopolskim",
                "name": "Przedszkole Nr 16 Kosza\u0142ek-Opa\u0142ek w Ostrowie Wielkopolskim",
                "addr:postcode": "63-400",
                "addr:city": "Ostr\u00f3w Wielkopolski",
                "addr:street": "Partyzancka",
                "addr:housenumber": "15",
                "addr:door": "b",
                "addr:teryt:simc": 937132,
                "addr:teryt:sym_ul": 15729,
                "phone": "+48 625918295",
                "email": "koszalek16@interia.pl",
                "ref:regon": "251590010",
                "ref:vatin": "PL6221789503",
                "operator": "Gmina Miasto Ostr\u00f3w Wielkopolski",
                "operator:type": "government",
                "amenity": "kindergarten"
            }
        },
        {
            "id": 24177,
            "type": "Feature",
            "geometry": {
                "type": "Point",
                "coordinates": [
                    17.8127,
                    51.64736
                ]
            },
            "properties": {
                "isced:level": "1;2",
                "ref:rspo": 24177,
                "official_name": "Szko\u0142a Podstawowa Nr 1 im. \"Marii Konopnickiej\" w Ostrowie Wielkopolskim",
                "name": "Szko\u0142a Podstawowa Nr 1",
                "addr:postcode": "63-400",
                "addr:city": "Ostr\u00f3w Wielkopolski",
                "addr:street": "Partyzancka",
                "addr:housenumber": "15",
                "addr:teryt:simc": 937132,
                "addr:teryt:sym_ul": 15729,
                "phone": "+48 627366441",
                "email": "sp1sekr@vp.pl",
                "website": "http:\/\/www.sp1.osw.pl",
                "ref:regon": "000694066",
                "ref:vatin": "PL6221789259",
                "operator": "Gmina Miasto Ostr\u00f3w Wielkopolski",
                "operator:type": "government",
                "amenity": "school"
            }
        },
        {
            "id": 91492,
            "type": "Feature",
            "geometry": {
                "type": "Point",
                "coordinates": [
                    17.81481,
                    51.64776
                ]
            },
            "properties": {
                "ref:rspo": 91492,
                "official_name": "Stowarzyszenie Ksi\u0119gowych w Polsce Oddzia\u0142 Terenowy w Ostrowie Wielkopolskim Oddzia\u0142u Wielkopolskiego w Poznaniu",
                "name": "Stowarzyszenie Ksi\u0119gowych w Polsce Oddzia\u0142 Terenowy w Ostrowie Wielkopolskim Oddzia\u0142u Wielkopolskiego w Poznaniu",
                "addr:postcode": "63-400",
                "addr:city": "Ostr\u00f3w Wielkopolski",
                "addr:street": "Wroc\u0142awska",
                "addr:housenumber": "22",
                "addr:teryt:simc": 937132,
                "addr:teryt:sym_ul": 24806,
                "phone": "+48 627380819",
                "email": "ostrow@skwp.pl",
                "ref:regon": "302282039",
                "operator": "Stowarzyszenie Ksi\u0119gowych W Polsce",
                "operator:type": "ngo",
                "fixme": "w zale\u017cno\u015bci od przedmiotu dzia\u0142alno\u015bci (np. amenity=training + training=*, amenity=dancing_school, amenity=language_school, amenity=music_school)"
            }
        },
        {
            "id": 128640,
            "type": "Feature",
            "geometry": {
                "type": "Point",
                "coordinates": [
                    17.81223,
                    51.64777
                ]
            },
            "properties": {
                "ref:rspo": 128640,
                "official_name": "Niepubliczna Poradnia Psychologiczno - Pedagogiczna",
                "name": "Niepubliczna Poradnia Psychologiczno - Pedagogiczna",
                "addr:postcode": "63-400",
                "addr:city": "Ostr\u00f3w Wielkopolski",
                "addr:street": "Partyzancka",
                "addr:housenumber": "17",
                "addr:teryt:simc": 937132,
                "addr:teryt:sym_ul": 15729,
                "phone": "+48 501688566",
                "email": "poradniaostrow@wp.pl",
                "ref:regon": "362338425",
                "operator": "Robert S\u0142owikowski",
                "operator:type": "private",
                "healthcare": "counselling",
                "counselling_type": "education",
                "fixme": "w zale\u017cno\u015bci od przedmiotu dzia\u0142alno\u015bci (np. healthcare=counselling + counselling_type=education albo healthcare=psychotherapist)"
            }
        },
        {
            "id": 129629,
            "type": "Feature",
            "geometry": {
                "type": "Point",
                "coordinates": [
                    17.81052,
                    51.64805
                ]
            },
            "properties": {
                "ref:rspo": 129629,
                "official_name": "O\u015brodek Szkolenia w Ostrowie Wielkopolskim",
                "name": "O\u015brodek Szkolenia w Ostrowie Wielkopolskim",
                "addr:postcode": "63-400",
                "addr:city": "Ostr\u00f3w Wielkopolski",
                "addr:street": "Wolno\u015bci",
                "addr:housenumber": "34",
                "addr:teryt:simc": 937132,
                "addr:teryt:sym_ul": 24687,
                "phone": "+48 502850565",
                "email": "j-wawrzyniak@yahoo.com",
                "ref:regon": "362692173",
                "operator": "Jaros\u0142aw Wawrzyniak",
                "operator:type": "private",
                "fixme": "w zale\u017cno\u015bci od przedmiotu dzia\u0142alno\u015bci (np. amenity=training + training=*, amenity=dancing_school, amenity=language_school, amenity=music_school)"
            }
        },
        {
            "id": 47514,
            "type": "Feature",
            "geometry": {
                "type": "Point",
                "coordinates": [
                    17.80924,
                    51.64877
                ]
            },
            "properties": {
                "isced:level": "4",
                "ref:rspo": 47514,
                "official_name": "Szko\u0142a Policealna Centrum Nauki I Biznesu \"\u017bak\" w Ostrowie Wielkopolskim",
                "name": "Szko\u0142a Policealna Centrum Nauki I Biznesu \"\u017bak\" w Ostrowie Wielkopolskim",
                "addr:postcode": "63-400",
                "addr:city": "Ostr\u00f3w Wielkopolski",
                "addr:street": "Henryka Sienkiewicza",
                "addr:housenumber": "1",
                "addr:teryt:simc": 937132,
                "addr:teryt:sym_ul": 19830,
                "phone": "+48 627362712",
                "email": "ostrowwielkopolski@zak.edu.pl",
                "ref:regon": "302250832",
                "operator": "Centrum Nauki I Biznesu \"\u017bak\" Sp\u00f3\u0142ka Z Ograniczon\u0105 Odpowiedzialno\u015bci\u0105",
                "operator:type": "private",
                "amenity": "college"
            }
        },
        {
            "id": 47516,
            "type": "Feature",
            "geometry": {
                "type": "Point",
                "coordinates": [
                    17.80924,
                    51.64874
                ]
            },
            "properties": {
                "isced:level": "3",
                "ref:rspo": 47516,
                "official_name": "Liceum Og\u00f3lnokszta\u0142c\u0105ce dla Doros\u0142ych \"\u017bak\" w Ostrowie Wielkopolskim",
                "name": "Liceum Og\u00f3lnokszta\u0142c\u0105ce dla Doros\u0142ych \"\u017bak\" w Ostrowie Wielkopolskim",
                "addr:postcode": "63-400",
                "addr:city": "Ostr\u00f3w Wielkopolski",
                "addr:street": "Henryka Sienkiewicza",
                "addr:housenumber": "1",
                "addr:teryt:simc": 937132,
                "addr:teryt:sym_ul": 19830,
                "phone": "+48 627362712",
                "email": "ostrowwielkopolski@zak.edu.pl",
                "ref:regon": "302250884",
                "operator": "Centrum Nauki I Biznesu \"\u017bak\" Sp\u00f3\u0142ka Z Ograniczon\u0105 Odpowiedzialno\u015bci\u0105",
                "operator:type": "private",
                "amenity": "school"
            }
        },
        {
            "id": 128641,
            "type": "Feature",
            "geometry": {
                "type": "Point",
                "coordinates": [
                    17.80924,
                    51.64871
                ]
            },
            "properties": {
                "isced:level": "4",
                "ref:rspo": 128641,
                "official_name": "Szko\u0142a Policealna Opieki Medycznej \"\u017bak\" w Ostrowie Wielkopolskim",
                "name": "Szko\u0142a Policealna Opieki Medycznej \"\u017bak\" w Ostrowie Wielkopolskim",
                "addr:postcode": "63-400",
                "addr:city": "Ostr\u00f3w Wielkopolski",
                "addr:street": "Henryka Sienkiewicza",
                "addr:housenumber": "1",
                "addr:teryt:simc": 937132,
                "addr:teryt:sym_ul": 19830,
                "phone": "+48 627362712",
                "email": "ostrowwielkopolski@zak.edu.pl",
                "ref:regon": "362338260",
                "operator": "Centrum Nauki I Biznesu \"\u017bak\" Sp\u00f3\u0142ka Z Ograniczon\u0105 Odpowiedzialno\u015bci\u0105",
                "operator:type": "private",
                "amenity": "college"
            }
        },
        {
            "id": 47518,
            "type": "Feature",
            "geometry": {
                "type": "Point",
                "coordinates": [
                    17.81268,
                    51.6488299
                ]
            },
            "properties": {
                "ref:rspo": 47518,
                "official_name": "O\u015brodek Szkoleniowy Centrum Nauki I Biznesu \"\u017bak\"",
                "name": "O\u015brodek Szkoleniowy Centrum Nauki I Biznesu \"\u017bak\"",
                "addr:postcode": "63-400",
                "addr:city": "Ostr\u00f3w Wielkopolski",
                "addr:street": "Kolejowa",
                "addr:housenumber": "20",
                "addr:door": "3",
                "addr:teryt:simc": 937132,
                "addr:teryt:sym_ul": 8828,
                "phone": "+48 627362712",
                "email": "ostrowwielkopolski@zak.edu.pl",
                "ref:regon": "302250855",
                "operator": "Centrum Nauki I Biznesu \"\u017bak\" Sp\u00f3\u0142ka Z Ograniczon\u0105 Odpowiedzialno\u015bci\u0105",
                "operator:type": "private",
                "fixme": "w zale\u017cno\u015bci od przedmiotu dzia\u0142alno\u015bci (np. amenity=training + training=*, amenity=dancing_school, amenity=language_school, amenity=music_school)"
            }
        },
        {
            "id": 128639,
            "type": "Feature",
            "geometry": {
                "type": "Point",
                "coordinates": [
                    17.81268,
                    51.6487999
                ]
            },
            "properties": {
                "isced:level": "4",
                "ref:rspo": 128639,
                "official_name": "Szko\u0142a Policealna Medyczna '\u017bak\" w Ostrowie Wielkopolskim",
                "name": "Szko\u0142a Policealna Medyczna '\u017bak\" w Ostrowie Wielkopolskim",
                "addr:postcode": "63-400",
                "addr:city": "Ostr\u00f3w Wielkopolski",
                "addr:street": "Kolejowa",
                "addr:housenumber": "20",
                "addr:door": "3",
                "addr:teryt:simc": 937132,
                "addr:teryt:sym_ul": 8828,
                "phone": "+48 627362712",
                "email": "ostrowwielkopolski@zak.edu.pl",
                "ref:regon": "362338170",
                "operator": "Centrum Nauki I Biznesu \"\u017bak\" Sp\u00f3\u0142ka Z Ograniczon\u0105 Odpowiedzialno\u015bci\u0105",
                "operator:type": "private",
                "amenity": "college"
            }
        },
        {
            "id": 47503,
            "type": "Feature",
            "geometry": {
                "type": "Point",
                "coordinates": [
                    17.80685,
                    51.64907
                ]
            },
            "properties": {
                "isced:level": "4",
                "ref:rspo": 47503,
                "official_name": "Studium Medyczne Teb Edukacja w Ostrowie Wielkopolskim",
                "name": "Studium Medyczne Teb Edukacja w Ostrowie Wielkopolskim",
                "addr:postcode": "63-400",
                "addr:city": "Ostr\u00f3w Wielkopolski",
                "addr:street": "Kolejowa",
                "addr:housenumber": "47",
                "addr:teryt:simc": 937132,
                "addr:teryt:sym_ul": 8828,
                "phone": "+48 625915591",
                "email": "ostrow@teb-edukacja.pl",
                "ref:regon": "302261296",
                "operator": "Teb Edukacja Sp\u00f3\u0142ka Z Ograniczon\u0105 Odpowiedzialno\u015bci\u0105",
                "operator:type": "private",
                "amenity": "college"
            }
        },
        {
            "id": 47504,
            "type": "Feature",
            "geometry": {
                "type": "Point",
                "coordinates": [
                    17.80685,
                    51.64904
                ]
            },
            "properties": {
                "isced:level": "4",
                "ref:rspo": 47504,
                "official_name": "Niepubliczna Szko\u0142a Policealna Teb Edukacja w Ostrowie Wielkopolskim",
                "name": "Niepubliczna Szko\u0142a Policealna Teb Edukacja w Ostrowie Wielkopolskim",
                "addr:postcode": "63-400",
                "addr:city": "Ostr\u00f3w Wielkopolski",
                "addr:street": "Kolejowa",
                "addr:housenumber": "47",
                "addr:teryt:simc": 937132,
                "addr:teryt:sym_ul": 8828,
                "phone": "+48 625915591",
                "email": "lidia.goralska@teb.edukacja.pl",
                "ref:regon": "302261310",
                "operator": "Teb Edukacja Sp\u00f3\u0142ka Z Ograniczon\u0105 Odpowiedzialno\u015bci\u0105",
                "operator:type": "private",
                "amenity": "college"
            }
        },
        {
            "id": 47521,
            "type": "Feature",
            "geometry": {
                "type": "Point",
                "coordinates": [
                    17.80685,
                    51.649010000000004
                ]
            },
            "properties": {
                "ref:rspo": 47521,
                "official_name": "Teb Edukacja Studium Kszta\u0142cenia Praktycznego",
                "name": "Teb Edukacja Studium Kszta\u0142cenia Praktycznego",
                "addr:postcode": "63-400",
                "addr:city": "Ostr\u00f3w Wielkopolski",
                "addr:street": "Kolejowa",
                "addr:housenumber": "47",
                "addr:teryt:simc": 937132,
                "addr:teryt:sym_ul": 8828,
                "phone": "+48 625915591",
                "email": "ostrow@teb-edukacja.pl",
                "ref:regon": "302261273",
                "operator": "Teb Edukacja Sp\u00f3\u0142ka Z Ograniczon\u0105 Odpowiedzialno\u015bci\u0105",
                "operator:type": "private",
                "fixme": "w zale\u017cno\u015bci od przedmiotu dzia\u0142alno\u015bci (np. amenity=training + training=*, amenity=dancing_school, amenity=language_school, amenity=music_school)"
            }
        },
        {
            "id": 56742,
            "type": "Feature",
            "geometry": {
                "type": "Point",
                "coordinates": [
                    17.80685,
                    51.64898
                ]
            },
            "properties": {
                "isced:level": "4",
                "ref:rspo": 56742,
                "official_name": "Policealna Szko\u0142a Teb Edukacja",
                "name": "Policealna Szko\u0142a Teb Edukacja",
                "addr:postcode": "63-400",
                "addr:city": "Ostr\u00f3w Wielkopolski",
                "addr:street": "Kolejowa",
                "addr:housenumber": "47",
                "addr:teryt:simc": 937132,
                "addr:teryt:sym_ul": 8828,
                "phone": "+48 625915591",
                "email": "ostrow@teb.pl",
                "ref:regon": "302261391",
                "operator": "Teb Edukacja Sp\u00f3\u0142ka Z Ograniczon\u0105 Odpowiedzialno\u015bci\u0105",
                "operator:type": "private",
                "amenity": "college"
            }
        },
        {
            "id": 264457,
            "type": "Feature",
            "geometry": {
                "type": "Point",
                "coordinates": [
                    17.80685,
                    51.64895
                ]
            },
            "properties": {
                "isced:level": "3",
                "ref:rspo": 264457,
                "official_name": "Technikum Teb Edukacja w Ostrowie Wielkopolskim",
                "name": "Technikum Teb Edukacja w Ostrowie Wielkopolskim",
                "addr:postcode": "63-400",
                "addr:city": "Ostr\u00f3w Wielkopolski",
                "addr:street": "Kolejowa",
                "addr:housenumber": "47",
                "addr:teryt:simc": 937132,
                "addr:teryt:sym_ul": 8828,
                "phone": "+48 571312655",
                "email": "ostrow@teb-edukacja.pl",
                "website": "http:\/\/www.teb.pl",
                "ref:regon": "368352679",
                "operator": "Teb Edukacja Sp\u00f3\u0142ka Z Ograniczon\u0105 Odpowiedzialno\u015bci\u0105",
                "operator:type": "private",
                "amenity": "school"
            }
        },
        {
            "id": 24254,
            "type": "Feature",
            "geometry": {
                "type": "Point",
                "coordinates": [
                    17.81143,
                    51.64954
                ]
            },
            "properties": {
                "ref:rspo": 24254,
                "official_name": "Zesp\u00f3\u0142 Szk\u00f3\u0142 Budowlano - Energetycznych",
                "name": "Zesp\u00f3\u0142 Szk\u00f3\u0142 Budowlano - Energetycznych",
                "addr:postcode": "63-400",
                "addr:city": "Ostr\u00f3w Wielkopolski",
                "addr:street": "Wolno\u015bci",
                "addr:housenumber": "23",
                "addr:teryt:simc": 937132,
                "addr:teryt:sym_ul": 24687,
                "phone": "+48 627366228",
                "email": "zsbe@zsbe.edu.pl",
                "website": "http:\/\/www.zsbe.gov.pl",
                "ref:regon": "000769249",
                "ref:vatin": "PL6221051594",
                "operator": "Powiat Ostrowski",
                "operator:type": "government",
                "landuse": "education",
                "fixme": "amenity=school, amenity=college albo landuse=education w zale\u017cno\u015bci od tego, jakie plac\u00f3wki wchodz\u0105 w sk\u0142ad zespo\u0142u. Sprawd\u017a, kiedy stosowa\u0107 amenity=* a kiedy landuse=education.",
                "note": "Children RSPO: 30996;30997;31000;51781;275814"
            }
        },
        {
            "id": 30996,
            "type": "Feature",
            "geometry": {
                "type": "Point",
                "coordinates": [
                    17.81143,
                    51.64951
                ]
            },
            "properties": {
                "isced:level": "3",
                "ref:rspo": 30996,
                "official_name": "Bran\u017cowa Szko\u0142a I Stopnia Nr 3 im. Ernesta Malinowskiego",
                "name": "Bran\u017cowa Szko\u0142a I Stopnia Nr 3",
                "addr:postcode": "63-400",
                "addr:city": "Ostr\u00f3w Wielkopolski",
                "addr:street": "Wolno\u015bci",
                "addr:housenumber": "23",
                "addr:teryt:simc": 937132,
                "addr:teryt:sym_ul": 24687,
                "phone": "+48 627366228",
                "email": "zsbe@zsbe.edu.pl",
                "website": "http:\/\/www.zsbe.edu.pl",
                "ref:regon": "251534253",
                "operator": "Powiat Ostrowski",
                "operator:type": "government",
                "amenity": "school",
                "note": "Parent RSPO: 24254"
            }
        },
        {
            "id": 30997,
            "type": "Feature",
            "geometry": {
                "type": "Point",
                "coordinates": [
                    17.81143,
                    51.649480000000004
                ]
            },
            "properties": {
                "isced:level": "3",
                "ref:rspo": 30997,
                "official_name": "Iii Liceum Og\u00f3lnokszta\u0142c\u0105ce dla Doros\u0142ych",
                "name": "Iii Liceum Og\u00f3lnokszta\u0142c\u0105ce dla Doros\u0142ych",
                "addr:postcode": "63-400",
                "addr:city": "Ostr\u00f3w Wielkopolski",
                "addr:street": "Wolno\u015bci",
                "addr:housenumber": "23",
                "addr:teryt:simc": 937132,
                "addr:teryt:sym_ul": 24687,
                "phone": "+48 627366228",
                "email": "zsbe@zsbe.edu.pl",
                "website": "http:\/\/www.zsbe.edu.pl",
                "ref:regon": "302241626",
                "operator": "Powiat Ostrowski",
                "operator:type": "government",
                "amenity": "school",
                "note": "Parent RSPO: 24254"
            }
        },
        {
            "id": 31000,
            "type": "Feature",
            "geometry": {
                "type": "Point",
                "coordinates": [
                    17.81143,
                    51.64945
                ]
            },
            "properties": {
                "isced:level": "4",
                "ref:rspo": 31000,
                "official_name": "Szko\u0142a Policealna Nr 2",
                "name": "Szko\u0142a Policealna Nr 2",
                "addr:postcode": "63-400",
                "addr:city": "Ostr\u00f3w Wielkopolski",
                "addr:street": "Wolno\u015bci",
                "addr:housenumber": "23",
                "addr:teryt:simc": 937132,
                "addr:teryt:sym_ul": 24687,
                "phone": "+48 627366228",
                "email": "zsbe@zsbe.edu.pl",
                "website": "http:\/\/www.zsbe.edu.pl",
                "ref:regon": "300033600",
                "operator": "Powiat Ostrowski",
                "operator:type": "government",
                "amenity": "college",
                "note": "Parent RSPO: 24254"
            }
        },
        {
            "id": 51781,
            "type": "Feature",
            "geometry": {
                "type": "Point",
                "coordinates": [
                    17.81143,
                    51.64942
                ]
            },
            "properties": {
                "isced:level": "3",
                "ref:rspo": 51781,
                "official_name": "Technikum Nr 3 im. Ernesta Malinowskiego",
                "name": "Technikum Nr 3",
                "addr:postcode": "63-400",
                "addr:city": "Ostr\u00f3w Wielkopolski",
                "addr:street": "Wolno\u015bci",
                "addr:housenumber": "23",
                "addr:teryt:simc": 937132,
                "addr:teryt:sym_ul": 24687,
                "phone": "+48 627366228",
                "email": "zsbe@zsbe.edu.pl",
                "website": "http:\/\/www.zsbe.edu.pl",
                "ref:regon": "251534260",
                "operator": "Powiat Ostrowski",
                "operator:type": "government",
                "amenity": "school",
                "note": "Parent RSPO: 24254"
            }
        },
        {
            "id": 275814,
            "type": "Feature",
            "geometry": {
                "type": "Point",
                "coordinates": [
                    17.81143,
                    51.649390000000004
                ]
            },
            "properties": {
                "isced:level": "3",
                "ref:rspo": 275814,
                "official_name": "Bran\u017cowa Szko\u0142a II Stopnia Nr 3",
                "name": "Bran\u017cowa Szko\u0142a II Stopnia Nr 3",
                "addr:postcode": "63-400",
                "addr:city": "Ostr\u00f3w Wielkopolski",
                "addr:street": "Wolno\u015bci",
                "addr:housenumber": "23",
                "addr:teryt:simc": 937132,
                "addr:teryt:sym_ul": 24687,
                "phone": "+48 627366228",
                "email": "zsbe@zsbe.edu.pl",
                "website": "http:\/\/www.zsbe.edu.pl",
                "ref:regon": "386940787",
                "operator": "Powiat Ostrowski",
                "operator:type": "government",
                "amenity": "school",
                "note": "Parent RSPO: 24254"
            }
        },
        {
            "id": 24600,
            "type": "Feature",
            "geometry": {
                "type": "Point",
                "coordinates": [
                    17.82967,
                    51.65026
                ]
            },
            "properties": {
                "isced:level": "1;2",
                "ref:rspo": 24600,
                "official_name": "Szko\u0142a Podstawowa Nr 5 im. \"Mieszka I\" w Ostrowie Wielkopolskim",
                "name": "Szko\u0142a Podstawowa Nr 5",
                "addr:postcode": "63-400",
                "addr:city": "Ostr\u00f3w Wielkopolski",
                "addr:street": "Grabowska",
                "addr:housenumber": "1-3",
                "addr:teryt:simc": 937132,
                "addr:teryt:sym_ul": 6038,
                "phone": "+48 627364627",
                "email": "sp5ostrow@sp5.kylos.pl",
                "website": "http:\/\/www.sp5.osw.pl",
                "ref:regon": "000694103",
                "ref:vatin": "PL6221797773",
                "operator": "Gmina Miasto Ostr\u00f3w Wielkopolski",
                "operator:type": "government",
                "amenity": "school"
            }
        },
        {
            "id": 272892,
            "type": "Feature",
            "geometry": {
                "type": "Point",
                "coordinates": [
                    17.82967,
                    51.65023
                ]
            },
            "properties": {
                "isced:level": "3",
                "ref:rspo": 272892,
                "official_name": "Montessori Szko\u0142a \u017bycia Niepubliczne Liceum Og\u00f3lnokszta\u0142c\u0105ce Fundacji Kr\u00f3lowej \u015aw. Jadwigi w Ostrowie Wielkopolskim",
                "name": "Montessori Szko\u0142a \u017bycia Niepubliczne Liceum Og\u00f3lnokszta\u0142c\u0105ce Fundacji Kr\u00f3lowej \u015aw. Jadwigi w Ostrowie Wielkopolskim",
                "addr:postcode": "63-400",
                "addr:city": "Ostr\u00f3w Wielkopolski",
                "addr:street": "Grabowska",
                "addr:housenumber": "1-3",
                "addr:teryt:simc": 937132,
                "addr:teryt:sym_ul": 6038,
                "phone": "+48 508329008",
                "email": "kamila.chatian@szkolamontessori.com.pl",
                "ref:regon": "384312680",
                "operator": "Fundacja Kr\u00f3lowej \u015awi\u0119tej Jadwigi",
                "operator:type": "ngo",
                "amenity": "school"
            }
        },
        {
            "id": 273090,
            "type": "Feature",
            "geometry": {
                "type": "Point",
                "coordinates": [
                    17.82967,
                    51.650200000000005
                ]
            },
            "properties": {
                "isced:level": "1;2",
                "ref:rspo": 273090,
                "official_name": "Montessori Szko\u0142a \u017bycia Niepubliczna Szko\u0142a Podstawowa Fundacji Kr\u00f3lowej \u015aw. Jadwigi w Ostrowie Wielkopolskim",
                "name": "Montessori Szko\u0142a \u017bycia Niepubliczna Szko\u0142a Podstawowa Fundacji Kr\u00f3lowej \u015aw. Jadwigi w Ostrowie Wielkopolskim",
                "addr:postcode": "63-400",
                "addr:city": "Ostr\u00f3w Wielkopolski",
                "addr:street": "Grabowska",
                "addr:housenumber": "1-3",
                "addr:teryt:simc": 937132,
                "addr:teryt:sym_ul": 6038,
                "email": "biuromms@szkolamontessori.com.pl",
                "ref:regon": "384377431",
                "operator": "Fundacja Kr\u00f3lowej \u015awi\u0119tej Jadwigi",
                "operator:type": "ngo",
                "amenity": "school"
            }
        },
        {
            "id": 121663,
            "type": "Feature",
            "geometry": {
                "type": "Point",
                "coordinates": [
                    17.82204,
                    51.65029
                ]
            },
            "properties": {
                "ref:rspo": 121663,
                "official_name": "Niepubliczna Poradnia Psychologiczno - Pedagogiczna \"Promyk\"",
                "name": "Niepubliczna Poradnia Psychologiczno - Pedagogiczna \"Promyk\"",
                "addr:postcode": "63-400",
                "addr:city": "Ostr\u00f3w Wielkopolski",
                "addr:street": "Kaliska",
                "addr:housenumber": "35a",
                "addr:teryt:simc": 937132,
                "addr:teryt:sym_ul": 7823,
                "phone": "+48 602679732",
                "email": "gabinetpsycholog@interia.pl",
                "ref:regon": "302636610",
                "operator": "Marcin Maciejski \"Gabinet Diagnozy, Poradnictwa I Terapii Psychologicznej\"",
                "operator:type": "consortium",
                "healthcare": "counselling",
                "counselling_type": "education",
                "fixme": "w zale\u017cno\u015bci od przedmiotu dzia\u0142alno\u015bci (np. healthcare=counselling + counselling_type=education albo healthcare=psychotherapist)"
            }
        },
        {
            "id": 7330,
            "type": "Feature",
            "geometry": {
                "type": "Point",
                "coordinates": [
                    17.81097,
                    51.65032
                ]
            },
            "properties": {
                "ref:rspo": 7330,
                "official_name": "Zesp\u00f3\u0142 Szk\u00f3\u0142 Us\u0142ugowych",
                "name": "Zesp\u00f3\u0142 Szk\u00f3\u0142 Us\u0142ugowych",
                "addr:postcode": "63-400",
                "addr:city": "Ostr\u00f3w Wielkopolski",
                "addr:street": "Wolno\u015bci",
                "addr:housenumber": "12",
                "addr:teryt:simc": 937132,
                "addr:teryt:sym_ul": 24687,
                "phone": "+48 627365182",
                "email": "zsu@osw.pl",
                "website": "http:\/\/www.zsu.osw.pl",
                "ref:regon": "000247568",
                "ref:vatin": "PL6222029846",
                "operator": "Powiat Ostrowski",
                "operator:type": "government",
                "landuse": "education",
                "fixme": "amenity=school, amenity=college albo landuse=education w zale\u017cno\u015bci od tego, jakie plac\u00f3wki wchodz\u0105 w sk\u0142ad zespo\u0142u. Sprawd\u017a, kiedy stosowa\u0107 amenity=* a kiedy landuse=education.",
                "note": "Children RSPO: 10024;18681;18715;18737;18808;275810"
            }
        },
        {
            "id": 10024,
            "type": "Feature",
            "geometry": {
                "type": "Point",
                "coordinates": [
                    17.81097,
                    51.65029
                ]
            },
            "properties": {
                "isced:level": "3",
                "ref:rspo": 10024,
                "official_name": "Iv Liceum Og\u00f3lnokszta\u0142c\u0105ce dla Doros\u0142ych",
                "name": "Iv Liceum Og\u00f3lnokszta\u0142c\u0105ce dla Doros\u0142ych",
                "addr:postcode": "63-400",
                "addr:city": "Ostr\u00f3w Wielkopolski",
                "addr:street": "Wolno\u015bci",
                "addr:housenumber": "12",
                "addr:teryt:simc": 937132,
                "addr:teryt:sym_ul": 24687,
                "phone": "+48 627365182",
                "email": "zsu@osw.pl",
                "website": "http:\/\/www.zsu.osw.pl",
                "ref:regon": "302203821",
                "operator": "Powiat Ostrowski",
                "operator:type": "government",
                "amenity": "school",
                "note": "Parent RSPO: 7330"
            }
        },
        {
            "id": 18681,
            "type": "Feature",
            "geometry": {
                "type": "Point",
                "coordinates": [
                    17.81097,
                    51.65026
                ]
            },
            "properties": {
                "isced:level": "3",
                "ref:rspo": 18681,
                "official_name": "Bran\u017cowa Szko\u0142a I Stopnia Nr 2",
                "name": "Bran\u017cowa Szko\u0142a I Stopnia Nr 2",
                "addr:postcode": "63-400",
                "addr:city": "Ostr\u00f3w Wielkopolski",
                "addr:street": "Wolno\u015bci",
                "addr:housenumber": "12",
                "addr:teryt:simc": 937132,
                "addr:teryt:sym_ul": 24687,
                "phone": "+48 627365182",
                "email": "zsu@osw.pl",
                "website": "http:\/\/www.zsu.osw.pl",
                "ref:regon": "251549042",
                "operator": "Powiat Ostrowski",
                "operator:type": "government",
                "amenity": "school",
                "note": "Parent RSPO: 7330"
            }
        },
        {
            "id": 18715,
            "type": "Feature",
            "geometry": {
                "type": "Point",
                "coordinates": [
                    17.81097,
                    51.65023
                ]
            },
            "properties": {
                "isced:level": "3",
                "ref:rspo": 18715,
                "official_name": "Technikum Nr 2",
                "name": "Technikum Nr 2",
                "addr:postcode": "63-400",
                "addr:city": "Ostr\u00f3w Wielkopolski",
                "addr:street": "Wolno\u015bci",
                "addr:housenumber": "12",
                "addr:teryt:simc": 937132,
                "addr:teryt:sym_ul": 24687,
                "phone": "+48 627365182",
                "email": "zsu@osw.pl",
                "website": "http:\/\/www.zsu.osw.pl",
                "ref:regon": "251549020",
                "operator": "Powiat Ostrowski",
                "operator:type": "government",
                "amenity": "school",
                "note": "Parent RSPO: 7330"
            }
        },
        {
            "id": 18737,
            "type": "Feature",
            "geometry": {
                "type": "Point",
                "coordinates": [
                    17.81097,
                    51.6502
                ]
            },
            "properties": {
                "isced:level": "3",
                "ref:rspo": 18737,
                "official_name": "Bran\u017cowa Szko\u0142a I Stopnia Specjalna",
                "name": "Bran\u017cowa Szko\u0142a I Stopnia Specjalna",
                "addr:postcode": "63-400",
                "addr:city": "Ostr\u00f3w Wielkopolski",
                "addr:street": "Wolno\u015bci",
                "addr:housenumber": "12",
                "addr:teryt:simc": 937132,
                "addr:teryt:sym_ul": 24687,
                "phone": "+48 627365182",
                "email": "zsu@osw.pl",
                "website": "http:\/\/www.zsu.osw.pl",
                "ref:regon": "251549036",
                "operator": "Powiat Ostrowski",
                "operator:type": "government",
                "amenity": "school",
                "note": "Parent RSPO: 7330"
            }
        },
        {
            "id": 18808,
            "type": "Feature",
            "geometry": {
                "type": "Point",
                "coordinates": [
                    17.81097,
                    51.65017
                ]
            },
            "properties": {
                "isced:level": "4",
                "ref:rspo": 18808,
                "official_name": "Szko\u0142a Policealna Nr 5",
                "name": "Szko\u0142a Policealna Nr 5",
                "addr:postcode": "63-400",
                "addr:city": "Ostr\u00f3w Wielkopolski",
                "addr:street": "Wolno\u015bci",
                "addr:housenumber": "12",
                "addr:teryt:simc": 937132,
                "addr:teryt:sym_ul": 24687,
                "phone": "+48 627365182",
                "email": "zsu@osw.pl",
                "ref:regon": "302222646",
                "operator": "Powiat Ostrowski",
                "operator:type": "government",
                "amenity": "college",
                "note": "Parent RSPO: 7330"
            }
        },
        {
            "id": 275810,
            "type": "Feature",
            "geometry": {
                "type": "Point",
                "coordinates": [
                    17.81097,
                    51.65014
                ]
            },
            "properties": {
                "isced:level": "3",
                "ref:rspo": 275810,
                "official_name": "Bran\u017cowa Szko\u0142a II Stopnia Nr 2",
                "name": "Bran\u017cowa Szko\u0142a II Stopnia Nr 2",
                "addr:postcode": "63-400",
                "addr:city": "Ostr\u00f3w Wielkopolski",
                "addr:street": "Wolno\u015bci",
                "addr:housenumber": "12",
                "addr:teryt:simc": 937132,
                "addr:teryt:sym_ul": 24687,
                "phone": "+48 627365182",
                "email": "zsu@osw.pl",
                "website": "http:\/\/www.zsu.osw.pl",
                "ref:regon": "386940681",
                "operator": "Powiat Ostrowski",
                "operator:type": "government",
                "amenity": "school",
                "note": "Parent RSPO: 7330"
            }
        },
        {
            "id": 24298,
            "type": "Feature",
            "geometry": {
                "type": "Point",
                "coordinates": [
                    17.81104,
                    51.65098
                ]
            },
            "properties": {
                "ref:rspo": 24298,
                "official_name": "M\u0142odzie\u017cowy Dom Kultury",
                "name": "M\u0142odzie\u017cowy Dom Kultury",
                "addr:postcode": "63-400",
                "addr:city": "Ostr\u00f3w Wielkopolski",
                "addr:street": "Wolno\u015bci",
                "addr:housenumber": "10",
                "addr:teryt:simc": 937132,
                "addr:teryt:sym_ul": 24687,
                "phone": "+48 627355027",
                "email": "mdk@mdkostrow.pl",
                "website": "http:\/\/www.mdkostrow.pl",
                "ref:regon": "000694190",
                "ref:vatin": "PL6221781080",
                "operator": "Powiat Ostrowski",
                "operator:type": "government",
                "amenity": "community_centre",
                "community_centre:for": "juvenile"
            }
        },
        {
            "id": 133310,
            "type": "Feature",
            "geometry": {
                "type": "Point",
                "coordinates": [
                    17.81303,
                    51.65199
                ]
            },
            "properties": {
                "ref:rspo": 133310,
                "official_name": "Niepubliczna Plac\u00f3wka Kszta\u0142cenia Ustawicznego \"Akademia Kompetencji Europejskich\"",
                "name": "Niepubliczna Plac\u00f3wka Kszta\u0142cenia Ustawicznego \"Akademia Kompetencji Europejskich\"",
                "addr:postcode": "63-400",
                "addr:city": "Ostr\u00f3w Wielkopolski",
                "addr:street": "Raszkowska",
                "addr:housenumber": "36",
                "addr:teryt:simc": 937132,
                "addr:teryt:sym_ul": 18464,
                "phone": "+48 604437797",
                "email": "akefundacja@gmail.com",
                "website": "http:\/\/www.fundacjaake.eu",
                "ref:regon": "366996912",
                "operator": "Fundacja Akademia Kompetencji Europejskich",
                "operator:type": "ngo",
                "fixme": "w zale\u017cno\u015bci od przedmiotu dzia\u0142alno\u015bci (np. amenity=training + training=*, amenity=dancing_school, amenity=language_school, amenity=music_school)"
            }
        },
        {
            "id": 90526,
            "type": "Feature",
            "geometry": {
                "type": "Point",
                "coordinates": [
                    17.82307,
                    51.65229
                ]
            },
            "properties": {
                "ref:rspo": 90526,
                "official_name": "Wielkopolskie Samorz\u0105dowe Centrum Kszta\u0142cenia Zawodowego I Ustawicznego w Ostrowie Wielkopolskim",
                "name": "Wielkopolskie Samorz\u0105dowe Centrum Kszta\u0142cenia Zawodowego I Ustawicznego w Ostrowie Wielkopolskim",
                "addr:postcode": "63-400",
                "addr:city": "Ostr\u00f3w Wielkopolski",
                "addr:street": "Boles\u0142awa Limanowskiego",
                "addr:housenumber": "17",
                "addr:teryt:simc": 937132,
                "addr:teryt:sym_ul": 11074,
                "phone": "+48 627362478",
                "email": "sekretariat@wsckziu.ostrowwlkp.pl",
                "website": "http:\/\/www.wsckziu.ostrowwlkp.pl",
                "ref:regon": "302279630",
                "ref:vatin": "PL6222782130",
                "operator": "Wojew\u00f3dztwo Wielkopolskie",
                "operator:type": "government",
                "landuse": "education",
                "fixme": "amenity=school, amenity=college albo landuse=education w zale\u017cno\u015bci od tego, jakie plac\u00f3wki wchodz\u0105 w sk\u0142ad zespo\u0142u. Sprawd\u017a, kiedy stosowa\u0107 amenity=* a kiedy landuse=education.",
                "note": "Children RSPO: 28680;264041"
            }
        },
        {
            "id": 128839,
            "type": "Feature",
            "geometry": {
                "type": "Point",
                "coordinates": [
                    17.82307,
                    51.65226
                ]
            },
            "properties": {
                "ref:rspo": 128839,
                "official_name": "Ksi\u0105\u017cnica Pedagogiczna im.alfonsa Parczewskiego w Kaliszu Filia w Ostrowie Wlkp.",
                "name": "Ksi\u0105\u017cnica Pedagogiczna im.alfonsa Parczewskiego w Kaliszu Filia w Ostrowie Wlkp.",
                "addr:postcode": "63-400",
                "addr:city": "Ostr\u00f3w Wielkopolski",
                "addr:street": "Boles\u0142awa Limanowskiego",
                "addr:housenumber": "17",
                "addr:teryt:simc": 937132,
                "addr:teryt:sym_ul": 11074,
                "phone": "+48 627366854",
                "email": "kp.ostrow@kp.kalisz.pl",
                "website": "http:\/\/www.kp.kalisz.pl",
                "ref:regon": "694215000",
                "operator": "Wojew\u00f3dztwo Wielkopolskie",
                "operator:type": "government",
                "amenity": "library",
                "note": "Parent RSPO: 30916"
            }
        },
        {
            "id": 28680,
            "type": "Feature",
            "geometry": {
                "type": "Point",
                "coordinates": [
                    17.82307,
                    51.65223
                ]
            },
            "properties": {
                "isced:level": "4",
                "ref:rspo": 28680,
                "official_name": "Medyczne Studium Zawodowe im. Hanny Chrzanowskiej w Ostrowie Wielkopolskim",
                "name": "Medyczne Studium Zawodowe",
                "addr:postcode": "63-400",
                "addr:city": "Ostr\u00f3w Wielkopolski",
                "addr:street": "Boles\u0142awa Limanowskiego",
                "addr:housenumber": "17",
                "addr:teryt:simc": 937132,
                "addr:teryt:sym_ul": 11074,
                "phone": "+48 627362478",
                "email": "sekretariat@wsckziu.ostrowwlkp.pl",
                "website": "http:\/\/www.wsckziu.ostrowwlkp.pl",
                "ref:regon": "250645677",
                "operator": "Wojew\u00f3dztwo Wielkopolskie",
                "operator:type": "government",
                "amenity": "college",
                "note": "Parent RSPO: 90526"
            }
        },
        {
            "id": 264041,
            "type": "Feature",
            "geometry": {
                "type": "Point",
                "coordinates": [
                    17.82307,
                    51.6522
                ]
            },
            "properties": {
                "ref:rspo": 264041,
                "official_name": "Centrum Kszta\u0142cenia Ustawicznego w Ostrowie Wielkopolskim",
                "name": "Centrum Kszta\u0142cenia Ustawicznego w Ostrowie Wielkopolskim",
                "addr:postcode": "63-400",
                "addr:city": "Ostr\u00f3w Wielkopolski",
                "addr:street": "Boles\u0142awa Limanowskiego",
                "addr:housenumber": "17",
                "addr:teryt:simc": 937132,
                "addr:teryt:sym_ul": 11074,
                "phone": "+48 627362478",
                "email": "sekretariat@wsckziu.ostrowwlkp.pl",
                "website": "http:\/\/www.wsckziu.ostrowwlkp.pl",
                "ref:regon": "368254741",
                "operator": "Wojew\u00f3dztwo Wielkopolskie",
                "operator:type": "government",
                "fixme": "w zale\u017cno\u015bci od przedmiotu dzia\u0142alno\u015bci (np. amenity=training + training=*, amenity=dancing_school, amenity=language_school, amenity=music_school)",
                "note": "Parent RSPO: 90526"
            }
        },
        {
            "id": 20616,
            "type": "Feature",
            "geometry": {
                "type": "Point",
                "coordinates": [
                    17.82083,
                    51.65254
                ]
            },
            "properties": {
                "ref:rspo": 20616,
                "official_name": "Przedszkole Nr 8 Krasnal Ha\u0142aba\u0142a w Ostrowie Wielkopolskim",
                "name": "Przedszkole Nr 8 Krasnal Ha\u0142aba\u0142a w Ostrowie Wielkopolskim",
                "addr:postcode": "63-400",
                "addr:city": "Ostr\u00f3w Wielkopolski",
                "addr:street": "Aleja S\u0142owackiego",
                "addr:housenumber": "4",
                "addr:teryt:simc": 937132,
                "addr:teryt:sym_ul": 51498,
                "phone": "+48 625921518",
                "email": "krasnal.halabala@wp.pl",
                "website": "http:\/\/www.przedszkole8.edu.pl",
                "ref:regon": "251590027",
                "ref:vatin": "PL6221797945",
                "operator": "Gmina Miasto Ostr\u00f3w Wielkopolski",
                "operator:type": "government",
                "amenity": "kindergarten"
            }
        },
        {
            "id": 47494,
            "type": "Feature",
            "geometry": {
                "type": "Point",
                "coordinates": [
                    17.81011,
                    51.65288
                ]
            },
            "properties": {
                "ref:rspo": 47494,
                "official_name": "Szko\u0142a J\u0119zyk\u00f3w Obcych \"The Gold Bell\"",
                "name": "Szko\u0142a J\u0119zyk\u00f3w Obcych \"The Gold Bell\"",
                "addr:postcode": "63-400",
                "addr:city": "Ostr\u00f3w Wielkopolski",
                "addr:street": "Raszkowska",
                "addr:housenumber": "39",
                "addr:teryt:simc": 937132,
                "addr:teryt:sym_ul": 18464,
                "phone": "+48 627355710",
                "email": "jlacina@go2.pl",
                "ref:regon": "302247557",
                "operator": "Janusz \u0141acina",
                "operator:type": "private",
                "fixme": "w zale\u017cno\u015bci od przedmiotu dzia\u0142alno\u015bci (np. amenity=training + training=*, amenity=dancing_school, amenity=language_school, amenity=music_school)"
            }
        },
        {
            "id": 18610,
            "type": "Feature",
            "geometry": {
                "type": "Point",
                "coordinates": [
                    17.80914,
                    51.65312
                ]
            },
            "properties": {
                "isced:level": "3",
                "ref:rspo": 18610,
                "official_name": "Iii Liceum Og\u00f3lnokszta\u0142c\u0105ce",
                "name": "Iii Liceum Og\u00f3lnokszta\u0142c\u0105ce",
                "addr:postcode": "63-400",
                "addr:city": "Ostr\u00f3w Wielkopolski",
                "addr:street": "Wojska Polskiego",
                "addr:housenumber": "17",
                "addr:teryt:simc": 937132,
                "addr:teryt:sym_ul": 24628,
                "phone": "+48 627362494",
                "email": "sekretariat@3liceum.pl",
                "ref:regon": "251595817",
                "operator": "Powiat Ostrowski",
                "operator:type": "government",
                "amenity": "school"
            }
        },
        {
            "id": 24260,
            "type": "Feature",
            "geometry": {
                "type": "Point",
                "coordinates": [
                    17.80914,
                    51.65309
                ]
            },
            "properties": {
                "isced:level": "3",
                "ref:rspo": 24260,
                "official_name": "Iv Liceum Og\u00f3lnokszta\u0142c\u0105ce im. Fryderyka Chopina",
                "name": "Iv Liceum Og\u00f3lnokszta\u0142c\u0105ce",
                "addr:postcode": "63-400",
                "addr:city": "Ostr\u00f3w Wielkopolski",
                "addr:street": "Wojska Polskiego",
                "addr:housenumber": "17",
                "addr:teryt:simc": 937132,
                "addr:teryt:sym_ul": 24628,
                "phone": "+48 625919449",
                "email": "sekretariat@czwarteliceum.pl",
                "website": "http:\/\/www.czwarteliceum.pl",
                "ref:regon": "250019253",
                "ref:vatin": "PL6222053709",
                "operator": "Powiat Ostrowski",
                "operator:type": "government",
                "amenity": "school"
            }
        },
        {
            "id": 24274,
            "type": "Feature",
            "geometry": {
                "type": "Point",
                "coordinates": [
                    17.82269,
                    51.65368
                ]
            },
            "properties": {
                "ref:rspo": 24274,
                "official_name": "Zesp\u00f3\u0142 Szk\u00f3\u0142 Muzycznych im. Krzysztofa Komedy - Trzci\u0144skiego",
                "name": "Zesp\u00f3\u0142 Szk\u00f3\u0142 Muzycznych",
                "addr:postcode": "63-400",
                "addr:city": "Ostr\u00f3w Wielkopolski",
                "addr:street": "Aleja S\u0142owackiego",
                "addr:housenumber": "1c",
                "addr:teryt:simc": 937132,
                "addr:teryt:sym_ul": 51498,
                "phone": "+48 627362646",
                "email": "psm@xl.wp.pl",
                "website": "http:\/\/www.psm.edu.pl",
                "ref:regon": "000285729",
                "ref:vatin": "PL6221051105",
                "operator": "Powiat Ostrowski",
                "operator:type": "government",
                "landuse": "education",
                "fixme": "amenity=school, amenity=college albo landuse=education w zale\u017cno\u015bci od tego, jakie plac\u00f3wki wchodz\u0105 w sk\u0142ad zespo\u0142u. Sprawd\u017a, kiedy stosowa\u0107 amenity=* a kiedy landuse=education.",
                "note": "Children RSPO: 79034;79035"
            }
        },
        {
            "id": 79034,
            "type": "Feature",
            "geometry": {
                "type": "Point",
                "coordinates": [
                    17.82269,
                    51.65365
                ]
            },
            "properties": {
                "ref:rspo": 79034,
                "official_name": "Szko\u0142a Muzyczna I Stopnia",
                "name": "Szko\u0142a Muzyczna I Stopnia",
                "addr:postcode": "63-400",
                "addr:city": "Ostr\u00f3w Wielkopolski",
                "addr:street": "Aleja S\u0142owackiego",
                "addr:housenumber": "1c",
                "addr:teryt:simc": 937132,
                "addr:teryt:sym_ul": 51498,
                "phone": "+48 627362646",
                "email": "psm@xl.wp.pl",
                "website": "http:\/\/www.psm.edu.pl",
                "ref:regon": "251618808",
                "operator": "Powiat Ostrowski",
                "operator:type": "government",
                "amenity": "music_school",
                "note": "Parent RSPO: 24274"
            }
        },
        {
            "id": 79035,
            "type": "Feature",
            "geometry": {
                "type": "Point",
                "coordinates": [
                    17.82269,
                    51.653620000000004
                ]
            },
            "properties": {
                "ref:rspo": 79035,
                "official_name": "Szko\u0142a Muzyczna II Stopnia",
                "name": "Szko\u0142a Muzyczna II Stopnia",
                "addr:postcode": "63-400",
                "addr:city": "Ostr\u00f3w Wielkopolski",
                "addr:street": "Aleja S\u0142owackiego",
                "addr:housenumber": "1c",
                "addr:teryt:simc": 937132,
                "addr:teryt:sym_ul": 51498,
                "phone": "+48 627362646",
                "email": "psm@xl.wp.pl",
                "website": "http:\/\/www.psm.edu.pl",
                "ref:regon": "251618814",
                "operator": "Powiat Ostrowski",
                "operator:type": "government",
                "amenity": "music_school",
                "note": "Parent RSPO: 24274"
            }
        },
        {
            "id": 128010,
            "type": "Feature",
            "geometry": {
                "type": "Point",
                "coordinates": [
                    17.81904,
                    51.65444
                ]
            },
            "properties": {
                "ref:rspo": 128010,
                "official_name": "Niepubliczny Punkt Przedszkolny Wojtu\u015b",
                "name": "Niepubliczny Punkt Przedszkolny Wojtu\u015b",
                "addr:postcode": "63-400",
                "addr:city": "Ostr\u00f3w Wielkopolski",
                "addr:street": "Kr\u00f3lowej Jadwigi",
                "addr:housenumber": "22",
                "addr:teryt:simc": 937132,
                "addr:teryt:sym_ul": 10003,
                "phone": "+48 607522258",
                "email": "przedszkolewojtus@gmail.com",
                "website": "http:\/\/www.wojtus.mtx.pl\/",
                "ref:regon": "362025229",
                "ref:vatin": "PL6221593875",
                "operator": "Hanna Tomaszewska",
                "operator:type": "private",
                "amenity": "kindergarten"
            }
        },
        {
            "id": 24455,
            "type": "Feature",
            "geometry": {
                "type": "Point",
                "coordinates": [
                    17.81312,
                    51.65502
                ]
            },
            "properties": {
                "ref:rspo": 24455,
                "official_name": "Przedszkole Si\u00f3str Salezjanek Nr 19",
                "name": "Przedszkole Si\u00f3str Salezjanek Nr 19",
                "addr:postcode": "63-400",
                "addr:city": "Ostr\u00f3w Wielkopolski",
                "addr:street": "Aleja S\u0142owackiego",
                "addr:housenumber": "33A",
                "addr:teryt:simc": 937132,
                "addr:teryt:sym_ul": 51498,
                "email": "ostrowp@cmw.osw.pl",
                "ref:regon": "302237234",
                "ref:vatin": "PL6221797603",
                "operator": "Zgromadzenie C\u00f3rek Maryi Wspomo\u017cycielki (Siostry Salezjanki) Inspektoria Wroc\u0142awska",
                "operator:type": "religious",
                "amenity": "kindergarten"
            }
        },
        {
            "id": 83674,
            "type": "Feature",
            "geometry": {
                "type": "Point",
                "coordinates": [
                    17.81312,
                    51.65499
                ]
            },
            "properties": {
                "ref:rspo": 83674,
                "official_name": "Zesp\u00f3\u0142 Szk\u00f3\u0142 Si\u00f3str Salezjanek",
                "name": "Zesp\u00f3\u0142 Szk\u00f3\u0142 Si\u00f3str Salezjanek",
                "addr:postcode": "63-400",
                "addr:city": "Ostr\u00f3w Wielkopolski",
                "addr:street": "Aleja S\u0142owackiego",
                "addr:housenumber": "33A",
                "addr:teryt:simc": 937132,
                "addr:teryt:sym_ul": 51498,
                "phone": "+48 627356231",
                "email": "morano@osw.pl",
                "website": "http:\/\/www.zsss.osw.pl",
                "ref:regon": "302279480",
                "ref:vatin": "PL6222454940",
                "operator": "Zgromadzenie C\u00f3rek Maryi Wspomo\u017cycielki (Siostry Salezjanki) Inspektoria Wroc\u0142awska",
                "operator:type": "religious",
                "landuse": "education",
                "fixme": "amenity=school, amenity=college albo landuse=education w zale\u017cno\u015bci od tego, jakie plac\u00f3wki wchodz\u0105 w sk\u0142ad zespo\u0142u. Sprawd\u017a, kiedy stosowa\u0107 amenity=* a kiedy landuse=education.",
                "note": "Children RSPO: 24456;50562"
            }
        },
        {
            "id": 24456,
            "type": "Feature",
            "geometry": {
                "type": "Point",
                "coordinates": [
                    17.81312,
                    51.65496
                ]
            },
            "properties": {
                "isced:level": "1;2",
                "ref:rspo": 24456,
                "official_name": "Publiczna Szko\u0142a Podstawowa Si\u00f3str Salezjanek",
                "name": "Publiczna Szko\u0142a Podstawowa Si\u00f3str Salezjanek",
                "addr:postcode": "63-400",
                "addr:city": "Ostr\u00f3w Wielkopolski",
                "addr:street": "Aleja S\u0142owackiego",
                "addr:housenumber": "33A",
                "addr:teryt:simc": 937132,
                "addr:teryt:sym_ul": 51498,
                "phone": "+48 627356231",
                "email": "morano@osw.pl",
                "website": "http:\/\/www.zsss.osw.pl",
                "ref:regon": "302240087",
                "ref:vatin": "PL6222242244",
                "operator": "Zgromadzenie C\u00f3rek Maryi Wspomo\u017cycielki (Siostry Salezjanki) Inspektoria Wroc\u0142awska",
                "operator:type": "religious",
                "amenity": "school",
                "note": "Parent RSPO: 83674"
            }
        },
        {
            "id": 50562,
            "type": "Feature",
            "geometry": {
                "type": "Point",
                "coordinates": [
                    17.81312,
                    51.65493
                ]
            },
            "properties": {
                "isced:level": "3",
                "ref:rspo": 50562,
                "official_name": "Publiczne Liceum Og\u00f3lnokszta\u0142c\u0105ce Si\u00f3str Salezjanek im. Pi\u0105tki Pozna\u0144skiej w Ostrowie Wielkopolskim",
                "name": "Publiczne Liceum Og\u00f3lnokszta\u0142c\u0105ce Si\u00f3str Salezjanek",
                "addr:postcode": "63-400",
                "addr:city": "Ostr\u00f3w Wielkopolski",
                "addr:street": "Aleja S\u0142owackiego",
                "addr:housenumber": "33A",
                "addr:teryt:simc": 937132,
                "addr:teryt:sym_ul": 51498,
                "phone": "+48 627356231",
                "email": "morano@osw.pl",
                "website": "http:\/\/www.zsss.osw.pl",
                "ref:regon": "302259773",
                "ref:vatin": "PL6222454934",
                "operator": "Zgromadzenie C\u00f3rek Maryi Wspomo\u017cycielki (Siostry Salezjanki) Inspektoria Wroc\u0142awska",
                "operator:type": "religious",
                "amenity": "school",
                "note": "Parent RSPO: 83674"
            }
        },
        {
            "id": 20621,
            "type": "Feature",
            "geometry": {
                "type": "Point",
                "coordinates": [
                    17.7957,
                    51.65506
                ]
            },
            "properties": {
                "ref:rspo": 20621,
                "official_name": "Przedszkole Nr 12 T\u0119cza w Ostrowie Wielkopolskim",
                "name": "Przedszkole Nr 12 T\u0119cza w Ostrowie Wielkopolskim",
                "addr:postcode": "63-400",
                "addr:city": "Ostr\u00f3w Wielkopolski",
                "addr:street": "Genera\u0142a W\u0142adys\u0142awa Andersa",
                "addr:housenumber": "15",
                "addr:teryt:simc": 937132,
                "addr:teryt:sym_ul": 285,
                "phone": "+48 627360634",
                "email": "publiczneprzedszkole12@wp.pl",
                "ref:regon": "251589722",
                "ref:vatin": "PL6221789242",
                "operator": "Gmina Miasto Ostr\u00f3w Wielkopolski",
                "operator:type": "government",
                "amenity": "kindergarten"
            }
        },
        {
            "id": 25827,
            "type": "Feature",
            "geometry": {
                "type": "Point",
                "coordinates": [
                    17.82144,
                    51.6556799
                ]
            },
            "properties": {
                "isced:level": "1;2",
                "ref:rspo": 25827,
                "official_name": "Szko\u0142a Podstawowa Sp\u00f3\u0142dzielni O\u015bwiatowej \"Edukator\" w Ostrowie Wielkopolskim",
                "name": "Szko\u0142a Podstawowa Sp\u00f3\u0142dzielni O\u015bwiatowej \"Edukator\" w Ostrowie Wielkopolskim",
                "addr:postcode": "63-400",
                "addr:city": "Ostr\u00f3w Wielkopolski",
                "addr:street": "Juliana Tuwima",
                "addr:housenumber": "12",
                "addr:teryt:simc": 937132,
                "addr:teryt:sym_ul": 23194,
                "phone": "+48 627356300",
                "email": "spedukator@poczta.onet.pl",
                "website": "http:\/\/www.spedukator.pl",
                "ref:regon": "302240294",
                "ref:vatin": "PL6222493638",
                "operator": "Sp\u00f3\u0142dzielnia O\u015bwiatowa \"Edukator\" W Ostrowie Wielkopolskim",
                "operator:type": "cooperative",
                "amenity": "school"
            }
        },
        {
            "id": 26840,
            "type": "Feature",
            "geometry": {
                "type": "Point",
                "coordinates": [
                    17.79098,
                    51.65703
                ]
            },
            "properties": {
                "ref:rspo": 26840,
                "official_name": "Niepubliczne Przedszkole \"Sowy I S\u00f3wki\"",
                "name": "Niepubliczne Przedszkole \"Sowy I S\u00f3wki\"",
                "addr:postcode": "63-400",
                "addr:city": "Ostr\u00f3w Wielkopolski",
                "addr:street": "Marcina Kasprzaka",
                "addr:housenumber": "4",
                "addr:teryt:simc": 937132,
                "addr:teryt:sym_ul": 8157,
                "phone": "+48 625925317",
                "email": "info@sowy-sowki.pl",
                "website": "http:\/\/www.sowy-sowki.pl",
                "ref:regon": "302239339",
                "ref:vatin": "PL6170125620",
                "operator": "Jaros\u0142aw Orczykowski",
                "operator:type": "private",
                "amenity": "kindergarten"
            }
        },
        {
            "id": 26764,
            "type": "Feature",
            "geometry": {
                "type": "Point",
                "coordinates": [
                    17.8107,
                    51.65738
                ]
            },
            "properties": {
                "ref:rspo": 26764,
                "official_name": "Przedszkole Niepubliczne Z Oddzia\u0142em Terapeutycznym \"Nasz Domek\"",
                "name": "Przedszkole Niepubliczne Z Oddzia\u0142em Terapeutycznym \"Nasz Domek\"",
                "addr:postcode": "63-400",
                "addr:city": "Ostr\u00f3w Wielkopolski",
                "addr:street": "Melchiora Wa\u0144kowicza",
                "addr:housenumber": "42",
                "addr:teryt:simc": 937132,
                "addr:teryt:sym_ul": 23620,
                "phone": "+48 625913313",
                "email": "beata.prusiewicz@wp.pl",
                "ref:regon": "302237926",
                "ref:vatin": "PL6222701686",
                "operator": "Beata Prusiewicz",
                "operator:type": "private",
                "amenity": "kindergarten"
            }
        },
        {
            "id": 24261,
            "type": "Feature",
            "geometry": {
                "type": "Point",
                "coordinates": [
                    17.81995,
                    51.65739
                ]
            },
            "properties": {
                "ref:rspo": 24261,
                "official_name": "Poradnia Psychologiczno - Pedagogiczna",
                "name": "Poradnia Psychologiczno - Pedagogiczna",
                "addr:postcode": "63-400",
                "addr:city": "Ostr\u00f3w Wielkopolski",
                "addr:street": "Kr\u00f3lowej Jadwigi",
                "addr:housenumber": "1",
                "addr:teryt:simc": 937132,
                "addr:teryt:sym_ul": 10003,
                "phone": "+48 627365139",
                "email": "sekretariat@poradnia-ostrow.pl",
                "website": "http:\/\/www.poradnia-ostrow.pl",
                "ref:regon": "250019945",
                "ref:vatin": "PL6222283645",
                "operator": "Powiat Ostrowski",
                "operator:type": "government",
                "healthcare": "counselling",
                "counselling_type": "education",
                "fixme": "w zale\u017cno\u015bci od przedmiotu dzia\u0142alno\u015bci (np. healthcare=counselling + counselling_type=education albo healthcare=psychotherapist)"
            }
        },
        {
            "id": 270723,
            "type": "Feature",
            "geometry": {
                "type": "Point",
                "coordinates": [
                    17.77806,
                    51.6574
                ]
            },
            "properties": {
                "ref:rspo": 270723,
                "official_name": "Niepubliczna Poradnia Psychologiczno - Pedagogiczna \"Pro-Moc\"",
                "name": "Niepubliczna Poradnia Psychologiczno - Pedagogiczna \"Pro-Moc\"",
                "addr:postcode": "63-400",
                "addr:city": "Ostr\u00f3w Wielkopolski",
                "addr:street": "Krotoszy\u0144ska",
                "addr:housenumber": "157",
                "addr:teryt:simc": 937132,
                "addr:teryt:sym_ul": 9969,
                "email": "beata.prusiewicz@wp.pl",
                "ref:regon": "382872126",
                "operator": "Beata Prusiewicz",
                "operator:type": "private",
                "healthcare": "counselling",
                "counselling_type": "education",
                "fixme": "w zale\u017cno\u015bci od przedmiotu dzia\u0142alno\u015bci (np. healthcare=counselling + counselling_type=education albo healthcare=psychotherapist)"
            }
        },
        {
            "id": 20623,
            "type": "Feature",
            "geometry": {
                "type": "Point",
                "coordinates": [
                    17.78804,
                    51.65753
                ]
            },
            "properties": {
                "ref:rspo": 20623,
                "official_name": "Przedszkole Nr 14 Maluszek w Ostrowie Wielkopolskim",
                "name": "Przedszkole Nr 14 Maluszek w Ostrowie Wielkopolskim",
                "addr:postcode": "63-400",
                "addr:city": "Ostr\u00f3w Wielkopolski",
                "addr:street": "Piotra Bardowskiego",
                "addr:housenumber": "6",
                "addr:teryt:simc": 937132,
                "addr:teryt:sym_ul": 752,
                "phone": "+48 627365597",
                "email": "przedszkole14maluszek@gmail.com",
                "ref:regon": "251589573",
                "ref:vatin": "PL6221797709",
                "operator": "Gmina Miasto Ostr\u00f3w Wielkopolski",
                "operator:type": "government",
                "amenity": "kindergarten"
            }
        },
        {
            "id": 126710,
            "type": "Feature",
            "geometry": {
                "type": "Point",
                "coordinates": [
                    17.77675,
                    51.6581
                ]
            },
            "properties": {
                "isced:level": "1;2",
                "ref:rspo": 126710,
                "official_name": "Dwuj\u0119zyczna Szko\u0142a Podstawowa \"M\u0105dra Sowa\"",
                "name": "Dwuj\u0119zyczna Szko\u0142a Podstawowa \"M\u0105dra Sowa\"",
                "addr:postcode": "63-400",
                "addr:city": "Ostr\u00f3w Wielkopolski",
                "addr:street": "Krotoszy\u0144ska",
                "addr:housenumber": "156",
                "addr:teryt:simc": 937132,
                "addr:teryt:sym_ul": 9969,
                "phone": "+48 625925317",
                "email": "info@sowy-sowki.pl",
                "website": "http:\/\/www.sowy-sowki.pl",
                "ref:regon": "360638123",
                "ref:vatin": "PL6171075829",
                "operator": "Jaros\u0142aw Orczykowski",
                "operator:type": "private",
                "amenity": "school"
            }
        },
        {
            "id": 56749,
            "type": "Feature",
            "geometry": {
                "type": "Point",
                "coordinates": [
                    17.77413,
                    51.6582
                ]
            },
            "properties": {
                "ref:rspo": 56749,
                "official_name": "Plac\u00f3wka Kszta\u0142cenia Ustawicznego \"Human Discovers\"",
                "name": "Plac\u00f3wka Kszta\u0142cenia Ustawicznego \"Human Discovers\"",
                "addr:postcode": "63-400",
                "addr:city": "Ostr\u00f3w Wielkopolski",
                "addr:street": "Krotoszy\u0144ska",
                "addr:housenumber": "171",
                "addr:teryt:simc": 937132,
                "addr:teryt:sym_ul": 9969,
                "phone": "+48 623070408",
                "email": "kontakt@dapol.com.pl",
                "website": "http:\/\/www.dapol.com.pl",
                "ref:regon": "302261646",
                "operator": "Karina Jakubek",
                "operator:type": "private",
                "fixme": "w zale\u017cno\u015bci od przedmiotu dzia\u0142alno\u015bci (np. amenity=training + training=*, amenity=dancing_school, amenity=language_school, amenity=music_school)"
            }
        },
        {
            "id": 133912,
            "type": "Feature",
            "geometry": {
                "type": "Point",
                "coordinates": [
                    17.77413,
                    51.65817
                ]
            },
            "properties": {
                "isced:level": "1;2",
                "ref:rspo": 133912,
                "official_name": "Szko\u0142a Podstawowa Nr 14 w Ostrowie Wielkopolskim",
                "name": "Szko\u0142a Podstawowa Nr 14 w Ostrowie Wielkopolskim",
                "addr:postcode": "63-400",
                "addr:city": "Ostr\u00f3w Wielkopolski",
                "addr:street": "Krotoszy\u0144ska",
                "addr:housenumber": "171",
                "addr:teryt:simc": 937132,
                "addr:teryt:sym_ul": 9969,
                "phone": "+48 627356091",
                "email": "nowasp@wp.pl",
                "website": "http:\/\/www.nowasp.pl",
                "ref:regon": "367722453",
                "operator": "Gmina Miasto Ostr\u00f3w Wielkopolski",
                "operator:type": "government",
                "amenity": "school"
            }
        },
        {
            "id": 271722,
            "type": "Feature",
            "geometry": {
                "type": "Point",
                "coordinates": [
                    17.77413,
                    51.65814
                ]
            },
            "properties": {
                "ref:rspo": 271722,
                "official_name": "Lern2Be Centrum Szkole\u0144 I Rozwoju Plac\u00f3wka Kszta\u0142cenia Ustawicznego",
                "name": "Lern2Be Centrum Szkole\u0144 I Rozwoju Plac\u00f3wka Kszta\u0142cenia Ustawicznego",
                "addr:postcode": "63-400",
                "addr:city": "Ostr\u00f3w Wielkopolski",
                "addr:street": "Krotoszy\u0144ska",
                "addr:housenumber": "171",
                "addr:teryt:simc": 937132,
                "addr:teryt:sym_ul": 9969,
                "email": "info@learn2be.org",
                "website": "http:\/\/www.learn2be.org",
                "ref:regon": "383581490",
                "operator": "Learn2Be Centrum Szkole\u0144 I Rozwoju Plac\u00f3wka Kszta\u0142cenia Ustawicznego Micha\u0142 Jakubek",
                "operator:type": "consortium",
                "fixme": "w zale\u017cno\u015bci od przedmiotu dzia\u0142alno\u015bci (np. amenity=training + training=*, amenity=dancing_school, amenity=language_school, amenity=music_school)"
            }
        },
        {
            "id": 25831,
            "type": "Feature",
            "geometry": {
                "type": "Point",
                "coordinates": [
                    17.7880499,
                    51.65885
                ]
            },
            "properties": {
                "isced:level": "1;2",
                "ref:rspo": 25831,
                "official_name": "Szko\u0142a Podstawowa Nr 11 im. \"Miros\u0142awa Ferica\" w Ostrowie Wielkopolskim",
                "name": "Szko\u0142a Podstawowa Nr 11",
                "addr:postcode": "63-400",
                "addr:city": "Ostr\u00f3w Wielkopolski",
                "addr:street": "Batorego",
                "addr:housenumber": "2",
                "addr:teryt:simc": 937132,
                "addr:teryt:sym_ul": 886,
                "phone": "+48 627365181",
                "email": "sekretariat@jedenastka11.osw.pl",
                "ref:regon": "000694161",
                "ref:vatin": "PL6221806041",
                "operator": "Gmina Miasto Ostr\u00f3w Wielkopolski",
                "operator:type": "government",
                "amenity": "school"
            }
        },
        {
            "id": 47519,
            "type": "Feature",
            "geometry": {
                "type": "Point",
                "coordinates": [
                    17.79478,
                    51.65922
                ]
            },
            "properties": {
                "ref:rspo": 47519,
                "official_name": "O\u015brodek Szkolenia I Us\u0142ug Technicznych \"Fenix\" Marek Fabisiak w Ostrowie Wielkopolskim",
                "name": "O\u015brodek Szkolenia I Us\u0142ug Technicznych \"Fenix\" Marek Fabisiak w Ostrowie Wielkopolskim",
                "addr:postcode": "63-400",
                "addr:city": "Ostr\u00f3w Wielkopolski",
                "addr:street": "Batorego",
                "addr:housenumber": "35",
                "addr:teryt:simc": 937132,
                "addr:teryt:sym_ul": 886,
                "phone": "+48 603338620",
                "email": "osrodekostrow@wp.pl",
                "website": "http:\/\/www.fenix-ostrow.pl",
                "ref:regon": "302247764",
                "operator": "Marek Fabisiak",
                "operator:type": "private",
                "fixme": "w zale\u017cno\u015bci od przedmiotu dzia\u0142alno\u015bci (np. amenity=training + training=*, amenity=dancing_school, amenity=language_school, amenity=music_school)"
            }
        },
        {
            "id": 20618,
            "type": "Feature",
            "geometry": {
                "type": "Point",
                "coordinates": [
                    17.82344,
                    51.6596199
                ]
            },
            "properties": {
                "ref:rspo": 20618,
                "official_name": "Przedszkole Nr 10 Kubu\u015b Puchatek w Ostrowie Wielkopolskim",
                "name": "Przedszkole Nr 10 Kubu\u015b Puchatek w Ostrowie Wielkopolskim",
                "addr:postcode": "63-400",
                "addr:city": "Ostr\u00f3w Wielkopolski",
                "addr:street": "Andrzeja Frycza Modrzewskiego",
                "addr:housenumber": "4",
                "addr:teryt:simc": 937132,
                "addr:teryt:sym_ul": 28103,
                "phone": "+48 625919915",
                "email": "kubuspuchatek15@vp.pl",
                "website": "http:\/\/www.przedszkole10kubuspuchatek.pl",
                "ref:regon": "251589277",
                "ref:vatin": "PL6221797655",
                "operator": "Gmina Miasto Ostr\u00f3w Wielkopolski",
                "operator:type": "government",
                "amenity": "kindergarten"
            }
        },
        {
            "id": 24255,
            "type": "Feature",
            "geometry": {
                "type": "Point",
                "coordinates": [
                    17.79775,
                    51.66001
                ]
            },
            "properties": {
                "ref:rspo": 24255,
                "official_name": "Zesp\u00f3\u0142 Szk\u00f3\u0142 Technicznych",
                "name": "Zesp\u00f3\u0142 Szk\u00f3\u0142 Technicznych",
                "addr:postcode": "63-400",
                "addr:city": "Ostr\u00f3w Wielkopolski",
                "addr:street": "Pozna\u0144ska",
                "addr:housenumber": "43",
                "addr:teryt:simc": 937132,
                "addr:teryt:sym_ul": 17394,
                "phone": "+48 627358900",
                "email": "zst@zst-ostrow.edu.pl",
                "website": "http:\/\/www.zst-ostrow.edu.pl",
                "ref:regon": "000035139",
                "ref:vatin": "PL6222234859",
                "operator": "Powiat Ostrowski",
                "operator:type": "government",
                "landuse": "education",
                "fixme": "amenity=school, amenity=college albo landuse=education w zale\u017cno\u015bci od tego, jakie plac\u00f3wki wchodz\u0105 w sk\u0142ad zespo\u0142u. Sprawd\u017a, kiedy stosowa\u0107 amenity=* a kiedy landuse=education.",
                "note": "Children RSPO: 30938;30939;30945;30946;272896"
            }
        },
        {
            "id": 30938,
            "type": "Feature",
            "geometry": {
                "type": "Point",
                "coordinates": [
                    17.79775,
                    51.65998
                ]
            },
            "properties": {
                "isced:level": "3",
                "ref:rspo": 30938,
                "official_name": "Technikum Nr 1",
                "name": "Technikum Nr 1",
                "addr:postcode": "63-400",
                "addr:city": "Ostr\u00f3w Wielkopolski",
                "addr:street": "Pozna\u0144ska",
                "addr:housenumber": "43",
                "addr:teryt:simc": 937132,
                "addr:teryt:sym_ul": 17394,
                "phone": "+48 627358900",
                "email": "zst@zst-ostrow.edu.pl",
                "website": "http:\/\/www.zst-ostrow.edu.pl",
                "ref:regon": "251595912",
                "operator": "Powiat Ostrowski",
                "operator:type": "government",
                "amenity": "school",
                "note": "Parent RSPO: 24255"
            }
        },
        {
            "id": 30939,
            "type": "Feature",
            "geometry": {
                "type": "Point",
                "coordinates": [
                    17.79775,
                    51.65995
                ]
            },
            "properties": {
                "isced:level": "3",
                "ref:rspo": 30939,
                "official_name": "Bran\u017cowa Szko\u0142a I Stopnia Nr 1",
                "name": "Bran\u017cowa Szko\u0142a I Stopnia Nr 1",
                "addr:postcode": "63-400",
                "addr:city": "Ostr\u00f3w Wielkopolski",
                "addr:street": "Pozna\u0144ska",
                "addr:housenumber": "43",
                "addr:teryt:simc": 937132,
                "addr:teryt:sym_ul": 17394,
                "phone": "+48 627358900",
                "email": "zst@zst-ostrow.edu.pl",
                "website": "http:\/\/www.zst-ostrow.edu.pl",
                "ref:regon": "251596047",
                "operator": "Powiat Ostrowski",
                "operator:type": "government",
                "amenity": "school",
                "note": "Parent RSPO: 24255"
            }
        },
        {
            "id": 30945,
            "type": "Feature",
            "geometry": {
                "type": "Point",
                "coordinates": [
                    17.79775,
                    51.65992
                ]
            },
            "properties": {
                "isced:level": "4",
                "ref:rspo": 30945,
                "official_name": "Szko\u0142a Policealna Nr 1",
                "name": "Szko\u0142a Policealna Nr 1",
                "addr:postcode": "63-400",
                "addr:city": "Ostr\u00f3w Wielkopolski",
                "addr:street": "Pozna\u0144ska",
                "addr:housenumber": "43",
                "addr:teryt:simc": 937132,
                "addr:teryt:sym_ul": 17394,
                "phone": "+48 627358900",
                "ref:regon": "251595830",
                "operator": "Powiat Ostrowski",
                "operator:type": "government",
                "amenity": "college",
                "note": "Parent RSPO: 24255"
            }
        },
        {
            "id": 30946,
            "type": "Feature",
            "geometry": {
                "type": "Point",
                "coordinates": [
                    17.79775,
                    51.65989
                ]
            },
            "properties": {
                "isced:level": "3",
                "ref:rspo": 30946,
                "official_name": "Vi Liceum Og\u00f3lnokszta\u0142c \u0104ce",
                "name": "Vi Liceum Og\u00f3lnokszta\u0142c \u0104ce",
                "addr:postcode": "63-400",
                "addr:city": "Ostr\u00f3w Wielkopolski",
                "addr:street": "Pozna\u0144ska",
                "addr:housenumber": "43",
                "addr:teryt:simc": 937132,
                "addr:teryt:sym_ul": 17394,
                "phone": "+48 627358900",
                "ref:regon": "301412540",
                "operator": "Powiat Ostrowski",
                "operator:type": "government",
                "amenity": "school",
                "note": "Parent RSPO: 24255"
            }
        },
        {
            "id": 272896,
            "type": "Feature",
            "geometry": {
                "type": "Point",
                "coordinates": [
                    17.79775,
                    51.65986
                ]
            },
            "properties": {
                "isced:level": "3",
                "ref:rspo": 272896,
                "official_name": "Vi Liceum Og\u00f3lnokszta\u0142c\u0105ce dla Doros\u0142ych",
                "name": "Vi Liceum Og\u00f3lnokszta\u0142c\u0105ce dla Doros\u0142ych",
                "addr:postcode": "63-400",
                "addr:city": "Ostr\u00f3w Wielkopolski",
                "addr:street": "Pozna\u0144ska",
                "addr:housenumber": "43",
                "addr:teryt:simc": 937132,
                "addr:teryt:sym_ul": 17394,
                "phone": "+48 627358900",
                "email": "zst@zst-ostrow.edu.pl",
                "ref:regon": "384312851",
                "operator": "Powiat Ostrowski",
                "operator:type": "government",
                "amenity": "school",
                "note": "Parent RSPO: 24255"
            }
        },
        {
            "id": 20620,
            "type": "Feature",
            "geometry": {
                "type": "Point",
                "coordinates": [
                    17.83508,
                    51.66079
                ]
            },
            "properties": {
                "ref:rspo": 20620,
                "official_name": "Przedszkole Nr 11 Calineczka w Ostrowie Wielkopolskim",
                "name": "Przedszkole Nr 11 Calineczka w Ostrowie Wielkopolskim",
                "addr:postcode": "63-400",
                "addr:city": "Ostr\u00f3w Wielkopolski",
                "addr:street": "Olszty\u0144ska",
                "addr:housenumber": "1",
                "addr:teryt:simc": 937132,
                "addr:teryt:sym_ul": 15016,
                "phone": "+48 627205188",
                "email": "przedszkole11.calineczka@wp.pl",
                "ref:regon": "251589478",
                "ref:vatin": "PL6221797678",
                "operator": "Gmina Miasto Ostr\u00f3w Wielkopolski",
                "operator:type": "government",
                "amenity": "kindergarten"
            }
        },
        {
            "id": 278988,
            "type": "Feature",
            "geometry": {
                "type": "Point",
                "coordinates": [
                    17.82296,
                    51.66137
                ]
            },
            "properties": {
                "ref:rspo": 278988,
                "official_name": "Niepubliczna Plac\u00f3wka Kszta\u0142cenia Agnieszka Majewska - Centrum Szkoleniowe",
                "name": "Niepubliczna Plac\u00f3wka Kszta\u0142cenia Agnieszka Majewska - Centrum Szkoleniowe",
                "addr:postcode": "63-400",
                "addr:city": "Ostr\u00f3w Wielkopolski",
                "addr:street": "Stefana \u017beromskiego",
                "addr:housenumber": "23A",
                "addr:teryt:simc": 937132,
                "addr:teryt:sym_ul": 26464,
                "email": "szkolenia@maderm.eu",
                "ref:regon": "520352038",
                "operator": "Maderm Esthetic Agnieszka Cepi\u0144ska-Majewska",
                "operator:type": "consortium",
                "fixme": "w zale\u017cno\u015bci od przedmiotu dzia\u0142alno\u015bci (np. amenity=training + training=*, amenity=dancing_school, amenity=language_school, amenity=music_school)"
            }
        },
        {
            "id": 278989,
            "type": "Feature",
            "geometry": {
                "type": "Point",
                "coordinates": [
                    17.82296,
                    51.661339999999996
                ]
            },
            "properties": {
                "ref:rspo": 278989,
                "official_name": "Niepubliczna Plac\u00f3wka Kszta\u0142cenia Patrycja Stelmach - Centrum Szkoleniowe",
                "name": "Niepubliczna Plac\u00f3wka Kszta\u0142cenia Patrycja Stelmach - Centrum Szkoleniowe",
                "addr:postcode": "63-400",
                "addr:city": "Ostr\u00f3w Wielkopolski",
                "addr:street": "Stefana \u017beromskiego",
                "addr:housenumber": "23A",
                "addr:teryt:simc": 937132,
                "addr:teryt:sym_ul": 26464,
                "email": "stelmachbeauty@gmail.com",
                "ref:regon": "520352067",
                "operator": "Patrycja Stelmach",
                "operator:type": "consortium",
                "fixme": "w zale\u017cno\u015bci od przedmiotu dzia\u0142alno\u015bci (np. amenity=training + training=*, amenity=dancing_school, amenity=language_school, amenity=music_school)"
            }
        }
    ]
}