{
    "type": "FeatureCollection",
    "features": [
        {
            "id": 120108,
            "type": "Feature",
            "geometry": {
                "type": "Point",
                "coordinates": [
                    22.07529,
                    50.35096
                ]
            },
            "properties": {
                "isced:level": "1;2",
                "ref:rspo": 120108,
                "official_name": "Publiczna Szko\u0142a Podstawowa im.\u015bw. Jadwigi \u015aL\u0105skiej w Cholewianej G\u00f3rze",
                "name": "Publiczna Szko\u0142a Podstawowa im.\u015bw. Jadwigi \u015aL\u0105skiej w Cholewianej G\u00f3rze",
                "addr:postcode": "37-430",
                "addr:city": "Cholewiana G\u00f3ra",
                "addr:street": "M\u0142ynarze",
                "addr:housenumber": "23",
                "addr:city:simc": 795270,
                "addr:street:sym_ul": 28418,
                "phone": "+48 158795102",
                "email": "psp_cholewiana@poczta.fm",
                "website": "http:\/\/pspcholewiana.edupage.org",
                "ref:regon": "001187124",
                "ref:vatin": "PL6020092907",
                "operator": "Gmina Je\u017cowe",
                "operator:type": "government",
                "amenity": "school"
            }
        },
        {
            "id": 120076,
            "type": "Feature",
            "geometry": {
                "type": "Point",
                "coordinates": [
                    21.99654,
                    50.35593
                ]
            },
            "properties": {
                "isced:level": "1;2",
                "ref:rspo": 120076,
                "official_name": "Publiczna Szko\u0142a Podstawowa im. Marii Konopnickiej w Starym Narcie",
                "name": "Publiczna Szko\u0142a Podstawowa",
                "addr:postcode": "37-430",
                "addr:place": "Stary Nart",
                "addr:housenumber": "57b",
                "addr:city:simc": 795695,
                "phone": "+48 158795114",
                "email": "szkolanart@op.pl",
                "website": "http:\/\/www.spnart.edupage.org",
                "ref:regon": "001187035",
                "ref:vatin": "PL6020092936",
                "operator": "Gmina Je\u017cowe",
                "operator:type": "government",
                "amenity": "school"
            }
        },
        {
            "id": 10380,
            "type": "Feature",
            "geometry": {
                "type": "Point",
                "coordinates": [
                    22.14805,
                    50.37159
                ]
            },
            "properties": {
                "ref:rspo": 10380,
                "official_name": "Samorz\u0105dowa Szko\u0142a Muzyczna I Stopnia w Je\u017cowem",
                "name": "Samorz\u0105dowa Szko\u0142a Muzyczna I Stopnia w Je\u017cowem",
                "addr:postcode": "37-430",
                "addr:place": "Je\u017cowe",
                "addr:housenumber": "580a",
                "addr:city:simc": 795420,
                "phone": "+48 158794327",
                "email": "ssm_dyrektor@interia.pl",
                "ref:regon": "180883698",
                "ref:vatin": "PL6020131464",
                "operator": "Gmina Je\u017cowe",
                "operator:type": "government",
                "amenity": "music_school"
            }
        },
        {
            "id": 268118,
            "type": "Feature",
            "geometry": {
                "type": "Point",
                "coordinates": [
                    22.10557,
                    50.37417
                ]
            },
            "properties": {
                "ref:rspo": 268118,
                "official_name": "Przedszkole Niepubliczne z Oddzia\u0142ami Integracyjnymi Zgromadzenia Si\u00f3str Od Anio\u0142\u00f3w w Je\u017cowem",
                "name": "Przedszkole Niepubliczne z Oddzia\u0142ami Integracyjnymi Zgromadzenia Si\u00f3str Od Anio\u0142\u00f3w w Je\u017cowem",
                "addr:postcode": "37-430",
                "addr:place": "Je\u017cowe",
                "addr:housenumber": "728",
                "addr:city:simc": 795420,
                "email": "przedszkole@siostryodaniolow.pl",
                "website": "http:\/\/www.siostryodaniolow.pl",
                "ref:regon": "380946174",
                "operator": "Zgromadzenie Si\u00f3str Od Anio\u0142\u00f3w Dom Generalny",
                "operator:type": "religious",
                "amenity": "kindergarten"
            }
        },
        {
            "id": 29085,
            "type": "Feature",
            "geometry": {
                "type": "Point",
                "coordinates": [
                    22.14859,
                    50.37469
                ]
            },
            "properties": {
                "ref:rspo": 29085,
                "official_name": "Zesp\u00f3\u0142 Szk\u00f3\u0142 w Je\u017cowem im. Ks. Stanis\u0142awa Staszica",
                "name": "Zesp\u00f3\u0142 Szk\u00f3\u0142 w Je\u017cowem",
                "addr:postcode": "37-430",
                "addr:place": "Je\u017cowe",
                "addr:housenumber": "162A",
                "addr:city:simc": 795420,
                "phone": "+48 158794328",
                "email": "zsjezowe@interia.pl",
                "website": "http:\/\/www.zsjezowe.neostrada.pl\/",
                "ref:regon": "830200162",
                "ref:vatin": "PL8651640928",
                "operator": "Powiat Ni\u017ca\u0144ski",
                "operator:type": "government",
                "landuse": "education",
                "fixme": "amenity=school, amenity=college albo landuse=education w zale\u017cno\u015bci od tego, jakie plac\u00f3wki wchodz\u0105 w sk\u0142ad zespo\u0142u. Sprawd\u017a, kiedy stosowa\u0107 amenity=* a kiedy landuse=education.",
                "note": "Children RSPO: 61509;61510;61511"
            }
        },
        {
            "id": 61509,
            "type": "Feature",
            "geometry": {
                "type": "Point",
                "coordinates": [
                    22.14859,
                    50.37466
                ]
            },
            "properties": {
                "isced:level": "3",
                "ref:rspo": 61509,
                "official_name": "Technikum",
                "name": "Technikum",
                "addr:postcode": "37-430",
                "addr:place": "Je\u017cowe",
                "addr:housenumber": "162A",
                "addr:city:simc": 795420,
                "phone": "+48 158794328",
                "email": "zsjezowe@interia.pl",
                "website": "http:\/\/zsjezowe.neostrada.pl",
                "ref:regon": "831354269",
                "operator": "Powiat Ni\u017ca\u0144ski",
                "operator:type": "government",
                "amenity": "school",
                "note": "Parent RSPO: 29085"
            }
        },
        {
            "id": 61510,
            "type": "Feature",
            "geometry": {
                "type": "Point",
                "coordinates": [
                    22.14859,
                    50.37463
                ]
            },
            "properties": {
                "isced:level": "3",
                "ref:rspo": 61510,
                "official_name": "Liceum Og\u00f3lnokszta\u0142c\u0105ce",
                "name": "Liceum Og\u00f3lnokszta\u0142c\u0105ce",
                "addr:postcode": "37-430",
                "addr:place": "Je\u017cowe",
                "addr:housenumber": "162A",
                "addr:city:simc": 795420,
                "phone": "+48 158794328",
                "email": "zsjezowe@interia.pl",
                "website": "http:\/\/zsjezowe.pl",
                "ref:regon": "830475798",
                "operator": "Powiat Ni\u017ca\u0144ski",
                "operator:type": "government",
                "amenity": "school",
                "note": "Parent RSPO: 29085"
            }
        },
        {
            "id": 61511,
            "type": "Feature",
            "geometry": {
                "type": "Point",
                "coordinates": [
                    22.14859,
                    50.3746
                ]
            },
            "properties": {
                "isced:level": "3",
                "ref:rspo": 61511,
                "official_name": "Bran\u017cowa Szko\u0142a I Stopnia",
                "name": "Bran\u017cowa Szko\u0142a I Stopnia",
                "addr:postcode": "37-430",
                "addr:place": "Je\u017cowe",
                "addr:housenumber": "162A",
                "addr:city:simc": 795420,
                "phone": "+48 158794328",
                "ref:regon": "830475775",
                "operator": "Powiat Ni\u017ca\u0144ski",
                "operator:type": "government",
                "amenity": "school",
                "note": "Parent RSPO: 29085"
            }
        },
        {
            "id": 119464,
            "type": "Feature",
            "geometry": {
                "type": "Point",
                "coordinates": [
                    22.14557,
                    50.37636
                ]
            },
            "properties": {
                "ref:rspo": 119464,
                "official_name": "Zesp\u00f3\u0142 Szk\u00f3\u0142 w Je\u017cowem Centrum",
                "name": "Zesp\u00f3\u0142 Szk\u00f3\u0142 w Je\u017cowem Centrum",
                "addr:postcode": "37-430",
                "addr:place": "Je\u017cowe",
                "addr:housenumber": "135",
                "addr:city:simc": 795420,
                "phone": "+48 158794309",
                "email": "psp1jezowe@pro.onet.pl",
                "website": "http:\/\/www.zsjc.net.pl\/",
                "ref:regon": "180357946",
                "ref:vatin": "PL6020092913",
                "operator": "Gmina Je\u017cowe",
                "operator:type": "government",
                "landuse": "education",
                "fixme": "amenity=school, amenity=college albo landuse=education w zale\u017cno\u015bci od tego, jakie plac\u00f3wki wchodz\u0105 w sk\u0142ad zespo\u0142u. Sprawd\u017a, kiedy stosowa\u0107 amenity=* a kiedy landuse=education.",
                "note": "Children RSPO: 119895;119909"
            }
        },
        {
            "id": 119895,
            "type": "Feature",
            "geometry": {
                "type": "Point",
                "coordinates": [
                    22.14557,
                    50.376329999999996
                ]
            },
            "properties": {
                "isced:level": "1;2",
                "ref:rspo": 119895,
                "official_name": "Publiczna Szko\u0142a Podstawowa im. Stanis\u0142awa Staszica w Je\u017cowem Centrum",
                "name": "Publiczna Szko\u0142a Podstawowa",
                "addr:postcode": "37-430",
                "addr:place": "Je\u017cowe",
                "addr:housenumber": "135",
                "addr:city:simc": 795420,
                "phone": "+48 158794309",
                "email": "psp1jezowe@pro.onet.pl",
                "website": "http:\/\/www.zsjc.edu.pl",
                "ref:regon": "000650815",
                "operator": "Gmina Je\u017cowe",
                "operator:type": "government",
                "amenity": "school",
                "note": "Parent RSPO: 119464"
            }
        },
        {
            "id": 119909,
            "type": "Feature",
            "geometry": {
                "type": "Point",
                "coordinates": [
                    22.14557,
                    50.3763
                ]
            },
            "properties": {
                "ref:rspo": 119909,
                "official_name": "Publiczne Przedszkole w Je\u017cowem",
                "name": "Publiczne Przedszkole w Je\u017cowem",
                "addr:postcode": "37-430",
                "addr:place": "Je\u017cowe",
                "addr:housenumber": "135",
                "addr:city:simc": 795420,
                "phone": "+48 158794309",
                "email": "psp1jezowe@pro.onet.pl",
                "website": "http:\/\/www.zsjc.net.pl\/",
                "ref:regon": "180357923",
                "operator": "Gmina Je\u017cowe",
                "operator:type": "government",
                "amenity": "kindergarten",
                "note": "Parent RSPO: 119464"
            }
        },
        {
            "id": 119891,
            "type": "Feature",
            "geometry": {
                "type": "Point",
                "coordinates": [
                    22.10898,
                    50.38162
                ]
            },
            "properties": {
                "isced:level": "1;2",
                "ref:rspo": 119891,
                "official_name": "Publiczna Szko\u0142a Podstawowa im. \u015aw. Urszuli Led\u00f3chowskiej w Je\u017cowem-Kameralnem",
                "name": "Publiczna Szko\u0142a Podstawowa",
                "addr:postcode": "37-430",
                "addr:place": "Je\u017cowe",
                "addr:housenumber": "813D",
                "addr:city:simc": 795420,
                "phone": "+48 158794338",
                "email": "pspjezowe-kameralne@wp.pl",
                "website": "http:\/\/pspjezowekameralne.pl\/",
                "ref:regon": "001187153",
                "ref:vatin": "PL6020093019",
                "operator": "Gmina Je\u017cowe",
                "operator:type": "government",
                "amenity": "school"
            }
        },
        {
            "id": 119446,
            "type": "Feature",
            "geometry": {
                "type": "Point",
                "coordinates": [
                    22.05952,
                    50.39549
                ]
            },
            "properties": {
                "ref:rspo": 119446,
                "official_name": "Zesp\u00f3\u0142 Szk\u00f3\u0142 w Jacie",
                "name": "Zesp\u00f3\u0142 Szk\u00f3\u0142 w Jacie",
                "addr:postcode": "37-430",
                "addr:place": "Jata",
                "addr:housenumber": "85",
                "addr:city:simc": 795413,
                "phone": "+48 158796217",
                "email": "szkola_jata@wp.pl",
                "website": "http:\/\/www.pspjata.cba.pl",
                "ref:regon": "180304051",
                "ref:vatin": "PL6020092942",
                "operator": "Gmina Je\u017cowe",
                "operator:type": "government",
                "landuse": "education",
                "fixme": "amenity=school, amenity=college albo landuse=education w zale\u017cno\u015bci od tego, jakie plac\u00f3wki wchodz\u0105 w sk\u0142ad zespo\u0142u. Sprawd\u017a, kiedy stosowa\u0107 amenity=* a kiedy landuse=education.",
                "note": "Children RSPO: 120030;129301"
            }
        },
        {
            "id": 120030,
            "type": "Feature",
            "geometry": {
                "type": "Point",
                "coordinates": [
                    22.05952,
                    50.39546
                ]
            },
            "properties": {
                "isced:level": "1;2",
                "ref:rspo": 120030,
                "official_name": "Publiczna Szko\u0142a Podstawowa w Jacie",
                "name": "Publiczna Szko\u0142a Podstawowa w Jacie",
                "addr:postcode": "37-430",
                "addr:place": "Jata",
                "addr:housenumber": "85",
                "addr:city:simc": 795413,
                "phone": "+48 158796217",
                "email": "szkola_jata@wp.pl",
                "website": "http:\/\/www.pspjata.cba.pl",
                "ref:regon": "001187147",
                "operator": "Gmina Je\u017cowe",
                "operator:type": "government",
                "amenity": "school",
                "note": "Parent RSPO: 119446"
            }
        },
        {
            "id": 129301,
            "type": "Feature",
            "geometry": {
                "type": "Point",
                "coordinates": [
                    22.07857,
                    50.40454
                ]
            },
            "properties": {
                "ref:rspo": 129301,
                "official_name": "Zesp\u00f3\u0142 Szk\u00f3\u0142 w Jacie - Publiczne Przedszkole w Zalesiu",
                "name": "Zesp\u00f3\u0142 Szk\u00f3\u0142 w Jacie - Publiczne Przedszkole w Zalesiu",
                "addr:postcode": "37-430",
                "addr:place": "Zalesie",
                "addr:housenumber": "40",
                "addr:city:simc": 795710,
                "phone": "+48 158796217",
                "email": "szkola_jata@wp.pl",
                "website": "http:\/\/www.pspjata.cba.pl",
                "ref:regon": "362550527",
                "operator": "Gmina Je\u017cowe",
                "operator:type": "government",
                "amenity": "kindergarten",
                "note": "Parent RSPO: 119446"
            }
        },
        {
            "id": 119879,
            "type": "Feature",
            "geometry": {
                "type": "Point",
                "coordinates": [
                    22.132999420166,
                    50.533000946045
                ]
            },
            "properties": {
                "isced:level": "1;2",
                "ref:rspo": 119879,
                "official_name": "Publiczna Szko\u0142a Podstawowa Je\u017cowe- Podg\u00f3rze",
                "name": "Publiczna Szko\u0142a Podstawowa Je\u017cowe- Podg\u00f3rze",
                "addr:postcode": "37-430",
                "addr:place": "Je\u017cowe",
                "addr:housenumber": "416",
                "addr:city:simc": 795420,
                "phone": "+48 158794322",
                "email": "psp.jezowe.podgorze@gmail.com",
                "website": "http:\/\/pspjezowepodgorze.pl",
                "ref:regon": "001187160",
                "ref:vatin": "PL6020092959",
                "operator": "Gmina Je\u017cowe",
                "operator:type": "government",
                "amenity": "school"
            }
        },
        {
            "id": 120027,
            "type": "Feature",
            "geometry": {
                "type": "Point",
                "coordinates": [
                    22.132999420166,
                    50.532970946045
                ]
            },
            "properties": {
                "isced:level": "1;2",
                "ref:rspo": 120027,
                "official_name": "Publiczna Szko\u0142a Podstawowa im. Jana Paw\u0142a II w Groblach",
                "name": "Publiczna Szko\u0142a Podstawowa",
                "addr:postcode": "37-430",
                "addr:place": "Groble",
                "addr:housenumber": "37",
                "addr:city:simc": 795360,
                "phone": "+48 158794146",
                "email": "sekretariat@pspgroble.pl",
                "website": "http:\/\/www.szkolagroble.edupage.org",
                "ref:regon": "001187130",
                "ref:vatin": "PL6020092617",
                "operator": "Gmina Je\u017cowe",
                "operator:type": "government",
                "amenity": "school"
            }
        }
    ]
}