{
    "type": "FeatureCollection",
    "features": [
        {
            "id": 272425,
            "type": "Feature",
            "geometry": {
                "type": "Point",
                "coordinates": [
                    22.1539499,
                    50.4478
                ]
            },
            "properties": {
                "ref:rspo": 272425,
                "official_name": "Zesp\u00f3\u0142 Szkolno-Przedszkolny w Nowosielcu",
                "name": "Zesp\u00f3\u0142 Szkolno-Przedszkolny w Nowosielcu",
                "addr:postcode": "37-400",
                "addr:place": "Nowosielec",
                "addr:housenumber": "134",
                "addr:city:simc": 800048,
                "phone": "+48 158414197",
                "email": "sp_nowosielec@wp.eu",
                "ref:regon": "384169394",
                "operator": "Gmina I Miasto Nisko",
                "operator:type": "government",
                "landuse": "education",
                "fixme": "amenity=school, amenity=college albo landuse=education w zale\u017cno\u015bci od tego, jakie plac\u00f3wki wchodz\u0105 w sk\u0142ad zespo\u0142u. Sprawd\u017a, kiedy stosowa\u0107 amenity=* a kiedy landuse=education.",
                "note": "Children RSPO: 109527;272432"
            }
        },
        {
            "id": 109527,
            "type": "Feature",
            "geometry": {
                "type": "Point",
                "coordinates": [
                    22.1539499,
                    50.44777
                ]
            },
            "properties": {
                "isced:level": "1;2",
                "ref:rspo": 109527,
                "official_name": "Publiczna Szko\u0142a Podstawowa w Nowosielcu im.jana Paw\u0142a II,Nowosielec 134",
                "name": "Publiczna Szko\u0142a Podstawowa w Nowosielcu im.jana Paw\u0142a II,Nowosielec 134",
                "addr:postcode": "37-400",
                "addr:place": "Nowosielec",
                "addr:housenumber": "134",
                "addr:city:simc": 800048,
                "phone": "+48 158414197",
                "email": "sp_nowosielec@wp.eu",
                "ref:regon": "000919186",
                "operator": "Gmina I Miasto Nisko",
                "operator:type": "government",
                "amenity": "school",
                "note": "Parent RSPO: 272425"
            }
        },
        {
            "id": 272432,
            "type": "Feature",
            "geometry": {
                "type": "Point",
                "coordinates": [
                    22.1539499,
                    50.44774
                ]
            },
            "properties": {
                "ref:rspo": 272432,
                "official_name": "Przedszkole w Nowosielcu",
                "name": "Przedszkole w Nowosielcu",
                "addr:postcode": "37-400",
                "addr:place": "Nowosielec",
                "addr:housenumber": "134",
                "addr:city:simc": 800048,
                "phone": "+48 158702169",
                "email": "zs_nowosielec@wp.pl",
                "ref:regon": "384171681",
                "operator": "Gmina I Miasto Nisko",
                "operator:type": "government",
                "amenity": "kindergarten",
                "note": "Parent RSPO: 272425"
            }
        },
        {
            "id": 263074,
            "type": "Feature",
            "geometry": {
                "type": "Point",
                "coordinates": [
                    22.1718,
                    50.49253
                ]
            },
            "properties": {
                "ref:rspo": 263074,
                "official_name": "Zesp\u00f3\u0142 Szkolno-Przedszkolny Nr 1 w Nisku",
                "name": "Zesp\u00f3\u0142 Szkolno-Przedszkolny Nr 1 w Nisku",
                "addr:postcode": "37-400",
                "addr:city": "Nisko",
                "addr:street": "Henryka D\u0105browskiego",
                "addr:housenumber": "8",
                "addr:city:simc": 980530,
                "addr:street:sym_ul": 3678,
                "phone": "+48 158412363",
                "email": "zsp1nisko@onet.pl",
                "website": "http:\/\/psp4nisko.szkolnastrona.pl",
                "ref:regon": "368099039",
                "operator": "Gmina I Miasto Nisko",
                "operator:type": "government",
                "landuse": "education",
                "fixme": "amenity=school, amenity=college albo landuse=education w zale\u017cno\u015bci od tego, jakie plac\u00f3wki wchodz\u0105 w sk\u0142ad zespo\u0142u. Sprawd\u017a, kiedy stosowa\u0107 amenity=* a kiedy landuse=education.",
                "note": "Children RSPO: 92256;263068"
            }
        },
        {
            "id": 92256,
            "type": "Feature",
            "geometry": {
                "type": "Point",
                "coordinates": [
                    22.1718,
                    50.4925
                ]
            },
            "properties": {
                "isced:level": "1;2",
                "ref:rspo": 92256,
                "official_name": "Publiczna Szko\u0142a Podstawowa Nr 4 w Nisku",
                "name": "Publiczna Szko\u0142a Podstawowa Nr 4 w Nisku",
                "addr:postcode": "37-400",
                "addr:city": "Nisko",
                "addr:street": "Henryka D\u0105browskiego",
                "addr:housenumber": "8",
                "addr:city:simc": 980530,
                "addr:street:sym_ul": 3678,
                "phone": "+48 158412363",
                "email": "psp4nisko@wp.pl",
                "website": "http:\/\/zsp1nisko.pl",
                "ref:regon": "001178177",
                "operator": "Gmina I Miasto Nisko",
                "operator:type": "government",
                "amenity": "school",
                "note": "Parent RSPO: 263074"
            }
        },
        {
            "id": 263068,
            "type": "Feature",
            "geometry": {
                "type": "Point",
                "coordinates": [
                    22.1718,
                    50.492470000000004
                ]
            },
            "properties": {
                "ref:rspo": 263068,
                "official_name": "Przedszkole Nr 2 w Nisku",
                "name": "Przedszkole Nr 2 w Nisku",
                "addr:postcode": "37-400",
                "addr:city": "Nisko",
                "addr:street": "Henryka D\u0105browskiego",
                "addr:housenumber": "8",
                "addr:city:simc": 980530,
                "addr:street:sym_ul": 3678,
                "phone": "+48 158415669",
                "email": "przedszkole2nisko@wp.pl",
                "website": "http:\/\/psp4nisko.szkolnastrona.pl",
                "ref:regon": "368098198",
                "operator": "Gmina I Miasto Nisko",
                "operator:type": "government",
                "amenity": "kindergarten",
                "note": "Parent RSPO: 263074"
            }
        },
        {
            "id": 109531,
            "type": "Feature",
            "geometry": {
                "type": "Point",
                "coordinates": [
                    22.13906,
                    50.50566
                ]
            },
            "properties": {
                "isced:level": "1;2",
                "ref:rspo": 109531,
                "official_name": "Publiczna Szko\u0142a Podstawowa Nr 3 w Nisku",
                "name": "Publiczna Szko\u0142a Podstawowa Nr 3 w Nisku",
                "addr:postcode": "37-400",
                "addr:city": "Nisko",
                "addr:street": "Piaskowa",
                "addr:housenumber": "15",
                "addr:city:simc": 980530,
                "addr:street:sym_ul": 16033,
                "phone": "+48 158412171",
                "email": "sekretariat@3nisko.eu",
                "website": "http:\/\/www.3nisko.pl",
                "ref:regon": "000919192",
                "operator": "Gmina I Miasto Nisko",
                "operator:type": "government",
                "amenity": "school"
            }
        },
        {
            "id": 104879,
            "type": "Feature",
            "geometry": {
                "type": "Point",
                "coordinates": [
                    22.1658,
                    50.51355
                ]
            },
            "properties": {
                "ref:rspo": 104879,
                "official_name": "Niepubliczne Przedszkole S\u0142oneczko w Rac\u0142awicach",
                "name": "Niepubliczne Przedszkole S\u0142oneczko w Rac\u0142awicach",
                "addr:postcode": "37-400",
                "addr:city": "Rac\u0142awice",
                "addr:street": "Rudnicka",
                "addr:housenumber": "81",
                "addr:city:simc": 800060,
                "addr:street:sym_ul": 19064,
                "email": "sloneczkoraclawice@interia.pl",
                "ref:regon": "180924003",
                "operator": "Stowarzyszenie Na Rzecz Rozwoju Wsi Rac\u0142awice",
                "operator:type": "ngo",
                "amenity": "kindergarten"
            }
        },
        {
            "id": 61475,
            "type": "Feature",
            "geometry": {
                "type": "Point",
                "coordinates": [
                    22.14052,
                    50.51584
                ]
            },
            "properties": {
                "ref:rspo": 61475,
                "official_name": "Przedszkole Nr 1 w Nisku",
                "name": "Przedszkole Nr 1 w Nisku",
                "addr:postcode": "37-400",
                "addr:city": "Nisko",
                "addr:street": "Fryderyka Chopina",
                "addr:housenumber": "33",
                "addr:city:simc": 980530,
                "addr:street:sym_ul": 2849,
                "phone": "+48 158412143",
                "email": "pp1.nisko@gmail.com",
                "ref:regon": "830012182",
                "ref:vatin": "PL8651712326",
                "operator": "Gmina I Miasto Nisko",
                "operator:type": "government",
                "amenity": "kindergarten"
            }
        },
        {
            "id": 29082,
            "type": "Feature",
            "geometry": {
                "type": "Point",
                "coordinates": [
                    22.1444699,
                    50.5178299
                ]
            },
            "properties": {
                "ref:rspo": 29082,
                "official_name": "Poradnia Psychologiczno-Pedagogiczna",
                "name": "Poradnia Psychologiczno-Pedagogiczna",
                "addr:postcode": "37-400",
                "addr:city": "Nisko",
                "addr:street": "Ignacego Paderewskiego",
                "addr:housenumber": "4",
                "addr:city:simc": 980530,
                "addr:street:sym_ul": 15529,
                "phone": "+48 158412773",
                "email": "pppnisko1@poczta.onet.pl",
                "website": "http:\/\/www.pppnisko.webd.pl\/",
                "ref:regon": "000902671",
                "ref:vatin": "PL8651499105",
                "operator": "Powiat Ni\u017ca\u0144ski",
                "operator:type": "government",
                "healthcare": "counselling",
                "counselling_type": "education",
                "fixme": "w zale\u017cno\u015bci od przedmiotu dzia\u0142alno\u015bci (np. healthcare=counselling + counselling_type=education albo healthcare=psychotherapist)"
            }
        },
        {
            "id": 128405,
            "type": "Feature",
            "geometry": {
                "type": "Point",
                "coordinates": [
                    22.1444699,
                    50.5177999
                ]
            },
            "properties": {
                "ref:rspo": 128405,
                "official_name": "Biblioteka Pedagogiczna w Tarnobrzegu Filia w Nisku",
                "name": "Biblioteka Pedagogiczna w Tarnobrzegu Filia w Nisku",
                "addr:postcode": "37-400",
                "addr:city": "Nisko",
                "addr:street": "Ignacego Paderewskiego",
                "addr:housenumber": "4",
                "addr:city:simc": 980530,
                "addr:street:sym_ul": 15529,
                "phone": "+48 158412518",
                "email": "nisko@pbw.org.pl",
                "ref:regon": "719091000",
                "operator": "Wojew\u00f3dztwo Podkarpackie",
                "operator:type": "government",
                "amenity": "library",
                "note": "Parent RSPO: 92410"
            }
        },
        {
            "id": 27714,
            "type": "Feature",
            "geometry": {
                "type": "Point",
                "coordinates": [
                    22.14498,
                    50.51867
                ]
            },
            "properties": {
                "isced:level": "3",
                "ref:rspo": 27714,
                "official_name": "Liceum Og\u00f3lnokszta\u0142c\u0105ce im. Stefana Czarnieckiego",
                "name": "Liceum Og\u00f3lnokszta\u0142c\u0105ce",
                "addr:postcode": "37-400",
                "addr:city": "Nisko",
                "addr:street": "Plac Wolno\u015bci",
                "addr:housenumber": "3",
                "addr:city:simc": 980530,
                "addr:street:sym_ul": 24685,
                "phone": "+48 158412031",
                "email": "seklonisko@wp.pl",
                "website": "http:\/\/www.lo.nisko.pl",
                "ref:regon": "000995490",
                "ref:vatin": "PL8651222556",
                "operator": "Powiat Ni\u017ca\u0144ski",
                "operator:type": "government",
                "amenity": "school"
            }
        },
        {
            "id": 29084,
            "type": "Feature",
            "geometry": {
                "type": "Point",
                "coordinates": [
                    22.14037,
                    50.51948
                ]
            },
            "properties": {
                "ref:rspo": 29084,
                "official_name": "Regionalne Centrum Edukacji Zawodowej",
                "name": "Regionalne Centrum Edukacji Zawodowej",
                "addr:postcode": "37-400",
                "addr:city": "Nisko",
                "addr:street": "Sandomierska",
                "addr:housenumber": "1",
                "addr:city:simc": 980530,
                "addr:street:sym_ul": 19491,
                "phone": "+48 158412506",
                "email": "rcez@rceznisko.pl",
                "website": "http:\/\/www.rceznisko.pl",
                "ref:regon": "000189322",
                "ref:vatin": "PL8650011202",
                "operator": "Powiat Ni\u017ca\u0144ski",
                "operator:type": "government",
                "landuse": "education",
                "fixme": "amenity=school, amenity=college albo landuse=education w zale\u017cno\u015bci od tego, jakie plac\u00f3wki wchodz\u0105 w sk\u0142ad zespo\u0142u. Sprawd\u017a, kiedy stosowa\u0107 amenity=* a kiedy landuse=education.",
                "note": "Children RSPO: 60826;61388;61422;119066"
            }
        },
        {
            "id": 60826,
            "type": "Feature",
            "geometry": {
                "type": "Point",
                "coordinates": [
                    22.14037,
                    50.51945
                ]
            },
            "properties": {
                "isced:level": "3",
                "ref:rspo": 60826,
                "official_name": "Technikum",
                "name": "Technikum",
                "addr:postcode": "37-400",
                "addr:city": "Nisko",
                "addr:street": "Sandomierska",
                "addr:housenumber": "1",
                "addr:city:simc": 980530,
                "addr:street:sym_ul": 19491,
                "phone": "+48 158412506",
                "email": "rcez@rceznisko.pl",
                "website": "http:\/\/rceznisko.pl",
                "ref:regon": "830475539",
                "operator": "Powiat Ni\u017ca\u0144ski",
                "operator:type": "government",
                "amenity": "school",
                "note": "Parent RSPO: 29084"
            }
        },
        {
            "id": 61388,
            "type": "Feature",
            "geometry": {
                "type": "Point",
                "coordinates": [
                    22.14037,
                    50.519420000000004
                ]
            },
            "properties": {
                "isced:level": "3",
                "ref:rspo": 61388,
                "official_name": "Bran\u017cowa Szko\u0142a I Stopnia",
                "name": "Bran\u017cowa Szko\u0142a I Stopnia",
                "addr:postcode": "37-400",
                "addr:city": "Nisko",
                "addr:street": "Sandomierska",
                "addr:housenumber": "1",
                "addr:city:simc": 980530,
                "addr:street:sym_ul": 19491,
                "phone": "+48 158412506",
                "email": "rcez@rceznisko.pl",
                "website": "http:\/\/rceznisko.pl",
                "ref:regon": "830475516",
                "operator": "Powiat Ni\u017ca\u0144ski",
                "operator:type": "government",
                "amenity": "school",
                "note": "Parent RSPO: 29084"
            }
        },
        {
            "id": 61422,
            "type": "Feature",
            "geometry": {
                "type": "Point",
                "coordinates": [
                    22.14037,
                    50.51939
                ]
            },
            "properties": {
                "isced:level": "4",
                "ref:rspo": 61422,
                "official_name": "Szko\u0142a Policealna",
                "name": "Szko\u0142a Policealna",
                "addr:postcode": "37-400",
                "addr:city": "Nisko",
                "addr:street": "Sandomierska",
                "addr:housenumber": "1",
                "addr:city:simc": 980530,
                "addr:street:sym_ul": 19491,
                "phone": "+48 158412061",
                "email": "rcez@rceznisko.pl",
                "ref:regon": "180906040",
                "operator": "Powiat Ni\u017ca\u0144ski",
                "operator:type": "government",
                "amenity": "college",
                "note": "Parent RSPO: 29084"
            }
        },
        {
            "id": 119066,
            "type": "Feature",
            "geometry": {
                "type": "Point",
                "coordinates": [
                    22.14037,
                    50.51936
                ]
            },
            "properties": {
                "isced:level": "3",
                "ref:rspo": 119066,
                "official_name": "Liceum Og\u00f3lnokszta\u0142c\u0105ce dla Doros\u0142ych",
                "name": "Liceum Og\u00f3lnokszta\u0142c\u0105ce dla Doros\u0142ych",
                "addr:postcode": "37-400",
                "addr:city": "Nisko",
                "addr:street": "Sandomierska",
                "addr:housenumber": "1",
                "addr:city:simc": 980530,
                "addr:street:sym_ul": 19491,
                "phone": "+48 158412061",
                "email": "rcez@rceznisko.pl",
                "website": "http:\/\/www.rceznisko.pl",
                "ref:regon": "181013261",
                "operator": "Powiat Ni\u017ca\u0144ski",
                "operator:type": "government",
                "amenity": "school",
                "note": "Parent RSPO: 29084"
            }
        },
        {
            "id": 92290,
            "type": "Feature",
            "geometry": {
                "type": "Point",
                "coordinates": [
                    22.14802,
                    50.52095
                ]
            },
            "properties": {
                "isced:level": "1;2",
                "ref:rspo": 92290,
                "official_name": "Publiczna Szko\u0142a Podstawowa Nr 1 w Nisku im.gen.stanis\u0142awa D\u0105bka",
                "name": "Publiczna Szko\u0142a Podstawowa Nr 1 w Nisku im.gen.stanis\u0142awa D\u0105bka",
                "addr:postcode": "37-400",
                "addr:city": "Nisko",
                "addr:street": "Juliusza S\u0142owackiego",
                "addr:housenumber": "10",
                "addr:city:simc": 980530,
                "addr:street:sym_ul": 20291,
                "phone": "+48 158412022",
                "email": "psp1nisko@poczta.fm",
                "website": "http:\/\/www.psp1nisko.pl",
                "ref:regon": "000919200",
                "ref:vatin": "PL8651705220",
                "operator": "Gmina I Miasto Nisko",
                "operator:type": "government",
                "amenity": "school"
            }
        },
        {
            "id": 272426,
            "type": "Feature",
            "geometry": {
                "type": "Point",
                "coordinates": [
                    22.12981,
                    50.52144
                ]
            },
            "properties": {
                "ref:rspo": 272426,
                "official_name": "Zesp\u00f3\u0142 Szkolno-Przedszkolny Nr 2 w Nisku",
                "name": "Zesp\u00f3\u0142 Szkolno-Przedszkolny Nr 2 w Nisku",
                "addr:postcode": "37-400",
                "addr:city": "Nisko",
                "addr:street": "Tysi\u0105clecia",
                "addr:housenumber": "12 A",
                "addr:city:simc": 980530,
                "addr:street:sym_ul": 23270,
                "phone": "+48 158415683",
                "email": "sp5nisko@wp.pl",
                "ref:regon": "384170894",
                "operator": "Gmina I Miasto Nisko",
                "operator:type": "government",
                "landuse": "education",
                "fixme": "amenity=school, amenity=college albo landuse=education w zale\u017cno\u015bci od tego, jakie plac\u00f3wki wchodz\u0105 w sk\u0142ad zespo\u0142u. Sprawd\u017a, kiedy stosowa\u0107 amenity=* a kiedy landuse=education.",
                "note": "Children RSPO: 109533;272434"
            }
        },
        {
            "id": 109533,
            "type": "Feature",
            "geometry": {
                "type": "Point",
                "coordinates": [
                    22.12981,
                    50.521409999999996
                ]
            },
            "properties": {
                "isced:level": "1;2",
                "ref:rspo": 109533,
                "official_name": "Publiczna Szko\u0142a Podstawowa Nr 5 w Nisku im.podoficerskiej Szko\u0142y Piechoty dla Ma\u0142oletnich",
                "name": "Publiczna Szko\u0142a Podstawowa Nr 5 w Nisku im.podoficerskiej Szko\u0142y Piechoty dla Ma\u0142oletnich",
                "addr:postcode": "37-400",
                "addr:city": "Nisko",
                "addr:street": "Tysi\u0105clecia",
                "addr:housenumber": "12A",
                "addr:city:simc": 980530,
                "addr:street:sym_ul": 23270,
                "phone": "+48 158413922",
                "email": "sp5nisko@wp.pl",
                "website": "http:\/\/www.zs2.nisko.pl",
                "ref:regon": "830448258",
                "operator": "Gmina I Miasto Nisko",
                "operator:type": "government",
                "amenity": "school",
                "note": "Parent RSPO: 272426"
            }
        },
        {
            "id": 272434,
            "type": "Feature",
            "geometry": {
                "type": "Point",
                "coordinates": [
                    22.12981,
                    50.52138
                ]
            },
            "properties": {
                "ref:rspo": 272434,
                "official_name": "Przedszkole Nr 3 w Nisku",
                "name": "Przedszkole Nr 3 w Nisku",
                "addr:postcode": "37-400",
                "addr:city": "Nisko",
                "addr:street": "Tysi\u0105clecia",
                "addr:housenumber": "12 A",
                "addr:city:simc": 980530,
                "addr:street:sym_ul": 23270,
                "phone": "+48 158415683",
                "email": "sp5nisko@wp.pl",
                "ref:regon": "384172746",
                "operator": "Gmina I Miasto Nisko",
                "operator:type": "government",
                "amenity": "kindergarten",
                "note": "Parent RSPO: 272426"
            }
        },
        {
            "id": 92503,
            "type": "Feature",
            "geometry": {
                "type": "Point",
                "coordinates": [
                    22.13057,
                    50.52257
                ]
            },
            "properties": {
                "ref:rspo": 92503,
                "official_name": "Przedszkole Niepubliczne Dommisia w Nisku",
                "name": "Przedszkole Niepubliczne Dommisia w Nisku",
                "addr:postcode": "37-400",
                "addr:city": "Nisko",
                "addr:street": "Sandomierska",
                "addr:housenumber": "61",
                "addr:city:simc": 980530,
                "addr:street:sym_ul": 19491,
                "phone": "+48 665001220",
                "email": "kontakt@dommisia.pl",
                "website": "http:\/\/www.dommisia.pl",
                "ref:regon": "180918617",
                "ref:vatin": "PL6020000638",
                "operator": "Marta Stefaniak",
                "operator:type": "private",
                "amenity": "kindergarten"
            }
        },
        {
            "id": 132037,
            "type": "Feature",
            "geometry": {
                "type": "Point",
                "coordinates": [
                    22.12548,
                    50.52348
                ]
            },
            "properties": {
                "ref:rspo": 132037,
                "official_name": "Niepubliczne Przedszkole Kraina Dzieci\u0119cych Marze\u0144",
                "name": "Niepubliczne Przedszkole Kraina Dzieci\u0119cych Marze\u0144",
                "addr:postcode": "37-400",
                "addr:city": "Nisko",
                "addr:street": "Wojska Polskiego",
                "addr:housenumber": "3",
                "addr:city:simc": 980530,
                "addr:street:sym_ul": 24628,
                "phone": "+48 514521586",
                "email": "biuro@przedszkolenisko.pl",
                "website": "http:\/\/www.przedszkolenisko.pl",
                "ref:regon": "365429217",
                "operator": "Fundacja Centrum Dziecka Krak\u00f3w (Cdk)",
                "operator:type": "ngo",
                "amenity": "kindergarten"
            }
        },
        {
            "id": 268343,
            "type": "Feature",
            "geometry": {
                "type": "Point",
                "coordinates": [
                    22.20479,
                    50.52411
                ]
            },
            "properties": {
                "ref:rspo": 268343,
                "official_name": "Zesp\u00f3\u0142 Szkolno-Przedszkolny w Zarzeczu",
                "name": "Zesp\u00f3\u0142 Szkolno-Przedszkolny w Zarzeczu",
                "addr:postcode": "37-400",
                "addr:city": "Zarzecze",
                "addr:street": "Adama Mickiewicza",
                "addr:housenumber": "45",
                "addr:city:simc": 800083,
                "addr:street:sym_ul": 12740,
                "phone": "+48 158411002",
                "email": "spzarzecze@gmail.com",
                "website": "http:\/\/zszarzecze.vot.pl",
                "ref:regon": "381099339",
                "operator": "Gmina I Miasto Nisko",
                "operator:type": "government",
                "landuse": "education",
                "fixme": "amenity=school, amenity=college albo landuse=education w zale\u017cno\u015bci od tego, jakie plac\u00f3wki wchodz\u0105 w sk\u0142ad zespo\u0142u. Sprawd\u017a, kiedy stosowa\u0107 amenity=* a kiedy landuse=education.",
                "note": "Children RSPO: 92570;268344"
            }
        },
        {
            "id": 92570,
            "type": "Feature",
            "geometry": {
                "type": "Point",
                "coordinates": [
                    22.20479,
                    50.52408
                ]
            },
            "properties": {
                "isced:level": "1;2",
                "ref:rspo": 92570,
                "official_name": "Publiczna Szko\u0142a Podstawowa im.\u015bw.stanis\u0142awa Kostki w Zarzeczu",
                "name": "Publiczna Szko\u0142a Podstawowa im.\u015bw.stanis\u0142awa Kostki w Zarzeczu",
                "addr:postcode": "37-400",
                "addr:city": "Zarzecze",
                "addr:street": "Adama Mickiewicza",
                "addr:housenumber": "45",
                "addr:city:simc": 800083,
                "addr:street:sym_ul": 12740,
                "phone": "+48 158411002",
                "email": "spzarzecze@gmail.com",
                "website": "http:\/\/zszarzecze.vot.pl",
                "ref:regon": "000919170",
                "operator": "Gmina I Miasto Nisko",
                "operator:type": "government",
                "amenity": "school",
                "note": "Parent RSPO: 268343"
            }
        },
        {
            "id": 268344,
            "type": "Feature",
            "geometry": {
                "type": "Point",
                "coordinates": [
                    22.20479,
                    50.52405
                ]
            },
            "properties": {
                "ref:rspo": 268344,
                "official_name": "Przedszkole w Zarzeczu",
                "name": "Przedszkole w Zarzeczu",
                "addr:postcode": "37-400",
                "addr:city": "Zarzecze",
                "addr:street": "Adama Mickiewicza",
                "addr:housenumber": "45",
                "addr:city:simc": 800083,
                "addr:street:sym_ul": 12740,
                "phone": "+48 158411002",
                "email": "spzarzecze@gmail.com",
                "website": "http:\/\/zszarzecze.vot.pl",
                "ref:regon": "381099612",
                "operator": "Gmina I Miasto Nisko",
                "operator:type": "government",
                "amenity": "kindergarten",
                "note": "Parent RSPO: 268343"
            }
        },
        {
            "id": 92511,
            "type": "Feature",
            "geometry": {
                "type": "Point",
                "coordinates": [
                    22.10563,
                    50.5334999
                ]
            },
            "properties": {
                "isced:level": "1;2",
                "ref:rspo": 92511,
                "official_name": "Publiczna Szko\u0142a Podstawowa Nr 6 w Nisku",
                "name": "Publiczna Szko\u0142a Podstawowa Nr 6 w Nisku",
                "addr:postcode": "37-400",
                "addr:city": "Nisko",
                "addr:street": "Sandomierska",
                "addr:housenumber": "114",
                "addr:city:simc": 980530,
                "addr:street:sym_ul": 19491,
                "phone": "+48 158415681",
                "email": "psp6malce@interia.pl",
                "ref:regon": "001178160",
                "ref:vatin": "PL8651706389",
                "operator": "Gmina I Miasto Nisko",
                "operator:type": "government",
                "amenity": "school"
            }
        }
    ]
}