{
    "type": "FeatureCollection",
    "features": [
        {
            "id": 17206,
            "type": "Feature",
            "geometry": {
                "type": "Point",
                "coordinates": [
                    20.608926,
                    50.4171739
                ]
            },
            "properties": {
                "isced:level": "1;2",
                "ref:rspo": 17206,
                "official_name": "Szko\u0142a Podstawowa w Zago\u015bci",
                "name": "Szko\u0142a Podstawowa w Zago\u015bci",
                "addr:country": "PL",
                "addr:postcode": "28-400",
                "addr:place": "Stara Zago\u015b\u0107",
                "addr:housenumber": "12",
                "addr:teryt:sym_ul": 263461,
                "contact:phone": "+48 413571762",
                "contact:email": "spzagosc@op.pl",
                "ref:regon": "260634223",
                "operator": "Fundacja \"Ekorozw\u00f3j Ponidzia\"",
                "operator:type": "ngo",
                "amenity": "school"
            }
        },
        {
            "id": 17246,
            "type": "Feature",
            "geometry": {
                "type": "Point",
                "coordinates": [
                    20.608926,
                    50.4171439
                ]
            },
            "properties": {
                "ref:rspo": 17246,
                "official_name": "Przedszkole w Zago\u015bci",
                "name": "Przedszkole w Zago\u015bci",
                "addr:country": "PL",
                "addr:postcode": "28-400",
                "addr:place": "Stara Zago\u015b\u0107",
                "addr:housenumber": "12",
                "addr:teryt:sym_ul": 263461,
                "contact:phone": "+48 413571762",
                "contact:email": "spzagosc@op.pl",
                "ref:regon": "260634252",
                "operator": "Fundacja \"Ekorozw\u00f3j Ponidzia\"",
                "operator:type": "ngo",
                "amenity": "kindergarten"
            }
        },
        {
            "id": 10392,
            "type": "Feature",
            "geometry": {
                "type": "Point",
                "coordinates": [
                    20.487764,
                    50.432831
                ]
            },
            "properties": {
                "ref:rspo": 10392,
                "official_name": "Zesp\u00f3\u0142 Plac\u00f3wek O\u015bwiatowych w Kozubowie",
                "name": "Zesp\u00f3\u0142 Plac\u00f3wek O\u015bwiatowych w Kozubowie",
                "addr:country": "PL",
                "addr:postcode": "28-400",
                "addr:place": "Kozub\u00f3w",
                "addr:housenumber": "54a",
                "addr:teryt:sym_ul": 262987,
                "contact:phone": "+48 413570235",
                "contact:email": "spkozubow@interia.pl",
                "ref:regon": "260629771",
                "operator": "Gmina Pi\u0144cz\u00f3w",
                "operator:type": "government",
                "landuse": "education",
                "fixme": "amenity=school, amenity=college albo landuse=education w zale\u017cno\u015bci od tego, jakie plac\u00f3wki wchodz\u0105 w sk\u0142ad zespo\u0142u. Sprawd\u017a, kiedy stosowa\u0107 amenity=* a kiedy landuse=education.",
                "note": "Children RSPO: 11512;105620"
            }
        },
        {
            "id": 11512,
            "type": "Feature",
            "geometry": {
                "type": "Point",
                "coordinates": [
                    20.487764,
                    50.432801
                ]
            },
            "properties": {
                "isced:level": "1;2",
                "ref:rspo": 11512,
                "official_name": "Szko\u0142a Podstawowa w Kozubowie",
                "name": "Szko\u0142a Podstawowa w Kozubowie",
                "addr:country": "PL",
                "addr:postcode": "28-400",
                "addr:place": "Kozub\u00f3w",
                "addr:housenumber": "54a",
                "addr:teryt:sym_ul": 262987,
                "contact:phone": "+48 413570235",
                "contact:email": "spkozubow@interia.pl",
                "ref:regon": "000732520",
                "ref:vatin": "PL6621717996",
                "operator": "Gmina Pi\u0144cz\u00f3w",
                "operator:type": "government",
                "amenity": "school",
                "note": "Parent RSPO: 10392"
            }
        },
        {
            "id": 105620,
            "type": "Feature",
            "geometry": {
                "type": "Point",
                "coordinates": [
                    20.487764,
                    50.432771
                ]
            },
            "properties": {
                "ref:rspo": 105620,
                "official_name": "Przedszkole w Kozubowie",
                "name": "Przedszkole w Kozubowie",
                "addr:country": "PL",
                "addr:postcode": "28-400",
                "addr:place": "Kozub\u00f3w",
                "addr:housenumber": "54a",
                "addr:teryt:sym_ul": 262987,
                "contact:phone": "+48 413570254",
                "contact:email": "spkozubow@interia.pl",
                "ref:regon": "290014550",
                "ref:vatin": "PL6621718151",
                "operator": "Gmina Pi\u0144cz\u00f3w",
                "operator:type": "government",
                "amenity": "kindergarten",
                "note": "Parent RSPO: 10392"
            }
        },
        {
            "id": 105130,
            "type": "Feature",
            "geometry": {
                "type": "Point",
                "coordinates": [
                    20.585556,
                    50.447927
                ]
            },
            "properties": {
                "ref:rspo": 105130,
                "official_name": "Schronisko dla Nieletnich w Gackach",
                "name": "Schronisko dla Nieletnich w Gackach",
                "addr:country": "PL",
                "addr:postcode": "28-400",
                "addr:place": "Leszcze",
                "addr:housenumber": "31A",
                "addr:teryt:sym_ul": 263099,
                "contact:phone": "+48 413571014",
                "contact:email": "sekretariat@gacki.sdn.gov.pl",
                "contact:website": "http:\/\/www.gacki.sdn.gov.pl",
                "ref:regon": "292907848",
                "operator": "Ministerstwo Sprawiedliwo\u015bci",
                "operator:type": "public",
                "note": "Children RSPO: 124776;278311"
            }
        },
        {
            "id": 124776,
            "type": "Feature",
            "geometry": {
                "type": "Point",
                "coordinates": [
                    20.585556,
                    50.447897
                ]
            },
            "properties": {
                "isced:level": "1;2",
                "ref:rspo": 124776,
                "official_name": "Szko\u0142a Podstawowa Nr 1 w Schronisku dla Nieletnich w Gackach",
                "name": "Szko\u0142a Podstawowa Nr 1 w Schronisku dla Nieletnich w Gackach",
                "addr:country": "PL",
                "addr:postcode": "28-400",
                "addr:place": "Leszcze",
                "addr:housenumber": "31A",
                "addr:teryt:sym_ul": 263099,
                "contact:phone": "+48 413571014",
                "contact:email": "sekretariat@gacki.sdn.gov.pl",
                "contact:website": "http:\/\/www.leszcze.sdn.gov.pl",
                "ref:regon": "260018620",
                "operator": "Ministerstwo Sprawiedliwo\u015bci",
                "operator:type": "public",
                "amenity": "school",
                "note": "Parent RSPO: 105130"
            }
        },
        {
            "id": 278311,
            "type": "Feature",
            "geometry": {
                "type": "Point",
                "coordinates": [
                    20.585556,
                    50.447867
                ]
            },
            "properties": {
                "isced:level": "3",
                "ref:rspo": 278311,
                "official_name": "Bran\u017cowa Szko\u0142a I Stopnia w Schronisku dla Nieletnich w Gackach",
                "name": "Bran\u017cowa Szko\u0142a I Stopnia w Schronisku dla Nieletnich w Gackach",
                "addr:country": "PL",
                "addr:postcode": "28-400",
                "addr:place": "Leszcze",
                "addr:housenumber": "31A",
                "addr:teryt:sym_ul": 263099,
                "contact:phone": "+48 413571014",
                "contact:email": "sekretariat@gacki.sdn.gov.pl",
                "contact:website": "http:\/\/www.gacki.sdn.gov.pl",
                "ref:regon": "389859353",
                "operator": "Ministerstwo Sprawiedliwo\u015bci",
                "operator:type": "public",
                "amenity": "school",
                "note": "Parent RSPO: 105130"
            }
        },
        {
            "id": 9881,
            "type": "Feature",
            "geometry": {
                "type": "Point",
                "coordinates": [
                    20.57647,
                    50.458825
                ]
            },
            "properties": {
                "ref:rspo": 9881,
                "official_name": "Zesp\u00f3\u0142 Plac\u00f3wek O\u015bwiatowych w Gackach",
                "name": "Zesp\u00f3\u0142 Plac\u00f3wek O\u015bwiatowych w Gackach",
                "addr:country": "PL",
                "addr:postcode": "28-400",
                "addr:place": "Gacki-Osiedle",
                "addr:housenumber": "25",
                "addr:teryt:sym_ul": 263113,
                "contact:phone": "+48 413571804",
                "contact:email": "gackisp@wp.pl",
                "ref:regon": "260567188",
                "ref:vatin": "PL6621817321",
                "operator": "Gmina Pi\u0144cz\u00f3w",
                "operator:type": "government",
                "landuse": "education",
                "fixme": "amenity=school, amenity=college albo landuse=education w zale\u017cno\u015bci od tego, jakie plac\u00f3wki wchodz\u0105 w sk\u0142ad zespo\u0142u. Sprawd\u017a, kiedy stosowa\u0107 amenity=* a kiedy landuse=education.",
                "note": "Children RSPO: 11516;11543"
            }
        },
        {
            "id": 11516,
            "type": "Feature",
            "geometry": {
                "type": "Point",
                "coordinates": [
                    20.57647,
                    50.458794999999995
                ]
            },
            "properties": {
                "isced:level": "1;2",
                "ref:rspo": 11516,
                "official_name": "Szko\u0142a Podstawowa w Gackach im. Stanis\u0142awa Toporowskiego",
                "name": "Szko\u0142a Podstawowa w Gackach",
                "addr:country": "PL",
                "addr:postcode": "28-400",
                "addr:place": "Gacki-Osiedle",
                "addr:housenumber": "25",
                "addr:teryt:sym_ul": 263113,
                "contact:phone": "+48 413571804",
                "contact:email": "gackisp@wp.pl",
                "ref:regon": "000732536",
                "ref:vatin": "PL6621717950",
                "operator": "Gmina Pi\u0144cz\u00f3w",
                "operator:type": "government",
                "amenity": "school",
                "note": "Parent RSPO: 9881"
            }
        },
        {
            "id": 11543,
            "type": "Feature",
            "geometry": {
                "type": "Point",
                "coordinates": [
                    20.57647,
                    50.458765
                ]
            },
            "properties": {
                "ref:rspo": 11543,
                "official_name": "Przedszkole w Gackach",
                "name": "Przedszkole w Gackach",
                "addr:country": "PL",
                "addr:postcode": "28-400",
                "addr:place": "Gacki-Osiedle",
                "addr:housenumber": "25",
                "addr:teryt:sym_ul": 263113,
                "contact:phone": "+48 413571805",
                "contact:email": "gackisp@wp.pl",
                "ref:regon": "290014589",
                "ref:vatin": "PL6621718168",
                "operator": "Gmina Pi\u0144cz\u00f3w",
                "operator:type": "government",
                "amenity": "kindergarten",
                "note": "Parent RSPO: 9881"
            }
        },
        {
            "id": 17205,
            "type": "Feature",
            "geometry": {
                "type": "Point",
                "coordinates": [
                    20.506635,
                    50.45981
                ]
            },
            "properties": {
                "isced:level": "1;2",
                "ref:rspo": 17205,
                "official_name": "Szko\u0142a Podstawowa w M\u0142odzawach",
                "name": "Szko\u0142a Podstawowa w M\u0142odzawach",
                "addr:country": "PL",
                "addr:postcode": "28-400",
                "addr:place": "M\u0142odzawy Du\u017ce",
                "addr:housenumber": "14a",
                "addr:teryt:sym_ul": 263142,
                "contact:phone": "+48 413579212",
                "contact:email": "spmlodzawy@wp.pl",
                "contact:website": "http:\/\/www.spmlodzawy.pl",
                "ref:regon": "260634217",
                "ref:vatin": "PL6621717967",
                "operator": "Stowarzyszenie Rozwoju M\u0142odzaw - Nasza Przysz\u0142o\u015b\u0107",
                "operator:type": "ngo",
                "amenity": "school"
            }
        },
        {
            "id": 17437,
            "type": "Feature",
            "geometry": {
                "type": "Point",
                "coordinates": [
                    20.506635,
                    50.459779999999995
                ]
            },
            "properties": {
                "ref:rspo": 17437,
                "official_name": "Przedszkole w M\u0142odzawach",
                "name": "Przedszkole w M\u0142odzawach",
                "addr:country": "PL",
                "addr:postcode": "28-400",
                "addr:place": "M\u0142odzawy Du\u017ce",
                "addr:housenumber": "14a",
                "addr:teryt:sym_ul": 263142,
                "contact:phone": "+48 413579212",
                "contact:email": "przedmlodzawy@wp.pl",
                "ref:regon": "260634298",
                "ref:vatin": "PL6621718145",
                "operator": "Stowarzyszenie Rozwoju M\u0142odzaw - Nasza Przysz\u0142o\u015b\u0107",
                "operator:type": "ngo",
                "amenity": "kindergarten"
            }
        },
        {
            "id": 262246,
            "type": "Feature",
            "geometry": {
                "type": "Point",
                "coordinates": [
                    20.5878799,
                    50.48775
                ]
            },
            "properties": {
                "ref:rspo": 262246,
                "official_name": "Zesp\u00f3\u0142 Szkolno-Przedszkolny w Bogucicach",
                "name": "Zesp\u00f3\u0142 Szkolno-Przedszkolny w Bogucicach",
                "addr:country": "PL",
                "addr:postcode": "28-400",
                "addr:city": "Bogucice Pierwsze",
                "addr:street": "Stara Wie\u015b",
                "addr:housenumber": "34",
                "addr:teryt:simc": 20881,
                "addr:teryt:sym_ul": 262668,
                "contact:phone": "+48 413573266",
                "contact:email": "sp.bogucice@wp.pl",
                "ref:regon": "367998014",
                "operator": "Gmina Pi\u0144cz\u00f3w",
                "operator:type": "government",
                "landuse": "education",
                "fixme": "amenity=school, amenity=college albo landuse=education w zale\u017cno\u015bci od tego, jakie plac\u00f3wki wchodz\u0105 w sk\u0142ad zespo\u0142u. Sprawd\u017a, kiedy stosowa\u0107 amenity=* a kiedy landuse=education.",
                "note": "Children RSPO: 8399;84679"
            }
        },
        {
            "id": 8399,
            "type": "Feature",
            "geometry": {
                "type": "Point",
                "coordinates": [
                    20.5878799,
                    50.487719999999996
                ]
            },
            "properties": {
                "isced:level": "1;2",
                "ref:rspo": 8399,
                "official_name": "Szko\u0142a Podstawowa w Bogucicach",
                "name": "Szko\u0142a Podstawowa w Bogucicach",
                "addr:country": "PL",
                "addr:postcode": "28-400",
                "addr:city": "Bogucice Pierwsze",
                "addr:street": "Stara Wie\u015b",
                "addr:housenumber": "34",
                "addr:teryt:simc": 20881,
                "addr:teryt:sym_ul": 262668,
                "contact:phone": "+48 413573266",
                "contact:email": "sp.bogucice@wp.pl",
                "contact:website": "http:\/\/spbogucice.pl",
                "ref:regon": "000732507",
                "ref:vatin": "PL6621718010",
                "operator": "Gmina Pi\u0144cz\u00f3w",
                "operator:type": "government",
                "amenity": "school",
                "note": "Parent RSPO: 262246"
            }
        },
        {
            "id": 84679,
            "type": "Feature",
            "geometry": {
                "type": "Point",
                "coordinates": [
                    20.5878799,
                    50.48769
                ]
            },
            "properties": {
                "ref:rspo": 84679,
                "official_name": "Przedszkole w Bogucicach",
                "name": "Przedszkole w Bogucicach",
                "addr:country": "PL",
                "addr:postcode": "28-400",
                "addr:city": "Bogucice Pierwsze",
                "addr:street": "Stara Wie\u015b",
                "addr:housenumber": "34",
                "addr:teryt:simc": 20881,
                "addr:teryt:sym_ul": 262668,
                "contact:phone": "+48 413571105",
                "contact:email": "sp.bogucice@wp.pl",
                "contact:website": "http:\/\/spbogucice.pl",
                "ref:regon": "290014537",
                "ref:vatin": "PL6621718139",
                "operator": "Gmina Pi\u0144cz\u00f3w",
                "operator:type": "government",
                "amenity": "kindergarten",
                "note": "Parent RSPO: 262246"
            }
        },
        {
            "id": 11426,
            "type": "Feature",
            "geometry": {
                "type": "Point",
                "coordinates": [
                    20.5423113,
                    50.5156006
                ]
            },
            "properties": {
                "ref:rspo": 11426,
                "official_name": "Przedszkole Nr 3 w Pi\u0144czowie",
                "name": "Przedszkole Nr 3 w Pi\u0144czowie",
                "addr:country": "PL",
                "addr:postcode": "28-400",
                "addr:city": "Pi\u0144cz\u00f3w",
                "addr:street": "Hugona Ko\u0142\u0142\u0105taja",
                "addr:housenumber": "8",
                "addr:teryt:simc": 9003,
                "addr:teryt:sym_ul": 947580,
                "contact:phone": "+48 413572565",
                "contact:email": "przedszkolenr3@poczta.onet.pl",
                "ref:regon": "290014520",
                "ref:vatin": "PL6621718091",
                "operator": "Gmina Pi\u0144cz\u00f3w",
                "operator:type": "government",
                "amenity": "kindergarten"
            }
        },
        {
            "id": 9613,
            "type": "Feature",
            "geometry": {
                "type": "Point",
                "coordinates": [
                    20.53959,
                    50.51689
                ]
            },
            "properties": {
                "isced:level": "1;2",
                "ref:rspo": 9613,
                "official_name": "Szko\u0142a Podstawowa Nr 2 w Pi\u0144czowie im. Jana Paw\u0142a Ii",
                "name": "Szko\u0142a Podstawowa Nr 2 w Pi\u0144czowie",
                "addr:country": "PL",
                "addr:postcode": "28-400",
                "addr:city": "Pi\u0144cz\u00f3w",
                "addr:street": "7 \u0179r\u00f3de\u0142",
                "addr:housenumber": "7",
                "addr:teryt:simc": 55661,
                "addr:teryt:sym_ul": 947580,
                "contact:phone": "+48 413573891",
                "contact:email": "madgim1@poczta.wp.pl",
                "ref:regon": "001319933",
                "ref:vatin": "PL6621795631",
                "operator": "Gmina Pi\u0144cz\u00f3w",
                "operator:type": "government",
                "amenity": "school"
            }
        },
        {
            "id": 3866,
            "type": "Feature",
            "geometry": {
                "type": "Point",
                "coordinates": [
                    20.53348,
                    50.51722
                ]
            },
            "properties": {
                "ref:rspo": 3866,
                "official_name": "Poradnia Psychologiczno-Pedagogiczna w Pi\u0144czowie",
                "name": "Poradnia Psychologiczno-Pedagogiczna w Pi\u0144czowie",
                "addr:country": "PL",
                "addr:postcode": "28-400",
                "addr:city": "Pi\u0144cz\u00f3w",
                "addr:street": "Sp\u00f3\u0142dzielcza",
                "addr:housenumber": "6",
                "addr:teryt:simc": 20696,
                "addr:teryt:sym_ul": 947580,
                "contact:phone": "+48 413574701",
                "contact:email": "ppp_pinczow@wp.pl",
                "ref:regon": "292381369",
                "ref:vatin": "PL6621787583",
                "operator": "Powiat Pi\u0144czowski",
                "operator:type": "government",
                "healthcare": "counselling",
                "counselling_type": "education",
                "fixme": "w zale\u017cno\u015bci od przedmiotu dzia\u0142alno\u015bci (np. healthcare=counselling + counselling_type=education albo healthcare=psychotherapist)"
            }
        },
        {
            "id": 6955,
            "type": "Feature",
            "geometry": {
                "type": "Point",
                "coordinates": [
                    20.53348,
                    50.51719
                ]
            },
            "properties": {
                "ref:rspo": 6955,
                "official_name": "Zesp\u00f3\u0142 Szk\u00f3\u0142 Zawodowych im. Stanis\u0142awa Staszica w Pi\u0144czowie",
                "name": "Zesp\u00f3\u0142 Szk\u00f3\u0142 Zawodowych",
                "addr:country": "PL",
                "addr:postcode": "28-400",
                "addr:city": "Pi\u0144cz\u00f3w",
                "addr:street": "Sp\u00f3\u0142dzielcza",
                "addr:housenumber": "6",
                "addr:teryt:simc": 20696,
                "addr:teryt:sym_ul": 947580,
                "contact:phone": "+48 413573000",
                "contact:email": "zszszkola@op.pl",
                "contact:website": "http:\/\/www.zszpinczow.pl",
                "ref:regon": "292378456",
                "ref:vatin": "PL6621034843",
                "operator": "Powiat Pi\u0144czowski",
                "operator:type": "government",
                "landuse": "education",
                "fixme": "amenity=school, amenity=college albo landuse=education w zale\u017cno\u015bci od tego, jakie plac\u00f3wki wchodz\u0105 w sk\u0142ad zespo\u0142u. Sprawd\u017a, kiedy stosowa\u0107 amenity=* a kiedy landuse=education.",
                "note": "Children RSPO: 9077;9176;9372;275776"
            }
        },
        {
            "id": 9077,
            "type": "Feature",
            "geometry": {
                "type": "Point",
                "coordinates": [
                    20.53348,
                    50.517160000000004
                ]
            },
            "properties": {
                "isced:level": "3",
                "ref:rspo": 9077,
                "official_name": "Technikum Nr 1 w Zespole Szk\u00f3\u0142 Zawodowych im. Stanis\u0142awa Staszica w Pi\u0144czowie",
                "name": "Technikum Nr 1 w Zespole Szk\u00f3\u0142 Zawodowych",
                "addr:country": "PL",
                "addr:postcode": "28-400",
                "addr:city": "Pi\u0144cz\u00f3w",
                "addr:street": "Sp\u00f3\u0142dzielcza",
                "addr:housenumber": "6",
                "addr:teryt:simc": 20696,
                "addr:teryt:sym_ul": 947580,
                "contact:phone": "+48 413573000",
                "contact:email": "zszszkola@op.pl",
                "ref:regon": "292439991",
                "operator": "Powiat Pi\u0144czowski",
                "operator:type": "government",
                "amenity": "school",
                "note": "Parent RSPO: 6955"
            }
        },
        {
            "id": 9176,
            "type": "Feature",
            "geometry": {
                "type": "Point",
                "coordinates": [
                    20.53348,
                    50.51713
                ]
            },
            "properties": {
                "isced:level": "3",
                "ref:rspo": 9176,
                "official_name": "Technikum Nr 2 w Zespole Szk\u00f3\u0142 Zawodowych im. Stanis\u0142awa Staszica w Pi\u0144czowie",
                "name": "Technikum Nr 2 w Zespole Szk\u00f3\u0142 Zawodowych",
                "addr:country": "PL",
                "addr:postcode": "28-400",
                "addr:city": "Pi\u0144cz\u00f3w",
                "addr:street": "Sp\u00f3\u0142dzielcza",
                "addr:housenumber": "6",
                "addr:teryt:simc": 20696,
                "addr:teryt:sym_ul": 947580,
                "contact:phone": "+48 413573000",
                "contact:email": "zszszkola@op.pl",
                "ref:regon": "292439904",
                "operator": "Powiat Pi\u0144czowski",
                "operator:type": "government",
                "amenity": "school",
                "note": "Parent RSPO: 6955"
            }
        },
        {
            "id": 9372,
            "type": "Feature",
            "geometry": {
                "type": "Point",
                "coordinates": [
                    20.53348,
                    50.5171
                ]
            },
            "properties": {
                "isced:level": "3",
                "ref:rspo": 9372,
                "official_name": "Bran\u017cowa Szko\u0142a I Stopnia w Zespole Szk\u00f3\u0142 Zawodowych im. Stanis\u0142awa Staszica w Pi\u0144czowie",
                "name": "Bran\u017cowa Szko\u0142a I Stopnia w Zespole Szk\u00f3\u0142 Zawodowych",
                "addr:country": "PL",
                "addr:postcode": "28-400",
                "addr:city": "Pi\u0144cz\u00f3w",
                "addr:street": "Sp\u00f3\u0142dzielcza",
                "addr:housenumber": "6",
                "addr:teryt:simc": 20696,
                "addr:teryt:sym_ul": 947580,
                "contact:phone": "+48 413573000",
                "contact:email": "zszszkola@op.pl",
                "ref:regon": "292440008",
                "operator": "Powiat Pi\u0144czowski",
                "operator:type": "government",
                "amenity": "school",
                "note": "Parent RSPO: 6955"
            }
        },
        {
            "id": 275776,
            "type": "Feature",
            "geometry": {
                "type": "Point",
                "coordinates": [
                    20.53348,
                    50.517070000000004
                ]
            },
            "properties": {
                "isced:level": "3",
                "ref:rspo": 275776,
                "official_name": "Bran\u017cowa Szko\u0142a II Stopnia",
                "name": "Bran\u017cowa Szko\u0142a II Stopnia",
                "addr:country": "PL",
                "addr:postcode": "28-400",
                "addr:city": "Pi\u0144cz\u00f3w",
                "addr:street": "Sp\u00f3\u0142dzielcza",
                "addr:housenumber": "6",
                "addr:teryt:simc": 20696,
                "addr:teryt:sym_ul": 947580,
                "contact:phone": "+48 413573000",
                "contact:email": "zszszkola@op.pl",
                "contact:website": "http:\/\/www.zsz.pinczow.pl",
                "ref:regon": "386937667",
                "operator": "Powiat Pi\u0144czowski",
                "operator:type": "government",
                "amenity": "school",
                "note": "Parent RSPO: 6955"
            }
        },
        {
            "id": 11420,
            "type": "Feature",
            "geometry": {
                "type": "Point",
                "coordinates": [
                    20.52691,
                    50.51849
                ]
            },
            "properties": {
                "ref:rspo": 11420,
                "official_name": "Przedszkole Nr 2 w Pi\u0144czowie",
                "name": "Przedszkole Nr 2 w Pi\u0144czowie",
                "addr:country": "PL",
                "addr:postcode": "28-400",
                "addr:city": "Pi\u0144cz\u00f3w",
                "addr:street": "Armii Krajowej",
                "addr:housenumber": "9",
                "addr:teryt:simc": 432,
                "addr:teryt:sym_ul": 947580,
                "contact:phone": "+48 413572631",
                "contact:email": "halina.gebka@wp.pl",
                "ref:regon": "290014514",
                "ref:vatin": "PL6621718085",
                "operator": "Gmina Pi\u0144cz\u00f3w",
                "operator:type": "government",
                "amenity": "kindergarten"
            }
        },
        {
            "id": 5985,
            "type": "Feature",
            "geometry": {
                "type": "Point",
                "coordinates": [
                    20.52874,
                    50.51935
                ]
            },
            "properties": {
                "ref:rspo": 5985,
                "official_name": "Specjalny O\u015brodek Szkolno-Wychowawczy \u201eZ\u0142ote Serce\u201d w Pi\u0144czowie",
                "name": "Specjalny O\u015brodek Szkolno-Wychowawczy \u201eZ\u0142ote Serce\u201d w Pi\u0144czowie",
                "addr:country": "PL",
                "addr:postcode": "28-400",
                "addr:city": "Pi\u0144cz\u00f3w",
                "addr:street": "Batalion\u00f3w Ch\u0142opskich",
                "addr:housenumber": "5",
                "addr:teryt:simc": 868,
                "addr:teryt:sym_ul": 947580,
                "contact:phone": "+48 413766005",
                "contact:email": "sekretariat@fundacjazloteserce.pl",
                "contact:website": "http:\/\/fundacjazloteserce.pl",
                "ref:regon": "260628091",
                "operator": "Fundacja Pomocy Osobom Niepe\u0142nosprawnym \"Z\u0142ote Serce\" W Pi\u0144czowie",
                "operator:type": "ngo",
                "amenity": "school",
                "note": "Children RSPO: 7862;7991;128274"
            }
        },
        {
            "id": 7862,
            "type": "Feature",
            "geometry": {
                "type": "Point",
                "coordinates": [
                    20.52874,
                    50.51932
                ]
            },
            "properties": {
                "isced:level": "1;2",
                "ref:rspo": 7862,
                "official_name": "Szko\u0142a Podstawowa Specjalna",
                "name": "Szko\u0142a Podstawowa Specjalna",
                "addr:country": "PL",
                "addr:postcode": "28-400",
                "addr:city": "Pi\u0144cz\u00f3w",
                "addr:street": "Batalion\u00f3w Ch\u0142opskich",
                "addr:housenumber": "5",
                "addr:teryt:simc": 868,
                "addr:teryt:sym_ul": 947580,
                "contact:phone": "+48 413766005",
                "contact:email": "sekretariat@fundacjazloteserce.pl",
                "contact:website": "http:\/\/fundacjazloteserce.pl",
                "ref:regon": "260628978",
                "operator": "Fundacja Pomocy Osobom Niepe\u0142nosprawnym \"Z\u0142ote Serce\" W Pi\u0144czowie",
                "operator:type": "ngo",
                "amenity": "school",
                "note": "Parent RSPO: 5985"
            }
        },
        {
            "id": 7991,
            "type": "Feature",
            "geometry": {
                "type": "Point",
                "coordinates": [
                    20.52874,
                    50.519290000000005
                ]
            },
            "properties": {
                "ref:rspo": 7991,
                "official_name": "Szko\u0142a Specjalna Przysposabiaj\u0105ca Do Pracy",
                "name": "Szko\u0142a Specjalna Przysposabiaj\u0105ca Do Pracy",
                "addr:country": "PL",
                "addr:postcode": "28-400",
                "addr:city": "Pi\u0144cz\u00f3w",
                "addr:street": "Batalion\u00f3w Ch\u0142opskich",
                "addr:housenumber": "5",
                "addr:teryt:simc": 868,
                "addr:teryt:sym_ul": 947580,
                "contact:phone": "+48 413766005",
                "contact:email": "sekretariat@fundacjazloteserce.pl",
                "contact:website": "http:\/\/fundacjazloteserce.pl",
                "ref:regon": "260628984",
                "operator": "Fundacja Pomocy Osobom Niepe\u0142nosprawnym \"Z\u0142ote Serce\" W Pi\u0144czowie",
                "operator:type": "ngo",
                "amenity": "school",
                "note": "Parent RSPO: 5985"
            }
        },
        {
            "id": 128274,
            "type": "Feature",
            "geometry": {
                "type": "Point",
                "coordinates": [
                    20.52874,
                    50.51926
                ]
            },
            "properties": {
                "isced:level": "3",
                "ref:rspo": 128274,
                "official_name": "Bran\u017cowa Szko\u0142a I Stopnia \u201eZ\u0142ote Serce\u201d",
                "name": "Bran\u017cowa Szko\u0142a I Stopnia \u201eZ\u0142ote Serce\u201d",
                "addr:country": "PL",
                "addr:postcode": "28-400",
                "addr:city": "Pi\u0144cz\u00f3w",
                "addr:street": "Batalion\u00f3w Ch\u0142opskich",
                "addr:housenumber": "5",
                "addr:teryt:simc": 868,
                "addr:teryt:sym_ul": 947580,
                "contact:phone": "+48 413766005",
                "contact:email": "fundacjazloteserce@wp.pl",
                "contact:website": "http:\/\/fundacjazloteserce.pl",
                "ref:regon": "362215763",
                "operator": "Fundacja Pomocy Osobom Niepe\u0142nosprawnym \"Z\u0142ote Serce\" W Pi\u0144czowie",
                "operator:type": "ngo",
                "amenity": "school",
                "note": "Parent RSPO: 5985"
            }
        },
        {
            "id": 114781,
            "type": "Feature",
            "geometry": {
                "type": "Point",
                "coordinates": [
                    20.513932249645,
                    50.520804611102
                ]
            },
            "properties": {
                "ref:rspo": 114781,
                "official_name": "Niepubliczny Specjalny Punkt Przedszkolny \u201eZ\u0142ote Serce\u201d",
                "name": "Niepubliczny Specjalny Punkt Przedszkolny \u201eZ\u0142ote Serce\u201d",
                "addr:country": "PL",
                "addr:postcode": "28-400",
                "addr:city": "Pi\u0144cz\u00f3w",
                "addr:street": "Pa\u0142\u0119ki",
                "addr:housenumber": "26",
                "addr:teryt:simc": 15592,
                "addr:teryt:sym_ul": 947580,
                "contact:phone": "+48 413766005",
                "contact:email": "sekretariat@fundacjazloteserce.pl",
                "ref:regon": "260697382",
                "operator": "Fundacja Pomocy Osobom Niepe\u0142nosprawnym \"Z\u0142ote Serce\" W Pi\u0144czowie",
                "operator:type": "ngo",
                "amenity": "kindergarten"
            }
        },
        {
            "id": 4323,
            "type": "Feature",
            "geometry": {
                "type": "Point",
                "coordinates": [
                    20.52537,
                    50.52153
                ]
            },
            "properties": {
                "isced:level": "3",
                "ref:rspo": 4323,
                "official_name": "Niepubliczna Bran\u017cowa Szko\u0142a I Stopnia w Pi\u0144czowie",
                "name": "Niepubliczna Bran\u017cowa Szko\u0142a I Stopnia w Pi\u0144czowie",
                "addr:country": "PL",
                "addr:postcode": "28-400",
                "addr:city": "Pi\u0144cz\u00f3w",
                "addr:street": "1 Maja",
                "addr:housenumber": "2",
                "addr:teryt:simc": 11926,
                "addr:teryt:sym_ul": 947580,
                "contact:phone": "+48 413575643",
                "contact:email": "pinczow@szkoly-kielce.pl",
                "contact:website": "http:\/\/www.awanspinczow.pl.tl",
                "ref:regon": "260628205",
                "ref:vatin": "PL9591468632",
                "operator": "\u015awi\u0119tokrzyskie Stowarzyszenie Na Rzecz Aktywizacji Zawodowej I Pomocy M\u0142odzie\u017cy",
                "operator:type": "ngo",
                "amenity": "school"
            }
        },
        {
            "id": 10931,
            "type": "Feature",
            "geometry": {
                "type": "Point",
                "coordinates": [
                    20.52537,
                    50.521499999999996
                ]
            },
            "properties": {
                "isced:level": "4",
                "ref:rspo": 10931,
                "official_name": "Niepubliczna Policealna Szko\u0142a Awans w Pi\u0144czowie",
                "name": "Niepubliczna Policealna Szko\u0142a Awans w Pi\u0144czowie",
                "addr:country": "PL",
                "addr:postcode": "28-400",
                "addr:city": "Pi\u0144cz\u00f3w",
                "addr:street": "1 Maja",
                "addr:housenumber": "2",
                "addr:teryt:simc": 11926,
                "addr:teryt:sym_ul": 947580,
                "contact:phone": "+48 413575643",
                "contact:email": "pinczow@szkoly-kielce.pl",
                "contact:website": "http:\/\/www.awanspinczow.pl.tl",
                "ref:regon": "260630751",
                "ref:vatin": "PL9590470472",
                "operator": "Andrzej Miszczyk",
                "operator:type": "private",
                "amenity": "college"
            }
        },
        {
            "id": 11008,
            "type": "Feature",
            "geometry": {
                "type": "Point",
                "coordinates": [
                    20.52537,
                    50.52147
                ]
            },
            "properties": {
                "isced:level": "3",
                "ref:rspo": 11008,
                "official_name": "Prywatna Bran\u017cowa Szko\u0142a I Stopnia \u201eAwans\u201d w Pi\u0144czowie",
                "name": "Prywatna Bran\u017cowa Szko\u0142a I Stopnia \u201eAwans\u201d w Pi\u0144czowie",
                "addr:country": "PL",
                "addr:postcode": "28-400",
                "addr:city": "Pi\u0144cz\u00f3w",
                "addr:street": "1 Maja",
                "addr:housenumber": "2",
                "addr:teryt:simc": 11926,
                "addr:teryt:sym_ul": 947580,
                "contact:phone": "+48 413575643",
                "contact:email": "pinczow@szkoly-kielce.pl",
                "contact:website": "http:\/\/www.awanspinczow.pl.tl",
                "ref:regon": "260632164",
                "ref:vatin": "PL9590470472",
                "operator": "Andrzej Miszczyk",
                "operator:type": "private",
                "amenity": "school"
            }
        },
        {
            "id": 11080,
            "type": "Feature",
            "geometry": {
                "type": "Point",
                "coordinates": [
                    20.52537,
                    50.52144
                ]
            },
            "properties": {
                "isced:level": "3",
                "ref:rspo": 11080,
                "official_name": "Prywatne Liceum Og\u00f3lnokszta\u0142c\u0105ce dla Doros\u0142ych Awans w Pi\u0144czowie",
                "name": "Prywatne Liceum Og\u00f3lnokszta\u0142c\u0105ce dla Doros\u0142ych Awans w Pi\u0144czowie",
                "addr:country": "PL",
                "addr:postcode": "28-400",
                "addr:city": "Pi\u0144cz\u00f3w",
                "addr:street": "1 Maja",
                "addr:housenumber": "2",
                "addr:teryt:simc": 11926,
                "addr:teryt:sym_ul": 947580,
                "contact:phone": "+48 413575643",
                "contact:email": "pinczow@szkoly-kielce.pl",
                "contact:website": "http:\/\/www.awans-szkoly.pl",
                "ref:regon": "260631093",
                "ref:vatin": "PL9590470472",
                "operator": "Andrzej Miszczyk",
                "operator:type": "private",
                "amenity": "school"
            }
        },
        {
            "id": 262206,
            "type": "Feature",
            "geometry": {
                "type": "Point",
                "coordinates": [
                    20.52537,
                    50.521409999999996
                ]
            },
            "properties": {
                "isced:level": "1;2",
                "ref:rspo": 262206,
                "official_name": "Niepubliczna Szko\u0142a Podstawowa w Pi\u0144czowie",
                "name": "Niepubliczna Szko\u0142a Podstawowa w Pi\u0144czowie",
                "addr:country": "PL",
                "addr:postcode": "28-400",
                "addr:city": "Pi\u0144cz\u00f3w",
                "addr:street": "1 Maja",
                "addr:housenumber": "2",
                "addr:teryt:simc": 11926,
                "addr:teryt:sym_ul": 947580,
                "contact:phone": "+48 413575643",
                "contact:email": "pinczow@szkoly-kielce.pl",
                "ref:regon": "367993666",
                "operator": "\u015awi\u0119tokrzyskie Stowarzyszenie Na Rzecz Aktywizacji Zawodowej I Pomocy M\u0142odzie\u017cy",
                "operator:type": "ngo",
                "amenity": "school"
            }
        },
        {
            "id": 268233,
            "type": "Feature",
            "geometry": {
                "type": "Point",
                "coordinates": [
                    20.52537,
                    50.52138
                ]
            },
            "properties": {
                "isced:level": "3",
                "ref:rspo": 268233,
                "official_name": "Prywatne Technikum Awans w Pi\u0144czowie",
                "name": "Prywatne Technikum Awans w Pi\u0144czowie",
                "addr:country": "PL",
                "addr:postcode": "28-400",
                "addr:city": "Pi\u0144cz\u00f3w",
                "addr:street": "1 Maja",
                "addr:housenumber": "2",
                "addr:teryt:simc": 11926,
                "addr:teryt:sym_ul": 947580,
                "contact:phone": "+48 413575643",
                "contact:email": "pinczow@szkoly-kielce.pl",
                "ref:regon": "381035836",
                "operator": "Andrzej Miszczyk",
                "operator:type": "private",
                "amenity": "school"
            }
        },
        {
            "id": 13999,
            "type": "Feature",
            "geometry": {
                "type": "Point",
                "coordinates": [
                    20.52713,
                    50.52255
                ]
            },
            "properties": {
                "ref:rspo": 13999,
                "official_name": "Pedagogiczna Biblioteka Wojew\u00f3dzka w Kielcach Filia w Pi\u0144czowie",
                "name": "Pedagogiczna Biblioteka Wojew\u00f3dzka w Kielcach Filia w Pi\u0144czowie",
                "addr:country": "PL",
                "addr:postcode": "28-400",
                "addr:city": "Pi\u0144cz\u00f3w",
                "addr:street": "Nowy \u015awiat",
                "addr:housenumber": "3",
                "addr:teryt:simc": 14535,
                "addr:teryt:sym_ul": 947580,
                "contact:email": "pinczow@pbw.kielce.pl",
                "contact:website": "http:\/\/www.pbw.kielce.pl",
                "ref:regon": "291170080",
                "operator": "Wojew\u00f3dztwo \u015awi\u0119tokrzyskie",
                "operator:type": "government",
                "amenity": "library",
                "note": "Parent RSPO: 6753"
            }
        },
        {
            "id": 3782,
            "type": "Feature",
            "geometry": {
                "type": "Point",
                "coordinates": [
                    20.52687,
                    50.52278
                ]
            },
            "properties": {
                "isced:level": "3",
                "ref:rspo": 3782,
                "official_name": "Liceum Og\u00f3lnokszta\u0142c\u0105ce im. Hugona Ko\u0142\u0142\u0105taja",
                "name": "Liceum Og\u00f3lnokszta\u0142c\u0105ce",
                "addr:country": "PL",
                "addr:postcode": "28-400",
                "addr:city": "Pi\u0144cz\u00f3w",
                "addr:street": "Nowy \u015awiat",
                "addr:housenumber": "2",
                "addr:teryt:simc": 14535,
                "addr:teryt:sym_ul": 947580,
                "contact:phone": "+48 413572843",
                "contact:email": "lopinczowdyrekcja@wp.pl",
                "contact:website": "http:\/\/www.lo.pinczow.com",
                "ref:regon": "292383233",
                "ref:vatin": "PL6621042009",
                "operator": "Powiat Pi\u0144czowski",
                "operator:type": "government",
                "amenity": "school"
            }
        },
        {
            "id": 7037,
            "type": "Feature",
            "geometry": {
                "type": "Point",
                "coordinates": [
                    20.52945,
                    50.52294
                ]
            },
            "properties": {
                "ref:rspo": 7037,
                "official_name": "Specjalny O\u015brodek Szkolno-Wychowawczy im. B\u0142. J. Paw\u0142owskiego w Pi\u0144czowie",
                "name": "Specjalny O\u015brodek Szkolno-Wychowawczy",
                "addr:country": "PL",
                "addr:postcode": "28-400",
                "addr:city": "Pi\u0144cz\u00f3w",
                "addr:street": "Marsza\u0142ka J\u00f3zefa Pi\u0142sudskiego",
                "addr:housenumber": "13",
                "addr:teryt:simc": 16269,
                "addr:teryt:sym_ul": 947580,
                "contact:phone": "+48 413573013",
                "contact:email": "soswpinczow@gmail.com",
                "contact:website": "http:\/\/www.sosw.pinczow.org",
                "ref:regon": "291611376",
                "ref:vatin": "PL6621212871",
                "operator": "Powiat Pi\u0144czowski",
                "operator:type": "government",
                "amenity": "school",
                "note": "Children RSPO: 10703;10815;10816"
            }
        },
        {
            "id": 10703,
            "type": "Feature",
            "geometry": {
                "type": "Point",
                "coordinates": [
                    20.52945,
                    50.522909999999996
                ]
            },
            "properties": {
                "isced:level": "1;2",
                "ref:rspo": 10703,
                "official_name": "Szko\u0142a Podstawowa Specjalna w Pi\u0144czowie",
                "name": "Szko\u0142a Podstawowa Specjalna w Pi\u0144czowie",
                "addr:country": "PL",
                "addr:postcode": "28-400",
                "addr:city": "Pi\u0144cz\u00f3w",
                "addr:street": "Marsza\u0142ka J\u00f3zefa Pi\u0142sudskiego",
                "addr:housenumber": "13",
                "addr:teryt:simc": 16269,
                "addr:teryt:sym_ul": 947580,
                "contact:phone": "+48 413573013",
                "contact:email": "soswpinczow@gmail.com",
                "ref:regon": "291611011",
                "ref:vatin": "PL6621212871",
                "operator": "Powiat Pi\u0144czowski",
                "operator:type": "government",
                "amenity": "school",
                "note": "Parent RSPO: 7037"
            }
        },
        {
            "id": 10815,
            "type": "Feature",
            "geometry": {
                "type": "Point",
                "coordinates": [
                    20.52945,
                    50.52288
                ]
            },
            "properties": {
                "isced:level": "3",
                "ref:rspo": 10815,
                "official_name": "Bran\u017cowa Szko\u0142a I Stopnia Specjalna",
                "name": "Bran\u017cowa Szko\u0142a I Stopnia Specjalna",
                "addr:country": "PL",
                "addr:postcode": "28-400",
                "addr:city": "Pi\u0144cz\u00f3w",
                "addr:street": "Marsza\u0142ka J\u00f3zefa Pi\u0142sudskiego",
                "addr:housenumber": "13",
                "addr:teryt:simc": 16269,
                "addr:teryt:sym_ul": 947580,
                "contact:phone": "+48 413573013",
                "contact:email": "soswpinczow@gmail.com",
                "ref:regon": "292894940",
                "ref:vatin": "PL6621212871",
                "operator": "Powiat Pi\u0144czowski",
                "operator:type": "government",
                "amenity": "school",
                "note": "Parent RSPO: 7037"
            }
        },
        {
            "id": 10816,
            "type": "Feature",
            "geometry": {
                "type": "Point",
                "coordinates": [
                    20.52945,
                    50.52285
                ]
            },
            "properties": {
                "ref:rspo": 10816,
                "official_name": "Szko\u0142a Specjalna Przysposabiaj\u0105ca Do Pracy",
                "name": "Szko\u0142a Specjalna Przysposabiaj\u0105ca Do Pracy",
                "addr:country": "PL",
                "addr:postcode": "28-400",
                "addr:city": "Pi\u0144cz\u00f3w",
                "addr:street": "Marsza\u0142ka J\u00f3zefa Pi\u0142sudskiego",
                "addr:housenumber": "13",
                "addr:teryt:simc": 16269,
                "addr:teryt:sym_ul": 947580,
                "contact:phone": "+48 413573013",
                "contact:email": "soswpinczow@gmail.com",
                "ref:regon": "260249494",
                "operator": "Powiat Pi\u0144czowski",
                "operator:type": "government",
                "amenity": "school",
                "note": "Parent RSPO: 7037"
            }
        },
        {
            "id": 11417,
            "type": "Feature",
            "geometry": {
                "type": "Point",
                "coordinates": [
                    20.52623,
                    50.52317
                ]
            },
            "properties": {
                "ref:rspo": 11417,
                "official_name": "Przedszkole Nr 1 w Pi\u0144czowie",
                "name": "Przedszkole Nr 1 w Pi\u0144czowie",
                "addr:country": "PL",
                "addr:postcode": "28-400",
                "addr:city": "Pi\u0144cz\u00f3w",
                "addr:street": "Szkolna",
                "addr:housenumber": "1",
                "addr:teryt:simc": 21970,
                "addr:teryt:sym_ul": 947580,
                "contact:phone": "+48 413572626",
                "contact:email": "jwojcik1@interia.eu",
                "ref:regon": "290014508",
                "ref:vatin": "PL6621718079",
                "operator": "Gmina Pi\u0144cz\u00f3w",
                "operator:type": "government",
                "amenity": "kindergarten"
            }
        },
        {
            "id": 127304,
            "type": "Feature",
            "geometry": {
                "type": "Point",
                "coordinates": [
                    20.52696,
                    50.5232699
                ]
            },
            "properties": {
                "ref:rspo": 127304,
                "official_name": "Zesp\u00f3\u0142 Szk\u00f3\u0142 Nr 1 w Pi\u0144czowie",
                "name": "Zesp\u00f3\u0142 Szk\u00f3\u0142 Nr 1 w Pi\u0144czowie",
                "addr:country": "PL",
                "addr:postcode": "28-400",
                "addr:city": "Pi\u0144cz\u00f3w",
                "addr:street": "Szkolna",
                "addr:housenumber": "2",
                "addr:teryt:simc": 21970,
                "addr:teryt:sym_ul": 947580,
                "contact:phone": "+48 413572844",
                "contact:email": "sp1@pinczow.com",
                "contact:website": "http:\/\/sp1.pinczow.com",
                "ref:regon": "361325580",
                "ref:vatin": "PL6621818496",
                "operator": "Gmina Pi\u0144cz\u00f3w",
                "operator:type": "government",
                "landuse": "education",
                "fixme": "amenity=school, amenity=college albo landuse=education w zale\u017cno\u015bci od tego, jakie plac\u00f3wki wchodz\u0105 w sk\u0142ad zespo\u0142u. Sprawd\u017a, kiedy stosowa\u0107 amenity=* a kiedy landuse=education.",
                "note": "Children RSPO: 9466;10093"
            }
        },
        {
            "id": 9466,
            "type": "Feature",
            "geometry": {
                "type": "Point",
                "coordinates": [
                    20.52696,
                    50.5232399
                ]
            },
            "properties": {
                "isced:level": "1;2",
                "ref:rspo": 9466,
                "official_name": "Szko\u0142a Podstawowa Nr 1 w Pi\u0144czowie",
                "name": "Szko\u0142a Podstawowa Nr 1 w Pi\u0144czowie",
                "addr:country": "PL",
                "addr:postcode": "28-400",
                "addr:city": "Pi\u0144cz\u00f3w",
                "addr:street": "Szkolna",
                "addr:housenumber": "2",
                "addr:teryt:simc": 21970,
                "addr:teryt:sym_ul": 947580,
                "contact:phone": "+48 413572844",
                "contact:email": "sp1@pinczow.com",
                "contact:website": "http:\/\/www.sp1.pinczow.com",
                "ref:regon": "000732460",
                "ref:vatin": "PL6621718033",
                "operator": "Gmina Pi\u0144cz\u00f3w",
                "operator:type": "government",
                "amenity": "school",
                "note": "Parent RSPO: 127304"
            }
        },
        {
            "id": 10093,
            "type": "Feature",
            "geometry": {
                "type": "Point",
                "coordinates": [
                    20.52696,
                    50.523209900000005
                ]
            },
            "properties": {
                "ref:rspo": 10093,
                "official_name": "Szko\u0142a Muzyczna I Stopnia w Pi\u0144czowie",
                "name": "Szko\u0142a Muzyczna I Stopnia w Pi\u0144czowie",
                "addr:country": "PL",
                "addr:postcode": "28-400",
                "addr:city": "Pi\u0144cz\u00f3w",
                "addr:street": "Szkolna",
                "addr:housenumber": "2",
                "addr:teryt:simc": 21970,
                "addr:teryt:sym_ul": 947580,
                "contact:phone": "+48 413572844",
                "contact:email": "szkola.muzyczna@pinczow.com",
                "contact:website": "http:\/\/muz1.pinczow.com",
                "ref:regon": "260101314",
                "ref:vatin": "PL6621777314",
                "operator": "Gmina Pi\u0144cz\u00f3w",
                "operator:type": "government",
                "amenity": "music_school",
                "note": "Parent RSPO: 127304"
            }
        },
        {
            "id": 11121,
            "type": "Feature",
            "geometry": {
                "type": "Point",
                "coordinates": [
                    20.52867,
                    50.5235
                ]
            },
            "properties": {
                "ref:rspo": 11121,
                "official_name": "Centrum Kszta\u0142cenia Zawodowego w Pi\u0144czowie",
                "name": "Centrum Kszta\u0142cenia Zawodowego w Pi\u0144czowie",
                "addr:country": "PL",
                "addr:postcode": "28-400",
                "addr:city": "Pi\u0144cz\u00f3w",
                "addr:street": "\u017bwirki i Wigury",
                "addr:housenumber": "40",
                "addr:teryt:simc": 26608,
                "addr:teryt:sym_ul": 947580,
                "contact:phone": "+48 413572433",
                "contact:email": "pinczow@zdz.kielce.pl",
                "ref:regon": "260630544",
                "operator": "Zak\u0142ad Doskonalenia Zawodowego W Kielcach",
                "operator:type": "ngo",
                "amenity": "school",
                "fixme": "amenity=school lub amenity=college"
            }
        },
        {
            "id": 11602,
            "type": "Feature",
            "geometry": {
                "type": "Point",
                "coordinates": [
                    20.4911039,
                    50.5438009
                ]
            },
            "properties": {
                "ref:rspo": 11602,
                "official_name": "Niepubliczny Specjalny Punkt Przedszkolny dla Dzieci Niepe\u0142nosprawnych \u201e\u015awietlik\u201d",
                "name": "Niepubliczny Specjalny Punkt Przedszkolny dla Dzieci Niepe\u0142nosprawnych \u201e\u015awietlik\u201d",
                "addr:country": "PL",
                "addr:postcode": "28-400",
                "addr:place": "Skowronno Dolne",
                "addr:housenumber": "52",
                "addr:teryt:sym_ul": 263395,
                "contact:phone": "+48 413144201",
                "contact:email": "przedszkoleswietlik@wp.pl",
                "ref:regon": "260630797",
                "operator": "\"Stowarzyszenie Pomocy Dzieciom Niepe\u0142nosprawnym \"\u015awietlik\" W Pi\u0144czowie\"",
                "operator:type": "ngo",
                "amenity": "kindergarten"
            }
        },
        {
            "id": 11637,
            "type": "Feature",
            "geometry": {
                "type": "Point",
                "coordinates": [
                    20.6334132,
                    50.5445471
                ]
            },
            "properties": {
                "ref:rspo": 11637,
                "official_name": "Niepubliczny Punkt Przedszkolny dla Dzieci \u201eKubu\u015b\u201d",
                "name": "Niepubliczny Punkt Przedszkolny dla Dzieci \u201eKubu\u015b\u201d",
                "addr:country": "PL",
                "addr:postcode": "28-400",
                "addr:place": "Szarbk\u00f3w",
                "addr:housenumber": "62",
                "addr:teryt:sym_ul": 263490,
                "contact:phone": "+48 605512211",
                "contact:email": "plebankubus@o2.pl",
                "ref:regon": "260630805",
                "operator": "Stowarzyszenie Rozwi\u0105zywania Problem\u00f3w Lokalnych \"Pleban\" W Szarbkowie",
                "operator:type": "ngo",
                "amenity": "kindergarten"
            }
        },
        {
            "id": 17204,
            "type": "Feature",
            "geometry": {
                "type": "Point",
                "coordinates": [
                    20.5456991,
                    50.546793
                ]
            },
            "properties": {
                "isced:level": "1;2",
                "ref:rspo": 17204,
                "official_name": "Szko\u0142a Podstawowa w Brze\u015bciu",
                "name": "Szko\u0142a Podstawowa w Brze\u015bciu",
                "addr:country": "PL",
                "addr:postcode": "28-400",
                "addr:place": "Brze\u015bcie",
                "addr:housenumber": "75a",
                "addr:teryt:sym_ul": 262734,
                "contact:phone": "+48 413572824",
                "contact:email": "spbrzescie@wp.pl",
                "ref:regon": "260634192",
                "operator": "Fundacja \"Ekorozw\u00f3j Ponidzia\"",
                "operator:type": "ngo",
                "amenity": "school"
            }
        },
        {
            "id": 17245,
            "type": "Feature",
            "geometry": {
                "type": "Point",
                "coordinates": [
                    20.5456991,
                    50.546763
                ]
            },
            "properties": {
                "ref:rspo": 17245,
                "official_name": "Przedszkole w Brze\u015bciu",
                "name": "Przedszkole w Brze\u015bciu",
                "addr:country": "PL",
                "addr:postcode": "28-400",
                "addr:place": "Brze\u015bcie",
                "addr:housenumber": "75a",
                "addr:teryt:sym_ul": 262734,
                "contact:phone": "+48 413572824",
                "contact:email": "spbrzescie@wp.pl",
                "ref:regon": "260634246",
                "operator": "Fundacja \"Ekorozw\u00f3j Ponidzia\"",
                "operator:type": "ngo",
                "amenity": "kindergarten"
            }
        }
    ]
}