{
    "type": "FeatureCollection",
    "features": [
        {
            "id": 73817,
            "type": "Feature",
            "geometry": {
                "type": "Point",
                "coordinates": [
                    20.3512099,
                    50.36427
                ]
            },
            "properties": {
                "ref:rspo": 73817,
                "official_name": "Przedszkole Samorz\u0105dowe w Dzia\u0142oszycach",
                "name": "Przedszkole Samorz\u0105dowe w Dzia\u0142oszycach",
                "addr:postcode": "28-440",
                "addr:city": "Dzia\u0142oszyce",
                "addr:street": "Krakowska",
                "addr:housenumber": "5",
                "addr:city:simc": 946987,
                "addr:street:sym_ul": 9796,
                "phone": "+48 413526126",
                "email": "przedszkole.dzialoszyce@wp.pl",
                "ref:regon": "290014201",
                "ref:vatin": "PL6621817597",
                "operator": "Gmina Dzia\u0142oszyce",
                "operator:type": "government",
                "amenity": "kindergarten"
            }
        },
        {
            "id": 83436,
            "type": "Feature",
            "geometry": {
                "type": "Point",
                "coordinates": [
                    20.35059,
                    50.36874
                ]
            },
            "properties": {
                "isced:level": "1;2",
                "ref:rspo": 83436,
                "official_name": "Szko\u0142a Podstawowa im. Tadeusza Ko\u015bciuszki w Dzia\u0142oszycach",
                "name": "Szko\u0142a Podstawowa",
                "addr:postcode": "28-440",
                "addr:city": "Dzia\u0142oszyce",
                "addr:street": "Szkolna",
                "addr:housenumber": "5",
                "addr:city:simc": 946987,
                "addr:street:sym_ul": 21970,
                "phone": "+48 413526158",
                "email": "spdzialoszyce@zsdzialoszyce.pl",
                "website": "http:\/\/www.zsdzialoszyce.pl",
                "ref:regon": "000563039",
                "operator": "Gmina Dzia\u0142oszyce",
                "operator:type": "government",
                "amenity": "school"
            }
        },
        {
            "id": 278601,
            "type": "Feature",
            "geometry": {
                "type": "Point",
                "coordinates": [
                    20.35059,
                    50.36871
                ]
            },
            "properties": {
                "ref:rspo": 278601,
                "official_name": "Przedszkole Samorz\u0105dowe Nr 2 w Dzia\u0142oszycach",
                "name": "Przedszkole Samorz\u0105dowe Nr 2 w Dzia\u0142oszycach",
                "addr:postcode": "28-440",
                "addr:city": "Dzia\u0142oszyce",
                "addr:street": "Szkolna",
                "addr:housenumber": "5",
                "addr:city:simc": 946987,
                "addr:street:sym_ul": 21970,
                "phone": "+48 663727610",
                "email": "przedszkolenr2.dzialoszyce@interia.pl",
                "ref:regon": "389985744",
                "ref:vatin": "PL6621824479",
                "operator": "Gmina Dzia\u0142oszyce",
                "operator:type": "government",
                "amenity": "kindergarten"
            }
        },
        {
            "id": 69878,
            "type": "Feature",
            "geometry": {
                "type": "Point",
                "coordinates": [
                    20.428453,
                    50.3777757
                ]
            },
            "properties": {
                "isced:level": "1;2",
                "ref:rspo": 69878,
                "official_name": "Szko\u0142a Podstawowa w Dzier\u0105\u017cni",
                "name": "Szko\u0142a Podstawowa w Dzier\u0105\u017cni",
                "addr:postcode": "28-440",
                "addr:place": "Dzier\u0105\u017cnia",
                "addr:housenumber": "171",
                "addr:city:simc": 237133,
                "phone": "+48 413527004",
                "email": "spdzieraznia@neostrada.pl",
                "ref:regon": "001183050",
                "ref:vatin": "PL6621817611",
                "operator": "Gmina Dzia\u0142oszyce",
                "operator:type": "government",
                "amenity": "school"
            }
        },
        {
            "id": 69956,
            "type": "Feature",
            "geometry": {
                "type": "Point",
                "coordinates": [
                    20.3334519,
                    50.425615
                ]
            },
            "properties": {
                "isced:level": "1;2",
                "ref:rspo": 69956,
                "official_name": "Szko\u0142a Podstawowa w St\u0119pocicach",
                "name": "Szko\u0142a Podstawowa w St\u0119pocicach",
                "addr:postcode": "28-440",
                "addr:place": "St\u0119pocice",
                "addr:housenumber": "4",
                "addr:city:simc": 237653,
                "phone": "+48 413528025",
                "email": "szkolastepocice@o2.pl",
                "ref:regon": "001183037",
                "ref:vatin": "PL6621817580",
                "operator": "Gmina Dzia\u0142oszyce",
                "operator:type": "government",
                "amenity": "school"
            }
        }
    ]
}