{
    "type": "FeatureCollection",
    "features": [
        {
            "id": 44521,
            "type": "Feature",
            "geometry": {
                "type": "Point",
                "coordinates": [
                    18.37943,
                    53.31265
                ]
            },
            "properties": {
                "isced:level": "1;2",
                "ref:rspo": 44521,
                "official_name": "Szko\u0142a Podstawowa im. Ireny Sendlerowej w Starogrodzie",
                "name": "Szko\u0142a Podstawowa",
                "addr:country": "PL",
                "addr:postcode": "86-200",
                "addr:place": "Starogr\u00f3d",
                "addr:housenumber": "33",
                "addr:teryt:simc": 841700,
                "contact:phone": "+48 566760800",
                "contact:email": "sp@starogrod.szkola.pl",
                "contact:website": "http:\/\/starogrod.edupage.org",
                "ref:regon": "001211035",
                "ref:vatin": "PL8751559924",
                "operator": "Gmina Che\u0142mno",
                "operator:type": "government",
                "amenity": "school"
            }
        },
        {
            "id": 34606,
            "type": "Feature",
            "geometry": {
                "type": "Point",
                "coordinates": [
                    18.59242,
                    53.37992
                ]
            },
            "properties": {
                "isced:level": "1;2",
                "ref:rspo": 34606,
                "official_name": "Szko\u0142a Podstawowa im. Bronis\u0142awa Malinowskiego w Ma\u0142ych \u0141unawach",
                "name": "Szko\u0142a Podstawowa",
                "addr:country": "PL",
                "addr:postcode": "86-200",
                "addr:place": "Ma\u0142e \u0141unawy",
                "addr:housenumber": "21",
                "addr:teryt:simc": 841627,
                "contact:phone": "+48 566865001",
                "contact:email": "dyrektor@spmlunawy.pl",
                "contact:website": "http:\/\/spmalelunawy.szkolnastrona.pl",
                "ref:regon": "001211348",
                "ref:vatin": "PL8751531794",
                "operator": "Gmina Che\u0142mno",
                "operator:type": "government",
                "amenity": "school"
            }
        },
        {
            "id": 32013,
            "type": "Feature",
            "geometry": {
                "type": "Point",
                "coordinates": [
                    18.5021099,
                    53.38644
                ]
            },
            "properties": {
                "isced:level": "1;2",
                "ref:rspo": 32013,
                "official_name": "Szko\u0142a Podstawowa im. Miko\u0142aja Kopernika w Kolnie",
                "name": "Szko\u0142a Podstawowa",
                "addr:country": "PL",
                "addr:postcode": "86-200",
                "addr:place": "Kolno",
                "addr:housenumber": "33",
                "addr:teryt:simc": 841604,
                "contact:phone": "+48 566760050",
                "contact:email": "sp_kolno@wp.pl",
                "contact:website": "http:\/\/spkolno.edupage.org",
                "ref:regon": "001211012",
                "ref:vatin": "PL8751531765",
                "operator": "Gmina Che\u0142mno",
                "operator:type": "government",
                "amenity": "school"
            }
        },
        {
            "id": 133745,
            "type": "Feature",
            "geometry": {
                "type": "Point",
                "coordinates": [
                    18.57457,
                    53.39665
                ]
            },
            "properties": {
                "isced:level": "1;2",
                "ref:rspo": 133745,
                "official_name": "Szko\u0142a Podstawowa im.ziemi Che\u0142mi\u0144skiej w Podwiesku",
                "name": "Szko\u0142a Podstawowa im.ziemi Che\u0142mi\u0144skiej w Podwiesku",
                "addr:country": "PL",
                "addr:postcode": "86-200",
                "addr:place": "Podwiesk",
                "addr:housenumber": "43",
                "addr:teryt:simc": 841691,
                "contact:phone": "+48 566865713",
                "contact:email": "dyrektor@sppodwiesk.pl",
                "contact:website": "http:\/\/www.sppodwiesk.pl",
                "ref:regon": "367582331",
                "ref:vatin": "PL8751506514",
                "operator": "Gmina Che\u0142mno",
                "operator:type": "government",
                "amenity": "school"
            }
        }
    ]
}