{
    "type": "FeatureCollection",
    "features": [
        {
            "id": 41212,
            "type": "Feature",
            "geometry": {
                "type": "Point",
                "coordinates": [
                    18.4418,
                    53.34539
                ]
            },
            "properties": {
                "ref:rspo": 41212,
                "official_name": "Przedszkole Niepubliczne \"Calineczka\"",
                "name": "Przedszkole Niepubliczne \"Calineczka\"",
                "addr:country": "PL",
                "addr:postcode": "86-200",
                "addr:city": "Che\u0142mno",
                "addr:street": "Osiedle Marii Curie-Sk\u0142odowskiej",
                "addr:housenumber": "10",
                "addr:teryt:simc": 3146,
                "addr:teryt:sym_ul": 983066,
                "contact:phone": "+48 733252248",
                "contact:email": "calineczka.chelmno@gmail.com",
                "contact:website": "http:\/\/www.calineczka.org",
                "ref:regon": "341340884",
                "ref:vatin": "PL8751346140",
                "operator": "Agnieszka Utrata",
                "operator:type": "private",
                "amenity": "kindergarten"
            }
        },
        {
            "id": 114840,
            "type": "Feature",
            "geometry": {
                "type": "Point",
                "coordinates": [
                    18.41745,
                    53.34577
                ]
            },
            "properties": {
                "ref:rspo": 114840,
                "official_name": "Przedszkole Niepubliczne \"Bajka\"",
                "name": "Przedszkole Niepubliczne \"Bajka\"",
                "addr:country": "PL",
                "addr:postcode": "86-200",
                "addr:city": "Che\u0142mno",
                "addr:street": "Ignacego Danielewskiego",
                "addr:housenumber": "6",
                "addr:teryt:simc": 3590,
                "addr:teryt:sym_ul": 983066,
                "contact:phone": "+48 566861885",
                "contact:email": "bajka23@pocztra.onet.pl",
                "ref:regon": "341436348",
                "ref:vatin": "PL8751001636",
                "operator": "Beata Gehrka",
                "operator:type": "private",
                "amenity": "kindergarten"
            }
        },
        {
            "id": 13927,
            "type": "Feature",
            "geometry": {
                "type": "Point",
                "coordinates": [
                    18.4447699,
                    53.34611
                ]
            },
            "properties": {
                "ref:rspo": 13927,
                "official_name": "Niepubliczne Centrum Kszta\u0142cenia Ustawicznego Przy Stowarzyszeniu Ludzie-Ludziom w Che\u0142mnie",
                "name": "Niepubliczne Centrum Kszta\u0142cenia Ustawicznego Przy Stowarzyszeniu Ludzie-Ludziom w Che\u0142mnie",
                "addr:country": "PL",
                "addr:postcode": "86-200",
                "addr:city": "Che\u0142mno",
                "addr:street": "Osiedle Marii Curie-Sk\u0142odowskiej",
                "addr:housenumber": "4",
                "addr:teryt:simc": 3146,
                "addr:teryt:sym_ul": 983066,
                "contact:phone": "+48 506371041",
                "contact:email": "dariuszjach1@wp.pl",
                "ref:regon": "341327470",
                "operator": "Ludzie-Ludziom",
                "operator:type": "ngo",
                "fixme": "w zale\u017cno\u015bci od przedmiotu dzia\u0142alno\u015bci (np. amenity=training + training=*, amenity=dancing_school, amenity=language_school, amenity=music_school)"
            }
        },
        {
            "id": 41218,
            "type": "Feature",
            "geometry": {
                "type": "Point",
                "coordinates": [
                    18.44194,
                    53.34632
                ]
            },
            "properties": {
                "isced:level": "1;2",
                "ref:rspo": 41218,
                "official_name": "Szko\u0142a Podstawowa Nr 4 im. Wojska Polskiego",
                "name": "Szko\u0142a Podstawowa Nr 4",
                "addr:country": "PL",
                "addr:postcode": "86-200",
                "addr:city": "Che\u0142mno",
                "addr:street": "Osiedle Marii Curie-Sk\u0142odowskiej",
                "addr:housenumber": "16",
                "addr:teryt:simc": 3146,
                "addr:teryt:sym_ul": 983066,
                "contact:phone": "+48 566760364",
                "contact:email": "sp4@chelmno.pl",
                "contact:website": "http:\/\/www.sp4chelmno.edu.pl",
                "ref:regon": "000265201",
                "ref:vatin": "PL8751185719",
                "operator": "Miasto Che\u0142mno",
                "operator:type": "government",
                "amenity": "school"
            }
        },
        {
            "id": 41214,
            "type": "Feature",
            "geometry": {
                "type": "Point",
                "coordinates": [
                    18.42007,
                    53.34711
                ]
            },
            "properties": {
                "ref:rspo": 41214,
                "official_name": "Miejskie Przedszkole \"T\u0119czowy Zak\u0105tek\"",
                "name": "Miejskie Przedszkole \"T\u0119czowy Zak\u0105tek\"",
                "addr:country": "PL",
                "addr:postcode": "86-200",
                "addr:city": "Che\u0142mno",
                "addr:street": "Klasztorna",
                "addr:housenumber": "12",
                "addr:teryt:simc": 8485,
                "addr:teryt:sym_ul": 983066,
                "contact:phone": "+48 566862470",
                "contact:email": "dyrektor@przedszkole2chelmno.edu.pl",
                "contact:website": "http:\/\/www.przedszkole2chelmno.edu.pl",
                "ref:regon": "340856798",
                "ref:vatin": "PL8751545508",
                "operator": "Miasto Che\u0142mno",
                "operator:type": "government",
                "amenity": "kindergarten"
            }
        },
        {
            "id": 23795,
            "type": "Feature",
            "geometry": {
                "type": "Point",
                "coordinates": [
                    18.42207,
                    53.34726
                ]
            },
            "properties": {
                "isced:level": "1;2",
                "ref:rspo": 23795,
                "official_name": "Szko\u0142a Podstawowa Nr 2 im. Stanis\u0142awa Staszica",
                "name": "Szko\u0142a Podstawowa Nr 2",
                "addr:country": "PL",
                "addr:postcode": "86-200",
                "addr:city": "Che\u0142mno",
                "addr:street": "22 Stycznia",
                "addr:housenumber": "4",
                "addr:teryt:simc": 21454,
                "addr:teryt:sym_ul": 983066,
                "contact:phone": "+48 566860207",
                "contact:email": "sekretariat@sp2chelmno.pl",
                "contact:website": "http:\/\/www.sp2chelmno.pl",
                "ref:regon": "001076181",
                "ref:vatin": "PL8751184631",
                "operator": "Miasto Che\u0142mno",
                "operator:type": "government",
                "amenity": "school"
            }
        },
        {
            "id": 5227,
            "type": "Feature",
            "geometry": {
                "type": "Point",
                "coordinates": [
                    18.41871,
                    53.34755
                ]
            },
            "properties": {
                "ref:rspo": 5227,
                "official_name": "Zesp\u00f3\u0142 Szk\u00f3\u0142 Nr 2 im. Adama Mickiewicza w Che\u0142mnie",
                "name": "Zesp\u00f3\u0142 Szk\u00f3\u0142 Nr 2",
                "addr:country": "PL",
                "addr:postcode": "86-200",
                "addr:city": "Che\u0142mno",
                "addr:street": "Szkolna",
                "addr:housenumber": "14",
                "addr:teryt:simc": 21970,
                "addr:teryt:sym_ul": 983066,
                "contact:phone": "+48 566861710",
                "contact:email": "sekretariat@zs2.edu.pl",
                "ref:regon": "000237995",
                "operator": "Powiat Che\u0142mi\u0144ski",
                "operator:type": "government",
                "landuse": "education",
                "fixme": "amenity=school, amenity=college albo landuse=education w zale\u017cno\u015bci od tego, jakie plac\u00f3wki wchodz\u0105 w sk\u0142ad zespo\u0142u. Sprawd\u017a, kiedy stosowa\u0107 amenity=* a kiedy landuse=education.",
                "note": "Children RSPO: 5221;5222;5223;5225"
            }
        },
        {
            "id": 5221,
            "type": "Feature",
            "geometry": {
                "type": "Point",
                "coordinates": [
                    18.41871,
                    53.347519999999996
                ]
            },
            "properties": {
                "isced:level": "3",
                "ref:rspo": 5221,
                "official_name": "Ii Liceum Og\u00f3lnokszta\u0142c\u0105ce w Che\u0142mnie",
                "name": "Ii Liceum Og\u00f3lnokszta\u0142c\u0105ce w Che\u0142mnie",
                "addr:country": "PL",
                "addr:postcode": "86-200",
                "addr:city": "Che\u0142mno",
                "addr:street": "Szkolna",
                "addr:housenumber": "14",
                "addr:teryt:simc": 21970,
                "addr:teryt:sym_ul": 983066,
                "contact:phone": "+48 566861710",
                "contact:email": "sekretariat@zs2.edu.pl",
                "ref:regon": "341318152",
                "operator": "Powiat Che\u0142mi\u0144ski",
                "operator:type": "government",
                "amenity": "school",
                "note": "Parent RSPO: 5227"
            }
        },
        {
            "id": 5222,
            "type": "Feature",
            "geometry": {
                "type": "Point",
                "coordinates": [
                    18.41871,
                    53.34749
                ]
            },
            "properties": {
                "isced:level": "3",
                "ref:rspo": 5222,
                "official_name": "Bran\u017cowa Szko\u0142a I Stopnia w Che\u0142mnie",
                "name": "Bran\u017cowa Szko\u0142a I Stopnia w Che\u0142mnie",
                "addr:country": "PL",
                "addr:postcode": "86-200",
                "addr:city": "Che\u0142mno",
                "addr:street": "Szkolna",
                "addr:housenumber": "14",
                "addr:teryt:simc": 21970,
                "addr:teryt:sym_ul": 983066,
                "contact:phone": "+48 566861710",
                "contact:email": "sekretariat@zs2.edu.pl",
                "ref:regon": "871679537",
                "operator": "Powiat Che\u0142mi\u0144ski",
                "operator:type": "government",
                "amenity": "school",
                "note": "Parent RSPO: 5227"
            }
        },
        {
            "id": 5223,
            "type": "Feature",
            "geometry": {
                "type": "Point",
                "coordinates": [
                    18.41871,
                    53.34746
                ]
            },
            "properties": {
                "isced:level": "3",
                "ref:rspo": 5223,
                "official_name": "Technikum w Che\u0142mnie",
                "name": "Technikum w Che\u0142mnie",
                "addr:country": "PL",
                "addr:postcode": "86-200",
                "addr:city": "Che\u0142mno",
                "addr:street": "Szkolna",
                "addr:housenumber": "14",
                "addr:teryt:simc": 21970,
                "addr:teryt:sym_ul": 983066,
                "contact:phone": "+48 566861710",
                "contact:email": "sekretariat@zs2.edu.pl",
                "ref:regon": "871679543",
                "operator": "Powiat Che\u0142mi\u0144ski",
                "operator:type": "government",
                "amenity": "school",
                "note": "Parent RSPO: 5227"
            }
        },
        {
            "id": 5225,
            "type": "Feature",
            "geometry": {
                "type": "Point",
                "coordinates": [
                    18.41871,
                    53.347429999999996
                ]
            },
            "properties": {
                "isced:level": "4",
                "ref:rspo": 5225,
                "official_name": "Policealne Studium Zawodowe w Che\u0142mnie",
                "name": "Policealne Studium Zawodowe w Che\u0142mnie",
                "addr:country": "PL",
                "addr:postcode": "86-200",
                "addr:city": "Che\u0142mno",
                "addr:street": "Szkolna",
                "addr:housenumber": "14",
                "addr:teryt:simc": 21970,
                "addr:teryt:sym_ul": 983066,
                "contact:phone": "+48 566861710",
                "contact:email": "sekretariat@zs2.edu.pl",
                "ref:regon": "871679566",
                "operator": "Powiat Che\u0142mi\u0144ski",
                "operator:type": "government",
                "amenity": "college",
                "note": "Parent RSPO: 5227"
            }
        },
        {
            "id": 13511,
            "type": "Feature",
            "geometry": {
                "type": "Point",
                "coordinates": [
                    18.43818,
                    53.34872
                ]
            },
            "properties": {
                "isced:level": "3",
                "ref:rspo": 13511,
                "official_name": "Katolickie Liceum Og\u00f3lnokszta\u0142c\u0105ce Ksi\u0119\u017cy Pallotyn\u00f3w Collegium Culmense w Che\u0142mnie",
                "name": "Katolickie Liceum Og\u00f3lnokszta\u0142c\u0105ce Ksi\u0119\u017cy Pallotyn\u00f3w Collegium Culmense w Che\u0142mnie",
                "addr:country": "PL",
                "addr:postcode": "86-200",
                "addr:city": "Che\u0142mno",
                "addr:street": "Juliusza S\u0142owackiego",
                "addr:housenumber": "1",
                "addr:teryt:simc": 20286,
                "addr:teryt:sym_ul": 983066,
                "contact:phone": "+48 566863273",
                "contact:email": "dyrektorklig@gmail.com",
                "contact:website": "http:\/\/www.klig.pl",
                "ref:regon": "341330213",
                "operator": "Prowincja Zwiastowania Pa\u0144skiego Stowarzyszenia Apostolstwa Katolickiego (Ksi\u0119\u017ca Pallotyni)",
                "operator:type": "religious",
                "amenity": "school"
            }
        },
        {
            "id": 123774,
            "type": "Feature",
            "geometry": {
                "type": "Point",
                "coordinates": [
                    18.43818,
                    53.34869
                ]
            },
            "properties": {
                "isced:level": "1;2",
                "ref:rspo": 123774,
                "official_name": "Katolicka Szko\u0142a Podstawowa Ksi\u0119\u017cy Pallotyn\u00f3w Schola Culmensis Elementaris",
                "name": "Katolicka Szko\u0142a Podstawowa Ksi\u0119\u017cy Pallotyn\u00f3w Schola Culmensis Elementaris",
                "addr:country": "PL",
                "addr:postcode": "86-200",
                "addr:city": "Che\u0142mno",
                "addr:street": "Juliusza S\u0142owackiego",
                "addr:housenumber": "1",
                "addr:door": "1",
                "addr:teryt:simc": 20286,
                "addr:teryt:sym_ul": 983066,
                "contact:phone": "+48 566863273",
                "contact:email": "klig.pallotyni@gmail.com",
                "ref:regon": "341604923",
                "ref:vatin": "PL8751556050",
                "operator": "Prowincja Zwiastowania Pa\u0144skiego Stowarzyszenia Apostolstwa Katolickiego (Ksi\u0119\u017ca Pallotyni)",
                "operator:type": "religious",
                "amenity": "school"
            }
        },
        {
            "id": 123309,
            "type": "Feature",
            "geometry": {
                "type": "Point",
                "coordinates": [
                    18.43401,
                    53.34883
                ]
            },
            "properties": {
                "isced:level": "3",
                "ref:rspo": 123309,
                "official_name": "Szko\u0142a Techniczna Bydgoskiego Zak\u0142adu Doskonalenia Zawodowego w Che\u0142mnie",
                "name": "Szko\u0142a Techniczna Bydgoskiego Zak\u0142adu Doskonalenia Zawodowego w Che\u0142mnie",
                "addr:country": "PL",
                "addr:postcode": "86-200",
                "addr:city": "Che\u0142mno",
                "addr:street": "al. Aleja 3 Maja",
                "addr:housenumber": "5",
                "addr:teryt:simc": 45521,
                "addr:teryt:sym_ul": 983066,
                "contact:phone": "+48 662412144",
                "contact:email": "murawskam@op.pl",
                "contact:website": "http:\/\/www.bzdz.pl\/technikum-mundurowe-chelmno\/",
                "ref:regon": "341589052",
                "ref:vatin": "PL5540313030",
                "operator": "Bydgoski Zak\u0142ad Doskonalenia Zawodowego Stowarzyszenie O\u015bwiatowo-Techniczne",
                "operator:type": "ngo",
                "amenity": "school"
            }
        },
        {
            "id": 35041,
            "type": "Feature",
            "geometry": {
                "type": "Point",
                "coordinates": [
                    18.43654,
                    53.34887
                ]
            },
            "properties": {
                "ref:rspo": 35041,
                "official_name": "Pa\u0144stwowa Szko\u0142a Muzyczna I St. im. Grzegorza Gerwazego Gorczyckiego w Che\u0142mnie",
                "name": "Pa\u0144stwowa Szko\u0142a Muzyczna I St.",
                "addr:country": "PL",
                "addr:postcode": "86-200",
                "addr:city": "Che\u0142mno",
                "addr:street": "\u015awi\u0119tojerska",
                "addr:housenumber": "3",
                "addr:teryt:simc": 22550,
                "addr:teryt:sym_ul": 983066,
                "contact:phone": "+48 485667606",
                "contact:email": "psm1st@poczta.onet.pl",
                "contact:website": "http:\/\/psmchelmno.pl",
                "ref:regon": "000277546",
                "operator": "Ministerstwo Kultury I Dziedzictwa Narodowego",
                "operator:type": "public",
                "amenity": "music_school"
            }
        },
        {
            "id": 5100,
            "type": "Feature",
            "geometry": {
                "type": "Point",
                "coordinates": [
                    18.41905,
                    53.34925
                ]
            },
            "properties": {
                "ref:rspo": 5100,
                "official_name": "Zesp\u00f3\u0142 Szk\u00f3\u0142 Og\u00f3lnokszta\u0142c\u0105cych Nr 1-,,Liceum I Gimnazjum Che\u0142mi\u0144skie\" w Che\u0142mnie",
                "name": "Zesp\u00f3\u0142 Szk\u00f3\u0142 Og\u00f3lnokszta\u0142c\u0105cych Nr 1-,,Liceum I Gimnazjum Che\u0142mi\u0144skie\" w Che\u0142mnie",
                "addr:country": "PL",
                "addr:postcode": "86-200",
                "addr:city": "Che\u0142mno",
                "addr:street": "Dominika\u0144ska",
                "addr:housenumber": "35",
                "addr:teryt:simc": 4102,
                "addr:teryt:sym_ul": 983066,
                "contact:phone": "+48 566860104",
                "contact:email": "1lochelmno@wp.pl",
                "ref:regon": "871559804",
                "operator": "Powiat Che\u0142mi\u0144ski",
                "operator:type": "government",
                "landuse": "education",
                "fixme": "amenity=school, amenity=college albo landuse=education w zale\u017cno\u015bci od tego, jakie plac\u00f3wki wchodz\u0105 w sk\u0142ad zespo\u0142u. Sprawd\u017a, kiedy stosowa\u0107 amenity=* a kiedy landuse=education.",
                "note": "Children RSPO: 5098;23015"
            }
        },
        {
            "id": 12949,
            "type": "Feature",
            "geometry": {
                "type": "Point",
                "coordinates": [
                    18.41905,
                    53.349219999999995
                ]
            },
            "properties": {
                "ref:rspo": 12949,
                "official_name": "Poradnia Psychologiczno-Pedagogiczna Wche\u0142mnie",
                "name": "Poradnia Psychologiczno-Pedagogiczna Wche\u0142mnie",
                "addr:country": "PL",
                "addr:postcode": "86-200",
                "addr:city": "Che\u0142mno",
                "addr:street": "Dominika\u0144ska",
                "addr:housenumber": "35",
                "addr:teryt:simc": 4102,
                "addr:teryt:sym_ul": 983066,
                "contact:phone": "+48 566860052",
                "contact:email": "poradnia@ppp-chelmno.pl",
                "contact:website": "http:\/\/ppp-chelmno.pl",
                "ref:regon": "001082307",
                "operator": "Powiat Che\u0142mi\u0144ski",
                "operator:type": "government",
                "healthcare": "counselling",
                "counselling_type": "education",
                "fixme": "w zale\u017cno\u015bci od przedmiotu dzia\u0142alno\u015bci (np. healthcare=counselling + counselling_type=education albo healthcare=psychotherapist)"
            }
        },
        {
            "id": 5098,
            "type": "Feature",
            "geometry": {
                "type": "Point",
                "coordinates": [
                    18.41905,
                    53.34919
                ]
            },
            "properties": {
                "isced:level": "3",
                "ref:rspo": 5098,
                "official_name": "I Liceum Og\u00f3lnokszta\u0142c\u0105ce im. Miko\u0142aja Kopernika w Che\u0142mnie",
                "name": "I Liceum Og\u00f3lnokszta\u0142c\u0105ce",
                "addr:country": "PL",
                "addr:postcode": "86-200",
                "addr:city": "Che\u0142mno",
                "addr:street": "Dominika\u0144ska",
                "addr:housenumber": "35",
                "addr:teryt:simc": 4102,
                "addr:teryt:sym_ul": 983066,
                "contact:phone": "+48 566860104",
                "contact:email": "1lochelmno@wp.pl",
                "ref:regon": "000228269",
                "operator": "Powiat Che\u0142mi\u0144ski",
                "operator:type": "government",
                "amenity": "school",
                "note": "Parent RSPO: 5100"
            }
        },
        {
            "id": 23015,
            "type": "Feature",
            "geometry": {
                "type": "Point",
                "coordinates": [
                    18.41905,
                    53.34916
                ]
            },
            "properties": {
                "isced:level": "3",
                "ref:rspo": 23015,
                "official_name": "Liceum Og\u00f3lnokszta\u0142c\u0105ce dla Doros\u0142ych w Che\u0142mnie",
                "name": "Liceum Og\u00f3lnokszta\u0142c\u0105ce dla Doros\u0142ych w Che\u0142mnie",
                "addr:country": "PL",
                "addr:postcode": "86-200",
                "addr:city": "Che\u0142mno",
                "addr:street": "Dominika\u0144ska",
                "addr:housenumber": "35",
                "addr:teryt:simc": 4102,
                "addr:teryt:sym_ul": 983066,
                "contact:phone": "+48 566860104",
                "contact:email": "1lochelmno@wp.pl",
                "ref:regon": "341335423",
                "operator": "Powiat Che\u0142mi\u0144ski",
                "operator:type": "government",
                "amenity": "school",
                "note": "Parent RSPO: 5100"
            }
        },
        {
            "id": 23017,
            "type": "Feature",
            "geometry": {
                "type": "Point",
                "coordinates": [
                    18.43352,
                    53.35009
                ]
            },
            "properties": {
                "isced:level": "1;2",
                "ref:rspo": 23017,
                "official_name": "Szko\u0142a Postawowa Specjalna im. Eunice Kennedy Shriver w Che\u0142mnie",
                "name": "Szko\u0142a Postawowa Specjalna",
                "addr:country": "PL",
                "addr:postcode": "86-200",
                "addr:city": "Che\u0142mno",
                "addr:street": "Dworcowa",
                "addr:housenumber": "20",
                "addr:teryt:simc": 4434,
                "addr:teryt:sym_ul": 983066,
                "contact:phone": "+48 566861661",
                "contact:email": "soswchelmno@tlen.pl",
                "ref:regon": "870004040",
                "operator": "Powiat Che\u0142mi\u0144ski",
                "operator:type": "government",
                "amenity": "school",
                "note": "Parent RSPO: 12964"
            }
        },
        {
            "id": 41210,
            "type": "Feature",
            "geometry": {
                "type": "Point",
                "coordinates": [
                    18.43098,
                    53.35085
                ]
            },
            "properties": {
                "ref:rspo": 41210,
                "official_name": "Przedszkole Niepubliczne \"Pinokio\"",
                "name": "Przedszkole Niepubliczne \"Pinokio\"",
                "addr:country": "PL",
                "addr:postcode": "86-200",
                "addr:city": "Che\u0142mno",
                "addr:street": "Dworcowa",
                "addr:housenumber": "13",
                "addr:teryt:simc": 4434,
                "addr:teryt:sym_ul": 983066,
                "contact:phone": "+48 566861714",
                "contact:email": "dyrektor@pinokio-nazwa.pl",
                "contact:website": "http:\/\/www.pinokio-chelmno.pl",
                "ref:regon": "341340861",
                "ref:vatin": "PL8751023968",
                "operator": "Iwona Szmytkowska",
                "operator:type": "private",
                "amenity": "kindergarten"
            }
        },
        {
            "id": 13933,
            "type": "Feature",
            "geometry": {
                "type": "Point",
                "coordinates": [
                    18.43356,
                    53.35103
                ]
            },
            "properties": {
                "ref:rspo": 13933,
                "official_name": "O\u015brodek Doskonalenia Zawodowego ,,Maxpol\" Z Siedzib\u0105 w Che\u0142mnie",
                "name": "O\u015brodek Doskonalenia Zawodowego ,,Maxpol\" Z Siedzib\u0105 w Che\u0142mnie",
                "addr:country": "PL",
                "addr:postcode": "86-200",
                "addr:city": "Che\u0142mno",
                "addr:street": "Tadeusza Ko\u015bciuszki",
                "addr:housenumber": "2",
                "addr:teryt:simc": 9572,
                "addr:teryt:sym_ul": 983066,
                "contact:phone": "+48 566761227",
                "contact:email": "piotr.korzecki@neostrada.pl",
                "contact:website": "http:\/\/szkoleniazawodowe.net",
                "ref:regon": "341327620",
                "operator": "Piotr Korzecki",
                "operator:type": "private",
                "fixme": "w zale\u017cno\u015bci od przedmiotu dzia\u0142alno\u015bci (np. amenity=training + training=*, amenity=dancing_school, amenity=language_school, amenity=music_school)"
            }
        },
        {
            "id": 41217,
            "type": "Feature",
            "geometry": {
                "type": "Point",
                "coordinates": [
                    18.4326,
                    53.35173
                ]
            },
            "properties": {
                "ref:rspo": 41217,
                "official_name": "Przedszkole Niepubliczne \"Brzd\u0105c\"",
                "name": "Przedszkole Niepubliczne \"Brzd\u0105c\"",
                "addr:country": "PL",
                "addr:postcode": "86-200",
                "addr:city": "Che\u0142mno",
                "addr:street": "Tadeusza Ko\u015bciuszki",
                "addr:housenumber": "9",
                "addr:teryt:simc": 9572,
                "addr:teryt:sym_ul": 983066,
                "contact:phone": "+48 566790530",
                "contact:email": "przedszkole@brzdac.com",
                "contact:website": "http:\/\/www.brzdac.com",
                "ref:regon": "341340909",
                "ref:vatin": "PL5871140416",
                "operator": "Dorota Szyma\u0144ska",
                "operator:type": "private",
                "amenity": "kindergarten"
            }
        },
        {
            "id": 12964,
            "type": "Feature",
            "geometry": {
                "type": "Point",
                "coordinates": [
                    18.43516,
                    53.35195
                ]
            },
            "properties": {
                "ref:rspo": 12964,
                "official_name": "Specjalny O\u015brodek Szkolno-Wychowawczy w Che\u0142mnie",
                "name": "Specjalny O\u015brodek Szkolno-Wychowawczy w Che\u0142mnie",
                "addr:country": "PL",
                "addr:postcode": "86-200",
                "addr:city": "Che\u0142mno",
                "addr:street": "Parkowa",
                "addr:housenumber": "5",
                "addr:teryt:simc": 15710,
                "addr:teryt:sym_ul": 983066,
                "contact:phone": "+48 566861670",
                "contact:email": "soswchelmno@tlen.pl",
                "ref:regon": "000198189",
                "operator": "Powiat Che\u0142mi\u0144ski",
                "operator:type": "government",
                "amenity": "school",
                "note": "Children RSPO: 23016;23017;23019;23020"
            }
        },
        {
            "id": 23016,
            "type": "Feature",
            "geometry": {
                "type": "Point",
                "coordinates": [
                    18.43516,
                    53.35192
                ]
            },
            "properties": {
                "ref:rspo": 23016,
                "official_name": "Przedszkole Specjalne Nr 3 w Che\u0142mnie",
                "name": "Przedszkole Specjalne Nr 3 w Che\u0142mnie",
                "addr:country": "PL",
                "addr:postcode": "86-200",
                "addr:city": "Che\u0142mno",
                "addr:street": "Parkowa",
                "addr:housenumber": "5",
                "addr:teryt:simc": 15710,
                "addr:teryt:sym_ul": 983066,
                "contact:phone": "+48 566861670",
                "contact:email": "soswchelmno@tlen.pl",
                "ref:regon": "340491670",
                "operator": "Powiat Che\u0142mi\u0144ski",
                "operator:type": "government",
                "amenity": "kindergarten",
                "note": "Parent RSPO: 12964"
            }
        },
        {
            "id": 23019,
            "type": "Feature",
            "geometry": {
                "type": "Point",
                "coordinates": [
                    18.43516,
                    53.351890000000004
                ]
            },
            "properties": {
                "isced:level": "3",
                "ref:rspo": 23019,
                "official_name": "Bran\u017cowa Szko\u0142a Specjalna I Stopnia w Che\u0142mnie",
                "name": "Bran\u017cowa Szko\u0142a Specjalna I Stopnia w Che\u0142mnie",
                "addr:country": "PL",
                "addr:postcode": "86-200",
                "addr:city": "Che\u0142mno",
                "addr:street": "Parkowa",
                "addr:housenumber": "5",
                "addr:teryt:simc": 15710,
                "addr:teryt:sym_ul": 983066,
                "contact:phone": "+48 566861670",
                "contact:email": "soswchelmno@tlen.pl",
                "ref:regon": "871679767",
                "operator": "Powiat Che\u0142mi\u0144ski",
                "operator:type": "government",
                "amenity": "school",
                "note": "Parent RSPO: 12964"
            }
        },
        {
            "id": 23020,
            "type": "Feature",
            "geometry": {
                "type": "Point",
                "coordinates": [
                    18.43516,
                    53.35186
                ]
            },
            "properties": {
                "ref:rspo": 23020,
                "official_name": "Szkola Specjalna Przysposabiaj\u0105ca Do Pracy w Che\u0142mnie",
                "name": "Szkola Specjalna Przysposabiaj\u0105ca Do Pracy w Che\u0142mnie",
                "addr:country": "PL",
                "addr:postcode": "86-200",
                "addr:city": "Che\u0142mno",
                "addr:street": "Parkowa",
                "addr:housenumber": "5",
                "addr:teryt:simc": 15710,
                "addr:teryt:sym_ul": 983066,
                "contact:phone": "+48 566861670",
                "contact:email": "soswchelmno@tlen.pl",
                "ref:regon": "340059240",
                "operator": "Powiat Che\u0142mi\u0144ski",
                "operator:type": "government",
                "amenity": "school",
                "note": "Parent RSPO: 12964"
            }
        },
        {
            "id": 41213,
            "type": "Feature",
            "geometry": {
                "type": "Point",
                "coordinates": [
                    18.4320099,
                    53.35207
                ]
            },
            "properties": {
                "isced:level": "1;2",
                "ref:rspo": 41213,
                "official_name": "Szko\u0142a Podstawowa Nr 1 im. Filomat\u00f3w Pomorskich",
                "name": "Szko\u0142a Podstawowa Nr 1",
                "addr:country": "PL",
                "addr:postcode": "86-200",
                "addr:city": "Che\u0142mno",
                "addr:street": "Tadeusza Ko\u015bciuszki",
                "addr:housenumber": "11",
                "addr:teryt:simc": 9572,
                "addr:teryt:sym_ul": 983066,
                "contact:phone": "+48 566760524",
                "contact:email": "sp1chelmno@wp.pl",
                "contact:website": "http:\/\/www.sp1chelmno.pl",
                "ref:regon": "001076198",
                "ref:vatin": "PL8751184430",
                "operator": "Miasto Che\u0142mno",
                "operator:type": "government",
                "amenity": "school"
            }
        }
    ]
}