{
    "type": "FeatureCollection",
    "features": [
        {
            "id": 127678,
            "type": "Feature",
            "geometry": {
                "type": "Point",
                "coordinates": [
                    18.4716099,
                    53.22251
                ]
            },
            "properties": {
                "ref:rspo": 127678,
                "official_name": "Maja I Gucio Trzebcz Szlachecki",
                "name": "Maja I Gucio Trzebcz Szlachecki",
                "addr:country": "PL",
                "addr:postcode": "86-253",
                "addr:place": "Trzebcz Szlachecki",
                "addr:housenumber": "18",
                "addr:teryt:sym_ul": 845045,
                "contact:phone": "+48 566867265",
                "contact:email": "stw-edu@o2.pl",
                "ref:regon": "361904408",
                "operator": "Artur Wojciechowski",
                "operator:type": "private",
                "amenity": "kindergarten"
            }
        },
        {
            "id": 127680,
            "type": "Feature",
            "geometry": {
                "type": "Point",
                "coordinates": [
                    18.4716099,
                    53.22248
                ]
            },
            "properties": {
                "isced:level": "1;2",
                "ref:rspo": 127680,
                "official_name": "Szko\u0142a Podstawowa im. Jana Slaskiego",
                "name": "Szko\u0142a Podstawowa",
                "addr:country": "PL",
                "addr:postcode": "86-253",
                "addr:place": "Trzebcz Szlachecki",
                "addr:housenumber": "18",
                "addr:teryt:sym_ul": 845045,
                "contact:phone": "+48 566867265",
                "contact:email": "stw-edu@o2.pl",
                "ref:regon": "361904526",
                "operator": "Artur Wojciechowski",
                "operator:type": "private",
                "amenity": "school"
            }
        },
        {
            "id": 122564,
            "type": "Feature",
            "geometry": {
                "type": "Point",
                "coordinates": [
                    18.45698,
                    53.24338
                ]
            },
            "properties": {
                "isced:level": "1;2",
                "ref:rspo": 122564,
                "official_name": "Szko\u0142a Podstawowa w Trzebczyku",
                "name": "Szko\u0142a Podstawowa w Trzebczyku",
                "addr:country": "PL",
                "addr:postcode": "86-253",
                "addr:place": "Trzebczyk",
                "addr:housenumber": "2",
                "addr:teryt:sym_ul": 845080,
                "contact:phone": "+48 566867253",
                "contact:email": "sptrzebczyk@kijewo.pl",
                "contact:website": "http:\/\/sptrzebczyk.edupage.org",
                "ref:regon": "001212260",
                "ref:vatin": "PL8751427364",
                "operator": "Gmina Kijewo Kr\u00f3lewskie",
                "operator:type": "government",
                "amenity": "school"
            }
        },
        {
            "id": 122674,
            "type": "Feature",
            "geometry": {
                "type": "Point",
                "coordinates": [
                    18.43949,
                    53.27332
                ]
            },
            "properties": {
                "isced:level": "1;2",
                "ref:rspo": 122674,
                "official_name": "Szko\u0142a Podstawowa w Kijewie Kr\u00f3lewskim",
                "name": "Szko\u0142a Podstawowa w Kijewie Kr\u00f3lewskim",
                "addr:country": "PL",
                "addr:postcode": "86-253",
                "addr:city": "Kijewo Kr\u00f3lewskie",
                "addr:street": "\u015awi\u0119tego Wawrzy\u0144ca",
                "addr:housenumber": "6",
                "addr:teryt:simc": 23768,
                "addr:teryt:sym_ul": 844940,
                "contact:phone": "+48 566867001",
                "contact:email": "spkijewokrol@kijewo.pl",
                "contact:website": "http:\/\/zpskijewo.edupage.org",
                "ref:regon": "000598285",
                "ref:vatin": "PL8751446551",
                "operator": "Gmina Kijewo Kr\u00f3lewskie",
                "operator:type": "government",
                "amenity": "school"
            }
        },
        {
            "id": 122560,
            "type": "Feature",
            "geometry": {
                "type": "Point",
                "coordinates": [
                    18.43748,
                    53.31645
                ]
            },
            "properties": {
                "isced:level": "1;2",
                "ref:rspo": 122560,
                "official_name": "Szko\u0142a Podstawowa w Brzozowie",
                "name": "Szko\u0142a Podstawowa w Brzozowie",
                "addr:country": "PL",
                "addr:postcode": "86-200",
                "addr:city": "Brzozowo",
                "addr:street": "Miodowa",
                "addr:housenumber": "2",
                "addr:teryt:simc": 12991,
                "addr:teryt:sym_ul": 844910,
                "contact:phone": "+48 566867640",
                "contact:email": "spbrzozowo@op.pl",
                "contact:website": "http:\/\/www.brzozowo.pl",
                "ref:regon": "001212276",
                "ref:vatin": "PL8751427393",
                "operator": "Gmina Kijewo Kr\u00f3lewskie",
                "operator:type": "government",
                "amenity": "school"
            }
        }
    ]
}