{
    "type": "FeatureCollection",
    "features": [
        {
            "id": 278187,
            "type": "Feature",
            "geometry": {
                "type": "Point",
                "coordinates": [
                    18.3800351,
                    53.565453
                ]
            },
            "properties": {
                "isced:level": "1;2",
                "ref:rspo": 278187,
                "official_name": "Szko\u0142a Filialna w Brzezinach",
                "name": "Szko\u0142a Filialna w Brzezinach",
                "addr:country": "PL",
                "addr:postcode": "86-150",
                "addr:place": "Brzeziny",
                "addr:housenumber": "40a",
                "addr:teryt:sym_ul": 93071,
                "contact:phone": "+48 523329505",
                "contact:email": "sp@sposie.pl",
                "ref:regon": "272282000",
                "operator": "Gmina Osie",
                "operator:type": "government",
                "amenity": "school",
                "note": "Parent RSPO: 67770"
            }
        },
        {
            "id": 67770,
            "type": "Feature",
            "geometry": {
                "type": "Point",
                "coordinates": [
                    18.34318,
                    53.5993
                ]
            },
            "properties": {
                "isced:level": "1;2",
                "ref:rspo": 67770,
                "official_name": "Szko\u0142a Podstawowa w Osiu",
                "name": "Szko\u0142a Podstawowa w Osiu",
                "addr:country": "PL",
                "addr:postcode": "86-150",
                "addr:city": "Osie",
                "addr:street": "ul. Szkolna",
                "addr:housenumber": "8",
                "addr:teryt:simc": 21970,
                "addr:teryt:sym_ul": 93208,
                "contact:phone": "+48 523329505",
                "contact:email": "sp@sposie.pl",
                "ref:regon": "000272282",
                "ref:vatin": "PL5591785081",
                "operator": "Gmina Osie",
                "operator:type": "government",
                "amenity": "school",
                "note": "Children RSPO: 278187"
            }
        },
        {
            "id": 277098,
            "type": "Feature",
            "geometry": {
                "type": "Point",
                "coordinates": [
                    18.34318,
                    53.59927
                ]
            },
            "properties": {
                "ref:rspo": 277098,
                "official_name": "Niepubliczna Plac\u00f3wka Kszta\u0142cenia Ustawicznego Wdeckiego Wopr w Tleniu",
                "name": "Niepubliczna Plac\u00f3wka Kszta\u0142cenia Ustawicznego Wdeckiego Wopr w Tleniu",
                "addr:country": "PL",
                "addr:postcode": "86-150",
                "addr:city": "Osie",
                "addr:street": "ul. Szkolna",
                "addr:housenumber": "8",
                "addr:teryt:simc": 21970,
                "addr:teryt:sym_ul": 93208,
                "ref:regon": "388156431",
                "ref:vatin": "PL5591998291",
                "operator": "Wdeckie Wodne Ochotnicze Pogotowie Ratunkowe",
                "operator:type": "ngo",
                "fixme": "w zale\u017cno\u015bci od przedmiotu dzia\u0142alno\u015bci (np. amenity=training + training=*, amenity=dancing_school, amenity=language_school, amenity=music_school)"
            }
        },
        {
            "id": 70021,
            "type": "Feature",
            "geometry": {
                "type": "Point",
                "coordinates": [
                    18.2476058,
                    53.6037849
                ]
            },
            "properties": {
                "isced:level": "1;2",
                "ref:rspo": 70021,
                "official_name": "Szko\u0142a Podstawowa Wierzchy",
                "name": "Szko\u0142a Podstawowa Wierzchy",
                "addr:country": "PL",
                "addr:postcode": "86-150",
                "addr:place": "Wierzchy",
                "addr:housenumber": "21",
                "addr:teryt:sym_ul": 93438,
                "contact:phone": "+48 523339818",
                "contact:email": "szkolawierzchy@wp.pl",
                "ref:regon": "001158230",
                "ref:vatin": "PL5591785164",
                "operator": "Gmina Osie",
                "operator:type": "government",
                "amenity": "school",
                "note": "Children RSPO: 75078"
            }
        },
        {
            "id": 75078,
            "type": "Feature",
            "geometry": {
                "type": "Point",
                "coordinates": [
                    18.2255499,
                    53.63917
                ]
            },
            "properties": {
                "isced:level": "1;2",
                "ref:rspo": 75078,
                "official_name": "Szko\u0142a Filialna w \u0141\u0105\u017cku",
                "name": "Szko\u0142a Filialna w \u0141\u0105\u017cku",
                "addr:country": "PL",
                "addr:postcode": "86-150",
                "addr:city": "\u0141\u0105\u017cek",
                "addr:street": "ul. Szkolna",
                "addr:housenumber": "6",
                "addr:teryt:simc": 21970,
                "addr:teryt:sym_ul": 93160,
                "contact:phone": "+48 523339919",
                "ref:regon": "115823000",
                "ref:vatin": "PL5591785164",
                "operator": "Gmina Osie",
                "operator:type": "government",
                "amenity": "school",
                "note": "Parent RSPO: 70021"
            }
        },
        {
            "id": 38695,
            "type": "Feature",
            "geometry": {
                "type": "Point",
                "coordinates": [
                    18.21588,
                    53.64596
                ]
            },
            "properties": {
                "ref:rspo": 38695,
                "official_name": "Przedszkole Publiczne w Osiu",
                "name": "Przedszkole Publiczne w Osiu",
                "addr:country": "PL",
                "addr:postcode": "86-150",
                "addr:city": "Osie",
                "addr:street": "ul. Dworcowa",
                "addr:housenumber": "4",
                "addr:teryt:simc": 4434,
                "addr:teryt:sym_ul": 93208,
                "contact:phone": "+48 523329596",
                "contact:email": "przedszkoleosie@gmail.com",
                "ref:regon": "340854078",
                "ref:vatin": "PL5591100485",
                "operator": "Gmina Osie",
                "operator:type": "government",
                "amenity": "kindergarten"
            }
        }
    ]
}