{
    "type": "FeatureCollection",
    "features": [
        {
            "id": 12265,
            "type": "Feature",
            "geometry": {
                "type": "Point",
                "coordinates": [
                    18.29406,
                    53.33737
                ]
            },
            "properties": {
                "isced:level": "1;2",
                "ref:rspo": 12265,
                "official_name": "Szko\u0142a Podstawowa Nr 1 im. Wojska Polskiego",
                "name": "Szko\u0142a Podstawowa Nr 1",
                "addr:country": "PL",
                "addr:postcode": "86-100",
                "addr:city": "\u015awiecie",
                "addr:street": "Henryka Sienkiewicza",
                "addr:housenumber": "3",
                "addr:teryt:simc": 19830,
                "addr:teryt:sym_ul": 929664,
                "contact:phone": "+48 523311441",
                "contact:email": "alma7@o2.pl",
                "ref:regon": "090427932",
                "ref:vatin": "PL5591806417",
                "operator": "Gmina \u015awiecie",
                "operator:type": "government",
                "amenity": "school"
            }
        },
        {
            "id": 12466,
            "type": "Feature",
            "geometry": {
                "type": "Point",
                "coordinates": [
                    18.31016,
                    53.34717
                ]
            },
            "properties": {
                "ref:rspo": 12466,
                "official_name": "Przedszkole Nr 3",
                "name": "Przedszkole Nr 3",
                "addr:country": "PL",
                "addr:postcode": "86-100",
                "addr:city": "\u015awiecie",
                "addr:street": "Wojska Polskiego",
                "addr:housenumber": "16",
                "addr:teryt:simc": 24628,
                "addr:teryt:sym_ul": 929664,
                "contact:phone": "+48 523312034",
                "contact:email": "przedszkole3@vp.pl",
                "contact:website": "http:\/\/www.podlabedziem.pl",
                "ref:regon": "341330331",
                "ref:vatin": "PL5591806564",
                "operator": "Gmina \u015awiecie",
                "operator:type": "government",
                "amenity": "kindergarten"
            }
        },
        {
            "id": 6848,
            "type": "Feature",
            "geometry": {
                "type": "Point",
                "coordinates": [
                    18.31419,
                    53.34778
                ]
            },
            "properties": {
                "isced:level": "1;2",
                "ref:rspo": 6848,
                "official_name": "Szko\u0142a Podstawowa im. Jana Paw\u0142a Ii",
                "name": "Szko\u0142a Podstawowa",
                "addr:country": "PL",
                "addr:postcode": "86-111",
                "addr:city": "Gruczno",
                "addr:street": "Che\u0142mi\u0144ska",
                "addr:housenumber": "5",
                "addr:teryt:simc": 2700,
                "addr:teryt:sym_ul": 97784,
                "contact:phone": "+48 523319367",
                "contact:email": "mguziewicz@wp.pl",
                "contact:website": "http:\/\/spgruczno.szkolnastrona.pl",
                "ref:regon": "092557283",
                "ref:vatin": "PL5591806469",
                "operator": "Gmina \u015awiecie",
                "operator:type": "government",
                "amenity": "school"
            }
        },
        {
            "id": 11913,
            "type": "Feature",
            "geometry": {
                "type": "Point",
                "coordinates": [
                    18.3121,
                    53.34903
                ]
            },
            "properties": {
                "isced:level": "1;2",
                "ref:rspo": 11913,
                "official_name": "Szko\u0142a Podstawowa Nr 5 im. Polskich Olimpijczyk\u00f3w",
                "name": "Szko\u0142a Podstawowa Nr 5",
                "addr:country": "PL",
                "addr:postcode": "86-105",
                "addr:city": "\u015awiecie",
                "addr:street": "Wojska Polskiego",
                "addr:housenumber": "3",
                "addr:teryt:simc": 24628,
                "addr:teryt:sym_ul": 929664,
                "contact:phone": "+48 523312944",
                "contact:email": "sekretariat@online-sp5-swiecie.pl",
                "contact:website": "http:\/\/sp5-swiecie.pl",
                "ref:regon": "090427949",
                "ref:vatin": "PL5591806446",
                "operator": "Gmina \u015awiecie",
                "operator:type": "government",
                "amenity": "school"
            }
        },
        {
            "id": 262592,
            "type": "Feature",
            "geometry": {
                "type": "Point",
                "coordinates": [
                    18.31335,
                    53.34948
                ]
            },
            "properties": {
                "isced:level": "1;2",
                "ref:rspo": 262592,
                "official_name": "Szko\u0142a Podstawowa Nr 3 Im Miko\u0142aja Kopernika w \u015awieciu",
                "name": "Szko\u0142a Podstawowa Nr 3 Im Miko\u0142aja Kopernika w \u015awieciu",
                "addr:country": "PL",
                "addr:postcode": "86-100",
                "addr:city": "\u015awiecie",
                "addr:street": "Ogrodowa",
                "addr:housenumber": "1c",
                "addr:teryt:simc": 14834,
                "addr:teryt:sym_ul": 929664,
                "contact:phone": "+48 523311527",
                "contact:email": "wkswgimn@wp.pl",
                "ref:regon": "368041608",
                "operator": "Gmina \u015awiecie",
                "operator:type": "government",
                "amenity": "school"
            }
        },
        {
            "id": 9584,
            "type": "Feature",
            "geometry": {
                "type": "Point",
                "coordinates": [
                    18.32104,
                    53.34957
                ]
            },
            "properties": {
                "ref:rspo": 9584,
                "official_name": "Zesp\u00f3\u0142 Szk\u00f3\u0142 Ponadpodstawowych w \u015awieciu",
                "name": "Zesp\u00f3\u0142 Szk\u00f3\u0142 Ponadpodstawowych w \u015awieciu",
                "addr:country": "PL",
                "addr:postcode": "86-100",
                "addr:city": "\u015awiecie",
                "addr:street": "Tadeusza Ko\u015bciuszki",
                "addr:housenumber": "6",
                "addr:teryt:simc": 9572,
                "addr:teryt:sym_ul": 929664,
                "contact:phone": "+48 523312438",
                "contact:email": "zsp_swiecie@go2.pl",
                "contact:website": "http:\/\/www.zspswiecie.pl",
                "ref:regon": "000191780",
                "ref:vatin": "PL5591424905",
                "operator": "Powiat \u015awiecki",
                "operator:type": "government",
                "landuse": "education",
                "fixme": "amenity=school, amenity=college albo landuse=education w zale\u017cno\u015bci od tego, jakie plac\u00f3wki wchodz\u0105 w sk\u0142ad zespo\u0142u. Sprawd\u017a, kiedy stosowa\u0107 amenity=* a kiedy landuse=education.",
                "note": "Children RSPO: 44533;44535;44536;44539;130708"
            }
        },
        {
            "id": 12867,
            "type": "Feature",
            "geometry": {
                "type": "Point",
                "coordinates": [
                    18.3127,
                    53.34983
                ]
            },
            "properties": {
                "ref:rspo": 12867,
                "official_name": "Przedszkole Nr 11",
                "name": "Przedszkole Nr 11",
                "addr:country": "PL",
                "addr:postcode": "86-111",
                "addr:city": "Gruczno",
                "addr:street": "Wojska Polskiego",
                "addr:housenumber": "4",
                "addr:teryt:simc": 24628,
                "addr:teryt:sym_ul": 97784,
                "contact:phone": "+48 523319314",
                "contact:email": "p11gruczno@onet.eu",
                "ref:regon": "341330220",
                "ref:vatin": "PL5591806601",
                "operator": "Gmina \u015awiecie",
                "operator:type": "government",
                "amenity": "kindergarten"
            }
        },
        {
            "id": 12392,
            "type": "Feature",
            "geometry": {
                "type": "Point",
                "coordinates": [
                    18.45232,
                    53.40551
                ]
            },
            "properties": {
                "ref:rspo": 12392,
                "official_name": "Przedszkole Nr 1",
                "name": "Przedszkole Nr 1",
                "addr:country": "PL",
                "addr:postcode": "86-100",
                "addr:city": "\u015awiecie",
                "addr:street": "S\u0105dowa",
                "addr:housenumber": "6",
                "addr:teryt:simc": 19581,
                "addr:teryt:sym_ul": 929664,
                "contact:phone": "+48 607296320",
                "contact:email": "naszedzieci@wp.pl",
                "contact:website": "http:\/\/www.dziecijedynki.pl",
                "ref:regon": "341330325",
                "ref:vatin": "PL5591806558",
                "operator": "Gmina \u015awiecie",
                "operator:type": "government",
                "amenity": "kindergarten"
            }
        },
        {
            "id": 13295,
            "type": "Feature",
            "geometry": {
                "type": "Point",
                "coordinates": [
                    18.45116,
                    53.40616
                ]
            },
            "properties": {
                "isced:level": "1;2",
                "ref:rspo": 13295,
                "official_name": "Szko\u0142a Podstawowa Nr 7 im. A. Mickiewicza",
                "name": "Szko\u0142a Podstawowa Nr 7",
                "addr:country": "PL",
                "addr:postcode": "86-100",
                "addr:city": "\u015awiecie",
                "addr:street": "Adama Mickiewicza",
                "addr:housenumber": "6",
                "addr:teryt:simc": 12734,
                "addr:teryt:sym_ul": 929664,
                "contact:phone": "+48 523311570",
                "contact:email": "eniu@go2.pl",
                "contact:website": "http:\/\/www.szkola-swiecie.edupage.org",
                "ref:regon": "090427961",
                "ref:vatin": "PL5591806423",
                "operator": "Gmina \u015awiecie",
                "operator:type": "government",
                "amenity": "school"
            }
        },
        {
            "id": 12627,
            "type": "Feature",
            "geometry": {
                "type": "Point",
                "coordinates": [
                    18.42434,
                    53.40655
                ]
            },
            "properties": {
                "ref:rspo": 12627,
                "official_name": "Przedszkole Nr 7",
                "name": "Przedszkole Nr 7",
                "addr:country": "PL",
                "addr:postcode": "86-105",
                "addr:city": "\u015awiecie",
                "addr:street": "Ignacego Paderewskiego",
                "addr:housenumber": "4",
                "addr:teryt:simc": 15524,
                "addr:teryt:sym_ul": 929664,
                "contact:phone": "+48 523314498",
                "contact:email": "przedszkole7puchatek@gmail.com",
                "contact:website": "http:\/\/www.przedszkolenr7.pl",
                "ref:regon": "341330265",
                "ref:vatin": "PL5591806593",
                "operator": "Gmina \u015awiecie",
                "operator:type": "government",
                "amenity": "kindergarten"
            }
        },
        {
            "id": 12610,
            "type": "Feature",
            "geometry": {
                "type": "Point",
                "coordinates": [
                    18.4248,
                    53.40659
                ]
            },
            "properties": {
                "ref:rspo": 12610,
                "official_name": "Przedszkole Nr 6",
                "name": "Przedszkole Nr 6",
                "addr:country": "PL",
                "addr:postcode": "86-105",
                "addr:city": "\u015awiecie",
                "addr:street": "Ignacego Paderewskiego",
                "addr:housenumber": "2",
                "addr:teryt:simc": 15524,
                "addr:teryt:sym_ul": 929664,
                "contact:phone": "+48 607296349",
                "contact:email": "bajkowawrozka6@wp.pl",
                "contact:website": "http:\/\/www.bajka6.edupage.org",
                "ref:regon": "341330302",
                "ref:vatin": "PL5591806587",
                "operator": "Gmina \u015awiecie",
                "operator:type": "government",
                "amenity": "kindergarten"
            }
        },
        {
            "id": 105087,
            "type": "Feature",
            "geometry": {
                "type": "Point",
                "coordinates": [
                    18.45352,
                    53.40663
                ]
            },
            "properties": {
                "ref:rspo": 105087,
                "official_name": "Zak\u0142ad Poprawczy w \u015awieciu",
                "name": "Zak\u0142ad Poprawczy w \u015awieciu",
                "addr:country": "PL",
                "addr:postcode": "86-100",
                "addr:city": "\u015awiecie",
                "addr:street": "S\u0105dowa",
                "addr:housenumber": "12",
                "addr:teryt:simc": 19581,
                "addr:teryt:sym_ul": 929664,
                "contact:phone": "+48 523311327",
                "contact:email": "sio@swiecie.zp.gov.pl",
                "contact:website": "http:\/\/bip240.lo.pl",
                "ref:regon": "000321738",
                "operator": "Ministerstwo Sprawiedliwo\u015bci",
                "operator:type": "public",
                "note": "Children RSPO: 125680;125682"
            }
        },
        {
            "id": 125680,
            "type": "Feature",
            "geometry": {
                "type": "Point",
                "coordinates": [
                    18.45352,
                    53.4066
                ]
            },
            "properties": {
                "isced:level": "1;2",
                "ref:rspo": 125680,
                "official_name": "Szko\u0142a Podstawowa Z Oddzia\u0142ami Integracyjnymi w Zak\u0142adzie Poprawczym w \u015awieciu",
                "name": "Szko\u0142a Podstawowa Z Oddzia\u0142ami Integracyjnymi w Zak\u0142adzie Poprawczym w \u015awieciu",
                "addr:country": "PL",
                "addr:postcode": "86-100",
                "addr:city": "\u015awiecie",
                "addr:street": "S\u0105dowa",
                "addr:housenumber": "12",
                "addr:teryt:simc": 19581,
                "addr:teryt:sym_ul": 929664,
                "contact:phone": "+48 523311327",
                "contact:email": "sekretariat@swiecie.zp.gov.pl",
                "ref:regon": "341635680",
                "operator": "Ministerstwo Sprawiedliwo\u015bci",
                "operator:type": "public",
                "amenity": "school",
                "note": "Parent RSPO: 105087"
            }
        },
        {
            "id": 125682,
            "type": "Feature",
            "geometry": {
                "type": "Point",
                "coordinates": [
                    18.45352,
                    53.40657
                ]
            },
            "properties": {
                "isced:level": "3",
                "ref:rspo": 125682,
                "official_name": "Bran\u017cowa Szko\u0142a I St. Nr 3 Z Oddzia\u0142ami Integracyjnymi w Zak\u0142adzie Poprawczym w \u015awieciu",
                "name": "Bran\u017cowa Szko\u0142a I St. Nr 3 Z Oddzia\u0142ami Integracyjnymi w Zak\u0142adzie Poprawczym w \u015awieciu",
                "addr:country": "PL",
                "addr:postcode": "86-100",
                "addr:city": "\u015awiecie",
                "addr:street": "S\u0105dowa",
                "addr:housenumber": "12",
                "addr:teryt:simc": 19581,
                "addr:teryt:sym_ul": 929664,
                "contact:phone": "+48 523311327",
                "contact:email": "sekretariat@swiecie.zp.gov.pl",
                "ref:regon": "341635705",
                "operator": "Ministerstwo Sprawiedliwo\u015bci",
                "operator:type": "public",
                "amenity": "school",
                "note": "Parent RSPO: 105087"
            }
        },
        {
            "id": 5728,
            "type": "Feature",
            "geometry": {
                "type": "Point",
                "coordinates": [
                    18.45327,
                    53.40669
                ]
            },
            "properties": {
                "isced:level": "3",
                "ref:rspo": 5728,
                "official_name": "Katolickie Liceum Og\u00f3lnokszta\u0142c\u0105ce im. Ks. Dr Bernarda Sychty",
                "name": "Katolickie Liceum Og\u00f3lnokszta\u0142c\u0105ce",
                "addr:country": "PL",
                "addr:postcode": "86-100",
                "addr:city": "\u015awiecie",
                "addr:street": "S\u0105dowa",
                "addr:housenumber": "20",
                "addr:teryt:simc": 19581,
                "addr:teryt:sym_ul": 929664,
                "contact:phone": "+48 523310032",
                "contact:email": "sekretariat@katolik-swiecie.pl",
                "contact:website": "http:\/\/www.katolik-swiecie.pl",
                "ref:regon": "341320597",
                "ref:vatin": "PL5591686829",
                "operator": "Diecezja Pelpli\u0144ska",
                "operator:type": "religious",
                "amenity": "school"
            }
        },
        {
            "id": 22424,
            "type": "Feature",
            "geometry": {
                "type": "Point",
                "coordinates": [
                    18.45327,
                    53.406659999999995
                ]
            },
            "properties": {
                "isced:level": "1;2",
                "ref:rspo": 22424,
                "official_name": "Katolicka Szko\u0142a Podstawowa im. Ks. Dra Bernarda Sychty",
                "name": "Katolicka Szko\u0142a Podstawowa",
                "addr:country": "PL",
                "addr:postcode": "86-100",
                "addr:city": "\u015awiecie",
                "addr:street": "S\u0105dowa",
                "addr:housenumber": "20",
                "addr:teryt:simc": 19581,
                "addr:teryt:sym_ul": 929664,
                "contact:phone": "+48 523310032",
                "contact:email": "sekretariat@katolik-swiecie.pl",
                "contact:website": "http:\/\/www.katolik-swiecie.pl",
                "ref:regon": "341335558",
                "ref:vatin": "PL5592040147",
                "operator": "Diecezja Pelpli\u0144ska",
                "operator:type": "religious",
                "amenity": "school"
            }
        },
        {
            "id": 123420,
            "type": "Feature",
            "geometry": {
                "type": "Point",
                "coordinates": [
                    18.45327,
                    53.40663
                ]
            },
            "properties": {
                "ref:rspo": 123420,
                "official_name": "Katolickie Przedszkole Anio\u0142owo",
                "name": "Katolickie Przedszkole Anio\u0142owo",
                "addr:country": "PL",
                "addr:postcode": "86-100",
                "addr:city": "\u015awiecie",
                "addr:street": "S\u0105dowa",
                "addr:housenumber": "20",
                "addr:teryt:simc": 19581,
                "addr:teryt:sym_ul": 929664,
                "contact:phone": "+48 523310032",
                "contact:email": "sekretariat@katolik-swiecie.pl",
                "contact:website": "http:\/\/www.katolik-swiecie.pl",
                "ref:regon": "341594410",
                "operator": "Diecezja Pelpli\u0144ska",
                "operator:type": "religious",
                "amenity": "kindergarten"
            }
        },
        {
            "id": 9610,
            "type": "Feature",
            "geometry": {
                "type": "Point",
                "coordinates": [
                    18.42312,
                    53.40717
                ]
            },
            "properties": {
                "ref:rspo": 9610,
                "official_name": "Zesp\u00f3\u0142 Szk\u00f3\u0142 Specjalnych Nr 1",
                "name": "Zesp\u00f3\u0142 Szk\u00f3\u0142 Specjalnych Nr 1",
                "addr:country": "PL",
                "addr:postcode": "86-105",
                "addr:city": "\u015awiecie",
                "addr:street": "Ignacego Paderewskiego",
                "addr:housenumber": "5a",
                "addr:teryt:simc": 15524,
                "addr:teryt:sym_ul": 929664,
                "contact:phone": "+48 523330086",
                "contact:email": "sekretariat_zssnr1@poczta.onet.pl",
                "contact:website": "http:\/\/www.zssn1.pl",
                "ref:regon": "092530597",
                "ref:vatin": "PL5591785052",
                "operator": "Powiat \u015awiecki",
                "operator:type": "government",
                "landuse": "education",
                "fixme": "amenity=school, amenity=college albo landuse=education w zale\u017cno\u015bci od tego, jakie plac\u00f3wki wchodz\u0105 w sk\u0142ad zespo\u0142u. Sprawd\u017a, kiedy stosowa\u0107 amenity=* a kiedy landuse=education.",
                "note": "Children RSPO: 53809;53812;53813;53814"
            }
        },
        {
            "id": 53809,
            "type": "Feature",
            "geometry": {
                "type": "Point",
                "coordinates": [
                    18.42312,
                    53.40714
                ]
            },
            "properties": {
                "isced:level": "1;2",
                "ref:rspo": 53809,
                "official_name": "Szko\u0142a Podstawowa Specjalna Nr 6 im. Jana Paw\u0142a II w \u015awieciu w Zespole Szk\u00f3\u0142 Specjalnych Nr 1",
                "name": "Szko\u0142a Podstawowa Specjalna Nr 6",
                "addr:country": "PL",
                "addr:postcode": "86-105",
                "addr:city": "\u015awiecie",
                "addr:street": "Ignacego Paderewskiego",
                "addr:housenumber": "5a",
                "addr:teryt:simc": 15524,
                "addr:teryt:sym_ul": 929664,
                "contact:phone": "+48 523330086",
                "contact:email": "sekretariat_zssnr1@poczta.onet.pl",
                "contact:website": "http:\/\/www.zssn1.pl",
                "ref:regon": "092530686",
                "ref:vatin": "PL5591785052",
                "operator": "Powiat \u015awiecki",
                "operator:type": "government",
                "amenity": "school",
                "note": "Parent RSPO: 9610"
            }
        },
        {
            "id": 53812,
            "type": "Feature",
            "geometry": {
                "type": "Point",
                "coordinates": [
                    18.42312,
                    53.40711
                ]
            },
            "properties": {
                "isced:level": "3",
                "ref:rspo": 53812,
                "official_name": "Specjalna Bran\u017cowa Szko\u0142a I Stopnia Nr 2 im. Jana Paw\u0142a II w \u015awieciu w Zespole Szk\u00f3\u0142 Specjalnych Nr 1",
                "name": "Specjalna Bran\u017cowa Szko\u0142a I Stopnia Nr 2",
                "addr:country": "PL",
                "addr:postcode": "86-105",
                "addr:city": "\u015awiecie",
                "addr:street": "Ignacego Paderewskiego",
                "addr:housenumber": "5a",
                "addr:teryt:simc": 15524,
                "addr:teryt:sym_ul": 929664,
                "contact:phone": "+48 523330086",
                "contact:email": "sekretariat_zssnr1@poczta.onet.pl",
                "contact:website": "http:\/\/www.zssn1.bitdom.com",
                "ref:regon": "092530657",
                "ref:vatin": "PL5591785052",
                "operator": "Powiat \u015awiecki",
                "operator:type": "government",
                "amenity": "school",
                "note": "Parent RSPO: 9610"
            }
        },
        {
            "id": 53813,
            "type": "Feature",
            "geometry": {
                "type": "Point",
                "coordinates": [
                    18.42312,
                    53.40708
                ]
            },
            "properties": {
                "ref:rspo": 53813,
                "official_name": "Szko\u0142a Specjalna Przysposabiaj\u0105ca Do Pracy Nr 1 im. Jana Paw\u0142a II w \u015awieciu w Zespole Szk\u00f3\u0142 Specjalnych Nr 1",
                "name": "Szko\u0142a Specjalna Przysposabiaj\u0105ca Do Pracy Nr 1",
                "addr:country": "PL",
                "addr:postcode": "86-105",
                "addr:city": "\u015awiecie",
                "addr:street": "Ignacego Paderewskiego",
                "addr:housenumber": "5A",
                "addr:teryt:simc": 15524,
                "addr:teryt:sym_ul": 929664,
                "contact:phone": "+48 523330086",
                "contact:email": "sekretariat_zssnr1@poczta.onet.pl",
                "contact:website": "http:\/\/www.zssn1.bitdom.com",
                "ref:regon": "340063655",
                "ref:vatin": "PL5591785052",
                "operator": "Powiat \u015awiecki",
                "operator:type": "government",
                "amenity": "school",
                "note": "Parent RSPO: 9610"
            }
        },
        {
            "id": 53814,
            "type": "Feature",
            "geometry": {
                "type": "Point",
                "coordinates": [
                    18.42312,
                    53.40705
                ]
            },
            "properties": {
                "ref:rspo": 53814,
                "official_name": "Przedszkole Specjalne Nr 10 S\u0142oneczna Polana dla Dzieci Z Niepe\u0142nosprawno\u015bci\u0105 Intelektualn\u0105, Ze Sprz\u0119\u017ceniami I Z Autyzmem w \u015awieciu Zesp\u00f3\u0142 Szk\u00f3\u0142 Specjalnych Nr 1 w \u015awieciu",
                "name": "Przedszkole Specjalne Nr 10 S\u0142oneczna Polana dla Dzieci Z Niepe\u0142nosprawno\u015bci\u0105 Intelektualn\u0105, Ze Sprz\u0119\u017ceniami I Z Autyzmem w \u015awieciu Zesp\u00f3\u0142 Szk\u00f3\u0142 Specjalnych Nr 1 w \u015awieciu",
                "addr:country": "PL",
                "addr:postcode": "86-105",
                "addr:city": "\u015awiecie",
                "addr:street": "Ignacego Paderewskiego",
                "addr:housenumber": "5a",
                "addr:teryt:simc": 15524,
                "addr:teryt:sym_ul": 929664,
                "contact:phone": "+48 523330086",
                "contact:email": "sekretariat_zssnr1@poczta.onet.pl",
                "contact:website": "http:\/\/www.zssn1.bitdom.com",
                "ref:regon": "340491351",
                "ref:vatin": "PL5591785052",
                "operator": "Powiat \u015awiecki",
                "operator:type": "government",
                "amenity": "kindergarten",
                "note": "Parent RSPO: 9610"
            }
        },
        {
            "id": 59685,
            "type": "Feature",
            "geometry": {
                "type": "Point",
                "coordinates": [
                    18.41893,
                    53.4073
                ]
            },
            "properties": {
                "ref:rspo": 59685,
                "official_name": "O\u015brodek Doskonalenia Nauczycieli Elim",
                "name": "O\u015brodek Doskonalenia Nauczycieli Elim",
                "addr:country": "PL",
                "addr:postcode": "86-105",
                "addr:city": "\u015awiecie",
                "addr:street": "Witolda Ma\u0142cu\u017cy\u0144skiego",
                "addr:housenumber": "11",
                "addr:teryt:simc": 12133,
                "addr:teryt:sym_ul": 929664,
                "contact:phone": "+48 523300846",
                "contact:email": "biuro.elim@gmail.com",
                "contact:website": "http:\/\/www.elim.com.pl",
                "ref:regon": "341343612",
                "ref:vatin": "PL8941637952",
                "operator": "Dane Do Uzupe\u0142nienia",
                "operator:type": "private",
                "amenity": "training"
            }
        },
        {
            "id": 122848,
            "type": "Feature",
            "geometry": {
                "type": "Point",
                "coordinates": [
                    18.41893,
                    53.40727
                ]
            },
            "properties": {
                "ref:rspo": 122848,
                "official_name": "Fundacja Na Rzecz Kszta\u0142cenia I Wychowania \u201eProgress\u201d",
                "name": "Fundacja Na Rzecz Kszta\u0142cenia I Wychowania \u201eProgress\u201d",
                "addr:country": "PL",
                "addr:postcode": "86-105",
                "addr:city": "\u015awiecie",
                "addr:street": "Witolda Ma\u0142cu\u017cy\u0144skiego",
                "addr:housenumber": "11",
                "addr:teryt:simc": 12133,
                "addr:teryt:sym_ul": 929664,
                "contact:phone": "+48 525620080",
                "contact:email": "fundacja.progress@wp.pl",
                "ref:regon": "341565666",
                "ref:vatin": "PL5591944556",
                "operator": "Fundacja Na Rzecz Kszta\u0142cenia I Wychowania \"Progress\"",
                "operator:type": "ngo",
                "fixme": "w zale\u017cno\u015bci od przedmiotu dzia\u0142alno\u015bci (np. amenity=training + training=*, amenity=dancing_school, amenity=language_school, amenity=music_school)"
            }
        },
        {
            "id": 51861,
            "type": "Feature",
            "geometry": {
                "type": "Point",
                "coordinates": [
                    18.41969,
                    53.40752
                ]
            },
            "properties": {
                "ref:rspo": 51861,
                "official_name": "Centrum Doskonalenia Kadr Cedeka",
                "name": "Centrum Doskonalenia Kadr Cedeka",
                "addr:country": "PL",
                "addr:postcode": "86-105",
                "addr:city": "\u015awiecie",
                "addr:street": "Jana Kiepury",
                "addr:housenumber": "30",
                "addr:teryt:simc": 8396,
                "addr:teryt:sym_ul": 929664,
                "contact:phone": "+48 525626061",
                "contact:email": "biuro@cedeka.pl",
                "contact:website": "http:\/\/www.kursyzawodowe.edu.pl",
                "ref:regon": "341342067",
                "ref:vatin": "PL5591658804",
                "operator": "Tomasz Ko\u0142odziej",
                "operator:type": "private",
                "fixme": "w zale\u017cno\u015bci od przedmiotu dzia\u0142alno\u015bci (np. amenity=training + training=*, amenity=dancing_school, amenity=language_school, amenity=music_school)"
            }
        },
        {
            "id": 9715,
            "type": "Feature",
            "geometry": {
                "type": "Point",
                "coordinates": [
                    18.4350099,
                    53.40806
                ]
            },
            "properties": {
                "ref:rspo": 9715,
                "official_name": "Zesp\u00f3\u0142 Szk\u00f3\u0142 Og\u00f3lnokszta\u0142c\u0105cych I Policealnych",
                "name": "Zesp\u00f3\u0142 Szk\u00f3\u0142 Og\u00f3lnokszta\u0142c\u0105cych I Policealnych",
                "addr:country": "PL",
                "addr:postcode": "86-105",
                "addr:city": "\u015awiecie",
                "addr:street": "Wojska Polskiego",
                "addr:housenumber": "85",
                "addr:teryt:simc": 24628,
                "addr:teryt:sym_ul": 929664,
                "contact:phone": "+48 523333140",
                "contact:email": "ajkufel@wp.pl",
                "contact:website": "http:\/\/www.2lo-swiecie.szkolnastrona.pl",
                "ref:regon": "340203620",
                "ref:vatin": "PL5591951786",
                "operator": "Powiat \u015awiecki",
                "operator:type": "government",
                "landuse": "education",
                "fixme": "amenity=school, amenity=college albo landuse=education w zale\u017cno\u015bci od tego, jakie plac\u00f3wki wchodz\u0105 w sk\u0142ad zespo\u0142u. Sprawd\u017a, kiedy stosowa\u0107 amenity=* a kiedy landuse=education.",
                "note": "Children RSPO: 44226;44227;44228;115420"
            }
        },
        {
            "id": 44226,
            "type": "Feature",
            "geometry": {
                "type": "Point",
                "coordinates": [
                    18.4350099,
                    53.40803
                ]
            },
            "properties": {
                "isced:level": "3",
                "ref:rspo": 44226,
                "official_name": "Ii Liceum Og\u00f3lnokszta\u0142c\u0105ce w \u015awieciu w Zespole Szk\u00f3\u0142 Og\u00f3lnokszta\u0142c\u0105cych I Policealnych",
                "name": "Ii Liceum Og\u00f3lnokszta\u0142c\u0105ce w \u015awieciu w Zespole Szk\u00f3\u0142 Og\u00f3lnokszta\u0142c\u0105cych I Policealnych",
                "addr:country": "PL",
                "addr:postcode": "86-105",
                "addr:city": "\u015awiecie",
                "addr:street": "Wojska Polskiego",
                "addr:housenumber": "85",
                "addr:teryt:simc": 24628,
                "addr:teryt:sym_ul": 929664,
                "contact:phone": "+48 523333140",
                "contact:email": "2lo.swiecie@wp.pl",
                "contact:website": "http:\/\/www.2lo-swiecie.szkolnastrona.pl",
                "ref:regon": "090574840",
                "ref:vatin": "PL5591379719",
                "operator": "Powiat \u015awiecki",
                "operator:type": "government",
                "amenity": "school",
                "note": "Parent RSPO: 9715"
            }
        },
        {
            "id": 44227,
            "type": "Feature",
            "geometry": {
                "type": "Point",
                "coordinates": [
                    18.4350099,
                    53.408
                ]
            },
            "properties": {
                "isced:level": "4",
                "ref:rspo": 44227,
                "official_name": "Szko\u0142a Policealna Nr 2 w \u015awieciu w Zespole Szk\u00f3\u0142 Og\u00f3lnokszta\u0142c\u0105cych I Policealnych w \u015awieciu",
                "name": "Szko\u0142a Policealna Nr 2 w \u015awieciu w Zespole Szk\u00f3\u0142 Og\u00f3lnokszta\u0142c\u0105cych I Policealnych w \u015awieciu",
                "addr:country": "PL",
                "addr:postcode": "86-105",
                "addr:city": "\u015awiecie",
                "addr:street": "Wojska Polskiego",
                "addr:housenumber": "85",
                "addr:teryt:simc": 24628,
                "addr:teryt:sym_ul": 929664,
                "contact:phone": "+48 523333140",
                "contact:email": "2lo.swiecie@wp.pl",
                "contact:website": "http:\/\/www.2lo-swiecie.szkolnastrona.pl",
                "ref:regon": "340203636",
                "ref:vatin": "PL5591951792",
                "operator": "Powiat \u015awiecki",
                "operator:type": "government",
                "amenity": "college",
                "note": "Parent RSPO: 9715"
            }
        },
        {
            "id": 44228,
            "type": "Feature",
            "geometry": {
                "type": "Point",
                "coordinates": [
                    18.4350099,
                    53.40797
                ]
            },
            "properties": {
                "isced:level": "4",
                "ref:rspo": 44228,
                "official_name": "Szko\u0142a Policealna Medyczno - Spo\u0142eczna w \u015awieciu w Zespole Szk\u00f3\u0142 Og\u00f3lnokszta\u0142c\u0105cych I Policealnych",
                "name": "Szko\u0142a Policealna Medyczno - Spo\u0142eczna w \u015awieciu w Zespole Szk\u00f3\u0142 Og\u00f3lnokszta\u0142c\u0105cych I Policealnych",
                "addr:country": "PL",
                "addr:postcode": "86-105",
                "addr:city": "\u015awiecie",
                "addr:street": "Wojska Polskiego",
                "addr:housenumber": "85",
                "addr:teryt:simc": 24628,
                "addr:teryt:sym_ul": 929664,
                "contact:phone": "+48 523333140",
                "contact:email": "2lo.swiecie@wp.pl",
                "contact:website": "http:\/\/www.2lo-swiecie.szkolnastrona.pl",
                "ref:regon": "000298318",
                "ref:vatin": "PL5591379895",
                "operator": "Powiat \u015awiecki",
                "operator:type": "government",
                "amenity": "college",
                "note": "Parent RSPO: 9715"
            }
        },
        {
            "id": 115420,
            "type": "Feature",
            "geometry": {
                "type": "Point",
                "coordinates": [
                    18.4350099,
                    53.407939999999996
                ]
            },
            "properties": {
                "isced:level": "3",
                "ref:rspo": 115420,
                "official_name": "Technikum Nr 2 w \u015awieciu w Zespole Szk\u00f3\u0142 Og\u00f3lnokszta\u0142c\u0105cych I Policealnych",
                "name": "Technikum Nr 2 w \u015awieciu w Zespole Szk\u00f3\u0142 Og\u00f3lnokszta\u0142c\u0105cych I Policealnych",
                "addr:country": "PL",
                "addr:postcode": "86-105",
                "addr:city": "\u015awiecie",
                "addr:street": "Wojska Polskiego",
                "addr:housenumber": "85",
                "addr:teryt:simc": 24628,
                "addr:teryt:sym_ul": 929664,
                "contact:phone": "+48 523333140",
                "contact:email": "2lo.swiecie@wp.pl",
                "contact:website": "http:\/\/www.2lo-swiecie.szkolnastrona.pl",
                "ref:regon": "341452011",
                "ref:vatin": "PL5591379719",
                "operator": "Powiat \u015awiecki",
                "operator:type": "government",
                "amenity": "school",
                "note": "Parent RSPO: 9715"
            }
        },
        {
            "id": 12785,
            "type": "Feature",
            "geometry": {
                "type": "Point",
                "coordinates": [
                    18.44902,
                    53.40807
                ]
            },
            "properties": {
                "ref:rspo": 12785,
                "official_name": "Przedszkole Nr 9 Pod Klonem",
                "name": "Przedszkole Nr 9 Pod Klonem",
                "addr:country": "PL",
                "addr:postcode": "86-100",
                "addr:city": "\u015awiecie",
                "addr:street": "10 Lutego",
                "addr:housenumber": "2",
                "addr:teryt:simc": 11430,
                "addr:teryt:sym_ul": 929664,
                "contact:phone": "+48 523311579",
                "contact:email": "przedszkole9sw@wp.pl",
                "contact:website": "http:\/\/www.przedszkole9swiecie.blizej.info",
                "ref:regon": "341330236",
                "ref:vatin": "PL5591706408",
                "operator": "Gmina \u015awiecie",
                "operator:type": "government",
                "amenity": "kindergarten"
            }
        },
        {
            "id": 56199,
            "type": "Feature",
            "geometry": {
                "type": "Point",
                "coordinates": [
                    18.44529,
                    53.40809
                ]
            },
            "properties": {
                "isced:level": "3",
                "ref:rspo": 56199,
                "official_name": "I Liceum Og\u00f3lnokszta\u0142c\u0105ce Imienia Floriana Ceynowy w \u015awieciu",
                "name": "I Liceum Og\u00f3lnokszta\u0142c\u0105ce Imienia Floriana Ceynowy w \u015awieciu",
                "addr:country": "PL",
                "addr:postcode": "86-100",
                "addr:city": "\u015awiecie",
                "addr:street": "Gimnazjalna",
                "addr:housenumber": "3",
                "addr:teryt:simc": 5527,
                "addr:teryt:sym_ul": 929664,
                "contact:phone": "+48 523312264",
                "contact:email": "liceum_swiecie@poczta.onet.pl",
                "contact:website": "http:\/\/www.1lo-swiecie.home.pl",
                "ref:regon": "000228335",
                "ref:vatin": "PL5591424207",
                "operator": "Powiat \u015awiecki",
                "operator:type": "government",
                "amenity": "school"
            }
        },
        {
            "id": 12763,
            "type": "Feature",
            "geometry": {
                "type": "Point",
                "coordinates": [
                    18.44636,
                    53.40815
                ]
            },
            "properties": {
                "ref:rspo": 12763,
                "official_name": "Poradnia Psychologiczn0 - Pedagogiczna",
                "name": "Poradnia Psychologiczn0 - Pedagogiczna",
                "addr:country": "PL",
                "addr:postcode": "86-100",
                "addr:city": "\u015awiecie",
                "addr:street": "Klasztorna",
                "addr:housenumber": "2",
                "addr:teryt:simc": 8485,
                "addr:teryt:sym_ul": 929664,
                "contact:phone": "+48 523311226",
                "contact:email": "poradnia@ppp.csw.pl",
                "contact:website": "http:\/\/www.ppp-swiecie.pl",
                "ref:regon": "091287433",
                "ref:vatin": "PL5591406528",
                "operator": "Powiat \u015awiecki",
                "operator:type": "government",
                "healthcare": "counselling",
                "counselling_type": "education",
                "fixme": "w zale\u017cno\u015bci od przedmiotu dzia\u0142alno\u015bci (np. healthcare=counselling + counselling_type=education albo healthcare=psychotherapist)"
            }
        },
        {
            "id": 11757,
            "type": "Feature",
            "geometry": {
                "type": "Point",
                "coordinates": [
                    18.42986,
                    53.40854
                ]
            },
            "properties": {
                "isced:level": "1;2",
                "ref:rspo": 11757,
                "official_name": "Szko\u0142a Podstawowa Nr 8 im. Kazimierza Ecksteina",
                "name": "Szko\u0142a Podstawowa Nr 8",
                "addr:country": "PL",
                "addr:postcode": "86-105",
                "addr:city": "\u015awiecie",
                "addr:street": "Aleja Jana Paw\u0142a II",
                "addr:housenumber": "8",
                "addr:teryt:simc": 37675,
                "addr:teryt:sym_ul": 929664,
                "contact:phone": "+48 523312488",
                "contact:email": "sp8.sekretariat@poczta.onet.pl",
                "ref:regon": "090427984",
                "ref:vatin": "PL5591806452",
                "operator": "Gmina \u015awiecie",
                "operator:type": "government",
                "amenity": "school"
            }
        },
        {
            "id": 276844,
            "type": "Feature",
            "geometry": {
                "type": "Point",
                "coordinates": [
                    18.4367899,
                    53.40917
                ]
            },
            "properties": {
                "ref:rspo": 276844,
                "official_name": "Centrum Kszta\u0142cenia Zawodowego Zbigniew I Dariusz Jedwabny S.c.",
                "name": "Centrum Kszta\u0142cenia Zawodowego Zbigniew I Dariusz Jedwabny S.c.",
                "addr:country": "PL",
                "addr:postcode": "86-100",
                "addr:city": "\u015awiecie",
                "addr:street": "Konstantego Ildefonsa Ga\u0142czy\u0144skiego",
                "addr:housenumber": "40",
                "addr:teryt:simc": 33503,
                "addr:teryt:sym_ul": 929664,
                "contact:phone": "+48 523310985",
                "contact:email": "zbigniew.jedwabny@gmail.com",
                "ref:regon": "387690571",
                "ref:vatin": "PL5591732328",
                "operator": "Zbigniew Jedwabny",
                "operator:type": "private",
                "fixme": "w zale\u017cno\u015bci od przedmiotu dzia\u0142alno\u015bci (np. amenity=training + training=*, amenity=dancing_school, amenity=language_school, amenity=music_school) albo amenity=school, amenity=college, albo landuse=education w zale\u017cno\u015bci od tego, jakie plac\u00f3wki wchodz\u0105 w sk\u0142ad zespo\u0142u. Sprawd\u017a, kiedy stosowa\u0107 amenity=* a kiedy landuse=education."
            }
        },
        {
            "id": 126935,
            "type": "Feature",
            "geometry": {
                "type": "Point",
                "coordinates": [
                    18.44541,
                    53.40917
                ]
            },
            "properties": {
                "ref:rspo": 126935,
                "official_name": "Zesp\u00f3\u0142 Szk\u00f3\u0142 Apis w \u015awieciu",
                "name": "Zesp\u00f3\u0142 Szk\u00f3\u0142 Apis w \u015awieciu",
                "addr:country": "PL",
                "addr:postcode": "86-100",
                "addr:city": "\u015awiecie",
                "addr:street": "Wojska Polskiego",
                "addr:housenumber": "135a",
                "addr:teryt:simc": 24628,
                "addr:teryt:sym_ul": 929664,
                "contact:phone": "+48 535205130",
                "contact:email": "swiecie@apis.edu.pl",
                "contact:website": "http:\/\/www.apis.edu.pl",
                "ref:regon": "360955616",
                "ref:vatin": "PL7262649917",
                "operator": "Centrum Kszta\u0142cenia Apis Sp\u00f3\u0142ka Z Ograniczon\u0105 Odpowiedzialno\u015bci\u0105",
                "operator:type": "private",
                "landuse": "education",
                "fixme": "amenity=school, amenity=college albo landuse=education w zale\u017cno\u015bci od tego, jakie plac\u00f3wki wchodz\u0105 w sk\u0142ad zespo\u0142u. Sprawd\u017a, kiedy stosowa\u0107 amenity=* a kiedy landuse=education.",
                "note": "Children RSPO: 15566;15652;125404;125747"
            }
        },
        {
            "id": 15566,
            "type": "Feature",
            "geometry": {
                "type": "Point",
                "coordinates": [
                    18.44541,
                    53.40914
                ]
            },
            "properties": {
                "isced:level": "3",
                "ref:rspo": 15566,
                "official_name": "Liceum Og\u00f3lnokszta\u0142c\u0105ce dla Doros\u0142ych \"Apis\"",
                "name": "Liceum Og\u00f3lnokszta\u0142c\u0105ce dla Doros\u0142ych \"Apis\"",
                "addr:country": "PL",
                "addr:postcode": "86-100",
                "addr:city": "\u015awiecie",
                "addr:street": "Wojska Polskiego",
                "addr:housenumber": "135a",
                "addr:teryt:simc": 24628,
                "addr:teryt:sym_ul": 929664,
                "contact:phone": "+48 535205130",
                "contact:email": "swiecie@apis.edu.pl",
                "contact:website": "http:\/\/www.apis.edu.pl",
                "ref:regon": "341329049",
                "ref:vatin": "PL7262649917",
                "operator": "Centrum Kszta\u0142cenia Apis Sp\u00f3\u0142ka Z Ograniczon\u0105 Odpowiedzialno\u015bci\u0105",
                "operator:type": "private",
                "amenity": "school",
                "note": "Parent RSPO: 126935"
            }
        },
        {
            "id": 15652,
            "type": "Feature",
            "geometry": {
                "type": "Point",
                "coordinates": [
                    18.44541,
                    53.409110000000005
                ]
            },
            "properties": {
                "isced:level": "4",
                "ref:rspo": 15652,
                "official_name": "Policealna Szko\u0142a Zawodowa \"Apis\" w \u015awieciu",
                "name": "Policealna Szko\u0142a Zawodowa \"Apis\" w \u015awieciu",
                "addr:country": "PL",
                "addr:postcode": "86-100",
                "addr:city": "\u015awiecie",
                "addr:street": "Wojska Polskiego",
                "addr:housenumber": "135a",
                "addr:teryt:simc": 24628,
                "addr:teryt:sym_ul": 929664,
                "contact:phone": "+48 535205130",
                "contact:email": "swiecie@apis.edu.pl",
                "contact:website": "http:\/\/www.apis.edu.pl",
                "ref:regon": "341329032",
                "ref:vatin": "PL7262649917",
                "operator": "Centrum Kszta\u0142cenia Apis Sp\u00f3\u0142ka Z Ograniczon\u0105 Odpowiedzialno\u015bci\u0105",
                "operator:type": "private",
                "amenity": "college",
                "note": "Parent RSPO: 126935"
            }
        },
        {
            "id": 125404,
            "type": "Feature",
            "geometry": {
                "type": "Point",
                "coordinates": [
                    18.44541,
                    53.40908
                ]
            },
            "properties": {
                "isced:level": "4",
                "ref:rspo": 125404,
                "official_name": "Stacjonarna Policealna Szko\u0142a Medyczna Apis w \u015awieciu",
                "name": "Stacjonarna Policealna Szko\u0142a Medyczna Apis w \u015awieciu",
                "addr:country": "PL",
                "addr:postcode": "86-100",
                "addr:city": "\u015awiecie",
                "addr:street": "Wojska Polskiego",
                "addr:housenumber": "135a",
                "addr:teryt:simc": 24628,
                "addr:teryt:sym_ul": 929664,
                "contact:phone": "+48 535205130",
                "contact:email": "swiecie@apis.edu.pl",
                "contact:website": "http:\/\/www.apis.edu.pl",
                "ref:regon": "341628668",
                "ref:vatin": "PL7262649917",
                "operator": "Centrum Kszta\u0142cenia Apis Sp\u00f3\u0142ka Z Ograniczon\u0105 Odpowiedzialno\u015bci\u0105",
                "operator:type": "private",
                "amenity": "college",
                "note": "Parent RSPO: 126935"
            }
        },
        {
            "id": 125747,
            "type": "Feature",
            "geometry": {
                "type": "Point",
                "coordinates": [
                    18.44541,
                    53.40905
                ]
            },
            "properties": {
                "isced:level": "4",
                "ref:rspo": 125747,
                "official_name": "Policealna Szko\u0142a Medyczna Apis w \u015awieciu",
                "name": "Policealna Szko\u0142a Medyczna Apis w \u015awieciu",
                "addr:country": "PL",
                "addr:postcode": "86-100",
                "addr:city": "\u015awiecie",
                "addr:street": "Wojska Polskiego",
                "addr:housenumber": "135a",
                "addr:teryt:simc": 24628,
                "addr:teryt:sym_ul": 929664,
                "contact:phone": "+48 535205130",
                "contact:email": "swiecie@apis.edu.pl",
                "contact:website": "http:\/\/www.apis.edu.pl",
                "ref:regon": "341638260",
                "ref:vatin": "PL7262649917",
                "operator": "Centrum Kszta\u0142cenia Apis Sp\u00f3\u0142ka Z Ograniczon\u0105 Odpowiedzialno\u015bci\u0105",
                "operator:type": "private",
                "amenity": "college",
                "note": "Parent RSPO: 126935"
            }
        },
        {
            "id": 119958,
            "type": "Feature",
            "geometry": {
                "type": "Point",
                "coordinates": [
                    18.44861,
                    53.40989
                ]
            },
            "properties": {
                "ref:rspo": 119958,
                "official_name": "Przedszkole Niepubliczne Lwi\u0105tko",
                "name": "Przedszkole Niepubliczne Lwi\u0105tko",
                "addr:country": "PL",
                "addr:postcode": "86-100",
                "addr:city": "\u015awiecie",
                "addr:street": "Wojska Polskiego",
                "addr:housenumber": "143",
                "addr:teryt:simc": 24628,
                "addr:teryt:sym_ul": 929664,
                "contact:phone": "+48 608897804",
                "contact:email": "falkiewicz@lwiatko.pl",
                "ref:regon": "341479895",
                "ref:vatin": "PL5592003962",
                "operator": "Dane Do Uzupe\u0142nienia",
                "operator:type": "private",
                "amenity": "kindergarten"
            }
        },
        {
            "id": 277974,
            "type": "Feature",
            "geometry": {
                "type": "Point",
                "coordinates": [
                    18.44861,
                    53.409859999999995
                ]
            },
            "properties": {
                "ref:rspo": 277974,
                "official_name": "Niepubliczny O\u015brodek Kszta\u0142cenia Zawodowego \u201eApis\u201d w \u015awieciu",
                "name": "Niepubliczny O\u015brodek Kszta\u0142cenia Zawodowego \u201eApis\u201d w \u015awieciu",
                "addr:country": "PL",
                "addr:postcode": "86-100",
                "addr:city": "\u015awiecie",
                "addr:street": "Wojska Polskiego",
                "addr:housenumber": "143",
                "addr:teryt:simc": 24628,
                "addr:teryt:sym_ul": 929664,
                "contact:email": "swiecie@apis.edu.pl",
                "contact:website": "http:\/\/www.apis.edu.pl",
                "ref:regon": "389723524",
                "ref:vatin": "PL7262649917",
                "operator": "Centrum Kszta\u0142cenia Apis Sp\u00f3\u0142ka Z Ograniczon\u0105 Odpowiedzialno\u015bci\u0105",
                "operator:type": "private",
                "fixme": "w zale\u017cno\u015bci od przedmiotu dzia\u0142alno\u015bci (np. amenity=training + training=*, amenity=dancing_school, amenity=language_school, amenity=music_school)"
            }
        },
        {
            "id": 12409,
            "type": "Feature",
            "geometry": {
                "type": "Point",
                "coordinates": [
                    18.44403,
                    53.41012
                ]
            },
            "properties": {
                "ref:rspo": 12409,
                "official_name": "Przedszkole Nr 2 Z Oddzia\u0142ami Integracyjnymi",
                "name": "Przedszkole Nr 2 Z Oddzia\u0142ami Integracyjnymi",
                "addr:country": "PL",
                "addr:postcode": "86-100",
                "addr:city": "\u015awiecie",
                "addr:street": "Juliusza S\u0142owackiego",
                "addr:housenumber": "15",
                "addr:teryt:simc": 20286,
                "addr:teryt:sym_ul": 929664,
                "contact:phone": "+48 523311914",
                "contact:email": "przedszkole_sloneczko@onet.eu",
                "ref:regon": "341340795",
                "ref:vatin": "PL5591661485",
                "operator": "Gmina \u015awiecie",
                "operator:type": "government",
                "amenity": "kindergarten"
            }
        },
        {
            "id": 12774,
            "type": "Feature",
            "geometry": {
                "type": "Point",
                "coordinates": [
                    18.42768,
                    53.41097
                ]
            },
            "properties": {
                "ref:rspo": 12774,
                "official_name": "Przedszkole Nr 8",
                "name": "Przedszkole Nr 8",
                "addr:country": "PL",
                "addr:postcode": "86-105",
                "addr:city": "\u015awiecie",
                "addr:street": "Ksi\u0119dza Kardyna\u0142a Stefana Wyszy\u0144skiego",
                "addr:housenumber": "9",
                "addr:teryt:simc": 48702,
                "addr:teryt:sym_ul": 929664,
                "contact:phone": "+48 523311945",
                "contact:email": "przedszkole.motylek.swiecie@gmail.com",
                "ref:regon": "341330207",
                "ref:vatin": "PL5591663260",
                "operator": "Gmina \u015awiecie",
                "operator:type": "government",
                "amenity": "kindergarten"
            }
        },
        {
            "id": 44533,
            "type": "Feature",
            "geometry": {
                "type": "Point",
                "coordinates": [
                    18.4491799,
                    53.4117
                ]
            },
            "properties": {
                "isced:level": "3",
                "ref:rspo": 44533,
                "official_name": "Technikum w \u015awieciu w Zespole Szk\u00f3\u0142 Ponadpodstawowych",
                "name": "Technikum w \u015awieciu w Zespole Szk\u00f3\u0142 Ponadpodstawowych",
                "addr:country": "PL",
                "addr:postcode": "86-100",
                "addr:city": "\u015awiecie",
                "addr:street": "Tadeusza Ko\u015bciuszki",
                "addr:housenumber": "6A",
                "addr:teryt:simc": 9572,
                "addr:teryt:sym_ul": 929664,
                "contact:phone": "+48 523312438",
                "contact:email": "zsp_swiecie@go2.pl",
                "contact:website": "http:\/\/www.zspswiecie.pl",
                "ref:regon": "340074950",
                "ref:vatin": "PL5591424905",
                "operator": "Powiat \u015awiecki",
                "operator:type": "government",
                "amenity": "school",
                "note": "Parent RSPO: 9584"
            }
        },
        {
            "id": 44535,
            "type": "Feature",
            "geometry": {
                "type": "Point",
                "coordinates": [
                    18.4491799,
                    53.41167
                ]
            },
            "properties": {
                "isced:level": "3",
                "ref:rspo": 44535,
                "official_name": "Bran\u017cowa Szko\u0142a I Stopnia Nr 1 w \u015awieciu w Zespole Szk\u00f3\u0142 Ponadpodstawowych",
                "name": "Bran\u017cowa Szko\u0142a I Stopnia Nr 1 w \u015awieciu w Zespole Szk\u00f3\u0142 Ponadpodstawowych",
                "addr:country": "PL",
                "addr:postcode": "86-100",
                "addr:city": "\u015awiecie",
                "addr:street": "Tadeusza Ko\u015bciuszki",
                "addr:housenumber": "6A",
                "addr:teryt:simc": 9572,
                "addr:teryt:sym_ul": 929664,
                "contact:phone": "+48 523312438",
                "contact:email": "zsp_swiecie@go2.pl",
                "contact:website": "http:\/\/www.zspswiecie.pl",
                "ref:regon": "093035701",
                "ref:vatin": "PL5591424905",
                "operator": "Powiat \u015awiecki",
                "operator:type": "government",
                "amenity": "school",
                "note": "Parent RSPO: 9584"
            }
        },
        {
            "id": 44536,
            "type": "Feature",
            "geometry": {
                "type": "Point",
                "coordinates": [
                    18.4491799,
                    53.411640000000006
                ]
            },
            "properties": {
                "isced:level": "3",
                "ref:rspo": 44536,
                "official_name": "Iii Liceum Og\u00f3lnokszta\u0142c\u0105ce w \u015awieciu w Zespole Szk\u00f3\u0142 Ponadpodstawowych",
                "name": "Iii Liceum Og\u00f3lnokszta\u0142c\u0105ce w \u015awieciu w Zespole Szk\u00f3\u0142 Ponadpodstawowych",
                "addr:country": "PL",
                "addr:postcode": "86-100",
                "addr:city": "\u015awiecie",
                "addr:street": "Tadeusza Ko\u015bciuszki",
                "addr:housenumber": "6A",
                "addr:teryt:simc": 9572,
                "addr:teryt:sym_ul": 929664,
                "contact:phone": "+48 523312438",
                "contact:email": "zsp_swiecie@go2.pl",
                "contact:website": "http:\/\/www.zspswiecie.pl",
                "ref:regon": "340074877",
                "ref:vatin": "PL5591424905",
                "operator": "Powiat \u015awiecki",
                "operator:type": "government",
                "amenity": "school",
                "note": "Parent RSPO: 9584"
            }
        },
        {
            "id": 44539,
            "type": "Feature",
            "geometry": {
                "type": "Point",
                "coordinates": [
                    18.4491799,
                    53.41161
                ]
            },
            "properties": {
                "isced:level": "4",
                "ref:rspo": 44539,
                "official_name": "Szko\u0142a Policealna Nr 1 w \u015awieciu w Zespole Szk\u00f3\u0142 Ponadpodstawowych w \u015awieciu",
                "name": "Szko\u0142a Policealna Nr 1 w \u015awieciu w Zespole Szk\u00f3\u0142 Ponadpodstawowych w \u015awieciu",
                "addr:country": "PL",
                "addr:postcode": "86-100",
                "addr:city": "\u015awiecie",
                "addr:street": "Tadeusza Ko\u015bciuszki",
                "addr:housenumber": "6A",
                "addr:teryt:simc": 9572,
                "addr:teryt:sym_ul": 929664,
                "contact:phone": "+48 523312438",
                "contact:email": "zsp_swiecie@go2.pl",
                "contact:website": "http:\/\/www.zspswiecie.pl",
                "ref:regon": "093035760",
                "ref:vatin": "PL5591424905",
                "operator": "Powiat \u015awiecki",
                "operator:type": "government",
                "amenity": "college",
                "note": "Parent RSPO: 9584"
            }
        },
        {
            "id": 130708,
            "type": "Feature",
            "geometry": {
                "type": "Point",
                "coordinates": [
                    18.4491799,
                    53.41158
                ]
            },
            "properties": {
                "isced:level": "3",
                "ref:rspo": 130708,
                "official_name": "Liceum Og\u00f3lnokszta\u0142c\u0105ce dla Doros\u0142ych w \u015awieciu w Zespole Szk\u00f3\u0142 Ponadpodstawowych",
                "name": "Liceum Og\u00f3lnokszta\u0142c\u0105ce dla Doros\u0142ych w \u015awieciu w Zespole Szk\u00f3\u0142 Ponadpodstawowych",
                "addr:country": "PL",
                "addr:postcode": "86-100",
                "addr:city": "\u015awiecie",
                "addr:street": "Tadeusza Ko\u015bciuszki",
                "addr:housenumber": "6A",
                "addr:teryt:simc": 9572,
                "addr:teryt:sym_ul": 929664,
                "contact:phone": "+48 523312438",
                "contact:email": "zsp_swiecie@go2.pl",
                "contact:website": "http:\/\/www.zspswiecie.pl",
                "ref:regon": "364374980",
                "ref:vatin": "PL5591424905",
                "operator": "Powiat \u015awiecki",
                "operator:type": "government",
                "amenity": "school",
                "note": "Parent RSPO: 9584"
            }
        },
        {
            "id": 12480,
            "type": "Feature",
            "geometry": {
                "type": "Point",
                "coordinates": [
                    18.4534999,
                    53.412
                ]
            },
            "properties": {
                "ref:rspo": 12480,
                "official_name": "Przedszkole Nr 4",
                "name": "Przedszkole Nr 4",
                "addr:country": "PL",
                "addr:postcode": "86-100",
                "addr:city": "\u015awiecie",
                "addr:street": "Tadeusza Ko\u015bciuszki",
                "addr:housenumber": "16",
                "addr:teryt:simc": 9572,
                "addr:teryt:sym_ul": 929664,
                "contact:phone": "+48 523312152",
                "contact:email": "przedszkole_tecza4@wp.pl",
                "contact:website": "http:\/\/przedszkole4tecza.edupage.org",
                "ref:regon": "341330288",
                "ref:vatin": "PL5591806570",
                "operator": "Gmina \u015awiecie",
                "operator:type": "government",
                "amenity": "kindergarten"
            }
        },
        {
            "id": 109661,
            "type": "Feature",
            "geometry": {
                "type": "Point",
                "coordinates": [
                    18.43669,
                    53.41218
                ]
            },
            "properties": {
                "ref:rspo": 109661,
                "official_name": "Profesjonalista Firma Szkoleniowo-Konsultingowa",
                "name": "Profesjonalista Firma Szkoleniowo-Konsultingowa",
                "addr:country": "PL",
                "addr:postcode": "86-100",
                "addr:city": "\u015awiecie",
                "addr:street": "Fryderyka Chopina",
                "addr:housenumber": "51",
                "addr:teryt:simc": 2844,
                "addr:teryt:sym_ul": 929664,
                "contact:phone": "+48 525841231",
                "contact:email": "biuro@profesjonalista.net.pl",
                "contact:website": "http:\/\/www.profesjonalista.net.pl",
                "ref:regon": "341394176",
                "ref:vatin": "PL5591406439",
                "operator": "J\u00f3zef Kwa\u015bniewski",
                "operator:type": "private",
                "fixme": "w zale\u017cno\u015bci od przedmiotu dzia\u0142alno\u015bci (np. amenity=training + training=*, amenity=dancing_school, amenity=language_school, amenity=music_school)"
            }
        },
        {
            "id": 5607,
            "type": "Feature",
            "geometry": {
                "type": "Point",
                "coordinates": [
                    18.4337,
                    53.41277
                ]
            },
            "properties": {
                "isced:level": "3",
                "ref:rspo": 5607,
                "official_name": "Technikum Urzadze\u0144 I System\u00f3w Energetyki Odnawialnej \"Mened\u017cer\"",
                "name": "Technikum Urzadze\u0144 I System\u00f3w Energetyki Odnawialnej \"Mened\u017cer\"",
                "addr:country": "PL",
                "addr:postcode": "86-105",
                "addr:city": "\u015awiecie",
                "addr:street": "\u017bwirki i Wigury",
                "addr:housenumber": "6",
                "addr:teryt:simc": 26608,
                "addr:teryt:sym_ul": 929664,
                "contact:phone": "+48 523324356",
                "contact:email": "sekretariat@zsm-swiecie.pl",
                "contact:website": "http:\/\/www.zsm-swiecie.pl",
                "ref:regon": "341318755",
                "ref:vatin": "PL5591009164",
                "operator": "Zesp\u00f3\u0142 Szk\u00f3\u0142 Mened\u017cerskich Sp\u00f3\u0142ka Z Ograniczon\u0105 Odpowiedzialno\u015bci\u0105",
                "operator:type": "private",
                "amenity": "school"
            }
        },
        {
            "id": 5622,
            "type": "Feature",
            "geometry": {
                "type": "Point",
                "coordinates": [
                    18.4337,
                    53.41274
                ]
            },
            "properties": {
                "isced:level": "3",
                "ref:rspo": 5622,
                "official_name": "Liceum Og\u00f3lnokszta\u0142c\u0105ce \"Mened\u017cer\"",
                "name": "Liceum Og\u00f3lnokszta\u0142c\u0105ce \"Mened\u017cer\"",
                "addr:country": "PL",
                "addr:postcode": "86-105",
                "addr:city": "\u015awiecie",
                "addr:street": "\u017bwirki i Wigury",
                "addr:housenumber": "6",
                "addr:teryt:simc": 26608,
                "addr:teryt:sym_ul": 929664,
                "contact:phone": "+48 523324356",
                "contact:email": "sekretariat@zsm-swiecie.pl",
                "contact:website": "http:\/\/www.zsm-swiecie.pl",
                "ref:regon": "341318726",
                "ref:vatin": "PL5591009164",
                "operator": "Zesp\u00f3\u0142 Szk\u00f3\u0142 Mened\u017cerskich Sp\u00f3\u0142ka Z Ograniczon\u0105 Odpowiedzialno\u015bci\u0105",
                "operator:type": "private",
                "amenity": "school"
            }
        },
        {
            "id": 5634,
            "type": "Feature",
            "geometry": {
                "type": "Point",
                "coordinates": [
                    18.4337,
                    53.412710000000004
                ]
            },
            "properties": {
                "isced:level": "3",
                "ref:rspo": 5634,
                "official_name": "Prywatne Technikum Geodezyjne \"Mened\u017cer\"",
                "name": "Prywatne Technikum Geodezyjne \"Mened\u017cer\"",
                "addr:country": "PL",
                "addr:postcode": "86-105",
                "addr:city": "\u015awiecie",
                "addr:street": "\u017bwirki i Wigury",
                "addr:housenumber": "6",
                "addr:teryt:simc": 26608,
                "addr:teryt:sym_ul": 929664,
                "contact:phone": "+48 523324356",
                "contact:email": "sekretariat@zsm-swiecie.pl",
                "contact:website": "http:\/\/www.zsm-swiecie.pl",
                "ref:regon": "341320255",
                "ref:vatin": "PL5591009164",
                "operator": "Zesp\u00f3\u0142 Szk\u00f3\u0142 Mened\u017cerskich Sp\u00f3\u0142ka Z Ograniczon\u0105 Odpowiedzialno\u015bci\u0105",
                "operator:type": "private",
                "amenity": "school"
            }
        },
        {
            "id": 8223,
            "type": "Feature",
            "geometry": {
                "type": "Point",
                "coordinates": [
                    18.4337,
                    53.41268
                ]
            },
            "properties": {
                "isced:level": "3",
                "ref:rspo": 8223,
                "official_name": "Prywatne Technikum Ochrony \u015arodowiska \"Mened\u017cer\"",
                "name": "Prywatne Technikum Ochrony \u015arodowiska \"Mened\u017cer\"",
                "addr:country": "PL",
                "addr:postcode": "86-105",
                "addr:city": "\u015awiecie",
                "addr:street": "\u017bwirki i Wigury",
                "addr:housenumber": "6",
                "addr:teryt:simc": 26608,
                "addr:teryt:sym_ul": 929664,
                "contact:phone": "+48 523324356",
                "contact:email": "sekretariat@zsm-swiecie.pl",
                "contact:website": "http:\/\/www.zsm-swiecie.pl",
                "ref:regon": "341340737",
                "ref:vatin": "PL5591009164",
                "operator": "Zesp\u00f3\u0142 Szk\u00f3\u0142 Mened\u017cerskich Sp\u00f3\u0142ka Z Ograniczon\u0105 Odpowiedzialno\u015bci\u0105",
                "operator:type": "private",
                "amenity": "school"
            }
        },
        {
            "id": 8224,
            "type": "Feature",
            "geometry": {
                "type": "Point",
                "coordinates": [
                    18.4337,
                    53.41265
                ]
            },
            "properties": {
                "isced:level": "3",
                "ref:rspo": 8224,
                "official_name": "Technikum Hotelarstwa \"Mened\u017cer\"",
                "name": "Technikum Hotelarstwa \"Mened\u017cer\"",
                "addr:country": "PL",
                "addr:postcode": "86-105",
                "addr:city": "\u015awiecie",
                "addr:street": "\u017bwirki i Wigury",
                "addr:housenumber": "6",
                "addr:teryt:simc": 26608,
                "addr:teryt:sym_ul": 929664,
                "contact:phone": "+48 523324356",
                "contact:email": "sekretariat@zsm-swiecie.pl",
                "contact:website": "http:\/\/www.zsm-swiecie.pl",
                "ref:regon": "341322410",
                "ref:vatin": "PL5591009164",
                "operator": "Zesp\u00f3\u0142 Szk\u00f3\u0142 Mened\u017cerskich Sp\u00f3\u0142ka Z Ograniczon\u0105 Odpowiedzialno\u015bci\u0105",
                "operator:type": "private",
                "amenity": "school"
            }
        },
        {
            "id": 8225,
            "type": "Feature",
            "geometry": {
                "type": "Point",
                "coordinates": [
                    18.4337,
                    53.412620000000004
                ]
            },
            "properties": {
                "isced:level": "3",
                "ref:rspo": 8225,
                "official_name": "Technikum Informatyki \"Mened\u017cer\"",
                "name": "Technikum Informatyki \"Mened\u017cer\"",
                "addr:country": "PL",
                "addr:postcode": "86-105",
                "addr:city": "\u015awiecie",
                "addr:street": "\u017bwirki i Wigury",
                "addr:housenumber": "6",
                "addr:teryt:simc": 26608,
                "addr:teryt:sym_ul": 929664,
                "contact:phone": "+48 523324356",
                "contact:email": "sekretariat@zsm-swiecie.pl",
                "contact:website": "http:\/\/www.zsm-swiecie.pl",
                "ref:regon": "341322403",
                "ref:vatin": "PL5591009164",
                "operator": "Zesp\u00f3\u0142 Szk\u00f3\u0142 Mened\u017cerskich Sp\u00f3\u0142ka Z Ograniczon\u0105 Odpowiedzialno\u015bci\u0105",
                "operator:type": "private",
                "amenity": "school"
            }
        },
        {
            "id": 8226,
            "type": "Feature",
            "geometry": {
                "type": "Point",
                "coordinates": [
                    18.4337,
                    53.41259
                ]
            },
            "properties": {
                "isced:level": "3",
                "ref:rspo": 8226,
                "official_name": "Technikum Logistyki Mened\u017cer",
                "name": "Technikum Logistyki Mened\u017cer",
                "addr:country": "PL",
                "addr:postcode": "86-105",
                "addr:city": "\u015awiecie",
                "addr:street": "\u017bwirki i Wigury",
                "addr:housenumber": "6",
                "addr:teryt:simc": 26608,
                "addr:teryt:sym_ul": 929664,
                "contact:phone": "+48 523324356",
                "contact:email": "sekretariat@zsm-swiecie.pl",
                "contact:website": "http:\/\/www.zsm-swiecie.pl",
                "ref:regon": "341321987",
                "ref:vatin": "PL5591009164",
                "operator": "Zesp\u00f3\u0142 Szk\u00f3\u0142 Mened\u017cerskich Sp\u00f3\u0142ka Z Ograniczon\u0105 Odpowiedzialno\u015bci\u0105",
                "operator:type": "private",
                "amenity": "school"
            }
        },
        {
            "id": 9504,
            "type": "Feature",
            "geometry": {
                "type": "Point",
                "coordinates": [
                    18.4337,
                    53.41256
                ]
            },
            "properties": {
                "isced:level": "4",
                "ref:rspo": 9504,
                "official_name": "Policealna Szko\u0142a \"Oskar\"",
                "name": "Policealna Szko\u0142a \"Oskar\"",
                "addr:country": "PL",
                "addr:postcode": "86-105",
                "addr:city": "\u015awiecie",
                "addr:street": "\u017bwirki i Wigury",
                "addr:housenumber": "6",
                "addr:teryt:simc": 26608,
                "addr:teryt:sym_ul": 929664,
                "contact:phone": "+48 523324356",
                "contact:email": "sekretariat@zsm-swiecie.pl",
                "contact:website": "http:\/\/www.zsm-swiecie.pl",
                "ref:regon": "341323130",
                "ref:vatin": "PL5591009141",
                "operator": "Zesp\u00f3\u0142 Szk\u00f3\u0142 Licealnych I Policealnych Sp\u00f3\u0142ka Z Ograniczon\u0105 Odpowiedzialno\u015bci\u0105",
                "operator:type": "private",
                "amenity": "college"
            }
        },
        {
            "id": 9532,
            "type": "Feature",
            "geometry": {
                "type": "Point",
                "coordinates": [
                    18.4337,
                    53.412530000000004
                ]
            },
            "properties": {
                "isced:level": "3",
                "ref:rspo": 9532,
                "official_name": "Technikum Ekonomiczne \"Mened\u017cer\"",
                "name": "Technikum Ekonomiczne \"Mened\u017cer\"",
                "addr:country": "PL",
                "addr:postcode": "86-105",
                "addr:city": "\u015awiecie",
                "addr:street": "\u017bwirki i Wigury",
                "addr:housenumber": "6",
                "addr:teryt:simc": 26608,
                "addr:teryt:sym_ul": 929664,
                "contact:phone": "+48 523324356",
                "contact:email": "sekretariat@zsm-swiecie.pl",
                "contact:website": "http:\/\/www.zsm-swiecie.pl",
                "ref:regon": "341322596",
                "ref:vatin": "PL5591009164",
                "operator": "Zesp\u00f3\u0142 Szk\u00f3\u0142 Mened\u017cerskich Sp\u00f3\u0142ka Z Ograniczon\u0105 Odpowiedzialno\u015bci\u0105",
                "operator:type": "private",
                "amenity": "school"
            }
        },
        {
            "id": 84811,
            "type": "Feature",
            "geometry": {
                "type": "Point",
                "coordinates": [
                    18.4337,
                    53.4125
                ]
            },
            "properties": {
                "isced:level": "3",
                "ref:rspo": 84811,
                "official_name": "Liceum Og\u00f3lnokszta\u0142c\u0105ce dla Doros\u0142ych \"Oskar\" \n(3- Letnie)",
                "name": "Liceum Og\u00f3lnokszta\u0142c\u0105ce dla Doros\u0142ych \"Oskar\" \n(3- Letnie)",
                "addr:country": "PL",
                "addr:postcode": "86-105",
                "addr:city": "\u015awiecie",
                "addr:street": "\u017bwirki i Wigury",
                "addr:housenumber": "6",
                "addr:teryt:simc": 26608,
                "addr:teryt:sym_ul": 929664,
                "contact:phone": "+48 523324356",
                "contact:email": "sekretariat@zsm-swiecie.pl",
                "contact:website": "http:\/\/www.zsm-swiecie.pl",
                "ref:regon": "341352249",
                "ref:vatin": "PL9532639003",
                "operator": "Zesp\u00f3\u0142 Szk\u00f3\u0142 Licealnych I Policealnych Sp\u00f3\u0142ka Z Ograniczon\u0105 Odpowiedzialno\u015bci\u0105",
                "operator:type": "private",
                "amenity": "school"
            }
        },
        {
            "id": 262596,
            "type": "Feature",
            "geometry": {
                "type": "Point",
                "coordinates": [
                    18.44691,
                    53.41286
                ]
            },
            "properties": {
                "isced:level": "1;2",
                "ref:rspo": 262596,
                "official_name": "Szko\u0142a Podstawowa Nr 2 im. Ziemi \u015awieckiej",
                "name": "Szko\u0142a Podstawowa Nr 2",
                "addr:country": "PL",
                "addr:postcode": "86-100",
                "addr:city": "\u015awiecie",
                "addr:street": "Chmielniki",
                "addr:housenumber": "5",
                "addr:teryt:simc": 2770,
                "addr:teryt:sym_ul": 929664,
                "contact:phone": "+48 523311235",
                "contact:email": "sp2swiecie@gmail.com",
                "ref:regon": "368043613",
                "operator": "Gmina \u015awiecie",
                "operator:type": "government",
                "amenity": "school"
            }
        },
        {
            "id": 120054,
            "type": "Feature",
            "geometry": {
                "type": "Point",
                "coordinates": [
                    18.44791,
                    53.41342
                ]
            },
            "properties": {
                "ref:rspo": 120054,
                "official_name": "Przedszkole Niepubliczne Kangurek",
                "name": "Przedszkole Niepubliczne Kangurek",
                "addr:country": "PL",
                "addr:postcode": "86-100",
                "addr:city": "\u015awiecie",
                "addr:street": "Genera\u0142a J\u00f3zefa Hallera",
                "addr:housenumber": "7c",
                "addr:teryt:simc": 6485,
                "addr:teryt:sym_ul": 929664,
                "contact:phone": "+48 668104351",
                "contact:email": "kangurek543@wp.pl",
                "ref:regon": "341481863",
                "operator": "Marek Lipkowski",
                "operator:type": "private",
                "amenity": "kindergarten"
            }
        },
        {
            "id": 272463,
            "type": "Feature",
            "geometry": {
                "type": "Point",
                "coordinates": [
                    18.45411,
                    53.41424
                ]
            },
            "properties": {
                "ref:rspo": 272463,
                "official_name": "J\u0119zykowe Przedszkole \"Ba\u015bniowy Dworek\"",
                "name": "J\u0119zykowe Przedszkole \"Ba\u015bniowy Dworek\"",
                "addr:country": "PL",
                "addr:postcode": "86-100",
                "addr:city": "\u015awiecie",
                "addr:street": "Laskowicka",
                "addr:housenumber": "6",
                "addr:teryt:simc": 10667,
                "addr:teryt:sym_ul": 929664,
                "contact:email": "kontakt@basniowydworek.edu.pl",
                "contact:website": "http:\/\/www.basniowydworek.edu.pl",
                "ref:regon": "384181886",
                "ref:vatin": "PL7611565930",
                "operator": "Martyna Sternal",
                "operator:type": "private",
                "amenity": "kindergarten"
            }
        },
        {
            "id": 11868,
            "type": "Feature",
            "geometry": {
                "type": "Point",
                "coordinates": [
                    18.35504,
                    53.41475
                ]
            },
            "properties": {
                "isced:level": "1;2",
                "ref:rspo": 11868,
                "official_name": "Szko\u0142a Podstawowa im. Tadeusza Ko\u015bciuszki",
                "name": "Szko\u0142a Podstawowa",
                "addr:country": "PL",
                "addr:postcode": "86-105",
                "addr:city": "Terespol Pomorski",
                "addr:street": "Szkolna",
                "addr:housenumber": "10",
                "addr:teryt:simc": 21970,
                "addr:teryt:sym_ul": 97844,
                "contact:phone": "+48 523334091",
                "contact:email": "szkolaterespol@poczta.onet.pl",
                "contact:website": "http:\/\/www.spterespol.pl",
                "ref:regon": "092557308",
                "ref:vatin": "PL5591806475",
                "operator": "Gmina \u015awiecie",
                "operator:type": "government",
                "amenity": "school"
            }
        },
        {
            "id": 5447,
            "type": "Feature",
            "geometry": {
                "type": "Point",
                "coordinates": [
                    18.44671,
                    53.41495
                ]
            },
            "properties": {
                "isced:level": "3",
                "ref:rspo": 5447,
                "official_name": "Akademickie Liceum Og\u00f3lnokszta\u0142c\u0105ce",
                "name": "Akademickie Liceum Og\u00f3lnokszta\u0142c\u0105ce",
                "addr:country": "PL",
                "addr:postcode": "86-100",
                "addr:city": "\u015awiecie",
                "addr:street": "Chmielniki",
                "addr:housenumber": "2a",
                "addr:teryt:simc": 2770,
                "addr:teryt:sym_ul": 929664,
                "contact:phone": "+48 523330270",
                "contact:email": "akademickielo@wp.pl",
                "contact:website": "http:\/\/www.akademickielo.wsjo.edu.pl",
                "ref:regon": "341318086",
                "ref:vatin": "PL7831150869",
                "operator": "El\u017cbieta Sternal",
                "operator:type": "private",
                "amenity": "school"
            }
        },
        {
            "id": 8220,
            "type": "Feature",
            "geometry": {
                "type": "Point",
                "coordinates": [
                    18.44671,
                    53.414919999999995
                ]
            },
            "properties": {
                "isced:level": "4",
                "ref:rspo": 8220,
                "official_name": "Szko\u0142a Policealna dla Doros\u0142ych",
                "name": "Szko\u0142a Policealna dla Doros\u0142ych",
                "addr:country": "PL",
                "addr:postcode": "86-100",
                "addr:city": "\u015awiecie",
                "addr:street": "Chmielniki",
                "addr:housenumber": "2a",
                "addr:teryt:simc": 2770,
                "addr:teryt:sym_ul": 929664,
                "contact:phone": "+48 523330270",
                "contact:email": "nckswiecie@wp.pl",
                "contact:website": "http:\/\/www.nckswiecie.info",
                "ref:regon": "341326861",
                "ref:vatin": "PL7831150869",
                "operator": "El\u017cbieta Sternal",
                "operator:type": "private",
                "amenity": "college"
            }
        },
        {
            "id": 29254,
            "type": "Feature",
            "geometry": {
                "type": "Point",
                "coordinates": [
                    18.44671,
                    53.41489
                ]
            },
            "properties": {
                "isced:level": "3",
                "ref:rspo": 29254,
                "official_name": "Liceum Og\u00f3lnokszta\u0142c\u0105ce dla Doros\u0142ych",
                "name": "Liceum Og\u00f3lnokszta\u0142c\u0105ce dla Doros\u0142ych",
                "addr:country": "PL",
                "addr:postcode": "86-100",
                "addr:city": "\u015awiecie",
                "addr:street": "Chmielniki",
                "addr:housenumber": "2A",
                "addr:teryt:simc": 2770,
                "addr:teryt:sym_ul": 929664,
                "contact:phone": "+48 523330270",
                "contact:email": "nckswiecie@wp.pl",
                "contact:website": "http:\/\/www.nckswiecie.info",
                "ref:regon": "341339504",
                "ref:vatin": "PL7831150869",
                "operator": "El\u017cbieta Sternal",
                "operator:type": "private",
                "amenity": "school"
            }
        },
        {
            "id": 72760,
            "type": "Feature",
            "geometry": {
                "type": "Point",
                "coordinates": [
                    18.44671,
                    53.41486
                ]
            },
            "properties": {
                "ref:rspo": 72760,
                "official_name": "Niepubliczny O\u015brodek Doskonalenia Nauczycieli w \u015awieciu",
                "name": "Niepubliczny O\u015brodek Doskonalenia Nauczycieli w \u015awieciu",
                "addr:country": "PL",
                "addr:postcode": "86-100",
                "addr:city": "\u015awiecie",
                "addr:street": "Chmielniki",
                "addr:housenumber": "2a",
                "addr:teryt:simc": 2770,
                "addr:teryt:sym_ul": 929664,
                "contact:phone": "+48 523330270",
                "ref:regon": "341354863",
                "ref:vatin": "PL7831150869",
                "operator": "Dane Do Uzupe\u0142nienia",
                "operator:type": "private",
                "amenity": "training"
            }
        },
        {
            "id": 264225,
            "type": "Feature",
            "geometry": {
                "type": "Point",
                "coordinates": [
                    18.44671,
                    53.414829999999995
                ]
            },
            "properties": {
                "isced:level": "3",
                "ref:rspo": 264225,
                "official_name": "Szko\u0142a Bran\u017cowa I Stopnia",
                "name": "Szko\u0142a Bran\u017cowa I Stopnia",
                "addr:country": "PL",
                "addr:postcode": "86-100",
                "addr:city": "\u015awiecie",
                "addr:street": "Chmielniki",
                "addr:housenumber": "2a",
                "addr:teryt:simc": 2770,
                "addr:teryt:sym_ul": 929664,
                "contact:phone": "+48 523330270",
                "contact:email": "szkolabranzowa@wp.pl",
                "ref:regon": "368293190",
                "ref:vatin": "PL7831150869",
                "operator": "El\u017cbieta Sternal",
                "operator:type": "private",
                "amenity": "school"
            }
        },
        {
            "id": 12114,
            "type": "Feature",
            "geometry": {
                "type": "Point",
                "coordinates": [
                    18.519486,
                    53.432244
                ]
            },
            "properties": {
                "isced:level": "1;2",
                "ref:rspo": 12114,
                "official_name": "Szko\u0142a Podstawowa im. Jana Brzechwy",
                "name": "Szko\u0142a Podstawowa",
                "addr:country": "PL",
                "addr:postcode": "86-100",
                "addr:place": "Wi\u0105g",
                "addr:housenumber": "50",
                "addr:teryt:sym_ul": 97940,
                "contact:phone": "+48 523319825",
                "contact:email": "spwiag@gmail.com",
                "ref:regon": "092557314",
                "ref:vatin": "PL5591806481",
                "operator": "Gmina \u015awiecie",
                "operator:type": "government",
                "amenity": "school"
            }
        },
        {
            "id": 11622,
            "type": "Feature",
            "geometry": {
                "type": "Point",
                "coordinates": [
                    18.504784,
                    53.4554879
                ]
            },
            "properties": {
                "isced:level": "1;2",
                "ref:rspo": 11622,
                "official_name": "Szko\u0142a Podstawowa im. Kornela Makuszy\u0144skiego",
                "name": "Szko\u0142a Podstawowa",
                "addr:country": "PL",
                "addr:postcode": "86-100",
                "addr:place": "Czaple",
                "addr:housenumber": "23",
                "addr:teryt:sym_ul": 97726,
                "contact:phone": "+48 523324588",
                "contact:email": "poczta@spczaple.pl",
                "ref:regon": "092557320",
                "ref:vatin": "PL5591806498",
                "operator": "Gmina \u015awiecie",
                "operator:type": "government",
                "amenity": "school"
            }
        }
    ]
}