{
    "type": "FeatureCollection",
    "features": [
        {
            "id": 15742,
            "type": "Feature",
            "geometry": {
                "type": "Point",
                "coordinates": [
                    18.2568591,
                    53.380002
                ]
            },
            "properties": {
                "isced:level": "1;2",
                "ref:rspo": 15742,
                "official_name": "Szko\u0142a Podstawowa im. Ks. Jana Twardowskiego w R\u00f3\u017cannie",
                "name": "Szko\u0142a Podstawowa",
                "addr:postcode": "86-122",
                "addr:place": "R\u00f3\u017canna",
                "addr:housenumber": "32",
                "addr:teryt:simc": 80660,
                "phone": "+48 523322662",
                "email": "sprozanna@interia.pl",
                "ref:regon": "001199179",
                "ref:vatin": "PL5591789771",
                "operator": "Gmina Bukowiec",
                "operator:type": "government",
                "amenity": "school"
            }
        },
        {
            "id": 15746,
            "type": "Feature",
            "geometry": {
                "type": "Point",
                "coordinates": [
                    18.31099,
                    53.42532
                ]
            },
            "properties": {
                "ref:rspo": 15746,
                "official_name": "Przedszkole Przysiersk",
                "name": "Przedszkole Przysiersk",
                "addr:postcode": "86-122",
                "addr:city": "Przysiersk",
                "addr:street": "Szkolna",
                "addr:housenumber": "13",
                "addr:teryt:simc": 80654,
                "addr:teryt:sym_ul": 21970,
                "phone": "+48 523322777",
                "email": "przedszkole_przysiersk@poczta.onet.pl",
                "ref:regon": "093173604",
                "ref:vatin": "PL5591790082",
                "operator": "Gmina Bukowiec",
                "operator:type": "government",
                "amenity": "kindergarten"
            }
        },
        {
            "id": 15743,
            "type": "Feature",
            "geometry": {
                "type": "Point",
                "coordinates": [
                    18.3085999,
                    53.4281
                ]
            },
            "properties": {
                "isced:level": "1;2",
                "ref:rspo": 15743,
                "official_name": "Szko\u0142a Podstawowa im. Dra Floriana Ceynowy w Przysiersku",
                "name": "Szko\u0142a Podstawowa",
                "addr:postcode": "86-122",
                "addr:city": "Przysiersk",
                "addr:street": "Szkolna",
                "addr:housenumber": "5",
                "addr:teryt:simc": 80654,
                "addr:teryt:sym_ul": 21970,
                "phone": "+48 523322723",
                "email": "sp_przysiersk@o2.pl",
                "ref:regon": "001199185",
                "ref:vatin": "PL5591790076",
                "operator": "Gmina Bukowiec",
                "operator:type": "government",
                "amenity": "school"
            }
        },
        {
            "id": 15744,
            "type": "Feature",
            "geometry": {
                "type": "Point",
                "coordinates": [
                    18.23777,
                    53.43163
                ]
            },
            "properties": {
                "isced:level": "1;2",
                "ref:rspo": 15744,
                "official_name": "Szko\u0142a Podstawowa im. 16. Pu\u0142ku U\u0142an\u00f3w Wielkopolskich w Bukowcu",
                "name": "Szko\u0142a Podstawowa",
                "addr:postcode": "86-122",
                "addr:city": "Bukowiec",
                "addr:street": "Dworcowa",
                "addr:housenumber": "26",
                "addr:teryt:simc": 80559,
                "addr:teryt:sym_ul": 4434,
                "phone": "+48 523317510",
                "email": "sp_bukowiec@op.pl",
                "ref:regon": "000265224",
                "ref:vatin": "PL5591789340",
                "operator": "Gmina Bukowiec",
                "operator:type": "government",
                "amenity": "school"
            }
        },
        {
            "id": 15745,
            "type": "Feature",
            "geometry": {
                "type": "Point",
                "coordinates": [
                    18.24334,
                    53.43232
                ]
            },
            "properties": {
                "ref:rspo": 15745,
                "official_name": "Przedszkole Bukowiec",
                "name": "Przedszkole Bukowiec",
                "addr:postcode": "86-122",
                "addr:city": "Bukowiec",
                "addr:street": "Doktora Floriana Ceynowy",
                "addr:housenumber": "11",
                "addr:teryt:simc": 80559,
                "addr:teryt:sym_ul": 28485,
                "phone": "+48 523322560",
                "email": "przedszkolebukowiec@wp.pl",
                "ref:regon": "000947290",
                "ref:vatin": "PL5591789268",
                "operator": "Gmina Bukowiec",
                "operator:type": "government",
                "amenity": "kindergarten"
            }
        }
    ]
}