{
    "type": "FeatureCollection",
    "features": [
        {
            "id": 10542,
            "type": "Feature",
            "geometry": {
                "type": "Point",
                "coordinates": [
                    18.67156,
                    53.58623
                ]
            },
            "properties": {
                "isced:level": "1;2",
                "ref:rspo": 10542,
                "official_name": "Szko\u0142a Podstawowa im.jana Paw\u0142a Ii",
                "name": "Szko\u0142a Podstawowa im.jana Paw\u0142a Ii",
                "addr:country": "PL",
                "addr:postcode": "86-160",
                "addr:city": "Wielki Komorsk",
                "addr:street": "Grudzi\u0105dzka",
                "addr:housenumber": "3",
                "addr:teryt:simc": 6236,
                "addr:teryt:sym_ul": 99530,
                "contact:phone": "+48 523326523",
                "contact:email": "dyrektor@spkomorsk.pl",
                "contact:website": "http:\/\/www.spkomorsk.pl",
                "ref:regon": "001155242",
                "ref:vatin": "PL5591787542",
                "operator": "Gmina Warlubie",
                "operator:type": "government",
                "amenity": "school"
            }
        },
        {
            "id": 107469,
            "type": "Feature",
            "geometry": {
                "type": "Point",
                "coordinates": [
                    18.63034,
                    53.58932
                ]
            },
            "properties": {
                "isced:level": "1;2",
                "ref:rspo": 107469,
                "official_name": "Publiczna Szko\u0142a Podstawowa im.br.malinowskiego w Warlubiu",
                "name": "Publiczna Szko\u0142a Podstawowa im.br.malinowskiego w Warlubiu",
                "addr:country": "PL",
                "addr:postcode": "86-160",
                "addr:city": "Warlubie",
                "addr:street": "Szkolna",
                "addr:housenumber": "20A",
                "addr:teryt:simc": 21970,
                "addr:teryt:sym_ul": 99493,
                "contact:phone": "+48 523326161",
                "contact:email": "pspwar@o2.pl",
                "contact:website": "http:\/\/pspwarlubie.pl",
                "ref:regon": "000273548",
                "ref:vatin": "PL5591786399",
                "operator": "Gmina Warlubie",
                "operator:type": "government",
                "amenity": "school"
            }
        },
        {
            "id": 34985,
            "type": "Feature",
            "geometry": {
                "type": "Point",
                "coordinates": [
                    18.62777,
                    53.58943
                ]
            },
            "properties": {
                "ref:rspo": 34985,
                "official_name": "Specjalny O\u015brodek Szkolno - Wychowawczy im. Polskich Olimpijczyk\u00f3w w Warlubiu",
                "name": "Specjalny O\u015brodek Szkolno - Wychowawczy",
                "addr:country": "PL",
                "addr:postcode": "86-160",
                "addr:city": "Warlubie",
                "addr:street": "Szkolna",
                "addr:housenumber": "8",
                "addr:teryt:simc": 21970,
                "addr:teryt:sym_ul": 99493,
                "contact:phone": "+48 523326162",
                "contact:email": "soswwarlubie4@wp.pl",
                "contact:website": "http:\/\/www.soswwarlubie.pl",
                "ref:regon": "340058246",
                "ref:vatin": "PL5591289726",
                "operator": "Powiat \u015awiecki",
                "operator:type": "government",
                "amenity": "school",
                "note": "Children RSPO: 58987;58990;109710;268937"
            }
        },
        {
            "id": 58987,
            "type": "Feature",
            "geometry": {
                "type": "Point",
                "coordinates": [
                    18.62777,
                    53.5894
                ]
            },
            "properties": {
                "isced:level": "1;2",
                "ref:rspo": 58987,
                "official_name": "Szko\u0142a Podstawowa Specjalna Nr 2 w Warlubiu w Specjalnym O\u015brodku Szkolno-Wychowawczym im. Polskich Olimpijczyk\u00f3w",
                "name": "Szko\u0142a Podstawowa Specjalna Nr 2 w Warlubiu w Specjalnym O\u015brodku Szkolno-Wychowawczym",
                "addr:country": "PL",
                "addr:postcode": "86-160",
                "addr:city": "Warlubie",
                "addr:street": "Szkolna",
                "addr:housenumber": "8",
                "addr:teryt:simc": 21970,
                "addr:teryt:sym_ul": 99493,
                "contact:phone": "+48 523326162",
                "contact:email": "www.soswwarlubie4@wp.pl",
                "contact:website": "http:\/\/www.soswwarlubie.pl",
                "ref:regon": "001221861",
                "ref:vatin": "PL5591289726",
                "operator": "Powiat \u015awiecki",
                "operator:type": "government",
                "amenity": "school",
                "note": "Parent RSPO: 34985"
            }
        },
        {
            "id": 58990,
            "type": "Feature",
            "geometry": {
                "type": "Point",
                "coordinates": [
                    18.62777,
                    53.58937
                ]
            },
            "properties": {
                "ref:rspo": 58990,
                "official_name": "Szko\u0142a Specjalna Przysposabiaj\u0105ca Do Pracy w Warlubiu w Specjalnym O\u015brodku Szkolno-Wychowawczym im. Polskich Olimpijczyk\u00f3w",
                "name": "Szko\u0142a Specjalna Przysposabiaj\u0105ca Do Pracy w Warlubiu w Specjalnym O\u015brodku Szkolno-Wychowawczym",
                "addr:country": "PL",
                "addr:postcode": "86-160",
                "addr:city": "Warlubie",
                "addr:street": "Szkolna",
                "addr:housenumber": "8",
                "addr:teryt:simc": 21970,
                "addr:teryt:sym_ul": 99493,
                "contact:phone": "+48 523326162",
                "contact:email": "soswwarlubie4@wp.pl",
                "contact:website": "http:\/\/www.soswwarlubie.pl",
                "ref:regon": "340148311",
                "ref:vatin": "PL5591289726",
                "operator": "Powiat \u015awiecki",
                "operator:type": "government",
                "amenity": "school",
                "note": "Parent RSPO: 34985"
            }
        },
        {
            "id": 109710,
            "type": "Feature",
            "geometry": {
                "type": "Point",
                "coordinates": [
                    18.62777,
                    53.58934
                ]
            },
            "properties": {
                "isced:level": "3",
                "ref:rspo": 109710,
                "official_name": "Specjalna Bran\u017cowa Szko\u0142a I Stopnia w Warlubiu w Specjalnym O\u015brodku Szkolno-Wychowawczym im. Polskich Olimpijczyk\u00f3w",
                "name": "Specjalna Bran\u017cowa Szko\u0142a I Stopnia w Warlubiu w Specjalnym O\u015brodku Szkolno-Wychowawczym",
                "addr:country": "PL",
                "addr:postcode": "86-160",
                "addr:city": "Warlubie",
                "addr:street": "Szkolna",
                "addr:housenumber": "8",
                "addr:teryt:simc": 21970,
                "addr:teryt:sym_ul": 99493,
                "contact:phone": "+48 523326162",
                "contact:email": "soswwarlubie4@wp.pl",
                "contact:website": "http:\/\/www.soswwarlubie.pl",
                "ref:regon": "341393515",
                "ref:vatin": "PL5591289726",
                "operator": "Powiat \u015awiecki",
                "operator:type": "government",
                "amenity": "school",
                "note": "Parent RSPO: 34985"
            }
        },
        {
            "id": 268937,
            "type": "Feature",
            "geometry": {
                "type": "Point",
                "coordinates": [
                    18.62777,
                    53.58931
                ]
            },
            "properties": {
                "ref:rspo": 268937,
                "official_name": "Przedszkole Specjalne Nr 2 \"Promyczek \" w Warlubiu Specjalny O\u015brodek Szkolno-Wychowawczy im. \"Polskich Olimpijczyk\u00f3w\" w Warlubiu",
                "name": "Przedszkole Specjalne Nr 2 \"Promyczek \" w Warlubiu Specjalny O\u015brodek Szkolno-Wychowawczy",
                "addr:country": "PL",
                "addr:postcode": "86-160",
                "addr:city": "Warlubie",
                "addr:street": "Szkolna",
                "addr:housenumber": "8",
                "addr:teryt:simc": 21970,
                "addr:teryt:sym_ul": 99493,
                "contact:phone": "+48 523326162",
                "contact:email": "soswwarlubie4@wp.pl",
                "contact:website": "http:\/\/www.soswwarlubie.pl",
                "ref:regon": "381296258",
                "operator": "Powiat \u015awiecki",
                "operator:type": "government",
                "amenity": "kindergarten",
                "note": "Parent RSPO: 34985"
            }
        },
        {
            "id": 7364,
            "type": "Feature",
            "geometry": {
                "type": "Point",
                "coordinates": [
                    18.4833169,
                    53.6358538
                ]
            },
            "properties": {
                "isced:level": "1;2",
                "ref:rspo": 7364,
                "official_name": "Szko\u0142a Podstawowa im.przyjaci\u00f3\u0142 Bor\u00f3w Tucholskich",
                "name": "Szko\u0142a Podstawowa im.przyjaci\u00f3\u0142 Bor\u00f3w Tucholskich",
                "addr:country": "PL",
                "addr:postcode": "86-160",
                "addr:place": "Lipinki",
                "addr:housenumber": "12",
                "addr:teryt:sym_ul": 99257,
                "contact:phone": "+48 523328661",
                "contact:email": "szkolalipinki@gmail.com",
                "contact:website": "http:\/\/www.splipinki.pl",
                "ref:regon": "001155259",
                "ref:vatin": "PL5591787559",
                "operator": "Gmina Warlubie",
                "operator:type": "government",
                "amenity": "school"
            }
        }
    ]
}