{
    "type": "FeatureCollection",
    "features": [
        {
            "id": 72849,
            "type": "Feature",
            "geometry": {
                "type": "Point",
                "coordinates": [
                    18.45329,
                    53.4918
                ]
            },
            "properties": {
                "ref:rspo": 72849,
                "official_name": "Przedszkole Samorz\u0105dowe \"Pod Kasztankiem\" w Laskowicach",
                "name": "Przedszkole Samorz\u0105dowe \"Pod Kasztankiem\" w Laskowicach",
                "addr:country": "PL",
                "addr:postcode": "86-130",
                "addr:city": "Laskowice",
                "addr:street": "D\u0142uga",
                "addr:housenumber": "2",
                "addr:teryt:simc": 3839,
                "addr:teryt:sym_ul": 87432,
                "contact:phone": "+48 523318152",
                "contact:email": "przedszkole.laskowice@wp.pl",
                "contact:website": "http:\/\/www.pslaskowice.stronyzklasa.pl",
                "ref:regon": "340099593",
                "ref:vatin": "PL5591789185",
                "operator": "Gmina Je\u017cewo",
                "operator:type": "government",
                "amenity": "kindergarten"
            }
        },
        {
            "id": 72754,
            "type": "Feature",
            "geometry": {
                "type": "Point",
                "coordinates": [
                    18.44954,
                    53.49411
                ]
            },
            "properties": {
                "isced:level": "1;2",
                "ref:rspo": 72754,
                "official_name": "Szko\u0142a Podstawowa im. Janusza Kusoci\u0144skiego w Laskowicach",
                "name": "Szko\u0142a Podstawowa",
                "addr:country": "PL",
                "addr:postcode": "86-130",
                "addr:city": "Laskowice",
                "addr:street": "Szkolna",
                "addr:housenumber": "6",
                "addr:teryt:simc": 21970,
                "addr:teryt:sym_ul": 87432,
                "contact:phone": "+48 523318111",
                "contact:email": "splaskowice@interia.pl",
                "contact:website": "http:\/\/www.splaskowice.edupage.org",
                "ref:regon": "090433810",
                "ref:vatin": "PL5591789216",
                "operator": "Gmina Je\u017cewo",
                "operator:type": "government",
                "amenity": "school"
            }
        },
        {
            "id": 72761,
            "type": "Feature",
            "geometry": {
                "type": "Point",
                "coordinates": [
                    18.40878,
                    53.50016
                ]
            },
            "properties": {
                "isced:level": "1;2",
                "ref:rspo": 72761,
                "official_name": "Szko\u0142a Podstawowa im. J. Korczaka w Kr\u0105plewicach",
                "name": "Szko\u0142a Podstawowa",
                "addr:country": "PL",
                "addr:postcode": "86-131",
                "addr:place": "Kr\u0105plewice",
                "addr:housenumber": "38",
                "addr:teryt:sym_ul": 87410,
                "contact:phone": "+48 523318196",
                "contact:email": "spkraplewice@wp.pl",
                "contact:website": "http:\/\/www.spkraplewice.szkolnastrona.pl",
                "ref:regon": "090433909",
                "ref:vatin": "PL5591789222",
                "operator": "Gmina Je\u017cewo",
                "operator:type": "government",
                "amenity": "school"
            }
        },
        {
            "id": 81582,
            "type": "Feature",
            "geometry": {
                "type": "Point",
                "coordinates": [
                    18.4934,
                    53.51337
                ]
            },
            "properties": {
                "isced:level": "1;2",
                "ref:rspo": 81582,
                "official_name": "Szko\u0142a Podstawowa im. Adama Mickiewicza w Je\u017cewie",
                "name": "Szko\u0142a Podstawowa",
                "addr:country": "PL",
                "addr:postcode": "86-131",
                "addr:city": "Je\u017cewo",
                "addr:street": "G\u0142\u00f3wna",
                "addr:housenumber": "37",
                "addr:teryt:simc": 5635,
                "addr:teryt:sym_ul": 87372,
                "contact:phone": "+48 523318014",
                "contact:email": "zsjezewo@wp.pl",
                "contact:website": "http:\/\/www.zsjezewo@edupage.org",
                "ref:regon": "090433789",
                "ref:vatin": "PL5591789239",
                "operator": "Gmina Je\u017cewo",
                "operator:type": "government",
                "amenity": "school"
            }
        }
    ]
}