{
    "type": "FeatureCollection",
    "features": [
        {
            "id": 56443,
            "type": "Feature",
            "geometry": {
                "type": "Point",
                "coordinates": [
                    21.28288,
                    54.13056
                ]
            },
            "properties": {
                "isced:level": "1;2",
                "ref:rspo": 56443,
                "official_name": "Szko\u0142a Podstawowa im.zas\u0142u\u017conych dla Warmii I Mazur w Garbnie",
                "name": "Szko\u0142a Podstawowa im.zas\u0142u\u017conych dla Warmii I Mazur w Garbnie",
                "addr:postcode": "11-430",
                "addr:place": "Garbno",
                "addr:housenumber": "36",
                "addr:city:simc": 478641,
                "phone": "+48 897543732",
                "email": "zsgarbno@op.pl",
                "ref:regon": "519459277",
                "ref:vatin": "PL7421907681",
                "operator": "Gmina Korsze",
                "operator:type": "government",
                "amenity": "school"
            }
        },
        {
            "id": 55544,
            "type": "Feature",
            "geometry": {
                "type": "Point",
                "coordinates": [
                    21.07603,
                    54.15085
                ]
            },
            "properties": {
                "isced:level": "1;2",
                "ref:rspo": 55544,
                "official_name": "Szko\u0142a Podstawowa im. Miko\u0142aja Kopernika w \u0141ankiejmach",
                "name": "Szko\u0142a Podstawowa",
                "addr:postcode": "11-430",
                "addr:place": "\u0141ankiejmy",
                "addr:housenumber": "10",
                "addr:city:simc": 478807,
                "phone": "+48 897543363",
                "email": "splankiejmy@korsze.pl",
                "website": "http:\/\/zslankiejmy.edupage.org",
                "ref:regon": "519453719",
                "ref:vatin": "PL7421912050",
                "operator": "Gmina Korsze",
                "operator:type": "government",
                "amenity": "school"
            }
        },
        {
            "id": 73451,
            "type": "Feature",
            "geometry": {
                "type": "Point",
                "coordinates": [
                    21.14261,
                    54.16839
                ]
            },
            "properties": {
                "ref:rspo": 73451,
                "official_name": "Przedszkole Miejskie w Korszach",
                "name": "Przedszkole Miejskie w Korszach",
                "addr:postcode": "11-430",
                "addr:city": "Korsze",
                "addr:street": "Wolno\u015bci",
                "addr:housenumber": "12",
                "addr:city:simc": 964726,
                "addr:street:sym_ul": 24687,
                "phone": "+48 897540164",
                "email": "przedszkolekorsze@gmail.com",
                "website": "http:\/\/www.przedszkolekorsze.pl",
                "ref:regon": "510696372",
                "ref:vatin": "PL7421820388",
                "operator": "Gmina Korsze",
                "operator:type": "government",
                "amenity": "kindergarten"
            }
        },
        {
            "id": 57107,
            "type": "Feature",
            "geometry": {
                "type": "Point",
                "coordinates": [
                    21.13495,
                    54.17108
                ]
            },
            "properties": {
                "isced:level": "1;2",
                "ref:rspo": 57107,
                "official_name": "Szko\u0142a Podstawowa im. Marii Konopnickiej w Korszach",
                "name": "Szko\u0142a Podstawowa",
                "addr:postcode": "11-430",
                "addr:city": "Korsze",
                "addr:street": "Tadeusza Ko\u015bciuszki",
                "addr:housenumber": "12",
                "addr:city:simc": 964726,
                "addr:street:sym_ul": 9582,
                "phone": "+48 897540027",
                "email": "szkola_korsze@korsze.pl",
                "website": "http:\/\/www.szkolakorsze.pl",
                "ref:regon": "519459120",
                "ref:vatin": "PL7421910306",
                "operator": "Gmina Korsze",
                "operator:type": "government",
                "amenity": "school"
            }
        },
        {
            "id": 60218,
            "type": "Feature",
            "geometry": {
                "type": "Point",
                "coordinates": [
                    21.0973,
                    54.23198
                ]
            },
            "properties": {
                "isced:level": "1;2",
                "ref:rspo": 60218,
                "official_name": "Szko\u0142a Podstawowa im. Jana Paw\u0142a II w S\u0105tocznie",
                "name": "Szko\u0142a Podstawowa",
                "addr:postcode": "11-430",
                "addr:place": "S\u0105toczno",
                "addr:housenumber": "8",
                "addr:city:simc": 479043,
                "phone": "+48 897543125",
                "email": "szkola_satoczno@korsze.pl",
                "ref:regon": "519459366",
                "ref:vatin": "PL7421912038",
                "operator": "Gmina Korsze",
                "operator:type": "government",
                "amenity": "school"
            }
        }
    ]
}