{
    "type": "FeatureCollection",
    "features": [
        {
            "id": 267624,
            "type": "Feature",
            "geometry": {
                "type": "Point",
                "coordinates": [
                    21.15048,
                    54.04946
                ]
            },
            "properties": {
                "ref:rspo": 267624,
                "official_name": "Zesp\u00f3\u0142 Szkolno-Przedszkolny",
                "name": "Zesp\u00f3\u0142 Szkolno-Przedszkolny",
                "addr:country": "PL",
                "addr:postcode": "11-440",
                "addr:city": "Reszel",
                "addr:street": "ul. Marii Konopnickiej",
                "addr:housenumber": "2",
                "addr:teryt:simc": 9186,
                "addr:teryt:sym_ul": 964979,
                "contact:phone": "+48 897550196",
                "contact:email": "sp3reszel@onet.pl",
                "contact:website": "http:\/\/sp3.reszel.pl",
                "ref:regon": "380440575",
                "ref:vatin": "PL7422264110",
                "operator": "Gmina Reszel",
                "operator:type": "government",
                "landuse": "education",
                "fixme": "amenity=school, amenity=college albo landuse=education w zale\u017cno\u015bci od tego, jakie plac\u00f3wki wchodz\u0105 w sk\u0142ad zespo\u0142u. Sprawd\u017a, kiedy stosowa\u0107 amenity=* a kiedy landuse=education.",
                "note": "Children RSPO: 4987;267625"
            }
        },
        {
            "id": 4987,
            "type": "Feature",
            "geometry": {
                "type": "Point",
                "coordinates": [
                    21.15048,
                    54.04943
                ]
            },
            "properties": {
                "isced:level": "1;2",
                "ref:rspo": 4987,
                "official_name": "Szko\u0142a Podstawowa Nr 3 im. Marii D\u0105browskiej",
                "name": "Szko\u0142a Podstawowa Nr 3",
                "addr:country": "PL",
                "addr:postcode": "11-440",
                "addr:city": "Reszel",
                "addr:street": "ul. Marii Konopnickiej",
                "addr:housenumber": "2",
                "addr:teryt:simc": 9186,
                "addr:teryt:sym_ul": 964979,
                "contact:phone": "+48 897550196",
                "contact:email": "sp3reszel@onet.pl",
                "contact:website": "http:\/\/www.sp3.reszel.pl",
                "ref:regon": "000264420",
                "operator": "Gmina Reszel",
                "operator:type": "government",
                "amenity": "school",
                "note": "Parent RSPO: 267624"
            }
        },
        {
            "id": 267625,
            "type": "Feature",
            "geometry": {
                "type": "Point",
                "coordinates": [
                    21.15048,
                    54.049400000000006
                ]
            },
            "properties": {
                "ref:rspo": 267625,
                "official_name": "Przedszkole Samorz\u0105dowe",
                "name": "Przedszkole Samorz\u0105dowe",
                "addr:country": "PL",
                "addr:postcode": "11-440",
                "addr:city": "Reszel",
                "addr:street": "ul. Marii Konopnickiej",
                "addr:housenumber": "2",
                "addr:teryt:simc": 9186,
                "addr:teryt:sym_ul": 964979,
                "contact:phone": "+48 897550196",
                "contact:email": "sp3reszel@onet.pl",
                "contact:website": "http:\/\/sp3.reszel.pl",
                "ref:regon": "380440581",
                "operator": "Gmina Reszel",
                "operator:type": "government",
                "amenity": "kindergarten",
                "note": "Parent RSPO: 267624"
            }
        },
        {
            "id": 28543,
            "type": "Feature",
            "geometry": {
                "type": "Point",
                "coordinates": [
                    21.13981,
                    54.05067
                ]
            },
            "properties": {
                "ref:rspo": 28543,
                "official_name": "Zesp\u00f3\u0142 Szk\u00f3\u0142 im. Macieja Rataja w Reszlu",
                "name": "Zesp\u00f3\u0142 Szk\u00f3\u0142",
                "addr:country": "PL",
                "addr:postcode": "11-440",
                "addr:city": "Reszel",
                "addr:street": "ul. Waleriana \u0141ukasi\u0144skiego",
                "addr:housenumber": "3",
                "addr:teryt:simc": 11755,
                "addr:teryt:sym_ul": 964979,
                "contact:phone": "+48 897550040",
                "contact:email": "rataj@zsreszel.pl",
                "contact:website": "http:\/\/www.zs.reszel.pl\/",
                "ref:regon": "510926151",
                "ref:vatin": "PL7421088846",
                "operator": "Powiat K\u0119trzy\u0144ski",
                "operator:type": "government",
                "landuse": "education",
                "fixme": "amenity=school, amenity=college albo landuse=education w zale\u017cno\u015bci od tego, jakie plac\u00f3wki wchodz\u0105 w sk\u0142ad zespo\u0142u. Sprawd\u017a, kiedy stosowa\u0107 amenity=* a kiedy landuse=education.",
                "note": "Children RSPO: 34246;34247;34248;131015;275425"
            }
        },
        {
            "id": 34246,
            "type": "Feature",
            "geometry": {
                "type": "Point",
                "coordinates": [
                    21.13981,
                    54.050639999999994
                ]
            },
            "properties": {
                "isced:level": "3",
                "ref:rspo": 34246,
                "official_name": "Liceum Og\u00f3lnokszta\u0142c\u0105ce w Reszlu",
                "name": "Liceum Og\u00f3lnokszta\u0142c\u0105ce w Reszlu",
                "addr:country": "PL",
                "addr:postcode": "11-440",
                "addr:city": "Reszel",
                "addr:street": "ul. Waleriana \u0141ukasi\u0144skiego",
                "addr:housenumber": "3",
                "addr:teryt:simc": 11755,
                "addr:teryt:sym_ul": 964979,
                "contact:phone": "+48 897550040",
                "contact:email": "rataj@zsreszel.pl",
                "contact:website": "http:\/\/zs.reszel.pl\/",
                "ref:regon": "519476548",
                "ref:vatin": "PL7421088846",
                "operator": "Powiat K\u0119trzy\u0144ski",
                "operator:type": "government",
                "amenity": "school",
                "note": "Parent RSPO: 28543"
            }
        },
        {
            "id": 34247,
            "type": "Feature",
            "geometry": {
                "type": "Point",
                "coordinates": [
                    21.13981,
                    54.05061
                ]
            },
            "properties": {
                "isced:level": "3",
                "ref:rspo": 34247,
                "official_name": "Technikum w Reszlu",
                "name": "Technikum w Reszlu",
                "addr:country": "PL",
                "addr:postcode": "11-440",
                "addr:city": "Reszel",
                "addr:street": "ul. Waleriana \u0141ukasi\u0144skiego",
                "addr:housenumber": "3",
                "addr:teryt:simc": 11755,
                "addr:teryt:sym_ul": 964979,
                "contact:phone": "+48 897550040",
                "contact:email": "rataj@zsreszel.pl",
                "contact:website": "http:\/\/zs.reszel.pl\/",
                "ref:regon": "519476554",
                "ref:vatin": "PL7421088846",
                "operator": "Powiat K\u0119trzy\u0144ski",
                "operator:type": "government",
                "amenity": "school",
                "note": "Parent RSPO: 28543"
            }
        },
        {
            "id": 34248,
            "type": "Feature",
            "geometry": {
                "type": "Point",
                "coordinates": [
                    21.13981,
                    54.05058
                ]
            },
            "properties": {
                "isced:level": "3",
                "ref:rspo": 34248,
                "official_name": "Bran\u017cowa Szko\u0142a I Stopnia w Reszlu",
                "name": "Bran\u017cowa Szko\u0142a I Stopnia w Reszlu",
                "addr:country": "PL",
                "addr:postcode": "11-440",
                "addr:city": "Reszel",
                "addr:street": "ul. Waleriana \u0141ukasi\u0144skiego",
                "addr:housenumber": "3",
                "addr:teryt:simc": 11755,
                "addr:teryt:sym_ul": 964979,
                "contact:phone": "+48 897550040",
                "contact:email": "rataj@zsreszel.pl",
                "contact:website": "http:\/\/zs.reszel.pl\/",
                "ref:regon": "519476531",
                "ref:vatin": "PL7421088846",
                "operator": "Powiat K\u0119trzy\u0144ski",
                "operator:type": "government",
                "amenity": "school",
                "note": "Parent RSPO: 28543"
            }
        },
        {
            "id": 131015,
            "type": "Feature",
            "geometry": {
                "type": "Point",
                "coordinates": [
                    21.13981,
                    54.050549999999994
                ]
            },
            "properties": {
                "ref:rspo": 131015,
                "official_name": "Szkolne Schronisko M\u0142odzie\u017cowe Przy Zespole Szk\u00f3\u0142 im. Macieja Rataja w Reszlu",
                "name": "Szkolne Schronisko M\u0142odzie\u017cowe Przy Zespole Szk\u00f3\u0142",
                "addr:country": "PL",
                "addr:postcode": "11-440",
                "addr:city": "Reszel",
                "addr:street": "ul. Waleriana \u0141ukasi\u0144skiego",
                "addr:housenumber": "3",
                "addr:teryt:simc": 11755,
                "addr:teryt:sym_ul": 964979,
                "contact:phone": "+48 897550040",
                "contact:email": "rataj@zsreszel.pl",
                "contact:website": "http:\/\/www.zsreszel.pl",
                "ref:regon": "364870489",
                "ref:vatin": "PL7421088846",
                "operator": "Powiat K\u0119trzy\u0144ski",
                "operator:type": "government",
                "tourism": "hostel",
                "note": "Parent RSPO: 28543"
            }
        },
        {
            "id": 275425,
            "type": "Feature",
            "geometry": {
                "type": "Point",
                "coordinates": [
                    21.13981,
                    54.05052
                ]
            },
            "properties": {
                "isced:level": "3",
                "ref:rspo": 275425,
                "official_name": "Bran\u017cowa Szko\u0142a II Stopnia w Reszlu",
                "name": "Bran\u017cowa Szko\u0142a II Stopnia w Reszlu",
                "addr:country": "PL",
                "addr:postcode": "11-440",
                "addr:city": "Reszel",
                "addr:street": "ul. Waleriana \u0141ukasi\u0144skiego",
                "addr:housenumber": "3",
                "addr:teryt:simc": 11755,
                "addr:teryt:sym_ul": 964979,
                "contact:phone": "+48 897550040",
                "contact:email": "rataj@zsreszel.pl",
                "ref:regon": "386916560",
                "operator": "Powiat K\u0119trzy\u0144ski",
                "operator:type": "government",
                "amenity": "school",
                "note": "Parent RSPO: 28543"
            }
        }
    ]
}