{
    "type": "FeatureCollection",
    "features": [
        {
            "id": 66478,
            "type": "Feature",
            "geometry": {
                "type": "Point",
                "coordinates": [
                    21.13568,
                    51.84842
                ]
            },
            "properties": {
                "isced:level": "1;2",
                "ref:rspo": 66478,
                "official_name": "Publiczna Szko\u0142a Podstawowa im. Tadeusza Stokowskiego w Watraszewie",
                "name": "Publiczna Szko\u0142a Podstawowa",
                "addr:postcode": "05-650",
                "addr:place": "Watraszew",
                "addr:housenumber": "4B",
                "addr:teryt:simc": 616876,
                "phone": "+48 486691144",
                "email": "pspwatraszew@wp.pl",
                "website": "http:\/\/www.pspwatraszew.pl",
                "ref:regon": "001145769",
                "ref:vatin": "PL7971806726",
                "operator": "Gmina Chyn\u00f3w",
                "operator:type": "government",
                "amenity": "school"
            }
        },
        {
            "id": 66473,
            "type": "Feature",
            "geometry": {
                "type": "Point",
                "coordinates": [
                    21.06,
                    51.86235
                ]
            },
            "properties": {
                "isced:level": "1;2",
                "ref:rspo": 66473,
                "official_name": "Publiczna Szko\u0142a Podstawowa im. Kawaler\u00f3w Orderu U\u015bmiechu w Budziszynku",
                "name": "Publiczna Szko\u0142a Podstawowa",
                "addr:postcode": "05-650",
                "addr:place": "Budziszynek",
                "addr:housenumber": "5",
                "addr:teryt:simc": 616480,
                "phone": "+48 486614151",
                "email": "szkobudziszynek@interia.pl",
                "ref:regon": "001194704",
                "ref:vatin": "PL7971806689",
                "operator": "Gmina Chyn\u00f3w",
                "operator:type": "government",
                "amenity": "school"
            }
        },
        {
            "id": 66479,
            "type": "Feature",
            "geometry": {
                "type": "Point",
                "coordinates": [
                    20.82651,
                    51.884
                ]
            },
            "properties": {
                "isced:level": "1;2",
                "ref:rspo": 66479,
                "official_name": "Publiczna Szko\u0142a Podstawowa im. Poet\u00f3w Polskich w Zalesiu",
                "name": "Publiczna Szko\u0142a Podstawowa",
                "addr:postcode": "05-650",
                "addr:place": "Zalesie",
                "addr:housenumber": "12",
                "addr:teryt:simc": 616971,
                "phone": "+48 486614268",
                "email": "pspzalesie12@poczta.onet.pl",
                "ref:regon": "001145775",
                "ref:vatin": "PL7971806703",
                "operator": "Gmina Chyn\u00f3w",
                "operator:type": "government",
                "amenity": "school"
            }
        },
        {
            "id": 71540,
            "type": "Feature",
            "geometry": {
                "type": "Point",
                "coordinates": [
                    21.01883,
                    51.89616
                ]
            },
            "properties": {
                "isced:level": "1;2",
                "ref:rspo": 71540,
                "official_name": "Publiczna Szko\u0142a Podstawowa w Drwalewie",
                "name": "Publiczna Szko\u0142a Podstawowa w Drwalewie",
                "addr:postcode": "05-651",
                "addr:city": "Drwalew",
                "addr:street": "Szkolna",
                "addr:housenumber": "4",
                "addr:teryt:simc": 616528,
                "addr:teryt:sym_ul": 21970,
                "phone": "+48 486615890",
                "email": "pspdrwalew@wp.pl",
                "ref:regon": "001145798",
                "ref:vatin": "PL7971807111",
                "operator": "Gmina Chyn\u00f3w",
                "operator:type": "government",
                "amenity": "school"
            }
        },
        {
            "id": 122905,
            "type": "Feature",
            "geometry": {
                "type": "Point",
                "coordinates": [
                    21.0820599,
                    51.9026799
                ]
            },
            "properties": {
                "ref:rspo": 122905,
                "official_name": "Niepubliczne Przedszkole \"Bociek\"",
                "name": "Niepubliczne Przedszkole \"Bociek\"",
                "addr:postcode": "05-650",
                "addr:city": "Chyn\u00f3w",
                "addr:street": "Wolska",
                "addr:housenumber": "5",
                "addr:teryt:simc": 616497,
                "addr:teryt:sym_ul": 24694,
                "phone": "+48 537337447",
                "email": "przedszkole-bociek@wp.pl",
                "ref:regon": "147208100",
                "ref:vatin": "PL7971666389",
                "operator": "Konrad Jaworek",
                "operator:type": "private",
                "amenity": "kindergarten"
            }
        },
        {
            "id": 66481,
            "type": "Feature",
            "geometry": {
                "type": "Point",
                "coordinates": [
                    21.08233,
                    51.90479
                ]
            },
            "properties": {
                "ref:rspo": 66481,
                "official_name": "Zesp\u00f3\u0142 Szkolno-Przedszkolny w Chynowie",
                "name": "Zesp\u00f3\u0142 Szkolno-Przedszkolny w Chynowie",
                "addr:postcode": "05-650",
                "addr:city": "Chyn\u00f3w",
                "addr:street": "G\u0142\u00f3wna",
                "addr:housenumber": "52",
                "addr:teryt:simc": 616497,
                "addr:teryt:sym_ul": 5635,
                "phone": "+48 486615920",
                "email": "psp_chynow@op.pl",
                "ref:regon": "141081897",
                "ref:vatin": "PL7971961846",
                "operator": "Gmina Chyn\u00f3w",
                "operator:type": "government",
                "landuse": "education",
                "fixme": "amenity=school, amenity=college albo landuse=education w zale\u017cno\u015bci od tego, jakie plac\u00f3wki wchodz\u0105 w sk\u0142ad zespo\u0142u. Sprawd\u017a, kiedy stosowa\u0107 amenity=* a kiedy landuse=education.",
                "note": "Children RSPO: 71090;103877"
            }
        },
        {
            "id": 71090,
            "type": "Feature",
            "geometry": {
                "type": "Point",
                "coordinates": [
                    21.08233,
                    51.904759999999996
                ]
            },
            "properties": {
                "ref:rspo": 71090,
                "official_name": "Przedszkole Publiczne w Chynowie",
                "name": "Przedszkole Publiczne w Chynowie",
                "addr:postcode": "05-650",
                "addr:city": "Chyn\u00f3w",
                "addr:street": "G\u0142\u00f3wna",
                "addr:housenumber": "52",
                "addr:teryt:simc": 616497,
                "addr:teryt:sym_ul": 5635,
                "phone": "+48 486615920",
                "email": "psp_chynow@op.pl",
                "ref:regon": "141081874",
                "operator": "Gmina Chyn\u00f3w",
                "operator:type": "government",
                "amenity": "kindergarten",
                "note": "Parent RSPO: 66481"
            }
        },
        {
            "id": 103877,
            "type": "Feature",
            "geometry": {
                "type": "Point",
                "coordinates": [
                    21.08233,
                    51.90473
                ]
            },
            "properties": {
                "isced:level": "1;2",
                "ref:rspo": 103877,
                "official_name": "Publiczna Szko\u0142a Podstawowa im. Kornela Makuszy\u0144skiego w Chynowie",
                "name": "Publiczna Szko\u0142a Podstawowa",
                "addr:postcode": "05-650",
                "addr:city": "Chyn\u00f3w",
                "addr:street": "G\u0142\u00f3wna",
                "addr:housenumber": "52",
                "addr:teryt:simc": 616497,
                "addr:teryt:sym_ul": 5635,
                "phone": "+48 486615920",
                "email": "psp_chynow@op.pl",
                "ref:regon": "000679173",
                "ref:vatin": "PL7971806695",
                "operator": "Gmina Chyn\u00f3w",
                "operator:type": "government",
                "amenity": "school",
                "note": "Parent RSPO: 66481"
            }
        },
        {
            "id": 66474,
            "type": "Feature",
            "geometry": {
                "type": "Point",
                "coordinates": [
                    21.1479,
                    51.91409
                ]
            },
            "properties": {
                "isced:level": "1;2",
                "ref:rspo": 66474,
                "official_name": "Publiczna Szko\u0142a Podstawowa im. Jana Paw\u0142a II w Machcinie",
                "name": "Publiczna Szko\u0142a Podstawowa",
                "addr:postcode": "05-650",
                "addr:place": "Machcin",
                "addr:housenumber": "24",
                "addr:teryt:simc": 616706,
                "phone": "+48 486614105",
                "email": "szkolamachcin@wp.pl",
                "ref:regon": "001145580",
                "ref:vatin": "PL7971806755",
                "operator": "Gmina Chyn\u00f3w",
                "operator:type": "government",
                "amenity": "school"
            }
        },
        {
            "id": 66475,
            "type": "Feature",
            "geometry": {
                "type": "Point",
                "coordinates": [
                    21.01921,
                    51.9216
                ]
            },
            "properties": {
                "isced:level": "1;2",
                "ref:rspo": 66475,
                "official_name": "Publiczna Szko\u0142a Podstawowa im. Marii Konopnickiej w Pieczyskach",
                "name": "Publiczna Szko\u0142a Podstawowa",
                "addr:postcode": "05-651",
                "addr:place": "Pieczyska",
                "addr:housenumber": "13",
                "addr:teryt:simc": 616793,
                "phone": "+48 486646869",
                "email": "szkpieczyska@o2.pl",
                "website": "http:\/\/szkpieczyska.superszkolna.pl",
                "ref:regon": "001145551",
                "ref:vatin": "PL7971806749",
                "operator": "Gmina Chyn\u00f3w",
                "operator:type": "government",
                "amenity": "school"
            }
        },
        {
            "id": 66477,
            "type": "Feature",
            "geometry": {
                "type": "Point",
                "coordinates": [
                    21.09025,
                    51.92595
                ]
            },
            "properties": {
                "isced:level": "1;2",
                "ref:rspo": 66477,
                "official_name": "Publiczna Szko\u0142a Podstawowa im. Jana Brzechwy w Su\u0142kowicach",
                "name": "Publiczna Szko\u0142a Podstawowa",
                "addr:postcode": "05-650",
                "addr:city": "Su\u0142kowice",
                "addr:street": "Ogrodowa",
                "addr:housenumber": "38a",
                "addr:teryt:simc": 616860,
                "addr:teryt:sym_ul": 14834,
                "phone": "+48 486615910",
                "email": "pspsulkowice@hoga.pl",
                "ref:regon": "001145781",
                "ref:vatin": "PL7971806732",
                "operator": "Gmina Chyn\u00f3w",
                "operator:type": "government",
                "amenity": "school"
            }
        },
        {
            "id": 119155,
            "type": "Feature",
            "geometry": {
                "type": "Point",
                "coordinates": [
                    21.09954,
                    51.92641
                ]
            },
            "properties": {
                "ref:rspo": 119155,
                "official_name": "Niepubliczne Przedszkole \"Promyczek\" w Su\u0142kowicach",
                "name": "Niepubliczne Przedszkole \"Promyczek\" w Su\u0142kowicach",
                "addr:postcode": "05-650",
                "addr:city": "Su\u0142kowice",
                "addr:street": "Kolejowa",
                "addr:housenumber": "9a",
                "addr:teryt:simc": 616860,
                "addr:teryt:sym_ul": 8828,
                "phone": "+48 606202101",
                "email": "radosne@przedszkole-promyczek.com.pl",
                "website": "http:\/\/www.przedszkole-promyczek.com.pl",
                "ref:regon": "146837348",
                "ref:vatin": "PL5211998989",
                "operator": "Ma\u0142gorzata Urban",
                "operator:type": "private",
                "amenity": "kindergarten"
            }
        }
    ]
}