{
    "type": "FeatureCollection",
    "features": [
        {
            "id": 24311,
            "type": "Feature",
            "geometry": {
                "type": "Point",
                "coordinates": [
                    20.72199,
                    51.64024
                ]
            },
            "properties": {
                "ref:rspo": 24311,
                "official_name": "Zesp\u00f3\u0142 Publicznej Szko\u0142y Podstawowej I Publicznego Przedszkola w Micha\u0142owicach",
                "name": "Zesp\u00f3\u0142 Publicznej Szko\u0142y Podstawowej I Publicznego Przedszkola w Micha\u0142owicach",
                "addr:country": "PL",
                "addr:postcode": "05-640",
                "addr:place": "Micha\u0142owice",
                "addr:housenumber": "4",
                "addr:teryt:sym_ul": 629382,
                "contact:phone": "+48 486635428",
                "contact:email": "pspipp_michalowice@wp.pl",
                "ref:regon": "001145960",
                "ref:vatin": "PL7971478021",
                "operator": "Gmina Mogielnica",
                "operator:type": "government",
                "landuse": "education",
                "fixme": "amenity=school, amenity=college albo landuse=education w zale\u017cno\u015bci od tego, jakie plac\u00f3wki wchodz\u0105 w sk\u0142ad zespo\u0142u. Sprawd\u017a, kiedy stosowa\u0107 amenity=* a kiedy landuse=education.",
                "note": "Children RSPO: 53106;89385"
            }
        },
        {
            "id": 53106,
            "type": "Feature",
            "geometry": {
                "type": "Point",
                "coordinates": [
                    20.7213,
                    51.64029
                ]
            },
            "properties": {
                "ref:rspo": 53106,
                "official_name": "Publiczne Przedszkole w Micha\u0142owicach",
                "name": "Publiczne Przedszkole w Micha\u0142owicach",
                "addr:country": "PL",
                "addr:postcode": "05-640",
                "addr:place": "Micha\u0142owice",
                "addr:housenumber": "1",
                "addr:teryt:sym_ul": 629382,
                "contact:phone": "+48 486635428",
                "ref:regon": "146365688",
                "operator": "Gmina Mogielnica",
                "operator:type": "government",
                "amenity": "kindergarten",
                "note": "Parent RSPO: 24311"
            }
        },
        {
            "id": 89385,
            "type": "Feature",
            "geometry": {
                "type": "Point",
                "coordinates": [
                    20.7213,
                    51.64026
                ]
            },
            "properties": {
                "isced:level": "1;2",
                "ref:rspo": 89385,
                "official_name": "Publiczna Szko\u0142a Podstawowa w Micha\u0142owicach",
                "name": "Publiczna Szko\u0142a Podstawowa w Micha\u0142owicach",
                "addr:country": "PL",
                "addr:postcode": "05-640",
                "addr:place": "Micha\u0142owice",
                "addr:housenumber": "1",
                "addr:teryt:sym_ul": 629382,
                "contact:phone": "+48 486635428",
                "contact:email": "pspipp_michalowice@wp.pl",
                "ref:regon": "146447647",
                "operator": "Gmina Mogielnica",
                "operator:type": "government",
                "amenity": "school",
                "note": "Parent RSPO: 24311"
            }
        },
        {
            "id": 24340,
            "type": "Feature",
            "geometry": {
                "type": "Point",
                "coordinates": [
                    20.78558,
                    51.65251
                ]
            },
            "properties": {
                "isced:level": "1;2",
                "ref:rspo": 24340,
                "official_name": "Publiczna Szko\u0142a Podstawowa w Borowem",
                "name": "Publiczna Szko\u0142a Podstawowa w Borowem",
                "addr:country": "PL",
                "addr:postcode": "05-640",
                "addr:place": "Borowe",
                "addr:housenumber": "28",
                "addr:teryt:sym_ul": 629181,
                "contact:phone": "+48 486635002",
                "contact:email": "psp.borowe@wp.pl",
                "ref:regon": "001145953",
                "ref:vatin": "PL7971478015",
                "operator": "Gmina Mogielnica",
                "operator:type": "government",
                "amenity": "school"
            }
        },
        {
            "id": 34477,
            "type": "Feature",
            "geometry": {
                "type": "Point",
                "coordinates": [
                    20.72027,
                    51.69077
                ]
            },
            "properties": {
                "ref:rspo": 34477,
                "official_name": "Zesp\u00f3\u0142 Szk\u00f3\u0142 Og\u00f3lnokszta\u0142c\u0105cych im. Jana Kili\u0144skiego w Mogielnicy",
                "name": "Zesp\u00f3\u0142 Szk\u00f3\u0142 Og\u00f3lnokszta\u0142c\u0105cych",
                "addr:country": "PL",
                "addr:postcode": "05-640",
                "addr:city": "Mogielnica",
                "addr:street": "Nowomiejska",
                "addr:housenumber": "1",
                "addr:teryt:simc": 14444,
                "addr:teryt:sym_ul": 973665,
                "contact:phone": "+48 486635016",
                "contact:email": "zso.mogielnica@gmail.com",
                "contact:website": "http:\/\/zsomogielnica.pl",
                "ref:regon": "000263188",
                "ref:vatin": "PL7971478050",
                "operator": "Gmina Mogielnica",
                "operator:type": "government",
                "landuse": "education",
                "fixme": "amenity=school, amenity=college albo landuse=education w zale\u017cno\u015bci od tego, jakie plac\u00f3wki wchodz\u0105 w sk\u0142ad zespo\u0142u. Sprawd\u017a, kiedy stosowa\u0107 amenity=* a kiedy landuse=education.",
                "note": "Children RSPO: 48990;262608"
            }
        },
        {
            "id": 48990,
            "type": "Feature",
            "geometry": {
                "type": "Point",
                "coordinates": [
                    20.72027,
                    51.69074
                ]
            },
            "properties": {
                "isced:level": "3",
                "ref:rspo": 48990,
                "official_name": "Publiczne Liceum Og\u00f3lnokszta\u0142c\u0105ce w Mogielnicy",
                "name": "Publiczne Liceum Og\u00f3lnokszta\u0142c\u0105ce w Mogielnicy",
                "addr:country": "PL",
                "addr:postcode": "05-640",
                "addr:city": "Mogielnica",
                "addr:street": "Nowomiejska",
                "addr:housenumber": "1",
                "addr:teryt:simc": 14444,
                "addr:teryt:sym_ul": 973665,
                "contact:phone": "+48 486635016",
                "contact:email": "zso.mogielnica@gmail.com",
                "ref:regon": "141333407",
                "operator": "Gmina Mogielnica",
                "operator:type": "government",
                "amenity": "school",
                "note": "Parent RSPO: 34477"
            }
        },
        {
            "id": 262608,
            "type": "Feature",
            "geometry": {
                "type": "Point",
                "coordinates": [
                    20.72027,
                    51.69071
                ]
            },
            "properties": {
                "isced:level": "1;2",
                "ref:rspo": 262608,
                "official_name": "Publiczna Szko\u0142a Podstawowa Nr 1 Z Oddzia\u0142ami Dwuj\u0119zycznymi",
                "name": "Publiczna Szko\u0142a Podstawowa Nr 1 Z Oddzia\u0142ami Dwuj\u0119zycznymi",
                "addr:country": "PL",
                "addr:postcode": "05-640",
                "addr:city": "Mogielnica",
                "addr:street": "Nowomiejska",
                "addr:housenumber": "1",
                "addr:teryt:simc": 14444,
                "addr:teryt:sym_ul": 973665,
                "contact:phone": "+48 486635016",
                "contact:email": "zso.mogielnica@gmail.com",
                "contact:website": "http:\/\/www.zsomogielnica.pl\/",
                "ref:regon": "368041761",
                "operator": "Gmina Mogielnica",
                "operator:type": "government",
                "amenity": "school",
                "note": "Parent RSPO: 34477"
            }
        },
        {
            "id": 34480,
            "type": "Feature",
            "geometry": {
                "type": "Point",
                "coordinates": [
                    20.72083,
                    51.69261
                ]
            },
            "properties": {
                "ref:rspo": 34480,
                "official_name": "Przedszkole Niepubliczne Zgromadzenia Si\u00f3str Pasjonistek \u015aw. Paw\u0142a Od Krzy\u017ca",
                "name": "Przedszkole Niepubliczne Zgromadzenia Si\u00f3str Pasjonistek \u015aw. Paw\u0142a Od Krzy\u017ca",
                "addr:country": "PL",
                "addr:postcode": "05-640",
                "addr:city": "Mogielnica",
                "addr:street": "Plac Po\u015bwi\u0119tne",
                "addr:housenumber": "12",
                "addr:teryt:simc": 17265,
                "addr:teryt:sym_ul": 973665,
                "contact:phone": "+48 486635296",
                "contact:email": "przedszkole.cp@wp.pl",
                "contact:website": "http:\/\/www.przedszkolekatolickiemogielnica.szkolnastrona.pl",
                "ref:regon": "146353225",
                "ref:vatin": "PL7971645163",
                "operator": "Dane Do Uzupe\u0142nienia",
                "operator:type": "private",
                "amenity": "kindergarten"
            }
        },
        {
            "id": 24643,
            "type": "Feature",
            "geometry": {
                "type": "Point",
                "coordinates": [
                    20.7292999,
                    51.69548
                ]
            },
            "properties": {
                "isced:level": "1;2",
                "ref:rspo": 24643,
                "official_name": "Publiczna Szko\u0142a Podstawowa Nr 2 im. I Marsza\u0142ka Polski J\u00f3zefa Pi\u0142sudskiego",
                "name": "Publiczna Szko\u0142a Podstawowa Nr 2",
                "addr:country": "PL",
                "addr:postcode": "05-640",
                "addr:city": "Mogielnica",
                "addr:street": "Przylesie",
                "addr:housenumber": "10a",
                "addr:teryt:simc": 17952,
                "addr:teryt:sym_ul": 973665,
                "contact:phone": "+48 486635015",
                "contact:email": "pspmogielnica@wp.pl",
                "contact:website": "http:\/\/www.psp.mogielnica.pl",
                "ref:regon": "001145930",
                "ref:vatin": "PL7971477576",
                "operator": "Gmina Mogielnica",
                "operator:type": "government",
                "amenity": "school"
            }
        },
        {
            "id": 24307,
            "type": "Feature",
            "geometry": {
                "type": "Point",
                "coordinates": [
                    20.78039,
                    51.74521
                ]
            },
            "properties": {
                "ref:rspo": 24307,
                "official_name": "Niepubliczne Przedszkole \"Promyczek\" w Kozietu\u0142ach",
                "name": "Niepubliczne Przedszkole \"Promyczek\" w Kozietu\u0142ach",
                "addr:country": "PL",
                "addr:postcode": "05-640",
                "addr:place": "Kozietu\u0142y",
                "addr:housenumber": "83",
                "addr:teryt:sym_ul": 629353,
                "contact:phone": "+48 486644947",
                "ref:regon": "146333530",
                "ref:vatin": "PL7971980298",
                "operator": "Dane Do Uzupe\u0142nienia",
                "operator:type": "private",
                "amenity": "kindergarten"
            }
        },
        {
            "id": 24642,
            "type": "Feature",
            "geometry": {
                "type": "Point",
                "coordinates": [
                    20.78039,
                    51.74518
                ]
            },
            "properties": {
                "isced:level": "1;2",
                "ref:rspo": 24642,
                "official_name": "Niepubliczna Szko\u0142a Podstawowa im. Kpt. \u017beglugi Wielkiej Danuty Kobyli\u0144skiej-Walas w Kozietu\u0142ach",
                "name": "Niepubliczna Szko\u0142a Podstawowa",
                "addr:country": "PL",
                "addr:postcode": "05-640",
                "addr:place": "Kozietu\u0142y",
                "addr:housenumber": "83",
                "addr:teryt:sym_ul": 629353,
                "contact:phone": "+48 486644947",
                "contact:email": "kozietuly@op.pl",
                "ref:regon": "146338272",
                "ref:vatin": "PL7971980298",
                "operator": "Stowarzyszenie Rozwoju Wsi Kozietu\u0142y I Okolic",
                "operator:type": "ngo",
                "amenity": "school"
            }
        }
    ]
}