{
    "type": "FeatureCollection",
    "features": [
        {
            "id": 16655,
            "type": "Feature",
            "geometry": {
                "type": "Point",
                "coordinates": [
                    20.96165,
                    51.7542199
                ]
            },
            "properties": {
                "isced:level": "1;2",
                "ref:rspo": 16655,
                "official_name": "Publiczna Szko\u0142a Podstawowa im.ksi\u0119dza Czes\u0142awa Sad\u0142owskiego w Zbroszy Du\u017cej",
                "name": "Publiczna Szko\u0142a Podstawowa im.ksi\u0119dza Czes\u0142awa Sad\u0142owskiego w Zbroszy Du\u017cej",
                "addr:country": "PL",
                "addr:postcode": "05-604",
                "addr:place": "Zbrosza Du\u017ca",
                "addr:housenumber": "30",
                "addr:teryt:sym_ul": 623942,
                "contact:phone": "+48 486241537",
                "contact:email": "zbrosza_duza@jasieniec.pl",
                "ref:regon": "001194472",
                "ref:vatin": "PL7971999180",
                "operator": "Gmina Jasieniec",
                "operator:type": "government",
                "amenity": "school"
            }
        },
        {
            "id": 52533,
            "type": "Feature",
            "geometry": {
                "type": "Point",
                "coordinates": [
                    20.9407,
                    51.81991
                ]
            },
            "properties": {
                "ref:rspo": 52533,
                "official_name": "Zesp\u00f3\u0142 Szk\u00f3\u0142 im. Wincentego Witosa w Jasie\u0144cu",
                "name": "Zesp\u00f3\u0142 Szk\u00f3\u0142",
                "addr:country": "PL",
                "addr:postcode": "05-604",
                "addr:city": "Jasieniec",
                "addr:street": "Czerska",
                "addr:housenumber": "1",
                "addr:teryt:simc": 3403,
                "addr:teryt:sym_ul": 623681,
                "contact:phone": "+48 486613588",
                "contact:email": "zsjasieniec@wp.pl",
                "contact:website": "http:\/\/www.zspjasieniec.pl",
                "ref:regon": "000098499",
                "ref:vatin": "PL7971510664",
                "operator": "Powiat Gr\u00f3jecki",
                "operator:type": "government",
                "landuse": "education",
                "fixme": "amenity=school, amenity=college albo landuse=education w zale\u017cno\u015bci od tego, jakie plac\u00f3wki wchodz\u0105 w sk\u0142ad zespo\u0142u. Sprawd\u017a, kiedy stosowa\u0107 amenity=* a kiedy landuse=education.",
                "note": "Children RSPO: 88624;88720;124259"
            }
        },
        {
            "id": 88624,
            "type": "Feature",
            "geometry": {
                "type": "Point",
                "coordinates": [
                    20.9407,
                    51.81988
                ]
            },
            "properties": {
                "isced:level": "3",
                "ref:rspo": 88624,
                "official_name": "Technikum w Jasie\u0144cu",
                "name": "Technikum w Jasie\u0144cu",
                "addr:country": "PL",
                "addr:postcode": "05-604",
                "addr:city": "Jasieniec",
                "addr:street": "Czerska",
                "addr:housenumber": "1",
                "addr:teryt:simc": 3403,
                "addr:teryt:sym_ul": 623681,
                "contact:phone": "+48 486613588",
                "contact:email": "zsjasieniec@wp.pl",
                "contact:website": "http:\/\/www.zspjasieniec.pl",
                "ref:regon": "673009072",
                "operator": "Powiat Gr\u00f3jecki",
                "operator:type": "government",
                "amenity": "school",
                "note": "Parent RSPO: 52533"
            }
        },
        {
            "id": 88720,
            "type": "Feature",
            "geometry": {
                "type": "Point",
                "coordinates": [
                    20.9407,
                    51.81985
                ]
            },
            "properties": {
                "isced:level": "3",
                "ref:rspo": 88720,
                "official_name": "Bran\u017cowa Szko\u0142a I Stopnia w Jasie\u0144cu",
                "name": "Bran\u017cowa Szko\u0142a I Stopnia w Jasie\u0144cu",
                "addr:country": "PL",
                "addr:postcode": "05-604",
                "addr:city": "Jasieniec",
                "addr:street": "Czerska",
                "addr:housenumber": "1",
                "addr:teryt:simc": 3403,
                "addr:teryt:sym_ul": 623681,
                "contact:phone": "+48 486613588",
                "contact:email": "zsjasieniec@wp.pl",
                "contact:website": "http:\/\/www.zspjasieniec.pl",
                "ref:regon": "673009095",
                "operator": "Powiat Gr\u00f3jecki",
                "operator:type": "government",
                "amenity": "school",
                "note": "Parent RSPO: 52533"
            }
        },
        {
            "id": 124259,
            "type": "Feature",
            "geometry": {
                "type": "Point",
                "coordinates": [
                    20.9407,
                    51.81982
                ]
            },
            "properties": {
                "isced:level": "3",
                "ref:rspo": 124259,
                "official_name": "Liceum Og\u00f3lnokszta\u0142c\u0105ce w Jasie\u0144cu",
                "name": "Liceum Og\u00f3lnokszta\u0142c\u0105ce w Jasie\u0144cu",
                "addr:country": "PL",
                "addr:postcode": "05-604",
                "addr:city": "Jasieniec",
                "addr:street": "Czerska",
                "addr:housenumber": "1",
                "addr:teryt:simc": 3403,
                "addr:teryt:sym_ul": 623681,
                "contact:phone": "+48 486613588",
                "contact:email": "zsjasieniec@wp.pl",
                "contact:website": "http:\/\/www.zspjasieniec.pl",
                "ref:regon": "147383180",
                "operator": "Powiat Gr\u00f3jecki",
                "operator:type": "government",
                "amenity": "school",
                "note": "Parent RSPO: 52533"
            }
        },
        {
            "id": 16656,
            "type": "Feature",
            "geometry": {
                "type": "Point",
                "coordinates": [
                    20.93902,
                    51.82275
                ]
            },
            "properties": {
                "isced:level": "1;2",
                "ref:rspo": 16656,
                "official_name": "Publiczna Szko\u0142a Podstawowa im. Juliana Suskiego w Jasie\u0144cu",
                "name": "Publiczna Szko\u0142a Podstawowa",
                "addr:country": "PL",
                "addr:postcode": "05-604",
                "addr:city": "Jasieniec",
                "addr:street": "Szkolna",
                "addr:housenumber": "7",
                "addr:teryt:simc": 21970,
                "addr:teryt:sym_ul": 623681,
                "contact:phone": "+48 486613503",
                "contact:email": "pspjasieniec@wp.pl",
                "ref:regon": "000639386",
                "ref:vatin": "PL7971999197",
                "operator": "Gmina Jasieniec",
                "operator:type": "government",
                "amenity": "school"
            }
        },
        {
            "id": 16657,
            "type": "Feature",
            "geometry": {
                "type": "Point",
                "coordinates": [
                    20.93902,
                    51.82272
                ]
            },
            "properties": {
                "ref:rspo": 16657,
                "official_name": "Przedszkole \"Bajkowy \u015awiat \"W Jasie\u0144cu",
                "name": "Przedszkole \"Bajkowy \u015awiat \"W Jasie\u0144cu",
                "addr:country": "PL",
                "addr:postcode": "05-604",
                "addr:city": "Jasieniec",
                "addr:street": "Szkolna",
                "addr:housenumber": "7",
                "addr:teryt:simc": 21970,
                "addr:teryt:sym_ul": 623681,
                "contact:phone": "+48 486613301",
                "contact:email": "jpprzedszkole@wp.pl",
                "ref:regon": "672747276",
                "ref:vatin": "PL7971999174",
                "operator": "Gmina Jasieniec",
                "operator:type": "government",
                "amenity": "kindergarten"
            }
        }
    ]
}