{
    "type": "FeatureCollection",
    "features": [
        {
            "id": 272873,
            "type": "Feature",
            "geometry": {
                "type": "Point",
                "coordinates": [
                    20.850879669189,
                    51.788063049316
                ]
            },
            "properties": {
                "ref:rspo": 272873,
                "official_name": "Niepubliczne Przedszkole \"Ma\u0142a Anton\u00f3wka\"",
                "name": "Niepubliczne Przedszkole \"Ma\u0142a Anton\u00f3wka\"",
                "addr:postcode": "05-600",
                "addr:place": "Jan\u00f3wek",
                "addr:housenumber": "27e",
                "addr:city:simc": 622210,
                "phone": "+48 503009510",
                "email": "antonowka.janowek@wp.pl",
                "ref:regon": "384308890",
                "ref:vatin": "PL7991710231",
                "operator": "Izabela Czy\u017cewska-Ony\u015bko",
                "operator:type": "private",
                "amenity": "kindergarten"
            }
        },
        {
            "id": 55921,
            "type": "Feature",
            "geometry": {
                "type": "Point",
                "coordinates": [
                    20.95884,
                    51.8545299
                ]
            },
            "properties": {
                "isced:level": "1;2",
                "ref:rspo": 55921,
                "official_name": "Publiczna Szko\u0142a Podstawowa w Cz\u0119stoniewie",
                "name": "Publiczna Szko\u0142a Podstawowa w Cz\u0119stoniewie",
                "addr:postcode": "05-600",
                "addr:place": "Cz\u0119stoniew-Kolonia",
                "addr:housenumber": "60",
                "addr:city:simc": 622144,
                "phone": "+48 486642208",
                "email": "pspczestoniew@grojecmiasto.pl",
                "website": "http:\/\/www.pspczestoniew.edu.pl",
                "ref:regon": "000772688",
                "ref:vatin": "PL7971308537",
                "operator": "Gmina Gr\u00f3jec",
                "operator:type": "government",
                "amenity": "school"
            }
        },
        {
            "id": 125289,
            "type": "Feature",
            "geometry": {
                "type": "Point",
                "coordinates": [
                    20.85697,
                    51.86087
                ]
            },
            "properties": {
                "ref:rspo": 125289,
                "official_name": "Niepubliczny Punkt Przedszkolny T\u0119czowy Domek",
                "name": "Niepubliczny Punkt Przedszkolny T\u0119czowy Domek",
                "addr:postcode": "05-600",
                "addr:city": "Gr\u00f3jec",
                "addr:street": "Mogielnicka",
                "addr:housenumber": "65",
                "addr:city:simc": 973352,
                "addr:street:sym_ul": 13194,
                "phone": "+48 791565369",
                "email": "ewelina@teczowydomek.eu",
                "website": "http:\/\/www.teczowydomek.eu",
                "ref:regon": "147434954",
                "ref:vatin": "PL5371429390",
                "operator": "Ewelina Piechota",
                "operator:type": "private",
                "amenity": "kindergarten"
            }
        },
        {
            "id": 15376,
            "type": "Feature",
            "geometry": {
                "type": "Point",
                "coordinates": [
                    20.8845199,
                    51.86188
                ]
            },
            "properties": {
                "ref:rspo": 15376,
                "official_name": "Publiczne Przedszkole nr 2 w Gr\u00f3jcu",
                "name": "Publiczne Przedszkole nr 2 w Gr\u00f3jcu",
                "addr:postcode": "05-600",
                "addr:city": "Gr\u00f3jec",
                "addr:street": "Elizy Orzeszkowej",
                "addr:housenumber": "54",
                "addr:city:simc": 973352,
                "addr:street:sym_ul": 15209,
                "phone": "+48 486640198",
                "email": "przedszkolenr2@grojecmiasto.pl",
                "website": "http:\/\/przedszkolenr2grojec.edupage.org",
                "ref:regon": "142655290",
                "ref:vatin": "PL7972034496",
                "operator": "Gmina Gr\u00f3jec",
                "operator:type": "government",
                "amenity": "kindergarten"
            }
        },
        {
            "id": 52741,
            "type": "Feature",
            "geometry": {
                "type": "Point",
                "coordinates": [
                    20.86266,
                    51.86251
                ]
            },
            "properties": {
                "ref:rspo": 52741,
                "official_name": "Zesp\u00f3\u0142 Szk\u00f3\u0142 Specjalnych im. Ks. Jana Twardowskiego w Gr\u00f3jcu",
                "name": "Zesp\u00f3\u0142 Szk\u00f3\u0142 Specjalnych",
                "addr:postcode": "05-600",
                "addr:city": "Gr\u00f3jec",
                "addr:street": "Polna",
                "addr:housenumber": "17",
                "addr:city:simc": 973352,
                "addr:street:sym_ul": 17011,
                "phone": "+48 486642771",
                "email": "sekretariat.zssgrojec@grojec.pl",
                "website": "http:\/\/www.szkolaspecjalna.grojec.pl",
                "ref:regon": "000185258",
                "ref:vatin": "PL7971914597",
                "operator": "Powiat Gr\u00f3jecki",
                "operator:type": "government",
                "landuse": "education",
                "fixme": "amenity=school, amenity=college albo landuse=education w zale\u017cno\u015bci od tego, jakie plac\u00f3wki wchodz\u0105 w sk\u0142ad zespo\u0142u. Sprawd\u017a, kiedy stosowa\u0107 amenity=* a kiedy landuse=education.",
                "note": "Children RSPO: 106385;115510;115511"
            }
        },
        {
            "id": 106385,
            "type": "Feature",
            "geometry": {
                "type": "Point",
                "coordinates": [
                    20.86266,
                    51.86248
                ]
            },
            "properties": {
                "isced:level": "1;2",
                "ref:rspo": 106385,
                "official_name": "Szko\u0142a Podstawowa Specjalna w Gr\u00f3jcu",
                "name": "Szko\u0142a Podstawowa Specjalna w Gr\u00f3jcu",
                "addr:postcode": "05-600",
                "addr:city": "Gr\u00f3jec",
                "addr:street": "Polna",
                "addr:housenumber": "17",
                "addr:city:simc": 973352,
                "addr:street:sym_ul": 17011,
                "phone": "+48 486642771",
                "email": "sekretariat.zssgrojec@grojec.pl",
                "website": "http:\/\/www.szkolaspecjalna.grojec.pl",
                "ref:regon": "000930756",
                "ref:vatin": "PL7971914522",
                "operator": "Powiat Gr\u00f3jecki",
                "operator:type": "government",
                "amenity": "school",
                "note": "Children RSPO: 115508Parent RSPO: 52741"
            }
        },
        {
            "id": 115510,
            "type": "Feature",
            "geometry": {
                "type": "Point",
                "coordinates": [
                    20.86266,
                    51.86245
                ]
            },
            "properties": {
                "isced:level": "3",
                "ref:rspo": 115510,
                "official_name": "Bran\u017cowa Szko\u0142a Specjalna I Stopnia w Gr\u00f3jcu",
                "name": "Bran\u017cowa Szko\u0142a Specjalna I Stopnia w Gr\u00f3jcu",
                "addr:postcode": "05-600",
                "addr:city": "Gr\u00f3jec",
                "addr:street": "Polna",
                "addr:housenumber": "17",
                "addr:city:simc": 973352,
                "addr:street:sym_ul": 17011,
                "phone": "+48 486642771",
                "email": "sekretariat.zssgrojec@grojec.pl",
                "website": "http:\/\/www.szkolaspecjalna.grojec.pl",
                "ref:regon": "673008121",
                "ref:vatin": "PL7971914516",
                "operator": "Powiat Gr\u00f3jecki",
                "operator:type": "government",
                "amenity": "school",
                "note": "Parent RSPO: 52741"
            }
        },
        {
            "id": 115511,
            "type": "Feature",
            "geometry": {
                "type": "Point",
                "coordinates": [
                    20.86266,
                    51.86242
                ]
            },
            "properties": {
                "ref:rspo": 115511,
                "official_name": "Szko\u0142a Specjalna Przysposabiaj\u0105ca do Pracy w Gr\u00f3jcu",
                "name": "Szko\u0142a Specjalna Przysposabiaj\u0105ca do Pracy w Gr\u00f3jcu",
                "addr:postcode": "05-600",
                "addr:city": "Gr\u00f3jec",
                "addr:street": "Polna",
                "addr:housenumber": "17",
                "addr:city:simc": 973352,
                "addr:street:sym_ul": 17011,
                "phone": "+48 486642771",
                "email": "sekretariat.zssgrojec@grojec.pl",
                "website": "http:\/\/www.szkolaspecjalna.grojec.pl",
                "ref:regon": "140826711",
                "operator": "Powiat Gr\u00f3jecki",
                "operator:type": "government",
                "amenity": "school",
                "note": "Parent RSPO: 52741"
            }
        },
        {
            "id": 15412,
            "type": "Feature",
            "geometry": {
                "type": "Point",
                "coordinates": [
                    20.86199,
                    51.86262
                ]
            },
            "properties": {
                "isced:level": "1;2",
                "ref:rspo": 15412,
                "official_name": "Publiczna Szko\u0142a Podstawowa nr 2 im. J\u00f3zefa Wybickiego w Gr\u00f3jcu",
                "name": "Publiczna Szko\u0142a Podstawowa nr 2",
                "addr:postcode": "05-600",
                "addr:city": "Gr\u00f3jec",
                "addr:street": "Polna",
                "addr:housenumber": "17a",
                "addr:city:simc": 973352,
                "addr:street:sym_ul": 17011,
                "phone": "+48 486640757",
                "email": "pspnr2@grojecmiasto.pl",
                "website": "http:\/\/psp2grojec.edupage.org",
                "ref:regon": "000772719",
                "ref:vatin": "PL7971798323",
                "operator": "Gmina Gr\u00f3jec",
                "operator:type": "government",
                "amenity": "school"
            }
        },
        {
            "id": 122746,
            "type": "Feature",
            "geometry": {
                "type": "Point",
                "coordinates": [
                    20.86199,
                    51.86259
                ]
            },
            "properties": {
                "ref:rspo": 122746,
                "official_name": "Niepubliczny Zesp\u00f3\u0142 Szk\u00f3\u0142 dla Doros\u0142ych - Zaoczne w Gr\u00f3jcu",
                "name": "Niepubliczny Zesp\u00f3\u0142 Szk\u00f3\u0142 dla Doros\u0142ych - Zaoczne w Gr\u00f3jcu",
                "addr:postcode": "05-600",
                "addr:city": "Gr\u00f3jec",
                "addr:street": "Polna",
                "addr:housenumber": "17A",
                "addr:city:simc": 973352,
                "addr:street:sym_ul": 17011,
                "phone": "+48 486647449",
                "email": "pulo@list.pl",
                "website": "http:\/\/www.szkolazaoczna.edupage.org",
                "ref:regon": "147182033",
                "ref:vatin": "PL1230486099",
                "operator": "Wioletta \u0141\u0105cka",
                "operator:type": "private",
                "landuse": "education",
                "fixme": "amenity=school, amenity=college albo landuse=education w zale\u017cno\u015bci od tego, jakie plac\u00f3wki wchodz\u0105 w sk\u0142ad zespo\u0142u. Sprawd\u017a, kiedy stosowa\u0107 amenity=* a kiedy landuse=education.",
                "note": "Children RSPO: 55117;129269"
            }
        },
        {
            "id": 272999,
            "type": "Feature",
            "geometry": {
                "type": "Point",
                "coordinates": [
                    20.86199,
                    51.86256
                ]
            },
            "properties": {
                "isced:level": "1;2",
                "ref:rspo": 272999,
                "official_name": "Niepubliczna Zaoczna Szko\u0142a Podstawowa dla Doros\u0142ych w Gr\u00f3jcu",
                "name": "Niepubliczna Zaoczna Szko\u0142a Podstawowa dla Doros\u0142ych w Gr\u00f3jcu",
                "addr:postcode": "05-600",
                "addr:city": "Gr\u00f3jec",
                "addr:street": "Polna",
                "addr:housenumber": "17A",
                "addr:city:simc": 973352,
                "addr:street:sym_ul": 17011,
                "phone": "+48 486647449",
                "email": "pulo@list.pl",
                "website": "http:\/\/szkolazaoczna.edupage.org",
                "ref:regon": "384349268",
                "ref:vatin": "PL7971778697",
                "operator": "Wioletta \u0141\u0105cka",
                "operator:type": "private",
                "amenity": "school"
            }
        },
        {
            "id": 55117,
            "type": "Feature",
            "geometry": {
                "type": "Point",
                "coordinates": [
                    20.86199,
                    51.86253
                ]
            },
            "properties": {
                "isced:level": "3",
                "ref:rspo": 55117,
                "official_name": "Niepubliczne Liceum Og\u00f3lnokszta\u0142c\u0105ce dla Doros\u0142ych w Gr\u00f3jcu",
                "name": "Niepubliczne Liceum Og\u00f3lnokszta\u0142c\u0105ce dla Doros\u0142ych w Gr\u00f3jcu",
                "addr:postcode": "05-600",
                "addr:city": "Gr\u00f3jec",
                "addr:street": "Polna",
                "addr:housenumber": "17A",
                "addr:city:simc": 973352,
                "addr:street:sym_ul": 17011,
                "phone": "+48 486647449",
                "email": "pulo@list.pl",
                "website": "http:\/\/www.szkolazaoczna.edupage.org",
                "ref:regon": "146408200",
                "operator": "Wioletta \u0141\u0105cka",
                "operator:type": "private",
                "amenity": "school",
                "note": "Parent RSPO: 122746"
            }
        },
        {
            "id": 129269,
            "type": "Feature",
            "geometry": {
                "type": "Point",
                "coordinates": [
                    20.86199,
                    51.8625
                ]
            },
            "properties": {
                "isced:level": "4",
                "ref:rspo": 129269,
                "official_name": "Niepubliczna Zaoczna Policealna Szko\u0142a Technik Bhp w Gr\u00f3jcu",
                "name": "Niepubliczna Zaoczna Policealna Szko\u0142a Technik Bhp w Gr\u00f3jcu",
                "addr:postcode": "05-600",
                "addr:city": "Gr\u00f3jec",
                "addr:street": "Polna",
                "addr:housenumber": "17A",
                "addr:city:simc": 973352,
                "addr:street:sym_ul": 17011,
                "phone": "+48 486647449",
                "email": "pulo@list.pl",
                "website": "http:\/\/www.szkolazaoczna.edupage.org",
                "ref:regon": "362544455",
                "ref:vatin": "PL1230486099",
                "operator": "Wioletta \u0141\u0105cka",
                "operator:type": "private",
                "amenity": "college",
                "note": "Parent RSPO: 122746"
            }
        },
        {
            "id": 275179,
            "type": "Feature",
            "geometry": {
                "type": "Point",
                "coordinates": [
                    20.8699,
                    51.86287
                ]
            },
            "properties": {
                "ref:rspo": 275179,
                "official_name": "Takie Malutkie",
                "name": "Takie Malutkie",
                "addr:postcode": "05-600",
                "addr:city": "Gr\u00f3jec",
                "addr:street": "Adama Mickiewicza",
                "addr:housenumber": "18A",
                "addr:city:simc": 973352,
                "addr:street:sym_ul": 12734,
                "phone": "+48 695930516",
                "email": "info@takiemalutkie.pl",
                "website": "http:\/\/www.takiemalutkie.pl",
                "ref:regon": "386664933",
                "ref:vatin": "PL7972059898",
                "operator": "Fundacja Tropy Przyrody",
                "operator:type": "ngo",
                "amenity": "kindergarten"
            }
        },
        {
            "id": 74168,
            "type": "Feature",
            "geometry": {
                "type": "Point",
                "coordinates": [
                    20.87124,
                    51.86308
                ]
            },
            "properties": {
                "ref:rspo": 74168,
                "official_name": "Biblioteka Pedagogicza w Radomiu Filia w Gr\u00f3jcu",
                "name": "Biblioteka Pedagogicza w Radomiu Filia w Gr\u00f3jcu",
                "addr:postcode": "26-500",
                "addr:city": "Gr\u00f3jec",
                "addr:street": "R\u00f3\u017cana",
                "addr:housenumber": "9",
                "addr:city:simc": 973352,
                "addr:street:sym_ul": 19000,
                "phone": "+48 483663917",
                "email": "grojec@bp.radom.pl",
                "website": "http:\/\/www.grojec.bp.radom.pl",
                "ref:regon": "930868000",
                "ref:vatin": "PL7961063028",
                "operator": "Wojew\u00f3dztwo Mazowieckie",
                "operator:type": "government",
                "amenity": "library",
                "note": "Parent RSPO: 28003"
            }
        },
        {
            "id": 16857,
            "type": "Feature",
            "geometry": {
                "type": "Point",
                "coordinates": [
                    20.88714,
                    51.86329
                ]
            },
            "properties": {
                "ref:rspo": 16857,
                "official_name": "Niepubliczne Przedszkole \"Ba\u015bniowy Pa\u0142acyk\" S.c. I.derlak, A.zasiewska",
                "name": "Niepubliczne Przedszkole \"Ba\u015bniowy Pa\u0142acyk\" S.c. I.derlak, A.zasiewska",
                "addr:postcode": "05-600",
                "addr:city": "Gr\u00f3jec",
                "addr:street": "J\u00f3zefa Pi\u0142sudskiego",
                "addr:housenumber": "100B",
                "addr:city:simc": 973352,
                "addr:street:sym_ul": 16264,
                "email": "basniowypalacyk@op.pl",
                "website": "http:\/\/www.basniowypalacyk.pl",
                "ref:regon": "146312321",
                "ref:vatin": "PL7972059622",
                "operator": "Niepubliczne Przedszkole \"Ba\u015bniowy Pa\u0142acyk\" S.c. Iwona Derlak, Anna Zasiewska",
                "operator:type": "consortium",
                "amenity": "kindergarten"
            }
        },
        {
            "id": 15410,
            "type": "Feature",
            "geometry": {
                "type": "Point",
                "coordinates": [
                    20.87826,
                    51.8638
                ]
            },
            "properties": {
                "isced:level": "1;2",
                "ref:rspo": 15410,
                "official_name": "Publiczna Szko\u0142a Podstawowa nr 1 w Gr\u00f3jcu",
                "name": "Publiczna Szko\u0142a Podstawowa nr 1 w Gr\u00f3jcu",
                "addr:postcode": "05-600",
                "addr:city": "Gr\u00f3jec",
                "addr:street": "J\u00f3zefa Pi\u0142sudskiego",
                "addr:housenumber": "68",
                "addr:city:simc": 973352,
                "addr:street:sym_ul": 16264,
                "phone": "+48 486642405",
                "email": "pspnr1@grojecmiasto.pl",
                "website": "http:\/\/www.psp1grojec.edupage.org",
                "ref:regon": "000772659",
                "ref:vatin": "PL7971444453",
                "operator": "Gmina Gr\u00f3jec",
                "operator:type": "government",
                "amenity": "school"
            }
        },
        {
            "id": 52767,
            "type": "Feature",
            "geometry": {
                "type": "Point",
                "coordinates": [
                    20.87178,
                    51.86445
                ]
            },
            "properties": {
                "ref:rspo": 52767,
                "official_name": "Poradnia Psychologiczno-Pedagogiczna w Gr\u00f3jcu",
                "name": "Poradnia Psychologiczno-Pedagogiczna w Gr\u00f3jcu",
                "addr:postcode": "05-600",
                "addr:city": "Gr\u00f3jec",
                "addr:street": "Polskiej Organizacji Wojskowej",
                "addr:housenumber": "4",
                "addr:city:simc": 973352,
                "addr:street:sym_ul": 17049,
                "phone": "+48 486642356",
                "email": "sekretariat.pppgrojec@grojec.pl",
                "website": "http:\/\/www.poradniagrojec.com",
                "ref:regon": "000930874",
                "ref:vatin": "PL7971914781",
                "operator": "Powiat Gr\u00f3jecki",
                "operator:type": "government",
                "healthcare": "counselling",
                "counselling_type": "education",
                "fixme": "w zale\u017cno\u015bci od przedmiotu dzia\u0142alno\u015bci (np. healthcare=counselling + counselling_type=education albo healthcare=psychotherapist)"
            }
        },
        {
            "id": 86044,
            "type": "Feature",
            "geometry": {
                "type": "Point",
                "coordinates": [
                    20.86358,
                    51.86525
                ]
            },
            "properties": {
                "ref:rspo": 86044,
                "official_name": "Publiczne Przedszkole Prowadzone Przez Zgromadzenie C\u00f3rek Maryi Niepokalanej",
                "name": "Publiczne Przedszkole Prowadzone Przez Zgromadzenie C\u00f3rek Maryi Niepokalanej",
                "addr:postcode": "05-600",
                "addr:city": "Gr\u00f3jec",
                "addr:street": "Mogielnicka",
                "addr:housenumber": "15",
                "addr:city:simc": 973352,
                "addr:street:sym_ul": 13194,
                "phone": "+48 486642382",
                "email": "przedszkolezcmn@grojecmiasto.pl",
                "ref:regon": "146403696",
                "ref:vatin": "PL7971243648",
                "operator": "Zgromadzenie C\u00f3rek Maryi Niepokalanej",
                "operator:type": "religious",
                "amenity": "kindergarten"
            }
        },
        {
            "id": 128026,
            "type": "Feature",
            "geometry": {
                "type": "Point",
                "coordinates": [
                    20.87845,
                    51.86541
                ]
            },
            "properties": {
                "ref:rspo": 128026,
                "official_name": "Publiczne Przedszkole nr 1 w Gr\u00f3jcu",
                "name": "Publiczne Przedszkole nr 1 w Gr\u00f3jcu",
                "addr:postcode": "05-600",
                "addr:city": "Gr\u00f3jec",
                "addr:street": "Laskowa",
                "addr:housenumber": "6",
                "addr:city:simc": 973352,
                "addr:street:sym_ul": 10666,
                "phone": "+48 486442332",
                "email": "przedszkolenr1@grojecmiasto.pl",
                "ref:regon": "362027317",
                "operator": "Gmina Gr\u00f3jec",
                "operator:type": "government",
                "amenity": "kindergarten"
            }
        },
        {
            "id": 55471,
            "type": "Feature",
            "geometry": {
                "type": "Point",
                "coordinates": [
                    20.87297,
                    51.86661
                ]
            },
            "properties": {
                "ref:rspo": 55471,
                "official_name": "Niepubliczna Specjalistyczna Poradnia Psychologiczno-Pedagogiczna w Gr\u00f3jcu",
                "name": "Niepubliczna Specjalistyczna Poradnia Psychologiczno-Pedagogiczna w Gr\u00f3jcu",
                "addr:postcode": "05-600",
                "addr:city": "Gr\u00f3jec",
                "addr:street": "Sybirak\u00f3w",
                "addr:housenumber": "2\/8",
                "addr:door": "8",
                "addr:city:simc": 973352,
                "addr:street:sym_ul": 21641,
                "phone": "+48 486647449",
                "email": "pulo@list.pl",
                "website": "http:\/\/poradnia-grojec.edupage.org",
                "ref:regon": "146365783",
                "operator": "Wioletta \u0141\u0105cka",
                "operator:type": "private",
                "healthcare": "counselling",
                "counselling_type": "education",
                "fixme": "w zale\u017cno\u015bci od przedmiotu dzia\u0142alno\u015bci (np. healthcare=counselling + counselling_type=education albo healthcare=psychotherapist)"
            }
        },
        {
            "id": 86325,
            "type": "Feature",
            "geometry": {
                "type": "Point",
                "coordinates": [
                    20.87297,
                    51.86658
                ]
            },
            "properties": {
                "ref:rspo": 86325,
                "official_name": "Niepubliczna Plac\u00f3wka Kszta\u0142cenia Ustawicznego w Gr\u00f3jcu",
                "name": "Niepubliczna Plac\u00f3wka Kszta\u0142cenia Ustawicznego w Gr\u00f3jcu",
                "addr:postcode": "05-600",
                "addr:city": "Gr\u00f3jec",
                "addr:street": "Sybirak\u00f3w",
                "addr:housenumber": "2\/8",
                "addr:door": "8",
                "addr:city:simc": 973352,
                "addr:street:sym_ul": 21641,
                "phone": "+48 486647449",
                "email": "pulo@list.pl",
                "website": "http:\/\/kursy.edupage.org",
                "ref:regon": "146433527",
                "ref:vatin": "PL1230472720",
                "operator": "Krystyna B\u0119czkowska",
                "operator:type": "private",
                "fixme": "w zale\u017cno\u015bci od przedmiotu dzia\u0142alno\u015bci (np. amenity=training + training=*, amenity=dancing_school, amenity=language_school, amenity=music_school)"
            }
        },
        {
            "id": 68535,
            "type": "Feature",
            "geometry": {
                "type": "Point",
                "coordinates": [
                    20.8785,
                    51.86767
                ]
            },
            "properties": {
                "isced:level": "3",
                "ref:rspo": 68535,
                "official_name": "Niepubliczne Technikum w Gr\u00f3jcu",
                "name": "Niepubliczne Technikum w Gr\u00f3jcu",
                "addr:postcode": "05-600",
                "addr:city": "Gr\u00f3jec",
                "addr:street": "Olimpijska",
                "addr:housenumber": "16",
                "addr:city:simc": 973352,
                "addr:street:sym_ul": 14989,
                "phone": "+48 486643891",
                "email": "niepublicznaszkolagrojec@gmail.com",
                "ref:regon": "146435093",
                "operator": "Ewa W\u0105siewicz",
                "operator:type": "private",
                "amenity": "school"
            }
        },
        {
            "id": 69071,
            "type": "Feature",
            "geometry": {
                "type": "Point",
                "coordinates": [
                    20.8785,
                    51.867639999999994
                ]
            },
            "properties": {
                "isced:level": "4",
                "ref:rspo": 69071,
                "official_name": "Niepubliczna Szko\u0142a Policealna w Gr\u00f3jcu",
                "name": "Niepubliczna Szko\u0142a Policealna w Gr\u00f3jcu",
                "addr:postcode": "05-600",
                "addr:city": "Gr\u00f3jec",
                "addr:street": "Olimpijska",
                "addr:housenumber": "16",
                "addr:city:simc": 973352,
                "addr:street:sym_ul": 14989,
                "phone": "+48 486643891",
                "email": "niepublicznaszkolagrojec@gmail.com",
                "ref:regon": "146439949",
                "operator": "Ewa W\u0105siewicz",
                "operator:type": "private",
                "amenity": "college"
            }
        },
        {
            "id": 74425,
            "type": "Feature",
            "geometry": {
                "type": "Point",
                "coordinates": [
                    20.8785,
                    51.86761
                ]
            },
            "properties": {
                "isced:level": "3",
                "ref:rspo": 74425,
                "official_name": "Niepubliczne Liceum Og\u00f3lnokszta\u0142c\u0105ce dla Doros\u0142ych w Gr\u00f3jcu",
                "name": "Niepubliczne Liceum Og\u00f3lnokszta\u0142c\u0105ce dla Doros\u0142ych w Gr\u00f3jcu",
                "addr:postcode": "05-600",
                "addr:city": "Gr\u00f3jec",
                "addr:street": "Olimpijska",
                "addr:housenumber": "16",
                "addr:city:simc": 973352,
                "addr:street:sym_ul": 14989,
                "phone": "+48 486643891",
                "email": "niepublicznaszkolagrojec@gmail.com",
                "ref:regon": "146367517",
                "operator": "Ewa W\u0105siewicz",
                "operator:type": "private",
                "amenity": "school"
            }
        },
        {
            "id": 15387,
            "type": "Feature",
            "geometry": {
                "type": "Point",
                "coordinates": [
                    20.87119,
                    51.86789
                ]
            },
            "properties": {
                "ref:rspo": 15387,
                "official_name": "Publiczne Przedszkole nr 4 w Gr\u00f3jcu",
                "name": "Publiczne Przedszkole nr 4 w Gr\u00f3jcu",
                "addr:postcode": "05-600",
                "addr:city": "Gr\u00f3jec",
                "addr:street": "Okr\u0119\u017cna",
                "addr:housenumber": "1a",
                "addr:city:simc": 973352,
                "addr:street:sym_ul": 14907,
                "phone": "+48 486642666",
                "email": "przedszkolenr4@grojecmiasto.pl",
                "website": "http:\/\/pp4grojec.szkolnastrona.pl",
                "ref:regon": "142655432",
                "ref:vatin": "PL7972034473",
                "operator": "Gmina Gr\u00f3jec",
                "operator:type": "government",
                "amenity": "kindergarten"
            }
        },
        {
            "id": 15340,
            "type": "Feature",
            "geometry": {
                "type": "Point",
                "coordinates": [
                    20.8746,
                    51.86797
                ]
            },
            "properties": {
                "ref:rspo": 15340,
                "official_name": "Niepubliczne Jezykowe Przedszkole \"Bajka\"",
                "name": "Niepubliczne Jezykowe Przedszkole \"Bajka\"",
                "addr:postcode": "05-600",
                "addr:city": "Gr\u00f3jec",
                "addr:street": "Relaksowa",
                "addr:housenumber": "8",
                "addr:city:simc": 973352,
                "addr:street:sym_ul": 18588,
                "phone": "+48 697711353",
                "email": "kontakt@bajka-grojec.pl",
                "website": "http:\/\/www.bajka-grojec.pl",
                "ref:regon": "146303078",
                "ref:vatin": "PL7971958927",
                "operator": "Gra\u017cyna Ma\u0142ecka",
                "operator:type": "private",
                "amenity": "kindergarten"
            }
        },
        {
            "id": 55926,
            "type": "Feature",
            "geometry": {
                "type": "Point",
                "coordinates": [
                    20.86581,
                    51.8681399
                ]
            },
            "properties": {
                "isced:level": "1;2",
                "ref:rspo": 55926,
                "official_name": "Publiczna Szko\u0142a Podstawowa nr 3 im. Ks. Piotra Skargi w Gr\u00f3jcu",
                "name": "Publiczna Szko\u0142a Podstawowa nr 3",
                "addr:postcode": "05-600",
                "addr:city": "Gr\u00f3jec",
                "addr:street": "Armii Krajowej",
                "addr:housenumber": "34",
                "addr:city:simc": 973352,
                "addr:street:sym_ul": 432,
                "phone": "+48 486642424",
                "email": "pspnr3@grojecmiasto.pl",
                "ref:regon": "000772702",
                "ref:vatin": "PL7971450933",
                "operator": "Gmina Gr\u00f3jec",
                "operator:type": "government",
                "amenity": "school"
            }
        },
        {
            "id": 41641,
            "type": "Feature",
            "geometry": {
                "type": "Point",
                "coordinates": [
                    20.871499,
                    51.8701341
                ]
            },
            "properties": {
                "isced:level": "3",
                "ref:rspo": 41641,
                "official_name": "Liceum Og\u00f3lnokszta\u0142c\u0105ce im. Piotra Skargi w Gr\u00f3jcu",
                "name": "Liceum Og\u00f3lnokszta\u0142c\u0105ce",
                "addr:postcode": "05-600",
                "addr:city": "Gr\u00f3jec",
                "addr:street": "Po\u015bwi\u0119tne",
                "addr:housenumber": "17",
                "addr:city:simc": 973352,
                "addr:street:sym_ul": 17266,
                "phone": "+48 486642474",
                "email": "sekretariat.logrojec@grojec.pl",
                "website": "http:\/\/www.logrojec.pl",
                "ref:regon": "000255964",
                "ref:vatin": "PL7971331192",
                "operator": "Powiat Gr\u00f3jecki",
                "operator:type": "government",
                "amenity": "school"
            }
        },
        {
            "id": 52539,
            "type": "Feature",
            "geometry": {
                "type": "Point",
                "coordinates": [
                    20.86874,
                    51.87088
                ]
            },
            "properties": {
                "ref:rspo": 52539,
                "official_name": "Zesp\u00f3\u0142 Szk\u00f3\u0142 im. Armii Krajowej Obwodu \"G\u0142uszec\"-Gr\u00f3jec w Gr\u00f3jcu",
                "name": "Zesp\u00f3\u0142 Szk\u00f3\u0142",
                "addr:postcode": "05-600",
                "addr:city": "Gr\u00f3jec",
                "addr:street": "Ksi\u0119dza Piotra Skargi",
                "addr:housenumber": "12",
                "addr:city:simc": 973352,
                "addr:street:sym_ul": 41644,
                "phone": "+48 486642620",
                "email": "sekretariat.zspgrojec@grojec.pl",
                "website": "http:\/\/www.zspgrojec.eu",
                "ref:regon": "000184158",
                "ref:vatin": "PL7971385905",
                "operator": "Powiat Gr\u00f3jecki",
                "operator:type": "government",
                "landuse": "education",
                "fixme": "amenity=school, amenity=college albo landuse=education w zale\u017cno\u015bci od tego, jakie plac\u00f3wki wchodz\u0105 w sk\u0142ad zespo\u0142u. Sprawd\u017a, kiedy stosowa\u0107 amenity=* a kiedy landuse=education.",
                "note": "Children RSPO: 87457;87458;87459"
            }
        },
        {
            "id": 63991,
            "type": "Feature",
            "geometry": {
                "type": "Point",
                "coordinates": [
                    20.86874,
                    51.87085
                ]
            },
            "properties": {
                "isced:level": "3",
                "ref:rspo": 63991,
                "official_name": "Liceum Og\u00f3lnokszta\u0142c\u0105ce dla Doros\u0142ych Twp w Gr\u00f3jcu",
                "name": "Liceum Og\u00f3lnokszta\u0142c\u0105ce dla Doros\u0142ych Twp w Gr\u00f3jcu",
                "addr:postcode": "05-600",
                "addr:city": "Gr\u00f3jec",
                "addr:street": "Ksi\u0119dza Piotra Skargi",
                "addr:housenumber": "12",
                "addr:city:simc": 973352,
                "addr:street:sym_ul": 41644,
                "phone": "+48 510827749",
                "email": "logrojec@twp.radom.pl",
                "ref:regon": "146448167",
                "operator": "Towarzystwo Wiedzy Powszechnej Oddzia\u0142 Regionalny W Radomiu",
                "operator:type": "ngo",
                "amenity": "school"
            }
        },
        {
            "id": 87457,
            "type": "Feature",
            "geometry": {
                "type": "Point",
                "coordinates": [
                    20.86874,
                    51.87082
                ]
            },
            "properties": {
                "isced:level": "3",
                "ref:rspo": 87457,
                "official_name": "Liceum Og\u00f3lnokszta\u0142c\u0105ce",
                "name": "Liceum Og\u00f3lnokszta\u0142c\u0105ce",
                "addr:postcode": "05-600",
                "addr:city": "Gr\u00f3jec",
                "addr:street": "Ksi\u0119dza Piotra Skargi",
                "addr:housenumber": "12",
                "addr:city:simc": 973352,
                "addr:street:sym_ul": 41644,
                "phone": "+48 486642620",
                "email": "sekretariat.zspgrojec@grojec.pl",
                "website": "http:\/\/www.zspgrojec.eu",
                "ref:regon": "672975698",
                "operator": "Powiat Gr\u00f3jecki",
                "operator:type": "government",
                "amenity": "school",
                "note": "Parent RSPO: 52539"
            }
        },
        {
            "id": 87458,
            "type": "Feature",
            "geometry": {
                "type": "Point",
                "coordinates": [
                    20.86874,
                    51.87079
                ]
            },
            "properties": {
                "isced:level": "3",
                "ref:rspo": 87458,
                "official_name": "Technikum",
                "name": "Technikum",
                "addr:postcode": "05-600",
                "addr:city": "Gr\u00f3jec",
                "addr:street": "Ksi\u0119dza Piotra Skargi",
                "addr:housenumber": "12",
                "addr:city:simc": 973352,
                "addr:street:sym_ul": 41644,
                "phone": "+48 486642620",
                "email": "sekretariat.zspgrojec@grojec.pl",
                "website": "http:\/\/www.zspgrojec.eu",
                "ref:regon": "672975669",
                "operator": "Powiat Gr\u00f3jecki",
                "operator:type": "government",
                "amenity": "school",
                "note": "Parent RSPO: 52539"
            }
        },
        {
            "id": 87459,
            "type": "Feature",
            "geometry": {
                "type": "Point",
                "coordinates": [
                    20.86874,
                    51.87076
                ]
            },
            "properties": {
                "isced:level": "3",
                "ref:rspo": 87459,
                "official_name": "Bran\u017cowa Szko\u0142a I Stopnia w Gr\u00f3jcu",
                "name": "Bran\u017cowa Szko\u0142a I Stopnia w Gr\u00f3jcu",
                "addr:postcode": "05-600",
                "addr:city": "Gr\u00f3jec",
                "addr:street": "Ksi\u0119dza Piotra Skargi",
                "addr:housenumber": "12",
                "addr:city:simc": 973352,
                "addr:street:sym_ul": 41644,
                "phone": "+48 486642620",
                "email": "sekretariat.zspgrojec@grojec.pl",
                "website": "https:\/\/zspgrojec.eu\/",
                "ref:regon": "672975652",
                "operator": "Powiat Gr\u00f3jecki",
                "operator:type": "government",
                "amenity": "school",
                "note": "Parent RSPO: 52539"
            }
        },
        {
            "id": 55924,
            "type": "Feature",
            "geometry": {
                "type": "Point",
                "coordinates": [
                    20.81871,
                    51.87897
                ]
            },
            "properties": {
                "isced:level": "1;2",
                "ref:rspo": 55924,
                "official_name": "Publiczna Szko\u0142a Podstawowa w Bik\u00f3wku",
                "name": "Publiczna Szko\u0142a Podstawowa w Bik\u00f3wku",
                "addr:postcode": "05-600",
                "addr:place": "Bik\u00f3wek",
                "addr:housenumber": "21",
                "addr:city:simc": 622115,
                "phone": "+48 486642428",
                "email": "pspbikowek@grojecmiasto.pl",
                "website": "http:\/\/www.bikowek.edu.pl",
                "ref:regon": "000777036",
                "ref:vatin": "PL7971444476",
                "operator": "Gmina Gr\u00f3jec",
                "operator:type": "government",
                "amenity": "school"
            }
        },
        {
            "id": 10313,
            "type": "Feature",
            "geometry": {
                "type": "Point",
                "coordinates": [
                    20.8585299,
                    51.91011
                ]
            },
            "properties": {
                "ref:rspo": 10313,
                "official_name": "Niepubliczny Punkt Przedszkolny Tuptu\u015b",
                "name": "Niepubliczny Punkt Przedszkolny Tuptu\u015b",
                "addr:postcode": "05-600",
                "addr:city": "G\u0142uch\u00f3w",
                "addr:street": "Spokojna",
                "addr:housenumber": "4B",
                "addr:city:simc": 622180,
                "addr:street:sym_ul": 20677,
                "phone": "+48 694315870",
                "email": "magmarzena@o2.pl",
                "ref:regon": "146284330",
                "operator": "Gerek Marzena",
                "operator:type": "private",
                "amenity": "kindergarten"
            }
        },
        {
            "id": 61315,
            "type": "Feature",
            "geometry": {
                "type": "Point",
                "coordinates": [
                    20.89384,
                    52.07835
                ]
            },
            "properties": {
                "ref:rspo": 61315,
                "official_name": "Przedszkole Niepubliczne Klub Przedszkolaka Zacisze 15",
                "name": "Przedszkole Niepubliczne Klub Przedszkolaka Zacisze 15",
                "addr:postcode": "05-600",
                "addr:city": "Lesznowola",
                "addr:street": "Zacisze",
                "addr:housenumber": "15",
                "addr:city:simc": 622291,
                "addr:street:sym_ul": 25314,
                "phone": "+48 606777153",
                "email": "zacisze15@wp.pl",
                "website": "http:\/\/www.zacisze15.pl",
                "ref:regon": "146366943",
                "ref:vatin": "PL5211107358",
                "operator": "Dane Do Uzupe\u0142nienia",
                "operator:type": "private",
                "amenity": "kindergarten"
            }
        },
        {
            "id": 55922,
            "type": "Feature",
            "geometry": {
                "type": "Point",
                "coordinates": [
                    21.00155,
                    52.0915899
                ]
            },
            "properties": {
                "isced:level": "1;2",
                "ref:rspo": 55922,
                "official_name": "Publiczna Szko\u0142a Podstawowa im. \"Bajkopisarzy \u015awiata\" w Lesznowoli",
                "name": "Publiczna Szko\u0142a Podstawowa",
                "addr:postcode": "05-600",
                "addr:city": "Lesznowola",
                "addr:street": "Szkolna",
                "addr:housenumber": "1",
                "addr:city:simc": 622291,
                "addr:street:sym_ul": 21970,
                "phone": "+48 486645085",
                "email": "psplesznowola@grojecmiasto.pl",
                "ref:regon": "000772694",
                "ref:vatin": "PL7971861866",
                "operator": "Gmina Gr\u00f3jec",
                "operator:type": "government",
                "amenity": "school"
            }
        }
    ]
}