{"type":"FeatureCollection","features":[{"id":105736,"type":"Feature","geometry":{"type":"Point","coordinates":[20.60969,51.76272]},"properties":{"isced:level":"1;2","ref:rspo":105736,"official_name":"Publiczna Szko\u0142a Podstawowa im. 11 Listopada 1918R. w Go\u0142oszach","name":"Publiczna Szko\u0142a Podstawowa","addr:country":"PL","addr:postcode":"05-620","addr:place":"Go\u0142osze","addr:housenumber":"28","addr:teryt:sym_ul":614914,"contact:phone":"+48 486681426","contact:email":"golosze10@wp.pl","contact:website":"http:\/\/www.golosze.szkola.pl","ref:regon":"001169876","ref:vatin":"PL7971775227","operator":"Gmina B\u0142\u0119d\u00f3w","operator:type":"government","amenity":"school"}},{"id":41228,"type":"Feature","geometry":{"type":"Point","coordinates":[20.69855,51.77528]},"properties":{"ref:rspo":41228,"official_name":"Przedszkole Samorz\u0105dowe w B\u0142\u0119dowie","name":"Przedszkole Samorz\u0105dowe w B\u0142\u0119dowie","addr:country":"PL","addr:postcode":"05-620","addr:city":"B\u0142\u0119d\u00f3w","addr:street":"ul. Stary Rynek","addr:housenumber":"9A","addr:teryt:simc":21032,"addr:teryt:sym_ul":614736,"contact:phone":"+48 486680197","contact:email":"przedszkole.bledow@wp.pl","ref:regon":"672747260","ref:vatin":"PL7971820092","operator":"Gmina B\u0142\u0119d\u00f3w","operator:type":"government","amenity":"kindergarten"}},{"id":57710,"type":"Feature","geometry":{"type":"Point","coordinates":[20.70022,51.77557]},"properties":{"isced:level":"1;2","ref:rspo":57710,"official_name":"Publiczna Szko\u0142a Podstawowa im. Tadeusza Ko\u015bciuszki w B\u0142\u0119dowie","name":"Publiczna Szko\u0142a Podstawowa","addr:country":"PL","addr:postcode":"05-620","addr:city":"B\u0142\u0119d\u00f3w","addr:street":"ul. Stary Rynek","addr:housenumber":"9","addr:teryt:simc":21032,"addr:teryt:sym_ul":614736,"contact:phone":"+48 486680356","contact:email":"sekretariat@bledow.edu.pl","contact:website":"http:\/\/www.bledow.edu.pl","ref:regon":"000267690","ref:vatin":"PL7971775233","operator":"Gmina B\u0142\u0119d\u00f3w","operator:type":"government","amenity":"school"}},{"id":64726,"type":"Feature","geometry":{"type":"Point","coordinates":[20.6259,51.7990799]},"properties":{"isced:level":"1;2","ref:rspo":64726,"official_name":"Publiczna Szko\u0142a Podstawowa w Wilkowie im.ks. Mariana Panka","name":"Publiczna Szko\u0142a Podstawowa w Wilkowie im.ks. Mariana Panka","addr:country":"PL","addr:postcode":"05-620","addr:place":"Wilk\u00f3w Drugi","addr:housenumber":"82","addr:teryt:sym_ul":615256,"contact:phone":"+48 486681521","contact:email":"psp_wilkow@wp.pl","contact:website":"http:\/\/www.pspwilkow.pl","ref:regon":"001169882","ref:vatin":"PL7971775262","operator":"Gmina B\u0142\u0119d\u00f3w","operator:type":"government","amenity":"school"}},{"id":114665,"type":"Feature","geometry":{"type":"Point","coordinates":[20.70503,51.8234]},"properties":{"isced:level":"1;2","ref:rspo":114665,"official_name":"Publiczna Szko\u0142a Podstawowa im. Stanis\u0142awa Fiedorowicza w Lipiu","name":"Publiczna Szko\u0142a Podstawowa","addr:country":"PL","addr:postcode":"05-620","addr:place":"Lipie","addr:housenumber":"31","addr:teryt:sym_ul":615003,"contact:phone":"+48 486681059","contact:email":"psplipie@op.pl","contact:website":"http:\/\/www.psplipie.pl","ref:regon":"001169899","ref:vatin":"PL7971775256","operator":"Gmina B\u0142\u0119d\u00f3w","operator:type":"government","amenity":"school"}}]}