{"type":"FeatureCollection","features":[{"id":47665,"type":"Feature","geometry":{"type":"Point","coordinates":[20.79483,51.70774]},"properties":{"isced:level":"1;2","ref:rspo":47665,"official_name":"Publiczna Szko\u0142a Podstawowa w Sielcu","name":"Publiczna Szko\u0142a Podstawowa w Sielcu","addr:country":"PL","addr:postcode":"05-610","addr:place":"Sielec","addr:housenumber":"38","addr:teryt:sym_ul":620518,"contact:phone":"+48 486635079","contact:email":"szkolasielec@op.pl","ref:regon":"001194064","ref:vatin":"PL7971984818","operator":"Gmina Goszczyn","operator:type":"government","amenity":"school"}},{"id":77969,"type":"Feature","geometry":{"type":"Point","coordinates":[20.79483,51.70771]},"properties":{"ref:rspo":77969,"official_name":"Punkt Przedszkolny w Sielcu","name":"Punkt Przedszkolny w Sielcu","addr:country":"PL","addr:postcode":"05-610","addr:place":"Sielec","addr:housenumber":"38","addr:teryt:sym_ul":620518,"contact:phone":"+48 486635079","contact:email":"szkolasielec@op.pl","ref:regon":"146371938","operator":"Gmina Goszczyn","operator:type":"government","amenity":"kindergarten"}},{"id":56150,"type":"Feature","geometry":{"type":"Point","coordinates":[20.85473,51.73222]},"properties":{"isced:level":"1;2","ref:rspo":56150,"official_name":"Publiczna Szko\u0142a Podstawowa w Goszczynie","name":"Publiczna Szko\u0142a Podstawowa w Goszczynie","addr:country":"PL","addr:postcode":"05-610","addr:city":"Goszczyn","addr:street":"ul. Armii Krajowej","addr:housenumber":"2","addr:teryt:simc":432,"addr:teryt:sym_ul":620441,"contact:phone":"+48 486632230","contact:email":"psp@goszczyn.edu.pl","contact:website":"http:\/\/goszczyn.edu.pl","ref:regon":"000675637","ref:vatin":"PL7972062995","operator":"Gmina Goszczyn","operator:type":"government","amenity":"school"}},{"id":53260,"type":"Feature","geometry":{"type":"Point","coordinates":[20.8253999,51.75192]},"properties":{"ref:rspo":53260,"official_name":"Niepubliczne Przedszkole Gminy Goszczyn","name":"Niepubliczne Przedszkole Gminy Goszczyn","addr:country":"PL","addr:postcode":"05-610","addr:place":"B\u0105dk\u00f3w","addr:housenumber":"68","addr:teryt:sym_ul":620412,"contact:phone":"+48 486632278","ref:regon":"146365719","operator":"Stowarzyszenie Na Rzecz Rozwoju Wsi Gminy Goszczyn","operator:type":"ngo","amenity":"kindergarten"}},{"id":53261,"type":"Feature","geometry":{"type":"Point","coordinates":[20.8253999,51.751889999999996]},"properties":{"isced:level":"1;2","ref:rspo":53261,"official_name":"Publiczna Szko\u0142a Podstawowa w B\u0105dkowie","name":"Publiczna Szko\u0142a Podstawowa w B\u0105dkowie","addr:country":"PL","addr:postcode":"05-610","addr:place":"B\u0105dk\u00f3w","addr:housenumber":"68","addr:teryt:sym_ul":620412,"contact:phone":"+48 486632278","contact:email":"szkola.badkow@wp.pl","ref:regon":"001194070","ref:vatin":"PL7971987679","operator":"Gmina Goszczyn","operator:type":"government","amenity":"school"}}]}