{
    "type": "FeatureCollection",
    "features": [
        {
            "id": 28154,
            "type": "Feature",
            "geometry": {
                "type": "Point",
                "coordinates": [
                    18.81991,
                    53.74237
                ]
            },
            "properties": {
                "ref:rspo": 28154,
                "official_name": "Przedszkole w Zespole Szk\u00f3\u0142 im. J\u00f3zefa Czy\u017cewskiego w Opaleniu",
                "name": "Przedszkole w Zespole Szk\u00f3\u0142",
                "addr:postcode": "83-136",
                "addr:city": "Opalenie",
                "addr:street": "Ksi\u0119dza Ludwika Warneckiego",
                "addr:housenumber": "15",
                "addr:teryt:simc": 161329,
                "addr:teryt:sym_ul": 36356,
                "phone": "+48 585351870",
                "email": "sekretariat@zsopalenie.pl",
                "ref:regon": "190589229",
                "operator": "Gmina Gniew",
                "operator:type": "government",
                "amenity": "kindergarten",
                "note": "Parent RSPO: 19690"
            }
        },
        {
            "id": 19690,
            "type": "Feature",
            "geometry": {
                "type": "Point",
                "coordinates": [
                    18.82001,
                    53.74268
                ]
            },
            "properties": {
                "ref:rspo": 19690,
                "official_name": "Zesp\u00f3\u0142 Szk\u00f3\u0142 im. J\u00f3zefa Czy\u017cewskiego w Opaleniu",
                "name": "Zesp\u00f3\u0142 Szk\u00f3\u0142",
                "addr:postcode": "83-136",
                "addr:city": "Opalenie",
                "addr:street": "Ksi\u0119dza Ludwika Warneckiego",
                "addr:housenumber": "10",
                "addr:teryt:simc": 161329,
                "addr:teryt:sym_ul": 36356,
                "phone": "+48 585351870",
                "email": "sekretariat@zsoapenie.pl",
                "website": "http:\/\/www.zsopalenie.pl",
                "ref:regon": "190944297",
                "ref:vatin": "PL5932181296",
                "operator": "Gmina Gniew",
                "operator:type": "government",
                "landuse": "education",
                "fixme": "amenity=school, amenity=college albo landuse=education w zale\u017cno\u015bci od tego, jakie plac\u00f3wki wchodz\u0105 w sk\u0142ad zespo\u0142u. Sprawd\u017a, kiedy stosowa\u0107 amenity=* a kiedy landuse=education.",
                "note": "Children RSPO: 28154;28155"
            }
        },
        {
            "id": 28155,
            "type": "Feature",
            "geometry": {
                "type": "Point",
                "coordinates": [
                    18.82001,
                    53.74265
                ]
            },
            "properties": {
                "isced:level": "1;2",
                "ref:rspo": 28155,
                "official_name": "Szko\u0142a Podstawowa w Zespole Szk\u00f3\u0142 im. J\u00f3zefa Czy\u017cewskiego w Opaleniu",
                "name": "Szko\u0142a Podstawowa w Zespole Szk\u00f3\u0142",
                "addr:postcode": "83-136",
                "addr:city": "Opalenie",
                "addr:street": "Ksi\u0119dza Ludwika Warneckiego",
                "addr:housenumber": "10",
                "addr:teryt:simc": 161329,
                "addr:teryt:sym_ul": 36356,
                "phone": "+48 585351870",
                "email": "zsopalenie@gniew.pl",
                "website": "http:\/\/www.zsopalenie.pl",
                "ref:regon": "192952875",
                "operator": "Gmina Gniew",
                "operator:type": "government",
                "amenity": "school",
                "note": "Parent RSPO: 19690"
            }
        },
        {
            "id": 5459,
            "type": "Feature",
            "geometry": {
                "type": "Point",
                "coordinates": [
                    18.8107311,
                    53.7987463
                ]
            },
            "properties": {
                "isced:level": "1;2",
                "ref:rspo": 5459,
                "official_name": "Publiczna Szko\u0142a Podstawowa Stowarzyszenia Przyjaci\u00f3\u0142 Szk\u00f3\u0142 Katolickich",
                "name": "Publiczna Szko\u0142a Podstawowa Stowarzyszenia Przyjaci\u00f3\u0142 Szk\u00f3\u0142 Katolickich",
                "addr:postcode": "83-140",
                "addr:place": "Tymawa",
                "addr:housenumber": "47",
                "addr:teryt:simc": 161565,
                "phone": "+48 508620869",
                "email": "sp.tymawa@spsk.edu.pl",
                "ref:regon": "221734389",
                "operator": "Stowarzyszenie Przyjaci\u00f3\u0142 Szk\u00f3\u0142 Katolickich",
                "operator:type": "ngo",
                "amenity": "school"
            }
        },
        {
            "id": 19460,
            "type": "Feature",
            "geometry": {
                "type": "Point",
                "coordinates": [
                    18.77719,
                    53.8021
                ]
            },
            "properties": {
                "isced:level": "1;2",
                "ref:rspo": 19460,
                "official_name": "Szko\u0142a Podstawowa im. B\u0142. Jerzego Popie\u0142uszki w Piasecznie",
                "name": "Szko\u0142a Podstawowa",
                "addr:postcode": "83-123",
                "addr:city": "Piaseczno",
                "addr:street": "Kardyna\u0142a Wojty\u0142y",
                "addr:housenumber": "15",
                "addr:teryt:simc": 161370,
                "addr:teryt:sym_ul": 49634,
                "phone": "+48 585351492",
                "email": "sppiaseczno@gniew.pl",
                "website": "http:\/\/sppiaseczno.pl",
                "ref:regon": "190944222",
                "ref:vatin": "PL5931026122",
                "operator": "Gmina Gniew",
                "operator:type": "government",
                "amenity": "school"
            }
        },
        {
            "id": 5486,
            "type": "Feature",
            "geometry": {
                "type": "Point",
                "coordinates": [
                    18.7691867,
                    53.8307742
                ]
            },
            "properties": {
                "isced:level": "1;2",
                "ref:rspo": 5486,
                "official_name": "Publiczna Szko\u0142a Podstawowa Stowarzyszenia Przyjaci\u00f3\u0142 Szk\u00f3\u0142 Katolickich",
                "name": "Publiczna Szko\u0142a Podstawowa Stowarzyszenia Przyjaci\u00f3\u0142 Szk\u00f3\u0142 Katolickich",
                "addr:postcode": "83-140",
                "addr:place": "Gogolewo",
                "addr:housenumber": "11",
                "addr:teryt:simc": 161140,
                "phone": "+48 585351373",
                "email": "sp@gogolewo.spsk.pl",
                "ref:regon": "221734395",
                "operator": "Stowarzyszenie Przyjaci\u00f3\u0142 Szk\u00f3\u0142 Katolickich",
                "operator:type": "ngo",
                "amenity": "school"
            }
        },
        {
            "id": 120179,
            "type": "Feature",
            "geometry": {
                "type": "Point",
                "coordinates": [
                    18.8156,
                    53.83536
                ]
            },
            "properties": {
                "ref:rspo": 120179,
                "official_name": "Przedszkole Niepubliczne \"Bajeczna Kraina\"",
                "name": "Przedszkole Niepubliczne \"Bajeczna Kraina\"",
                "addr:postcode": "83-140",
                "addr:city": "Gniew",
                "addr:street": "Behrendta",
                "addr:housenumber": "36",
                "addr:teryt:simc": 934470,
                "addr:teryt:sym_ul": 46896,
                "phone": "+48 500032459",
                "email": "bajecznakraina@onet.pl",
                "ref:regon": "221959415",
                "operator": "Bajeczna Kraina Sp\u00f3\u0142ka Z Ograniczon\u0105 Odpowiedzialno\u015bci\u0105",
                "operator:type": "private",
                "amenity": "kindergarten"
            }
        },
        {
            "id": 25070,
            "type": "Feature",
            "geometry": {
                "type": "Point",
                "coordinates": [
                    18.82749,
                    53.83543
                ]
            },
            "properties": {
                "ref:rspo": 25070,
                "official_name": "Zesp\u00f3\u0142 Szk\u00f3\u0142 Ponadpodstawowych w Gniewie",
                "name": "Zesp\u00f3\u0142 Szk\u00f3\u0142 Ponadpodstawowych w Gniewie",
                "addr:postcode": "83-140",
                "addr:city": "Gniew",
                "addr:street": "Sobieskiego",
                "addr:housenumber": "11",
                "addr:teryt:simc": 934470,
                "addr:teryt:sym_ul": 20421,
                "phone": "+48 585353577",
                "email": "zspgniew@powiat.tczew.pl",
                "website": "http:\/\/zspgniew.edupage.org",
                "ref:regon": "191888477",
                "ref:vatin": "PL5931090999",
                "operator": "Powiat Tczewski",
                "operator:type": "government",
                "landuse": "education",
                "fixme": "amenity=school, amenity=college albo landuse=education w zale\u017cno\u015bci od tego, jakie plac\u00f3wki wchodz\u0105 w sk\u0142ad zespo\u0142u. Sprawd\u017a, kiedy stosowa\u0107 amenity=* a kiedy landuse=education.",
                "note": "Children RSPO: 43834;43915;80151;119424"
            }
        },
        {
            "id": 43834,
            "type": "Feature",
            "geometry": {
                "type": "Point",
                "coordinates": [
                    18.82749,
                    53.8354
                ]
            },
            "properties": {
                "isced:level": "3",
                "ref:rspo": 43834,
                "official_name": "Liceum Og\u00f3lnokszta\u0142c\u0105ce w Gniewie",
                "name": "Liceum Og\u00f3lnokszta\u0142c\u0105ce w Gniewie",
                "addr:postcode": "83-140",
                "addr:city": "Gniew",
                "addr:street": "Sobieskiego",
                "addr:housenumber": "11",
                "addr:teryt:simc": 934470,
                "addr:teryt:sym_ul": 20421,
                "phone": "+48 585353577",
                "email": "zspgniew@powiat.tczew.pl",
                "website": "http:\/\/zspgniew.edupage.org",
                "ref:regon": "192782663",
                "ref:vatin": "PL5931090999",
                "operator": "Powiat Tczewski",
                "operator:type": "government",
                "amenity": "school",
                "note": "Parent RSPO: 25070"
            }
        },
        {
            "id": 43915,
            "type": "Feature",
            "geometry": {
                "type": "Point",
                "coordinates": [
                    18.82749,
                    53.835370000000005
                ]
            },
            "properties": {
                "isced:level": "3",
                "ref:rspo": 43915,
                "official_name": "Bran\u017cowa Szko\u0142a I Stopnia w Gniewie",
                "name": "Bran\u017cowa Szko\u0142a I Stopnia w Gniewie",
                "addr:postcode": "83-140",
                "addr:city": "Gniew",
                "addr:street": "Sobieskiego",
                "addr:housenumber": "11",
                "addr:teryt:simc": 934470,
                "addr:teryt:sym_ul": 20421,
                "phone": "+48 585353577",
                "email": "zspgniew@powiat.tczew.pl",
                "website": "http:\/\/zspgniew.edupage.org",
                "ref:regon": "192782692",
                "ref:vatin": "PL5931090999",
                "operator": "Powiat Tczewski",
                "operator:type": "government",
                "amenity": "school",
                "note": "Parent RSPO: 25070"
            }
        },
        {
            "id": 80151,
            "type": "Feature",
            "geometry": {
                "type": "Point",
                "coordinates": [
                    18.82749,
                    53.83534
                ]
            },
            "properties": {
                "isced:level": "3",
                "ref:rspo": 80151,
                "official_name": "Liceum Og\u00f3lnokszta\u0142c\u0105ce dla Doros\u0142ych w Gniewie",
                "name": "Liceum Og\u00f3lnokszta\u0142c\u0105ce dla Doros\u0142ych w Gniewie",
                "addr:postcode": "83-140",
                "addr:city": "Gniew",
                "addr:street": "Sobieskiego",
                "addr:housenumber": "11",
                "addr:teryt:simc": 934470,
                "addr:teryt:sym_ul": 20421,
                "phone": "+48 585353577",
                "email": "zspgniew@powiat.tczew.pl",
                "website": "http:\/\/zspgniew.edupage.org",
                "ref:regon": "221775780",
                "ref:vatin": "PL5931090999",
                "operator": "Powiat Tczewski",
                "operator:type": "government",
                "amenity": "school",
                "note": "Parent RSPO: 25070"
            }
        },
        {
            "id": 119424,
            "type": "Feature",
            "geometry": {
                "type": "Point",
                "coordinates": [
                    18.82749,
                    53.83531
                ]
            },
            "properties": {
                "isced:level": "3",
                "ref:rspo": 119424,
                "official_name": "Technikum w Gniewie",
                "name": "Technikum w Gniewie",
                "addr:postcode": "83-140",
                "addr:city": "Gniew",
                "addr:street": "Sobieskiego",
                "addr:housenumber": "11",
                "addr:teryt:simc": 934470,
                "addr:teryt:sym_ul": 20421,
                "phone": "+48 585353577",
                "email": "zspgniew@powiat.tczew.pl",
                "website": "http:\/\/www.zspgniew.edupage.org",
                "ref:regon": "221946571",
                "ref:vatin": "PL5931090999",
                "operator": "Powiat Tczewski",
                "operator:type": "government",
                "amenity": "school",
                "note": "Parent RSPO: 25070"
            }
        },
        {
            "id": 25058,
            "type": "Feature",
            "geometry": {
                "type": "Point",
                "coordinates": [
                    18.82054,
                    53.83676
                ]
            },
            "properties": {
                "isced:level": "1;2",
                "ref:rspo": 25058,
                "official_name": "Szko\u0142a Podstawowa Nr 1 im. Jana III Sobieskiego w Gniewie",
                "name": "Szko\u0142a Podstawowa Nr 1",
                "addr:postcode": "83-140",
                "addr:city": "Gniew",
                "addr:street": "Gda\u0144ska",
                "addr:housenumber": "16",
                "addr:teryt:simc": 934470,
                "addr:teryt:sym_ul": 5431,
                "phone": "+48 585352209",
                "email": "spgniew@gniew.pl",
                "website": "http:\/\/www.sp1gniew.pl",
                "ref:regon": "190944251",
                "ref:vatin": "PL5931090462",
                "operator": "Gmina Gniew",
                "operator:type": "government",
                "amenity": "school"
            }
        },
        {
            "id": 133763,
            "type": "Feature",
            "geometry": {
                "type": "Point",
                "coordinates": [
                    18.82798,
                    53.83697
                ]
            },
            "properties": {
                "isced:level": "1;2",
                "ref:rspo": 133763,
                "official_name": "Szko\u0142a Podstawowa Nr 2 im. Gen. J\u00f3zefa Hallera w Gniewie",
                "name": "Szko\u0142a Podstawowa Nr 2",
                "addr:postcode": "83-140",
                "addr:city": "Gniew",
                "addr:street": "27 Stycznia",
                "addr:housenumber": "19",
                "addr:teryt:simc": 934470,
                "addr:teryt:sym_ul": 21461,
                "phone": "+48 585352294",
                "email": "sp2gniew@gniew.pl",
                "website": "http:\/\/www.sp2gniew.pl",
                "ref:regon": "367593932",
                "operator": "Gmina Gniew",
                "operator:type": "government",
                "amenity": "school"
            }
        },
        {
            "id": 19647,
            "type": "Feature",
            "geometry": {
                "type": "Point",
                "coordinates": [
                    18.82153,
                    53.83768
                ]
            },
            "properties": {
                "ref:rspo": 19647,
                "official_name": "Przedszkole w Gniewie",
                "name": "Przedszkole w Gniewie",
                "addr:postcode": "83-140",
                "addr:city": "Gniew",
                "addr:street": "Stroma",
                "addr:housenumber": "1",
                "addr:teryt:simc": 934470,
                "addr:teryt:sym_ul": 21293,
                "phone": "+48 585352200",
                "email": "przedszkole@gniew.pl",
                "website": "http:\/\/przedszkolegniew.pl",
                "ref:regon": "221139675",
                "ref:vatin": "PL5932576617",
                "operator": "Gmina Gniew",
                "operator:type": "government",
                "amenity": "kindergarten"
            }
        },
        {
            "id": 19646,
            "type": "Feature",
            "geometry": {
                "type": "Point",
                "coordinates": [
                    18.8515764,
                    53.8772845
                ]
            },
            "properties": {
                "isced:level": "1;2",
                "ref:rspo": 19646,
                "official_name": "Szko\u0142a Podstawowa im. Kornela Makuszy\u0144skiego w Polskim Gronowie",
                "name": "Szko\u0142a Podstawowa",
                "addr:postcode": "83-122",
                "addr:place": "Polskie Gronowo",
                "addr:housenumber": "31",
                "addr:teryt:simc": 161424,
                "phone": "+48 585351241",
                "email": "spgronowo@gniew.pl",
                "website": "http:\/\/www.spgronowo.pl",
                "ref:regon": "190944305",
                "ref:vatin": "PL5931091088",
                "operator": "Gmina Gniew",
                "operator:type": "government",
                "amenity": "school"
            }
        }
    ]
}