{
    "type": "FeatureCollection",
    "features": [
        {
            "id": 24294,
            "type": "Feature",
            "geometry": {
                "type": "Point",
                "coordinates": [
                    18.76443,
                    53.99968
                ]
            },
            "properties": {
                "ref:rspo": 24294,
                "official_name": "Zesp\u00f3\u0142 Szk\u00f3\u0142 w Subkowach - Przedszkole Samorz\u0105dowe w Subkowach",
                "name": "Zesp\u00f3\u0142 Szk\u00f3\u0142 w Subkowach - Przedszkole Samorz\u0105dowe w Subkowach",
                "addr:postcode": "83-120",
                "addr:city": "Subkowy",
                "addr:street": "Genera\u0142a W\u0142adys\u0142awa Sikorskiego",
                "addr:housenumber": "7",
                "addr:city:simc": 174378,
                "addr:street:sym_ul": 19907,
                "phone": "+48 585368637",
                "email": "sekretariat4-8@zssubkowy.pl",
                "website": "http:\/\/www.zssubkowy.pl",
                "ref:regon": "190586780",
                "operator": "Gmina Subkowy",
                "operator:type": "government",
                "amenity": "kindergarten",
                "note": "Parent RSPO: 13300"
            }
        },
        {
            "id": 13300,
            "type": "Feature",
            "geometry": {
                "type": "Point",
                "coordinates": [
                    18.7678,
                    54.00212
                ]
            },
            "properties": {
                "ref:rspo": 13300,
                "official_name": "Zesp\u00f3\u0142 Szk\u00f3\u0142 w Subkowach",
                "name": "Zesp\u00f3\u0142 Szk\u00f3\u0142 w Subkowach",
                "addr:postcode": "83-120",
                "addr:city": "Subkowy",
                "addr:street": "Zamkowa",
                "addr:housenumber": "2",
                "addr:city:simc": 174378,
                "addr:street:sym_ul": 25547,
                "phone": "+48 585368289",
                "email": "sekretariat4-8@zssubkowy.pl",
                "website": "http:\/\/www.zssubkowy.pl",
                "ref:regon": "192947058",
                "ref:vatin": "PL5932174178",
                "operator": "Gmina Subkowy",
                "operator:type": "government",
                "landuse": "education",
                "fixme": "amenity=school, amenity=college albo landuse=education w zale\u017cno\u015bci od tego, jakie plac\u00f3wki wchodz\u0105 w sk\u0142ad zespo\u0142u. Sprawd\u017a, kiedy stosowa\u0107 amenity=* a kiedy landuse=education.",
                "note": "Children RSPO: 24294;40137"
            }
        },
        {
            "id": 40137,
            "type": "Feature",
            "geometry": {
                "type": "Point",
                "coordinates": [
                    18.7678,
                    54.002089999999995
                ]
            },
            "properties": {
                "isced:level": "1;2",
                "ref:rspo": 40137,
                "official_name": "Zesp\u00f3\u0142 Szk\u00f3\u0142 w Subkowach - Szko\u0142a Podstawowa im. Leonida Teligi w Subkowach",
                "name": "Zesp\u00f3\u0142 Szk\u00f3\u0142 w Subkowach - Szko\u0142a Podstawowa",
                "addr:postcode": "83-120",
                "addr:city": "Subkowy",
                "addr:street": "Zamkowa",
                "addr:housenumber": "2",
                "addr:city:simc": 174378,
                "addr:street:sym_ul": 25547,
                "phone": "+48 585368380",
                "email": "sekretariat4-8@zssubkowy.pl",
                "website": "http:\/\/www.zssubkowy.pl",
                "ref:regon": "190586870",
                "operator": "Gmina Subkowy",
                "operator:type": "government",
                "amenity": "school",
                "note": "Parent RSPO: 13300"
            }
        },
        {
            "id": 13301,
            "type": "Feature",
            "geometry": {
                "type": "Point",
                "coordinates": [
                    18.82875,
                    54.00373
                ]
            },
            "properties": {
                "ref:rspo": 13301,
                "official_name": "Zesp\u00f3\u0142 Kszta\u0142cenia Podstawowego I Przedszkolnego w Ma\u0142ej S\u0142o\u0144cy",
                "name": "Zesp\u00f3\u0142 Kszta\u0142cenia Podstawowego I Przedszkolnego w Ma\u0142ej S\u0142o\u0144cy",
                "addr:postcode": "83-120",
                "addr:city": "Ma\u0142a S\u0142o\u0144ca",
                "addr:street": "D\u0142uga",
                "addr:housenumber": "1",
                "addr:city:simc": 174332,
                "addr:street:sym_ul": 3839,
                "phone": "+48 585368560",
                "email": "spmalaslonca@wp.pl",
                "website": "http:\/\/spmalaslonca.pl",
                "ref:regon": "220458770",
                "ref:vatin": "PL5932505014",
                "operator": "Gmina Subkowy",
                "operator:type": "government",
                "landuse": "education",
                "fixme": "amenity=school, amenity=college albo landuse=education w zale\u017cno\u015bci od tego, jakie plac\u00f3wki wchodz\u0105 w sk\u0142ad zespo\u0142u. Sprawd\u017a, kiedy stosowa\u0107 amenity=* a kiedy landuse=education.",
                "note": "Children RSPO: 24295;24296"
            }
        },
        {
            "id": 24295,
            "type": "Feature",
            "geometry": {
                "type": "Point",
                "coordinates": [
                    18.82875,
                    54.003699999999995
                ]
            },
            "properties": {
                "isced:level": "1;2",
                "ref:rspo": 24295,
                "official_name": "Zesp\u00f3\u0142 Kszta\u0142cenia Podstawowego I Przedszkolnego w Ma\u0142ej S\u0142o\u0144cy - Szko\u0142a Podstawowa im. Ireny Sendlerowej w Ma\u0142ej S\u0142o\u0144cy",
                "name": "Zesp\u00f3\u0142 Kszta\u0142cenia Podstawowego I Przedszkolnego w Ma\u0142ej S\u0142o\u0144cy - Szko\u0142a Podstawowa",
                "addr:postcode": "83-120",
                "addr:city": "Ma\u0142a S\u0142o\u0144ca",
                "addr:street": "D\u0142uga",
                "addr:housenumber": "1",
                "addr:city:simc": 174332,
                "addr:street:sym_ul": 3839,
                "phone": "+48 585368560",
                "email": "spmalaslonca@wp.pl",
                "website": "http:\/\/spmalaslonca.pl",
                "ref:regon": "190586828",
                "operator": "Gmina Subkowy",
                "operator:type": "government",
                "amenity": "school",
                "note": "Parent RSPO: 13301"
            }
        },
        {
            "id": 24296,
            "type": "Feature",
            "geometry": {
                "type": "Point",
                "coordinates": [
                    18.82875,
                    54.00367
                ]
            },
            "properties": {
                "ref:rspo": 24296,
                "official_name": "Zesp\u00f3\u0142 Kszta\u0142cenia Podstawowego I Przedszkolnego w Ma\u0142ej S\u0142o\u0144cy - Przedszkole Samorz\u0105dowe w Ma\u0142ej S\u0142o\u0144cy",
                "name": "Zesp\u00f3\u0142 Kszta\u0142cenia Podstawowego I Przedszkolnego w Ma\u0142ej S\u0142o\u0144cy - Przedszkole Samorz\u0105dowe w Ma\u0142ej S\u0142o\u0144cy",
                "addr:postcode": "83-120",
                "addr:city": "Ma\u0142a S\u0142o\u0144ca",
                "addr:street": "D\u0142uga",
                "addr:housenumber": "1",
                "addr:city:simc": 174332,
                "addr:street:sym_ul": 3839,
                "phone": "+48 585368560",
                "email": "spmalaslonca@wp.pl",
                "website": "http:\/\/spmalaslonca.pl",
                "ref:regon": "192951321",
                "operator": "Gmina Subkowy",
                "operator:type": "government",
                "amenity": "kindergarten",
                "note": "Parent RSPO: 13301"
            }
        },
        {
            "id": 23359,
            "type": "Feature",
            "geometry": {
                "type": "Point",
                "coordinates": [
                    18.74842,
                    54.02296
                ]
            },
            "properties": {
                "ref:rspo": 23359,
                "official_name": "Niepubliczne Przedszkole \"Le\u015bna Kraina\" w Wielg\u0142owach",
                "name": "Niepubliczne Przedszkole \"Le\u015bna Kraina\" w Wielg\u0142owach",
                "addr:postcode": "83-120",
                "addr:city": "Wielg\u0142owy",
                "addr:street": "Pelpli\u0144ska",
                "addr:housenumber": "28",
                "addr:city:simc": 174303,
                "addr:street:sym_ul": 15919,
                "phone": "+48 696337952",
                "ref:regon": "221753033",
                "operator": "Krystian Skoczylas",
                "operator:type": "private",
                "amenity": "kindergarten"
            }
        }
    ]
}