{
    "type": "FeatureCollection",
    "features": [
        {
            "id": 49595,
            "type": "Feature",
            "geometry": {
                "type": "Point",
                "coordinates": [
                    18.69915,
                    53.88443
                ]
            },
            "properties": {
                "ref:rspo": 49595,
                "official_name": "Zesp\u00f3\u0142 Kszta\u0142cenia I Wychowania w Kulicach",
                "name": "Zesp\u00f3\u0142 Kszta\u0142cenia I Wychowania w Kulicach",
                "addr:postcode": "83-130",
                "addr:city": "Kulice",
                "addr:street": "Szkolna",
                "addr:housenumber": "1",
                "addr:city:simc": 168797,
                "addr:street:sym_ul": 21970,
                "phone": "+48 585362116",
                "email": "sekretariat@zkiwkulice.pl",
                "ref:regon": "190967878",
                "ref:vatin": "PL5932178213",
                "operator": "Gmina Pelplin",
                "operator:type": "government",
                "landuse": "education",
                "fixme": "amenity=school, amenity=college albo landuse=education w zale\u017cno\u015bci od tego, jakie plac\u00f3wki wchodz\u0105 w sk\u0142ad zespo\u0142u. Sprawd\u017a, kiedy stosowa\u0107 amenity=* a kiedy landuse=education.",
                "note": "Children RSPO: 70488;70489"
            }
        },
        {
            "id": 70488,
            "type": "Feature",
            "geometry": {
                "type": "Point",
                "coordinates": [
                    18.69915,
                    53.8844
                ]
            },
            "properties": {
                "ref:rspo": 70488,
                "official_name": "Przedszkole w Kulicach w Zespole Kszta\u0142cenia I Wychowania w Kulicach",
                "name": "Przedszkole w Kulicach w Zespole Kszta\u0142cenia I Wychowania w Kulicach",
                "addr:postcode": "83-130",
                "addr:city": "Kulice",
                "addr:street": "Szkolna",
                "addr:housenumber": "1",
                "addr:city:simc": 168797,
                "addr:street:sym_ul": 21970,
                "phone": "+48 585362116",
                "email": "sekretariat@zkiwkulice.pl",
                "ref:regon": "190585272",
                "operator": "Gmina Pelplin",
                "operator:type": "government",
                "amenity": "kindergarten",
                "note": "Parent RSPO: 49595"
            }
        },
        {
            "id": 70489,
            "type": "Feature",
            "geometry": {
                "type": "Point",
                "coordinates": [
                    18.69915,
                    53.884370000000004
                ]
            },
            "properties": {
                "isced:level": "1;2",
                "ref:rspo": 70489,
                "official_name": "Szko\u0142a Podstawowa w Kulicach w Zespole Kszta\u0142cenia I Wychowania w Kulicach",
                "name": "Szko\u0142a Podstawowa w Kulicach w Zespole Kszta\u0142cenia I Wychowania w Kulicach",
                "addr:postcode": "83-130",
                "addr:city": "Kulice",
                "addr:street": "Szkolna",
                "addr:housenumber": "1",
                "addr:city:simc": 168797,
                "addr:street:sym_ul": 21970,
                "phone": "+48 585362116",
                "email": "sekretariat@zkiwkulice.pl",
                "ref:regon": "220262959",
                "operator": "Gmina Pelplin",
                "operator:type": "government",
                "amenity": "school",
                "note": "Parent RSPO: 49595"
            }
        },
        {
            "id": 49598,
            "type": "Feature",
            "geometry": {
                "type": "Point",
                "coordinates": [
                    18.846903,
                    53.924764
                ]
            },
            "properties": {
                "isced:level": "1;2",
                "ref:rspo": 49598,
                "official_name": "Szko\u0142a Podstawowa w Ma\u0142ych Walichnowach",
                "name": "Szko\u0142a Podstawowa w Ma\u0142ych Walichnowach",
                "addr:postcode": "83-122",
                "addr:place": "Ma\u0142e Walichnowy",
                "addr:housenumber": "1",
                "addr:city:simc": 168828,
                "phone": "+48 585351692",
                "email": "szkola@spwalichnowy.pl",
                "ref:regon": "190967890",
                "ref:vatin": "PL5932253920",
                "operator": "Gmina Pelplin",
                "operator:type": "government",
                "amenity": "school"
            }
        },
        {
            "id": 70485,
            "type": "Feature",
            "geometry": {
                "type": "Point",
                "coordinates": [
                    18.69681,
                    53.92505
                ]
            },
            "properties": {
                "isced:level": "1;2",
                "ref:rspo": 70485,
                "official_name": "Szko\u0142a Podstawowa nr 2 w Pelplinie",
                "name": "Szko\u0142a Podstawowa nr 2 w Pelplinie",
                "addr:postcode": "83-130",
                "addr:city": "Pelplin",
                "addr:street": "Tadeusza Ko\u015bciuszki",
                "addr:housenumber": "12a",
                "addr:city:simc": 934599,
                "addr:street:sym_ul": 9572,
                "phone": "+48 585361569",
                "email": "sekretariat@sp2pelplin.pl",
                "website": "http:\/\/www.sp2pelplin.pl",
                "ref:regon": "192969232",
                "operator": "Gmina Pelplin",
                "operator:type": "government",
                "amenity": "school"
            }
        },
        {
            "id": 24063,
            "type": "Feature",
            "geometry": {
                "type": "Point",
                "coordinates": [
                    18.6935,
                    53.92702
                ]
            },
            "properties": {
                "isced:level": "3",
                "ref:rspo": 24063,
                "official_name": "Collegium Marianum,Liceum Katolickie w Pelplinie",
                "name": "Collegium Marianum,Liceum Katolickie w Pelplinie",
                "addr:postcode": "83-130",
                "addr:city": "Pelplin",
                "addr:street": "Aleja Cysters\u00f3w",
                "addr:housenumber": "2",
                "addr:city:simc": 934599,
                "addr:street:sym_ul": 3205,
                "phone": "+48 585364932",
                "email": "collegium@diecezja-pelplin.pl",
                "website": "http:\/\/www.collegiummarianum.pl",
                "ref:regon": "221754512",
                "ref:vatin": "PL5932251861",
                "operator": "Diecezja Pelpli\u0144ska",
                "operator:type": "religious",
                "amenity": "school"
            }
        },
        {
            "id": 49588,
            "type": "Feature",
            "geometry": {
                "type": "Point",
                "coordinates": [
                    18.69816,
                    53.92732
                ]
            },
            "properties": {
                "ref:rspo": 49588,
                "official_name": "Przedszkole nr 2 w Pelplinie",
                "name": "Przedszkole nr 2 w Pelplinie",
                "addr:postcode": "83-130",
                "addr:city": "Pelplin",
                "addr:street": "Tadeusza Ko\u015bciuszki",
                "addr:housenumber": "2",
                "addr:city:simc": 934599,
                "addr:street:sym_ul": 9572,
                "phone": "+48 585361446",
                "email": "dyrektor@przedszkole2pelplin.pl",
                "ref:regon": "221151481",
                "ref:vatin": "PL5932575836",
                "operator": "Gmina Pelplin",
                "operator:type": "government",
                "amenity": "kindergarten"
            }
        },
        {
            "id": 112018,
            "type": "Feature",
            "geometry": {
                "type": "Point",
                "coordinates": [
                    18.69804,
                    53.92814
                ]
            },
            "properties": {
                "ref:rspo": 112018,
                "official_name": "Pa\u0144stwowa Szko\u0142a Muzyczna I St. w Tczewie Filia w Pelplinie",
                "name": "Pa\u0144stwowa Szko\u0142a Muzyczna I St. w Tczewie Filia w Pelplinie",
                "addr:postcode": "83-130",
                "addr:city": "Pelplin",
                "addr:street": "Plac Grunwaldzki",
                "addr:housenumber": "2",
                "addr:city:simc": 934599,
                "addr:street:sym_ul": 6262,
                "phone": "+48 585361654",
                "ref:regon": "278095000",
                "operator": "Ministerstwo Kultury I Dziedzictwa Narodowego",
                "operator:type": "government",
                "amenity": "music_school",
                "note": "Parent RSPO: 25377"
            }
        },
        {
            "id": 23309,
            "type": "Feature",
            "geometry": {
                "type": "Point",
                "coordinates": [
                    18.69762,
                    53.92944
                ]
            },
            "properties": {
                "ref:rspo": 23309,
                "official_name": "Zesp\u00f3\u0142 Szk\u00f3\u0142 Ponadpodstawowych w Pelplinie",
                "name": "Zesp\u00f3\u0142 Szk\u00f3\u0142 Ponadpodstawowych w Pelplinie",
                "addr:postcode": "83-130",
                "addr:city": "Pelplin",
                "addr:street": "Sambora",
                "addr:housenumber": "5",
                "addr:city:simc": 934599,
                "addr:street:sym_ul": 19455,
                "phone": "+48 585361571",
                "email": "sekretariat@zsp.pelplin.pl",
                "website": "http:\/\/www.liceum.pelplin.pl",
                "ref:regon": "191887549",
                "ref:vatin": "PL5932299365",
                "operator": "Powiat Tczewski",
                "operator:type": "government",
                "landuse": "education",
                "fixme": "amenity=school, amenity=college albo landuse=education w zale\u017cno\u015bci od tego, jakie plac\u00f3wki wchodz\u0105 w sk\u0142ad zespo\u0142u. Sprawd\u017a, kiedy stosowa\u0107 amenity=* a kiedy landuse=education.",
                "note": "Children RSPO: 31833;31842;31863"
            }
        },
        {
            "id": 24105,
            "type": "Feature",
            "geometry": {
                "type": "Point",
                "coordinates": [
                    18.69762,
                    53.92941
                ]
            },
            "properties": {
                "ref:rspo": 24105,
                "official_name": "Specjalny O\u015brodek Szkolno-Wychowawczy w Pelplinie",
                "name": "Specjalny O\u015brodek Szkolno-Wychowawczy w Pelplinie",
                "addr:postcode": "83-130",
                "addr:city": "Pelplin",
                "addr:street": "Sambora",
                "addr:housenumber": "5",
                "addr:door": "a",
                "addr:city:simc": 934599,
                "addr:street:sym_ul": 19455,
                "phone": "+48 585361841",
                "email": "sekretariat@soswpelplin.pl",
                "website": "http:\/\/www.soswpelplin.szkolnastrona.pl",
                "ref:regon": "191887822",
                "ref:vatin": "PL5932082223",
                "operator": "Powiat Tczewski",
                "operator:type": "government",
                "amenity": "school",
                "note": "Children RSPO: 48656;124597"
            }
        },
        {
            "id": 31833,
            "type": "Feature",
            "geometry": {
                "type": "Point",
                "coordinates": [
                    18.69762,
                    53.92938
                ]
            },
            "properties": {
                "isced:level": "3",
                "ref:rspo": 31833,
                "official_name": "Bran\u017cowa Szko\u0142a I Stopnia w Pelplinie",
                "name": "Bran\u017cowa Szko\u0142a I Stopnia w Pelplinie",
                "addr:postcode": "83-130",
                "addr:city": "Pelplin",
                "addr:street": "Sambora",
                "addr:housenumber": "5",
                "addr:city:simc": 934599,
                "addr:street:sym_ul": 19455,
                "phone": "+48 585361571",
                "email": "sekretariat@zsp.pelplin.pl",
                "website": "http:\/\/www.liceum.pelplin.pl",
                "ref:regon": "192769183",
                "ref:vatin": "PL5932299365",
                "operator": "Powiat Tczewski",
                "operator:type": "government",
                "amenity": "school",
                "note": "Parent RSPO: 23309"
            }
        },
        {
            "id": 31842,
            "type": "Feature",
            "geometry": {
                "type": "Point",
                "coordinates": [
                    18.69762,
                    53.92935
                ]
            },
            "properties": {
                "isced:level": "3",
                "ref:rspo": 31842,
                "official_name": "Liceum Og\u00f3lnokszta\u0142c\u0105ce im. Ks. J. St. Pasierba w Pelplinie",
                "name": "Liceum Og\u00f3lnokszta\u0142c\u0105ce",
                "addr:postcode": "83-130",
                "addr:city": "Pelplin",
                "addr:street": "Sambora",
                "addr:housenumber": "5",
                "addr:city:simc": 934599,
                "addr:street:sym_ul": 19455,
                "phone": "+48 585361571",
                "email": "sekretariat@zsp.pelplin.pl",
                "website": "http:\/\/www.liceum.pelplin.pl",
                "ref:regon": "192769160",
                "ref:vatin": "PL5932299365",
                "operator": "Powiat Tczewski",
                "operator:type": "government",
                "amenity": "school",
                "note": "Parent RSPO: 23309"
            }
        },
        {
            "id": 31863,
            "type": "Feature",
            "geometry": {
                "type": "Point",
                "coordinates": [
                    18.69762,
                    53.92932
                ]
            },
            "properties": {
                "isced:level": "3",
                "ref:rspo": 31863,
                "official_name": "Liceum Og\u00f3lnokszta\u0142c\u0105ce dla Doros\u0142ych w Pelplinie",
                "name": "Liceum Og\u00f3lnokszta\u0142c\u0105ce dla Doros\u0142ych w Pelplinie",
                "addr:postcode": "83-130",
                "addr:city": "Pelplin",
                "addr:street": "Sambora",
                "addr:housenumber": "5",
                "addr:city:simc": 934599,
                "addr:street:sym_ul": 19455,
                "phone": "+48 585361571",
                "email": "sekretariat@zsp.pelplin.pl",
                "website": "http:\/\/www.liceum.pelplin.pl",
                "ref:regon": "192769177",
                "ref:vatin": "PL5932299365",
                "operator": "Powiat Tczewski",
                "operator:type": "government",
                "amenity": "school",
                "note": "Parent RSPO: 23309"
            }
        },
        {
            "id": 48656,
            "type": "Feature",
            "geometry": {
                "type": "Point",
                "coordinates": [
                    18.69762,
                    53.92929
                ]
            },
            "properties": {
                "isced:level": "1;2",
                "ref:rspo": 48656,
                "official_name": "Szko\u0142a Podstawowa nr 3 Specjalna w Pelplinie",
                "name": "Szko\u0142a Podstawowa nr 3 Specjalna w Pelplinie",
                "addr:postcode": "83-130",
                "addr:city": "Pelplin",
                "addr:street": "Sambora",
                "addr:housenumber": "5",
                "addr:door": "A",
                "addr:city:simc": 934599,
                "addr:street:sym_ul": 19455,
                "phone": "+48 585361841",
                "email": "sekretariat@soswpelplin.pl",
                "website": "http:\/\/www.soswpelplin.szkolnastrona.pl",
                "ref:regon": "220027365",
                "ref:vatin": "PL5932082223",
                "operator": "Powiat Tczewski",
                "operator:type": "government",
                "amenity": "school",
                "note": "Parent RSPO: 24105"
            }
        },
        {
            "id": 124597,
            "type": "Feature",
            "geometry": {
                "type": "Point",
                "coordinates": [
                    18.69762,
                    53.92926
                ]
            },
            "properties": {
                "ref:rspo": 124597,
                "official_name": "Szko\u0142a Specjalna Przysposabiaj\u0105ca do Pracy w Pelplinie",
                "name": "Szko\u0142a Specjalna Przysposabiaj\u0105ca do Pracy w Pelplinie",
                "addr:postcode": "83-130",
                "addr:city": "Pelplin",
                "addr:street": "Sambora",
                "addr:housenumber": "5",
                "addr:door": "A",
                "addr:city:simc": 934599,
                "addr:street:sym_ul": 19455,
                "phone": "+48 585361841",
                "email": "sekretariat@soswpelplin.pl",
                "website": "http:\/\/www.soswpelplin.szkolnastrona.pl",
                "ref:regon": "222152287",
                "ref:vatin": "PL5932082223",
                "operator": "Powiat Tczewski",
                "operator:type": "government",
                "amenity": "school",
                "note": "Parent RSPO: 24105"
            }
        },
        {
            "id": 49592,
            "type": "Feature",
            "geometry": {
                "type": "Point",
                "coordinates": [
                    18.6979,
                    53.92978
                ]
            },
            "properties": {
                "ref:rspo": 49592,
                "official_name": "Zesp\u00f3\u0142 Kszta\u0142cenia I Wychowania nr 1 w Pelplinie",
                "name": "Zesp\u00f3\u0142 Kszta\u0142cenia I Wychowania nr 1 w Pelplinie",
                "addr:postcode": "83-130",
                "addr:city": "Pelplin",
                "addr:street": "Sambora",
                "addr:housenumber": "5a",
                "addr:city:simc": 934599,
                "addr:street:sym_ul": 19455,
                "phone": "+48 585361768",
                "email": "zespolszkol5a@wp.pl",
                "ref:regon": "221516735",
                "ref:vatin": "PL5932590149",
                "operator": "Gmina Pelplin",
                "operator:type": "government",
                "landuse": "education",
                "fixme": "amenity=school, amenity=college albo landuse=education w zale\u017cno\u015bci od tego, jakie plac\u00f3wki wchodz\u0105 w sk\u0142ad zespo\u0142u. Sprawd\u017a, kiedy stosowa\u0107 amenity=* a kiedy landuse=education.",
                "note": "Children RSPO: 70482;70484"
            }
        },
        {
            "id": 70482,
            "type": "Feature",
            "geometry": {
                "type": "Point",
                "coordinates": [
                    18.6979,
                    53.92975
                ]
            },
            "properties": {
                "isced:level": "1;2",
                "ref:rspo": 70482,
                "official_name": "Szko\u0142a Podstwaowa im. Jana Pa\u0142a II nr 1 w Pelplinie w Zespole Kszta\u0142cenia I Wychowania nr 1 w Pelplinie",
                "name": "Szko\u0142a Podstwaowa",
                "addr:postcode": "83-130",
                "addr:city": "Pelplin",
                "addr:street": "Sambora",
                "addr:housenumber": "5a",
                "addr:city:simc": 934599,
                "addr:street:sym_ul": 19455,
                "phone": "+48 585361768",
                "ref:regon": "220042206",
                "operator": "Gmina Pelplin",
                "operator:type": "government",
                "amenity": "school",
                "note": "Parent RSPO: 49592"
            }
        },
        {
            "id": 70484,
            "type": "Feature",
            "geometry": {
                "type": "Point",
                "coordinates": [
                    18.6979,
                    53.92972
                ]
            },
            "properties": {
                "ref:rspo": 70484,
                "official_name": "Przedszole nr 1 w Pelplinie w Zespole Kszta\u0142cenia I Wychowania nr 1 w Pelplinie",
                "name": "Przedszole nr 1 w Pelplinie w Zespole Kszta\u0142cenia I Wychowania nr 1 w Pelplinie",
                "addr:postcode": "83-130",
                "addr:city": "Pelplin",
                "addr:street": "Sambora",
                "addr:housenumber": "5a",
                "addr:city:simc": 934599,
                "addr:street:sym_ul": 19455,
                "phone": "+48 585361768",
                "ref:regon": "221516741",
                "operator": "Gmina Pelplin",
                "operator:type": "government",
                "amenity": "kindergarten",
                "note": "Parent RSPO: 49592"
            }
        },
        {
            "id": 49597,
            "type": "Feature",
            "geometry": {
                "type": "Point",
                "coordinates": [
                    18.76235,
                    53.93405
                ]
            },
            "properties": {
                "ref:rspo": 49597,
                "official_name": "Zesp\u00f3\u0142 Kszta\u0142cenia I Wychowania w Rudnie",
                "name": "Zesp\u00f3\u0142 Kszta\u0142cenia I Wychowania w Rudnie",
                "addr:postcode": "83-121",
                "addr:city": "Rudno",
                "addr:street": "Szkolna",
                "addr:housenumber": "4",
                "addr:city:simc": 169035,
                "addr:street:sym_ul": 21970,
                "phone": "+48 585361107",
                "email": "sekretariat.rudno@rudno.home.pl",
                "website": "http:\/\/www.rudno.edu.pl",
                "ref:regon": "190967915",
                "ref:vatin": "PL5932183042",
                "operator": "Gmina Pelplin",
                "operator:type": "government",
                "landuse": "education",
                "fixme": "amenity=school, amenity=college albo landuse=education w zale\u017cno\u015bci od tego, jakie plac\u00f3wki wchodz\u0105 w sk\u0142ad zespo\u0142u. Sprawd\u017a, kiedy stosowa\u0107 amenity=* a kiedy landuse=education.",
                "note": "Children RSPO: 70490;70507"
            }
        },
        {
            "id": 70490,
            "type": "Feature",
            "geometry": {
                "type": "Point",
                "coordinates": [
                    18.76235,
                    53.93402
                ]
            },
            "properties": {
                "isced:level": "1;2",
                "ref:rspo": 70490,
                "official_name": "Szko\u0142a Podstawowa w Rudnie w Zespole Kszta\u0142cenia I Wychowania w Rudnie",
                "name": "Szko\u0142a Podstawowa w Rudnie w Zespole Kszta\u0142cenia I Wychowania w Rudnie",
                "addr:postcode": "83-121",
                "addr:city": "Rudno",
                "addr:street": "Szkolna",
                "addr:housenumber": "4",
                "addr:city:simc": 169035,
                "addr:street:sym_ul": 21970,
                "phone": "+48 585361107",
                "email": "sekretariat.rudno@rudno.home.pl",
                "website": "http:\/\/www.rudno.edu.pl",
                "ref:regon": "192955900",
                "operator": "Gmina Pelplin",
                "operator:type": "government",
                "amenity": "school",
                "note": "Parent RSPO: 49597"
            }
        },
        {
            "id": 70507,
            "type": "Feature",
            "geometry": {
                "type": "Point",
                "coordinates": [
                    18.76235,
                    53.93399
                ]
            },
            "properties": {
                "ref:rspo": 70507,
                "official_name": "Przedszkole w Rudnie w Zespole Kszta\u0142cenia I Wychowania w Rudnie",
                "name": "Przedszkole w Rudnie w Zespole Kszta\u0142cenia I Wychowania w Rudnie",
                "addr:postcode": "83-121",
                "addr:city": "Rudno",
                "addr:street": "Szkolna",
                "addr:housenumber": "4",
                "addr:city:simc": 169035,
                "addr:street:sym_ul": 21970,
                "phone": "+48 585361107",
                "email": "sekretariat.rudno@rudno.home.pl",
                "website": "http:\/\/www.rudno.edu.pl",
                "ref:regon": "192955891",
                "operator": "Gmina Pelplin",
                "operator:type": "government",
                "amenity": "kindergarten",
                "note": "Parent RSPO: 49597"
            }
        },
        {
            "id": 49594,
            "type": "Feature",
            "geometry": {
                "type": "Point",
                "coordinates": [
                    18.80687,
                    54.05985
                ]
            },
            "properties": {
                "ref:rspo": 49594,
                "official_name": "Zesp\u00f3\u0142 Kszta\u0142cenia I Wychowania w Rajkowach",
                "name": "Zesp\u00f3\u0142 Kszta\u0142cenia I Wychowania w Rajkowach",
                "addr:postcode": "83-130",
                "addr:city": "Rajkowy",
                "addr:street": "Jesionowa",
                "addr:housenumber": "6",
                "addr:city:simc": 168886,
                "addr:street:sym_ul": 7506,
                "phone": "+48 585361781",
                "email": "sekretariat@zkiwrajkowy.pl",
                "website": "http:\/\/www.zsrajkowy.pelplin.pl",
                "ref:regon": "190967861",
                "ref:vatin": "PL5931090396",
                "operator": "Gmina Pelplin",
                "operator:type": "government",
                "landuse": "education",
                "fixme": "amenity=school, amenity=college albo landuse=education w zale\u017cno\u015bci od tego, jakie plac\u00f3wki wchodz\u0105 w sk\u0142ad zespo\u0142u. Sprawd\u017a, kiedy stosowa\u0107 amenity=* a kiedy landuse=education.",
                "note": "Children RSPO: 49591;70487"
            }
        },
        {
            "id": 49591,
            "type": "Feature",
            "geometry": {
                "type": "Point",
                "coordinates": [
                    18.80687,
                    54.059819999999995
                ]
            },
            "properties": {
                "ref:rspo": 49591,
                "official_name": "Przedszkole w Rajkowach w Zespole Kszta\u0142cenia I Wychowania w Rajkowach",
                "name": "Przedszkole w Rajkowach w Zespole Kszta\u0142cenia I Wychowania w Rajkowach",
                "addr:postcode": "83-130",
                "addr:city": "Rajkowy",
                "addr:street": "Jesionowa",
                "addr:housenumber": "6",
                "addr:city:simc": 168886,
                "addr:street:sym_ul": 7506,
                "phone": "+48 585364272",
                "email": "sekretariat@zkiwrajkowy.pl",
                "website": "http:\/\/www.zsrajkowy.pelplin.pl",
                "ref:regon": "221152405",
                "ref:vatin": "PL5932575807",
                "operator": "Gmina Pelplin",
                "operator:type": "government",
                "amenity": "kindergarten",
                "note": "Parent RSPO: 49594"
            }
        },
        {
            "id": 70487,
            "type": "Feature",
            "geometry": {
                "type": "Point",
                "coordinates": [
                    18.80687,
                    54.05979
                ]
            },
            "properties": {
                "isced:level": "1;2",
                "ref:rspo": 70487,
                "official_name": "Szko\u0142a Podstawowa w Rajkowach w Zespole Kszta\u0142cenia I Wychowania w Rajkowach",
                "name": "Szko\u0142a Podstawowa w Rajkowach w Zespole Kszta\u0142cenia I Wychowania w Rajkowach",
                "addr:postcode": "83-130",
                "addr:city": "Rajkowy",
                "addr:street": "Jesionowa",
                "addr:housenumber": "6",
                "addr:city:simc": 168886,
                "addr:street:sym_ul": 7506,
                "phone": "+48 585361781",
                "email": "sekretariat@zkiwrajkowy.pl",
                "website": "http:\/\/www.zsrajkowy.pelplin.pl",
                "ref:regon": "220038601",
                "operator": "Gmina Pelplin",
                "operator:type": "government",
                "amenity": "school",
                "note": "Parent RSPO: 49594"
            }
        }
    ]
}