{
    "type": "FeatureCollection",
    "features": [
        {
            "id": 26725,
            "type": "Feature",
            "geometry": {
                "type": "Point",
                "coordinates": [
                    18.65826,
                    54.0363
                ]
            },
            "properties": {
                "ref:rspo": 26725,
                "official_name": "Zesp\u00f3\u0142 Kszta\u0142cenia I Wychowania w Swaro\u017cynie",
                "name": "Zesp\u00f3\u0142 Kszta\u0142cenia I Wychowania w Swaro\u017cynie",
                "addr:country": "PL",
                "addr:postcode": "83-115",
                "addr:city": "Swaro\u017cyn",
                "addr:street": "Wyzwolenia",
                "addr:housenumber": "18",
                "addr:teryt:simc": 175863,
                "addr:teryt:sym_ul": 25133,
                "contact:phone": "+48 585369329",
                "contact:email": "sekretariat@spswarozyn.zeas.edu.pl",
                "contact:website": "http:\/\/zkwswarozyn.szkolnastrona.pl",
                "ref:regon": "192925281",
                "ref:vatin": "PL5932383410",
                "operator": "Gmina Tczew",
                "operator:type": "government",
                "landuse": "education",
                "fixme": "amenity=school, amenity=college albo landuse=education w zale\u017cno\u015bci od tego, jakie plac\u00f3wki wchodz\u0105 w sk\u0142ad zespo\u0142u. Sprawd\u017a, kiedy stosowa\u0107 amenity=* a kiedy landuse=education.",
                "note": "Children RSPO: 41056;41058"
            }
        },
        {
            "id": 41056,
            "type": "Feature",
            "geometry": {
                "type": "Point",
                "coordinates": [
                    18.65826,
                    54.036269999999995
                ]
            },
            "properties": {
                "isced:level": "1;2",
                "ref:rspo": 41056,
                "official_name": "Zesp\u00f3\u0142 Kszta\u0142cenia I Wychowania w Swaro\u017cynie Szko\u0142a Podstawowa im. Stefana \u017beromskiego w Swaro\u017cynie",
                "name": "Zesp\u00f3\u0142 Kszta\u0142cenia I Wychowania w Swaro\u017cynie Szko\u0142a Podstawowa",
                "addr:country": "PL",
                "addr:postcode": "83-115",
                "addr:city": "Swaro\u017cyn",
                "addr:street": "Wyzwolenia",
                "addr:housenumber": "18",
                "addr:teryt:simc": 175863,
                "addr:teryt:sym_ul": 25133,
                "contact:phone": "+48 585369329",
                "contact:email": "sekretariat@spswarozyn.zeas.edu.pl",
                "contact:website": "http:\/\/zkwswarozyn.szkolnastrona.pl",
                "ref:regon": "001178770",
                "operator": "Gmina Tczew",
                "operator:type": "government",
                "amenity": "school",
                "note": "Parent RSPO: 26725"
            }
        },
        {
            "id": 41058,
            "type": "Feature",
            "geometry": {
                "type": "Point",
                "coordinates": [
                    18.65826,
                    54.03624
                ]
            },
            "properties": {
                "ref:rspo": 41058,
                "official_name": "Zesp\u00f3\u0142 Kszta\u0142cenia I Wychowania w Swaro\u017cynie Przedszkole",
                "name": "Zesp\u00f3\u0142 Kszta\u0142cenia I Wychowania w Swaro\u017cynie Przedszkole",
                "addr:country": "PL",
                "addr:postcode": "83-115",
                "addr:city": "Swaro\u017cyn",
                "addr:street": "Wyzwolenia",
                "addr:housenumber": "18",
                "addr:teryt:simc": 175863,
                "addr:teryt:sym_ul": 25133,
                "contact:phone": "+48 585369329",
                "contact:email": "spswarozyn@poczta.onet.pl",
                "contact:website": "http:\/\/zkwswarozyn.szkolnastrona.pl",
                "ref:regon": "192925312",
                "operator": "Gmina Tczew",
                "operator:type": "government",
                "amenity": "kindergarten",
                "note": "Parent RSPO: 26725"
            }
        },
        {
            "id": 24062,
            "type": "Feature",
            "geometry": {
                "type": "Point",
                "coordinates": [
                    18.66484,
                    54.03672
                ]
            },
            "properties": {
                "ref:rspo": 24062,
                "official_name": "Zesp\u00f3\u0142 Szk\u00f3\u0142 Centrum Kszta\u0142cenia Rolniczego im. Stanis\u0142awa Staszica w Swaro\u017cynie",
                "name": "Zesp\u00f3\u0142 Szk\u00f3\u0142 Centrum Kszta\u0142cenia Rolniczego",
                "addr:country": "PL",
                "addr:postcode": "83-115",
                "addr:city": "Swaro\u017cyn",
                "addr:street": "Szkolna",
                "addr:housenumber": "2",
                "addr:teryt:simc": 175863,
                "addr:teryt:sym_ul": 21970,
                "contact:phone": "+48 585369393",
                "contact:email": "szkola@zsckrswarozyn.pl",
                "contact:website": "http:\/\/www.zsckrswarozyn.pl",
                "ref:regon": "191887590",
                "ref:vatin": "PL5931027162",
                "operator": "Ministerstwo Rolnictwa I Rozwoju Wsi",
                "operator:type": "public",
                "landuse": "education",
                "fixme": "amenity=school, amenity=college albo landuse=education w zale\u017cno\u015bci od tego, jakie plac\u00f3wki wchodz\u0105 w sk\u0142ad zespo\u0142u. Sprawd\u017a, kiedy stosowa\u0107 amenity=* a kiedy landuse=education.",
                "note": "Children RSPO: 30463;31055"
            }
        },
        {
            "id": 30463,
            "type": "Feature",
            "geometry": {
                "type": "Point",
                "coordinates": [
                    18.66484,
                    54.03669
                ]
            },
            "properties": {
                "isced:level": "3",
                "ref:rspo": 30463,
                "official_name": "Branzowa Szko\u0142a I Stopnia w Swaro\u017cynie",
                "name": "Branzowa Szko\u0142a I Stopnia w Swaro\u017cynie",
                "addr:country": "PL",
                "addr:postcode": "83-115",
                "addr:city": "Swaro\u017cyn",
                "addr:street": "Szkolna",
                "addr:housenumber": "2",
                "addr:teryt:simc": 175863,
                "addr:teryt:sym_ul": 21970,
                "contact:phone": "+48 585369393",
                "contact:email": "szkola@zsckrswarozyn.pl",
                "contact:website": "http:\/\/www.zsckrswarozyn.pl",
                "ref:regon": "192777780",
                "ref:vatin": "PL5931027162",
                "operator": "Ministerstwo Rolnictwa I Rozwoju Wsi",
                "operator:type": "public",
                "amenity": "school",
                "note": "Parent RSPO: 24062"
            }
        },
        {
            "id": 31055,
            "type": "Feature",
            "geometry": {
                "type": "Point",
                "coordinates": [
                    18.66484,
                    54.036660000000005
                ]
            },
            "properties": {
                "isced:level": "3",
                "ref:rspo": 31055,
                "official_name": "Technikum 4-Letnie",
                "name": "Technikum 4-Letnie",
                "addr:country": "PL",
                "addr:postcode": "83-115",
                "addr:city": "Swaro\u017cyn",
                "addr:street": "Szkolna",
                "addr:housenumber": "2",
                "addr:teryt:simc": 175863,
                "addr:teryt:sym_ul": 21970,
                "contact:phone": "+48 585369393",
                "contact:email": "szkola@zsckrswarozyn.pl",
                "contact:website": "http:\/\/www.zsckrswarozyn.pl",
                "ref:regon": "192779804",
                "ref:vatin": "PL5931027162",
                "operator": "Ministerstwo Rolnictwa I Rozwoju Wsi",
                "operator:type": "public",
                "amenity": "school",
                "note": "Parent RSPO: 24062"
            }
        },
        {
            "id": 270247,
            "type": "Feature",
            "geometry": {
                "type": "Point",
                "coordinates": [
                    18.73757,
                    54.07789
                ]
            },
            "properties": {
                "ref:rspo": 270247,
                "official_name": "Niepubliczne Przedszkole Le\u015bna Chatka",
                "name": "Niepubliczne Przedszkole Le\u015bna Chatka",
                "addr:country": "PL",
                "addr:postcode": "83-112",
                "addr:city": "Rokitki",
                "addr:street": "Jesionowa",
                "addr:housenumber": "3",
                "addr:teryt:simc": 175811,
                "addr:teryt:sym_ul": 7506,
                "contact:phone": "+48 790636888",
                "contact:email": "przedszkole.rokitki@gmail.com",
                "ref:regon": "382249054",
                "ref:vatin": "PL5932582836",
                "operator": "Mateusz Szczepa\u0144ski",
                "operator:type": "private",
                "amenity": "kindergarten"
            }
        },
        {
            "id": 41051,
            "type": "Feature",
            "geometry": {
                "type": "Point",
                "coordinates": [
                    18.7043399,
                    54.0903
                ]
            },
            "properties": {
                "isced:level": "1;2",
                "ref:rspo": 41051,
                "official_name": "Szko\u0142a Podstawowa w Lubiszewie",
                "name": "Szko\u0142a Podstawowa w Lubiszewie",
                "addr:country": "PL",
                "addr:postcode": "83-112",
                "addr:city": "Lubiszewo Tczewskie",
                "addr:street": "Sambora",
                "addr:housenumber": "3",
                "addr:teryt:simc": 175716,
                "addr:teryt:sym_ul": 19455,
                "contact:phone": "+48 585369992",
                "contact:email": "sekretariat@splubiszewo.zeas.edu.pl",
                "contact:website": "http:\/\/www.splubiszewo.tcz.pl",
                "ref:regon": "192944350",
                "ref:vatin": "PL5932348566",
                "operator": "Gmina Tczew",
                "operator:type": "government",
                "amenity": "school"
            }
        },
        {
            "id": 26724,
            "type": "Feature",
            "geometry": {
                "type": "Point",
                "coordinates": [
                    18.62444,
                    54.09529
                ]
            },
            "properties": {
                "ref:rspo": 26724,
                "official_name": "Zesp\u00f3\u0142 Kszta\u0142cenia I Wychowania w Turzu",
                "name": "Zesp\u00f3\u0142 Kszta\u0142cenia I Wychowania w Turzu",
                "addr:country": "PL",
                "addr:postcode": "83-113",
                "addr:city": "Turze",
                "addr:street": "Ko\u015bcielna",
                "addr:housenumber": "7",
                "addr:teryt:simc": 175952,
                "addr:teryt:sym_ul": 9546,
                "contact:phone": "+48 585367726",
                "contact:email": "sekretariat@spturze.zeas.edu.pl",
                "contact:website": "http:\/\/www.zkiwturze.szkolnastrona.pl",
                "ref:regon": "191236042",
                "ref:vatin": "PL5932622257",
                "operator": "Gmina Tczew",
                "operator:type": "government",
                "landuse": "education",
                "fixme": "amenity=school, amenity=college albo landuse=education w zale\u017cno\u015bci od tego, jakie plac\u00f3wki wchodz\u0105 w sk\u0142ad zespo\u0142u. Sprawd\u017a, kiedy stosowa\u0107 amenity=* a kiedy landuse=education.",
                "note": "Children RSPO: 41061;41063"
            }
        },
        {
            "id": 41061,
            "type": "Feature",
            "geometry": {
                "type": "Point",
                "coordinates": [
                    18.62444,
                    54.095259999999996
                ]
            },
            "properties": {
                "isced:level": "1;2",
                "ref:rspo": 41061,
                "official_name": "Zesp\u00f3\u0142 Kszta\u0142cenia I Wychowania Szko\u0142a Podstawowa w Turzu",
                "name": "Zesp\u00f3\u0142 Kszta\u0142cenia I Wychowania Szko\u0142a Podstawowa w Turzu",
                "addr:country": "PL",
                "addr:postcode": "83-113",
                "addr:city": "Turze",
                "addr:street": "Ko\u015bcielna",
                "addr:housenumber": "7",
                "addr:teryt:simc": 175952,
                "addr:teryt:sym_ul": 9546,
                "contact:phone": "+48 585367726",
                "contact:email": "sekretariat@spturze.zeas.edu.pl",
                "contact:website": "http:\/\/szkolarepublika.pl",
                "ref:regon": "192944373",
                "operator": "Gmina Tczew",
                "operator:type": "government",
                "amenity": "school",
                "note": "Parent RSPO: 26724"
            }
        },
        {
            "id": 41063,
            "type": "Feature",
            "geometry": {
                "type": "Point",
                "coordinates": [
                    18.62501,
                    54.09547
                ]
            },
            "properties": {
                "ref:rspo": 41063,
                "official_name": "Zesp\u00f3\u0142 Kszta\u0142cenia I Wychowania w Turzu - Przedszkole",
                "name": "Zesp\u00f3\u0142 Kszta\u0142cenia I Wychowania w Turzu - Przedszkole",
                "addr:country": "PL",
                "addr:postcode": "83-113",
                "addr:city": "Turze",
                "addr:street": "Ko\u015bcielna",
                "addr:housenumber": "4",
                "addr:teryt:simc": 175952,
                "addr:teryt:sym_ul": 9546,
                "contact:phone": "+48 585367726",
                "contact:email": "sekretariat@spturze.zeas.edu.pl",
                "contact:website": "http:\/\/szkolarepublika.pl",
                "ref:regon": "192944380",
                "operator": "Gmina Tczew",
                "operator:type": "government",
                "amenity": "kindergarten",
                "note": "Parent RSPO: 26724"
            }
        },
        {
            "id": 263267,
            "type": "Feature",
            "geometry": {
                "type": "Point",
                "coordinates": [
                    18.72992,
                    54.10735
                ]
            },
            "properties": {
                "isced:level": "1;2",
                "ref:rspo": 263267,
                "official_name": "Szko\u0142a Podstawowa w D\u0105br\u00f3wce",
                "name": "Szko\u0142a Podstawowa w D\u0105br\u00f3wce",
                "addr:country": "PL",
                "addr:postcode": "83-111",
                "addr:city": "D\u0105br\u00f3wka Tczewska",
                "addr:street": "D\u0142uga",
                "addr:housenumber": "4",
                "addr:teryt:simc": 175685,
                "addr:teryt:sym_ul": 3839,
                "contact:phone": "+48 585369666",
                "contact:email": "sekretariat@spdabrowka.zeas.edu.pl",
                "contact:website": "http:\/\/www.spdabrowka.szkolnastrona.pl",
                "ref:regon": "368176521",
                "ref:vatin": "PL5932609328",
                "operator": "Gmina Tczew",
                "operator:type": "government",
                "amenity": "school"
            }
        },
        {
            "id": 41055,
            "type": "Feature",
            "geometry": {
                "type": "Point",
                "coordinates": [
                    18.71808,
                    54.13607
                ]
            },
            "properties": {
                "isced:level": "1;2",
                "ref:rspo": 41055,
                "official_name": "Szko\u0142a Podstawowa im. Obro\u0144c\u00f3w Pomorza Gda\u0144skiego w Mi\u0142ob\u0105dzu",
                "name": "Szko\u0142a Podstawowa",
                "addr:country": "PL",
                "addr:postcode": "83-111",
                "addr:city": "Mi\u0142ob\u0105dz",
                "addr:street": "Szkolna",
                "addr:housenumber": "6",
                "addr:teryt:simc": 175780,
                "addr:teryt:sym_ul": 21970,
                "contact:phone": "+48 585369427",
                "contact:email": "sekretariat@spmilobadz.zeas.edu.pl",
                "contact:website": "http:\/\/spmilobadz.edupage.org",
                "ref:regon": "191236036",
                "ref:vatin": "PL5932349382",
                "operator": "Gmina Tczew",
                "operator:type": "government",
                "amenity": "school"
            }
        }
    ]
}