{
    "type": "FeatureCollection",
    "features": [
        {
            "id": 131588,
            "type": "Feature",
            "geometry": {
                "type": "Point",
                "coordinates": [
                    14.73697,
                    51.54404
                ]
            },
            "properties": {
                "ref:rspo": 131588,
                "official_name": "Centrum Kszta\u0142cenia Zawodowego I Ustawicznego im. Komisji Edukacji Narodowej w \u017barach",
                "name": "Centrum Kszta\u0142cenia Zawodowego I Ustawicznego",
                "addr:postcode": "68-200",
                "addr:city": "\u017bary",
                "addr:street": "Parkowa",
                "addr:housenumber": "9",
                "addr:city:simc": 988684,
                "addr:street:sym_ul": 15710,
                "phone": "+48 683632950",
                "email": "sekretariat@ckziu.zary.pl",
                "ref:regon": "365311639",
                "ref:vatin": "PL9282085146",
                "operator": "Powiat \u017barski",
                "operator:type": "government",
                "landuse": "education",
                "fixme": "amenity=school, amenity=college albo landuse=education w zale\u017cno\u015bci od tego, jakie plac\u00f3wki wchodz\u0105 w sk\u0142ad zespo\u0142u. Sprawd\u017a, kiedy stosowa\u0107 amenity=* a kiedy landuse=education.",
                "note": "Children RSPO: 131852;131853;131854;131855;131857;277299"
            }
        },
        {
            "id": 131852,
            "type": "Feature",
            "geometry": {
                "type": "Point",
                "coordinates": [
                    14.73697,
                    51.54401
                ]
            },
            "properties": {
                "isced:level": "3",
                "ref:rspo": 131852,
                "official_name": "Technikum nr 2",
                "name": "Technikum nr 2",
                "addr:postcode": "68-200",
                "addr:city": "\u017bary",
                "addr:street": "Parkowa",
                "addr:housenumber": "9",
                "addr:city:simc": 988684,
                "addr:street:sym_ul": 15710,
                "phone": "+48 683632950",
                "email": "sekretariat@ckziu.zary.pl",
                "website": "http:\/\/www.ckziu.zary.pl",
                "ref:regon": "365362708",
                "operator": "Powiat \u017barski",
                "operator:type": "government",
                "amenity": "school",
                "note": "Parent RSPO: 131588"
            }
        },
        {
            "id": 131853,
            "type": "Feature",
            "geometry": {
                "type": "Point",
                "coordinates": [
                    14.73697,
                    51.543980000000005
                ]
            },
            "properties": {
                "isced:level": "3",
                "ref:rspo": 131853,
                "official_name": "Bran\u017cowa Szko\u0142a I Stopnia nr 2",
                "name": "Bran\u017cowa Szko\u0142a I Stopnia nr 2",
                "addr:postcode": "68-200",
                "addr:city": "\u017bary",
                "addr:street": "Parkowa",
                "addr:housenumber": "9",
                "addr:city:simc": 988684,
                "addr:street:sym_ul": 15710,
                "phone": "+48 683632950",
                "email": "sekretariat@ckziu.zary.pl",
                "website": "http:\/\/www.ckziu.zary.pl",
                "ref:regon": "365362795",
                "operator": "Powiat \u017barski",
                "operator:type": "government",
                "amenity": "school",
                "note": "Parent RSPO: 131588"
            }
        },
        {
            "id": 131854,
            "type": "Feature",
            "geometry": {
                "type": "Point",
                "coordinates": [
                    14.73697,
                    51.54395
                ]
            },
            "properties": {
                "isced:level": "3",
                "ref:rspo": 131854,
                "official_name": "Liceum Og\u00f3lnokszta\u0142c\u0105ce dla Doros\u0142ych",
                "name": "Liceum Og\u00f3lnokszta\u0142c\u0105ce dla Doros\u0142ych",
                "addr:postcode": "68-200",
                "addr:city": "\u017bary",
                "addr:street": "Parkowa",
                "addr:housenumber": "9",
                "addr:city:simc": 988684,
                "addr:street:sym_ul": 15710,
                "phone": "+48 683632950",
                "ref:regon": "365362772",
                "operator": "Powiat \u017barski",
                "operator:type": "government",
                "amenity": "school",
                "note": "Parent RSPO: 131588"
            }
        },
        {
            "id": 131855,
            "type": "Feature",
            "geometry": {
                "type": "Point",
                "coordinates": [
                    14.73697,
                    51.54392
                ]
            },
            "properties": {
                "isced:level": "4",
                "ref:rspo": 131855,
                "official_name": "Szko\u0142a Policealna nr 1",
                "name": "Szko\u0142a Policealna nr 1",
                "addr:postcode": "68-200",
                "addr:city": "\u017bary",
                "addr:street": "Parkowa",
                "addr:housenumber": "9",
                "addr:city:simc": 988684,
                "addr:street:sym_ul": 15710,
                "phone": "+48 683632950",
                "ref:regon": "365362766",
                "operator": "Powiat \u017barski",
                "operator:type": "government",
                "amenity": "college",
                "note": "Parent RSPO: 131588"
            }
        },
        {
            "id": 131857,
            "type": "Feature",
            "geometry": {
                "type": "Point",
                "coordinates": [
                    14.73697,
                    51.543890000000005
                ]
            },
            "properties": {
                "ref:rspo": 131857,
                "official_name": "Centrum Kszta\u0142cenia Zawodowego",
                "name": "Centrum Kszta\u0142cenia Zawodowego",
                "addr:postcode": "68-200",
                "addr:city": "\u017bary",
                "addr:street": "Parkowa",
                "addr:housenumber": "9",
                "addr:city:simc": 988684,
                "addr:street:sym_ul": 15710,
                "phone": "+48 683632950",
                "ref:regon": "365362720",
                "operator": "Powiat \u017barski",
                "operator:type": "government",
                "fixme": "w zale\u017cno\u015bci od przedmiotu dzia\u0142alno\u015bci (np. amenity=training + training=*, amenity=dancing_school, amenity=language_school, amenity=music_school) albo amenity=school, amenity=college, albo landuse=education w zale\u017cno\u015bci od tego, jakie plac\u00f3wki wchodz\u0105 w sk\u0142ad zespo\u0142u. Sprawd\u017a, kiedy stosowa\u0107 amenity=* a kiedy landuse=education.",
                "note": "Parent RSPO: 131588"
            }
        },
        {
            "id": 277299,
            "type": "Feature",
            "geometry": {
                "type": "Point",
                "coordinates": [
                    14.73697,
                    51.54386
                ]
            },
            "properties": {
                "isced:level": "3",
                "ref:rspo": 277299,
                "official_name": "Bran\u017cowa Szko\u0142a II Stopnia",
                "name": "Bran\u017cowa Szko\u0142a II Stopnia",
                "addr:postcode": "68-200",
                "addr:city": "\u017bary",
                "addr:street": "Parkowa",
                "addr:housenumber": "9",
                "addr:city:simc": 988684,
                "addr:street:sym_ul": 15710,
                "phone": "+48 683632950",
                "email": "sekretariat@ckziu.zary.pl",
                "website": "http:\/\/ckziu.zary.pl",
                "ref:regon": "388544191",
                "operator": "Powiat \u017barski",
                "operator:type": "government",
                "amenity": "school",
                "note": "Parent RSPO: 131588"
            }
        },
        {
            "id": 113744,
            "type": "Feature",
            "geometry": {
                "type": "Point",
                "coordinates": [
                    15.16455,
                    51.60034
                ]
            },
            "properties": {
                "isced:level": "3",
                "ref:rspo": 113744,
                "official_name": "Niepubliczne Technikum Mechaniczne Zak\u0142adu Doskonalenia Zawodowego",
                "name": "Niepubliczne Technikum Mechaniczne Zak\u0142adu Doskonalenia Zawodowego",
                "addr:postcode": "68-300",
                "addr:city": "\u017bary",
                "addr:street": "Dworcowa",
                "addr:housenumber": "2",
                "addr:city:simc": 988684,
                "addr:street:sym_ul": 4434,
                "phone": "+48 683721477",
                "email": "zszlubsko@zdzzgora.pl",
                "ref:regon": "081126695",
                "operator": "Zak\u0142ad Doskonalenia Zawodowego W Zielonej G\u00f3rze",
                "operator:type": "ngo",
                "amenity": "school",
                "note": "Parent RSPO: 41887"
            }
        },
        {
            "id": 113745,
            "type": "Feature",
            "geometry": {
                "type": "Point",
                "coordinates": [
                    15.16455,
                    51.60031
                ]
            },
            "properties": {
                "isced:level": "3",
                "ref:rspo": 113745,
                "official_name": "Technikum Elektryczne w Lubsku Zak\u0142adu Doskonalenia Zawodowego w Zielonej G\u00f3rze",
                "name": "Technikum Elektryczne w Lubsku Zak\u0142adu Doskonalenia Zawodowego w Zielonej G\u00f3rze",
                "addr:postcode": "68-300",
                "addr:city": "\u017bary",
                "addr:street": "Dworcowa",
                "addr:housenumber": "2",
                "addr:city:simc": 988684,
                "addr:street:sym_ul": 4434,
                "phone": "+48 683721477",
                "email": "zszlubsko@zdzzgora.pl",
                "website": "http:\/\/www.zszlubsko.zdzgora.pl",
                "ref:regon": "081126710",
                "operator": "Zak\u0142ad Doskonalenia Zawodowego W Zielonej G\u00f3rze",
                "operator:type": "ngo",
                "amenity": "school",
                "note": "Parent RSPO: 41887"
            }
        },
        {
            "id": 20300,
            "type": "Feature",
            "geometry": {
                "type": "Point",
                "coordinates": [
                    15.17103,
                    51.6023
                ]
            },
            "properties": {
                "ref:rspo": 20300,
                "official_name": "Miejskie Przedszkole nr 4",
                "name": "Miejskie Przedszkole nr 4",
                "addr:postcode": "68-200",
                "addr:city": "\u017bary",
                "addr:street": "Genera\u0142a W\u0142adys\u0142awa Sikorskiego",
                "addr:housenumber": "22",
                "addr:city:simc": 988684,
                "addr:street:sym_ul": 19901,
                "phone": "+48 683743719",
                "email": "mp4zary@op.pl",
                "website": "http:\/\/mp4zary.szkolnastrona.pl",
                "ref:regon": "080489007",
                "ref:vatin": "PL9282063802",
                "operator": "Gmina \u017bary O Statusie Miejskim",
                "operator:type": "government",
                "amenity": "kindergarten"
            }
        },
        {
            "id": 276501,
            "type": "Feature",
            "geometry": {
                "type": "Point",
                "coordinates": [
                    15.16831,
                    51.60324
                ]
            },
            "properties": {
                "ref:rspo": 276501,
                "official_name": "Niepubliczne Przedszkole Terapeutyczne \"Orzeszek\" w \u017barach",
                "name": "Niepubliczne Przedszkole Terapeutyczne \"Orzeszek\" w \u017barach",
                "addr:postcode": "68-200",
                "addr:city": "\u017bary",
                "addr:street": "Grunwaldzka",
                "addr:housenumber": "17",
                "addr:city:simc": 988684,
                "addr:street:sym_ul": 6260,
                "phone": "+48 606301185",
                "email": "draganczuk@poczta.onet.pl",
                "website": "http:\/\/www.fundacjasigma.pl",
                "ref:regon": "387160620",
                "operator": "Fundacja Pomocy Dzieciom \"Sigma\"",
                "operator:type": "ngo",
                "amenity": "kindergarten"
            }
        },
        {
            "id": 11178,
            "type": "Feature",
            "geometry": {
                "type": "Point",
                "coordinates": [
                    15.1715,
                    51.60374
                ]
            },
            "properties": {
                "isced:level": "1;2",
                "ref:rspo": 11178,
                "official_name": "Szko\u0142a Podstawowa nr 10 im. Armii Krajowej",
                "name": "Szko\u0142a Podstawowa nr 10",
                "addr:postcode": "68-200",
                "addr:city": "\u017bary",
                "addr:street": "Genera\u0142a Kazimierza Pu\u0142askiego",
                "addr:housenumber": "4a",
                "addr:city:simc": 988684,
                "addr:street:sym_ul": 18093,
                "phone": "+48 684793339",
                "email": "sp10zarykunice@wp.pl",
                "website": "http:\/\/sp10zary.pl",
                "ref:regon": "970530043",
                "ref:vatin": "PL9282087903",
                "operator": "Gmina \u017bary O Statusie Miejskim",
                "operator:type": "government",
                "amenity": "school"
            }
        },
        {
            "id": 6820,
            "type": "Feature",
            "geometry": {
                "type": "Point",
                "coordinates": [
                    15.13258,
                    51.62876
                ]
            },
            "properties": {
                "isced:level": "1;2",
                "ref:rspo": 6820,
                "official_name": "Szko\u0142a Podstawowa nr 2 im. Janusza Korczaka",
                "name": "Szko\u0142a Podstawowa nr 2",
                "addr:postcode": "68-200",
                "addr:city": "\u017bary",
                "addr:street": "Gabrieli Zapolskiej",
                "addr:housenumber": "16",
                "addr:city:simc": 988684,
                "addr:street:sym_ul": 25632,
                "phone": "+48 684704667",
                "email": "sp2witosa25@wp.pl",
                "website": "http:\/\/sp2.zary.com.pl",
                "ref:regon": "970527897",
                "ref:vatin": "PL9281207713",
                "operator": "Gmina \u017bary O Statusie Miejskim",
                "operator:type": "government",
                "amenity": "school"
            }
        },
        {
            "id": 275559,
            "type": "Feature",
            "geometry": {
                "type": "Point",
                "coordinates": [
                    15.12308,
                    51.63081
                ]
            },
            "properties": {
                "isced:level": "1;2",
                "ref:rspo": 275559,
                "official_name": "Niepubliczna Szko\u0142a Podstawowa im. J.korczaka",
                "name": "Niepubliczna Szko\u0142a Podstawowa",
                "addr:postcode": "68-200",
                "addr:city": "\u017bary",
                "addr:street": "Cz\u0119stochowska",
                "addr:housenumber": "15B",
                "addr:city:simc": 988684,
                "addr:street:sym_ul": 3458,
                "phone": "+48 880239520",
                "email": "nspj.korczak@gmail.com",
                "ref:regon": "386925569",
                "operator": "Luiza Groszek",
                "operator:type": "private",
                "amenity": "school"
            }
        },
        {
            "id": 7431,
            "type": "Feature",
            "geometry": {
                "type": "Point",
                "coordinates": [
                    15.13217,
                    51.63201
                ]
            },
            "properties": {
                "isced:level": "1;2",
                "ref:rspo": 7431,
                "official_name": "Szko\u0142a Podstawowa nr 5 im. Polskich Noblist\u00f3w",
                "name": "Szko\u0142a Podstawowa nr 5",
                "addr:postcode": "68-200",
                "addr:city": "\u017bary",
                "addr:street": "Okrzei",
                "addr:housenumber": "19",
                "addr:city:simc": 988684,
                "addr:street:sym_ul": 14909,
                "phone": "+48 684704577",
                "email": "sp5zary@wp.pl",
                "website": "http:\/\/sp5.zary.pl",
                "ref:regon": "970497328",
                "ref:vatin": "PL9281129812",
                "operator": "Gmina \u017bary O Statusie Miejskim",
                "operator:type": "government",
                "amenity": "school"
            }
        },
        {
            "id": 27490,
            "type": "Feature",
            "geometry": {
                "type": "Point",
                "coordinates": [
                    15.13217,
                    51.63198
                ]
            },
            "properties": {
                "isced:level": "4",
                "ref:rspo": 27490,
                "official_name": "Prywatne Uzupe\u0142niaj\u0105ce Liceum Og\u00f3lnokszta\u0142c\u0105ce dla Doros\u0142ych \"Twoja Szko\u0142a\".",
                "name": "Prywatne Uzupe\u0142niaj\u0105ce Liceum Og\u00f3lnokszta\u0142c\u0105ce dla Doros\u0142ych \"Twoja Szko\u0142a\".",
                "addr:postcode": "68-200",
                "addr:city": "\u017bary",
                "addr:street": "Okrzei",
                "addr:housenumber": "19",
                "addr:city:simc": 988684,
                "addr:street:sym_ul": 14909,
                "phone": "+48 684523373",
                "email": "zary@twoja-szkola.pl",
                "ref:regon": "081080220",
                "ref:vatin": "PL8762050934",
                "operator": "Angelika Kubala",
                "operator:type": "private",
                "amenity": "college"
            }
        },
        {
            "id": 16130,
            "type": "Feature",
            "geometry": {
                "type": "Point",
                "coordinates": [
                    15.13274,
                    51.63249
                ]
            },
            "properties": {
                "ref:rspo": 16130,
                "official_name": "Miejskie Przedszkole nr 10",
                "name": "Miejskie Przedszkole nr 10",
                "addr:postcode": "68-200",
                "addr:city": "\u017bary",
                "addr:street": "Okrzei",
                "addr:housenumber": "15",
                "addr:city:simc": 988684,
                "addr:street:sym_ul": 14909,
                "phone": "+48 683744690",
                "email": "mp10zary@wp.pl",
                "website": "http:\/\/mp10zary.webatu.com",
                "ref:regon": "080489160",
                "ref:vatin": "PL9282064084",
                "operator": "Gmina \u017bary O Statusie Miejskim",
                "operator:type": "government",
                "amenity": "kindergarten"
            }
        },
        {
            "id": 21872,
            "type": "Feature",
            "geometry": {
                "type": "Point",
                "coordinates": [
                    15.13082,
                    51.63319
                ]
            },
            "properties": {
                "ref:rspo": 21872,
                "official_name": "Zesp\u00f3\u0142 Szk\u00f3\u0142 Budowlanych",
                "name": "Zesp\u00f3\u0142 Szk\u00f3\u0142 Budowlanych",
                "addr:postcode": "68-200",
                "addr:city": "\u017bary",
                "addr:street": "G\u00f3rno\u015bl\u0105ska",
                "addr:housenumber": "2",
                "addr:city:simc": 988684,
                "addr:street:sym_ul": 5976,
                "phone": "+48 683634702",
                "email": "sekretariat@zsb.zary.pl",
                "website": "http:\/\/www.zsb.zary.pl",
                "ref:regon": "000184170",
                "ref:vatin": "PL9281563856",
                "operator": "Powiat \u017barski",
                "operator:type": "government",
                "landuse": "education",
                "fixme": "amenity=school, amenity=college albo landuse=education w zale\u017cno\u015bci od tego, jakie plac\u00f3wki wchodz\u0105 w sk\u0142ad zespo\u0142u. Sprawd\u017a, kiedy stosowa\u0107 amenity=* a kiedy landuse=education.",
                "note": "Children RSPO: 38625;38628"
            }
        },
        {
            "id": 123286,
            "type": "Feature",
            "geometry": {
                "type": "Point",
                "coordinates": [
                    15.13082,
                    51.63316
                ]
            },
            "properties": {
                "isced:level": "3",
                "ref:rspo": 123286,
                "official_name": "Kolegium Kr\u00f3lewskie-Liceum Og\u00f3lnokszta\u0142c\u0105ce dla Doros\u0142ych w \u017barach",
                "name": "Kolegium Kr\u00f3lewskie-Liceum Og\u00f3lnokszta\u0142c\u0105ce dla Doros\u0142ych w \u017barach",
                "addr:postcode": "68-200",
                "addr:city": "\u017bary",
                "addr:street": "G\u00f3rno\u015bl\u0105ska",
                "addr:housenumber": "2",
                "addr:city:simc": 988684,
                "addr:street:sym_ul": 5976,
                "phone": "+48 616537864",
                "ref:regon": "081217222",
                "operator": "Ecal Polska Sp\u00f3\u0142ka Z Ograniczon\u0105 Odpowiedzialno\u015bci\u0105",
                "operator:type": "private",
                "amenity": "school"
            }
        },
        {
            "id": 123863,
            "type": "Feature",
            "geometry": {
                "type": "Point",
                "coordinates": [
                    15.13082,
                    51.63313
                ]
            },
            "properties": {
                "isced:level": "4",
                "ref:rspo": 123863,
                "official_name": "Szko\u0142a G\u0142\u00f3wna S\u0142u\u017cb Spo\u0142ecznych Kolegium Kr\u00f3lewskie w \u017barach",
                "name": "Szko\u0142a G\u0142\u00f3wna S\u0142u\u017cb Spo\u0142ecznych Kolegium Kr\u00f3lewskie w \u017barach",
                "addr:postcode": "68-200",
                "addr:city": "\u017bary",
                "addr:street": "G\u00f3rno\u015bl\u0105ska",
                "addr:housenumber": "2",
                "addr:city:simc": 988684,
                "addr:street:sym_ul": 5976,
                "ref:regon": "081227203",
                "ref:vatin": "PL6792851164",
                "operator": "Ecal Polska Sp\u00f3\u0142ka Z Ograniczon\u0105 Odpowiedzialno\u015bci\u0105",
                "operator:type": "private",
                "amenity": "college"
            }
        },
        {
            "id": 38625,
            "type": "Feature",
            "geometry": {
                "type": "Point",
                "coordinates": [
                    15.13082,
                    51.6331
                ]
            },
            "properties": {
                "isced:level": "3",
                "ref:rspo": 38625,
                "official_name": "Technikum nr 4",
                "name": "Technikum nr 4",
                "addr:postcode": "68-200",
                "addr:city": "\u017bary",
                "addr:street": "G\u00f3rno\u015bl\u0105ska",
                "addr:housenumber": "2",
                "addr:city:simc": 988684,
                "addr:street:sym_ul": 5976,
                "phone": "+48 683634702",
                "email": "sekretariat@zsb.zary.pl",
                "website": "http:\/\/www.zsb.zary.pl",
                "ref:regon": "978051454",
                "operator": "Powiat \u017barski",
                "operator:type": "government",
                "amenity": "school",
                "note": "Parent RSPO: 21872"
            }
        },
        {
            "id": 38628,
            "type": "Feature",
            "geometry": {
                "type": "Point",
                "coordinates": [
                    15.13082,
                    51.63307
                ]
            },
            "properties": {
                "isced:level": "3",
                "ref:rspo": 38628,
                "official_name": "Bran\u017cowa Szko\u0142a I Stopnia nr 4",
                "name": "Bran\u017cowa Szko\u0142a I Stopnia nr 4",
                "addr:postcode": "68-200",
                "addr:city": "\u017bary",
                "addr:street": "G\u00f3rno\u015bl\u0105ska",
                "addr:housenumber": "2",
                "addr:city:simc": 988684,
                "addr:street:sym_ul": 5976,
                "phone": "+48 683634702",
                "email": "sekretariat@zsb.zary.pl",
                "website": "http:\/\/www.zsb.zary.pl",
                "ref:regon": "978051394",
                "operator": "Powiat \u017barski",
                "operator:type": "government",
                "amenity": "school",
                "note": "Parent RSPO: 21872"
            }
        },
        {
            "id": 130306,
            "type": "Feature",
            "geometry": {
                "type": "Point",
                "coordinates": [
                    15.1483,
                    51.6334
                ]
            },
            "properties": {
                "ref:rspo": 130306,
                "official_name": "Niepubliczna Poradnia Wspierania Rozwoju Dzieci I M\u0142odzie\u017cy",
                "name": "Niepubliczna Poradnia Wspierania Rozwoju Dzieci I M\u0142odzie\u017cy",
                "addr:postcode": "68-200",
                "addr:city": "\u017bary",
                "addr:street": "Partyzant\u00f3w",
                "addr:housenumber": "2",
                "addr:city:simc": 988684,
                "addr:street:sym_ul": 15733,
                "phone": "+48 733515152",
                "ref:regon": "363808590",
                "ref:vatin": "PL9281332418",
                "operator": "Barbara Majer-Gemi\u0144ska",
                "operator:type": "private",
                "healthcare": "counselling",
                "counselling_type": "education",
                "fixme": "w zale\u017cno\u015bci od przedmiotu dzia\u0142alno\u015bci (np. healthcare=counselling + counselling_type=education albo healthcare=psychotherapist)"
            }
        },
        {
            "id": 7740,
            "type": "Feature",
            "geometry": {
                "type": "Point",
                "coordinates": [
                    15.14782,
                    51.6337
                ]
            },
            "properties": {
                "isced:level": "1;2",
                "ref:rspo": 7740,
                "official_name": "Szko\u0142a Podstawowa nr 8 im. Boles\u0142awa Chrobrego",
                "name": "Szko\u0142a Podstawowa nr 8",
                "addr:postcode": "68-200",
                "addr:city": "\u017bary",
                "addr:street": "Partyzant\u00f3w",
                "addr:housenumber": "9",
                "addr:city:simc": 988684,
                "addr:street:sym_ul": 15733,
                "phone": "+48 683636723",
                "email": "sekretariat@sp8.zary.pl",
                "website": "http:\/\/www.sp8.zary.pl",
                "ref:regon": "970527880",
                "ref:vatin": "PL9281207363",
                "operator": "Gmina \u017bary O Statusie Miejskim",
                "operator:type": "government",
                "amenity": "school"
            }
        },
        {
            "id": 14567,
            "type": "Feature",
            "geometry": {
                "type": "Point",
                "coordinates": [
                    15.13173,
                    51.63413
                ]
            },
            "properties": {
                "ref:rspo": 14567,
                "official_name": "Miejskie Przedszkole nr 8 im. Misia Uszatka-Przyjaciela Przyrody",
                "name": "Miejskie Przedszkole nr 8",
                "addr:postcode": "68-200",
                "addr:city": "\u017bary",
                "addr:street": "G\u00f3rno\u015bl\u0105ska",
                "addr:housenumber": "28",
                "addr:city:simc": 988684,
                "addr:street:sym_ul": 5976,
                "phone": "+48 683743961",
                "email": "mp8.zary@interia.pl",
                "website": "http:\/\/mp8zary.pl",
                "ref:regon": "080488982",
                "ref:vatin": "PL9282063831",
                "operator": "Gmina \u017bary O Statusie Miejskim",
                "operator:type": "government",
                "amenity": "kindergarten"
            }
        },
        {
            "id": 27438,
            "type": "Feature",
            "geometry": {
                "type": "Point",
                "coordinates": [
                    15.12965,
                    51.63476
                ]
            },
            "properties": {
                "isced:level": "3",
                "ref:rspo": 27438,
                "official_name": "Prywatne Liceum Og\u00f3lnokszta\u0142c\u0105ce dla Doros\u0142ych \"Twoja Szko\u0142a\".",
                "name": "Prywatne Liceum Og\u00f3lnokszta\u0142c\u0105ce dla Doros\u0142ych \"Twoja Szko\u0142a\".",
                "addr:postcode": "68-200",
                "addr:city": "\u017bary",
                "addr:street": "G\u00f3rno\u015bl\u0105ska",
                "addr:housenumber": "18",
                "addr:city:simc": 988684,
                "addr:street:sym_ul": 5976,
                "email": "zary@twoja-szkola.pl",
                "website": "http:\/\/twoja-szkola.pl",
                "ref:regon": "081080208",
                "ref:vatin": "PL8762050934",
                "operator": "Twoja Szko\u0142a Sp\u00f3\u0142ka Z Ograniczon\u0105 Odpowiedzialno\u015bci\u0105",
                "operator:type": "private",
                "amenity": "school"
            }
        },
        {
            "id": 119091,
            "type": "Feature",
            "geometry": {
                "type": "Point",
                "coordinates": [
                    15.12965,
                    51.63473
                ]
            },
            "properties": {
                "isced:level": "4",
                "ref:rspo": 119091,
                "official_name": "Prywatna Szko\u0142a Policealna \"Twoja Szko\u0142a\" w \u017barach",
                "name": "Prywatna Szko\u0142a Policealna \"Twoja Szko\u0142a\" w \u017barach",
                "addr:postcode": "68-200",
                "addr:city": "\u017bary",
                "addr:street": "G\u00f3rno\u015bl\u0105ska",
                "addr:housenumber": "18",
                "addr:city:simc": 988684,
                "addr:street:sym_ul": 5976,
                "email": "zary@twoja-szkola.pl",
                "website": "http:\/\/twoja-szkola.pl",
                "ref:regon": "081156615",
                "operator": "Twoja Szko\u0142a Sp\u00f3\u0142ka Z Ograniczon\u0105 Odpowiedzialno\u015bci\u0105",
                "operator:type": "private",
                "amenity": "college"
            }
        },
        {
            "id": 25630,
            "type": "Feature",
            "geometry": {
                "type": "Point",
                "coordinates": [
                    15.14348,
                    51.63486
                ]
            },
            "properties": {
                "ref:rspo": 25630,
                "official_name": "Zesp\u00f3\u0142 Szk\u00f3\u0142 Ekonomicznych w \u017barach",
                "name": "Zesp\u00f3\u0142 Szk\u00f3\u0142 Ekonomicznych w \u017barach",
                "addr:postcode": "68-200",
                "addr:city": "\u017bary",
                "addr:street": "D\u0142ugosza",
                "addr:housenumber": "23",
                "addr:city:simc": 988684,
                "addr:street:sym_ul": 3849,
                "phone": "+48 683632520",
                "email": "sekretariat@zse-zary.pl",
                "website": "http:\/\/www.zse.zary.pl",
                "ref:regon": "970778607",
                "ref:vatin": "PL9281471189",
                "operator": "Powiat \u017barski",
                "operator:type": "government",
                "landuse": "education",
                "fixme": "amenity=school, amenity=college albo landuse=education w zale\u017cno\u015bci od tego, jakie plac\u00f3wki wchodz\u0105 w sk\u0142ad zespo\u0142u. Sprawd\u017a, kiedy stosowa\u0107 amenity=* a kiedy landuse=education.",
                "note": "Children RSPO: 38620;38623"
            }
        },
        {
            "id": 38620,
            "type": "Feature",
            "geometry": {
                "type": "Point",
                "coordinates": [
                    15.14348,
                    51.63483
                ]
            },
            "properties": {
                "isced:level": "3",
                "ref:rspo": 38620,
                "official_name": "Liceum Og\u00f3lnokszta\u0142c\u0105ce nr Iv",
                "name": "Liceum Og\u00f3lnokszta\u0142c\u0105ce nr Iv",
                "addr:postcode": "68-200",
                "addr:city": "\u017bary",
                "addr:street": "D\u0142ugosza",
                "addr:housenumber": "23",
                "addr:city:simc": 988684,
                "addr:street:sym_ul": 3849,
                "phone": "+48 683632520",
                "email": "sekretariat@zse-zary.pl",
                "website": "http:\/\/www.zse.zary.pl",
                "ref:regon": "978051193",
                "operator": "Powiat \u017barski",
                "operator:type": "government",
                "amenity": "school",
                "note": "Parent RSPO: 25630"
            }
        },
        {
            "id": 38623,
            "type": "Feature",
            "geometry": {
                "type": "Point",
                "coordinates": [
                    15.14348,
                    51.634800000000006
                ]
            },
            "properties": {
                "isced:level": "3",
                "ref:rspo": 38623,
                "official_name": "Technikum nr 3",
                "name": "Technikum nr 3",
                "addr:postcode": "68-200",
                "addr:city": "\u017bary",
                "addr:street": "D\u0142ugosza",
                "addr:housenumber": "23",
                "addr:city:simc": 988684,
                "addr:street:sym_ul": 3849,
                "phone": "+48 683632520",
                "email": "sekretariat@zse-zary.pl",
                "website": "http:\/\/www.zse.zary.pl",
                "ref:regon": "978051187",
                "operator": "Powiat \u017barski",
                "operator:type": "government",
                "amenity": "school",
                "note": "Parent RSPO: 25630"
            }
        },
        {
            "id": 15530,
            "type": "Feature",
            "geometry": {
                "type": "Point",
                "coordinates": [
                    15.14512,
                    51.63506
                ]
            },
            "properties": {
                "ref:rspo": 15530,
                "official_name": "Miejskie Przedszkole nr 3 im. Fundacji Wielka Orkiestra \u015awi\u0105tecznej Pomocy",
                "name": "Miejskie Przedszkole nr 3",
                "addr:postcode": "68-200",
                "addr:city": "\u017bary",
                "addr:street": "11 Listopada",
                "addr:housenumber": "22",
                "addr:city:simc": 988684,
                "addr:street:sym_ul": 11205,
                "phone": "+48 684794313",
                "email": "przedszkole@zary.net",
                "website": "http:\/\/zary.net",
                "ref:regon": "080489020",
                "ref:vatin": "PL9282063908",
                "operator": "Gmina \u017bary O Statusie Miejskim",
                "operator:type": "government",
                "amenity": "kindergarten"
            }
        },
        {
            "id": 26233,
            "type": "Feature",
            "geometry": {
                "type": "Point",
                "coordinates": [
                    15.14516,
                    51.63546
                ]
            },
            "properties": {
                "isced:level": "3",
                "ref:rspo": 26233,
                "official_name": "Spo\u0142eczne Liceum Og\u00f3lnokszta\u0142c\u0105ce w \u017barach",
                "name": "Spo\u0142eczne Liceum Og\u00f3lnokszta\u0142c\u0105ce w \u017barach",
                "addr:postcode": "68-200",
                "addr:city": "\u017bary",
                "addr:street": "11 Listopada",
                "addr:housenumber": "33",
                "addr:city:simc": 988684,
                "addr:street:sym_ul": 11205,
                "phone": "+48 683636939",
                "email": "szkola@slo.zary.pl",
                "website": "http:\/\/www.slo.zary.pl",
                "ref:regon": "081080088",
                "ref:vatin": "PL9281552462",
                "operator": "Stowarzyszenie O\u015bwiatowe W \u017barach",
                "operator:type": "ngo",
                "amenity": "school"
            }
        },
        {
            "id": 5425,
            "type": "Feature",
            "geometry": {
                "type": "Point",
                "coordinates": [
                    15.148636,
                    51.6357121
                ]
            },
            "properties": {
                "isced:level": "1;2",
                "ref:rspo": 5425,
                "official_name": "Katolicka Szko\u0142a Podstawowa im. Jana Paw\u0142a Ii",
                "name": "Katolicka Szko\u0142a Podstawowa",
                "addr:postcode": "68-200",
                "addr:city": "\u017bary",
                "addr:street": "Romana Dmowskiego",
                "addr:housenumber": "15",
                "addr:city:simc": 988684,
                "addr:street:sym_ul": 34366,
                "phone": "+48 684794325",
                "email": "zarykatolik@gmail.com",
                "website": "http:\/\/ksp.zary.pl",
                "ref:regon": "081067627",
                "ref:vatin": "PL9281623854",
                "operator": "Stowarzyszenie \"Wsp\u00f3lne Dzie\u0142a\"",
                "operator:type": "ngo",
                "amenity": "school"
            }
        },
        {
            "id": 25808,
            "type": "Feature",
            "geometry": {
                "type": "Point",
                "coordinates": [
                    15.148636,
                    51.6356821
                ]
            },
            "properties": {
                "isced:level": "3",
                "ref:rspo": 25808,
                "official_name": "Katolickie Liceum Og\u00f3lnokszta\u0142c\u0105ce w \u017barach",
                "name": "Katolickie Liceum Og\u00f3lnokszta\u0142c\u0105ce w \u017barach",
                "addr:postcode": "68-200",
                "addr:city": "\u017bary",
                "addr:street": "Romana Dmowskiego",
                "addr:housenumber": "15",
                "addr:city:simc": 988684,
                "addr:street:sym_ul": 34366,
                "phone": "+48 684794325",
                "email": "zarykatolik@gmail.com",
                "website": "http:\/\/www.klo.zary.pl",
                "ref:regon": "081080071",
                "ref:vatin": "PL9281948444",
                "operator": "Stowarzyszenie \"Wsp\u00f3lne Dzie\u0142a\"",
                "operator:type": "ngo",
                "amenity": "school"
            }
        },
        {
            "id": 21181,
            "type": "Feature",
            "geometry": {
                "type": "Point",
                "coordinates": [
                    15.13841,
                    51.63642
                ]
            },
            "properties": {
                "ref:rspo": 21181,
                "official_name": "Zesp\u00f3\u0142 Poradni Psychologiczno-Pedagogicznych Powiatu \u017barskiego",
                "name": "Zesp\u00f3\u0142 Poradni Psychologiczno-Pedagogicznych Powiatu \u017barskiego",
                "addr:postcode": "68-200",
                "addr:city": "\u017bary",
                "addr:street": "Wroc\u0142awska",
                "addr:housenumber": "5",
                "addr:city:simc": 988684,
                "addr:street:sym_ul": 24806,
                "phone": "+48 684794383",
                "email": "sekretariat@pppzary.pl",
                "website": "http:\/\/www.pppzary.pl",
                "ref:regon": "081076170",
                "operator": "Powiat \u017barski",
                "operator:type": "government",
                "healthcare": "counselling",
                "counselling_type": "education",
                "fixme": "w zale\u017cno\u015bci od przedmiotu dzia\u0142alno\u015bci (np. healthcare=counselling + counselling_type=education albo healthcare=psychotherapist)"
            }
        },
        {
            "id": 25207,
            "type": "Feature",
            "geometry": {
                "type": "Point",
                "coordinates": [
                    15.14608,
                    51.63702
                ]
            },
            "properties": {
                "ref:rspo": 25207,
                "official_name": "Zesp\u00f3\u0142 Szk\u00f3\u0142 Og\u00f3lnokszta\u0142c\u0105cych w \u017barach",
                "name": "Zesp\u00f3\u0142 Szk\u00f3\u0142 Og\u00f3lnokszta\u0142c\u0105cych w \u017barach",
                "addr:postcode": "68-200",
                "addr:city": "\u017bary",
                "addr:street": "Podwale",
                "addr:housenumber": "16",
                "addr:city:simc": 988684,
                "addr:street:sym_ul": 16874,
                "phone": "+48 683743676",
                "email": "szkola@lo-zary.pl",
                "website": "http:\/\/www.lo-zary.pl",
                "ref:regon": "970779529",
                "ref:vatin": "PL9281125139",
                "operator": "Powiat \u017barski",
                "operator:type": "government",
                "landuse": "education",
                "fixme": "amenity=school, amenity=college albo landuse=education w zale\u017cno\u015bci od tego, jakie plac\u00f3wki wchodz\u0105 w sk\u0142ad zespo\u0142u. Sprawd\u017a, kiedy stosowa\u0107 amenity=* a kiedy landuse=education.",
                "note": "Children RSPO: 29637;110234"
            }
        },
        {
            "id": 131748,
            "type": "Feature",
            "geometry": {
                "type": "Point",
                "coordinates": [
                    15.14608,
                    51.63699
                ]
            },
            "properties": {
                "ref:rspo": 131748,
                "official_name": "Niepubliczna Poradnia Psychologiczno-Pedagogiczna \"Przyjazna D\u0142o\u0144\" w \u017barach",
                "name": "Niepubliczna Poradnia Psychologiczno-Pedagogiczna \"Przyjazna D\u0142o\u0144\" w \u017barach",
                "addr:postcode": "68-200",
                "addr:city": "\u017bary",
                "addr:street": "Podwale",
                "addr:housenumber": "16",
                "addr:city:simc": 988684,
                "addr:street:sym_ul": 16874,
                "phone": "+48 684521368",
                "ref:regon": "365340233",
                "operator": "Paula Pawelec",
                "operator:type": "private",
                "healthcare": "counselling",
                "counselling_type": "education",
                "fixme": "w zale\u017cno\u015bci od przedmiotu dzia\u0142alno\u015bci (np. healthcare=counselling + counselling_type=education albo healthcare=psychotherapist)"
            }
        },
        {
            "id": 29637,
            "type": "Feature",
            "geometry": {
                "type": "Point",
                "coordinates": [
                    15.14608,
                    51.63696
                ]
            },
            "properties": {
                "isced:level": "3",
                "ref:rspo": 29637,
                "official_name": "I Liceum Og\u00f3lnokszta\u0142c\u0105ce im. Boles\u0142awa Prusa",
                "name": "I Liceum Og\u00f3lnokszta\u0142c\u0105ce",
                "addr:postcode": "68-200",
                "addr:city": "\u017bary",
                "addr:street": "Podwale",
                "addr:housenumber": "16",
                "addr:city:simc": 988684,
                "addr:street:sym_ul": 16874,
                "phone": "+48 683743676",
                "email": "szkola@lo-zary.pl",
                "website": "http:\/\/www.lo-zary.pl",
                "ref:regon": "978052034",
                "operator": "Powiat \u017barski",
                "operator:type": "government",
                "amenity": "school",
                "note": "Parent RSPO: 25207"
            }
        },
        {
            "id": 110234,
            "type": "Feature",
            "geometry": {
                "type": "Point",
                "coordinates": [
                    15.14608,
                    51.63693
                ]
            },
            "properties": {
                "isced:level": "3",
                "ref:rspo": 110234,
                "official_name": "Liceum Og\u00f3lnokszta\u0142c\u0105ce dla Doros\u0142ych",
                "name": "Liceum Og\u00f3lnokszta\u0142c\u0105ce dla Doros\u0142ych",
                "addr:postcode": "68-200",
                "addr:city": "\u017bary",
                "addr:street": "Podwale",
                "addr:housenumber": "16",
                "addr:city:simc": 988684,
                "addr:street:sym_ul": 16874,
                "phone": "+48 683743676",
                "email": "szkola@lo-zary.pl",
                "ref:regon": "978052057",
                "operator": "Powiat \u017barski",
                "operator:type": "government",
                "amenity": "school",
                "note": "Parent RSPO: 25207"
            }
        },
        {
            "id": 28072,
            "type": "Feature",
            "geometry": {
                "type": "Point",
                "coordinates": [
                    15.14823,
                    51.63826
                ]
            },
            "properties": {
                "ref:rspo": 28072,
                "official_name": "Pa\u0144stwowa Szko\u0142a Muzyczna I St. im. Georga Philippa Telemanna w \u017barach",
                "name": "Pa\u0144stwowa Szko\u0142a Muzyczna I St.",
                "addr:postcode": "68-200",
                "addr:city": "\u017bary",
                "addr:street": "al. Wojska Polskiego",
                "addr:housenumber": "2a",
                "addr:city:simc": 988684,
                "addr:street:sym_ul": 24623,
                "phone": "+48 683634413",
                "email": "psmteleman@interia.pl",
                "website": "http:\/\/psm.zary.pl",
                "ref:regon": "000676418",
                "operator": "Ministerstwo Kultury I Dziedzictwa Narodowego",
                "operator:type": "public",
                "amenity": "music_school"
            }
        },
        {
            "id": 14980,
            "type": "Feature",
            "geometry": {
                "type": "Point",
                "coordinates": [
                    15.13855,
                    51.63891
                ]
            },
            "properties": {
                "ref:rspo": 14980,
                "official_name": "Miejskie Przedszkole nr 2 im. Jana Brzechwy",
                "name": "Miejskie Przedszkole nr 2",
                "addr:postcode": "68-200",
                "addr:city": "\u017bary",
                "addr:street": "1 Maja",
                "addr:housenumber": "3a",
                "addr:city:simc": 988684,
                "addr:street:sym_ul": 11926,
                "phone": "+48 683743659",
                "email": "dyrektor.mp2zary@wp.pl",
                "ref:regon": "080489378",
                "ref:vatin": "PL9282063972",
                "operator": "Gmina \u017bary O Statusie Miejskim",
                "operator:type": "government",
                "amenity": "kindergarten"
            }
        },
        {
            "id": 42087,
            "type": "Feature",
            "geometry": {
                "type": "Point",
                "coordinates": [
                    15.1497,
                    51.63901
                ]
            },
            "properties": {
                "isced:level": "4",
                "ref:rspo": 42087,
                "official_name": "Policealne Studium Informatyczne",
                "name": "Policealne Studium Informatyczne",
                "addr:postcode": "68-200",
                "addr:city": "\u017bary",
                "addr:street": "\u017baga\u0144ska",
                "addr:housenumber": "11",
                "addr:city:simc": 988684,
                "addr:street:sym_ul": 26387,
                "phone": "+48 683635940",
                "email": "zdzzary@wp.pl",
                "website": "http:\/\/www.zdz.zary.pl",
                "ref:regon": "081088233",
                "operator": "Zak\u0142ad Doskonalenia Zawodowego W Zielonej G\u00f3rze",
                "operator:type": "ngo",
                "amenity": "college"
            }
        },
        {
            "id": 42270,
            "type": "Feature",
            "geometry": {
                "type": "Point",
                "coordinates": [
                    15.1497,
                    51.63898
                ]
            },
            "properties": {
                "isced:level": "3",
                "ref:rspo": 42270,
                "official_name": "Bran\u017cowa Szko\u0142a I Stopnia w \u017barach Zak\u0142adu Doskonalenia Zawodowego w Zielonej G\u00f3rze",
                "name": "Bran\u017cowa Szko\u0142a I Stopnia w \u017barach Zak\u0142adu Doskonalenia Zawodowego w Zielonej G\u00f3rze",
                "addr:postcode": "68-200",
                "addr:city": "\u017bary",
                "addr:street": "\u017baga\u0144ska",
                "addr:housenumber": "11",
                "addr:city:simc": 988684,
                "addr:street:sym_ul": 26387,
                "phone": "+48 683635940",
                "email": "zdzckz2@poczta.onet.pl",
                "ref:regon": "081082779",
                "operator": "Zak\u0142ad Doskonalenia Zawodowego W Zielonej G\u00f3rze",
                "operator:type": "ngo",
                "amenity": "school"
            }
        },
        {
            "id": 104842,
            "type": "Feature",
            "geometry": {
                "type": "Point",
                "coordinates": [
                    15.1497,
                    51.63895
                ]
            },
            "properties": {
                "ref:rspo": 104842,
                "official_name": "Centrum Edukacji Doros\u0142ych w \u017barach",
                "name": "Centrum Edukacji Doros\u0142ych w \u017barach",
                "addr:postcode": "68-200",
                "addr:city": "\u017bary",
                "addr:street": "\u017baga\u0144ska",
                "addr:housenumber": "11",
                "addr:city:simc": 988684,
                "addr:street:sym_ul": 26387,
                "phone": "+48 683635940",
                "ref:regon": "081099308",
                "operator": "Zak\u0142ad Doskonalenia Zawodowego W Zielonej G\u00f3rze",
                "operator:type": "ngo",
                "fixme": "w zale\u017cno\u015bci od przedmiotu dzia\u0142alno\u015bci (np. amenity=training + training=*, amenity=dancing_school, amenity=language_school, amenity=music_school)"
            }
        },
        {
            "id": 264101,
            "type": "Feature",
            "geometry": {
                "type": "Point",
                "coordinates": [
                    15.1497,
                    51.63892
                ]
            },
            "properties": {
                "isced:level": "1;2",
                "ref:rspo": 264101,
                "official_name": "Szko\u0142a Podstawowa w \u017barach Zak\u0142adu Doskonalenia Zawodowego w Zielonej G\u00f3rze",
                "name": "Szko\u0142a Podstawowa w \u017barach Zak\u0142adu Doskonalenia Zawodowego w Zielonej G\u00f3rze",
                "addr:postcode": "68-200",
                "addr:city": "\u017bary",
                "addr:street": "\u017baga\u0144ska",
                "addr:housenumber": "11",
                "addr:city:simc": 988684,
                "addr:street:sym_ul": 26387,
                "phone": "+48 684152127",
                "email": "zdzckz2@poczta.onet.pl",
                "ref:regon": "368263579",
                "operator": "Zak\u0142ad Doskonalenia Zawodowego W Zielonej G\u00f3rze",
                "operator:type": "ngo",
                "amenity": "school"
            }
        },
        {
            "id": 276526,
            "type": "Feature",
            "geometry": {
                "type": "Point",
                "coordinates": [
                    15.1497,
                    51.638889999999996
                ]
            },
            "properties": {
                "isced:level": "3",
                "ref:rspo": 276526,
                "official_name": "Liceum Og\u00f3lnokszta\u0142c\u0105ce dla Doros\u0142ych w \u017barach Zak\u0142adu Doskonalenia Zawodowego w Zielonej G\u00f3rze",
                "name": "Liceum Og\u00f3lnokszta\u0142c\u0105ce dla Doros\u0142ych w \u017barach Zak\u0142adu Doskonalenia Zawodowego w Zielonej G\u00f3rze",
                "addr:postcode": "68-200",
                "addr:city": "\u017bary",
                "addr:street": "\u017baga\u0144ska",
                "addr:housenumber": "11",
                "addr:city:simc": 988684,
                "addr:street:sym_ul": 26387,
                "phone": "+48 683295900",
                "email": "sekr@zdz.zgora.pl",
                "website": "http:\/\/www.zdz.zgora.pl",
                "ref:regon": "387182142",
                "operator": "Zak\u0142ad Doskonalenia Zawodowego W Zielonej G\u00f3rze",
                "operator:type": "ngo",
                "amenity": "school"
            }
        },
        {
            "id": 130655,
            "type": "Feature",
            "geometry": {
                "type": "Point",
                "coordinates": [
                    15.13646030426,
                    51.63916015625
                ]
            },
            "properties": {
                "ref:rspo": 130655,
                "official_name": "Niepubliczna Poradnia Psychologiczno-Pedagogiczna",
                "name": "Niepubliczna Poradnia Psychologiczno-Pedagogiczna",
                "addr:postcode": "68-200",
                "addr:city": "\u017bary",
                "addr:street": "\u015ar\u00f3dmiejska",
                "addr:housenumber": "4",
                "addr:door": "a",
                "addr:city:simc": 988684,
                "addr:street:sym_ul": 22428,
                "phone": "+48 667908000",
                "ref:regon": "364289257",
                "ref:vatin": "PL9281837408",
                "operator": "Krzysztof Dziadkiewicz Centrum Us\u0142ug Psychologicznych, Pedagogicznych I Logopedycznych \"Ego\"",
                "operator:type": "consortium",
                "healthcare": "counselling",
                "counselling_type": "education",
                "fixme": "w zale\u017cno\u015bci od przedmiotu dzia\u0142alno\u015bci (np. healthcare=counselling + counselling_type=education albo healthcare=psychotherapist)"
            }
        },
        {
            "id": 128102,
            "type": "Feature",
            "geometry": {
                "type": "Point",
                "coordinates": [
                    15.13439,
                    51.63944
                ]
            },
            "properties": {
                "ref:rspo": 128102,
                "official_name": "Zesp\u00f3\u0142 Szkolno-Przedszkolny z Oddzia\u0142ami Integracyjnymi w \u017barach",
                "name": "Zesp\u00f3\u0142 Szkolno-Przedszkolny z Oddzia\u0142ami Integracyjnymi w \u017barach",
                "addr:postcode": "68-200",
                "addr:city": "\u017bary",
                "addr:street": "Broni Pancernej",
                "addr:housenumber": "8",
                "addr:city:simc": 988684,
                "addr:street:sym_ul": 2117,
                "phone": "+48 683743845",
                "email": "zsp@zary.pl",
                "website": "http:\/\/zspzary.pl",
                "ref:regon": "362093350",
                "operator": "Gmina \u017bary O Statusie Miejskim",
                "operator:type": "government",
                "landuse": "education",
                "fixme": "amenity=school, amenity=college albo landuse=education w zale\u017cno\u015bci od tego, jakie plac\u00f3wki wchodz\u0105 w sk\u0142ad zespo\u0142u. Sprawd\u017a, kiedy stosowa\u0107 amenity=* a kiedy landuse=education.",
                "note": "Children RSPO: 7332;14508"
            }
        },
        {
            "id": 7332,
            "type": "Feature",
            "geometry": {
                "type": "Point",
                "coordinates": [
                    15.13439,
                    51.63941
                ]
            },
            "properties": {
                "isced:level": "1;2",
                "ref:rspo": 7332,
                "official_name": "Szko\u0142a Podstawowa nr 3 im. Henryka Sienkiewicza",
                "name": "Szko\u0142a Podstawowa nr 3",
                "addr:postcode": "68-200",
                "addr:city": "\u017bary",
                "addr:street": "Broni Pancernej",
                "addr:housenumber": "8",
                "addr:city:simc": 988684,
                "addr:street:sym_ul": 2117,
                "phone": "+48 683743845",
                "email": "zarysp3@wp.pl",
                "website": "http:\/\/zspzary.pl",
                "ref:regon": "970527905",
                "ref:vatin": "PL9281478599",
                "operator": "Gmina \u017bary O Statusie Miejskim",
                "operator:type": "government",
                "amenity": "school",
                "note": "Parent RSPO: 128102"
            }
        },
        {
            "id": 273986,
            "type": "Feature",
            "geometry": {
                "type": "Point",
                "coordinates": [
                    15.13585,
                    51.63993
                ]
            },
            "properties": {
                "isced:level": "4",
                "ref:rspo": 273986,
                "official_name": "Policealna Szko\u0142a Awangarda",
                "name": "Policealna Szko\u0142a Awangarda",
                "addr:postcode": "68-200",
                "addr:city": "\u017bary",
                "addr:street": "Podchor\u0105\u017cych",
                "addr:housenumber": "24",
                "addr:city:simc": 988684,
                "addr:street:sym_ul": 16713,
                "phone": "+48 502755652",
                "email": "zary@awangarda.edu.pl",
                "website": "http:\/\/www.awangarda.edu.pl",
                "ref:regon": "384956318",
                "ref:vatin": "PL7262676156",
                "operator": "Sie\u0107 Szk\u00f3\u0142 Policealnych Awangarda Sp\u00f3\u0142ka Z Ograniczon\u0105 Odpowiedzialno\u015bci\u0105",
                "operator:type": "private",
                "amenity": "college"
            }
        },
        {
            "id": 131645,
            "type": "Feature",
            "geometry": {
                "type": "Point",
                "coordinates": [
                    15.14883,
                    51.63995
                ]
            },
            "properties": {
                "ref:rspo": 131645,
                "official_name": "Niepubliczna Poradnia Psychologiczno Pedagogiczna \"Lilavati\"",
                "name": "Niepubliczna Poradnia Psychologiczno Pedagogiczna \"Lilavati\"",
                "addr:postcode": "68-200",
                "addr:city": "\u017bary",
                "addr:street": "Bohater\u00f3w Getta",
                "addr:housenumber": "3",
                "addr:city:simc": 988684,
                "addr:street:sym_ul": 1637,
                "phone": "+48 668986211",
                "ref:regon": "365319902",
                "operator": "Agnieszka Olszewska",
                "operator:type": "private",
                "healthcare": "counselling",
                "counselling_type": "education",
                "fixme": "w zale\u017cno\u015bci od przedmiotu dzia\u0142alno\u015bci (np. healthcare=counselling + counselling_type=education albo healthcare=psychotherapist)"
            }
        },
        {
            "id": 5531,
            "type": "Feature",
            "geometry": {
                "type": "Point",
                "coordinates": [
                    15.13361,
                    51.64025
                ]
            },
            "properties": {
                "isced:level": "1;2",
                "ref:rspo": 5531,
                "official_name": "Spo\u0142eczna Szko\u0142a Podstawowa",
                "name": "Spo\u0142eczna Szko\u0142a Podstawowa",
                "addr:postcode": "68-200",
                "addr:city": "\u017bary",
                "addr:street": "Broni Pancernej",
                "addr:housenumber": "5",
                "addr:city:simc": 988684,
                "addr:street:sym_ul": 2117,
                "phone": "+48 683636940",
                "email": "ssp.zary@op.pl",
                "website": "http:\/\/ssp.zary.pl",
                "ref:regon": "081070842",
                "ref:vatin": "PL9281872600",
                "operator": "Stowarzyszenie O\u015bwiatowe W \u017barach",
                "operator:type": "ngo",
                "amenity": "school"
            }
        },
        {
            "id": 14508,
            "type": "Feature",
            "geometry": {
                "type": "Point",
                "coordinates": [
                    15.13889,
                    51.64071
                ]
            },
            "properties": {
                "ref:rspo": 14508,
                "official_name": "Miejskie Przedszkole nr 1",
                "name": "Miejskie Przedszkole nr 1",
                "addr:postcode": "68-200",
                "addr:city": "\u017bary",
                "addr:street": "Parkowa",
                "addr:housenumber": "10",
                "addr:city:simc": 988684,
                "addr:street:sym_ul": 15710,
                "phone": "+48 683743927",
                "email": "mp1zary@o2.pl",
                "website": "http:\/\/mp1.zary.pl",
                "ref:regon": "080489013",
                "ref:vatin": "PL9282063914",
                "operator": "Gmina \u017bary O Statusie Miejskim",
                "operator:type": "government",
                "amenity": "kindergarten",
                "note": "Parent RSPO: 128102"
            }
        },
        {
            "id": 6100,
            "type": "Feature",
            "geometry": {
                "type": "Point",
                "coordinates": [
                    15.12958,
                    51.64107
                ]
            },
            "properties": {
                "ref:rspo": 6100,
                "official_name": "Przedszkole Niepubliczne \"Ence - Pence\"",
                "name": "Przedszkole Niepubliczne \"Ence - Pence\"",
                "addr:postcode": "68-200",
                "addr:city": "\u017bary",
                "addr:street": "Strzelc\u00f3w",
                "addr:housenumber": "8",
                "addr:city:simc": 988684,
                "addr:street:sym_ul": 21364,
                "phone": "+48 533978333",
                "email": "przedszkole.encepence@gmail.com",
                "website": "http:\/\/encepence.weebly.com\/",
                "ref:regon": "081067863",
                "ref:vatin": "PL9281044754",
                "operator": "Ewa Laskowska",
                "operator:type": "private",
                "amenity": "kindergarten"
            }
        },
        {
            "id": 124970,
            "type": "Feature",
            "geometry": {
                "type": "Point",
                "coordinates": [
                    15.13445,
                    51.64116
                ]
            },
            "properties": {
                "ref:rspo": 124970,
                "official_name": "Spo\u0142eczne Przedszkole w \u017barach",
                "name": "Spo\u0142eczne Przedszkole w \u017barach",
                "addr:postcode": "68-200",
                "addr:city": "\u017bary",
                "addr:street": "Plac Inwalid\u00f3w",
                "addr:housenumber": "12",
                "addr:city:simc": 988684,
                "addr:street:sym_ul": 6918,
                "phone": "+48 683636939",
                "email": "ssp.zary@op.pl",
                "website": "http:\/\/ssp.zary.pl",
                "ref:regon": "081237377",
                "operator": "Stowarzyszenie O\u015bwiatowe W \u017barach",
                "operator:type": "ngo",
                "amenity": "kindergarten"
            }
        },
        {
            "id": 15732,
            "type": "Feature",
            "geometry": {
                "type": "Point",
                "coordinates": [
                    15.12593,
                    51.64129
                ]
            },
            "properties": {
                "ref:rspo": 15732,
                "official_name": "Miejskie Przedszkole nr 7 im. Marii Konopnickiej",
                "name": "Miejskie Przedszkole nr 7",
                "addr:postcode": "68-200",
                "addr:city": "\u017bary",
                "addr:street": "Karola Szymanowskiego",
                "addr:housenumber": "2",
                "addr:city:simc": 988684,
                "addr:street:sym_ul": 22238,
                "phone": "+48 684775590",
                "email": "przedszkole_7@poczta.fm",
                "website": "http:\/\/przedszkole7.zary.pl",
                "ref:regon": "080488999",
                "ref:vatin": "PL9282063819",
                "operator": "Gmina \u017bary O Statusie Miejskim",
                "operator:type": "government",
                "amenity": "kindergarten"
            }
        },
        {
            "id": 133304,
            "type": "Feature",
            "geometry": {
                "type": "Point",
                "coordinates": [
                    15.15753,
                    51.6427
                ]
            },
            "properties": {
                "isced:level": "4",
                "ref:rspo": 133304,
                "official_name": "Szko\u0142a Policealna w Akademickim Zespo\u0142e Szk\u00f3\u0142",
                "name": "Szko\u0142a Policealna w Akademickim Zespo\u0142e Szk\u00f3\u0142",
                "addr:postcode": "68-200",
                "addr:city": "\u017bary",
                "addr:street": "Pszenna",
                "addr:housenumber": "2",
                "addr:door": "b",
                "addr:city:simc": 988684,
                "addr:street:sym_ul": 18049,
                "ref:regon": "366982011",
                "operator": "\u0141u\u017cycka  Szko\u0142a Wy\u017csza  Im. Jana Benedykta Solfy Z Siedzib\u0105 W \u017barach",
                "operator:type": "private",
                "amenity": "college"
            }
        },
        {
            "id": 277732,
            "type": "Feature",
            "geometry": {
                "type": "Point",
                "coordinates": [
                    15.15753,
                    51.642669999999995
                ]
            },
            "properties": {
                "isced:level": "3",
                "ref:rspo": 277732,
                "official_name": "Niepubliczne Technikum Kolejowe w \u017barach",
                "name": "Niepubliczne Technikum Kolejowe w \u017barach",
                "addr:postcode": "68-200",
                "addr:city": "\u017bary",
                "addr:street": "Pszenna",
                "addr:housenumber": "2",
                "addr:door": "b",
                "addr:city:simc": 988684,
                "addr:street:sym_ul": 18049,
                "email": "szkola.kolejowa@wp.pl",
                "ref:regon": "389402903",
                "operator": "Stowarzyszenie O\u015bwiatowe \"Diapazon\" W Po\u017carowie",
                "operator:type": "ngo",
                "amenity": "school"
            }
        },
        {
            "id": 6737,
            "type": "Feature",
            "geometry": {
                "type": "Point",
                "coordinates": [
                    15.12798,
                    51.64327
                ]
            },
            "properties": {
                "isced:level": "1;2",
                "ref:rspo": 6737,
                "official_name": "Szko\u0142a Podstawowa nr 1 im. Fryderyka Chopina",
                "name": "Szko\u0142a Podstawowa nr 1",
                "addr:postcode": "68-200",
                "addr:city": "\u017bary",
                "addr:street": "Karola Szymanowskiego",
                "addr:housenumber": "8",
                "addr:city:simc": 988684,
                "addr:street:sym_ul": 22238,
                "phone": "+48 684702777",
                "email": "sp1zary1@wp.pl",
                "website": "http:\/\/sp1.zary.pl",
                "ref:regon": "970496814",
                "ref:vatin": "PL9281190243",
                "operator": "Gmina \u017bary O Statusie Miejskim",
                "operator:type": "government",
                "amenity": "school"
            }
        },
        {
            "id": 25684,
            "type": "Feature",
            "geometry": {
                "type": "Point",
                "coordinates": [
                    15.148,
                    51.6452
                ]
            },
            "properties": {
                "ref:rspo": 25684,
                "official_name": "Zesp\u00f3\u0142 Szk\u00f3\u0142 Specjalnych im.marii Grzegorzewskiej w \u017barach",
                "name": "Zesp\u00f3\u0142 Szk\u00f3\u0142 Specjalnych im.marii Grzegorzewskiej w \u017barach",
                "addr:postcode": "68-200",
                "addr:city": "\u017bary",
                "addr:street": "Spokojna",
                "addr:housenumber": "2",
                "addr:city:simc": 988684,
                "addr:street:sym_ul": 20677,
                "phone": "+48 684706497",
                "email": "szkola@zss-zary.pl",
                "website": "http:\/\/www.zss-zary.pl",
                "ref:regon": "000234146",
                "ref:vatin": "PL9281771626",
                "operator": "Powiat \u017barski",
                "operator:type": "government",
                "landuse": "education",
                "fixme": "amenity=school, amenity=college albo landuse=education w zale\u017cno\u015bci od tego, jakie plac\u00f3wki wchodz\u0105 w sk\u0142ad zespo\u0142u. Sprawd\u017a, kiedy stosowa\u0107 amenity=* a kiedy landuse=education.",
                "note": "Children RSPO: 30960;30967"
            }
        },
        {
            "id": 30960,
            "type": "Feature",
            "geometry": {
                "type": "Point",
                "coordinates": [
                    15.148,
                    51.64517
                ]
            },
            "properties": {
                "isced:level": "1;2",
                "ref:rspo": 30960,
                "official_name": "Szko\u0142a Podstawowa Specjalna",
                "name": "Szko\u0142a Podstawowa Specjalna",
                "addr:postcode": "68-200",
                "addr:city": "\u017bary",
                "addr:street": "Spokojna",
                "addr:housenumber": "2",
                "addr:city:simc": 988684,
                "addr:street:sym_ul": 20677,
                "phone": "+48 684706497",
                "email": "szkola@zss-zary.pl",
                "website": "http:\/\/www.zss-zary.pl",
                "ref:regon": "970778984",
                "operator": "Powiat \u017barski",
                "operator:type": "government",
                "amenity": "school",
                "note": "Parent RSPO: 25684"
            }
        },
        {
            "id": 30967,
            "type": "Feature",
            "geometry": {
                "type": "Point",
                "coordinates": [
                    15.148,
                    51.645140000000005
                ]
            },
            "properties": {
                "ref:rspo": 30967,
                "official_name": "Szko\u0142a Specjalna Przysposabiaj\u0105ca do Pracy",
                "name": "Szko\u0142a Specjalna Przysposabiaj\u0105ca do Pracy",
                "addr:postcode": "68-200",
                "addr:city": "\u017bary",
                "addr:street": "Spokojna",
                "addr:housenumber": "2",
                "addr:city:simc": 988684,
                "addr:street:sym_ul": 20677,
                "phone": "+48 684706497",
                "email": "szkola@zss-zary.pl",
                "website": "http:\/\/www.zss-zary.pl",
                "ref:regon": "080254876",
                "operator": "Powiat \u017barski",
                "operator:type": "government",
                "amenity": "school",
                "note": "Parent RSPO: 25684"
            }
        },
        {
            "id": 26273,
            "type": "Feature",
            "geometry": {
                "type": "Point",
                "coordinates": [
                    15.14733,
                    51.64542
                ]
            },
            "properties": {
                "ref:rspo": 26273,
                "official_name": "Specjalny O\u015brodek Szkolno-Wychowawczy im. Kornela Makuszy\u0144skiego",
                "name": "Specjalny O\u015brodek Szkolno-Wychowawczy",
                "addr:postcode": "68-200",
                "addr:city": "\u017bary",
                "addr:street": "Spokojna",
                "addr:housenumber": "3,5",
                "addr:city:simc": 988684,
                "addr:street:sym_ul": 20677,
                "phone": "+48 683743058",
                "email": "sekretariat@soswzary.pl",
                "website": "http:\/\/www.soswzary.pl",
                "ref:regon": "000192844",
                "ref:vatin": "PL9281718388",
                "operator": "Powiat \u017barski",
                "operator:type": "government",
                "amenity": "school",
                "note": "Children RSPO: 86019;86022"
            }
        },
        {
            "id": 91467,
            "type": "Feature",
            "geometry": {
                "type": "Point",
                "coordinates": [
                    15.14733,
                    51.64539
                ]
            },
            "properties": {
                "ref:rspo": 91467,
                "official_name": "Bursa dla M\u0142odzie\u017cy Szk\u00f3\u0142 Ponadgimnazjalnych Przy O\u015brodku dla Dzieci z Wadami S\u0142uchu I Mowy w \u017barach",
                "name": "Bursa dla M\u0142odzie\u017cy Szk\u00f3\u0142 Ponadgimnazjalnych Przy O\u015brodku dla Dzieci z Wadami S\u0142uchu I Mowy w \u017barach",
                "addr:postcode": "68-200",
                "addr:city": "\u017bary",
                "addr:street": "Spokojna",
                "addr:housenumber": "3,5",
                "addr:city:simc": 988684,
                "addr:street:sym_ul": 20677,
                "phone": "+48 683743058",
                "email": "sekretariat@soswzary.pl",
                "website": "http:\/\/www.soswzary.pl",
                "ref:regon": "081092230",
                "operator": "Powiat \u017barski",
                "operator:type": "government",
                "building": "dormitory"
            }
        },
        {
            "id": 86019,
            "type": "Feature",
            "geometry": {
                "type": "Point",
                "coordinates": [
                    15.14733,
                    51.645360000000004
                ]
            },
            "properties": {
                "isced:level": "1;2",
                "ref:rspo": 86019,
                "official_name": "Szko\u0142a Podstawowa Specjalna nr 2",
                "name": "Szko\u0142a Podstawowa Specjalna nr 2",
                "addr:postcode": "68-200",
                "addr:city": "\u017bary",
                "addr:street": "Spokojna",
                "addr:housenumber": "3,5",
                "addr:city:simc": 988684,
                "addr:street:sym_ul": 20677,
                "phone": "+48 683743058",
                "email": "sekretariat@soswzary.pl",
                "website": "http:\/\/www.odwsm.pl",
                "ref:regon": "000699980",
                "operator": "Powiat \u017barski",
                "operator:type": "government",
                "amenity": "school",
                "note": "Parent RSPO: 26273"
            }
        },
        {
            "id": 86022,
            "type": "Feature",
            "geometry": {
                "type": "Point",
                "coordinates": [
                    15.14733,
                    51.64533
                ]
            },
            "properties": {
                "isced:level": "3",
                "ref:rspo": 86022,
                "official_name": "Bran\u017cowa Szko\u0142a Specjalna I Stopnia",
                "name": "Bran\u017cowa Szko\u0142a Specjalna I Stopnia",
                "addr:postcode": "68-200",
                "addr:city": "\u017bary",
                "addr:street": "Spokojna",
                "addr:housenumber": "3,5",
                "addr:city:simc": 988684,
                "addr:street:sym_ul": 20677,
                "phone": "+48 683743058",
                "email": "sekretariat@soswzary.pl",
                "website": "http:\/\/www.odwsm.pl",
                "ref:regon": "000887078",
                "operator": "Powiat \u017barski",
                "operator:type": "government",
                "amenity": "school",
                "note": "Parent RSPO: 26273"
            }
        },
        {
            "id": 5388,
            "type": "Feature",
            "geometry": {
                "type": "Point",
                "coordinates": [
                    15.12724,
                    51.64594
                ]
            },
            "properties": {
                "ref:rspo": 5388,
                "official_name": "Przedszkole Niepubliczne \"Chatka Puchatka\"",
                "name": "Przedszkole Niepubliczne \"Chatka Puchatka\"",
                "addr:postcode": "68-200",
                "addr:city": "\u017bary",
                "addr:street": "Czerwonego Krzy\u017ca",
                "addr:housenumber": "25B",
                "addr:city:simc": 988684,
                "addr:street:sym_ul": 3434,
                "phone": "+48 784064567",
                "email": "condchatkapuchatka@wp.pl",
                "ref:regon": "081066757",
                "ref:vatin": "PL9281954002",
                "operator": "Mariusz Dominiak",
                "operator:type": "private",
                "amenity": "kindergarten"
            }
        },
        {
            "id": 5311,
            "type": "Feature",
            "geometry": {
                "type": "Point",
                "coordinates": [
                    15.1266,
                    51.64629
                ]
            },
            "properties": {
                "ref:rspo": 5311,
                "official_name": "Przedszkole Niepubliczne \"Groszki\"",
                "name": "Przedszkole Niepubliczne \"Groszki\"",
                "addr:postcode": "68-200",
                "addr:city": "\u017bary",
                "addr:street": "Czerwonego Krzy\u017ca",
                "addr:housenumber": "25A",
                "addr:city:simc": 988684,
                "addr:street:sym_ul": 3434,
                "phone": "+48 880239520",
                "email": "przedszkolegroszki@gmail.com",
                "website": "http:\/\/przedszkole-groszki-zary.pl",
                "ref:regon": "081066705",
                "ref:vatin": "PL9720828884",
                "operator": "Luiza Groszek",
                "operator:type": "private",
                "amenity": "kindergarten"
            }
        },
        {
            "id": 21968,
            "type": "Feature",
            "geometry": {
                "type": "Point",
                "coordinates": [
                    15.14558,
                    51.65318
                ]
            },
            "properties": {
                "ref:rspo": 21968,
                "official_name": "Zesp\u00f3\u0142 Szk\u00f3\u0142 Og\u00f3lnokszta\u0142c\u0105cych I Technicznych",
                "name": "Zesp\u00f3\u0142 Szk\u00f3\u0142 Og\u00f3lnokszta\u0142c\u0105cych I Technicznych",
                "addr:postcode": "68-200",
                "addr:city": "\u017bary",
                "addr:street": "Zielonog\u00f3rska",
                "addr:housenumber": "23",
                "addr:city:simc": 988684,
                "addr:street:sym_ul": 26102,
                "phone": "+48 683742575",
                "email": "sekretariat@zsoitzary.pl",
                "website": "http:\/\/www.zsoit.zary.internetdsl.pl",
                "ref:regon": "970778487",
                "ref:vatin": "PL9281401214",
                "operator": "Powiat \u017barski",
                "operator:type": "government",
                "landuse": "education",
                "fixme": "amenity=school, amenity=college albo landuse=education w zale\u017cno\u015bci od tego, jakie plac\u00f3wki wchodz\u0105 w sk\u0142ad zespo\u0142u. Sprawd\u017a, kiedy stosowa\u0107 amenity=* a kiedy landuse=education.",
                "note": "Children RSPO: 30669;30671;30672;38590"
            }
        },
        {
            "id": 30669,
            "type": "Feature",
            "geometry": {
                "type": "Point",
                "coordinates": [
                    15.14558,
                    51.65315
                ]
            },
            "properties": {
                "isced:level": "3",
                "ref:rspo": 30669,
                "official_name": "Bran\u017cowa Szko\u0142a I Stopnia nr 1",
                "name": "Bran\u017cowa Szko\u0142a I Stopnia nr 1",
                "addr:postcode": "68-200",
                "addr:city": "\u017bary",
                "addr:street": "Zielonog\u00f3rska",
                "addr:housenumber": "23",
                "addr:city:simc": 988684,
                "addr:street:sym_ul": 26102,
                "phone": "+48 683742575",
                "email": "sekretariat@zsoitzary.pl",
                "website": "http:\/\/www.zsoit.zary.internetdsl.pl",
                "ref:regon": "978053306",
                "operator": "Powiat \u017barski",
                "operator:type": "government",
                "amenity": "school",
                "note": "Parent RSPO: 21968"
            }
        },
        {
            "id": 30671,
            "type": "Feature",
            "geometry": {
                "type": "Point",
                "coordinates": [
                    15.14558,
                    51.65312
                ]
            },
            "properties": {
                "isced:level": "3",
                "ref:rspo": 30671,
                "official_name": "Liceum Og\u00f3lnokszta\u0142c\u0105ce nr Ii",
                "name": "Liceum Og\u00f3lnokszta\u0142c\u0105ce nr Ii",
                "addr:postcode": "68-200",
                "addr:city": "\u017bary",
                "addr:street": "Zielonog\u00f3rska",
                "addr:housenumber": "23",
                "addr:city:simc": 988684,
                "addr:street:sym_ul": 26102,
                "phone": "+48 683742575",
                "email": "sekretariat@zsoitzary.pl",
                "website": "http:\/\/www.zsoit.zary.internetdsl.pl",
                "ref:regon": "978053329",
                "operator": "Powiat \u017barski",
                "operator:type": "government",
                "amenity": "school",
                "note": "Parent RSPO: 21968"
            }
        },
        {
            "id": 30672,
            "type": "Feature",
            "geometry": {
                "type": "Point",
                "coordinates": [
                    15.14558,
                    51.65309
                ]
            },
            "properties": {
                "isced:level": "3",
                "ref:rspo": 30672,
                "official_name": "Technikum nr 1",
                "name": "Technikum nr 1",
                "addr:postcode": "68-200",
                "addr:city": "\u017bary",
                "addr:street": "Zielonog\u00f3rska",
                "addr:housenumber": "23",
                "addr:city:simc": 988684,
                "addr:street:sym_ul": 26102,
                "phone": "+48 683742575",
                "email": "sekretariat@zsoitzary.pl",
                "website": "http:\/\/www.zsoit.zary.internetdsl.pl",
                "ref:regon": "978053358",
                "operator": "Powiat \u017barski",
                "operator:type": "government",
                "amenity": "school",
                "note": "Parent RSPO: 21968"
            }
        },
        {
            "id": 38590,
            "type": "Feature",
            "geometry": {
                "type": "Point",
                "coordinates": [
                    15.14558,
                    51.653059999999996
                ]
            },
            "properties": {
                "ref:rspo": 38590,
                "official_name": "Centrum Kszta\u0142cenia Zawodowego",
                "name": "Centrum Kszta\u0142cenia Zawodowego",
                "addr:postcode": "68-200",
                "addr:city": "\u017bary",
                "addr:street": "Zielonog\u00f3rska",
                "addr:housenumber": "23",
                "addr:city:simc": 988684,
                "addr:street:sym_ul": 26102,
                "phone": "+48 683742575",
                "email": "sekretariat@zsoitzary.pl",
                "website": "http:\/\/www.zsoit.zary.internetdsl.pl",
                "ref:regon": "080168912",
                "operator": "Powiat \u017barski",
                "operator:type": "government",
                "fixme": "w zale\u017cno\u015bci od przedmiotu dzia\u0142alno\u015bci (np. amenity=training + training=*, amenity=dancing_school, amenity=language_school, amenity=music_school) albo amenity=school, amenity=college, albo landuse=education w zale\u017cno\u015bci od tego, jakie plac\u00f3wki wchodz\u0105 w sk\u0142ad zespo\u0142u. Sprawd\u017a, kiedy stosowa\u0107 amenity=* a kiedy landuse=education.",
                "note": "Parent RSPO: 21968"
            }
        }
    ]
}