{
    "type": "FeatureCollection",
    "features": [
        {
            "id": 12608,
            "type": "Feature",
            "geometry": {
                "type": "Point",
                "coordinates": [
                    14.77919,
                    51.55296
                ]
            },
            "properties": {
                "isced:level": "1;2",
                "ref:rspo": 12608,
                "official_name": "Szko\u0142a Podstawowa im.\u0142uku Mu\u017cakowa w Nowych Czaplach",
                "name": "Szko\u0142a Podstawowa im.\u0142uku Mu\u017cakowa w Nowych Czaplach",
                "addr:country": "PL",
                "addr:postcode": "68-210",
                "addr:city": "Nowe Czaple",
                "addr:street": "Wolno\u015bci",
                "addr:housenumber": "6A",
                "addr:teryt:simc": 915923,
                "addr:teryt:sym_ul": 24687,
                "contact:phone": "+48 683624400",
                "contact:email": "spnoweczaple@wp.pl",
                "contact:website": "http:\/\/trzebiel.pl",
                "ref:regon": "970534348",
                "ref:vatin": "PL9281797117",
                "operator": "Gmina Trzebiel",
                "operator:type": "government",
                "amenity": "school"
            }
        },
        {
            "id": 12647,
            "type": "Feature",
            "geometry": {
                "type": "Point",
                "coordinates": [
                    14.8399834,
                    51.580759
                ]
            },
            "properties": {
                "isced:level": "1;2",
                "ref:rspo": 12647,
                "official_name": "Szko\u0142a Podstawowa Im Jana Paw\u0142a II w Niwicy",
                "name": "Szko\u0142a Podstawowa Im Jana Paw\u0142a II w Niwicy",
                "addr:country": "PL",
                "addr:postcode": "68-210",
                "addr:place": "Niwica",
                "addr:housenumber": "17",
                "addr:teryt:simc": 915917,
                "contact:phone": "+48 683756827",
                "contact:email": "spniwica@wp.pl",
                "contact:website": "http:\/\/trzebiel.pl",
                "ref:regon": "970534377",
                "ref:vatin": "PL9281797028",
                "operator": "Gmina Trzebiel",
                "operator:type": "government",
                "amenity": "school"
            }
        },
        {
            "id": 12662,
            "type": "Feature",
            "geometry": {
                "type": "Point",
                "coordinates": [
                    14.75645,
                    51.5894199
                ]
            },
            "properties": {
                "isced:level": "1;2",
                "ref:rspo": 12662,
                "official_name": "Szko\u0142a Podstawowa im. Orl\u0105t Lwowskich w \u017barkach Wielkich",
                "name": "Szko\u0142a Podstawowa",
                "addr:country": "PL",
                "addr:postcode": "68-210",
                "addr:city": "\u017barki Wielkie",
                "addr:street": "Ko\u015bcielna",
                "addr:housenumber": "25",
                "addr:teryt:simc": 916070,
                "addr:teryt:sym_ul": 9546,
                "contact:phone": "+48 683756830",
                "contact:email": "spzarki@wp.pl",
                "ref:regon": "080023740",
                "ref:vatin": "PL9281941531",
                "operator": "Gmina Trzebiel",
                "operator:type": "government",
                "amenity": "school"
            }
        },
        {
            "id": 12699,
            "type": "Feature",
            "geometry": {
                "type": "Point",
                "coordinates": [
                    14.82198,
                    51.634
                ]
            },
            "properties": {
                "ref:rspo": 12699,
                "official_name": "Publiczne Przedszkole Samorz\u0105dowe w Trzebielu",
                "name": "Publiczne Przedszkole Samorz\u0105dowe w Trzebielu",
                "addr:country": "PL",
                "addr:postcode": "68-212",
                "addr:city": "Trzebiel",
                "addr:street": "\u017barska",
                "addr:housenumber": "28",
                "addr:teryt:simc": 916029,
                "addr:teryt:sym_ul": 26409,
                "contact:phone": "+48 683755213",
                "contact:email": "trzebiel@gmail.com",
                "contact:website": "http:\/\/trzebiel.pl",
                "ref:regon": "000907792",
                "ref:vatin": "PL9281797991",
                "operator": "Gmina Trzebiel",
                "operator:type": "government",
                "amenity": "kindergarten"
            }
        },
        {
            "id": 84975,
            "type": "Feature",
            "geometry": {
                "type": "Point",
                "coordinates": [
                    14.8207,
                    51.63747
                ]
            },
            "properties": {
                "isced:level": "1;2",
                "ref:rspo": 84975,
                "official_name": "Szko\u0142a Podstawowa im. Or\u0142a Bia\u0142ego w Trzebielu",
                "name": "Szko\u0142a Podstawowa",
                "addr:country": "PL",
                "addr:postcode": "68-212",
                "addr:city": "Trzebiel",
                "addr:street": "Szkolna",
                "addr:housenumber": "5",
                "addr:teryt:simc": 916029,
                "addr:teryt:sym_ul": 21970,
                "contact:phone": "+48 683755235",
                "contact:email": "sptrzebiel@trzebiel.pl",
                "contact:website": "http:\/\/edu.trzebiel.pl",
                "ref:regon": "970534331",
                "ref:vatin": "PL9281797146",
                "operator": "Gmina Trzebiel",
                "operator:type": "government",
                "amenity": "school"
            }
        }
    ]
}