{"type":"FeatureCollection","features":[{"id":79973,"type":"Feature","geometry":{"type":"Point","coordinates":[15.14498,51.56824]},"properties":{"isced:level":"1;2","ref:rspo":79973,"official_name":"Szko\u0142a Podstawowa w Mirostowicach Dolnych","name":"Szko\u0142a Podstawowa w Mirostowicach Dolnych","addr:country":"PL","addr:postcode":"68-205","addr:city":"Mirostowice Dolne","addr:street":"ul. Plac Ko\u015bcielny","addr:housenumber":"25","addr:teryt:simc":16402,"addr:teryt:sym_ul":918011,"contact:phone":"+48 683750228","contact:email":"sp.mirostowicedolne@gminazary.pl","ref:regon":"970573302","operator":"Gmina \u017bary","operator:type":"government","amenity":"school"}},{"id":126511,"type":"Feature","geometry":{"type":"Point","coordinates":[15.14498,51.56821]},"properties":{"ref:rspo":126511,"official_name":"Punkt Przedszkolny \nPrzy Szkole Podstawowej\nW Mirostowicach Dolnych","name":"Punkt Przedszkolny \nPrzy Szkole Podstawowej\nW Mirostowicach Dolnych","addr:country":"PL","addr:postcode":"68-205","addr:city":"Mirostowice Dolne","addr:street":"ul. Plac Ko\u015bcielny","addr:housenumber":"25","addr:teryt:simc":16402,"addr:teryt:sym_ul":918011,"contact:phone":"+48 683750228","contact:email":"sp.mirostowicedolne@gminazary.pl","ref:regon":"360398334","operator":"Gmina \u017bary","operator:type":"government","amenity":"kindergarten"}},{"id":73531,"type":"Feature","geometry":{"type":"Point","coordinates":[15.09448,51.60349]},"properties":{"isced:level":"1;2","ref:rspo":73531,"official_name":"Szko\u0142a Podstawowa w Olbrachtowie","name":"Szko\u0142a Podstawowa w Olbrachtowie","addr:country":"PL","addr:postcode":"68-200","addr:place":"Olbracht\u00f3w","addr:housenumber":"40","addr:teryt:sym_ul":918034,"contact:phone":"+48 683621891","contact:email":"sp.olbrachtow@gminazary.pl","ref:regon":"970573319","ref:vatin":"PL9282007850","operator":"Gmina \u017bary","operator:type":"government","amenity":"school"}},{"id":85851,"type":"Feature","geometry":{"type":"Point","coordinates":[15.09448,51.60346]},"properties":{"ref:rspo":85851,"official_name":"Punkt Przedszkolny Przy Szkole Podstawowej w Olbrachtowie","name":"Punkt Przedszkolny Przy Szkole Podstawowej w Olbrachtowie","addr:country":"PL","addr:postcode":"68-200","addr:place":"Olbracht\u00f3w","addr:housenumber":"40","addr:teryt:sym_ul":918034,"contact:phone":"+48 683621891","contact:email":"sp.olbrachtow@gminazary.pl","ref:regon":"081088380","operator":"Gmina \u017bary","operator:type":"government","amenity":"kindergarten"}},{"id":80992,"type":"Feature","geometry":{"type":"Point","coordinates":[15.10844,51.65265]},"properties":{"ref:rspo":80992,"official_name":"Gminne Przedszkole im. Jerzego Kukuczki w Grabiku","name":"Gminne Przedszkole","addr:country":"PL","addr:postcode":"68-200","addr:place":"Grabik","addr:housenumber":"38","addr:teryt:sym_ul":917939,"contact:phone":"+48 683620708","ref:regon":"080847978","operator":"Gmina \u017bary","operator:type":"government","amenity":"kindergarten","note":"Parent RSPO: 73681"}},{"id":73681,"type":"Feature","geometry":{"type":"Point","coordinates":[15.09104,51.65501]},"properties":{"ref:rspo":73681,"official_name":"Zesp\u00f3\u0142 Szk\u00f3\u0142 w Grabiku","name":"Zesp\u00f3\u0142 Szk\u00f3\u0142 w Grabiku","addr:country":"PL","addr:postcode":"68-200","addr:place":"Grabik","addr:housenumber":"102","addr:teryt:sym_ul":917939,"contact:phone":"+48 683620708","contact:email":"zs.grabik@gminazary.pl","ref:regon":"080649741","ref:vatin":"PL9282072250","operator":"Gmina \u017bary","operator:type":"government","landuse":"education","fixme":"amenity=school, amenity=college albo landuse=education w zale\u017cno\u015bci od tego, jakie plac\u00f3wki wchodz\u0105 w sk\u0142ad zespo\u0142u. Sprawd\u017a, kiedy stosowa\u0107 amenity=* a kiedy landuse=education.","note":"Children RSPO: 79971;80992"}},{"id":79971,"type":"Feature","geometry":{"type":"Point","coordinates":[15.09104,51.654979999999995]},"properties":{"isced:level":"1;2","ref:rspo":79971,"official_name":"Szko\u0142a Podstawowa im. Jerzego Kukuczki w Grabiku","name":"Szko\u0142a Podstawowa","addr:country":"PL","addr:postcode":"68-200","addr:place":"Grabik","addr:housenumber":"102","addr:teryt:sym_ul":917939,"contact:phone":"+48 683620708","contact:email":"zs.grabik@gminazary.pl","ref:regon":"970573354","operator":"Gmina \u017bary","operator:type":"government","amenity":"school","note":"Parent RSPO: 73681"}},{"id":73534,"type":"Feature","geometry":{"type":"Point","coordinates":[14.961077690124,51.675258636475]},"properties":{"isced:level":"1;2","ref:rspo":73534,"official_name":"Szko\u0142a Podstawowa w Sieniawie \u017barskiej","name":"Szko\u0142a Podstawowa w Sieniawie \u017barskiej","addr:country":"PL","addr:postcode":"68-213","addr:place":"Sieniawa \u017barska","addr:housenumber":"40","addr:teryt:sym_ul":918063,"contact:phone":"+48 683742625","contact:email":"sp.sieniawazarska@gminazary.pl","ref:regon":"970573348","ref:vatin":"PL9282007755","operator":"Gmina \u017bary","operator:type":"government","amenity":"school"}},{"id":85850,"type":"Feature","geometry":{"type":"Point","coordinates":[14.961077690124,51.675228636475]},"properties":{"ref:rspo":85850,"official_name":"Punkt Przedszkolny Przy Szkole Podstawowej w Sieniawie \u017barskiej","name":"Punkt Przedszkolny Przy Szkole Podstawowej w Sieniawie \u017barskiej","addr:country":"PL","addr:postcode":"68-213","addr:place":"Sieniawa \u017barska","addr:housenumber":"40","addr:teryt:sym_ul":918063,"contact:phone":"+48 683742625","contact:email":"sp.sieniawazarska@gminazary.pl","ref:regon":"081088368","operator":"Gmina \u017bary","operator:type":"government","amenity":"kindergarten"}},{"id":73532,"type":"Feature","geometry":{"type":"Point","coordinates":[15.19055,51.68518]},"properties":{"isced:level":"1;2","ref:rspo":73532,"official_name":"Szko\u0142a Podstawowa im. Jana Paw\u0142a II w Z\u0142otniku","name":"Szko\u0142a Podstawowa","addr:country":"PL","addr:postcode":"68-200","addr:place":"Z\u0142otnik","addr:housenumber":"14","addr:teryt:sym_ul":918117,"contact:phone":"+48 683741285","contact:email":"sp.zlotnik@gminazary.pl","ref:regon":"970573331","operator":"Gmina \u017bary","operator:type":"government","amenity":"school"}},{"id":85848,"type":"Feature","geometry":{"type":"Point","coordinates":[15.19055,51.68515]},"properties":{"ref:rspo":85848,"official_name":"Punkt Przedszkolny Przy Szkole Podstawowej im. Jana Paw\u0142a II w Z\u0142otniku","name":"Punkt Przedszkolny Przy Szkole Podstawowej","addr:country":"PL","addr:postcode":"68-200","addr:place":"Z\u0142otnik","addr:housenumber":"14","addr:teryt:sym_ul":918117,"contact:phone":"+48 683741285","contact:email":"sp.zlotnik@gminazary.pl","ref:regon":"081088345","operator":"Gmina \u017bary","operator:type":"government","amenity":"kindergarten"}},{"id":73533,"type":"Feature","geometry":{"type":"Point","coordinates":[15.10279,51.6969]},"properties":{"isced:level":"1;2","ref:rspo":73533,"official_name":"Szko\u0142a Podstawowa w Lubanicach","name":"Szko\u0142a Podstawowa w Lubanicach","addr:country":"PL","addr:postcode":"68-200","addr:place":"Lubanice","addr:housenumber":"20","addr:teryt:sym_ul":917951,"contact:phone":"+48 683620849","contact:email":"sp.lubanice@gminazary.pl","ref:regon":"970573265","ref:vatin":"PL9282007749","operator":"Gmina \u017bary","operator:type":"government","amenity":"school"}},{"id":85847,"type":"Feature","geometry":{"type":"Point","coordinates":[15.10279,51.69687]},"properties":{"ref:rspo":85847,"official_name":"Punkt Przedszkolny Przy Szkole Podstawowej w Lubanicach","name":"Punkt Przedszkolny Przy Szkole Podstawowej w Lubanicach","addr:country":"PL","addr:postcode":"68-200","addr:place":"Lubanice","addr:housenumber":"20","addr:teryt:sym_ul":917951,"contact:phone":"+48 683620849","contact:email":"sp.lubanice@gminazary.pl","ref:regon":"081088322","operator":"Gmina \u017bary","operator:type":"government","amenity":"kindergarten"}},{"id":79968,"type":"Feature","geometry":{"type":"Point","coordinates":[15.17606,51.71769]},"properties":{"isced:level":"1;2","ref:rspo":79968,"official_name":"Szko\u0142a Podstawowa w Bieniowie","name":"Szko\u0142a Podstawowa w Bieniowie","addr:country":"PL","addr:postcode":"68-200","addr:city":"Bieni\u00f3w","addr:street":"ul. Dolna","addr:housenumber":"5a","addr:teryt:simc":4034,"addr:teryt:sym_ul":917862,"contact:phone":"+48 683741594","contact:email":"sp.bieniow@gminazary.pl","contact:website":"http:\/\/spbieniow.gminazary.pl\/","ref:regon":"970573325","operator":"Gmina \u017bary","operator:type":"government","amenity":"school"}},{"id":80991,"type":"Feature","geometry":{"type":"Point","coordinates":[15.17606,51.717659999999995]},"properties":{"ref:rspo":80991,"official_name":"Punkt Przedszkolny Przy Szkole Podstawowej w Bieniowie","name":"Punkt Przedszkolny Przy Szkole Podstawowej w Bieniowie","addr:country":"PL","addr:postcode":"68-200","addr:city":"Bieni\u00f3w","addr:street":"ul. Dolna","addr:housenumber":"5a","addr:teryt:simc":4034,"addr:teryt:sym_ul":917862,"contact:phone":"+48 683741594","contact:email":"sp.bieniow@gminazary.pl","ref:regon":"081087386","operator":"Gmina \u017bary","operator:type":"government","amenity":"kindergarten"}}]}