{
    "type": "FeatureCollection",
    "features": [
        {
            "id": 71687,
            "type": "Feature",
            "geometry": {
                "type": "Point",
                "coordinates": [
                    22.3995,
                    52.04688
                ]
            },
            "properties": {
                "isced:level": "1;2",
                "ref:rspo": 71687,
                "official_name": "Szko\u0142a Podstawowa im. Kardyna\u0142a Stefana Wyszy\u0144skiego w Dziewulach",
                "name": "Szko\u0142a Podstawowa",
                "addr:country": "PL",
                "addr:postcode": "08-106",
                "addr:city": "Dziewule",
                "addr:street": "Ko\u015bcielna",
                "addr:housenumber": "10",
                "addr:teryt:simc": 9546,
                "addr:teryt:sym_ul": 696361,
                "contact:phone": "+48 256416328",
                "contact:email": "sp.dziewule@vp.pl",
                "contact:website": "http:\/\/spdziewule.edupage.org",
                "ref:regon": "001135015",
                "ref:vatin": "PL8212173488",
                "operator": "Gmina Zbuczyn",
                "operator:type": "government",
                "amenity": "school"
            }
        },
        {
            "id": 273745,
            "type": "Feature",
            "geometry": {
                "type": "Point",
                "coordinates": [
                    22.3995,
                    52.04685
                ]
            },
            "properties": {
                "ref:rspo": 273745,
                "official_name": "Niepubliczne Przedszkole w Dziewulach",
                "name": "Niepubliczne Przedszkole w Dziewulach",
                "addr:country": "PL",
                "addr:postcode": "08-106",
                "addr:city": "Dziewule",
                "addr:street": "Ko\u015bcielna",
                "addr:housenumber": "10",
                "addr:teryt:simc": 9546,
                "addr:teryt:sym_ul": 696361,
                "contact:phone": "+48 256416328",
                "contact:email": "sp.dziewule@vp.pl",
                "ref:regon": "384600610",
                "operator": "Stowarzyszenie Kulturalno-O\u015bwiatowe \"Przysz\u0142o\u015b\u0107\"",
                "operator:type": "ngo",
                "amenity": "kindergarten"
            }
        },
        {
            "id": 63456,
            "type": "Feature",
            "geometry": {
                "type": "Point",
                "coordinates": [
                    22.61334,
                    52.0583
                ]
            },
            "properties": {
                "isced:level": "1;2",
                "ref:rspo": 63456,
                "official_name": "Szko\u0142a Podstawowa w Krzesku-Kr\u00f3lowa Niwa",
                "name": "Szko\u0142a Podstawowa w Krzesku-Kr\u00f3lowa Niwa",
                "addr:country": "PL",
                "addr:postcode": "08-111",
                "addr:place": "Krzesk-Kr\u00f3lowa Niwa",
                "addr:housenumber": "23",
                "addr:teryt:sym_ul": 696473,
                "contact:phone": "+48 256424841",
                "contact:email": "niwazes@o2.pl",
                "ref:regon": "001135044",
                "ref:vatin": "PL8212173376",
                "operator": "Gmina Zbuczyn",
                "operator:type": "government",
                "amenity": "school"
            }
        },
        {
            "id": 63462,
            "type": "Feature",
            "geometry": {
                "type": "Point",
                "coordinates": [
                    22.44066,
                    52.08678
                ]
            },
            "properties": {
                "isced:level": "1;2",
                "ref:rspo": 63462,
                "official_name": "Szko\u0142a Podstawowa im. Jana Paw\u0142a II w Zbuczynie",
                "name": "Szko\u0142a Podstawowa",
                "addr:country": "PL",
                "addr:postcode": "08-106",
                "addr:city": "Zbuczyn",
                "addr:street": "Jana Paw\u0142a II",
                "addr:housenumber": "3",
                "addr:teryt:simc": 7123,
                "addr:teryt:sym_ul": 696734,
                "contact:phone": "+48 256413003",
                "contact:email": "gim_zbuczyn@wp.pl",
                "contact:website": "http:\/\/www.zbuczynjp2.edupage.org",
                "ref:regon": "000718134",
                "ref:vatin": "PL8212416198",
                "operator": "Gmina Zbuczyn",
                "operator:type": "government",
                "amenity": "school"
            }
        },
        {
            "id": 87801,
            "type": "Feature",
            "geometry": {
                "type": "Point",
                "coordinates": [
                    22.36736,
                    52.08703
                ]
            },
            "properties": {
                "ref:rspo": 87801,
                "official_name": "Punkt Przedszkolny w Borkach-Kosach",
                "name": "Punkt Przedszkolny w Borkach-Kosach",
                "addr:country": "PL",
                "addr:postcode": "08-106",
                "addr:place": "Borki-Kosy",
                "addr:housenumber": "24",
                "addr:teryt:sym_ul": 696266,
                "contact:email": "borkosy@poczta.onet.pl",
                "ref:regon": "146451287",
                "ref:vatin": "PL8212544938",
                "operator": "Stowarzyszenie Kulturalno-O\u015bwiatowe \"Logos\"",
                "operator:type": "ngo",
                "amenity": "kindergarten"
            }
        },
        {
            "id": 106644,
            "type": "Feature",
            "geometry": {
                "type": "Point",
                "coordinates": [
                    22.36736,
                    52.086999999999996
                ]
            },
            "properties": {
                "isced:level": "1;2",
                "ref:rspo": 106644,
                "official_name": "Szko\u0142a Podstawowa w Borkach-Kosach",
                "name": "Szko\u0142a Podstawowa w Borkach-Kosach",
                "addr:country": "PL",
                "addr:postcode": "08-106",
                "addr:place": "Borki-Kosy",
                "addr:housenumber": "24",
                "addr:teryt:sym_ul": 696266,
                "contact:phone": "+48 256416391",
                "contact:email": "borkosy@onet.pl",
                "contact:website": "http:\/\/zsborkikosy.edupage.org",
                "ref:regon": "001134984",
                "ref:vatin": "PL8212173548",
                "operator": "Gmina Zbuczyn",
                "operator:type": "government",
                "amenity": "school"
            }
        },
        {
            "id": 113613,
            "type": "Feature",
            "geometry": {
                "type": "Point",
                "coordinates": [
                    22.36736,
                    52.08697
                ]
            },
            "properties": {
                "ref:rspo": 113613,
                "official_name": "Niepubliczne Przedszkole w Borkach-Kosach",
                "name": "Niepubliczne Przedszkole w Borkach-Kosach",
                "addr:country": "PL",
                "addr:postcode": "08-106",
                "addr:place": "Borki-Kosy",
                "addr:housenumber": "24",
                "addr:teryt:sym_ul": 696266,
                "contact:phone": "+48 256416391",
                "contact:email": "borkosy@onet.pl",
                "ref:regon": "146623699",
                "ref:vatin": "PL8212544938",
                "operator": "Stowarzyszenie Kulturalno-O\u015bwiatowe \"Logos\"",
                "operator:type": "ngo",
                "amenity": "kindergarten"
            }
        },
        {
            "id": 71873,
            "type": "Feature",
            "geometry": {
                "type": "Point",
                "coordinates": [
                    22.44046,
                    52.08734
                ]
            },
            "properties": {
                "ref:rspo": 71873,
                "official_name": "Gminne Przedszkole w Zbuczynie",
                "name": "Gminne Przedszkole w Zbuczynie",
                "addr:country": "PL",
                "addr:postcode": "08-106",
                "addr:city": "Zbuczyn",
                "addr:street": "Jana Paw\u0142a II",
                "addr:housenumber": "1",
                "addr:teryt:simc": 7123,
                "addr:teryt:sym_ul": 696734,
                "contact:phone": "+48 506868613",
                "contact:email": "przedszkole@zbuczyn.pl",
                "ref:regon": "710006148",
                "ref:vatin": "PL8212173614",
                "operator": "Gmina Zbuczyn",
                "operator:type": "government",
                "amenity": "kindergarten"
            }
        },
        {
            "id": 74983,
            "type": "Feature",
            "geometry": {
                "type": "Point",
                "coordinates": [
                    22.59598,
                    52.10258
                ]
            },
            "properties": {
                "isced:level": "1;2",
                "ref:rspo": 74983,
                "official_name": "Szko\u0142a Podstawowa w Izdebkach-Kosnach",
                "name": "Szko\u0142a Podstawowa w Izdebkach-Kosnach",
                "addr:country": "PL",
                "addr:postcode": "08-111",
                "addr:place": "Izdebki-Kosny",
                "addr:housenumber": "38",
                "addr:teryt:sym_ul": 696415,
                "contact:email": "kosny@interia.pl",
                "ref:regon": "001135021",
                "ref:vatin": "PL8212173318",
                "operator": "Gmina Zbuczyn",
                "operator:type": "government",
                "amenity": "school"
            }
        },
        {
            "id": 87715,
            "type": "Feature",
            "geometry": {
                "type": "Point",
                "coordinates": [
                    22.59598,
                    52.10255
                ]
            },
            "properties": {
                "ref:rspo": 87715,
                "official_name": "Niepubliczne Przedszkole w Izdebkach-Kosnach",
                "name": "Niepubliczne Przedszkole w Izdebkach-Kosnach",
                "addr:country": "PL",
                "addr:postcode": "08-111",
                "addr:place": "Izdebki-Kosny",
                "addr:housenumber": "38",
                "addr:teryt:sym_ul": 696415,
                "contact:phone": "+48 256426411",
                "contact:email": "kosny@interia.pl",
                "ref:regon": "146441389",
                "ref:vatin": "PL8212494376",
                "operator": "Stowarzyszenie Kulturalno-O\u015bwiatowe \"Kosem\"",
                "operator:type": "ngo",
                "amenity": "kindergarten"
            }
        },
        {
            "id": 87755,
            "type": "Feature",
            "geometry": {
                "type": "Point",
                "coordinates": [
                    22.59598,
                    52.102520000000005
                ]
            },
            "properties": {
                "isced:level": "1;2",
                "ref:rspo": 87755,
                "official_name": "Niepubliczna Szko\u0142a Podstawowa w Izdebkach-Kosnach",
                "name": "Niepubliczna Szko\u0142a Podstawowa w Izdebkach-Kosnach",
                "addr:country": "PL",
                "addr:postcode": "08-111",
                "addr:place": "Izdebki-Kosny",
                "addr:housenumber": "38",
                "addr:teryt:sym_ul": 696415,
                "contact:phone": "+48 256426411",
                "contact:email": "kosny@interia.pl",
                "ref:regon": "146458065",
                "ref:vatin": "PL8212494376",
                "operator": "Stowarzyszenie Kulturalno-O\u015bwiatowe \"Kosem\"",
                "operator:type": "ngo",
                "amenity": "school"
            }
        },
        {
            "id": 73023,
            "type": "Feature",
            "geometry": {
                "type": "Point",
                "coordinates": [
                    22.35015,
                    52.11166
                ]
            },
            "properties": {
                "ref:rspo": 73023,
                "official_name": "Zesp\u00f3\u0142 Szk\u00f3\u0142 Niepublicznych w Borkach-Wyrkach",
                "name": "Zesp\u00f3\u0142 Szk\u00f3\u0142 Niepublicznych w Borkach-Wyrkach",
                "addr:country": "PL",
                "addr:postcode": "08-106",
                "addr:place": "Borki-Wyrki",
                "addr:housenumber": "17",
                "addr:teryt:sym_ul": 696272,
                "contact:email": "zsn.kornelmak@wp.pl",
                "contact:website": "http:\/\/zsnborkiwyrki.edupage.org",
                "ref:regon": "146458036",
                "ref:vatin": "PL8212456223",
                "operator": "Regionalne Stowarzyszenie Kulturalno-O\u015bwiatowe \"Kornel\"",
                "operator:type": "ngo",
                "landuse": "education",
                "fixme": "amenity=school, amenity=college albo landuse=education w zale\u017cno\u015bci od tego, jakie plac\u00f3wki wchodz\u0105 w sk\u0142ad zespo\u0142u. Sprawd\u017a, kiedy stosowa\u0107 amenity=* a kiedy landuse=education.",
                "note": "Children RSPO: 73044;106930"
            }
        },
        {
            "id": 73044,
            "type": "Feature",
            "geometry": {
                "type": "Point",
                "coordinates": [
                    22.35015,
                    52.11163
                ]
            },
            "properties": {
                "ref:rspo": 73044,
                "official_name": "Niepubliczne Przedszkole w Borkach-Wyrkach",
                "name": "Niepubliczne Przedszkole w Borkach-Wyrkach",
                "addr:country": "PL",
                "addr:postcode": "08-106",
                "addr:place": "Borki-Wyrki",
                "addr:housenumber": "17",
                "addr:teryt:sym_ul": 696272,
                "contact:phone": "+48 664141180",
                "contact:email": "zsn.borki.wyrki@wp.pl",
                "ref:regon": "146441231",
                "ref:vatin": "PL8212456200",
                "operator": "Regionalne Stowarzyszenie Kulturalno-O\u015bwiatowe \"Kornel\"",
                "operator:type": "ngo",
                "amenity": "kindergarten",
                "note": "Parent RSPO: 73023"
            }
        },
        {
            "id": 106930,
            "type": "Feature",
            "geometry": {
                "type": "Point",
                "coordinates": [
                    22.35015,
                    52.1116
                ]
            },
            "properties": {
                "isced:level": "1;2",
                "ref:rspo": 106930,
                "official_name": "Niepubliczna Szko\u0142a Podstawowa im. Kornela Makuszy\u0144skiego w Borkach-Wyrkach",
                "name": "Niepubliczna Szko\u0142a Podstawowa",
                "addr:country": "PL",
                "addr:postcode": "08-106",
                "addr:place": "Borki-Wyrki",
                "addr:housenumber": "17",
                "addr:teryt:sym_ul": 696272,
                "contact:phone": "+48 664141180",
                "contact:email": "zsn.kornelmak@wp.pl",
                "ref:regon": "146505416",
                "ref:vatin": "PL8212456192",
                "operator": "Regionalne Stowarzyszenie Kulturalno-O\u015bwiatowe \"Kornel\"",
                "operator:type": "ngo",
                "amenity": "school",
                "note": "Parent RSPO: 73023"
            }
        },
        {
            "id": 72121,
            "type": "Feature",
            "geometry": {
                "type": "Point",
                "coordinates": [
                    22.39469,
                    52.12112
                ]
            },
            "properties": {
                "ref:rspo": 72121,
                "official_name": "Niepubliczne Przedszkole w \u0141ugach Wielkich",
                "name": "Niepubliczne Przedszkole w \u0141ugach Wielkich",
                "addr:country": "PL",
                "addr:postcode": "08-106",
                "addr:place": "\u0141ugi Wielkie",
                "addr:housenumber": "39",
                "addr:teryt:sym_ul": 696556,
                "contact:phone": "+48 256416329",
                "contact:email": "splugi@op.pl",
                "contact:website": "http:\/\/nsplugi.edupage.org",
                "ref:regon": "146440875",
                "ref:vatin": "PL8212544275",
                "operator": "Stowarzyszenie Kulturalno-O\u015bwiatowe \"Nadzieja\"",
                "operator:type": "ngo",
                "amenity": "kindergarten"
            }
        },
        {
            "id": 72135,
            "type": "Feature",
            "geometry": {
                "type": "Point",
                "coordinates": [
                    22.39469,
                    52.121089999999995
                ]
            },
            "properties": {
                "isced:level": "1;2",
                "ref:rspo": 72135,
                "official_name": "Niepubliczna Szko\u0142a Podstawowa w \u0141ugach Wielkich",
                "name": "Niepubliczna Szko\u0142a Podstawowa w \u0141ugach Wielkich",
                "addr:country": "PL",
                "addr:postcode": "08-106",
                "addr:place": "\u0141ugi Wielkie",
                "addr:housenumber": "39",
                "addr:teryt:sym_ul": 696556,
                "contact:phone": "+48 256416329",
                "contact:email": "splugi@op.pl",
                "contact:website": "http:\/\/nsplugi.edupage.org",
                "ref:regon": "146440941",
                "ref:vatin": "PL8212544275",
                "operator": "Stowarzyszenie Kulturalno-O\u015bwiatowe \"Nadzieja\"",
                "operator:type": "ngo",
                "amenity": "school"
            }
        },
        {
            "id": 74908,
            "type": "Feature",
            "geometry": {
                "type": "Point",
                "coordinates": [
                    22.39469,
                    52.12106
                ]
            },
            "properties": {
                "isced:level": "1;2",
                "ref:rspo": 74908,
                "official_name": "Szko\u0142a Podstawowa w \u0141ugach Wielkich",
                "name": "Szko\u0142a Podstawowa w \u0141ugach Wielkich",
                "addr:country": "PL",
                "addr:postcode": "08-106",
                "addr:place": "\u0141ugi Wielkie",
                "addr:housenumber": "39",
                "addr:teryt:sym_ul": 696556,
                "contact:email": "splugi@op.pl",
                "ref:regon": "001135038",
                "ref:vatin": "PL8212173330",
                "operator": "Gmina Zbuczyn",
                "operator:type": "government",
                "amenity": "school"
            }
        },
        {
            "id": 132398,
            "type": "Feature",
            "geometry": {
                "type": "Point",
                "coordinates": [
                    22.43434,
                    52.14179
                ]
            },
            "properties": {
                "ref:rspo": 132398,
                "official_name": "Niepubliczne Przedszkole w Cielem\u0119cu",
                "name": "Niepubliczne Przedszkole w Cielem\u0119cu",
                "addr:country": "PL",
                "addr:postcode": "08-106",
                "addr:place": "Cielem\u0119c",
                "addr:housenumber": "45",
                "addr:teryt:sym_ul": 696349,
                "contact:email": "przedszkole.cielemec@wp.pl",
                "ref:regon": "365599920",
                "ref:vatin": "PL8212466641",
                "operator": "Regionalne Stowarzyszenie O\u015bwiatowe \"Razem\"",
                "operator:type": "ngo",
                "amenity": "kindergarten"
            }
        },
        {
            "id": 71497,
            "type": "Feature",
            "geometry": {
                "type": "Point",
                "coordinates": [
                    22.43386,
                    52.14184
                ]
            },
            "properties": {
                "isced:level": "1;2",
                "ref:rspo": 71497,
                "official_name": "Szko\u0142a Podstawowa im. Jana Czes\u0142awa Tajcherta w Czury\u0142ach",
                "name": "Szko\u0142a Podstawowa",
                "addr:country": "PL",
                "addr:postcode": "08-106",
                "addr:place": "Cielem\u0119c",
                "addr:housenumber": "44",
                "addr:teryt:sym_ul": 696349,
                "contact:phone": "+48 256319010",
                "contact:email": "szkolaczuryly@poczta.onet.pl",
                "contact:website": "http:\/\/spczuryly.edupage.org",
                "ref:regon": "001135009",
                "ref:vatin": "PL8212173502",
                "operator": "Gmina Zbuczyn",
                "operator:type": "government",
                "amenity": "school"
            }
        }
    ]
}