{
    "type": "FeatureCollection",
    "features": [
        {
            "id": 274083,
            "type": "Feature",
            "geometry": {
                "type": "Point",
                "coordinates": [
                    22.34662,
                    52.23546
                ]
            },
            "properties": {
                "ref:rspo": 274083,
                "official_name": "Zesp\u00f3\u0142 O\u015bwiatowy w Krze\u015blinie",
                "name": "Zesp\u00f3\u0142 O\u015bwiatowy w Krze\u015blinie",
                "addr:country": "PL",
                "addr:postcode": "08-125",
                "addr:place": "Krze\u015blin",
                "addr:housenumber": "67",
                "addr:teryt:sym_ul": 692200,
                "contact:phone": "+48 256313427",
                "contact:email": "krzeslin@wp.pl",
                "ref:regon": "385171045",
                "ref:vatin": "PL8212670459",
                "operator": "Gmina Sucho\u017cebry",
                "operator:type": "government",
                "landuse": "education",
                "fixme": "amenity=school, amenity=college albo landuse=education w zale\u017cno\u015bci od tego, jakie plac\u00f3wki wchodz\u0105 w sk\u0142ad zespo\u0142u. Sprawd\u017a, kiedy stosowa\u0107 amenity=* a kiedy landuse=education.",
                "note": "Children RSPO: 34681;34682"
            }
        },
        {
            "id": 34681,
            "type": "Feature",
            "geometry": {
                "type": "Point",
                "coordinates": [
                    22.34662,
                    52.23543
                ]
            },
            "properties": {
                "isced:level": "1;2",
                "ref:rspo": 34681,
                "official_name": "Szko\u0142a Podstawowa im. Marsza\u0142ka J\u00f3zefa Pi\u0142sudskiego w Krze\u015blinie",
                "name": "Szko\u0142a Podstawowa",
                "addr:country": "PL",
                "addr:postcode": "08-125",
                "addr:place": "Krze\u015blin",
                "addr:housenumber": "67",
                "addr:teryt:sym_ul": 692200,
                "contact:phone": "+48 256313427",
                "contact:email": "krzeslin@wp.pl",
                "contact:website": "http:\/\/spkrzeslin.edupage.org",
                "ref:regon": "001128297",
                "operator": "Gmina Sucho\u017cebry",
                "operator:type": "government",
                "amenity": "school",
                "note": "Parent RSPO: 274083"
            }
        },
        {
            "id": 34682,
            "type": "Feature",
            "geometry": {
                "type": "Point",
                "coordinates": [
                    22.34662,
                    52.235400000000006
                ]
            },
            "properties": {
                "ref:rspo": 34682,
                "official_name": "Przedszkole w Krze\u015blinie",
                "name": "Przedszkole w Krze\u015blinie",
                "addr:country": "PL",
                "addr:postcode": "08-125",
                "addr:place": "Krze\u015blin",
                "addr:housenumber": "67",
                "addr:teryt:sym_ul": 692200,
                "contact:phone": "+48 256313427",
                "contact:email": "krzeslin@wp.pl",
                "ref:regon": "146352800",
                "operator": "Gmina Sucho\u017cebry",
                "operator:type": "government",
                "amenity": "kindergarten",
                "note": "Parent RSPO: 274083"
            }
        },
        {
            "id": 34678,
            "type": "Feature",
            "geometry": {
                "type": "Point",
                "coordinates": [
                    22.24585,
                    52.2553399
                ]
            },
            "properties": {
                "isced:level": "1;2",
                "ref:rspo": 34678,
                "official_name": "Szko\u0142a Podstawowa w Sucho\u017cebrach",
                "name": "Szko\u0142a Podstawowa w Sucho\u017cebrach",
                "addr:country": "PL",
                "addr:postcode": "08-125",
                "addr:city": "Sucho\u017cebry",
                "addr:street": "ul. Siedlecka",
                "addr:housenumber": "6",
                "addr:teryt:simc": 19769,
                "addr:teryt:sym_ul": 692311,
                "contact:phone": "+48 256314506",
                "contact:email": "zspsuch@wp.pl",
                "contact:website": "http:\/\/www.suchozebry.edu.pl",
                "ref:regon": "000679799",
                "operator": "Gmina Sucho\u017cebry",
                "operator:type": "government",
                "amenity": "school",
                "note": "Parent RSPO: 27640"
            }
        },
        {
            "id": 34680,
            "type": "Feature",
            "geometry": {
                "type": "Point",
                "coordinates": [
                    22.24585,
                    52.2553099
                ]
            },
            "properties": {
                "ref:rspo": 34680,
                "official_name": "Przedszkole Publiczne w Sucho\u017cebrach",
                "name": "Przedszkole Publiczne w Sucho\u017cebrach",
                "addr:country": "PL",
                "addr:postcode": "08-125",
                "addr:city": "Sucho\u017cebry",
                "addr:street": "ul. Siedlecka",
                "addr:housenumber": "6",
                "addr:teryt:simc": 19769,
                "addr:teryt:sym_ul": 692311,
                "contact:phone": "+48 256314506",
                "contact:email": "zspsuch@wp.pl",
                "contact:website": "http:\/\/www.suchozebry.edu.pl",
                "ref:regon": "141708155",
                "operator": "Gmina Sucho\u017cebry",
                "operator:type": "government",
                "amenity": "kindergarten",
                "note": "Parent RSPO: 27640"
            }
        },
        {
            "id": 27640,
            "type": "Feature",
            "geometry": {
                "type": "Point",
                "coordinates": [
                    22.24607,
                    52.25557
                ]
            },
            "properties": {
                "ref:rspo": 27640,
                "official_name": "Zesp\u00f3\u0142 Szk\u00f3\u0142 Publicznych im. Henryka Sienkiewicza w Sucho\u017cebrach",
                "name": "Zesp\u00f3\u0142 Szk\u00f3\u0142 Publicznych",
                "addr:country": "PL",
                "addr:postcode": "08-125",
                "addr:city": "Sucho\u017cebry",
                "addr:street": "ul. Siedlecka",
                "addr:housenumber": "8",
                "addr:teryt:simc": 19769,
                "addr:teryt:sym_ul": 692311,
                "contact:phone": "+48 256314506",
                "contact:email": "zspsuch@wp.pl",
                "contact:website": "http:\/\/www.suchozebry.edu.pl",
                "ref:regon": "140229458",
                "operator": "Gmina Sucho\u017cebry",
                "operator:type": "government",
                "landuse": "education",
                "fixme": "amenity=school, amenity=college albo landuse=education w zale\u017cno\u015bci od tego, jakie plac\u00f3wki wchodz\u0105 w sk\u0142ad zespo\u0142u. Sprawd\u017a, kiedy stosowa\u0107 amenity=* a kiedy landuse=education.",
                "note": "Children RSPO: 34678;34680"
            }
        },
        {
            "id": 34676,
            "type": "Feature",
            "geometry": {
                "type": "Point",
                "coordinates": [
                    22.29013,
                    52.30054
                ]
            },
            "properties": {
                "ref:rspo": 34676,
                "official_name": "Punkt Przedszkolny Przy Szkole Podstawowej w Krynicy",
                "name": "Punkt Przedszkolny Przy Szkole Podstawowej w Krynicy",
                "addr:country": "PL",
                "addr:postcode": "08-125",
                "addr:place": "Krynica",
                "addr:housenumber": "33",
                "addr:teryt:sym_ul": 692191,
                "contact:phone": "+48 256314969",
                "contact:email": "krynica2003@gazeta.pl",
                "ref:regon": "146352763",
                "operator": "Gmina Sucho\u017cebry",
                "operator:type": "government",
                "amenity": "kindergarten"
            }
        },
        {
            "id": 40629,
            "type": "Feature",
            "geometry": {
                "type": "Point",
                "coordinates": [
                    22.29013,
                    52.300509999999996
                ]
            },
            "properties": {
                "isced:level": "1;2",
                "ref:rspo": 40629,
                "official_name": "Szko\u0142a Podstawowa im. Marsza\u0142ka J\u00f3zefa Pi\u0142sudskiego w Krynicy",
                "name": "Szko\u0142a Podstawowa",
                "addr:country": "PL",
                "addr:postcode": "08-125",
                "addr:place": "Krynica",
                "addr:housenumber": "33",
                "addr:teryt:sym_ul": 692191,
                "contact:phone": "+48 256314969",
                "contact:email": "krynica2003@gazeta.pl",
                "contact:website": "http:\/\/spkrynica.suchozebry.pl\/",
                "ref:regon": "001128280",
                "operator": "Gmina Sucho\u017cebry",
                "operator:type": "government",
                "amenity": "school"
            }
        }
    ]
}