{
    "type": "FeatureCollection",
    "features": [
        {
            "id": 21643,
            "type": "Feature",
            "geometry": {
                "type": "Point",
                "coordinates": [
                    21.95639,
                    52.03798
                ]
            },
            "properties": {
                "ref:rspo": 21643,
                "official_name": "Zesp\u00f3\u0142 Szk\u00f3\u0142 w Bojmiu",
                "name": "Zesp\u00f3\u0142 Szk\u00f3\u0142 w Bojmiu",
                "addr:country": "PL",
                "addr:postcode": "08-130",
                "addr:city": "Bojmie",
                "addr:street": "ul. Po\u0142udniowa",
                "addr:housenumber": "6",
                "addr:teryt:simc": 17070,
                "addr:teryt:sym_ul": 676565,
                "contact:phone": "+48 256312429",
                "contact:email": "szkolabojmie@gmail.com",
                "ref:regon": "712543399",
                "ref:vatin": "PL8212327885",
                "operator": "Gmina Kotu\u0144",
                "operator:type": "government",
                "landuse": "education",
                "fixme": "amenity=school, amenity=college albo landuse=education w zale\u017cno\u015bci od tego, jakie plac\u00f3wki wchodz\u0105 w sk\u0142ad zespo\u0142u. Sprawd\u017a, kiedy stosowa\u0107 amenity=* a kiedy landuse=education.",
                "note": "Children RSPO: 22745;22746"
            }
        },
        {
            "id": 22745,
            "type": "Feature",
            "geometry": {
                "type": "Point",
                "coordinates": [
                    21.95639,
                    52.037949999999995
                ]
            },
            "properties": {
                "isced:level": "1;2",
                "ref:rspo": 22745,
                "official_name": "Szko\u0142a Podstawowa im. Januarego Suchodolskiego",
                "name": "Szko\u0142a Podstawowa",
                "addr:country": "PL",
                "addr:postcode": "08-130",
                "addr:city": "Bojmie",
                "addr:street": "ul. Po\u0142udniowa",
                "addr:housenumber": "6",
                "addr:teryt:simc": 17070,
                "addr:teryt:sym_ul": 676565,
                "contact:phone": "+48 256312429",
                "contact:email": "szkolabojmie@gmail.com",
                "ref:regon": "001124276",
                "operator": "Gmina Kotu\u0144",
                "operator:type": "government",
                "amenity": "school",
                "note": "Parent RSPO: 21643"
            }
        },
        {
            "id": 22749,
            "type": "Feature",
            "geometry": {
                "type": "Point",
                "coordinates": [
                    22.00901,
                    52.13879
                ]
            },
            "properties": {
                "isced:level": "1;2",
                "ref:rspo": 22749,
                "official_name": "Szko\u0142a Podstawowa im. Marsza\u0142ka J\u00f3zefa Pi\u0142sudskiego",
                "name": "Szko\u0142a Podstawowa",
                "addr:country": "PL",
                "addr:postcode": "08-130",
                "addr:place": "\u017beliszew Podko\u015bcielny",
                "addr:housenumber": "13",
                "addr:teryt:sym_ul": 676938,
                "contact:phone": "+48 256420636",
                "contact:email": "zeliszew@poczta.onet.pl",
                "ref:regon": "001124313",
                "operator": "Gmina Kotu\u0144",
                "operator:type": "government",
                "amenity": "school"
            }
        },
        {
            "id": 131955,
            "type": "Feature",
            "geometry": {
                "type": "Point",
                "coordinates": [
                    22.12011,
                    52.15146
                ]
            },
            "properties": {
                "ref:rspo": 131955,
                "official_name": "Niepubliczne Przedszkole ,, Le\u015bna Kraina\" Joanna Kielmas, Magdalena Stolarzak S.c.",
                "name": "Niepubliczne Przedszkole ,, Le\u015bna Kraina\" Joanna Kielmas, Magdalena Stolarzak S.c.",
                "addr:country": "PL",
                "addr:postcode": "08-130",
                "addr:place": "Cisie-Zagrudzie",
                "addr:housenumber": "42",
                "addr:teryt:sym_ul": 676619,
                "contact:phone": "+48 786964552",
                "contact:email": "przedszkole-lesnakraina@wp.pl",
                "contact:website": "http:\/\/www.przedszkolelesnakraina.pl",
                "ref:regon": "365391118",
                "ref:vatin": "PL8212647615",
                "operator": "Joanna Kielmas",
                "operator:type": "private",
                "amenity": "kindergarten"
            }
        },
        {
            "id": 128859,
            "type": "Feature",
            "geometry": {
                "type": "Point",
                "coordinates": [
                    22.06861,
                    52.17754
                ]
            },
            "properties": {
                "ref:rspo": 128859,
                "official_name": "Niepubliczne Przedszkole ,, Akademia Przedszkolaka",
                "name": "Niepubliczne Przedszkole ,, Akademia Przedszkolaka",
                "addr:country": "PL",
                "addr:postcode": "08-130",
                "addr:city": "Kotu\u0144",
                "addr:street": "ul. Siedlecka",
                "addr:housenumber": "70",
                "addr:teryt:simc": 19769,
                "addr:teryt:sym_ul": 676690,
                "contact:phone": "+48 504853212",
                "contact:email": "przedszkolekotun@tlen.pl",
                "ref:regon": "362408976",
                "operator": "Niepubliczne Przedszkole \"Akademia Przedszkolaka\" S.c.",
                "operator:type": "consortium",
                "amenity": "kindergarten"
            }
        },
        {
            "id": 262768,
            "type": "Feature",
            "geometry": {
                "type": "Point",
                "coordinates": [
                    21.98566,
                    52.17838
                ]
            },
            "properties": {
                "ref:rspo": 262768,
                "official_name": "Przedszkole Niepubliczne ,, Le\u015bne Skrzaty\"",
                "name": "Przedszkole Niepubliczne ,, Le\u015bne Skrzaty\"",
                "addr:country": "PL",
                "addr:postcode": "08-130",
                "addr:place": "Koszewnica",
                "addr:housenumber": "36",
                "addr:teryt:sym_ul": 676683,
                "contact:email": "lesneskrzaty@przedszkolekoszewnica.pl",
                "contact:website": "http:\/\/przedszkolekoszewnica.pl",
                "ref:regon": "368058081",
                "operator": "Wanda Chojecka",
                "operator:type": "private",
                "amenity": "kindergarten"
            }
        },
        {
            "id": 20594,
            "type": "Feature",
            "geometry": {
                "type": "Point",
                "coordinates": [
                    22.06682,
                    52.17974
                ]
            },
            "properties": {
                "ref:rspo": 20594,
                "official_name": "Zesp\u00f3\u0142 O\u015bwiatowy w Kotuniu",
                "name": "Zesp\u00f3\u0142 O\u015bwiatowy w Kotuniu",
                "addr:country": "PL",
                "addr:postcode": "08-130",
                "addr:city": "Kotu\u0144",
                "addr:street": "ul. Szkolna",
                "addr:housenumber": "2",
                "addr:teryt:simc": 21970,
                "addr:teryt:sym_ul": 676690,
                "contact:phone": "+48 256414326",
                "contact:email": "spkotun@poczta.fm",
                "contact:website": "http:\/\/arct.kotun.pl\/",
                "ref:regon": "141671400",
                "ref:vatin": "PL8212555008",
                "operator": "Gmina Kotu\u0144",
                "operator:type": "government",
                "landuse": "education",
                "fixme": "amenity=school, amenity=college albo landuse=education w zale\u017cno\u015bci od tego, jakie plac\u00f3wki wchodz\u0105 w sk\u0142ad zespo\u0142u. Sprawd\u017a, kiedy stosowa\u0107 amenity=* a kiedy landuse=education.",
                "note": "Children RSPO: 22743;22744"
            }
        },
        {
            "id": 22743,
            "type": "Feature",
            "geometry": {
                "type": "Point",
                "coordinates": [
                    22.06682,
                    52.17971
                ]
            },
            "properties": {
                "isced:level": "1;2",
                "ref:rspo": 22743,
                "official_name": "Szko\u0142a Podstawowa im. Bohdana Arcta w Kotuniu",
                "name": "Szko\u0142a Podstawowa",
                "addr:country": "PL",
                "addr:postcode": "08-130",
                "addr:city": "Kotu\u0144",
                "addr:street": "ul. Szkolna",
                "addr:housenumber": "2",
                "addr:teryt:simc": 21970,
                "addr:teryt:sym_ul": 676690,
                "contact:phone": "+48 256414326",
                "contact:email": "spkotun@poczta.fm",
                "contact:website": "http:\/\/arct.kotun.pl\/",
                "ref:regon": "000265744",
                "operator": "Gmina Kotu\u0144",
                "operator:type": "government",
                "amenity": "school",
                "note": "Parent RSPO: 20594"
            }
        },
        {
            "id": 22744,
            "type": "Feature",
            "geometry": {
                "type": "Point",
                "coordinates": [
                    22.06682,
                    52.179680000000005
                ]
            },
            "properties": {
                "ref:rspo": 22744,
                "official_name": "Publiczne Przedszkole w Kotuniu",
                "name": "Publiczne Przedszkole w Kotuniu",
                "addr:country": "PL",
                "addr:postcode": "08-130",
                "addr:city": "Kotu\u0144",
                "addr:street": "ul. Szkolna",
                "addr:housenumber": "2",
                "addr:teryt:simc": 21970,
                "addr:teryt:sym_ul": 676690,
                "contact:phone": "+48 256414325",
                "contact:email": "spkotun@poczta.fm",
                "ref:regon": "141671481",
                "operator": "Gmina Kotu\u0144",
                "operator:type": "government",
                "amenity": "kindergarten",
                "note": "Parent RSPO: 20594"
            }
        },
        {
            "id": 273836,
            "type": "Feature",
            "geometry": {
                "type": "Point",
                "coordinates": [
                    22.10103,
                    52.19031
                ]
            },
            "properties": {
                "ref:rspo": 273836,
                "official_name": "Niepubliczne Przedszkole I \u017b\u0142obek Happy World Kids Komorowska Maria",
                "name": "Niepubliczne Przedszkole I \u017b\u0142obek Happy World Kids Komorowska Maria",
                "addr:country": "PL",
                "addr:postcode": "08-130",
                "addr:city": "Broszk\u00f3w",
                "addr:street": "ul. Warszawska",
                "addr:housenumber": "18",
                "addr:teryt:simc": 23682,
                "addr:teryt:sym_ul": 676594,
                "contact:phone": "+48 577744900",
                "contact:email": "przedszkolebroszkow@gmail.com",
                "contact:website": "http:\/\/www.przedszkolebroszkow.pl",
                "ref:regon": "384723525",
                "ref:vatin": "PL8212261910",
                "operator": "Maria Komorowska",
                "operator:type": "private",
                "amenity": "kindergarten"
            }
        },
        {
            "id": 22746,
            "type": "Feature",
            "geometry": {
                "type": "Point",
                "coordinates": [
                    21.95268,
                    52.199
                ]
            },
            "properties": {
                "ref:rspo": 22746,
                "official_name": "Publiczne Przedszkole",
                "name": "Publiczne Przedszkole",
                "addr:country": "PL",
                "addr:postcode": "08-130",
                "addr:city": "Bojmie",
                "addr:street": "ul. Po\u0142udniowa",
                "addr:housenumber": "12",
                "addr:teryt:simc": 17070,
                "addr:teryt:sym_ul": 676565,
                "contact:phone": "+48 256312429",
                "contact:email": "szkolabojmie@gmail.com",
                "ref:regon": "141671446",
                "operator": "Gmina Kotu\u0144",
                "operator:type": "government",
                "amenity": "kindergarten",
                "note": "Parent RSPO: 21643"
            }
        }
    ]
}