{
    "type": "FeatureCollection",
    "features": [
        {
            "id": 5483,
            "type": "Feature",
            "geometry": {
                "type": "Point",
                "coordinates": [
                    22.30062,
                    52.12963
                ]
            },
            "properties": {
                "ref:rspo": 5483,
                "official_name": "Zesp\u00f3\u0142 O\u015bwiatowo-Wychowawczy w Bia\u0142kach",
                "name": "Zesp\u00f3\u0142 O\u015bwiatowo-Wychowawczy w Bia\u0142kach",
                "addr:country": "PL",
                "addr:postcode": "08-110",
                "addr:city": "Bia\u0142ki",
                "addr:street": "ul. Diamentowa",
                "addr:housenumber": "1",
                "addr:teryt:simc": 3826,
                "addr:teryt:sym_ul": 686575,
                "contact:phone": "+48 256325416",
                "contact:email": "bialki@gminasiedlce.pl",
                "contact:website": "http:\/\/bialki.gminasiedlce.pl",
                "ref:regon": "711673898",
                "ref:vatin": "PL8212185505",
                "operator": "Gmina Siedlce",
                "operator:type": "government",
                "landuse": "education",
                "fixme": "amenity=school, amenity=college albo landuse=education w zale\u017cno\u015bci od tego, jakie plac\u00f3wki wchodz\u0105 w sk\u0142ad zespo\u0142u. Sprawd\u017a, kiedy stosowa\u0107 amenity=* a kiedy landuse=education.",
                "note": "Children RSPO: 11523;11525"
            }
        },
        {
            "id": 11523,
            "type": "Feature",
            "geometry": {
                "type": "Point",
                "coordinates": [
                    22.30062,
                    52.129599999999996
                ]
            },
            "properties": {
                "isced:level": "1;2",
                "ref:rspo": 11523,
                "official_name": "Zesp\u00f3\u0142 O\u015bwiatowo-Wychowawczy w Bia\u0142kach Szko\u0142a Podstawowa im.\u017co\u0142nierzy II Armii Wojska Polskieg",
                "name": "Zesp\u00f3\u0142 O\u015bwiatowo-Wychowawczy w Bia\u0142kach Szko\u0142a Podstawowa im.\u017co\u0142nierzy II Armii Wojska Polskieg",
                "addr:country": "PL",
                "addr:postcode": "08-110",
                "addr:city": "Bia\u0142ki",
                "addr:street": "ul. Diamentowa",
                "addr:housenumber": "1",
                "addr:teryt:simc": 3826,
                "addr:teryt:sym_ul": 686575,
                "contact:phone": "+48 256325416",
                "contact:email": "bialki@gminasiedlce.pl",
                "contact:website": "http:\/\/bialki.gminasiedlce.pl",
                "ref:regon": "001127872",
                "operator": "Gmina Siedlce",
                "operator:type": "government",
                "amenity": "school",
                "note": "Parent RSPO: 5483"
            }
        },
        {
            "id": 11525,
            "type": "Feature",
            "geometry": {
                "type": "Point",
                "coordinates": [
                    22.30062,
                    52.12957
                ]
            },
            "properties": {
                "ref:rspo": 11525,
                "official_name": "Zesp\u00f3\u0142 O\u015bwiatowo-Wychowawczy w Bia\u0142kach Publiczne Przedszkole",
                "name": "Zesp\u00f3\u0142 O\u015bwiatowo-Wychowawczy w Bia\u0142kach Publiczne Przedszkole",
                "addr:country": "PL",
                "addr:postcode": "08-110",
                "addr:city": "Bia\u0142ki",
                "addr:street": "ul. Diamentowa",
                "addr:housenumber": "1",
                "addr:teryt:simc": 3826,
                "addr:teryt:sym_ul": 686575,
                "contact:phone": "+48 256325416",
                "contact:email": "bialki@gminasiedlce.pl",
                "contact:website": "http:\/\/bialki.gminasiedlce.pl",
                "ref:regon": "710005249",
                "operator": "Gmina Siedlce",
                "operator:type": "government",
                "amenity": "kindergarten",
                "note": "Parent RSPO: 5483"
            }
        },
        {
            "id": 5445,
            "type": "Feature",
            "geometry": {
                "type": "Point",
                "coordinates": [
                    22.21372,
                    52.14364
                ]
            },
            "properties": {
                "ref:rspo": 5445,
                "official_name": "Zesp\u00f3\u0142 O\u015bwiatowy w \u017belkowie-Kolonii",
                "name": "Zesp\u00f3\u0142 O\u015bwiatowy w \u017belkowie-Kolonii",
                "addr:country": "PL",
                "addr:postcode": "08-110",
                "addr:city": "\u017belk\u00f3w-Kolonia",
                "addr:street": "ul. Siedlecka",
                "addr:housenumber": "202",
                "addr:teryt:simc": 19769,
                "addr:teryt:sym_ul": 686925,
                "contact:phone": "+48 256436076",
                "contact:email": "zelkow@gminasiedlce.pl",
                "contact:website": "http:\/\/zelkow.gminasiedlce.pl",
                "ref:regon": "712486891",
                "ref:vatin": "PL8212298422",
                "operator": "Gmina Siedlce",
                "operator:type": "government",
                "landuse": "education",
                "fixme": "amenity=school, amenity=college albo landuse=education w zale\u017cno\u015bci od tego, jakie plac\u00f3wki wchodz\u0105 w sk\u0142ad zespo\u0142u. Sprawd\u017a, kiedy stosowa\u0107 amenity=* a kiedy landuse=education.",
                "note": "Children RSPO: 9677;130412"
            }
        },
        {
            "id": 9677,
            "type": "Feature",
            "geometry": {
                "type": "Point",
                "coordinates": [
                    22.21372,
                    52.143609999999995
                ]
            },
            "properties": {
                "isced:level": "1;2",
                "ref:rspo": 9677,
                "official_name": "Zesp\u00f3\u0142 O\u015bwiatowy w \u017belkowie-Kolonii Szko\u0142a Podstawowa im. Adama Mickiewicza",
                "name": "Zesp\u00f3\u0142 O\u015bwiatowy w \u017belkowie-Kolonii Szko\u0142a Podstawowa",
                "addr:country": "PL",
                "addr:postcode": "08-110",
                "addr:city": "\u017belk\u00f3w-Kolonia",
                "addr:street": "ul. Siedlecka",
                "addr:housenumber": "202",
                "addr:teryt:simc": 19769,
                "addr:teryt:sym_ul": 686925,
                "contact:phone": "+48 256436076",
                "contact:email": "zozelkow@wp.pl",
                "contact:website": "http:\/\/gminasiedlce.pl",
                "ref:regon": "001127910",
                "ref:vatin": "PL8212179746",
                "operator": "Gmina Siedlce",
                "operator:type": "government",
                "amenity": "school",
                "note": "Parent RSPO: 5445"
            }
        },
        {
            "id": 130412,
            "type": "Feature",
            "geometry": {
                "type": "Point",
                "coordinates": [
                    22.21372,
                    52.14358
                ]
            },
            "properties": {
                "ref:rspo": 130412,
                "official_name": "Zesp\u00f3\u0142 O\u015bwiatowy w \u017belkowie-Kolonii Publiczne Przedszkole",
                "name": "Zesp\u00f3\u0142 O\u015bwiatowy w \u017belkowie-Kolonii Publiczne Przedszkole",
                "addr:country": "PL",
                "addr:postcode": "08-110",
                "addr:city": "\u017belk\u00f3w-Kolonia",
                "addr:street": "ul. Siedlecka",
                "addr:housenumber": "202",
                "addr:teryt:simc": 19769,
                "addr:teryt:sym_ul": 686925,
                "contact:phone": "+48 256436076",
                "contact:email": "zelkow@gminasiedlce.pl",
                "ref:regon": "363989337",
                "operator": "Gmina Siedlce",
                "operator:type": "government",
                "amenity": "kindergarten",
                "note": "Parent RSPO: 5445"
            }
        },
        {
            "id": 66464,
            "type": "Feature",
            "geometry": {
                "type": "Point",
                "coordinates": [
                    22.34117,
                    52.1591
                ]
            },
            "properties": {
                "ref:rspo": 66464,
                "official_name": "Specjalny O\u015brodek Szkolno Wychowawczy w Stoku Lackim",
                "name": "Specjalny O\u015brodek Szkolno Wychowawczy w Stoku Lackim",
                "addr:country": "PL",
                "addr:postcode": "08-110",
                "addr:city": "Stok Lacki-Folwark",
                "addr:street": "ul. Pa\u0142acowa",
                "addr:housenumber": "1",
                "addr:teryt:simc": 15590,
                "addr:teryt:sym_ul": 686820,
                "contact:phone": "+48 256315901",
                "contact:email": "soswst@poczta.onet.pl",
                "contact:website": "http:\/\/www.soswstoklacki.pl",
                "ref:regon": "000244280",
                "ref:vatin": "PL8211958543",
                "operator": "Powiat Siedlecki",
                "operator:type": "government",
                "amenity": "school",
                "note": "Children RSPO: 89991;90005;128583;263598"
            }
        },
        {
            "id": 106652,
            "type": "Feature",
            "geometry": {
                "type": "Point",
                "coordinates": [
                    22.34117,
                    52.15907
                ]
            },
            "properties": {
                "ref:rspo": 106652,
                "official_name": "Powiatowa Poradnia Psychologiczno - Pedagogiczna",
                "name": "Powiatowa Poradnia Psychologiczno - Pedagogiczna",
                "addr:country": "PL",
                "addr:postcode": "08-110",
                "addr:city": "Stok Lacki-Folwark",
                "addr:street": "ul. Pa\u0142acowa",
                "addr:housenumber": "1",
                "addr:teryt:simc": 15590,
                "addr:teryt:sym_ul": 686820,
                "contact:phone": "+48 256330860",
                "contact:email": "poradnia@powiatsiedlecki.pl",
                "contact:website": "http:\/\/www.poradnia.powiatsiedlecki.pl",
                "ref:regon": "712368602",
                "operator": "Powiat Siedlecki",
                "operator:type": "government",
                "healthcare": "counselling",
                "counselling_type": "education",
                "fixme": "w zale\u017cno\u015bci od przedmiotu dzia\u0142alno\u015bci (np. healthcare=counselling + counselling_type=education albo healthcare=psychotherapist)"
            }
        },
        {
            "id": 89991,
            "type": "Feature",
            "geometry": {
                "type": "Point",
                "coordinates": [
                    22.34117,
                    52.159040000000005
                ]
            },
            "properties": {
                "isced:level": "1;2",
                "ref:rspo": 89991,
                "official_name": "Publiczna Szko\u0142a Podstawowa Specjalna w Stoku Lackim",
                "name": "Publiczna Szko\u0142a Podstawowa Specjalna w Stoku Lackim",
                "addr:country": "PL",
                "addr:postcode": "08-110",
                "addr:city": "Stok Lacki-Folwark",
                "addr:street": "ul. Pa\u0142acowa",
                "addr:housenumber": "1",
                "addr:teryt:simc": 15590,
                "addr:teryt:sym_ul": 686820,
                "contact:phone": "+48 256315901",
                "contact:email": "soswst@poczta.onet.pl",
                "contact:website": "http:\/\/www.soswstoklacki.pl",
                "ref:regon": "712537341",
                "operator": "Powiat Siedlecki",
                "operator:type": "government",
                "amenity": "school",
                "note": "Parent RSPO: 66464"
            }
        },
        {
            "id": 90005,
            "type": "Feature",
            "geometry": {
                "type": "Point",
                "coordinates": [
                    22.34117,
                    52.15901
                ]
            },
            "properties": {
                "ref:rspo": 90005,
                "official_name": "Publiczna Szko\u0142a Specjalna Przysposabiaj\u0105ca Do Pracy w Stoku Lackim",
                "name": "Publiczna Szko\u0142a Specjalna Przysposabiaj\u0105ca Do Pracy w Stoku Lackim",
                "addr:country": "PL",
                "addr:postcode": "08-110",
                "addr:city": "Stok Lacki-Folwark",
                "addr:street": "ul. Pa\u0142acowa",
                "addr:housenumber": "1",
                "addr:teryt:simc": 15590,
                "addr:teryt:sym_ul": 686820,
                "contact:phone": "+48 256315901",
                "contact:email": "soswst@poczta.onet.pl",
                "contact:website": "http:\/\/www.soswstoklacki.pl",
                "ref:regon": "712570278",
                "operator": "Powiat Siedlecki",
                "operator:type": "government",
                "amenity": "school",
                "note": "Parent RSPO: 66464"
            }
        },
        {
            "id": 128583,
            "type": "Feature",
            "geometry": {
                "type": "Point",
                "coordinates": [
                    22.34117,
                    52.15898
                ]
            },
            "properties": {
                "ref:rspo": 128583,
                "official_name": "Powiatowe Przedszkole Specjalne w Stoku Lackim",
                "name": "Powiatowe Przedszkole Specjalne w Stoku Lackim",
                "addr:country": "PL",
                "addr:postcode": "08-110",
                "addr:city": "Stok Lacki",
                "addr:street": "ul. Pa\u0142acowa",
                "addr:housenumber": "1",
                "addr:teryt:simc": 15590,
                "addr:teryt:sym_ul": 686813,
                "contact:phone": "+48 256315901",
                "contact:email": "soswst@poczta.onet.pl",
                "contact:website": "http:\/\/www.soswstoklacki.pl",
                "ref:regon": "362332351",
                "operator": "Powiat Siedlecki",
                "operator:type": "government",
                "amenity": "kindergarten",
                "note": "Parent RSPO: 66464"
            }
        },
        {
            "id": 263598,
            "type": "Feature",
            "geometry": {
                "type": "Point",
                "coordinates": [
                    22.34117,
                    52.158950000000004
                ]
            },
            "properties": {
                "isced:level": "3",
                "ref:rspo": 263598,
                "official_name": "Bran\u017cowa Szko\u0142a I Stopnia Specjalna w Specjalnym O\u015brodku Szkolno-Wychowawczym w Stoku Lackim",
                "name": "Bran\u017cowa Szko\u0142a I Stopnia Specjalna w Specjalnym O\u015brodku Szkolno-Wychowawczym w Stoku Lackim",
                "addr:country": "PL",
                "addr:postcode": "08-110",
                "addr:city": "Stok Lacki",
                "addr:street": "ul. Pa\u0142acowa",
                "addr:housenumber": "1",
                "addr:teryt:simc": 15590,
                "addr:teryt:sym_ul": 686813,
                "contact:phone": "+48 256315901",
                "contact:email": "soswst@poczta.onet.pl",
                "contact:website": "http:\/\/www.soswstoklacki.pl",
                "ref:regon": "712537252",
                "operator": "Powiat Siedlecki",
                "operator:type": "government",
                "amenity": "school",
                "note": "Parent RSPO: 66464"
            }
        },
        {
            "id": 273094,
            "type": "Feature",
            "geometry": {
                "type": "Point",
                "coordinates": [
                    22.41886,
                    52.16155
                ]
            },
            "properties": {
                "ref:rspo": 273094,
                "official_name": "Niepubliczne Przedszkole Bajkowa Wyspa",
                "name": "Niepubliczne Przedszkole Bajkowa Wyspa",
                "addr:country": "PL",
                "addr:postcode": "08-110",
                "addr:city": "Pruszyn-Pie\u0144ki",
                "addr:street": "ul. Siedlecka",
                "addr:housenumber": "64",
                "addr:teryt:simc": 19769,
                "addr:teryt:sym_ul": 686730,
                "contact:email": "bajkowa_wyspa@wp.pl",
                "contact:website": "http:\/\/bajkowawyspa.com",
                "ref:regon": "384375343",
                "operator": "Bajkowa Wyspa Sp\u00f3\u0142ka Z Ograniczon\u0105 Odpowiedzialno\u015bci\u0105",
                "operator:type": "private",
                "amenity": "kindergarten"
            }
        },
        {
            "id": 6626,
            "type": "Feature",
            "geometry": {
                "type": "Point",
                "coordinates": [
                    22.35006,
                    52.16156
                ]
            },
            "properties": {
                "ref:rspo": 6626,
                "official_name": "Zesp\u00f3\u0142 O\u015bwiatowy im. Jana Paw\u0142a II w Stoku Lackim",
                "name": "Zesp\u00f3\u0142 O\u015bwiatowy",
                "addr:country": "PL",
                "addr:postcode": "08-110",
                "addr:city": "Stok Lacki",
                "addr:street": "ul. Siedlecka",
                "addr:housenumber": "135",
                "addr:teryt:simc": 19769,
                "addr:teryt:sym_ul": 686813,
                "contact:phone": "+48 256330855",
                "contact:email": "zo_stoklacki1@poczta.onet.pl",
                "contact:website": "http:\/\/stok.gminasiedlce.pl",
                "ref:regon": "712486684",
                "ref:vatin": "PL8212298379",
                "operator": "Gmina Siedlce",
                "operator:type": "government",
                "landuse": "education",
                "fixme": "amenity=school, amenity=college albo landuse=education w zale\u017cno\u015bci od tego, jakie plac\u00f3wki wchodz\u0105 w sk\u0142ad zespo\u0142u. Sprawd\u017a, kiedy stosowa\u0107 amenity=* a kiedy landuse=education.",
                "note": "Children RSPO: 16265;114888"
            }
        },
        {
            "id": 16265,
            "type": "Feature",
            "geometry": {
                "type": "Point",
                "coordinates": [
                    22.35006,
                    52.16153
                ]
            },
            "properties": {
                "isced:level": "1;2",
                "ref:rspo": 16265,
                "official_name": "Zesp\u00f3\u0142 O\u015bwiatowy im. Jana Paw\u0142a II w Stoku Lackim Szko\u0142a Podstawowa",
                "name": "Zesp\u00f3\u0142 O\u015bwiatowy",
                "addr:country": "PL",
                "addr:postcode": "08-110",
                "addr:city": "Stok Lacki",
                "addr:street": "ul. Siedlecka",
                "addr:housenumber": "135",
                "addr:teryt:simc": 19769,
                "addr:teryt:sym_ul": 686813,
                "contact:phone": "+48 256330855",
                "contact:email": "stok@gminasiedlce.pl",
                "contact:website": "http:\/\/stok.gminasiedlce.pl",
                "ref:regon": "000237512",
                "operator": "Gmina Siedlce",
                "operator:type": "government",
                "amenity": "school",
                "note": "Parent RSPO: 6626"
            }
        },
        {
            "id": 114888,
            "type": "Feature",
            "geometry": {
                "type": "Point",
                "coordinates": [
                    22.35006,
                    52.161500000000004
                ]
            },
            "properties": {
                "ref:rspo": 114888,
                "official_name": "Zesp\u00f3\u0142 O\u015bwiatowy im. Jana Paw\u0142a II w Stoku Lackim Publiczne Przedszkole",
                "name": "Zesp\u00f3\u0142 O\u015bwiatowy",
                "addr:country": "PL",
                "addr:postcode": "08-110",
                "addr:city": "Stok Lacki",
                "addr:street": "ul. Siedlecka",
                "addr:housenumber": "135",
                "addr:teryt:simc": 19769,
                "addr:teryt:sym_ul": 686813,
                "contact:phone": "+48 256330855",
                "contact:email": "stok@gminasiedlce.pl",
                "contact:website": "http:\/\/www.stok.gminasiedlce.pl",
                "ref:regon": "146709449",
                "operator": "Gmina Siedlce",
                "operator:type": "government",
                "amenity": "kindergarten",
                "note": "Parent RSPO: 6626"
            }
        },
        {
            "id": 271401,
            "type": "Feature",
            "geometry": {
                "type": "Point",
                "coordinates": [
                    22.19685,
                    52.17484
                ]
            },
            "properties": {
                "ref:rspo": 271401,
                "official_name": "Zesp\u00f3\u0142 O\u015bwiatowy w Golicach",
                "name": "Zesp\u00f3\u0142 O\u015bwiatowy w Golicach",
                "addr:country": "PL",
                "addr:postcode": "08-110",
                "addr:city": "Golice",
                "addr:street": "ul. Szkolna",
                "addr:housenumber": "2",
                "addr:teryt:simc": 21970,
                "addr:teryt:sym_ul": 686612,
                "contact:phone": "+48 256339410",
                "contact:email": "golice@gminasiedlce.pl",
                "ref:regon": "383318870",
                "ref:vatin": "PL8212664766",
                "operator": "Gmina Siedlce",
                "operator:type": "government",
                "landuse": "education",
                "fixme": "amenity=school, amenity=college albo landuse=education w zale\u017cno\u015bci od tego, jakie plac\u00f3wki wchodz\u0105 w sk\u0142ad zespo\u0142u. Sprawd\u017a, kiedy stosowa\u0107 amenity=* a kiedy landuse=education.",
                "note": "Children RSPO: 6539;271413"
            }
        },
        {
            "id": 6539,
            "type": "Feature",
            "geometry": {
                "type": "Point",
                "coordinates": [
                    22.19685,
                    52.17481
                ]
            },
            "properties": {
                "isced:level": "1;2",
                "ref:rspo": 6539,
                "official_name": "Szko\u0142a Podstawowa im. Marii Konopnickiej w Golicach",
                "name": "Szko\u0142a Podstawowa",
                "addr:country": "PL",
                "addr:postcode": "08-110",
                "addr:city": "Golice",
                "addr:street": "ul. Szkolna",
                "addr:housenumber": "2",
                "addr:teryt:simc": 21970,
                "addr:teryt:sym_ul": 686612,
                "contact:phone": "+48 256339410",
                "contact:email": "szkolagolice@poczta.onet.pl",
                "contact:website": "http:\/\/golice.gminasiedlce.pl",
                "ref:regon": "710013020",
                "ref:vatin": "PL8212298391",
                "operator": "Gmina Siedlce",
                "operator:type": "government",
                "amenity": "school",
                "note": "Parent RSPO: 271401"
            }
        },
        {
            "id": 271413,
            "type": "Feature",
            "geometry": {
                "type": "Point",
                "coordinates": [
                    22.19685,
                    52.174780000000005
                ]
            },
            "properties": {
                "ref:rspo": 271413,
                "official_name": "Publiczne Przedszkole w Golicach",
                "name": "Publiczne Przedszkole w Golicach",
                "addr:country": "PL",
                "addr:postcode": "08-110",
                "addr:city": "Golice",
                "addr:street": "ul. Szkolna",
                "addr:housenumber": "2",
                "addr:teryt:simc": 21970,
                "addr:teryt:sym_ul": 686612,
                "contact:phone": "+48 256339410",
                "contact:email": "szkolagolice@poczta.onet.pl",
                "ref:regon": "383322209",
                "operator": "Gmina Siedlce",
                "operator:type": "government",
                "amenity": "kindergarten",
                "note": "Parent RSPO: 271401"
            }
        },
        {
            "id": 5506,
            "type": "Feature",
            "geometry": {
                "type": "Point",
                "coordinates": [
                    22.1955,
                    52.1761
                ]
            },
            "properties": {
                "ref:rspo": 5506,
                "official_name": "Zesp\u00f3\u0142 O\u015bwiatowy w Nowych Iganiach",
                "name": "Zesp\u00f3\u0142 O\u015bwiatowy w Nowych Iganiach",
                "addr:country": "PL",
                "addr:postcode": "08-103",
                "addr:city": "Nowe Iganie",
                "addr:street": "ul. Siedlecka",
                "addr:housenumber": "113",
                "addr:teryt:simc": 19769,
                "addr:teryt:sym_ul": 686670,
                "contact:phone": "+48 256323395",
                "contact:email": "zespoliganie@wp.pl",
                "contact:website": "http:\/\/iganie.gminasiedlce.pl",
                "ref:regon": "712486750",
                "ref:vatin": "PL8212298362",
                "operator": "Gmina Siedlce",
                "operator:type": "government",
                "landuse": "education",
                "fixme": "amenity=school, amenity=college albo landuse=education w zale\u017cno\u015bci od tego, jakie plac\u00f3wki wchodz\u0105 w sk\u0142ad zespo\u0142u. Sprawd\u017a, kiedy stosowa\u0107 amenity=* a kiedy landuse=education.",
                "note": "Children RSPO: 6583;114889"
            }
        },
        {
            "id": 6583,
            "type": "Feature",
            "geometry": {
                "type": "Point",
                "coordinates": [
                    22.1955,
                    52.176069999999996
                ]
            },
            "properties": {
                "isced:level": "1;2",
                "ref:rspo": 6583,
                "official_name": "Zesp\u00f3\u0142 O\u015bwiatowy w Nowych Iganiach Szko\u0142a Podstawowa im. Gen. Ignacego Pr\u0105dzy\u0144skiego",
                "name": "Zesp\u00f3\u0142 O\u015bwiatowy w Nowych Iganiach Szko\u0142a Podstawowa",
                "addr:country": "PL",
                "addr:postcode": "08-103",
                "addr:city": "Nowe Iganie",
                "addr:street": "ul. Siedlecka",
                "addr:housenumber": "113",
                "addr:teryt:simc": 19769,
                "addr:teryt:sym_ul": 686670,
                "contact:phone": "+48 256323395",
                "contact:email": "iganie@gminasiedlce.pl",
                "contact:website": "http:\/\/iganie.gminasiedlce.pl",
                "ref:regon": "001127889",
                "ref:vatin": "PL8212298362",
                "operator": "Gmina Siedlce",
                "operator:type": "government",
                "amenity": "school",
                "note": "Parent RSPO: 5506"
            }
        },
        {
            "id": 114889,
            "type": "Feature",
            "geometry": {
                "type": "Point",
                "coordinates": [
                    22.1955,
                    52.17604
                ]
            },
            "properties": {
                "ref:rspo": 114889,
                "official_name": "Zesp\u00f3\u0142 O\u015bwiatowy w Nowych Iganiach Publiczne Przedszkole",
                "name": "Zesp\u00f3\u0142 O\u015bwiatowy w Nowych Iganiach Publiczne Przedszkole",
                "addr:country": "PL",
                "addr:postcode": "08-103",
                "addr:city": "Nowe Iganie",
                "addr:street": "ul. Siedlecka",
                "addr:housenumber": "113",
                "addr:teryt:simc": 19769,
                "addr:teryt:sym_ul": 686670,
                "contact:phone": "+48 256323395",
                "contact:email": "iganie@gminasiedlce.pl",
                "contact:website": "http:\/\/www.iganie.gminasiedlce.pl",
                "ref:regon": "146709521",
                "operator": "Gmina Siedlce",
                "operator:type": "government",
                "amenity": "kindergarten",
                "note": "Parent RSPO: 5506"
            }
        },
        {
            "id": 271292,
            "type": "Feature",
            "geometry": {
                "type": "Point",
                "coordinates": [
                    22.411199569702,
                    52.188709259033
                ]
            },
            "properties": {
                "ref:rspo": 271292,
                "official_name": "Zesp\u00f3\u0142 O\u015bwiatowy w Pruszynie",
                "name": "Zesp\u00f3\u0142 O\u015bwiatowy w Pruszynie",
                "addr:country": "PL",
                "addr:postcode": "08-110",
                "addr:city": "Pruszyn",
                "addr:street": "ul. Dolina Liwca",
                "addr:housenumber": "46",
                "addr:teryt:simc": 45789,
                "addr:teryt:sym_ul": 686724,
                "contact:phone": "+48 256313627",
                "contact:email": "zopruszyn@poczta.fm",
                "ref:regon": "383266190",
                "operator": "Gmina Siedlce",
                "operator:type": "government",
                "landuse": "education",
                "fixme": "amenity=school, amenity=college albo landuse=education w zale\u017cno\u015bci od tego, jakie plac\u00f3wki wchodz\u0105 w sk\u0142ad zespo\u0142u. Sprawd\u017a, kiedy stosowa\u0107 amenity=* a kiedy landuse=education.",
                "note": "Children RSPO: 6360;271288"
            }
        },
        {
            "id": 6360,
            "type": "Feature",
            "geometry": {
                "type": "Point",
                "coordinates": [
                    22.411199569702,
                    52.188679259032995
                ]
            },
            "properties": {
                "isced:level": "1;2",
                "ref:rspo": 6360,
                "official_name": "Szko\u0142a Podstawowa im. Plk Leopolda Lisa-Kuli w Pruszynie",
                "name": "Szko\u0142a Podstawowa",
                "addr:country": "PL",
                "addr:postcode": "08-110",
                "addr:city": "Pruszyn",
                "addr:street": "ul. Dolina Liwca",
                "addr:housenumber": "46",
                "addr:teryt:simc": 45789,
                "addr:teryt:sym_ul": 686724,
                "contact:phone": "+48 256313627",
                "contact:email": "pruszyn@gminasiedlce.pl",
                "contact:website": "http:\/\/pruszyn.gminasiedlce.pl",
                "ref:regon": "001127895",
                "ref:vatin": "PL8212298385",
                "operator": "Gmina Siedlce",
                "operator:type": "government",
                "amenity": "school",
                "note": "Parent RSPO: 271292"
            }
        },
        {
            "id": 271288,
            "type": "Feature",
            "geometry": {
                "type": "Point",
                "coordinates": [
                    22.40804,
                    52.1896
                ]
            },
            "properties": {
                "ref:rspo": 271288,
                "official_name": "Publiczne Przedszkole w Pruszynie",
                "name": "Publiczne Przedszkole w Pruszynie",
                "addr:country": "PL",
                "addr:postcode": "08-110",
                "addr:city": "Pruszyn",
                "addr:street": "ul. Szpalery",
                "addr:housenumber": "1",
                "addr:teryt:simc": 45790,
                "addr:teryt:sym_ul": 686724,
                "contact:phone": "+48 256313627",
                "contact:email": "zopruszyn@poczta.fm",
                "ref:regon": "383264601",
                "operator": "Gmina Siedlce",
                "operator:type": "government",
                "amenity": "kindergarten",
                "note": "Parent RSPO: 271292"
            }
        },
        {
            "id": 6301,
            "type": "Feature",
            "geometry": {
                "type": "Point",
                "coordinates": [
                    22.2345599,
                    52.2142
                ]
            },
            "properties": {
                "ref:rspo": 6301,
                "official_name": "Zesp\u00f3\u0142 O\u015bwiatowo-Wychowawczy w Strzale",
                "name": "Zesp\u00f3\u0142 O\u015bwiatowo-Wychowawczy w Strzale",
                "addr:country": "PL",
                "addr:postcode": "08-110",
                "addr:city": "Chod\u00f3w",
                "addr:street": "ul. Soko\u0142owska",
                "addr:housenumber": "1",
                "addr:teryt:simc": 20500,
                "addr:teryt:sym_ul": 686606,
                "contact:phone": "+48 256325171",
                "contact:email": "strzala@gminasiedlce.pl",
                "contact:website": "http:\/\/strzala.gminasiedlce.pl",
                "ref:regon": "711673438",
                "ref:vatin": "PL8212183179",
                "operator": "Gmina Siedlce",
                "operator:type": "government",
                "landuse": "education",
                "fixme": "amenity=school, amenity=college albo landuse=education w zale\u017cno\u015bci od tego, jakie plac\u00f3wki wchodz\u0105 w sk\u0142ad zespo\u0142u. Sprawd\u017a, kiedy stosowa\u0107 amenity=* a kiedy landuse=education.",
                "note": "Children RSPO: 10046;10048"
            }
        },
        {
            "id": 10046,
            "type": "Feature",
            "geometry": {
                "type": "Point",
                "coordinates": [
                    22.2345599,
                    52.214169999999996
                ]
            },
            "properties": {
                "isced:level": "1;2",
                "ref:rspo": 10046,
                "official_name": "Zesp\u00f3\u0142 O\u015bwiatowo-Wychowawczy w Strzale Szko\u0142a Podstawowa im. Ireny Kosmowskiej",
                "name": "Zesp\u00f3\u0142 O\u015bwiatowo-Wychowawczy w Strzale Szko\u0142a Podstawowa",
                "addr:country": "PL",
                "addr:postcode": "08-110",
                "addr:city": "Chod\u00f3w",
                "addr:street": "ul. Soko\u0142owska",
                "addr:housenumber": "1",
                "addr:teryt:simc": 20500,
                "addr:teryt:sym_ul": 686606,
                "contact:phone": "+48 256325171",
                "contact:email": "strzala@gminasiedlce.pl",
                "contact:website": "http:\/\/strzala.gminasiedlce.pl",
                "ref:regon": "001127903",
                "ref:vatin": "PL8212183179",
                "operator": "Gmina Siedlce",
                "operator:type": "government",
                "amenity": "school",
                "note": "Parent RSPO: 6301"
            }
        },
        {
            "id": 10048,
            "type": "Feature",
            "geometry": {
                "type": "Point",
                "coordinates": [
                    22.2345599,
                    52.21414
                ]
            },
            "properties": {
                "ref:rspo": 10048,
                "official_name": "Zesp\u00f3\u0142 O\u015bwiatowo-Wychowawczy w Strzale Publiczne Przedszkole",
                "name": "Zesp\u00f3\u0142 O\u015bwiatowo-Wychowawczy w Strzale Publiczne Przedszkole",
                "addr:country": "PL",
                "addr:postcode": "08-110",
                "addr:city": "Chod\u00f3w",
                "addr:street": "ul. Soko\u0142owska",
                "addr:housenumber": "1",
                "addr:teryt:simc": 20500,
                "addr:teryt:sym_ul": 686606,
                "contact:phone": "+48 256325171",
                "contact:email": "strzala@gminasiedlce.pl",
                "contact:website": "http:\/\/strzala.gminasiedlce.pl",
                "ref:regon": "710005255",
                "ref:vatin": "PL8212183179",
                "operator": "Gmina Siedlce",
                "operator:type": "government",
                "amenity": "kindergarten",
                "note": "Parent RSPO: 6301"
            }
        }
    ]
}