{
    "type": "FeatureCollection",
    "features": [
        {
            "id": 105826,
            "type": "Feature",
            "geometry": {
                "type": "Point",
                "coordinates": [
                    18.9425199,
                    53.60631
                ]
            },
            "properties": {
                "ref:rspo": 105826,
                "official_name": "Przedszkole w Gardei",
                "name": "Przedszkole w Gardei",
                "addr:postcode": "82-520",
                "addr:city": "Gardeja",
                "addr:street": "M\u0142y\u0144ska",
                "addr:housenumber": "4",
                "addr:teryt:simc": 149883,
                "addr:teryt:sym_ul": 13132,
                "phone": "+48 552751479",
                "email": "przedszkole@gardeja.pl",
                "ref:regon": "000985668",
                "ref:vatin": "PL5811763734",
                "operator": "Gmina Gardeja",
                "operator:type": "government",
                "amenity": "kindergarten"
            }
        },
        {
            "id": 105824,
            "type": "Feature",
            "geometry": {
                "type": "Point",
                "coordinates": [
                    18.9464599,
                    53.6107187
                ]
            },
            "properties": {
                "isced:level": "1;2",
                "ref:rspo": 105824,
                "official_name": "Szko\u0142a Podstawowa w Ot\u0142owcu",
                "name": "Szko\u0142a Podstawowa w Ot\u0142owcu",
                "addr:postcode": "82-520",
                "addr:place": "Ot\u0142owiec",
                "addr:housenumber": "26",
                "addr:teryt:simc": 150060,
                "phone": "+48 552751426",
                "email": "sp.otlowiec@wp.pl",
                "ref:regon": "170185996",
                "ref:vatin": "PL5811756898",
                "operator": "Gmina Gardeja",
                "operator:type": "government",
                "amenity": "school"
            }
        },
        {
            "id": 89859,
            "type": "Feature",
            "geometry": {
                "type": "Point",
                "coordinates": [
                    18.94794,
                    53.61294
                ]
            },
            "properties": {
                "isced:level": "1;2",
                "ref:rspo": 89859,
                "official_name": "Szko\u0142a Podstawowa im. Obro\u0144c\u00f3w Westerplatte w Gardei",
                "name": "Szko\u0142a Podstawowa",
                "addr:postcode": "82-520",
                "addr:city": "Gardeja",
                "addr:street": "Sportowa",
                "addr:housenumber": "1",
                "addr:teryt:simc": 149883,
                "addr:teryt:sym_ul": 20683,
                "phone": "+48 552751477",
                "email": "zsgardeja1@o2.pl",
                "website": "https:\/\/spgardeja.edupage.org\/",
                "ref:regon": "000266086",
                "ref:vatin": "PL5811759678",
                "operator": "Gmina Gardeja",
                "operator:type": "government",
                "amenity": "school"
            }
        },
        {
            "id": 105820,
            "type": "Feature",
            "geometry": {
                "type": "Point",
                "coordinates": [
                    19.0665723,
                    53.6156518
                ]
            },
            "properties": {
                "isced:level": "1;2",
                "ref:rspo": 105820,
                "official_name": "Szko\u0142a Podstawowa im. Papie\u017ca Jana Paw\u0142a II w Czarnem Dolnem",
                "name": "Szko\u0142a Podstawowa",
                "addr:postcode": "82-520",
                "addr:city": "Czarne Dolne",
                "addr:street": "Szkolna",
                "addr:housenumber": "7-9",
                "addr:teryt:simc": 149854,
                "addr:teryt:sym_ul": 21970,
                "phone": "+48 552751723",
                "email": "spczarnedolne@wp.pl",
                "website": "http:\/\/spczarnedolne.superszkolna.pl",
                "ref:regon": "001195320",
                "ref:vatin": "PL5811759684",
                "operator": "Gmina Gardeja",
                "operator:type": "government",
                "amenity": "school"
            }
        },
        {
            "id": 105823,
            "type": "Feature",
            "geometry": {
                "type": "Point",
                "coordinates": [
                    19.001012,
                    53.652826
                ]
            },
            "properties": {
                "isced:level": "1;2",
                "ref:rspo": 105823,
                "official_name": "Szko\u0142a Podstawowa im. Jana Brzechwy w Cyganach",
                "name": "Szko\u0142a Podstawowa",
                "addr:postcode": "82-520",
                "addr:place": "Cygany",
                "addr:housenumber": "27",
                "addr:teryt:simc": 149831,
                "phone": "+48 552751982",
                "email": "szkola.cygany@op.pl",
                "website": "http:\/\/spcygany.superszkolna.pl",
                "ref:regon": "170190276",
                "ref:vatin": "PL5811759661",
                "operator": "Gmina Gardeja",
                "operator:type": "government",
                "amenity": "school"
            }
        },
        {
            "id": 105822,
            "type": "Feature",
            "geometry": {
                "type": "Point",
                "coordinates": [
                    19.05601,
                    53.6737139
                ]
            },
            "properties": {
                "isced:level": "1;2",
                "ref:rspo": 105822,
                "official_name": "Szko\u0142a Podstawowa im. Mjr Henryka Dobrza\u0144skiego w Wandowie",
                "name": "Szko\u0142a Podstawowa",
                "addr:postcode": "82-520",
                "addr:place": "Wandowo",
                "addr:housenumber": "60",
                "addr:teryt:simc": 150165,
                "phone": "+48 552751978",
                "email": "sp.wandowo@wp.pl",
                "website": "http:\/\/spwandowo.pl\/",
                "ref:regon": "170015225",
                "ref:vatin": "PL5811759715",
                "operator": "Gmina Gardeja",
                "operator:type": "government",
                "amenity": "school"
            }
        },
        {
            "id": 105825,
            "type": "Feature",
            "geometry": {
                "type": "Point",
                "coordinates": [
                    19.170526,
                    53.677664
                ]
            },
            "properties": {
                "isced:level": "1;2",
                "ref:rspo": 105825,
                "official_name": "Szko\u0142a Podstawowa im. Stefana \u017beromskiego w Trumiejach",
                "name": "Szko\u0142a Podstawowa",
                "addr:postcode": "82-520",
                "addr:place": "Trumieje",
                "addr:housenumber": "12",
                "addr:teryt:simc": 150159,
                "phone": "+48 552751760",
                "email": "sptrumieje@wp.pl",
                "ref:regon": "001195336",
                "ref:vatin": "PL5811759690",
                "operator": "Gmina Gardeja",
                "operator:type": "government",
                "amenity": "school"
            }
        },
        {
            "id": 120729,
            "type": "Feature",
            "geometry": {
                "type": "Point",
                "coordinates": [
                    18.974104,
                    53.691649
                ]
            },
            "properties": {
                "ref:rspo": 120729,
                "official_name": "Niepubliczne Przedszkole \"Owocowe Zacisze\"",
                "name": "Niepubliczne Przedszkole \"Owocowe Zacisze\"",
                "addr:postcode": "82-520",
                "addr:place": "B\u0105dki",
                "addr:housenumber": "14",
                "addr:teryt:simc": 149819,
                "phone": "+48 552617754",
                "email": "przedszkoleowocowe@fundacja.kwidzyn.pl",
                "ref:regon": "221981171",
                "operator": "Fundacja Wspierania Spo\u0142eczno\u015bci Lokalnych 'Sapere Aude'",
                "operator:type": "ngo",
                "amenity": "kindergarten"
            }
        }
    ]
}