{
    "type": "FeatureCollection",
    "features": [
        {
            "id": 263336,
            "type": "Feature",
            "geometry": {
                "type": "Point",
                "coordinates": [
                    18.87082,
                    53.66179
                ]
            },
            "properties": {
                "isced:level": "1;2",
                "ref:rspo": 263336,
                "official_name": "Szko\u0142a Podstawowa w Liczu",
                "name": "Szko\u0142a Podstawowa w Liczu",
                "addr:country": "PL",
                "addr:postcode": "82-500",
                "addr:city": "Licze",
                "addr:street": "ul. Lipowa",
                "addr:housenumber": "4",
                "addr:teryt:simc": 11139,
                "addr:teryt:sym_ul": 151199,
                "contact:phone": "+48 552751606",
                "contact:email": "sekretariat@splicze.pl",
                "contact:website": "http:\/\/www.splicze.pl",
                "ref:regon": "368180617",
                "operator": "Gmina Kwidzyn",
                "operator:type": "government",
                "amenity": "school"
            }
        },
        {
            "id": 51437,
            "type": "Feature",
            "geometry": {
                "type": "Point",
                "coordinates": [
                    19.0253,
                    53.72568
                ]
            },
            "properties": {
                "isced:level": "1;2",
                "ref:rspo": 51437,
                "official_name": "Szko\u0142a Podstawowa im. Gen. Augusta Emila Fieldorfa Ps. \"Nil\" w Rakowcu",
                "name": "Szko\u0142a Podstawowa",
                "addr:country": "PL",
                "addr:postcode": "82-500",
                "addr:city": "Rakowiec",
                "addr:street": "ul. Szkolna",
                "addr:housenumber": "2",
                "addr:teryt:simc": 21970,
                "addr:teryt:sym_ul": 151319,
                "contact:phone": "+48 552751627",
                "contact:email": "sekretariat@sprakowiec.pl",
                "ref:regon": "001197915",
                "ref:vatin": "PL5811783843",
                "operator": "Gmina Kwidzyn",
                "operator:type": "government",
                "amenity": "school"
            }
        },
        {
            "id": 129713,
            "type": "Feature",
            "geometry": {
                "type": "Point",
                "coordinates": [
                    19.02355,
                    53.72786
                ]
            },
            "properties": {
                "ref:rspo": 129713,
                "official_name": "Niepubliczne Przedszkole Gama w Rakowcu Magdalena Filbrandt",
                "name": "Niepubliczne Przedszkole Gama w Rakowcu Magdalena Filbrandt",
                "addr:country": "PL",
                "addr:postcode": "82-500",
                "addr:city": "Rakowiec",
                "addr:street": "ul. Polna",
                "addr:housenumber": "2",
                "addr:teryt:simc": 17011,
                "addr:teryt:sym_ul": 151319,
                "contact:phone": "+48 784521257",
                "contact:email": "mafi114@wp.pl",
                "ref:regon": "362787531",
                "operator": "Magdalena Filbrandt",
                "operator:type": "private",
                "amenity": "kindergarten"
            }
        },
        {
            "id": 263342,
            "type": "Feature",
            "geometry": {
                "type": "Point",
                "coordinates": [
                    18.8725889,
                    53.730086
                ]
            },
            "properties": {
                "isced:level": "1;2",
                "ref:rspo": 263342,
                "official_name": "Szko\u0142a Podstawowa w Nowym Dworze",
                "name": "Szko\u0142a Podstawowa w Nowym Dworze",
                "addr:country": "PL",
                "addr:postcode": "82-500",
                "addr:place": "Nowy Dw\u00f3r",
                "addr:housenumber": "13",
                "addr:teryt:sym_ul": 151242,
                "contact:phone": "+48 552793809",
                "contact:email": "gimnazjumnd@poczta.fm",
                "contact:website": "http:\/\/www.spnd.szkolnastrona.pl",
                "ref:regon": "368181924",
                "operator": "Gmina Kwidzyn",
                "operator:type": "government",
                "amenity": "school"
            }
        },
        {
            "id": 51243,
            "type": "Feature",
            "geometry": {
                "type": "Point",
                "coordinates": [
                    18.91744,
                    53.73929
                ]
            },
            "properties": {
                "ref:rspo": 51243,
                "official_name": "Niepubliczne Przedszkole \"S\u0142oneczko\" w Marezie",
                "name": "Niepubliczne Przedszkole \"S\u0142oneczko\" w Marezie",
                "addr:country": "PL",
                "addr:postcode": "82-500",
                "addr:city": "Mareza",
                "addr:street": "ul. D\u0142uga",
                "addr:housenumber": "19",
                "addr:teryt:simc": 3839,
                "addr:teryt:sym_ul": 151236,
                "contact:phone": "+48 552793903",
                "contact:email": "przedszkolemareza@op.pl",
                "ref:regon": "221764462",
                "ref:vatin": "PL5811437147",
                "operator": "Bo\u017cena Majkut",
                "operator:type": "private",
                "amenity": "kindergarten"
            }
        },
        {
            "id": 51239,
            "type": "Feature",
            "geometry": {
                "type": "Point",
                "coordinates": [
                    18.86367,
                    53.75007
                ]
            },
            "properties": {
                "ref:rspo": 51239,
                "official_name": "Przedszkole w Korzeniewie",
                "name": "Przedszkole w Korzeniewie",
                "addr:country": "PL",
                "addr:postcode": "82-500",
                "addr:city": "Korzeniewo",
                "addr:street": "ul. Kwidzy\u0144ska",
                "addr:housenumber": "24",
                "addr:teryt:simc": 10572,
                "addr:teryt:sym_ul": 151182,
                "contact:phone": "+48 552751808",
                "contact:email": "przekorze.hd@poczta.onet.pl",
                "ref:regon": "170005681",
                "ref:vatin": "PL5811783783",
                "operator": "Gmina Kwidzyn",
                "operator:type": "government",
                "amenity": "kindergarten"
            }
        },
        {
            "id": 51436,
            "type": "Feature",
            "geometry": {
                "type": "Point",
                "coordinates": [
                    18.86542,
                    53.75071
                ]
            },
            "properties": {
                "isced:level": "1;2",
                "ref:rspo": 51436,
                "official_name": "Szko\u0142a Podstawowa w Korzeniewie",
                "name": "Szko\u0142a Podstawowa w Korzeniewie",
                "addr:country": "PL",
                "addr:postcode": "82-500",
                "addr:city": "Korzeniewo",
                "addr:street": "ul. Kwidzy\u0144ska",
                "addr:housenumber": "20",
                "addr:teryt:simc": 10572,
                "addr:teryt:sym_ul": 151182,
                "contact:phone": "+48 552751827",
                "contact:email": "sekretariat@spkorzeniewo.pl",
                "contact:website": "http:\/\/www.spkorzeniewo.pl",
                "ref:regon": "001199498",
                "ref:vatin": "PL5811783820",
                "operator": "Gmina Kwidzyn",
                "operator:type": "government",
                "amenity": "school"
            }
        },
        {
            "id": 51801,
            "type": "Feature",
            "geometry": {
                "type": "Point",
                "coordinates": [
                    18.95862,
                    53.7821
                ]
            },
            "properties": {
                "isced:level": "1;2",
                "ref:rspo": 51801,
                "official_name": "Szko\u0142a Podstawowa im. Marii Kotlarz w Tychnowach",
                "name": "Szko\u0142a Podstawowa",
                "addr:country": "PL",
                "addr:postcode": "82-500",
                "addr:city": "Tychnowy",
                "addr:street": "ul. Kwidzy\u0144ska",
                "addr:housenumber": "19",
                "addr:teryt:simc": 10572,
                "addr:teryt:sym_ul": 151360,
                "contact:phone": "+48 552751295",
                "contact:email": "sekretariat@sptychnowy.pl",
                "contact:website": "http:\/\/www.sptychnowy.edupage.org",
                "ref:regon": "001199529",
                "ref:vatin": "PL5811783814",
                "operator": "Gmina Kwidzyn",
                "operator:type": "government",
                "amenity": "school"
            }
        },
        {
            "id": 56018,
            "type": "Feature",
            "geometry": {
                "type": "Point",
                "coordinates": [
                    18.9615259,
                    53.7838403
                ]
            },
            "properties": {
                "ref:rspo": 56018,
                "official_name": "O\u015brodek Edukacji Ekologicznej \"Zielona Szko\u0142a\"",
                "name": "O\u015brodek Edukacji Ekologicznej \"Zielona Szko\u0142a\"",
                "addr:country": "PL",
                "addr:postcode": "82-500",
                "addr:place": "Brachlewo",
                "addr:housenumber": "42",
                "addr:teryt:sym_ul": 151058,
                "contact:phone": "+48 552790001",
                "contact:email": "zielonaszkola.brachlewo@gmail.com",
                "ref:regon": "221766107",
                "operator": "Kwidzy\u0144skie Stowarzyszenie O\u015bwiatowe",
                "operator:type": "ngo",
                "fixme": "w zale\u017cno\u015bci od przedmiotu dzia\u0142alno\u015bci (np. amenity=training + training=*, amenity=dancing_school, amenity=language_school, amenity=music_school)"
            }
        },
        {
            "id": 51785,
            "type": "Feature",
            "geometry": {
                "type": "Point",
                "coordinates": [
                    18.8567189,
                    53.818001
                ]
            },
            "properties": {
                "isced:level": "1;2",
                "ref:rspo": 51785,
                "official_name": "Szko\u0142a Podstawowa w Janowie",
                "name": "Szko\u0142a Podstawowa w Janowie",
                "addr:country": "PL",
                "addr:postcode": "82-500",
                "addr:place": "Janowo",
                "addr:housenumber": "42",
                "addr:teryt:sym_ul": 151153,
                "contact:phone": "+48 552757477",
                "contact:email": "spjanowo@poczta.fm",
                "ref:regon": "001199512",
                "ref:vatin": "PL5811783889",
                "operator": "Gmina Kwidzyn",
                "operator:type": "government",
                "amenity": "school"
            }
        }
    ]
}