{"type":"FeatureCollection","features":[{"id":26007,"type":"Feature","geometry":{"type":"Point","coordinates":[19.1697076,53.671991]},"properties":{"isced:level":"1;2","ref:rspo":26007,"official_name":"Szko\u0142a Podstawowa Trumiejki","name":"Szko\u0142a Podstawowa Trumiejki","addr:country":"PL","addr:postcode":"82-550","addr:place":"Trumiejki","addr:housenumber":"42","addr:door":"42","addr:teryt:sym_ul":155903,"contact:phone":"+48 552782068","contact:email":"zstrumiejki@wp.pl","ref:regon":"001144149","ref:vatin":"PL5811762048","operator":"Miasto I Gmina Prabuty","operator:type":"government","amenity":"school"}},{"id":26004,"type":"Feature","geometry":{"type":"Point","coordinates":[19.20724,53.75207]},"properties":{"isced:level":"1;2","ref:rspo":26004,"official_name":"Szko\u0142a Podstawowa Nr 2 Prabuty","name":"Szko\u0142a Podstawowa Nr 2 Prabuty","addr:country":"PL","addr:postcode":"82-550","addr:city":"Prabuty","addr:street":"ul. Obro\u0144c\u00f3w Westerplatte","addr:housenumber":"11","addr:teryt:simc":14655,"addr:teryt:sym_ul":932962,"contact:phone":"+48 552782135","contact:email":"sekretariat@sp2prabuty.pl","contact:website":"http:\/\/www.sp2prabuty.pl","ref:regon":"001144178","ref:vatin":"PL5811761988","operator":"Miasto I Gmina Prabuty","operator:type":"government","amenity":"school"}},{"id":127425,"type":"Feature","geometry":{"type":"Point","coordinates":[19.20074,53.75556]},"properties":{"ref:rspo":127425,"official_name":"O\u015brodek Rehabilitacyjno - Edukacyjno - Wychowawczy w Prabutach","name":"O\u015brodek Rehabilitacyjno - Edukacyjno - Wychowawczy w Prabutach","addr:country":"PL","addr:postcode":"82-550","addr:city":"Prabuty","addr:street":"ul. Grunwaldzka","addr:housenumber":"4","addr:teryt:simc":6260,"addr:teryt:sym_ul":932962,"contact:phone":"+48 552613405","contact:email":"orewprabuty@fundacja.kwidzyn.pl","ref:regon":"361573704","operator":"Fundacja Wspierania Spo\u0142eczno\u015bci Lokalnych 'Sapere Aude'","operator:type":"ngo","amenity":"school"}},{"id":56085,"type":"Feature","geometry":{"type":"Point","coordinates":[19.1991,53.75576]},"properties":{"ref:rspo":56085,"official_name":"Zesp\u00f3\u0142 Szk\u00f3\u0142 w Prabutach","name":"Zesp\u00f3\u0142 Szk\u00f3\u0142 w Prabutach","addr:country":"PL","addr:postcode":"82-550","addr:city":"Prabuty","addr:street":"ul. Szkolna","addr:housenumber":"4","addr:teryt:simc":21970,"addr:teryt:sym_ul":932962,"contact:phone":"+48 552782040","contact:email":"dyrektor.zspp@zspprabuty.pl","contact:website":"http:\/\/www.zspprabuty.pl","ref:regon":"000193217","ref:vatin":"PL5811162360","operator":"Powiat Kwidzy\u0144ski","operator:type":"government","landuse":"education","fixme":"amenity=school, amenity=college albo landuse=education w zale\u017cno\u015bci od tego, jakie plac\u00f3wki wchodz\u0105 w sk\u0142ad zespo\u0142u. Sprawd\u017a, kiedy stosowa\u0107 amenity=* a kiedy landuse=education.","note":"Children RSPO: 71840;71877;71904;276170"}},{"id":71840,"type":"Feature","geometry":{"type":"Point","coordinates":[19.1991,53.75573]},"properties":{"isced:level":"3","ref:rspo":71840,"official_name":"Liceum Og\u00f3lnokszta\u0142c\u0105ce dla Doros\u0142ych w Prabutach Zesp\u00f3\u0142 Szk\u00f3\u0142 w Prabutach","name":"Liceum Og\u00f3lnokszta\u0142c\u0105ce dla Doros\u0142ych w Prabutach Zesp\u00f3\u0142 Szk\u00f3\u0142 w Prabutach","addr:country":"PL","addr:postcode":"82-550","addr:city":"Prabuty","addr:street":"ul. Szkolna","addr:housenumber":"4","addr:teryt:simc":21970,"addr:teryt:sym_ul":932962,"contact:phone":"+48 552782040","contact:email":"dyrektor.zspp@zspprabuty.pl","ref:regon":"192817108","ref:vatin":"PL5811162360","operator":"Powiat Kwidzy\u0144ski","operator:type":"government","amenity":"school","note":"Parent RSPO: 56085"}},{"id":71877,"type":"Feature","geometry":{"type":"Point","coordinates":[19.1991,53.755700000000004]},"properties":{"isced:level":"3","ref:rspo":71877,"official_name":"Technikum w Prabutach Zesp\u00f3\u0142 Szk\u00f3\u0142 w Prabutach","name":"Technikum w Prabutach Zesp\u00f3\u0142 Szk\u00f3\u0142 w Prabutach","addr:country":"PL","addr:postcode":"82-550","addr:city":"Prabuty","addr:street":"ul. Szkolna","addr:housenumber":"4","addr:teryt:simc":21970,"addr:teryt:sym_ul":932962,"contact:phone":"+48 552782040","contact:email":"zspp@zspprabuty.pl","contact:website":"http:\/\/www.zspprabuty.pl","ref:regon":"192817137","ref:vatin":"PL5811162360","operator":"Powiat Kwidzy\u0144ski","operator:type":"government","amenity":"school","note":"Parent RSPO: 56085"}},{"id":71904,"type":"Feature","geometry":{"type":"Point","coordinates":[19.1991,53.75567]},"properties":{"isced:level":"3","ref:rspo":71904,"official_name":"Bran\u017cowa Szko\u0142a I Stopnia w Prabutach Zesp\u00f3\u0142 Szk\u00f3\u0142 w Prabutach","name":"Bran\u017cowa Szko\u0142a I Stopnia w Prabutach Zesp\u00f3\u0142 Szk\u00f3\u0142 w Prabutach","addr:country":"PL","addr:postcode":"82-550","addr:city":"Prabuty","addr:street":"ul. Szkolna","addr:housenumber":"4","addr:teryt:simc":21970,"addr:teryt:sym_ul":932962,"contact:phone":"+48 552782040","contact:email":"zspp@zspprabuty.pl","contact:website":"http:\/\/www.zspprabuty.pl","ref:regon":"192817150","ref:vatin":"PL5811162360","operator":"Powiat Kwidzy\u0144ski","operator:type":"government","amenity":"school","note":"Parent RSPO: 56085"}},{"id":276170,"type":"Feature","geometry":{"type":"Point","coordinates":[19.1991,53.75564]},"properties":{"isced:level":"3","ref:rspo":276170,"official_name":"Bran\u017cowa Szko\u0142a II Stopnia w Prabutach Zesp\u00f3\u0142 Szk\u00f3\u0142 w Prabutach","name":"Bran\u017cowa Szko\u0142a II Stopnia w Prabutach Zesp\u00f3\u0142 Szk\u00f3\u0142 w Prabutach","addr:country":"PL","addr:postcode":"82-550","addr:city":"Prabuty","addr:street":"ul. Szkolna","addr:housenumber":"4","addr:teryt:simc":21970,"addr:teryt:sym_ul":932962,"contact:phone":"+48 552782040","contact:email":"dyrektor.zspp@zspprabuty.pl","ref:regon":"387024437","operator":"Powiat Kwidzy\u0144ski","operator:type":"government","amenity":"school","note":"Parent RSPO: 56085"}},{"id":114552,"type":"Feature","geometry":{"type":"Point","coordinates":[19.19736,53.7564]},"properties":{"ref:rspo":114552,"official_name":"Poradnia Psychologiczno-Pedagogiczna w Kwidzynie Filia w Prabutach","name":"Poradnia Psychologiczno-Pedagogiczna w Kwidzynie Filia w Prabutach","addr:country":"PL","addr:postcode":"82-550","addr:city":"Prabuty","addr:street":"ul. Reymonta","addr:housenumber":"1","addr:teryt:simc":18645,"addr:teryt:sym_ul":932962,"contact:phone":"+48 552782116","contact:email":"prabuty@pppkwidzyn.pl","contact:website":"http:\/\/www.pppkwidzyn.pl","ref:regon":"101167800","operator":"Powiat Kwidzy\u0144ski","operator:type":"government","healthcare":"councelling","counselling_type":"education","fixme":"w zale\u017cno\u015bci od przedmiotu dzia\u0142alno\u015bci (np. healthcare=councelling + counselling_type=education albo healthcare=psychotherapist)","note":"Parent RSPO: 52737"}},{"id":26008,"type":"Feature","geometry":{"type":"Point","coordinates":[19.19713,53.75694]},"properties":{"ref:rspo":26008,"official_name":"Niepubliczne Przedszkole \nBratek-Jedynka\nEl\u017cbieta Zalewska\nPrabuty","name":"Niepubliczne Przedszkole \nBratek-Jedynka\nEl\u017cbieta Zalewska\nPrabuty","addr:country":"PL","addr:postcode":"82-550","addr:city":"Prabuty","addr:street":"ul. Mickiewicza","addr:housenumber":"3","addr:door":"3","addr:teryt:simc":12734,"addr:teryt:sym_ul":932962,"contact:phone":"+48 552782005","contact:email":"prabuty@przedszkole-bratek.pl","contact:website":"http:\/\/www.przedszkole-bratek.pl","ref:regon":"221755888","ref:vatin":"PL5791103927","operator":"Dane Do Uzupe\u0142nienia","operator:type":"private","amenity":"kindergarten"}},{"id":26009,"type":"Feature","geometry":{"type":"Point","coordinates":[19.19688,53.75929]},"properties":{"ref:rspo":26009,"official_name":"Przedszkole Niepubliczne\n\"Mi\u015b Uszatek\"\nBeata Lewandowska\nPrabuty","name":"Przedszkole Niepubliczne\n\"Mi\u015b Uszatek\"\nBeata Lewandowska\nPrabuty","addr:country":"PL","addr:postcode":"82-550","addr:city":"Prabuty","addr:street":"ul. Kopernika","addr:housenumber":"2","addr:door":"2","addr:teryt:simc":9276,"addr:teryt:sym_ul":932962,"contact:phone":"+48 552610452","contact:website":"http:\/\/www.przedszkoleuszatek.pl","ref:regon":"221755894","ref:vatin":"PL5811272321","operator":"Dane Do Uzupe\u0142nienia","operator:type":"private","amenity":"kindergarten"}},{"id":26005,"type":"Feature","geometry":{"type":"Point","coordinates":[19.2610316,53.7786391]},"properties":{"isced:level":"1;2","ref:rspo":26005,"official_name":"Szko\u0142a Podstawowa Obrzynowo","name":"Szko\u0142a Podstawowa Obrzynowo","addr:country":"PL","addr:postcode":"82-550","addr:place":"Obrzynowo","addr:housenumber":"37","addr:door":"37","addr:teryt:sym_ul":155731,"contact:phone":"+48 552782412","contact:email":"spobrzynowo@wp.pl","contact:website":"http:\/\/www.spobrzynowo.edupage.org","ref:regon":"001144132","ref:vatin":"PL5811762054","operator":"Miasto I Gmina Prabuty","operator:type":"government","amenity":"school"}},{"id":26006,"type":"Feature","geometry":{"type":"Point","coordinates":[19.2110369,53.82124]},"properties":{"isced:level":"1;2","ref:rspo":26006,"official_name":"Szko\u0142a Podstawowa Rodowo","name":"Szko\u0142a Podstawowa Rodowo","addr:country":"PL","addr:postcode":"82-550","addr:place":"Rodowo","addr:housenumber":"14","addr:door":"14","addr:teryt:sym_ul":155820,"contact:phone":"+48 552629052","contact:email":"zsrodowo@wp.pl","contact:website":"http:\/\/www.zsrodowo.pl","ref:regon":"001144161","ref:vatin":"PL5811761936","operator":"Miasto I Gmina Prabuty","operator:type":"government","amenity":"school"}}]}