{
    "type": "FeatureCollection",
    "features": [
        {
            "id": 39769,
            "type": "Feature",
            "geometry": {
                "type": "Point",
                "coordinates": [
                    19.32841,
                    49.81261
                ]
            },
            "properties": {
                "ref:rspo": 39769,
                "official_name": "Zesp\u00f3\u0142 Szk\u00f3\u0142 Samorz\u0105dowych w Targanicach",
                "name": "Zesp\u00f3\u0142 Szk\u00f3\u0142 Samorz\u0105dowych w Targanicach",
                "addr:postcode": "34-120",
                "addr:city": "Targanice",
                "addr:street": "Beskidzka",
                "addr:housenumber": "46",
                "addr:city:simc": 45830,
                "addr:street:sym_ul": 1103,
                "phone": "+48 338751224",
                "email": "zsstarganice@andrychow.eu",
                "website": "http:\/\/www.edutarganice.pl",
                "ref:regon": "356540686",
                "ref:vatin": "PL5512311964",
                "operator": "Gmina Andrych\u00f3w",
                "operator:type": "government",
                "landuse": "education",
                "fixme": "amenity=school, amenity=college albo landuse=education w zale\u017cno\u015bci od tego, jakie plac\u00f3wki wchodz\u0105 w sk\u0142ad zespo\u0142u. Sprawd\u017a, kiedy stosowa\u0107 amenity=* a kiedy landuse=education.",
                "note": "Children RSPO: 60021;60022"
            }
        },
        {
            "id": 60022,
            "type": "Feature",
            "geometry": {
                "type": "Point",
                "coordinates": [
                    19.32841,
                    49.81258
                ]
            },
            "properties": {
                "isced:level": "1;2",
                "ref:rspo": 60022,
                "official_name": "Szko\u0142a Podstawowa Imienia Jana Paw\u0142a II w Targanicach",
                "name": "Szko\u0142a Podstawowa Imienia Jana Paw\u0142a II w Targanicach",
                "addr:postcode": "34-120",
                "addr:city": "Targanice",
                "addr:street": "Beskidzka",
                "addr:housenumber": "46",
                "addr:city:simc": 45830,
                "addr:street:sym_ul": 1103,
                "phone": "+48 338751224",
                "email": "zsstarganice@andrychow.eu",
                "website": "http:\/\/www.edutarganice.pl",
                "ref:regon": "070448714",
                "ref:vatin": "PL5511164484",
                "operator": "Gmina Andrych\u00f3w",
                "operator:type": "government",
                "amenity": "school",
                "note": "Parent RSPO: 39769"
            }
        },
        {
            "id": 60021,
            "type": "Feature",
            "geometry": {
                "type": "Point",
                "coordinates": [
                    19.33005,
                    49.81363
                ]
            },
            "properties": {
                "ref:rspo": 60021,
                "official_name": "Przedszkole Publiczne w Targanicach",
                "name": "Przedszkole Publiczne w Targanicach",
                "addr:postcode": "34-120",
                "addr:city": "Targanice",
                "addr:street": "Beskidzka",
                "addr:housenumber": "63",
                "addr:city:simc": 45830,
                "addr:street:sym_ul": 1103,
                "phone": "+48 338751224",
                "email": "zsstarganice@andrychow.eu",
                "website": "http:\/\/www.edutarganice.pl",
                "ref:regon": "071007627",
                "ref:vatin": "PL5511163303",
                "operator": "Gmina Andrych\u00f3w",
                "operator:type": "government",
                "amenity": "kindergarten",
                "note": "Parent RSPO: 39769"
            }
        },
        {
            "id": 40093,
            "type": "Feature",
            "geometry": {
                "type": "Point",
                "coordinates": [
                    19.39111,
                    49.81447
                ]
            },
            "properties": {
                "ref:rspo": 40093,
                "official_name": "Zesp\u00f3\u0142 Szk\u00f3\u0142 Samorz\u0105dowych w Rzykach",
                "name": "Zesp\u00f3\u0142 Szk\u00f3\u0142 Samorz\u0105dowych w Rzykach",
                "addr:postcode": "34-125",
                "addr:city": "Rzyki",
                "addr:street": "Osiedle Szcz\u0119\u015bniaki",
                "addr:housenumber": "1",
                "addr:city:simc": 45333,
                "addr:street:sym_ul": 49771,
                "phone": "+48 338703535",
                "email": "zssrzyki@andrychow.eu",
                "ref:regon": "356541148",
                "ref:vatin": "PL5512036624",
                "operator": "Gmina Andrych\u00f3w",
                "operator:type": "government",
                "landuse": "education",
                "fixme": "amenity=school, amenity=college albo landuse=education w zale\u017cno\u015bci od tego, jakie plac\u00f3wki wchodz\u0105 w sk\u0142ad zespo\u0142u. Sprawd\u017a, kiedy stosowa\u0107 amenity=* a kiedy landuse=education.",
                "note": "Children RSPO: 63251;66281"
            }
        },
        {
            "id": 63251,
            "type": "Feature",
            "geometry": {
                "type": "Point",
                "coordinates": [
                    19.39111,
                    49.81444
                ]
            },
            "properties": {
                "isced:level": "1;2",
                "ref:rspo": 63251,
                "official_name": "Szko\u0142a Podstawowa Imienia Mariana Kowalskiego w Rzykach",
                "name": "Szko\u0142a Podstawowa Imienia Mariana Kowalskiego w Rzykach",
                "addr:postcode": "34-125",
                "addr:city": "Rzyki",
                "addr:street": "Osiedle Szcz\u0119\u015bniaki",
                "addr:housenumber": "1",
                "addr:city:simc": 45333,
                "addr:street:sym_ul": 49771,
                "phone": "+48 338751520",
                "email": "zssrzyki@andrychow.eu",
                "website": "http:\/\/www.zssrzyki.pl",
                "ref:regon": "070448737",
                "operator": "Gmina Andrych\u00f3w",
                "operator:type": "government",
                "amenity": "school",
                "note": "Parent RSPO: 40093"
            }
        },
        {
            "id": 66281,
            "type": "Feature",
            "geometry": {
                "type": "Point",
                "coordinates": [
                    19.39111,
                    49.81441
                ]
            },
            "properties": {
                "ref:rspo": 66281,
                "official_name": "Przedszkole Publiczne w Rzykach",
                "name": "Przedszkole Publiczne w Rzykach",
                "addr:postcode": "34-125",
                "addr:city": "Rzyki",
                "addr:street": "Osiedle Szcz\u0119\u015bniaki",
                "addr:housenumber": "1",
                "addr:city:simc": 45333,
                "addr:street:sym_ul": 49771,
                "phone": "+48 338751520",
                "email": "zssrzyki@andrychow.eu",
                "website": "http:\/\/www.zssrzyki.pl",
                "ref:regon": "071007679",
                "operator": "Gmina Andrych\u00f3w",
                "operator:type": "government",
                "amenity": "kindergarten",
                "note": "Parent RSPO: 40093"
            }
        },
        {
            "id": 42409,
            "type": "Feature",
            "geometry": {
                "type": "Point",
                "coordinates": [
                    19.37041,
                    49.82021
                ]
            },
            "properties": {
                "ref:rspo": 42409,
                "official_name": "Zesp\u00f3\u0142 Szk\u00f3\u0142 Samorz\u0105dowych w Su\u0142kowicach-Bol\u0119cinie",
                "name": "Zesp\u00f3\u0142 Szk\u00f3\u0142 Samorz\u0105dowych w Su\u0142kowicach-Bol\u0119cinie",
                "addr:postcode": "34-125",
                "addr:city": "Su\u0142kowice",
                "addr:street": "Rac\u0142awicka",
                "addr:housenumber": "188",
                "addr:city:simc": 45681,
                "addr:street:sym_ul": 18273,
                "phone": "+48 338753378",
                "email": "zssbolecina@andrychow.eu",
                "ref:regon": "356541214",
                "ref:vatin": "PL5512036630",
                "operator": "Gmina Andrych\u00f3w",
                "operator:type": "government",
                "landuse": "education",
                "fixme": "amenity=school, amenity=college albo landuse=education w zale\u017cno\u015bci od tego, jakie plac\u00f3wki wchodz\u0105 w sk\u0142ad zespo\u0142u. Sprawd\u017a, kiedy stosowa\u0107 amenity=* a kiedy landuse=education.",
                "note": "Children RSPO: 55865;56448"
            }
        },
        {
            "id": 55865,
            "type": "Feature",
            "geometry": {
                "type": "Point",
                "coordinates": [
                    19.37041,
                    49.82018
                ]
            },
            "properties": {
                "ref:rspo": 55865,
                "official_name": "Przedszkole Publiczne w Su\u0142kowicach- Bol\u0119cinie",
                "name": "Przedszkole Publiczne w Su\u0142kowicach- Bol\u0119cinie",
                "addr:postcode": "34-125",
                "addr:city": "Su\u0142kowice",
                "addr:street": "Rac\u0142awicka",
                "addr:housenumber": "188",
                "addr:city:simc": 45681,
                "addr:street:sym_ul": 18273,
                "phone": "+48 338753378",
                "email": "zssbolecina@andrychow.eu",
                "website": "http:\/\/www.szkolabolecina.pl",
                "ref:regon": "071007662",
                "ref:vatin": "PL5511163272",
                "operator": "Gmina Andrych\u00f3w",
                "operator:type": "government",
                "amenity": "kindergarten",
                "note": "Parent RSPO: 42409"
            }
        },
        {
            "id": 56448,
            "type": "Feature",
            "geometry": {
                "type": "Point",
                "coordinates": [
                    19.37041,
                    49.820150000000005
                ]
            },
            "properties": {
                "isced:level": "1;2",
                "ref:rspo": 56448,
                "official_name": "Szko\u0142a Podstawowa Imienia Tadeusza Ko\u015bciuszki w Su\u0142kowicach- Bolecinie",
                "name": "Szko\u0142a Podstawowa Imienia Tadeusza Ko\u015bciuszki w Su\u0142kowicach- Bolecinie",
                "addr:postcode": "34-125",
                "addr:city": "Su\u0142kowice",
                "addr:street": "Rac\u0142awicka",
                "addr:housenumber": "188",
                "addr:city:simc": 45681,
                "addr:street:sym_ul": 18273,
                "phone": "+48 338753378",
                "email": "zssbolecina@andrychow.eu",
                "website": "http:\/\/www.szkolabolecina.pl",
                "ref:regon": "070447956",
                "ref:vatin": "PL5511118515",
                "operator": "Gmina Andrych\u00f3w",
                "operator:type": "government",
                "amenity": "school",
                "note": "Parent RSPO: 42409"
            }
        },
        {
            "id": 42562,
            "type": "Feature",
            "geometry": {
                "type": "Point",
                "coordinates": [
                    19.31905,
                    49.82664
                ]
            },
            "properties": {
                "isced:level": "1;2",
                "ref:rspo": 42562,
                "official_name": "Publiczna Szko\u0142a Podstawowa Stowarzyszenia Przyjaci\u00f3\u0142 Szk\u00f3\u0142 Katolickich w Brzezince im. \u015aw. Antoniego Z Padwy",
                "name": "Publiczna Szko\u0142a Podstawowa Stowarzyszenia Przyjaci\u00f3\u0142 Szk\u00f3\u0142 Katolickich w Brzezince",
                "addr:postcode": "34-120",
                "addr:city": "Brzezinka",
                "addr:street": "S\u0142oneczna",
                "addr:housenumber": "5",
                "addr:city:simc": 45014,
                "addr:street:sym_ul": 20254,
                "phone": "+48 338753731",
                "email": "szkola@brzezinka.spsk.pl",
                "website": "http:\/\/pspbrzezinka.spsk.pl",
                "ref:regon": "122698380",
                "ref:vatin": "PL5512418018",
                "operator": "Stowarzyszenie Przyjaci\u00f3\u0142 Szk\u00f3\u0142 Katolickich",
                "operator:type": "ngo",
                "amenity": "school"
            }
        },
        {
            "id": 42400,
            "type": "Feature",
            "geometry": {
                "type": "Point",
                "coordinates": [
                    19.33869,
                    49.8292
                ]
            },
            "properties": {
                "ref:rspo": 42400,
                "official_name": "Zesp\u00f3\u0142 Szk\u00f3\u0142 Samorz\u0105dowych w Su\u0142kowicach-\u0141\u0119gu",
                "name": "Zesp\u00f3\u0142 Szk\u00f3\u0142 Samorz\u0105dowych w Su\u0142kowicach-\u0141\u0119gu",
                "addr:postcode": "34-120",
                "addr:city": "Su\u0142kowice",
                "addr:street": "Centralna",
                "addr:housenumber": "2",
                "addr:city:simc": 45681,
                "addr:street:sym_ul": 2614,
                "phone": "+48 338752414",
                "email": "sekretariat@leg.edu.pl",
                "ref:regon": "356540670",
                "ref:vatin": "PL5512311970",
                "operator": "Gmina Andrych\u00f3w",
                "operator:type": "government",
                "landuse": "education",
                "fixme": "amenity=school, amenity=college albo landuse=education w zale\u017cno\u015bci od tego, jakie plac\u00f3wki wchodz\u0105 w sk\u0142ad zespo\u0142u. Sprawd\u017a, kiedy stosowa\u0107 amenity=* a kiedy landuse=education.",
                "note": "Children RSPO: 58994;58995"
            }
        },
        {
            "id": 58994,
            "type": "Feature",
            "geometry": {
                "type": "Point",
                "coordinates": [
                    19.33869,
                    49.82917
                ]
            },
            "properties": {
                "ref:rspo": 58994,
                "official_name": "Przedszkole Publiczne w Su\u0142kowicach - \u0141\u0119gu",
                "name": "Przedszkole Publiczne w Su\u0142kowicach - \u0141\u0119gu",
                "addr:postcode": "34-120",
                "addr:city": "Su\u0142kowice",
                "addr:street": "Centralna",
                "addr:housenumber": "2",
                "addr:city:simc": 45681,
                "addr:street:sym_ul": 2614,
                "phone": "+48 338752414",
                "email": "sekretariat@leg.edu.pl",
                "website": "http:\/\/www.leg.edu.pl",
                "ref:regon": "071007685",
                "ref:vatin": "PL5511163131",
                "operator": "Gmina Andrych\u00f3w",
                "operator:type": "government",
                "amenity": "kindergarten",
                "note": "Parent RSPO: 42400"
            }
        },
        {
            "id": 58995,
            "type": "Feature",
            "geometry": {
                "type": "Point",
                "coordinates": [
                    19.33869,
                    49.82914
                ]
            },
            "properties": {
                "isced:level": "1;2",
                "ref:rspo": 58995,
                "official_name": "Szko\u0142a Podstawowa Imienia Komisji Edukacji Narodowej w Su\u0142kowicach- \u0141\u0119gu",
                "name": "Szko\u0142a Podstawowa Imienia Komisji Edukacji Narodowej w Su\u0142kowicach- \u0141\u0119gu",
                "addr:postcode": "34-120",
                "addr:city": "Su\u0142kowice",
                "addr:street": "Centralna",
                "addr:housenumber": "2",
                "addr:city:simc": 45681,
                "addr:street:sym_ul": 2614,
                "phone": "+48 338752414",
                "email": "sekretariat@leg.edu.pl",
                "website": "http:\/\/www.leg.edu.pl",
                "ref:regon": "070447985",
                "ref:vatin": "PL5511118461",
                "operator": "Gmina Andrych\u00f3w",
                "operator:type": "government",
                "amenity": "school",
                "note": "Parent RSPO: 42400"
            }
        },
        {
            "id": 42389,
            "type": "Feature",
            "geometry": {
                "type": "Point",
                "coordinates": [
                    19.3831099,
                    49.83665
                ]
            },
            "properties": {
                "ref:rspo": 42389,
                "official_name": "Zesp\u00f3\u0142 Szk\u00f3\u0142 Samorz\u0105dowych w Zag\u00f3rniku",
                "name": "Zesp\u00f3\u0142 Szk\u00f3\u0142 Samorz\u0105dowych w Zag\u00f3rniku",
                "addr:postcode": "34-120",
                "addr:city": "Zag\u00f3rnik",
                "addr:street": "Szkolna",
                "addr:housenumber": "12",
                "addr:city:simc": 46048,
                "addr:street:sym_ul": 21970,
                "phone": "+48 338752231",
                "email": "zsszagornik@andrychow.eu",
                "ref:regon": "356540663",
                "ref:vatin": "PL5512311958",
                "operator": "Gmina Andrych\u00f3w",
                "operator:type": "government",
                "landuse": "education",
                "fixme": "amenity=school, amenity=college albo landuse=education w zale\u017cno\u015bci od tego, jakie plac\u00f3wki wchodz\u0105 w sk\u0142ad zespo\u0142u. Sprawd\u017a, kiedy stosowa\u0107 amenity=* a kiedy landuse=education.",
                "note": "Children RSPO: 62087;62098"
            }
        },
        {
            "id": 62098,
            "type": "Feature",
            "geometry": {
                "type": "Point",
                "coordinates": [
                    19.3831099,
                    49.836619999999996
                ]
            },
            "properties": {
                "isced:level": "1;2",
                "ref:rspo": 62098,
                "official_name": "Szko\u0142a Podstawowa Imienia Ludwika Zamenhofa w Zag\u00f3rniku",
                "name": "Szko\u0142a Podstawowa Imienia Ludwika Zamenhofa w Zag\u00f3rniku",
                "addr:postcode": "34-120",
                "addr:city": "Zag\u00f3rnik",
                "addr:street": "Szkolna",
                "addr:housenumber": "12",
                "addr:city:simc": 46048,
                "addr:street:sym_ul": 21970,
                "phone": "+48 338752231",
                "email": "zsszagornik@andrychow.eu",
                "ref:regon": "070448743",
                "ref:vatin": "PL5511118478",
                "operator": "Gmina Andrych\u00f3w",
                "operator:type": "government",
                "amenity": "school",
                "note": "Parent RSPO: 42389"
            }
        },
        {
            "id": 62087,
            "type": "Feature",
            "geometry": {
                "type": "Point",
                "coordinates": [
                    19.38279,
                    49.83781
                ]
            },
            "properties": {
                "ref:rspo": 62087,
                "official_name": "Przedszkole Publiczne w Zag\u00f3rniku",
                "name": "Przedszkole Publiczne w Zag\u00f3rniku",
                "addr:postcode": "34-120",
                "addr:city": "Zag\u00f3rnik",
                "addr:street": "Ksi\u0119dza Leszka Solakiewicza",
                "addr:housenumber": "70",
                "addr:city:simc": 46048,
                "addr:street:sym_ul": 30112,
                "phone": "+48 338753878",
                "email": "zsszagornik@andrychow.eu",
                "ref:regon": "071007656",
                "ref:vatin": "PL5511163409",
                "operator": "Gmina Andrych\u00f3w",
                "operator:type": "government",
                "amenity": "kindergarten",
                "note": "Parent RSPO: 42389"
            }
        },
        {
            "id": 42386,
            "type": "Feature",
            "geometry": {
                "type": "Point",
                "coordinates": [
                    19.30897,
                    49.84342
                ]
            },
            "properties": {
                "ref:rspo": 42386,
                "official_name": "Zesp\u00f3\u0142 Szk\u00f3\u0142 Samorz\u0105dowych w Roczynach",
                "name": "Zesp\u00f3\u0142 Szk\u00f3\u0142 Samorz\u0105dowych w Roczynach",
                "addr:postcode": "34-120",
                "addr:city": "Roczyny",
                "addr:street": "Szkolna",
                "addr:housenumber": "10",
                "addr:city:simc": 45221,
                "addr:street:sym_ul": 21970,
                "phone": "+48 338751423",
                "email": "zssroczyny@andrychow.eu",
                "ref:regon": "356541160",
                "ref:vatin": "PL5512311987",
                "operator": "Gmina Andrych\u00f3w",
                "operator:type": "government",
                "landuse": "education",
                "fixme": "amenity=school, amenity=college albo landuse=education w zale\u017cno\u015bci od tego, jakie plac\u00f3wki wchodz\u0105 w sk\u0142ad zespo\u0142u. Sprawd\u017a, kiedy stosowa\u0107 amenity=* a kiedy landuse=education.",
                "note": "Children RSPO: 66112;66129"
            }
        },
        {
            "id": 66112,
            "type": "Feature",
            "geometry": {
                "type": "Point",
                "coordinates": [
                    19.30897,
                    49.84339
                ]
            },
            "properties": {
                "ref:rspo": 66112,
                "official_name": "Przedszkole Publiczne w Roczynach",
                "name": "Przedszkole Publiczne w Roczynach",
                "addr:postcode": "34-120",
                "addr:city": "Roczyny",
                "addr:street": "Szkolna",
                "addr:housenumber": "10",
                "addr:city:simc": 45221,
                "addr:street:sym_ul": 21970,
                "phone": "+48 338751423",
                "email": "zssroczyny@andrychow.eu",
                "website": "http:\/\/www.roczyny.edu.pl",
                "ref:regon": "120535604",
                "operator": "Gmina Andrych\u00f3w",
                "operator:type": "government",
                "amenity": "kindergarten",
                "note": "Parent RSPO: 42386"
            }
        },
        {
            "id": 66129,
            "type": "Feature",
            "geometry": {
                "type": "Point",
                "coordinates": [
                    19.30897,
                    49.843360000000004
                ]
            },
            "properties": {
                "isced:level": "1;2",
                "ref:rspo": 66129,
                "official_name": "Szko\u0142a Podstawowa Imienia Mieszka I w Roczynach",
                "name": "Szko\u0142a Podstawowa Imienia Mieszka I w Roczynach",
                "addr:postcode": "34-120",
                "addr:city": "Roczyny",
                "addr:street": "Szkolna",
                "addr:housenumber": "10",
                "addr:city:simc": 45221,
                "addr:street:sym_ul": 21970,
                "phone": "+48 338751423",
                "email": "sekretariat@roczyny.edu.pl",
                "website": "http:\/\/www.roczyny.edu.pl",
                "ref:regon": "070447962",
                "ref:vatin": "PL5511118490",
                "operator": "Gmina Andrych\u00f3w",
                "operator:type": "government",
                "amenity": "school",
                "note": "Parent RSPO: 42386"
            }
        },
        {
            "id": 56715,
            "type": "Feature",
            "geometry": {
                "type": "Point",
                "coordinates": [
                    19.34456,
                    49.84967
                ]
            },
            "properties": {
                "isced:level": "1;2",
                "ref:rspo": 56715,
                "official_name": "Szko\u0142a Podstawowa Nr 2 Imienia Marii Konopnickiej w Andrychowie",
                "name": "Szko\u0142a Podstawowa Nr 2 Imienia Marii Konopnickiej w Andrychowie",
                "addr:postcode": "34-120",
                "addr:city": "Andrych\u00f3w",
                "addr:street": "Jaros\u0142awa D\u0105browskiego",
                "addr:housenumber": "2",
                "addr:city:simc": 924023,
                "addr:street:sym_ul": 3687,
                "phone": "+48 338752289",
                "email": "sekretariat@sp2andrychow.edu.pl",
                "website": "http:\/\/www.sp2andrychow.pl",
                "ref:regon": "070447867",
                "ref:vatin": "PL5511118550",
                "operator": "Gmina Andrych\u00f3w",
                "operator:type": "government",
                "amenity": "school"
            }
        },
        {
            "id": 40597,
            "type": "Feature",
            "geometry": {
                "type": "Point",
                "coordinates": [
                    19.34436,
                    49.85007
                ]
            },
            "properties": {
                "ref:rspo": 40597,
                "official_name": "Przedszkole Nr 1 w Andrychowie",
                "name": "Przedszkole Nr 1 w Andrychowie",
                "addr:postcode": "34-120",
                "addr:city": "Andrych\u00f3w",
                "addr:street": "Ignacego Daszy\u0144skiego",
                "addr:housenumber": "14",
                "addr:city:simc": 924023,
                "addr:street:sym_ul": 3639,
                "phone": "+48 338752371",
                "email": "przedszkole1@andrychow.eu",
                "ref:regon": "071007567",
                "ref:vatin": "PL5511163496",
                "operator": "Gmina Andrych\u00f3w",
                "operator:type": "government",
                "amenity": "kindergarten"
            }
        },
        {
            "id": 4849,
            "type": "Feature",
            "geometry": {
                "type": "Point",
                "coordinates": [
                    19.34128,
                    49.85269
                ]
            },
            "properties": {
                "ref:rspo": 4849,
                "official_name": "Zesp\u00f3\u0142 Szk\u00f3\u0142 w Andrychowie Zdz w Katowicach",
                "name": "Zesp\u00f3\u0142 Szk\u00f3\u0142 w Andrychowie Zdz w Katowicach",
                "addr:postcode": "34-120",
                "addr:city": "Andrych\u00f3w",
                "addr:street": "Rynek",
                "addr:housenumber": "12",
                "addr:city:simc": 924023,
                "addr:street:sym_ul": 19252,
                "phone": "+48 338752013",
                "email": "s-andrychow@zdz.katowice.pl",
                "website": "http:\/\/www.szkoly.andrychow.zdz.pl",
                "ref:regon": "122648229",
                "operator": "Zak\u0142ad Doskonalenia Zawodowego W Katowicach",
                "operator:type": "ngo",
                "landuse": "education",
                "fixme": "amenity=school, amenity=college albo landuse=education w zale\u017cno\u015bci od tego, jakie plac\u00f3wki wchodz\u0105 w sk\u0142ad zespo\u0142u. Sprawd\u017a, kiedy stosowa\u0107 amenity=* a kiedy landuse=education.",
                "note": "Children RSPO: 18686;18879;267783"
            }
        },
        {
            "id": 53176,
            "type": "Feature",
            "geometry": {
                "type": "Point",
                "coordinates": [
                    19.34128,
                    49.85266
                ]
            },
            "properties": {
                "ref:rspo": 53176,
                "official_name": "Zaklad Doskonalenia Zawodowego w Katowicach O\u015brodek Kszta\u0142cenia Zawodowego w Andrychowie",
                "name": "Zaklad Doskonalenia Zawodowego w Katowicach O\u015brodek Kszta\u0142cenia Zawodowego w Andrychowie",
                "addr:postcode": "34-120",
                "addr:city": "Andrych\u00f3w",
                "addr:street": "Rynek",
                "addr:housenumber": "12",
                "addr:city:simc": 924023,
                "addr:street:sym_ul": 19252,
                "phone": "+48 338753122",
                "ref:regon": "122702727",
                "operator": "Zak\u0142ad Doskonalenia Zawodowego W Katowicach",
                "operator:type": "ngo",
                "fixme": "w zale\u017cno\u015bci od przedmiotu dzia\u0142alno\u015bci (np. amenity=training + training=*, amenity=dancing_school, amenity=language_school, amenity=music_school) albo amenity=school, amenity=college, albo landuse=education w zale\u017cno\u015bci od tego, jakie plac\u00f3wki wchodz\u0105 w sk\u0142ad zespo\u0142u. Sprawd\u017a, kiedy stosowa\u0107 amenity=* a kiedy landuse=education."
            }
        },
        {
            "id": 18686,
            "type": "Feature",
            "geometry": {
                "type": "Point",
                "coordinates": [
                    19.34128,
                    49.852630000000005
                ]
            },
            "properties": {
                "isced:level": "3",
                "ref:rspo": 18686,
                "official_name": "Bran\u017cowa Szko\u0142a I Stopnia w Andrychowie Zak\u0142adu Doskonalenia Zawodowego w Katowicach",
                "name": "Bran\u017cowa Szko\u0142a I Stopnia w Andrychowie Zak\u0142adu Doskonalenia Zawodowego w Katowicach",
                "addr:postcode": "34-120",
                "addr:city": "Andrych\u00f3w",
                "addr:street": "Rynek",
                "addr:housenumber": "12",
                "addr:city:simc": 924023,
                "addr:street:sym_ul": 19252,
                "phone": "+48 338752013",
                "email": "s-andrychow@zdz.katowice.pl",
                "website": "http:\/\/www.szkoly.andrychow.zdz.pl",
                "ref:regon": "122669600",
                "operator": "Zak\u0142ad Doskonalenia Zawodowego W Katowicach",
                "operator:type": "ngo",
                "amenity": "school",
                "note": "Parent RSPO: 4849"
            }
        },
        {
            "id": 18879,
            "type": "Feature",
            "geometry": {
                "type": "Point",
                "coordinates": [
                    19.34128,
                    49.8526
                ]
            },
            "properties": {
                "isced:level": "3",
                "ref:rspo": 18879,
                "official_name": "Niepubliczne Technikum w Andrychowie Zdz w Katowicach",
                "name": "Niepubliczne Technikum w Andrychowie Zdz w Katowicach",
                "addr:postcode": "34-120",
                "addr:city": "Andrych\u00f3w",
                "addr:street": "Rynek",
                "addr:housenumber": "12",
                "addr:city:simc": 924023,
                "addr:street:sym_ul": 19252,
                "phone": "+48 338752013",
                "email": "s-andrychow@zdz.katowice.pl",
                "website": "http:\/\/www.szkoly.andrychow.zdz.pl",
                "ref:regon": "122669680",
                "operator": "Zak\u0142ad Doskonalenia Zawodowego W Katowicach",
                "operator:type": "ngo",
                "amenity": "school",
                "note": "Parent RSPO: 4849"
            }
        },
        {
            "id": 267783,
            "type": "Feature",
            "geometry": {
                "type": "Point",
                "coordinates": [
                    19.34128,
                    49.85257
                ]
            },
            "properties": {
                "isced:level": "3",
                "ref:rspo": 267783,
                "official_name": "Liceum Og\u00f3lnokszta\u0142c\u0105ce w Andrychowie Zak\u0142adu Doskonalenia Zawodowego w Katowicach",
                "name": "Liceum Og\u00f3lnokszta\u0142c\u0105ce w Andrychowie Zak\u0142adu Doskonalenia Zawodowego w Katowicach",
                "addr:postcode": "34-120",
                "addr:city": "Andrych\u00f3w",
                "addr:street": "Rynek",
                "addr:housenumber": "12",
                "addr:city:simc": 924023,
                "addr:street:sym_ul": 19252,
                "phone": "+48 338752013",
                "email": "s-andrychow@zdz.katowice.pl",
                "website": "http:\/\/www.szkoly.andrychow.zdz.pl",
                "ref:regon": "380683964",
                "operator": "Zak\u0142ad Doskonalenia Zawodowego W Katowicach",
                "operator:type": "ngo",
                "amenity": "school",
                "note": "Parent RSPO: 4849"
            }
        },
        {
            "id": 41205,
            "type": "Feature",
            "geometry": {
                "type": "Point",
                "coordinates": [
                    19.34611,
                    49.85276
                ]
            },
            "properties": {
                "ref:rspo": 41205,
                "official_name": "Przedszkole Nr 5 w Andrychowie",
                "name": "Przedszkole Nr 5 w Andrychowie",
                "addr:postcode": "34-120",
                "addr:city": "Andrych\u00f3w",
                "addr:street": "Juliusza S\u0142owackiego",
                "addr:housenumber": "9",
                "addr:city:simc": 924023,
                "addr:street:sym_ul": 20286,
                "phone": "+48 338752454",
                "email": "przedszkole5@andrychow.eu",
                "website": "http:\/\/p5andrychow.pl",
                "ref:regon": "071007596",
                "ref:vatin": "PL5511162999",
                "operator": "Gmina Andrych\u00f3w",
                "operator:type": "government",
                "amenity": "kindergarten"
            }
        },
        {
            "id": 3594,
            "type": "Feature",
            "geometry": {
                "type": "Point",
                "coordinates": [
                    19.340679168701,
                    49.853130340576
                ]
            },
            "properties": {
                "isced:level": "3",
                "ref:rspo": 3594,
                "official_name": "I Liceum Og\u00f3lnokszta\u0142c\u0105ce im. Marii Sk\u0142odowskiej-Curie w Andrychowie",
                "name": "I Liceum Og\u00f3lnokszta\u0142c\u0105ce",
                "addr:postcode": "34-120",
                "addr:city": "Andrych\u00f3w",
                "addr:street": "Ferdynanda Pachla",
                "addr:housenumber": "16",
                "addr:city:simc": 924023,
                "addr:street:sym_ul": 15508,
                "phone": "+48 338752503",
                "email": "sekretariat@liceum-andrychow.edu.pl",
                "website": "http:\/\/liceum-andrychow.edu.pl",
                "ref:regon": "000237587",
                "ref:vatin": "PL5511116195",
                "operator": "Powiat Wadowicki",
                "operator:type": "government",
                "amenity": "school"
            }
        },
        {
            "id": 41429,
            "type": "Feature",
            "geometry": {
                "type": "Point",
                "coordinates": [
                    19.34674,
                    49.8536
                ]
            },
            "properties": {
                "ref:rspo": 41429,
                "official_name": "Niepubliczne Przedszkole \"Ma\u0142y Bystrzak\"",
                "name": "Niepubliczne Przedszkole \"Ma\u0142y Bystrzak\"",
                "addr:postcode": "34-120",
                "addr:city": "Andrych\u00f3w",
                "addr:street": "Juliusza S\u0142owackiego",
                "addr:housenumber": "4e",
                "addr:city:simc": 924023,
                "addr:street:sym_ul": 20286,
                "phone": "+48 606878185",
                "email": "marczynskaew@gmail.com",
                "website": "http:\/\/www.przedszkolebystrzak.pl",
                "ref:regon": "122689406",
                "ref:vatin": "PL5511448744",
                "operator": "Ewa Marczy\u0144ska",
                "operator:type": "private",
                "amenity": "kindergarten"
            }
        },
        {
            "id": 4393,
            "type": "Feature",
            "geometry": {
                "type": "Point",
                "coordinates": [
                    19.35095,
                    49.85673
                ]
            },
            "properties": {
                "ref:rspo": 4393,
                "official_name": "Poradnia Psychologiczno-Pedagogiczna w Andrychowie",
                "name": "Poradnia Psychologiczno-Pedagogiczna w Andrychowie",
                "addr:postcode": "34-120",
                "addr:city": "Andrych\u00f3w",
                "addr:street": "Metalowc\u00f3w",
                "addr:housenumber": "10",
                "addr:city:simc": 924023,
                "addr:street:sym_ul": 12632,
                "phone": "+48 338754402",
                "email": "poradnia@pppandrychow.pl",
                "website": "http:\/\/pppandrychow.pl",
                "ref:regon": "001190698",
                "ref:vatin": "PL5512182171",
                "operator": "Powiat Wadowicki",
                "operator:type": "government",
                "healthcare": "counselling",
                "counselling_type": "education",
                "fixme": "w zale\u017cno\u015bci od przedmiotu dzia\u0142alno\u015bci (np. healthcare=counselling + counselling_type=education albo healthcare=psychotherapist)"
            }
        },
        {
            "id": 53540,
            "type": "Feature",
            "geometry": {
                "type": "Point",
                "coordinates": [
                    19.35095,
                    49.8567
                ]
            },
            "properties": {
                "ref:rspo": 53540,
                "official_name": "Ognisko Pracy Pozaszkolnej w Andrychowie",
                "name": "Ognisko Pracy Pozaszkolnej w Andrychowie",
                "addr:postcode": "34-120",
                "addr:city": "Andrych\u00f3w",
                "addr:street": "Metalowc\u00f3w",
                "addr:housenumber": "10",
                "addr:city:simc": 924023,
                "addr:street:sym_ul": 12632,
                "phone": "+48 334322760",
                "email": "ognisko@andrychow.eu",
                "website": "http:\/\/www.ognisko.andrychow.eu",
                "ref:regon": "357080608",
                "ref:vatin": "PL5512210720",
                "operator": "Gmina Andrych\u00f3w",
                "operator:type": "government",
                "amenity": "community_centre",
                "community_centre:for": "child;juvenile"
            }
        },
        {
            "id": 272370,
            "type": "Feature",
            "geometry": {
                "type": "Point",
                "coordinates": [
                    19.35269,
                    49.857
                ]
            },
            "properties": {
                "ref:rspo": 272370,
                "official_name": "Niepubliczne Przedszkole J\u0119zykowe \"Dzieci \u015awiata\"",
                "name": "Niepubliczne Przedszkole J\u0119zykowe \"Dzieci \u015awiata\"",
                "addr:postcode": "34-120",
                "addr:city": "Andrych\u00f3w",
                "addr:street": "Stanis\u0142awa Lenartowicza",
                "addr:housenumber": "3",
                "addr:city:simc": 924023,
                "addr:street:sym_ul": 10812,
                "phone": "+48 510088069",
                "email": "kontakt@dzieciswiata-andrychow.pl",
                "website": "http:\/\/www.dzieciswiata-andrychow.pl",
                "ref:regon": "384151900",
                "operator": "Agnieszka Talar-Widlarz",
                "operator:type": "private",
                "amenity": "kindergarten"
            }
        },
        {
            "id": 276298,
            "type": "Feature",
            "geometry": {
                "type": "Point",
                "coordinates": [
                    19.32448,
                    49.85714
                ]
            },
            "properties": {
                "ref:rspo": 276298,
                "official_name": "Centrum Szkoleniowe \"Sygnitis\"",
                "name": "Centrum Szkoleniowe \"Sygnitis\"",
                "addr:postcode": "34-120",
                "addr:city": "Andrych\u00f3w",
                "addr:street": "Grunwaldzka",
                "addr:housenumber": "4",
                "addr:city:simc": 924023,
                "addr:street:sym_ul": 6260,
                "email": "biuro@sygnitis.com.pl",
                "ref:regon": "387079272",
                "operator": "Sygnitis Sp\u00f3\u0142ka Z Ograniczon\u0105 Odpowiedzialno\u015bci\u0105",
                "operator:type": "private",
                "fixme": "w zale\u017cno\u015bci od przedmiotu dzia\u0142alno\u015bci (np. amenity=training + training=*, amenity=dancing_school, amenity=language_school, amenity=music_school)"
            }
        },
        {
            "id": 40642,
            "type": "Feature",
            "geometry": {
                "type": "Point",
                "coordinates": [
                    19.3506399,
                    49.85717
                ]
            },
            "properties": {
                "ref:rspo": 40642,
                "official_name": "Przedszkole Nr 2 w Andrychowie",
                "name": "Przedszkole Nr 2 w Andrychowie",
                "addr:postcode": "34-120",
                "addr:city": "Andrych\u00f3w",
                "addr:street": "Metalowc\u00f3w",
                "addr:housenumber": "8",
                "addr:city:simc": 924023,
                "addr:street:sym_ul": 12632,
                "phone": "+48 338752329",
                "email": "przedszkole2@andrychow.eu",
                "website": "http:\/\/www.p2andrychow.pl",
                "ref:regon": "071007573",
                "ref:vatin": "PL5511163527",
                "operator": "Gmina Andrych\u00f3w",
                "operator:type": "government",
                "amenity": "kindergarten"
            }
        },
        {
            "id": 4002,
            "type": "Feature",
            "geometry": {
                "type": "Point",
                "coordinates": [
                    19.33697,
                    49.85759
                ]
            },
            "properties": {
                "ref:rspo": 4002,
                "official_name": "Zesp\u00f3\u0142 Szk\u00f3\u0142 Nr 2 im.\u015bw.jadwigi Kr\u00f3lowej w Andrychowie",
                "name": "Zesp\u00f3\u0142 Szk\u00f3\u0142 Nr 2 im.\u015bw.jadwigi Kr\u00f3lowej w Andrychowie",
                "addr:postcode": "34-120",
                "addr:city": "Andrych\u00f3w",
                "addr:street": "Stefana Batorego",
                "addr:housenumber": "9",
                "addr:city:simc": 924023,
                "addr:street:sym_ul": 891,
                "phone": "+48 338753147",
                "email": "zs2and@interia.pl",
                "website": "http:\/\/www.zs2andrychow.pl",
                "ref:regon": "000580581",
                "ref:vatin": "PL5512181510",
                "operator": "Powiat Wadowicki",
                "operator:type": "government",
                "landuse": "education",
                "fixme": "amenity=school, amenity=college albo landuse=education w zale\u017cno\u015bci od tego, jakie plac\u00f3wki wchodz\u0105 w sk\u0142ad zespo\u0142u. Sprawd\u017a, kiedy stosowa\u0107 amenity=* a kiedy landuse=education.",
                "note": "Children RSPO: 11554;11555;11556;11859"
            }
        },
        {
            "id": 11554,
            "type": "Feature",
            "geometry": {
                "type": "Point",
                "coordinates": [
                    19.33697,
                    49.85756
                ]
            },
            "properties": {
                "isced:level": "3",
                "ref:rspo": 11554,
                "official_name": "Zesp\u00f3\u0142 Szk\u00f3\u0142 Nr 2 w Andrychowie im.\u015bw.jadwigi Kr\u00f3lowej-Bran\u017cowa Szko\u0142a I Stopnia Nr 2 w Andrychowie",
                "name": "Zesp\u00f3\u0142 Szk\u00f3\u0142 Nr 2 w Andrychowie im.\u015bw.jadwigi Kr\u00f3lowej-Bran\u017cowa Szko\u0142a I Stopnia Nr 2 w Andrychowie",
                "addr:postcode": "34-120",
                "addr:city": "Andrych\u00f3w",
                "addr:street": "Stefana Batorego",
                "addr:housenumber": "9",
                "addr:city:simc": 924023,
                "addr:street:sym_ul": 891,
                "phone": "+48 338753147",
                "email": "zs2and@interia.pl",
                "ref:regon": "070874167",
                "operator": "Powiat Wadowicki",
                "operator:type": "government",
                "amenity": "school",
                "note": "Parent RSPO: 4002"
            }
        },
        {
            "id": 11555,
            "type": "Feature",
            "geometry": {
                "type": "Point",
                "coordinates": [
                    19.33697,
                    49.857530000000004
                ]
            },
            "properties": {
                "isced:level": "3",
                "ref:rspo": 11555,
                "official_name": "Zesp\u00f3\u0142 Szk\u00f3\u0142 Nr 2 w Andrychowie im.\u015bw.jadwigi Kr\u00f3lowej-Technikum Nr 2",
                "name": "Zesp\u00f3\u0142 Szk\u00f3\u0142 Nr 2 w Andrychowie im.\u015bw.jadwigi Kr\u00f3lowej-Technikum Nr 2",
                "addr:postcode": "34-120",
                "addr:city": "Andrych\u00f3w",
                "addr:street": "Stefana Batorego",
                "addr:housenumber": "9",
                "addr:city:simc": 924023,
                "addr:street:sym_ul": 891,
                "phone": "+48 338753147",
                "email": "zs2and@interia.pl",
                "website": "http:\/\/zs2andrychow.pl",
                "ref:regon": "070874138",
                "operator": "Powiat Wadowicki",
                "operator:type": "government",
                "amenity": "school",
                "note": "Parent RSPO: 4002"
            }
        },
        {
            "id": 11556,
            "type": "Feature",
            "geometry": {
                "type": "Point",
                "coordinates": [
                    19.33697,
                    49.8575
                ]
            },
            "properties": {
                "isced:level": "4",
                "ref:rspo": 11556,
                "official_name": "Zesp\u00f3\u0142 Szk\u00f3\u0142 Nr 2 im.\u015bw.jadwigi Kr\u00f3lowej w Andrychowie-Szko\u0142a Policealna",
                "name": "Zesp\u00f3\u0142 Szk\u00f3\u0142 Nr 2 im.\u015bw.jadwigi Kr\u00f3lowej w Andrychowie-Szko\u0142a Policealna",
                "addr:postcode": "34-120",
                "addr:city": "Andrych\u00f3w",
                "addr:street": "Stefana Batorego",
                "addr:housenumber": "9",
                "addr:city:simc": 924023,
                "addr:street:sym_ul": 891,
                "phone": "+48 338753147",
                "email": "zs2and@interia.pl",
                "ref:regon": "120093690",
                "operator": "Powiat Wadowicki",
                "operator:type": "government",
                "amenity": "college",
                "note": "Parent RSPO: 4002"
            }
        },
        {
            "id": 11859,
            "type": "Feature",
            "geometry": {
                "type": "Point",
                "coordinates": [
                    19.33697,
                    49.85747
                ]
            },
            "properties": {
                "isced:level": "3",
                "ref:rspo": 11859,
                "official_name": "Zesp\u00f3\u0142 Szk\u00f3\u0142 Nr 2 im. Sw. Jadwigi Kr\u00f3lowej w Andrychowie - I Liceum Og\u00f3lnokszta\u0142c\u0105ce dla Doros\u0142ych",
                "name": "Zesp\u00f3\u0142 Szk\u00f3\u0142 Nr 2",
                "addr:postcode": "34-120",
                "addr:city": "Andrych\u00f3w",
                "addr:street": "Stefana Batorego",
                "addr:housenumber": "9",
                "addr:city:simc": 924023,
                "addr:street:sym_ul": 891,
                "phone": "+48 338753147",
                "email": "zs2and@interia.pl",
                "ref:regon": "122654610",
                "operator": "Powiat Wadowicki",
                "operator:type": "government",
                "amenity": "school",
                "note": "Parent RSPO: 4002"
            }
        },
        {
            "id": 133752,
            "type": "Feature",
            "geometry": {
                "type": "Point",
                "coordinates": [
                    19.3464199,
                    49.85844
                ]
            },
            "properties": {
                "ref:rspo": 133752,
                "official_name": "Niepubliczna Poradnia Psychologiczno-Pedagogiczna \"Promyczek\"",
                "name": "Niepubliczna Poradnia Psychologiczno-Pedagogiczna \"Promyczek\"",
                "addr:postcode": "34-120",
                "addr:city": "Andrych\u00f3w",
                "addr:street": "Starowiejska",
                "addr:housenumber": "17a",
                "addr:city:simc": 924023,
                "addr:street:sym_ul": 20998,
                "phone": "+48 889436119",
                "email": "mpporaj@gmail.com",
                "ref:regon": "367593688",
                "operator": "Fundacja \"Promyczek\"",
                "operator:type": "ngo",
                "healthcare": "counselling",
                "counselling_type": "education",
                "fixme": "w zale\u017cno\u015bci od przedmiotu dzia\u0142alno\u015bci (np. healthcare=counselling + counselling_type=education albo healthcare=psychotherapist)"
            }
        },
        {
            "id": 41152,
            "type": "Feature",
            "geometry": {
                "type": "Point",
                "coordinates": [
                    19.35217,
                    49.85874
                ]
            },
            "properties": {
                "ref:rspo": 41152,
                "official_name": "Przedszkole Nr 4 w Andrychowie",
                "name": "Przedszkole Nr 4 w Andrychowie",
                "addr:postcode": "34-120",
                "addr:city": "Andrych\u00f3w",
                "addr:street": "W\u0142\u00f3kniarzy",
                "addr:housenumber": "28",
                "addr:city:simc": 924023,
                "addr:street:sym_ul": 24540,
                "phone": "+48 338752482",
                "email": "przedszkole4@andrychow.eu",
                "ref:regon": "071007580",
                "ref:vatin": "PL5511163415",
                "operator": "Gmina Andrych\u00f3w",
                "operator:type": "government",
                "amenity": "kindergarten"
            }
        },
        {
            "id": 49972,
            "type": "Feature",
            "geometry": {
                "type": "Point",
                "coordinates": [
                    19.35152,
                    49.85951
                ]
            },
            "properties": {
                "isced:level": "1;2",
                "ref:rspo": 49972,
                "official_name": "Szko\u0142a Podstawowa Nr 4 Imienia Miko\u0142aja Kopernika w Andrychowie",
                "name": "Szko\u0142a Podstawowa Nr 4 Imienia Miko\u0142aja Kopernika w Andrychowie",
                "addr:postcode": "34-120",
                "addr:city": "Andrych\u00f3w",
                "addr:street": "W\u0142\u00f3kniarzy",
                "addr:housenumber": "10A",
                "addr:city:simc": 924023,
                "addr:street:sym_ul": 24540,
                "phone": "+48 338752082",
                "email": "sp4@andrychow.eu",
                "website": "http:\/\/www.sp4andrychow.edu.pl",
                "ref:regon": "070447880",
                "ref:vatin": "PL5511118604",
                "operator": "Gmina Andrych\u00f3w",
                "operator:type": "government",
                "amenity": "school"
            }
        },
        {
            "id": 56177,
            "type": "Feature",
            "geometry": {
                "type": "Point",
                "coordinates": [
                    19.34851,
                    49.86088
                ]
            },
            "properties": {
                "ref:rspo": 56177,
                "official_name": "O\u015brodek Kszta\u0142cenia Zawodowego w Andrychowie Oczko Maria",
                "name": "O\u015brodek Kszta\u0142cenia Zawodowego w Andrychowie Oczko Maria",
                "addr:postcode": "34-120",
                "addr:city": "Andrych\u00f3w",
                "addr:street": "Starowiejska",
                "addr:housenumber": "22a",
                "addr:city:simc": 924023,
                "addr:street:sym_ul": 20998,
                "phone": "+48 338452133",
                "email": "ckd@ckd.edu.pl",
                "ref:regon": "122700800",
                "operator": "Maria Oczko",
                "operator:type": "private",
                "fixme": "w zale\u017cno\u015bci od przedmiotu dzia\u0142alno\u015bci (np. amenity=training + training=*, amenity=dancing_school, amenity=language_school, amenity=music_school)"
            }
        },
        {
            "id": 133848,
            "type": "Feature",
            "geometry": {
                "type": "Point",
                "coordinates": [
                    19.34851,
                    49.86085
                ]
            },
            "properties": {
                "ref:rspo": 133848,
                "official_name": "Centrum Kszta\u0142cenia Zawodowego I Ustawicznego w Andrychowie",
                "name": "Centrum Kszta\u0142cenia Zawodowego I Ustawicznego w Andrychowie",
                "addr:postcode": "34-120",
                "addr:city": "Andrych\u00f3w",
                "addr:street": "Starowiejska",
                "addr:housenumber": "22a",
                "addr:city:simc": 924023,
                "addr:street:sym_ul": 20998,
                "phone": "+48 338752334",
                "email": "sekretariat@ckziuandrychow.pl",
                "website": "http:\/\/www.ckziuandrychow.pl",
                "ref:regon": "367705650",
                "operator": "Powiat Wadowicki",
                "operator:type": "government",
                "landuse": "education",
                "fixme": "amenity=school, amenity=college albo landuse=education w zale\u017cno\u015bci od tego, jakie plac\u00f3wki wchodz\u0105 w sk\u0142ad zespo\u0142u. Sprawd\u017a, kiedy stosowa\u0107 amenity=* a kiedy landuse=education.",
                "note": "Children RSPO: 11549;11550;11551;262393;267322"
            }
        },
        {
            "id": 11549,
            "type": "Feature",
            "geometry": {
                "type": "Point",
                "coordinates": [
                    19.34851,
                    49.860820000000004
                ]
            },
            "properties": {
                "isced:level": "3",
                "ref:rspo": 11549,
                "official_name": "Centrum Kszta\u0142cenia Zawodowego I Ustawicznego w Andrychowie -Bran\u017cowa Szko\u0142a I Stopnia Nr 1 im. Prof. T. Kotarbi\u0144skiego w Andrychowie",
                "name": "Centrum Kszta\u0142cenia Zawodowego I Ustawicznego w Andrychowie -Bran\u017cowa Szko\u0142a I Stopnia Nr 1",
                "addr:postcode": "34-120",
                "addr:city": "Andrych\u00f3w",
                "addr:street": "Starowiejska",
                "addr:housenumber": "22a",
                "addr:city:simc": 924023,
                "addr:street:sym_ul": 20998,
                "phone": "+48 338752334",
                "email": "sekretariat@ckziuandrychow.pl",
                "ref:regon": "356722246",
                "operator": "Powiat Wadowicki",
                "operator:type": "government",
                "amenity": "school",
                "note": "Parent RSPO: 133848"
            }
        },
        {
            "id": 11550,
            "type": "Feature",
            "geometry": {
                "type": "Point",
                "coordinates": [
                    19.34851,
                    49.86079
                ]
            },
            "properties": {
                "isced:level": "3",
                "ref:rspo": 11550,
                "official_name": "Centrum Kszta\u0142cenia Zawodowego I Ustawicznego w Andrychowie - Technikum Nr 1 im.prof.tadeusza Kotarbi\u0144skiego w Andrychowie",
                "name": "Centrum Kszta\u0142cenia Zawodowego I Ustawicznego w Andrychowie - Technikum Nr 1 im.prof.tadeusza Kotarbi\u0144skiego w Andrychowie",
                "addr:postcode": "34-120",
                "addr:city": "Andrych\u00f3w",
                "addr:street": "Starowiejska",
                "addr:housenumber": "22a",
                "addr:city:simc": 924023,
                "addr:street:sym_ul": 20998,
                "phone": "+48 338752334",
                "email": "sekretariat@ckziuandrychow.pl",
                "ref:regon": "356565226",
                "operator": "Powiat Wadowicki",
                "operator:type": "government",
                "amenity": "school",
                "note": "Parent RSPO: 133848"
            }
        },
        {
            "id": 11551,
            "type": "Feature",
            "geometry": {
                "type": "Point",
                "coordinates": [
                    19.34851,
                    49.86076
                ]
            },
            "properties": {
                "isced:level": "3",
                "ref:rspo": 11551,
                "official_name": "Centrum Kszta\u0142cenia Zawodowego I Ustawicznego w Andrychowie - II Liceum Og\u00f3lnokszta\u0142c\u0105ce w Andrychowie",
                "name": "Centrum Kszta\u0142cenia Zawodowego I Ustawicznego w Andrychowie - II Liceum Og\u00f3lnokszta\u0142c\u0105ce w Andrychowie",
                "addr:postcode": "34-120",
                "addr:city": "Andrych\u00f3w",
                "addr:street": "Starowiejska",
                "addr:housenumber": "22a",
                "addr:city:simc": 924023,
                "addr:street:sym_ul": 20998,
                "phone": "+48 338752334",
                "email": "sekretariat@ckziuandrychow.pl",
                "ref:regon": "356565143",
                "operator": "Powiat Wadowicki",
                "operator:type": "government",
                "amenity": "school",
                "note": "Parent RSPO: 133848"
            }
        },
        {
            "id": 262393,
            "type": "Feature",
            "geometry": {
                "type": "Point",
                "coordinates": [
                    19.34851,
                    49.860730000000004
                ]
            },
            "properties": {
                "isced:level": "3",
                "ref:rspo": 262393,
                "official_name": "Ii Liceum Og\u00f3lnokszta\u0142c\u0105ce dla Doros\u0142ych w Andrychowie",
                "name": "Ii Liceum Og\u00f3lnokszta\u0142c\u0105ce dla Doros\u0142ych w Andrychowie",
                "addr:postcode": "34-120",
                "addr:city": "Andrych\u00f3w",
                "addr:street": "Starowiejska",
                "addr:housenumber": "22a",
                "addr:city:simc": 924023,
                "addr:street:sym_ul": 20998,
                "phone": "+48 338752334",
                "email": "sekretariat@ckziuandrychow.pl",
                "ref:regon": "367995487",
                "operator": "Powiat Wadowicki",
                "operator:type": "government",
                "amenity": "school",
                "note": "Parent RSPO: 133848"
            }
        },
        {
            "id": 267322,
            "type": "Feature",
            "geometry": {
                "type": "Point",
                "coordinates": [
                    19.34851,
                    49.8607
                ]
            },
            "properties": {
                "ref:rspo": 267322,
                "official_name": "Centrum Kszta\u0142cenia Zawodowego w Andrychowie",
                "name": "Centrum Kszta\u0142cenia Zawodowego w Andrychowie",
                "addr:postcode": "34-120",
                "addr:city": "Andrych\u00f3w",
                "addr:street": "Starowiejska",
                "addr:housenumber": "22a",
                "addr:city:simc": 924023,
                "addr:street:sym_ul": 20998,
                "phone": "+48 338752334",
                "email": "sekretariat@ckziuandrychow.pl",
                "ref:regon": "380109627",
                "operator": "Powiat Wadowicki",
                "operator:type": "government",
                "fixme": "w zale\u017cno\u015bci od przedmiotu dzia\u0142alno\u015bci (np. amenity=training + training=*, amenity=dancing_school, amenity=language_school, amenity=music_school) albo amenity=school, amenity=college, albo landuse=education w zale\u017cno\u015bci od tego, jakie plac\u00f3wki wchodz\u0105 w sk\u0142ad zespo\u0142u. Sprawd\u017a, kiedy stosowa\u0107 amenity=* a kiedy landuse=education.",
                "note": "Parent RSPO: 133848"
            }
        },
        {
            "id": 196453,
            "type": "Feature",
            "geometry": {
                "type": "Point",
                "coordinates": [
                    19.3543999,
                    49.86112
                ]
            },
            "properties": {
                "isced:level": "1;2",
                "ref:rspo": 196453,
                "official_name": "Szko\u0142a Podstawowa Nr 5 w Andrychowie",
                "name": "Szko\u0142a Podstawowa Nr 5 w Andrychowie",
                "addr:postcode": "34-120",
                "addr:city": "Andrych\u00f3w",
                "addr:street": "Stanis\u0142awa Lenartowicza",
                "addr:housenumber": "26",
                "addr:city:simc": 924023,
                "addr:street:sym_ul": 10812,
                "phone": "+48 338753704",
                "email": "sekretariat@sp5.andrychow.eu",
                "website": "http:\/\/www.sp5.andrychow.eu",
                "ref:regon": "367993880",
                "operator": "Gmina Andrych\u00f3w",
                "operator:type": "government",
                "amenity": "school"
            }
        },
        {
            "id": 62609,
            "type": "Feature",
            "geometry": {
                "type": "Point",
                "coordinates": [
                    19.3852699,
                    49.86114
                ]
            },
            "properties": {
                "ref:rspo": 62609,
                "official_name": "Przedszkole Publiczne w Inwa\u0142dzie",
                "name": "Przedszkole Publiczne w Inwa\u0142dzie",
                "addr:postcode": "34-120",
                "addr:city": "Inwa\u0142d",
                "addr:street": "Wadowicka",
                "addr:housenumber": "25",
                "addr:city:simc": 45089,
                "addr:street:sym_ul": 23485,
                "phone": "+48 338751322",
                "email": "zssinwald@andrychow.eu",
                "ref:regon": "071007633",
                "ref:vatin": "PL5511163065",
                "operator": "Gmina Andrych\u00f3w",
                "operator:type": "government",
                "amenity": "kindergarten",
                "note": "Parent RSPO: 42401"
            }
        },
        {
            "id": 53431,
            "type": "Feature",
            "geometry": {
                "type": "Point",
                "coordinates": [
                    19.34917,
                    49.86206
                ]
            },
            "properties": {
                "ref:rspo": 53431,
                "official_name": "Niepubliczne Przedszkole Zgromadzenia Si\u00f3str S\u0142u\u017cebniczek im.b\u0142ogos\u0142awionego Edmunda Bojanowskiego",
                "name": "Niepubliczne Przedszkole Zgromadzenia Si\u00f3str S\u0142u\u017cebniczek im.b\u0142ogos\u0142awionego Edmunda Bojanowskiego",
                "addr:postcode": "34-120",
                "addr:city": "Andrych\u00f3w",
                "addr:street": "Starowiejska",
                "addr:housenumber": "24",
                "addr:city:simc": 924023,
                "addr:street:sym_ul": 20998,
                "phone": "+48 338753456",
                "email": "dorotkazych123@interia.pl",
                "ref:regon": "122707469",
                "ref:vatin": "PL5512519937",
                "operator": "Zgromadzenie Si\u00f3str S\u0142u\u017cebniczek Naj\u015bwi\u0119tszej Maryi Panny Niepokalanie Pocz\u0119tej, Prowincja Krakowska",
                "operator:type": "religious",
                "amenity": "kindergarten"
            }
        },
        {
            "id": 133342,
            "type": "Feature",
            "geometry": {
                "type": "Point",
                "coordinates": [
                    19.35117,
                    49.86278
                ]
            },
            "properties": {
                "ref:rspo": 133342,
                "official_name": "Publiczne Przedszkole Parafialne im. \u015aw. Jana Paw\u0142a II w Andrychowie",
                "name": "Publiczne Przedszkole Parafialne",
                "addr:postcode": "34-120",
                "addr:city": "Andrych\u00f3w",
                "addr:street": "Starowiejska",
                "addr:housenumber": "30",
                "addr:city:simc": 924023,
                "addr:street:sym_ul": 20998,
                "phone": "+48 535010177",
                "email": "przedszkole@andrychowjp2.pl",
                "website": "http:\/\/andrychowjp2.pl",
                "ref:regon": "367079951",
                "operator": "Parafia Rzym.-Kat. Pw. \u015awi\u0119tego Stanis\u0142awa Biskupa I M\u0119czennika",
                "operator:type": "religious",
                "amenity": "kindergarten"
            }
        },
        {
            "id": 46572,
            "type": "Feature",
            "geometry": {
                "type": "Point",
                "coordinates": [
                    19.35485,
                    49.86278
                ]
            },
            "properties": {
                "ref:rspo": 46572,
                "official_name": "Przedszkole Nr 3 w Andrychowie",
                "name": "Przedszkole Nr 3 w Andrychowie",
                "addr:postcode": "34-120",
                "addr:city": "Andrych\u00f3w",
                "addr:street": "Stanis\u0142awa Lenartowicza",
                "addr:housenumber": "36",
                "addr:city:simc": 924023,
                "addr:street:sym_ul": 10812,
                "phone": "+48 338753850",
                "email": "przedszkole3@andrychow.eu",
                "ref:regon": "071007610",
                "ref:vatin": "PL5511163444",
                "operator": "Gmina Andrych\u00f3w",
                "operator:type": "government",
                "amenity": "kindergarten"
            }
        },
        {
            "id": 42401,
            "type": "Feature",
            "geometry": {
                "type": "Point",
                "coordinates": [
                    19.392,
                    49.86345
                ]
            },
            "properties": {
                "ref:rspo": 42401,
                "official_name": "Zesp\u00f3\u0142 Szk\u00f3\u0142 Samorz\u0105dowych w Inwa\u0142dzie",
                "name": "Zesp\u00f3\u0142 Szk\u00f3\u0142 Samorz\u0105dowych w Inwa\u0142dzie",
                "addr:postcode": "34-120",
                "addr:city": "Inwa\u0142d",
                "addr:street": "Wadowicka",
                "addr:housenumber": "79",
                "addr:city:simc": 45089,
                "addr:street:sym_ul": 23485,
                "phone": "+48 338751322",
                "email": "zssinwald@andrychow.eu",
                "ref:regon": "356541125",
                "ref:vatin": "PL5512311941",
                "operator": "Gmina Andrych\u00f3w",
                "operator:type": "government",
                "landuse": "education",
                "fixme": "amenity=school, amenity=college albo landuse=education w zale\u017cno\u015bci od tego, jakie plac\u00f3wki wchodz\u0105 w sk\u0142ad zespo\u0142u. Sprawd\u017a, kiedy stosowa\u0107 amenity=* a kiedy landuse=education.",
                "note": "Children RSPO: 62304;62609"
            }
        },
        {
            "id": 121605,
            "type": "Feature",
            "geometry": {
                "type": "Point",
                "coordinates": [
                    19.392,
                    49.86342
                ]
            },
            "properties": {
                "ref:rspo": 121605,
                "official_name": "Pogotowie Komputerowe Medicompbud-Niepubliczna Plac\u00f3wka Kszta\u0142cenia Ustawicznego",
                "name": "Pogotowie Komputerowe Medicompbud-Niepubliczna Plac\u00f3wka Kszta\u0142cenia Ustawicznego",
                "addr:postcode": "34-120",
                "addr:city": "Inwa\u0142d",
                "addr:street": "Wadowicka",
                "addr:housenumber": "79",
                "addr:city:simc": 45089,
                "addr:street:sym_ul": 23485,
                "phone": "+48 797528428",
                "email": "biuro@medicompbud.pl",
                "ref:regon": "123027831",
                "operator": "Secon Sp\u00f3\u0142ka Z Ograniczon\u0105 Odpowiedzialno\u015bci\u0105",
                "operator:type": "private",
                "fixme": "w zale\u017cno\u015bci od przedmiotu dzia\u0142alno\u015bci (np. amenity=training + training=*, amenity=dancing_school, amenity=language_school, amenity=music_school)"
            }
        },
        {
            "id": 268382,
            "type": "Feature",
            "geometry": {
                "type": "Point",
                "coordinates": [
                    19.392,
                    49.86339
                ]
            },
            "properties": {
                "ref:rspo": 268382,
                "official_name": "Incrementum Niepubliczna Plac\u00f3wka Kszta\u0142cenia Ustawicznego",
                "name": "Incrementum Niepubliczna Plac\u00f3wka Kszta\u0142cenia Ustawicznego",
                "addr:postcode": "34-120",
                "addr:city": "Inwa\u0142d",
                "addr:street": "Wadowicka",
                "addr:housenumber": "79",
                "addr:city:simc": 45089,
                "addr:street:sym_ul": 23485,
                "phone": "+48 696438824",
                "ref:regon": "381128928",
                "operator": "Incrementum Sp\u00f3\u0142ka Z Ograniczon\u0105 Odpowiedzialno\u015bci\u0105",
                "operator:type": "private",
                "fixme": "w zale\u017cno\u015bci od przedmiotu dzia\u0142alno\u015bci (np. amenity=training + training=*, amenity=dancing_school, amenity=language_school, amenity=music_school)"
            }
        },
        {
            "id": 62304,
            "type": "Feature",
            "geometry": {
                "type": "Point",
                "coordinates": [
                    19.392,
                    49.86336
                ]
            },
            "properties": {
                "isced:level": "1;2",
                "ref:rspo": 62304,
                "official_name": "Szko\u0142a Podstawowa Imienia Majora Henryka Sucharskiego w Inwa\u0142dzie",
                "name": "Szko\u0142a Podstawowa Imienia Majora Henryka Sucharskiego w Inwa\u0142dzie",
                "addr:postcode": "34-120",
                "addr:city": "Inwa\u0142d",
                "addr:street": "Wadowicka",
                "addr:housenumber": "79",
                "addr:city:simc": 45089,
                "addr:street:sym_ul": 23485,
                "phone": "+48 338751322",
                "email": "zssinwald@andrychow.eu",
                "ref:regon": "070447933",
                "ref:vatin": "PL5511118509",
                "operator": "Gmina Andrych\u00f3w",
                "operator:type": "government",
                "amenity": "school",
                "note": "Parent RSPO: 42401"
            }
        }
    ]
}