{
    "type": "FeatureCollection",
    "features": [
        {
            "id": 121984,
            "type": "Feature",
            "geometry": {
                "type": "Point",
                "coordinates": [
                    19.5080443,
                    49.7961365
                ]
            },
            "properties": {
                "isced:level": "1;2",
                "ref:rspo": 121984,
                "official_name": "Szko\u0142a Podstawowa w Jaszczurowej",
                "name": "Szko\u0142a Podstawowa w Jaszczurowej",
                "addr:postcode": "34-106",
                "addr:place": "Jaszczurowa",
                "addr:housenumber": "255",
                "addr:city:simc": 62700,
                "phone": "+48 338761046",
                "email": "sp.jaszczurowa@mucharz.pl",
                "ref:regon": "070631418",
                "ref:vatin": "PL5512615434",
                "operator": "Gmina Mucharz",
                "operator:type": "government",
                "amenity": "school"
            }
        },
        {
            "id": 72737,
            "type": "Feature",
            "geometry": {
                "type": "Point",
                "coordinates": [
                    19.5289,
                    49.80749
                ]
            },
            "properties": {
                "isced:level": "3",
                "ref:rspo": 72737,
                "official_name": "Liceum Og\u00f3lnokszta\u0142c\u0105ce dla Doros\u0142ych w Jaszczurowej",
                "name": "Liceum Og\u00f3lnokszta\u0142c\u0105ce dla Doros\u0142ych w Jaszczurowej",
                "addr:postcode": "34-106",
                "addr:city": "Jaszczurowa",
                "addr:street": "Osiedle Pod Tatrami",
                "addr:housenumber": "125",
                "addr:city:simc": 62700,
                "addr:street:sym_ul": 29192,
                "phone": "+48 338732023",
                "email": "osidwad@gmail.com",
                "website": "http:\/\/www.osidwad.com.pl",
                "ref:regon": "122679900",
                "operator": "O\u015brodek Szkolenia I Dokszta\u0142cania A.klink, St.nowicki S.c.",
                "operator:type": "consortium",
                "amenity": "school"
            }
        },
        {
            "id": 106831,
            "type": "Feature",
            "geometry": {
                "type": "Point",
                "coordinates": [
                    19.5626211,
                    49.808377
                ]
            },
            "properties": {
                "isced:level": "1;2",
                "ref:rspo": 106831,
                "official_name": "Szko\u0142a Podstawowa im. Ojca \u015awi\u0119tego Jana Paw\u0142a Ii",
                "name": "Szko\u0142a Podstawowa",
                "addr:postcode": "34-106",
                "addr:place": "Mucharz",
                "addr:housenumber": "238",
                "addr:city:simc": 62969,
                "phone": "+48 338761352",
                "email": "sp.mucharz@mucharz.pl",
                "website": "http:\/\/www.spmucharz.pl",
                "ref:regon": "070631393",
                "ref:vatin": "PL5512275518",
                "operator": "Gmina Mucharz",
                "operator:type": "government",
                "amenity": "school"
            }
        },
        {
            "id": 84248,
            "type": "Feature",
            "geometry": {
                "type": "Point",
                "coordinates": [
                    19.558789,
                    49.8119219
                ]
            },
            "properties": {
                "ref:rspo": 84248,
                "official_name": "Przedszkole Prowadzone Przez Zgromadzenie Si\u00f3str Pasjonistek",
                "name": "Przedszkole Prowadzone Przez Zgromadzenie Si\u00f3str Pasjonistek",
                "addr:postcode": "34-106",
                "addr:place": "Mucharz",
                "addr:housenumber": "95",
                "addr:city:simc": 62969,
                "phone": "+48 338761425",
                "email": "przedszkolepasja@vp.pl",
                "ref:regon": "122720429",
                "ref:vatin": "PL5512508052",
                "operator": "Zg.ss.m\u0119ki Pana Naszego Jezusa Chrystusa, Dom Generalny",
                "operator:type": "religious",
                "amenity": "kindergarten"
            }
        },
        {
            "id": 275572,
            "type": "Feature",
            "geometry": {
                "type": "Point",
                "coordinates": [
                    19.5097929,
                    49.833928
                ]
            },
            "properties": {
                "ref:rspo": 275572,
                "official_name": "Zesp\u00f3\u0142 Szkolno-Przedszkolny w \u015awinnej Por\u0119bie",
                "name": "Zesp\u00f3\u0142 Szkolno-Przedszkolny w \u015awinnej Por\u0119bie",
                "addr:postcode": "34-106",
                "addr:place": "\u015awinna Por\u0119ba",
                "addr:housenumber": "216",
                "addr:city:simc": 63118,
                "phone": "+48 338761224",
                "email": "spswinnaporeba@mucharz.pl",
                "website": "https:\/\/spswinnaporeba.edupage.org\/",
                "ref:regon": "386929076",
                "ref:vatin": "PL5512645961",
                "operator": "Gmina Mucharz",
                "operator:type": "government",
                "landuse": "education",
                "fixme": "amenity=school, amenity=college albo landuse=education w zale\u017cno\u015bci od tego, jakie plac\u00f3wki wchodz\u0105 w sk\u0142ad zespo\u0142u. Sprawd\u017a, kiedy stosowa\u0107 amenity=* a kiedy landuse=education.",
                "note": "Children RSPO: 106826;275563"
            }
        },
        {
            "id": 106826,
            "type": "Feature",
            "geometry": {
                "type": "Point",
                "coordinates": [
                    19.5097929,
                    49.833898
                ]
            },
            "properties": {
                "isced:level": "1;2",
                "ref:rspo": 106826,
                "official_name": "Szko\u0142a Podstawowa im. Bohater\u00f3w Westerplatte",
                "name": "Szko\u0142a Podstawowa",
                "addr:postcode": "34-106",
                "addr:place": "\u015awinna Por\u0119ba",
                "addr:housenumber": "216",
                "addr:city:simc": 63118,
                "phone": "+48 338761224",
                "email": "spnr1poreba@interia.pl",
                "website": "https:\/\/spswinnaporeba.edupage.org\/",
                "ref:regon": "070631401",
                "ref:vatin": "PL5512275530",
                "operator": "Gmina Mucharz",
                "operator:type": "government",
                "amenity": "school",
                "note": "Parent RSPO: 275572"
            }
        },
        {
            "id": 275563,
            "type": "Feature",
            "geometry": {
                "type": "Point",
                "coordinates": [
                    19.5097929,
                    49.833868
                ]
            },
            "properties": {
                "ref:rspo": 275563,
                "official_name": "Przedszkole Publiczne w \u015awinnej Por\u0119bie",
                "name": "Przedszkole Publiczne w \u015awinnej Por\u0119bie",
                "addr:postcode": "34-106",
                "addr:place": "\u015awinna Por\u0119ba",
                "addr:housenumber": "216",
                "addr:city:simc": 63118,
                "phone": "+48 338761224",
                "email": "spswinnaporeba@mucharz.pl",
                "website": "https:\/\/spswinnaporeba.edupage.org\/",
                "ref:regon": "386929030",
                "operator": "Gmina Mucharz",
                "operator:type": "government",
                "amenity": "kindergarten",
                "note": "Parent RSPO: 275572"
            }
        }
    ]
}