{
    "type": "FeatureCollection",
    "features": [
        {
            "id": 55885,
            "type": "Feature",
            "geometry": {
                "type": "Point",
                "coordinates": [
                    19.6183799,
                    49.93424
                ]
            },
            "properties": {
                "ref:rspo": 55885,
                "official_name": "Przedszkole Niepubliczne Si\u00f3str Nazaretanek",
                "name": "Przedszkole Niepubliczne Si\u00f3str Nazaretanek",
                "addr:country": "PL",
                "addr:postcode": "34-114",
                "addr:city": "Marcypor\u0119ba",
                "addr:street": "Marka Radwanity",
                "addr:housenumber": "58",
                "addr:teryt:simc": 47711,
                "addr:teryt:sym_ul": 53761,
                "contact:phone": "+48 338792088",
                "contact:email": "marcdom@interia.pl",
                "ref:regon": "122700817",
                "operator": "Zgromadzenie Si\u00f3str Naj\u015bwi\u0119tszej Rodziny Z Nazaretu, Prowincja Krakowska",
                "operator:type": "religious",
                "amenity": "kindergarten"
            }
        },
        {
            "id": 21998,
            "type": "Feature",
            "geometry": {
                "type": "Point",
                "coordinates": [
                    19.68861,
                    49.94174
                ]
            },
            "properties": {
                "isced:level": "1;2",
                "ref:rspo": 21998,
                "official_name": "Szko\u0142a Podstawowa im. Antoniego Kucharczyka w Paszk\u00f3wce",
                "name": "Szko\u0142a Podstawowa",
                "addr:country": "PL",
                "addr:postcode": "34-113",
                "addr:city": "Paszk\u00f3wka",
                "addr:street": "Wadowicka",
                "addr:housenumber": "38",
                "addr:teryt:simc": 47912,
                "addr:teryt:sym_ul": 23485,
                "contact:phone": "+48 338793047",
                "contact:email": "dyrektor@sppaszkowka.pl",
                "contact:website": "http:\/\/www.sppaszkowka.pl",
                "ref:regon": "070692710",
                "operator": "Gmina Brze\u017anica",
                "operator:type": "government",
                "amenity": "school"
            }
        },
        {
            "id": 21999,
            "type": "Feature",
            "geometry": {
                "type": "Point",
                "coordinates": [
                    19.70942,
                    49.94308
                ]
            },
            "properties": {
                "isced:level": "1;2",
                "ref:rspo": 21999,
                "official_name": "Szko\u0142a Podstawowa im. Marii Konopnickiej w Sosnowicach",
                "name": "Szko\u0142a Podstawowa",
                "addr:country": "PL",
                "addr:postcode": "34-113",
                "addr:city": "Sosnowice",
                "addr:street": "Szkolna",
                "addr:housenumber": "1",
                "addr:teryt:simc": 48136,
                "addr:teryt:sym_ul": 21970,
                "contact:phone": "+48 338793282",
                "contact:email": "sekretariat@spsosnowice.pl",
                "contact:website": "http:\/\/www.spsosnowice.pl",
                "ref:regon": "070692680",
                "operator": "Gmina Brze\u017anica",
                "operator:type": "government",
                "amenity": "school"
            }
        },
        {
            "id": 22854,
            "type": "Feature",
            "geometry": {
                "type": "Point",
                "coordinates": [
                    19.62808,
                    49.95022
                ]
            },
            "properties": {
                "isced:level": "1;2",
                "ref:rspo": 22854,
                "official_name": "Szko\u0142a Podstawowa im. \u015aw. Jana Paw\u0142a II w Marcypor\u0119bie",
                "name": "Szko\u0142a Podstawowa",
                "addr:country": "PL",
                "addr:postcode": "34-114",
                "addr:city": "Marcypor\u0119ba",
                "addr:street": "\u015awi\u0119tego Floriana",
                "addr:housenumber": "19",
                "addr:teryt:simc": 47711,
                "addr:teryt:sym_ul": 5083,
                "contact:phone": "+48 338792018",
                "contact:email": "szkolamarcyporeba@wp.pl",
                "contact:website": "http:\/\/www.spmarcyporeba.iap.pl",
                "ref:regon": "070692704",
                "operator": "Gmina Brze\u017anica",
                "operator:type": "government",
                "amenity": "school"
            }
        },
        {
            "id": 22001,
            "type": "Feature",
            "geometry": {
                "type": "Point",
                "coordinates": [
                    19.57367,
                    49.96546
                ]
            },
            "properties": {
                "ref:rspo": 22001,
                "official_name": "Zesp\u00f3\u0142 Szkolno-Przedszkolny w T\u0142uczani",
                "name": "Zesp\u00f3\u0142 Szkolno-Przedszkolny w T\u0142uczani",
                "addr:country": "PL",
                "addr:postcode": "34-114",
                "addr:city": "T\u0142ucza\u0144",
                "addr:street": "Szkolna",
                "addr:housenumber": "9",
                "addr:teryt:simc": 48231,
                "addr:teryt:sym_ul": 21970,
                "contact:phone": "+48 338790108",
                "contact:email": "sptluczan@wp.pl",
                "contact:website": "http:\/\/www.sptluczan.superszkolna.pl",
                "ref:regon": "120520979",
                "operator": "Gmina Brze\u017anica",
                "operator:type": "government",
                "landuse": "education",
                "fixme": "amenity=school, amenity=college albo landuse=education w zale\u017cno\u015bci od tego, jakie plac\u00f3wki wchodz\u0105 w sk\u0142ad zespo\u0142u. Sprawd\u017a, kiedy stosowa\u0107 amenity=* a kiedy landuse=education.",
                "note": "Children RSPO: 73140;82879"
            }
        },
        {
            "id": 73140,
            "type": "Feature",
            "geometry": {
                "type": "Point",
                "coordinates": [
                    19.57367,
                    49.96543
                ]
            },
            "properties": {
                "isced:level": "1;2",
                "ref:rspo": 73140,
                "official_name": "Zesp\u00f3\u0142 Szkolno-Przedszkolny w T\u0142uczani-Szko\u0142a Podstawowa im.henryka Sienkiewicza w T\u0142uczani",
                "name": "Zesp\u00f3\u0142 Szkolno-Przedszkolny w T\u0142uczani-Szko\u0142a Podstawowa im.henryka Sienkiewicza w T\u0142uczani",
                "addr:country": "PL",
                "addr:postcode": "34-114",
                "addr:city": "T\u0142ucza\u0144",
                "addr:street": "Szkolna",
                "addr:housenumber": "9",
                "addr:teryt:simc": 48231,
                "addr:teryt:sym_ul": 21970,
                "contact:phone": "+48 338790108",
                "contact:email": "sptluczan@wp.pl",
                "contact:website": "http:\/\/www.sptluczan.superszkolna.pl",
                "ref:regon": "070692650",
                "operator": "Gmina Brze\u017anica",
                "operator:type": "government",
                "amenity": "school",
                "note": "Parent RSPO: 22001"
            }
        },
        {
            "id": 82879,
            "type": "Feature",
            "geometry": {
                "type": "Point",
                "coordinates": [
                    19.57367,
                    49.9654
                ]
            },
            "properties": {
                "ref:rspo": 82879,
                "official_name": "Zesp\u00f3\u0142 Szkolno-Przedszkolny w T\u0142uczani-Przedszkole Samorz\u0105dowe w T\u0142uczani",
                "name": "Zesp\u00f3\u0142 Szkolno-Przedszkolny w T\u0142uczani-Przedszkole Samorz\u0105dowe w T\u0142uczani",
                "addr:country": "PL",
                "addr:postcode": "34-114",
                "addr:city": "T\u0142ucza\u0144",
                "addr:street": "Szkolna",
                "addr:housenumber": "9",
                "addr:teryt:simc": 48231,
                "addr:teryt:sym_ul": 21970,
                "contact:phone": "+48 338790108",
                "contact:email": "sptluczan@wp.pl",
                "contact:website": "http:\/\/www.sptluczan.superszkolna.pl",
                "ref:regon": "070560859",
                "operator": "Gmina Brze\u017anica",
                "operator:type": "government",
                "amenity": "kindergarten",
                "note": "Parent RSPO: 22001"
            }
        },
        {
            "id": 6477,
            "type": "Feature",
            "geometry": {
                "type": "Point",
                "coordinates": [
                    19.631309509277,
                    49.966079711914
                ]
            },
            "properties": {
                "ref:rspo": 6477,
                "official_name": "Zesp\u00f3\u0142 Szkolno-Przedszkolny w Brze\u017anicy",
                "name": "Zesp\u00f3\u0142 Szkolno-Przedszkolny w Brze\u017anicy",
                "addr:country": "PL",
                "addr:postcode": "34-114",
                "addr:city": "Brze\u017anica",
                "addr:street": "Adama Gorczy\u0144skiego",
                "addr:housenumber": "1",
                "addr:teryt:simc": 47361,
                "addr:teryt:sym_ul": 45922,
                "contact:phone": "+48 338792745",
                "contact:email": "sekretariat@zspbrzeznica.pl",
                "contact:website": "http:\/\/www.zspbrzeznica.pl",
                "ref:regon": "120521950",
                "ref:vatin": "PL5512499092",
                "operator": "Gmina Brze\u017anica",
                "operator:type": "government",
                "landuse": "education",
                "fixme": "amenity=school, amenity=college albo landuse=education w zale\u017cno\u015bci od tego, jakie plac\u00f3wki wchodz\u0105 w sk\u0142ad zespo\u0142u. Sprawd\u017a, kiedy stosowa\u0107 amenity=* a kiedy landuse=education.",
                "note": "Children RSPO: 55886;55888"
            }
        },
        {
            "id": 55886,
            "type": "Feature",
            "geometry": {
                "type": "Point",
                "coordinates": [
                    19.631309509277,
                    49.966049711913996
                ]
            },
            "properties": {
                "isced:level": "1;2",
                "ref:rspo": 55886,
                "official_name": "Zesp\u00f3\u0142 Szkolno-Przedszkolny w Brze\u017anicy- Szko\u0142a Podstawowa im. Jana Kochanowskiego w Brze\u017anicy",
                "name": "Zesp\u00f3\u0142 Szkolno-Przedszkolny w Brze\u017anicy- Szko\u0142a Podstawowa",
                "addr:country": "PL",
                "addr:postcode": "34-114",
                "addr:city": "Brze\u017anica",
                "addr:street": "Adama Gorczy\u0144skiego",
                "addr:housenumber": "1",
                "addr:teryt:simc": 47361,
                "addr:teryt:sym_ul": 45922,
                "contact:phone": "+48 338792745",
                "contact:email": "sekretariat@zspbrzeznica.pl",
                "contact:website": "http:\/\/www.zspbrzeznica.pl",
                "ref:regon": "070692727",
                "operator": "Gmina Brze\u017anica",
                "operator:type": "government",
                "amenity": "school",
                "note": "Parent RSPO: 6477"
            }
        },
        {
            "id": 55888,
            "type": "Feature",
            "geometry": {
                "type": "Point",
                "coordinates": [
                    19.631309509277,
                    49.966019711914
                ]
            },
            "properties": {
                "ref:rspo": 55888,
                "official_name": "Zesp\u00f3\u0142 Szkolno-Przedszkolny w Brze\u017anicy-Przedszkole Samorz\u0105dowe w Brze\u017anicy",
                "name": "Zesp\u00f3\u0142 Szkolno-Przedszkolny w Brze\u017anicy-Przedszkole Samorz\u0105dowe w Brze\u017anicy",
                "addr:country": "PL",
                "addr:postcode": "34-114",
                "addr:city": "Brze\u017anica",
                "addr:street": "Adama Gorczy\u0144skiego",
                "addr:housenumber": "1",
                "addr:teryt:simc": 47361,
                "addr:teryt:sym_ul": 45922,
                "contact:phone": "+48 338792745",
                "contact:email": "sekretariat@zspbrzeznica.pl",
                "contact:website": "http:\/\/www.zspbrzeznica.pl",
                "ref:regon": "070560836",
                "operator": "Gmina Brze\u017anica",
                "operator:type": "government",
                "amenity": "kindergarten",
                "note": "Parent RSPO: 6477"
            }
        },
        {
            "id": 22923,
            "type": "Feature",
            "geometry": {
                "type": "Point",
                "coordinates": [
                    19.57574,
                    49.98468
                ]
            },
            "properties": {
                "ref:rspo": 22923,
                "official_name": "Zesp\u00f3\u0142 Szkolno-Przedszkolny w \u0141\u0105czanach-Przedszkole Samorz\u0105dowe w \u0141\u0105czanach",
                "name": "Zesp\u00f3\u0142 Szkolno-Przedszkolny w \u0141\u0105czanach-Przedszkole Samorz\u0105dowe w \u0141\u0105czanach",
                "addr:country": "PL",
                "addr:postcode": "34-115",
                "addr:city": "\u0141\u0105czany",
                "addr:street": "Krakowska",
                "addr:housenumber": "20",
                "addr:teryt:simc": 47639,
                "addr:teryt:sym_ul": 9796,
                "contact:phone": "+48 338790067",
                "contact:email": "sekretariat@szkolalaczany.pl",
                "contact:website": "http:\/\/szkolalaczany.pl",
                "ref:regon": "070560842",
                "operator": "Gmina Brze\u017anica",
                "operator:type": "government",
                "amenity": "kindergarten",
                "note": "Parent RSPO: 22000"
            }
        },
        {
            "id": 22000,
            "type": "Feature",
            "geometry": {
                "type": "Point",
                "coordinates": [
                    19.57744,
                    49.98728
                ]
            },
            "properties": {
                "ref:rspo": 22000,
                "official_name": "Zesp\u00f3\u0142 Szkolno-Przedszkolny w \u0141\u0105czanach",
                "name": "Zesp\u00f3\u0142 Szkolno-Przedszkolny w \u0141\u0105czanach",
                "addr:country": "PL",
                "addr:postcode": "34-115",
                "addr:city": "\u0141\u0105czany",
                "addr:street": "Krakowska",
                "addr:housenumber": "87",
                "addr:teryt:simc": 47639,
                "addr:teryt:sym_ul": 9796,
                "contact:phone": "+48 338790067",
                "contact:email": "sekretariat@szkolalaczany.pl",
                "contact:website": "http:\/\/www.szkolalaczany.pl",
                "ref:regon": "356713460",
                "operator": "Gmina Brze\u017anica",
                "operator:type": "government",
                "landuse": "education",
                "fixme": "amenity=school, amenity=college albo landuse=education w zale\u017cno\u015bci od tego, jakie plac\u00f3wki wchodz\u0105 w sk\u0142ad zespo\u0142u. Sprawd\u017a, kiedy stosowa\u0107 amenity=* a kiedy landuse=education.",
                "note": "Children RSPO: 22923;82880"
            }
        },
        {
            "id": 82880,
            "type": "Feature",
            "geometry": {
                "type": "Point",
                "coordinates": [
                    19.57744,
                    49.987249999999996
                ]
            },
            "properties": {
                "isced:level": "1;2",
                "ref:rspo": 82880,
                "official_name": "Zesp\u00f3\u0142 Szkolno-Przedszkolny w \u0141\u0105czanach-Szko\u0142a Podstawowa im. Janusza Korczaka w \u0141\u0105czanach",
                "name": "Zesp\u00f3\u0142 Szkolno-Przedszkolny w \u0141\u0105czanach-Szko\u0142a Podstawowa",
                "addr:country": "PL",
                "addr:postcode": "34-115",
                "addr:city": "\u0141\u0105czany",
                "addr:street": "Krakowska",
                "addr:housenumber": "87",
                "addr:teryt:simc": 47639,
                "addr:teryt:sym_ul": 9796,
                "contact:phone": "+48 338790067",
                "contact:email": "sekretariat@szkolalaczany.pl",
                "contact:website": "http:\/\/www.szkolalaczany.pl",
                "ref:regon": "070692673",
                "operator": "Gmina Brze\u017anica",
                "operator:type": "government",
                "amenity": "school",
                "note": "Parent RSPO: 22000"
            }
        }
    ]
}