{
    "type": "FeatureCollection",
    "features": [
        {
            "id": 32109,
            "type": "Feature",
            "geometry": {
                "type": "Point",
                "coordinates": [
                    19.3401299,
                    49.87084
                ]
            },
            "properties": {
                "ref:rspo": 32109,
                "official_name": "Zesp\u00f3\u0142 Szkolno-Przedszkolny nr 1 im. Jana Paw\u0142a II w Wieprzu",
                "name": "Zesp\u00f3\u0142 Szkolno-Przedszkolny nr 1",
                "addr:postcode": "34-122",
                "addr:city": "Wieprz",
                "addr:street": "Centralna",
                "addr:housenumber": "19",
                "addr:city:simc": 75972,
                "addr:street:sym_ul": 2614,
                "phone": "+48 338755125",
                "email": "sekretariat@zsp1.wieprz.pl",
                "website": "http:\/\/www.zsp1wieprz.pl",
                "ref:regon": "356557050",
                "ref:vatin": "PL5512315985",
                "operator": "Gmina Wieprz",
                "operator:type": "government",
                "landuse": "education",
                "fixme": "amenity=school, amenity=college albo landuse=education w zale\u017cno\u015bci od tego, jakie plac\u00f3wki wchodz\u0105 w sk\u0142ad zespo\u0142u. Sprawd\u017a, kiedy stosowa\u0107 amenity=* a kiedy landuse=education.",
                "note": "Children RSPO: 43688;263767"
            }
        },
        {
            "id": 43688,
            "type": "Feature",
            "geometry": {
                "type": "Point",
                "coordinates": [
                    19.3401299,
                    49.87081
                ]
            },
            "properties": {
                "isced:level": "1;2",
                "ref:rspo": 43688,
                "official_name": "Szko\u0142a Podstawowa nr 1 w Wieprzu",
                "name": "Szko\u0142a Podstawowa nr 1 w Wieprzu",
                "addr:postcode": "34-122",
                "addr:city": "Wieprz",
                "addr:street": "Centralna",
                "addr:housenumber": "19",
                "addr:city:simc": 75972,
                "addr:street:sym_ul": 2614,
                "phone": "+48 338755125",
                "email": "sekretariat@zsp1.wieprz.pl",
                "website": "http:\/\/www.zsp1wieprz.pl",
                "ref:regon": "070690817",
                "ref:vatin": "PL5512315985",
                "operator": "Gmina Wieprz",
                "operator:type": "government",
                "amenity": "school",
                "note": "Parent RSPO: 32109"
            }
        },
        {
            "id": 263767,
            "type": "Feature",
            "geometry": {
                "type": "Point",
                "coordinates": [
                    19.3401299,
                    49.87078
                ]
            },
            "properties": {
                "ref:rspo": 263767,
                "official_name": "Przedszkole Publiczne nr 1 w Wieprzu",
                "name": "Przedszkole Publiczne nr 1 w Wieprzu",
                "addr:postcode": "34-122",
                "addr:city": "Wieprz",
                "addr:street": "Centralna",
                "addr:housenumber": "19",
                "addr:city:simc": 75972,
                "addr:street:sym_ul": 2614,
                "phone": "+48 338755125",
                "email": "sekretariat@zsp1.wieprz.pl",
                "website": "http:\/\/www.zsp1wieprz.pl",
                "ref:regon": "070560552",
                "ref:vatin": "PL5512315985",
                "operator": "Gmina Wieprz",
                "operator:type": "government",
                "amenity": "kindergarten",
                "note": "Parent RSPO: 32109"
            }
        },
        {
            "id": 30556,
            "type": "Feature",
            "geometry": {
                "type": "Point",
                "coordinates": [
                    19.365350723267,
                    49.899341583252
                ]
            },
            "properties": {
                "ref:rspo": 30556,
                "official_name": "Zesp\u00f3\u0142 Szkolno-Przedszkolny nr 2 im. Kard. Stefana Wyszy\u0144skiego w Wieprzu",
                "name": "Zesp\u00f3\u0142 Szkolno-Przedszkolny nr 2",
                "addr:postcode": "34-122",
                "addr:city": "Wieprz",
                "addr:street": "Beskidzka",
                "addr:housenumber": "324",
                "addr:city:simc": 75972,
                "addr:street:sym_ul": 1103,
                "phone": "+48 338755191",
                "email": "sekretariat@zsp2.wieprz.pl",
                "website": "https:\/\/zsp2wieprz.pl\/",
                "ref:regon": "356557014",
                "ref:vatin": "PL5512315991",
                "operator": "Gmina Wieprz",
                "operator:type": "government",
                "landuse": "education",
                "fixme": "amenity=school, amenity=college albo landuse=education w zale\u017cno\u015bci od tego, jakie plac\u00f3wki wchodz\u0105 w sk\u0142ad zespo\u0142u. Sprawd\u017a, kiedy stosowa\u0107 amenity=* a kiedy landuse=education.",
                "note": "Children RSPO: 49249;49282"
            }
        },
        {
            "id": 49249,
            "type": "Feature",
            "geometry": {
                "type": "Point",
                "coordinates": [
                    19.365350723267,
                    49.899311583252
                ]
            },
            "properties": {
                "isced:level": "1;2",
                "ref:rspo": 49249,
                "official_name": "Szko\u0142a Podstawowa nr 2 w Wieprzu",
                "name": "Szko\u0142a Podstawowa nr 2 w Wieprzu",
                "addr:postcode": "34-122",
                "addr:city": "Wieprz",
                "addr:street": "Beskidzka",
                "addr:housenumber": "324",
                "addr:city:simc": 75972,
                "addr:street:sym_ul": 1103,
                "phone": "+48 338755191",
                "email": "sekretariat@zsp2.wieprz.pl",
                "website": "http:\/\/www.zsp2wieprz.pl",
                "ref:regon": "070690792",
                "ref:vatin": "PL5512315991",
                "operator": "Gmina Wieprz",
                "operator:type": "government",
                "amenity": "school",
                "note": "Parent RSPO: 30556"
            }
        },
        {
            "id": 49282,
            "type": "Feature",
            "geometry": {
                "type": "Point",
                "coordinates": [
                    19.365350723267,
                    49.899281583252005
                ]
            },
            "properties": {
                "ref:rspo": 49282,
                "official_name": "Przedszkole Publiczne nr 2 w Wieprzu",
                "name": "Przedszkole Publiczne nr 2 w Wieprzu",
                "addr:postcode": "34-122",
                "addr:city": "Wieprz",
                "addr:street": "Beskidzka",
                "addr:housenumber": "324",
                "addr:city:simc": 75972,
                "addr:street:sym_ul": 1103,
                "phone": "+48 338755191",
                "email": "sekretariat@zsp2.wieprz.pl",
                "website": "http:\/\/www.zsp2wieprz.pl",
                "ref:regon": "070560569",
                "ref:vatin": "PL5512315991",
                "operator": "Gmina Wieprz",
                "operator:type": "government",
                "amenity": "kindergarten",
                "note": "Parent RSPO: 30556"
            }
        },
        {
            "id": 30544,
            "type": "Feature",
            "geometry": {
                "type": "Point",
                "coordinates": [
                    19.318260192871,
                    49.903949737549
                ]
            },
            "properties": {
                "ref:rspo": 30544,
                "official_name": "Zesp\u00f3\u0142 Szkolno-Przedszkolny im. Miko\u0142aja Kopernika w Nidku",
                "name": "Zesp\u00f3\u0142 Szkolno-Przedszkolny",
                "addr:postcode": "34-122",
                "addr:city": "Nidek",
                "addr:street": "\u015awi\u0119tego Judy Tadeusza",
                "addr:housenumber": "2",
                "addr:city:simc": 75771,
                "addr:street:sym_ul": 45183,
                "phone": "+48 338755811",
                "email": "sekretariat@zspnidek.wieprz.pl",
                "website": "http:\/\/www.zspnidek.webd.pl",
                "ref:regon": "356557037",
                "ref:vatin": "PL5512316022",
                "operator": "Gmina Wieprz",
                "operator:type": "government",
                "landuse": "education",
                "fixme": "amenity=school, amenity=college albo landuse=education w zale\u017cno\u015bci od tego, jakie plac\u00f3wki wchodz\u0105 w sk\u0142ad zespo\u0142u. Sprawd\u017a, kiedy stosowa\u0107 amenity=* a kiedy landuse=education.",
                "note": "Children RSPO: 47135;47191"
            }
        },
        {
            "id": 47135,
            "type": "Feature",
            "geometry": {
                "type": "Point",
                "coordinates": [
                    19.318260192871,
                    49.903919737548996
                ]
            },
            "properties": {
                "isced:level": "1;2",
                "ref:rspo": 47135,
                "official_name": "Szko\u0142a Podstawowa im. Miko\u0142aja Kopernika w Nidku",
                "name": "Szko\u0142a Podstawowa",
                "addr:postcode": "34-122",
                "addr:city": "Nidek",
                "addr:street": "\u015awi\u0119tego Judy Tadeusza",
                "addr:housenumber": "2",
                "addr:city:simc": 75771,
                "addr:street:sym_ul": 45183,
                "phone": "+48 338755811",
                "email": "sekretariat@zspnidek.wieprz.pl",
                "website": "http:\/\/www.zspnidek.webd.pl",
                "ref:regon": "070690869",
                "ref:vatin": "PL5512316022",
                "operator": "Gmina Wieprz",
                "operator:type": "government",
                "amenity": "school",
                "note": "Parent RSPO: 30544"
            }
        },
        {
            "id": 47191,
            "type": "Feature",
            "geometry": {
                "type": "Point",
                "coordinates": [
                    19.318260192871,
                    49.903889737549
                ]
            },
            "properties": {
                "ref:rspo": 47191,
                "official_name": "Przedszkole Publiczne w Nidku",
                "name": "Przedszkole Publiczne w Nidku",
                "addr:postcode": "34-122",
                "addr:city": "Nidek",
                "addr:street": "\u015awi\u0119tego Judy Tadeusza",
                "addr:housenumber": "2",
                "addr:city:simc": 75771,
                "addr:street:sym_ul": 45183,
                "phone": "+48 338755811",
                "email": "sekretariat@zspnidek.wieprz.pl",
                "website": "http:\/\/www.zspnidek.webd.pl",
                "ref:regon": "070560500",
                "ref:vatin": "PL5512316022",
                "operator": "Gmina Wieprz",
                "operator:type": "government",
                "amenity": "kindergarten",
                "note": "Parent RSPO: 30544"
            }
        },
        {
            "id": 30551,
            "type": "Feature",
            "geometry": {
                "type": "Point",
                "coordinates": [
                    19.4159,
                    49.9084
                ]
            },
            "properties": {
                "ref:rspo": 30551,
                "official_name": "Zesp\u00f3\u0142 Szkolno-Przedszkolny im. Jana Brzechwy we Frydrychowicach",
                "name": "Zesp\u00f3\u0142 Szkolno-Przedszkolny",
                "addr:postcode": "34-108",
                "addr:city": "Frydrychowice",
                "addr:street": "Wadowicka",
                "addr:housenumber": "77",
                "addr:city:simc": 75311,
                "addr:street:sym_ul": 23485,
                "phone": "+48 338795729",
                "email": "sekretariat@zspfrydrychowice.wieprz.pl",
                "website": "http:\/\/www.spfrydrychowice.iap.pl",
                "ref:regon": "356557008",
                "ref:vatin": "PL5512316039",
                "operator": "Gmina Wieprz",
                "operator:type": "government",
                "landuse": "education",
                "fixme": "amenity=school, amenity=college albo landuse=education w zale\u017cno\u015bci od tego, jakie plac\u00f3wki wchodz\u0105 w sk\u0142ad zespo\u0142u. Sprawd\u017a, kiedy stosowa\u0107 amenity=* a kiedy landuse=education.",
                "note": "Children RSPO: 43723;43895"
            }
        },
        {
            "id": 43723,
            "type": "Feature",
            "geometry": {
                "type": "Point",
                "coordinates": [
                    19.4159,
                    49.90837
                ]
            },
            "properties": {
                "isced:level": "1;2",
                "ref:rspo": 43723,
                "official_name": "Szko\u0142a Podstawowa im. Jana Brzechwy we Frydrychowicach",
                "name": "Szko\u0142a Podstawowa",
                "addr:postcode": "34-108",
                "addr:city": "Frydrychowice",
                "addr:street": "Wadowicka",
                "addr:housenumber": "77",
                "addr:city:simc": 75311,
                "addr:street:sym_ul": 23485,
                "phone": "+48 338795729",
                "email": "sekretariat@zspfrydrychowice.wieprz.pl",
                "website": "http:\/\/www.spfrydrychowice.iap.pl",
                "ref:regon": "070690846",
                "ref:vatin": "PL5512316039",
                "operator": "Gmina Wieprz",
                "operator:type": "government",
                "amenity": "school",
                "note": "Parent RSPO: 30551"
            }
        },
        {
            "id": 43895,
            "type": "Feature",
            "geometry": {
                "type": "Point",
                "coordinates": [
                    19.4159,
                    49.90834
                ]
            },
            "properties": {
                "ref:rspo": 43895,
                "official_name": "Przedszkole Publiczne we Frydrychowicach",
                "name": "Przedszkole Publiczne we Frydrychowicach",
                "addr:postcode": "34-108",
                "addr:city": "Frydrychowice",
                "addr:street": "Wadowicka",
                "addr:housenumber": "77",
                "addr:city:simc": 75311,
                "addr:street:sym_ul": 23485,
                "phone": "+48 338795729",
                "email": "sekretariat@zspfrydrychowice.wieprz.pl",
                "website": "http:\/\/www.spfrydrychowice.iap.pl",
                "ref:regon": "070560546",
                "ref:vatin": "PL5512316039",
                "operator": "Gmina Wieprz",
                "operator:type": "government",
                "amenity": "kindergarten",
                "note": "Parent RSPO: 30551"
            }
        },
        {
            "id": 30549,
            "type": "Feature",
            "geometry": {
                "type": "Point",
                "coordinates": [
                    19.437856,
                    49.9334664
                ]
            },
            "properties": {
                "ref:rspo": 30549,
                "official_name": "Zesp\u00f3\u0142 Szkolno-Przedszkolny im. W\u0142adys\u0142awa Broniewskiego w Przybradzu",
                "name": "Zesp\u00f3\u0142 Szkolno-Przedszkolny",
                "addr:postcode": "34-108",
                "addr:city": "Przybradz",
                "addr:street": "Szkolna",
                "addr:housenumber": "50",
                "addr:city:simc": 75877,
                "addr:street:sym_ul": 21970,
                "phone": "+48 338795770",
                "email": "sekretariat@zspprzybradz.wieprz.pl",
                "website": "http:\/\/www.zspprzybradz.szkolnastrona.pl",
                "ref:regon": "356557043",
                "ref:vatin": "PL5512316045",
                "operator": "Gmina Wieprz",
                "operator:type": "government",
                "landuse": "education",
                "fixme": "amenity=school, amenity=college albo landuse=education w zale\u017cno\u015bci od tego, jakie plac\u00f3wki wchodz\u0105 w sk\u0142ad zespo\u0142u. Sprawd\u017a, kiedy stosowa\u0107 amenity=* a kiedy landuse=education.",
                "note": "Children RSPO: 47113;47220"
            }
        },
        {
            "id": 47113,
            "type": "Feature",
            "geometry": {
                "type": "Point",
                "coordinates": [
                    19.437856,
                    49.9334364
                ]
            },
            "properties": {
                "ref:rspo": 47113,
                "official_name": "Przedszkole Publiczne w Przybradzu",
                "name": "Przedszkole Publiczne w Przybradzu",
                "addr:postcode": "34-108",
                "addr:city": "Przybradz",
                "addr:street": "Szkolna",
                "addr:housenumber": "50",
                "addr:city:simc": 75877,
                "addr:street:sym_ul": 21970,
                "phone": "+48 338795770",
                "email": "sekretariat@zspprzybradz.wieprz.pl",
                "website": "http:\/\/www.zspprzybradz.szkolnastrona.pl",
                "ref:regon": "070560530",
                "ref:vatin": "PL5512316045",
                "operator": "Gmina Wieprz",
                "operator:type": "government",
                "amenity": "kindergarten",
                "note": "Parent RSPO: 30549"
            }
        },
        {
            "id": 47220,
            "type": "Feature",
            "geometry": {
                "type": "Point",
                "coordinates": [
                    19.437856,
                    49.9334064
                ]
            },
            "properties": {
                "isced:level": "1;2",
                "ref:rspo": 47220,
                "official_name": "Szko\u0142a Podstawowa im. W\u0142adys\u0142awa Broniewskiego w Przybradzu",
                "name": "Szko\u0142a Podstawowa",
                "addr:postcode": "34-108",
                "addr:city": "Przybradz",
                "addr:street": "Szkolna",
                "addr:housenumber": "50",
                "addr:city:simc": 75877,
                "addr:street:sym_ul": 21970,
                "phone": "+48 338795770",
                "email": "sekretariat@zspprzybradz.wieprz.pl",
                "website": "http:\/\/www.zspprzybradz.szkolnastrona.pl",
                "ref:regon": "070690881",
                "ref:vatin": "PL5512316045",
                "operator": "Gmina Wieprz",
                "operator:type": "government",
                "amenity": "school",
                "note": "Parent RSPO: 30549"
            }
        },
        {
            "id": 30554,
            "type": "Feature",
            "geometry": {
                "type": "Point",
                "coordinates": [
                    19.39014,
                    49.95257
                ]
            },
            "properties": {
                "ref:rspo": 30554,
                "official_name": "Zesp\u00f3\u0142 Szkolno-Przedszkolny im. Micha\u0142a Szczyg\u0142a w Giera\u0142towicach",
                "name": "Zesp\u00f3\u0142 Szkolno-Przedszkolny",
                "addr:postcode": "34-122",
                "addr:city": "Giera\u0142towice",
                "addr:street": "\u015awi\u0119tego Marcina",
                "addr:housenumber": "7",
                "addr:city:simc": 75481,
                "addr:street:sym_ul": 12284,
                "phone": "+48 338755178",
                "email": "sekretariat@zspgieraltowice.wieprz.pl",
                "website": "https:\/\/zspgieraltowice.wieprz.pl",
                "ref:regon": "356557020",
                "ref:vatin": "PL5512316016",
                "operator": "Gmina Wieprz",
                "operator:type": "government",
                "landuse": "education",
                "fixme": "amenity=school, amenity=college albo landuse=education w zale\u017cno\u015bci od tego, jakie plac\u00f3wki wchodz\u0105 w sk\u0142ad zespo\u0142u. Sprawd\u017a, kiedy stosowa\u0107 amenity=* a kiedy landuse=education.",
                "note": "Children RSPO: 47342;48956"
            }
        },
        {
            "id": 47342,
            "type": "Feature",
            "geometry": {
                "type": "Point",
                "coordinates": [
                    19.39014,
                    49.95254
                ]
            },
            "properties": {
                "isced:level": "1;2",
                "ref:rspo": 47342,
                "official_name": "Szko\u0142a Podstawowa im. Micha\u0142a Szczyg\u0142a w Giera\u0142towicach",
                "name": "Szko\u0142a Podstawowa",
                "addr:postcode": "34-122",
                "addr:city": "Giera\u0142towice",
                "addr:street": "\u015awi\u0119tego Marcina",
                "addr:housenumber": "7",
                "addr:city:simc": 75481,
                "addr:street:sym_ul": 12284,
                "phone": "+48 338755178",
                "email": "sekretariat@zspgieraltowice.wieprz.pl",
                "website": "http:\/\/zspgieraltowice.wieprz.pl\/",
                "ref:regon": "070690786",
                "ref:vatin": "PL5512316016",
                "operator": "Gmina Wieprz",
                "operator:type": "government",
                "amenity": "school",
                "note": "Parent RSPO: 30554"
            }
        },
        {
            "id": 48956,
            "type": "Feature",
            "geometry": {
                "type": "Point",
                "coordinates": [
                    19.39014,
                    49.952510000000004
                ]
            },
            "properties": {
                "ref:rspo": 48956,
                "official_name": "Przedszkole Publiczne w Giera\u0142towicach",
                "name": "Przedszkole Publiczne w Giera\u0142towicach",
                "addr:postcode": "34-122",
                "addr:city": "Giera\u0142towice",
                "addr:street": "\u015awi\u0119tego Marcina",
                "addr:housenumber": "7",
                "addr:city:simc": 75481,
                "addr:street:sym_ul": 12284,
                "phone": "+48 338755178",
                "email": "sekretariat@zspgieraltowice.wieprz.pl",
                "website": "https:\/\/zspgieraltowice.pl",
                "ref:regon": "070560517",
                "ref:vatin": "PL5512316016",
                "operator": "Gmina Wieprz",
                "operator:type": "government",
                "amenity": "kindergarten",
                "note": "Parent RSPO: 30554"
            }
        }
    ]
}