{
    "type": "FeatureCollection",
    "features": [
        {
            "id": 4046,
            "type": "Feature",
            "geometry": {
                "type": "Point",
                "coordinates": [
                    19.4227959,
                    49.8284019
                ]
            },
            "properties": {
                "ref:rspo": 4046,
                "official_name": "Specjalny O\u015brodek Szkolno-Wychowawczy w Kaczynie",
                "name": "Specjalny O\u015brodek Szkolno-Wychowawczy w Kaczynie",
                "addr:postcode": "34-123",
                "addr:place": "Kaczyna",
                "addr:housenumber": "50",
                "addr:city:simc": 74263,
                "phone": "+48 338730379",
                "email": "biuro@soswkaczyna.iaw.pl",
                "website": "http:\/\/www.soswkaczyna.iaw.pl",
                "ref:regon": "356319697",
                "operator": "Powiat Wadowicki",
                "operator:type": "government",
                "amenity": "school",
                "note": "Children RSPO: 11842;11976"
            }
        },
        {
            "id": 11842,
            "type": "Feature",
            "geometry": {
                "type": "Point",
                "coordinates": [
                    19.4227959,
                    49.8283719
                ]
            },
            "properties": {
                "isced:level": "1;2",
                "ref:rspo": 11842,
                "official_name": "Specjalny O\u015brodek Szkolno-Wychowawczy w Kaczynie - Szko\u0142a Podstawowa Specjalna",
                "name": "Specjalny O\u015brodek Szkolno-Wychowawczy w Kaczynie - Szko\u0142a Podstawowa Specjalna",
                "addr:postcode": "34-123",
                "addr:place": "Kaczyna",
                "addr:housenumber": "50",
                "addr:city:simc": 74263,
                "phone": "+48 338730379",
                "email": "biuro@soswkaczyna.iaw.pl",
                "website": "http:\/\/www.soswkaczyna.iaw.pl",
                "ref:regon": "356727663",
                "operator": "Powiat Wadowicki",
                "operator:type": "government",
                "amenity": "school",
                "note": "Parent RSPO: 4046"
            }
        },
        {
            "id": 11976,
            "type": "Feature",
            "geometry": {
                "type": "Point",
                "coordinates": [
                    19.4227959,
                    49.828341900000005
                ]
            },
            "properties": {
                "ref:rspo": 11976,
                "official_name": "Specjalny O\u015brodek Szkolno-Wychowawczy w Kaczynie - Szko\u0142a Specjalna Przysposabiaj\u0105ca do Pracy w Kaczynie",
                "name": "Specjalny O\u015brodek Szkolno-Wychowawczy w Kaczynie - Szko\u0142a Specjalna Przysposabiaj\u0105ca do Pracy w Kaczynie",
                "addr:postcode": "34-123",
                "addr:place": "Kaczyna",
                "addr:housenumber": "50",
                "addr:city:simc": 74263,
                "phone": "+48 338730379",
                "email": "biuro@soswkaczyna.iaw.pl",
                "website": "http:\/\/www.soswkaczyna.iaw.pl",
                "ref:regon": "356727686",
                "operator": "Powiat Wadowicki",
                "operator:type": "government",
                "amenity": "school",
                "note": "Parent RSPO: 4046"
            }
        },
        {
            "id": 30875,
            "type": "Feature",
            "geometry": {
                "type": "Point",
                "coordinates": [
                    19.458016,
                    49.831105
                ]
            },
            "properties": {
                "isced:level": "1;2",
                "ref:rspo": 30875,
                "official_name": "Szko\u0142a Podstawowa Stowarzyszenia Przyjaci\u00f3\u0142 Szk\u00f3\u0142 Katolickich im. \u015aw. Maksymiliana Kolbe w Ponikwi",
                "name": "Szko\u0142a Podstawowa Stowarzyszenia Przyjaci\u00f3\u0142 Szk\u00f3\u0142 Katolickich",
                "addr:postcode": "34-100",
                "addr:place": "Ponikiew",
                "addr:housenumber": "116",
                "addr:city:simc": 74547,
                "phone": "+48 338721623",
                "email": "spskponikiew@op.pl",
                "ref:regon": "122687666",
                "ref:vatin": "PL5512613234",
                "operator": "Stowarzyszenie Przyjaci\u00f3\u0142 Szk\u00f3\u0142 Katolickich",
                "operator:type": "ngo",
                "amenity": "school"
            }
        },
        {
            "id": 278976,
            "type": "Feature",
            "geometry": {
                "type": "Point",
                "coordinates": [
                    19.50116,
                    49.85363
                ]
            },
            "properties": {
                "ref:rspo": 278976,
                "official_name": "Niepubliczne Przedszkole Montessori \"Dzwonek\"",
                "name": "Niepubliczne Przedszkole Montessori \"Dzwonek\"",
                "addr:postcode": "34-100",
                "addr:place": "Gorze\u0144 G\u00f3rny",
                "addr:housenumber": "5",
                "addr:city:simc": 74180,
                "email": "dzwonekmontessori@gmail.com",
                "ref:regon": "520335005",
                "operator": "Izabela Jo\u0144czyk",
                "operator:type": "private",
                "amenity": "kindergarten"
            }
        },
        {
            "id": 75978,
            "type": "Feature",
            "geometry": {
                "type": "Point",
                "coordinates": [
                    19.43405,
                    49.85401
                ]
            },
            "properties": {
                "isced:level": "1;2",
                "ref:rspo": 75978,
                "official_name": "Szko\u0142a Podstawowa nr 2 im. \u015aw. Kr\u00f3lowej Jadwigi w Choczni",
                "name": "Szko\u0142a Podstawowa nr 2",
                "addr:postcode": "34-123",
                "addr:city": "Chocznia",
                "addr:street": "G\u0142\u00f3wna",
                "addr:housenumber": "65",
                "addr:city:simc": 73944,
                "addr:street:sym_ul": 5635,
                "phone": "+48 338730328",
                "email": "sp2chocznia@wadowice.pl",
                "ref:regon": "071011860",
                "ref:vatin": "PL5512314282",
                "operator": "Gmina Wadowice",
                "operator:type": "government",
                "amenity": "school"
            }
        },
        {
            "id": 31305,
            "type": "Feature",
            "geometry": {
                "type": "Point",
                "coordinates": [
                    19.4814769,
                    49.856245
                ]
            },
            "properties": {
                "isced:level": "1;2",
                "ref:rspo": 31305,
                "official_name": "Szko\u0142a Podstawowa im. Gen. Waleriana Czumy w Zawadce",
                "name": "Szko\u0142a Podstawowa",
                "addr:postcode": "34-100",
                "addr:place": "Zawadka",
                "addr:housenumber": "90",
                "addr:city:simc": 75067,
                "phone": "+48 338732202",
                "email": "spzawadka@wadowice.pl",
                "ref:regon": "071011899",
                "ref:vatin": "PL5511038928",
                "operator": "Gmina Wadowice",
                "operator:type": "government",
                "amenity": "school"
            }
        },
        {
            "id": 40515,
            "type": "Feature",
            "geometry": {
                "type": "Point",
                "coordinates": [
                    19.5189802,
                    49.8621455
                ]
            },
            "properties": {
                "ref:rspo": 40515,
                "official_name": "Zesp\u00f3\u0142 Szk\u00f3\u0142 im. 12 Pu\u0142ku Piechoty Ziemi Wadowickiej w Jaroszowicach",
                "name": "Zesp\u00f3\u0142 Szk\u00f3\u0142",
                "addr:postcode": "34-100",
                "addr:place": "Jaroszowice",
                "addr:housenumber": "88",
                "addr:city:simc": 74211,
                "phone": "+48 338731003",
                "email": "zsjaroszowice@wadowice.pl",
                "ref:regon": "357212837",
                "ref:vatin": "PL5512253729",
                "operator": "Gmina Wadowice",
                "operator:type": "government",
                "landuse": "education",
                "fixme": "amenity=school, amenity=college albo landuse=education w zale\u017cno\u015bci od tego, jakie plac\u00f3wki wchodz\u0105 w sk\u0142ad zespo\u0142u. Sprawd\u017a, kiedy stosowa\u0107 amenity=* a kiedy landuse=education.",
                "note": "Children RSPO: 75979;75980"
            }
        },
        {
            "id": 75979,
            "type": "Feature",
            "geometry": {
                "type": "Point",
                "coordinates": [
                    19.5189802,
                    49.862115499999994
                ]
            },
            "properties": {
                "ref:rspo": 75979,
                "official_name": "Przedszkole Publiczne w Jaroszowicach",
                "name": "Przedszkole Publiczne w Jaroszowicach",
                "addr:postcode": "34-100",
                "addr:place": "Jaroszowice",
                "addr:housenumber": "88",
                "addr:city:simc": 74211,
                "phone": "+48 338731003",
                "email": "zsjaroszowice@wadowice.pl",
                "ref:regon": "356552590",
                "ref:vatin": "PL5512253729",
                "operator": "Gmina Wadowice",
                "operator:type": "government",
                "amenity": "kindergarten",
                "note": "Parent RSPO: 40515"
            }
        },
        {
            "id": 75980,
            "type": "Feature",
            "geometry": {
                "type": "Point",
                "coordinates": [
                    19.5189802,
                    49.8620855
                ]
            },
            "properties": {
                "isced:level": "1;2",
                "ref:rspo": 75980,
                "official_name": "Szko\u0142a Podstawowa im. 12 P.p. Ziemi Wadowickiej w Jaroszowicach",
                "name": "Szko\u0142a Podstawowa",
                "addr:postcode": "34-100",
                "addr:place": "Jaroszowice",
                "addr:housenumber": "88",
                "addr:city:simc": 74211,
                "phone": "+48 338731003",
                "email": "zsjaroszowice@wadowice.pl",
                "ref:regon": "356552583",
                "ref:vatin": "PL5512253729",
                "operator": "Gmina Wadowice",
                "operator:type": "government",
                "amenity": "school",
                "note": "Parent RSPO: 40515"
            }
        },
        {
            "id": 30630,
            "type": "Feature",
            "geometry": {
                "type": "Point",
                "coordinates": [
                    19.5750369,
                    49.8660069
                ]
            },
            "properties": {
                "isced:level": "1;2",
                "ref:rspo": 30630,
                "official_name": "Szko\u0142a Podstawowa Stowarzyszenia Przyjaci\u00f3\u0142 Szk\u00f3\u0142 Katolickich im. \u015aw. Kr\u00f3lowej Jadwigi w Barwa\u0142dzie Dolnym",
                "name": "Szko\u0142a Podstawowa Stowarzyszenia Przyjaci\u00f3\u0142 Szk\u00f3\u0142 Katolickich",
                "addr:postcode": "34-124",
                "addr:place": "Barwa\u0142d Dolny",
                "addr:housenumber": "64",
                "addr:city:simc": 73861,
                "phone": "+48 338722029",
                "email": "szkolakatolickabarwald-dolny@spsk.info.pl",
                "website": "http:\/\/www.barwalddolny.szkolnastrona.pl",
                "ref:regon": "122687554",
                "ref:vatin": "PL5512375131",
                "operator": "Stowarzyszenie Przyjaci\u00f3\u0142 Szk\u00f3\u0142 Katolickich",
                "operator:type": "ngo",
                "amenity": "school"
            }
        },
        {
            "id": 40512,
            "type": "Feature",
            "geometry": {
                "type": "Point",
                "coordinates": [
                    19.54965,
                    49.869259
                ]
            },
            "properties": {
                "ref:rspo": 40512,
                "official_name": "Zesp\u00f3\u0142 Szk\u00f3\u0142 Publicznych w Kleczy Dolnej",
                "name": "Zesp\u00f3\u0142 Szk\u00f3\u0142 Publicznych w Kleczy Dolnej",
                "addr:postcode": "34-124",
                "addr:place": "Klecza Dolna",
                "addr:housenumber": "77",
                "addr:city:simc": 74346,
                "phone": "+48 338722123",
                "email": "zspkleczadolna@wadowice.pl",
                "ref:regon": "071011847",
                "ref:vatin": "PL5511232180",
                "operator": "Gmina Wadowice",
                "operator:type": "government",
                "landuse": "education",
                "fixme": "amenity=school, amenity=college albo landuse=education w zale\u017cno\u015bci od tego, jakie plac\u00f3wki wchodz\u0105 w sk\u0142ad zespo\u0142u. Sprawd\u017a, kiedy stosowa\u0107 amenity=* a kiedy landuse=education.",
                "note": "Children RSPO: 75982;75983"
            }
        },
        {
            "id": 75982,
            "type": "Feature",
            "geometry": {
                "type": "Point",
                "coordinates": [
                    19.54965,
                    49.869229
                ]
            },
            "properties": {
                "ref:rspo": 75982,
                "official_name": "Przedszkole Publiczne w Kleczy Dolnej",
                "name": "Przedszkole Publiczne w Kleczy Dolnej",
                "addr:postcode": "34-124",
                "addr:place": "Klecza Dolna",
                "addr:housenumber": "77",
                "addr:city:simc": 74346,
                "phone": "+48 338722123",
                "email": "zspkleczadolna@wadowice.pl",
                "ref:regon": "070790677",
                "ref:vatin": "PL5511232180",
                "operator": "Gmina Wadowice",
                "operator:type": "government",
                "amenity": "kindergarten",
                "note": "Parent RSPO: 40512"
            }
        },
        {
            "id": 75983,
            "type": "Feature",
            "geometry": {
                "type": "Point",
                "coordinates": [
                    19.54965,
                    49.869199
                ]
            },
            "properties": {
                "isced:level": "1;2",
                "ref:rspo": 75983,
                "official_name": "Szko\u0142a Podstawowa im. A. Mickiewicza w Kleczy Dolnej",
                "name": "Szko\u0142a Podstawowa",
                "addr:postcode": "34-124",
                "addr:place": "Klecza Dolna",
                "addr:housenumber": "77",
                "addr:city:simc": 74346,
                "phone": "+48 338722123",
                "email": "zspkleczadolna@wadowice.pl",
                "ref:regon": "356724498",
                "ref:vatin": "PL5511232180",
                "operator": "Gmina Wadowice",
                "operator:type": "government",
                "amenity": "school",
                "note": "Parent RSPO: 40512"
            }
        },
        {
            "id": 4019,
            "type": "Feature",
            "geometry": {
                "type": "Point",
                "coordinates": [
                    19.5014585,
                    49.8701659
                ]
            },
            "properties": {
                "ref:rspo": 4019,
                "official_name": "Zesp\u00f3\u0142 Szk\u00f3\u0142 Specjalnych w Wadowicach",
                "name": "Zesp\u00f3\u0142 Szk\u00f3\u0142 Specjalnych w Wadowicach",
                "addr:postcode": "34-100",
                "addr:city": "Wadowice",
                "addr:street": "Zegad\u0142owicza",
                "addr:housenumber": "36",
                "addr:city:simc": 926921,
                "addr:street:sym_ul": 25979,
                "phone": "+48 338732027",
                "email": "sosw36@wp.pl",
                "website": "http:\/\/zsswadowice.iap.pl",
                "ref:regon": "120712532",
                "ref:vatin": "PL5512526452",
                "operator": "Powiat Wadowicki",
                "operator:type": "government",
                "landuse": "education",
                "fixme": "amenity=school, amenity=college albo landuse=education w zale\u017cno\u015bci od tego, jakie plac\u00f3wki wchodz\u0105 w sk\u0142ad zespo\u0142u. Sprawd\u017a, kiedy stosowa\u0107 amenity=* a kiedy landuse=education.",
                "note": "Children RSPO: 10817;10819;274619"
            }
        },
        {
            "id": 133845,
            "type": "Feature",
            "geometry": {
                "type": "Point",
                "coordinates": [
                    19.5014585,
                    49.8701359
                ]
            },
            "properties": {
                "ref:rspo": 133845,
                "official_name": "Centrum Kszta\u0142cenia Zawodowego I Ustawicznego nr 2 w Wadowicach",
                "name": "Centrum Kszta\u0142cenia Zawodowego I Ustawicznego nr 2 w Wadowicach",
                "addr:postcode": "34-100",
                "addr:city": "Wadowice",
                "addr:street": "Zegad\u0142owicza",
                "addr:housenumber": "36",
                "addr:city:simc": 926921,
                "addr:street:sym_ul": 25979,
                "phone": "+48 338731775",
                "email": "sekretariat@ckziuwadowice.pl",
                "website": "http:\/\/www.ckziuwadowice.pl",
                "ref:regon": "367705696",
                "operator": "Powiat Wadowicki",
                "operator:type": "government",
                "landuse": "education",
                "fixme": "amenity=school, amenity=college albo landuse=education w zale\u017cno\u015bci od tego, jakie plac\u00f3wki wchodz\u0105 w sk\u0142ad zespo\u0142u. Sprawd\u017a, kiedy stosowa\u0107 amenity=* a kiedy landuse=education.",
                "note": "Children RSPO: 10688;10689;10690;10695;11601;29573;29585;34373;267321"
            }
        },
        {
            "id": 10817,
            "type": "Feature",
            "geometry": {
                "type": "Point",
                "coordinates": [
                    19.5014585,
                    49.870105900000006
                ]
            },
            "properties": {
                "isced:level": "1;2",
                "ref:rspo": 10817,
                "official_name": "Zesp\u00f3\u0142 Szk\u00f3\u0142 Specjalnych Szko\u0142a Podstawowa Specjalna nr 6 w Wadowicach",
                "name": "Zesp\u00f3\u0142 Szk\u00f3\u0142 Specjalnych Szko\u0142a Podstawowa Specjalna nr 6 w Wadowicach",
                "addr:postcode": "34-100",
                "addr:city": "Wadowice",
                "addr:street": "Zegad\u0142owicza",
                "addr:housenumber": "36",
                "addr:city:simc": 926921,
                "addr:street:sym_ul": 25979,
                "phone": "+48 338732027",
                "email": "sosw36@wp.pl",
                "website": "http:\/\/zsswadowice.iap.pl",
                "ref:regon": "120712561",
                "operator": "Powiat Wadowicki",
                "operator:type": "government",
                "amenity": "school",
                "note": "Parent RSPO: 4019"
            }
        },
        {
            "id": 10819,
            "type": "Feature",
            "geometry": {
                "type": "Point",
                "coordinates": [
                    19.5014585,
                    49.8700759
                ]
            },
            "properties": {
                "isced:level": "3",
                "ref:rspo": 10819,
                "official_name": "Zesp\u00f3\u0142 Szk\u00f3\u0142 Specjalnych w Wadowicach - Bran\u017cowa Szko\u0142a Specjalna I Stopnia nr 4 w Wadowicach",
                "name": "Zesp\u00f3\u0142 Szk\u00f3\u0142 Specjalnych w Wadowicach - Bran\u017cowa Szko\u0142a Specjalna I Stopnia nr 4 w Wadowicach",
                "addr:postcode": "34-100",
                "addr:city": "Wadowice",
                "addr:street": "Zegad\u0142owicza",
                "addr:housenumber": "36",
                "addr:city:simc": 926921,
                "addr:street:sym_ul": 25979,
                "phone": "+48 338732027",
                "email": "sosw36@wp.pl",
                "website": "http:\/\/zsswadowice.iap.pl",
                "ref:regon": "120712584",
                "operator": "Powiat Wadowicki",
                "operator:type": "government",
                "amenity": "school",
                "note": "Parent RSPO: 4019"
            }
        },
        {
            "id": 274619,
            "type": "Feature",
            "geometry": {
                "type": "Point",
                "coordinates": [
                    19.5014585,
                    49.8700459
                ]
            },
            "properties": {
                "ref:rspo": 274619,
                "official_name": "Szko\u0142a Specjalna Przysposabiaj\u0105ca do Pracy w Zespole Szk\u00f3\u0142 Specjalnych w Wadowicach",
                "name": "Szko\u0142a Specjalna Przysposabiaj\u0105ca do Pracy w Zespole Szk\u00f3\u0142 Specjalnych w Wadowicach",
                "addr:postcode": "34-100",
                "addr:city": "Wadowice",
                "addr:street": "Zegad\u0142owicza",
                "addr:housenumber": "36",
                "addr:city:simc": 926921,
                "addr:street:sym_ul": 25979,
                "phone": "+48 337732027",
                "email": "sosw36@wp.pl",
                "website": "http:\/\/www.zsswadowice.iap.pl",
                "ref:regon": "386077176",
                "operator": "Powiat Wadowicki",
                "operator:type": "government",
                "amenity": "school",
                "note": "Parent RSPO: 4019"
            }
        },
        {
            "id": 10688,
            "type": "Feature",
            "geometry": {
                "type": "Point",
                "coordinates": [
                    19.5014585,
                    49.870015900000006
                ]
            },
            "properties": {
                "isced:level": "3",
                "ref:rspo": 10688,
                "official_name": "Centrum Kszta\u0142cenia Zawodowego I Ustawicznego nr 2 w Wadowicach - Bran\u017cowa Szko\u0142a I Stopnia nr 1 im. Ks. St. Staszica w Wadowicach",
                "name": "Centrum Kszta\u0142cenia Zawodowego I Ustawicznego nr 2 w Wadowicach - Bran\u017cowa Szko\u0142a I Stopnia nr 1",
                "addr:postcode": "34-100",
                "addr:city": "Wadowice",
                "addr:street": "Zegad\u0142owicza",
                "addr:housenumber": "36",
                "addr:city:simc": 926921,
                "addr:street:sym_ul": 25979,
                "phone": "+48 338731775",
                "email": "sekretariat@ckziuwadowice.pl",
                "ref:regon": "070456010",
                "operator": "Powiat Wadowicki",
                "operator:type": "government",
                "amenity": "school",
                "note": "Parent RSPO: 133845"
            }
        },
        {
            "id": 10689,
            "type": "Feature",
            "geometry": {
                "type": "Point",
                "coordinates": [
                    19.5014585,
                    49.8699859
                ]
            },
            "properties": {
                "isced:level": "3",
                "ref:rspo": 10689,
                "official_name": "Centrum Kszta\u0142cenia Zawodowego I Ustawicznego nr 2 w Wadowicach - Technikum nr 1 im.ks.stanis\u0142awa Staszica w Wadowicach",
                "name": "Centrum Kszta\u0142cenia Zawodowego I Ustawicznego nr 2 w Wadowicach - Technikum nr 1 im.ks.stanis\u0142awa Staszica w Wadowicach",
                "addr:postcode": "34-100",
                "addr:city": "Wadowice",
                "addr:street": "Zegad\u0142owicza",
                "addr:housenumber": "36",
                "addr:city:simc": 926921,
                "addr:street:sym_ul": 25979,
                "phone": "+48 338731775",
                "email": "sekretariat@ckziuwadowice.pl",
                "ref:regon": "356592884",
                "operator": "Powiat Wadowicki",
                "operator:type": "government",
                "amenity": "school",
                "note": "Parent RSPO: 133845"
            }
        },
        {
            "id": 10690,
            "type": "Feature",
            "geometry": {
                "type": "Point",
                "coordinates": [
                    19.5014585,
                    49.8699559
                ]
            },
            "properties": {
                "isced:level": "3",
                "ref:rspo": 10690,
                "official_name": "Centrum Kszta\u0142cenia Zawodowego I Ustawicznego nr 2 w Wadowicach - II Liceum Og\u00f3lnokszta\u0142c\u0105ce im.ks.st.staszica w Wadowicach",
                "name": "Centrum Kszta\u0142cenia Zawodowego I Ustawicznego nr 2 w Wadowicach - II Liceum Og\u00f3lnokszta\u0142c\u0105ce im.ks.st.staszica w Wadowicach",
                "addr:postcode": "34-100",
                "addr:city": "Wadowice",
                "addr:street": "Zegad\u0142owicza",
                "addr:housenumber": "36",
                "addr:city:simc": 926921,
                "addr:street:sym_ul": 25979,
                "phone": "+48 338731775",
                "email": "sekretariat@ckziuwadowice.pl",
                "ref:regon": "356590879",
                "operator": "Powiat Wadowicki",
                "operator:type": "government",
                "amenity": "school",
                "note": "Parent RSPO: 133845"
            }
        },
        {
            "id": 10695,
            "type": "Feature",
            "geometry": {
                "type": "Point",
                "coordinates": [
                    19.5014585,
                    49.869925900000005
                ]
            },
            "properties": {
                "isced:level": "4",
                "ref:rspo": 10695,
                "official_name": "Centrum Kszta\u0142cenia Zawodowego I Ustawicznego nr 2 w Wadowicach - Szko\u0142a Policealna nr 1 im.ks.stanis\u0142awa Staszica w Wadowicach",
                "name": "Centrum Kszta\u0142cenia Zawodowego I Ustawicznego nr 2 w Wadowicach - Szko\u0142a Policealna nr 1 im.ks.stanis\u0142awa Staszica w Wadowicach",
                "addr:postcode": "34-100",
                "addr:city": "Wadowice",
                "addr:street": "Zegad\u0142owicza",
                "addr:housenumber": "36",
                "addr:city:simc": 926921,
                "addr:street:sym_ul": 25979,
                "phone": "+48 338731775",
                "ref:regon": "356592980",
                "operator": "Powiat Wadowicki",
                "operator:type": "government",
                "amenity": "college",
                "note": "Parent RSPO: 133845"
            }
        },
        {
            "id": 267321,
            "type": "Feature",
            "geometry": {
                "type": "Point",
                "coordinates": [
                    19.5014585,
                    49.8698959
                ]
            },
            "properties": {
                "ref:rspo": 267321,
                "official_name": "Centrum Kszta\u0142cenia Zawodowego nr 2 w Wadowicach",
                "name": "Centrum Kszta\u0142cenia Zawodowego nr 2 w Wadowicach",
                "addr:postcode": "34-100",
                "addr:city": "Wadowice",
                "addr:street": "Zegad\u0142owicza",
                "addr:housenumber": "36",
                "addr:city:simc": 926921,
                "addr:street:sym_ul": 25979,
                "phone": "+48 338731775",
                "email": "sekretariat@ckziuwadowice.pl",
                "ref:regon": "380109171",
                "operator": "Powiat Wadowicki",
                "operator:type": "government",
                "fixme": "w zale\u017cno\u015bci od przedmiotu dzia\u0142alno\u015bci (np. amenity=training + training=*, amenity=dancing_school, amenity=language_school, amenity=music_school) albo amenity=school, amenity=college, albo landuse=education w zale\u017cno\u015bci od tego, jakie plac\u00f3wki wchodz\u0105 w sk\u0142ad zespo\u0142u. Sprawd\u017a, kiedy stosowa\u0107 amenity=* a kiedy landuse=education.",
                "note": "Parent RSPO: 133845"
            }
        },
        {
            "id": 31304,
            "type": "Feature",
            "geometry": {
                "type": "Point",
                "coordinates": [
                    19.49477,
                    49.87023
                ]
            },
            "properties": {
                "isced:level": "1;2",
                "ref:rspo": 31304,
                "official_name": "Szko\u0142a Podstawowa nr 1 im. Jana Paw\u0142a II w Wadowicach",
                "name": "Szko\u0142a Podstawowa nr 1",
                "addr:postcode": "34-100",
                "addr:city": "Wadowice",
                "addr:street": "Osiedle Pod Skarp\u0105",
                "addr:housenumber": "10",
                "addr:city:simc": 926921,
                "addr:street:sym_ul": 16661,
                "phone": "+48 338739920",
                "email": "sp1@wadowice.pl",
                "ref:regon": "356328058",
                "ref:vatin": "PL5512291718",
                "operator": "Gmina Wadowice",
                "operator:type": "government",
                "amenity": "school"
            }
        },
        {
            "id": 40506,
            "type": "Feature",
            "geometry": {
                "type": "Point",
                "coordinates": [
                    19.49477,
                    49.8702
                ]
            },
            "properties": {
                "ref:rspo": 40506,
                "official_name": "Przedszkole Publiczne nr 5 im. Dr. Gustawa Studnickiego w Wadowicach",
                "name": "Przedszkole Publiczne nr 5",
                "addr:postcode": "34-100",
                "addr:city": "Wadowice",
                "addr:street": "Osiedle Pod Skarp\u0105",
                "addr:housenumber": "11",
                "addr:city:simc": 926921,
                "addr:street:sym_ul": 16661,
                "phone": "+48 338720073",
                "email": "pp5@wadowice.pl",
                "ref:regon": "070790648",
                "ref:vatin": "PL5512308608",
                "operator": "Gmina Wadowice",
                "operator:type": "government",
                "amenity": "kindergarten"
            }
        },
        {
            "id": 75975,
            "type": "Feature",
            "geometry": {
                "type": "Point",
                "coordinates": [
                    19.45539,
                    49.87269
                ]
            },
            "properties": {
                "isced:level": "1;2",
                "ref:rspo": 75975,
                "official_name": "Szko\u0142a Podstawowa nr 1 im. T. Ko\u015bciuszki w Choczni",
                "name": "Szko\u0142a Podstawowa nr 1",
                "addr:postcode": "34-123",
                "addr:city": "Chocznia",
                "addr:street": "G\u0142\u00f3wna",
                "addr:housenumber": "1",
                "addr:city:simc": 73944,
                "addr:street:sym_ul": 5635,
                "phone": "+48 338730226",
                "email": "sp1chocznia@wadowice.pl",
                "ref:regon": "356751420",
                "ref:vatin": "PL5512210878",
                "operator": "Gmina Wadowice",
                "operator:type": "government",
                "amenity": "school"
            }
        },
        {
            "id": 118474,
            "type": "Feature",
            "geometry": {
                "type": "Point",
                "coordinates": [
                    19.525863,
                    49.874102
                ]
            },
            "properties": {
                "isced:level": "1;2",
                "ref:rspo": 118474,
                "official_name": "Katolicka Szko\u0142a Podstawowa im. Ks. Leona Bemkego Na Kopcu w Kleczy Dolnej",
                "name": "Katolicka Szko\u0142a Podstawowa",
                "addr:postcode": "34-124",
                "addr:place": "Klecza Dolna",
                "addr:housenumber": "1",
                "addr:city:simc": 74346,
                "phone": "+48 666828711",
                "email": "sekretariat@szkolanakopcu.org",
                "website": "http:\/\/www.szkolanakopcu.org",
                "ref:regon": "122911566",
                "ref:vatin": "PL5512617054",
                "operator": "Stowarzyszenie Apostolstwa Katolickiego (Ksi\u0119\u017ca Pallotyni)",
                "operator:type": "ngo",
                "amenity": "school"
            }
        },
        {
            "id": 128994,
            "type": "Feature",
            "geometry": {
                "type": "Point",
                "coordinates": [
                    19.525863,
                    49.874072
                ]
            },
            "properties": {
                "ref:rspo": 128994,
                "official_name": "Niepubliczne Przedszkole Na Kopcu",
                "name": "Niepubliczne Przedszkole Na Kopcu",
                "addr:postcode": "34-124",
                "addr:place": "Klecza Dolna",
                "addr:housenumber": "1a",
                "addr:city:simc": 74346,
                "phone": "+48 537424636",
                "email": "kontakt@przedszkolenakopcu.pl",
                "website": "http:\/\/www.przedszkolenakopcu.pl",
                "ref:regon": "362440709",
                "ref:vatin": "PL9542619605",
                "operator": "\"Fundacja Tdj Na Rzecz Edukacji I Rozwoju\"",
                "operator:type": "ngo",
                "amenity": "kindergarten"
            }
        },
        {
            "id": 125036,
            "type": "Feature",
            "geometry": {
                "type": "Point",
                "coordinates": [
                    19.4603499,
                    49.87505
                ]
            },
            "properties": {
                "ref:rspo": 125036,
                "official_name": "Niepubliczny Punkt Przedszkolny \"Da\u0107 Szans\u0119\"",
                "name": "Niepubliczny Punkt Przedszkolny \"Da\u0107 Szans\u0119\"",
                "addr:postcode": "34-123",
                "addr:city": "Chocznia",
                "addr:street": "Ko\u015bcielna",
                "addr:housenumber": "3",
                "addr:city:simc": 73944,
                "addr:street:sym_ul": 9546,
                "phone": "+48 695727833",
                "email": "biuro@przedszkoledacszanse.pl",
                "website": "http:\/\/www.przedszkoledacszanse.pl",
                "ref:regon": "123209644",
                "ref:vatin": "PL5512620122",
                "operator": "Stowarzyszenie Rodzic\u00f3w I Opiekun\u00f3w Dzieci Niepe\u0142nosprawnych \"Da\u0107 Szans\u0119\" W Wadowicach",
                "operator:type": "ngo",
                "amenity": "kindergarten"
            }
        },
        {
            "id": 56184,
            "type": "Feature",
            "geometry": {
                "type": "Point",
                "coordinates": [
                    19.50108,
                    49.87627
                ]
            },
            "properties": {
                "ref:rspo": 56184,
                "official_name": "O\u015brodek Kszta\u0142cenia Ustawicznego Ochrona Pracy w Wadowicach",
                "name": "O\u015brodek Kszta\u0142cenia Ustawicznego Ochrona Pracy w Wadowicach",
                "addr:postcode": "34-100",
                "addr:city": "Wadowice",
                "addr:street": "Doktora J\u00f3zefa Putka",
                "addr:housenumber": "9",
                "addr:city:simc": 926921,
                "addr:street:sym_ul": 28196,
                "phone": "+48 338731726",
                "email": "sekretariat@ochronapracy.com",
                "ref:regon": "122693247",
                "operator": "\"Ochrona Pracy\" Sp\u00f3\u0142ka Z Ograniczon\u0105 Odpowiedzialno\u015bci\u0105",
                "operator:type": "private",
                "fixme": "w zale\u017cno\u015bci od przedmiotu dzia\u0142alno\u015bci (np. amenity=training + training=*, amenity=dancing_school, amenity=language_school, amenity=music_school)"
            }
        },
        {
            "id": 56183,
            "type": "Feature",
            "geometry": {
                "type": "Point",
                "coordinates": [
                    19.50331,
                    49.87724
                ]
            },
            "properties": {
                "ref:rspo": 56183,
                "official_name": "Jedynex Biuro Rachunkowe Kursy Komputerowe I Ksi\u0119gowo\u015bci w Wadowicach",
                "name": "Jedynex Biuro Rachunkowe Kursy Komputerowe I Ksi\u0119gowo\u015bci w Wadowicach",
                "addr:postcode": "34-100",
                "addr:city": "Wadowice",
                "addr:street": "Osiedle Kopernika",
                "addr:housenumber": "9",
                "addr:door": "16",
                "addr:city:simc": 926921,
                "addr:street:sym_ul": 9273,
                "phone": "+48 501153264",
                "email": "kosmetyczki@neostrada.pl",
                "ref:regon": "122693164",
                "operator": "Dorota Wi\u015bniewska",
                "operator:type": "private",
                "fixme": "w zale\u017cno\u015bci od przedmiotu dzia\u0142alno\u015bci (np. amenity=training + training=*, amenity=dancing_school, amenity=language_school, amenity=music_school)"
            }
        },
        {
            "id": 40504,
            "type": "Feature",
            "geometry": {
                "type": "Point",
                "coordinates": [
                    19.50024,
                    49.87758
                ]
            },
            "properties": {
                "ref:rspo": 40504,
                "official_name": "Przedszkole Publiczne nr 2 im. Kornela Makuszy\u0144skiego w Wadowicach",
                "name": "Przedszkole Publiczne nr 2",
                "addr:postcode": "34-100",
                "addr:city": "Wadowice",
                "addr:street": "Osiedle Kopernika",
                "addr:housenumber": "12",
                "addr:city:simc": 926921,
                "addr:street:sym_ul": 9273,
                "phone": "+48 338233505",
                "email": "pp2@wadowice.pl",
                "ref:regon": "070790594",
                "ref:vatin": "PL5512308577",
                "operator": "Gmina Wadowice",
                "operator:type": "government",
                "amenity": "kindergarten"
            }
        },
        {
            "id": 75787,
            "type": "Feature",
            "geometry": {
                "type": "Point",
                "coordinates": [
                    19.4991,
                    49.878
                ]
            },
            "properties": {
                "isced:level": "1;2",
                "ref:rspo": 75787,
                "official_name": "Szko\u0142a Podstawowa nr 5 im. M. Kopernika w Wadowicach",
                "name": "Szko\u0142a Podstawowa nr 5",
                "addr:postcode": "34-100",
                "addr:city": "Wadowice",
                "addr:street": "Osiedle Kopernika",
                "addr:housenumber": "11",
                "addr:city:simc": 926921,
                "addr:street:sym_ul": 9273,
                "phone": "+48 338232480",
                "email": "sp5@wadowice.pl",
                "website": "http:\/\/www.zsp2wadowice.pl",
                "ref:regon": "356697465",
                "ref:vatin": "PL5512209935",
                "operator": "Gmina Wadowice",
                "operator:type": "government",
                "amenity": "school"
            }
        },
        {
            "id": 41002,
            "type": "Feature",
            "geometry": {
                "type": "Point",
                "coordinates": [
                    19.51758,
                    49.87954
                ]
            },
            "properties": {
                "ref:rspo": 41002,
                "official_name": "Niepubliczne Przedszkole \"S\u0142oneczko\"",
                "name": "Niepubliczne Przedszkole \"S\u0142oneczko\"",
                "addr:postcode": "34-100",
                "addr:city": "Wadowice",
                "addr:street": "Zygmunta I Starego",
                "addr:housenumber": "29",
                "addr:city:simc": 926921,
                "addr:street:sym_ul": 26336,
                "phone": "+48 665170039",
                "email": "przedszkolewadowice@onet.pl",
                "ref:regon": "122686684",
                "ref:vatin": "PL5512036498",
                "operator": "Joanna J\u0119drzejczyk",
                "operator:type": "private",
                "amenity": "kindergarten"
            }
        },
        {
            "id": 119525,
            "type": "Feature",
            "geometry": {
                "type": "Point",
                "coordinates": [
                    19.50419,
                    49.88001
                ]
            },
            "properties": {
                "ref:rspo": 119525,
                "official_name": "Niepubliczna Specjalistyczna Poradnia Psychologiczno-Pedagogiczna w Wadowicach",
                "name": "Niepubliczna Specjalistyczna Poradnia Psychologiczno-Pedagogiczna w Wadowicach",
                "addr:postcode": "34-100",
                "addr:city": "Wadowice",
                "addr:street": "Kochanowskiego",
                "addr:housenumber": "42",
                "addr:city:simc": 926921,
                "addr:street:sym_ul": 8725,
                "phone": "+48 338731887",
                "email": "poradnia@dacszanse.pl",
                "website": "http:\/\/www.poradnia-wadowice.pl",
                "ref:regon": "122936595",
                "operator": "Stowarzyszenie Rodzic\u00f3w I Opiekun\u00f3w Dzieci Niepe\u0142nosprawnych \"Da\u0107 Szans\u0119\" W Wadowicach",
                "operator:type": "ngo",
                "healthcare": "counselling",
                "counselling_type": "education",
                "fixme": "w zale\u017cno\u015bci od przedmiotu dzia\u0142alno\u015bci (np. healthcare=counselling + counselling_type=education albo healthcare=psychotherapist)"
            }
        },
        {
            "id": 262381,
            "type": "Feature",
            "geometry": {
                "type": "Point",
                "coordinates": [
                    19.50419,
                    49.879979999999996
                ]
            },
            "properties": {
                "ref:rspo": 262381,
                "official_name": "Niepubliczny O\u015brodek Rewalidacyjno-Wychowawczy w Wadowicach",
                "name": "Niepubliczny O\u015brodek Rewalidacyjno-Wychowawczy w Wadowicach",
                "addr:postcode": "34-100",
                "addr:city": "Wadowice",
                "addr:street": "Kochanowskiego",
                "addr:housenumber": "42",
                "addr:city:simc": 926921,
                "addr:street:sym_ul": 8725,
                "email": "biuro@norwwadowice.pl",
                "website": "http:\/\/norwwadowice.pl",
                "ref:regon": "367995458",
                "operator": "Stowarzyszenie Rodzic\u00f3w I Opiekun\u00f3w Dzieci Niepe\u0142nosprawnych \"Da\u0107 Szans\u0119\" W Wadowicach",
                "operator:type": "ngo",
                "amenity": "school"
            }
        },
        {
            "id": 58931,
            "type": "Feature",
            "geometry": {
                "type": "Point",
                "coordinates": [
                    19.4979,
                    49.8811899
                ]
            },
            "properties": {
                "ref:rspo": 58931,
                "official_name": "Lesiuk Bogus\u0142aw O\u015brodek Szkolenia Specjalistycznego \"Labor-S\" w Wadowicach",
                "name": "Lesiuk Bogus\u0142aw O\u015brodek Szkolenia Specjalistycznego \"Labor-S\" w Wadowicach",
                "addr:postcode": "34-100",
                "addr:city": "Wadowice",
                "addr:street": "Lwowska",
                "addr:housenumber": "32",
                "addr:city:simc": 926921,
                "addr:street:sym_ul": 11467,
                "phone": "+48 338234882",
                "email": "biuro@labor-szkolenia.pl",
                "ref:regon": "122702182",
                "ref:vatin": "PL5510011040",
                "operator": "Bogus\u0142aw Lesiuk",
                "operator:type": "private",
                "fixme": "w zale\u017cno\u015bci od przedmiotu dzia\u0142alno\u015bci (np. amenity=training + training=*, amenity=dancing_school, amenity=language_school, amenity=music_school)"
            }
        },
        {
            "id": 53134,
            "type": "Feature",
            "geometry": {
                "type": "Point",
                "coordinates": [
                    19.49764,
                    49.8813
                ]
            },
            "properties": {
                "ref:rspo": 53134,
                "official_name": "Centrum Szkolenia Zawodowego Motor-Glob Gruca Sp\u00f3\u0142ka Jawna w Wadowicach",
                "name": "Centrum Szkolenia Zawodowego Motor-Glob Gruca Sp\u00f3\u0142ka Jawna w Wadowicach",
                "addr:postcode": "34-100",
                "addr:city": "Wadowice",
                "addr:street": "Lwowska",
                "addr:housenumber": "30",
                "addr:city:simc": 926921,
                "addr:street:sym_ul": 11467,
                "phone": "+48 338233571",
                "email": "biuro@motor-glob.pl",
                "ref:regon": "122690881",
                "operator": "Krystyna Gruca",
                "operator:type": "private",
                "fixme": "w zale\u017cno\u015bci od przedmiotu dzia\u0142alno\u015bci (np. amenity=training + training=*, amenity=dancing_school, amenity=language_school, amenity=music_school)"
            }
        },
        {
            "id": 4388,
            "type": "Feature",
            "geometry": {
                "type": "Point",
                "coordinates": [
                    19.496189117432,
                    49.881580352783
                ]
            },
            "properties": {
                "ref:rspo": 4388,
                "official_name": "Poradnia Psychologiczno-Pedagogiczna w Wadowicach",
                "name": "Poradnia Psychologiczno-Pedagogiczna w Wadowicach",
                "addr:postcode": "34-100",
                "addr:city": "Wadowice",
                "addr:street": "Emilii i Karola Wojty\u0142\u00f3w",
                "addr:housenumber": "16",
                "addr:city:simc": 926921,
                "addr:street:sym_ul": 26896,
                "phone": "+48 338731050",
                "email": "pppwadowice@op.pl",
                "ref:regon": "000745616",
                "ref:vatin": "PL5512182165",
                "operator": "Powiat Wadowicki",
                "operator:type": "government",
                "healthcare": "counselling",
                "counselling_type": "education",
                "fixme": "w zale\u017cno\u015bci od przedmiotu dzia\u0142alno\u015bci (np. healthcare=counselling + counselling_type=education albo healthcare=psychotherapist)"
            }
        },
        {
            "id": 40505,
            "type": "Feature",
            "geometry": {
                "type": "Point",
                "coordinates": [
                    19.49667,
                    49.88171
                ]
            },
            "properties": {
                "ref:rspo": 40505,
                "official_name": "Przedszkole Publiczne nr 3 w Wadowicach",
                "name": "Przedszkole Publiczne nr 3 w Wadowicach",
                "addr:postcode": "34-100",
                "addr:city": "Wadowice",
                "addr:street": "Lwowska",
                "addr:housenumber": "24",
                "addr:city:simc": 926921,
                "addr:street:sym_ul": 11467,
                "phone": "+48 338233372",
                "email": "pp3@wadowice.pl",
                "ref:regon": "070790631",
                "ref:vatin": "PL5512308583",
                "operator": "Gmina Wadowice",
                "operator:type": "government",
                "amenity": "kindergarten"
            }
        },
        {
            "id": 24929,
            "type": "Feature",
            "geometry": {
                "type": "Point",
                "coordinates": [
                    19.49667,
                    49.881679999999996
                ]
            },
            "properties": {
                "ref:rspo": 24929,
                "official_name": "Pedagogiczna Biblioteka Wojew\u00f3dzka im. Hugona Ko\u0142\u0142\u0105taja w Krakowie Filia w Wadowicach",
                "name": "Pedagogiczna Biblioteka Wojew\u00f3dzka",
                "addr:postcode": "34-100",
                "addr:city": "Wadowice",
                "addr:street": "Lwowska",
                "addr:housenumber": "24",
                "addr:city:simc": 926921,
                "addr:street:sym_ul": 11467,
                "phone": "+48 338234915",
                "email": "filia.wadowice@pbw.edu.pl",
                "ref:regon": "197729000",
                "operator": "Wojew\u00f3dztwo Ma\u0142opolskie",
                "operator:type": "government",
                "amenity": "library",
                "note": "Parent RSPO: 19644"
            }
        },
        {
            "id": 133057,
            "type": "Feature",
            "geometry": {
                "type": "Point",
                "coordinates": [
                    19.50132,
                    49.8819
                ]
            },
            "properties": {
                "ref:rspo": 133057,
                "official_name": "Centrum Szkoleniowe \"Bracia\"",
                "name": "Centrum Szkoleniowe \"Bracia\"",
                "addr:postcode": "34-100",
                "addr:city": "Wadowice",
                "addr:street": "Fabryczna",
                "addr:housenumber": "4",
                "addr:city:simc": 926921,
                "addr:street:sym_ul": 4863,
                "phone": "+48 884112573",
                "ref:regon": "366566838",
                "operator": "Marcin Stopka",
                "operator:type": "private",
                "fixme": "w zale\u017cno\u015bci od przedmiotu dzia\u0142alno\u015bci (np. amenity=training + training=*, amenity=dancing_school, amenity=language_school, amenity=music_school)"
            }
        },
        {
            "id": 22986,
            "type": "Feature",
            "geometry": {
                "type": "Point",
                "coordinates": [
                    19.49287,
                    49.88225
                ]
            },
            "properties": {
                "ref:rspo": 22986,
                "official_name": "O\u015brodek Szkolenia I Dokszta\u0142cania A.klink, St.nowicki S.c.",
                "name": "O\u015brodek Szkolenia I Dokszta\u0142cania A.klink, St.nowicki S.c.",
                "addr:postcode": "34-100",
                "addr:city": "Wadowice",
                "addr:street": "Spadzista",
                "addr:housenumber": "10",
                "addr:city:simc": 926921,
                "addr:street:sym_ul": 20649,
                "phone": "+48 338732023",
                "email": "osid.studia@gmail.com",
                "ref:regon": "122674296",
                "ref:vatin": "PL5512045824",
                "operator": "Stanis\u0142aw Nowicki",
                "operator:type": "private",
                "fixme": "w zale\u017cno\u015bci od przedmiotu dzia\u0142alno\u015bci (np. amenity=training + training=*, amenity=dancing_school, amenity=language_school, amenity=music_school)"
            }
        },
        {
            "id": 20375,
            "type": "Feature",
            "geometry": {
                "type": "Point",
                "coordinates": [
                    19.49937,
                    49.88244
                ]
            },
            "properties": {
                "ref:rspo": 20375,
                "official_name": "Pa\u0144stwowa Szko\u0142a Muzyczna I I II St. im. Papie\u017ca Jana Paw\u0142a II w Wadowicach",
                "name": "Pa\u0144stwowa Szko\u0142a Muzyczna I I II St.",
                "addr:postcode": "34-100",
                "addr:city": "Wadowice",
                "addr:street": "Legion\u00f3w",
                "addr:housenumber": "11",
                "addr:city:simc": 926921,
                "addr:street:sym_ul": 10769,
                "phone": "+48 338234184",
                "email": "psmwadowice@wp.pl",
                "website": "http:\/\/psmwadowice.pl",
                "ref:regon": "120740149",
                "operator": "Ministerstwo Kultury I Dziedzictwa Narodowego",
                "operator:type": "government",
                "landuse": "education",
                "fixme": "amenity=school, amenity=college albo landuse=education w zale\u017cno\u015bci od tego, jakie plac\u00f3wki wchodz\u0105 w sk\u0142ad zespo\u0142u. Sprawd\u017a, kiedy stosowa\u0107 amenity=* a kiedy landuse=education.",
                "note": "Children RSPO: 121546;121547"
            }
        },
        {
            "id": 121546,
            "type": "Feature",
            "geometry": {
                "type": "Point",
                "coordinates": [
                    19.49937,
                    49.88241
                ]
            },
            "properties": {
                "ref:rspo": 121546,
                "official_name": "Pa\u0144stwowa Szko\u0142a Muzyczna I St. im. Papie\u017ca Jana Paw\u0142a II w Wadowicach",
                "name": "Pa\u0144stwowa Szko\u0142a Muzyczna I St.",
                "addr:postcode": "34-100",
                "addr:city": "Wadowice",
                "addr:street": "Legion\u00f3w",
                "addr:housenumber": "11",
                "addr:city:simc": 926921,
                "addr:street:sym_ul": 10769,
                "phone": "+48 338234184",
                "ref:regon": "000598859",
                "operator": "Ministerstwo Kultury I Dziedzictwa Narodowego",
                "operator:type": "government",
                "amenity": "music_school",
                "note": "Parent RSPO: 20375"
            }
        },
        {
            "id": 121547,
            "type": "Feature",
            "geometry": {
                "type": "Point",
                "coordinates": [
                    19.49937,
                    49.882380000000005
                ]
            },
            "properties": {
                "ref:rspo": 121547,
                "official_name": "Pa\u0144stwowa Szko\u0142a Muzyczna II St. w Wadowicach",
                "name": "Pa\u0144stwowa Szko\u0142a Muzyczna II St. w Wadowicach",
                "addr:postcode": "34-100",
                "addr:city": "Wadowice",
                "addr:street": "Legion\u00f3w",
                "addr:housenumber": "11",
                "addr:city:simc": 926921,
                "addr:street:sym_ul": 10769,
                "phone": "+48 338234184",
                "email": "psmwadowice@wp.pl",
                "website": "http:\/\/psmwadowice.pl",
                "ref:regon": "120740132",
                "operator": "Ministerstwo Kultury I Dziedzictwa Narodowego",
                "operator:type": "government",
                "amenity": "music_school",
                "note": "Parent RSPO: 20375"
            }
        },
        {
            "id": 71030,
            "type": "Feature",
            "geometry": {
                "type": "Point",
                "coordinates": [
                    19.488,
                    49.8831
                ]
            },
            "properties": {
                "isced:level": "1;2",
                "ref:rspo": 71030,
                "official_name": "Szko\u0142a Podstawowa nr 4 im. W. Broniewskiego w Wadowicach",
                "name": "Szko\u0142a Podstawowa nr 4",
                "addr:postcode": "34-100",
                "addr:city": "Wadowice",
                "addr:street": "Juliusza S\u0142owackiego",
                "addr:housenumber": "2",
                "addr:city:simc": 926921,
                "addr:street:sym_ul": 20286,
                "phone": "+48 338233162",
                "email": "sp4@wadowice.pl",
                "website": "https:\/\/zsp1wadowice.edupage.org",
                "ref:regon": "356692019",
                "ref:vatin": "PL5512210499",
                "operator": "Gmina Wadowice",
                "operator:type": "government",
                "amenity": "school"
            }
        },
        {
            "id": 11601,
            "type": "Feature",
            "geometry": {
                "type": "Point",
                "coordinates": [
                    19.48885,
                    49.88313
                ]
            },
            "properties": {
                "isced:level": "3",
                "ref:rspo": 11601,
                "official_name": "Centrum Kszta\u0142cenia Zawodowego I Ustawicznego nr 2 w Wadowicach - IV Liceum Og\u00f3lnokszta\u0142c\u0105ce im. Ks. Jana Twardowskiego w Wadowicach",
                "name": "Centrum Kszta\u0142cenia Zawodowego I Ustawicznego nr 2 w Wadowicach - IV Liceum Og\u00f3lnokszta\u0142c\u0105ce",
                "addr:postcode": "34-120",
                "addr:city": "Wadowice",
                "addr:street": "Juliusza S\u0142owackiego",
                "addr:housenumber": "4",
                "addr:city:simc": 926921,
                "addr:street:sym_ul": 20286,
                "phone": "+48 338732470",
                "email": "sekretariat@ckziuwadowice.pl",
                "ref:regon": "356557103",
                "operator": "Powiat Wadowicki",
                "operator:type": "government",
                "amenity": "school",
                "note": "Parent RSPO: 133845"
            }
        },
        {
            "id": 29573,
            "type": "Feature",
            "geometry": {
                "type": "Point",
                "coordinates": [
                    19.48885,
                    49.8831
                ]
            },
            "properties": {
                "isced:level": "4",
                "ref:rspo": 29573,
                "official_name": "Centrum Kszta\u0142cenia Zawodowego I Ustawicznego nr 2 w Wadowicach - Szko\u0142a Policealna nr 3 im. Ks. Jana Twardowskiego w Wadowicach",
                "name": "Centrum Kszta\u0142cenia Zawodowego I Ustawicznego nr 2 w Wadowicach - Szko\u0142a Policealna nr 3",
                "addr:postcode": "34-100",
                "addr:city": "Wadowice",
                "addr:street": "Juliusza S\u0142owackiego",
                "addr:housenumber": "4",
                "addr:city:simc": 926921,
                "addr:street:sym_ul": 20286,
                "phone": "+48 338732470",
                "ref:regon": "120066351",
                "operator": "Powiat Wadowicki",
                "operator:type": "government",
                "amenity": "college",
                "note": "Parent RSPO: 133845"
            }
        },
        {
            "id": 29585,
            "type": "Feature",
            "geometry": {
                "type": "Point",
                "coordinates": [
                    19.48885,
                    49.883070000000004
                ]
            },
            "properties": {
                "isced:level": "3",
                "ref:rspo": 29585,
                "official_name": "Centrum Kszta\u0142cenia Zawodowego I Ustawicznego nr 2 w Wadowicach-Bran\u017cowa Szko\u0142a I Stopnia nr 3 im. Ks. J. Twardowskiego w Wadowicach",
                "name": "Centrum Kszta\u0142cenia Zawodowego I Ustawicznego nr 2 w Wadowicach-Bran\u017cowa Szko\u0142a I Stopnia nr 3",
                "addr:postcode": "34-100",
                "addr:city": "Wadowice",
                "addr:street": "Juliusza S\u0142owackiego",
                "addr:housenumber": "4",
                "addr:city:simc": 926921,
                "addr:street:sym_ul": 20286,
                "phone": "+48 338732470",
                "email": "sekretariat@ckziuwadowice.pl",
                "ref:regon": "356728208",
                "operator": "Powiat Wadowicki",
                "operator:type": "government",
                "amenity": "school",
                "note": "Parent RSPO: 133845"
            }
        },
        {
            "id": 34373,
            "type": "Feature",
            "geometry": {
                "type": "Point",
                "coordinates": [
                    19.48885,
                    49.88304
                ]
            },
            "properties": {
                "isced:level": "3",
                "ref:rspo": 34373,
                "official_name": "Centrum Kszta\u0142cenia Zawodowego I Ustawicznego nr 2 w Wadowicach - Technikum nr 3 im. Ks. Jana Twardowskiego w Wadowicach",
                "name": "Centrum Kszta\u0142cenia Zawodowego I Ustawicznego nr 2 w Wadowicach - Technikum nr 3",
                "addr:postcode": "34-100",
                "addr:city": "Wadowice",
                "addr:street": "Juliusza S\u0142owackiego",
                "addr:housenumber": "4",
                "addr:city:simc": 926921,
                "addr:street:sym_ul": 20286,
                "phone": "+48 338732470",
                "email": "sekretariat@ckziuwadowice.pl",
                "ref:regon": "356728190",
                "operator": "Powiat Wadowicki",
                "operator:type": "government",
                "amenity": "school",
                "note": "Parent RSPO: 133845"
            }
        },
        {
            "id": 109026,
            "type": "Feature",
            "geometry": {
                "type": "Point",
                "coordinates": [
                    19.4817399,
                    49.88333
                ]
            },
            "properties": {
                "ref:rspo": 109026,
                "official_name": "Niepubliczne Przedszkole \"Ma\u0142e Smerfy\"",
                "name": "Niepubliczne Przedszkole \"Ma\u0142e Smerfy\"",
                "addr:postcode": "34-100",
                "addr:city": "Wadowice",
                "addr:street": "Adama Mickiewicza",
                "addr:housenumber": "45",
                "addr:city:simc": 926921,
                "addr:street:sym_ul": 12734,
                "phone": "+48 792085277",
                "email": "malesmerfy@interia.pl",
                "website": "https:\/\/www.malesmerfy.com\/",
                "ref:regon": "122774394",
                "ref:vatin": "PL5512487433",
                "operator": "Anna Mi\u0142ek-G\u00f3rowska",
                "operator:type": "private",
                "amenity": "kindergarten"
            }
        },
        {
            "id": 40496,
            "type": "Feature",
            "geometry": {
                "type": "Point",
                "coordinates": [
                    19.49656,
                    49.88362
                ]
            },
            "properties": {
                "ref:rspo": 40496,
                "official_name": "Ognisko Pracy Pozaszkolnej w Wadowicach",
                "name": "Ognisko Pracy Pozaszkolnej w Wadowicach",
                "addr:postcode": "34-100",
                "addr:city": "Wadowice",
                "addr:street": "Henryka Sienkiewicza",
                "addr:housenumber": "9",
                "addr:city:simc": 926921,
                "addr:street:sym_ul": 19830,
                "phone": "+48 338234610",
                "email": "opp@wadowice.pl",
                "ref:regon": "122687732",
                "ref:vatin": "PL5512308637",
                "operator": "Gmina Wadowice",
                "operator:type": "government",
                "amenity": "community_centre",
                "community_centre:for": "child;juvenile"
            }
        },
        {
            "id": 75789,
            "type": "Feature",
            "geometry": {
                "type": "Point",
                "coordinates": [
                    19.49656,
                    49.88359
                ]
            },
            "properties": {
                "isced:level": "1;2",
                "ref:rspo": 75789,
                "official_name": "Szko\u0142a Podstawowa nr 2 im. M. Konopnickiej w Wadowicach",
                "name": "Szko\u0142a Podstawowa nr 2",
                "addr:postcode": "34-100",
                "addr:city": "Wadowice",
                "addr:street": "Henryka Sienkiewicza",
                "addr:housenumber": "9",
                "addr:city:simc": 926921,
                "addr:street:sym_ul": 19830,
                "phone": "+48 338233389",
                "email": "sp2@wadowice.pl",
                "ref:regon": "071011592",
                "ref:vatin": "PL5512346129",
                "operator": "Gmina Wadowice",
                "operator:type": "government",
                "amenity": "school"
            }
        },
        {
            "id": 119899,
            "type": "Feature",
            "geometry": {
                "type": "Point",
                "coordinates": [
                    19.49656,
                    49.88356
                ]
            },
            "properties": {
                "ref:rspo": 119899,
                "official_name": "Niepubliczna Szko\u0142a Policealna w Wadowicach",
                "name": "Niepubliczna Szko\u0142a Policealna w Wadowicach",
                "addr:postcode": "34-100",
                "addr:city": "Wadowice",
                "addr:street": "Henryka Sienkiewicza",
                "addr:housenumber": "9",
                "addr:city:simc": 926921,
                "addr:street:sym_ul": 19830,
                "phone": "+48 338234853",
                "email": "wisniewskadorota@poczta.pl",
                "ref:regon": "122944198",
                "operator": "Barbara Le\u015bkiewicz-Rzeszutek",
                "operator:type": "private",
                "fixme": "w zale\u017cno\u015bci od przedmiotu dzia\u0142alno\u015bci (np. amenity=training + training=*, amenity=dancing_school, amenity=language_school, amenity=music_school)"
            }
        },
        {
            "id": 32016,
            "type": "Feature",
            "geometry": {
                "type": "Point",
                "coordinates": [
                    19.48977,
                    49.88376
                ]
            },
            "properties": {
                "isced:level": "3",
                "ref:rspo": 32016,
                "official_name": "I Liceum Og\u00f3lnokszta\u0142c\u0105ce im. Marcina Wadowity w Wadowicach",
                "name": "I Liceum Og\u00f3lnokszta\u0142c\u0105ce",
                "addr:postcode": "34-100",
                "addr:city": "Wadowice",
                "addr:street": "Adama Mickiewicza",
                "addr:housenumber": "16",
                "addr:city:simc": 926921,
                "addr:street:sym_ul": 12734,
                "phone": "+48 338234144",
                "email": "sekretariat@lowadowice.pl",
                "website": "http:\/\/lowadowice.pl",
                "ref:regon": "070455861",
                "operator": "Powiat Wadowicki",
                "operator:type": "government",
                "amenity": "school"
            }
        },
        {
            "id": 126633,
            "type": "Feature",
            "geometry": {
                "type": "Point",
                "coordinates": [
                    19.50044,
                    49.88433
                ]
            },
            "properties": {
                "ref:rspo": 126633,
                "official_name": "Niepubliczne Przedszkole Nio-Nio",
                "name": "Niepubliczne Przedszkole Nio-Nio",
                "addr:postcode": "34-100",
                "addr:city": "Wadowice",
                "addr:street": "Stefana \u017beromskiego",
                "addr:housenumber": "2a",
                "addr:city:simc": 926921,
                "addr:street:sym_ul": 26464,
                "phone": "+48 726468999",
                "email": "przedszkolenionio@gmail.com",
                "website": "http:\/\/www.przedszkolenionio.pl",
                "ref:regon": "360577284",
                "ref:vatin": "PL5512616617",
                "operator": "Magdalena Mi\u0142ek",
                "operator:type": "private",
                "amenity": "kindergarten"
            }
        },
        {
            "id": 40502,
            "type": "Feature",
            "geometry": {
                "type": "Point",
                "coordinates": [
                    19.48934,
                    49.88539
                ]
            },
            "properties": {
                "ref:rspo": 40502,
                "official_name": "Przedszkole Publiczne nr 1 w Wadowicach",
                "name": "Przedszkole Publiczne nr 1 w Wadowicach",
                "addr:postcode": "34-100",
                "addr:city": "Wadowice",
                "addr:street": "Gimnazjalna",
                "addr:housenumber": "10",
                "addr:city:simc": 926921,
                "addr:street:sym_ul": 5527,
                "phone": "+48 338233496",
                "email": "pp1@wadowice.pl",
                "ref:regon": "070789906",
                "ref:vatin": "PL5512308560",
                "operator": "Gmina Wadowice",
                "operator:type": "government",
                "amenity": "kindergarten"
            }
        },
        {
            "id": 4865,
            "type": "Feature",
            "geometry": {
                "type": "Point",
                "coordinates": [
                    19.48849,
                    49.8876599
                ]
            },
            "properties": {
                "isced:level": "3",
                "ref:rspo": 4865,
                "official_name": "Niepubliczne Technikum w Wadowicach Zak\u0142adu Doskonalenia Zawodowego w Katowicach",
                "name": "Niepubliczne Technikum w Wadowicach Zak\u0142adu Doskonalenia Zawodowego w Katowicach",
                "addr:postcode": "34-100",
                "addr:city": "Wadowice",
                "addr:street": "Nadbrze\u017cna",
                "addr:housenumber": "25b",
                "addr:city:simc": 926921,
                "addr:street:sym_ul": 13861,
                "phone": "+48 338731474",
                "ref:regon": "122647827",
                "operator": "Zak\u0142ad Doskonalenia Zawodowego W Katowicach",
                "operator:type": "ngo",
                "amenity": "school"
            }
        },
        {
            "id": 115169,
            "type": "Feature",
            "geometry": {
                "type": "Point",
                "coordinates": [
                    19.48849,
                    49.8876299
                ]
            },
            "properties": {
                "isced:level": "3",
                "ref:rspo": 115169,
                "official_name": "Bran\u017cowa Szko\u0142a I Stopnia w Wadowicach Zak\u0142adu Doskonalenia Zawodowego w Katowicach w Katowicach",
                "name": "Bran\u017cowa Szko\u0142a I Stopnia w Wadowicach Zak\u0142adu Doskonalenia Zawodowego w Katowicach w Katowicach",
                "addr:postcode": "34-100",
                "addr:city": "Wadowice",
                "addr:street": "Nadbrze\u017cna",
                "addr:housenumber": "25 b",
                "addr:city:simc": 926921,
                "addr:street:sym_ul": 13861,
                "phone": "+48 338731474",
                "email": "s-wadow@zdz.katowice.pl",
                "website": "http:\/\/szkoly.wadowice.zdz.pl",
                "ref:regon": "122880707",
                "operator": "Zak\u0142ad Doskonalenia Zawodowego W Katowicach",
                "operator:type": "ngo",
                "amenity": "school"
            }
        },
        {
            "id": 115171,
            "type": "Feature",
            "geometry": {
                "type": "Point",
                "coordinates": [
                    19.48849,
                    49.887599900000005
                ]
            },
            "properties": {
                "isced:level": "3",
                "ref:rspo": 115171,
                "official_name": "Liceum Og\u00f3lnokszta\u0142c\u0105ce dla Doros\u0142ych w Wadowicach Zak\u0142adu Doskonalenia Zawodowego w Katowicach",
                "name": "Liceum Og\u00f3lnokszta\u0142c\u0105ce dla Doros\u0142ych w Wadowicach Zak\u0142adu Doskonalenia Zawodowego w Katowicach",
                "addr:postcode": "34-100",
                "addr:city": "Wadowice",
                "addr:street": "Nadbrze\u017cna",
                "addr:housenumber": "25 b",
                "addr:city:simc": 926921,
                "addr:street:sym_ul": 13861,
                "phone": "+48 338731474",
                "email": "s-wadow@zdz.katowice.pl",
                "website": "http:\/\/www.szkoly.wadowice.zdz.pl",
                "ref:regon": "122880720",
                "operator": "Zak\u0142ad Doskonalenia Zawodowego W Katowicach",
                "operator:type": "ngo",
                "amenity": "school"
            }
        },
        {
            "id": 272599,
            "type": "Feature",
            "geometry": {
                "type": "Point",
                "coordinates": [
                    19.49239,
                    49.88839
                ]
            },
            "properties": {
                "ref:rspo": 272599,
                "official_name": "Centrum Kszta\u0142cenia Zawodowego \"Wurbex\" Bo\u017cena Palarczyk-K\u0142obuch",
                "name": "Centrum Kszta\u0142cenia Zawodowego \"Wurbex\" Bo\u017cena Palarczyk-K\u0142obuch",
                "addr:postcode": "34-100",
                "addr:city": "Wadowice",
                "addr:street": "Wojska Polskiego",
                "addr:housenumber": "2B",
                "addr:city:simc": 926921,
                "addr:street:sym_ul": 24628,
                "phone": "+48 338234151",
                "email": "biurowurbex@wp.pl",
                "ref:regon": "384267493",
                "operator": "Bo\u017cena Palarczykk\u0142obuch",
                "operator:type": "private",
                "fixme": "w zale\u017cno\u015bci od przedmiotu dzia\u0142alno\u015bci (np. amenity=training + training=*, amenity=dancing_school, amenity=language_school, amenity=music_school) albo amenity=school, amenity=college, albo landuse=education w zale\u017cno\u015bci od tego, jakie plac\u00f3wki wchodz\u0105 w sk\u0142ad zespo\u0142u. Sprawd\u017a, kiedy stosowa\u0107 amenity=* a kiedy landuse=education."
            }
        },
        {
            "id": 133839,
            "type": "Feature",
            "geometry": {
                "type": "Point",
                "coordinates": [
                    19.49114,
                    49.88913
                ]
            },
            "properties": {
                "ref:rspo": 133839,
                "official_name": "Centrum Kszta\u0142cenia Zawodowego I Ustawicznego nr 1 w Wadowicach",
                "name": "Centrum Kszta\u0142cenia Zawodowego I Ustawicznego nr 1 w Wadowicach",
                "addr:postcode": "34-100",
                "addr:city": "Wadowice",
                "addr:street": "Wojska Polskiego",
                "addr:housenumber": "13",
                "addr:city:simc": 926921,
                "addr:street:sym_ul": 24628,
                "phone": "+48 338234186",
                "email": "sekretariat@ckziu1wadowice.pl",
                "ref:regon": "367705420",
                "operator": "Powiat Wadowicki",
                "operator:type": "government",
                "landuse": "education",
                "fixme": "amenity=school, amenity=college albo landuse=education w zale\u017cno\u015bci od tego, jakie plac\u00f3wki wchodz\u0105 w sk\u0142ad zespo\u0142u. Sprawd\u017a, kiedy stosowa\u0107 amenity=* a kiedy landuse=education.",
                "note": "Children RSPO: 10781;10782;10783;115030;267319;276558"
            }
        },
        {
            "id": 10781,
            "type": "Feature",
            "geometry": {
                "type": "Point",
                "coordinates": [
                    19.49114,
                    49.8891
                ]
            },
            "properties": {
                "isced:level": "3",
                "ref:rspo": 10781,
                "official_name": "Centrum Kszta\u0142cenia Zawodowego I Ustawicznego nr 1 w Wadowicach - Bran\u017cowa Szko\u0142a I Stopnia nr 2 im. Ks. Prof. J. Tischnera w Wadowicach",
                "name": "Centrum Kszta\u0142cenia Zawodowego I Ustawicznego nr 1 w Wadowicach - Bran\u017cowa Szko\u0142a I Stopnia nr 2",
                "addr:postcode": "34-100",
                "addr:city": "Wadowice",
                "addr:street": "Wojska Polskiego",
                "addr:housenumber": "13",
                "addr:city:simc": 926921,
                "addr:street:sym_ul": 24628,
                "phone": "+48 338234186",
                "email": "sekretariat@ckziu1wadowice.pl",
                "website": "http:\/\/www.ckziu1wadowice.pl",
                "ref:regon": "356728444",
                "operator": "Powiat Wadowicki",
                "operator:type": "government",
                "amenity": "school",
                "note": "Parent RSPO: 133839"
            }
        },
        {
            "id": 10782,
            "type": "Feature",
            "geometry": {
                "type": "Point",
                "coordinates": [
                    19.49114,
                    49.889070000000004
                ]
            },
            "properties": {
                "isced:level": "3",
                "ref:rspo": 10782,
                "official_name": "Centrum Kszta\u0142cenia Zawodowego I Ustawicznego nr 1 w Wadowicach - Technikum nr 2 im. Ks. Prof. J. Tischnera",
                "name": "Centrum Kszta\u0142cenia Zawodowego I Ustawicznego nr 1 w Wadowicach - Technikum nr 2",
                "addr:postcode": "34-100",
                "addr:city": "Wadowice",
                "addr:street": "Wojska Polskiego",
                "addr:housenumber": "13",
                "addr:city:simc": 926921,
                "addr:street:sym_ul": 24628,
                "phone": "+48 338234186",
                "email": "sekretariat@ckziu1wadowice.pl",
                "website": "http:\/\/www.ckziu1wadowice.pl",
                "ref:regon": "356728450",
                "operator": "Powiat Wadowicki",
                "operator:type": "government",
                "amenity": "school",
                "note": "Parent RSPO: 133839"
            }
        },
        {
            "id": 10783,
            "type": "Feature",
            "geometry": {
                "type": "Point",
                "coordinates": [
                    19.49114,
                    49.88904
                ]
            },
            "properties": {
                "isced:level": "3",
                "ref:rspo": 10783,
                "official_name": "Centrum Kszta\u0142cenia Zawodowego I Ustawicznego nr 1 w Wadowicach-III Liceum Og\u00f3lnokszta\u0142c\u0105ce im. Ks. Prof. J. Tischnera",
                "name": "Centrum Kszta\u0142cenia Zawodowego I Ustawicznego nr 1 w Wadowicach-III Liceum Og\u00f3lnokszta\u0142c\u0105ce",
                "addr:postcode": "34-100",
                "addr:city": "Wadowice",
                "addr:street": "Wojska Polskiego",
                "addr:housenumber": "13",
                "addr:city:simc": 926921,
                "addr:street:sym_ul": 24628,
                "phone": "+48 338234186",
                "email": "sekretariat@ckziu1wadowice.pl",
                "website": "http:\/\/www.ckziu1wadowice.pl",
                "ref:regon": "356728421",
                "operator": "Powiat Wadowicki",
                "operator:type": "government",
                "amenity": "school",
                "note": "Parent RSPO: 133839"
            }
        },
        {
            "id": 115030,
            "type": "Feature",
            "geometry": {
                "type": "Point",
                "coordinates": [
                    19.49114,
                    49.88901
                ]
            },
            "properties": {
                "isced:level": "3",
                "ref:rspo": 115030,
                "official_name": "Centrum Kszta\u0142cenia Zawodowego I Ustawicznego nr 1W Wadowicach - Liceum Og\u00f3lnokszta\u0142c\u0105ce dla Doros\u0142ych",
                "name": "Centrum Kszta\u0142cenia Zawodowego I Ustawicznego nr 1W Wadowicach - Liceum Og\u00f3lnokszta\u0142c\u0105ce dla Doros\u0142ych",
                "addr:postcode": "34-100",
                "addr:city": "Wadowice",
                "addr:street": "Wojska Polskiego",
                "addr:housenumber": "13",
                "addr:city:simc": 926921,
                "addr:street:sym_ul": 24628,
                "phone": "+48 338234186",
                "email": "sekretariat@ckziu1wadowice.pl",
                "website": "http:\/\/www.ckziu1wadowice.pl",
                "ref:regon": "122877585",
                "operator": "Powiat Wadowicki",
                "operator:type": "government",
                "amenity": "school",
                "note": "Parent RSPO: 133839"
            }
        },
        {
            "id": 267319,
            "type": "Feature",
            "geometry": {
                "type": "Point",
                "coordinates": [
                    19.49114,
                    49.888980000000004
                ]
            },
            "properties": {
                "ref:rspo": 267319,
                "official_name": "Centrum Kszta\u0142cenia Zawodowego nr 1 w Wadowicach",
                "name": "Centrum Kszta\u0142cenia Zawodowego nr 1 w Wadowicach",
                "addr:postcode": "34-100",
                "addr:city": "Wadowice",
                "addr:street": "Wojska Polskiego",
                "addr:housenumber": "13",
                "addr:city:simc": 926921,
                "addr:street:sym_ul": 24628,
                "phone": "+48 338234186",
                "email": "sekretariat@ckziu1wadowice.pl",
                "ref:regon": "380109739",
                "operator": "Powiat Wadowicki",
                "operator:type": "government",
                "fixme": "w zale\u017cno\u015bci od przedmiotu dzia\u0142alno\u015bci (np. amenity=training + training=*, amenity=dancing_school, amenity=language_school, amenity=music_school) albo amenity=school, amenity=college, albo landuse=education w zale\u017cno\u015bci od tego, jakie plac\u00f3wki wchodz\u0105 w sk\u0142ad zespo\u0142u. Sprawd\u017a, kiedy stosowa\u0107 amenity=* a kiedy landuse=education.",
                "note": "Parent RSPO: 133839"
            }
        },
        {
            "id": 276558,
            "type": "Feature",
            "geometry": {
                "type": "Point",
                "coordinates": [
                    19.49114,
                    49.88895
                ]
            },
            "properties": {
                "isced:level": "3",
                "ref:rspo": 276558,
                "official_name": "Bran\u017cowa Szko\u0142a II Stopnia w Wadowicach",
                "name": "Bran\u017cowa Szko\u0142a II Stopnia w Wadowicach",
                "addr:postcode": "34-100",
                "addr:city": "Wadowice",
                "addr:street": "Wojska Polskiego",
                "addr:housenumber": "13",
                "addr:city:simc": 926921,
                "addr:street:sym_ul": 24628,
                "phone": "+48 338234186",
                "email": "sekretariat@ckziu1wadowice.pl",
                "website": "http:\/\/www.ckziu1wadowice.pl",
                "ref:regon": "387237297",
                "operator": "Powiat Wadowicki",
                "operator:type": "government",
                "amenity": "school",
                "note": "Parent RSPO: 133839"
            }
        },
        {
            "id": 126474,
            "type": "Feature",
            "geometry": {
                "type": "Point",
                "coordinates": [
                    19.49722,
                    49.8892
                ]
            },
            "properties": {
                "ref:rspo": 126474,
                "official_name": "Centrum Korepetycji I Kurs\u00f3w Ewart w Wadowicach",
                "name": "Centrum Korepetycji I Kurs\u00f3w Ewart w Wadowicach",
                "addr:postcode": "34-100",
                "addr:city": "Wadowice",
                "addr:street": "Marsza\u0142ka J\u00f3zefa Pi\u0142sudskiego",
                "addr:housenumber": "23",
                "addr:city:simc": 926921,
                "addr:street:sym_ul": 16274,
                "phone": "+48 663484667",
                "email": "biuro@ewart.edu.pl",
                "ref:regon": "360339030",
                "operator": "Ewa Adamus Centrum Edukacji I Turystyki Ewart",
                "operator:type": "consortium",
                "fixme": "w zale\u017cno\u015bci od przedmiotu dzia\u0142alno\u015bci (np. amenity=training + training=*, amenity=dancing_school, amenity=language_school, amenity=music_school)"
            }
        },
        {
            "id": 268871,
            "type": "Feature",
            "geometry": {
                "type": "Point",
                "coordinates": [
                    19.49104,
                    49.89056
                ]
            },
            "properties": {
                "ref:rspo": 268871,
                "official_name": "Niepubliczne Przedszkole Montessori \"Lolek\"",
                "name": "Niepubliczne Przedszkole Montessori \"Lolek\"",
                "addr:postcode": "34-100",
                "addr:city": "Wadowice",
                "addr:street": "Wojska Polskiego",
                "addr:housenumber": "12",
                "addr:city:simc": 926921,
                "addr:street:sym_ul": 24628,
                "email": "sekretariat@montessoriwadowice.pl",
                "ref:regon": "381269793",
                "operator": "Lolek Sp\u00f3\u0142ka Z Ograniczon\u0105 Odpowiedzialno\u015bci\u0105",
                "operator:type": "private",
                "amenity": "kindergarten"
            }
        },
        {
            "id": 30928,
            "type": "Feature",
            "geometry": {
                "type": "Point",
                "coordinates": [
                    19.49005,
                    49.89073
                ]
            },
            "properties": {
                "ref:rspo": 30928,
                "official_name": "Niepubliczne Przedszkole \"T\u0119cza\"",
                "name": "Niepubliczne Przedszkole \"T\u0119cza\"",
                "addr:postcode": "34-100",
                "addr:city": "Wadowice",
                "addr:street": "Wojska Polskiego",
                "addr:housenumber": "17",
                "addr:city:simc": 926921,
                "addr:street:sym_ul": 24628,
                "phone": "+48 692069095",
                "email": "lidiawilk@onet.eu",
                "ref:regon": "122683190",
                "ref:vatin": "PL5512590349",
                "operator": "Lidia Wilk",
                "operator:type": "private",
                "amenity": "kindergarten"
            }
        },
        {
            "id": 126537,
            "type": "Feature",
            "geometry": {
                "type": "Point",
                "coordinates": [
                    19.619273,
                    49.899422
                ]
            },
            "properties": {
                "ref:rspo": 126537,
                "official_name": "Niepubliczne Przedszkole \"Mali Odkrywcy\"",
                "name": "Niepubliczne Przedszkole \"Mali Odkrywcy\"",
                "addr:postcode": "34-105",
                "addr:place": "Wysoka",
                "addr:housenumber": "49b",
                "addr:city:simc": 74910,
                "phone": "+48 500530008",
                "email": "lucyna.ziemian@gmail.com",
                "ref:regon": "360460659",
                "ref:vatin": "PL8431094725",
                "operator": "Lucyna Ziemian",
                "operator:type": "private",
                "amenity": "kindergarten"
            }
        },
        {
            "id": 40499,
            "type": "Feature",
            "geometry": {
                "type": "Point",
                "coordinates": [
                    19.54911,
                    49.9010569
                ]
            },
            "properties": {
                "isced:level": "1;2",
                "ref:rspo": 40499,
                "official_name": "Szko\u0142a Podstawowa im. Ks. Jana Twardowskiego w Babicy",
                "name": "Szko\u0142a Podstawowa",
                "addr:postcode": "34-103",
                "addr:place": "Babica",
                "addr:housenumber": "82a",
                "addr:city:simc": 73750,
                "phone": "+48 338737324",
                "email": "spbabica@wadowice.pl",
                "website": "http:\/\/spbabica.iap.pl",
                "ref:regon": "070034496",
                "ref:vatin": "PL5512308614",
                "operator": "Gmina Wadowice",
                "operator:type": "government",
                "amenity": "school"
            }
        },
        {
            "id": 75985,
            "type": "Feature",
            "geometry": {
                "type": "Point",
                "coordinates": [
                    19.604893,
                    49.907154
                ]
            },
            "properties": {
                "isced:level": "1;2",
                "ref:rspo": 75985,
                "official_name": "Szko\u0142a Podstawowa im. Poleg\u0142ych Za Ojczyzn\u0119 w Latach 1939-1945 w Wysokiej",
                "name": "Szko\u0142a Podstawowa",
                "addr:postcode": "34-105",
                "addr:place": "Wysoka",
                "addr:housenumber": "195",
                "addr:city:simc": 74910,
                "phone": "+48 338737523",
                "email": "spwysoka@wadowice.pl",
                "website": "http:\/\/www.spwysoka.szkolnastrona.pl",
                "ref:regon": "356536905",
                "ref:vatin": "PL5512211027",
                "operator": "Gmina Wadowice",
                "operator:type": "government",
                "amenity": "school"
            }
        },
        {
            "id": 30632,
            "type": "Feature",
            "geometry": {
                "type": "Point",
                "coordinates": [
                    19.628739,
                    49.911183
                ]
            },
            "properties": {
                "isced:level": "1;2",
                "ref:rspo": 30632,
                "official_name": "Szko\u0142a Podstawowa Stowarzyszenia Przyjaci\u00f3\u0142 Szk\u00f3\u0142 Katolickich w Stanis\u0142awiu G\u00f3rnym",
                "name": "Szko\u0142a Podstawowa Stowarzyszenia Przyjaci\u00f3\u0142 Szk\u00f3\u0142 Katolickich w Stanis\u0142awiu G\u00f3rnym",
                "addr:postcode": "34-105",
                "addr:place": "Stanis\u0142aw G\u00f3rny",
                "addr:housenumber": "132",
                "addr:city:simc": 74790,
                "phone": "+48 338767081",
                "email": "gimspskstanislaw@op.pl",
                "ref:regon": "122687590",
                "ref:vatin": "PL5512501570",
                "operator": "Stowarzyszenie Przyjaci\u00f3\u0142 Szk\u00f3\u0142 Katolickich",
                "operator:type": "ngo",
                "amenity": "school"
            }
        },
        {
            "id": 30929,
            "type": "Feature",
            "geometry": {
                "type": "Point",
                "coordinates": [
                    19.628739,
                    49.911153
                ]
            },
            "properties": {
                "ref:rspo": 30929,
                "official_name": "Przedszkole Stowarzyszenia Przyjaci\u00f3\u0142 Szk\u00f3\u0142 Katolickich w Stanis\u0142awiu G\u00f3rnym",
                "name": "Przedszkole Stowarzyszenia Przyjaci\u00f3\u0142 Szk\u00f3\u0142 Katolickich w Stanis\u0142awiu G\u00f3rnym",
                "addr:postcode": "34-105",
                "addr:place": "Stanis\u0142aw G\u00f3rny",
                "addr:housenumber": "132",
                "addr:city:simc": 74790,
                "phone": "+48 338767081",
                "email": "gimspskstanislaw@op.pl",
                "ref:regon": "122692265",
                "ref:vatin": "PL5512579247",
                "operator": "Stowarzyszenie Przyjaci\u00f3\u0142 Szk\u00f3\u0142 Katolickich",
                "operator:type": "ngo",
                "amenity": "kindergarten"
            }
        }
    ]
}