{"type":"FeatureCollection","features":[{"id":63254,"type":"Feature","geometry":{"type":"Point","coordinates":[19.48382,49.89754]},"properties":{"ref:rspo":63254,"official_name":"Zesp\u00f3\u0142 Szkolno Przedszkolny w Tomicach","name":"Zesp\u00f3\u0142 Szkolno Przedszkolny w Tomicach","addr:country":"PL","addr:postcode":"34-100","addr:city":"Tomice","addr:street":"ul. Floria\u0144ska","addr:housenumber":"16","addr:teryt:simc":5085,"addr:teryt:sym_ul":72815,"contact:phone":"+48 338732002","contact:email":"sekretariat@zsptomice.pl","contact:website":"http:\/\/www.zsptomice.edupage.org","ref:regon":"356849018","ref:vatin":"PL5512373735","operator":"Gmina Tomice","operator:type":"government","landuse":"education","fixme":"amenity=school, amenity=college albo landuse=education w zale\u017cno\u015bci od tego, jakie plac\u00f3wki wchodz\u0105 w sk\u0142ad zespo\u0142u. Sprawd\u017a, kiedy stosowa\u0107 amenity=* a kiedy landuse=education.","note":"Children RSPO: 81485;81487"}},{"id":81485,"type":"Feature","geometry":{"type":"Point","coordinates":[19.48382,49.89751]},"properties":{"isced:level":"1;2","ref:rspo":81485,"official_name":"Szko\u0142a Podstawowa im.adama Mickiewicza w Tomicach","name":"Szko\u0142a Podstawowa im.adama Mickiewicza w Tomicach","addr:country":"PL","addr:postcode":"34-100","addr:city":"Tomice","addr:street":"ul. Floria\u0144ska","addr:housenumber":"16","addr:teryt:simc":5085,"addr:teryt:sym_ul":72815,"contact:phone":"+48 338732235","contact:email":"sekretariat@zsptomice.pl","contact:website":"http:\/\/www.zsptomice.edupage.org","ref:regon":"070596107","ref:vatin":"PL5512373735","operator":"Gmina Tomice","operator:type":"government","amenity":"school","note":"Parent RSPO: 63254"}},{"id":81487,"type":"Feature","geometry":{"type":"Point","coordinates":[19.48382,49.89748]},"properties":{"ref:rspo":81487,"official_name":"Przedszkole Samorz\u0105dowe w Tomicach","name":"Przedszkole Samorz\u0105dowe w Tomicach","addr:country":"PL","addr:postcode":"34-100","addr:city":"Tomice","addr:street":"ul. Floria\u0144ska","addr:housenumber":"16","addr:teryt:simc":5085,"addr:teryt:sym_ul":72815,"contact:phone":"+48 338234096","contact:email":"sekretariat@zsptomice.pl","contact:website":"http:\/\/www.zsptomice.edupage.org","ref:regon":"070560670","ref:vatin":"PL5512373735","operator":"Gmina Tomice","operator:type":"government","amenity":"kindergarten","note":"Parent RSPO: 63254"}},{"id":4014,"type":"Feature","geometry":{"type":"Point","coordinates":[19.48172,49.91367]},"properties":{"ref:rspo":4014,"official_name":"Zesp\u00f3\u0142 Szk\u00f3\u0142 Centrum Kszta\u0142cenia Ustawicznego im.\u015bw. Jana Paw\u0142a II w Radoczy","name":"Zesp\u00f3\u0142 Szk\u00f3\u0142 Centrum Kszta\u0142cenia Ustawicznego im.\u015bw. Jana Paw\u0142a II w Radoczy","addr:country":"PL","addr:postcode":"34-100","addr:city":"Radocza","addr:street":"ul. Dworska","addr:housenumber":"8","addr:teryt:simc":4446,"addr:teryt:sym_ul":72710,"contact:phone":"+48 338234089","contact:email":"sekretariat@radocza.edu.pl","contact:website":"http:\/\/www.radocza.edu.pl","ref:regon":"357091084","ref:vatin":"PL5512029386","operator":"Powiat Wadowicki","operator:type":"government","landuse":"education","fixme":"amenity=school, amenity=college albo landuse=education w zale\u017cno\u015bci od tego, jakie plac\u00f3wki wchodz\u0105 w sk\u0142ad zespo\u0142u. Sprawd\u017a, kiedy stosowa\u0107 amenity=* a kiedy landuse=education.","note":"Children RSPO: 11544;11545;11546;11877;22576;276561"}},{"id":11544,"type":"Feature","geometry":{"type":"Point","coordinates":[19.48172,49.91364]},"properties":{"isced:level":"3","ref:rspo":11544,"official_name":"Zesp\u00f3\u0142 Szk\u00f3\u0142 Cku im. \u015aw. Jana Paw\u0142a II w Radoczy - Bran\u017cowa Szko\u0142a I Stopnia w Radoczy","name":"Zesp\u00f3\u0142 Szk\u00f3\u0142 Cku","addr:country":"PL","addr:postcode":"34-100","addr:city":"Radocza","addr:street":"ul. Dworska","addr:housenumber":"8","addr:teryt:simc":4446,"addr:teryt:sym_ul":72710,"contact:phone":"+48 338234089","contact:email":"sekretariat@radocza.edu.pl","contact:website":"http:\/\/www.radocza.edu.pl","ref:regon":"356723323","operator":"Powiat Wadowicki","operator:type":"government","amenity":"school","note":"Parent RSPO: 4014"}},{"id":11545,"type":"Feature","geometry":{"type":"Point","coordinates":[19.48172,49.913610000000006]},"properties":{"isced:level":"3","ref:rspo":11545,"official_name":"Zesp\u00f3\u0142 Szk\u00f3\u0142 Centrum Kszta\u0142cenia Ustawicznego im. \u015aw. Jana Paw\u0142a II w Radoczy - Technikum","name":"Zesp\u00f3\u0142 Szk\u00f3\u0142 Centrum Kszta\u0142cenia Ustawicznego","addr:country":"PL","addr:postcode":"34-100","addr:city":"Radocza","addr:street":"ul. Dworska","addr:housenumber":"8","addr:teryt:simc":4446,"addr:teryt:sym_ul":72710,"contact:phone":"+48 338234089","contact:email":"sekretariat@radocza.edu.pl","contact:website":"http:\/\/www.radocza.edu.pl","ref:regon":"356723263","operator":"Powiat Wadowicki","operator:type":"government","amenity":"school","note":"Parent RSPO: 4014"}},{"id":11546,"type":"Feature","geometry":{"type":"Point","coordinates":[19.48172,49.91358]},"properties":{"isced:level":"3","ref:rspo":11546,"official_name":"Zesp\u00f3\u0142 Szk\u00f3\u0142 Cku im. \u015aw. Jana Paw\u0142a II w Radoczy - Liceum Og\u00f3lnokszta\u0142c\u0105ce","name":"Zesp\u00f3\u0142 Szk\u00f3\u0142 Cku","addr:country":"PL","addr:postcode":"34-100","addr:city":"Radocza","addr:street":"ul. Dworska","addr:housenumber":"8","addr:teryt:simc":4446,"addr:teryt:sym_ul":72710,"contact:phone":"+48 338234089","contact:email":"sekretariat@radocza.edu.pl","contact:website":"http:\/\/www.radocza.edu.pl","ref:regon":"356723228","operator":"Powiat Wadowicki","operator:type":"government","amenity":"school","note":"Parent RSPO: 4014"}},{"id":11877,"type":"Feature","geometry":{"type":"Point","coordinates":[19.48172,49.91355]},"properties":{"isced:level":"3","ref:rspo":11877,"official_name":"Zesp\u00f3\u0142 Szk\u00f3\u0142 Centrum Kszta\u0142cenia Ustawicznego im.\u015bw. Jana Paw\u0142a II w Radoczy - Liceum Og\u00f3lnokszta\u0142c\u0105ce dla Doros\u0142ych","name":"Zesp\u00f3\u0142 Szk\u00f3\u0142 Centrum Kszta\u0142cenia Ustawicznego im.\u015bw. Jana Paw\u0142a II w Radoczy - Liceum Og\u00f3lnokszta\u0142c\u0105ce dla Doros\u0142ych","addr:country":"PL","addr:postcode":"34-100","addr:city":"Radocza","addr:street":"ul. Dworska","addr:housenumber":"8","addr:teryt:simc":4446,"addr:teryt:sym_ul":72710,"contact:phone":"+48 338234089","contact:email":"sekretariat@radocza.edu.pl","contact:website":"http:\/\/www.radocza.edu.pl","ref:regon":"122654661","operator":"Powiat Wadowicki","operator:type":"government","amenity":"school","note":"Parent RSPO: 4014"}},{"id":22576,"type":"Feature","geometry":{"type":"Point","coordinates":[19.48172,49.913520000000005]},"properties":{"isced:level":"4","ref:rspo":22576,"official_name":"Szko\u0142a Policealna w Radoczy w Zespole Szk\u00f3\u0142 Centrum Kszta\u0142cenia Ustawicznego im. \u015aw. Jana Paw\u0142a II w Radoczy","name":"Szko\u0142a Policealna w Radoczy w Zespole Szk\u00f3\u0142 Centrum Kszta\u0142cenia Ustawicznego","addr:country":"PL","addr:postcode":"34-100","addr:city":"Radocza","addr:street":"ul. Dworska","addr:housenumber":"8","addr:teryt:simc":4446,"addr:teryt:sym_ul":72710,"contact:phone":"+48 338234089","contact:email":"sekretariat@radocza.edu.pl","contact:website":"http:\/\/www.radocza.edu.pl","ref:regon":"122673316","operator":"Powiat Wadowicki","operator:type":"government","amenity":"college","note":"Parent RSPO: 4014"}},{"id":276561,"type":"Feature","geometry":{"type":"Point","coordinates":[19.48172,49.91349]},"properties":{"isced:level":"3","ref:rspo":276561,"official_name":"Bran\u017cowa Szko\u0142a II Stopnia w Radoczy","name":"Bran\u017cowa Szko\u0142a II Stopnia w Radoczy","addr:country":"PL","addr:postcode":"34-100","addr:city":"Radocza","addr:street":"ul. Dworska","addr:housenumber":"8","addr:teryt:simc":4446,"addr:teryt:sym_ul":72710,"contact:phone":"+48 338234089","contact:email":"sekretariat@radocza.edu.pl","contact:website":"http:\/\/www.radocza.edu.pl","ref:regon":"387237601","operator":"Powiat Wadowicki","operator:type":"government","amenity":"school","note":"Parent RSPO: 4014"}},{"id":65008,"type":"Feature","geometry":{"type":"Point","coordinates":[19.45543,49.92339]},"properties":{"isced:level":"1;2","ref:rspo":65008,"official_name":"Szko\u0142a Podstawowa im.\u017cwirki I Wigury w Radoczy","name":"Szko\u0142a Podstawowa im.\u017cwirki I Wigury w Radoczy","addr:country":"PL","addr:postcode":"34-100","addr:city":"Radocza","addr:street":"ul. D\u0119bowa","addr:housenumber":"49","addr:teryt:simc":3811,"addr:teryt:sym_ul":72710,"contact:phone":"+48 338739623","contact:email":"sekretariat@spradocza.pl","contact:website":"http:\/\/www.spradocza.superszkolna.pl","ref:regon":"070596120","ref:vatin":"PL5511164544","operator":"Gmina Tomice","operator:type":"government","amenity":"school"}},{"id":77450,"type":"Feature","geometry":{"type":"Point","coordinates":[19.49259,49.93761]},"properties":{"isced:level":"1;2","ref:rspo":77450,"official_name":"Szko\u0142a Podstawowa im.naszej Przyrody w Wo\u017anikach","name":"Szko\u0142a Podstawowa im.naszej Przyrody w Wo\u017anikach","addr:country":"PL","addr:postcode":"34-103","addr:city":"Wo\u017aniki","addr:street":"ul. Wadowicka","addr:housenumber":"133","addr:teryt:simc":23485,"addr:teryt:sym_ul":72991,"contact:phone":"+48 338794523","contact:email":"sekretariat@spwozniki.pl","contact:website":"http:\/\/www.spwozniki.edupage.org","ref:regon":"070596113","ref:vatin":"PL5511123806","operator":"Gmina Tomice","operator:type":"government","amenity":"school"}},{"id":131300,"type":"Feature","geometry":{"type":"Point","coordinates":[19.54169,49.97461]},"properties":{"ref:rspo":131300,"official_name":"Zesp\u00f3\u0142 Szkolno-Przedszkolny w Witanowicach","name":"Zesp\u00f3\u0142 Szkolno-Przedszkolny w Witanowicach","addr:country":"PL","addr:postcode":"34-103","addr:city":"Witanowice","addr:street":"ul. Jana Paw\u0142a II","addr:housenumber":"107","addr:teryt:simc":7123,"addr:teryt:sym_ul":72896,"contact:phone":"+48 338794922","contact:email":"sekretariat@zspwitanowice.pl","contact:website":"http:\/\/www.witce.superszkolna.pl","ref:regon":"365096550","ref:vatin":"PL5512625906","operator":"Gmina Tomice","operator:type":"government","landuse":"education","fixme":"amenity=school, amenity=college albo landuse=education w zale\u017cno\u015bci od tego, jakie plac\u00f3wki wchodz\u0105 w sk\u0142ad zespo\u0142u. Sprawd\u017a, kiedy stosowa\u0107 amenity=* a kiedy landuse=education.","note":"Children RSPO: 64555;131301"}},{"id":64555,"type":"Feature","geometry":{"type":"Point","coordinates":[19.54169,49.974579999999996]},"properties":{"isced:level":"1;2","ref:rspo":64555,"official_name":"Zesp\u00f3\u0142 Szkolno-Przedszkolny w Witanowicach-Szko\u0142a Podstawowa im.jana Kochanowskiego w Witanowicach","name":"Zesp\u00f3\u0142 Szkolno-Przedszkolny w Witanowicach-Szko\u0142a Podstawowa im.jana Kochanowskiego w Witanowicach","addr:country":"PL","addr:postcode":"34-103","addr:city":"Witanowice","addr:street":"ul. Jana Paw\u0142a II","addr:housenumber":"107","addr:teryt:simc":7123,"addr:teryt:sym_ul":72896,"contact:phone":"+48 338794922","contact:email":"sekretariat@zspwitanowice.pl","contact:website":"http:\/\/www.witce.superszkolna.pl","ref:regon":"070596136","ref:vatin":"PL5511162077","operator":"Gmina Tomice","operator:type":"government","amenity":"school","note":"Parent RSPO: 131300"}},{"id":131301,"type":"Feature","geometry":{"type":"Point","coordinates":[19.54169,49.97455]},"properties":{"ref:rspo":131301,"official_name":"Zesp\u00f3\u0142 Szkolno - Przedszkolny w Witanowicach - Przedszkole Publiczne w Witanowicach","name":"Zesp\u00f3\u0142 Szkolno - Przedszkolny w Witanowicach - Przedszkole Publiczne w Witanowicach","addr:country":"PL","addr:postcode":"34-103","addr:city":"Witanowice","addr:street":"ul. Jana Paw\u0142a II","addr:housenumber":"107","addr:teryt:simc":7123,"addr:teryt:sym_ul":72896,"contact:phone":"+48 338794922","contact:email":"sekretariat@zspwitanowice.pl","contact:website":"http:\/\/www.witce.superszkolna.pl","ref:regon":"365097643","ref:vatin":"PL5512625906","operator":"Gmina Tomice","operator:type":"government","amenity":"kindergarten","note":"Parent RSPO: 131300"}}]}