{
    "type": "FeatureCollection",
    "features": [
        {
            "id": 26642,
            "type": "Feature",
            "geometry": {
                "type": "Point",
                "coordinates": [
                    15.871979,
                    53.1750649
                ]
            },
            "properties": {
                "ref:rspo": 26642,
                "official_name": "Specjalny O\u015brodek Szkolno-Wychowawczy im. Marii Grzegorzewskiej w Niemie\u0144sku",
                "name": "Specjalny O\u015brodek Szkolno-Wychowawczy",
                "addr:postcode": "73-220",
                "addr:place": "Niemie\u0144sko",
                "addr:housenumber": "22",
                "addr:city:simc": 181036,
                "phone": "+48 957682312",
                "email": "niemiensko@op.pl",
                "website": "http:\/\/sosw.niemiensko.superszkolna.pl",
                "ref:regon": "000179789",
                "ref:vatin": "PL5941251323",
                "operator": "Powiat Choszcze\u0144ski",
                "operator:type": "government",
                "amenity": "school",
                "note": "Children RSPO: 31216;31345"
            }
        },
        {
            "id": 31216,
            "type": "Feature",
            "geometry": {
                "type": "Point",
                "coordinates": [
                    15.871979,
                    53.1750349
                ]
            },
            "properties": {
                "ref:rspo": 31216,
                "official_name": "Szko\u0142a Specjalna Przysposabiaj\u0105ca do Pracy",
                "name": "Szko\u0142a Specjalna Przysposabiaj\u0105ca do Pracy",
                "addr:postcode": "73-220",
                "addr:place": "Niemie\u0144sko",
                "addr:housenumber": "22",
                "addr:city:simc": 181036,
                "phone": "+48 957682312",
                "email": "niemiensko@op.pl",
                "website": "http:\/\/sosw.niemiensko.superszkolna.pl",
                "ref:regon": "812719688",
                "operator": "Powiat Choszcze\u0144ski",
                "operator:type": "government",
                "amenity": "school",
                "note": "Parent RSPO: 26642"
            }
        },
        {
            "id": 31345,
            "type": "Feature",
            "geometry": {
                "type": "Point",
                "coordinates": [
                    15.871979,
                    53.175004900000005
                ]
            },
            "properties": {
                "isced:level": "1;2",
                "ref:rspo": 31345,
                "official_name": "Szko\u0142a Podstawowa Specjalna",
                "name": "Szko\u0142a Podstawowa Specjalna",
                "addr:postcode": "73-220",
                "addr:place": "Niemie\u0144sko",
                "addr:housenumber": "22",
                "addr:city:simc": 181036,
                "phone": "+48 957682312",
                "email": "niemiensko@op.pl",
                "website": "http:\/\/sosw.niemiensko.superszkolna.pl",
                "ref:regon": "001122053",
                "operator": "Powiat Choszcze\u0144ski",
                "operator:type": "government",
                "amenity": "school",
                "note": "Parent RSPO: 26642"
            }
        },
        {
            "id": 47070,
            "type": "Feature",
            "geometry": {
                "type": "Point",
                "coordinates": [
                    15.75388,
                    53.21701
                ]
            },
            "properties": {
                "ref:rspo": 47070,
                "official_name": "Przedszkole Miejskie",
                "name": "Przedszkole Miejskie",
                "addr:postcode": "73-220",
                "addr:city": "Drawno",
                "addr:street": "Choszcze\u0144ska",
                "addr:housenumber": "47",
                "addr:city:simc": 935357,
                "addr:street:sym_ul": 2865,
                "phone": "+48 957682307",
                "email": "przedszkoledrawno@wp.pl",
                "ref:regon": "210024506",
                "ref:vatin": "PL5941248551",
                "operator": "Gmina Drawno",
                "operator:type": "government",
                "amenity": "kindergarten"
            }
        },
        {
            "id": 47065,
            "type": "Feature",
            "geometry": {
                "type": "Point",
                "coordinates": [
                    15.75591,
                    53.21702
                ]
            },
            "properties": {
                "isced:level": "1;2",
                "ref:rspo": 47065,
                "official_name": "Szko\u0142a Podstawowa im. Stefana \u017beromskiego",
                "name": "Szko\u0142a Podstawowa",
                "addr:postcode": "73-220",
                "addr:city": "Drawno",
                "addr:street": "Szkolna",
                "addr:housenumber": "25",
                "addr:city:simc": 935357,
                "addr:street:sym_ul": 21970,
                "phone": "+48 957682140",
                "email": "szkola.podstawowa.drawno@wp.pl",
                "website": "http:\/\/spdrawno.pl",
                "ref:regon": "210203090",
                "ref:vatin": "PL5941233584",
                "operator": "Gmina Drawno",
                "operator:type": "government",
                "amenity": "school"
            }
        }
    ]
}