{
    "type": "FeatureCollection",
    "features": [
        {
            "id": 15299,
            "type": "Feature",
            "geometry": {
                "type": "Point",
                "coordinates": [
                    15.365481,
                    53.024266
                ]
            },
            "properties": {
                "isced:level": "1;2",
                "ref:rspo": 15299,
                "official_name": "Szko\u0142a Podstawowa w B\u0119dargowie",
                "name": "Szko\u0142a Podstawowa w B\u0119dargowie",
                "addr:country": "PL",
                "addr:postcode": "73-260",
                "addr:place": "B\u0119dargowo",
                "addr:housenumber": "14",
                "addr:teryt:sym_ul": 185465,
                "contact:phone": "+48 957685621",
                "contact:email": "bedargowosp@wp.pl",
                "contact:website": "http:\/\/www.bedargowosp.edupage.org",
                "ref:regon": "210308190",
                "ref:vatin": "PL5941111071",
                "operator": "Gmina Pe\u0142czyce",
                "operator:type": "government",
                "amenity": "school"
            }
        },
        {
            "id": 17280,
            "type": "Feature",
            "geometry": {
                "type": "Point",
                "coordinates": [
                    15.30119,
                    53.04104
                ]
            },
            "properties": {
                "isced:level": "1;2",
                "ref:rspo": 17280,
                "official_name": "Szko\u0142a Podstawowa im.miko\u0142aja Kopernika w Pe\u0142czycach",
                "name": "Szko\u0142a Podstawowa im.miko\u0142aja Kopernika w Pe\u0142czycach",
                "addr:country": "PL",
                "addr:postcode": "73-260",
                "addr:city": "Pe\u0142czyce",
                "addr:street": "ul. Ko\u015bcielna",
                "addr:housenumber": "3",
                "addr:teryt:simc": 9546,
                "addr:teryt:sym_ul": 935601,
                "contact:phone": "+48 957685429",
                "contact:email": "sp@sppelczyce.pl",
                "contact:website": "http:\/\/www.sppelczyce.pl",
                "ref:regon": "210308221",
                "ref:vatin": "PL5941569812",
                "operator": "Gmina Pe\u0142czyce",
                "operator:type": "government",
                "amenity": "school"
            }
        },
        {
            "id": 15115,
            "type": "Feature",
            "geometry": {
                "type": "Point",
                "coordinates": [
                    15.30304,
                    53.0412899
                ]
            },
            "properties": {
                "ref:rspo": 15115,
                "official_name": "Miejsko-Gminne Przedszkole w Pe\u0142czycach",
                "name": "Miejsko-Gminne Przedszkole w Pe\u0142czycach",
                "addr:country": "PL",
                "addr:postcode": "73-260",
                "addr:city": "Pe\u0142czyce",
                "addr:street": "ul. Boles\u0142awa Chrobrego",
                "addr:housenumber": "17",
                "addr:teryt:simc": 1742,
                "addr:teryt:sym_ul": 935601,
                "contact:phone": "+48 957684221",
                "contact:email": "mgprzedszkole@wp.pl",
                "contact:website": "http:\/\/www.przedszkolepelczyce.edu.pl",
                "ref:regon": "320607639",
                "ref:vatin": "PL5941578165",
                "operator": "Gmina Pe\u0142czyce",
                "operator:type": "government",
                "amenity": "kindergarten"
            }
        },
        {
            "id": 15283,
            "type": "Feature",
            "geometry": {
                "type": "Point",
                "coordinates": [
                    15.2408051,
                    53.0459989
                ]
            },
            "properties": {
                "isced:level": "1;2",
                "ref:rspo": 15283,
                "official_name": "Szko\u0142a Podstawowa w Chrapowie",
                "name": "Szko\u0142a Podstawowa w Chrapowie",
                "addr:country": "PL",
                "addr:postcode": "73-260",
                "addr:place": "Chrapowo",
                "addr:housenumber": "25",
                "addr:teryt:sym_ul": 185531,
                "contact:phone": "+48 957685120",
                "contact:email": "szkolachrapowo@op.pl",
                "contact:website": "http:\/\/www.spchrapowo.pl",
                "ref:regon": "210308161",
                "ref:vatin": "PL5941131197",
                "operator": "Gmina Pe\u0142czyce",
                "operator:type": "government",
                "amenity": "school"
            }
        },
        {
            "id": 17278,
            "type": "Feature",
            "geometry": {
                "type": "Point",
                "coordinates": [
                    15.339364,
                    53.0997505
                ]
            },
            "properties": {
                "isced:level": "1;2",
                "ref:rspo": 17278,
                "official_name": "Szko\u0142a Podstawowa w Lubianie",
                "name": "Szko\u0142a Podstawowa w Lubianie",
                "addr:country": "PL",
                "addr:postcode": "73-260",
                "addr:place": "Lubiana",
                "addr:housenumber": "6",
                "addr:teryt:sym_ul": 185583,
                "contact:phone": "+48 957685721",
                "contact:email": "poczta@szkolalubiana.pl",
                "contact:website": "http:\/\/www.szkolalubiana.pl",
                "ref:regon": "210439495",
                "ref:vatin": "PL5941499690",
                "operator": "Gmina Pe\u0142czyce",
                "operator:type": "government",
                "amenity": "school"
            }
        }
    ]
}