{
    "type": "FeatureCollection",
    "features": [
        {
            "id": 39054,
            "type": "Feature",
            "geometry": {
                "type": "Point",
                "coordinates": [
                    22.44414,
                    49.7865899
                ]
            },
            "properties": {
                "isced:level": "1;2",
                "ref:rspo": 39054,
                "official_name": "Publiczna Szko\u0142a Podstawowa w Iskani",
                "name": "Publiczna Szko\u0142a Podstawowa w Iskani",
                "addr:country": "PL",
                "addr:postcode": "37-750",
                "addr:place": "Iska\u0144",
                "addr:housenumber": "27",
                "addr:teryt:simc": 600579,
                "contact:phone": "+48 166511962",
                "contact:email": "sp.iskan@wp.pl",
                "ref:regon": "650119143",
                "ref:vatin": "PL7952526977",
                "operator": "Miasto I Gmina Dubiecko",
                "operator:type": "government",
                "amenity": "school"
            }
        },
        {
            "id": 68390,
            "type": "Feature",
            "geometry": {
                "type": "Point",
                "coordinates": [
                    22.42192,
                    49.81914
                ]
            },
            "properties": {
                "ref:rspo": 68390,
                "official_name": "Zesp\u00f3\u0142 Szk\u00f3\u0142 im. A Fredry w Nienadowej",
                "name": "Zesp\u00f3\u0142 Szk\u00f3\u0142",
                "addr:country": "PL",
                "addr:postcode": "37-750",
                "addr:place": "Nienadowa",
                "addr:housenumber": "555",
                "addr:teryt:simc": 600711,
                "contact:phone": "+48 166511016",
                "contact:email": "zsrnienadowa@post.pl",
                "contact:website": "http:\/\/www.zsnienadowa.rzeszow.pl",
                "ref:regon": "650958100",
                "operator": "Powiat Przemyski",
                "operator:type": "government",
                "landuse": "education",
                "fixme": "amenity=school, amenity=college albo landuse=education w zale\u017cno\u015bci od tego, jakie plac\u00f3wki wchodz\u0105 w sk\u0142ad zespo\u0142u. Sprawd\u017a, kiedy stosowa\u0107 amenity=* a kiedy landuse=education.",
                "note": "Children RSPO: 110540;110542"
            }
        },
        {
            "id": 110540,
            "type": "Feature",
            "geometry": {
                "type": "Point",
                "coordinates": [
                    22.42192,
                    49.819109999999995
                ]
            },
            "properties": {
                "isced:level": "3",
                "ref:rspo": 110540,
                "official_name": "Technikum",
                "name": "Technikum",
                "addr:country": "PL",
                "addr:postcode": "37-750",
                "addr:place": "Nienadowa",
                "addr:housenumber": "555",
                "addr:teryt:simc": 600711,
                "contact:phone": "+48 166511016",
                "contact:email": "zsrnienadowa@post.pl",
                "contact:website": "http:\/\/www.zsnienadowa.rzeszow.pl",
                "ref:regon": "651495983",
                "operator": "Powiat Przemyski",
                "operator:type": "government",
                "amenity": "school",
                "note": "Parent RSPO: 68390"
            }
        },
        {
            "id": 110542,
            "type": "Feature",
            "geometry": {
                "type": "Point",
                "coordinates": [
                    22.42192,
                    49.81908
                ]
            },
            "properties": {
                "isced:level": "3",
                "ref:rspo": 110542,
                "official_name": "Bran\u017cowa Szko\u0142a I Stopnia",
                "name": "Bran\u017cowa Szko\u0142a I Stopnia",
                "addr:country": "PL",
                "addr:postcode": "37-750",
                "addr:place": "Nienadowa",
                "addr:housenumber": "555",
                "addr:teryt:simc": 600711,
                "contact:phone": "+48 166511016",
                "contact:email": "zsrnienadowa@post.pl",
                "contact:website": "http:\/\/www.zsnienadowa.rzeszow.pl",
                "ref:regon": "651495977",
                "operator": "Powiat Przemyski",
                "operator:type": "government",
                "amenity": "school",
                "note": "Parent RSPO: 68390"
            }
        },
        {
            "id": 123012,
            "type": "Feature",
            "geometry": {
                "type": "Point",
                "coordinates": [
                    22.3919,
                    49.82236
                ]
            },
            "properties": {
                "ref:rspo": 123012,
                "official_name": "Prywatne \"T\u0119czowe Przedszkole\" Zofia Zwoli\u0144ska",
                "name": "Prywatne \"T\u0119czowe Przedszkole\" Zofia Zwoli\u0144ska",
                "addr:country": "PL",
                "addr:postcode": "37-750",
                "addr:city": "Dubiecko",
                "addr:street": "Targowa",
                "addr:housenumber": "6",
                "addr:teryt:simc": 600496,
                "addr:teryt:sym_ul": 22659,
                "contact:phone": "+48 506039525",
                "contact:email": "tereska.argasinska@tlen.pl",
                "ref:regon": "181106519",
                "ref:vatin": "PL7951207589",
                "operator": "Zofia Zwoli\u0144ska",
                "operator:type": "private",
                "amenity": "kindergarten"
            }
        },
        {
            "id": 31144,
            "type": "Feature",
            "geometry": {
                "type": "Point",
                "coordinates": [
                    22.39662,
                    49.82305
                ]
            },
            "properties": {
                "ref:rspo": 31144,
                "official_name": "Samorz\u0105dowe Przedszkole w Dubiecku",
                "name": "Samorz\u0105dowe Przedszkole w Dubiecku",
                "addr:country": "PL",
                "addr:postcode": "37-750",
                "addr:city": "Dubiecko",
                "addr:street": "Przemyska",
                "addr:housenumber": "10A",
                "addr:teryt:simc": 600496,
                "addr:teryt:sym_ul": 17735,
                "contact:phone": "+48 166512080",
                "contact:email": "przedszkoledubiecko@gmail.com",
                "ref:regon": "001057893",
                "ref:vatin": "PL7952526701",
                "operator": "Miasto I Gmina Dubiecko",
                "operator:type": "government",
                "amenity": "kindergarten",
                "note": "Parent RSPO: 272232"
            }
        },
        {
            "id": 68388,
            "type": "Feature",
            "geometry": {
                "type": "Point",
                "coordinates": [
                    22.39795,
                    49.82376
                ]
            },
            "properties": {
                "isced:level": "3",
                "ref:rspo": 68388,
                "official_name": "Liceum Og\u00f3lnokszta\u0142c\u0105ce im. Ignacego Krasickiego w Dubiecku",
                "name": "Liceum Og\u00f3lnokszta\u0142c\u0105ce",
                "addr:country": "PL",
                "addr:postcode": "37-750",
                "addr:city": "Dubiecko",
                "addr:street": "Przemyska",
                "addr:housenumber": "6",
                "addr:teryt:simc": 600496,
                "addr:teryt:sym_ul": 17735,
                "contact:phone": "+48 166511012",
                "contact:email": "zsdubiecko@op.pl",
                "contact:website": "http:\/\/www.lodubiecko.cba.pl",
                "ref:regon": "650958375",
                "operator": "Powiat Przemyski",
                "operator:type": "government",
                "amenity": "school"
            }
        },
        {
            "id": 272232,
            "type": "Feature",
            "geometry": {
                "type": "Point",
                "coordinates": [
                    22.39795,
                    49.82373
                ]
            },
            "properties": {
                "ref:rspo": 272232,
                "official_name": "Zesp\u00f3\u0142 Szkolno - Przedszkolny w Dubiecku",
                "name": "Zesp\u00f3\u0142 Szkolno - Przedszkolny w Dubiecku",
                "addr:country": "PL",
                "addr:postcode": "37-750",
                "addr:city": "Dubiecko",
                "addr:street": "Przemyska",
                "addr:housenumber": "6",
                "addr:teryt:simc": 600496,
                "addr:teryt:sym_ul": 17735,
                "contact:phone": "+48 166512200",
                "contact:email": "spdubiecko@op.pl",
                "contact:website": "https:\/\/zspdubiecko.pl",
                "ref:regon": "384057330",
                "ref:vatin": "PL7952555737",
                "operator": "Miasto I Gmina Dubiecko",
                "operator:type": "government",
                "landuse": "education",
                "fixme": "amenity=school, amenity=college albo landuse=education w zale\u017cno\u015bci od tego, jakie plac\u00f3wki wchodz\u0105 w sk\u0142ad zespo\u0142u. Sprawd\u017a, kiedy stosowa\u0107 amenity=* a kiedy landuse=education.",
                "note": "Children RSPO: 18778;31144"
            }
        },
        {
            "id": 18778,
            "type": "Feature",
            "geometry": {
                "type": "Point",
                "coordinates": [
                    22.39795,
                    49.8237
                ]
            },
            "properties": {
                "isced:level": "1;2",
                "ref:rspo": 18778,
                "official_name": "Publiczna Szko\u0142a Podstawowa im. Ignacego Krasickiego w Dubiecku",
                "name": "Publiczna Szko\u0142a Podstawowa",
                "addr:country": "PL",
                "addr:postcode": "37-750",
                "addr:city": "Dubiecko",
                "addr:street": "Przemyska",
                "addr:housenumber": "6",
                "addr:teryt:simc": 600496,
                "addr:teryt:sym_ul": 17735,
                "contact:phone": "+48 166512200",
                "contact:email": "spdubiecko@op.pl",
                "ref:regon": "650119083",
                "ref:vatin": "PL7952525995",
                "operator": "Miasto I Gmina Dubiecko",
                "operator:type": "government",
                "amenity": "school",
                "note": "Parent RSPO: 272232"
            }
        },
        {
            "id": 71553,
            "type": "Feature",
            "geometry": {
                "type": "Point",
                "coordinates": [
                    22.33471,
                    49.82467
                ]
            },
            "properties": {
                "isced:level": "1;2",
                "ref:rspo": 71553,
                "official_name": "Publiczna Szko\u0142a Podstawowa w Bach\u00f3rcu",
                "name": "Publiczna Szko\u0142a Podstawowa w Bach\u00f3rcu",
                "addr:country": "PL",
                "addr:postcode": "37-750",
                "addr:place": "Bach\u00f3rzec",
                "addr:housenumber": "188A",
                "addr:teryt:simc": 600237,
                "contact:phone": "+48 166512210",
                "contact:email": "szkola@spbachorzec.pl",
                "contact:website": "http:\/\/www.spbachorzec.pl\/",
                "ref:regon": "650119189",
                "ref:vatin": "PL7952524429",
                "operator": "Miasto I Gmina Dubiecko",
                "operator:type": "government",
                "amenity": "school"
            }
        },
        {
            "id": 196437,
            "type": "Feature",
            "geometry": {
                "type": "Point",
                "coordinates": [
                    22.4278531,
                    49.8280932
                ]
            },
            "properties": {
                "ref:rspo": 196437,
                "official_name": "Zesp\u00f3\u0142 Szk\u00f3\u0142 w Nienadowej",
                "name": "Zesp\u00f3\u0142 Szk\u00f3\u0142 w Nienadowej",
                "addr:country": "PL",
                "addr:postcode": "37-750",
                "addr:place": "Nienadowa",
                "addr:housenumber": "373",
                "addr:teryt:simc": 600711,
                "contact:phone": "+48 166512240",
                "contact:email": "sp1.nienadowa@wp.pl",
                "ref:regon": "367992402",
                "operator": "Miasto I Gmina Dubiecko",
                "operator:type": "government",
                "landuse": "education",
                "fixme": "amenity=school, amenity=college albo landuse=education w zale\u017cno\u015bci od tego, jakie plac\u00f3wki wchodz\u0105 w sk\u0142ad zespo\u0142u. Sprawd\u017a, kiedy stosowa\u0107 amenity=* a kiedy landuse=education.",
                "note": "Children RSPO: 39051;131384"
            }
        },
        {
            "id": 39051,
            "type": "Feature",
            "geometry": {
                "type": "Point",
                "coordinates": [
                    22.4278531,
                    49.828063199999995
                ]
            },
            "properties": {
                "isced:level": "1;2",
                "ref:rspo": 39051,
                "official_name": "Publiczna Szko\u0142a Podstawowa Nr 1 w Nienadowej",
                "name": "Publiczna Szko\u0142a Podstawowa Nr 1 w Nienadowej",
                "addr:country": "PL",
                "addr:postcode": "37-750",
                "addr:place": "Nienadowa",
                "addr:housenumber": "373",
                "addr:teryt:simc": 600711,
                "contact:phone": "+48 166512240",
                "contact:email": "sp1.nienadowa@wp.pl",
                "ref:regon": "650119120",
                "ref:vatin": "PL7952527037",
                "operator": "Miasto I Gmina Dubiecko",
                "operator:type": "government",
                "amenity": "school",
                "note": "Parent RSPO: 196437"
            }
        },
        {
            "id": 131384,
            "type": "Feature",
            "geometry": {
                "type": "Point",
                "coordinates": [
                    22.42896,
                    49.82929
                ]
            },
            "properties": {
                "ref:rspo": 131384,
                "official_name": "Samorz\u0105dowe Przedszkole w Nienadowej",
                "name": "Samorz\u0105dowe Przedszkole w Nienadowej",
                "addr:country": "PL",
                "addr:postcode": "37-750",
                "addr:place": "Nienadowa",
                "addr:housenumber": "359",
                "addr:teryt:simc": 600711,
                "contact:phone": "+48 166512240",
                "contact:email": "sp1.nienadowa@wp.pl",
                "ref:regon": "365151510",
                "ref:vatin": "PL7952538012",
                "operator": "Miasto I Gmina Dubiecko",
                "operator:type": "government",
                "amenity": "kindergarten",
                "note": "Parent RSPO: 196437"
            }
        },
        {
            "id": 18825,
            "type": "Feature",
            "geometry": {
                "type": "Point",
                "coordinates": [
                    22.37256,
                    49.83682
                ]
            },
            "properties": {
                "ref:rspo": 18825,
                "official_name": "Zesp\u00f3\u0142 Szk\u00f3\u0142 w Przedmie\u015bciu Dubieckim",
                "name": "Zesp\u00f3\u0142 Szk\u00f3\u0142 w Przedmie\u015bciu Dubieckim",
                "addr:country": "PL",
                "addr:postcode": "37-750",
                "addr:place": "Przedmie\u015bcie Dubieckie",
                "addr:housenumber": "140",
                "addr:teryt:simc": 600875,
                "contact:phone": "+48 166511037",
                "contact:email": "spprzedmiescie@op.pl",
                "contact:website": "http:\/\/www.przedmiesciesp.pl",
                "ref:regon": "651436489",
                "ref:vatin": "PL7952526799",
                "operator": "Miasto I Gmina Dubiecko",
                "operator:type": "government",
                "landuse": "education",
                "fixme": "amenity=school, amenity=college albo landuse=education w zale\u017cno\u015bci od tego, jakie plac\u00f3wki wchodz\u0105 w sk\u0142ad zespo\u0142u. Sprawd\u017a, kiedy stosowa\u0107 amenity=* a kiedy landuse=education.",
                "note": "Children RSPO: 23452;23527"
            }
        },
        {
            "id": 23452,
            "type": "Feature",
            "geometry": {
                "type": "Point",
                "coordinates": [
                    22.37256,
                    49.83679
                ]
            },
            "properties": {
                "isced:level": "1;2",
                "ref:rspo": 23452,
                "official_name": "Publiczna Szko\u0142a Podstawowa w Przedmie\u015bciu Dubieckim",
                "name": "Publiczna Szko\u0142a Podstawowa w Przedmie\u015bciu Dubieckim",
                "addr:country": "PL",
                "addr:postcode": "37-750",
                "addr:place": "Przedmie\u015bcie Dubieckie",
                "addr:housenumber": "140",
                "addr:teryt:simc": 600875,
                "contact:phone": "+48 166511037",
                "contact:email": "spprzedmiescie@op.pl",
                "contact:website": "http:\/\/www.przedmiesciesp.pl",
                "ref:regon": "650119195",
                "operator": "Miasto I Gmina Dubiecko",
                "operator:type": "government",
                "amenity": "school",
                "note": "Children RSPO: 264917Parent RSPO: 18825"
            }
        },
        {
            "id": 23527,
            "type": "Feature",
            "geometry": {
                "type": "Point",
                "coordinates": [
                    22.37256,
                    49.836760000000005
                ]
            },
            "properties": {
                "ref:rspo": 23527,
                "official_name": "Samorz\u0105dowe Przedszkole w Przedmie\u015bciu Dubieckim",
                "name": "Samorz\u0105dowe Przedszkole w Przedmie\u015bciu Dubieckim",
                "addr:country": "PL",
                "addr:postcode": "37-750",
                "addr:place": "Przedmie\u015bcie Dubieckie",
                "addr:housenumber": "140",
                "addr:teryt:simc": 600875,
                "contact:phone": "+48 166511037",
                "contact:email": "spprzedmiescie@op.pl",
                "contact:website": "http:\/\/www.przedmiesciesp.pl",
                "ref:regon": "651436495",
                "operator": "Miasto I Gmina Dubiecko",
                "operator:type": "government",
                "amenity": "kindergarten",
                "note": "Parent RSPO: 18825"
            }
        },
        {
            "id": 264917,
            "type": "Feature",
            "geometry": {
                "type": "Point",
                "coordinates": [
                    22.35523,
                    49.8578199
                ]
            },
            "properties": {
                "isced:level": "1;2",
                "ref:rspo": 264917,
                "official_name": "Filia Publicznej Szko\u0142y Podstawowej w Przedmie\u015bciu Dubieckim Z Siedzib\u0105 w Drohobyczce",
                "name": "Filia Publicznej Szko\u0142y Podstawowej w Przedmie\u015bciu Dubieckim Z Siedzib\u0105 w Drohobyczce",
                "addr:country": "PL",
                "addr:postcode": "37-750",
                "addr:place": "Drohobyczka",
                "addr:housenumber": "52",
                "addr:teryt:simc": 600349,
                "contact:phone": "+48 166512120",
                "contact:email": "spprzedmiescie@op.pl",
                "ref:regon": "650119195",
                "operator": "Miasto I Gmina Dubiecko",
                "operator:type": "government",
                "amenity": "school",
                "note": "Parent RSPO: 23452"
            }
        }
    ]
}