{
    "type": "FeatureCollection",
    "features": [
        {
            "id": 15352,
            "type": "Feature",
            "geometry": {
                "type": "Point",
                "coordinates": [
                    22.82167,
                    49.85725
                ]
            },
            "properties": {
                "isced:level": "1;2",
                "ref:rspo": 15352,
                "official_name": "Szko\u0142a Podstawowa w Ma\u0142kowicach im. Ks. Kardyna\u0142a Stefana Wyszy\u0144skiego",
                "name": "Szko\u0142a Podstawowa w Ma\u0142kowicach",
                "addr:postcode": "37-716",
                "addr:place": "Ma\u0142kowice",
                "addr:housenumber": "102A",
                "addr:teryt:simc": 607446,
                "phone": "+48 166712466",
                "email": "spmalkowice@wp.pl",
                "ref:regon": "001249262",
                "ref:vatin": "PL7951609721",
                "operator": "Gmina Or\u0142y",
                "operator:type": "government",
                "amenity": "school"
            }
        },
        {
            "id": 15354,
            "type": "Feature",
            "geometry": {
                "type": "Point",
                "coordinates": [
                    22.87095,
                    49.86583
                ]
            },
            "properties": {
                "isced:level": "1;2",
                "ref:rspo": 15354,
                "official_name": "Szko\u0142a Podstawowa Z Oddzia\u0142em Przedszkolnym im. Jana Paw\u0142a II w Walawie",
                "name": "Szko\u0142a Podstawowa Z Oddzia\u0142em Przedszkolnym",
                "addr:postcode": "37-716",
                "addr:place": "Walawa",
                "addr:housenumber": "60",
                "addr:teryt:simc": 607699,
                "phone": "+48 166712697",
                "email": "spwalawa@o2.pl",
                "website": "http:\/\/spwalawa.pl",
                "ref:regon": "180747400",
                "ref:vatin": "PL7952522531",
                "operator": "Gmina Or\u0142y",
                "operator:type": "government",
                "amenity": "school"
            }
        },
        {
            "id": 9725,
            "type": "Feature",
            "geometry": {
                "type": "Point",
                "coordinates": [
                    22.80905,
                    49.86912
                ]
            },
            "properties": {
                "ref:rspo": 9725,
                "official_name": "Zesp\u00f3\u0142 Szkolno-Przedszkolny Z Oddzia\u0142ami Integracyjnymi I Oddzia\u0142ami Mistrzostwa Sportowego w Or\u0142ach",
                "name": "Zesp\u00f3\u0142 Szkolno-Przedszkolny Z Oddzia\u0142ami Integracyjnymi I Oddzia\u0142ami Mistrzostwa Sportowego w Or\u0142ach",
                "addr:postcode": "37-716",
                "addr:city": "Or\u0142y",
                "addr:street": "Szkolna",
                "addr:housenumber": "1",
                "addr:teryt:simc": 607541,
                "addr:teryt:sym_ul": 21970,
                "phone": "+48 166724630",
                "email": "zsporly@interia.pl",
                "website": "https:\/\/orlysp.blogspot.com\/",
                "ref:regon": "180750313",
                "ref:vatin": "PL7952522577",
                "operator": "Gmina Or\u0142y",
                "operator:type": "government",
                "landuse": "education",
                "fixme": "amenity=school, amenity=college albo landuse=education w zale\u017cno\u015bci od tego, jakie plac\u00f3wki wchodz\u0105 w sk\u0142ad zespo\u0142u. Sprawd\u017a, kiedy stosowa\u0107 amenity=* a kiedy landuse=education.",
                "note": "Children RSPO: 15344;15346"
            }
        },
        {
            "id": 15344,
            "type": "Feature",
            "geometry": {
                "type": "Point",
                "coordinates": [
                    22.80905,
                    49.86909
                ]
            },
            "properties": {
                "isced:level": "1;2",
                "ref:rspo": 15344,
                "official_name": "Zesp\u00f3\u0142 Szkolno-Przedszkolny Z Oddzia\u0142ami Integracyjnymi w Or\u0142ach Szko\u0142a Podstawowa im. Or\u0142a Bia\u0142ego",
                "name": "Zesp\u00f3\u0142 Szkolno-Przedszkolny Z Oddzia\u0142ami Integracyjnymi w Or\u0142ach Szko\u0142a Podstawowa",
                "addr:postcode": "37-716",
                "addr:city": "Or\u0142y",
                "addr:street": "Szkolna",
                "addr:housenumber": "1",
                "addr:teryt:simc": 607541,
                "addr:teryt:sym_ul": 21970,
                "phone": "+48 166724630",
                "email": "zsporly@interia.pl",
                "website": "https:\/\/orlysp.blogspot.com\/",
                "ref:regon": "000272514",
                "ref:vatin": "PL7952138749",
                "operator": "Gmina Or\u0142y",
                "operator:type": "government",
                "amenity": "school",
                "note": "Parent RSPO: 9725"
            }
        },
        {
            "id": 15346,
            "type": "Feature",
            "geometry": {
                "type": "Point",
                "coordinates": [
                    22.80905,
                    49.869060000000005
                ]
            },
            "properties": {
                "ref:rspo": 15346,
                "official_name": "Zesp\u00f3\u0142 Szkolno-Przedszkolny Z Oddzia\u0142ami Integracyjnymi w Or\u0142ach Przedszkole Samorz\u0105dowe im. Or\u0142a Bia\u0142ego",
                "name": "Zesp\u00f3\u0142 Szkolno-Przedszkolny Z Oddzia\u0142ami Integracyjnymi w Or\u0142ach Przedszkole Samorz\u0105dowe",
                "addr:postcode": "37-716",
                "addr:city": "Or\u0142y",
                "addr:street": "Szkolna",
                "addr:housenumber": "1",
                "addr:teryt:simc": 607541,
                "addr:teryt:sym_ul": 21970,
                "phone": "+48 166724630",
                "email": "zsporly@interia.pl",
                "ref:regon": "180254778",
                "ref:vatin": "PL7952420807",
                "operator": "Gmina Or\u0142y",
                "operator:type": "government",
                "amenity": "kindergarten",
                "note": "Parent RSPO: 9725"
            }
        },
        {
            "id": 15355,
            "type": "Feature",
            "geometry": {
                "type": "Point",
                "coordinates": [
                    22.88149,
                    49.87971
                ]
            },
            "properties": {
                "isced:level": "1;2",
                "ref:rspo": 15355,
                "official_name": "Szko\u0142a Podstawowa im. Marii Konopnickiej w Nizinach",
                "name": "Szko\u0142a Podstawowa",
                "addr:postcode": "37-716",
                "addr:place": "Niziny",
                "addr:housenumber": "291",
                "addr:teryt:simc": 607481,
                "phone": "+48 166712669",
                "email": "sp_niziny@op.pl",
                "ref:regon": "650005178",
                "ref:vatin": "PL7951873470",
                "operator": "Gmina Or\u0142y",
                "operator:type": "government",
                "amenity": "school"
            }
        },
        {
            "id": 15350,
            "type": "Feature",
            "geometry": {
                "type": "Point",
                "coordinates": [
                    22.7597373,
                    49.8831175
                ]
            },
            "properties": {
                "isced:level": "1;2",
                "ref:rspo": 15350,
                "official_name": "Szko\u0142a Podstawowa im. Ks. Jana Twardowskiego w Tr\u00f3jczycach",
                "name": "Szko\u0142a Podstawowa",
                "addr:postcode": "37-717",
                "addr:place": "Tr\u00f3jczyce",
                "addr:housenumber": "110",
                "addr:teryt:simc": 607593,
                "phone": "+48 166712623",
                "email": "sptrojczyce@interia.pl",
                "ref:regon": "001207921",
                "ref:vatin": "PL7951697435",
                "operator": "Gmina Or\u0142y",
                "operator:type": "government",
                "amenity": "school"
            }
        },
        {
            "id": 15347,
            "type": "Feature",
            "geometry": {
                "type": "Point",
                "coordinates": [
                    22.7829,
                    49.88453
                ]
            },
            "properties": {
                "isced:level": "1;2",
                "ref:rspo": 15347,
                "official_name": "Szko\u0142a Podstawowa im. Jana Paw\u0142a II w Drohojowie",
                "name": "Szko\u0142a Podstawowa",
                "addr:postcode": "37-716",
                "addr:place": "Drohoj\u00f3w",
                "addr:housenumber": "151A",
                "addr:teryt:simc": 607311,
                "phone": "+48 166724670",
                "email": "zespoldrohojow@interia.eu",
                "website": "http:\/\/www.zespoldrohojow.pl",
                "ref:regon": "001207909",
                "ref:vatin": "PL7952522488",
                "operator": "Gmina Or\u0142y",
                "operator:type": "government",
                "amenity": "school"
            }
        },
        {
            "id": 15351,
            "type": "Feature",
            "geometry": {
                "type": "Point",
                "coordinates": [
                    22.82301,
                    49.89374
                ]
            },
            "properties": {
                "isced:level": "1;2",
                "ref:rspo": 15351,
                "official_name": "Szko\u0142a Podstawowa im. \u015aw.. Jadwigi Kr\u00f3lowej Polski w Zad\u0105browiu",
                "name": "Szko\u0142a Podstawowa",
                "addr:postcode": "37-716",
                "addr:place": "Zad\u0105browie",
                "addr:housenumber": "81",
                "addr:teryt:simc": 607713,
                "phone": "+48 166712618",
                "email": "spzadabrowie@wp.pl",
                "website": "http:\/\/spzadabrowie.szkolnastrona.pl\/",
                "ref:regon": "001207890",
                "ref:vatin": "PL7951640984",
                "operator": "Gmina Or\u0142y",
                "operator:type": "government",
                "amenity": "school"
            }
        },
        {
            "id": 14198,
            "type": "Feature",
            "geometry": {
                "type": "Point",
                "coordinates": [
                    22.73887,
                    49.89795
                ]
            },
            "properties": {
                "ref:rspo": 14198,
                "official_name": "Niepubliczne Przedszkole w Olszynce",
                "name": "Niepubliczne Przedszkole w Olszynce",
                "addr:postcode": "37-717",
                "addr:place": "Olszynka",
                "addr:housenumber": "97",
                "addr:teryt:simc": 607529,
                "phone": "+48 783048783",
                "email": "przedszkolestubienko@tlen.pl",
                "ref:regon": "180889695",
                "operator": "Dane Do Uzupe\u0142nienia",
                "operator:type": "private",
                "amenity": "kindergarten"
            }
        },
        {
            "id": 15349,
            "type": "Feature",
            "geometry": {
                "type": "Point",
                "coordinates": [
                    22.73699,
                    49.90467
                ]
            },
            "properties": {
                "isced:level": "1;2",
                "ref:rspo": 15349,
                "official_name": "Szko\u0142a Podstawowa w Kaszycach im. Pu\u0142kownika Czes\u0142awa M\u0105czy\u0144skiego",
                "name": "Szko\u0142a Podstawowa w Kaszycach",
                "addr:postcode": "37-717",
                "addr:place": "Kaszyce",
                "addr:housenumber": "213",
                "addr:teryt:simc": 607430,
                "phone": "+48 166722088",
                "email": "spkaszyce@interia.pl",
                "ref:regon": "001207884",
                "ref:vatin": "PL7951644054",
                "operator": "Gmina Or\u0142y",
                "operator:type": "government",
                "amenity": "school"
            }
        }
    ]
}