{
    "type": "FeatureCollection",
    "features": [
        {
            "id": 20685,
            "type": "Feature",
            "geometry": {
                "type": "Point",
                "coordinates": [
                    22.80609,
                    49.72314
                ]
            },
            "properties": {
                "isced:level": "1;2",
                "ref:rspo": 20685,
                "official_name": "Szko\u0142a Podstawowa im. Ks. Jana Twardowskiego w Hermanowicach",
                "name": "Szko\u0142a Podstawowa",
                "addr:country": "PL",
                "addr:postcode": "37-733",
                "addr:place": "Hermanowice",
                "addr:housenumber": "78",
                "addr:teryt:simc": 608670,
                "contact:phone": "+48 166751833",
                "contact:email": "sp_hermanowice@op.pl",
                "contact:website": "http:\/\/www.szkola.hermanowice.pl",
                "ref:regon": "001249428",
                "ref:vatin": "PL7952530826",
                "operator": "Gmina Przemy\u015bl",
                "operator:type": "government",
                "amenity": "school"
            }
        },
        {
            "id": 15540,
            "type": "Feature",
            "geometry": {
                "type": "Point",
                "coordinates": [
                    22.75504,
                    49.73116
                ]
            },
            "properties": {
                "ref:rspo": 15540,
                "official_name": "Zesp\u00f3\u0142 Szk\u00f3\u0142 w Grochowcach",
                "name": "Zesp\u00f3\u0142 Szk\u00f3\u0142 w Grochowcach",
                "addr:country": "PL",
                "addr:postcode": "37-733",
                "addr:place": "Grochowce",
                "addr:housenumber": "27",
                "addr:teryt:simc": 608658,
                "contact:phone": "+48 166720397",
                "contact:email": "zsgrochowce@wp.pl",
                "ref:regon": "651537300",
                "ref:vatin": "PL7952530832",
                "operator": "Gmina Przemy\u015bl",
                "operator:type": "government",
                "landuse": "education",
                "fixme": "amenity=school, amenity=college albo landuse=education w zale\u017cno\u015bci od tego, jakie plac\u00f3wki wchodz\u0105 w sk\u0142ad zespo\u0142u. Sprawd\u017a, kiedy stosowa\u0107 amenity=* a kiedy landuse=education.",
                "note": "Children RSPO: 16668;20683"
            }
        },
        {
            "id": 16668,
            "type": "Feature",
            "geometry": {
                "type": "Point",
                "coordinates": [
                    22.75504,
                    49.73113
                ]
            },
            "properties": {
                "ref:rspo": 16668,
                "official_name": "Przedszkole Samorz\u0105dowe w Grochowcach",
                "name": "Przedszkole Samorz\u0105dowe w Grochowcach",
                "addr:country": "PL",
                "addr:postcode": "37-733",
                "addr:place": "Grochowce",
                "addr:housenumber": "27",
                "addr:teryt:simc": 608658,
                "contact:phone": "+48 166720216",
                "contact:email": "zsgrochowce@wp.pl",
                "ref:regon": "180012704",
                "operator": "Gmina Przemy\u015bl",
                "operator:type": "government",
                "amenity": "kindergarten",
                "note": "Parent RSPO: 15540"
            }
        },
        {
            "id": 20683,
            "type": "Feature",
            "geometry": {
                "type": "Point",
                "coordinates": [
                    22.75504,
                    49.731100000000005
                ]
            },
            "properties": {
                "isced:level": "1;2",
                "ref:rspo": 20683,
                "official_name": "Szko\u0142a Podstawowa im. Rotmistrza Witolda Pileckiego w Grochowcach",
                "name": "Szko\u0142a Podstawowa",
                "addr:country": "PL",
                "addr:postcode": "37-733",
                "addr:place": "Grochowce",
                "addr:housenumber": "27",
                "addr:teryt:simc": 608658,
                "contact:phone": "+48 166720397",
                "contact:email": "zsgrochowce@wp.pl",
                "ref:regon": "001249411",
                "operator": "Gmina Przemy\u015bl",
                "operator:type": "government",
                "amenity": "school",
                "note": "Parent RSPO: 15540"
            }
        },
        {
            "id": 16669,
            "type": "Feature",
            "geometry": {
                "type": "Point",
                "coordinates": [
                    22.7760399,
                    49.74637
                ]
            },
            "properties": {
                "ref:rspo": 16669,
                "official_name": "Przedszkole Niepubliczne Zgromadzenia Si\u00f3str S\u0142u\u017cebniczek Nmp Np",
                "name": "Przedszkole Niepubliczne Zgromadzenia Si\u00f3str S\u0142u\u017cebniczek Nmp Np",
                "addr:country": "PL",
                "addr:postcode": "37-733",
                "addr:place": "Pikulice",
                "addr:housenumber": "33",
                "addr:teryt:simc": 608836,
                "contact:phone": "+48 166786207",
                "contact:email": "przedszkolepikulice@gmail.com",
                "ref:regon": "180890190",
                "ref:vatin": "PL7952243587",
                "operator": "Zg. Ss. S\u0142u\u017cebniczek Nmp Niepokalanie Pocz\u0119tej, Prowincja Przemyska",
                "operator:type": "religious",
                "amenity": "kindergarten"
            }
        },
        {
            "id": 15541,
            "type": "Feature",
            "geometry": {
                "type": "Point",
                "coordinates": [
                    22.8052422,
                    49.7522738
                ]
            },
            "properties": {
                "ref:rspo": 15541,
                "official_name": "Zesp\u00f3\u0142 Szk\u00f3\u0142 w Nehrybce",
                "name": "Zesp\u00f3\u0142 Szk\u00f3\u0142 w Nehrybce",
                "addr:country": "PL",
                "addr:postcode": "37-733",
                "addr:place": "Nehrybka",
                "addr:housenumber": "188A",
                "addr:teryt:simc": 608807,
                "contact:phone": "+48 166711911",
                "contact:email": "zsnehrybka@poczta.onet.pl",
                "ref:regon": "651537279",
                "ref:vatin": "PL7952530789",
                "operator": "Gmina Przemy\u015bl",
                "operator:type": "government",
                "landuse": "education",
                "fixme": "amenity=school, amenity=college albo landuse=education w zale\u017cno\u015bci od tego, jakie plac\u00f3wki wchodz\u0105 w sk\u0142ad zespo\u0142u. Sprawd\u017a, kiedy stosowa\u0107 amenity=* a kiedy landuse=education.",
                "note": "Children RSPO: 15538;20681"
            }
        },
        {
            "id": 15538,
            "type": "Feature",
            "geometry": {
                "type": "Point",
                "coordinates": [
                    22.8052422,
                    49.752243799999995
                ]
            },
            "properties": {
                "ref:rspo": 15538,
                "official_name": "Przedszkole Samorz\u0105dowe w Nehrybce",
                "name": "Przedszkole Samorz\u0105dowe w Nehrybce",
                "addr:country": "PL",
                "addr:postcode": "37-733",
                "addr:place": "Nehrybka",
                "addr:housenumber": "188A",
                "addr:teryt:simc": 608807,
                "contact:phone": "+48 166788696",
                "contact:email": "zsnehrybka@poczta.onet.pl",
                "ref:regon": "180012785",
                "operator": "Gmina Przemy\u015bl",
                "operator:type": "government",
                "amenity": "kindergarten",
                "note": "Parent RSPO: 15541"
            }
        },
        {
            "id": 20681,
            "type": "Feature",
            "geometry": {
                "type": "Point",
                "coordinates": [
                    22.8052422,
                    49.7522138
                ]
            },
            "properties": {
                "isced:level": "1;2",
                "ref:rspo": 20681,
                "official_name": "Szko\u0142a Podstawowa im. Tadeusza Ko\u015bciuszki w Nehrybce",
                "name": "Szko\u0142a Podstawowa",
                "addr:country": "PL",
                "addr:postcode": "37-733",
                "addr:place": "Nehrybka",
                "addr:housenumber": "188A",
                "addr:teryt:simc": 608807,
                "contact:phone": "+48 166711911",
                "contact:email": "zsnehrybka@poczta.onet.pl",
                "contact:website": "http:\/\/www.zsnehrybka.pl",
                "ref:regon": "000273086",
                "operator": "Gmina Przemy\u015bl",
                "operator:type": "government",
                "amenity": "school",
                "note": "Parent RSPO: 15541"
            }
        },
        {
            "id": 119555,
            "type": "Feature",
            "geometry": {
                "type": "Point",
                "coordinates": [
                    22.82824,
                    49.76695
                ]
            },
            "properties": {
                "ref:rspo": 119555,
                "official_name": "Niepubliczne Przedszkole \"Chatka Skrzatka\"",
                "name": "Niepubliczne Przedszkole \"Chatka Skrzatka\"",
                "addr:country": "PL",
                "addr:postcode": "37-700",
                "addr:place": "Kr\u00f3wniki",
                "addr:housenumber": "81A",
                "addr:teryt:simc": 608693,
                "contact:phone": "+48 601079770",
                "contact:email": "przedszkole@chatkaskrzatka.com",
                "contact:website": "http:\/\/www.chatkaskrzatka.com",
                "ref:regon": "181017939",
                "operator": "Chatka Skrzatka Sp\u00f3\u0142ka Z Ograniczon\u0105 Odpowiedzialno\u015bci\u0105",
                "operator:type": "private",
                "amenity": "kindergarten"
            }
        },
        {
            "id": 119985,
            "type": "Feature",
            "geometry": {
                "type": "Point",
                "coordinates": [
                    22.8266199,
                    49.76758
                ]
            },
            "properties": {
                "ref:rspo": 119985,
                "official_name": "Prywatne Przedszkole \"Truskawkowe Ranczo\"",
                "name": "Prywatne Przedszkole \"Truskawkowe Ranczo\"",
                "addr:country": "PL",
                "addr:postcode": "37-700",
                "addr:place": "Kr\u00f3wniki",
                "addr:housenumber": "161",
                "addr:teryt:simc": 608693,
                "contact:phone": "+48 500134714",
                "contact:email": "tereska.argasinska@tlen.pl",
                "ref:regon": "181023265",
                "operator": "Marcin Cicho\u0144ski",
                "operator:type": "private",
                "amenity": "kindergarten"
            }
        },
        {
            "id": 51945,
            "type": "Feature",
            "geometry": {
                "type": "Point",
                "coordinates": [
                    22.82755,
                    49.76881
                ]
            },
            "properties": {
                "isced:level": "1;2",
                "ref:rspo": 51945,
                "official_name": "Szko\u0142a Podstawowa im. Ojca \u015awi\u0119tego Jana Paw\u0142a II w Kr\u00f3wnikach",
                "name": "Szko\u0142a Podstawowa",
                "addr:country": "PL",
                "addr:postcode": "37-700",
                "addr:place": "Kr\u00f3wniki",
                "addr:housenumber": "168A",
                "addr:teryt:simc": 608693,
                "contact:phone": "+48 166759908",
                "contact:email": "szkolakrowniki@o2.pl",
                "contact:website": "http:\/\/www.zskrowniki.szkolnastrona.pl",
                "ref:regon": "001208010",
                "ref:vatin": "PL7952530803",
                "operator": "Gmina Przemy\u015bl",
                "operator:type": "government",
                "amenity": "school"
            }
        },
        {
            "id": 42167,
            "type": "Feature",
            "geometry": {
                "type": "Point",
                "coordinates": [
                    22.71226,
                    49.78413
                ]
            },
            "properties": {
                "ref:rspo": 42167,
                "official_name": "Zesp\u00f3\u0142 Szk\u00f3\u0142 w Ostrowie",
                "name": "Zesp\u00f3\u0142 Szk\u00f3\u0142 w Ostrowie",
                "addr:country": "PL",
                "addr:postcode": "37-700",
                "addr:place": "Ostr\u00f3w",
                "addr:housenumber": "29",
                "addr:teryt:simc": 608813,
                "contact:phone": "+48 166710570",
                "contact:email": "zsostrow29@o2.pl",
                "ref:regon": "651537316",
                "ref:vatin": "PL7952530772",
                "operator": "Gmina Przemy\u015bl",
                "operator:type": "government",
                "landuse": "education",
                "fixme": "amenity=school, amenity=college albo landuse=education w zale\u017cno\u015bci od tego, jakie plac\u00f3wki wchodz\u0105 w sk\u0142ad zespo\u0142u. Sprawd\u017a, kiedy stosowa\u0107 amenity=* a kiedy landuse=education.",
                "note": "Children RSPO: 42324;52360"
            }
        },
        {
            "id": 42324,
            "type": "Feature",
            "geometry": {
                "type": "Point",
                "coordinates": [
                    22.71226,
                    49.784099999999995
                ]
            },
            "properties": {
                "ref:rspo": 42324,
                "official_name": "Przedszkole Samorz\u0105dowe w Ostrowie",
                "name": "Przedszkole Samorz\u0105dowe w Ostrowie",
                "addr:country": "PL",
                "addr:postcode": "37-700",
                "addr:place": "Ostr\u00f3w",
                "addr:housenumber": "29",
                "addr:teryt:simc": 608813,
                "contact:phone": "+48 166710664",
                "contact:email": "zsostrow29@o2.pl",
                "ref:regon": "180012756",
                "operator": "Gmina Przemy\u015bl",
                "operator:type": "government",
                "amenity": "kindergarten",
                "note": "Parent RSPO: 42167"
            }
        },
        {
            "id": 52360,
            "type": "Feature",
            "geometry": {
                "type": "Point",
                "coordinates": [
                    22.71226,
                    49.78407
                ]
            },
            "properties": {
                "isced:level": "1;2",
                "ref:rspo": 52360,
                "official_name": "Szko\u0142a Podstawowa im. \u015awi\u0119tej Jadwigi w Ostrowie",
                "name": "Szko\u0142a Podstawowa",
                "addr:country": "PL",
                "addr:postcode": "37-700",
                "addr:place": "Ostr\u00f3w",
                "addr:housenumber": "29",
                "addr:teryt:simc": 608813,
                "contact:phone": "+48 166710570",
                "contact:email": "zsostrow29@o2.pl",
                "ref:regon": "001208027",
                "operator": "Gmina Przemy\u015bl",
                "operator:type": "government",
                "amenity": "school",
                "note": "Parent RSPO: 42167"
            }
        },
        {
            "id": 119024,
            "type": "Feature",
            "geometry": {
                "type": "Point",
                "coordinates": [
                    22.71445,
                    49.78541
                ]
            },
            "properties": {
                "ref:rspo": 119024,
                "official_name": "Prywatne Przedszkole \"Truskawkowe Ranczo\"",
                "name": "Prywatne Przedszkole \"Truskawkowe Ranczo\"",
                "addr:country": "PL",
                "addr:postcode": "37-700",
                "addr:place": "Ostr\u00f3w",
                "addr:housenumber": "418",
                "addr:teryt:simc": 608813,
                "contact:phone": "+48 662238726",
                "contact:email": "tereska.argasinska@tlen.pl",
                "ref:regon": "181012758",
                "operator": "Marcin Cicho\u0144ski",
                "operator:type": "private",
                "amenity": "kindergarten"
            }
        },
        {
            "id": 42382,
            "type": "Feature",
            "geometry": {
                "type": "Point",
                "coordinates": [
                    22.71515,
                    49.80133
                ]
            },
            "properties": {
                "ref:rspo": 42382,
                "official_name": "Przedszkole Samorz\u0105dowe w Ku\u0144kowcach",
                "name": "Przedszkole Samorz\u0105dowe w Ku\u0144kowcach",
                "addr:country": "PL",
                "addr:postcode": "37-700",
                "addr:place": "Ku\u0144kowce",
                "addr:housenumber": "135",
                "addr:teryt:simc": 608718,
                "contact:phone": "+48 166710170",
                "contact:email": "sp.letownia@wp.pl",
                "ref:regon": "180012710",
                "operator": "Gmina Przemy\u015bl",
                "operator:type": "government",
                "amenity": "kindergarten",
                "note": "Parent RSPO: 119040"
            }
        },
        {
            "id": 4068,
            "type": "Feature",
            "geometry": {
                "type": "Point",
                "coordinates": [
                    22.6654,
                    49.81222
                ]
            },
            "properties": {
                "ref:rspo": 4068,
                "official_name": "Niepubliczne Przedszkole \"Calineczka",
                "name": "Niepubliczne Przedszkole \"Calineczka",
                "addr:country": "PL",
                "addr:postcode": "37-700",
                "addr:place": "Wapowce",
                "addr:housenumber": "50",
                "addr:teryt:simc": 608925,
                "contact:phone": "+48 166710324",
                "ref:regon": "180877930",
                "operator": "Dane Do Uzupe\u0142nienia",
                "operator:type": "private",
                "amenity": "kindergarten"
            }
        },
        {
            "id": 268862,
            "type": "Feature",
            "geometry": {
                "type": "Point",
                "coordinates": [
                    22.6654,
                    49.81219
                ]
            },
            "properties": {
                "ref:rspo": 268862,
                "official_name": "\"Zielone\" T\u0119czowe Przedszkole",
                "name": "\"Zielone\" T\u0119czowe Przedszkole",
                "addr:country": "PL",
                "addr:postcode": "37-700",
                "addr:place": "Wapowce",
                "addr:housenumber": "50",
                "addr:teryt:simc": 608925,
                "contact:email": "magdalenazwolinska@yahoo.pl",
                "contact:website": "https:\/\/www.facebook.com\/pages\/category\/preschool\/-zielone-t%c4%99czowe-przedszkole-w-wapowcach-251725602100994\/",
                "ref:regon": "381266702",
                "operator": "Magdalena Zwoli\u0144ska",
                "operator:type": "private",
                "amenity": "kindergarten"
            }
        },
        {
            "id": 119040,
            "type": "Feature",
            "geometry": {
                "type": "Point",
                "coordinates": [
                    22.70084,
                    49.81448
                ]
            },
            "properties": {
                "ref:rspo": 119040,
                "official_name": "Zesp\u00f3\u0142 Szkolno - Przedszkolny w \u0141\u0119towni",
                "name": "Zesp\u00f3\u0142 Szkolno - Przedszkolny w \u0141\u0119towni",
                "addr:country": "PL",
                "addr:postcode": "37-700",
                "addr:place": "\u0141\u0119townia",
                "addr:housenumber": "54",
                "addr:teryt:simc": 608747,
                "contact:phone": "+48 166710578",
                "contact:email": "sp.letownia@wp.pl",
                "ref:regon": "181012818",
                "ref:vatin": "PL7952530849",
                "operator": "Gmina Przemy\u015bl",
                "operator:type": "government",
                "landuse": "education",
                "fixme": "amenity=school, amenity=college albo landuse=education w zale\u017cno\u015bci od tego, jakie plac\u00f3wki wchodz\u0105 w sk\u0142ad zespo\u0142u. Sprawd\u017a, kiedy stosowa\u0107 amenity=* a kiedy landuse=education.",
                "note": "Children RSPO: 42235;42382"
            }
        },
        {
            "id": 42235,
            "type": "Feature",
            "geometry": {
                "type": "Point",
                "coordinates": [
                    22.70084,
                    49.81445
                ]
            },
            "properties": {
                "isced:level": "1;2",
                "ref:rspo": 42235,
                "official_name": "Szko\u0142a Podstawowa im. Jana Paw\u0142a II w \u0141\u0119towni",
                "name": "Szko\u0142a Podstawowa",
                "addr:country": "PL",
                "addr:postcode": "37-700",
                "addr:place": "\u0141\u0119townia",
                "addr:housenumber": "54",
                "addr:teryt:simc": 608747,
                "contact:phone": "+48 166710578",
                "contact:email": "sp.letownia@wp.pl",
                "ref:regon": "001249434",
                "operator": "Gmina Przemy\u015bl",
                "operator:type": "government",
                "amenity": "school",
                "note": "Parent RSPO: 119040"
            }
        },
        {
            "id": 20678,
            "type": "Feature",
            "geometry": {
                "type": "Point",
                "coordinates": [
                    22.72256,
                    49.8382099
                ]
            },
            "properties": {
                "isced:level": "1;2",
                "ref:rspo": 20678,
                "official_name": "Szko\u0142a Podstawowa im. Adama Mickiewicza w Ujkowicach",
                "name": "Szko\u0142a Podstawowa",
                "addr:country": "PL",
                "addr:postcode": "37-713",
                "addr:place": "Ujkowice",
                "addr:housenumber": "159",
                "addr:teryt:simc": 608888,
                "contact:phone": "+48 166717028",
                "contact:email": "zs_ujkowice@tlen.pl",
                "contact:website": "http:\/\/szkola.ujkowice.pl",
                "ref:regon": "001208033",
                "ref:vatin": "PL7952530795",
                "operator": "Gmina Przemy\u015bl",
                "operator:type": "government",
                "amenity": "school"
            }
        }
    ]
}