{
    "type": "FeatureCollection",
    "features": [
        {
            "id": 51795,
            "type": "Feature",
            "geometry": {
                "type": "Point",
                "coordinates": [
                    22.8051085,
                    49.8006513
                ]
            },
            "properties": {
                "ref:rspo": 51795,
                "official_name": "Prywatne Przedszkole Kraina Marze\u0144",
                "name": "Prywatne Przedszkole Kraina Marze\u0144",
                "addr:postcode": "37-710",
                "addr:place": "Buszkowice",
                "addr:housenumber": "144",
                "addr:city:simc": 613636,
                "phone": "+48 506164873",
                "email": "tabi3@wp.pl",
                "website": "http:\/\/krainamarzen-buszkowice.edupage.org",
                "ref:regon": "180900379",
                "ref:vatin": "PL7952193783",
                "operator": "Dane Do Uzupe\u0142nienia",
                "operator:type": "private",
                "amenity": "kindergarten"
            }
        },
        {
            "id": 41869,
            "type": "Feature",
            "geometry": {
                "type": "Point",
                "coordinates": [
                    22.8104,
                    49.8046999
                ]
            },
            "properties": {
                "isced:level": "1;2",
                "ref:rspo": 41869,
                "official_name": "Szko\u0142a Podstawowa w Buszkowicach",
                "name": "Szko\u0142a Podstawowa w Buszkowicach",
                "addr:postcode": "37-710",
                "addr:place": "Buszkowice",
                "addr:housenumber": "138",
                "addr:city:simc": 613636,
                "phone": "+48 166716356",
                "email": "spbuszkowice@wp.pl",
                "website": "http:\/\/spbuszkowice.edupage.org",
                "ref:regon": "650167426",
                "ref:vatin": "PL7952487421",
                "operator": "Gmina \u017burawica",
                "operator:type": "government",
                "amenity": "school"
            }
        },
        {
            "id": 41868,
            "type": "Feature",
            "geometry": {
                "type": "Point",
                "coordinates": [
                    22.85143,
                    49.81333
                ]
            },
            "properties": {
                "isced:level": "1;2",
                "ref:rspo": 41868,
                "official_name": "Szko\u0142a Podstawowa im. Piotra Micha\u0142owskiego w Bolestraszycach",
                "name": "Szko\u0142a Podstawowa",
                "addr:postcode": "37-722",
                "addr:place": "Bolestraszyce",
                "addr:housenumber": "156",
                "addr:city:simc": 613599,
                "phone": "+48 166716429",
                "email": "spbolestraszyce@vp.pl",
                "website": "https:\/\/spbolestraszyce.szkolna.net\/",
                "ref:regon": "650167403",
                "ref:vatin": "PL7952487409",
                "operator": "Gmina \u017burawica",
                "operator:type": "government",
                "amenity": "school"
            }
        },
        {
            "id": 51796,
            "type": "Feature",
            "geometry": {
                "type": "Point",
                "coordinates": [
                    22.85668,
                    49.81478
                ]
            },
            "properties": {
                "ref:rspo": 51796,
                "official_name": "Niepubliczne Przedszkole Zgromadzenia Si\u00f3str S\u0142u\u017cebniczek Naj\u015bwi\u0119tszej Marii Panny Niepokalanie Pocz\u0119tej Pod Wezwaniem \u015aw. J\u00f3zefa w Bolestraszycach",
                "name": "Niepubliczne Przedszkole Zgromadzenia Si\u00f3str S\u0142u\u017cebniczek Naj\u015bwi\u0119tszej Marii Panny Niepokalanie Pocz\u0119tej Pod Wezwaniem \u015aw. J\u00f3zefa w Bolestraszycach",
                "addr:postcode": "37-722",
                "addr:place": "Bolestraszyce",
                "addr:housenumber": "138",
                "addr:city:simc": 613599,
                "phone": "+48 166716455",
                "email": "bolestraszycesiostry@interia.pl",
                "ref:regon": "180903998",
                "ref:vatin": "PL7952173958",
                "operator": "Zg. Ss. S\u0142u\u017cebniczek Nmp Niepokalanie Pocz\u0119tej, Prowincja Przemyska",
                "operator:type": "religious",
                "amenity": "kindergarten"
            }
        },
        {
            "id": 51794,
            "type": "Feature",
            "geometry": {
                "type": "Point",
                "coordinates": [
                    22.78919,
                    49.82255
                ]
            },
            "properties": {
                "ref:rspo": 51794,
                "official_name": "Samorz\u0105dowe Przedszkole nr 2 w \u017burawicy",
                "name": "Samorz\u0105dowe Przedszkole nr 2 w \u017burawicy",
                "addr:postcode": "37-710",
                "addr:city": "\u017burawica",
                "addr:street": "Genera\u0142a Stanis\u0142awa Maczka",
                "addr:housenumber": "1",
                "addr:city:simc": 613903,
                "addr:street:sym_ul": 11862,
                "phone": "+48 166713239",
                "email": "sp1zurawica@interia.pl",
                "ref:regon": "651418570",
                "operator": "Gmina \u017burawica",
                "operator:type": "government",
                "amenity": "kindergarten",
                "note": "Parent RSPO: 131432"
            }
        },
        {
            "id": 51793,
            "type": "Feature",
            "geometry": {
                "type": "Point",
                "coordinates": [
                    22.78463,
                    49.82343
                ]
            },
            "properties": {
                "ref:rspo": 51793,
                "official_name": "Samorz\u0105dowe Przedszkole nr 1 w \u017burawicy",
                "name": "Samorz\u0105dowe Przedszkole nr 1 w \u017burawicy",
                "addr:postcode": "37-710",
                "addr:city": "\u017burawica",
                "addr:street": "3 Maja",
                "addr:housenumber": "5",
                "addr:city:simc": 613903,
                "addr:street:sym_ul": 11937,
                "phone": "+48 166713075",
                "email": "sp2zurawica@wp.pl",
                "ref:regon": "001057203",
                "ref:vatin": "PL7952487361",
                "operator": "Gmina \u017burawica",
                "operator:type": "government",
                "amenity": "kindergarten",
                "note": "Parent RSPO: 131430"
            }
        },
        {
            "id": 131432,
            "type": "Feature",
            "geometry": {
                "type": "Point",
                "coordinates": [
                    22.79573,
                    49.82409
                ]
            },
            "properties": {
                "ref:rspo": 131432,
                "official_name": "Zesp\u00f3\u0142 Szkolno-Przedszkolny nr 1 w \u017burawicy",
                "name": "Zesp\u00f3\u0142 Szkolno-Przedszkolny nr 1 w \u017burawicy",
                "addr:postcode": "37-710",
                "addr:city": "\u017burawica",
                "addr:street": "Jana Paw\u0142a II",
                "addr:housenumber": "194",
                "addr:city:simc": 613903,
                "addr:street:sym_ul": 55827,
                "phone": "+48 166713388",
                "email": "sp1zurawica@interia.pl",
                "website": "http:\/\/www.sp1zurawica.edu.pl\/",
                "ref:regon": "365172072",
                "operator": "Gmina \u017burawica",
                "operator:type": "government",
                "landuse": "education",
                "fixme": "amenity=school, amenity=college albo landuse=education w zale\u017cno\u015bci od tego, jakie plac\u00f3wki wchodz\u0105 w sk\u0142ad zespo\u0142u. Sprawd\u017a, kiedy stosowa\u0107 amenity=* a kiedy landuse=education.",
                "note": "Children RSPO: 41876;51794"
            }
        },
        {
            "id": 41876,
            "type": "Feature",
            "geometry": {
                "type": "Point",
                "coordinates": [
                    22.79573,
                    49.824059999999996
                ]
            },
            "properties": {
                "isced:level": "1;2",
                "ref:rspo": 41876,
                "official_name": "Szko\u0142a Podstawowa nr 1 im. \u015aw. Jadwigi Kr\u00f3lowej Polski w \u017burawicy",
                "name": "Szko\u0142a Podstawowa nr 1",
                "addr:postcode": "37-710",
                "addr:city": "\u017burawica",
                "addr:street": "Jana Paw\u0142a II",
                "addr:housenumber": "194",
                "addr:city:simc": 613903,
                "addr:street:sym_ul": 55827,
                "phone": "+48 166713388",
                "email": "sp1zurawica@interia.pl",
                "website": "http:\/\/www.sp1zurawica.edu.pl",
                "ref:regon": "651421631",
                "operator": "Gmina \u017burawica",
                "operator:type": "government",
                "amenity": "school",
                "note": "Parent RSPO: 131432"
            }
        },
        {
            "id": 131430,
            "type": "Feature",
            "geometry": {
                "type": "Point",
                "coordinates": [
                    22.77662,
                    49.82437
                ]
            },
            "properties": {
                "ref:rspo": 131430,
                "official_name": "Zesp\u00f3\u0142 Szkolno-Przedszkolny nr 2 w \u017burawicy",
                "name": "Zesp\u00f3\u0142 Szkolno-Przedszkolny nr 2 w \u017burawicy",
                "addr:postcode": "37-710",
                "addr:city": "\u017burawica",
                "addr:street": "Kardyna\u0142a Stefana Wyszy\u0144skiego",
                "addr:housenumber": "3",
                "addr:city:simc": 613903,
                "addr:street:sym_ul": 35421,
                "phone": "+48 166723830",
                "email": "sp2zurawica@wp.pl",
                "website": "https:\/\/sp2zurawica.edupage.org",
                "ref:regon": "365171888",
                "operator": "Gmina \u017burawica",
                "operator:type": "government",
                "landuse": "education",
                "fixme": "amenity=school, amenity=college albo landuse=education w zale\u017cno\u015bci od tego, jakie plac\u00f3wki wchodz\u0105 w sk\u0142ad zespo\u0142u. Sprawd\u017a, kiedy stosowa\u0107 amenity=* a kiedy landuse=education.",
                "note": "Children RSPO: 51791;51793"
            }
        },
        {
            "id": 51791,
            "type": "Feature",
            "geometry": {
                "type": "Point",
                "coordinates": [
                    22.77662,
                    49.82434
                ]
            },
            "properties": {
                "isced:level": "1;2",
                "ref:rspo": 51791,
                "official_name": "Szko\u0142a Podstawowa nr 2 w \u017burawicy",
                "name": "Szko\u0142a Podstawowa nr 2 w \u017burawicy",
                "addr:postcode": "37-710",
                "addr:city": "\u017burawica",
                "addr:street": "Kardyna\u0142a Stefana Wyszy\u0144skiego",
                "addr:housenumber": "3",
                "addr:city:simc": 613903,
                "addr:street:sym_ul": 35421,
                "phone": "+48 166723830",
                "email": "sp2zurawica@wp.pl",
                "website": "http:\/\/sp2zurawica.edupage.org",
                "ref:regon": "001266094",
                "ref:vatin": "PL7952487378",
                "operator": "Gmina \u017burawica",
                "operator:type": "government",
                "amenity": "school",
                "note": "Parent RSPO: 131430"
            }
        },
        {
            "id": 126699,
            "type": "Feature",
            "geometry": {
                "type": "Point",
                "coordinates": [
                    22.88352,
                    49.83988
                ]
            },
            "properties": {
                "isced:level": "1;2",
                "ref:rspo": 126699,
                "official_name": "Szko\u0142a Podstawowa im.macieja Rataja w Wyszatycach",
                "name": "Szko\u0142a Podstawowa im.macieja Rataja w Wyszatycach",
                "addr:postcode": "37-722",
                "addr:place": "Wyszatyce",
                "addr:housenumber": "152",
                "addr:city:simc": 613889,
                "phone": "+48 166716926",
                "email": "zs_wyszatyce@pro.onet.pl",
                "website": "http:\/\/www.spwyszatyce.szkolna.net\/",
                "ref:regon": "651421967",
                "ref:vatin": "PL7952487332",
                "operator": "Gmina \u017burawica",
                "operator:type": "government",
                "amenity": "school"
            }
        },
        {
            "id": 51799,
            "type": "Feature",
            "geometry": {
                "type": "Point",
                "coordinates": [
                    22.8862996,
                    49.8433347
                ]
            },
            "properties": {
                "ref:rspo": 51799,
                "official_name": "Niepubliczne Przedszkole Zgromadzenia Si\u00f3str S\u0142u\u017cebniczek Naj\u015bwi\u0119tszej Marii Panny Niepokalanie Pocz\u0119tej Pod Wezwaniem \u015aw. J\u00f3zefa w Wyszatycach",
                "name": "Niepubliczne Przedszkole Zgromadzenia Si\u00f3str S\u0142u\u017cebniczek Naj\u015bwi\u0119tszej Marii Panny Niepokalanie Pocz\u0119tej Pod Wezwaniem \u015aw. J\u00f3zefa w Wyszatycach",
                "addr:postcode": "37-722",
                "addr:place": "Wyszatyce",
                "addr:housenumber": "213",
                "addr:city:simc": 613889,
                "phone": "+48 697727871",
                "email": "p.wyszatyce@onet.pl",
                "ref:regon": "180904058",
                "ref:vatin": "PL7952533670",
                "operator": "Zg. Ss. S\u0142u\u017cebniczek Nmp Niepokalanie Pocz\u0119tej, Prowincja Przemyska",
                "operator:type": "religious",
                "amenity": "kindergarten"
            }
        },
        {
            "id": 126706,
            "type": "Feature",
            "geometry": {
                "type": "Point",
                "coordinates": [
                    22.7749548,
                    49.8521377
                ]
            },
            "properties": {
                "isced:level": "1;2",
                "ref:rspo": 126706,
                "official_name": "Szko\u0142a Podstawowa im.jana Paw\u0142a II w Orzechowcach",
                "name": "Szko\u0142a Podstawowa im.jana Paw\u0142a II w Orzechowcach",
                "addr:postcode": "37-712",
                "addr:place": "Orzechowce",
                "addr:housenumber": "60",
                "addr:city:simc": 613790,
                "phone": "+48 166717728",
                "email": "zs.orzechowce@interia.pl",
                "ref:regon": "650167455",
                "operator": "Gmina \u017burawica",
                "operator:type": "government",
                "amenity": "school",
                "note": "Children RSPO: 126709"
            }
        },
        {
            "id": 126702,
            "type": "Feature",
            "geometry": {
                "type": "Point",
                "coordinates": [
                    22.69986,
                    49.8558
                ]
            },
            "properties": {
                "isced:level": "1;2",
                "ref:rspo": 126702,
                "official_name": "Szko\u0142a Podstawowa im.\u015bw.stanis\u0142awa Kostki w Ma\u0107kowicach",
                "name": "Szko\u0142a Podstawowa im.\u015bw.stanis\u0142awa Kostki w Ma\u0107kowicach",
                "addr:postcode": "37-713",
                "addr:place": "Ma\u0107kowice",
                "addr:housenumber": "64",
                "addr:city:simc": 613754,
                "phone": "+48 166717092",
                "email": "mackowicezs@poczta.onet.pl",
                "ref:regon": "651421938",
                "ref:vatin": "PL7952487390",
                "operator": "Gmina \u017burawica",
                "operator:type": "government",
                "amenity": "school"
            }
        },
        {
            "id": 126709,
            "type": "Feature",
            "geometry": {
                "type": "Point",
                "coordinates": [
                    22.74852,
                    49.86011
                ]
            },
            "properties": {
                "isced:level": "1;2",
                "ref:rspo": 126709,
                "official_name": "Szkolny Punkt Filialny w Batyczach",
                "name": "Szkolny Punkt Filialny w Batyczach",
                "addr:postcode": "37-713",
                "addr:place": "Batycze",
                "addr:housenumber": "23",
                "addr:city:simc": 613582,
                "email": "zs.orzechowce@interia.pl",
                "ref:regon": "650167455",
                "operator": "Gmina \u017burawica",
                "operator:type": "government",
                "amenity": "school",
                "note": "Parent RSPO: 126706"
            }
        },
        {
            "id": 41871,
            "type": "Feature",
            "geometry": {
                "type": "Point",
                "coordinates": [
                    22.70463,
                    49.88233
                ]
            },
            "properties": {
                "isced:level": "1;2",
                "ref:rspo": 41871,
                "official_name": "Szko\u0142a Podstawowa im. B\u0142. Ks. Bronis\u0142awa Markiewicza w Kosienicach",
                "name": "Szko\u0142a Podstawowa",
                "addr:postcode": "37-713",
                "addr:place": "Kosienice",
                "addr:housenumber": "60",
                "addr:city:simc": 613671,
                "phone": "+48 166722440",
                "email": "kosieniceszkola@gmail.com",
                "ref:regon": "650167395",
                "ref:vatin": "PL7952488484",
                "operator": "Gmina \u017burawica",
                "operator:type": "government",
                "amenity": "school"
            }
        },
        {
            "id": 51798,
            "type": "Feature",
            "geometry": {
                "type": "Point",
                "coordinates": [
                    22.70353,
                    49.88236
                ]
            },
            "properties": {
                "ref:rspo": 51798,
                "official_name": "Przedszkole Zgromadzenia Si\u00f3str S\u0142u\u017cebniczek Naj\u015bwi\u0119tszej Marii Panny Niepokalanie Pocz\u0119tej Pod Wezwaniem B\u0142. Edmunda Bojanowskiego w Kosienicach",
                "name": "Przedszkole Zgromadzenia Si\u00f3str S\u0142u\u017cebniczek Naj\u015bwi\u0119tszej Marii Panny Niepokalanie Pocz\u0119tej Pod Wezwaniem B\u0142. Edmunda Bojanowskiego w Kosienicach",
                "addr:postcode": "37-713",
                "addr:place": "Kosienice",
                "addr:housenumber": "62",
                "addr:city:simc": 613671,
                "phone": "+48 166722396",
                "email": "przedszkole_kosienice@op.pl",
                "ref:regon": "180904029",
                "ref:vatin": "PL7952271477",
                "operator": "Zg. Ss. S\u0142u\u017cebniczek Nmp Niepokalanie Pocz\u0119tej, Prowincja Przemyska",
                "operator:type": "religious",
                "amenity": "kindergarten"
            }
        }
    ]
}