{
    "type": "FeatureCollection",
    "features": [
        {
            "id": 34605,
            "type": "Feature",
            "geometry": {
                "type": "Point",
                "coordinates": [
                    22.70721,
                    49.6531499
                ]
            },
            "properties": {
                "ref:rspo": 34605,
                "official_name": "Samorz\u0105dowe Przedszkole w Huwnikach",
                "name": "Samorz\u0105dowe Przedszkole w Huwnikach",
                "addr:postcode": "37-743",
                "addr:place": "Huwniki",
                "addr:housenumber": "2",
                "addr:teryt:simc": 602288,
                "phone": "+48 166719534",
                "email": "zshuwniki8@wp.pl",
                "ref:regon": "651427125",
                "ref:vatin": "PL7952451446",
                "operator": "Gmina Fredropol",
                "operator:type": "government",
                "amenity": "kindergarten",
                "note": "Parent RSPO: 23639"
            }
        },
        {
            "id": 27630,
            "type": "Feature",
            "geometry": {
                "type": "Point",
                "coordinates": [
                    22.70721,
                    49.65315
                ]
            },
            "properties": {
                "isced:level": "1;2",
                "ref:rspo": 27630,
                "official_name": "Szko\u0142a Podstawowa w Huwnikach",
                "name": "Szko\u0142a Podstawowa w Huwnikach",
                "addr:postcode": "37-743",
                "addr:place": "Huwniki",
                "addr:housenumber": "2,8",
                "addr:teryt:simc": 602288,
                "phone": "+48 166719534",
                "email": "zshuwniki8@wp.pl",
                "ref:regon": "001207447",
                "operator": "Gmina Fredropol",
                "operator:type": "government",
                "amenity": "school",
                "note": "Parent RSPO: 23639"
            }
        },
        {
            "id": 23639,
            "type": "Feature",
            "geometry": {
                "type": "Point",
                "coordinates": [
                    22.70642,
                    49.65393
                ]
            },
            "properties": {
                "ref:rspo": 23639,
                "official_name": "Zesp\u00f3\u0142 Szk\u00f3\u0142 w Huwnikach",
                "name": "Zesp\u00f3\u0142 Szk\u00f3\u0142 w Huwnikach",
                "addr:postcode": "37-743",
                "addr:place": "Huwniki",
                "addr:housenumber": "8",
                "addr:teryt:simc": 602288,
                "phone": "+48 166719534",
                "email": "zshuwniki8@wp.pl",
                "ref:regon": "651419309",
                "ref:vatin": "PL7951327023",
                "operator": "Gmina Fredropol",
                "operator:type": "government",
                "landuse": "education",
                "fixme": "amenity=school, amenity=college albo landuse=education w zale\u017cno\u015bci od tego, jakie plac\u00f3wki wchodz\u0105 w sk\u0142ad zespo\u0142u. Sprawd\u017a, kiedy stosowa\u0107 amenity=* a kiedy landuse=education.",
                "note": "Children RSPO: 27630;34605"
            }
        },
        {
            "id": 24334,
            "type": "Feature",
            "geometry": {
                "type": "Point",
                "coordinates": [
                    22.76626,
                    49.65826
                ]
            },
            "properties": {
                "ref:rspo": 24334,
                "official_name": "Niepubliczne Przedszkole Ba\u015bniowa Kraina w Sierako\u015bcach",
                "name": "Niepubliczne Przedszkole Ba\u015bniowa Kraina w Sierako\u015bcach",
                "addr:postcode": "37-734",
                "addr:place": "Sierako\u015bce",
                "addr:housenumber": "31",
                "addr:teryt:simc": 602615,
                "phone": "+48 166719251",
                "email": "spsierakosce@op.pl",
                "ref:regon": "180895632",
                "ref:vatin": "PL7952476073",
                "operator": "Stowarzyszenie \"Inicjatywy Podkarpacia\"",
                "operator:type": "ngo",
                "amenity": "kindergarten"
            }
        },
        {
            "id": 29243,
            "type": "Feature",
            "geometry": {
                "type": "Point",
                "coordinates": [
                    22.76626,
                    49.658229999999996
                ]
            },
            "properties": {
                "isced:level": "1;2",
                "ref:rspo": 29243,
                "official_name": "Szko\u0142a Podstawowa im. Jana Paw\u0142a II w Sierako\u015bcach",
                "name": "Szko\u0142a Podstawowa",
                "addr:postcode": "37-734",
                "addr:place": "Sierako\u015bce",
                "addr:housenumber": "31",
                "addr:teryt:simc": 602615,
                "phone": "+48 166719251",
                "email": "spsierakosce@op.pl",
                "website": "http:\/\/www.sip.szkolnastrona.pl",
                "ref:regon": "180897111",
                "ref:vatin": "PL7952201241",
                "operator": "Stowarzyszenie \"Inicjatywy Podkarpacia\"",
                "operator:type": "ngo",
                "amenity": "school"
            }
        },
        {
            "id": 275267,
            "type": "Feature",
            "geometry": {
                "type": "Point",
                "coordinates": [
                    22.74813,
                    49.69337
                ]
            },
            "properties": {
                "ref:rspo": 275267,
                "official_name": "Zesp\u00f3\u0142 Szkolno - Przedszkolny w Fredropolu",
                "name": "Zesp\u00f3\u0142 Szkolno - Przedszkolny w Fredropolu",
                "addr:postcode": "37-734",
                "addr:place": "Fredropol",
                "addr:housenumber": "42",
                "addr:teryt:simc": 602259,
                "phone": "+48 166719829",
                "email": "zsfredropol@gazeta.pl",
                "ref:regon": "386778789",
                "ref:vatin": "PL7952560201",
                "operator": "Gmina Fredropol",
                "operator:type": "government",
                "landuse": "education",
                "fixme": "amenity=school, amenity=college albo landuse=education w zale\u017cno\u015bci od tego, jakie plac\u00f3wki wchodz\u0105 w sk\u0142ad zespo\u0142u. Sprawd\u017a, kiedy stosowa\u0107 amenity=* a kiedy landuse=education.",
                "note": "Children RSPO: 26503;275340;275342"
            }
        },
        {
            "id": 26503,
            "type": "Feature",
            "geometry": {
                "type": "Point",
                "coordinates": [
                    22.74813,
                    49.69334
                ]
            },
            "properties": {
                "isced:level": "1;2",
                "ref:rspo": 26503,
                "official_name": "Zesp\u00f3\u0142 Szkolno - Przedszkolny w Fredropolu - Szko\u0142a Podstawowa im. Aleksandra Fredry w Fredropolu",
                "name": "Zesp\u00f3\u0142 Szkolno - Przedszkolny w Fredropolu - Szko\u0142a Podstawowa",
                "addr:postcode": "37-734",
                "addr:place": "Fredropol",
                "addr:housenumber": "42",
                "addr:teryt:simc": 602259,
                "phone": "+48 166719829",
                "email": "zsfredropol@gazeta.pl",
                "ref:regon": "650170925",
                "operator": "Gmina Fredropol",
                "operator:type": "government",
                "amenity": "school",
                "note": "Parent RSPO: 275267"
            }
        },
        {
            "id": 275340,
            "type": "Feature",
            "geometry": {
                "type": "Point",
                "coordinates": [
                    22.74813,
                    49.693310000000004
                ]
            },
            "properties": {
                "ref:rspo": 275340,
                "official_name": "Zesp\u00f3\u0142 Szkolno - Przedszkolny w Fredropolu - Przedszkole w Fredropolu",
                "name": "Zesp\u00f3\u0142 Szkolno - Przedszkolny w Fredropolu - Przedszkole w Fredropolu",
                "addr:postcode": "37-734",
                "addr:place": "Fredropol",
                "addr:housenumber": "42",
                "addr:teryt:simc": 602259,
                "phone": "+48 166719829",
                "email": "zsfredropol@gazeta.pl",
                "ref:regon": "386816248",
                "operator": "Gmina Fredropol",
                "operator:type": "government",
                "amenity": "kindergarten",
                "note": "Parent RSPO: 275267"
            }
        },
        {
            "id": 275342,
            "type": "Feature",
            "geometry": {
                "type": "Point",
                "coordinates": [
                    22.79326,
                    49.70841
                ]
            },
            "properties": {
                "ref:rspo": 275342,
                "official_name": "Punkt Przedszkolny w Kupiatyczach Przy Zespole Szkolno - Przedszkolnym w Fredropolu",
                "name": "Punkt Przedszkolny w Kupiatyczach Przy Zespole Szkolno - Przedszkolnym w Fredropolu",
                "addr:postcode": "37-734",
                "addr:place": "Kupiatycze",
                "addr:housenumber": "53",
                "addr:teryt:simc": 602390,
                "phone": "+48 166719829",
                "email": "zsfredropol@gazeta.pl",
                "ref:regon": "386816739",
                "operator": "Gmina Fredropol",
                "operator:type": "government",
                "amenity": "kindergarten",
                "note": "Parent RSPO: 275267"
            }
        },
        {
            "id": 28268,
            "type": "Feature",
            "geometry": {
                "type": "Point",
                "coordinates": [
                    22.73432,
                    49.71385
                ]
            },
            "properties": {
                "isced:level": "1;2",
                "ref:rspo": 28268,
                "official_name": "Publiczna Szko\u0142a Podstawowa im. Marii Konopnickiej w Knia\u017cycach",
                "name": "Publiczna Szko\u0142a Podstawowa",
                "addr:postcode": "37-734",
                "addr:place": "Knia\u017cyce",
                "addr:housenumber": "108A",
                "addr:teryt:simc": 602331,
                "phone": "+48 166719728",
                "email": "spkniazyce@op.pl",
                "ref:regon": "180897128",
                "ref:vatin": "PL7952524435",
                "operator": "Stowarzyszenie Na Rzecz Rozwoju Knia\u017cyc",
                "operator:type": "ngo",
                "amenity": "school"
            }
        }
    ]
}