{
    "type": "FeatureCollection",
    "features": [
        {
            "id": 64487,
            "type": "Feature",
            "geometry": {
                "type": "Point",
                "coordinates": [
                    22.95684,
                    49.89367
                ]
            },
            "properties": {
                "isced:level": "1;2",
                "ref:rspo": 64487,
                "official_name": "Szko\u0142a Podstawowa im.\u015bw.jadwigi Kr\u00f3lowej w Stubnie",
                "name": "Szko\u0142a Podstawowa im.\u015bw.jadwigi Kr\u00f3lowej w Stubnie",
                "addr:postcode": "37-723",
                "addr:place": "Stubno",
                "addr:housenumber": "254",
                "addr:teryt:simc": 611749,
                "phone": "+48 166714037",
                "email": "spstubno@op.pl",
                "website": "http:\/\/www.zsws.pl",
                "ref:regon": "000663338",
                "ref:vatin": "PL7952358942",
                "operator": "Gmina Stubno",
                "operator:type": "government",
                "amenity": "school"
            }
        },
        {
            "id": 122788,
            "type": "Feature",
            "geometry": {
                "type": "Point",
                "coordinates": [
                    22.95684,
                    49.89364
                ]
            },
            "properties": {
                "ref:rspo": 122788,
                "official_name": "Przedszkole Niepubliczne \"Kraina Maluszka\" w Stubnie",
                "name": "Przedszkole Niepubliczne \"Kraina Maluszka\" w Stubnie",
                "addr:postcode": "37-723",
                "addr:place": "Stubno",
                "addr:housenumber": "254",
                "addr:teryt:simc": 611749,
                "phone": "+48 166714037",
                "email": "kraina.maluszka@o2.pl",
                "ref:regon": "181096548",
                "operator": "Fundacja O\u015bwiata W Gminie Stubno",
                "operator:type": "ngo",
                "amenity": "kindergarten"
            }
        },
        {
            "id": 38814,
            "type": "Feature",
            "geometry": {
                "type": "Point",
                "coordinates": [
                    22.9221,
                    49.90574
                ]
            },
            "properties": {
                "ref:rspo": 38814,
                "official_name": "Niepubliczne Przedszkole w Stubnienku Kornelia Szejnar",
                "name": "Niepubliczne Przedszkole w Stubnienku Kornelia Szejnar",
                "addr:postcode": "37-723",
                "addr:place": "Stubienko",
                "addr:housenumber": "25",
                "addr:teryt:simc": 611732,
                "phone": "+48 783048783",
                "email": "przedszkolestubienko@o2.pl",
                "ref:regon": "180898671",
                "ref:vatin": "PL7952103337",
                "operator": "Kornelia Szejnar",
                "operator:type": "private",
                "amenity": "kindergarten"
            }
        },
        {
            "id": 128576,
            "type": "Feature",
            "geometry": {
                "type": "Point",
                "coordinates": [
                    22.9221,
                    49.90571
                ]
            },
            "properties": {
                "isced:level": "1;2",
                "ref:rspo": 128576,
                "official_name": "Niepubliczna Szko\u0142a Podstawowa w Stubienku",
                "name": "Niepubliczna Szko\u0142a Podstawowa w Stubienku",
                "addr:postcode": "37-723",
                "addr:place": "Stubienko",
                "addr:housenumber": "25",
                "addr:teryt:simc": 611732,
                "phone": "+48 783048783",
                "email": "edukacja.szkolapodstawowa@gmail.com",
                "website": "http:\/\/nspstubienko.edupage.org",
                "ref:regon": "362323754",
                "operator": "Kornelia Szejnar",
                "operator:type": "private",
                "amenity": "school"
            }
        },
        {
            "id": 66504,
            "type": "Feature",
            "geometry": {
                "type": "Point",
                "coordinates": [
                    23.01632,
                    49.92057
                ]
            },
            "properties": {
                "isced:level": "1;2",
                "ref:rspo": 66504,
                "official_name": "Szko\u0142a Podstawowa im. Dr Boles\u0142awa Orzechowicza w Kalnikowie",
                "name": "Szko\u0142a Podstawowa",
                "addr:postcode": "37-724",
                "addr:place": "Kalnik\u00f3w",
                "addr:housenumber": "87",
                "addr:teryt:simc": 611643,
                "phone": "+48 166714202",
                "email": "zs.kalnikow@op.pl",
                "ref:regon": "001208228",
                "ref:vatin": "PL7952289750",
                "operator": "Gmina Stubno",
                "operator:type": "government",
                "amenity": "school"
            }
        }
    ]
}