{
    "type": "FeatureCollection",
    "features": [
        {
            "id": 42271,
            "type": "Feature",
            "geometry": {
                "type": "Point",
                "coordinates": [
                    16.27204,
                    51.77686
                ]
            },
            "properties": {
                "isced:level": "1;2",
                "ref:rspo": 42271,
                "official_name": "Szko\u0142a Podstawowa w Konradowie",
                "name": "Szko\u0142a Podstawowa w Konradowie",
                "addr:country": "PL",
                "addr:postcode": "67-400",
                "addr:place": "Konradowo",
                "addr:housenumber": "63",
                "addr:teryt:simc": 377868,
                "contact:phone": "+48 655409397",
                "contact:email": "spkonradowo@wschowa.com.pl",
                "contact:website": "http:\/\/www.spkonradowo.pro-e.pl",
                "ref:regon": "001246921",
                "ref:vatin": "PL6971621179",
                "operator": "Gmina Wschowa",
                "operator:type": "government",
                "amenity": "school"
            }
        },
        {
            "id": 42264,
            "type": "Feature",
            "geometry": {
                "type": "Point",
                "coordinates": [
                    16.31543,
                    51.79828
                ]
            },
            "properties": {
                "isced:level": "1;2",
                "ref:rspo": 42264,
                "official_name": "Szko\u0142a Podstawowa Nr 1",
                "name": "Szko\u0142a Podstawowa Nr 1",
                "addr:country": "PL",
                "addr:postcode": "67-400",
                "addr:city": "Wschowa",
                "addr:street": "Kazimierza Wielkiego",
                "addr:housenumber": "10",
                "addr:teryt:simc": 954685,
                "addr:teryt:sym_ul": 8265,
                "contact:phone": "+48 655403561",
                "contact:email": "dyrektor@sp1.wschowa.pl",
                "contact:website": "http:\/\/www.sp1wschowa.pl",
                "ref:regon": "000739805",
                "ref:vatin": "PL6971621363",
                "operator": "Gmina Wschowa",
                "operator:type": "government",
                "amenity": "school"
            }
        },
        {
            "id": 42275,
            "type": "Feature",
            "geometry": {
                "type": "Point",
                "coordinates": [
                    16.31746,
                    51.80103
                ]
            },
            "properties": {
                "ref:rspo": 42275,
                "official_name": "Przedszkole Nr 1 im. Tu Mieszka Bajeczka we Wschowie",
                "name": "Przedszkole Nr 1",
                "addr:country": "PL",
                "addr:postcode": "67-400",
                "addr:city": "Wschowa",
                "addr:street": "Stanis\u0142awa Moniuszki",
                "addr:housenumber": "9",
                "addr:teryt:simc": 954685,
                "addr:teryt:sym_ul": 13242,
                "contact:phone": "+48 655402311",
                "contact:email": "przedszkole@przedszkole1.wschowa.pl",
                "ref:regon": "971307809",
                "ref:vatin": "PL6971649597",
                "operator": "Gmina Wschowa",
                "operator:type": "government",
                "amenity": "kindergarten"
            }
        },
        {
            "id": 27429,
            "type": "Feature",
            "geometry": {
                "type": "Point",
                "coordinates": [
                    16.31525,
                    51.80185
                ]
            },
            "properties": {
                "ref:rspo": 27429,
                "official_name": "Pa\u0144stwowa Szko\u0142a Muzyczna I St. im. Karola Kurpi\u0144skiego we Wschowie",
                "name": "Pa\u0144stwowa Szko\u0142a Muzyczna I St.",
                "addr:country": "PL",
                "addr:postcode": "67-400",
                "addr:city": "Wschowa",
                "addr:street": "G\u0142ogowska",
                "addr:housenumber": "11",
                "addr:teryt:simc": 954685,
                "addr:teryt:sym_ul": 5614,
                "contact:phone": "+48 655403415",
                "contact:email": "psm.wschowa@wp.pl",
                "contact:website": "http:\/\/psm.wschowa.com.pl",
                "ref:regon": "000929003",
                "operator": "Ministerstwo Kultury I Dziedzictwa Narodowego",
                "operator:type": "public",
                "amenity": "music_school"
            }
        },
        {
            "id": 123204,
            "type": "Feature",
            "geometry": {
                "type": "Point",
                "coordinates": [
                    16.32354,
                    51.80261
                ]
            },
            "properties": {
                "ref:rspo": 123204,
                "official_name": "Niepubliczne Przedszkole \"S\u0142oneczko\"",
                "name": "Niepubliczne Przedszkole \"S\u0142oneczko\"",
                "addr:country": "PL",
                "addr:postcode": "67-400",
                "addr:city": "Wschowa",
                "addr:street": "Stanis\u0142awa Moniuszki",
                "addr:housenumber": "14",
                "addr:teryt:simc": 954685,
                "addr:teryt:sym_ul": 13242,
                "contact:phone": "+48 661162190",
                "ref:regon": "081215401",
                "ref:vatin": "PL9251884538",
                "operator": "Wioleta Kotowska",
                "operator:type": "private",
                "amenity": "kindergarten"
            }
        },
        {
            "id": 128529,
            "type": "Feature",
            "geometry": {
                "type": "Point",
                "coordinates": [
                    16.30683,
                    51.8029
                ]
            },
            "properties": {
                "ref:rspo": 128529,
                "official_name": "Niepubliczne Przedszkole \"Z\u0142ota Rybka U Dula\"",
                "name": "Niepubliczne Przedszkole \"Z\u0142ota Rybka U Dula\"",
                "addr:country": "PL",
                "addr:postcode": "67-400",
                "addr:city": "Wschowa",
                "addr:street": "Obro\u0144c\u00f3w Warszawy",
                "addr:housenumber": "36c",
                "addr:teryt:simc": 954685,
                "addr:teryt:sym_ul": 14653,
                "contact:phone": "+48 665779595",
                "contact:email": "barbaradul@o2.pl",
                "ref:regon": "362305762",
                "ref:vatin": "PL4970082101",
                "operator": "Dane Do Uzupe\u0142nienia",
                "operator:type": "private",
                "amenity": "kindergarten"
            }
        },
        {
            "id": 6806,
            "type": "Feature",
            "geometry": {
                "type": "Point",
                "coordinates": [
                    16.31389,
                    51.80295
                ]
            },
            "properties": {
                "isced:level": "3",
                "ref:rspo": 6806,
                "official_name": "I Liceum Og\u00f3lnokszta\u0142c\u0105ce Z Oddzia\u0142ami Dwuj\u0119zycznymi im. Tomasza Zana we Wschowie",
                "name": "I Liceum Og\u00f3lnokszta\u0142c\u0105ce Z Oddzia\u0142ami Dwuj\u0119zycznymi",
                "addr:country": "PL",
                "addr:postcode": "67-400",
                "addr:city": "Wschowa",
                "addr:street": "Jana Matejki",
                "addr:housenumber": "1",
                "addr:teryt:simc": 954685,
                "addr:teryt:sym_ul": 12485,
                "contact:phone": "+48 655402934",
                "contact:email": "sekretariat@zan.edu.pl",
                "contact:website": "http:\/\/zan.edu.pl",
                "ref:regon": "410202427",
                "ref:vatin": "PL6971626308",
                "operator": "Powiat Wschowski",
                "operator:type": "government",
                "amenity": "school"
            }
        },
        {
            "id": 42284,
            "type": "Feature",
            "geometry": {
                "type": "Point",
                "coordinates": [
                    16.31389,
                    51.80292
                ]
            },
            "properties": {
                "ref:rspo": 42284,
                "official_name": "Gimnazjum J\u0119zykowe we Wschowie",
                "name": "Gimnazjum J\u0119zykowe we Wschowie",
                "addr:country": "PL",
                "addr:postcode": "67-400",
                "addr:city": "Wschowa",
                "addr:street": "Jana Matejki",
                "addr:housenumber": "1",
                "addr:teryt:simc": 954685,
                "addr:teryt:sym_ul": 12485,
                "contact:phone": "+48 655402534",
                "ref:regon": "081083135",
                "ref:vatin": "PL4970062191",
                "operator": "Dane Do Uzupe\u0142nienia",
                "operator:type": "private",
                "amenity": "school"
            }
        },
        {
            "id": 42283,
            "type": "Feature",
            "geometry": {
                "type": "Point",
                "coordinates": [
                    16.29014,
                    51.80621
                ]
            },
            "properties": {
                "isced:level": "1;2",
                "ref:rspo": 42283,
                "official_name": "Szko\u0142a Podstawowa Stowarzyszenia Na Rzecz Ekorozwoju Wsi \" Nasze Dzieci\" w Przyczynie G\u00f3rnej",
                "name": "Szko\u0142a Podstawowa Stowarzyszenia Na Rzecz Ekorozwoju Wsi \" Nasze Dzieci\" w Przyczynie G\u00f3rnej",
                "addr:country": "PL",
                "addr:postcode": "67-400",
                "addr:place": "Przyczyna G\u00f3rna",
                "addr:housenumber": "22",
                "addr:teryt:simc": 377986,
                "contact:phone": "+48 655401472",
                "ref:regon": "081082302",
                "ref:vatin": "PL9251872340",
                "operator": "Dane Do Uzupe\u0142nienia",
                "operator:type": "private",
                "amenity": "school"
            }
        },
        {
            "id": 53385,
            "type": "Feature",
            "geometry": {
                "type": "Point",
                "coordinates": [
                    16.3056899,
                    51.80689
                ]
            },
            "properties": {
                "isced:level": "1;2",
                "ref:rspo": 53385,
                "official_name": "Specjalny O\u015brodek Szkolno-Wychowawczy im. Janusza Korczaka we Wschowie Szko\u0142a Podstawowa Specjalna Nr 4 we Wschowie",
                "name": "Specjalny O\u015brodek Szkolno-Wychowawczy",
                "addr:country": "PL",
                "addr:postcode": "67-400",
                "addr:city": "Wschowa",
                "addr:street": "W\u0142adys\u0142awa Reymonta",
                "addr:housenumber": "1",
                "addr:teryt:simc": 954685,
                "addr:teryt:sym_ul": 18645,
                "contact:phone": "+48 655476922",
                "contact:email": "sekretariat@sosw.wschowa.com.pl",
                "contact:website": "http:\/\/sosw.wschowa.com.pl",
                "ref:regon": "001038252",
                "ref:vatin": "PL6971624887",
                "operator": "Powiat Wschowski",
                "operator:type": "government",
                "amenity": "school",
                "note": "Parent RSPO: 4541"
            }
        },
        {
            "id": 41786,
            "type": "Feature",
            "geometry": {
                "type": "Point",
                "coordinates": [
                    16.32449,
                    51.80727
                ]
            },
            "properties": {
                "ref:rspo": 41786,
                "official_name": "Centrum Kszta\u0142cenia Zawodowego I Ustawicznego we Wschowie",
                "name": "Centrum Kszta\u0142cenia Zawodowego I Ustawicznego we Wschowie",
                "addr:country": "PL",
                "addr:postcode": "67-400",
                "addr:city": "Wschowa",
                "addr:street": "Plac Kosynier\u00f3w",
                "addr:housenumber": "1",
                "addr:teryt:simc": 954685,
                "addr:teryt:sym_ul": 9500,
                "contact:phone": "+48 655402292",
                "contact:email": "ckuip@wschowa.com.pl",
                "contact:website": "http:\/\/ckuip.wschowa.com.pl",
                "ref:regon": "978058568",
                "ref:vatin": "PL6971642193",
                "operator": "Powiat Wschowski",
                "operator:type": "government",
                "amenity": "school",
                "fixme": "amenity=school lub amenity=college",
                "note": "Children RSPO: 79255;79295;275800"
            }
        },
        {
            "id": 42277,
            "type": "Feature",
            "geometry": {
                "type": "Point",
                "coordinates": [
                    16.32449,
                    51.80724
                ]
            },
            "properties": {
                "ref:rspo": 42277,
                "official_name": "Przedszkole Nr 3 \"Weso\u0142a Tr\u00f3jeczka\" we Wschowie",
                "name": "Przedszkole Nr 3 \"Weso\u0142a Tr\u00f3jeczka\" we Wschowie",
                "addr:country": "PL",
                "addr:postcode": "67-400",
                "addr:city": "Wschowa",
                "addr:street": "Plac Kosynier\u00f3w",
                "addr:housenumber": "1",
                "addr:teryt:simc": 954685,
                "addr:teryt:sym_ul": 9500,
                "contact:phone": "+48 655402644",
                "contact:website": "http:\/\/www.przedszkole3wschowa.bloog.pl",
                "ref:regon": "971307784",
                "ref:vatin": "PL6971649775",
                "operator": "Gmina Wschowa",
                "operator:type": "government",
                "amenity": "kindergarten"
            }
        },
        {
            "id": 62598,
            "type": "Feature",
            "geometry": {
                "type": "Point",
                "coordinates": [
                    16.32449,
                    51.807210000000005
                ]
            },
            "properties": {
                "ref:rspo": 62598,
                "official_name": "Szkolne Schronisko M\u0142odzie\u017cowe Przy Centrum Kszta\u0142cenia Zawodowego I Ustawicznego we Wschowie",
                "name": "Szkolne Schronisko M\u0142odzie\u017cowe Przy Centrum Kszta\u0142cenia Zawodowego I Ustawicznego we Wschowie",
                "addr:country": "PL",
                "addr:postcode": "67-400",
                "addr:city": "Wschowa",
                "addr:street": "Plac Kosynier\u00f3w",
                "addr:housenumber": "1",
                "addr:teryt:simc": 954685,
                "addr:teryt:sym_ul": 9500,
                "contact:phone": "+48 655402292",
                "contact:email": "ckuip@wschowa.com.pl",
                "contact:website": "http:\/\/ckuip.wschowa.com.pl",
                "ref:regon": "081085128",
                "ref:vatin": "PL6971642193",
                "operator": "Powiat Wschowski",
                "operator:type": "government",
                "tourism": "hostel"
            }
        },
        {
            "id": 79030,
            "type": "Feature",
            "geometry": {
                "type": "Point",
                "coordinates": [
                    16.32449,
                    51.80718
                ]
            },
            "properties": {
                "ref:rspo": 79030,
                "official_name": "Centrum Kszta\u0142cenia Zawodowego we Wschowie",
                "name": "Centrum Kszta\u0142cenia Zawodowego we Wschowie",
                "addr:country": "PL",
                "addr:postcode": "67-400",
                "addr:city": "Wschowa",
                "addr:street": "Plac Kosynier\u00f3w",
                "addr:housenumber": "1",
                "addr:teryt:simc": 954685,
                "addr:teryt:sym_ul": 9500,
                "contact:phone": "+48 655402292",
                "contact:email": "ckuip@wschowa.com.pl",
                "contact:website": "http:\/\/ckuip.wschowa.com.pl",
                "ref:regon": "000785604",
                "ref:vatin": "PL6971642193",
                "operator": "Powiat Wschowski",
                "operator:type": "government",
                "fixme": "w zale\u017cno\u015bci od przedmiotu dzia\u0142alno\u015bci (np. amenity=training + training=*, amenity=dancing_school, amenity=language_school, amenity=music_school) albo amenity=school, amenity=college, albo landuse=education w zale\u017cno\u015bci od tego, jakie plac\u00f3wki wchodz\u0105 w sk\u0142ad zespo\u0142u. Sprawd\u017a, kiedy stosowa\u0107 amenity=* a kiedy landuse=education."
            }
        },
        {
            "id": 79255,
            "type": "Feature",
            "geometry": {
                "type": "Point",
                "coordinates": [
                    16.32449,
                    51.80715
                ]
            },
            "properties": {
                "isced:level": "3",
                "ref:rspo": 79255,
                "official_name": "Liceum Og\u00f3lnokszta\u0142c\u0105ce dla Doros\u0142ych w Centrum Kszta\u0142cenia Zawodowego I Ustawicznego we Wschowie",
                "name": "Liceum Og\u00f3lnokszta\u0142c\u0105ce dla Doros\u0142ych w Centrum Kszta\u0142cenia Zawodowego I Ustawicznego we Wschowie",
                "addr:country": "PL",
                "addr:postcode": "67-400",
                "addr:city": "Wschowa",
                "addr:street": "Plac Kosynier\u00f3w",
                "addr:housenumber": "1",
                "addr:teryt:simc": 954685,
                "addr:teryt:sym_ul": 9500,
                "contact:phone": "+48 655402292",
                "contact:email": "ckuip@wschowa.com.pl",
                "contact:website": "http:\/\/ckuip.wschowa.com.pl",
                "ref:regon": "978058605",
                "ref:vatin": "PL6971642193",
                "operator": "Powiat Wschowski",
                "operator:type": "government",
                "amenity": "school",
                "note": "Parent RSPO: 41786"
            }
        },
        {
            "id": 79295,
            "type": "Feature",
            "geometry": {
                "type": "Point",
                "coordinates": [
                    16.32449,
                    51.807120000000005
                ]
            },
            "properties": {
                "isced:level": "4",
                "ref:rspo": 79295,
                "official_name": "Szko\u0142a Policealna Zaoczna w Centrum Kszta\u0142cenia Zawodowego I Ustawicznego we Wschowie",
                "name": "Szko\u0142a Policealna Zaoczna w Centrum Kszta\u0142cenia Zawodowego I Ustawicznego we Wschowie",
                "addr:country": "PL",
                "addr:postcode": "67-400",
                "addr:city": "Wschowa",
                "addr:street": "Plac Kosynier\u00f3w",
                "addr:housenumber": "1",
                "addr:teryt:simc": 954685,
                "addr:teryt:sym_ul": 9500,
                "contact:phone": "+48 655402292",
                "contact:email": "ckuip@wschowa.com.pl",
                "contact:website": "http:\/\/ckuip.wschowa.com.pl",
                "ref:regon": "978058574",
                "ref:vatin": "PL6971642193",
                "operator": "Powiat Wschowski",
                "operator:type": "government",
                "amenity": "college",
                "note": "Parent RSPO: 41786"
            }
        },
        {
            "id": 275800,
            "type": "Feature",
            "geometry": {
                "type": "Point",
                "coordinates": [
                    16.32449,
                    51.80709
                ]
            },
            "properties": {
                "isced:level": "3",
                "ref:rspo": 275800,
                "official_name": "Centrum Kszta\u0142cenia Zawodowego I Ustawicznego Bran\u017cowa Szko\u0142a II Stopnia Nr 2 we Wschowie",
                "name": "Centrum Kszta\u0142cenia Zawodowego I Ustawicznego Bran\u017cowa Szko\u0142a II Stopnia Nr 2 we Wschowie",
                "addr:country": "PL",
                "addr:postcode": "67-400",
                "addr:city": "Wschowa",
                "addr:street": "Plac Kosynier\u00f3w",
                "addr:housenumber": "1",
                "addr:teryt:simc": 954685,
                "addr:teryt:sym_ul": 9500,
                "contact:phone": "+48 555402292",
                "contact:email": "ckuip@wschowa.com.pl",
                "contact:website": "http:\/\/www.ckuip.wschowa.com.pl\/",
                "ref:regon": "386937213",
                "operator": "Powiat Wschowski",
                "operator:type": "government",
                "amenity": "school",
                "note": "Parent RSPO: 41786"
            }
        },
        {
            "id": 4541,
            "type": "Feature",
            "geometry": {
                "type": "Point",
                "coordinates": [
                    16.3065,
                    51.80735
                ]
            },
            "properties": {
                "ref:rspo": 4541,
                "official_name": "Specjalny O\u015brodek Szkolno-Wychowawczy im. Janusza Korczaka we Wschowie",
                "name": "Specjalny O\u015brodek Szkolno-Wychowawczy",
                "addr:country": "PL",
                "addr:postcode": "67-400",
                "addr:city": "Wschowa",
                "addr:street": "Tadeusza Ko\u015bciuszki",
                "addr:housenumber": "25",
                "addr:teryt:simc": 954685,
                "addr:teryt:sym_ul": 9572,
                "contact:phone": "+48 655476922",
                "contact:email": "sekretariat@sosw.wschowa.com.pl",
                "contact:website": "http:\/\/www.sosw.wschowa.com.pl",
                "ref:regon": "000661026",
                "ref:vatin": "PL6971624887",
                "operator": "Powiat Wschowski",
                "operator:type": "government",
                "amenity": "school",
                "note": "Children RSPO: 6732;53385;53533;79159"
            }
        },
        {
            "id": 6732,
            "type": "Feature",
            "geometry": {
                "type": "Point",
                "coordinates": [
                    16.3065,
                    51.80732
                ]
            },
            "properties": {
                "isced:level": "3",
                "ref:rspo": 6732,
                "official_name": "Specjalny O\u015brodek Szkolno-Wychowawczy im. Janusza Korczaka we Wschowie Bran\u017cowa Szko\u0142a I Stopnia Nr 1 Specjalna we Wschowie",
                "name": "Specjalny O\u015brodek Szkolno-Wychowawczy",
                "addr:country": "PL",
                "addr:postcode": "67-400",
                "addr:city": "Wschowa",
                "addr:street": "Tadeusza Ko\u015bciuszki",
                "addr:housenumber": "25",
                "addr:teryt:simc": 954685,
                "addr:teryt:sym_ul": 9572,
                "contact:phone": "+48 655476922",
                "contact:email": "sekretariat@sosw.wschowa.com.pl",
                "contact:website": "http:\/\/www.sosw.wschowa.com.pl",
                "ref:regon": "081068182",
                "operator": "Powiat Wschowski",
                "operator:type": "government",
                "amenity": "school",
                "note": "Parent RSPO: 4541"
            }
        },
        {
            "id": 53533,
            "type": "Feature",
            "geometry": {
                "type": "Point",
                "coordinates": [
                    16.3065,
                    51.80729
                ]
            },
            "properties": {
                "ref:rspo": 53533,
                "official_name": "Specjalny O\u015brodek Szkolno-Wychowawczy im. Janusza Korczaka we Wschowie Przedszkole Specjalne Nr 6 \"Kraina T\u0119czy\"",
                "name": "Specjalny O\u015brodek Szkolno-Wychowawczy",
                "addr:country": "PL",
                "addr:postcode": "67-400",
                "addr:city": "Wschowa",
                "addr:street": "Tadeusza Ko\u015bciuszki",
                "addr:housenumber": "25",
                "addr:teryt:simc": 954685,
                "addr:teryt:sym_ul": 9572,
                "contact:phone": "+48 655476922",
                "contact:email": "sekretariat@sosw.wschowa.com.pl",
                "contact:website": "http:\/\/sosw.wschowa.com.pl",
                "ref:regon": "080464065",
                "ref:vatin": "PL6971624887",
                "operator": "Powiat Wschowski",
                "operator:type": "government",
                "amenity": "kindergarten",
                "note": "Parent RSPO: 4541"
            }
        },
        {
            "id": 79159,
            "type": "Feature",
            "geometry": {
                "type": "Point",
                "coordinates": [
                    16.3065,
                    51.80726
                ]
            },
            "properties": {
                "ref:rspo": 79159,
                "official_name": "Specjalny O\u015brodek Szkolno-Wychowawczy im. Janusza Korczaka we Wschowie Szko\u0142a Specjalna Przysposabiaj\u0105ca Do Pracy we Wschowie",
                "name": "Specjalny O\u015brodek Szkolno-Wychowawczy",
                "addr:country": "PL",
                "addr:postcode": "67-400",
                "addr:city": "Wschowa",
                "addr:street": "Tadeusza Ko\u015bciuszki",
                "addr:housenumber": "25",
                "addr:teryt:simc": 954685,
                "addr:teryt:sym_ul": 9572,
                "contact:phone": "+48 655476922",
                "contact:email": "sekretariat@sosw.wschowa.com.pl",
                "contact:website": "http:\/\/sosw.wschowa.com.pl",
                "ref:regon": "080039630",
                "ref:vatin": "PL6971624887",
                "operator": "Powiat Wschowski",
                "operator:type": "government",
                "amenity": "school",
                "note": "Parent RSPO: 4541"
            }
        },
        {
            "id": 4499,
            "type": "Feature",
            "geometry": {
                "type": "Point",
                "coordinates": [
                    16.31091,
                    51.80774
                ]
            },
            "properties": {
                "ref:rspo": 4499,
                "official_name": "I Zesp\u00f3\u0142 Szk\u00f3\u0142 im. Stanis\u0142awa Staszica we Wschowie",
                "name": "I Zesp\u00f3\u0142 Szk\u00f3\u0142",
                "addr:country": "PL",
                "addr:postcode": "67-400",
                "addr:city": "Wschowa",
                "addr:street": "Tadeusza Ko\u015bciuszki",
                "addr:housenumber": "11",
                "addr:teryt:simc": 954685,
                "addr:teryt:sym_ul": 9572,
                "contact:phone": "+48 655403257",
                "contact:email": "zszwschowa@o2.pl",
                "contact:website": "http:\/\/www.staszic.wschowa.info",
                "ref:regon": "000183064",
                "ref:vatin": "PL6971624864",
                "operator": "Powiat Wschowski",
                "operator:type": "government",
                "landuse": "education",
                "fixme": "amenity=school, amenity=college albo landuse=education w zale\u017cno\u015bci od tego, jakie plac\u00f3wki wchodz\u0105 w sk\u0142ad zespo\u0142u. Sprawd\u017a, kiedy stosowa\u0107 amenity=* a kiedy landuse=education.",
                "note": "Children RSPO: 6682;20456;20493;133688;275767"
            }
        },
        {
            "id": 6682,
            "type": "Feature",
            "geometry": {
                "type": "Point",
                "coordinates": [
                    16.31091,
                    51.80771
                ]
            },
            "properties": {
                "isced:level": "3",
                "ref:rspo": 6682,
                "official_name": "I Zesp\u00f3\u0142 Szk\u00f3\u0142 im. Stanis\u0142awa Staszica we Wschowie Bran\u017cowa Szko\u0142a I Stopnia Nr 2 we Wschowie",
                "name": "I Zesp\u00f3\u0142 Szk\u00f3\u0142",
                "addr:country": "PL",
                "addr:postcode": "67-400",
                "addr:city": "Wschowa",
                "addr:street": "Tadeusza Ko\u015bciuszki",
                "addr:housenumber": "11",
                "addr:teryt:simc": 954685,
                "addr:teryt:sym_ul": 9572,
                "contact:phone": "+48 655403257",
                "contact:email": "zszwschowa@o2.pl",
                "contact:website": "http:\/\/staszic.wschowa.info",
                "ref:regon": "081068153",
                "operator": "Powiat Wschowski",
                "operator:type": "government",
                "amenity": "school",
                "note": "Parent RSPO: 4499"
            }
        },
        {
            "id": 20456,
            "type": "Feature",
            "geometry": {
                "type": "Point",
                "coordinates": [
                    16.31091,
                    51.807680000000005
                ]
            },
            "properties": {
                "isced:level": "3",
                "ref:rspo": 20456,
                "official_name": "I Zesp\u00f3\u0142 Szk\u00f3\u0142 im. Stanis\u0142awa Staszica we Wschowie Liceum Og\u00f3lnokszta\u0142c\u0105ce",
                "name": "I Zesp\u00f3\u0142 Szk\u00f3\u0142",
                "addr:country": "PL",
                "addr:postcode": "67-400",
                "addr:city": "Wschowa",
                "addr:street": "Tadeusza Ko\u015bciuszki",
                "addr:housenumber": "11",
                "addr:teryt:simc": 954685,
                "addr:teryt:sym_ul": 9572,
                "contact:phone": "+48 655403257",
                "contact:email": "zszwschowa@o2.pl",
                "contact:website": "http:\/\/staszic.wschowa.info",
                "ref:regon": "978000178",
                "ref:vatin": "PL6971624864",
                "operator": "Powiat Wschowski",
                "operator:type": "government",
                "amenity": "school",
                "note": "Parent RSPO: 4499"
            }
        },
        {
            "id": 20493,
            "type": "Feature",
            "geometry": {
                "type": "Point",
                "coordinates": [
                    16.31091,
                    51.80765
                ]
            },
            "properties": {
                "isced:level": "3",
                "ref:rspo": 20493,
                "official_name": "I Zesp\u00f3\u0142 Szk\u00f3\u0142 im. Stanis\u0142awa Staszica we Wschowie Technikum",
                "name": "I Zesp\u00f3\u0142 Szk\u00f3\u0142",
                "addr:country": "PL",
                "addr:postcode": "67-400",
                "addr:city": "Wschowa",
                "addr:street": "Tadeusza Ko\u015bciuszki",
                "addr:housenumber": "11",
                "addr:teryt:simc": 954685,
                "addr:teryt:sym_ul": 9572,
                "contact:phone": "+48 655403257",
                "contact:email": "zszwschowa@o2.pl",
                "contact:website": "http:\/\/staszic.wschowa.info",
                "ref:regon": "978000149",
                "ref:vatin": "PL6971624864",
                "operator": "Powiat Wschowski",
                "operator:type": "government",
                "amenity": "school",
                "note": "Parent RSPO: 4499"
            }
        },
        {
            "id": 133688,
            "type": "Feature",
            "geometry": {
                "type": "Point",
                "coordinates": [
                    16.31091,
                    51.80762
                ]
            },
            "properties": {
                "isced:level": "1;2",
                "ref:rspo": 133688,
                "official_name": "I Zesp\u00f3\u0142 Szk\u00f3\u0142 we Wschowie Szko\u0142a Podstawowa Nr 6 dla Doros\u0142ych",
                "name": "I Zesp\u00f3\u0142 Szk\u00f3\u0142 we Wschowie Szko\u0142a Podstawowa Nr 6 dla Doros\u0142ych",
                "addr:country": "PL",
                "addr:postcode": "67-400",
                "addr:city": "Wschowa",
                "addr:street": "Tadeusza Ko\u015bciuszki",
                "addr:housenumber": "11",
                "addr:teryt:simc": 954685,
                "addr:teryt:sym_ul": 9572,
                "contact:phone": "+48 655403257",
                "contact:email": "zszwschowa@o2.pl",
                "contact:website": "http:\/\/staszic.wschowa.info",
                "ref:regon": "367538360",
                "ref:vatin": "PL6971624864",
                "operator": "Powiat Wschowski",
                "operator:type": "government",
                "amenity": "school",
                "note": "Parent RSPO: 4499"
            }
        },
        {
            "id": 275767,
            "type": "Feature",
            "geometry": {
                "type": "Point",
                "coordinates": [
                    16.31091,
                    51.807590000000005
                ]
            },
            "properties": {
                "isced:level": "3",
                "ref:rspo": 275767,
                "official_name": "I Zesp\u00f3\u0142 Szk\u00f3\u0142 im. Stanis\u0142awa Staszica Bran\u017cowa Szko\u0142a II Stopnia Nr 1 we Wschowie",
                "name": "I Zesp\u00f3\u0142 Szk\u00f3\u0142",
                "addr:country": "PL",
                "addr:postcode": "67-400",
                "addr:city": "Wschowa",
                "addr:street": "Tadeusza Ko\u015bciuszki",
                "addr:housenumber": "11",
                "addr:teryt:simc": 954685,
                "addr:teryt:sym_ul": 9572,
                "contact:phone": "+48 655403257",
                "contact:email": "zszwschowa@o2.pl",
                "contact:website": "http:\/\/staszic.wschowa.info\/",
                "ref:regon": "386934195",
                "operator": "Powiat Wschowski",
                "operator:type": "government",
                "amenity": "school",
                "note": "Parent RSPO: 4499"
            }
        },
        {
            "id": 42266,
            "type": "Feature",
            "geometry": {
                "type": "Point",
                "coordinates": [
                    16.3126,
                    51.80811
                ]
            },
            "properties": {
                "isced:level": "1;2",
                "ref:rspo": 42266,
                "official_name": "Szko\u0142a Podstawowa Nr 2\nIm. Boh. Westerplatte",
                "name": "Szko\u0142a Podstawowa Nr 2\nIm. Boh. Westerplatte",
                "addr:country": "PL",
                "addr:postcode": "67-400",
                "addr:city": "Wschowa",
                "addr:street": "Wolszty\u0144ska",
                "addr:housenumber": "4",
                "addr:teryt:simc": 954685,
                "addr:teryt:sym_ul": 24704,
                "contact:phone": "+48 655407519",
                "contact:email": "sp2wschowa@poczta.onet.pl",
                "contact:website": "http:\/\/www.sp2wschowa.pl",
                "ref:regon": "410207011",
                "ref:vatin": "PL6971621340",
                "operator": "Gmina Wschowa",
                "operator:type": "government",
                "amenity": "school"
            }
        },
        {
            "id": 42278,
            "type": "Feature",
            "geometry": {
                "type": "Point",
                "coordinates": [
                    16.31504,
                    51.8085
                ]
            },
            "properties": {
                "ref:rspo": 42278,
                "official_name": "Przedszkole Nr 5 im. S\u0142oneczne Przedszkole we Wschowie",
                "name": "Przedszkole Nr 5",
                "addr:country": "PL",
                "addr:postcode": "67-400",
                "addr:city": "Wschowa",
                "addr:street": "Targowa",
                "addr:housenumber": "8",
                "addr:teryt:simc": 954685,
                "addr:teryt:sym_ul": 22659,
                "contact:phone": "+48 655407169",
                "contact:email": "przedszkole_5@wp.pl",
                "ref:regon": "971307844",
                "ref:vatin": "PL6971649781",
                "operator": "Gmina Wschowa",
                "operator:type": "government",
                "amenity": "kindergarten"
            }
        },
        {
            "id": 42280,
            "type": "Feature",
            "geometry": {
                "type": "Point",
                "coordinates": [
                    16.32485,
                    51.80998
                ]
            },
            "properties": {
                "ref:rspo": 42280,
                "official_name": "Niepubliczne Przedszkole Si\u00f3str Salezjanek we Wschowie",
                "name": "Niepubliczne Przedszkole Si\u00f3str Salezjanek we Wschowie",
                "addr:country": "PL",
                "addr:postcode": "67-400",
                "addr:city": "Wschowa",
                "addr:street": "Ignacego Daszy\u0144skiego",
                "addr:housenumber": "47",
                "addr:teryt:simc": 954685,
                "addr:teryt:sym_ul": 3635,
                "contact:phone": "+48 655402370",
                "contact:email": "wschowap@cmw.osw.pl",
                "contact:website": "http:\/\/salezjanki.zw.pl",
                "ref:regon": "081083141",
                "ref:vatin": "PL9251831329",
                "operator": "Dane Do Uzupe\u0142nienia",
                "operator:type": "private",
                "amenity": "kindergarten"
            }
        },
        {
            "id": 78973,
            "type": "Feature",
            "geometry": {
                "type": "Point",
                "coordinates": [
                    16.3076599,
                    51.81074
                ]
            },
            "properties": {
                "ref:rspo": 78973,
                "official_name": "Poradnia Psychologiczno-Pedagogiczna we Wschowie",
                "name": "Poradnia Psychologiczno-Pedagogiczna we Wschowie",
                "addr:country": "PL",
                "addr:postcode": "67-400",
                "addr:city": "Wschowa",
                "addr:street": "Zacisze",
                "addr:housenumber": "1",
                "addr:teryt:simc": 954685,
                "addr:teryt:sym_ul": 25314,
                "contact:phone": "+48 655402030",
                "contact:email": "pppwschowa@op.pl",
                "contact:website": "http:\/\/ppp.wschowa.info",
                "ref:regon": "410194604",
                "ref:vatin": "PL6971626314",
                "operator": "Powiat Wschowski",
                "operator:type": "government",
                "healthcare": "counselling",
                "counselling_type": "education",
                "fixme": "w zale\u017cno\u015bci od przedmiotu dzia\u0142alno\u015bci (np. healthcare=counselling + counselling_type=education albo healthcare=psychotherapist)",
                "note": "Children RSPO: 272641"
            }
        },
        {
            "id": 262805,
            "type": "Feature",
            "geometry": {
                "type": "Point",
                "coordinates": [
                    16.3076599,
                    51.81071
                ]
            },
            "properties": {
                "isced:level": "1;2",
                "ref:rspo": 262805,
                "official_name": "Szko\u0142a Podstawowa Nr 3 im. Jana Paw\u0142a II we Wschowie",
                "name": "Szko\u0142a Podstawowa Nr 3",
                "addr:country": "PL",
                "addr:postcode": "67-400",
                "addr:city": "Wschowa",
                "addr:street": "Zacisze",
                "addr:housenumber": "1",
                "addr:teryt:simc": 954685,
                "addr:teryt:sym_ul": 25314,
                "contact:phone": "+48 655401530",
                "contact:email": "sp3@wschowa.com.pl",
                "contact:website": "http:\/\/sp3.wschowa.com.pl",
                "ref:regon": "368061226",
                "ref:vatin": "PL4970087251",
                "operator": "Gmina Wschowa",
                "operator:type": "government",
                "amenity": "school"
            }
        },
        {
            "id": 42282,
            "type": "Feature",
            "geometry": {
                "type": "Point",
                "coordinates": [
                    16.31225,
                    51.81235
                ]
            },
            "properties": {
                "ref:rspo": 42282,
                "official_name": "Przedszkole Niepubliczne \"Happyland\" we Wschowie",
                "name": "Przedszkole Niepubliczne \"Happyland\" we Wschowie",
                "addr:country": "PL",
                "addr:postcode": "67-400",
                "addr:city": "Wschowa",
                "addr:street": "Wolszty\u0144ska",
                "addr:housenumber": "18",
                "addr:teryt:simc": 954685,
                "addr:teryt:sym_ul": 24704,
                "contact:phone": "+48 513010429",
                "ref:regon": "081082294",
                "ref:vatin": "PL4970064793",
                "operator": "Dane Do Uzupe\u0142nienia",
                "operator:type": "private",
                "amenity": "kindergarten"
            }
        },
        {
            "id": 42267,
            "type": "Feature",
            "geometry": {
                "type": "Point",
                "coordinates": [
                    16.22441,
                    51.81356
                ]
            },
            "properties": {
                "isced:level": "1;2",
                "ref:rspo": 42267,
                "official_name": "Szko\u0142a Podstawowa im. J\u00f3zefa Wybickiego w \u0141ysinach",
                "name": "Szko\u0142a Podstawowa",
                "addr:country": "PL",
                "addr:postcode": "67-400",
                "addr:place": "\u0141ysiny",
                "addr:housenumber": "2",
                "addr:teryt:simc": 377911,
                "contact:phone": "+48 655409607",
                "contact:email": "splysiny@wp.pl",
                "ref:regon": "001246909",
                "ref:vatin": "PL6971621133",
                "operator": "Gmina Wschowa",
                "operator:type": "government",
                "amenity": "school"
            }
        },
        {
            "id": 42272,
            "type": "Feature",
            "geometry": {
                "type": "Point",
                "coordinates": [
                    16.33766,
                    51.83906
                ]
            },
            "properties": {
                "isced:level": "1;2",
                "ref:rspo": 42272,
                "official_name": "Szko\u0142a Podstawowa im. Stanis\u0142awa Staszica",
                "name": "Szko\u0142a Podstawowa",
                "addr:country": "PL",
                "addr:postcode": "67-400",
                "addr:place": "Osowa Sie\u0144",
                "addr:housenumber": "45F",
                "addr:teryt:simc": 377957,
                "contact:phone": "+48 655406189",
                "contact:email": "sekretariat@sposowa.wschowa.pl",
                "ref:regon": "000739828",
                "ref:vatin": "PL6971621216",
                "operator": "Gmina Wschowa",
                "operator:type": "government",
                "amenity": "school"
            }
        },
        {
            "id": 42268,
            "type": "Feature",
            "geometry": {
                "type": "Point",
                "coordinates": [
                    16.23793,
                    51.86923
                ]
            },
            "properties": {
                "isced:level": "1;2",
                "ref:rspo": 42268,
                "official_name": "Szko\u0142a Podstawowa w Lginiu",
                "name": "Szko\u0142a Podstawowa w Lginiu",
                "addr:country": "PL",
                "addr:postcode": "67-400",
                "addr:place": "Lgi\u0144",
                "addr:housenumber": "6",
                "addr:teryt:simc": 377874,
                "contact:phone": "+48 655400321",
                "contact:email": "splgin@wp.pl",
                "ref:regon": "001118695",
                "ref:vatin": "PL6971621222",
                "operator": "Gmina Wschowa",
                "operator:type": "government",
                "amenity": "school"
            }
        },
        {
            "id": 74143,
            "type": "Feature",
            "geometry": {
                "type": "Point",
                "coordinates": [
                    16.23793,
                    51.8692
                ]
            },
            "properties": {
                "ref:rspo": 74143,
                "official_name": "Punkt Przedszkolny w Lginiu",
                "name": "Punkt Przedszkolny w Lginiu",
                "addr:country": "PL",
                "addr:postcode": "67-400",
                "addr:place": "Lgi\u0144",
                "addr:housenumber": "6",
                "addr:teryt:simc": 377874,
                "contact:phone": "+48 655400321",
                "ref:regon": "081085134",
                "operator": "Gmina Wschowa",
                "operator:type": "government",
                "amenity": "kindergarten"
            }
        }
    ]
}