{
    "type": "FeatureCollection",
    "features": [
        {
            "id": 60884,
            "type": "Feature",
            "geometry": {
                "type": "Point",
                "coordinates": [
                    16.2487,
                    51.71328
                ]
            },
            "properties": {
                "ref:rspo": 60884,
                "official_name": "Zesp\u00f3\u0142 Plac\u00f3wek Edukacyjnych w Szlichtyngowej",
                "name": "Zesp\u00f3\u0142 Plac\u00f3wek Edukacyjnych w Szlichtyngowej",
                "addr:postcode": "67-407",
                "addr:city": "Szlichtyngowa",
                "addr:street": "Ignacego Daszy\u0144skiego",
                "addr:housenumber": "16",
                "addr:teryt:simc": 954640,
                "addr:teryt:sym_ul": 3635,
                "phone": "+48 655407212",
                "email": "sp_szlichtyngowa@wp.pl",
                "website": "http:\/\/www.sp.szlichtyngowa.org",
                "ref:regon": "081000646",
                "operator": "Gmina Szlichtyngowa",
                "operator:type": "government",
                "landuse": "education",
                "fixme": "amenity=school, amenity=college albo landuse=education w zale\u017cno\u015bci od tego, jakie plac\u00f3wki wchodz\u0105 w sk\u0142ad zespo\u0142u. Sprawd\u017a, kiedy stosowa\u0107 amenity=* a kiedy landuse=education.",
                "note": "Children RSPO: 74838;74839"
            }
        },
        {
            "id": 74838,
            "type": "Feature",
            "geometry": {
                "type": "Point",
                "coordinates": [
                    16.2487,
                    51.713249999999995
                ]
            },
            "properties": {
                "isced:level": "1;2",
                "ref:rspo": 74838,
                "official_name": "Szko\u0142a Podstawowa im. Jana Paw\u0142a II w Szlichtyngowej",
                "name": "Szko\u0142a Podstawowa",
                "addr:postcode": "67-407",
                "addr:city": "Szlichtyngowa",
                "addr:street": "Ignacego Daszy\u0144skiego",
                "addr:housenumber": "16",
                "addr:teryt:simc": 954640,
                "addr:teryt:sym_ul": 3635,
                "phone": "+48 655407212",
                "email": "sp_szlichtyngowa@wp.pl",
                "website": "http:\/\/www.sp.szlichtyngowa.org\/",
                "ref:regon": "971321809",
                "ref:vatin": "PL6971562850",
                "operator": "Gmina Szlichtyngowa",
                "operator:type": "government",
                "amenity": "school",
                "note": "Parent RSPO: 60884"
            }
        },
        {
            "id": 74839,
            "type": "Feature",
            "geometry": {
                "type": "Point",
                "coordinates": [
                    16.24734,
                    51.71363
                ]
            },
            "properties": {
                "ref:rspo": 74839,
                "official_name": "Przedszkole Samorz\u0105dowe w Szlichtyngowej",
                "name": "Przedszkole Samorz\u0105dowe w Szlichtyngowej",
                "addr:postcode": "67-407",
                "addr:city": "Szlichtyngowa",
                "addr:street": "Ignacego Daszy\u0144skiego",
                "addr:housenumber": "14",
                "addr:teryt:simc": 954640,
                "addr:teryt:sym_ul": 3635,
                "phone": "+48 655492320",
                "ref:regon": "410234775",
                "ref:vatin": "PL6971882750",
                "operator": "Gmina Szlichtyngowa",
                "operator:type": "government",
                "amenity": "kindergarten",
                "note": "Parent RSPO: 60884"
            }
        },
        {
            "id": 62437,
            "type": "Feature",
            "geometry": {
                "type": "Point",
                "coordinates": [
                    16.29915,
                    51.73503
                ]
            },
            "properties": {
                "isced:level": "1;2",
                "ref:rspo": 62437,
                "official_name": "Szko\u0142a Podstawowa w J\u0119drzychowicach",
                "name": "Szko\u0142a Podstawowa w J\u0119drzychowicach",
                "addr:postcode": "67-407",
                "addr:place": "Kowalewo",
                "addr:housenumber": "62A",
                "addr:teryt:simc": 376337,
                "phone": "+48 655492418",
                "email": "sp-jedrzychowice@zw.pl",
                "website": "http:\/\/sp-jedrzychowice.zw.pl\/",
                "ref:regon": "971321933",
                "ref:vatin": "PL6971138075",
                "operator": "Gmina Szlichtyngowa",
                "operator:type": "government",
                "amenity": "school"
            }
        },
        {
            "id": 74852,
            "type": "Feature",
            "geometry": {
                "type": "Point",
                "coordinates": [
                    16.29915,
                    51.735
                ]
            },
            "properties": {
                "ref:rspo": 74852,
                "official_name": "Punkt Przedszkolny w Szkole w J\u0119drzychowicach",
                "name": "Punkt Przedszkolny w Szkole w J\u0119drzychowicach",
                "addr:postcode": "67-407",
                "addr:place": "Kowalewo",
                "addr:housenumber": "62A",
                "addr:teryt:simc": 376337,
                "phone": "+48 655492418",
                "ref:regon": "081085631",
                "operator": "Gmina Szlichtyngowa",
                "operator:type": "government",
                "amenity": "kindergarten"
            }
        },
        {
            "id": 62441,
            "type": "Feature",
            "geometry": {
                "type": "Point",
                "coordinates": [
                    16.20893,
                    51.77215
                ]
            },
            "properties": {
                "ref:rspo": 62441,
                "official_name": "Przedszkole Niepubliczne Stowarzyszenia Rodzin Katolickich w Starych Drzewcach",
                "name": "Przedszkole Niepubliczne Stowarzyszenia Rodzin Katolickich w Starych Drzewcach",
                "addr:postcode": "67-407",
                "addr:place": "Stare Drzewce",
                "addr:housenumber": "44",
                "addr:teryt:simc": 376366,
                "phone": "+48 664760183",
                "email": "przedszkole-drzewce@wp.pl",
                "ref:regon": "081084420",
                "operator": "Stowarzyszenie Rodzin Katolickich Diecezji Zielonog\u00f3rsko-Gorzowskiej",
                "operator:type": "ngo",
                "amenity": "kindergarten"
            }
        },
        {
            "id": 62439,
            "type": "Feature",
            "geometry": {
                "type": "Point",
                "coordinates": [
                    16.20273,
                    51.77314
                ]
            },
            "properties": {
                "isced:level": "1;2",
                "ref:rspo": 62439,
                "official_name": "Szko\u0142a Podstawowa im. Danuty Siedzik\u00f3wny \"Inki\" w Starych Drzewcach",
                "name": "Szko\u0142a Podstawowa",
                "addr:postcode": "67-407",
                "addr:place": "Stare Drzewce",
                "addr:housenumber": "55",
                "addr:teryt:simc": 376366,
                "phone": "+48 655493115",
                "email": "sp.staredrzewce@wp.pl",
                "ref:regon": "971321940",
                "ref:vatin": "PL6971092657",
                "operator": "Gmina Szlichtyngowa",
                "operator:type": "government",
                "amenity": "school"
            }
        }
    ]
}