{
    "type": "FeatureCollection",
    "features": [
        {
            "id": 84638,
            "type": "Feature",
            "geometry": {
                "type": "Point",
                "coordinates": [
                    16.10577,
                    51.78695
                ]
            },
            "properties": {
                "ref:rspo": 84638,
                "official_name": "Zesp\u00f3\u0142 Wychowania Przedszkolnego w Krzepielowie",
                "name": "Zesp\u00f3\u0142 Wychowania Przedszkolnego w Krzepielowie",
                "addr:postcode": "67-410",
                "addr:place": "Krzepiel\u00f3w",
                "addr:housenumber": "35",
                "addr:city:simc": 913775,
                "phone": "+48 683566185",
                "ref:regon": "081088457",
                "operator": "Gmina S\u0142awa",
                "operator:type": "government",
                "amenity": "kindergarten"
            }
        },
        {
            "id": 87426,
            "type": "Feature",
            "geometry": {
                "type": "Point",
                "coordinates": [
                    16.10577,
                    51.786919999999995
                ]
            },
            "properties": {
                "isced:level": "1;2",
                "ref:rspo": 87426,
                "official_name": "Szko\u0142a Podstawowa im.janusza Korczaka w Krzepielowie",
                "name": "Szko\u0142a Podstawowa im.janusza Korczaka w Krzepielowie",
                "addr:postcode": "67-410",
                "addr:place": "Krzepiel\u00f3w",
                "addr:housenumber": "35",
                "addr:city:simc": 913775,
                "phone": "+48 683566185",
                "email": "pspkrzepielow@wp.pl",
                "website": "http:\/\/www.pspkrzepielowszkolnastrona.pl",
                "ref:regon": "970563901",
                "ref:vatin": "PL9251817559",
                "operator": "Gmina S\u0142awa",
                "operator:type": "government",
                "amenity": "school"
            }
        },
        {
            "id": 103919,
            "type": "Feature",
            "geometry": {
                "type": "Point",
                "coordinates": [
                    16.12005,
                    51.84693
                ]
            },
            "properties": {
                "isced:level": "1;2",
                "ref:rspo": 103919,
                "official_name": "Szko\u0142a Podstawowa w Starym Str\u0105czu",
                "name": "Szko\u0142a Podstawowa w Starym Str\u0105czu",
                "addr:postcode": "67-410",
                "addr:place": "Stare Str\u0105cze",
                "addr:housenumber": "195",
                "addr:city:simc": 914020,
                "phone": "+48 683566283",
                "email": "psp_starestracze@wp.pl",
                "website": "http:\/\/www.pspstarestracze.szkolnastrona.pl",
                "ref:regon": "970563835",
                "ref:vatin": "PL9251817430",
                "operator": "Gmina S\u0142awa",
                "operator:type": "government",
                "amenity": "school"
            }
        },
        {
            "id": 128949,
            "type": "Feature",
            "geometry": {
                "type": "Point",
                "coordinates": [
                    16.0527,
                    51.87129
                ]
            },
            "properties": {
                "isced:level": "1;2",
                "ref:rspo": 128949,
                "official_name": "Niepubliczna Szko\u0142a Podstawowa Happy House",
                "name": "Niepubliczna Szko\u0142a Podstawowa Happy House",
                "addr:postcode": "67-410",
                "addr:city": "S\u0142awa",
                "addr:street": "Polna",
                "addr:housenumber": "1",
                "addr:city:simc": 988589,
                "addr:street:sym_ul": 17011,
                "phone": "+48 506890056",
                "email": "szkola@happyslawa.pl",
                "website": "http:\/\/www.happyslawa.pl",
                "ref:regon": "362436731",
                "operator": "Oktawia \u0141askawiec-Rolla",
                "operator:type": "private",
                "amenity": "school"
            }
        },
        {
            "id": 129671,
            "type": "Feature",
            "geometry": {
                "type": "Point",
                "coordinates": [
                    16.0527,
                    51.87126
                ]
            },
            "properties": {
                "ref:rspo": 129671,
                "official_name": "Przedszkole Niepubliczne Kraina Pani Sowy",
                "name": "Przedszkole Niepubliczne Kraina Pani Sowy",
                "addr:postcode": "67-410",
                "addr:city": "S\u0142awa",
                "addr:street": "Polna",
                "addr:housenumber": "1",
                "addr:city:simc": 988589,
                "addr:street:sym_ul": 17011,
                "phone": "+48 601834471",
                "email": "krainapanisowy@gmail.com",
                "ref:regon": "362742267",
                "ref:vatin": "PL4970053476",
                "operator": "Lidia Ca\u0142ek-Sowa",
                "operator:type": "private",
                "amenity": "kindergarten"
            }
        },
        {
            "id": 89735,
            "type": "Feature",
            "geometry": {
                "type": "Point",
                "coordinates": [
                    16.0671399,
                    51.88024
                ]
            },
            "properties": {
                "isced:level": "1;2",
                "ref:rspo": 89735,
                "official_name": "Szko\u0142a Podstawowa im.franciszka Niewidziaj\u0142y w S\u0142awie",
                "name": "Szko\u0142a Podstawowa im.franciszka Niewidziaj\u0142y w S\u0142awie",
                "addr:postcode": "67-410",
                "addr:city": "S\u0142awa",
                "addr:street": "Odrodzonego Wojska Polskiego",
                "addr:housenumber": "16",
                "addr:door": "-",
                "addr:city:simc": 988589,
                "addr:street:sym_ul": 14760,
                "phone": "+48 683566465",
                "email": "sp.slawa@onet.pl",
                "website": "http:\/\/www.sp.slawa.pl",
                "ref:regon": "081090017",
                "ref:vatin": "PL9251821360",
                "operator": "Gmina S\u0142awa",
                "operator:type": "government",
                "amenity": "school"
            }
        },
        {
            "id": 82481,
            "type": "Feature",
            "geometry": {
                "type": "Point",
                "coordinates": [
                    16.07069,
                    51.88169
                ]
            },
            "properties": {
                "ref:rspo": 82481,
                "official_name": "Przedszkole w S\u0142awie",
                "name": "Przedszkole w S\u0142awie",
                "addr:postcode": "67-410",
                "addr:city": "S\u0142awa",
                "addr:street": "Sportowa",
                "addr:housenumber": "7",
                "addr:city:simc": 988589,
                "addr:street:sym_ul": 20683,
                "phone": "+48 683566238",
                "email": "przedszkole_slawa@o2.pl",
                "website": "http:\/\/www.slawa.pl",
                "ref:regon": "080009214",
                "ref:vatin": "PL9251817507",
                "operator": "Gmina S\u0142awa",
                "operator:type": "government",
                "amenity": "kindergarten"
            }
        },
        {
            "id": 81495,
            "type": "Feature",
            "geometry": {
                "type": "Point",
                "coordinates": [
                    16.06936,
                    51.88264
                ]
            },
            "properties": {
                "ref:rspo": 81495,
                "official_name": "Przedszkole Niepubliczne \"Bajka\" w S\u0142awie",
                "name": "Przedszkole Niepubliczne \"Bajka\" w S\u0142awie",
                "addr:postcode": "67-410",
                "addr:city": "S\u0142awa",
                "addr:street": "Sportowa",
                "addr:housenumber": "8",
                "addr:city:simc": 988589,
                "addr:street:sym_ul": 20683,
                "phone": "+48 513010429",
                "email": "bajka.slawa@interia.pl",
                "ref:regon": "081086731",
                "ref:vatin": "PL4970064793",
                "operator": "\"Bajka\" Alicja \u015aliwi\u0144ska, Danuta Krzy\u017canowska Sp\u00f3\u0142ka Jawna",
                "operator:type": "private",
                "amenity": "kindergarten"
            }
        },
        {
            "id": 83686,
            "type": "Feature",
            "geometry": {
                "type": "Point",
                "coordinates": [
                    16.06848,
                    51.88333
                ]
            },
            "properties": {
                "ref:rspo": 83686,
                "official_name": "Zesp\u00f3\u0142 Szk\u00f3\u0142 Ponadpodstawowych w S\u0142awie",
                "name": "Zesp\u00f3\u0142 Szk\u00f3\u0142 Ponadpodstawowych w S\u0142awie",
                "addr:postcode": "67-410",
                "addr:city": "S\u0142awa",
                "addr:street": "Ogrodowa",
                "addr:housenumber": "1",
                "addr:city:simc": 988589,
                "addr:street:sym_ul": 14834,
                "phone": "+48 683566511",
                "email": "sekretariat@zsp-slawa.pl",
                "website": "http:\/\/www.zsp-slawa.pl",
                "ref:regon": "000097850",
                "ref:vatin": "PL9251476756",
                "operator": "Gmina S\u0142awa",
                "operator:type": "government",
                "landuse": "education",
                "fixme": "amenity=school, amenity=college albo landuse=education w zale\u017cno\u015bci od tego, jakie plac\u00f3wki wchodz\u0105 w sk\u0142ad zespo\u0142u. Sprawd\u017a, kiedy stosowa\u0107 amenity=* a kiedy landuse=education.",
                "note": "Children RSPO: 86202;86380;86457"
            }
        },
        {
            "id": 272641,
            "type": "Feature",
            "geometry": {
                "type": "Point",
                "coordinates": [
                    16.06848,
                    51.8833
                ]
            },
            "properties": {
                "ref:rspo": 272641,
                "official_name": "Filia w S\u0142awie Poradni Psychologiczno-Pedagogicznej we Wschowie",
                "name": "Filia w S\u0142awie Poradni Psychologiczno-Pedagogicznej we Wschowie",
                "addr:postcode": "67-410",
                "addr:city": "S\u0142awa",
                "addr:street": "Ogrodowa",
                "addr:housenumber": "1",
                "addr:city:simc": 988589,
                "addr:street:sym_ul": 14834,
                "phone": "+48 655402030",
                "email": "pppwschowa@op.pl",
                "website": "http:\/\/ppp.wschowa.info",
                "ref:regon": "410194604",
                "operator": "Powiat Wschowski",
                "operator:type": "government",
                "healthcare": "counselling",
                "counselling_type": "education",
                "fixme": "w zale\u017cno\u015bci od przedmiotu dzia\u0142alno\u015bci (np. healthcare=counselling + counselling_type=education albo healthcare=psychotherapist)",
                "note": "Parent RSPO: 78973"
            }
        },
        {
            "id": 86202,
            "type": "Feature",
            "geometry": {
                "type": "Point",
                "coordinates": [
                    16.06848,
                    51.88327
                ]
            },
            "properties": {
                "isced:level": "3",
                "ref:rspo": 86202,
                "official_name": "Liceum Og\u00f3lnokszta\u0142c\u0105ce \nW S\u0142awie",
                "name": "Liceum Og\u00f3lnokszta\u0142c\u0105ce \nW S\u0142awie",
                "addr:postcode": "67-410",
                "addr:city": "S\u0142awa",
                "addr:street": "Ogrodowa",
                "addr:housenumber": "1",
                "addr:city:simc": 988589,
                "addr:street:sym_ul": 14834,
                "phone": "+48 683566511",
                "email": "sekretariat@zsp-slawa.pl",
                "ref:regon": "978000824",
                "operator": "Gmina S\u0142awa",
                "operator:type": "government",
                "amenity": "school",
                "note": "Parent RSPO: 83686"
            }
        },
        {
            "id": 86380,
            "type": "Feature",
            "geometry": {
                "type": "Point",
                "coordinates": [
                    16.06848,
                    51.88324
                ]
            },
            "properties": {
                "isced:level": "3",
                "ref:rspo": 86380,
                "official_name": "Technikum w S\u0142awie",
                "name": "Technikum w S\u0142awie",
                "addr:postcode": "67-410",
                "addr:city": "S\u0142awa",
                "addr:street": "Ogrodowa",
                "addr:housenumber": "1",
                "addr:city:simc": 988589,
                "addr:street:sym_ul": 14834,
                "phone": "+48 683566511",
                "email": "sekretariat@zsp-slawa.pl",
                "website": "http:\/\/www.zsp-slawa.pl",
                "ref:regon": "978000830",
                "operator": "Gmina S\u0142awa",
                "operator:type": "government",
                "amenity": "school",
                "note": "Parent RSPO: 83686"
            }
        },
        {
            "id": 86457,
            "type": "Feature",
            "geometry": {
                "type": "Point",
                "coordinates": [
                    16.06848,
                    51.88321
                ]
            },
            "properties": {
                "isced:level": "3",
                "ref:rspo": 86457,
                "official_name": "Bran\u017cowa Szko\u0142a I Stopnia w S\u0142awie",
                "name": "Bran\u017cowa Szko\u0142a I Stopnia w S\u0142awie",
                "addr:postcode": "67-410",
                "addr:city": "S\u0142awa",
                "addr:street": "Ogrodowa",
                "addr:housenumber": "1",
                "addr:city:simc": 988589,
                "addr:street:sym_ul": 14834,
                "phone": "+48 683566511",
                "ref:regon": "978000860",
                "operator": "Gmina S\u0142awa",
                "operator:type": "government",
                "amenity": "school",
                "note": "Parent RSPO: 83686"
            }
        },
        {
            "id": 81010,
            "type": "Feature",
            "geometry": {
                "type": "Point",
                "coordinates": [
                    16.0677999,
                    51.885
                ]
            },
            "properties": {
                "ref:rspo": 81010,
                "official_name": "Przedszkole Niepubliczne Promyk Joanna Ma\u0142yniak",
                "name": "Przedszkole Niepubliczne Promyk Joanna Ma\u0142yniak",
                "addr:postcode": "67-410",
                "addr:city": "S\u0142awa",
                "addr:street": "Ogrodowa",
                "addr:housenumber": "24",
                "addr:city:simc": 988589,
                "addr:street:sym_ul": 14834,
                "phone": "+48 693498460",
                "ref:regon": "081086642",
                "ref:vatin": "PL4970052152",
                "operator": "Joanna Ma\u0142yniak",
                "operator:type": "private",
                "amenity": "kindergarten"
            }
        },
        {
            "id": 87011,
            "type": "Feature",
            "geometry": {
                "type": "Point",
                "coordinates": [
                    16.03826,
                    51.94736
                ]
            },
            "properties": {
                "isced:level": "1;2",
                "ref:rspo": 87011,
                "official_name": "Szko\u0142a Podstawowa w Ciosa\u0144cu",
                "name": "Szko\u0142a Podstawowa w Ciosa\u0144cu",
                "addr:postcode": "67-410",
                "addr:place": "Ciosaniec",
                "addr:housenumber": "27",
                "addr:city:simc": 913717,
                "phone": "+48 683567605",
                "email": "ciosaniec@poczta.onet.pl",
                "website": "http:\/\/www.zsciosaniec.edu.pl",
                "ref:regon": "970563798",
                "ref:vatin": "PL9251938346",
                "operator": "Gmina S\u0142awa",
                "operator:type": "government",
                "amenity": "school",
                "note": "Children RSPO: 114191"
            }
        },
        {
            "id": 87224,
            "type": "Feature",
            "geometry": {
                "type": "Point",
                "coordinates": [
                    16.03826,
                    51.94733
                ]
            },
            "properties": {
                "ref:rspo": 87224,
                "official_name": "Zesp\u00f3\u0142 Wychowania Przedszkolnego w Ciosa\u0144cu",
                "name": "Zesp\u00f3\u0142 Wychowania Przedszkolnego w Ciosa\u0144cu",
                "addr:postcode": "67-410",
                "addr:place": "Ciosaniec",
                "addr:housenumber": "27",
                "addr:city:simc": 913717,
                "phone": "+48 683567605",
                "ref:regon": "081088807",
                "operator": "Gmina S\u0142awa",
                "operator:type": "government",
                "amenity": "kindergarten"
            }
        },
        {
            "id": 87285,
            "type": "Feature",
            "geometry": {
                "type": "Point",
                "coordinates": [
                    16.1082,
                    51.96618
                ]
            },
            "properties": {
                "ref:rspo": 87285,
                "official_name": "Zesp\u00f3\u0142 Wychowania Przedszkolnego w \u0141upicach",
                "name": "Zesp\u00f3\u0142 Wychowania Przedszkolnego w \u0141upicach",
                "addr:postcode": "67-410",
                "addr:city": "\u0141upice",
                "addr:street": "Szkolna",
                "addr:housenumber": "25",
                "addr:city:simc": 913947,
                "addr:street:sym_ul": 21970,
                "phone": "+48 693567603",
                "ref:regon": "081088813",
                "operator": "Gmina S\u0142awa",
                "operator:type": "government",
                "amenity": "kindergarten"
            }
        },
        {
            "id": 114191,
            "type": "Feature",
            "geometry": {
                "type": "Point",
                "coordinates": [
                    16.1082,
                    51.96615
                ]
            },
            "properties": {
                "isced:level": "1;2",
                "ref:rspo": 114191,
                "official_name": "Szko\u0142a Podstawowa w Ciosa\u0144cu Filia w \u0141upicach",
                "name": "Szko\u0142a Podstawowa w Ciosa\u0144cu Filia w \u0141upicach",
                "addr:postcode": "67-410",
                "addr:city": "\u0141upice",
                "addr:street": "Szkolna",
                "addr:housenumber": "25",
                "addr:city:simc": 913947,
                "addr:street:sym_ul": 21970,
                "phone": "+48 683567603",
                "email": "ciosaniec@poczta.onet.pl",
                "website": "http:\/\/zsciosaniec.edu.pl",
                "ref:regon": "970563798",
                "operator": "Gmina S\u0142awa",
                "operator:type": "government",
                "amenity": "school",
                "note": "Parent RSPO: 87011"
            }
        }
    ]
}