{
    "type": "FeatureCollection",
    "features": [
        {
            "id": 262749,
            "type": "Feature",
            "geometry": {
                "type": "Point",
                "coordinates": [
                    21.55853,
                    50.0938
                ]
            },
            "properties": {
                "ref:rspo": 262749,
                "official_name": "Zesp\u00f3\u0142 Szkolno-Przedszkolny w Skrzyszowie",
                "name": "Zesp\u00f3\u0142 Szkolno-Przedszkolny w Skrzyszowie",
                "addr:country": "PL",
                "addr:postcode": "39-103",
                "addr:place": "Skrzysz\u00f3w",
                "addr:housenumber": "98",
                "addr:teryt:simc": 658308,
                "contact:phone": "+48 177451718",
                "contact:email": "sp-skrzyszow@wp.pl",
                "contact:website": "http:\/\/www.skrzyszow.szkola.pl",
                "ref:regon": "368054485",
                "ref:vatin": "PL8181721812",
                "operator": "Gmina Ostr\u00f3w",
                "operator:type": "government",
                "landuse": "education",
                "fixme": "amenity=school, amenity=college albo landuse=education w zale\u017cno\u015bci od tego, jakie plac\u00f3wki wchodz\u0105 w sk\u0142ad zespo\u0142u. Sprawd\u017a, kiedy stosowa\u0107 amenity=* a kiedy landuse=education.",
                "note": "Children RSPO: 15613;15657"
            }
        },
        {
            "id": 15613,
            "type": "Feature",
            "geometry": {
                "type": "Point",
                "coordinates": [
                    21.55853,
                    50.09377
                ]
            },
            "properties": {
                "isced:level": "1;2",
                "ref:rspo": 15613,
                "official_name": "Publiczna Szko\u0142a Podstawowa im.b\u0142.ks.jerzego Popie\u0142uszki w Skrzyszowie",
                "name": "Publiczna Szko\u0142a Podstawowa im.b\u0142.ks.jerzego Popie\u0142uszki w Skrzyszowie",
                "addr:country": "PL",
                "addr:postcode": "39-103",
                "addr:place": "Skrzysz\u00f3w",
                "addr:housenumber": "98",
                "addr:teryt:simc": 658308,
                "contact:phone": "+48 177451718",
                "contact:email": "sp-skrzyszow@wp.pl",
                "contact:website": "http:\/\/www.skrzyszow.szkola.pl",
                "ref:regon": "001136925",
                "ref:vatin": "PL8181011370",
                "operator": "Gmina Ostr\u00f3w",
                "operator:type": "government",
                "amenity": "school",
                "note": "Parent RSPO: 262749"
            }
        },
        {
            "id": 15657,
            "type": "Feature",
            "geometry": {
                "type": "Point",
                "coordinates": [
                    21.55853,
                    50.093740000000004
                ]
            },
            "properties": {
                "ref:rspo": 15657,
                "official_name": "Publiczne Przedszkole w Skrzyszowie",
                "name": "Publiczne Przedszkole w Skrzyszowie",
                "addr:country": "PL",
                "addr:postcode": "39-103",
                "addr:place": "Skrzysz\u00f3w",
                "addr:housenumber": "98",
                "addr:teryt:simc": 658308,
                "contact:phone": "+48 177451713",
                "contact:email": "ppskrzyszow@o2.pl",
                "ref:regon": "690006933",
                "ref:vatin": "PL8181524721",
                "operator": "Gmina Ostr\u00f3w",
                "operator:type": "government",
                "amenity": "kindergarten",
                "note": "Parent RSPO: 262749"
            }
        },
        {
            "id": 262751,
            "type": "Feature",
            "geometry": {
                "type": "Point",
                "coordinates": [
                    21.61787,
                    50.09817
                ]
            },
            "properties": {
                "ref:rspo": 262751,
                "official_name": "Zesp\u00f3\u0142 Szkolno-Przedszkolny w Kozodrzy",
                "name": "Zesp\u00f3\u0142 Szkolno-Przedszkolny w Kozodrzy",
                "addr:country": "PL",
                "addr:postcode": "39-103",
                "addr:place": "Kozodrza",
                "addr:housenumber": "175",
                "addr:teryt:simc": 658053,
                "contact:phone": "+48 177451361",
                "contact:email": "spkozodrzamp@onet.eu",
                "contact:website": "http:\/\/www.spkozodrza.szkola.pl",
                "ref:regon": "368054491",
                "operator": "Gmina Ostr\u00f3w",
                "operator:type": "government",
                "landuse": "education",
                "fixme": "amenity=school, amenity=college albo landuse=education w zale\u017cno\u015bci od tego, jakie plac\u00f3wki wchodz\u0105 w sk\u0142ad zespo\u0142u. Sprawd\u017a, kiedy stosowa\u0107 amenity=* a kiedy landuse=education.",
                "note": "Children RSPO: 15608;15643"
            }
        },
        {
            "id": 15608,
            "type": "Feature",
            "geometry": {
                "type": "Point",
                "coordinates": [
                    21.61787,
                    50.09814
                ]
            },
            "properties": {
                "isced:level": "1;2",
                "ref:rspo": 15608,
                "official_name": "Publiczna Szko\u0142a Podstawowa im.dzia\u0142aczy Ruchu Ch\u0142opskiego w Kozodrzy",
                "name": "Publiczna Szko\u0142a Podstawowa im.dzia\u0142aczy Ruchu Ch\u0142opskiego w Kozodrzy",
                "addr:country": "PL",
                "addr:postcode": "39-103",
                "addr:place": "Kozodrza",
                "addr:housenumber": "175",
                "addr:teryt:simc": 658053,
                "contact:phone": "+48 177451361",
                "contact:email": "spkozodrzamp@onet.eu",
                "ref:regon": "001136902",
                "ref:vatin": "PL8181011252",
                "operator": "Gmina Ostr\u00f3w",
                "operator:type": "government",
                "amenity": "school",
                "note": "Parent RSPO: 262751"
            }
        },
        {
            "id": 15643,
            "type": "Feature",
            "geometry": {
                "type": "Point",
                "coordinates": [
                    21.61826,
                    50.09902
                ]
            },
            "properties": {
                "ref:rspo": 15643,
                "official_name": "Publiczne Przedszkole im.wandy Chotomskiej w Kozodrzy",
                "name": "Publiczne Przedszkole im.wandy Chotomskiej w Kozodrzy",
                "addr:country": "PL",
                "addr:postcode": "39-103",
                "addr:place": "Kozodrza",
                "addr:housenumber": "174",
                "addr:teryt:simc": 658053,
                "contact:phone": "+48 177451330",
                "contact:email": "ppkozodrza@wp.pl",
                "ref:regon": "690006940",
                "ref:vatin": "PL8181041862",
                "operator": "Gmina Ostr\u00f3w",
                "operator:type": "government",
                "amenity": "kindergarten",
                "note": "Parent RSPO: 262751"
            }
        },
        {
            "id": 15611,
            "type": "Feature",
            "geometry": {
                "type": "Point",
                "coordinates": [
                    21.5893799,
                    50.09968
                ]
            },
            "properties": {
                "isced:level": "1;2",
                "ref:rspo": 15611,
                "official_name": "Publiczna Szko\u0142a Podstawowa im. Henryka Sienkiewicza w Ostrowie",
                "name": "Publiczna Szko\u0142a Podstawowa",
                "addr:country": "PL",
                "addr:postcode": "39-103",
                "addr:place": "Ostr\u00f3w",
                "addr:housenumber": "215",
                "addr:teryt:simc": 658225,
                "contact:phone": "+48 177451144",
                "contact:email": "ostrowsp1@gmail.com",
                "contact:website": "http:\/\/www.spostrow.cba.pl",
                "ref:regon": "000555198",
                "ref:vatin": "PL8181011358",
                "operator": "Gmina Ostr\u00f3w",
                "operator:type": "government",
                "amenity": "school"
            }
        },
        {
            "id": 15614,
            "type": "Feature",
            "geometry": {
                "type": "Point",
                "coordinates": [
                    21.59616,
                    50.1381
                ]
            },
            "properties": {
                "isced:level": "1;2",
                "ref:rspo": 15614,
                "official_name": "Publiczna Szkola Podstawowa im.kardyna\u0142a Stefana Wyszy\u0144skiego w Ociece",
                "name": "Publiczna Szkola Podstawowa im.kardyna\u0142a Stefana Wyszy\u0144skiego w Ociece",
                "addr:country": "PL",
                "addr:postcode": "39-104",
                "addr:place": "Ocieka",
                "addr:housenumber": "352",
                "addr:teryt:simc": 658082,
                "contact:phone": "+48 172235736",
                "contact:email": "spocieka2@wp.pl",
                "ref:regon": "001136919",
                "ref:vatin": "PL8181011246",
                "operator": "Gmina Ostr\u00f3w",
                "operator:type": "government",
                "amenity": "school"
            }
        },
        {
            "id": 15612,
            "type": "Feature",
            "geometry": {
                "type": "Point",
                "coordinates": [
                    21.67058,
                    50.15526
                ]
            },
            "properties": {
                "isced:level": "1;2",
                "ref:rspo": 15612,
                "official_name": "Publiczna Szko\u0142a Podstawowa im. B\u0142. Ks. Romana Sitko w Kamionce",
                "name": "Publiczna Szko\u0142a Podstawowa",
                "addr:country": "PL",
                "addr:postcode": "39-122",
                "addr:place": "Kamionka",
                "addr:housenumber": "206",
                "addr:teryt:simc": 657970,
                "contact:phone": "+48 172233116",
                "contact:email": "spkamionka206@gmail.com",
                "ref:regon": "001136894",
                "ref:vatin": "PL8181011341",
                "operator": "Gmina Ostr\u00f3w",
                "operator:type": "government",
                "amenity": "school"
            }
        },
        {
            "id": 15609,
            "type": "Feature",
            "geometry": {
                "type": "Point",
                "coordinates": [
                    21.54086,
                    50.16011
                ]
            },
            "properties": {
                "isced:level": "1;2",
                "ref:rspo": 15609,
                "official_name": "Publiczna Szko\u0142a Podstawowa im. Jana Paw\u0142a II w Woli Ocieckiej",
                "name": "Publiczna Szko\u0142a Podstawowa",
                "addr:country": "PL",
                "addr:postcode": "39-104",
                "addr:place": "Wola Ociecka",
                "addr:housenumber": "114",
                "addr:teryt:simc": 658165,
                "contact:phone": "+48 172230649",
                "contact:email": "sp.wolaociecka@wp.pl",
                "contact:website": "http:\/\/www.wolaociecka.szkola.pl",
                "ref:regon": "001136931",
                "ref:vatin": "PL8181011364",
                "operator": "Gmina Ostr\u00f3w",
                "operator:type": "government",
                "amenity": "school"
            }
        }
    ]
}