{
    "type": "FeatureCollection",
    "features": [
        {
            "id": 41396,
            "type": "Feature",
            "geometry": {
                "type": "Point",
                "coordinates": [
                    21.51531,
                    49.96602
                ]
            },
            "properties": {
                "isced:level": "1;2",
                "ref:rspo": 41396,
                "official_name": "Szko\u0142a Podstawowa im. Prof. Tadeusza Sinki w Ma\u0142ej",
                "name": "Szko\u0142a Podstawowa",
                "addr:postcode": "39-107",
                "addr:place": "Ma\u0142a",
                "addr:housenumber": "35",
                "addr:city:simc": 660021,
                "phone": "+48 172213397",
                "email": "zsmala@vp.pl",
                "website": "https:\/\/zsmala.edupage.org",
                "ref:regon": "001132399",
                "ref:vatin": "PL8181371134",
                "operator": "Gmina Ropczyce",
                "operator:type": "government",
                "amenity": "school"
            }
        },
        {
            "id": 30094,
            "type": "Feature",
            "geometry": {
                "type": "Point",
                "coordinates": [
                    21.50732,
                    49.98746
                ]
            },
            "properties": {
                "isced:level": "1;2",
                "ref:rspo": 30094,
                "official_name": "Szko\u0142a Podstawowa im.ks. Jana Twardowskiego w Nied\u017awiadzie G\u00f3rnej",
                "name": "Szko\u0142a Podstawowa im.ks. Jana Twardowskiego w Nied\u017awiadzie G\u00f3rnej",
                "addr:postcode": "39-107",
                "addr:place": "Nied\u017awiada",
                "addr:housenumber": "261",
                "addr:city:simc": 660245,
                "phone": "+48 172213638",
                "email": "zsniedzg@wp.pl",
                "ref:regon": "001132413",
                "ref:vatin": "PL8181371045",
                "operator": "Gmina Ropczyce",
                "operator:type": "government",
                "amenity": "school"
            }
        },
        {
            "id": 44100,
            "type": "Feature",
            "geometry": {
                "type": "Point",
                "coordinates": [
                    21.5495899,
                    49.98878
                ]
            },
            "properties": {
                "isced:level": "1;2",
                "ref:rspo": 44100,
                "official_name": "Szko\u0142a Podstawowa im. Ba\u015bni Polskiej w Nied\u017awiadzie Dolnej",
                "name": "Szko\u0142a Podstawowa",
                "addr:postcode": "39-107",
                "addr:place": "Nied\u017awiada",
                "addr:housenumber": "40",
                "addr:city:simc": 660245,
                "phone": "+48 172213393",
                "email": "sekretariat@niedzwiada.edu.pl",
                "website": "http:\/\/niedzwiada.edu.pl",
                "ref:regon": "001132407",
                "ref:vatin": "PL8181371039",
                "operator": "Gmina Ropczyce",
                "operator:type": "government",
                "amenity": "school"
            }
        },
        {
            "id": 30400,
            "type": "Feature",
            "geometry": {
                "type": "Point",
                "coordinates": [
                    21.6369599,
                    50.01758
                ]
            },
            "properties": {
                "isced:level": "1;2",
                "ref:rspo": 30400,
                "official_name": "Szko\u0142a Podstawowa im. Pp\u0142k. \u0141ukasza Ciepli\u0144skiego w Gnojnicy Woli",
                "name": "Szko\u0142a Podstawowa",
                "addr:postcode": "39-105",
                "addr:place": "Gnojnica",
                "addr:housenumber": "504",
                "addr:city:simc": 659779,
                "phone": "+48 172211005",
                "email": "zsgw@op.pl",
                "ref:regon": "001132360",
                "ref:vatin": "PL8181371105",
                "operator": "Gmina Ropczyce",
                "operator:type": "government",
                "amenity": "school"
            }
        },
        {
            "id": 30211,
            "type": "Feature",
            "geometry": {
                "type": "Point",
                "coordinates": [
                    21.54076,
                    50.02232
                ]
            },
            "properties": {
                "isced:level": "1;2",
                "ref:rspo": 30211,
                "official_name": "Szko\u0142a Podstawowa w \u0141\u0105czkach Kucharskich",
                "name": "Szko\u0142a Podstawowa w \u0141\u0105czkach Kucharskich",
                "addr:postcode": "39-106",
                "addr:place": "\u0141\u0105czki Kucharskie",
                "addr:housenumber": "469",
                "addr:city:simc": 659940,
                "phone": "+48 172213790",
                "email": "lopuch2@poczta.fm",
                "ref:regon": "001132382",
                "ref:vatin": "PL8181371016",
                "operator": "Gmina Ropczyce",
                "operator:type": "government",
                "amenity": "school"
            }
        },
        {
            "id": 130772,
            "type": "Feature",
            "geometry": {
                "type": "Point",
                "coordinates": [
                    21.55767,
                    50.03
                ]
            },
            "properties": {
                "ref:rspo": 130772,
                "official_name": "Centrum Szkole\u0144 Anna Sroka",
                "name": "Centrum Szkole\u0144 Anna Sroka",
                "addr:postcode": "39-100",
                "addr:place": "Okonin",
                "addr:housenumber": "19a",
                "addr:city:simc": 660370,
                "phone": "+48 172228358",
                "email": "centrumokonin@o2.pl",
                "ref:regon": "364493874",
                "operator": "Anna Sroka",
                "operator:type": "private",
                "fixme": "w zale\u017cno\u015bci od przedmiotu dzia\u0142alno\u015bci (np. amenity=training + training=*, amenity=dancing_school, amenity=language_school, amenity=music_school)"
            }
        },
        {
            "id": 42295,
            "type": "Feature",
            "geometry": {
                "type": "Point",
                "coordinates": [
                    21.58296,
                    50.03883
                ]
            },
            "properties": {
                "isced:level": "1;2",
                "ref:rspo": 42295,
                "official_name": "Szko\u0142a Podstawowa Nr 3 im. Jana Paw\u0142a II w Ropczycach",
                "name": "Szko\u0142a Podstawowa Nr 3",
                "addr:postcode": "39-100",
                "addr:city": "Ropczyce",
                "addr:street": "3 Maja",
                "addr:housenumber": "424",
                "addr:city:simc": 974825,
                "addr:street:sym_ul": 11937,
                "phone": "+48 172218481",
                "email": "zs4ropczyce@gmail.com",
                "ref:regon": "001132330",
                "ref:vatin": "PL8181371128",
                "operator": "Gmina Ropczyce",
                "operator:type": "government",
                "amenity": "school"
            }
        },
        {
            "id": 23307,
            "type": "Feature",
            "geometry": {
                "type": "Point",
                "coordinates": [
                    21.6566699,
                    50.04351
                ]
            },
            "properties": {
                "ref:rspo": 23307,
                "official_name": "Zesp\u00f3\u0142 Szk\u00f3\u0142 w Gnojnicy Dolnej",
                "name": "Zesp\u00f3\u0142 Szk\u00f3\u0142 w Gnojnicy Dolnej",
                "addr:postcode": "39-105",
                "addr:place": "Gnojnica",
                "addr:housenumber": "268",
                "addr:city:simc": 659779,
                "phone": "+48 172211002",
                "email": "zsgd@interia.eu",
                "ref:regon": "691750361",
                "ref:vatin": "PL8181575061",
                "operator": "Gmina Ropczyce",
                "operator:type": "government",
                "landuse": "education",
                "fixme": "amenity=school, amenity=college albo landuse=education w zale\u017cno\u015bci od tego, jakie plac\u00f3wki wchodz\u0105 w sk\u0142ad zespo\u0142u. Sprawd\u017a, kiedy stosowa\u0107 amenity=* a kiedy landuse=education.",
                "note": "Children RSPO: 38748;38749"
            }
        },
        {
            "id": 38748,
            "type": "Feature",
            "geometry": {
                "type": "Point",
                "coordinates": [
                    21.6566699,
                    50.043479999999995
                ]
            },
            "properties": {
                "isced:level": "1;2",
                "ref:rspo": 38748,
                "official_name": "Szko\u0142a Podstawowa im. \u015aw. Maksymiliana Kolbe w Gnojnicy Dolnej",
                "name": "Szko\u0142a Podstawowa",
                "addr:postcode": "39-105",
                "addr:place": "Gnojnica",
                "addr:housenumber": "268",
                "addr:city:simc": 659779,
                "phone": "+48 172211002",
                "email": "zsgd@interia.eu",
                "ref:regon": "001132353",
                "ref:vatin": "PL8181371111",
                "operator": "Gmina Ropczyce",
                "operator:type": "government",
                "amenity": "school",
                "note": "Parent RSPO: 23307"
            }
        },
        {
            "id": 38749,
            "type": "Feature",
            "geometry": {
                "type": "Point",
                "coordinates": [
                    21.65622,
                    50.04398
                ]
            },
            "properties": {
                "ref:rspo": 38749,
                "official_name": "Publiczne Przedszkole w Gnojnicy Dolnej",
                "name": "Publiczne Przedszkole w Gnojnicy Dolnej",
                "addr:postcode": "39-105",
                "addr:place": "Gnojnica",
                "addr:housenumber": "273",
                "addr:city:simc": 659779,
                "phone": "+48 172211002",
                "email": "zsgd@interia.eu",
                "ref:regon": "690726946",
                "ref:vatin": "PL8181531431",
                "operator": "Gmina Ropczyce",
                "operator:type": "government",
                "amenity": "kindergarten",
                "note": "Parent RSPO: 23307"
            }
        },
        {
            "id": 31028,
            "type": "Feature",
            "geometry": {
                "type": "Point",
                "coordinates": [
                    21.61535,
                    50.05178
                ]
            },
            "properties": {
                "isced:level": "1;2",
                "ref:rspo": 31028,
                "official_name": "Szko\u0142a Podstawowa Nr 1 im. Miko\u0142aja Kopernika w Ropczycach",
                "name": "Szko\u0142a Podstawowa Nr 1",
                "addr:postcode": "39-100",
                "addr:city": "Ropczyce",
                "addr:street": "Stanis\u0142awa Wyspia\u0144skiego",
                "addr:housenumber": "8",
                "addr:city:simc": 974825,
                "addr:street:sym_ul": 25081,
                "phone": "+48 172218419",
                "email": "zsnr1sp@poczta.onet.pl",
                "ref:regon": "000268263",
                "ref:vatin": "PL8181371097",
                "operator": "Gmina Ropczyce",
                "operator:type": "government",
                "amenity": "school"
            }
        },
        {
            "id": 38464,
            "type": "Feature",
            "geometry": {
                "type": "Point",
                "coordinates": [
                    21.61666,
                    50.05212
                ]
            },
            "properties": {
                "ref:rspo": 38464,
                "official_name": "Poradnia Psychologiczno-Pedagogiczna w Ropczycach",
                "name": "Poradnia Psychologiczno-Pedagogiczna w Ropczycach",
                "addr:postcode": "39-100",
                "addr:city": "Ropczyce",
                "addr:street": "Marii Konopnickiej",
                "addr:housenumber": "3",
                "addr:city:simc": 974825,
                "addr:street:sym_ul": 9182,
                "phone": "+48 172218457",
                "email": "sekretariat@pppropczyce.com.pl",
                "website": "http:\/\/www.poradniapp.spropczyce.pl",
                "ref:regon": "690691053",
                "ref:vatin": "PL8181417333",
                "operator": "Powiat Ropczycko-S\u0119dziszowski",
                "operator:type": "government",
                "healthcare": "counselling",
                "counselling_type": "education",
                "fixme": "w zale\u017cno\u015bci od przedmiotu dzia\u0142alno\u015bci (np. healthcare=counselling + counselling_type=education albo healthcare=psychotherapist)"
            }
        },
        {
            "id": 267358,
            "type": "Feature",
            "geometry": {
                "type": "Point",
                "coordinates": [
                    21.61927,
                    50.0528199
                ]
            },
            "properties": {
                "ref:rspo": 267358,
                "official_name": "Niepubliczne Przedszkole \"Weso\u0142ek\"",
                "name": "Niepubliczne Przedszkole \"Weso\u0142ek\"",
                "addr:postcode": "39-100",
                "addr:city": "Ropczyce",
                "addr:street": "Wincentego Witosa",
                "addr:housenumber": "3",
                "addr:city:simc": 974825,
                "addr:street:sym_ul": 24459,
                "phone": "+48 500267768",
                "email": "wesolekropczyce@gmail.com",
                "website": "http:\/\/www.wesolek-ropczyce.pl",
                "ref:regon": "380200575",
                "ref:vatin": "PL8181526766",
                "operator": "Ewa Lisowska",
                "operator:type": "private",
                "amenity": "kindergarten"
            }
        },
        {
            "id": 53258,
            "type": "Feature",
            "geometry": {
                "type": "Point",
                "coordinates": [
                    21.6165999,
                    50.05347
                ]
            },
            "properties": {
                "ref:rspo": 53258,
                "official_name": "Niepubliczny Zesp\u00f3\u0142 Szk\u00f3\u0142 w Ropczycach",
                "name": "Niepubliczny Zesp\u00f3\u0142 Szk\u00f3\u0142 w Ropczycach",
                "addr:postcode": "39-100",
                "addr:city": "Ropczyce",
                "addr:street": "Marii Konopnickiej",
                "addr:housenumber": "2",
                "addr:city:simc": 974825,
                "addr:street:sym_ul": 9182,
                "phone": "+48 172217364",
                "email": "sekretariat@pszr.com.pl",
                "website": "http:\/\/www.pszr.com.pl",
                "ref:regon": "180902013",
                "ref:vatin": "PL8181717377",
                "operator": "Nzs Sp\u00f3\u0142ka Z Ograniczon\u0105 Odpowiedzialno\u015bci\u0105",
                "operator:type": "private",
                "landuse": "education",
                "fixme": "amenity=school, amenity=college albo landuse=education w zale\u017cno\u015bci od tego, jakie plac\u00f3wki wchodz\u0105 w sk\u0142ad zespo\u0142u. Sprawd\u017a, kiedy stosowa\u0107 amenity=* a kiedy landuse=education.",
                "note": "Children RSPO: 78939;78941;133013;277305"
            }
        },
        {
            "id": 78939,
            "type": "Feature",
            "geometry": {
                "type": "Point",
                "coordinates": [
                    21.6165999,
                    50.053439999999995
                ]
            },
            "properties": {
                "isced:level": "4",
                "ref:rspo": 78939,
                "official_name": "Niepubliczne Policealne Studium Zawodowe w Ropczycach",
                "name": "Niepubliczne Policealne Studium Zawodowe w Ropczycach",
                "addr:postcode": "39-100",
                "addr:city": "Ropczyce",
                "addr:street": "Marii Konopnickiej",
                "addr:housenumber": "2",
                "addr:city:simc": 974825,
                "addr:street:sym_ul": 9182,
                "phone": "+48 172217364",
                "email": "sekretariat@pszr.com.pl",
                "website": "http:\/\/www.pszr.com.pl",
                "ref:regon": "180908790",
                "ref:vatin": "PL8181717377",
                "operator": "Nzs Sp\u00f3\u0142ka Z Ograniczon\u0105 Odpowiedzialno\u015bci\u0105",
                "operator:type": "private",
                "amenity": "college",
                "note": "Parent RSPO: 53258"
            }
        },
        {
            "id": 78941,
            "type": "Feature",
            "geometry": {
                "type": "Point",
                "coordinates": [
                    21.6165999,
                    50.05341
                ]
            },
            "properties": {
                "isced:level": "3",
                "ref:rspo": 78941,
                "official_name": "Liceum Og\u00f3lnokszta\u0142c\u0105ce dla Doros\u0142ych w Ropczycach",
                "name": "Liceum Og\u00f3lnokszta\u0142c\u0105ce dla Doros\u0142ych w Ropczycach",
                "addr:postcode": "39-100",
                "addr:city": "Ropczyce",
                "addr:street": "Marii Konopnickiej",
                "addr:housenumber": "2",
                "addr:city:simc": 974825,
                "addr:street:sym_ul": 9182,
                "phone": "+48 172217364",
                "email": "sekretariat@pszr.com.pl",
                "website": "http:\/\/www.pszr.com.pl",
                "ref:regon": "180908850",
                "ref:vatin": "PL8181717377",
                "operator": "Nzs Sp\u00f3\u0142ka Z Ograniczon\u0105 Odpowiedzialno\u015bci\u0105",
                "operator:type": "private",
                "amenity": "school",
                "note": "Parent RSPO: 53258"
            }
        },
        {
            "id": 133013,
            "type": "Feature",
            "geometry": {
                "type": "Point",
                "coordinates": [
                    21.6165999,
                    50.05338
                ]
            },
            "properties": {
                "ref:rspo": 133013,
                "official_name": "O\u015brodek Kszta\u0142cenia Pozaszkolnego w Ropczycach",
                "name": "O\u015brodek Kszta\u0142cenia Pozaszkolnego w Ropczycach",
                "addr:postcode": "39-100",
                "addr:city": "Ropczyce",
                "addr:street": "Marii Konopnickiej",
                "addr:housenumber": "2",
                "addr:city:simc": 974825,
                "addr:street:sym_ul": 9182,
                "phone": "+48 172217364",
                "email": "sekretariat@pszr.com.pl",
                "website": "http:\/\/www.pszr.com.pl",
                "ref:regon": "366514132",
                "operator": "Nzs Sp\u00f3\u0142ka Z Ograniczon\u0105 Odpowiedzialno\u015bci\u0105",
                "operator:type": "private",
                "fixme": "w zale\u017cno\u015bci od przedmiotu dzia\u0142alno\u015bci (np. amenity=training + training=*, amenity=dancing_school, amenity=language_school, amenity=music_school)",
                "note": "Parent RSPO: 53258"
            }
        },
        {
            "id": 277305,
            "type": "Feature",
            "geometry": {
                "type": "Point",
                "coordinates": [
                    21.6165999,
                    50.053349999999995
                ]
            },
            "properties": {
                "ref:rspo": 277305,
                "official_name": "Niepubliczne Centrum Kszta\u0142cenia Ustawicznego w Ropczycach",
                "name": "Niepubliczne Centrum Kszta\u0142cenia Ustawicznego w Ropczycach",
                "addr:postcode": "39-100",
                "addr:city": "Ropczyce",
                "addr:street": "Marii Konopnickiej",
                "addr:housenumber": "2",
                "addr:city:simc": 974825,
                "addr:street:sym_ul": 9182,
                "phone": "+48 172217364",
                "email": "sekretariat@pszr.com.pl",
                "website": "http:\/\/www.pszr.com.pl",
                "ref:regon": "388565514",
                "operator": "Nzs Sp\u00f3\u0142ka Z Ograniczon\u0105 Odpowiedzialno\u015bci\u0105",
                "operator:type": "private",
                "fixme": "w zale\u017cno\u015bci od przedmiotu dzia\u0142alno\u015bci (np. amenity=training + training=*, amenity=dancing_school, amenity=language_school, amenity=music_school)",
                "note": "Parent RSPO: 53258"
            }
        },
        {
            "id": 34249,
            "type": "Feature",
            "geometry": {
                "type": "Point",
                "coordinates": [
                    21.61552,
                    50.05351
                ]
            },
            "properties": {
                "isced:level": "3",
                "ref:rspo": 34249,
                "official_name": "Liceum Og\u00f3lnokszta\u0142c\u0105ce im. Tadeusza Ko\u015bciuszki w Ropczycach",
                "name": "Liceum Og\u00f3lnokszta\u0142c\u0105ce",
                "addr:postcode": "39-100",
                "addr:city": "Ropczyce",
                "addr:street": "Adama Mickiewicza",
                "addr:housenumber": "12",
                "addr:city:simc": 974825,
                "addr:street:sym_ul": 12734,
                "phone": "+48 172228270",
                "email": "sekretariat@loropczyce.pl",
                "website": "http:\/\/www.loropczyce.info",
                "ref:regon": "690691107",
                "ref:vatin": "PL8181494871",
                "operator": "Powiat Ropczycko-S\u0119dziszowski",
                "operator:type": "government",
                "amenity": "school"
            }
        },
        {
            "id": 267317,
            "type": "Feature",
            "geometry": {
                "type": "Point",
                "coordinates": [
                    21.61338,
                    50.0537
                ]
            },
            "properties": {
                "ref:rspo": 267317,
                "official_name": "Niepubliczne Przedszkole \"Bajkowy Zak\u0105tek\"",
                "name": "Niepubliczne Przedszkole \"Bajkowy Zak\u0105tek\"",
                "addr:postcode": "39-100",
                "addr:city": "Ropczyce",
                "addr:street": "Krisego",
                "addr:housenumber": "2",
                "addr:door": "1",
                "addr:city:simc": 974825,
                "addr:street:sym_ul": 31262,
                "phone": "+48 693462302",
                "email": "wcabaj@vp.pl",
                "website": "http:\/\/www.bajkowyzakatek.rzeszow.pl",
                "ref:regon": "380105598",
                "operator": "Wioletta Cabaj",
                "operator:type": "private",
                "amenity": "kindergarten"
            }
        },
        {
            "id": 38465,
            "type": "Feature",
            "geometry": {
                "type": "Point",
                "coordinates": [
                    21.61694,
                    50.0537
                ]
            },
            "properties": {
                "ref:rspo": 38465,
                "official_name": "Zesp\u00f3\u0142 Szk\u00f3\u0142 im. Ks. Dra Jana Zwierza w Ropczycach",
                "name": "Zesp\u00f3\u0142 Szk\u00f3\u0142",
                "addr:postcode": "39-100",
                "addr:city": "Ropczyce",
                "addr:street": "Adama Mickiewicza",
                "addr:housenumber": "14",
                "addr:city:simc": 974825,
                "addr:street:sym_ul": 12734,
                "phone": "+48 172218270",
                "email": "sekretariat@zsropczyce.edu.pl",
                "website": "http:\/\/www.zsropczyce.edu.pl",
                "ref:regon": "690691113",
                "ref:vatin": "PL8181304853",
                "operator": "Powiat Ropczycko-S\u0119dziszowski",
                "operator:type": "government",
                "landuse": "education",
                "fixme": "amenity=school, amenity=college albo landuse=education w zale\u017cno\u015bci od tego, jakie plac\u00f3wki wchodz\u0105 w sk\u0142ad zespo\u0142u. Sprawd\u017a, kiedy stosowa\u0107 amenity=* a kiedy landuse=education.",
                "note": "Children RSPO: 57390;57659;57665;115459;115460"
            }
        },
        {
            "id": 57390,
            "type": "Feature",
            "geometry": {
                "type": "Point",
                "coordinates": [
                    21.61694,
                    50.05367
                ]
            },
            "properties": {
                "isced:level": "3",
                "ref:rspo": 57390,
                "official_name": "Bran\u017cowa Szko\u0142a I Stopnia Nr 1 w Ropczycach",
                "name": "Bran\u017cowa Szko\u0142a I Stopnia Nr 1 w Ropczycach",
                "addr:postcode": "39-100",
                "addr:city": "Ropczyce",
                "addr:street": "Adama Mickiewicza",
                "addr:housenumber": "14",
                "addr:city:simc": 974825,
                "addr:street:sym_ul": 12734,
                "phone": "+48 172218270",
                "email": "zsropczyce@pro.onet.pl",
                "website": "http:\/\/www.zsropczyce.edu.pl",
                "ref:regon": "691680502",
                "operator": "Powiat Ropczycko-S\u0119dziszowski",
                "operator:type": "government",
                "amenity": "school",
                "note": "Parent RSPO: 38465"
            }
        },
        {
            "id": 57659,
            "type": "Feature",
            "geometry": {
                "type": "Point",
                "coordinates": [
                    21.61694,
                    50.05364
                ]
            },
            "properties": {
                "isced:level": "3",
                "ref:rspo": 57659,
                "official_name": "Technikum Nr 1 w Ropczycach",
                "name": "Technikum Nr 1 w Ropczycach",
                "addr:postcode": "39-100",
                "addr:city": "Ropczyce",
                "addr:street": "Adama Mickiewicza",
                "addr:housenumber": "14",
                "addr:city:simc": 974825,
                "addr:street:sym_ul": 12734,
                "phone": "+48 172218270",
                "email": "zsropczyce@pro.onet.pl",
                "website": "http:\/\/www.zsropczyce.edu.pl",
                "ref:regon": "691680488",
                "operator": "Powiat Ropczycko-S\u0119dziszowski",
                "operator:type": "government",
                "amenity": "school",
                "note": "Parent RSPO: 38465"
            }
        },
        {
            "id": 57665,
            "type": "Feature",
            "geometry": {
                "type": "Point",
                "coordinates": [
                    21.61694,
                    50.05361
                ]
            },
            "properties": {
                "isced:level": "3",
                "ref:rspo": 57665,
                "official_name": "Liceum Og\u00f3lnokszta\u0142c\u0105ce Sportowe",
                "name": "Liceum Og\u00f3lnokszta\u0142c\u0105ce Sportowe",
                "addr:postcode": "39-100",
                "addr:city": "Ropczyce",
                "addr:street": "Adama Mickiewicza",
                "addr:housenumber": "14",
                "addr:city:simc": 974825,
                "addr:street:sym_ul": 12734,
                "phone": "+48 172218270",
                "email": "zsropczyce@pro.onet.pl",
                "website": "http:\/\/www.zsropczyce.edu.pl",
                "ref:regon": "180065095",
                "operator": "Powiat Ropczycko-S\u0119dziszowski",
                "operator:type": "government",
                "amenity": "school",
                "note": "Parent RSPO: 38465"
            }
        },
        {
            "id": 115459,
            "type": "Feature",
            "geometry": {
                "type": "Point",
                "coordinates": [
                    21.61694,
                    50.05358
                ]
            },
            "properties": {
                "ref:rspo": 115459,
                "official_name": "Ognisko Pracy Pozaszkolnej",
                "name": "Ognisko Pracy Pozaszkolnej",
                "addr:postcode": "39-100",
                "addr:city": "Ropczyce",
                "addr:street": "Adama Mickiewicza",
                "addr:housenumber": "14",
                "addr:city:simc": 974825,
                "addr:street:sym_ul": 12734,
                "phone": "+48 172218270",
                "email": "zsropczyce@pro.onet.pl",
                "website": "http:\/\/www.zsropczyce.edu.pl",
                "ref:regon": "180995180",
                "operator": "Powiat Ropczycko-S\u0119dziszowski",
                "operator:type": "government",
                "amenity": "community_centre",
                "community_centre:for": "child;juvenile",
                "note": "Parent RSPO: 38465"
            }
        },
        {
            "id": 115460,
            "type": "Feature",
            "geometry": {
                "type": "Point",
                "coordinates": [
                    21.61694,
                    50.05355
                ]
            },
            "properties": {
                "isced:level": "4",
                "ref:rspo": 115460,
                "official_name": "Szko\u0142a Policealna Nr 1 w Ropczycach",
                "name": "Szko\u0142a Policealna Nr 1 w Ropczycach",
                "addr:postcode": "39-100",
                "addr:city": "Ropczyce",
                "addr:street": "Adama Mickiewicza",
                "addr:housenumber": "14",
                "addr:city:simc": 974825,
                "addr:street:sym_ul": 12734,
                "phone": "+48 172218270",
                "email": "zsropczyce@pro.onet.pl",
                "website": "http:\/\/www.zsropczyce.edu.pl",
                "ref:regon": "180065110",
                "operator": "Powiat Ropczycko-S\u0119dziszowski",
                "operator:type": "government",
                "amenity": "college",
                "note": "Parent RSPO: 38465"
            }
        },
        {
            "id": 35353,
            "type": "Feature",
            "geometry": {
                "type": "Point",
                "coordinates": [
                    21.61478,
                    50.05382
                ]
            },
            "properties": {
                "ref:rspo": 35353,
                "official_name": "Zesp\u00f3\u0142 Szk\u00f3\u0142 Agro-Technicznych im. Wincentego Witosa w Ropczycach",
                "name": "Zesp\u00f3\u0142 Szk\u00f3\u0142 Agro-Technicznych",
                "addr:postcode": "39-100",
                "addr:city": "Ropczyce",
                "addr:street": "Adama Mickiewicza",
                "addr:housenumber": "13",
                "addr:city:simc": 974825,
                "addr:street:sym_ul": 12734,
                "phone": "+48 172218571",
                "email": "rolbit@poczta.onet.pl",
                "website": "http:\/\/www.zsat-ropczyce.pl",
                "ref:regon": "690691076",
                "ref:vatin": "PL8181299572",
                "operator": "Powiat Ropczycko-S\u0119dziszowski",
                "operator:type": "government",
                "landuse": "education",
                "fixme": "amenity=school, amenity=college albo landuse=education w zale\u017cno\u015bci od tego, jakie plac\u00f3wki wchodz\u0105 w sk\u0142ad zespo\u0142u. Sprawd\u017a, kiedy stosowa\u0107 amenity=* a kiedy landuse=education.",
                "note": "Children RSPO: 56595;57655;274466"
            }
        },
        {
            "id": 56595,
            "type": "Feature",
            "geometry": {
                "type": "Point",
                "coordinates": [
                    21.61478,
                    50.05379
                ]
            },
            "properties": {
                "isced:level": "3",
                "ref:rspo": 56595,
                "official_name": "Technikum Nr 2 w Ropczycach",
                "name": "Technikum Nr 2 w Ropczycach",
                "addr:postcode": "39-100",
                "addr:city": "Ropczyce",
                "addr:street": "Adama Mickiewicza",
                "addr:housenumber": "13",
                "addr:city:simc": 974825,
                "addr:street:sym_ul": 12734,
                "phone": "+48 172218571",
                "email": "rolbit@poczta.onet.pl",
                "website": "http:\/\/www.zsat-ropczyce.pl",
                "ref:regon": "691680519",
                "operator": "Powiat Ropczycko-S\u0119dziszowski",
                "operator:type": "government",
                "amenity": "school",
                "note": "Parent RSPO: 35353"
            }
        },
        {
            "id": 57655,
            "type": "Feature",
            "geometry": {
                "type": "Point",
                "coordinates": [
                    21.61478,
                    50.053760000000004
                ]
            },
            "properties": {
                "isced:level": "3",
                "ref:rspo": 57655,
                "official_name": "Bran\u017cowa Szko\u0142a I Stopnia Nr 2 w Ropczycach",
                "name": "Bran\u017cowa Szko\u0142a I Stopnia Nr 2 w Ropczycach",
                "addr:postcode": "39-100",
                "addr:city": "Ropczyce",
                "addr:street": "Adama Mickiewicza",
                "addr:housenumber": "13",
                "addr:city:simc": 974825,
                "addr:street:sym_ul": 12734,
                "phone": "+48 172218571",
                "email": "rolbit@poczta.onet.pl",
                "website": "http:\/\/www.zsat-ropczyce.pl",
                "ref:regon": "691680531",
                "operator": "Powiat Ropczycko-S\u0119dziszowski",
                "operator:type": "government",
                "amenity": "school",
                "note": "Parent RSPO: 35353"
            }
        },
        {
            "id": 274466,
            "type": "Feature",
            "geometry": {
                "type": "Point",
                "coordinates": [
                    21.61478,
                    50.05373
                ]
            },
            "properties": {
                "isced:level": "4",
                "ref:rspo": 274466,
                "official_name": "Szko\u0142a Policealna Nr 2 w Ropczycach",
                "name": "Szko\u0142a Policealna Nr 2 w Ropczycach",
                "addr:postcode": "39-100",
                "addr:city": "Ropczyce",
                "addr:street": "Adama Mickiewicza",
                "addr:housenumber": "13",
                "addr:city:simc": 974825,
                "addr:street:sym_ul": 12734,
                "phone": "+48 172218571",
                "email": "rolbit@poczta.onet.pl",
                "ref:regon": "385815063",
                "operator": "Powiat Ropczycko-S\u0119dziszowski",
                "operator:type": "government",
                "amenity": "college",
                "note": "Parent RSPO: 35353"
            }
        },
        {
            "id": 264367,
            "type": "Feature",
            "geometry": {
                "type": "Point",
                "coordinates": [
                    21.61729,
                    50.05449
                ]
            },
            "properties": {
                "ref:rspo": 264367,
                "official_name": "Niepubliczna Poradnia Psychologiczno-Pedagogiczna Zuzia w Ropczycach",
                "name": "Niepubliczna Poradnia Psychologiczno-Pedagogiczna Zuzia w Ropczycach",
                "addr:postcode": "39-100",
                "addr:city": "Ropczyce",
                "addr:street": "Naj\u015bwi\u0119tszej Marii Panny",
                "addr:housenumber": "1",
                "addr:city:simc": 974825,
                "addr:street:sym_ul": 13947,
                "phone": "+48 606943436",
                "email": "biuro@grupampd.pl",
                "website": "http:\/\/grupampd.pl",
                "ref:regon": "368321880",
                "operator": "Grupa Mpd Sp\u00f3\u0142ka Z Ograniczon\u0105 Odpowiedzialno\u015bci\u0105",
                "operator:type": "private",
                "healthcare": "counselling",
                "counselling_type": "education",
                "fixme": "w zale\u017cno\u015bci od przedmiotu dzia\u0142alno\u015bci (np. healthcare=counselling + counselling_type=education albo healthcare=psychotherapist)"
            }
        },
        {
            "id": 276462,
            "type": "Feature",
            "geometry": {
                "type": "Point",
                "coordinates": [
                    21.61729,
                    50.05446
                ]
            },
            "properties": {
                "ref:rspo": 276462,
                "official_name": "Niepubliczny Terapeutyczny Punkt Przedszkolny Zuzia w Ropczycach",
                "name": "Niepubliczny Terapeutyczny Punkt Przedszkolny Zuzia w Ropczycach",
                "addr:postcode": "39-100",
                "addr:city": "Ropczyce",
                "addr:street": "Naj\u015bwi\u0119tszej Marii Panny",
                "addr:housenumber": "1",
                "addr:city:simc": 974825,
                "addr:street:sym_ul": 13947,
                "phone": "+48 533018231",
                "email": "ropczyce@przedszkolezuzia.pl",
                "ref:regon": "387149110",
                "operator": "Grupa Mpd Sp\u00f3\u0142ka Z Ograniczon\u0105 Odpowiedzialno\u015bci\u0105",
                "operator:type": "private",
                "amenity": "kindergarten"
            }
        },
        {
            "id": 31006,
            "type": "Feature",
            "geometry": {
                "type": "Point",
                "coordinates": [
                    21.60969,
                    50.05453
                ]
            },
            "properties": {
                "ref:rspo": 31006,
                "official_name": "Ochronka Zgromadzenia Si\u00f3str S\u0142u\u017cebniczek Bdnp Publiczne Przedszkole w Ropczycach",
                "name": "Ochronka Zgromadzenia Si\u00f3str S\u0142u\u017cebniczek Bdnp Publiczne Przedszkole w Ropczycach",
                "addr:postcode": "39-100",
                "addr:city": "Ropczyce",
                "addr:street": "\u015awi\u0119tej Barbary",
                "addr:housenumber": "2",
                "addr:city:simc": 974825,
                "addr:street:sym_ul": 40651,
                "phone": "+48 172218398",
                "email": "ochronka.ropczyce@siostry.net",
                "ref:regon": "180898961",
                "ref:vatin": "PL8181358576",
                "operator": "Zgromadzenie Si\u00f3str S\u0142u\u017cebniczek Bdnp, Prowincja Tarnowska",
                "operator:type": "religious",
                "amenity": "kindergarten"
            }
        },
        {
            "id": 38463,
            "type": "Feature",
            "geometry": {
                "type": "Point",
                "coordinates": [
                    21.61122,
                    50.05504
                ]
            },
            "properties": {
                "ref:rspo": 38463,
                "official_name": "Specjalny O\u015brodek Szkolno-Wychowawczy w Ropczycach",
                "name": "Specjalny O\u015brodek Szkolno-Wychowawczy w Ropczycach",
                "addr:postcode": "39-100",
                "addr:city": "Ropczyce",
                "addr:street": "Ksi\u0119dza Kardyna\u0142a Stefana Wyszy\u0144skiego",
                "addr:housenumber": "14",
                "addr:city:simc": 974825,
                "addr:street:sym_ul": 43643,
                "phone": "+48 172218382",
                "email": "soswropczyce@poczta.onet.pl",
                "website": "http:\/\/www.soswropczyce.pl",
                "ref:regon": "690691047",
                "ref:vatin": "PL8181016462",
                "operator": "Powiat Ropczycko-S\u0119dziszowski",
                "operator:type": "government",
                "amenity": "school",
                "note": "Children RSPO: 90264;122763;122765;131835"
            }
        },
        {
            "id": 90264,
            "type": "Feature",
            "geometry": {
                "type": "Point",
                "coordinates": [
                    21.61122,
                    50.055009999999996
                ]
            },
            "properties": {
                "isced:level": "1;2",
                "ref:rspo": 90264,
                "official_name": "Szko\u0142a Podstawowa Nr 4 Specjalna w Ropczycach",
                "name": "Szko\u0142a Podstawowa Nr 4 Specjalna w Ropczycach",
                "addr:postcode": "39-100",
                "addr:city": "Ropczyce",
                "addr:street": "Ksi\u0119dza Kardyna\u0142a Stefana Wyszy\u0144skiego",
                "addr:housenumber": "14",
                "addr:city:simc": 974825,
                "addr:street:sym_ul": 43643,
                "phone": "+48 172218382",
                "email": "soswropczyce@poczta.onet.pl",
                "website": "http:\/\/www.soswropczyce.pl",
                "ref:regon": "691680413",
                "operator": "Powiat Ropczycko-S\u0119dziszowski",
                "operator:type": "government",
                "amenity": "school",
                "note": "Parent RSPO: 38463"
            }
        },
        {
            "id": 122763,
            "type": "Feature",
            "geometry": {
                "type": "Point",
                "coordinates": [
                    21.61122,
                    50.05498
                ]
            },
            "properties": {
                "isced:level": "3",
                "ref:rspo": 122763,
                "official_name": "Bran\u017cowa Szko\u0142a I Stopnia Nr 3 w Ropczycach",
                "name": "Bran\u017cowa Szko\u0142a I Stopnia Nr 3 w Ropczycach",
                "addr:postcode": "39-100",
                "addr:city": "Ropczyce",
                "addr:street": "Ksi\u0119dza Kardyna\u0142a Stefana Wyszy\u0144skiego",
                "addr:housenumber": "14",
                "addr:city:simc": 974825,
                "addr:street:sym_ul": 43643,
                "phone": "+48 172218382",
                "email": "soswropczyce@poczta.onet.pl",
                "website": "http:\/\/soswropczyce.pl",
                "ref:regon": "691680436",
                "operator": "Powiat Ropczycko-S\u0119dziszowski",
                "operator:type": "government",
                "amenity": "school",
                "note": "Parent RSPO: 38463"
            }
        },
        {
            "id": 122765,
            "type": "Feature",
            "geometry": {
                "type": "Point",
                "coordinates": [
                    21.61122,
                    50.05495
                ]
            },
            "properties": {
                "ref:rspo": 122765,
                "official_name": "Szko\u0142a Specjalna Przysposabiaj\u0105ca Do Pracy Nr 1 w Ropczycach",
                "name": "Szko\u0142a Specjalna Przysposabiaj\u0105ca Do Pracy Nr 1 w Ropczycach",
                "addr:postcode": "39-100",
                "addr:city": "Ropczyce",
                "addr:street": "Ksi\u0119dza Kardyna\u0142a Stefana Wyszy\u0144skiego",
                "addr:housenumber": "14",
                "addr:city:simc": 974825,
                "addr:street:sym_ul": 43643,
                "phone": "+48 172218382",
                "email": "soswropczyce@poczta.onet.pl",
                "website": "http:\/\/soswropczyce.pl",
                "ref:regon": "691793005",
                "operator": "Powiat Ropczycko-S\u0119dziszowski",
                "operator:type": "government",
                "amenity": "school",
                "note": "Parent RSPO: 38463"
            }
        },
        {
            "id": 131835,
            "type": "Feature",
            "geometry": {
                "type": "Point",
                "coordinates": [
                    21.61122,
                    50.054919999999996
                ]
            },
            "properties": {
                "ref:rspo": 131835,
                "official_name": "Przedszkole Specjalne",
                "name": "Przedszkole Specjalne",
                "addr:postcode": "39-100",
                "addr:city": "Ropczyce",
                "addr:street": "Ksi\u0119dza Kardyna\u0142a Stefana Wyszy\u0144skiego",
                "addr:housenumber": "14",
                "addr:city:simc": 974825,
                "addr:street:sym_ul": 43643,
                "phone": "+48 172218382",
                "email": "soswropczyce@poczta.onet.pl",
                "website": "http:\/\/www.soswropczyce.pl",
                "ref:regon": "365357400",
                "operator": "Powiat Ropczycko-S\u0119dziszowski",
                "operator:type": "government",
                "amenity": "kindergarten",
                "note": "Parent RSPO: 38463"
            }
        },
        {
            "id": 27436,
            "type": "Feature",
            "geometry": {
                "type": "Point",
                "coordinates": [
                    21.61246,
                    50.05519
                ]
            },
            "properties": {
                "ref:rspo": 27436,
                "official_name": "Publiczne Przedszkole Nr 1 im. Marii Konopnickiej w Ropczycach",
                "name": "Publiczne Przedszkole Nr 1",
                "addr:postcode": "39-100",
                "addr:city": "Ropczyce",
                "addr:street": "ks. kard. Stefana Wyszy\u0144skiego",
                "addr:housenumber": "18",
                "addr:city:simc": 974825,
                "addr:street:sym_ul": 25114,
                "phone": "+48 172218416",
                "email": "pp1ropczyce@op.pl",
                "ref:regon": "690726952",
                "ref:vatin": "PL8181531425",
                "operator": "Gmina Ropczyce",
                "operator:type": "government",
                "amenity": "kindergarten"
            }
        },
        {
            "id": 132703,
            "type": "Feature",
            "geometry": {
                "type": "Point",
                "coordinates": [
                    21.62516,
                    50.05615
                ]
            },
            "properties": {
                "ref:rspo": 132703,
                "official_name": "Kancelaria Prawna Teresa Curzytek",
                "name": "Kancelaria Prawna Teresa Curzytek",
                "addr:postcode": "39-100",
                "addr:city": "Ropczyce",
                "addr:street": "Adama Mickiewicza",
                "addr:housenumber": "132 A",
                "addr:city:simc": 974825,
                "addr:street:sym_ul": 12734,
                "phone": "+48 600808605",
                "email": "curzytekteresa@o2.pl",
                "website": "http:\/\/www.szkolenia-tcs.pl",
                "ref:regon": "366074839",
                "operator": "Teresa Curzytek",
                "operator:type": "private",
                "fixme": "w zale\u017cno\u015bci od przedmiotu dzia\u0142alno\u015bci (np. amenity=training + training=*, amenity=dancing_school, amenity=language_school, amenity=music_school)"
            }
        },
        {
            "id": 24108,
            "type": "Feature",
            "geometry": {
                "type": "Point",
                "coordinates": [
                    21.60172,
                    50.05877
                ]
            },
            "properties": {
                "ref:rspo": 24108,
                "official_name": "Publiczne Przedszkole Nr 2 w Ropczycach",
                "name": "Publiczne Przedszkole Nr 2 w Ropczycach",
                "addr:postcode": "39-100",
                "addr:city": "Ropczyce",
                "addr:street": "Armii Krajowej",
                "addr:housenumber": "6",
                "addr:city:simc": 974825,
                "addr:street:sym_ul": 432,
                "phone": "+48 172218268",
                "email": "pp2ropczyce@op.pl",
                "ref:regon": "690726930",
                "ref:vatin": "PL8181531419",
                "operator": "Gmina Ropczyce",
                "operator:type": "government",
                "amenity": "kindergarten"
            }
        },
        {
            "id": 24185,
            "type": "Feature",
            "geometry": {
                "type": "Point",
                "coordinates": [
                    21.60078,
                    50.0590199
                ]
            },
            "properties": {
                "ref:rspo": 24185,
                "official_name": "Szko\u0142a Muzyczna I Stopnia w Ropczycach",
                "name": "Szko\u0142a Muzyczna I Stopnia w Ropczycach",
                "addr:postcode": "39-100",
                "addr:city": "Ropczyce",
                "addr:street": "Armii Krajowej",
                "addr:housenumber": "7",
                "addr:city:simc": 974825,
                "addr:street:sym_ul": 432,
                "phone": "+48 172227132",
                "email": "smuzyczna@ropczyce.info",
                "ref:regon": "180604853",
                "ref:vatin": "PL8181702878",
                "operator": "Gmina Ropczyce",
                "operator:type": "government",
                "amenity": "music_school"
            }
        },
        {
            "id": 30161,
            "type": "Feature",
            "geometry": {
                "type": "Point",
                "coordinates": [
                    21.60432,
                    50.05981
                ]
            },
            "properties": {
                "isced:level": "1;2",
                "ref:rspo": 30161,
                "official_name": "Szko\u0142a Podstawowa Nr 5 im. Seweryna Udzieli w Ropczycach",
                "name": "Szko\u0142a Podstawowa Nr 5",
                "addr:postcode": "39-100",
                "addr:city": "Ropczyce",
                "addr:street": "Stanis\u0142awa Konarskiego",
                "addr:housenumber": "4",
                "addr:city:simc": 974825,
                "addr:street:sym_ul": 9111,
                "phone": "+48 172218209",
                "email": "sekretariat@sp5.r-ce.pl",
                "ref:regon": "690043220",
                "ref:vatin": "PL8181371074",
                "operator": "Gmina Ropczyce",
                "operator:type": "government",
                "amenity": "school"
            }
        },
        {
            "id": 42410,
            "type": "Feature",
            "geometry": {
                "type": "Point",
                "coordinates": [
                    21.52742,
                    50.06182
                ]
            },
            "properties": {
                "isced:level": "1;2",
                "ref:rspo": 42410,
                "official_name": "Szko\u0142a Podstawowa im. Jana Brzechwy w Lubzinie",
                "name": "Szko\u0142a Podstawowa",
                "addr:postcode": "39-102",
                "addr:place": "Lubzina",
                "addr:housenumber": "188",
                "addr:city:simc": 659880,
                "phone": "+48 172212128",
                "email": "zs_lubzina@op.pl",
                "ref:regon": "001132376",
                "ref:vatin": "PL8181371022",
                "operator": "Gmina Ropczyce",
                "operator:type": "government",
                "amenity": "school"
            }
        },
        {
            "id": 114452,
            "type": "Feature",
            "geometry": {
                "type": "Point",
                "coordinates": [
                    21.5141,
                    50.06304
                ]
            },
            "properties": {
                "ref:rspo": 114452,
                "official_name": "\"Botus\" Consulting Training Services",
                "name": "\"Botus\" Consulting Training Services",
                "addr:postcode": "39-102",
                "addr:place": "Lubzina",
                "addr:housenumber": "311",
                "addr:city:simc": 659880,
                "phone": "+48 172212060",
                "email": "botus@botus.com.pl",
                "website": "http:\/\/www.botus.com.pl",
                "ref:regon": "180974082",
                "ref:vatin": "PL8181440935",
                "operator": "Grzegorz Bogacki",
                "operator:type": "private",
                "fixme": "w zale\u017cno\u015bci od przedmiotu dzia\u0142alno\u015bci (np. amenity=training + training=*, amenity=dancing_school, amenity=language_school, amenity=music_school)"
            }
        },
        {
            "id": 268248,
            "type": "Feature",
            "geometry": {
                "type": "Point",
                "coordinates": [
                    21.51713,
                    50.06447
                ]
            },
            "properties": {
                "ref:rspo": 268248,
                "official_name": "Niepubliczna Poradnia Psychologiczno - Pedagogiczna \"Edumed\"",
                "name": "Niepubliczna Poradnia Psychologiczno - Pedagogiczna \"Edumed\"",
                "addr:postcode": "39-102",
                "addr:place": "Lubzina",
                "addr:housenumber": "223",
                "addr:city:simc": 659880,
                "phone": "+48 660325940",
                "email": "biuro@pcuedumed.pl",
                "ref:regon": "381037746",
                "operator": "Edumed Podkarpackie Centrum Us\u0142ug Edukacyjnych I Medycznych Kulawiuk, Rodzon Sp\u00f3\u0142ka Jawna",
                "operator:type": "private",
                "healthcare": "counselling",
                "counselling_type": "education",
                "fixme": "w zale\u017cno\u015bci od przedmiotu dzia\u0142alno\u015bci (np. healthcare=counselling + counselling_type=education albo healthcare=psychotherapist)"
            }
        },
        {
            "id": 27403,
            "type": "Feature",
            "geometry": {
                "type": "Point",
                "coordinates": [
                    21.51794,
                    50.06458
                ]
            },
            "properties": {
                "ref:rspo": 27403,
                "official_name": "Publiczne Przedszkole w Lubzinie",
                "name": "Publiczne Przedszkole w Lubzinie",
                "addr:postcode": "39-102",
                "addr:place": "Lubzina",
                "addr:housenumber": "118",
                "addr:city:simc": 659880,
                "phone": "+48 172212176",
                "email": "pplubzina@tlen.pl",
                "ref:regon": "690726969",
                "ref:vatin": "PL8181531448",
                "operator": "Gmina Ropczyce",
                "operator:type": "government",
                "amenity": "kindergarten"
            }
        },
        {
            "id": 132631,
            "type": "Feature",
            "geometry": {
                "type": "Point",
                "coordinates": [
                    21.54962,
                    50.06975
                ]
            },
            "properties": {
                "ref:rspo": 132631,
                "official_name": "Edu - All",
                "name": "Edu - All",
                "addr:postcode": "39-102",
                "addr:place": "Brzez\u00f3wka",
                "addr:housenumber": "164",
                "addr:city:simc": 659615,
                "phone": "+48 797680730",
                "email": "eswirad@interia.pl",
                "ref:regon": "365942274",
                "operator": "Andrzej \u015awirad",
                "operator:type": "private",
                "fixme": "w zale\u017cno\u015bci od przedmiotu dzia\u0142alno\u015bci (np. amenity=training + training=*, amenity=dancing_school, amenity=language_school, amenity=music_school)"
            }
        },
        {
            "id": 133077,
            "type": "Feature",
            "geometry": {
                "type": "Point",
                "coordinates": [
                    21.54871,
                    50.07097
                ]
            },
            "properties": {
                "isced:level": "1;2",
                "ref:rspo": 133077,
                "official_name": "Szko\u0142a Podstawowa w Brzez\u00f3wce",
                "name": "Szko\u0142a Podstawowa w Brzez\u00f3wce",
                "addr:postcode": "39-102",
                "addr:place": "Brzez\u00f3wka",
                "addr:housenumber": "160",
                "addr:city:simc": 659615,
                "phone": "+48 172212197",
                "email": "szkolabrzezowka@interia.pl",
                "ref:regon": "366605716",
                "operator": "Gmina Ropczyce",
                "operator:type": "government",
                "amenity": "school"
            }
        },
        {
            "id": 23282,
            "type": "Feature",
            "geometry": {
                "type": "Point",
                "coordinates": [
                    21.63049,
                    50.0721599
                ]
            },
            "properties": {
                "ref:rspo": 23282,
                "official_name": "Zesp\u00f3\u0142 Szk\u00f3\u0142 Nr 5 w Ropczycach",
                "name": "Zesp\u00f3\u0142 Szk\u00f3\u0142 Nr 5 w Ropczycach",
                "addr:postcode": "39-100",
                "addr:city": "Ropczyce",
                "addr:street": "Szkolna",
                "addr:housenumber": "33",
                "addr:city:simc": 974825,
                "addr:street:sym_ul": 21970,
                "phone": "+48 172218465",
                "email": "zszkolnr5@poczta.fm",
                "ref:regon": "691750349",
                "ref:vatin": "PL8181575055",
                "operator": "Gmina Ropczyce",
                "operator:type": "government",
                "landuse": "education",
                "fixme": "amenity=school, amenity=college albo landuse=education w zale\u017cno\u015bci od tego, jakie plac\u00f3wki wchodz\u0105 w sk\u0142ad zespo\u0142u. Sprawd\u017a, kiedy stosowa\u0107 amenity=* a kiedy landuse=education.",
                "note": "Children RSPO: 38747;42868"
            }
        },
        {
            "id": 38747,
            "type": "Feature",
            "geometry": {
                "type": "Point",
                "coordinates": [
                    21.63049,
                    50.0721299
                ]
            },
            "properties": {
                "isced:level": "1;2",
                "ref:rspo": 38747,
                "official_name": "Szko\u0142a Podstawowa Nr 6 w Ropczycach",
                "name": "Szko\u0142a Podstawowa Nr 6 w Ropczycach",
                "addr:postcode": "39-100",
                "addr:city": "Ropczyce",
                "addr:street": "Szkolna",
                "addr:housenumber": "33",
                "addr:city:simc": 974825,
                "addr:street:sym_ul": 21970,
                "phone": "+48 172218465",
                "email": "zszkolnr5@poczta.fm",
                "ref:regon": "001132420",
                "ref:vatin": "PL8181371068",
                "operator": "Gmina Ropczyce",
                "operator:type": "government",
                "amenity": "school",
                "note": "Parent RSPO: 23282"
            }
        },
        {
            "id": 42868,
            "type": "Feature",
            "geometry": {
                "type": "Point",
                "coordinates": [
                    21.63049,
                    50.072099900000005
                ]
            },
            "properties": {
                "ref:rspo": 42868,
                "official_name": "Publiczne Przedszkole Nr 3 w Ropczycach",
                "name": "Publiczne Przedszkole Nr 3 w Ropczycach",
                "addr:postcode": "39-100",
                "addr:city": "Ropczyce",
                "addr:street": "Szkolna",
                "addr:housenumber": "33A",
                "addr:city:simc": 974825,
                "addr:street:sym_ul": 21970,
                "phone": "+48 172218465",
                "email": "ppnr3ropczyce@gmail.com",
                "ref:regon": "690726923",
                "ref:vatin": "PL8181531454",
                "operator": "Gmina Ropczyce",
                "operator:type": "government",
                "amenity": "kindergarten",
                "note": "Parent RSPO: 23282"
            }
        },
        {
            "id": 23238,
            "type": "Feature",
            "geometry": {
                "type": "Point",
                "coordinates": [
                    21.58627,
                    50.07752
                ]
            },
            "properties": {
                "ref:rspo": 23238,
                "official_name": "Zesp\u00f3\u0142 Szk\u00f3\u0142 Nr 3 w Ropczycach",
                "name": "Zesp\u00f3\u0142 Szk\u00f3\u0142 Nr 3 w Ropczycach",
                "addr:postcode": "39-100",
                "addr:city": "Ropczyce",
                "addr:street": "Robotnicza",
                "addr:housenumber": "48",
                "addr:city:simc": 974825,
                "addr:street:sym_ul": 18695,
                "phone": "+48 172218408",
                "email": "czekaj48@wp.pl",
                "ref:regon": "691750289",
                "ref:vatin": "PL8181575026",
                "operator": "Gmina Ropczyce",
                "operator:type": "government",
                "landuse": "education",
                "fixme": "amenity=school, amenity=college albo landuse=education w zale\u017cno\u015bci od tego, jakie plac\u00f3wki wchodz\u0105 w sk\u0142ad zespo\u0142u. Sprawd\u017a, kiedy stosowa\u0107 amenity=* a kiedy landuse=education.",
                "note": "Children RSPO: 35184;113843"
            }
        },
        {
            "id": 35184,
            "type": "Feature",
            "geometry": {
                "type": "Point",
                "coordinates": [
                    21.58627,
                    50.07749
                ]
            },
            "properties": {
                "isced:level": "1;2",
                "ref:rspo": 35184,
                "official_name": "Szko\u0142a Podstawowa Nr 2 w Ropczycach",
                "name": "Szko\u0142a Podstawowa Nr 2 w Ropczycach",
                "addr:postcode": "39-100",
                "addr:city": "Ropczyce",
                "addr:street": "Robotnicza",
                "addr:housenumber": "48",
                "addr:city:simc": 974825,
                "addr:street:sym_ul": 18695,
                "phone": "+48 172218408",
                "email": "czekaj48@wp.pl",
                "ref:regon": "001132347",
                "ref:vatin": "PL8181371080",
                "operator": "Gmina Ropczyce",
                "operator:type": "government",
                "amenity": "school",
                "note": "Parent RSPO: 23238"
            }
        },
        {
            "id": 113843,
            "type": "Feature",
            "geometry": {
                "type": "Point",
                "coordinates": [
                    21.58627,
                    50.07746
                ]
            },
            "properties": {
                "ref:rspo": 113843,
                "official_name": "Publiczne Przedszkole Nr 4 w Ropczycach",
                "name": "Publiczne Przedszkole Nr 4 w Ropczycach",
                "addr:postcode": "39-100",
                "addr:city": "Ropczyce",
                "addr:street": "Robotnicza",
                "addr:housenumber": "48",
                "addr:city:simc": 974825,
                "addr:street:sym_ul": 18695,
                "phone": "+48 172218408",
                "email": "czekaj48@wp.pl",
                "ref:regon": "180965290",
                "operator": "Gmina Ropczyce",
                "operator:type": "government",
                "amenity": "kindergarten",
                "note": "Parent RSPO: 23238"
            }
        }
    ]
}