{
    "type": "FeatureCollection",
    "features": [
        {
            "id": 16389,
            "type": "Feature",
            "geometry": {
                "type": "Point",
                "coordinates": [
                    18.96317,
                    50.33816
                ]
            },
            "properties": {
                "isced:level": "1;2",
                "ref:rspo": 16389,
                "official_name": "Miejska Szko\u0142a Podstawowa Nr 15 im. Powsta\u0144c\u00f3w \u015aL\u0105skich w Piekarach \u015aL\u0105skich",
                "name": "Miejska Szko\u0142a Podstawowa Nr 15",
                "addr:country": "PL",
                "addr:postcode": "41-946",
                "addr:city": "Piekary \u015al\u0105skie",
                "addr:street": "ul. Franciszka Kotuchy",
                "addr:housenumber": "40",
                "addr:teryt:simc": 9635,
                "addr:teryt:sym_ul": 942104,
                "contact:phone": "+48 322899449",
                "contact:email": "msp15_sekretariat@wp.pl",
                "contact:website": "http:\/\/www.msp15.pl",
                "ref:regon": "000724695",
                "ref:vatin": "PL4980001334",
                "operator": "Gmina Piekary \u015al\u0105skie",
                "operator:type": "government",
                "amenity": "school"
            }
        },
        {
            "id": 5851,
            "type": "Feature",
            "geometry": {
                "type": "Point",
                "coordinates": [
                    18.96608,
                    50.34272
                ]
            },
            "properties": {
                "ref:rspo": 5851,
                "official_name": "Miejskie Przedszkole Nr 13 w Piekarach \u015aL\u0105skich",
                "name": "Miejskie Przedszkole Nr 13 w Piekarach \u015aL\u0105skich",
                "addr:country": "PL",
                "addr:postcode": "41-946",
                "addr:city": "Piekary \u015al\u0105skie",
                "addr:street": "ul. Franciszka Kotuchy",
                "addr:housenumber": "42",
                "addr:teryt:simc": 9635,
                "addr:teryt:sym_ul": 942104,
                "contact:phone": "+48 322899488",
                "contact:email": "mp13@piekary.pl",
                "contact:website": "http:\/\/mp13.przedszkolowo.pl",
                "ref:regon": "272002229",
                "ref:vatin": "PL4980001452",
                "operator": "Gmina Piekary \u015al\u0105skie",
                "operator:type": "government",
                "amenity": "kindergarten"
            }
        },
        {
            "id": 16718,
            "type": "Feature",
            "geometry": {
                "type": "Point",
                "coordinates": [
                    19.0067,
                    50.3436499
                ]
            },
            "properties": {
                "ref:rspo": 16718,
                "official_name": "Zesp\u00f3\u0142 Szkolno-Przedszkolny Nr 2 w Piekarach \u015aL\u0105skich",
                "name": "Zesp\u00f3\u0142 Szkolno-Przedszkolny Nr 2 w Piekarach \u015aL\u0105skich",
                "addr:country": "PL",
                "addr:postcode": "41-948",
                "addr:city": "Piekary \u015al\u0105skie",
                "addr:street": "ul. Rycerska",
                "addr:housenumber": "15",
                "addr:door": "A",
                "addr:teryt:simc": 19186,
                "addr:teryt:sym_ul": 942104,
                "contact:phone": "+48 322879906",
                "contact:email": "zsp2@piekary.pl",
                "contact:website": "http:\/\/www.zs-p2.edu.pl",
                "ref:regon": "240431180",
                "operator": "Gmina Piekary \u015al\u0105skie",
                "operator:type": "government",
                "landuse": "education",
                "fixme": "amenity=school, amenity=college albo landuse=education w zale\u017cno\u015bci od tego, jakie plac\u00f3wki wchodz\u0105 w sk\u0142ad zespo\u0142u. Sprawd\u017a, kiedy stosowa\u0107 amenity=* a kiedy landuse=education.",
                "note": "Children RSPO: 16716;16717"
            }
        },
        {
            "id": 16716,
            "type": "Feature",
            "geometry": {
                "type": "Point",
                "coordinates": [
                    19.0067,
                    50.3436199
                ]
            },
            "properties": {
                "isced:level": "1;2",
                "ref:rspo": 16716,
                "official_name": "Miejska Szko\u0142a Podstawowa Nr 16 im.wojska Polskiego",
                "name": "Miejska Szko\u0142a Podstawowa Nr 16 im.wojska Polskiego",
                "addr:country": "PL",
                "addr:postcode": "41-948",
                "addr:city": "Piekary \u015al\u0105skie",
                "addr:street": "ul. Rycerska",
                "addr:housenumber": "15",
                "addr:door": "A",
                "addr:teryt:simc": 19186,
                "addr:teryt:sym_ul": 942104,
                "contact:phone": "+48 322879906",
                "contact:email": "zsp2@piekary.pl",
                "contact:website": "http:\/\/www.zs-p2.edu.pl",
                "ref:regon": "000724703",
                "operator": "Gmina Piekary \u015al\u0105skie",
                "operator:type": "government",
                "amenity": "school",
                "note": "Parent RSPO: 16718"
            }
        },
        {
            "id": 16717,
            "type": "Feature",
            "geometry": {
                "type": "Point",
                "coordinates": [
                    19.0067,
                    50.343589900000005
                ]
            },
            "properties": {
                "ref:rspo": 16717,
                "official_name": "Miejskie Przedszkole Nr 14 w Piekarach \u015aL\u0105skich",
                "name": "Miejskie Przedszkole Nr 14 w Piekarach \u015aL\u0105skich",
                "addr:country": "PL",
                "addr:postcode": "41-948",
                "addr:city": "Piekary \u015al\u0105skie",
                "addr:street": "ul. Rycerska",
                "addr:housenumber": "15",
                "addr:door": "A",
                "addr:teryt:simc": 19186,
                "addr:teryt:sym_ul": 942104,
                "contact:phone": "+48 322879906",
                "contact:email": "zsp2@piekary.pl",
                "contact:website": "http:\/\/www.zs-p2.edu.pl",
                "ref:regon": "272002235",
                "operator": "Gmina Piekary \u015al\u0105skie",
                "operator:type": "government",
                "amenity": "kindergarten",
                "note": "Parent RSPO: 16718"
            }
        },
        {
            "id": 268574,
            "type": "Feature",
            "geometry": {
                "type": "Point",
                "coordinates": [
                    18.97966,
                    50.34498
                ]
            },
            "properties": {
                "isced:level": "1;2",
                "ref:rspo": 268574,
                "official_name": "Prywatna Szko\u0142a Podstawowa Mistrzostwa Sportowego",
                "name": "Prywatna Szko\u0142a Podstawowa Mistrzostwa Sportowego",
                "addr:country": "PL",
                "addr:postcode": "41-946",
                "addr:city": "Piekary \u015al\u0105skie",
                "addr:street": "ul. Biskupa Herberta Bednorza",
                "addr:housenumber": "1F",
                "addr:teryt:simc": 47993,
                "addr:teryt:sym_ul": 942104,
                "contact:phone": "+48 601389962",
                "contact:email": "szkola.tenis@op.pl",
                "contact:website": "http:\/\/www.tenispsp.pl",
                "ref:regon": "381205161",
                "operator": "Tennis Club Sp\u00f3\u0142ka Z Ograniczon\u0105 Odpowiedzialno\u015bci\u0105",
                "operator:type": "private",
                "amenity": "school"
            }
        },
        {
            "id": 5850,
            "type": "Feature",
            "geometry": {
                "type": "Point",
                "coordinates": [
                    18.9814,
                    50.34776
                ]
            },
            "properties": {
                "ref:rspo": 5850,
                "official_name": "Miejskie Przedszkole Nr 12 w Piekarach \u015aL\u0105skich",
                "name": "Miejskie Przedszkole Nr 12 w Piekarach \u015aL\u0105skich",
                "addr:country": "PL",
                "addr:postcode": "41-946",
                "addr:city": "Piekary \u015al\u0105skie",
                "addr:street": "ul. Biskupa Herberta Bednorza",
                "addr:housenumber": "26",
                "addr:teryt:simc": 47993,
                "addr:teryt:sym_ul": 942104,
                "contact:phone": "+48 322879606",
                "contact:email": "mp12@piekary.pl",
                "ref:regon": "272002212",
                "ref:vatin": "PL4980001417",
                "operator": "Gmina Piekary \u015al\u0105skie",
                "operator:type": "government",
                "amenity": "kindergarten",
                "note": "Parent RSPO: 278086"
            }
        },
        {
            "id": 278086,
            "type": "Feature",
            "geometry": {
                "type": "Point",
                "coordinates": [
                    18.981,
                    50.34804
                ]
            },
            "properties": {
                "ref:rspo": 278086,
                "official_name": "Zesp\u00f3\u0142 Szkolno-Przedszkolny Nr 3 w Piekarach \u015aL\u0105skich",
                "name": "Zesp\u00f3\u0142 Szkolno-Przedszkolny Nr 3 w Piekarach \u015aL\u0105skich",
                "addr:country": "PL",
                "addr:postcode": "41-946",
                "addr:city": "Piekary \u015al\u0105skie",
                "addr:street": "ul. Biskupa Herberta Bednorza",
                "addr:housenumber": "29",
                "addr:teryt:simc": 47993,
                "addr:teryt:sym_ul": 942104,
                "contact:phone": "+48 322879542",
                "contact:email": "msp14@interia.pl",
                "contact:website": "http:\/\/www.msp14piekary.weebly.pl",
                "ref:regon": "389766025",
                "ref:vatin": "PL4980272866",
                "operator": "Gmina Piekary \u015al\u0105skie",
                "operator:type": "government",
                "landuse": "education",
                "fixme": "amenity=school, amenity=college albo landuse=education w zale\u017cno\u015bci od tego, jakie plac\u00f3wki wchodz\u0105 w sk\u0142ad zespo\u0142u. Sprawd\u017a, kiedy stosowa\u0107 amenity=* a kiedy landuse=education.",
                "note": "Children RSPO: 5850;16306"
            }
        },
        {
            "id": 16306,
            "type": "Feature",
            "geometry": {
                "type": "Point",
                "coordinates": [
                    18.981,
                    50.348009999999995
                ]
            },
            "properties": {
                "isced:level": "1;2",
                "ref:rspo": 16306,
                "official_name": "Miejska Szko\u0142a Podstawowa Nr 14 w Piekarach \u015aL\u0105skich",
                "name": "Miejska Szko\u0142a Podstawowa Nr 14 w Piekarach \u015aL\u0105skich",
                "addr:country": "PL",
                "addr:postcode": "41-946",
                "addr:city": "Piekary \u015al\u0105skie",
                "addr:street": "ul. Biskupa Herberta Bednorza",
                "addr:housenumber": "29",
                "addr:teryt:simc": 47993,
                "addr:teryt:sym_ul": 942104,
                "contact:phone": "+48 322879542",
                "contact:email": "msp14@interia.pl",
                "contact:website": "http:\/\/msp14piekary.weebly.com\/",
                "ref:regon": "000724689",
                "ref:vatin": "PL4980001274",
                "operator": "Gmina Piekary \u015al\u0105skie",
                "operator:type": "government",
                "amenity": "school",
                "note": "Parent RSPO: 278086"
            }
        },
        {
            "id": 269639,
            "type": "Feature",
            "geometry": {
                "type": "Point",
                "coordinates": [
                    18.99517,
                    50.36403
                ]
            },
            "properties": {
                "ref:rspo": 269639,
                "official_name": "Niepubliczne Przedszkole Muzyczne \u015aw. Tereski Od Dzieci\u0105tka Jezus",
                "name": "Niepubliczne Przedszkole Muzyczne \u015aw. Tereski Od Dzieci\u0105tka Jezus",
                "addr:country": "PL",
                "addr:postcode": "41-949",
                "addr:city": "Piekary \u015al\u0105skie",
                "addr:street": "ul. Marii Curie-Sk\u0142odowskiej",
                "addr:housenumber": "83",
                "addr:teryt:simc": 3148,
                "addr:teryt:sym_ul": 942104,
                "contact:phone": "+48 517129424",
                "contact:email": "beatak.69@o2.pl",
                "ref:regon": "381620693",
                "operator": "Beata Kalus",
                "operator:type": "private",
                "amenity": "kindergarten"
            }
        },
        {
            "id": 5848,
            "type": "Feature",
            "geometry": {
                "type": "Point",
                "coordinates": [
                    18.9878,
                    50.36431
                ]
            },
            "properties": {
                "ref:rspo": 5848,
                "official_name": "Miejskie Przedszkole Nr 10 Pod Topol\u0105 im. Janusza Korczaka w Piekarach \u015aL\u0105skich",
                "name": "Miejskie Przedszkole Nr 10 Pod Topol\u0105",
                "addr:country": "PL",
                "addr:postcode": "41-949",
                "addr:city": "Piekary \u015al\u0105skie",
                "addr:street": "ul. Marii Curie-Sk\u0142odowskiej",
                "addr:housenumber": "61",
                "addr:teryt:simc": 3148,
                "addr:teryt:sym_ul": 942104,
                "contact:phone": "+48 327678169",
                "contact:email": "mp10@piekary.pl",
                "contact:website": "http:\/\/www.mp10piekary.szkolnybip.pl",
                "ref:regon": "272002198",
                "ref:vatin": "PL4980001392",
                "operator": "Gmina Piekary \u015al\u0105skie",
                "operator:type": "government",
                "amenity": "kindergarten"
            }
        },
        {
            "id": 17657,
            "type": "Feature",
            "geometry": {
                "type": "Point",
                "coordinates": [
                    18.98272,
                    50.36459
                ]
            },
            "properties": {
                "ref:rspo": 17657,
                "official_name": "Zesp\u00f3\u0142 Szk\u00f3\u0142 Nr 1 w Piekarach \u015aL\u0105skich",
                "name": "Zesp\u00f3\u0142 Szk\u00f3\u0142 Nr 1 w Piekarach \u015aL\u0105skich",
                "addr:country": "PL",
                "addr:postcode": "41-949",
                "addr:city": "Piekary \u015al\u0105skie",
                "addr:street": "ul. Marii Curie-Sk\u0142odowskiej",
                "addr:housenumber": "49",
                "addr:teryt:simc": 3148,
                "addr:teryt:sym_ul": 942104,
                "contact:phone": "+48 322884013",
                "contact:email": "zs-1@wp.pl",
                "contact:website": "http:\/\/www.zs-1.edu.pl",
                "ref:regon": "000778604",
                "operator": "Gmina Piekary \u015al\u0105skie",
                "operator:type": "government",
                "landuse": "education",
                "fixme": "amenity=school, amenity=college albo landuse=education w zale\u017cno\u015bci od tego, jakie plac\u00f3wki wchodz\u0105 w sk\u0142ad zespo\u0142u. Sprawd\u017a, kiedy stosowa\u0107 amenity=* a kiedy landuse=education.",
                "note": "Children RSPO: 106083;121959"
            }
        },
        {
            "id": 106083,
            "type": "Feature",
            "geometry": {
                "type": "Point",
                "coordinates": [
                    18.98272,
                    50.36456
                ]
            },
            "properties": {
                "isced:level": "3",
                "ref:rspo": 106083,
                "official_name": "Technikum Nr 1 im. Jacka Karpi\u0144skiego w Piekarach \u015aL\u0105skich",
                "name": "Technikum Nr 1",
                "addr:country": "PL",
                "addr:postcode": "41-940",
                "addr:city": "Piekary \u015al\u0105skie",
                "addr:street": "ul. Marii Curie-Sk\u0142odowskiej",
                "addr:housenumber": "49",
                "addr:teryt:simc": 3148,
                "addr:teryt:sym_ul": 942104,
                "contact:phone": "+48 322884013",
                "contact:email": "zs-1@wp.pl",
                "contact:website": "https:\/\/www.zs-1.edu.pl\/",
                "ref:regon": "272712149",
                "operator": "Gmina Piekary \u015al\u0105skie",
                "operator:type": "government",
                "amenity": "school",
                "note": "Parent RSPO: 17657"
            }
        },
        {
            "id": 121959,
            "type": "Feature",
            "geometry": {
                "type": "Point",
                "coordinates": [
                    18.98272,
                    50.36453
                ]
            },
            "properties": {
                "isced:level": "3",
                "ref:rspo": 121959,
                "official_name": "Ii Liceum Og\u00f3lnokszta\u0142c\u0105ce w Piekarach \u015aL\u0105skich",
                "name": "Ii Liceum Og\u00f3lnokszta\u0142c\u0105ce w Piekarach \u015aL\u0105skich",
                "addr:country": "PL",
                "addr:postcode": "41-949",
                "addr:city": "Piekary \u015al\u0105skie",
                "addr:street": "ul. Marii Curie-Sk\u0142odowskiej",
                "addr:housenumber": "49",
                "addr:door": "49",
                "addr:teryt:simc": 3148,
                "addr:teryt:sym_ul": 942104,
                "contact:phone": "+48 322884013",
                "contact:email": "zs-1@wp.pl",
                "contact:website": "https:\/\/www.zs-1.edu.pl\/",
                "ref:regon": "271897595",
                "operator": "Gmina Piekary \u015al\u0105skie",
                "operator:type": "government",
                "amenity": "school",
                "note": "Parent RSPO: 17657"
            }
        },
        {
            "id": 16273,
            "type": "Feature",
            "geometry": {
                "type": "Point",
                "coordinates": [
                    18.99733,
                    50.3651
                ]
            },
            "properties": {
                "isced:level": "1;2",
                "ref:rspo": 16273,
                "official_name": "Miejska Szko\u0142a Podstawowa Nr 13 im. Powsta\u0144c\u00f3w \u015aL\u0105skich w Piekarach \u015aL\u0105skich",
                "name": "Miejska Szko\u0142a Podstawowa Nr 13",
                "addr:country": "PL",
                "addr:postcode": "41-949",
                "addr:city": "Piekary \u015al\u0105skie",
                "addr:street": "ul. Marii Curie-Sk\u0142odowskiej",
                "addr:housenumber": "108",
                "addr:teryt:simc": 3148,
                "addr:teryt:sym_ul": 942104,
                "contact:phone": "+48 322879456",
                "contact:email": "msp13@poczta.fm",
                "contact:website": "http:\/\/www.msp13piekary.org\/",
                "ref:regon": "000724672",
                "ref:vatin": "PL4980001280",
                "operator": "Gmina Piekary \u015al\u0105skie",
                "operator:type": "government",
                "amenity": "school"
            }
        },
        {
            "id": 17534,
            "type": "Feature",
            "geometry": {
                "type": "Point",
                "coordinates": [
                    18.99733,
                    50.365069999999996
                ]
            },
            "properties": {
                "ref:rspo": 17534,
                "official_name": "Poradnia Psychologiczno-Pedagogiczna w Piekarach \u015aL\u0105skich",
                "name": "Poradnia Psychologiczno-Pedagogiczna w Piekarach \u015aL\u0105skich",
                "addr:country": "PL",
                "addr:postcode": "41-949",
                "addr:city": "Piekary \u015al\u0105skie",
                "addr:street": "ul. Marii Curie-Sk\u0142odowskiej",
                "addr:housenumber": "108",
                "addr:teryt:simc": 3148,
                "addr:teryt:sym_ul": 942104,
                "contact:email": "ppp@piekary.pl",
                "ref:regon": "000817675",
                "operator": "Gmina Piekary \u015al\u0105skie",
                "operator:type": "government",
                "healthcare": "counselling",
                "counselling_type": "education",
                "fixme": "w zale\u017cno\u015bci od przedmiotu dzia\u0142alno\u015bci (np. healthcare=counselling + counselling_type=education albo healthcare=psychotherapist)"
            }
        },
        {
            "id": 5852,
            "type": "Feature",
            "geometry": {
                "type": "Point",
                "coordinates": [
                    18.99652,
                    50.36533
                ]
            },
            "properties": {
                "ref:rspo": 5852,
                "official_name": "Miejskie Przedszkole Nr 15 w Piekarach \u015aL\u0105skich",
                "name": "Miejskie Przedszkole Nr 15 w Piekarach \u015aL\u0105skich",
                "addr:country": "PL",
                "addr:postcode": "41-949",
                "addr:city": "Piekary \u015al\u0105skie",
                "addr:street": "ul. Marii Curie-Sk\u0142odowskiej",
                "addr:housenumber": "104",
                "addr:teryt:simc": 3148,
                "addr:teryt:sym_ul": 942104,
                "contact:phone": "+48 327678184",
                "contact:email": "mp15@piekary.pl",
                "ref:regon": "272002241",
                "ref:vatin": "PL4980001446",
                "operator": "Gmina Piekary \u015al\u0105skie",
                "operator:type": "government",
                "amenity": "kindergarten"
            }
        },
        {
            "id": 5849,
            "type": "Feature",
            "geometry": {
                "type": "Point",
                "coordinates": [
                    18.97529,
                    50.36999
                ]
            },
            "properties": {
                "ref:rspo": 5849,
                "official_name": "Miejskie Przedszkole Nr 11 w Piekarach \u015aL\u0105skich",
                "name": "Miejskie Przedszkole Nr 11 w Piekarach \u015aL\u0105skich",
                "addr:country": "PL",
                "addr:postcode": "41-947",
                "addr:city": "Piekary \u015al\u0105skie",
                "addr:street": "ul. Tadeusza Makowskiego",
                "addr:housenumber": "10",
                "addr:teryt:simc": 12014,
                "addr:teryt:sym_ul": 942104,
                "contact:phone": "+48 327362848",
                "contact:email": "mp11@piekary.pl",
                "contact:website": "http:\/\/www.przedszkole11.piekary.pl",
                "ref:regon": "272002206",
                "ref:vatin": "PL4980001363",
                "operator": "Gmina Piekary \u015al\u0105skie",
                "operator:type": "government",
                "amenity": "kindergarten"
            }
        },
        {
            "id": 16256,
            "type": "Feature",
            "geometry": {
                "type": "Point",
                "coordinates": [
                    18.9739,
                    50.37043
                ]
            },
            "properties": {
                "isced:level": "1;2",
                "ref:rspo": 16256,
                "official_name": "Miejska Szko\u0142a Podstawowa Nr 12 im. Jana Demarczyka w Piekarach \u015aL\u0105skich",
                "name": "Miejska Szko\u0142a Podstawowa Nr 12",
                "addr:country": "PL",
                "addr:postcode": "41-949",
                "addr:city": "Piekary \u015al\u0105skie",
                "addr:street": "ul. Zwi\u0105zkowa",
                "addr:housenumber": "14",
                "addr:teryt:simc": 26288,
                "addr:teryt:sym_ul": 942104,
                "contact:phone": "+48 322879967",
                "contact:email": "msp12piekary@interia.pl",
                "contact:website": "http:\/\/www.msp12piekary.edupage.org",
                "ref:regon": "000724666",
                "ref:vatin": "PL4980074988",
                "operator": "Gmina Piekary \u015al\u0105skie",
                "operator:type": "government",
                "amenity": "school"
            }
        },
        {
            "id": 123312,
            "type": "Feature",
            "geometry": {
                "type": "Point",
                "coordinates": [
                    18.9739,
                    50.3704
                ]
            },
            "properties": {
                "ref:rspo": 123312,
                "official_name": "Niepubliczna Szko\u0142a Muzyczna I St. w Piekarach \u015aL\u0105skich",
                "name": "Niepubliczna Szko\u0142a Muzyczna I St. w Piekarach \u015aL\u0105skich",
                "addr:country": "PL",
                "addr:postcode": "41-947",
                "addr:city": "Piekary \u015al\u0105skie",
                "addr:street": "ul. Zwi\u0105zkowa",
                "addr:housenumber": "14",
                "addr:teryt:simc": 26288,
                "addr:teryt:sym_ul": 942104,
                "contact:email": "beatak.69@o2.pl",
                "ref:regon": "243590329",
                "operator": "Beata Kalus",
                "operator:type": "private",
                "amenity": "music_school"
            }
        },
        {
            "id": 5237,
            "type": "Feature",
            "geometry": {
                "type": "Point",
                "coordinates": [
                    18.94168,
                    50.3737
                ]
            },
            "properties": {
                "ref:rspo": 5237,
                "official_name": "Przedszkole Niepubliczne \"P\u0142omyk Montessori\"",
                "name": "Przedszkole Niepubliczne \"P\u0142omyk Montessori\"",
                "addr:country": "PL",
                "addr:postcode": "41-940",
                "addr:city": "Piekary \u015al\u0105skie",
                "addr:street": "ul. Karola Miarki",
                "addr:housenumber": "21",
                "addr:teryt:simc": 12674,
                "addr:teryt:sym_ul": 942104,
                "contact:phone": "+48 323815300",
                "contact:email": "administracja@plomyk-montessori.pl",
                "contact:website": "http:\/\/www.plomyk-montessori.pl",
                "ref:regon": "243018090",
                "ref:vatin": "PL4980239449",
                "operator": "\"Perforator Mikrotunelowanie\" Sp\u00f3\u0142ka Z Ograniczon\u0105 Odpowiedzialno\u015bci\u0105",
                "operator:type": "private",
                "amenity": "kindergarten"
            }
        },
        {
            "id": 15729,
            "type": "Feature",
            "geometry": {
                "type": "Point",
                "coordinates": [
                    18.95306,
                    50.3741
                ]
            },
            "properties": {
                "isced:level": "1;2",
                "ref:rspo": 15729,
                "official_name": "Miejska Szko\u0142a Podstawowa Nr 1 w Piekarach \u015aL\u0105skich",
                "name": "Miejska Szko\u0142a Podstawowa Nr 1 w Piekarach \u015aL\u0105skich",
                "addr:country": "PL",
                "addr:postcode": "41-940",
                "addr:city": "Piekary \u015al\u0105skie",
                "addr:street": "ul. Szpitalna",
                "addr:housenumber": "9",
                "addr:teryt:simc": 22073,
                "addr:teryt:sym_ul": 942104,
                "contact:phone": "+48 322871676",
                "contact:email": "msp1piekary@o2.pl",
                "contact:website": "http:\/\/www.msp1piekary.edupage.org",
                "ref:regon": "000724755",
                "ref:vatin": "PL6451955276",
                "operator": "Gmina Piekary \u015al\u0105skie",
                "operator:type": "government",
                "amenity": "school"
            }
        },
        {
            "id": 5839,
            "type": "Feature",
            "geometry": {
                "type": "Point",
                "coordinates": [
                    18.94277,
                    50.375
                ]
            },
            "properties": {
                "ref:rspo": 5839,
                "official_name": "Miejskie Przedszkole Nr 1 w Piekarach \u015aL\u0105skich",
                "name": "Miejskie Przedszkole Nr 1 w Piekarach \u015aL\u0105skich",
                "addr:country": "PL",
                "addr:postcode": "41-940",
                "addr:city": "Piekary \u015al\u0105skie",
                "addr:street": "ul. Bytomska",
                "addr:housenumber": "79",
                "addr:teryt:simc": 2528,
                "addr:teryt:sym_ul": 942104,
                "contact:phone": "+48 322871623",
                "contact:email": "mp1@piekary.pl",
                "contact:website": "http:\/\/www.mp1piekary.dlaprzedszkoli.eu",
                "ref:regon": "272002100",
                "ref:vatin": "PL4980001340",
                "operator": "Gmina Piekary \u015al\u0105skie",
                "operator:type": "government",
                "amenity": "kindergarten"
            }
        },
        {
            "id": 131025,
            "type": "Feature",
            "geometry": {
                "type": "Point",
                "coordinates": [
                    18.9425199,
                    50.37586
                ]
            },
            "properties": {
                "ref:rspo": 131025,
                "official_name": "Zesp\u00f3\u0142 Szk\u00f3\u0142 Techniczno-Zawodowych w Piekarach \u015aL\u0105skich",
                "name": "Zesp\u00f3\u0142 Szk\u00f3\u0142 Techniczno-Zawodowych w Piekarach \u015aL\u0105skich",
                "addr:country": "PL",
                "addr:postcode": "41-940",
                "addr:city": "Piekary \u015al\u0105skie",
                "addr:street": "ul. Bytomska",
                "addr:housenumber": "81a",
                "addr:teryt:simc": 2528,
                "addr:teryt:sym_ul": 942104,
                "contact:phone": "+48 723972418",
                "contact:email": "sekretariat@zstz.piekary.pl",
                "contact:website": "http:\/\/www.zstz.piekary.pl",
                "ref:regon": "364886450",
                "operator": "Gmina Piekary \u015al\u0105skie",
                "operator:type": "government",
                "landuse": "education",
                "fixme": "amenity=school, amenity=college albo landuse=education w zale\u017cno\u015bci od tego, jakie plac\u00f3wki wchodz\u0105 w sk\u0142ad zespo\u0142u. Sprawd\u017a, kiedy stosowa\u0107 amenity=* a kiedy landuse=education.",
                "note": "Children RSPO: 17185;131049;275568;278133"
            }
        },
        {
            "id": 17185,
            "type": "Feature",
            "geometry": {
                "type": "Point",
                "coordinates": [
                    18.9425199,
                    50.37583
                ]
            },
            "properties": {
                "isced:level": "3",
                "ref:rspo": 17185,
                "official_name": "Bran\u017cowa Szko\u0142a I Stopnia im. Stanis\u0142awa Ligonia",
                "name": "Bran\u017cowa Szko\u0142a I Stopnia",
                "addr:country": "PL",
                "addr:postcode": "41-940",
                "addr:city": "Piekary \u015al\u0105skie",
                "addr:street": "ul. Bytomska",
                "addr:housenumber": "81a",
                "addr:teryt:simc": 2528,
                "addr:teryt:sym_ul": 942104,
                "contact:phone": "+48 723972418",
                "contact:email": "sekretariat@zstz.piekary.pl",
                "contact:website": "http:\/\/www.zstz.piekary.pl",
                "ref:regon": "000201112",
                "operator": "Gmina Piekary \u015al\u0105skie",
                "operator:type": "government",
                "amenity": "school",
                "note": "Parent RSPO: 131025"
            }
        },
        {
            "id": 131049,
            "type": "Feature",
            "geometry": {
                "type": "Point",
                "coordinates": [
                    18.9425199,
                    50.375800000000005
                ]
            },
            "properties": {
                "isced:level": "3",
                "ref:rspo": 131049,
                "official_name": "Technikum Nr 2 w Piekarach \u015aL\u0105skich",
                "name": "Technikum Nr 2 w Piekarach \u015aL\u0105skich",
                "addr:country": "PL",
                "addr:postcode": "41-940",
                "addr:city": "Piekary \u015al\u0105skie",
                "addr:street": "ul. Bytomska",
                "addr:housenumber": "81a",
                "addr:teryt:simc": 2528,
                "addr:teryt:sym_ul": 942104,
                "contact:phone": "+48 723972418",
                "contact:email": "sekretariat@zstz.piekary.pl",
                "contact:website": "http:\/\/www.zstz.piekary.pl",
                "ref:regon": "364915648",
                "operator": "Gmina Piekary \u015al\u0105skie",
                "operator:type": "government",
                "amenity": "school",
                "note": "Parent RSPO: 131025"
            }
        },
        {
            "id": 275568,
            "type": "Feature",
            "geometry": {
                "type": "Point",
                "coordinates": [
                    18.9425199,
                    50.37577
                ]
            },
            "properties": {
                "isced:level": "3",
                "ref:rspo": 275568,
                "official_name": "Bran\u017cowa Szko\u0142a II Stopnia w Piekarach \u015aL\u0105skich",
                "name": "Bran\u017cowa Szko\u0142a II Stopnia w Piekarach \u015aL\u0105skich",
                "addr:country": "PL",
                "addr:postcode": "41-940",
                "addr:city": "Piekary \u015al\u0105skie",
                "addr:street": "ul. Bytomska",
                "addr:housenumber": "81A",
                "addr:teryt:simc": 2528,
                "addr:teryt:sym_ul": 942104,
                "contact:phone": "+48 723972418",
                "contact:email": "sekretariat@zstz.piekary.pl",
                "contact:website": "http:\/\/www.zstz.piekary.pl",
                "ref:regon": "386929254",
                "operator": "Gmina Piekary \u015al\u0105skie",
                "operator:type": "government",
                "amenity": "school",
                "note": "Parent RSPO: 131025"
            }
        },
        {
            "id": 278133,
            "type": "Feature",
            "geometry": {
                "type": "Point",
                "coordinates": [
                    18.9425199,
                    50.37574
                ]
            },
            "properties": {
                "isced:level": "3",
                "ref:rspo": 278133,
                "official_name": "Iv Liceum Og\u00f3lnokszta\u0142c\u0105ce dla Doros\u0142ych w Piekarach \u015aL\u0105skich",
                "name": "Iv Liceum Og\u00f3lnokszta\u0142c\u0105ce dla Doros\u0142ych w Piekarach \u015aL\u0105skich",
                "addr:country": "PL",
                "addr:postcode": "41-940",
                "addr:city": "Piekary \u015al\u0105skie",
                "addr:street": "ul. Bytomska",
                "addr:housenumber": "81A",
                "addr:teryt:simc": 2528,
                "addr:teryt:sym_ul": 942104,
                "contact:phone": "+48 723972418",
                "contact:email": "sekretariat@zstz.piekary.pl",
                "contact:website": "http:\/\/www.zstz.piekary.pl",
                "ref:regon": "389855616",
                "operator": "Gmina Piekary \u015al\u0105skie",
                "operator:type": "government",
                "amenity": "school",
                "note": "Parent RSPO: 131025"
            }
        },
        {
            "id": 5115,
            "type": "Feature",
            "geometry": {
                "type": "Point",
                "coordinates": [
                    18.94385,
                    50.37604
                ]
            },
            "properties": {
                "isced:level": "1;2",
                "ref:rspo": 5115,
                "official_name": "Katolicka Szko\u0142a Podstawowa im.joanny Beretty Molli w Piekarach \u015aL\u0105skich",
                "name": "Katolicka Szko\u0142a Podstawowa im.joanny Beretty Molli w Piekarach \u015aL\u0105skich",
                "addr:country": "PL",
                "addr:postcode": "41-940",
                "addr:city": "Piekary \u015al\u0105skie",
                "addr:street": "ul. Bytomska",
                "addr:housenumber": "207",
                "addr:teryt:simc": 2528,
                "addr:teryt:sym_ul": 942104,
                "contact:phone": "+48 326307888",
                "contact:email": "zsk.sekretariat@gmail.com",
                "contact:website": "http:\/\/www.katolik.piekary.pl",
                "ref:regon": "243017788",
                "ref:vatin": "PL4980262098",
                "operator": "Stowarzyszenie Rodzin Katolickich Archidiecezji Katowickiej",
                "operator:type": "ngo",
                "amenity": "school"
            }
        },
        {
            "id": 128199,
            "type": "Feature",
            "geometry": {
                "type": "Point",
                "coordinates": [
                    18.9492,
                    50.37674
                ]
            },
            "properties": {
                "isced:level": "3",
                "ref:rspo": 128199,
                "official_name": "Niepubliczne Technikum Prymus w Piekarach \u015aL\u0105skich",
                "name": "Niepubliczne Technikum Prymus w Piekarach \u015aL\u0105skich",
                "addr:country": "PL",
                "addr:postcode": "41-940",
                "addr:city": "Piekary \u015al\u0105skie",
                "addr:street": "ul. Gimnazjalna",
                "addr:housenumber": "24",
                "addr:teryt:simc": 5527,
                "addr:teryt:sym_ul": 942104,
                "contact:phone": "+48 324112224",
                "contact:email": "technikum@darmoweszkoly.pl",
                "contact:website": "http:\/\/www.darmoweszkoly.pl",
                "ref:regon": "362168986",
                "operator": "Centrum Kszta\u0142cenia Prymus Sp\u00f3\u0142ka Z Ograniczon\u0105 Odpowiedzialno\u015bci\u0105",
                "operator:type": "private",
                "amenity": "school"
            }
        },
        {
            "id": 130365,
            "type": "Feature",
            "geometry": {
                "type": "Point",
                "coordinates": [
                    18.9492,
                    50.376709999999996
                ]
            },
            "properties": {
                "isced:level": "4",
                "ref:rspo": 130365,
                "official_name": "Szko\u0142a Policealna \"Prymus\" w Piekarach \u015aL\u0105skich",
                "name": "Szko\u0142a Policealna \"Prymus\" w Piekarach \u015aL\u0105skich",
                "addr:country": "PL",
                "addr:postcode": "41-940",
                "addr:city": "Piekary \u015al\u0105skie",
                "addr:street": "ul. Gimnazjalna",
                "addr:housenumber": "24",
                "addr:teryt:simc": 5527,
                "addr:teryt:sym_ul": 942104,
                "contact:phone": "+48 324112224",
                "contact:email": "piekary@darmoweszkoly.pl",
                "contact:website": "http:\/\/www.darmoweszkoly.pl",
                "ref:regon": "363920660",
                "operator": "Centrum Kszta\u0142cenia Prymus Sp\u00f3\u0142ka Z Ograniczon\u0105 Odpowiedzialno\u015bci\u0105",
                "operator:type": "private",
                "amenity": "college"
            }
        },
        {
            "id": 131024,
            "type": "Feature",
            "geometry": {
                "type": "Point",
                "coordinates": [
                    18.9492,
                    50.37668
                ]
            },
            "properties": {
                "ref:rspo": 131024,
                "official_name": "Akademicki Zesp\u00f3\u0142 Szk\u00f3\u0142 w Piekarach \u015aL\u0105skich",
                "name": "Akademicki Zesp\u00f3\u0142 Szk\u00f3\u0142 w Piekarach \u015aL\u0105skich",
                "addr:country": "PL",
                "addr:postcode": "41-940",
                "addr:city": "Piekary \u015al\u0105skie",
                "addr:street": "ul. Gimnazjalna",
                "addr:housenumber": "24",
                "addr:teryt:simc": 5527,
                "addr:teryt:sym_ul": 942104,
                "contact:phone": "+48 322872960",
                "contact:email": "sekretariat@azs.piekary.pl",
                "contact:website": "http:\/\/www.azs.piekary.pl",
                "ref:regon": "364886303",
                "operator": "Gmina Piekary \u015al\u0105skie",
                "operator:type": "government",
                "landuse": "education",
                "fixme": "amenity=school, amenity=college albo landuse=education w zale\u017cno\u015bci od tego, jakie plac\u00f3wki wchodz\u0105 w sk\u0142ad zespo\u0142u. Sprawd\u017a, kiedy stosowa\u0107 amenity=* a kiedy landuse=education.",
                "note": "Children RSPO: 17160;269701;273808"
            }
        },
        {
            "id": 17160,
            "type": "Feature",
            "geometry": {
                "type": "Point",
                "coordinates": [
                    18.9492,
                    50.37665
                ]
            },
            "properties": {
                "isced:level": "3",
                "ref:rspo": 17160,
                "official_name": "I Liceum Og\u00f3lnokszta\u0142c\u0105ce im. Kr\u00f3la Jana III Sobieskiego w Piekarach \u015aL\u0105skich",
                "name": "I Liceum Og\u00f3lnokszta\u0142c\u0105ce",
                "addr:country": "PL",
                "addr:postcode": "41-940",
                "addr:city": "Piekary \u015al\u0105skie",
                "addr:street": "ul. Gimnazjalna",
                "addr:housenumber": "24",
                "addr:teryt:simc": 5527,
                "addr:teryt:sym_ul": 942104,
                "contact:phone": "+48 322872960",
                "contact:email": "sekretariat@azs.piekary.pl",
                "contact:website": "http:\/\/www.azs.piekary.pl",
                "ref:regon": "000724710",
                "operator": "Gmina Piekary \u015al\u0105skie",
                "operator:type": "government",
                "amenity": "school",
                "note": "Parent RSPO: 131024"
            }
        },
        {
            "id": 269701,
            "type": "Feature",
            "geometry": {
                "type": "Point",
                "coordinates": [
                    18.9492,
                    50.376619999999996
                ]
            },
            "properties": {
                "isced:level": "4",
                "ref:rspo": 269701,
                "official_name": "Szko\u0142a Policealna Nr 2 w Piekarach \u015aL\u0105skich",
                "name": "Szko\u0142a Policealna Nr 2 w Piekarach \u015aL\u0105skich",
                "addr:country": "PL",
                "addr:postcode": "41-940",
                "addr:city": "Piekary \u015al\u0105skie",
                "addr:street": "ul. Gimnazjalna",
                "addr:housenumber": "24",
                "addr:teryt:simc": 5527,
                "addr:teryt:sym_ul": 942104,
                "contact:phone": "+48 322872960",
                "contact:email": "sekretariat@azs.piekary.pl",
                "contact:website": "http:\/\/www.azs.piekary.pl",
                "ref:regon": "381686396",
                "operator": "Gmina Piekary \u015al\u0105skie",
                "operator:type": "government",
                "amenity": "college",
                "note": "Parent RSPO: 131024"
            }
        },
        {
            "id": 273808,
            "type": "Feature",
            "geometry": {
                "type": "Point",
                "coordinates": [
                    18.9492,
                    50.37659
                ]
            },
            "properties": {
                "isced:level": "3",
                "ref:rspo": 273808,
                "official_name": "Iii Liceum Og\u00f3lnokszta\u0142c\u0105ce dla Doros\u0142ych w Piekarach \u015aL\u0105skich",
                "name": "Iii Liceum Og\u00f3lnokszta\u0142c\u0105ce dla Doros\u0142ych w Piekarach \u015aL\u0105skich",
                "addr:country": "PL",
                "addr:postcode": "41-943",
                "addr:city": "Piekary \u015al\u0105skie",
                "addr:street": "ul. Gimnazjalna",
                "addr:housenumber": "24",
                "addr:teryt:simc": 5527,
                "addr:teryt:sym_ul": 942104,
                "contact:phone": "+48 322872960",
                "contact:email": "sekretariat@azs.piekary.pl",
                "ref:regon": "384663881",
                "operator": "Gmina Piekary \u015al\u0105skie",
                "operator:type": "government",
                "amenity": "school",
                "note": "Parent RSPO: 131024"
            }
        },
        {
            "id": 84212,
            "type": "Feature",
            "geometry": {
                "type": "Point",
                "coordinates": [
                    18.93948,
                    50.37959
                ]
            },
            "properties": {
                "ref:rspo": 84212,
                "official_name": "Miejskie Przedszkole Nr 3 w Piekarach \u015aL\u0105skich",
                "name": "Miejskie Przedszkole Nr 3 w Piekarach \u015aL\u0105skich",
                "addr:country": "PL",
                "addr:postcode": "41-940",
                "addr:city": "Piekary \u015al\u0105skie",
                "addr:street": "ul. Marsza\u0142ka J\u00f3zefa Pi\u0142sudskiego",
                "addr:housenumber": "17",
                "addr:teryt:simc": 36029,
                "addr:teryt:sym_ul": 942104,
                "contact:phone": "+48 322871085",
                "contact:email": "mp3@piekary.pl",
                "ref:regon": "272002123",
                "ref:vatin": "PL4980001529",
                "operator": "Gmina Piekary \u015al\u0105skie",
                "operator:type": "government",
                "amenity": "kindergarten"
            }
        },
        {
            "id": 5451,
            "type": "Feature",
            "geometry": {
                "type": "Point",
                "coordinates": [
                    18.94361,
                    50.38093
                ]
            },
            "properties": {
                "ref:rspo": 5451,
                "official_name": "Niepubliczne Przedszkole Katolickie Anio\u0142a Str\u00f3\u017ca",
                "name": "Niepubliczne Przedszkole Katolickie Anio\u0142a Str\u00f3\u017ca",
                "addr:country": "PL",
                "addr:postcode": "41-940",
                "addr:city": "Piekary \u015al\u0105skie",
                "addr:street": "ul. Bytomska",
                "addr:housenumber": "136",
                "addr:teryt:simc": 2528,
                "addr:teryt:sym_ul": 942104,
                "contact:email": "aniolstrozprzedszkole.piekary@gmail.com",
                "ref:regon": "243019669",
                "ref:vatin": "PL6451695183",
                "operator": "Violetta Kocot",
                "operator:type": "private",
                "amenity": "kindergarten"
            }
        },
        {
            "id": 15826,
            "type": "Feature",
            "geometry": {
                "type": "Point",
                "coordinates": [
                    18.938,
                    50.38113
                ]
            },
            "properties": {
                "isced:level": "1;2",
                "ref:rspo": 15826,
                "official_name": "Miejska Szko\u0142a Podstawowa Nr 5 im. Wawrzy\u0144ca Hajdy w Piekarach \u015aL\u0105skich",
                "name": "Miejska Szko\u0142a Podstawowa Nr 5",
                "addr:country": "PL",
                "addr:postcode": "41-940",
                "addr:city": "Piekary \u015al\u0105skie",
                "addr:street": "ul. Fryderyka Chopina",
                "addr:housenumber": "11",
                "addr:teryt:simc": 2849,
                "addr:teryt:sym_ul": 942104,
                "contact:phone": "+48 322871777",
                "contact:email": "msp5@poczta.fm",
                "contact:website": "http:\/\/msp5piekary.edupage.org",
                "ref:regon": "000724790",
                "ref:vatin": "PL4980001297",
                "operator": "Gmina Piekary \u015al\u0105skie",
                "operator:type": "government",
                "amenity": "school"
            }
        },
        {
            "id": 268193,
            "type": "Feature",
            "geometry": {
                "type": "Point",
                "coordinates": [
                    18.95039,
                    50.38258
                ]
            },
            "properties": {
                "isced:level": "1;2",
                "ref:rspo": 268193,
                "official_name": "Miejska Szko\u0142a Podstawowa Nr 2 w Piekarach \u015aL\u0105skich",
                "name": "Miejska Szko\u0142a Podstawowa Nr 2 w Piekarach \u015aL\u0105skich",
                "addr:country": "PL",
                "addr:postcode": "41-940",
                "addr:city": "Piekary \u015al\u0105skie",
                "addr:street": "ul. Ks. Jerzego Popie\u0142uszki",
                "addr:housenumber": "8",
                "addr:teryt:simc": 48112,
                "addr:teryt:sym_ul": 942104,
                "contact:phone": "+48 322871735",
                "contact:email": "sekretariat@mg2.piekary.edu.pl",
                "contact:website": "https:\/\/mg2piekary.edupage.org",
                "ref:regon": "381010919",
                "ref:vatin": "PL4980268965",
                "operator": "Gmina Piekary \u015al\u0105skie",
                "operator:type": "government",
                "amenity": "school"
            }
        },
        {
            "id": 17442,
            "type": "Feature",
            "geometry": {
                "type": "Point",
                "coordinates": [
                    18.944,
                    50.3827799
                ]
            },
            "properties": {
                "ref:rspo": 17442,
                "official_name": "M\u0142odzie\u017cowy Dom Kultury Nr 2 w Piekarach \u015aL\u0105skich",
                "name": "M\u0142odzie\u017cowy Dom Kultury Nr 2 w Piekarach \u015aL\u0105skich",
                "addr:country": "PL",
                "addr:postcode": "41-940",
                "addr:city": "Piekary \u015al\u0105skie",
                "addr:street": "ul. Bytomska",
                "addr:housenumber": "152",
                "addr:teryt:simc": 2528,
                "addr:teryt:sym_ul": 942104,
                "contact:phone": "+48 323072820",
                "contact:email": "sekretariatmdk2@op.pl",
                "contact:website": "http:\/\/www.mdk2.piekary.pl",
                "ref:regon": "000724749",
                "operator": "Gmina Piekary \u015al\u0105skie",
                "operator:type": "government",
                "amenity": "community_centre",
                "community_centre:for": "juvenile"
            }
        },
        {
            "id": 5853,
            "type": "Feature",
            "geometry": {
                "type": "Point",
                "coordinates": [
                    18.95086,
                    50.38537
                ]
            },
            "properties": {
                "ref:rspo": 5853,
                "official_name": "Miejskie Przedszkole Nr 17 w Piekarach \u015aL\u0105skich",
                "name": "Miejskie Przedszkole Nr 17 w Piekarach \u015aL\u0105skich",
                "addr:country": "PL",
                "addr:postcode": "41-940",
                "addr:city": "Piekary \u015al\u0105skie",
                "addr:street": "ul. Piotra Skargi",
                "addr:housenumber": "55",
                "addr:teryt:simc": 20012,
                "addr:teryt:sym_ul": 942104,
                "contact:phone": "+48 322873927",
                "contact:email": "mp17@piekary.pl",
                "ref:regon": "272002264",
                "ref:vatin": "PL4980001469",
                "operator": "Gmina Piekary \u015al\u0105skie",
                "operator:type": "government",
                "amenity": "kindergarten"
            }
        },
        {
            "id": 16246,
            "type": "Feature",
            "geometry": {
                "type": "Point",
                "coordinates": [
                    18.9594099,
                    50.38691
                ]
            },
            "properties": {
                "isced:level": "1;2",
                "ref:rspo": 16246,
                "official_name": "Miejska Szko\u0142a Podstawowa Nr 11 w Piekarach \u015aL\u0105skich",
                "name": "Miejska Szko\u0142a Podstawowa Nr 11 w Piekarach \u015aL\u0105skich",
                "addr:country": "PL",
                "addr:postcode": "41-943",
                "addr:city": "Piekary \u015al\u0105skie",
                "addr:street": "ul. \u015al\u0105ska",
                "addr:housenumber": "8",
                "addr:teryt:simc": 22308,
                "addr:teryt:sym_ul": 942104,
                "contact:phone": "+48 322872709",
                "contact:email": "podstawowa11@interia.pl",
                "ref:regon": "000724650",
                "ref:vatin": "PL4980001305",
                "operator": "Gmina Piekary \u015al\u0105skie",
                "operator:type": "government",
                "amenity": "school"
            }
        },
        {
            "id": 5842,
            "type": "Feature",
            "geometry": {
                "type": "Point",
                "coordinates": [
                    18.9533999,
                    50.38926
                ]
            },
            "properties": {
                "ref:rspo": 5842,
                "official_name": "Miejskie Przedszkole Nr 4 im. Jana Brzechwy w Piekarach \u015aL\u0105skich",
                "name": "Miejskie Przedszkole Nr 4",
                "addr:country": "PL",
                "addr:postcode": "41-943",
                "addr:city": "Piekary \u015al\u0105skie",
                "addr:street": "ul. Ofiar Katynia",
                "addr:housenumber": "6",
                "addr:teryt:simc": 14793,
                "addr:teryt:sym_ul": 942104,
                "contact:phone": "+48 322872389",
                "contact:email": "mp4@piekary.pl",
                "contact:website": "http:\/\/www.mp4piekary.szkolnastrona.pl",
                "ref:regon": "272002130",
                "ref:vatin": "PL4980001498",
                "operator": "Gmina Piekary \u015al\u0105skie",
                "operator:type": "government",
                "amenity": "kindergarten"
            }
        },
        {
            "id": 5843,
            "type": "Feature",
            "geometry": {
                "type": "Point",
                "coordinates": [
                    18.95796,
                    50.3898
                ]
            },
            "properties": {
                "ref:rspo": 5843,
                "official_name": "Miejskie Przedszkole Nr 5 Z Oddzia\u0142ami Integracyjnymi w Piekarach \u015aL\u0105skich",
                "name": "Miejskie Przedszkole Nr 5 Z Oddzia\u0142ami Integracyjnymi w Piekarach \u015aL\u0105skich",
                "addr:country": "PL",
                "addr:postcode": "41-943",
                "addr:city": "Piekary \u015al\u0105skie",
                "addr:street": "ul. Alojzjan\u00f3w",
                "addr:housenumber": "5",
                "addr:teryt:simc": 241,
                "addr:teryt:sym_ul": 942104,
                "contact:phone": "+48 322873549",
                "contact:email": "mp5@piekary.pl",
                "ref:regon": "272002146",
                "ref:vatin": "PL4980001481",
                "operator": "Gmina Piekary \u015al\u0105skie",
                "operator:type": "government",
                "amenity": "kindergarten"
            }
        },
        {
            "id": 263541,
            "type": "Feature",
            "geometry": {
                "type": "Point",
                "coordinates": [
                    18.95623,
                    50.39078
                ]
            },
            "properties": {
                "ref:rspo": 263541,
                "official_name": "Zesp\u00f3\u0142 Szk\u00f3\u0142 Specjalnych w Piekarach \u015aL\u0105skich",
                "name": "Zesp\u00f3\u0142 Szk\u00f3\u0142 Specjalnych w Piekarach \u015aL\u0105skich",
                "addr:country": "PL",
                "addr:postcode": "41-943",
                "addr:city": "Piekary \u015al\u0105skie",
                "addr:street": "ul. Armii Krajowej",
                "addr:housenumber": "2",
                "addr:teryt:simc": 432,
                "addr:teryt:sym_ul": 942104,
                "contact:phone": "+48 322871564",
                "contact:email": "zsspiekary@wp.pl",
                "contact:website": "http:\/\/www.zsspiekary.pl",
                "ref:regon": "368198942",
                "operator": "Gmina Piekary \u015al\u0105skie",
                "operator:type": "government",
                "landuse": "education",
                "fixme": "amenity=school, amenity=college albo landuse=education w zale\u017cno\u015bci od tego, jakie plac\u00f3wki wchodz\u0105 w sk\u0142ad zespo\u0142u. Sprawd\u017a, kiedy stosowa\u0107 amenity=* a kiedy landuse=education.",
                "note": "Children RSPO: 19144;19196"
            }
        },
        {
            "id": 19144,
            "type": "Feature",
            "geometry": {
                "type": "Point",
                "coordinates": [
                    18.95623,
                    50.39075
                ]
            },
            "properties": {
                "isced:level": "1;2",
                "ref:rspo": 19144,
                "official_name": "Miejska Szko\u0142a Podstawowa Specjalna im. Marii Grzegorzewskiej w Piekarach \u015aL\u0105skich",
                "name": "Miejska Szko\u0142a Podstawowa Specjalna",
                "addr:country": "PL",
                "addr:postcode": "41-943",
                "addr:city": "Piekary \u015al\u0105skie",
                "addr:street": "ul. Armii Krajowej",
                "addr:housenumber": "2",
                "addr:teryt:simc": 432,
                "addr:teryt:sym_ul": 942104,
                "contact:phone": "+48 322871564",
                "contact:email": "zsspiekary@wp.pl",
                "contact:website": "http:\/\/www.zsspiekary.pl",
                "ref:regon": "000724620",
                "operator": "Gmina Piekary \u015al\u0105skie",
                "operator:type": "government",
                "amenity": "school",
                "note": "Parent RSPO: 263541"
            }
        },
        {
            "id": 19196,
            "type": "Feature",
            "geometry": {
                "type": "Point",
                "coordinates": [
                    18.95623,
                    50.39072
                ]
            },
            "properties": {
                "ref:rspo": 19196,
                "official_name": "Szko\u0142a Przysposabiaj\u0105ca Do Pracy w Piekarach \u015aL\u0105skich",
                "name": "Szko\u0142a Przysposabiaj\u0105ca Do Pracy w Piekarach \u015aL\u0105skich",
                "addr:country": "PL",
                "addr:postcode": "41-943",
                "addr:city": "Piekary \u015al\u0105skie",
                "addr:street": "ul. Armii Krajowej",
                "addr:housenumber": "2",
                "addr:teryt:simc": 432,
                "addr:teryt:sym_ul": 942104,
                "contact:phone": "+48 322871564",
                "contact:email": "zsspiekary@wp.pl",
                "contact:website": "http:\/\/www.zsspiekary.pl",
                "ref:regon": "242722415",
                "operator": "Gmina Piekary \u015al\u0105skie",
                "operator:type": "government",
                "amenity": "school",
                "note": "Parent RSPO: 263541"
            }
        },
        {
            "id": 84164,
            "type": "Feature",
            "geometry": {
                "type": "Point",
                "coordinates": [
                    18.95439,
                    50.39085
                ]
            },
            "properties": {
                "ref:rspo": 84164,
                "official_name": "Miejskie Przedszkole Nr 2 w Piekarach \u015aL\u0105skich",
                "name": "Miejskie Przedszkole Nr 2 w Piekarach \u015aL\u0105skich",
                "addr:country": "PL",
                "addr:postcode": "41-940",
                "addr:city": "Piekary \u015al\u0105skie",
                "addr:street": "ul. Cicha",
                "addr:housenumber": "38",
                "addr:teryt:simc": 2974,
                "addr:teryt:sym_ul": 942104,
                "contact:phone": "+48 322872388",
                "contact:email": "mp2@piekary.pl",
                "contact:website": "http:\/\/www.mp2piekary.szkolnastrona.pl",
                "ref:regon": "272002117",
                "ref:vatin": "PL4980001475",
                "operator": "Gmina Piekary \u015al\u0105skie",
                "operator:type": "government",
                "amenity": "kindergarten"
            }
        },
        {
            "id": 5847,
            "type": "Feature",
            "geometry": {
                "type": "Point",
                "coordinates": [
                    18.96552,
                    50.39139
                ]
            },
            "properties": {
                "ref:rspo": 5847,
                "official_name": "Miejskie Przedszkole Nr 8 w Piekarach \u015aL\u0105skich",
                "name": "Miejskie Przedszkole Nr 8 w Piekarach \u015aL\u0105skich",
                "addr:country": "PL",
                "addr:postcode": "41-943",
                "addr:city": "Piekary \u015al\u0105skie",
                "addr:street": "ul. ks. J\u00f3zefa Czempiela",
                "addr:housenumber": "5",
                "addr:teryt:simc": 3366,
                "addr:teryt:sym_ul": 942104,
                "contact:phone": "+48 322871655",
                "contact:email": "mp8@piekary.pl",
                "ref:regon": "272002175",
                "ref:vatin": "PL4980001386",
                "operator": "Gmina Piekary \u015al\u0105skie",
                "operator:type": "government",
                "amenity": "kindergarten"
            }
        },
        {
            "id": 5845,
            "type": "Feature",
            "geometry": {
                "type": "Point",
                "coordinates": [
                    18.95711,
                    50.3939499
                ]
            },
            "properties": {
                "ref:rspo": 5845,
                "official_name": "Miejskie Przedszkole Nr 7 w Piekarach \u015aL\u0105skich",
                "name": "Miejskie Przedszkole Nr 7 w Piekarach \u015aL\u0105skich",
                "addr:country": "PL",
                "addr:postcode": "41-943",
                "addr:city": "Piekary \u015al\u0105skie",
                "addr:street": "ul. Gen. J\u00f3zefa Hallera",
                "addr:housenumber": "1",
                "addr:teryt:simc": 48104,
                "addr:teryt:sym_ul": 942104,
                "contact:phone": "+48 322871518",
                "contact:email": "mp7@piekary.pl",
                "contact:website": "http:\/\/www.puchatkowo.piekary.pl",
                "ref:regon": "272002169",
                "ref:vatin": "PL4980001512",
                "operator": "Gmina Piekary \u015al\u0105skie",
                "operator:type": "government",
                "amenity": "kindergarten"
            }
        },
        {
            "id": 16140,
            "type": "Feature",
            "geometry": {
                "type": "Point",
                "coordinates": [
                    18.95883,
                    50.39586
                ]
            },
            "properties": {
                "isced:level": "1;2",
                "ref:rspo": 16140,
                "official_name": "Miejska Szko\u0142a Podstawowa Nr 9 Z Oddzia\u0142ami Integracyjnymi im. Gustawa Morcinka w Piekarach \u015aL\u0105skich",
                "name": "Miejska Szko\u0142a Podstawowa Nr 9 Z Oddzia\u0142ami Integracyjnymi",
                "addr:country": "PL",
                "addr:postcode": "41-943",
                "addr:city": "Piekary \u015al\u0105skie",
                "addr:street": "ul. ksi\u0119dza Gerarda Waculika",
                "addr:housenumber": "10",
                "addr:teryt:simc": 48055,
                "addr:teryt:sym_ul": 942104,
                "contact:phone": "+48 322871826",
                "contact:email": "msp9@wp.pl",
                "contact:website": "http:\/\/msp9.piekaryslaskie.szkolnastrona.pl",
                "ref:regon": "000724637",
                "ref:vatin": "PL4980001311",
                "operator": "Gmina Piekary \u015al\u0105skie",
                "operator:type": "government",
                "amenity": "school"
            }
        },
        {
            "id": 16661,
            "type": "Feature",
            "geometry": {
                "type": "Point",
                "coordinates": [
                    18.94781,
                    50.41051
                ]
            },
            "properties": {
                "ref:rspo": 16661,
                "official_name": "Zesp\u00f3\u0142 Szkolno-Przedszkolny Nr 1 w Piekarach \u015aL\u0105skich",
                "name": "Zesp\u00f3\u0142 Szkolno-Przedszkolny Nr 1 w Piekarach \u015aL\u0105skich",
                "addr:country": "PL",
                "addr:postcode": "41-945",
                "addr:city": "Piekary \u015al\u0105skie",
                "addr:street": "ul. Tarnog\u00f3rska",
                "addr:housenumber": "40",
                "addr:teryt:simc": 22677,
                "addr:teryt:sym_ul": 942104,
                "contact:phone": "+48 322875476",
                "contact:email": "zsp1@piekary.pl",
                "contact:website": "http:\/\/www.piekaryzsp1.edupage.org",
                "ref:regon": "240431139",
                "operator": "Gmina Piekary \u015al\u0105skie",
                "operator:type": "government",
                "landuse": "education",
                "fixme": "amenity=school, amenity=college albo landuse=education w zale\u017cno\u015bci od tego, jakie plac\u00f3wki wchodz\u0105 w sk\u0142ad zespo\u0142u. Sprawd\u017a, kiedy stosowa\u0107 amenity=* a kiedy landuse=education.",
                "note": "Children RSPO: 16630;16650"
            }
        },
        {
            "id": 16630,
            "type": "Feature",
            "geometry": {
                "type": "Point",
                "coordinates": [
                    18.94781,
                    50.41048
                ]
            },
            "properties": {
                "isced:level": "1;2",
                "ref:rspo": 16630,
                "official_name": "Miejska Szko\u0142a Podstawowa Nr 3 im. Mi\u0142o\u015bnik\u00f3w Ziemi Piekarskiej w Piekarach \u015aL\u0105skich",
                "name": "Miejska Szko\u0142a Podstawowa Nr 3",
                "addr:country": "PL",
                "addr:postcode": "41-945",
                "addr:city": "Piekary \u015al\u0105skie",
                "addr:street": "ul. Tarnog\u00f3rska",
                "addr:housenumber": "40",
                "addr:teryt:simc": 22677,
                "addr:teryt:sym_ul": 942104,
                "contact:phone": "+48 322875476",
                "contact:email": "zsp1@piekary.pl",
                "ref:regon": "000724778",
                "operator": "Gmina Piekary \u015al\u0105skie",
                "operator:type": "government",
                "amenity": "school",
                "note": "Parent RSPO: 16661"
            }
        },
        {
            "id": 16650,
            "type": "Feature",
            "geometry": {
                "type": "Point",
                "coordinates": [
                    18.94781,
                    50.410450000000004
                ]
            },
            "properties": {
                "ref:rspo": 16650,
                "official_name": "Miejskie Przedszkole Nr 9",
                "name": "Miejskie Przedszkole Nr 9",
                "addr:country": "PL",
                "addr:postcode": "41-945",
                "addr:city": "Piekary \u015al\u0105skie",
                "addr:street": "ul. Tarnog\u00f3rska",
                "addr:housenumber": "40",
                "addr:teryt:simc": 22677,
                "addr:teryt:sym_ul": 942104,
                "contact:phone": "+48 322875476",
                "contact:email": "zsp1@piekary.pl",
                "ref:regon": "272002181",
                "operator": "Gmina Piekary \u015al\u0105skie",
                "operator:type": "government",
                "amenity": "kindergarten",
                "note": "Parent RSPO: 16661"
            }
        },
        {
            "id": 133179,
            "type": "Feature",
            "geometry": {
                "type": "Point",
                "coordinates": [
                    18.94811,
                    50.41228
                ]
            },
            "properties": {
                "ref:rspo": 133179,
                "official_name": "Iskierka Centrum Terapeutyczno Przedszkolne Przedszkole Niepubliczne Z Oddzia\u0142em Integracyjnym I Specjalnym",
                "name": "Iskierka Centrum Terapeutyczno Przedszkolne Przedszkole Niepubliczne Z Oddzia\u0142em Integracyjnym I Specjalnym",
                "addr:country": "PL",
                "addr:postcode": "41-945",
                "addr:city": "Piekary \u015al\u0105skie",
                "addr:street": "ul. Tarnog\u00f3rska",
                "addr:housenumber": "27",
                "addr:teryt:simc": 22677,
                "addr:teryt:sym_ul": 942104,
                "contact:phone": "+48 507139510",
                "contact:email": "masekanna@gmail.com",
                "ref:regon": "366769984",
                "operator": "Anna Masek",
                "operator:type": "private",
                "amenity": "kindergarten"
            }
        }
    ]
}