{
    "type": "FeatureCollection",
    "features": [
        {
            "id": 88699,
            "type": "Feature",
            "geometry": {
                "type": "Point",
                "coordinates": [
                    22.02368,
                    50.93618
                ]
            },
            "properties": {
                "isced:level": "1;2",
                "ref:rspo": 88699,
                "official_name": "Publiczna Szko\u0142a Podstawowa w Ludmi\u0142\u00f3wce",
                "name": "Publiczna Szko\u0142a Podstawowa w Ludmi\u0142\u00f3wce",
                "addr:postcode": "23-251",
                "addr:place": "Ludmi\u0142\u00f3wka",
                "addr:housenumber": "33",
                "addr:city:simc": 380280,
                "phone": "+48 818221013",
                "email": "ludmilowka@gmail.com",
                "website": "http:\/\/www.spludmilowka.szkolnastrona.pl",
                "ref:regon": "061493587",
                "ref:vatin": "PL7151907368",
                "operator": "Stowarzyszenie \"Szansa Dla Ludmi\u0142\u00f3wki\"",
                "operator:type": "ngo",
                "amenity": "school"
            }
        },
        {
            "id": 115623,
            "type": "Feature",
            "geometry": {
                "type": "Point",
                "coordinates": [
                    22.02368,
                    50.93615
                ]
            },
            "properties": {
                "ref:rspo": 115623,
                "official_name": "Publiczny Punkt Przedszkolny w Ludmi\u0142\u00f3wce",
                "name": "Publiczny Punkt Przedszkolny w Ludmi\u0142\u00f3wce",
                "addr:postcode": "23-251",
                "addr:place": "Ludmi\u0142\u00f3wka",
                "addr:housenumber": "33",
                "addr:city:simc": 380280,
                "phone": "+48 818221013",
                "email": "ludmilowka@gmial.com",
                "website": "http:\/\/www.spludmilowka.szkolnastrona.pl",
                "ref:regon": "061579389",
                "operator": "Stowarzyszenie \"Szansa Dla Ludmi\u0142\u00f3wki\"",
                "operator:type": "ngo",
                "amenity": "kindergarten"
            }
        },
        {
            "id": 115622,
            "type": "Feature",
            "geometry": {
                "type": "Point",
                "coordinates": [
                    22.15153,
                    50.94273
                ]
            },
            "properties": {
                "isced:level": "1;2",
                "ref:rspo": 115622,
                "official_name": "Szko\u0142a Podstawowa w Wy\u017cnicy",
                "name": "Szko\u0142a Podstawowa w Wy\u017cnicy",
                "addr:postcode": "23-251",
                "addr:place": "Wy\u017cnica",
                "addr:housenumber": "33",
                "addr:city:simc": 380333,
                "phone": "+48 818261552",
                "email": "spwyznica@onet.eu",
                "ref:regon": "061579047",
                "operator": "Stowarzyszenie \"Razem Dla Przysz\u0142o\u015bci\"",
                "operator:type": "ngo",
                "amenity": "school"
            }
        },
        {
            "id": 132757,
            "type": "Feature",
            "geometry": {
                "type": "Point",
                "coordinates": [
                    22.15153,
                    50.942699999999995
                ]
            },
            "properties": {
                "ref:rspo": 132757,
                "official_name": "Punkt Przedszkolny Przy Szkole Podstawowej w Wy\u017cnicy",
                "name": "Punkt Przedszkolny Przy Szkole Podstawowej w Wy\u017cnicy",
                "addr:postcode": "23-251",
                "addr:place": "Wy\u017cnica",
                "addr:housenumber": "33",
                "addr:city:simc": 380333,
                "phone": "+48 818261552",
                "email": "spwyznica@onet.eu",
                "ref:regon": "366203550",
                "operator": "Stowarzyszenie \"Razem Dla Przysz\u0142o\u015bci\"",
                "operator:type": "ngo",
                "amenity": "kindergarten"
            }
        },
        {
            "id": 68615,
            "type": "Feature",
            "geometry": {
                "type": "Point",
                "coordinates": [
                    22.13622,
                    50.94982
                ]
            },
            "properties": {
                "ref:rspo": 68615,
                "official_name": "Szko\u0142a Muzyczna I St. im. Jana z Lublina",
                "name": "Szko\u0142a Muzyczna I St.",
                "addr:postcode": "23-204",
                "addr:place": "Wy\u017cnianka-Kolonia",
                "addr:housenumber": "125",
                "addr:city:simc": 380327,
                "email": "romanbis@poczta.onet.pl",
                "website": "http:\/\/muzyka.krasnik.pl",
                "ref:regon": "061480656",
                "operator": "Roman Bis",
                "operator:type": "private",
                "amenity": "music_school"
            }
        },
        {
            "id": 85145,
            "type": "Feature",
            "geometry": {
                "type": "Point",
                "coordinates": [
                    22.08373,
                    50.95916
                ]
            },
            "properties": {
                "ref:rspo": 85145,
                "official_name": "Zesp\u00f3\u0142 Plac\u00f3wek O\u015bwiatowych im. Batalion\u00f3w Ch\u0142opskich w Terpentynie",
                "name": "Zesp\u00f3\u0142 Plac\u00f3wek O\u015bwiatowych",
                "addr:postcode": "23-251",
                "addr:place": "Terpentyna",
                "addr:housenumber": "182",
                "addr:city:simc": 380304,
                "phone": "+48 818221002",
                "email": "sekretariat@zpo-terpentyna.pl",
                "website": "http:\/\/zpo-terpentyna.pl",
                "ref:regon": "430719103",
                "ref:vatin": "PL7151323963",
                "operator": "Gmina Dzierzkowice",
                "operator:type": "government",
                "landuse": "education",
                "fixme": "amenity=school, amenity=college albo landuse=education w zale\u017cno\u015bci od tego, jakie plac\u00f3wki wchodz\u0105 w sk\u0142ad zespo\u0142u. Sprawd\u017a, kiedy stosowa\u0107 amenity=* a kiedy landuse=education.",
                "note": "Children RSPO: 109575;109655;115059;129643"
            }
        },
        {
            "id": 109575,
            "type": "Feature",
            "geometry": {
                "type": "Point",
                "coordinates": [
                    22.08373,
                    50.959129999999995
                ]
            },
            "properties": {
                "isced:level": "1;2",
                "ref:rspo": 109575,
                "official_name": "Szko\u0142a Podstawowa im. Batalion\u00f3w Ch\u0142opskich w Terpentynie",
                "name": "Szko\u0142a Podstawowa",
                "addr:postcode": "23-251",
                "addr:place": "Terpentyna",
                "addr:housenumber": "182",
                "addr:city:simc": 380304,
                "phone": "+48 818221002",
                "email": "sekretariat@zpo-terpentyna.pl",
                "website": "http:\/\/zpo-terpentyna.pl",
                "ref:regon": "431236921",
                "operator": "Gmina Dzierzkowice",
                "operator:type": "government",
                "amenity": "school",
                "note": "Children RSPO: 109656Parent RSPO: 85145"
            }
        },
        {
            "id": 109655,
            "type": "Feature",
            "geometry": {
                "type": "Point",
                "coordinates": [
                    22.08321,
                    50.95933
                ]
            },
            "properties": {
                "ref:rspo": 109655,
                "official_name": "Przedszkole w Terpentynie",
                "name": "Przedszkole w Terpentynie",
                "addr:postcode": "23-251",
                "addr:place": "Terpentyna",
                "addr:housenumber": "182A",
                "addr:city:simc": 380304,
                "phone": "+48 818221036",
                "ref:regon": "431236915",
                "operator": "Gmina Dzierzkowice",
                "operator:type": "government",
                "amenity": "kindergarten",
                "note": "Parent RSPO: 85145"
            }
        },
        {
            "id": 129643,
            "type": "Feature",
            "geometry": {
                "type": "Point",
                "coordinates": [
                    22.0316969,
                    50.9808348
                ]
            },
            "properties": {
                "ref:rspo": 129643,
                "official_name": "Szkolne Schronisko M\u0142odzie\u017cowe w Dzierzkowicach-Woli",
                "name": "Szkolne Schronisko M\u0142odzie\u017cowe w Dzierzkowicach-Woli",
                "addr:postcode": "23-251",
                "addr:place": "Dzierzkowice-Wola",
                "addr:housenumber": "184",
                "addr:city:simc": 380267,
                "phone": "+48 818221002",
                "ref:regon": "362704500",
                "operator": "Gmina Dzierzkowice",
                "operator:type": "government",
                "tourism": "hostel",
                "note": "Parent RSPO: 85145"
            }
        },
        {
            "id": 115059,
            "type": "Feature",
            "geometry": {
                "type": "Point",
                "coordinates": [
                    22.03159,
                    50.98124
                ]
            },
            "properties": {
                "ref:rspo": 115059,
                "official_name": "Punkt Przedszkolny w Dzierzkowicach-Woli",
                "name": "Punkt Przedszkolny w Dzierzkowicach-Woli",
                "addr:postcode": "23-251",
                "addr:place": "Dzierzkowice-Wola",
                "addr:housenumber": "184B",
                "addr:city:simc": 380267,
                "phone": "+48 818221002",
                "ref:regon": "061569066",
                "operator": "Gmina Dzierzkowice",
                "operator:type": "government",
                "amenity": "kindergarten",
                "note": "Parent RSPO: 85145"
            }
        },
        {
            "id": 109656,
            "type": "Feature",
            "geometry": {
                "type": "Point",
                "coordinates": [
                    22.03159,
                    50.98121
                ]
            },
            "properties": {
                "isced:level": "1;2",
                "ref:rspo": 109656,
                "official_name": "Filia Szko\u0142y Podstawowej w Terpentynie",
                "name": "Filia Szko\u0142y Podstawowej w Terpentynie",
                "addr:postcode": "23-251",
                "addr:place": "Dzierzkowice-Wola",
                "addr:housenumber": "184B",
                "addr:city:simc": 380267,
                "phone": "+48 818221033",
                "ref:regon": "431236921",
                "operator": "Gmina Dzierzkowice",
                "operator:type": "government",
                "amenity": "school",
                "note": "Parent RSPO: 109575"
            }
        }
    ]
}