{
    "type": "FeatureCollection",
    "features": [
        {
            "id": 57104,
            "type": "Feature",
            "geometry": {
                "type": "Point",
                "coordinates": [
                    22.13922,
                    50.99261
                ]
            },
            "properties": {
                "ref:rspo": 57104,
                "official_name": "Zesp\u00f3\u0142 Szk\u00f3\u0142 Og\u00f3lnokszta\u0142c\u0105cych im. W\u0142adys\u0142awa Jagie\u0142\u0142y w Urz\u0119dowie",
                "name": "Zesp\u00f3\u0142 Szk\u00f3\u0142 Og\u00f3lnokszta\u0142c\u0105cych",
                "addr:postcode": "23-250",
                "addr:city": "Urz\u0119d\u00f3w",
                "addr:street": "Wodna",
                "addr:housenumber": "24",
                "addr:teryt:simc": 392684,
                "addr:teryt:sym_ul": 24550,
                "phone": "+48 818225002",
                "email": "zso@zso.urzedow.pl",
                "website": "http:\/\/www.zsourzedow.pl",
                "ref:regon": "430421964",
                "ref:vatin": "PL7151642409",
                "operator": "Gmina Urz\u0119d\u00f3w",
                "operator:type": "government",
                "landuse": "education",
                "fixme": "amenity=school, amenity=college albo landuse=education w zale\u017cno\u015bci od tego, jakie plac\u00f3wki wchodz\u0105 w sk\u0142ad zespo\u0142u. Sprawd\u017a, kiedy stosowa\u0107 amenity=* a kiedy landuse=education.",
                "note": "Children RSPO: 86900;86901"
            }
        },
        {
            "id": 86900,
            "type": "Feature",
            "geometry": {
                "type": "Point",
                "coordinates": [
                    22.13922,
                    50.99258
                ]
            },
            "properties": {
                "isced:level": "3",
                "ref:rspo": 86900,
                "official_name": "Zesp\u00f3\u0142 Szk\u00f3\u0142 Og\u00f3lnokszta\u0142c\u0105cych im. W\u0142adys\u0142awa Jagie\u0142\u0142y Liceum Og\u00f3lnokszta\u0142c\u0105ce w Urz\u0119dowie",
                "name": "Zesp\u00f3\u0142 Szk\u00f3\u0142 Og\u00f3lnokszta\u0142c\u0105cych",
                "addr:postcode": "23-250",
                "addr:city": "Urz\u0119d\u00f3w",
                "addr:street": "Wodna",
                "addr:housenumber": "24",
                "addr:teryt:simc": 392684,
                "addr:teryt:sym_ul": 24550,
                "phone": "+48 818225002",
                "email": "zso@zso.urzedow.pl",
                "website": "http:\/\/www.zsourzedow.pl",
                "ref:regon": "430421970",
                "operator": "Gmina Urz\u0119d\u00f3w",
                "operator:type": "government",
                "amenity": "school",
                "note": "Parent RSPO: 57104"
            }
        },
        {
            "id": 86901,
            "type": "Feature",
            "geometry": {
                "type": "Point",
                "coordinates": [
                    22.13922,
                    50.99255
                ]
            },
            "properties": {
                "isced:level": "1;2",
                "ref:rspo": 86901,
                "official_name": "Zesp\u00f3\u0142 Szk\u00f3\u0142 Og\u00f3lnokszta\u0142c\u0105cych im. W\u0142adys\u0142awa Jagie\u0142\u0142y Szko\u0142a Podstawowa w Urz\u0119dowie",
                "name": "Zesp\u00f3\u0142 Szk\u00f3\u0142 Og\u00f3lnokszta\u0142c\u0105cych",
                "addr:postcode": "23-250",
                "addr:city": "Urz\u0119d\u00f3w",
                "addr:street": "Wodna",
                "addr:housenumber": "24",
                "addr:teryt:simc": 392684,
                "addr:teryt:sym_ul": 24550,
                "phone": "+48 818225002",
                "email": "zso@zso.urzedow.pl",
                "website": "http:\/\/zsourzedow.pl",
                "ref:regon": "000272980",
                "operator": "Gmina Urz\u0119d\u00f3w",
                "operator:type": "government",
                "amenity": "school",
                "note": "Parent RSPO: 57104"
            }
        },
        {
            "id": 8043,
            "type": "Feature",
            "geometry": {
                "type": "Point",
                "coordinates": [
                    22.13752,
                    50.99292
                ]
            },
            "properties": {
                "ref:rspo": 8043,
                "official_name": "Zesp\u00f3\u0142 Szk\u00f3\u0142 - Centrum Kszta\u0142cenia Zawodowego I Ustawicznego im. Orl\u0105t Lwowskich w Urz\u0119dowie",
                "name": "Zesp\u00f3\u0142 Szk\u00f3\u0142 - Centrum Kszta\u0142cenia Zawodowego I Ustawicznego",
                "addr:postcode": "23-250",
                "addr:city": "Urz\u0119d\u00f3w",
                "addr:street": "Wodna",
                "addr:housenumber": "34",
                "addr:teryt:simc": 392684,
                "addr:teryt:sym_ul": 24550,
                "phone": "+48 818225253",
                "email": "sekretariat@zs-urzedow.pl",
                "ref:regon": "431172807",
                "ref:vatin": "PL7151587946",
                "operator": "Powiat Kra\u015bnicki",
                "operator:type": "government",
                "landuse": "education",
                "fixme": "amenity=school, amenity=college albo landuse=education w zale\u017cno\u015bci od tego, jakie plac\u00f3wki wchodz\u0105 w sk\u0142ad zespo\u0142u. Sprawd\u017a, kiedy stosowa\u0107 amenity=* a kiedy landuse=education.",
                "note": "Children RSPO: 87654;87657;87658;87659"
            }
        },
        {
            "id": 69864,
            "type": "Feature",
            "geometry": {
                "type": "Point",
                "coordinates": [
                    22.13752,
                    50.992889999999996
                ]
            },
            "properties": {
                "ref:rspo": 69864,
                "official_name": "Przedszkole Publiczne w Urz\u0119dowie",
                "name": "Przedszkole Publiczne w Urz\u0119dowie",
                "addr:postcode": "23-250",
                "addr:city": "Urz\u0119d\u00f3w",
                "addr:street": "Wodna",
                "addr:housenumber": "34",
                "addr:teryt:simc": 392684,
                "addr:teryt:sym_ul": 24550,
                "phone": "+48 818225274",
                "email": "ppurzedow@op.pl",
                "website": "http:\/\/www.przedszkole.urzedow.szkolnastrona.pl",
                "ref:regon": "431231444",
                "ref:vatin": "PL7151642361",
                "operator": "Gmina Urz\u0119d\u00f3w",
                "operator:type": "government",
                "amenity": "kindergarten"
            }
        },
        {
            "id": 87654,
            "type": "Feature",
            "geometry": {
                "type": "Point",
                "coordinates": [
                    22.13752,
                    50.99286
                ]
            },
            "properties": {
                "isced:level": "3",
                "ref:rspo": 87654,
                "official_name": "Bran\u017cowa Szko\u0142a I Stopnia w Urz\u0119dowie",
                "name": "Bran\u017cowa Szko\u0142a I Stopnia w Urz\u0119dowie",
                "addr:postcode": "23-250",
                "addr:city": "Urz\u0119d\u00f3w",
                "addr:street": "Wodna",
                "addr:housenumber": "34",
                "addr:teryt:simc": 392684,
                "addr:teryt:sym_ul": 24550,
                "phone": "+48 818225253",
                "email": "sekretariat@zs-urzedow.pl",
                "website": "http:\/\/www.zs-urzedow.pl",
                "ref:regon": "431263639",
                "ref:vatin": "PL7151587946",
                "operator": "Powiat Kra\u015bnicki",
                "operator:type": "government",
                "amenity": "school",
                "note": "Parent RSPO: 8043"
            }
        },
        {
            "id": 87657,
            "type": "Feature",
            "geometry": {
                "type": "Point",
                "coordinates": [
                    22.13752,
                    50.99283
                ]
            },
            "properties": {
                "isced:level": "3",
                "ref:rspo": 87657,
                "official_name": "Technikum w Urz\u0119dowie",
                "name": "Technikum w Urz\u0119dowie",
                "addr:postcode": "23-250",
                "addr:city": "Urz\u0119d\u00f3w",
                "addr:street": "Wodna",
                "addr:housenumber": "34",
                "addr:teryt:simc": 392684,
                "addr:teryt:sym_ul": 24550,
                "phone": "+48 818225253",
                "email": "sekretariat@zs-urzedow.pl",
                "website": "http:\/\/www.zs-urzedow.pl",
                "ref:regon": "432515899",
                "ref:vatin": "PL7151587946",
                "operator": "Powiat Kra\u015bnicki",
                "operator:type": "government",
                "amenity": "school",
                "note": "Parent RSPO: 8043"
            }
        },
        {
            "id": 87658,
            "type": "Feature",
            "geometry": {
                "type": "Point",
                "coordinates": [
                    22.13752,
                    50.992799999999995
                ]
            },
            "properties": {
                "isced:level": "4",
                "ref:rspo": 87658,
                "official_name": "Szko\u0142a Policealna w Urz\u0119dowie",
                "name": "Szko\u0142a Policealna w Urz\u0119dowie",
                "addr:postcode": "23-250",
                "addr:city": "Urz\u0119d\u00f3w",
                "addr:street": "Wodna",
                "addr:housenumber": "34",
                "addr:teryt:simc": 392684,
                "addr:teryt:sym_ul": 24550,
                "phone": "+48 818225253",
                "email": "sekretariat@zs-urzedow.pl",
                "website": "http:\/\/www.zs-urzedow.pl",
                "ref:regon": "432670766",
                "ref:vatin": "PL7151587946",
                "operator": "Powiat Kra\u015bnicki",
                "operator:type": "government",
                "amenity": "college",
                "note": "Parent RSPO: 8043"
            }
        },
        {
            "id": 87659,
            "type": "Feature",
            "geometry": {
                "type": "Point",
                "coordinates": [
                    22.13752,
                    50.99277
                ]
            },
            "properties": {
                "isced:level": "3",
                "ref:rspo": 87659,
                "official_name": "Liceum Og\u00f3lnokszta\u0142c\u0105ce dla Doros\u0142ych w Urz\u0119dowie",
                "name": "Liceum Og\u00f3lnokszta\u0142c\u0105ce dla Doros\u0142ych w Urz\u0119dowie",
                "addr:postcode": "23-250",
                "addr:city": "Urz\u0119d\u00f3w",
                "addr:street": "Wodna",
                "addr:housenumber": "34",
                "addr:teryt:simc": 392684,
                "addr:teryt:sym_ul": 24550,
                "phone": "+48 818225253",
                "email": "zs.urzedow@interia.pl",
                "website": "http:\/\/www.zs-urzedow.pl",
                "ref:regon": "061489210",
                "ref:vatin": "PL7151587946",
                "operator": "Powiat Kra\u015bnicki",
                "operator:type": "government",
                "amenity": "school",
                "note": "Parent RSPO: 8043"
            }
        },
        {
            "id": 90505,
            "type": "Feature",
            "geometry": {
                "type": "Point",
                "coordinates": [
                    22.1544199,
                    51.00026
                ]
            },
            "properties": {
                "ref:rspo": 90505,
                "official_name": "\"S\u0142owik Bhp\"",
                "name": "\"S\u0142owik Bhp\"",
                "addr:postcode": "23-250",
                "addr:place": "Rankowskie",
                "addr:housenumber": "78",
                "addr:teryt:simc": 392649,
                "phone": "+48 818225050",
                "email": "slowikbhp@o2.pl",
                "ref:regon": "061493009",
                "operator": "Monika S\u0142owik",
                "operator:type": "private",
                "fixme": "w zale\u017cno\u015bci od przedmiotu dzia\u0142alno\u015bci (np. amenity=training + training=*, amenity=dancing_school, amenity=language_school, amenity=music_school)"
            }
        },
        {
            "id": 89166,
            "type": "Feature",
            "geometry": {
                "type": "Point",
                "coordinates": [
                    22.19597,
                    51.00339
                ]
            },
            "properties": {
                "isced:level": "1;2",
                "ref:rspo": 89166,
                "official_name": "Szko\u0142a Podstawowa im. Leona Hempla w Skorczycach",
                "name": "Szko\u0142a Podstawowa",
                "addr:postcode": "23-250",
                "addr:place": "Skorczyce",
                "addr:housenumber": "52",
                "addr:teryt:simc": 392655,
                "phone": "+48 818213111",
                "email": "poczta@spskorczyce.pl",
                "website": "http:\/\/www.spskorczyce.pl",
                "ref:regon": "001229360",
                "ref:vatin": "PL7151939977",
                "operator": "Gmina Urz\u0119d\u00f3w",
                "operator:type": "government",
                "amenity": "school"
            }
        },
        {
            "id": 69863,
            "type": "Feature",
            "geometry": {
                "type": "Point",
                "coordinates": [
                    22.08154,
                    51.01934
                ]
            },
            "properties": {
                "isced:level": "1;2",
                "ref:rspo": 69863,
                "official_name": "Szko\u0142a Podstawowa im. Jana Paw\u0142a II w Moniakach",
                "name": "Szko\u0142a Podstawowa",
                "addr:postcode": "23-250",
                "addr:place": "Moniaki",
                "addr:housenumber": "110",
                "addr:teryt:simc": 392589,
                "phone": "+48 818227346",
                "email": "spmoniaki@o2.pl",
                "ref:regon": "001151936",
                "ref:vatin": "PL7151642390",
                "operator": "Gmina Urz\u0119d\u00f3w",
                "operator:type": "government",
                "amenity": "school"
            }
        },
        {
            "id": 68530,
            "type": "Feature",
            "geometry": {
                "type": "Point",
                "coordinates": [
                    22.0382,
                    51.02632
                ]
            },
            "properties": {
                "isced:level": "1;2",
                "ref:rspo": 68530,
                "official_name": "Szko\u0142a Podstawowa w Bobach-Kolonii",
                "name": "Szko\u0142a Podstawowa w Bobach-Kolonii",
                "addr:postcode": "23-250",
                "addr:place": "Boby-Kolonia",
                "addr:housenumber": "75",
                "addr:teryt:simc": 392460,
                "phone": "+48 818227361",
                "email": "szkb@wp.pl",
                "website": "http:\/\/www.spboby.edupage.org",
                "ref:regon": "001151942",
                "ref:vatin": "PL7151642349",
                "operator": "Gmina Urz\u0119d\u00f3w",
                "operator:type": "government",
                "amenity": "school"
            }
        },
        {
            "id": 70049,
            "type": "Feature",
            "geometry": {
                "type": "Point",
                "coordinates": [
                    22.11546,
                    51.03278
                ]
            },
            "properties": {
                "ref:rspo": 70049,
                "official_name": "Niepubliczne Przedszkole Gwiazdeczka 2",
                "name": "Niepubliczne Przedszkole Gwiazdeczka 2",
                "addr:postcode": "23-250",
                "addr:place": "Wierzbica-Kolonia",
                "addr:housenumber": "39",
                "addr:teryt:simc": 392721,
                "phone": "+48 509584343",
                "email": "ulas70@op.pl",
                "ref:regon": "061480780",
                "ref:vatin": "PL7151463115",
                "operator": "Urszula Smo\u0142ecka",
                "operator:type": "private",
                "amenity": "kindergarten"
            }
        },
        {
            "id": 131536,
            "type": "Feature",
            "geometry": {
                "type": "Point",
                "coordinates": [
                    22.20943,
                    51.0329
                ]
            },
            "properties": {
                "ref:rspo": 131536,
                "official_name": "Publiczne Przedszkole w Leszczynie",
                "name": "Publiczne Przedszkole w Leszczynie",
                "addr:postcode": "23-250",
                "addr:place": "Leszczyna",
                "addr:housenumber": "94A",
                "addr:teryt:simc": 392537,
                "phone": "+48 818213115",
                "email": "spleszcz@wp.pl",
                "ref:regon": "365218816",
                "operator": "\"Aktywni Dla Rozwoju Edukacji, Kultury I Przedsi\u0119biorczo\u015bci\"",
                "operator:type": "ngo",
                "amenity": "kindergarten"
            }
        },
        {
            "id": 131538,
            "type": "Feature",
            "geometry": {
                "type": "Point",
                "coordinates": [
                    22.20943,
                    51.032869999999996
                ]
            },
            "properties": {
                "isced:level": "1;2",
                "ref:rspo": 131538,
                "official_name": "Publiczna Szko\u0142a Podstawowa w Leszczynie",
                "name": "Publiczna Szko\u0142a Podstawowa w Leszczynie",
                "addr:postcode": "23-250",
                "addr:place": "Leszczyna",
                "addr:housenumber": "94A",
                "addr:teryt:simc": 392537,
                "phone": "+48 818213115",
                "email": "spleszcz@wp.pl",
                "ref:regon": "365218839",
                "operator": "\"Aktywni Dla Rozwoju Edukacji, Kultury I Przedsi\u0119biorczo\u015bci\"",
                "operator:type": "ngo",
                "amenity": "school"
            }
        }
    ]
}