{
    "type": "FeatureCollection",
    "features": [
        {
            "id": 13939,
            "type": "Feature",
            "geometry": {
                "type": "Point",
                "coordinates": [
                    22.21458,
                    50.92006
                ]
            },
            "properties": {
                "ref:rspo": 13939,
                "official_name": "Zesp\u00f3\u0142 Szk\u00f3\u0142 Specjalnych im. Ks. Jana Twardowskiego w Kra\u015bniku",
                "name": "Zesp\u00f3\u0142 Szk\u00f3\u0142 Specjalnych",
                "addr:country": "PL",
                "addr:postcode": "23-200",
                "addr:city": "Kra\u015bnik",
                "addr:street": "Tadeusza Ko\u015bciuszki",
                "addr:housenumber": "23",
                "addr:teryt:simc": 956112,
                "addr:teryt:sym_ul": 9582,
                "contact:phone": "+48 818252882",
                "contact:email": "sekretariat@zs4.krasnik.pl",
                "contact:website": "http:\/\/zs4.krasnik.pl",
                "ref:regon": "431169426",
                "ref:vatin": "PL7151625523",
                "operator": "Powiat Kra\u015bnicki",
                "operator:type": "government",
                "landuse": "education",
                "fixme": "amenity=school, amenity=college albo landuse=education w zale\u017cno\u015bci od tego, jakie plac\u00f3wki wchodz\u0105 w sk\u0142ad zespo\u0142u. Sprawd\u017a, kiedy stosowa\u0107 amenity=* a kiedy landuse=education.",
                "note": "Children RSPO: 68457;87661"
            }
        },
        {
            "id": 105879,
            "type": "Feature",
            "geometry": {
                "type": "Point",
                "coordinates": [
                    22.21458,
                    50.92003
                ]
            },
            "properties": {
                "ref:rspo": 105879,
                "official_name": "Zesp\u00f3\u0142 Plac\u00f3wek O\u015bwiatowych Nr 1 w Kra\u015bniku",
                "name": "Zesp\u00f3\u0142 Plac\u00f3wek O\u015bwiatowych Nr 1 w Kra\u015bniku",
                "addr:country": "PL",
                "addr:postcode": "23-200",
                "addr:city": "Kra\u015bnik",
                "addr:street": "Tadeusza Ko\u015bciuszki",
                "addr:housenumber": "23",
                "addr:teryt:simc": 956112,
                "addr:teryt:sym_ul": 9582,
                "contact:phone": "+48 818252425",
                "contact:email": "zpo1krasnik@platon.man.lublin.pl",
                "contact:website": "http:\/\/www.1sp.krasnik.pl",
                "ref:regon": "432516953",
                "ref:vatin": "PL7151710269",
                "operator": "Miasto Kra\u015bnik",
                "operator:type": "government",
                "landuse": "education",
                "fixme": "amenity=school, amenity=college albo landuse=education w zale\u017cno\u015bci od tego, jakie plac\u00f3wki wchodz\u0105 w sk\u0142ad zespo\u0142u. Sprawd\u017a, kiedy stosowa\u0107 amenity=* a kiedy landuse=education.",
                "note": "Children RSPO: 107110;107118"
            }
        },
        {
            "id": 68457,
            "type": "Feature",
            "geometry": {
                "type": "Point",
                "coordinates": [
                    22.21458,
                    50.92
                ]
            },
            "properties": {
                "ref:rspo": 68457,
                "official_name": "Szko\u0142a Specjalna Przysposabiaj\u0105ca Do Pracy w Kra\u015bniku",
                "name": "Szko\u0142a Specjalna Przysposabiaj\u0105ca Do Pracy w Kra\u015bniku",
                "addr:country": "PL",
                "addr:postcode": "23-200",
                "addr:city": "Kra\u015bnik",
                "addr:street": "Tadeusza Ko\u015bciuszki",
                "addr:housenumber": "23",
                "addr:teryt:simc": 956112,
                "addr:teryt:sym_ul": 9582,
                "contact:phone": "+48 818252882",
                "contact:email": "sekretariat@zs4.krasnik.pl",
                "contact:website": "http:\/\/www.zs4.krasnik.pl",
                "ref:regon": "432723043",
                "ref:vatin": "PL7151625523",
                "operator": "Powiat Kra\u015bnicki",
                "operator:type": "government",
                "amenity": "school",
                "note": "Parent RSPO: 13939"
            }
        },
        {
            "id": 87661,
            "type": "Feature",
            "geometry": {
                "type": "Point",
                "coordinates": [
                    22.21458,
                    50.91997
                ]
            },
            "properties": {
                "isced:level": "1;2",
                "ref:rspo": 87661,
                "official_name": "Szko\u0142a Podstawowa Specjalna w Kra\u015bniku",
                "name": "Szko\u0142a Podstawowa Specjalna w Kra\u015bniku",
                "addr:country": "PL",
                "addr:postcode": "23-200",
                "addr:city": "Kra\u015bnik",
                "addr:street": "Tadeusza Ko\u015bciuszki",
                "addr:housenumber": "23",
                "addr:teryt:simc": 956112,
                "addr:teryt:sym_ul": 9582,
                "contact:phone": "+48 818252882",
                "contact:email": "sekretariat@zs4.krasnik.pl",
                "contact:website": "http:\/\/www.zs4.krasnik.pl",
                "ref:regon": "431260919",
                "ref:vatin": "PL7151625523",
                "operator": "Powiat Kra\u015bnicki",
                "operator:type": "government",
                "amenity": "school",
                "note": "Parent RSPO: 13939"
            }
        },
        {
            "id": 107110,
            "type": "Feature",
            "geometry": {
                "type": "Point",
                "coordinates": [
                    22.21458,
                    50.91994
                ]
            },
            "properties": {
                "ref:rspo": 107110,
                "official_name": "Przedszkole Miejskie Nr 7 w Zespole Plac\u00f3wek O\u015bwiatowych Nr 1 w Kra\u015bniku",
                "name": "Przedszkole Miejskie Nr 7 w Zespole Plac\u00f3wek O\u015bwiatowych Nr 1 w Kra\u015bniku",
                "addr:country": "PL",
                "addr:postcode": "23-200",
                "addr:city": "Kra\u015bnik",
                "addr:street": "Tadeusza Ko\u015bciuszki",
                "addr:housenumber": "23",
                "addr:teryt:simc": 956112,
                "addr:teryt:sym_ul": 9582,
                "contact:phone": "+48 818252425",
                "contact:email": "zpo1krasnik@platon.man.lublin.pl",
                "contact:website": "http:\/\/www.1sp.krasnik.pl",
                "ref:regon": "430075137",
                "operator": "Miasto Kra\u015bnik",
                "operator:type": "government",
                "amenity": "kindergarten",
                "note": "Parent RSPO: 105879"
            }
        },
        {
            "id": 107118,
            "type": "Feature",
            "geometry": {
                "type": "Point",
                "coordinates": [
                    22.21458,
                    50.91991
                ]
            },
            "properties": {
                "isced:level": "1;2",
                "ref:rspo": 107118,
                "official_name": "Szko\u0142a Podstawowa Nr 1 im. Marii Sk\u0142odowskiej- Curie w Zespole Plac\u00f3wek O\u015bwiatowych Nr 1 w Kra\u015bniku",
                "name": "Szko\u0142a Podstawowa Nr 1",
                "addr:country": "PL",
                "addr:postcode": "23-200",
                "addr:city": "Kra\u015bnik",
                "addr:street": "Tadeusza Ko\u015bciuszki",
                "addr:housenumber": "23",
                "addr:teryt:simc": 956112,
                "addr:teryt:sym_ul": 9582,
                "contact:phone": "+48 818252425",
                "contact:email": "zpo1krasnik@platon.man.lublin.pl",
                "contact:website": "http:\/\/www.1sp.krasnik.pl",
                "ref:regon": "000783999",
                "operator": "Miasto Kra\u015bnik",
                "operator:type": "government",
                "amenity": "school",
                "note": "Parent RSPO: 105879"
            }
        },
        {
            "id": 113792,
            "type": "Feature",
            "geometry": {
                "type": "Point",
                "coordinates": [
                    22.22235,
                    50.9215
                ]
            },
            "properties": {
                "ref:rspo": 113792,
                "official_name": "Niepubliczne Przedszkole Specjalne \"S\u0142oneczny Dzie\u0144\"",
                "name": "Niepubliczne Przedszkole Specjalne \"S\u0142oneczny Dzie\u0144\"",
                "addr:country": "PL",
                "addr:postcode": "23-200",
                "addr:city": "Kra\u015bnik",
                "addr:street": "Gabriela Narutowicza",
                "addr:housenumber": "1",
                "addr:teryt:simc": 956112,
                "addr:teryt:sym_ul": 14018,
                "contact:phone": "+48 791753829",
                "contact:email": "mkloc.krasnik@gmail.com",
                "ref:regon": "061544267",
                "ref:vatin": "PL7151754812",
                "operator": "Marcin Kloc",
                "operator:type": "private",
                "amenity": "kindergarten"
            }
        },
        {
            "id": 89836,
            "type": "Feature",
            "geometry": {
                "type": "Point",
                "coordinates": [
                    22.22523,
                    50.92169
                ]
            },
            "properties": {
                "ref:rspo": 89836,
                "official_name": "O\u015brodek Szkoleniowo-Kursowy Bezpicze\u0144stwa I Hignieny Pracy w Kra\u015bniku",
                "name": "O\u015brodek Szkoleniowo-Kursowy Bezpicze\u0144stwa I Hignieny Pracy w Kra\u015bniku",
                "addr:country": "PL",
                "addr:postcode": "23-200",
                "addr:city": "Kra\u015bnik",
                "addr:street": "Grodzka",
                "addr:housenumber": "14\/4",
                "addr:teryt:simc": 956112,
                "addr:teryt:sym_ul": 6163,
                "contact:phone": "+48 604065276",
                "contact:email": "r.likos@wp.pl",
                "ref:regon": "061491996",
                "ref:vatin": "PL7151068264",
                "operator": "Ryszard Likos",
                "operator:type": "private",
                "fixme": "w zale\u017cno\u015bci od przedmiotu dzia\u0142alno\u015bci (np. amenity=training + training=*, amenity=dancing_school, amenity=language_school, amenity=music_school)"
            }
        },
        {
            "id": 13756,
            "type": "Feature",
            "geometry": {
                "type": "Point",
                "coordinates": [
                    22.23226,
                    50.92325
                ]
            },
            "properties": {
                "ref:rspo": 13756,
                "official_name": "Zesp\u00f3\u0142 Szk\u00f3\u0142 Nr 1 w Kra\u015bniku",
                "name": "Zesp\u00f3\u0142 Szk\u00f3\u0142 Nr 1 w Kra\u015bniku",
                "addr:country": "PL",
                "addr:postcode": "23-200",
                "addr:city": "Kra\u015bnik",
                "addr:street": "Armii Krajowej",
                "addr:housenumber": "25",
                "addr:teryt:simc": 956112,
                "addr:teryt:sym_ul": 432,
                "contact:phone": "+48 818252426",
                "contact:email": "sekretariat.1lo@gmail.com",
                "contact:website": "http:\/\/www.1lo.krasnik.pl",
                "ref:regon": "431169917",
                "ref:vatin": "PL7151586272",
                "operator": "Powiat Kra\u015bnicki",
                "operator:type": "government",
                "landuse": "education",
                "fixme": "amenity=school, amenity=college albo landuse=education w zale\u017cno\u015bci od tego, jakie plac\u00f3wki wchodz\u0105 w sk\u0142ad zespo\u0142u. Sprawd\u017a, kiedy stosowa\u0107 amenity=* a kiedy landuse=education.",
                "note": "Children RSPO: 87122;87130;87662;87668;265489"
            }
        },
        {
            "id": 87122,
            "type": "Feature",
            "geometry": {
                "type": "Point",
                "coordinates": [
                    22.23226,
                    50.92322
                ]
            },
            "properties": {
                "isced:level": "3",
                "ref:rspo": 87122,
                "official_name": "I Liceum Og\u00f3lnokszta\u0142c\u0105ce im. Tadeusza Ko\u015bciuszki w Kra\u015bniku",
                "name": "I Liceum Og\u00f3lnokszta\u0142c\u0105ce",
                "addr:country": "PL",
                "addr:postcode": "23-200",
                "addr:city": "Kra\u015bnik",
                "addr:street": "Armii Krajowej",
                "addr:housenumber": "25",
                "addr:teryt:simc": 956112,
                "addr:teryt:sym_ul": 432,
                "contact:phone": "+48 818252426",
                "contact:email": "sekretariat.1lo@gmail.com",
                "ref:regon": "431272029",
                "ref:vatin": "PL7151586272",
                "operator": "Powiat Kra\u015bnicki",
                "operator:type": "government",
                "amenity": "school",
                "note": "Parent RSPO: 13756"
            }
        },
        {
            "id": 87130,
            "type": "Feature",
            "geometry": {
                "type": "Point",
                "coordinates": [
                    22.23226,
                    50.923190000000005
                ]
            },
            "properties": {
                "isced:level": "4",
                "ref:rspo": 87130,
                "official_name": "Szko\u0142a Policealna Nr 1 w Kra\u015bniku",
                "name": "Szko\u0142a Policealna Nr 1 w Kra\u015bniku",
                "addr:country": "PL",
                "addr:postcode": "23-200",
                "addr:city": "Kra\u015bnik",
                "addr:street": "Armii Krajowej",
                "addr:housenumber": "25",
                "addr:teryt:simc": 956112,
                "addr:teryt:sym_ul": 432,
                "contact:phone": "+48 818252426",
                "contact:email": "sekretariat.1lo@gmail.com",
                "ref:regon": "060584804",
                "ref:vatin": "PL7151586272",
                "operator": "Powiat Kra\u015bnicki",
                "operator:type": "government",
                "amenity": "college",
                "note": "Parent RSPO: 13756"
            }
        },
        {
            "id": 87662,
            "type": "Feature",
            "geometry": {
                "type": "Point",
                "coordinates": [
                    22.23226,
                    50.92316
                ]
            },
            "properties": {
                "isced:level": "3",
                "ref:rspo": 87662,
                "official_name": "Bran\u017cowa Szko\u0142a I Stopnia Nr 1 w Kra\u015bniku",
                "name": "Bran\u017cowa Szko\u0142a I Stopnia Nr 1 w Kra\u015bniku",
                "addr:country": "PL",
                "addr:postcode": "23-200",
                "addr:city": "Kra\u015bnik",
                "addr:street": "Armii Krajowej",
                "addr:housenumber": "25",
                "addr:teryt:simc": 956112,
                "addr:teryt:sym_ul": 432,
                "contact:phone": "+48 818252426",
                "contact:email": "sekretariat.1lo@gmail.com",
                "contact:website": "http:\/\/www.1lo.krasnik.pl",
                "ref:regon": "431272012",
                "ref:vatin": "PL7151586272",
                "operator": "Powiat Kra\u015bnicki",
                "operator:type": "government",
                "amenity": "school",
                "note": "Parent RSPO: 13756"
            }
        },
        {
            "id": 87668,
            "type": "Feature",
            "geometry": {
                "type": "Point",
                "coordinates": [
                    22.23226,
                    50.92313
                ]
            },
            "properties": {
                "isced:level": "3",
                "ref:rspo": 87668,
                "official_name": "Technikum Nr 1 w Kra\u015bniku",
                "name": "Technikum Nr 1 w Kra\u015bniku",
                "addr:country": "PL",
                "addr:postcode": "23-200",
                "addr:city": "Kra\u015bnik",
                "addr:street": "Armii Krajowej",
                "addr:housenumber": "25",
                "addr:teryt:simc": 956112,
                "addr:teryt:sym_ul": 432,
                "contact:phone": "+48 818252426",
                "contact:email": "sekretariat.1lo@gmail.com",
                "contact:website": "http:\/\/www.1lo.krasnik.pl",
                "ref:regon": "061489321",
                "operator": "Powiat Kra\u015bnicki",
                "operator:type": "government",
                "amenity": "school",
                "note": "Parent RSPO: 13756"
            }
        },
        {
            "id": 265489,
            "type": "Feature",
            "geometry": {
                "type": "Point",
                "coordinates": [
                    22.23226,
                    50.923100000000005
                ]
            },
            "properties": {
                "isced:level": "3",
                "ref:rspo": 265489,
                "official_name": "Liceum Og\u00f3lnokszta\u0142c\u0105ce dla Doros\u0142ych Nr 1 w Kra\u015bniku",
                "name": "Liceum Og\u00f3lnokszta\u0142c\u0105ce dla Doros\u0142ych Nr 1 w Kra\u015bniku",
                "addr:country": "PL",
                "addr:postcode": "23-200",
                "addr:city": "Kra\u015bnik",
                "addr:street": "Armii Krajowej",
                "addr:housenumber": "25",
                "addr:teryt:simc": 956112,
                "addr:teryt:sym_ul": 432,
                "contact:phone": "+48 818252426",
                "contact:email": "sekretariat.1lo@gmail.com",
                "contact:website": "http:\/\/www.1lo.krasnik.pl",
                "ref:regon": "368752090",
                "operator": "Powiat Kra\u015bnicki",
                "operator:type": "government",
                "amenity": "school",
                "note": "Parent RSPO: 13756"
            }
        },
        {
            "id": 90569,
            "type": "Feature",
            "geometry": {
                "type": "Point",
                "coordinates": [
                    22.22451,
                    50.92397
                ]
            },
            "properties": {
                "ref:rspo": 90569,
                "official_name": "O\u015brodek Szkoleniowy Agencji Rozwoju Lokalnego Sp. Z O.o. w Kra\u015bniku",
                "name": "O\u015brodek Szkoleniowy Agencji Rozwoju Lokalnego Sp. Z O.o. w Kra\u015bniku",
                "addr:country": "PL",
                "addr:postcode": "23-200",
                "addr:city": "Kra\u015bnik",
                "addr:street": "Jagiello\u0144ska",
                "addr:housenumber": "5",
                "addr:teryt:simc": 956112,
                "addr:teryt:sym_ul": 7029,
                "contact:phone": "+48 818252090",
                "contact:email": "krasnik@arl.lublin.pl",
                "contact:website": "http:\/\/www.arl.lublin.pl",
                "ref:regon": "061493080",
                "operator": "Agencja Rozwoju Lokalnego Sp\u00f3\u0142ka Z Ograniczon\u0105 Odpowiedzialno\u015bci\u0105",
                "operator:type": "private",
                "fixme": "w zale\u017cno\u015bci od przedmiotu dzia\u0142alno\u015bci (np. amenity=training + training=*, amenity=dancing_school, amenity=language_school, amenity=music_school)"
            }
        },
        {
            "id": 278099,
            "type": "Feature",
            "geometry": {
                "type": "Point",
                "coordinates": [
                    22.22861,
                    50.9261
                ]
            },
            "properties": {
                "ref:rspo": 278099,
                "official_name": "Zesp\u00f3\u0142 Plac\u00f3wek O\u015bwiatowych Nr 2 w Kra\u015bniku",
                "name": "Zesp\u00f3\u0142 Plac\u00f3wek O\u015bwiatowych Nr 2 w Kra\u015bniku",
                "addr:country": "PL",
                "addr:postcode": "23-200",
                "addr:city": "Kra\u015bnik",
                "addr:street": "Urz\u0119dowska",
                "addr:housenumber": "10",
                "addr:teryt:simc": 956112,
                "addr:teryt:sym_ul": 23423,
                "contact:phone": "+48 818252431",
                "contact:email": "zpo2.krasnik@wp.pl",
                "contact:website": "http:\/\/www.psp2.krasnik.pl",
                "ref:regon": "389766829",
                "ref:vatin": "PL7151947971",
                "operator": "Miasto Kra\u015bnik",
                "operator:type": "government",
                "landuse": "education",
                "fixme": "amenity=school, amenity=college albo landuse=education w zale\u017cno\u015bci od tego, jakie plac\u00f3wki wchodz\u0105 w sk\u0142ad zespo\u0142u. Sprawd\u017a, kiedy stosowa\u0107 amenity=* a kiedy landuse=education.",
                "note": "Children RSPO: 85021;105816"
            }
        },
        {
            "id": 85021,
            "type": "Feature",
            "geometry": {
                "type": "Point",
                "coordinates": [
                    22.22861,
                    50.926069999999996
                ]
            },
            "properties": {
                "isced:level": "1;2",
                "ref:rspo": 85021,
                "official_name": "Zesp\u00f3\u0142 Plac\u00f3wek O\u015bwiatowych Nr 2 w Kra\u015bniku, Szko\u0142a Podstawowa Nr 2 im. Miko\u0142aja Kopernika w Kra\u015bniku",
                "name": "Zesp\u00f3\u0142 Plac\u00f3wek O\u015bwiatowych Nr 2 w Kra\u015bniku, Szko\u0142a Podstawowa Nr 2",
                "addr:country": "PL",
                "addr:postcode": "23-200",
                "addr:city": "Kra\u015bnik",
                "addr:street": "Urz\u0119dowska",
                "addr:housenumber": "10",
                "addr:teryt:simc": 956112,
                "addr:teryt:sym_ul": 23423,
                "contact:phone": "+48 818252431",
                "contact:email": "zpo2.krasnik@wp.pl",
                "contact:website": "http:\/\/www.psp2.krasnik.pl",
                "ref:regon": "000714610",
                "ref:vatin": "PL7151164298",
                "operator": "Miasto Kra\u015bnik",
                "operator:type": "government",
                "amenity": "school",
                "note": "Parent RSPO: 278099"
            }
        },
        {
            "id": 90490,
            "type": "Feature",
            "geometry": {
                "type": "Point",
                "coordinates": [
                    22.22937,
                    50.92718
                ]
            },
            "properties": {
                "ref:rspo": 90490,
                "official_name": "\"Green Way\" Subik Sylwia",
                "name": "\"Green Way\" Subik Sylwia",
                "addr:country": "PL",
                "addr:postcode": "23-200",
                "addr:city": "Kra\u015bnik",
                "addr:street": "Sp\u00f3\u0142dzielcza",
                "addr:housenumber": "6",
                "addr:door": "61",
                "addr:teryt:simc": 956112,
                "addr:teryt:sym_ul": 20696,
                "contact:phone": "+48 665011813",
                "contact:email": "sylwiasubik@gmail.com",
                "ref:regon": "061492903",
                "operator": "Sylwia Subik",
                "operator:type": "private",
                "fixme": "w zale\u017cno\u015bci od przedmiotu dzia\u0142alno\u015bci (np. amenity=training + training=*, amenity=dancing_school, amenity=language_school, amenity=music_school)"
            }
        },
        {
            "id": 105816,
            "type": "Feature",
            "geometry": {
                "type": "Point",
                "coordinates": [
                    22.22825,
                    50.9274
                ]
            },
            "properties": {
                "ref:rspo": 105816,
                "official_name": "Zesp\u00f3\u0142 Plac\u00f3wek O\u015bwiatowych Nr 2 w Kra\u015bniku, Przedszkole Miejskie Nr 5 w Kra\u015bniku",
                "name": "Zesp\u00f3\u0142 Plac\u00f3wek O\u015bwiatowych Nr 2 w Kra\u015bniku, Przedszkole Miejskie Nr 5 w Kra\u015bniku",
                "addr:country": "PL",
                "addr:postcode": "23-200",
                "addr:city": "Kra\u015bnik",
                "addr:street": "Sp\u00f3\u0142dzielcza",
                "addr:housenumber": "3",
                "addr:teryt:simc": 956112,
                "addr:teryt:sym_ul": 20696,
                "contact:phone": "+48 818843484",
                "contact:email": "pm5@op.pl",
                "contact:website": "http:\/\/www.pm5.krasnik.pl",
                "ref:regon": "430075114",
                "ref:vatin": "PL7151015658",
                "operator": "Miasto Kra\u015bnik",
                "operator:type": "government",
                "amenity": "kindergarten",
                "note": "Parent RSPO: 278099"
            }
        },
        {
            "id": 104470,
            "type": "Feature",
            "geometry": {
                "type": "Point",
                "coordinates": [
                    22.23419,
                    50.92758
                ]
            },
            "properties": {
                "ref:rspo": 104470,
                "official_name": "Ict Lab Centrum Szkole\u0144 Informatycznych",
                "name": "Ict Lab Centrum Szkole\u0144 Informatycznych",
                "addr:country": "PL",
                "addr:postcode": "23-200",
                "addr:city": "Kra\u015bnik",
                "addr:street": "Lubelska",
                "addr:housenumber": "88",
                "addr:teryt:simc": 956112,
                "addr:teryt:sym_ul": 11307,
                "contact:phone": "+48 605577861",
                "contact:email": "info@szkoleniakrasnik.pl",
                "contact:website": "http:\/\/www.szkoleniakrasnik.pl",
                "ref:regon": "061504530",
                "operator": "Grzegorz Micha\u0142owski",
                "operator:type": "private",
                "fixme": "w zale\u017cno\u015bci od przedmiotu dzia\u0142alno\u015bci (np. amenity=training + training=*, amenity=dancing_school, amenity=language_school, amenity=music_school)"
            }
        },
        {
            "id": 132060,
            "type": "Feature",
            "geometry": {
                "type": "Point",
                "coordinates": [
                    22.23419,
                    50.92755
                ]
            },
            "properties": {
                "ref:rspo": 132060,
                "official_name": "Fundacja \"Wschodni Klaster Innowacji\" w Kra\u015bniku",
                "name": "Fundacja \"Wschodni Klaster Innowacji\" w Kra\u015bniku",
                "addr:country": "PL",
                "addr:postcode": "23-200",
                "addr:city": "Kra\u015bnik",
                "addr:street": "Lubelska",
                "addr:housenumber": "88",
                "addr:teryt:simc": 956112,
                "addr:teryt:sym_ul": 11307,
                "contact:phone": "+48 500074110",
                "ref:regon": "365441129",
                "operator": "Fundacja \"Wschodni Klaster Innowacji\"",
                "operator:type": "ngo",
                "fixme": "w zale\u017cno\u015bci od przedmiotu dzia\u0142alno\u015bci (np. amenity=training + training=*, amenity=dancing_school, amenity=language_school, amenity=music_school)"
            }
        },
        {
            "id": 18792,
            "type": "Feature",
            "geometry": {
                "type": "Point",
                "coordinates": [
                    22.24068,
                    50.92786
                ]
            },
            "properties": {
                "isced:level": "3",
                "ref:rspo": 18792,
                "official_name": "Bran\u017cowa Szko\u0142a I Stopnia w Kra\u015bniku Zak\u0142adu Doskonalenia Zawodowego w Lublinie",
                "name": "Bran\u017cowa Szko\u0142a I Stopnia w Kra\u015bniku Zak\u0142adu Doskonalenia Zawodowego w Lublinie",
                "addr:country": "PL",
                "addr:postcode": "23-200",
                "addr:city": "Kra\u015bnik",
                "addr:street": "Lubelska",
                "addr:housenumber": "116",
                "addr:teryt:simc": 956112,
                "addr:teryt:sym_ul": 11307,
                "contact:phone": "+48 818252640",
                "contact:email": "szkola@zdz.krasnik.pl",
                "ref:regon": "061464090",
                "ref:vatin": "PL7120104912",
                "operator": "Zak\u0142ad Doskonalenia Zawodowego W Lublinie",
                "operator:type": "ngo",
                "amenity": "school"
            }
        },
        {
            "id": 18826,
            "type": "Feature",
            "geometry": {
                "type": "Point",
                "coordinates": [
                    22.24068,
                    50.92783
                ]
            },
            "properties": {
                "isced:level": "3",
                "ref:rspo": 18826,
                "official_name": "Technikum Zak\u0142adu Doskonalenia Zawodowego w Lublinie Filia w Kra\u015bniku",
                "name": "Technikum Zak\u0142adu Doskonalenia Zawodowego w Lublinie Filia w Kra\u015bniku",
                "addr:country": "PL",
                "addr:postcode": "23-200",
                "addr:city": "Kra\u015bnik",
                "addr:street": "Lubelska",
                "addr:housenumber": "116",
                "addr:teryt:simc": 956112,
                "addr:teryt:sym_ul": 11307,
                "contact:phone": "+48 818252640",
                "contact:email": "szkola@zdz.krasnik.pl",
                "ref:regon": "061464143",
                "ref:vatin": "PL7120104912",
                "operator": "Zak\u0142ad Doskonalenia Zawodowego W Lublinie",
                "operator:type": "ngo",
                "amenity": "school"
            }
        },
        {
            "id": 104446,
            "type": "Feature",
            "geometry": {
                "type": "Point",
                "coordinates": [
                    22.24068,
                    50.927800000000005
                ]
            },
            "properties": {
                "ref:rspo": 104446,
                "official_name": "Zak\u0142ad Doskonalenia Zawodowego w Lubline - Oddzia\u0142 w Kra\u015bniku Centrum Kszta\u0142cenia w Kra\u015bniku",
                "name": "Zak\u0142ad Doskonalenia Zawodowego w Lubline - Oddzia\u0142 w Kra\u015bniku Centrum Kszta\u0142cenia w Kra\u015bniku",
                "addr:country": "PL",
                "addr:postcode": "23-200",
                "addr:city": "Kra\u015bnik",
                "addr:street": "Lubelska",
                "addr:housenumber": "116",
                "addr:teryt:simc": 956112,
                "addr:teryt:sym_ul": 11307,
                "contact:phone": "+48 818252475",
                "ref:regon": "061505706",
                "operator": "Zak\u0142ad Doskonalenia Zawodowego W Lublinie",
                "operator:type": "ngo",
                "fixme": "w zale\u017cno\u015bci od przedmiotu dzia\u0142alno\u015bci (np. amenity=training + training=*, amenity=dancing_school, amenity=language_school, amenity=music_school)"
            }
        },
        {
            "id": 132131,
            "type": "Feature",
            "geometry": {
                "type": "Point",
                "coordinates": [
                    22.24068,
                    50.92777
                ]
            },
            "properties": {
                "isced:level": "4",
                "ref:rspo": 132131,
                "official_name": "Szko\u0142a Policealna Zak\u0142adu Doskonalenia Zawodowego w Lublinie Filia w Kra\u015bniku",
                "name": "Szko\u0142a Policealna Zak\u0142adu Doskonalenia Zawodowego w Lublinie Filia w Kra\u015bniku",
                "addr:country": "PL",
                "addr:postcode": "23-200",
                "addr:city": "Kra\u015bnik",
                "addr:street": "Lubelska",
                "addr:housenumber": "116",
                "addr:teryt:simc": 956112,
                "addr:teryt:sym_ul": 11307,
                "contact:phone": "+48 818252640",
                "ref:regon": "365480023",
                "operator": "Zak\u0142ad Doskonalenia Zawodowego W Lublinie",
                "operator:type": "ngo",
                "amenity": "college"
            }
        },
        {
            "id": 274958,
            "type": "Feature",
            "geometry": {
                "type": "Point",
                "coordinates": [
                    22.24068,
                    50.92774
                ]
            },
            "properties": {
                "ref:rspo": 274958,
                "official_name": "Atum - Centrum Szkoleniowe w Kra\u015bniku",
                "name": "Atum - Centrum Szkoleniowe w Kra\u015bniku",
                "addr:country": "PL",
                "addr:postcode": "23-200",
                "addr:city": "Kra\u015bnik",
                "addr:street": "Lubelska",
                "addr:housenumber": "116",
                "addr:teryt:simc": 956112,
                "addr:teryt:sym_ul": 11307,
                "contact:phone": "+48 576045945",
                "contact:email": "biuro@atum.edu.pl",
                "ref:regon": "386436209",
                "operator": "Atum Sp\u00f3\u0142ka Z Ograniczon\u0105 Odpowiedzialno\u015bci\u0105",
                "operator:type": "private",
                "fixme": "w zale\u017cno\u015bci od przedmiotu dzia\u0142alno\u015bci (np. amenity=training + training=*, amenity=dancing_school, amenity=language_school, amenity=music_school)"
            }
        },
        {
            "id": 274962,
            "type": "Feature",
            "geometry": {
                "type": "Point",
                "coordinates": [
                    22.24068,
                    50.927710000000005
                ]
            },
            "properties": {
                "ref:rspo": 274962,
                "official_name": "Recentia - Centrum Szkoleniowe w Kra\u015bniku",
                "name": "Recentia - Centrum Szkoleniowe w Kra\u015bniku",
                "addr:country": "PL",
                "addr:postcode": "23-200",
                "addr:city": "Kra\u015bnik",
                "addr:street": "Lubelska",
                "addr:housenumber": "116",
                "addr:teryt:simc": 956112,
                "addr:teryt:sym_ul": 11307,
                "contact:phone": "+48 767490599",
                "contact:email": "m.dajewska@recentia.pl",
                "ref:regon": "386444545",
                "operator": "Marta Dajewska",
                "operator:type": "private",
                "fixme": "w zale\u017cno\u015bci od przedmiotu dzia\u0142alno\u015bci (np. amenity=training + training=*, amenity=dancing_school, amenity=language_school, amenity=music_school)"
            }
        },
        {
            "id": 264394,
            "type": "Feature",
            "geometry": {
                "type": "Point",
                "coordinates": [
                    22.23103,
                    50.92873
                ]
            },
            "properties": {
                "ref:rspo": 264394,
                "official_name": "Daw-Med M. Kowalska, M. Kowalski Sp.j. Niepubliczna Poradnia Psychologiczno-Pedagogiczna w Kra\u015bniku",
                "name": "Daw-Med M. Kowalska, M. Kowalski Sp.j. Niepubliczna Poradnia Psychologiczno-Pedagogiczna w Kra\u015bniku",
                "addr:country": "PL",
                "addr:postcode": "23-200",
                "addr:city": "Kra\u015bnik",
                "addr:street": "Aleja Tysi\u0105clecia",
                "addr:housenumber": "3 B",
                "addr:teryt:simc": 956112,
                "addr:teryt:sym_ul": 206,
                "contact:phone": "+48 818254150",
                "contact:email": "m.kowalska49@vp.pl",
                "ref:regon": "368332381",
                "operator": "Daw-Med M.kowalska, M.kowalski Sp\u00f3\u0142ka Jawna",
                "operator:type": "private",
                "healthcare": "counselling",
                "counselling_type": "education",
                "fixme": "w zale\u017cno\u015bci od przedmiotu dzia\u0142alno\u015bci (np. healthcare=counselling + counselling_type=education albo healthcare=psychotherapist)"
            }
        },
        {
            "id": 26330,
            "type": "Feature",
            "geometry": {
                "type": "Point",
                "coordinates": [
                    22.27741,
                    50.92893
                ]
            },
            "properties": {
                "ref:rspo": 26330,
                "official_name": "Przedszkole Miejskie Nr 6 w Kra\u015bniku",
                "name": "Przedszkole Miejskie Nr 6 w Kra\u015bniku",
                "addr:country": "PL",
                "addr:postcode": "23-200",
                "addr:city": "Kra\u015bnik",
                "addr:street": "Stanis\u0142awa Ma\u0142achowskiego",
                "addr:housenumber": "39",
                "addr:teryt:simc": 956112,
                "addr:teryt:sym_ul": 12130,
                "contact:phone": "+48 818252870",
                "contact:email": "irena-mroz@tlen.pl",
                "ref:regon": "430075120",
                "ref:vatin": "PL7151015701",
                "operator": "Miasto Kra\u015bnik",
                "operator:type": "government",
                "amenity": "kindergarten"
            }
        },
        {
            "id": 34868,
            "type": "Feature",
            "geometry": {
                "type": "Point",
                "coordinates": [
                    22.27867,
                    50.93007
                ]
            },
            "properties": {
                "isced:level": "1;2",
                "ref:rspo": 34868,
                "official_name": "Szko\u0142a Podstawowa Nr 4 im. Kornela Makuszy\u0144skiego w Kra\u015bniku",
                "name": "Szko\u0142a Podstawowa Nr 4",
                "addr:country": "PL",
                "addr:postcode": "23-200",
                "addr:city": "Kra\u015bnik",
                "addr:street": "Kolejowa",
                "addr:housenumber": "28",
                "addr:teryt:simc": 956112,
                "addr:teryt:sym_ul": 8828,
                "contact:phone": "+48 818252275",
                "contact:email": "sp4krasnik@poczta.onet.pl",
                "contact:website": "http:\/\/www.sp4.krasnik.pl",
                "ref:regon": "000714633",
                "ref:vatin": "PL7151053541",
                "operator": "Miasto Kra\u015bnik",
                "operator:type": "government",
                "amenity": "school"
            }
        },
        {
            "id": 34642,
            "type": "Feature",
            "geometry": {
                "type": "Point",
                "coordinates": [
                    22.22589,
                    50.93034
                ]
            },
            "properties": {
                "ref:rspo": 34642,
                "official_name": "Niepubliczne Przedszkole Gwiazdeczka",
                "name": "Niepubliczne Przedszkole Gwiazdeczka",
                "addr:country": "PL",
                "addr:postcode": "23-200",
                "addr:city": "Kra\u015bnik",
                "addr:street": "Mieszka I",
                "addr:housenumber": "16",
                "addr:teryt:simc": 956112,
                "addr:teryt:sym_ul": 12832,
                "contact:phone": "+48 509584343",
                "contact:email": "ulas70@op.pl",
                "contact:website": "http:\/\/zespolgwiazdeczka.pl",
                "ref:regon": "061473248",
                "ref:vatin": "PL7151463115",
                "operator": "Urszula Smo\u0142ecka",
                "operator:type": "private",
                "amenity": "kindergarten"
            }
        },
        {
            "id": 90410,
            "type": "Feature",
            "geometry": {
                "type": "Point",
                "coordinates": [
                    22.21396,
                    50.9364599
                ]
            },
            "properties": {
                "ref:rspo": 90410,
                "official_name": "Centrum Doradczo-Szkoleniowe \"Projekt\" Mariusz I Dorota Goli\u0144scy Sp\u00f3\u0142ka Jawna",
                "name": "Centrum Doradczo-Szkoleniowe \"Projekt\" Mariusz I Dorota Goli\u0144scy Sp\u00f3\u0142ka Jawna",
                "addr:country": "PL",
                "addr:postcode": "23-200",
                "addr:city": "Kra\u015bnik",
                "addr:street": "Piaskowa",
                "addr:housenumber": "57",
                "addr:teryt:simc": 956112,
                "addr:teryt:sym_ul": 16033,
                "contact:phone": "+48 818259198",
                "contact:email": "cds.projekt@wp.pl",
                "contact:website": "http:\/\/www.cdsprojekt.pl",
                "ref:regon": "061492843",
                "operator": "\"Centrum Doradczo Szkoleniowe Projekt\" Mariusz I Dorota Goli\u0144scy Sp\u00f3\u0142ka Jawna",
                "operator:type": "private",
                "fixme": "w zale\u017cno\u015bci od przedmiotu dzia\u0142alno\u015bci (np. amenity=training + training=*, amenity=dancing_school, amenity=language_school, amenity=music_school)"
            }
        },
        {
            "id": 90424,
            "type": "Feature",
            "geometry": {
                "type": "Point",
                "coordinates": [
                    22.21396,
                    50.9364299
                ]
            },
            "properties": {
                "ref:rspo": 90424,
                "official_name": "Biuro Podatkowe Mariusz Goli\u0144ski",
                "name": "Biuro Podatkowe Mariusz Goli\u0144ski",
                "addr:country": "PL",
                "addr:postcode": "23-200",
                "addr:city": "Kra\u015bnik",
                "addr:street": "Piaskowa",
                "addr:housenumber": "57",
                "addr:teryt:simc": 956112,
                "addr:teryt:sym_ul": 16033,
                "contact:phone": "+48 818259198",
                "contact:email": "biuro_golinski@wp.pl",
                "ref:regon": "061492866",
                "operator": "Mariusz Goli\u0144ski",
                "operator:type": "private",
                "fixme": "w zale\u017cno\u015bci od przedmiotu dzia\u0142alno\u015bci (np. amenity=training + training=*, amenity=dancing_school, amenity=language_school, amenity=music_school)"
            }
        },
        {
            "id": 105810,
            "type": "Feature",
            "geometry": {
                "type": "Point",
                "coordinates": [
                    22.2169199,
                    50.9366
                ]
            },
            "properties": {
                "ref:rspo": 105810,
                "official_name": "Przedszkole Niepubliczne I \u017b\u0142obek ,,Dawid I Jula\" w Kra\u015bniku",
                "name": "Przedszkole Niepubliczne I \u017b\u0142obek ,,Dawid I Jula\" w Kra\u015bniku",
                "addr:country": "PL",
                "addr:postcode": "23-200",
                "addr:city": "Kra\u015bnik",
                "addr:street": "Rumiankowa",
                "addr:housenumber": "6",
                "addr:door": "5a",
                "addr:teryt:simc": 956112,
                "addr:teryt:sym_ul": 19094,
                "contact:phone": "+48 663752850",
                "contact:email": "dawidijula@interia.pl",
                "contact:website": "http:\/\/www.dawidijula.pl",
                "ref:regon": "061507869",
                "ref:vatin": "PL7151165205",
                "operator": "Iwona Wo\u0142oszyn-Przywara",
                "operator:type": "private",
                "amenity": "kindergarten"
            }
        },
        {
            "id": 107234,
            "type": "Feature",
            "geometry": {
                "type": "Point",
                "coordinates": [
                    22.19675,
                    50.9480999
                ]
            },
            "properties": {
                "isced:level": "1;2",
                "ref:rspo": 107234,
                "official_name": "Szko\u0142a Podstawowa Nr 3 im. Adama Mickiewicza w Kra\u015bniku",
                "name": "Szko\u0142a Podstawowa Nr 3",
                "addr:country": "PL",
                "addr:postcode": "23-200",
                "addr:city": "Kra\u015bnik",
                "addr:street": "Urz\u0119dowska",
                "addr:housenumber": "435",
                "addr:teryt:simc": 956112,
                "addr:teryt:sym_ul": 23423,
                "contact:phone": "+48 818261413",
                "contact:email": "sp3@krasnik.eu",
                "contact:website": "http:\/\/sp3krasnik.szkolnastrona.pl",
                "ref:regon": "000714627",
                "ref:vatin": "PL7151053506",
                "operator": "Miasto Kra\u015bnik",
                "operator:type": "government",
                "amenity": "school"
            }
        },
        {
            "id": 273793,
            "type": "Feature",
            "geometry": {
                "type": "Point",
                "coordinates": [
                    22.19675,
                    50.9480699
                ]
            },
            "properties": {
                "ref:rspo": 273793,
                "official_name": "Itrener School",
                "name": "Itrener School",
                "addr:country": "PL",
                "addr:postcode": "23-200",
                "addr:city": "Kra\u015bnik",
                "addr:street": "Urz\u0119dowska",
                "addr:housenumber": "435",
                "addr:teryt:simc": 956112,
                "addr:teryt:sym_ul": 23423,
                "contact:phone": "+48 669432192",
                "contact:email": "piotr.nowicki@itrener.com.pl",
                "ref:regon": "384643068",
                "operator": "Itrener Piotr Nowicki",
                "operator:type": "consortium",
                "fixme": "w zale\u017cno\u015bci od przedmiotu dzia\u0142alno\u015bci (np. amenity=training + training=*, amenity=dancing_school, amenity=language_school, amenity=music_school)"
            }
        },
        {
            "id": 273794,
            "type": "Feature",
            "geometry": {
                "type": "Point",
                "coordinates": [
                    22.19675,
                    50.948039900000005
                ]
            },
            "properties": {
                "ref:rspo": 273794,
                "official_name": "Itrener Academy",
                "name": "Itrener Academy",
                "addr:country": "PL",
                "addr:postcode": "23-200",
                "addr:city": "Kra\u015bnik",
                "addr:street": "Urz\u0119dowska",
                "addr:housenumber": "435",
                "addr:teryt:simc": 956112,
                "addr:teryt:sym_ul": 23423,
                "contact:phone": "+48 669432192",
                "contact:email": "piotr.nowicki@itrener.com.pl",
                "ref:regon": "384643217",
                "operator": "Itrener Piotr Nowicki",
                "operator:type": "consortium",
                "fixme": "w zale\u017cno\u015bci od przedmiotu dzia\u0142alno\u015bci (np. amenity=training + training=*, amenity=dancing_school, amenity=language_school, amenity=music_school)"
            }
        },
        {
            "id": 274381,
            "type": "Feature",
            "geometry": {
                "type": "Point",
                "coordinates": [
                    22.19675,
                    50.9480099
                ]
            },
            "properties": {
                "ref:rspo": 274381,
                "official_name": "Academia Estea - Niepubliczna Plac\u00f3wka Kszta\u0142cenia Ustawicznego",
                "name": "Academia Estea - Niepubliczna Plac\u00f3wka Kszta\u0142cenia Ustawicznego",
                "addr:country": "PL",
                "addr:postcode": "23-200",
                "addr:city": "Kra\u015bnik",
                "addr:street": "Urz\u0119dowska",
                "addr:housenumber": "435",
                "addr:teryt:simc": 956112,
                "addr:teryt:sym_ul": 23423,
                "contact:phone": "+48 574777806",
                "contact:email": "kontakt@academiaestea.pl",
                "ref:regon": "385663541",
                "operator": "Empero Sp\u00f3\u0142ka Z Ograniczon\u0105 Odpowiedzialno\u015bci\u0105",
                "operator:type": "private",
                "fixme": "w zale\u017cno\u015bci od przedmiotu dzia\u0142alno\u015bci (np. amenity=training + training=*, amenity=dancing_school, amenity=language_school, amenity=music_school)"
            }
        },
        {
            "id": 90942,
            "type": "Feature",
            "geometry": {
                "type": "Point",
                "coordinates": [
                    22.15259,
                    50.95896
                ]
            },
            "properties": {
                "ref:rspo": 90942,
                "official_name": "Szko\u0142a J\u0119zyka Angielskiego \"J.j. English S.c.\"",
                "name": "Szko\u0142a J\u0119zyka Angielskiego \"J.j. English S.c.\"",
                "addr:country": "PL",
                "addr:postcode": "23-204",
                "addr:city": "Kra\u015bnik",
                "addr:street": "Pogodna",
                "addr:housenumber": "5",
                "addr:door": "20",
                "addr:teryt:simc": 956112,
                "addr:teryt:sym_ul": 16900,
                "contact:phone": "+48 818258951",
                "ref:regon": "061493452",
                "operator": "\"J.j.english\" S.c. Rosi\u0144ska Joanna, Maj Jaros\u0142aw",
                "operator:type": "consortium",
                "fixme": "w zale\u017cno\u015bci od przedmiotu dzia\u0142alno\u015bci (np. amenity=training + training=*, amenity=dancing_school, amenity=language_school, amenity=music_school)"
            }
        },
        {
            "id": 35060,
            "type": "Feature",
            "geometry": {
                "type": "Point",
                "coordinates": [
                    22.1607999,
                    50.95904
                ]
            },
            "properties": {
                "ref:rspo": 35060,
                "official_name": "Szko\u0142a Muzyczna I Stopnia w Kra\u015bniku",
                "name": "Szko\u0142a Muzyczna I Stopnia w Kra\u015bniku",
                "addr:country": "PL",
                "addr:postcode": "23-204",
                "addr:city": "Kra\u015bnik",
                "addr:street": "Ksi\u0119dza Jerzego Popie\u0142uszki",
                "addr:housenumber": "1",
                "addr:teryt:simc": 956112,
                "addr:teryt:sym_ul": 39974,
                "contact:phone": "+48 818254564",
                "contact:email": "smuz@smuz.krasnik.pl",
                "contact:website": "http:\/\/www.smuz.krasnik.pl",
                "ref:regon": "060048187",
                "ref:vatin": "PL7151795610",
                "operator": "Miasto Kra\u015bnik",
                "operator:type": "government",
                "amenity": "music_school"
            }
        },
        {
            "id": 107235,
            "type": "Feature",
            "geometry": {
                "type": "Point",
                "coordinates": [
                    22.1607999,
                    50.95901
                ]
            },
            "properties": {
                "isced:level": "1;2",
                "ref:rspo": 107235,
                "official_name": "Szko\u0142a Podstawowa Nr 5 im. Henryka Sienkiewicza w Kra\u015bniku",
                "name": "Szko\u0142a Podstawowa Nr 5",
                "addr:country": "PL",
                "addr:postcode": "23-204",
                "addr:city": "Kra\u015bnik",
                "addr:street": "Ksi\u0119dza Jerzego Popie\u0142uszki",
                "addr:housenumber": "1",
                "addr:teryt:simc": 956112,
                "addr:teryt:sym_ul": 39974,
                "contact:phone": "+48 818256684",
                "contact:email": "psp5krasnik@poczta.onet.pl",
                "contact:website": "http:\/\/www.psp5krasnik.szkolnastrona.pl",
                "ref:regon": "000714640",
                "ref:vatin": "PL7151049019",
                "operator": "Miasto Kra\u015bnik",
                "operator:type": "government",
                "amenity": "school"
            }
        },
        {
            "id": 113921,
            "type": "Feature",
            "geometry": {
                "type": "Point",
                "coordinates": [
                    22.1607999,
                    50.958980000000004
                ]
            },
            "properties": {
                "ref:rspo": 113921,
                "official_name": "Niepubliczna Plac\u00f3wka Kszta\u0142cenia Ustawicznego Tb System",
                "name": "Niepubliczna Plac\u00f3wka Kszta\u0142cenia Ustawicznego Tb System",
                "addr:country": "PL",
                "addr:postcode": "23-204",
                "addr:city": "Kra\u015bnik",
                "addr:street": "Ksi\u0119dza Jerzego Popie\u0142uszki",
                "addr:housenumber": "1",
                "addr:teryt:simc": 956112,
                "addr:teryt:sym_ul": 39974,
                "contact:phone": "+48 504199838",
                "contact:email": "biuro@tbsystem.pl",
                "contact:website": "http:\/\/www.tbsystem.pl",
                "ref:regon": "061546770",
                "operator": "Tadeusz Bube\u0142a",
                "operator:type": "private",
                "fixme": "w zale\u017cno\u015bci od przedmiotu dzia\u0142alno\u015bci (np. amenity=training + training=*, amenity=dancing_school, amenity=language_school, amenity=music_school)"
            }
        },
        {
            "id": 276767,
            "type": "Feature",
            "geometry": {
                "type": "Point",
                "coordinates": [
                    22.1607999,
                    50.95895
                ]
            },
            "properties": {
                "ref:rspo": 276767,
                "official_name": "Szkolne Schronisko M\u0142odzie\u017cowe -",
                "name": "Szkolne Schronisko M\u0142odzie\u017cowe -",
                "addr:country": "PL",
                "addr:postcode": "23-200",
                "addr:city": "Kra\u015bnik",
                "addr:street": "Ksi\u0119dza Jerzego Popie\u0142uszki",
                "addr:housenumber": "1",
                "addr:teryt:simc": 956112,
                "addr:teryt:sym_ul": 39974,
                "contact:phone": "+48 814587074",
                "contact:email": "kontakt@dsn.krasnik.pl",
                "ref:regon": "387550829",
                "operator": "Miasto Kra\u015bnik",
                "operator:type": "government",
                "tourism": "hostel"
            }
        },
        {
            "id": 89845,
            "type": "Feature",
            "geometry": {
                "type": "Point",
                "coordinates": [
                    22.1759999,
                    50.95966
                ]
            },
            "properties": {
                "ref:rspo": 89845,
                "official_name": "Centrum Szkole\u0144 Europejskich",
                "name": "Centrum Szkole\u0144 Europejskich",
                "addr:country": "PL",
                "addr:postcode": "23-210",
                "addr:city": "Kra\u015bnik",
                "addr:street": "Piastowska",
                "addr:housenumber": "46",
                "addr:teryt:simc": 956112,
                "addr:teryt:sym_ul": 16046,
                "contact:phone": "+48 818255045",
                "contact:email": "mwroblewski.cse@vp.pl",
                "contact:website": "http:\/\/www.dotacjeonline.eu",
                "ref:regon": "061492033",
                "ref:vatin": "PL8621405861",
                "operator": "Micha\u0142 Wr\u00f3blewski",
                "operator:type": "private",
                "fixme": "w zale\u017cno\u015bci od przedmiotu dzia\u0142alno\u015bci (np. amenity=training + training=*, amenity=dancing_school, amenity=language_school, amenity=music_school)"
            }
        },
        {
            "id": 14940,
            "type": "Feature",
            "geometry": {
                "type": "Point",
                "coordinates": [
                    22.15307,
                    50.96114
                ]
            },
            "properties": {
                "ref:rspo": 14940,
                "official_name": "Zesp\u00f3\u0142 Szk\u00f3\u0142 Nr 2 w Kra\u015bniku",
                "name": "Zesp\u00f3\u0142 Szk\u00f3\u0142 Nr 2 w Kra\u015bniku",
                "addr:country": "PL",
                "addr:postcode": "23-204",
                "addr:city": "Kra\u015bnik",
                "addr:street": "Genera\u0142a W\u0142adys\u0142awa Sikorskiego",
                "addr:housenumber": "25",
                "addr:teryt:simc": 956112,
                "addr:teryt:sym_ul": 38378,
                "contact:phone": "+48 818256986",
                "contact:email": "rey@rey.edu.pl",
                "contact:website": "http:\/\/www.rey.edu.pl",
                "ref:regon": "431170010",
                "ref:vatin": "PL7151586450",
                "operator": "Powiat Kra\u015bnicki",
                "operator:type": "government",
                "landuse": "education",
                "fixme": "amenity=school, amenity=college albo landuse=education w zale\u017cno\u015bci od tego, jakie plac\u00f3wki wchodz\u0105 w sk\u0142ad zespo\u0142u. Sprawd\u017a, kiedy stosowa\u0107 amenity=* a kiedy landuse=education.",
                "note": "Children RSPO: 87280;87391"
            }
        },
        {
            "id": 87280,
            "type": "Feature",
            "geometry": {
                "type": "Point",
                "coordinates": [
                    22.15307,
                    50.96111
                ]
            },
            "properties": {
                "isced:level": "3",
                "ref:rspo": 87280,
                "official_name": "Ii Liceum Og\u00f3lnokszta\u0142c\u0105ce im. Miko\u0142aja Reja w Kra\u015bniku",
                "name": "Ii Liceum Og\u00f3lnokszta\u0142c\u0105ce",
                "addr:country": "PL",
                "addr:postcode": "23-204",
                "addr:city": "Kra\u015bnik",
                "addr:street": "Genera\u0142a W\u0142adys\u0142awa Sikorskiego",
                "addr:housenumber": "25",
                "addr:teryt:simc": 956112,
                "addr:teryt:sym_ul": 38378,
                "contact:phone": "+48 818256986",
                "contact:email": "rey@rey.edu.pl",
                "contact:website": "http:\/\/www.rey.edu.pl",
                "ref:regon": "431272153",
                "ref:vatin": "PL7151586450",
                "operator": "Powiat Kra\u015bnicki",
                "operator:type": "government",
                "amenity": "school",
                "note": "Parent RSPO: 14940"
            }
        },
        {
            "id": 87391,
            "type": "Feature",
            "geometry": {
                "type": "Point",
                "coordinates": [
                    22.15307,
                    50.96108
                ]
            },
            "properties": {
                "isced:level": "3",
                "ref:rspo": 87391,
                "official_name": "Technikum Nr 2 w Kra\u015bniku",
                "name": "Technikum Nr 2 w Kra\u015bniku",
                "addr:country": "PL",
                "addr:postcode": "23-204",
                "addr:city": "Kra\u015bnik",
                "addr:street": "Genera\u0142a W\u0142adys\u0142awa Sikorskiego",
                "addr:housenumber": "25",
                "addr:teryt:simc": 956112,
                "addr:teryt:sym_ul": 38378,
                "contact:phone": "+48 818256986",
                "contact:email": "rey@rey.edu.pl",
                "contact:website": "http:\/\/www.rey.edu.pl",
                "ref:regon": "432519348",
                "ref:vatin": "PL7151586450",
                "operator": "Powiat Kra\u015bnicki",
                "operator:type": "government",
                "amenity": "school",
                "note": "Parent RSPO: 14940"
            }
        },
        {
            "id": 105857,
            "type": "Feature",
            "geometry": {
                "type": "Point",
                "coordinates": [
                    22.16654,
                    50.96116
                ]
            },
            "properties": {
                "ref:rspo": 105857,
                "official_name": "Przedszkole Miejskie Nr 4 w Kra\u015bniku",
                "name": "Przedszkole Miejskie Nr 4 w Kra\u015bniku",
                "addr:country": "PL",
                "addr:postcode": "23-204",
                "addr:city": "Kra\u015bnik",
                "addr:street": "Juliusza S\u0142owackiego",
                "addr:housenumber": "5",
                "addr:teryt:simc": 956112,
                "addr:teryt:sym_ul": 20291,
                "contact:phone": "+48 818255252",
                "contact:email": "przedszkole4krasnik@interia.pl",
                "contact:website": "http:\/\/www.pm4.krasnik.pl",
                "ref:regon": "430533137",
                "ref:vatin": "PL7151015552",
                "operator": "Miasto Kra\u015bnik",
                "operator:type": "government",
                "amenity": "kindergarten"
            }
        },
        {
            "id": 105863,
            "type": "Feature",
            "geometry": {
                "type": "Point",
                "coordinates": [
                    22.16012,
                    50.96118
                ]
            },
            "properties": {
                "ref:rspo": 105863,
                "official_name": "Przedszkole Miejskie Nr 2 w Krasniku",
                "name": "Przedszkole Miejskie Nr 2 w Krasniku",
                "addr:country": "PL",
                "addr:postcode": "23-204",
                "addr:city": "Kra\u015bnik",
                "addr:street": "Jana Matejki",
                "addr:housenumber": "1",
                "addr:teryt:simc": 956112,
                "addr:teryt:sym_ul": 12489,
                "contact:phone": "+48 818256612",
                "contact:email": "pmatejko2@wp.pl",
                "ref:regon": "430533150",
                "ref:vatin": "PL7151015138",
                "operator": "Miasto Kra\u015bnik",
                "operator:type": "government",
                "amenity": "kindergarten"
            }
        },
        {
            "id": 13974,
            "type": "Feature",
            "geometry": {
                "type": "Point",
                "coordinates": [
                    22.17026,
                    50.96127
                ]
            },
            "properties": {
                "ref:rspo": 13974,
                "official_name": "Powiatowy Zesp\u00f3\u0142 Poradni Psychologiczno-Pedagogicznych w Kra\u015bniku",
                "name": "Powiatowy Zesp\u00f3\u0142 Poradni Psychologiczno-Pedagogicznych w Kra\u015bniku",
                "addr:country": "PL",
                "addr:postcode": "23-210",
                "addr:city": "Kra\u015bnik",
                "addr:street": "Juliusza S\u0142owackiego",
                "addr:housenumber": "7",
                "addr:teryt:simc": 956112,
                "addr:teryt:sym_ul": 20291,
                "contact:phone": "+48 818258788",
                "contact:email": "poradniakrasnik@o2.pl",
                "ref:regon": "432319158",
                "ref:vatin": "PL7151740922",
                "operator": "Powiat Kra\u015bnicki",
                "operator:type": "government",
                "healthcare": "counselling",
                "counselling_type": "education",
                "fixme": "w zale\u017cno\u015bci od przedmiotu dzia\u0142alno\u015bci (np. healthcare=counselling + counselling_type=education albo healthcare=psychotherapist)"
            }
        },
        {
            "id": 15370,
            "type": "Feature",
            "geometry": {
                "type": "Point",
                "coordinates": [
                    22.17026,
                    50.96124
                ]
            },
            "properties": {
                "ref:rspo": 15370,
                "official_name": "Zesp\u00f3\u0142 Szk\u00f3\u0142 Nr 3 w Kra\u015bniku",
                "name": "Zesp\u00f3\u0142 Szk\u00f3\u0142 Nr 3 w Kra\u015bniku",
                "addr:country": "PL",
                "addr:postcode": "23-204",
                "addr:city": "Kra\u015bnik",
                "addr:street": "Juliusza S\u0142owackiego",
                "addr:housenumber": "7",
                "addr:teryt:simc": 956112,
                "addr:teryt:sym_ul": 20291,
                "contact:phone": "+48 818255426",
                "contact:email": "zs3@zs3krasnik.pl",
                "ref:regon": "431169998",
                "ref:vatin": "PL7151586237",
                "operator": "Powiat Kra\u015bnicki",
                "operator:type": "government",
                "landuse": "education",
                "fixme": "amenity=school, amenity=college albo landuse=education w zale\u017cno\u015bci od tego, jakie plac\u00f3wki wchodz\u0105 w sk\u0142ad zespo\u0142u. Sprawd\u017a, kiedy stosowa\u0107 amenity=* a kiedy landuse=education.",
                "note": "Children RSPO: 14083;72551;72575;72597;72693;72759;265490;275991;276008"
            }
        },
        {
            "id": 14083,
            "type": "Feature",
            "geometry": {
                "type": "Point",
                "coordinates": [
                    22.17026,
                    50.96121
                ]
            },
            "properties": {
                "ref:rspo": 14083,
                "official_name": "Bursa Szkolna w Kra\u015bniku",
                "name": "Bursa Szkolna w Kra\u015bniku",
                "addr:country": "PL",
                "addr:postcode": "23-204",
                "addr:city": "Kra\u015bnik",
                "addr:street": "Juliusza S\u0142owackiego",
                "addr:housenumber": "7",
                "addr:teryt:simc": 956112,
                "addr:teryt:sym_ul": 20291,
                "contact:phone": "+48 818260904",
                "contact:email": "bursakrasnik@wp.pl",
                "contact:website": "http:\/\/www.bursa.krasnik.pl",
                "ref:regon": "060396221",
                "ref:vatin": "PL7151892796",
                "operator": "Powiat Kra\u015bnicki",
                "operator:type": "government",
                "building": "dormitory",
                "note": "Parent RSPO: 15370"
            }
        },
        {
            "id": 72551,
            "type": "Feature",
            "geometry": {
                "type": "Point",
                "coordinates": [
                    22.17026,
                    50.96118
                ]
            },
            "properties": {
                "isced:level": "3",
                "ref:rspo": 72551,
                "official_name": "Bran\u017cowa Szko\u0142a I Stopnia Nr 2 im. Juliusza S\u0142owackiego w Kra\u015bniku",
                "name": "Bran\u017cowa Szko\u0142a I Stopnia Nr 2",
                "addr:country": "PL",
                "addr:postcode": "23-204",
                "addr:city": "Kra\u015bnik",
                "addr:street": "Juliusza S\u0142owackiego",
                "addr:housenumber": "7",
                "addr:teryt:simc": 956112,
                "addr:teryt:sym_ul": 20291,
                "contact:phone": "+48 818255426",
                "contact:email": "zs3@zs3krasnik.pl",
                "contact:website": "http:\/\/zs3krasnik.pl",
                "ref:regon": "431258756",
                "ref:vatin": "PL7151586237",
                "operator": "Powiat Kra\u015bnicki",
                "operator:type": "government",
                "amenity": "school",
                "note": "Parent RSPO: 15370"
            }
        },
        {
            "id": 72575,
            "type": "Feature",
            "geometry": {
                "type": "Point",
                "coordinates": [
                    22.17026,
                    50.961149999999996
                ]
            },
            "properties": {
                "isced:level": "3",
                "ref:rspo": 72575,
                "official_name": "Iii Liceum Og\u00f3lnokszta\u0142c\u0105ce im. Juliusza S\u0142owackiego w Kra\u015bniku",
                "name": "Iii Liceum Og\u00f3lnokszta\u0142c\u0105ce",
                "addr:country": "PL",
                "addr:postcode": "23-210",
                "addr:city": "Kra\u015bnik",
                "addr:street": "Juliusza S\u0142owackiego",
                "addr:housenumber": "7",
                "addr:teryt:simc": 956112,
                "addr:teryt:sym_ul": 20291,
                "contact:phone": "+48 818255426",
                "contact:email": "zs3@zs3krasnik.pl",
                "contact:website": "http:\/\/zs3krasnik.pl",
                "ref:regon": "431258822",
                "ref:vatin": "PL7151586237",
                "operator": "Powiat Kra\u015bnicki",
                "operator:type": "government",
                "amenity": "school",
                "note": "Parent RSPO: 15370"
            }
        },
        {
            "id": 72597,
            "type": "Feature",
            "geometry": {
                "type": "Point",
                "coordinates": [
                    22.17026,
                    50.96112
                ]
            },
            "properties": {
                "isced:level": "3",
                "ref:rspo": 72597,
                "official_name": "Szko\u0142a Mistrzostwa Sportowego - Liceum Og\u00f3lnokszta\u0142c\u0105ce w Kra\u015bniku",
                "name": "Szko\u0142a Mistrzostwa Sportowego - Liceum Og\u00f3lnokszta\u0142c\u0105ce w Kra\u015bniku",
                "addr:country": "PL",
                "addr:postcode": "23-204",
                "addr:city": "Kra\u015bnik",
                "addr:street": "Juliusza S\u0142owackiego",
                "addr:housenumber": "7",
                "addr:teryt:simc": 956112,
                "addr:teryt:sym_ul": 20291,
                "contact:phone": "+48 818255426",
                "contact:email": "zs3@zs3krasnik.pl",
                "contact:website": "http:\/\/www.zs3krasnik.pl",
                "ref:regon": "431258791",
                "ref:vatin": "PL7151586237",
                "operator": "Powiat Kra\u015bnicki",
                "operator:type": "government",
                "amenity": "school",
                "note": "Parent RSPO: 15370"
            }
        },
        {
            "id": 72693,
            "type": "Feature",
            "geometry": {
                "type": "Point",
                "coordinates": [
                    22.17026,
                    50.96109
                ]
            },
            "properties": {
                "isced:level": "3",
                "ref:rspo": 72693,
                "official_name": "Technikum Nr 3 im. Juliusza S\u0142owackiego w Kra\u015bniku",
                "name": "Technikum Nr 3",
                "addr:country": "PL",
                "addr:postcode": "23-204",
                "addr:city": "Kra\u015bnik",
                "addr:street": "Juliusza S\u0142owackiego",
                "addr:housenumber": "7",
                "addr:teryt:simc": 956112,
                "addr:teryt:sym_ul": 20291,
                "contact:phone": "+48 818255426",
                "contact:email": "zs3@zs3krasnik.pl",
                "contact:website": "http:\/\/www.zs3krasnik.pl",
                "ref:regon": "432518544",
                "ref:vatin": "PL7151586237",
                "operator": "Powiat Kra\u015bnicki",
                "operator:type": "government",
                "amenity": "school",
                "note": "Parent RSPO: 15370"
            }
        },
        {
            "id": 72759,
            "type": "Feature",
            "geometry": {
                "type": "Point",
                "coordinates": [
                    22.17026,
                    50.961059999999996
                ]
            },
            "properties": {
                "isced:level": "4",
                "ref:rspo": 72759,
                "official_name": "Szko\u0142a Policealna Nr 2 w Kra\u015bniku",
                "name": "Szko\u0142a Policealna Nr 2 w Kra\u015bniku",
                "addr:country": "PL",
                "addr:postcode": "23-210",
                "addr:city": "Kra\u015bnik",
                "addr:street": "Juliusza S\u0142owackiego",
                "addr:housenumber": "7",
                "addr:teryt:simc": 956112,
                "addr:teryt:sym_ul": 20291,
                "contact:phone": "+48 818255968",
                "contact:email": "zs3@zs3krasnik.pl",
                "contact:website": "http:\/\/www.zs3krasnik.pl",
                "ref:regon": "061482260",
                "ref:vatin": "PL7151586237",
                "operator": "Powiat Kra\u015bnicki",
                "operator:type": "government",
                "amenity": "college",
                "note": "Parent RSPO: 15370"
            }
        },
        {
            "id": 265490,
            "type": "Feature",
            "geometry": {
                "type": "Point",
                "coordinates": [
                    22.17026,
                    50.96103
                ]
            },
            "properties": {
                "isced:level": "3",
                "ref:rspo": 265490,
                "official_name": "Liceum Og\u00f3lnokszta\u0142c\u0105ce dla Doros\u0142ych w Kra\u015bniku",
                "name": "Liceum Og\u00f3lnokszta\u0142c\u0105ce dla Doros\u0142ych w Kra\u015bniku",
                "addr:country": "PL",
                "addr:postcode": "23-204",
                "addr:city": "Kra\u015bnik",
                "addr:street": "Juliusza S\u0142owackiego",
                "addr:housenumber": "7",
                "addr:teryt:simc": 956112,
                "addr:teryt:sym_ul": 20291,
                "contact:phone": "+48 818255426",
                "contact:email": "zs3@zs3krasnik.pl",
                "contact:website": "http:\/\/www.zs3krasnik.pl",
                "ref:regon": "368752396",
                "operator": "Powiat Kra\u015bnicki",
                "operator:type": "government",
                "amenity": "school",
                "note": "Parent RSPO: 15370"
            }
        },
        {
            "id": 275991,
            "type": "Feature",
            "geometry": {
                "type": "Point",
                "coordinates": [
                    22.17026,
                    50.961
                ]
            },
            "properties": {
                "isced:level": "3",
                "ref:rspo": 275991,
                "official_name": "Bran\u017cowa Szko\u0142a II Stopnia w Kra\u015bniku",
                "name": "Bran\u017cowa Szko\u0142a II Stopnia w Kra\u015bniku",
                "addr:country": "PL",
                "addr:postcode": "23-204",
                "addr:city": "Kra\u015bnik",
                "addr:street": "Juliusza S\u0142owackiego",
                "addr:housenumber": "7",
                "addr:teryt:simc": 956112,
                "addr:teryt:sym_ul": 20291,
                "contact:phone": "+48 818255426",
                "contact:email": "zs3@zs3krasnik.pl",
                "contact:website": "http:\/\/www.zs3krasnik.pl",
                "ref:regon": "386963191",
                "operator": "Powiat Kra\u015bnicki",
                "operator:type": "government",
                "amenity": "school",
                "note": "Parent RSPO: 15370"
            }
        },
        {
            "id": 276008,
            "type": "Feature",
            "geometry": {
                "type": "Point",
                "coordinates": [
                    22.17026,
                    50.960969999999996
                ]
            },
            "properties": {
                "ref:rspo": 276008,
                "official_name": "Centrum Kszta\u0142cenia Zawodowego w Kra\u015bniku",
                "name": "Centrum Kszta\u0142cenia Zawodowego w Kra\u015bniku",
                "addr:country": "PL",
                "addr:postcode": "23-204",
                "addr:city": "Kra\u015bnik",
                "addr:street": "Juliusza S\u0142owackiego",
                "addr:housenumber": "7",
                "addr:teryt:simc": 956112,
                "addr:teryt:sym_ul": 20291,
                "contact:phone": "+48 818255426",
                "contact:email": "zs3@zs3krasnik.pl",
                "contact:website": "http:\/\/www.zs3krasnik.pl",
                "ref:regon": "386963908",
                "operator": "Powiat Kra\u015bnicki",
                "operator:type": "government",
                "fixme": "w zale\u017cno\u015bci od przedmiotu dzia\u0142alno\u015bci (np. amenity=training + training=*, amenity=dancing_school, amenity=language_school, amenity=music_school) albo amenity=school, amenity=college, albo landuse=education w zale\u017cno\u015bci od tego, jakie plac\u00f3wki wchodz\u0105 w sk\u0142ad zespo\u0142u. Sprawd\u017a, kiedy stosowa\u0107 amenity=* a kiedy landuse=education.",
                "note": "Parent RSPO: 15370"
            }
        },
        {
            "id": 105876,
            "type": "Feature",
            "geometry": {
                "type": "Point",
                "coordinates": [
                    22.1738458,
                    50.961796
                ]
            },
            "properties": {
                "ref:rspo": 105876,
                "official_name": "Integracyjne Przedszkole Miejskie Nr 3 w Kra\u015bniku",
                "name": "Integracyjne Przedszkole Miejskie Nr 3 w Kra\u015bniku",
                "addr:country": "PL",
                "addr:postcode": "23-204",
                "addr:city": "Kra\u015bnik",
                "addr:street": "Balladyny",
                "addr:housenumber": "8",
                "addr:teryt:simc": 956112,
                "addr:teryt:sym_ul": 639,
                "contact:phone": "+48 818255706",
                "contact:email": "przedszkole-nr3@wp.pl",
                "contact:website": "http:\/\/www.przedszkolenr3.eu",
                "ref:regon": "430533189",
                "ref:vatin": "PL7151049249",
                "operator": "Miasto Kra\u015bnik",
                "operator:type": "government",
                "amenity": "kindergarten"
            }
        },
        {
            "id": 42214,
            "type": "Feature",
            "geometry": {
                "type": "Point",
                "coordinates": [
                    22.16635,
                    50.96268
                ]
            },
            "properties": {
                "isced:level": "1;2",
                "ref:rspo": 42214,
                "official_name": "Spo\u0142eczna Szko\u0142a Podstawowa im. 24 Pu\u0142ku U\u0142an\u00f3w w Kra\u015bniku",
                "name": "Spo\u0142eczna Szko\u0142a Podstawowa",
                "addr:country": "PL",
                "addr:postcode": "23-204",
                "addr:city": "Kra\u015bnik",
                "addr:street": "Szpitalna",
                "addr:housenumber": "1A",
                "addr:teryt:simc": 956112,
                "addr:teryt:sym_ul": 22073,
                "contact:phone": "+48 818261538",
                "contact:email": "sskrasnik@poczta.onet.pl",
                "contact:website": "http:\/\/www.szkolaspoleczna.krasnik.pl",
                "ref:regon": "061480604",
                "ref:vatin": "PL7150201353",
                "operator": "Kra\u015bnickie Towarzystwo Edukacyjne",
                "operator:type": "ngo",
                "amenity": "school"
            }
        },
        {
            "id": 273996,
            "type": "Feature",
            "geometry": {
                "type": "Point",
                "coordinates": [
                    22.16635,
                    50.96265
                ]
            },
            "properties": {
                "isced:level": "3",
                "ref:rspo": 273996,
                "official_name": "Spo\u0142eczne Liceum Og\u00f3lnokszta\u0142c\u0105ce im. 24 Pu\u0142ku U\u0142an\u00f3w w Kra\u015bniku",
                "name": "Spo\u0142eczne Liceum Og\u00f3lnokszta\u0142c\u0105ce",
                "addr:country": "PL",
                "addr:postcode": "23-204",
                "addr:city": "Kra\u015bnik",
                "addr:street": "Szpitalna",
                "addr:housenumber": "1A",
                "addr:teryt:simc": 956112,
                "addr:teryt:sym_ul": 22073,
                "contact:phone": "+48 818256864",
                "contact:email": "sskrasnik@poczta.onet.pl",
                "ref:regon": "384985136",
                "operator": "Kra\u015bnickie Towarzystwo Edukacyjne",
                "operator:type": "ngo",
                "amenity": "school"
            }
        },
        {
            "id": 105624,
            "type": "Feature",
            "geometry": {
                "type": "Point",
                "coordinates": [
                    22.15897,
                    50.96275
                ]
            },
            "properties": {
                "ref:rspo": 105624,
                "official_name": "Przedszkole Miejskie Nr 1 S\u0142oneczny Promyk w Kra\u015bniku",
                "name": "Przedszkole Miejskie Nr 1 S\u0142oneczny Promyk w Kra\u015bniku",
                "addr:country": "PL",
                "addr:postcode": "23-204",
                "addr:city": "Kra\u015bnik",
                "addr:street": "Stanis\u0142awa Moniuszki",
                "addr:housenumber": "3",
                "addr:teryt:simc": 956112,
                "addr:teryt:sym_ul": 13246,
                "contact:phone": "+48 818256916",
                "contact:email": "slonecznypromyk@vp.pl",
                "contact:website": "http:\/\/www.slonecznypromyk.eu",
                "ref:regon": "430533172",
                "ref:vatin": "PL7151015492",
                "operator": "Miasto Kra\u015bnik",
                "operator:type": "government",
                "amenity": "kindergarten"
            }
        },
        {
            "id": 14977,
            "type": "Feature",
            "geometry": {
                "type": "Point",
                "coordinates": [
                    22.157,
                    50.96279
                ]
            },
            "properties": {
                "isced:level": "3",
                "ref:rspo": 14977,
                "official_name": "Liceum Og\u00f3lnokszta\u0142c\u0105ce dla Doros\u0142ych \"\u017bak\" w Kra\u015bniku",
                "name": "Liceum Og\u00f3lnokszta\u0142c\u0105ce dla Doros\u0142ych \"\u017bak\" w Kra\u015bniku",
                "addr:country": "PL",
                "addr:postcode": "23-204",
                "addr:city": "Kra\u015bnik",
                "addr:street": "Aleja Niepodleg\u0142o\u015bci",
                "addr:housenumber": "39",
                "addr:teryt:simc": 956112,
                "addr:teryt:sym_ul": 30816,
                "contact:phone": "+48 818250238",
                "contact:email": "krasnik@zak.edu.pl",
                "contact:website": "http:\/\/www.zak.edu.pl",
                "ref:regon": "061483318",
                "operator": "Centrum Nauki I Biznesu \"\u017bak\" Sp\u00f3\u0142ka Z Ograniczon\u0105 Odpowiedzialno\u015bci\u0105",
                "operator:type": "private",
                "amenity": "school"
            }
        },
        {
            "id": 15239,
            "type": "Feature",
            "geometry": {
                "type": "Point",
                "coordinates": [
                    22.157,
                    50.962759999999996
                ]
            },
            "properties": {
                "isced:level": "4",
                "ref:rspo": 15239,
                "official_name": "Szko\u0142a Policealna Centrum Nauki I Biznesu \"\u017bak\" w Kra\u015bniku",
                "name": "Szko\u0142a Policealna Centrum Nauki I Biznesu \"\u017bak\" w Kra\u015bniku",
                "addr:country": "PL",
                "addr:postcode": "23-204",
                "addr:city": "Kra\u015bnik",
                "addr:street": "Aleja Niepodleg\u0142o\u015bci",
                "addr:housenumber": "39",
                "addr:teryt:simc": 956112,
                "addr:teryt:sym_ul": 30816,
                "contact:phone": "+48 818250238",
                "contact:email": "krasnik@zak.edu.pl",
                "contact:website": "http:\/\/www.zak.edu.pl",
                "ref:regon": "061460808",
                "operator": "Centrum Nauki I Biznesu \"\u017bak\" Sp\u00f3\u0142ka Z Ograniczon\u0105 Odpowiedzialno\u015bci\u0105",
                "operator:type": "private",
                "amenity": "college"
            }
        },
        {
            "id": 90395,
            "type": "Feature",
            "geometry": {
                "type": "Point",
                "coordinates": [
                    22.157,
                    50.96273
                ]
            },
            "properties": {
                "ref:rspo": 90395,
                "official_name": "O\u015brodek Szkoleniowy Centrum Nauki I Biznesu \"\u017bak\" w Kra\u015bniku",
                "name": "O\u015brodek Szkoleniowy Centrum Nauki I Biznesu \"\u017bak\" w Kra\u015bniku",
                "addr:country": "PL",
                "addr:postcode": "23-204",
                "addr:city": "Kra\u015bnik",
                "addr:street": "Aleja Niepodleg\u0142o\u015bci",
                "addr:housenumber": "39",
                "addr:teryt:simc": 956112,
                "addr:teryt:sym_ul": 30816,
                "contact:phone": "+48 818250238",
                "contact:email": "krasnik@zak.edu.pl",
                "contact:website": "http:\/\/www.zak.edu.pl",
                "ref:regon": "061492760",
                "operator": "Centrum Nauki I Biznesu \"\u017bak\" Sp\u00f3\u0142ka Z Ograniczon\u0105 Odpowiedzialno\u015bci\u0105",
                "operator:type": "private",
                "fixme": "w zale\u017cno\u015bci od przedmiotu dzia\u0142alno\u015bci (np. amenity=training + training=*, amenity=dancing_school, amenity=language_school, amenity=music_school)"
            }
        },
        {
            "id": 269280,
            "type": "Feature",
            "geometry": {
                "type": "Point",
                "coordinates": [
                    22.157,
                    50.9627
                ]
            },
            "properties": {
                "isced:level": "4",
                "ref:rspo": 269280,
                "official_name": "Szko\u0142a Policealna Opieki Medycznej \"\u017bak\" w Kra\u015bniku",
                "name": "Szko\u0142a Policealna Opieki Medycznej \"\u017bak\" w Kra\u015bniku",
                "addr:country": "PL",
                "addr:postcode": "23-204",
                "addr:city": "Kra\u015bnik",
                "addr:street": "Aleja Niepodleg\u0142o\u015bci",
                "addr:housenumber": "39",
                "addr:teryt:simc": 956112,
                "addr:teryt:sym_ul": 30816,
                "contact:phone": "+48 818250238",
                "contact:email": "krasnik@zak.edu.pl",
                "contact:website": "http:\/\/www.zak.edu.pl",
                "ref:regon": "381442435",
                "operator": "Centrum Nauki I Biznesu \"\u017bak\" Sp\u00f3\u0142ka Z Ograniczon\u0105 Odpowiedzialno\u015bci\u0105",
                "operator:type": "private",
                "amenity": "college"
            }
        },
        {
            "id": 40748,
            "type": "Feature",
            "geometry": {
                "type": "Point",
                "coordinates": [
                    22.16535,
                    50.96436
                ]
            },
            "properties": {
                "isced:level": "1;2",
                "ref:rspo": 40748,
                "official_name": "Szko\u0142a Podstawowa Nr 6 im. Jana Paw\u0142a II w Kra\u015bniku",
                "name": "Szko\u0142a Podstawowa Nr 6",
                "addr:country": "PL",
                "addr:postcode": "23-204",
                "addr:city": "Kra\u015bnik",
                "addr:street": "Grunwaldzka",
                "addr:housenumber": "2",
                "addr:teryt:simc": 956112,
                "addr:teryt:sym_ul": 6260,
                "contact:phone": "+48 818261647",
                "contact:email": "sp6krasnik@onet.pl",
                "contact:website": "http:\/\/www.sp6.krasnik.pl",
                "ref:regon": "000783982",
                "ref:vatin": "PL7151020547",
                "operator": "Miasto Kra\u015bnik",
                "operator:type": "government",
                "amenity": "school"
            }
        },
        {
            "id": 265726,
            "type": "Feature",
            "geometry": {
                "type": "Point",
                "coordinates": [
                    22.16535,
                    50.96433
                ]
            },
            "properties": {
                "isced:level": "4",
                "ref:rspo": 265726,
                "official_name": "Policealna Szko\u0142a Jednoroczna \"Akademia Sukcesu\" w Kra\u015bniku",
                "name": "Policealna Szko\u0142a Jednoroczna \"Akademia Sukcesu\" w Kra\u015bniku",
                "addr:country": "PL",
                "addr:postcode": "23-204",
                "addr:city": "Kra\u015bnik",
                "addr:street": "Grunwaldzka",
                "addr:housenumber": "2",
                "addr:teryt:simc": 956112,
                "addr:teryt:sym_ul": 6260,
                "contact:email": "agnieszka.czarnowska@as.edu.pl",
                "ref:regon": "368875006",
                "operator": "Fundacja Inicjatywa Na Rzecz Edukacji",
                "operator:type": "ngo",
                "amenity": "college"
            }
        },
        {
            "id": 23170,
            "type": "Feature",
            "geometry": {
                "type": "Point",
                "coordinates": [
                    22.17673,
                    50.96528
                ]
            },
            "properties": {
                "ref:rspo": 23170,
                "official_name": "Niepubliczna Plac\u00f3wka Doskonalenia Nauczycieli \"Sof-Okles\"",
                "name": "Niepubliczna Plac\u00f3wka Doskonalenia Nauczycieli \"Sof-Okles\"",
                "addr:country": "PL",
                "addr:postcode": "23-210",
                "addr:city": "Kra\u015bnik",
                "addr:street": "Fabryczna",
                "addr:housenumber": "6",
                "addr:teryt:simc": 956112,
                "addr:teryt:sym_ul": 4863,
                "contact:phone": "+48 818257683",
                "contact:email": "info@sof-okles.edu.pl",
                "contact:website": "http:\/\/www.sof-okles.edu.pl",
                "ref:regon": "061466350",
                "ref:vatin": "PL8211418692",
                "operator": "Niepubliczna Plac\u00f3wka Doskonalenia Nauczycieli \"Sof-Okles\" Hanna Oklesi\u0144ska",
                "operator:type": "ngo",
                "amenity": "training"
            }
        },
        {
            "id": 125308,
            "type": "Feature",
            "geometry": {
                "type": "Point",
                "coordinates": [
                    22.1647399,
                    50.96555
                ]
            },
            "properties": {
                "ref:rspo": 125308,
                "official_name": "Niepubliczne Przedszkole \"Gwiazdeczka 3\"",
                "name": "Niepubliczne Przedszkole \"Gwiazdeczka 3\"",
                "addr:country": "PL",
                "addr:postcode": "23-204",
                "addr:city": "Kra\u015bnik",
                "addr:street": "Grunwaldzka",
                "addr:housenumber": "4",
                "addr:teryt:simc": 956112,
                "addr:teryt:sym_ul": 6260,
                "contact:phone": "+48 509584343",
                "contact:email": "ulas70@op.pl",
                "contact:website": "http:\/\/zespolgwiazdeczka.pl",
                "ref:regon": "061731377",
                "ref:vatin": "PL7151463115",
                "operator": "Urszula Smo\u0142ecka",
                "operator:type": "private",
                "amenity": "kindergarten"
            }
        }
    ]
}