{
    "type": "FeatureCollection",
    "features": [
        {
            "id": 62435,
            "type": "Feature",
            "geometry": {
                "type": "Point",
                "coordinates": [
                    22.43125,
                    50.89701
                ]
            },
            "properties": {
                "isced:level": "1;2",
                "ref:rspo": 62435,
                "official_name": "Publiczna Szko\u0142a Podstawowa im. Wincentego Witosa w Studziankach",
                "name": "Publiczna Szko\u0142a Podstawowa",
                "addr:postcode": "23-213",
                "addr:place": "Studzianki",
                "addr:housenumber": "63",
                "addr:city:simc": 394252,
                "phone": "+48 818230006",
                "email": "stu2@op.pl",
                "ref:regon": "001152373",
                "ref:vatin": "PL7151340192",
                "operator": "Gmina Zakrz\u00f3wek",
                "operator:type": "government",
                "amenity": "school"
            }
        },
        {
            "id": 90936,
            "type": "Feature",
            "geometry": {
                "type": "Point",
                "coordinates": [
                    22.36013,
                    50.91138
                ]
            },
            "properties": {
                "isced:level": "1;2",
                "ref:rspo": 90936,
                "official_name": "Publiczna Szko\u0142a Podstawowa im. Marii Konopnickiej w Sulowie",
                "name": "Publiczna Szko\u0142a Podstawowa",
                "addr:postcode": "23-213",
                "addr:place": "Sul\u00f3w",
                "addr:housenumber": "75",
                "addr:city:simc": 394275,
                "phone": "+48 818217281",
                "email": "spsulow75@poczta.onet.pl",
                "website": "http:\/\/zssulow.superszkolna.pl\/",
                "ref:regon": "001152380",
                "ref:vatin": "PL7151347716",
                "operator": "Gmina Zakrz\u00f3wek",
                "operator:type": "government",
                "amenity": "school"
            }
        },
        {
            "id": 72516,
            "type": "Feature",
            "geometry": {
                "type": "Point",
                "coordinates": [
                    22.40962,
                    50.92913
                ]
            },
            "properties": {
                "isced:level": "1;2",
                "ref:rspo": 72516,
                "official_name": "Publiczna Szko\u0142a Podstawowa im. Jana Matejki w Majdanie-Grabinie",
                "name": "Publiczna Szko\u0142a Podstawowa",
                "addr:postcode": "23-213",
                "addr:place": "Majdan-Grabina",
                "addr:housenumber": "145A",
                "addr:city:simc": 394170,
                "phone": "+48 818230250",
                "email": "pspmajdan@interia.pl",
                "ref:regon": "430542975",
                "ref:vatin": "PL7151347685",
                "operator": "Gmina Zakrz\u00f3wek",
                "operator:type": "government",
                "amenity": "school"
            }
        },
        {
            "id": 62349,
            "type": "Feature",
            "geometry": {
                "type": "Point",
                "coordinates": [
                    22.44738,
                    50.94421
                ]
            },
            "properties": {
                "isced:level": "1;2",
                "ref:rspo": 62349,
                "official_name": "Publiczna Szko\u0142a Podstawowa im. Jana Paw\u0142a II w Rudniku Drugim",
                "name": "Publiczna Szko\u0142a Podstawowa",
                "addr:postcode": "23-213",
                "addr:place": "Rudnik Drugi",
                "addr:housenumber": "86",
                "addr:city:simc": 394230,
                "phone": "+48 818215097",
                "email": "rud2rud@poczta.onet.pl",
                "ref:regon": "001152367",
                "ref:vatin": "PL7151340157",
                "operator": "Gmina Zakrz\u00f3wek",
                "operator:type": "government",
                "amenity": "school"
            }
        },
        {
            "id": 90933,
            "type": "Feature",
            "geometry": {
                "type": "Point",
                "coordinates": [
                    22.38226,
                    50.94756
                ]
            },
            "properties": {
                "isced:level": "1;2",
                "ref:rspo": 90933,
                "official_name": "Publiczna Szko\u0142a Podstawowa im.jana Kochanowskiego w Zakrz\u00f3wku",
                "name": "Publiczna Szko\u0142a Podstawowa im.jana Kochanowskiego w Zakrz\u00f3wku",
                "addr:postcode": "23-213",
                "addr:city": "Zakrz\u00f3wek",
                "addr:street": "Henryka Sienkiewicza",
                "addr:housenumber": "1",
                "addr:city:simc": 394312,
                "addr:street:sym_ul": 19830,
                "phone": "+48 818215006",
                "email": "zszakrzowek@op.pl",
                "website": "http:\/\/zszakrzowek.szkolnastrona.pl\/",
                "ref:regon": "431257030",
                "ref:vatin": "PL7151337468",
                "operator": "Gmina Zakrz\u00f3wek",
                "operator:type": "government",
                "amenity": "school"
            }
        },
        {
            "id": 90934,
            "type": "Feature",
            "geometry": {
                "type": "Point",
                "coordinates": [
                    22.38226,
                    50.94753
                ]
            },
            "properties": {
                "ref:rspo": 90934,
                "official_name": "Publiczne Przedszkole w Zakrz\u00f3wku",
                "name": "Publiczne Przedszkole w Zakrz\u00f3wku",
                "addr:postcode": "23-213",
                "addr:city": "Zakrz\u00f3wek",
                "addr:street": "Henryka Sienkiewicza",
                "addr:housenumber": "1",
                "addr:city:simc": 394312,
                "addr:street:sym_ul": 19830,
                "phone": "+48 818215006",
                "email": "przedszkole@zakrzowek.pl",
                "ref:regon": "431257076",
                "ref:vatin": "PL7151945736",
                "operator": "Gmina Zakrz\u00f3wek",
                "operator:type": "government",
                "amenity": "kindergarten"
            }
        },
        {
            "id": 62588,
            "type": "Feature",
            "geometry": {
                "type": "Point",
                "coordinates": [
                    22.40419,
                    50.97802
                ]
            },
            "properties": {
                "isced:level": "1;2",
                "ref:rspo": 62588,
                "official_name": "Publiczna Szko\u0142a Podstawowa im. Stanis\u0142awa Szwai w Bystrzycy",
                "name": "Publiczna Szko\u0142a Podstawowa",
                "addr:postcode": "23-213",
                "addr:place": "Bystrzyca",
                "addr:housenumber": "137",
                "addr:city:simc": 394111,
                "phone": "+48 815032264",
                "email": "pspbystrzyca@gmail.com",
                "website": "http:\/\/pspbystrzyca.pl",
                "ref:regon": "061480018",
                "ref:vatin": "PL7151929134",
                "operator": "Stowarzyszenie Spo\u0142eczno\u015bci Wiejskiej \"Nasza Szko\u0142a\"",
                "operator:type": "ngo",
                "amenity": "school"
            }
        },
        {
            "id": 90763,
            "type": "Feature",
            "geometry": {
                "type": "Point",
                "coordinates": [
                    22.40419,
                    50.97799
                ]
            },
            "properties": {
                "ref:rspo": 90763,
                "official_name": "Niepubliczny Punkt Przedszkolny \"Nasze Przedszkole\"",
                "name": "Niepubliczny Punkt Przedszkolny \"Nasze Przedszkole\"",
                "addr:postcode": "23-213",
                "addr:place": "Bystrzyca",
                "addr:housenumber": "137",
                "addr:city:simc": 394111,
                "phone": "+48 815032264",
                "email": "pspbystrzyca@gmail.com",
                "website": "http:\/\/pspbystrzyca.pl",
                "ref:regon": "061493386",
                "ref:vatin": "PL7151929134",
                "operator": "Stowarzyszenie Spo\u0142eczno\u015bci Wiejskiej \"Nasza Szko\u0142a\"",
                "operator:type": "ngo",
                "amenity": "kindergarten"
            }
        }
    ]
}