{
    "type": "FeatureCollection",
    "features": [
        {
            "id": 82622,
            "type": "Feature",
            "geometry": {
                "type": "Point",
                "coordinates": [
                    22.31717,
                    50.96479
                ]
            },
            "properties": {
                "isced:level": "1;2",
                "ref:rspo": 82622,
                "official_name": "Szko\u0142a Podstawowa im. Kr\u00f3lowej Jadwigi w Rudniku Szlacheckim",
                "name": "Szko\u0142a Podstawowa",
                "addr:postcode": "23-212",
                "addr:place": "Rudnik Szlachecki",
                "addr:housenumber": "38",
                "addr:teryt:simc": 393241,
                "phone": "+48 818211513",
                "email": "sprudnikszlachecki@wp.pl",
                "website": "http:\/\/www.rudniksp.webd.pl",
                "ref:regon": "001250450",
                "ref:vatin": "PL7151639910",
                "operator": "Gmina Wilko\u0142az",
                "operator:type": "government",
                "amenity": "school"
            }
        },
        {
            "id": 93055,
            "type": "Feature",
            "geometry": {
                "type": "Point",
                "coordinates": [
                    22.24528,
                    50.99531
                ]
            },
            "properties": {
                "isced:level": "1;2",
                "ref:rspo": 93055,
                "official_name": "Szko\u0142a Podstawowa im. Wac\u0142awa Rafalskiego w Ostrowie",
                "name": "Szko\u0142a Podstawowa",
                "addr:postcode": "23-212",
                "addr:place": "Ostr\u00f3w",
                "addr:housenumber": "9",
                "addr:teryt:simc": 393212,
                "phone": "+48 818213131",
                "email": "spostrow@interia.pl",
                "website": "http:\/\/www.spostrow.neostrada.pl",
                "ref:regon": "001152210",
                "ref:vatin": "PL7151640422",
                "operator": "Gmina Wilko\u0142az",
                "operator:type": "government",
                "amenity": "school"
            }
        },
        {
            "id": 92205,
            "type": "Feature",
            "geometry": {
                "type": "Point",
                "coordinates": [
                    22.33653,
                    51.00262
                ]
            },
            "properties": {
                "ref:rspo": 92205,
                "official_name": "Przedszkole Gminne w Wilko\u0142azie",
                "name": "Przedszkole Gminne w Wilko\u0142azie",
                "addr:postcode": "23-212",
                "addr:place": "Wilko\u0142az Pierwszy",
                "addr:housenumber": "7",
                "addr:teryt:simc": 393264,
                "phone": "+48 818212011",
                "email": "przedszkolewilkolaz@gmail.com",
                "ref:regon": "431228465",
                "ref:vatin": "PL7151640801",
                "operator": "Gmina Wilko\u0142az",
                "operator:type": "government",
                "amenity": "kindergarten"
            }
        },
        {
            "id": 93069,
            "type": "Feature",
            "geometry": {
                "type": "Point",
                "coordinates": [
                    22.33653,
                    51.00259
                ]
            },
            "properties": {
                "isced:level": "1;2",
                "ref:rspo": 93069,
                "official_name": "Szko\u0142a Podstawowa im. Tadeusza Ko\u015bciuszki w Wilko\u0142azie",
                "name": "Szko\u0142a Podstawowa",
                "addr:postcode": "23-212",
                "addr:place": "Wilko\u0142az Pierwszy",
                "addr:housenumber": "7",
                "addr:teryt:simc": 393264,
                "phone": "+48 818212009",
                "email": "sekretariat.spwilkolaz@gmail.com",
                "ref:regon": "000273324",
                "operator": "Gmina Wilko\u0142az",
                "operator:type": "government",
                "amenity": "school"
            }
        },
        {
            "id": 84724,
            "type": "Feature",
            "geometry": {
                "type": "Point",
                "coordinates": [
                    22.33892,
                    51.04465
                ]
            },
            "properties": {
                "isced:level": "1;2",
                "ref:rspo": 84724,
                "official_name": "Szko\u0142a Podstawowa w Marian\u00f3wce",
                "name": "Szko\u0142a Podstawowa w Marian\u00f3wce",
                "addr:postcode": "23-212",
                "addr:place": "Marian\u00f3wka",
                "addr:housenumber": "40",
                "addr:teryt:simc": 393175,
                "phone": "+48 818212040",
                "email": "sp.marianowka@wp.pl",
                "ref:regon": "001152226",
                "ref:vatin": "PL7151640497",
                "operator": "Gmina Wilko\u0142az",
                "operator:type": "government",
                "amenity": "school"
            }
        }
    ]
}