{
    "type": "FeatureCollection",
    "features": [
        {
            "id": 47479,
            "type": "Feature",
            "geometry": {
                "type": "Point",
                "coordinates": [
                    21.99339,
                    50.81682
                ]
            },
            "properties": {
                "isced:level": "1;2",
                "ref:rspo": 47479,
                "official_name": "Publiczna Szko\u0142a Podstawowa im. Ks. Karola Konopki w Szczecynie",
                "name": "Publiczna Szko\u0142a Podstawowa",
                "addr:postcode": "23-275",
                "addr:place": "Szczecyn",
                "addr:housenumber": "50",
                "addr:city:simc": 792254,
                "phone": "+48 158381115",
                "email": "psp.kk.szczecyn@gmail.com",
                "website": "http:\/\/www.pspszczecyn.szkolnastrona.pl",
                "ref:regon": "061475968",
                "ref:vatin": "PL7151935318",
                "operator": "Stowarzyszenie Na Rzecz Rozwoju Wsi Szczecyn",
                "operator:type": "ngo",
                "amenity": "school"
            }
        },
        {
            "id": 84148,
            "type": "Feature",
            "geometry": {
                "type": "Point",
                "coordinates": [
                    21.94665,
                    50.83144
                ]
            },
            "properties": {
                "isced:level": "1;2",
                "ref:rspo": 84148,
                "official_name": "Publiczna Szko\u0142a Podstawowa im. Marii Konopnickiej w Mniszku",
                "name": "Publiczna Szko\u0142a Podstawowa",
                "addr:postcode": "23-275",
                "addr:place": "Mniszek",
                "addr:housenumber": "67",
                "addr:city:simc": 792194,
                "phone": "+48 158381562",
                "email": "pspmniszek3@wp.pl",
                "website": "http:\/\/www.pspmniszek3.szkolnastrona.pl",
                "ref:regon": "001187377",
                "ref:vatin": "PL7151646436",
                "operator": "Gmina Go\u015bcierad\u00f3w",
                "operator:type": "government",
                "amenity": "school"
            }
        },
        {
            "id": 84150,
            "type": "Feature",
            "geometry": {
                "type": "Point",
                "coordinates": [
                    21.99314,
                    50.86583
                ]
            },
            "properties": {
                "ref:rspo": 84150,
                "official_name": "Zesp\u00f3\u0142 Plac\u00f3wek O\u015bwiatowych im. Jana Paw\u0142a II w Go\u015bcieradowie",
                "name": "Zesp\u00f3\u0142 Plac\u00f3wek O\u015bwiatowych",
                "addr:postcode": "23-275",
                "addr:place": "Go\u015bcierad\u00f3w-Folwark",
                "addr:housenumber": "18",
                "addr:city:simc": 791993,
                "phone": "+48 158381134",
                "email": "pspgoscieradow@interia.pl",
                "website": "http:\/\/www.zpojpii.goscieradow.pl",
                "ref:regon": "432294725",
                "ref:vatin": "PL7151646407",
                "operator": "Gmina Go\u015bcierad\u00f3w",
                "operator:type": "government",
                "landuse": "education",
                "fixme": "amenity=school, amenity=college albo landuse=education w zale\u017cno\u015bci od tego, jakie plac\u00f3wki wchodz\u0105 w sk\u0142ad zespo\u0142u. Sprawd\u017a, kiedy stosowa\u0107 amenity=* a kiedy landuse=education.",
                "note": "Children RSPO: 92559;92560"
            }
        },
        {
            "id": 92559,
            "type": "Feature",
            "geometry": {
                "type": "Point",
                "coordinates": [
                    21.99314,
                    50.8658
                ]
            },
            "properties": {
                "isced:level": "1;2",
                "ref:rspo": 92559,
                "official_name": "Publiczna Szko\u0142a Podstawowa w Go\u015bcieradowie",
                "name": "Publiczna Szko\u0142a Podstawowa w Go\u015bcieradowie",
                "addr:postcode": "23-275",
                "addr:place": "Go\u015bcierad\u00f3w-Folwark",
                "addr:housenumber": "18",
                "addr:city:simc": 791993,
                "phone": "+48 158381134",
                "email": "pspgoscieradow@interia.pl",
                "website": "http:\/\/zpojpii.goscieradow.pl",
                "ref:regon": "000269104",
                "ref:vatin": "PL7151646407",
                "operator": "Gmina Go\u015bcierad\u00f3w",
                "operator:type": "government",
                "amenity": "school",
                "note": "Parent RSPO: 84150"
            }
        },
        {
            "id": 92560,
            "type": "Feature",
            "geometry": {
                "type": "Point",
                "coordinates": [
                    21.99314,
                    50.865770000000005
                ]
            },
            "properties": {
                "ref:rspo": 92560,
                "official_name": "Publiczne Przedszkole w Go\u015bcieradowie",
                "name": "Publiczne Przedszkole w Go\u015bcieradowie",
                "addr:postcode": "23-275",
                "addr:place": "Go\u015bcierad\u00f3w-Folwark",
                "addr:housenumber": "18",
                "addr:city:simc": 791993,
                "phone": "+48 158381224",
                "email": "pspgoscieradow@interia.pl",
                "website": "http:\/\/www.zpogoscieradow.pl",
                "ref:regon": "830255068",
                "ref:vatin": "PL7151646459",
                "operator": "Gmina Go\u015bcierad\u00f3w",
                "operator:type": "government",
                "amenity": "kindergarten",
                "note": "Parent RSPO: 84150"
            }
        },
        {
            "id": 121666,
            "type": "Feature",
            "geometry": {
                "type": "Point",
                "coordinates": [
                    21.98977,
                    50.86629
                ]
            },
            "properties": {
                "isced:level": "1;2",
                "ref:rspo": 121666,
                "official_name": "Szko\u0142a Podstawowa Specjalna w Olbi\u0119cinie - Szko\u0142a Filialna Przy Dps w Go\u015bcieradowie",
                "name": "Szko\u0142a Podstawowa Specjalna w Olbi\u0119cinie - Szko\u0142a Filialna Przy Dps w Go\u015bcieradowie",
                "addr:postcode": "23-275",
                "addr:place": "Go\u015bcierad\u00f3w-Folwark",
                "addr:housenumber": "20",
                "addr:city:simc": 791993,
                "phone": "+48 158731424",
                "email": "soswolbiecin@poczta.onet.pl",
                "ref:regon": "616436800",
                "ref:vatin": "PL7151644839",
                "operator": "Powiat Kra\u015bnicki",
                "operator:type": "government",
                "amenity": "school",
                "note": "Parent RSPO: 121645"
            }
        },
        {
            "id": 13821,
            "type": "Feature",
            "geometry": {
                "type": "Point",
                "coordinates": [
                    22.0315206,
                    50.872466
                ]
            },
            "properties": {
                "ref:rspo": 13821,
                "official_name": "Zesp\u00f3\u0142 Szk\u00f3\u0142 im. W\u0142adys\u0142awa Stanis\u0142awa Reymonta w W\u00f3lce Go\u015bcieradowskiej",
                "name": "Zesp\u00f3\u0142 Szk\u00f3\u0142",
                "addr:postcode": "23-275",
                "addr:place": "W\u00f3lka Go\u015bcieradowska",
                "addr:housenumber": "72a",
                "addr:city:simc": 792260,
                "phone": "+48 158381138",
                "email": "wolkaszk@wp.pl",
                "website": "http:\/\/wolkaszkola.pl",
                "ref:regon": "431171498",
                "ref:vatin": "PL7151586958",
                "operator": "Powiat Kra\u015bnicki",
                "operator:type": "government",
                "landuse": "education",
                "fixme": "amenity=school, amenity=college albo landuse=education w zale\u017cno\u015bci od tego, jakie plac\u00f3wki wchodz\u0105 w sk\u0142ad zespo\u0142u. Sprawd\u017a, kiedy stosowa\u0107 amenity=* a kiedy landuse=education.",
                "note": "Children RSPO: 66483;87650;87651;87653;265461"
            }
        },
        {
            "id": 66483,
            "type": "Feature",
            "geometry": {
                "type": "Point",
                "coordinates": [
                    22.0315206,
                    50.872436
                ]
            },
            "properties": {
                "isced:level": "3",
                "ref:rspo": 66483,
                "official_name": "Liceum Og\u00f3lnokszta\u0142c\u0105ce w W\u00f3lce Go\u015bcieradowskiej",
                "name": "Liceum Og\u00f3lnokszta\u0142c\u0105ce w W\u00f3lce Go\u015bcieradowskiej",
                "addr:postcode": "23-275",
                "addr:place": "W\u00f3lka Go\u015bcieradowska",
                "addr:housenumber": "72A",
                "addr:city:simc": 792260,
                "phone": "+48 158381138",
                "email": "wolkaszk@wp.pl",
                "ref:regon": "431257610",
                "ref:vatin": "PL7151652690",
                "operator": "Powiat Kra\u015bnicki",
                "operator:type": "government",
                "amenity": "school",
                "note": "Parent RSPO: 13821"
            }
        },
        {
            "id": 87650,
            "type": "Feature",
            "geometry": {
                "type": "Point",
                "coordinates": [
                    22.0315206,
                    50.872406000000005
                ]
            },
            "properties": {
                "isced:level": "4",
                "ref:rspo": 87650,
                "official_name": "Szkola Policealna w W\u00f3lce Go\u015bcieradowskiej",
                "name": "Szkola Policealna w W\u00f3lce Go\u015bcieradowskiej",
                "addr:postcode": "23-275",
                "addr:place": "W\u00f3lka Go\u015bcieradowska",
                "addr:housenumber": "72A",
                "addr:city:simc": 792260,
                "phone": "+48 158381138",
                "email": "wolkaszk@wp.pl",
                "ref:regon": "060057223",
                "ref:vatin": "PL7151799329",
                "operator": "Powiat Kra\u015bnicki",
                "operator:type": "government",
                "amenity": "college",
                "note": "Parent RSPO: 13821"
            }
        },
        {
            "id": 87651,
            "type": "Feature",
            "geometry": {
                "type": "Point",
                "coordinates": [
                    22.0315206,
                    50.872376
                ]
            },
            "properties": {
                "isced:level": "3",
                "ref:rspo": 87651,
                "official_name": "Technikum w W\u00f3lce Go\u015bcieradowskiej",
                "name": "Technikum w W\u00f3lce Go\u015bcieradowskiej",
                "addr:postcode": "23-275",
                "addr:place": "W\u00f3lka Go\u015bcieradowska",
                "addr:housenumber": "72A",
                "addr:city:simc": 792260,
                "phone": "+48 158381138",
                "email": "wolkaszk@wp.pl",
                "ref:regon": "432515586",
                "ref:vatin": "PL7151709409",
                "operator": "Powiat Kra\u015bnicki",
                "operator:type": "government",
                "amenity": "school",
                "note": "Parent RSPO: 13821"
            }
        },
        {
            "id": 87653,
            "type": "Feature",
            "geometry": {
                "type": "Point",
                "coordinates": [
                    22.0315206,
                    50.872346
                ]
            },
            "properties": {
                "isced:level": "3",
                "ref:rspo": 87653,
                "official_name": "Bran\u017cowa Szko\u0142a I Stopnia w W\u00f3lce Go\u015bcieradowskiej",
                "name": "Bran\u017cowa Szko\u0142a I Stopnia w W\u00f3lce Go\u015bcieradowskiej",
                "addr:postcode": "23-275",
                "addr:place": "W\u00f3lka Go\u015bcieradowska",
                "addr:housenumber": "72A",
                "addr:city:simc": 792260,
                "phone": "+48 158381138",
                "email": "wolkaszk@wp.pl",
                "website": "http:\/\/www.wolkaszkola.pl",
                "ref:regon": "431257580",
                "ref:vatin": "PL7151652767",
                "operator": "Powiat Kra\u015bnicki",
                "operator:type": "government",
                "amenity": "school",
                "note": "Parent RSPO: 13821"
            }
        },
        {
            "id": 265461,
            "type": "Feature",
            "geometry": {
                "type": "Point",
                "coordinates": [
                    22.0315206,
                    50.872316000000005
                ]
            },
            "properties": {
                "isced:level": "3",
                "ref:rspo": 265461,
                "official_name": "Liceum Og\u00f3lnokszta\u0142c\u0105ce dla Doros\u0142ych w W\u00f3lce Go\u015bcieradowskiej",
                "name": "Liceum Og\u00f3lnokszta\u0142c\u0105ce dla Doros\u0142ych w W\u00f3lce Go\u015bcieradowskiej",
                "addr:postcode": "23-275",
                "addr:place": "W\u00f3lka Go\u015bcieradowska",
                "addr:housenumber": "72A",
                "addr:city:simc": 792260,
                "phone": "+48 158381138",
                "email": "wolkaszk@wp.pl",
                "ref:regon": "368739697",
                "operator": "Powiat Kra\u015bnicki",
                "operator:type": "government",
                "amenity": "school",
                "note": "Parent RSPO: 13821"
            }
        },
        {
            "id": 84027,
            "type": "Feature",
            "geometry": {
                "type": "Point",
                "coordinates": [
                    22.057545,
                    50.8868812
                ]
            },
            "properties": {
                "isced:level": "1;2",
                "ref:rspo": 84027,
                "official_name": "Publiczna Szko\u0142a Podstawowa im. Janiny Wierzchowskiej w LI\u015bniku Du\u017cym",
                "name": "Publiczna Szko\u0142a Podstawowa",
                "addr:postcode": "23-275",
                "addr:place": "Li\u015bnik Du\u017cy",
                "addr:housenumber": "161",
                "addr:city:simc": 792136,
                "phone": "+48 158383103",
                "email": "dlugoszka@wp.pl",
                "website": "http:\/\/www.zslisnik.goscieradow.pl",
                "ref:regon": "001187354",
                "ref:vatin": "PL7151646413",
                "operator": "Gmina Go\u015bcierad\u00f3w",
                "operator:type": "government",
                "amenity": "school"
            }
        },
        {
            "id": 91342,
            "type": "Feature",
            "geometry": {
                "type": "Point",
                "coordinates": [
                    21.96365,
                    50.9224
                ]
            },
            "properties": {
                "ref:rspo": 91342,
                "official_name": "Zesp\u00f3\u0142 Szk\u00f3\u0142 im. J\u00f3zefa Twaroga w Ksi\u0119\u017comierzy",
                "name": "Zesp\u00f3\u0142 Szk\u00f3\u0142",
                "addr:postcode": "23-275",
                "addr:place": "Ksi\u0119\u017comierz-Kolonia",
                "addr:housenumber": "14",
                "addr:city:simc": 792113,
                "phone": "+48 158381350",
                "email": "ksiezomierz@o2.pl",
                "website": "http:\/\/www.zsksiezomierz.goscieradow.pl",
                "ref:regon": "432668730",
                "ref:vatin": "PL7151733862",
                "operator": "Gmina Go\u015bcierad\u00f3w",
                "operator:type": "government",
                "landuse": "education",
                "fixme": "amenity=school, amenity=college albo landuse=education w zale\u017cno\u015bci od tego, jakie plac\u00f3wki wchodz\u0105 w sk\u0142ad zespo\u0142u. Sprawd\u017a, kiedy stosowa\u0107 amenity=* a kiedy landuse=education.",
                "note": "Children RSPO: 83755;83961"
            }
        },
        {
            "id": 83755,
            "type": "Feature",
            "geometry": {
                "type": "Point",
                "coordinates": [
                    21.96365,
                    50.92237
                ]
            },
            "properties": {
                "isced:level": "1;2",
                "ref:rspo": 83755,
                "official_name": "Publiczna Szko\u0142a Podstawowa im. J\u00f3zefa Twaroga w Ksi\u0119\u017comierzy",
                "name": "Publiczna Szko\u0142a Podstawowa",
                "addr:postcode": "23-275",
                "addr:place": "Ksi\u0119\u017comierz-Kolonia",
                "addr:housenumber": "14",
                "addr:city:simc": 792113,
                "phone": "+48 158381350",
                "email": "ksiezomierz@o2.pl",
                "website": "http:\/\/www.zsksiezomierz.goscieradow.pl",
                "ref:regon": "001187348",
                "ref:vatin": "PL7151646442",
                "operator": "Gmina Go\u015bcierad\u00f3w",
                "operator:type": "government",
                "amenity": "school",
                "note": "Parent RSPO: 91342"
            }
        },
        {
            "id": 83961,
            "type": "Feature",
            "geometry": {
                "type": "Point",
                "coordinates": [
                    21.96365,
                    50.922340000000005
                ]
            },
            "properties": {
                "ref:rspo": 83961,
                "official_name": "Publiczne Przedszkole w Ksi\u0119\u017comierzy",
                "name": "Publiczne Przedszkole w Ksi\u0119\u017comierzy",
                "addr:postcode": "23-275",
                "addr:place": "Ksi\u0119\u017comierz-Kolonia",
                "addr:housenumber": "14",
                "addr:city:simc": 792113,
                "phone": "+48 158381357",
                "email": "ksiezomierz@o2.pl",
                "website": "http:\/\/www.zsksiezomierz.goscieradow.pl",
                "ref:regon": "830255051",
                "ref:vatin": "PL7151646465",
                "operator": "Gmina Go\u015bcierad\u00f3w",
                "operator:type": "government",
                "amenity": "kindergarten",
                "note": "Parent RSPO: 91342"
            }
        }
    ]
}