{
    "type": "FeatureCollection",
    "features": [
        {
            "id": 119014,
            "type": "Feature",
            "geometry": {
                "type": "Point",
                "coordinates": [
                    19.76062,
                    52.98126
                ]
            },
            "properties": {
                "ref:rspo": 119014,
                "official_name": "Zesp\u00f3\u0142 Szk\u00f3\u0142 w Lutocinie",
                "name": "Zesp\u00f3\u0142 Szk\u00f3\u0142 w Lutocinie",
                "addr:postcode": "09-317",
                "addr:city": "Lutocin",
                "addr:street": "Szkolna",
                "addr:housenumber": "14",
                "addr:city:simc": 119215,
                "addr:street:sym_ul": 21970,
                "phone": "+48 236581006",
                "email": "splutocin@onet.pl",
                "ref:regon": "146831268",
                "operator": "Gmina Lutocin",
                "operator:type": "government",
                "landuse": "education",
                "fixme": "amenity=school, amenity=college albo landuse=education w zale\u017cno\u015bci od tego, jakie plac\u00f3wki wchodz\u0105 w sk\u0142ad zespo\u0142u. Sprawd\u017a, kiedy stosowa\u0107 amenity=* a kiedy landuse=education.",
                "note": "Children RSPO: 87225;87268"
            }
        },
        {
            "id": 87225,
            "type": "Feature",
            "geometry": {
                "type": "Point",
                "coordinates": [
                    19.76062,
                    52.98123
                ]
            },
            "properties": {
                "ref:rspo": 87225,
                "official_name": "Przedszkole Samorz\u0105dowe w Lutocinie",
                "name": "Przedszkole Samorz\u0105dowe w Lutocinie",
                "addr:postcode": "09-317",
                "addr:city": "Lutocin",
                "addr:street": "Szkolna",
                "addr:housenumber": "14",
                "addr:city:simc": 119215,
                "addr:street:sym_ul": 21970,
                "phone": "+48 236581048",
                "email": "przedszkole.lutocin@neostrada.pl",
                "ref:regon": "130500450",
                "ref:vatin": "PL5110131912",
                "operator": "Gmina Lutocin",
                "operator:type": "government",
                "amenity": "kindergarten",
                "note": "Parent RSPO: 119014"
            }
        },
        {
            "id": 87268,
            "type": "Feature",
            "geometry": {
                "type": "Point",
                "coordinates": [
                    19.76062,
                    52.9812
                ]
            },
            "properties": {
                "isced:level": "1;2",
                "ref:rspo": 87268,
                "official_name": "Samorz\u0105dowa Szko\u0142a Podstawowa w Lutocinie",
                "name": "Samorz\u0105dowa Szko\u0142a Podstawowa w Lutocinie",
                "addr:postcode": "09-317",
                "addr:city": "Lutocin",
                "addr:street": "Szkolna",
                "addr:housenumber": "14",
                "addr:city:simc": 119215,
                "addr:street:sym_ul": 21970,
                "phone": "+48 236581006",
                "email": "splutocin@onet.pl",
                "ref:regon": "000575568",
                "ref:vatin": "PL5110150074",
                "operator": "Gmina Lutocin",
                "operator:type": "government",
                "amenity": "school",
                "note": "Parent RSPO: 119014"
            }
        },
        {
            "id": 111213,
            "type": "Feature",
            "geometry": {
                "type": "Point",
                "coordinates": [
                    19.8579029,
                    53.002643
                ]
            },
            "properties": {
                "isced:level": "1;2",
                "ref:rspo": 111213,
                "official_name": "Samorz\u0105dowa Szko\u0142a Podstawowa im. \u015aw. St. Kostki w Swojecinie",
                "name": "Samorz\u0105dowa Szko\u0142a Podstawowa",
                "addr:postcode": "09-317",
                "addr:place": "Swoj\u0119cin",
                "addr:housenumber": "22",
                "addr:city:simc": 119327,
                "phone": "+48 236577956",
                "email": "sspswojecin@wp.pl",
                "ref:regon": "001159145",
                "operator": "Gmina Lutocin",
                "operator:type": "government",
                "amenity": "school"
            }
        },
        {
            "id": 111216,
            "type": "Feature",
            "geometry": {
                "type": "Point",
                "coordinates": [
                    19.7802229,
                    53.0180889
                ]
            },
            "properties": {
                "isced:level": "1;2",
                "ref:rspo": 111216,
                "official_name": "Samorz\u0105dowa Szko\u0142a Podstawowa w Przeradzu Ma\u0142ym",
                "name": "Samorz\u0105dowa Szko\u0142a Podstawowa w Przeradzu Ma\u0142ym",
                "addr:postcode": "09-317",
                "addr:place": "Przeradz Ma\u0142y",
                "addr:housenumber": "9",
                "addr:city:simc": 119280,
                "phone": "+48 236573686",
                "email": "ssp.przeradz@op.pl",
                "ref:regon": "001159139",
                "ref:vatin": "PL5110153026",
                "operator": "Gmina Lutocin",
                "operator:type": "government",
                "amenity": "school"
            }
        }
    ]
}