{
    "type": "FeatureCollection",
    "features": [
        {
            "id": 106711,
            "type": "Feature",
            "geometry": {
                "type": "Point",
                "coordinates": [
                    20.04444,
                    53.08262
                ]
            },
            "properties": {
                "ref:rspo": 106711,
                "official_name": "Przedszkole im. Adama Mickiewicza",
                "name": "Przedszkole",
                "addr:country": "PL",
                "addr:postcode": "09-310",
                "addr:city": "Kuczbork-Osada",
                "addr:street": "Adama Mickiewicza",
                "addr:housenumber": "7d",
                "addr:teryt:simc": 117759,
                "addr:teryt:sym_ul": 12740,
                "contact:phone": "+48 236576300",
                "contact:email": "zpokuczbork@wp.pl",
                "contact:website": "http:\/\/zpokuczbork.szkolnastrona.pl",
                "ref:regon": "130501307",
                "operator": "Gmina Kuczbork-Osada",
                "operator:type": "government",
                "amenity": "kindergarten",
                "note": "Parent RSPO: 92094"
            }
        },
        {
            "id": 92094,
            "type": "Feature",
            "geometry": {
                "type": "Point",
                "coordinates": [
                    20.04696,
                    53.08479
                ]
            },
            "properties": {
                "ref:rspo": 92094,
                "official_name": "Zesp\u00f3\u0142 Plac\u00f3wek O\u015bwiatowych w Kuczborku-Osadzie",
                "name": "Zesp\u00f3\u0142 Plac\u00f3wek O\u015bwiatowych w Kuczborku-Osadzie",
                "addr:country": "PL",
                "addr:postcode": "09-310",
                "addr:city": "Kuczbork-Osada",
                "addr:street": "Adama Mickiewicza",
                "addr:housenumber": "6",
                "addr:teryt:simc": 117759,
                "addr:teryt:sym_ul": 12740,
                "contact:phone": "+48 236576300",
                "contact:email": "zpokuczbork@wp.pl",
                "contact:website": "http:\/\/zpokuczbork.szkolnastrona.pl",
                "ref:regon": "130443610",
                "ref:vatin": "PL5110150157",
                "operator": "Gmina Kuczbork-Osada",
                "operator:type": "government",
                "landuse": "education",
                "fixme": "amenity=school, amenity=college albo landuse=education w zale\u017cno\u015bci od tego, jakie plac\u00f3wki wchodz\u0105 w sk\u0142ad zespo\u0142u. Sprawd\u017a, kiedy stosowa\u0107 amenity=* a kiedy landuse=education.",
                "note": "Children RSPO: 106708;106711"
            }
        },
        {
            "id": 106708,
            "type": "Feature",
            "geometry": {
                "type": "Point",
                "coordinates": [
                    20.04696,
                    53.084759999999996
                ]
            },
            "properties": {
                "isced:level": "1;2",
                "ref:rspo": 106708,
                "official_name": "Szko\u0142a Podstawowa im. Adama Mickiewicza",
                "name": "Szko\u0142a Podstawowa",
                "addr:country": "PL",
                "addr:postcode": "09-310",
                "addr:city": "Kuczbork-Osada",
                "addr:street": "Adama Mickiewicza",
                "addr:housenumber": "6",
                "addr:teryt:simc": 117759,
                "addr:teryt:sym_ul": 12740,
                "contact:phone": "+48 236576300",
                "contact:email": "zpokuczbork@wp.pl",
                "contact:website": "http:\/\/zpokuczbork.szkolnastrona.pl",
                "ref:regon": "000784421",
                "operator": "Gmina Kuczbork-Osada",
                "operator:type": "government",
                "amenity": "school",
                "note": "Children RSPO: 275877Parent RSPO: 92094"
            }
        },
        {
            "id": 92095,
            "type": "Feature",
            "geometry": {
                "type": "Point",
                "coordinates": [
                    19.96289,
                    53.0932
                ]
            },
            "properties": {
                "ref:rspo": 92095,
                "official_name": "Zesp\u00f3\u0142 Plac\u00f3wek O\u015bwiatowych im. Jana Paw\u0142a II w Zielonej",
                "name": "Zesp\u00f3\u0142 Plac\u00f3wek O\u015bwiatowych",
                "addr:country": "PL",
                "addr:postcode": "09-310",
                "addr:city": "Zielona",
                "addr:street": "Szkolna",
                "addr:housenumber": "2",
                "addr:teryt:simc": 117883,
                "addr:teryt:sym_ul": 21970,
                "contact:phone": "+48 236579051",
                "contact:email": "zpozielona@op.pl",
                "ref:regon": "130455783",
                "ref:vatin": "PL5110179451",
                "operator": "Gmina Kuczbork-Osada",
                "operator:type": "government",
                "landuse": "education",
                "fixme": "amenity=school, amenity=college albo landuse=education w zale\u017cno\u015bci od tego, jakie plac\u00f3wki wchodz\u0105 w sk\u0142ad zespo\u0142u. Sprawd\u017a, kiedy stosowa\u0107 amenity=* a kiedy landuse=education.",
                "note": "Children RSPO: 106712;106714"
            }
        },
        {
            "id": 106712,
            "type": "Feature",
            "geometry": {
                "type": "Point",
                "coordinates": [
                    19.96289,
                    53.09317
                ]
            },
            "properties": {
                "isced:level": "1;2",
                "ref:rspo": 106712,
                "official_name": "Szko\u0142a Podstawowa im. Jana Paw\u0142a Ii",
                "name": "Szko\u0142a Podstawowa",
                "addr:country": "PL",
                "addr:postcode": "09-310",
                "addr:city": "Zielona",
                "addr:street": "Szkolna",
                "addr:housenumber": "2",
                "addr:teryt:simc": 117883,
                "addr:teryt:sym_ul": 21970,
                "contact:phone": "+48 236579051",
                "contact:email": "zpozielona@op.pl",
                "ref:regon": "001158080",
                "operator": "Gmina Kuczbork-Osada",
                "operator:type": "government",
                "amenity": "school",
                "note": "Parent RSPO: 92095"
            }
        },
        {
            "id": 106714,
            "type": "Feature",
            "geometry": {
                "type": "Point",
                "coordinates": [
                    19.96289,
                    53.093140000000005
                ]
            },
            "properties": {
                "ref:rspo": 106714,
                "official_name": "Przedszkole im. Jana Paw\u0142a Ii",
                "name": "Przedszkole",
                "addr:country": "PL",
                "addr:postcode": "09-310",
                "addr:city": "Zielona",
                "addr:street": "Szkolna",
                "addr:housenumber": "2",
                "addr:teryt:simc": 117883,
                "addr:teryt:sym_ul": 21970,
                "contact:phone": "+48 236579051",
                "contact:email": "zpozielona@op.pl",
                "ref:regon": "130501313",
                "operator": "Gmina Kuczbork-Osada",
                "operator:type": "government",
                "amenity": "kindergarten",
                "note": "Parent RSPO: 92095"
            }
        },
        {
            "id": 70741,
            "type": "Feature",
            "geometry": {
                "type": "Point",
                "coordinates": [
                    19.97444,
                    53.09364
                ]
            },
            "properties": {
                "ref:rspo": 70741,
                "official_name": "Zesp\u00f3\u0142 Szk\u00f3\u0142 im. Batalion\u00f3w Ch\u0142opskich w Zielonej",
                "name": "Zesp\u00f3\u0142 Szk\u00f3\u0142",
                "addr:country": "PL",
                "addr:postcode": "09-310",
                "addr:city": "Zielona",
                "addr:street": "1 Maja",
                "addr:housenumber": "8c",
                "addr:teryt:simc": 117883,
                "addr:teryt:sym_ul": 11926,
                "contact:phone": "+48 236579064",
                "contact:email": "zsp_zielona@poczta.onet.pl",
                "contact:website": "http:\/\/www.zspzielona.edu.pl\/",
                "ref:regon": "000861825",
                "ref:vatin": "PL5720004520",
                "operator": "Powiat \u017buromi\u0144ski",
                "operator:type": "government",
                "landuse": "education",
                "fixme": "amenity=school, amenity=college albo landuse=education w zale\u017cno\u015bci od tego, jakie plac\u00f3wki wchodz\u0105 w sk\u0142ad zespo\u0142u. Sprawd\u017a, kiedy stosowa\u0107 amenity=* a kiedy landuse=education.",
                "note": "Children RSPO: 111543;111544"
            }
        },
        {
            "id": 111543,
            "type": "Feature",
            "geometry": {
                "type": "Point",
                "coordinates": [
                    19.97444,
                    53.09361
                ]
            },
            "properties": {
                "isced:level": "3",
                "ref:rspo": 111543,
                "official_name": "Technikum w Zespole Szk\u00f3\u0142 im. Batalion\u00f3w Ch\u0142opskich w Zielonej",
                "name": "Technikum w Zespole Szk\u00f3\u0142",
                "addr:country": "PL",
                "addr:postcode": "09-310",
                "addr:city": "Zielona",
                "addr:street": "1 Maja",
                "addr:housenumber": "8c",
                "addr:teryt:simc": 117883,
                "addr:teryt:sym_ul": 11926,
                "contact:phone": "+48 236579064",
                "contact:email": "zsp_zielona@poczta.onet.pl",
                "contact:website": "http:\/\/zspzielona.szkolnastrona.pl",
                "ref:regon": "130917249",
                "ref:vatin": "PL5720004520",
                "operator": "Powiat \u017buromi\u0144ski",
                "operator:type": "government",
                "amenity": "school",
                "note": "Parent RSPO: 70741"
            }
        },
        {
            "id": 111544,
            "type": "Feature",
            "geometry": {
                "type": "Point",
                "coordinates": [
                    19.97444,
                    53.09358
                ]
            },
            "properties": {
                "isced:level": "3",
                "ref:rspo": 111544,
                "official_name": "Bran\u017cowa Szko\u0142a I Stopnia w Zespole Szk\u00f3\u0142 im. Batalion\u00f3w Ch\u0142opskich w Zielonej",
                "name": "Bran\u017cowa Szko\u0142a I Stopnia w Zespole Szk\u00f3\u0142",
                "addr:country": "PL",
                "addr:postcode": "09-310",
                "addr:city": "Zielona",
                "addr:street": "1 Maja",
                "addr:housenumber": "8c",
                "addr:teryt:simc": 117883,
                "addr:teryt:sym_ul": 11926,
                "contact:phone": "+48 236579064",
                "contact:email": "zsp_zielona@poczta.onet.pl",
                "ref:regon": "130965018",
                "ref:vatin": "PL5720004520",
                "operator": "Powiat \u017buromi\u0144ski",
                "operator:type": "government",
                "amenity": "school",
                "note": "Parent RSPO: 70741"
            }
        },
        {
            "id": 92097,
            "type": "Feature",
            "geometry": {
                "type": "Point",
                "coordinates": [
                    20.059139,
                    53.106839
                ]
            },
            "properties": {
                "isced:level": "1;2",
                "ref:rspo": 92097,
                "official_name": "Szko\u0142a Podstawowa w Chojnowie",
                "name": "Szko\u0142a Podstawowa w Chojnowie",
                "addr:country": "PL",
                "addr:postcode": "09-310",
                "addr:place": "Chojnowo",
                "addr:housenumber": "100",
                "addr:teryt:simc": 117707,
                "contact:phone": "+48 236576369",
                "contact:email": "chojnowosp@wp.pl",
                "contact:website": "http:\/\/chojnowosp.edupage.org",
                "ref:regon": "001158051",
                "ref:vatin": "PL5110150128",
                "operator": "Gmina Kuczbork-Osada",
                "operator:type": "government",
                "amenity": "school"
            }
        },
        {
            "id": 92098,
            "type": "Feature",
            "geometry": {
                "type": "Point",
                "coordinates": [
                    20.0072899,
                    53.1176359
                ]
            },
            "properties": {
                "isced:level": "1;2",
                "ref:rspo": 92098,
                "official_name": "Szko\u0142a Podstawowa w Go\u015bciszce",
                "name": "Szko\u0142a Podstawowa w Go\u015bciszce",
                "addr:country": "PL",
                "addr:postcode": "09-310",
                "addr:place": "Go\u015bciszka",
                "addr:housenumber": "82",
                "addr:teryt:simc": 117713,
                "contact:phone": "+48 236576268",
                "contact:email": "szgosciszka@wp.pl",
                "ref:regon": "001158074",
                "ref:vatin": "PL5110150134",
                "operator": "Gmina Kuczbork-Osada",
                "operator:type": "government",
                "amenity": "school"
            }
        },
        {
            "id": 275877,
            "type": "Feature",
            "geometry": {
                "type": "Point",
                "coordinates": [
                    20.06021,
                    53.13582
                ]
            },
            "properties": {
                "isced:level": "1;2",
                "ref:rspo": 275877,
                "official_name": "Szko\u0142a Filialna w Sarnowie Z Siedzib\u0105 w Nowej Wsi",
                "name": "Szko\u0142a Filialna w Sarnowie Z Siedzib\u0105 w Nowej Wsi",
                "addr:country": "PL",
                "addr:postcode": "09-310",
                "addr:place": "Nowa Wie\u015b",
                "addr:housenumber": "55",
                "addr:teryt:simc": 117825,
                "contact:phone": "+48 236576300",
                "contact:email": "zpokuczbork@wp.pl",
                "ref:regon": "784421000",
                "operator": "Gmina Kuczbork-Osada",
                "operator:type": "government",
                "amenity": "school",
                "note": "Parent RSPO: 106708"
            }
        }
    ]
}