{
    "type": "FeatureCollection",
    "features": [
        {
            "id": 8850,
            "type": "Feature",
            "geometry": {
                "type": "Point",
                "coordinates": [
                    19.92698,
                    53.02672
                ]
            },
            "properties": {
                "isced:level": "1;2",
                "ref:rspo": 8850,
                "official_name": "Szko\u0142a Podstawowa w Chamsku",
                "name": "Szko\u0142a Podstawowa w Chamsku",
                "addr:country": "PL",
                "addr:postcode": "09-300",
                "addr:city": "Chamsk",
                "addr:street": "Szkolna",
                "addr:housenumber": "19",
                "addr:teryt:simc": 21970,
                "addr:teryt:sym_ul": 130151,
                "contact:phone": "+48 691601493",
                "contact:email": "sp_chamsk@tlen.pl",
                "ref:regon": "001135417",
                "ref:vatin": "PL5110131326",
                "operator": "Gmina I Miasto \u017buromin",
                "operator:type": "government",
                "amenity": "school"
            }
        },
        {
            "id": 8849,
            "type": "Feature",
            "geometry": {
                "type": "Point",
                "coordinates": [
                    19.86471,
                    53.0409999
                ]
            },
            "properties": {
                "isced:level": "1;2",
                "ref:rspo": 8849,
                "official_name": "Szko\u0142a Podstawowa w Poniatowie",
                "name": "Szko\u0142a Podstawowa w Poniatowie",
                "addr:country": "PL",
                "addr:postcode": "09-300",
                "addr:city": "Poniatowo",
                "addr:street": "Szkolna",
                "addr:housenumber": "4",
                "addr:teryt:simc": 21970,
                "addr:teryt:sym_ul": 130286,
                "contact:phone": "+48 236571192",
                "contact:email": "spponiatowo@wp.pl",
                "ref:regon": "001134234",
                "ref:vatin": "PL5110150766",
                "operator": "Gmina I Miasto \u017buromin",
                "operator:type": "government",
                "amenity": "school"
            }
        },
        {
            "id": 8854,
            "type": "Feature",
            "geometry": {
                "type": "Point",
                "coordinates": [
                    19.86471,
                    53.0409699
                ]
            },
            "properties": {
                "ref:rspo": 8854,
                "official_name": "Punkt Przedszkolny w Szkole Podstawowej w Poniatowie",
                "name": "Punkt Przedszkolny w Szkole Podstawowej w Poniatowie",
                "addr:country": "PL",
                "addr:postcode": "09-300",
                "addr:city": "Poniatowo",
                "addr:street": "Szkolna",
                "addr:housenumber": "4",
                "addr:teryt:simc": 21970,
                "addr:teryt:sym_ul": 130286,
                "contact:phone": "+48 236571192",
                "ref:regon": "146282117",
                "operator": "Gmina I Miasto \u017buromin",
                "operator:type": "government",
                "amenity": "kindergarten"
            }
        },
        {
            "id": 8851,
            "type": "Feature",
            "geometry": {
                "type": "Point",
                "coordinates": [
                    20.0093299,
                    53.0467299
                ]
            },
            "properties": {
                "isced:level": "1;2",
                "ref:rspo": 8851,
                "official_name": "Szko\u0142a Podstawowa w Kliczewie Du\u017cym",
                "name": "Szko\u0142a Podstawowa w Kliczewie Du\u017cym",
                "addr:country": "PL",
                "addr:postcode": "09-300",
                "addr:city": "Kliczewo Du\u017ce",
                "addr:street": "Wsp\u00f3lna",
                "addr:housenumber": "68",
                "addr:teryt:simc": 24885,
                "addr:teryt:sym_ul": 130211,
                "contact:phone": "+48 236573112",
                "contact:email": "ssp.kliczewo.duze@interia.pl",
                "ref:regon": "130423790",
                "ref:vatin": "PL5110135726",
                "operator": "Gmina I Miasto \u017buromin",
                "operator:type": "government",
                "amenity": "school"
            }
        },
        {
            "id": 8848,
            "type": "Feature",
            "geometry": {
                "type": "Point",
                "coordinates": [
                    19.82745,
                    53.0501999
                ]
            },
            "properties": {
                "isced:level": "1;2",
                "ref:rspo": 8848,
                "official_name": "Szko\u0142a Podstawowa w B\u0119dzyminie",
                "name": "Szko\u0142a Podstawowa w B\u0119dzyminie",
                "addr:country": "PL",
                "addr:postcode": "09-300",
                "addr:city": "B\u0119dzymin",
                "addr:street": "G\u0142\u00f3wna",
                "addr:housenumber": "36",
                "addr:teryt:simc": 5635,
                "addr:teryt:sym_ul": 130139,
                "contact:phone": "+48 236571186",
                "contact:email": "sspbedzymin@o2.pl",
                "contact:website": "http:\/\/www.ssp-bedzymin.superszkolna.pl",
                "ref:regon": "001135423",
                "ref:vatin": "PL5110150743",
                "operator": "Gmina I Miasto \u017buromin",
                "operator:type": "government",
                "amenity": "school"
            }
        },
        {
            "id": 8847,
            "type": "Feature",
            "geometry": {
                "type": "Point",
                "coordinates": [
                    19.78876,
                    53.05185
                ]
            },
            "properties": {
                "isced:level": "1;2",
                "ref:rspo": 8847,
                "official_name": "Szko\u0142a Podstawowa w Raczynach",
                "name": "Szko\u0142a Podstawowa w Raczynach",
                "addr:country": "PL",
                "addr:postcode": "09-300",
                "addr:city": "Raczyny",
                "addr:street": "Miko\u0142aja Kopernika",
                "addr:housenumber": "5",
                "addr:teryt:simc": 9276,
                "addr:teryt:sym_ul": 130292,
                "contact:phone": "+48 236571185",
                "contact:email": "raczyny@interia.pl",
                "contact:website": "http:\/\/www.sspraczyny.republika.pl",
                "ref:regon": "001134228",
                "ref:vatin": "PL5110150772",
                "operator": "Gmina I Miasto \u017buromin",
                "operator:type": "government",
                "amenity": "school"
            }
        },
        {
            "id": 266646,
            "type": "Feature",
            "geometry": {
                "type": "Point",
                "coordinates": [
                    19.9106346,
                    53.0629462
                ]
            },
            "properties": {
                "ref:rspo": 266646,
                "official_name": "Niepubliczne Przedszkole \"Bajkowa Kraina\"",
                "name": "Niepubliczne Przedszkole \"Bajkowa Kraina\"",
                "addr:country": "PL",
                "addr:postcode": "09-300",
                "addr:city": "\u017buromin",
                "addr:street": "Genera\u0142a Sikorskiego",
                "addr:housenumber": "4B",
                "addr:teryt:simc": 37683,
                "addr:teryt:sym_ul": 930851,
                "contact:phone": "+48 505658441",
                "contact:email": "bajkowa.zuromin@gmail.com",
                "ref:regon": "369635787",
                "ref:vatin": "PL5110213225",
                "operator": "Dorota Olewnik-Michalska",
                "operator:type": "private",
                "amenity": "kindergarten"
            }
        },
        {
            "id": 125196,
            "type": "Feature",
            "geometry": {
                "type": "Point",
                "coordinates": [
                    19.90265,
                    53.06304
                ]
            },
            "properties": {
                "ref:rspo": 125196,
                "official_name": "Niepubliczny Punkt Przedszkolny \"Logosensu\u015b\"",
                "name": "Niepubliczny Punkt Przedszkolny \"Logosensu\u015b\"",
                "addr:country": "PL",
                "addr:postcode": "09-300",
                "addr:city": "\u017buromin",
                "addr:street": "\u017burawia",
                "addr:housenumber": "14",
                "addr:teryt:simc": 26579,
                "addr:teryt:sym_ul": 930851,
                "contact:phone": "+48 504878336",
                "ref:regon": "147430695",
                "operator": "Anna Margalska",
                "operator:type": "private",
                "amenity": "kindergarten"
            }
        },
        {
            "id": 74925,
            "type": "Feature",
            "geometry": {
                "type": "Point",
                "coordinates": [
                    19.91407,
                    53.06331
                ]
            },
            "properties": {
                "ref:rspo": 74925,
                "official_name": "Poradnia Psychologiczna-Pedagogiczna w \u017burominie",
                "name": "Poradnia Psychologiczna-Pedagogiczna w \u017burominie",
                "addr:country": "PL",
                "addr:postcode": "09-300",
                "addr:city": "\u017buromin",
                "addr:street": "Olszewska",
                "addr:housenumber": "9\/11",
                "addr:teryt:simc": 15005,
                "addr:teryt:sym_ul": 930851,
                "contact:phone": "+48 236572101",
                "contact:email": "ppp.zuromin@wp.pl",
                "ref:regon": "000947484",
                "ref:vatin": "PL5110132225",
                "operator": "Powiat \u017buromi\u0144ski",
                "operator:type": "government",
                "healthcare": "counselling",
                "counselling_type": "education",
                "fixme": "w zale\u017cno\u015bci od przedmiotu dzia\u0142alno\u015bci (np. healthcare=counselling + counselling_type=education albo healthcare=psychotherapist)"
            }
        },
        {
            "id": 8853,
            "type": "Feature",
            "geometry": {
                "type": "Point",
                "coordinates": [
                    19.90494,
                    53.0638099
                ]
            },
            "properties": {
                "ref:rspo": 8853,
                "official_name": "Przedszkole Samorz\u0105dowe Nr 2 w \u017burominie",
                "name": "Przedszkole Samorz\u0105dowe Nr 2 w \u017burominie",
                "addr:country": "PL",
                "addr:postcode": "09-300",
                "addr:city": "\u017buromin",
                "addr:street": "Licealna",
                "addr:housenumber": "1",
                "addr:teryt:simc": 11033,
                "addr:teryt:sym_ul": 930851,
                "contact:phone": "+48 236572981",
                "contact:email": "sp2zuromin@go2.pl",
                "contact:website": "http:\/\/www.przedszkole.zuromin.com",
                "ref:regon": "130501336",
                "ref:vatin": "PL5110140816",
                "operator": "Gmina I Miasto \u017buromin",
                "operator:type": "government",
                "amenity": "kindergarten"
            }
        },
        {
            "id": 26457,
            "type": "Feature",
            "geometry": {
                "type": "Point",
                "coordinates": [
                    19.90579,
                    53.06409
                ]
            },
            "properties": {
                "ref:rspo": 26457,
                "official_name": "Niepubliczny Punkt Przedszkolny \"Ja\u015b I Ma\u0142gosia\"",
                "name": "Niepubliczny Punkt Przedszkolny \"Ja\u015b I Ma\u0142gosia\"",
                "addr:country": "PL",
                "addr:postcode": "09-300",
                "addr:city": "\u017buromin",
                "addr:street": "Zamojskiego",
                "addr:housenumber": "16",
                "addr:teryt:simc": 25559,
                "addr:teryt:sym_ul": 930851,
                "contact:phone": "+48 669357755",
                "ref:regon": "146335925",
                "ref:vatin": "PL5110224772",
                "operator": "Anna Bilicka-Szpejna",
                "operator:type": "private",
                "amenity": "kindergarten"
            }
        },
        {
            "id": 74924,
            "type": "Feature",
            "geometry": {
                "type": "Point",
                "coordinates": [
                    19.90481,
                    53.06448
                ]
            },
            "properties": {
                "isced:level": "3",
                "ref:rspo": 74924,
                "official_name": "Liceum Og\u00f3lnokszta\u0142c\u0105ce im. Marii D\u0105browskiej w \u017burominie",
                "name": "Liceum Og\u00f3lnokszta\u0142c\u0105ce",
                "addr:country": "PL",
                "addr:postcode": "09-300",
                "addr:city": "\u017buromin",
                "addr:street": "Wyzwolenia",
                "addr:housenumber": "61",
                "addr:teryt:simc": 25133,
                "addr:teryt:sym_ul": 930851,
                "contact:phone": "+48 236572219",
                "contact:email": "lozuromin@zuromin-powiat.home.pl",
                "ref:regon": "000231662",
                "ref:vatin": "PL5691094330",
                "operator": "Powiat \u017buromi\u0144ski",
                "operator:type": "government",
                "amenity": "school"
            }
        },
        {
            "id": 26018,
            "type": "Feature",
            "geometry": {
                "type": "Point",
                "coordinates": [
                    19.91621,
                    53.06519
                ]
            },
            "properties": {
                "isced:level": "1;2",
                "ref:rspo": 26018,
                "official_name": "Szko\u0142a Podstawowa Nr 2 w \u017burominie im. Kornela Makuszy\u0144skiego",
                "name": "Szko\u0142a Podstawowa Nr 2 w \u017burominie",
                "addr:country": "PL",
                "addr:postcode": "09-300",
                "addr:city": "\u017buromin",
                "addr:street": "Wiatraczna",
                "addr:housenumber": "16",
                "addr:teryt:simc": 23972,
                "addr:teryt:sym_ul": 930851,
                "contact:phone": "+48 236573224",
                "contact:email": "sekretariat@sp2-zuromin.pl",
                "contact:website": "http:\/\/sp2-zuromin.edupage.org",
                "ref:regon": "001135430",
                "ref:vatin": "PL5110137524",
                "operator": "Gmina I Miasto \u017buromin",
                "operator:type": "government",
                "amenity": "school"
            }
        },
        {
            "id": 104396,
            "type": "Feature",
            "geometry": {
                "type": "Point",
                "coordinates": [
                    19.91026,
                    53.0654
                ]
            },
            "properties": {
                "ref:rspo": 104396,
                "official_name": "Biblioteka Pedagogiczna w Ciechanowie Filia w \u017burominie",
                "name": "Biblioteka Pedagogiczna w Ciechanowie Filia w \u017burominie",
                "addr:country": "PL",
                "addr:postcode": "09-300",
                "addr:city": "\u017buromin",
                "addr:street": "Warszawska",
                "addr:housenumber": "4",
                "addr:teryt:simc": 23682,
                "addr:teryt:sym_ul": 930851,
                "contact:phone": "+48 236572942",
                "contact:email": "bpzuromin@gmail.com",
                "contact:website": "http:\/\/www.bpzuromin.edu.pl",
                "ref:regon": "130944743",
                "ref:vatin": "PL5661888864",
                "operator": "Wojew\u00f3dztwo Mazowieckie",
                "operator:type": "government",
                "amenity": "library",
                "note": "Parent RSPO: 26343"
            }
        },
        {
            "id": 268669,
            "type": "Feature",
            "geometry": {
                "type": "Point",
                "coordinates": [
                    19.91429,
                    53.06554
                ]
            },
            "properties": {
                "isced:level": "1;2",
                "ref:rspo": 268669,
                "official_name": "Niepubliczna Specjalna Szko\u0142a Podstawowa \"Logosensu\u015b\" w \u017burominie",
                "name": "Niepubliczna Specjalna Szko\u0142a Podstawowa \"Logosensu\u015b\" w \u017burominie",
                "addr:country": "PL",
                "addr:postcode": "09-300",
                "addr:city": "\u017buromin",
                "addr:street": "Ojc\u00f3w Reformat\u00f3w",
                "addr:housenumber": "9",
                "addr:teryt:simc": 28022,
                "addr:teryt:sym_ul": 930851,
                "contact:phone": "+48 504878336",
                "contact:email": "aniula26@wp.pl",
                "ref:regon": "381228707",
                "operator": "Anna Margalska",
                "operator:type": "private",
                "amenity": "school"
            }
        },
        {
            "id": 68592,
            "type": "Feature",
            "geometry": {
                "type": "Point",
                "coordinates": [
                    19.90909,
                    53.06646
                ]
            },
            "properties": {
                "ref:rspo": 68592,
                "official_name": "Niepubliczna Spo\u0142eczna Szko\u0142a Muzyczna I St. w \u017burominie",
                "name": "Niepubliczna Spo\u0142eczna Szko\u0142a Muzyczna I St. w \u017burominie",
                "addr:country": "PL",
                "addr:postcode": "09-300",
                "addr:city": "\u017buromin",
                "addr:street": "Plac J\u00f3zefa Pi\u0142sudskiego",
                "addr:housenumber": "1",
                "addr:teryt:simc": 45311,
                "addr:teryt:sym_ul": 930851,
                "contact:phone": "+48 236572799",
                "ref:regon": "146380498",
                "operator": "Sierpeckie Towarzystwo Muzyczne",
                "operator:type": "ngo",
                "amenity": "music_school"
            }
        },
        {
            "id": 5326,
            "type": "Feature",
            "geometry": {
                "type": "Point",
                "coordinates": [
                    19.90061,
                    53.06832
                ]
            },
            "properties": {
                "ref:rspo": 5326,
                "official_name": "Centrum Kszta\u0142cenia Zawodowego I Ustawicznego w \u017burominie",
                "name": "Centrum Kszta\u0142cenia Zawodowego I Ustawicznego w \u017burominie",
                "addr:country": "PL",
                "addr:postcode": "09-300",
                "addr:city": "\u017buromin",
                "addr:street": "Lidzbarska",
                "addr:housenumber": "27C",
                "addr:teryt:simc": 11044,
                "addr:teryt:sym_ul": 930851,
                "contact:phone": "+48 236572418",
                "contact:email": "kontakt@ckziuzuromin.pl",
                "contact:website": "http:\/\/ckziuzuromin.pl",
                "ref:regon": "130868580",
                "ref:vatin": "PL5110195562",
                "operator": "Powiat \u017buromi\u0144ski",
                "operator:type": "government",
                "landuse": "education",
                "fixme": "amenity=school, amenity=college albo landuse=education w zale\u017cno\u015bci od tego, jakie plac\u00f3wki wchodz\u0105 w sk\u0142ad zespo\u0142u. Sprawd\u017a, kiedy stosowa\u0107 amenity=* a kiedy landuse=education.",
                "note": "Children RSPO: 114342;114386"
            }
        },
        {
            "id": 114342,
            "type": "Feature",
            "geometry": {
                "type": "Point",
                "coordinates": [
                    19.90061,
                    53.06829
                ]
            },
            "properties": {
                "ref:rspo": 114342,
                "official_name": "Centrum Kszta\u0142cenia Ustawicznego w \u017burominie",
                "name": "Centrum Kszta\u0142cenia Ustawicznego w \u017burominie",
                "addr:country": "PL",
                "addr:postcode": "09-300",
                "addr:city": "\u017buromin",
                "addr:street": "Lidzbarska",
                "addr:housenumber": "27c",
                "addr:teryt:simc": 11044,
                "addr:teryt:sym_ul": 930851,
                "contact:phone": "+48 236572418",
                "contact:email": "kontakt@ckziuzuromin.pl",
                "ref:regon": "146658137",
                "ref:vatin": "PL5110195562",
                "operator": "Powiat \u017buromi\u0144ski",
                "operator:type": "government",
                "amenity": "school",
                "fixme": "amenity=school lub amenity=college",
                "note": "Children RSPO: 125632;125633;278283Parent RSPO: 5326"
            }
        },
        {
            "id": 114386,
            "type": "Feature",
            "geometry": {
                "type": "Point",
                "coordinates": [
                    19.90061,
                    53.06826
                ]
            },
            "properties": {
                "ref:rspo": 114386,
                "official_name": "Centrum Kszta\u0142cenia Zawodowego w \u017burominie",
                "name": "Centrum Kszta\u0142cenia Zawodowego w \u017burominie",
                "addr:country": "PL",
                "addr:postcode": "09-300",
                "addr:city": "\u017buromin",
                "addr:street": "Lidzbarska",
                "addr:housenumber": "27c",
                "addr:teryt:simc": 11044,
                "addr:teryt:sym_ul": 930851,
                "contact:phone": "+48 236572418",
                "contact:email": "kontakt@ckziuzuromin.pl",
                "contact:website": "http:\/\/ckziuzuromin.pl",
                "ref:regon": "146660520",
                "operator": "Powiat \u017buromi\u0144ski",
                "operator:type": "government",
                "fixme": "w zale\u017cno\u015bci od przedmiotu dzia\u0142alno\u015bci (np. amenity=training + training=*, amenity=dancing_school, amenity=language_school, amenity=music_school) albo amenity=school, amenity=college, albo landuse=education w zale\u017cno\u015bci od tego, jakie plac\u00f3wki wchodz\u0105 w sk\u0142ad zespo\u0142u. Sprawd\u017a, kiedy stosowa\u0107 amenity=* a kiedy landuse=education.",
                "note": "Parent RSPO: 5326"
            }
        },
        {
            "id": 125632,
            "type": "Feature",
            "geometry": {
                "type": "Point",
                "coordinates": [
                    19.90061,
                    53.06823
                ]
            },
            "properties": {
                "isced:level": "3",
                "ref:rspo": 125632,
                "official_name": "Liceum Og\u00f3lnokszta\u0142c\u0105ce dla Doros\u0142ych w Centrum Kszta\u0142cenia Zawodowego I Ustawicznego w \u017burominie",
                "name": "Liceum Og\u00f3lnokszta\u0142c\u0105ce dla Doros\u0142ych w Centrum Kszta\u0142cenia Zawodowego I Ustawicznego w \u017burominie",
                "addr:country": "PL",
                "addr:postcode": "09-300",
                "addr:city": "\u017buromin",
                "addr:street": "Lidzbarska",
                "addr:housenumber": "27C",
                "addr:teryt:simc": 11044,
                "addr:teryt:sym_ul": 930851,
                "contact:phone": "+48 236572418",
                "contact:email": "kontakt@ckziuzuromin.pl",
                "contact:website": "http:\/\/ckziuzuromin.pl",
                "ref:regon": "140813097",
                "ref:vatin": "PL5110195562",
                "operator": "Powiat \u017buromi\u0144ski",
                "operator:type": "government",
                "amenity": "school",
                "note": "Parent RSPO: 114342"
            }
        },
        {
            "id": 125633,
            "type": "Feature",
            "geometry": {
                "type": "Point",
                "coordinates": [
                    19.90061,
                    53.0682
                ]
            },
            "properties": {
                "isced:level": "4",
                "ref:rspo": 125633,
                "official_name": "Szko\u0142a Policealna w Centrum Kszta\u0142cenia Zawodowego I Ustawicznego w \u017burominie",
                "name": "Szko\u0142a Policealna w Centrum Kszta\u0142cenia Zawodowego I Ustawicznego w \u017burominie",
                "addr:country": "PL",
                "addr:postcode": "09-300",
                "addr:city": "\u017buromin",
                "addr:street": "Lidzbarska",
                "addr:housenumber": "27C",
                "addr:teryt:simc": 11044,
                "addr:teryt:sym_ul": 930851,
                "contact:phone": "+48 236572418",
                "contact:email": "kontakt@ckziuzuromin.pl",
                "contact:website": "http:\/\/www.new.ckziuzuromin.pl\/",
                "ref:regon": "144777085",
                "ref:vatin": "PL5110195562",
                "operator": "Powiat \u017buromi\u0144ski",
                "operator:type": "government",
                "amenity": "college",
                "note": "Parent RSPO: 114342"
            }
        },
        {
            "id": 278283,
            "type": "Feature",
            "geometry": {
                "type": "Point",
                "coordinates": [
                    19.90061,
                    53.06817
                ]
            },
            "properties": {
                "isced:level": "3",
                "ref:rspo": 278283,
                "official_name": "Bran\u017cowa Szko\u0142a II Stopnia w Centrum Kszta\u0142cenia Zawodowego I Ustawicznego w \u017burominie",
                "name": "Bran\u017cowa Szko\u0142a II Stopnia w Centrum Kszta\u0142cenia Zawodowego I Ustawicznego w \u017burominie",
                "addr:country": "PL",
                "addr:postcode": "09-300",
                "addr:city": "\u017buromin",
                "addr:street": "Lidzbarska",
                "addr:housenumber": "27C",
                "addr:teryt:simc": 11044,
                "addr:teryt:sym_ul": 930851,
                "contact:phone": "+48 236572418",
                "contact:email": "kontakt@ckziuzuromin.pl",
                "contact:website": "http:\/\/ckziuzuromin.pl",
                "ref:regon": "389856260",
                "operator": "Powiat \u017buromi\u0144ski",
                "operator:type": "government",
                "amenity": "school",
                "note": "Parent RSPO: 114342"
            }
        },
        {
            "id": 70742,
            "type": "Feature",
            "geometry": {
                "type": "Point",
                "coordinates": [
                    19.9103558,
                    53.0703862
                ]
            },
            "properties": {
                "ref:rspo": 70742,
                "official_name": "Zesp\u00f3\u0142 Szk\u00f3\u0142 Specjalnych w \u017burominie",
                "name": "Zesp\u00f3\u0142 Szk\u00f3\u0142 Specjalnych w \u017burominie",
                "addr:country": "PL",
                "addr:postcode": "09-300",
                "addr:city": "\u017buromin",
                "addr:street": "Wyzwolenia",
                "addr:housenumber": "16a",
                "addr:teryt:simc": 25133,
                "addr:teryt:sym_ul": 930851,
                "contact:phone": "+48 236572337",
                "contact:email": "zss-zuromin@wp.pl",
                "contact:website": "http:\/\/zspzuromin.edupage.org",
                "ref:regon": "130423487",
                "ref:vatin": "PL5110132219",
                "operator": "Powiat \u017buromi\u0144ski",
                "operator:type": "government",
                "landuse": "education",
                "fixme": "amenity=school, amenity=college albo landuse=education w zale\u017cno\u015bci od tego, jakie plac\u00f3wki wchodz\u0105 w sk\u0142ad zespo\u0142u. Sprawd\u017a, kiedy stosowa\u0107 amenity=* a kiedy landuse=education.",
                "note": "Children RSPO: 111421;111426;124307"
            }
        },
        {
            "id": 111421,
            "type": "Feature",
            "geometry": {
                "type": "Point",
                "coordinates": [
                    19.9103558,
                    53.0703562
                ]
            },
            "properties": {
                "isced:level": "1;2",
                "ref:rspo": 111421,
                "official_name": "Szko\u0142a Podstawowa Specjalna w Zespole Szk\u00f3\u0142 Specjalnych w \u017burominie",
                "name": "Szko\u0142a Podstawowa Specjalna w Zespole Szk\u00f3\u0142 Specjalnych w \u017burominie",
                "addr:country": "PL",
                "addr:postcode": "09-300",
                "addr:city": "\u017buromin",
                "addr:street": "Wyzwolenia",
                "addr:housenumber": "16",
                "addr:teryt:simc": 25133,
                "addr:teryt:sym_ul": 930851,
                "contact:phone": "+48 236572337",
                "contact:email": "zss-zuromin@wp.pl",
                "ref:regon": "001221878",
                "ref:vatin": "PL5110132219",
                "operator": "Powiat \u017buromi\u0144ski",
                "operator:type": "government",
                "amenity": "school",
                "note": "Parent RSPO: 70742"
            }
        },
        {
            "id": 111426,
            "type": "Feature",
            "geometry": {
                "type": "Point",
                "coordinates": [
                    19.9103558,
                    53.070326200000004
                ]
            },
            "properties": {
                "ref:rspo": 111426,
                "official_name": "Szko\u0142a Specjalna Przysposabiaj\u0105ca Do Pracy w Zespole Szk\u00f3\u0142 Specjalnych w \u017burominie",
                "name": "Szko\u0142a Specjalna Przysposabiaj\u0105ca Do Pracy w Zespole Szk\u00f3\u0142 Specjalnych w \u017burominie",
                "addr:country": "PL",
                "addr:postcode": "09-300",
                "addr:city": "\u017buromin",
                "addr:street": "Wyzwolenia",
                "addr:housenumber": "16",
                "addr:teryt:simc": 25133,
                "addr:teryt:sym_ul": 930851,
                "contact:phone": "+48 236572337",
                "contact:email": "zss-zuromin@wp.pl",
                "ref:regon": "130961894",
                "ref:vatin": "PL5110132219",
                "operator": "Powiat \u017buromi\u0144ski",
                "operator:type": "government",
                "amenity": "school",
                "note": "Parent RSPO: 70742"
            }
        },
        {
            "id": 124307,
            "type": "Feature",
            "geometry": {
                "type": "Point",
                "coordinates": [
                    19.9103558,
                    53.0702962
                ]
            },
            "properties": {
                "ref:rspo": 124307,
                "official_name": "Zesp\u00f3\u0142 Szk\u00f3\u0142 Specjalnych w \u017burominie Przedszkole Specjalne",
                "name": "Zesp\u00f3\u0142 Szk\u00f3\u0142 Specjalnych w \u017burominie Przedszkole Specjalne",
                "addr:country": "PL",
                "addr:postcode": "09-300",
                "addr:city": "\u017buromin",
                "addr:street": "Wyzwolenia",
                "addr:housenumber": "16a",
                "addr:teryt:simc": 25133,
                "addr:teryt:sym_ul": 930851,
                "contact:phone": "+48 236572337",
                "contact:email": "zss-zuromin@wp.pl",
                "contact:website": "http:\/\/zss.zuromin-powiat.pl\/",
                "ref:regon": "147387025",
                "operator": "Powiat \u017buromi\u0144ski",
                "operator:type": "government",
                "amenity": "kindergarten",
                "note": "Parent RSPO: 70742"
            }
        },
        {
            "id": 8852,
            "type": "Feature",
            "geometry": {
                "type": "Point",
                "coordinates": [
                    19.90953,
                    53.07068
                ]
            },
            "properties": {
                "ref:rspo": 8852,
                "official_name": "Samorz\u0105dowe Przedszkole Nr 1 w \u017burominie",
                "name": "Samorz\u0105dowe Przedszkole Nr 1 w \u017burominie",
                "addr:country": "PL",
                "addr:postcode": "09-300",
                "addr:city": "\u017buromin",
                "addr:street": "Wyzwolenia",
                "addr:housenumber": "14",
                "addr:teryt:simc": 25133,
                "addr:teryt:sym_ul": 930851,
                "contact:phone": "+48 236572119",
                "contact:email": "przedszkole1zuromin@wp.pl",
                "contact:website": "http:\/\/www.przedszkole-zuromin.pl",
                "ref:regon": "130501320",
                "ref:vatin": "PL5110136163",
                "operator": "Gmina I Miasto \u017buromin",
                "operator:type": "government",
                "amenity": "kindergarten"
            }
        },
        {
            "id": 23641,
            "type": "Feature",
            "geometry": {
                "type": "Point",
                "coordinates": [
                    19.9106,
                    53.0709
                ]
            },
            "properties": {
                "isced:level": "1;2",
                "ref:rspo": 23641,
                "official_name": "Szko\u0142a Podstawowa Nr 1 im. Stefana \u017beromskiego w \u017burominie",
                "name": "Szko\u0142a Podstawowa Nr 1",
                "addr:country": "PL",
                "addr:postcode": "09-300",
                "addr:city": "\u017buromin",
                "addr:street": "Wyzwolenia",
                "addr:housenumber": "12",
                "addr:teryt:simc": 25133,
                "addr:teryt:sym_ul": 930851,
                "contact:phone": "+48 236573853",
                "contact:email": "zsnr1z@o2.pl",
                "contact:website": "http:\/\/www.sp1zuromin.edupage.org",
                "ref:regon": "000636672",
                "ref:vatin": "PL5110134365",
                "operator": "Gmina I Miasto \u017buromin",
                "operator:type": "government",
                "amenity": "school"
            }
        },
        {
            "id": 66501,
            "type": "Feature",
            "geometry": {
                "type": "Point",
                "coordinates": [
                    19.87111,
                    53.07368
                ]
            },
            "properties": {
                "ref:rspo": 66501,
                "official_name": "Zesp\u00f3\u0142 Szk\u00f3\u0142 Techniczno - Zawodowych im. Jana Paw\u0142a II w \u017burominie",
                "name": "Zesp\u00f3\u0142 Szk\u00f3\u0142 Techniczno - Zawodowych",
                "addr:country": "PL",
                "addr:postcode": "09-300",
                "addr:city": "\u017buromin",
                "addr:street": "Lidzbarska",
                "addr:housenumber": "27",
                "addr:teryt:simc": 11044,
                "addr:teryt:sym_ul": 930851,
                "contact:phone": "+48 236572502",
                "contact:email": "zsz_zuromin@poczta.onet.pl",
                "contact:website": "http:\/\/zspzuromin.edupage.org",
                "ref:regon": "000648008",
                "ref:vatin": "PL5691052260",
                "operator": "Powiat \u017buromi\u0144ski",
                "operator:type": "government",
                "landuse": "education",
                "fixme": "amenity=school, amenity=college albo landuse=education w zale\u017cno\u015bci od tego, jakie plac\u00f3wki wchodz\u0105 w sk\u0142ad zespo\u0142u. Sprawd\u017a, kiedy stosowa\u0107 amenity=* a kiedy landuse=education.",
                "note": "Children RSPO: 111547;111612"
            }
        },
        {
            "id": 111547,
            "type": "Feature",
            "geometry": {
                "type": "Point",
                "coordinates": [
                    19.87111,
                    53.07365
                ]
            },
            "properties": {
                "isced:level": "3",
                "ref:rspo": 111547,
                "official_name": "Technikum w Zespole Szk\u00f3\u0142 Techniczno - Zawodowych im. Jana Paw\u0142a II w \u017burominie",
                "name": "Technikum w Zespole Szk\u00f3\u0142 Techniczno - Zawodowych",
                "addr:country": "PL",
                "addr:postcode": "09-300",
                "addr:city": "\u017buromin",
                "addr:street": "Lidzbarska",
                "addr:housenumber": "27",
                "addr:teryt:simc": 11044,
                "addr:teryt:sym_ul": 930851,
                "contact:phone": "+48 236572502",
                "contact:email": "zsz_zuromin@poczta.onet.pl",
                "contact:website": "http:\/\/www.zspzuromin.edupage.org",
                "ref:regon": "130915865",
                "ref:vatin": "PL5691052260",
                "operator": "Powiat \u017buromi\u0144ski",
                "operator:type": "government",
                "amenity": "school",
                "note": "Parent RSPO: 66501"
            }
        },
        {
            "id": 111612,
            "type": "Feature",
            "geometry": {
                "type": "Point",
                "coordinates": [
                    19.87111,
                    53.073620000000005
                ]
            },
            "properties": {
                "isced:level": "3",
                "ref:rspo": 111612,
                "official_name": "Bran\u017cowa Szko\u0142a I Stopnia w Zespole Szk\u00f3\u0142 Techniczno - Zawodowych im. Jana Paw\u0142a II w \u017burominie",
                "name": "Bran\u017cowa Szko\u0142a I Stopnia w Zespole Szk\u00f3\u0142 Techniczno - Zawodowych",
                "addr:country": "PL",
                "addr:postcode": "09-300",
                "addr:city": "\u017buromin",
                "addr:street": "Lidzbarska",
                "addr:housenumber": "27",
                "addr:teryt:simc": 11044,
                "addr:teryt:sym_ul": 930851,
                "contact:phone": "+48 236572502",
                "contact:email": "zsz_zuromin@poczta.onet.pl",
                "contact:website": "http:\/\/www.zspzurominedupage.org",
                "ref:regon": "130915871",
                "ref:vatin": "PL5691052260",
                "operator": "Powiat \u017buromi\u0144ski",
                "operator:type": "government",
                "amenity": "school",
                "note": "Parent RSPO: 66501"
            }
        }
    ]
}