{
    "type": "FeatureCollection",
    "features": [
        {
            "id": 25493,
            "type": "Feature",
            "geometry": {
                "type": "Point",
                "coordinates": [
                    18.83296,
                    50.91883
                ]
            },
            "properties": {
                "isced:level": "1;2",
                "ref:rspo": 25493,
                "official_name": "Szko\u0142a Podstawowa im.\nJuliana Tuwima,\n42-151 Z\u0142ochowice ,\nUl. Weso\u0142a 3",
                "name": "Szko\u0142a Podstawowa im.\nJuliana Tuwima,\n42-151 Z\u0142ochowice ,\nUl. Weso\u0142a 3",
                "addr:postcode": "42-151",
                "addr:city": "Z\u0142ochowice",
                "addr:street": "Weso\u0142a",
                "addr:housenumber": "3",
                "addr:teryt:simc": 141166,
                "addr:teryt:sym_ul": 23884,
                "phone": "+48 343180541",
                "email": "sp_wesola@poczta.onet.pl",
                "website": "https:\/\/spzlochowice.edupage.org\/",
                "ref:regon": "000679635",
                "ref:vatin": "PL5741916479",
                "operator": "Gmina Opat\u00f3w",
                "operator:type": "government",
                "amenity": "school"
            }
        },
        {
            "id": 25497,
            "type": "Feature",
            "geometry": {
                "type": "Point",
                "coordinates": [
                    18.86603,
                    50.92371
                ]
            },
            "properties": {
                "isced:level": "1;2",
                "ref:rspo": 25497,
                "official_name": "Szko\u0142a Podstawowa im. Red. Jana Ciszewskiego, Ul. Szkolna 19, 42-151 Wale\u0144cz\u00f3w",
                "name": "Szko\u0142a Podstawowa",
                "addr:postcode": "42-151",
                "addr:city": "Wale\u0144cz\u00f3w",
                "addr:street": "Szkolna",
                "addr:housenumber": "19",
                "addr:teryt:simc": 140994,
                "addr:teryt:sym_ul": 21970,
                "phone": "+48 343187108",
                "email": "spwalenczow@vp.pl",
                "website": "https:\/\/sp-walenczow.manifo.com",
                "ref:regon": "000815370",
                "ref:vatin": "PL5741916456",
                "operator": "Gmina Opat\u00f3w",
                "operator:type": "government",
                "amenity": "school"
            }
        },
        {
            "id": 25496,
            "type": "Feature",
            "geometry": {
                "type": "Point",
                "coordinates": [
                    18.86769,
                    50.92594
                ]
            },
            "properties": {
                "isced:level": "1;2",
                "ref:rspo": 25496,
                "official_name": "Szko\u0142a Podstawowa im. Marii Konopnickiej, Ul Szkolna 5 42-152 Opat\u00f3w",
                "name": "Szko\u0142a Podstawowa",
                "addr:postcode": "42-152",
                "addr:city": "Opat\u00f3w",
                "addr:street": "Szkolna",
                "addr:housenumber": "5",
                "addr:teryt:simc": 140959,
                "addr:teryt:sym_ul": 21970,
                "phone": "+48 343196109",
                "email": "opatowszkola@op.pl",
                "website": "http:\/\/www.opatowszkola.edupdage.org",
                "ref:regon": "000715549",
                "ref:vatin": "PL5741916433",
                "operator": "Gmina Opat\u00f3w",
                "operator:type": "government",
                "amenity": "school"
            }
        },
        {
            "id": 25498,
            "type": "Feature",
            "geometry": {
                "type": "Point",
                "coordinates": [
                    18.77068,
                    50.93854
                ]
            },
            "properties": {
                "isced:level": "1;2",
                "ref:rspo": 25498,
                "official_name": "Stowarzyszenie \" Nasza Szko\u0142a\" Szko\u0142a Podstawowa w Zwierzy\u0144cu Pierwszym Ul. Szkolna 2\n42-152 Opat\u00f3w",
                "name": "Stowarzyszenie \" Nasza Szko\u0142a\" Szko\u0142a Podstawowa w Zwierzy\u0144cu Pierwszym Ul. Szkolna 2\n42-152 Opat\u00f3w",
                "addr:postcode": "42-152",
                "addr:city": "Zwierzyniec Pierwszy",
                "addr:street": "Szkolna",
                "addr:housenumber": "2",
                "addr:teryt:simc": 141210,
                "addr:teryt:sym_ul": 21970,
                "phone": "+48 575830111",
                "email": "spzwierzyniec_naszaszkola@onet.pl",
                "website": "http:\/\/spzwierzyniec.szkolna.net",
                "ref:regon": "243062100",
                "ref:vatin": "PL5742050958",
                "operator": "Stowarzyszenie \"Nasza Szko\u0142a\"",
                "operator:type": "ngo",
                "amenity": "school"
            }
        },
        {
            "id": 25495,
            "type": "Feature",
            "geometry": {
                "type": "Point",
                "coordinates": [
                    18.8658499,
                    50.95288
                ]
            },
            "properties": {
                "isced:level": "1;2",
                "ref:rspo": 25495,
                "official_name": "Szko\u0142a Podstawowa im.\nTadeusza Ko\u015bciuszki,\n42-152 Wilkowiecko\nUl. Szkolna 1",
                "name": "Szko\u0142a Podstawowa im.\nTadeusza Ko\u015bciuszki,\n42-152 Wilkowiecko\nUl. Szkolna 1",
                "addr:postcode": "42-152",
                "addr:city": "Wilkowiecko",
                "addr:street": "Szkolna",
                "addr:housenumber": "1",
                "addr:teryt:simc": 141077,
                "addr:teryt:sym_ul": 21970,
                "phone": "+48 343187112",
                "email": "spwilkowiecko@interia.pl",
                "website": "http:\/\/www.spwilkowiecko.pl",
                "ref:regon": "000815216",
                "ref:vatin": "PL5741916485",
                "operator": "Gmina Opat\u00f3w",
                "operator:type": "government",
                "amenity": "school"
            }
        },
        {
            "id": 25494,
            "type": "Feature",
            "geometry": {
                "type": "Point",
                "coordinates": [
                    18.80507,
                    50.97246
                ]
            },
            "properties": {
                "isced:level": "1;2",
                "ref:rspo": 25494,
                "official_name": "Szko\u0142a Podstawowa,\n42-152 Iwanowice Du\u017ce, \nUl. Cz\u0119stochowska 63",
                "name": "Szko\u0142a Podstawowa,\n42-152 Iwanowice Du\u017ce, \nUl. Cz\u0119stochowska 63",
                "addr:postcode": "42-152",
                "addr:city": "Iwanowice Du\u017ce",
                "addr:street": "Cz\u0119stochowska",
                "addr:housenumber": "63",
                "addr:teryt:simc": 140899,
                "addr:teryt:sym_ul": 3458,
                "phone": "+48 343196040",
                "email": "spiduze@op.pl",
                "website": "http:\/\/spiduze.edupage.org",
                "ref:regon": "000815340",
                "ref:vatin": "PL5741916462",
                "operator": "Gmina Opat\u00f3w",
                "operator:type": "government",
                "amenity": "school"
            }
        }
    ]
}