{
    "type": "FeatureCollection",
    "features": [
        {
            "id": 59005,
            "type": "Feature",
            "geometry": {
                "type": "Point",
                "coordinates": [
                    18.73258,
                    50.94023
                ]
            },
            "properties": {
                "ref:rspo": 59005,
                "official_name": "M\u0142odzie\u017cowy O\u015brodek Wychowawczy \"Krzepice\"",
                "name": "M\u0142odzie\u017cowy O\u015brodek Wychowawczy \"Krzepice\"",
                "addr:postcode": "42-160",
                "addr:city": "Krzepice",
                "addr:street": "Kuk\u00f3w",
                "addr:housenumber": "30",
                "addr:teryt:simc": 931862,
                "addr:teryt:sym_ul": 10353,
                "phone": "+48 343176021",
                "email": "mowkrzepice@wp.pl",
                "website": "http:\/\/www.edu-res.pl",
                "ref:regon": "243081473",
                "operator": "Dane Do Uzupe\u0142nienia",
                "operator:type": "private",
                "fixme": "amenity=social_facility + social_facility=group_home + social_facility:for=juvenile",
                "note": "Children RSPO: 263605;272178"
            }
        },
        {
            "id": 263605,
            "type": "Feature",
            "geometry": {
                "type": "Point",
                "coordinates": [
                    18.73258,
                    50.9402
                ]
            },
            "properties": {
                "isced:level": "1;2",
                "ref:rspo": 263605,
                "official_name": "Szko\u0142a Podstawowa Specjalna w M\u0142odzie\u017cowym O\u015brodku Wychowawczym w Krzepicach",
                "name": "Szko\u0142a Podstawowa Specjalna w M\u0142odzie\u017cowym O\u015brodku Wychowawczym w Krzepicach",
                "addr:postcode": "42-160",
                "addr:city": "Krzepice",
                "addr:street": "Kuk\u00f3w",
                "addr:housenumber": "30",
                "addr:teryt:simc": 931862,
                "addr:teryt:sym_ul": 10353,
                "phone": "+48 343176021",
                "email": "mowkrzepice@wp.pl",
                "website": "http:\/\/www.edu-res.pl",
                "ref:regon": "368207552",
                "operator": "Henryk Wrzesie\u0144   \"Edu Res\"",
                "operator:type": "consortium",
                "amenity": "school",
                "note": "Parent RSPO: 59005"
            }
        },
        {
            "id": 272178,
            "type": "Feature",
            "geometry": {
                "type": "Point",
                "coordinates": [
                    18.73258,
                    50.94017
                ]
            },
            "properties": {
                "isced:level": "3",
                "ref:rspo": 272178,
                "official_name": "Liceum Og\u00f3lnokszta\u0142c\u0105ce Specjalne Przy M\u0142odzie\u017cowym O\u015brodku Wychowawczym w Krzepicach",
                "name": "Liceum Og\u00f3lnokszta\u0142c\u0105ce Specjalne Przy M\u0142odzie\u017cowym O\u015brodku Wychowawczym w Krzepicach",
                "addr:postcode": "42-160",
                "addr:city": "Krzepice",
                "addr:street": "Kuk\u00f3w",
                "addr:housenumber": "30",
                "addr:teryt:simc": 931862,
                "addr:teryt:sym_ul": 10353,
                "phone": "+48 343176021",
                "email": "mowkrzepice@wp.pl",
                "website": "http:\/\/www.edu-res.pl",
                "ref:regon": "383995569",
                "operator": "Henryk Wrzesie\u0144   \"Edu Res\"",
                "operator:type": "consortium",
                "amenity": "school",
                "note": "Parent RSPO: 59005"
            }
        },
        {
            "id": 106664,
            "type": "Feature",
            "geometry": {
                "type": "Point",
                "coordinates": [
                    18.65693,
                    50.9495
                ]
            },
            "properties": {
                "isced:level": "1;2",
                "ref:rspo": 106664,
                "official_name": "Szko\u0142a Podstawowa im. W\u0142adys\u0142awa Reymonta w Starokrzepicach",
                "name": "Szko\u0142a Podstawowa",
                "addr:postcode": "42-161",
                "addr:city": "Starokrzepice",
                "addr:street": "Oleska",
                "addr:housenumber": "250",
                "addr:teryt:simc": 137130,
                "addr:teryt:sym_ul": 14973,
                "phone": "+48 343175903",
                "email": "starpol@oswiata.org.pl",
                "website": "http:\/\/zsstarokrzepice.szkolnastrona.pl",
                "ref:regon": "001203082",
                "ref:vatin": "PL5741897055",
                "operator": "Gmina Krzepice",
                "operator:type": "government",
                "amenity": "school"
            }
        },
        {
            "id": 69796,
            "type": "Feature",
            "geometry": {
                "type": "Point",
                "coordinates": [
                    18.72316,
                    50.9607699
                ]
            },
            "properties": {
                "isced:level": "1;2",
                "ref:rspo": 69796,
                "official_name": "Szko\u0142a Podstawowa Nr 1 im. Adama Mickiewicza w Krzepicach",
                "name": "Szko\u0142a Podstawowa Nr 1",
                "addr:postcode": "42-160",
                "addr:city": "Krzepice",
                "addr:street": "Mickiewicza",
                "addr:housenumber": "13\/17",
                "addr:teryt:simc": 931862,
                "addr:teryt:sym_ul": 12734,
                "phone": "+48 343175017",
                "email": "spkrzepice@poczta.onet.pl",
                "website": "http:\/\/sp1krzepice.szkolnastrona.pl",
                "ref:regon": "000208255",
                "ref:vatin": "PL5741869840",
                "operator": "Gmina Krzepice",
                "operator:type": "government",
                "amenity": "school"
            }
        },
        {
            "id": 275210,
            "type": "Feature",
            "geometry": {
                "type": "Point",
                "coordinates": [
                    18.7265,
                    50.964
                ]
            },
            "properties": {
                "ref:rspo": 275210,
                "official_name": "T\u0119czowe Przedszkole - Centrum J\u0119zykowe Megan Crow",
                "name": "T\u0119czowe Przedszkole - Centrum J\u0119zykowe Megan Crow",
                "addr:postcode": "42-160",
                "addr:city": "Krzepice",
                "addr:street": "Ksi\u0119dza Muznerowskiego",
                "addr:housenumber": "30a",
                "addr:teryt:simc": 931862,
                "addr:teryt:sym_ul": 48288,
                "email": "mawrona@wp.pl",
                "ref:regon": "386694644",
                "ref:vatin": "PL5741749946",
                "operator": "Ma\u0142gorzata Wrona",
                "operator:type": "private",
                "amenity": "kindergarten"
            }
        },
        {
            "id": 69797,
            "type": "Feature",
            "geometry": {
                "type": "Point",
                "coordinates": [
                    18.7062199,
                    50.96586
                ]
            },
            "properties": {
                "isced:level": "1;2",
                "ref:rspo": 69797,
                "official_name": "Szko\u0142a Podstawowa Nr 2 im. Marii Sk\u0142odowskiej-Curie w Krzepicach",
                "name": "Szko\u0142a Podstawowa Nr 2",
                "addr:postcode": "42-160",
                "addr:city": "Krzepice",
                "addr:street": "Sk\u0142odowskiej",
                "addr:housenumber": "21",
                "addr:teryt:simc": 931862,
                "addr:teryt:sym_ul": 20064,
                "phone": "+48 343175059",
                "email": "spkuzniczka@wp.pl",
                "ref:regon": "001203060",
                "ref:vatin": "PL5741869834",
                "operator": "Gmina Krzepice",
                "operator:type": "government",
                "amenity": "school"
            }
        },
        {
            "id": 53779,
            "type": "Feature",
            "geometry": {
                "type": "Point",
                "coordinates": [
                    18.73568,
                    50.9716499
                ]
            },
            "properties": {
                "ref:rspo": 53779,
                "official_name": "Zesp\u00f3\u0142 Szk\u00f3\u0142 w Krzepicach",
                "name": "Zesp\u00f3\u0142 Szk\u00f3\u0142 w Krzepicach",
                "addr:postcode": "42-160",
                "addr:city": "Krzepice",
                "addr:street": "Ry\u0142y",
                "addr:housenumber": "26",
                "addr:teryt:simc": 931862,
                "addr:teryt:sym_ul": 36708,
                "phone": "+48 343175021",
                "email": "sekretariat@lo.krzepice.pl",
                "website": "http:\/\/lo.krzepice.edu.pl",
                "ref:regon": "000771750",
                "ref:vatin": "PL5741023698",
                "operator": "Powiat K\u0142obucki",
                "operator:type": "government",
                "landuse": "education",
                "fixme": "amenity=school, amenity=college albo landuse=education w zale\u017cno\u015bci od tego, jakie plac\u00f3wki wchodz\u0105 w sk\u0142ad zespo\u0142u. Sprawd\u017a, kiedy stosowa\u0107 amenity=* a kiedy landuse=education.",
                "note": "Children RSPO: 71106;71115;75445"
            }
        },
        {
            "id": 71106,
            "type": "Feature",
            "geometry": {
                "type": "Point",
                "coordinates": [
                    18.73568,
                    50.9716199
                ]
            },
            "properties": {
                "isced:level": "3",
                "ref:rspo": 71106,
                "official_name": "Bran\u017cowa Szko\u0142a I Stopnia w Krzepicach",
                "name": "Bran\u017cowa Szko\u0142a I Stopnia w Krzepicach",
                "addr:postcode": "42-160",
                "addr:city": "Krzepice",
                "addr:street": "Ry\u0142y",
                "addr:housenumber": "26",
                "addr:teryt:simc": 931862,
                "addr:teryt:sym_ul": 36708,
                "phone": "+48 343175021",
                "email": "sekretariat@lo.krzepice.pl",
                "website": "http:\/\/lo.krzepice.edu.pl",
                "ref:regon": "150595244",
                "operator": "Powiat K\u0142obucki",
                "operator:type": "government",
                "amenity": "school",
                "note": "Parent RSPO: 53779"
            }
        },
        {
            "id": 71115,
            "type": "Feature",
            "geometry": {
                "type": "Point",
                "coordinates": [
                    18.73568,
                    50.971589900000005
                ]
            },
            "properties": {
                "isced:level": "3",
                "ref:rspo": 71115,
                "official_name": "Liceum Og\u00f3lnokszta\u0142c\u0105ce im. W\u0142adys\u0142awa Broniewskiego w Krzepicach",
                "name": "Liceum Og\u00f3lnokszta\u0142c\u0105ce",
                "addr:postcode": "42-160",
                "addr:city": "Krzepice",
                "addr:street": "Ry\u0142y",
                "addr:housenumber": "26",
                "addr:teryt:simc": 931862,
                "addr:teryt:sym_ul": 36708,
                "phone": "+48 343175021",
                "email": "sekretariat@lo.krzepice.pl",
                "website": "http:\/\/www.lo.krzepice.edu.pl",
                "ref:regon": "000204323",
                "operator": "Powiat K\u0142obucki",
                "operator:type": "government",
                "amenity": "school",
                "note": "Parent RSPO: 53779"
            }
        },
        {
            "id": 75445,
            "type": "Feature",
            "geometry": {
                "type": "Point",
                "coordinates": [
                    18.73568,
                    50.9715599
                ]
            },
            "properties": {
                "isced:level": "3",
                "ref:rspo": 75445,
                "official_name": "Technikum w Krzepicach",
                "name": "Technikum w Krzepicach",
                "addr:postcode": "42-160",
                "addr:city": "Krzepice",
                "addr:street": "Ry\u0142y",
                "addr:housenumber": "26",
                "addr:teryt:simc": 931862,
                "addr:teryt:sym_ul": 36708,
                "phone": "+48 343175021",
                "email": "sekretariat@lo.krzepice.pl",
                "website": "http:\/\/www.lo.krzepice.edu.pl",
                "ref:regon": "152006281",
                "operator": "Powiat K\u0142obucki",
                "operator:type": "government",
                "amenity": "school",
                "note": "Parent RSPO: 53779"
            }
        },
        {
            "id": 69803,
            "type": "Feature",
            "geometry": {
                "type": "Point",
                "coordinates": [
                    18.73556,
                    50.97222
                ]
            },
            "properties": {
                "ref:rspo": 69803,
                "official_name": "Przedszkole Samorz\u0105dowe Nr 1 w Krzepicach",
                "name": "Przedszkole Samorz\u0105dowe Nr 1 w Krzepicach",
                "addr:postcode": "42-160",
                "addr:city": "Krzepice",
                "addr:street": "Ry\u0142y",
                "addr:housenumber": "28",
                "addr:teryt:simc": 931862,
                "addr:teryt:sym_ul": 36708,
                "phone": "+48 343175081",
                "email": "przedszkolesamorzadowe@onet.pl",
                "website": "http:\/\/psnr1krzepice.szkolnastrona.pl",
                "ref:regon": "150032713",
                "ref:vatin": "PL5741869892",
                "operator": "Gmina Krzepice",
                "operator:type": "government",
                "amenity": "kindergarten"
            }
        },
        {
            "id": 69800,
            "type": "Feature",
            "geometry": {
                "type": "Point",
                "coordinates": [
                    18.67705,
                    50.99116
                ]
            },
            "properties": {
                "isced:level": "1;2",
                "ref:rspo": 69800,
                "official_name": "Szko\u0142a Podstawowa im. Kornela Makuszy\u0144skiego w Zaj\u0105czkach Drugich",
                "name": "Szko\u0142a Podstawowa",
                "addr:postcode": "42-160",
                "addr:city": "Zaj\u0105czki Drugie",
                "addr:street": "Szkolna",
                "addr:housenumber": "2",
                "addr:teryt:simc": 137199,
                "addr:teryt:sym_ul": 21970,
                "phone": "+48 343175060",
                "email": "spzajaczki2@gmail.com",
                "website": "http:\/\/spzajaczki2.szkolna.net",
                "ref:regon": "001203113",
                "ref:vatin": "PL5741869917",
                "operator": "Gmina Krzepice",
                "operator:type": "government",
                "amenity": "school"
            }
        },
        {
            "id": 69798,
            "type": "Feature",
            "geometry": {
                "type": "Point",
                "coordinates": [
                    18.7097409,
                    50.998551
                ]
            },
            "properties": {
                "isced:level": "1;2",
                "ref:rspo": 69798,
                "official_name": "Szko\u0142a Podstawowa im. Jana Brzechwy w Zaj\u0105czkach Pierwszych",
                "name": "Szko\u0142a Podstawowa",
                "addr:postcode": "42-160",
                "addr:place": "Zaj\u0105czki Pierwsze",
                "addr:housenumber": "50",
                "addr:teryt:simc": 137265,
                "phone": "+48 343175211",
                "email": "brzechwa_zajaczki@o2.pl",
                "ref:regon": "001203107",
                "ref:vatin": "PL5741869886",
                "operator": "Gmina Krzepice",
                "operator:type": "government",
                "amenity": "school"
            }
        }
    ]
}