{
    "type": "FeatureCollection",
    "features": [
        {
            "id": 34897,
            "type": "Feature",
            "geometry": {
                "type": "Point",
                "coordinates": [
                    18.7473199,
                    50.87985
                ]
            },
            "properties": {
                "ref:rspo": 34897,
                "official_name": "Przedszkole w Pankach",
                "name": "Przedszkole w Pankach",
                "addr:postcode": "42-140",
                "addr:city": "Panki",
                "addr:street": "1 Maja",
                "addr:housenumber": "7a",
                "addr:teryt:simc": 141887,
                "addr:teryt:sym_ul": 11926,
                "phone": "+48 343179020",
                "email": "przedszkolepanki@wp.pl",
                "website": "http:\/\/www.przedszkolepanki.pl",
                "ref:regon": "150033210",
                "ref:vatin": "PL5741856820",
                "operator": "Gmina Panki",
                "operator:type": "government",
                "amenity": "kindergarten"
            }
        },
        {
            "id": 35150,
            "type": "Feature",
            "geometry": {
                "type": "Point",
                "coordinates": [
                    18.74411,
                    50.88267
                ]
            },
            "properties": {
                "isced:level": "1;2",
                "ref:rspo": 35150,
                "official_name": "Szko\u0142a Podstawowa im.tadeusza Ko\u015bciuszki w Pankach",
                "name": "Szko\u0142a Podstawowa im.tadeusza Ko\u015bciuszki w Pankach",
                "addr:postcode": "42-140",
                "addr:city": "Panki",
                "addr:street": "Tysi\u0105clecia",
                "addr:housenumber": "17",
                "addr:teryt:simc": 141887,
                "addr:teryt:sym_ul": 23270,
                "phone": "+48 343179024",
                "email": "sppanki@poczta.onet.pl",
                "website": "http:\/\/www.sppanki.szkolnastrona.pl",
                "ref:regon": "001020387",
                "ref:vatin": "PL5742056323",
                "operator": "Gmina Panki",
                "operator:type": "government",
                "amenity": "school"
            }
        },
        {
            "id": 34898,
            "type": "Feature",
            "geometry": {
                "type": "Point",
                "coordinates": [
                    18.74786,
                    50.88275
                ]
            },
            "properties": {
                "ref:rspo": 34898,
                "official_name": "T\u0119czowe Przedszkole - Centrum J\u0119zykowe\"Megan Crow\"",
                "name": "T\u0119czowe Przedszkole - Centrum J\u0119zykowe\"Megan Crow\"",
                "addr:postcode": "42-140",
                "addr:city": "Panki",
                "addr:street": "Tysi\u0105clecia",
                "addr:housenumber": "3",
                "addr:teryt:simc": 141887,
                "addr:teryt:sym_ul": 23270,
                "phone": "+48 668098559",
                "email": "mawrona@wp.pl",
                "ref:regon": "243069259",
                "ref:vatin": "PL5741749946",
                "operator": "Ma\u0142gorzata Wrona",
                "operator:type": "private",
                "amenity": "kindergarten"
            }
        },
        {
            "id": 196327,
            "type": "Feature",
            "geometry": {
                "type": "Point",
                "coordinates": [
                    18.74877,
                    50.88571
                ]
            },
            "properties": {
                "ref:rspo": 196327,
                "official_name": "Przedszkole Niepubliczne \"Kotek I Myszka\"",
                "name": "Przedszkole Niepubliczne \"Kotek I Myszka\"",
                "addr:postcode": "42-140",
                "addr:city": "Panki",
                "addr:street": "Powsta\u0144c\u00f3w \u015al\u0105skich",
                "addr:housenumber": "23",
                "addr:teryt:simc": 141887,
                "addr:teryt:sym_ul": 17366,
                "email": "agnieszkapilarz@o2.pl",
                "ref:regon": "367991331",
                "ref:vatin": "PL5741968418",
                "operator": "Agnieszka Pilarz",
                "operator:type": "private",
                "amenity": "kindergarten"
            }
        },
        {
            "id": 34890,
            "type": "Feature",
            "geometry": {
                "type": "Point",
                "coordinates": [
                    18.7819009,
                    50.907609
                ]
            },
            "properties": {
                "isced:level": "1;2",
                "ref:rspo": 34890,
                "official_name": "Szko\u0142a Podstawowa im. Jana Paw\u0142a II w Konieczkach",
                "name": "Szko\u0142a Podstawowa",
                "addr:postcode": "42-140",
                "addr:place": "Konieczki",
                "addr:housenumber": "64",
                "addr:teryt:simc": 141769,
                "phone": "+48 343179759",
                "email": "spkonieczki@gazeta.pl",
                "ref:regon": "001204160",
                "ref:vatin": "PL5741856837",
                "operator": "Gmina Panki",
                "operator:type": "government",
                "amenity": "school"
            }
        },
        {
            "id": 34894,
            "type": "Feature",
            "geometry": {
                "type": "Point",
                "coordinates": [
                    18.724884,
                    50.911519
                ]
            },
            "properties": {
                "isced:level": "1;2",
                "ref:rspo": 34894,
                "official_name": "Szko\u0142a Podstawowa im.stanis\u0142awa Staszica w Aleksandrowie",
                "name": "Szko\u0142a Podstawowa im.stanis\u0142awa Staszica w Aleksandrowie",
                "addr:postcode": "42-140",
                "addr:place": "Aleksandr\u00f3w",
                "addr:housenumber": "31",
                "addr:teryt:simc": 141640,
                "phone": "+48 343179528",
                "email": "spaleks@op.pl",
                "ref:regon": "001204153",
                "ref:vatin": "PL5741856814",
                "operator": "Gmina Panki",
                "operator:type": "government",
                "amenity": "school"
            }
        }
    ]
}