{
    "type": "FeatureCollection",
    "features": [
        {
            "id": 16003,
            "type": "Feature",
            "geometry": {
                "type": "Point",
                "coordinates": [
                    18.9142605,
                    50.9617026
                ]
            },
            "properties": {
                "ref:rspo": 16003,
                "official_name": "Zesp\u00f3\u0142 Szkolno-Przedszkolny w Mokrej",
                "name": "Zesp\u00f3\u0142 Szkolno-Przedszkolny w Mokrej",
                "addr:country": "PL",
                "addr:postcode": "42-120",
                "addr:place": "Mokra",
                "addr:housenumber": "194",
                "addr:teryt:simc": 138260,
                "contact:phone": "+48 343178536",
                "contact:email": "sp_mokra@tlen.pl",
                "ref:regon": "240133376",
                "ref:vatin": "PL5741955574",
                "operator": "Gmina Mied\u017ano",
                "operator:type": "government",
                "landuse": "education",
                "fixme": "amenity=school, amenity=college albo landuse=education w zale\u017cno\u015bci od tego, jakie plac\u00f3wki wchodz\u0105 w sk\u0142ad zespo\u0142u. Sprawd\u017a, kiedy stosowa\u0107 amenity=* a kiedy landuse=education.",
                "note": "Children RSPO: 20034;20035"
            }
        },
        {
            "id": 20034,
            "type": "Feature",
            "geometry": {
                "type": "Point",
                "coordinates": [
                    18.9142605,
                    50.9616726
                ]
            },
            "properties": {
                "isced:level": "1;2",
                "ref:rspo": 20034,
                "official_name": "Szko\u0142a Podstawowa im. Bohater\u00f3w Walk Pod Mokr\u0105 w 1939 R.",
                "name": "Szko\u0142a Podstawowa",
                "addr:country": "PL",
                "addr:postcode": "42-120",
                "addr:place": "Mokra",
                "addr:housenumber": "194",
                "addr:teryt:simc": 138260,
                "contact:phone": "+48 343178536",
                "contact:email": "sp_mokra@tlen.pl",
                "ref:regon": "001204242",
                "operator": "Gmina Mied\u017ano",
                "operator:type": "government",
                "amenity": "school",
                "note": "Parent RSPO: 16003"
            }
        },
        {
            "id": 20035,
            "type": "Feature",
            "geometry": {
                "type": "Point",
                "coordinates": [
                    18.9142605,
                    50.961642600000005
                ]
            },
            "properties": {
                "ref:rspo": 20035,
                "official_name": "Gminne Przedszkole w Mokrej",
                "name": "Gminne Przedszkole w Mokrej",
                "addr:country": "PL",
                "addr:postcode": "42-120",
                "addr:place": "Mokra",
                "addr:housenumber": "194",
                "addr:teryt:simc": 138260,
                "contact:phone": "+48 343178536",
                "contact:email": "sp_mokra@tlen.pl",
                "ref:regon": "150527691",
                "operator": "Gmina Mied\u017ano",
                "operator:type": "government",
                "amenity": "kindergarten",
                "note": "Parent RSPO: 16003"
            }
        },
        {
            "id": 262590,
            "type": "Feature",
            "geometry": {
                "type": "Point",
                "coordinates": [
                    18.98688,
                    50.96807
                ]
            },
            "properties": {
                "ref:rspo": 262590,
                "official_name": "Zesp\u00f3\u0142 Szkolno-Przedszkolny w Mied\u017anie",
                "name": "Zesp\u00f3\u0142 Szkolno-Przedszkolny w Mied\u017anie",
                "addr:country": "PL",
                "addr:postcode": "42-120",
                "addr:city": "Mied\u017ano",
                "addr:street": "Szkolna",
                "addr:housenumber": "1",
                "addr:teryt:simc": 138253,
                "addr:teryt:sym_ul": 21970,
                "contact:phone": "+48 343178029",
                "contact:email": "zspmiedzno@gmail.com",
                "contact:website": "http:\/\/www.zspmiedzno.pl\/",
                "ref:regon": "368039037",
                "ref:vatin": "PL5742062772",
                "operator": "Gmina Mied\u017ano",
                "operator:type": "government",
                "landuse": "education",
                "fixme": "amenity=school, amenity=college albo landuse=education w zale\u017cno\u015bci od tego, jakie plac\u00f3wki wchodz\u0105 w sk\u0142ad zespo\u0142u. Sprawd\u017a, kiedy stosowa\u0107 amenity=* a kiedy landuse=education.",
                "note": "Children RSPO: 15835;15971"
            }
        },
        {
            "id": 15835,
            "type": "Feature",
            "geometry": {
                "type": "Point",
                "coordinates": [
                    18.98688,
                    50.968039999999995
                ]
            },
            "properties": {
                "ref:rspo": 15835,
                "official_name": "Gminne Przedszkole w Mied\u017anie",
                "name": "Gminne Przedszkole w Mied\u017anie",
                "addr:country": "PL",
                "addr:postcode": "42-120",
                "addr:city": "Mied\u017ano",
                "addr:street": "Szkolna",
                "addr:housenumber": "1",
                "addr:teryt:simc": 138253,
                "addr:teryt:sym_ul": 21970,
                "contact:phone": "+48 343178060",
                "contact:email": "przedszkole.miedzno@neostrada.pl",
                "ref:regon": "150527716",
                "ref:vatin": "PL5741916396",
                "operator": "Gmina Mied\u017ano",
                "operator:type": "government",
                "amenity": "kindergarten",
                "note": "Parent RSPO: 262590"
            }
        },
        {
            "id": 15971,
            "type": "Feature",
            "geometry": {
                "type": "Point",
                "coordinates": [
                    18.98688,
                    50.96801
                ]
            },
            "properties": {
                "isced:level": "1;2",
                "ref:rspo": 15971,
                "official_name": "Szko\u0142a Podstawowa im. Wo\u0142y\u0144skiej Brygady Kawalerii w Mied\u017anie",
                "name": "Szko\u0142a Podstawowa",
                "addr:country": "PL",
                "addr:postcode": "42-120",
                "addr:city": "Mied\u017ano",
                "addr:street": "Szkolna",
                "addr:housenumber": "1",
                "addr:teryt:simc": 138253,
                "addr:teryt:sym_ul": 21970,
                "contact:phone": "+48 343178029",
                "contact:email": "zspmiedzno@gmail.com",
                "ref:regon": "000679641",
                "ref:vatin": "PL5741900834",
                "operator": "Gmina Mied\u017ano",
                "operator:type": "government",
                "amenity": "school",
                "note": "Parent RSPO: 262590"
            }
        },
        {
            "id": 262595,
            "type": "Feature",
            "geometry": {
                "type": "Point",
                "coordinates": [
                    19.05573,
                    50.97668
                ]
            },
            "properties": {
                "ref:rspo": 262595,
                "official_name": "Zesp\u00f3\u0142 Szkolno-Przedszkolny w Ostrowach Nad Oksz\u0105",
                "name": "Zesp\u00f3\u0142 Szkolno-Przedszkolny w Ostrowach Nad Oksz\u0105",
                "addr:country": "PL",
                "addr:postcode": "42-122",
                "addr:city": "Ostrowy nad Oksz\u0105",
                "addr:street": "Szkolna",
                "addr:housenumber": "6",
                "addr:teryt:simc": 138276,
                "addr:teryt:sym_ul": 21970,
                "contact:phone": "+48 343178707",
                "contact:email": "zsostrowy@poczta.onet.pl",
                "contact:website": "http:\/\/www.zsostrowy.szkolnastrona.pl\/",
                "ref:regon": "368042192",
                "ref:vatin": "PL5741900840",
                "operator": "Gmina Mied\u017ano",
                "operator:type": "government",
                "landuse": "education",
                "fixme": "amenity=school, amenity=college albo landuse=education w zale\u017cno\u015bci od tego, jakie plac\u00f3wki wchodz\u0105 w sk\u0142ad zespo\u0142u. Sprawd\u017a, kiedy stosowa\u0107 amenity=* a kiedy landuse=education.",
                "note": "Children RSPO: 15938;20005"
            }
        },
        {
            "id": 15938,
            "type": "Feature",
            "geometry": {
                "type": "Point",
                "coordinates": [
                    19.05573,
                    50.97665
                ]
            },
            "properties": {
                "ref:rspo": 15938,
                "official_name": "Gminne Przedszkole w Ostrowach Nad Oksz\u0105",
                "name": "Gminne Przedszkole w Ostrowach Nad Oksz\u0105",
                "addr:country": "PL",
                "addr:postcode": "42-122",
                "addr:city": "Ostrowy nad Oksz\u0105",
                "addr:street": "Szkolna",
                "addr:housenumber": "6",
                "addr:teryt:simc": 138276,
                "addr:teryt:sym_ul": 21970,
                "contact:phone": "+48 343178949",
                "contact:email": "przedszkolewostrowach@interia.pl",
                "ref:regon": "150527700",
                "ref:vatin": "PL5741916373",
                "operator": "Gmina Mied\u017ano",
                "operator:type": "government",
                "amenity": "kindergarten",
                "note": "Parent RSPO: 262595"
            }
        },
        {
            "id": 20005,
            "type": "Feature",
            "geometry": {
                "type": "Point",
                "coordinates": [
                    19.05573,
                    50.976620000000004
                ]
            },
            "properties": {
                "isced:level": "1;2",
                "ref:rspo": 20005,
                "official_name": "Szko\u0142a Podstawowa im. Tadeusza Ko\u015bciuszki",
                "name": "Szko\u0142a Podstawowa",
                "addr:country": "PL",
                "addr:postcode": "42-122",
                "addr:city": "Ostrowy nad Oksz\u0105",
                "addr:street": "Szkolna",
                "addr:housenumber": "6",
                "addr:teryt:simc": 138276,
                "addr:teryt:sym_ul": 21970,
                "contact:phone": "+48 343178707",
                "contact:email": "zsostrowy@poczta.onet.pl",
                "ref:regon": "001204220",
                "operator": "Gmina Mied\u017ano",
                "operator:type": "government",
                "amenity": "school",
                "note": "Parent RSPO: 262595"
            }
        }
    ]
}