{
    "type": "FeatureCollection",
    "features": [
        {
            "id": 31695,
            "type": "Feature",
            "geometry": {
                "type": "Point",
                "coordinates": [
                    18.8349855,
                    50.8030069
                ]
            },
            "properties": {
                "ref:rspo": 31695,
                "official_name": "Przedszkole im. Marii Kownackiej w W\u0119glowicach",
                "name": "Przedszkole",
                "addr:postcode": "42-133",
                "addr:place": "W\u0119glowice",
                "addr:housenumber": "2",
                "addr:teryt:simc": 147364,
                "phone": "+48 343181050",
                "email": "przedszkoleweglowice2@gmail.com",
                "website": "http:\/\/www.przedszkoleweglowice.szkolnastrona.pl\/",
                "ref:regon": "150026813",
                "ref:vatin": "PL5741882177",
                "operator": "Gmina Wr\u0119czyca Wielka",
                "operator:type": "government",
                "amenity": "kindergarten"
            }
        },
        {
            "id": 93088,
            "type": "Feature",
            "geometry": {
                "type": "Point",
                "coordinates": [
                    18.87964,
                    50.80872
                ]
            },
            "properties": {
                "isced:level": "1;2",
                "ref:rspo": 93088,
                "official_name": "Publiczna Szko\u0142a Podstawowa Stowarzyszenia Przyjaci\u00f3\u0142 Szk\u00f3\u0142 Katolickich im. \u015aw. Jana Paw\u0142a II w Bie\u017ceniu",
                "name": "Publiczna Szko\u0142a Podstawowa Stowarzyszenia Przyjaci\u00f3\u0142 Szk\u00f3\u0142 Katolickich",
                "addr:postcode": "42-133",
                "addr:city": "Bie\u017ce\u0144",
                "addr:street": "Szkolna",
                "addr:housenumber": "2",
                "addr:teryt:simc": 146991,
                "addr:teryt:sym_ul": 21970,
                "phone": "+48 343181203",
                "email": "spbiezen@spsk.info.pl",
                "website": "http:\/\/spbiezen.spsk.info.pl",
                "ref:regon": "243119951",
                "ref:vatin": "PL5741877466",
                "operator": "Stowarzyszenie Przyjaci\u00f3\u0142 Szk\u00f3\u0142 Katolickich",
                "operator:type": "ngo",
                "amenity": "school"
            }
        },
        {
            "id": 64425,
            "type": "Feature",
            "geometry": {
                "type": "Point",
                "coordinates": [
                    18.8460107,
                    50.8090401
                ]
            },
            "properties": {
                "isced:level": "1;2",
                "ref:rspo": 64425,
                "official_name": "Szko\u0142a Podstawowa im. Syn\u00f3w Pu\u0142ku w W\u0119glowicach",
                "name": "Szko\u0142a Podstawowa",
                "addr:postcode": "42-133",
                "addr:place": "W\u0119glowice",
                "addr:housenumber": "3",
                "addr:teryt:simc": 147364,
                "phone": "+48 343104108",
                "email": "dyrektor.spweglowice@gmail.com",
                "website": "http:\/\/www.spweglowice.edupage.org",
                "ref:regon": "001198429",
                "ref:vatin": "PL5742027238",
                "operator": "Gmina Wr\u0119czyca Wielka",
                "operator:type": "government",
                "amenity": "school"
            }
        },
        {
            "id": 31696,
            "type": "Feature",
            "geometry": {
                "type": "Point",
                "coordinates": [
                    18.89239,
                    50.8222
                ]
            },
            "properties": {
                "ref:rspo": 31696,
                "official_name": "Przedszkole Z Oddzia\u0142em Integracyjnym im. Ma\u0142ego Ksi\u0119cia we Wr\u0119czycy Wielkiej",
                "name": "Przedszkole Z Oddzia\u0142em Integracyjnym",
                "addr:postcode": "42-130",
                "addr:city": "Wr\u0119czyca Wielka",
                "addr:street": "Sportowa",
                "addr:housenumber": "2d",
                "addr:teryt:simc": 147418,
                "addr:teryt:sym_ul": 20683,
                "phone": "+48 343170053",
                "email": "pzi@vp.pl",
                "website": "http:\/\/przedszkole-wreczyca.pl",
                "ref:regon": "150026730",
                "ref:vatin": "PL5741882154",
                "operator": "Gmina Wr\u0119czyca Wielka",
                "operator:type": "government",
                "amenity": "kindergarten"
            }
        },
        {
            "id": 31688,
            "type": "Feature",
            "geometry": {
                "type": "Point",
                "coordinates": [
                    18.87919,
                    50.82261
                ]
            },
            "properties": {
                "isced:level": "1;2",
                "ref:rspo": 31688,
                "official_name": "Szko\u0142a Podstawowa im. Marii Konopnickiej w Borowem",
                "name": "Szko\u0142a Podstawowa",
                "addr:postcode": "42-133",
                "addr:city": "Borowe",
                "addr:street": "D\u0142uga",
                "addr:housenumber": "75",
                "addr:teryt:simc": 147045,
                "addr:teryt:sym_ul": 3839,
                "phone": "+48 343170208",
                "email": "szkolaborowe@gmail.com",
                "website": "http:\/\/www.spborowe.vizz.pl",
                "ref:regon": "001198441",
                "ref:vatin": "PL5741882237",
                "operator": "Gmina Wr\u0119czyca Wielka",
                "operator:type": "government",
                "amenity": "school"
            }
        },
        {
            "id": 31689,
            "type": "Feature",
            "geometry": {
                "type": "Point",
                "coordinates": [
                    18.7914299,
                    50.83652
                ]
            },
            "properties": {
                "isced:level": "1;2",
                "ref:rspo": 31689,
                "official_name": "Szko\u0142a Podstawowa im. Or\u0142a Bia\u0142ego w Kulejach",
                "name": "Szko\u0142a Podstawowa",
                "addr:postcode": "42-134",
                "addr:city": "Kuleje",
                "addr:street": "Szkolna",
                "addr:housenumber": "1",
                "addr:teryt:simc": 147223,
                "addr:teryt:sym_ul": 21970,
                "phone": "+48 783050540",
                "email": "kuleje.szkola@gmail.com",
                "website": "http:\/\/www.kuleje.pl",
                "ref:regon": "001198381",
                "ref:vatin": "PL5741882266",
                "operator": "Gmina Wr\u0119czyca Wielka",
                "operator:type": "government",
                "amenity": "school"
            }
        },
        {
            "id": 64427,
            "type": "Feature",
            "geometry": {
                "type": "Point",
                "coordinates": [
                    18.9990099,
                    50.84103
                ]
            },
            "properties": {
                "isced:level": "1;2",
                "ref:rspo": 64427,
                "official_name": "Szko\u0142a Podstawowa im. A. Mickiewicza we Wr\u0119czycy Wielkiej",
                "name": "Szko\u0142a Podstawowa",
                "addr:postcode": "42-130",
                "addr:city": "Wr\u0119czyca Wielka",
                "addr:street": "Szkolna",
                "addr:housenumber": "11",
                "addr:teryt:simc": 147418,
                "addr:teryt:sym_ul": 21970,
                "phone": "+48 343170033",
                "email": "dyrektor@spwreczyca.pl",
                "website": "http:\/\/spwreczyca.pl",
                "ref:regon": "000273784",
                "ref:vatin": "PL5742027221",
                "operator": "Gmina Wr\u0119czyca Wielka",
                "operator:type": "government",
                "amenity": "school"
            }
        },
        {
            "id": 31690,
            "type": "Feature",
            "geometry": {
                "type": "Point",
                "coordinates": [
                    19.00272,
                    50.84156
                ]
            },
            "properties": {
                "ref:rspo": 31690,
                "official_name": "Zesp\u00f3\u0142 Szkolno-Przedszkolny im. Kornela Makuszy\u0144skiego w Kalei",
                "name": "Zesp\u00f3\u0142 Szkolno-Przedszkolny",
                "addr:postcode": "42-130",
                "addr:city": "Kalej",
                "addr:street": "Szkolna",
                "addr:housenumber": "1",
                "addr:teryt:simc": 147192,
                "addr:teryt:sym_ul": 21970,
                "phone": "+48 343176626",
                "email": "sekretariat@zspkalej.pl",
                "website": "http:\/\/www.zspkalej.szkolnastrona.pl",
                "ref:regon": "241067718",
                "ref:vatin": "PL5742027215",
                "operator": "Gmina Wr\u0119czyca Wielka",
                "operator:type": "government",
                "landuse": "education",
                "fixme": "amenity=school, amenity=college albo landuse=education w zale\u017cno\u015bci od tego, jakie plac\u00f3wki wchodz\u0105 w sk\u0142ad zespo\u0142u. Sprawd\u017a, kiedy stosowa\u0107 amenity=* a kiedy landuse=education.",
                "note": "Children RSPO: 64392;64393"
            }
        },
        {
            "id": 64392,
            "type": "Feature",
            "geometry": {
                "type": "Point",
                "coordinates": [
                    19.00272,
                    50.84153
                ]
            },
            "properties": {
                "isced:level": "1;2",
                "ref:rspo": 64392,
                "official_name": "Szko\u0142a Podstawowa w Kalei",
                "name": "Szko\u0142a Podstawowa w Kalei",
                "addr:postcode": "42-130",
                "addr:city": "Kalej",
                "addr:street": "Szkolna",
                "addr:housenumber": "1",
                "addr:teryt:simc": 147192,
                "addr:teryt:sym_ul": 21970,
                "phone": "+48 343176626",
                "email": "sekretariat@zspkalej.pl",
                "website": "http:\/\/www.zspkalej.szkolnastrona.pl",
                "ref:regon": "001198398",
                "ref:vatin": "PL5741882208",
                "operator": "Gmina Wr\u0119czyca Wielka",
                "operator:type": "government",
                "amenity": "school",
                "note": "Parent RSPO: 31690"
            }
        },
        {
            "id": 64393,
            "type": "Feature",
            "geometry": {
                "type": "Point",
                "coordinates": [
                    19.00272,
                    50.8415
                ]
            },
            "properties": {
                "ref:rspo": 64393,
                "official_name": "Przedszkole w Kalei",
                "name": "Przedszkole w Kalei",
                "addr:postcode": "42-130",
                "addr:city": "Kalej",
                "addr:street": "Szkolna",
                "addr:housenumber": "1",
                "addr:teryt:simc": 147192,
                "addr:teryt:sym_ul": 21970,
                "phone": "+48 343176626",
                "email": "sekretariat@zspkalej.pl",
                "website": "http:\/\/www.zspkalej.szkolnastrona.pl",
                "ref:regon": "150026747",
                "ref:vatin": "PL5741882220",
                "operator": "Gmina Wr\u0119czyca Wielka",
                "operator:type": "government",
                "amenity": "kindergarten",
                "note": "Parent RSPO: 31690"
            }
        },
        {
            "id": 64394,
            "type": "Feature",
            "geometry": {
                "type": "Point",
                "coordinates": [
                    18.82629,
                    50.86567
                ]
            },
            "properties": {
                "isced:level": "1;2",
                "ref:rspo": 64394,
                "official_name": "Szko\u0142a Podstawowa im. St. Ligonia w Truskolasach",
                "name": "Szko\u0142a Podstawowa",
                "addr:postcode": "42-134",
                "addr:city": "Truskolasy",
                "addr:street": "Szkolna",
                "addr:housenumber": "3",
                "addr:teryt:simc": 147358,
                "addr:teryt:sym_ul": 21970,
                "phone": "+48 343199054",
                "email": "sptruskolasy2017@gmail.com",
                "website": "http:\/\/www.sptruskolasy.webd.pl",
                "ref:regon": "001198576",
                "ref:vatin": "PL5742027244",
                "operator": "Gmina Wr\u0119czyca Wielka",
                "operator:type": "government",
                "amenity": "school"
            }
        },
        {
            "id": 31694,
            "type": "Feature",
            "geometry": {
                "type": "Point",
                "coordinates": [
                    18.82754,
                    50.8666
                ]
            },
            "properties": {
                "ref:rspo": 31694,
                "official_name": "Przedszkole w Truskolasach",
                "name": "Przedszkole w Truskolasach",
                "addr:postcode": "42-134",
                "addr:city": "Truskolasy",
                "addr:street": "Rynek",
                "addr:housenumber": "2a",
                "addr:teryt:simc": 147358,
                "addr:teryt:sym_ul": 19253,
                "email": "ptrusk@o2.pl",
                "website": "http:\/\/przedszkoletruskolasy.szkolnastrona.pl",
                "ref:regon": "150026724",
                "ref:vatin": "PL5741882160",
                "operator": "Gmina Wr\u0119czyca Wielka",
                "operator:type": "government",
                "amenity": "kindergarten"
            }
        },
        {
            "id": 34238,
            "type": "Feature",
            "geometry": {
                "type": "Point",
                "coordinates": [
                    18.94436,
                    50.86738
                ]
            },
            "properties": {
                "isced:level": "1;2",
                "ref:rspo": 34238,
                "official_name": "Publiczna Szko\u0142a Podstawowa w Grodzisku",
                "name": "Publiczna Szko\u0142a Podstawowa w Grodzisku",
                "addr:postcode": "42-130",
                "addr:city": "Grodzisko",
                "addr:street": "K\u0142obucka",
                "addr:housenumber": "1",
                "addr:teryt:simc": 147157,
                "addr:teryt:sym_ul": 8615,
                "phone": "+48 343170202",
                "email": "sgrodzisko@interia.pl",
                "ref:regon": "243070788",
                "operator": "Stowarzyszenie Na Rzecz Krzewienia Kultury I O\u015bwiaty We Wsi Grodzisko",
                "operator:type": "ngo",
                "amenity": "school"
            }
        }
    ]
}