{
    "type": "FeatureCollection",
    "features": [
        {
            "id": 262292,
            "type": "Feature",
            "geometry": {
                "type": "Point",
                "coordinates": [
                    18.72894,
                    50.97068
                ]
            },
            "properties": {
                "ref:rspo": 262292,
                "official_name": "Gminny Zesp\u00f3\u0142 Szkolno Przedszkolny nr 5 w Zawadach",
                "name": "Gminny Zesp\u00f3\u0142 Szkolno Przedszkolny nr 5 w Zawadach",
                "addr:postcode": "42-110",
                "addr:city": "Zawady",
                "addr:street": "Szkolna",
                "addr:housenumber": "8",
                "addr:city:simc": 143047,
                "addr:street:sym_ul": 21970,
                "phone": "+48 343177014",
                "email": "szkolazawadyp5@interia.pl",
                "ref:regon": "367993040",
                "operator": "Gmina Pop\u00f3w",
                "operator:type": "government",
                "landuse": "education",
                "fixme": "amenity=school, amenity=college albo landuse=education w zale\u017cno\u015bci od tego, jakie plac\u00f3wki wchodz\u0105 w sk\u0142ad zespo\u0142u. Sprawd\u017a, kiedy stosowa\u0107 amenity=* a kiedy landuse=education.",
                "note": "Children RSPO: 109207;262383"
            }
        },
        {
            "id": 262383,
            "type": "Feature",
            "geometry": {
                "type": "Point",
                "coordinates": [
                    18.72894,
                    50.97065
                ]
            },
            "properties": {
                "isced:level": "1;2",
                "ref:rspo": 262383,
                "official_name": "Szko\u0142a Podstawowa im. \u015aw. Jana Paw\u0142a II w Zawadach",
                "name": "Szko\u0142a Podstawowa",
                "addr:postcode": "42-110",
                "addr:city": "Zawady",
                "addr:street": "Szkolna",
                "addr:housenumber": "8",
                "addr:city:simc": 143047,
                "addr:street:sym_ul": 21970,
                "phone": "+48 343177014",
                "email": "gimzawady@interia.pl",
                "website": "http:\/\/gzspnr5zawady.szkolnastrona.pl",
                "ref:regon": "367995820",
                "operator": "Gmina Pop\u00f3w",
                "operator:type": "government",
                "amenity": "school",
                "note": "Parent RSPO: 262292"
            }
        },
        {
            "id": 109204,
            "type": "Feature",
            "geometry": {
                "type": "Point",
                "coordinates": [
                    18.86065,
                    50.99555
                ]
            },
            "properties": {
                "ref:rspo": 109204,
                "official_name": "Gminny Zesp\u00f3\u0142 Szkolno-Przedszkolny nr 3 w R\u0119bielicach Kr\u00f3lewskich",
                "name": "Gminny Zesp\u00f3\u0142 Szkolno-Przedszkolny nr 3 w R\u0119bielicach Kr\u00f3lewskich",
                "addr:postcode": "42-110",
                "addr:city": "R\u0119bielice Kr\u00f3lewskie",
                "addr:street": "Szkolna",
                "addr:housenumber": "1",
                "addr:city:simc": 142906,
                "addr:street:sym_ul": 21970,
                "phone": "+48 343177623",
                "email": "gzsp_rebielice@op.pl",
                "website": "http:\/\/gzspnr3.szkolnastrona.pl\/",
                "ref:regon": "151574646",
                "ref:vatin": "PL5741862157",
                "operator": "Gmina Pop\u00f3w",
                "operator:type": "government",
                "landuse": "education",
                "fixme": "amenity=school, amenity=college albo landuse=education w zale\u017cno\u015bci od tego, jakie plac\u00f3wki wchodz\u0105 w sk\u0142ad zespo\u0142u. Sprawd\u017a, kiedy stosowa\u0107 amenity=* a kiedy landuse=education.",
                "note": "Children RSPO: 111317;111328"
            }
        },
        {
            "id": 111317,
            "type": "Feature",
            "geometry": {
                "type": "Point",
                "coordinates": [
                    18.86065,
                    50.99552
                ]
            },
            "properties": {
                "isced:level": "1;2",
                "ref:rspo": 111317,
                "official_name": "Szko\u0142a Podstawowa im. W\u0142.st. Reymonta",
                "name": "Szko\u0142a Podstawowa",
                "addr:postcode": "42-110",
                "addr:city": "R\u0119bielice Kr\u00f3lewskie",
                "addr:street": "Szkolna",
                "addr:housenumber": "1",
                "addr:city:simc": 142906,
                "addr:street:sym_ul": 21970,
                "phone": "+48 343177623",
                "email": "gzsp_rebielice@op.pl",
                "website": "http:\/\/gzspnr3.szkolnastrona.pl\/",
                "ref:regon": "001204029",
                "ref:vatin": "PL5741839589",
                "operator": "Gmina Pop\u00f3w",
                "operator:type": "government",
                "amenity": "school",
                "note": "Parent RSPO: 109204"
            }
        },
        {
            "id": 111328,
            "type": "Feature",
            "geometry": {
                "type": "Point",
                "coordinates": [
                    18.86058,
                    50.99572
                ]
            },
            "properties": {
                "ref:rspo": 111328,
                "official_name": "Przedszkole w R\u0119bielicach Kr\u00f3lewskich",
                "name": "Przedszkole w R\u0119bielicach Kr\u00f3lewskich",
                "addr:postcode": "42-110",
                "addr:city": "R\u0119bielice Kr\u00f3lewskie",
                "addr:street": "Szkolna",
                "addr:housenumber": "3",
                "addr:city:simc": 142906,
                "addr:street:sym_ul": 21970,
                "phone": "+48 343177623",
                "email": "gzsp_rebielice@op.pl",
                "website": "http:\/\/gzspnr3.szkolnastrona.pl\/",
                "ref:regon": "151574630",
                "ref:vatin": "PL5741839632",
                "operator": "Gmina Pop\u00f3w",
                "operator:type": "government",
                "amenity": "kindergarten",
                "note": "Parent RSPO: 109204"
            }
        },
        {
            "id": 109207,
            "type": "Feature",
            "geometry": {
                "type": "Point",
                "coordinates": [
                    18.927759170532,
                    51.028690338135
                ]
            },
            "properties": {
                "ref:rspo": 109207,
                "official_name": "Przedszkole w Zawadach",
                "name": "Przedszkole w Zawadach",
                "addr:postcode": "42-110",
                "addr:city": "Zawady",
                "addr:street": "Szkolna",
                "addr:housenumber": "8 A",
                "addr:city:simc": 143047,
                "addr:street:sym_ul": 21970,
                "phone": "+48 343177014",
                "ref:regon": "150529098",
                "operator": "Gmina Pop\u00f3w",
                "operator:type": "government",
                "amenity": "kindergarten",
                "note": "Parent RSPO: 262292"
            }
        },
        {
            "id": 109202,
            "type": "Feature",
            "geometry": {
                "type": "Point",
                "coordinates": [
                    18.93024,
                    51.03899
                ]
            },
            "properties": {
                "ref:rspo": 109202,
                "official_name": "Gminny Zesp\u00f3\u0142 Szkolno-Przedszkolny nr 1 w Popowie",
                "name": "Gminny Zesp\u00f3\u0142 Szkolno-Przedszkolny nr 1 w Popowie",
                "addr:postcode": "42-110",
                "addr:city": "Pop\u00f3w",
                "addr:street": "Jana D\u0142ugosza",
                "addr:housenumber": "7",
                "addr:city:simc": 142875,
                "addr:street:sym_ul": 3851,
                "phone": "+48 343177017",
                "email": "szkola@popow.edu.pl",
                "website": "http:\/\/popow.edu.pl",
                "ref:regon": "151572400",
                "ref:vatin": "PL5741861850",
                "operator": "Gmina Pop\u00f3w",
                "operator:type": "government",
                "landuse": "education",
                "fixme": "amenity=school, amenity=college albo landuse=education w zale\u017cno\u015bci od tego, jakie plac\u00f3wki wchodz\u0105 w sk\u0142ad zespo\u0142u. Sprawd\u017a, kiedy stosowa\u0107 amenity=* a kiedy landuse=education.",
                "note": "Children RSPO: 109830;109832"
            }
        },
        {
            "id": 109830,
            "type": "Feature",
            "geometry": {
                "type": "Point",
                "coordinates": [
                    18.93024,
                    51.038959999999996
                ]
            },
            "properties": {
                "isced:level": "1;2",
                "ref:rspo": 109830,
                "official_name": "Szko\u0142a Podstawowa im. Jana D\u0142ugosza",
                "name": "Szko\u0142a Podstawowa",
                "addr:postcode": "42-110",
                "addr:city": "Pop\u00f3w",
                "addr:street": "Jana D\u0142ugosza",
                "addr:housenumber": "7",
                "addr:city:simc": 142875,
                "addr:street:sym_ul": 3851,
                "phone": "+48 343177017",
                "email": "szkola@popow.edu.pl",
                "ref:regon": "000272313",
                "operator": "Gmina Pop\u00f3w",
                "operator:type": "government",
                "amenity": "school",
                "note": "Parent RSPO: 109202"
            }
        },
        {
            "id": 109832,
            "type": "Feature",
            "geometry": {
                "type": "Point",
                "coordinates": [
                    18.93024,
                    51.03893
                ]
            },
            "properties": {
                "ref:rspo": 109832,
                "official_name": "Przedszkole w Popowie",
                "name": "Przedszkole w Popowie",
                "addr:postcode": "42-110",
                "addr:city": "Pop\u00f3w",
                "addr:street": "Jana D\u0142ugosza",
                "addr:housenumber": "7",
                "addr:city:simc": 142875,
                "addr:street:sym_ul": 3851,
                "phone": "+48 343177017",
                "email": "szkola@popow.edu.pl",
                "ref:regon": "151572392",
                "operator": "Gmina Pop\u00f3w",
                "operator:type": "government",
                "amenity": "kindergarten",
                "note": "Parent RSPO: 109202"
            }
        },
        {
            "id": 111292,
            "type": "Feature",
            "geometry": {
                "type": "Point",
                "coordinates": [
                    19.00963973999,
                    51.055961608887
                ]
            },
            "properties": {
                "ref:rspo": 111292,
                "official_name": "Przedszkole w W\u0105soszu G\u00f3rnym",
                "name": "Przedszkole w W\u0105soszu G\u00f3rnym",
                "addr:postcode": "42-110",
                "addr:city": "W\u0105sosz G\u00f3rny",
                "addr:street": "Wincentego Witosa",
                "addr:housenumber": "9",
                "addr:city:simc": 142970,
                "addr:street:sym_ul": 24454,
                "phone": "+48 343177720",
                "email": "gzspnr2@interia.pl",
                "ref:regon": "151574729",
                "ref:vatin": "PL5741839626",
                "operator": "Gmina Pop\u00f3w",
                "operator:type": "government",
                "amenity": "kindergarten",
                "note": "Parent RSPO: 109203"
            }
        },
        {
            "id": 109203,
            "type": "Feature",
            "geometry": {
                "type": "Point",
                "coordinates": [
                    18.99905,
                    51.06588
                ]
            },
            "properties": {
                "ref:rspo": 109203,
                "official_name": "Gminny Zesp\u00f3\u0142 Szkolno-Przedszkolny nr 2 w W\u0105soszu G\u00f3rnym",
                "name": "Gminny Zesp\u00f3\u0142 Szkolno-Przedszkolny nr 2 w W\u0105soszu G\u00f3rnym",
                "addr:postcode": "42-110",
                "addr:city": "W\u0105sosz G\u00f3rny",
                "addr:street": "Wincentego Witosa",
                "addr:housenumber": "11",
                "addr:city:simc": 142970,
                "addr:street:sym_ul": 24454,
                "phone": "+48 343177720",
                "email": "gzspnr2@interia.pl",
                "ref:regon": "151574735",
                "ref:vatin": "PL5741861873",
                "operator": "Gmina Pop\u00f3w",
                "operator:type": "government",
                "landuse": "education",
                "fixme": "amenity=school, amenity=college albo landuse=education w zale\u017cno\u015bci od tego, jakie plac\u00f3wki wchodz\u0105 w sk\u0142ad zespo\u0142u. Sprawd\u017a, kiedy stosowa\u0107 amenity=* a kiedy landuse=education.",
                "note": "Children RSPO: 111282;111292"
            }
        },
        {
            "id": 111282,
            "type": "Feature",
            "geometry": {
                "type": "Point",
                "coordinates": [
                    18.99905,
                    51.06585
                ]
            },
            "properties": {
                "isced:level": "1;2",
                "ref:rspo": 111282,
                "official_name": "Szko\u0142a Podstawowa im. Romualda Traugutta w W\u0105soszu G\u00f3rnym",
                "name": "Szko\u0142a Podstawowa",
                "addr:postcode": "42-110",
                "addr:city": "W\u0105sosz G\u00f3rny",
                "addr:street": "Wincentego Witosa",
                "addr:housenumber": "11",
                "addr:city:simc": 142970,
                "addr:street:sym_ul": 24454,
                "phone": "+48 343177720",
                "email": "gzspnr2@interia.pl",
                "website": "http:\/\/gzsp2waszko.szkolnastrona.pl",
                "ref:regon": "001204058",
                "ref:vatin": "PL5741839603",
                "operator": "Gmina Pop\u00f3w",
                "operator:type": "government",
                "amenity": "school",
                "note": "Parent RSPO: 109203"
            }
        },
        {
            "id": 109205,
            "type": "Feature",
            "geometry": {
                "type": "Point",
                "coordinates": [
                    18.92522,
                    51.07124
                ]
            },
            "properties": {
                "ref:rspo": 109205,
                "official_name": "Gminny Zesp\u00f3\u0142 Szkolno-Przedszkolny nr 4 w Wi\u0119ckach",
                "name": "Gminny Zesp\u00f3\u0142 Szkolno-Przedszkolny nr 4 w Wi\u0119ckach",
                "addr:postcode": "42-110",
                "addr:city": "Wi\u0119cki",
                "addr:street": "Szkolna",
                "addr:housenumber": "1",
                "addr:city:simc": 143024,
                "addr:street:sym_ul": 21970,
                "phone": "+48 343177122",
                "email": "gzsp4wiecki@interia.pl",
                "website": "http:\/\/www.gzspwiecki.pl",
                "ref:regon": "241666459",
                "ref:vatin": "PL5742042002",
                "operator": "Gmina Pop\u00f3w",
                "operator:type": "government",
                "landuse": "education",
                "fixme": "amenity=school, amenity=college albo landuse=education w zale\u017cno\u015bci od tego, jakie plac\u00f3wki wchodz\u0105 w sk\u0142ad zespo\u0142u. Sprawd\u017a, kiedy stosowa\u0107 amenity=* a kiedy landuse=education.",
                "note": "Children RSPO: 111833;111984"
            }
        },
        {
            "id": 111833,
            "type": "Feature",
            "geometry": {
                "type": "Point",
                "coordinates": [
                    18.92522,
                    51.07121
                ]
            },
            "properties": {
                "isced:level": "1;2",
                "ref:rspo": 111833,
                "official_name": "Szko\u0142a Podstawowa im. Stefanii Sempo\u0142owskiej w Wi\u0119ckach",
                "name": "Szko\u0142a Podstawowa",
                "addr:postcode": "42-110",
                "addr:city": "Wi\u0119cki",
                "addr:street": "Szkolna",
                "addr:housenumber": "1",
                "addr:city:simc": 143024,
                "addr:street:sym_ul": 21970,
                "phone": "+48 343177122",
                "email": "gzsp4wiecki@interia.pl",
                "ref:regon": "001204035",
                "ref:vatin": "PL5741839595",
                "operator": "Gmina Pop\u00f3w",
                "operator:type": "government",
                "amenity": "school",
                "note": "Parent RSPO: 109205"
            }
        },
        {
            "id": 111984,
            "type": "Feature",
            "geometry": {
                "type": "Point",
                "coordinates": [
                    18.92522,
                    51.071180000000005
                ]
            },
            "properties": {
                "ref:rspo": 111984,
                "official_name": "Przedszkole w Wi\u0119ckach",
                "name": "Przedszkole w Wi\u0119ckach",
                "addr:postcode": "42-110",
                "addr:city": "Wi\u0119cki",
                "addr:street": "Szkolna",
                "addr:housenumber": "1",
                "addr:city:simc": 143024,
                "addr:street:sym_ul": 21970,
                "phone": "+48 343177122",
                "email": "gzsp4wiecki@interia.pl",
                "ref:regon": "241666436",
                "operator": "Gmina Pop\u00f3w",
                "operator:type": "government",
                "amenity": "kindergarten",
                "note": "Parent RSPO: 109205"
            }
        }
    ]
}