{"type":"FeatureCollection","features":[{"id":24122,"type":"Feature","geometry":{"type":"Point","coordinates":[19.02402,50.85749]},"properties":{"isced:level":"1;2","ref:rspo":24122,"official_name":"Publiczna Szko\u0142a Podstawowa Stowarzyszenia Przyjaci\u00f3\u0142 Szk\u00f3\u0142 Katolickich w Lgocie","name":"Publiczna Szko\u0142a Podstawowa Stowarzyszenia Przyjaci\u00f3\u0142 Szk\u00f3\u0142 Katolickich w Lgocie","addr:country":"PL","addr:postcode":"42-100","addr:city":"Lgota","addr:street":"ul. Po\u0142udniowa","addr:housenumber":"138","addr:teryt:simc":17070,"addr:teryt:sym_ul":133920,"contact:phone":"+48 509436542","contact:email":"lgota@spsk.info.pl","ref:regon":"243061772","operator":"Stowarzyszenie Przyjaci\u00f3\u0142 Szk\u00f3\u0142 Katolickich","operator:type":"ngo","amenity":"school"}},{"id":89724,"type":"Feature","geometry":{"type":"Point","coordinates":[19.0564943,50.8776536]},"properties":{"isced:level":"1;2","ref:rspo":89724,"official_name":"Szko\u0142a Podstawowa w Bia\u0142ej","name":"Szko\u0142a Podstawowa w Bia\u0142ej","addr:country":"PL","addr:postcode":"42-125","addr:city":"Bia\u0142a","addr:street":"ul. Cz\u0119stochowska","addr:housenumber":"73","addr:teryt:simc":3458,"addr:teryt:sym_ul":999742,"contact:phone":"+48 343627476","contact:email":"zswbialej73@op.pl","contact:website":"http:\/\/www.zsbiala.pl","ref:regon":"001205135","operator":"Gmina K\u0142obuck","operator:type":"government","amenity":"school"}},{"id":89726,"type":"Feature","geometry":{"type":"Point","coordinates":[18.98741,50.88233]},"properties":{"isced:level":"1;2","ref:rspo":89726,"official_name":"Szko\u0142a Podstawowa w Libidzy","name":"Szko\u0142a Podstawowa w Libidzy","addr:country":"PL","addr:postcode":"42-125","addr:city":"Libidza","addr:street":"ul. Stefana Olszy\u0144skiego","addr:housenumber":"2","addr:teryt:simc":31291,"addr:teryt:sym_ul":133936,"contact:phone":"+48 343183393","contact:email":"szlibidza@vp.pl","contact:website":"http:\/\/szlibidza.edu.pl","ref:regon":"001205098","operator":"Gmina K\u0142obuck","operator:type":"government","amenity":"school"}},{"id":123002,"type":"Feature","geometry":{"type":"Point","coordinates":[19.0350331,50.8906526]},"properties":{"ref:rspo":123002,"official_name":"T\u0119czowe Przedszkole-Centrum J\u0119zykowe ,,Megan Crow\"","name":"T\u0119czowe Przedszkole-Centrum J\u0119zykowe ,,Megan Crow\"","addr:country":"PL","addr:postcode":"42-100","addr:city":"K\u0142obuck","addr:street":"ul. Szkolna","addr:housenumber":"46a","addr:teryt:simc":21970,"addr:teryt:sym_ul":931678,"contact:phone":"+48 608741126","ref:regon":"243555161","ref:vatin":"PL5741749946","operator":"Ma\u0142gorzata Wrona","operator:type":"private","amenity":"kindergarten"}},{"id":88995,"type":"Feature","geometry":{"type":"Point","coordinates":[19.0298561,50.8973544]},"properties":{"ref:rspo":88995,"official_name":"Zesp\u00f3\u0142 Szkolno-Przedszkolny im. Gen. J\u00f3zefa Bema w Kamyku","name":"Zesp\u00f3\u0142 Szkolno-Przedszkolny","addr:country":"PL","addr:postcode":"42-125","addr:city":"Kamyk","addr:street":"ul. Szkolna","addr:housenumber":"5","addr:teryt:simc":21970,"addr:teryt:sym_ul":133907,"contact:phone":"+48 343197013","ref:regon":"152129405","ref:vatin":"PL5741964449","operator":"Gmina K\u0142obuck","operator:type":"government","landuse":"education","fixme":"amenity=school, amenity=college albo landuse=education w zale\u017cno\u015bci od tego, jakie plac\u00f3wki wchodz\u0105 w sk\u0142ad zespo\u0142u. Sprawd\u017a, kiedy stosowa\u0107 amenity=* a kiedy landuse=education.","note":"Children RSPO: 123073;125109"}},{"id":123073,"type":"Feature","geometry":{"type":"Point","coordinates":[19.0298561,50.897324399999995]},"properties":{"isced:level":"1;2","ref:rspo":123073,"official_name":"Szko\u0142a Podstawowa w Kamyku","name":"Szko\u0142a Podstawowa w Kamyku","addr:country":"PL","addr:postcode":"42-125","addr:city":"Kamyk","addr:street":"ul. Szkolna","addr:housenumber":"5","addr:teryt:simc":21970,"addr:teryt:sym_ul":133907,"contact:phone":"+48 343197013","contact:email":"szkola_kamyk@op.pl","ref:regon":"001205129","ref:vatin":"PL5741964449","operator":"Gmina K\u0142obuck","operator:type":"government","amenity":"school","note":"Parent RSPO: 88995"}},{"id":125109,"type":"Feature","geometry":{"type":"Point","coordinates":[19.0298561,50.8972944]},"properties":{"ref:rspo":125109,"official_name":"Przedszkole w Kamyku","name":"Przedszkole w Kamyku","addr:country":"PL","addr:postcode":"42-125","addr:city":"Kamyk","addr:street":"ul. Szkolna","addr:housenumber":"5","addr:teryt:simc":21970,"addr:teryt:sym_ul":133907,"contact:phone":"+48 343197013","ref:regon":"151523620","ref:vatin":"PL5741964449","operator":"Gmina K\u0142obuck","operator:type":"government","amenity":"kindergarten","note":"Parent RSPO: 88995"}},{"id":24119,"type":"Feature","geometry":{"type":"Point","coordinates":[19.02976,50.89897]},"properties":{"isced:level":"1;2","ref:rspo":24119,"official_name":"Szko\u0142a Podstawowa Nr 2 im. A. Mickiewicza w K\u0142obucku","name":"Szko\u0142a Podstawowa Nr 2","addr:country":"PL","addr:postcode":"42-100","addr:city":"K\u0142obuck","addr:street":"ul. Szkolna","addr:housenumber":"1","addr:teryt:simc":21970,"addr:teryt:sym_ul":931678,"contact:phone":"+48 343172386","contact:email":"sp2klobuck@poczta.onet.pl","contact:website":"http:\/\/www.sp2-klobuck.pl","ref:regon":"000710693","ref:vatin":"PL5741963243","operator":"Gmina K\u0142obuck","operator:type":"government","amenity":"school"}},{"id":42253,"type":"Feature","geometry":{"type":"Point","coordinates":[18.94234,50.90047]},"properties":{"ref:rspo":42253,"official_name":"Zesp\u00f3\u0142 Szk\u00f3\u0142 Nr 3 w K\u0142obucku","name":"Zesp\u00f3\u0142 Szk\u00f3\u0142 Nr 3 w K\u0142obucku","addr:country":"PL","addr:postcode":"42-100","addr:city":"K\u0142obuck","addr:street":"ul. ks. Ignacego Skorupki","addr:housenumber":"46","addr:teryt:simc":20100,"addr:teryt:sym_ul":931678,"contact:phone":"+48 343172652","contact:email":"zskosinski@cyberia.pl","contact:website":"http:\/\/www.zskosinski.edu.pl","ref:regon":"000771766","ref:vatin":"PL5741063404","operator":"Powiat K\u0142obucki","operator:type":"government","landuse":"education","fixme":"amenity=school, amenity=college albo landuse=education w zale\u017cno\u015bci od tego, jakie plac\u00f3wki wchodz\u0105 w sk\u0142ad zespo\u0142u. Sprawd\u017a, kiedy stosowa\u0107 amenity=* a kiedy landuse=education.","note":"Children RSPO: 53766;53768"}},{"id":88521,"type":"Feature","geometry":{"type":"Point","coordinates":[18.94234,50.900439999999996]},"properties":{"ref:rspo":88521,"official_name":"Powiatowa Poradnia Psychologiczno - Pedagogiczna","name":"Powiatowa Poradnia Psychologiczno - Pedagogiczna","addr:country":"PL","addr:postcode":"42-100","addr:city":"K\u0142obuck","addr:street":"ul. ks. Ignacego Skorupki","addr:housenumber":"46","addr:teryt:simc":20100,"addr:teryt:sym_ul":931678,"contact:phone":"+48 343172757","contact:email":"pppp@klobuck.pl","contact:website":"http:\/\/www.pppp.klobuck.pl","ref:regon":"000715963","ref:vatin":"PL5741801960","operator":"Powiat K\u0142obucki","operator:type":"government","healthcare":"councelling","counselling_type":"education","fixme":"w zale\u017cno\u015bci od przedmiotu dzia\u0142alno\u015bci (np. healthcare=councelling + counselling_type=education albo healthcare=psychotherapist)"}},{"id":53766,"type":"Feature","geometry":{"type":"Point","coordinates":[18.94234,50.90041]},"properties":{"isced:level":"3","ref:rspo":53766,"official_name":"Technikum Nr 3 im. Kazimierza Kosi\u0144skiego w K\u0142obucku","name":"Technikum Nr 3","addr:country":"PL","addr:postcode":"42-100","addr:city":"K\u0142obuck","addr:street":"ul. ks. Ignacego Skorupki","addr:housenumber":"46","addr:teryt:simc":20100,"addr:teryt:sym_ul":931678,"contact:phone":"+48 343172652","contact:email":"zskosinski@cyberia.pl","contact:website":"http:\/\/www.zskosinski.edu.pl","ref:regon":"000708058","operator":"Powiat K\u0142obucki","operator:type":"government","amenity":"school","note":"Parent RSPO: 42253"}},{"id":53768,"type":"Feature","geometry":{"type":"Point","coordinates":[18.94234,50.90038]},"properties":{"isced:level":"3","ref:rspo":53768,"official_name":"Iii Liceum Og\u00f3lnokszta\u0142c\u0105ce im. Kazimierza Kosi\u0144skiego w K\u0142obucku","name":"Iii Liceum Og\u00f3lnokszta\u0142c\u0105ce","addr:country":"PL","addr:postcode":"42-100","addr:city":"K\u0142obuck","addr:street":"ul. ks. Ignacego Skorupki","addr:housenumber":"46","addr:teryt:simc":20100,"addr:teryt:sym_ul":931678,"contact:phone":"+48 343172652","contact:email":"zskosinski@cyberia.pl","contact:website":"http:\/\/www.zskosinski.edu.pl","ref:regon":"000715851","operator":"Powiat K\u0142obucki","operator:type":"government","amenity":"school","note":"Parent RSPO: 42253"}},{"id":10303,"type":"Feature","geometry":{"type":"Point","coordinates":[18.93676,50.90283]},"properties":{"ref:rspo":10303,"official_name":"Zesp\u00f3\u0142 Szk\u00f3\u0142 Nr 2 im. Ks Jana D\u0142ugosza","name":"Zesp\u00f3\u0142 Szk\u00f3\u0142 Nr 2","addr:country":"PL","addr:postcode":"42-100","addr:city":"K\u0142obuck","addr:street":"ul. 3 Maja","addr:housenumber":"33","addr:teryt:simc":11937,"addr:teryt:sym_ul":931678,"contact:phone":"+48 343172268","contact:email":"sekretariat@zs2klobuck.edu.pl","contact:website":"http:\/\/www.zs2klobuck.edu.pl","ref:regon":"007022737","ref:vatin":"PL5741018125","operator":"Powiat K\u0142obucki","operator:type":"government","landuse":"education","fixme":"amenity=school, amenity=college albo landuse=education w zale\u017cno\u015bci od tego, jakie plac\u00f3wki wchodz\u0105 w sk\u0142ad zespo\u0142u. Sprawd\u017a, kiedy stosowa\u0107 amenity=* a kiedy landuse=education.","note":"Children RSPO: 11190;41196;53783;276195"}},{"id":11190,"type":"Feature","geometry":{"type":"Point","coordinates":[18.93676,50.9028]},"properties":{"isced:level":"3","ref:rspo":11190,"official_name":"Liceum Og\u00f3lnokszta\u0142c\u0105ce dla Doros\u0142ych w K\u0142obucku","name":"Liceum Og\u00f3lnokszta\u0142c\u0105ce dla Doros\u0142ych w K\u0142obucku","addr:country":"PL","addr:postcode":"42-100","addr:city":"K\u0142obuck","addr:street":"ul. 3 Maja","addr:housenumber":"33","addr:teryt:simc":11937,"addr:teryt:sym_ul":931678,"contact:phone":"+48 343172268","contact:email":"sekretariat@zs2klobuck.edu.pl","contact:website":"http:\/\/www.zs2klobuck.edu.pl","ref:regon":"243030636","operator":"Powiat K\u0142obucki","operator:type":"government","amenity":"school","note":"Parent RSPO: 10303"}},{"id":41196,"type":"Feature","geometry":{"type":"Point","coordinates":[18.93676,50.902770000000004]},"properties":{"isced:level":"3","ref:rspo":41196,"official_name":"Technikum Nr 2 w K\u0142obucku","name":"Technikum Nr 2 w K\u0142obucku","addr:country":"PL","addr:postcode":"42-100","addr:city":"K\u0142obuck","addr:street":"ul. 3 Maja","addr:housenumber":"33","addr:teryt:simc":11937,"addr:teryt:sym_ul":931678,"contact:phone":"+48 343172268","contact:email":"sekretariat@zs2klobuck.edu.pl","contact:website":"http:\/\/www.zs2klobuck.edu.pl","ref:regon":"151993969","operator":"Powiat K\u0142obucki","operator:type":"government","amenity":"school","note":"Parent RSPO: 10303"}},{"id":53783,"type":"Feature","geometry":{"type":"Point","coordinates":[18.93676,50.90274]},"properties":{"isced:level":"3","ref:rspo":53783,"official_name":"Bran\u017cowa Szko\u0142a I Stopnia Nr 2 w K\u0142obucku","name":"Bran\u017cowa Szko\u0142a I Stopnia Nr 2 w K\u0142obucku","addr:country":"PL","addr:postcode":"42-100","addr:city":"K\u0142obuck","addr:street":"ul. 3 Maja","addr:housenumber":"33","addr:teryt:simc":11937,"addr:teryt:sym_ul":931678,"contact:phone":"+48 343172268","contact:email":"sekretariat@zs2klobuck.edu.pl","contact:website":"http:\/\/www.zs2klobuck.edu.pl","ref:regon":"151993900","operator":"Powiat K\u0142obucki","operator:type":"government","amenity":"school","note":"Parent RSPO: 10303"}},{"id":276195,"type":"Feature","geometry":{"type":"Point","coordinates":[18.93676,50.90271]},"properties":{"isced:level":"3","ref:rspo":276195,"official_name":"Bran\u017cowa Szko\u0142a II Stopnia w K\u0142obucku","name":"Bran\u017cowa Szko\u0142a II Stopnia w K\u0142obucku","addr:country":"PL","addr:postcode":"42-100","addr:city":"K\u0142obuck","addr:street":"ul. 3 Maja","addr:housenumber":"33","addr:teryt:simc":11937,"addr:teryt:sym_ul":931678,"contact:phone":"+48 343172268","contact:email":"sekretariat@zs2klobuck.edu.pl","contact:website":"http:\/\/www.zs2klobuck.edu.pl","ref:regon":"387027306","operator":"Powiat K\u0142obucki","operator:type":"government","amenity":"school","note":"Parent RSPO: 10303"}},{"id":24114,"type":"Feature","geometry":{"type":"Point","coordinates":[18.93927,50.90441]},"properties":{"ref:rspo":24114,"official_name":"Przedszkole Gminne Nr 1 w K\u0142obucku","name":"Przedszkole Gminne Nr 1 w K\u0142obucku","addr:country":"PL","addr:postcode":"42-100","addr:city":"K\u0142obuck","addr:street":"ul. Przedszkolna","addr:housenumber":"6","addr:teryt:simc":17683,"addr:teryt:sym_ul":931678,"contact:phone":"+48 343172271","ref:regon":"151523560","ref:vatin":"PL5741964455","operator":"Gmina K\u0142obuck","operator:type":"government","amenity":"kindergarten"}},{"id":69828,"type":"Feature","geometry":{"type":"Point","coordinates":[18.9266,50.90491]},"properties":{"ref:rspo":69828,"official_name":"Szko\u0142a J\u0119zyk\u00f3w Obcych \"Green School\" Agnieszka Worw\u0105g","name":"Szko\u0142a J\u0119zyk\u00f3w Obcych \"Green School\" Agnieszka Worw\u0105g","addr:country":"PL","addr:postcode":"42-100","addr:city":"K\u0142obuck","addr:street":"ul. Tadeusza Ko\u015bciuszki","addr:housenumber":"10","addr:teryt:simc":9582,"addr:teryt:sym_ul":931678,"contact:phone":"+48 500416222","contact:email":"szkola@greenschool.pl","contact:website":"http:\/\/www.greenschool.pl","ref:regon":"243081639","ref:vatin":"PL5741846187","operator":"Agnieszka Worw\u0105g","operator:type":"private","fixme":"w zale\u017cno\u015bci od przedmiotu dzia\u0142alno\u015bci (np. amenity=training + training=*, amenity=dancing_school, amenity=language_school, amenity=music_school)"}},{"id":263089,"type":"Feature","geometry":{"type":"Point","coordinates":[18.94088,50.90582]},"properties":{"isced:level":"1;2","ref:rspo":263089,"official_name":"Szko\u0142a Podstawowa Nr 3 im. Jana Paw\u0142a II w K\u0142obucku","name":"Szko\u0142a Podstawowa Nr 3","addr:country":"PL","addr:postcode":"42-100","addr:city":"K\u0142obuck","addr:street":"ul. Bohater\u00f3w Bitwy pod Mokr\u0105","addr:housenumber":"4","addr:teryt:simc":1632,"addr:teryt:sym_ul":931678,"contact:phone":"+48 343172746","contact:email":"sp3klobuck@gmail.com","contact:website":"http:\/\/www.sp3klobuck.edupage.org","ref:regon":"368100660","ref:vatin":"PL5742062826","operator":"Gmina K\u0142obuck","operator:type":"government","amenity":"school"}},{"id":24115,"type":"Feature","geometry":{"type":"Point","coordinates":[18.93662,50.9067999]},"properties":{"ref:rspo":24115,"official_name":"Przedszkole Gminne Nr 2","name":"Przedszkole Gminne Nr 2","addr:country":"PL","addr:postcode":"42-100","addr:city":"K\u0142obuck","addr:street":"ul. kard. Stefana Wyszy\u0144skiego","addr:housenumber":"7","addr:teryt:simc":25107,"addr:teryt:sym_ul":931678,"contact:phone":"+48 343172667","contact:email":"przedszkolenr2@vp.pl","contact:website":"http:\/\/przedszkolenr2klobuck.pl","ref:regon":"151523577","ref:vatin":"PL5741963220","operator":"Gmina K\u0142obuck","operator:type":"government","amenity":"kindergarten"}},{"id":24118,"type":"Feature","geometry":{"type":"Point","coordinates":[18.9415571,50.9086755]},"properties":{"ref:rspo":24118,"official_name":"Przedszkole Gminne Nr 5 w K\u0142obucku","name":"Przedszkole Gminne Nr 5 w K\u0142obucku","addr:country":"PL","addr:postcode":"42-100","addr:city":"K\u0142obuck","addr:street":"ul. gen. R\u00f3mmla","addr:housenumber":"9","addr:teryt:simc":31012,"addr:teryt:sym_ul":931678,"contact:phone":"+48 504647088","ref:regon":"151523590","ref:vatin":"PL5741963929","operator":"Gmina K\u0142obuck","operator:type":"government","amenity":"kindergarten"}},{"id":22880,"type":"Feature","geometry":{"type":"Point","coordinates":[18.93729,50.90893]},"properties":{"isced:level":"1;2","ref:rspo":22880,"official_name":"Szko\u0142a Podstawowa Nr 1 im. W. Seby\u0142y w K\u0142obucku","name":"Szko\u0142a Podstawowa Nr 1","addr:country":"PL","addr:postcode":"42-100","addr:city":"K\u0142obuck","addr:street":"ul. Krzysztofa Kamila Baczy\u0144skiego","addr:housenumber":"2","addr:teryt:simc":569,"addr:teryt:sym_ul":931678,"contact:phone":"+48 343172793","contact:email":"sp_nr1_klobuck@onet.eu","contact:website":"http:\/\/sp1-klobuck.pl","ref:regon":"001205075","ref:vatin":"PL5741963266","operator":"Gmina K\u0142obuck","operator:type":"government","amenity":"school"}},{"id":25565,"type":"Feature","geometry":{"type":"Point","coordinates":[18.96987,50.91008]},"properties":{"isced:level":"1;2","ref:rspo":25565,"official_name":"Publiczna Szko\u0142a Podstawowa Stowarzyszenia Przyjaci\u00f3\u0142 Szk\u00f3\u0142 Katolickich im. \u015aw. Dominika Savio","name":"Publiczna Szko\u0142a Podstawowa Stowarzyszenia Przyjaci\u00f3\u0142 Szk\u00f3\u0142 Katolickich","addr:country":"PL","addr:postcode":"42-100","addr:city":"K\u0142obuck","addr:street":"ul. Wincentego Witosa","addr:housenumber":"21","addr:teryt:simc":24459,"addr:teryt:sym_ul":931678,"contact:phone":"+48 343172263","contact:email":"klobuck.spsk@op.pl","contact:website":"http:\/\/www.klobuck.spsk.info.pl","ref:regon":"243063050","operator":"Stowarzyszenie Przyjaci\u00f3\u0142 Szk\u00f3\u0142 Katolickich","operator:type":"ngo","amenity":"school"}},{"id":42001,"type":"Feature","geometry":{"type":"Point","coordinates":[18.93466,50.91419]},"properties":{"ref:rspo":42001,"official_name":"Zesp\u00f3\u0142 Szk\u00f3\u0142 Nr 1 im. Jana Kili\u0144skiego","name":"Zesp\u00f3\u0142 Szk\u00f3\u0142 Nr 1","addr:country":"PL","addr:postcode":"42-100","addr:city":"K\u0142obuck","addr:street":"ul. Zamkowa","addr:housenumber":"6","addr:teryt:simc":25547,"addr:teryt:sym_ul":931678,"contact:phone":"+48 343172231","contact:email":"zsnr1klobuck@op.pl","contact:website":"http:\/\/zsnr1-klobuck.edu.pl","ref:regon":"000708064","ref:vatin":"PL5741007280","operator":"Powiat K\u0142obucki","operator:type":"government","landuse":"education","fixme":"amenity=school, amenity=college albo landuse=education w zale\u017cno\u015bci od tego, jakie plac\u00f3wki wchodz\u0105 w sk\u0142ad zespo\u0142u. Sprawd\u017a, kiedy stosowa\u0107 amenity=* a kiedy landuse=education.","note":"Children RSPO: 49509;49666;49730;92545"}},{"id":49509,"type":"Feature","geometry":{"type":"Point","coordinates":[18.93466,50.914159999999995]},"properties":{"isced:level":"3","ref:rspo":49509,"official_name":"I Liceum Og\u00f3lnokszta\u0142c\u0105ce w K\u0142obucku","name":"I Liceum Og\u00f3lnokszta\u0142c\u0105ce w K\u0142obucku","addr:country":"PL","addr:postcode":"42-100","addr:city":"K\u0142obuck","addr:street":"ul. Zamkowa","addr:housenumber":"6","addr:teryt:simc":25547,"addr:teryt:sym_ul":931678,"contact:phone":"+48 343172231","contact:email":"zsnr1klobuck@op.pl","contact:website":"http:\/\/zsnr1-klobuck.edu.pl","ref:regon":"151993254","operator":"Powiat K\u0142obucki","operator:type":"government","amenity":"school","note":"Parent RSPO: 42001"}},{"id":49666,"type":"Feature","geometry":{"type":"Point","coordinates":[18.93466,50.91413]},"properties":{"isced:level":"3","ref:rspo":49666,"official_name":"Technikum Nr 1 w K\u0142obucku","name":"Technikum Nr 1 w K\u0142obucku","addr:country":"PL","addr:postcode":"42-100","addr:city":"K\u0142obuck","addr:street":"ul. Zamkowa","addr:housenumber":"6","addr:teryt:simc":25547,"addr:teryt:sym_ul":931678,"contact:phone":"+48 343172231","contact:email":"zsnr1klobuck@op.pl","contact:website":"http:\/\/zsnr1-klobuck.edu.pl","ref:regon":"151993188","operator":"Powiat K\u0142obucki","operator:type":"government","amenity":"school","note":"Parent RSPO: 42001"}},{"id":49730,"type":"Feature","geometry":{"type":"Point","coordinates":[18.93466,50.9141]},"properties":{"isced:level":"3","ref:rspo":49730,"official_name":"Bran\u017cowa Szko\u0142a I Stopnia Nr 1 w K\u0142obucku","name":"Bran\u017cowa Szko\u0142a I Stopnia Nr 1 w K\u0142obucku","addr:country":"PL","addr:postcode":"42-100","addr:city":"K\u0142obuck","addr:street":"ul. Zamkowa","addr:housenumber":"6","addr:teryt:simc":25547,"addr:teryt:sym_ul":931678,"contact:phone":"+48 343172231","contact:email":"zsnr1klobuck@op.pl","contact:website":"http:\/\/zsnr1.klobuck.pl\/","ref:regon":"151993159","operator":"Powiat K\u0142obucki","operator:type":"government","amenity":"school","note":"Parent RSPO: 42001"}},{"id":92545,"type":"Feature","geometry":{"type":"Point","coordinates":[18.93466,50.914069999999995]},"properties":{"isced:level":"4","ref:rspo":92545,"official_name":"Szko\u0142a Policealna Nr 1","name":"Szko\u0142a Policealna Nr 1","addr:country":"PL","addr:postcode":"42-100","addr:city":"K\u0142obuck","addr:street":"ul. Zamkowa","addr:housenumber":"6","addr:teryt:simc":25547,"addr:teryt:sym_ul":931678,"contact:phone":"+48 343172231","contact:email":"zsnr1klobuck@op.pl","contact:website":"http:\/\/zsnr1-klobuck.edu.pl","ref:regon":"151993225","operator":"Powiat K\u0142obucki","operator:type":"government","amenity":"college","note":"Parent RSPO: 42001"}},{"id":24116,"type":"Feature","geometry":{"type":"Point","coordinates":[18.94157,50.91551]},"properties":{"ref:rspo":24116,"official_name":"Przedszkole Gminnenr 4 w K\u0142obucku","name":"Przedszkole Gminnenr 4 w K\u0142obucku","addr:country":"PL","addr:postcode":"42-100","addr:city":"K\u0142obuck","addr:street":"ul. Elizy Orzeszkowej","addr:housenumber":"44","addr:teryt:simc":15211,"addr:teryt:sym_ul":931678,"ref:regon":"151523583","ref:vatin":"PL5741062847","operator":"Gmina K\u0142obuck","operator:type":"government","amenity":"kindergarten"}},{"id":24631,"type":"Feature","geometry":{"type":"Point","coordinates":[18.98096,50.92751]},"properties":{"ref:rspo":24631,"official_name":"Zesp\u00f3\u0142 Szkolno-Przedszkolny w \u0141obodnie","name":"Zesp\u00f3\u0142 Szkolno-Przedszkolny w \u0141obodnie","addr:country":"PL","addr:postcode":"42-125","addr:city":"\u0141obodno","addr:street":"ul. Henryka Sienkiewicza","addr:housenumber":"69","addr:teryt:simc":19834,"addr:teryt:sym_ul":133965,"contact:phone":"+48 343195056","contact:email":"zpsz_lobodno@op.pl","contact:website":"http:\/\/www.zszp-lobodno.pl","ref:regon":"152071143","ref:vatin":"PL5741963912","operator":"Gmina K\u0142obuck","operator:type":"government","landuse":"education","fixme":"amenity=school, amenity=college albo landuse=education w zale\u017cno\u015bci od tego, jakie plac\u00f3wki wchodz\u0105 w sk\u0142ad zespo\u0142u. Sprawd\u017a, kiedy stosowa\u0107 amenity=* a kiedy landuse=education.","note":"Children RSPO: 89728;89763"}},{"id":89728,"type":"Feature","geometry":{"type":"Point","coordinates":[18.98096,50.927479999999996]},"properties":{"isced:level":"1;2","ref:rspo":89728,"official_name":"Szko\u0142a Podstawowa w \u0141obodnie","name":"Szko\u0142a Podstawowa w \u0141obodnie","addr:country":"PL","addr:postcode":"42-125","addr:city":"\u0141obodno","addr:street":"ul. Henryka Sienkiewicza","addr:housenumber":"69","addr:teryt:simc":19834,"addr:teryt:sym_ul":133965,"contact:phone":"+48 343195056","contact:email":"zpsz_lobodno@op.pl","contact:website":"http:\/\/www.zszp-lobodno.pl","ref:regon":"001205112","operator":"Gmina K\u0142obuck","operator:type":"government","amenity":"school","note":"Parent RSPO: 24631"}},{"id":89763,"type":"Feature","geometry":{"type":"Point","coordinates":[18.98096,50.92745]},"properties":{"ref:rspo":89763,"official_name":"Przedszkole Gminne w \u0141obodnie","name":"Przedszkole Gminne w \u0141obodnie","addr:country":"PL","addr:postcode":"42-125","addr:city":"\u0141obodno","addr:street":"ul. Henryka Sienkiewicza","addr:housenumber":"69","addr:teryt:simc":19834,"addr:teryt:sym_ul":133965,"contact:phone":"+48 343195056","ref:regon":"151523608","operator":"Gmina K\u0142obuck","operator:type":"government","amenity":"kindergarten","note":"Parent RSPO: 24631"}},{"id":123431,"type":"Feature","geometry":{"type":"Point","coordinates":[18.98873,50.93264]},"properties":{"ref:rspo":123431,"official_name":"Punkt Terapeutyczno-Przedszkolny ,,Mila I Przyjaciele\"","name":"Punkt Terapeutyczno-Przedszkolny ,,Mila I Przyjaciele\"","addr:country":"PL","addr:postcode":"42-125","addr:city":"\u0141obodno","addr:street":"ul. Nadrzeczna","addr:housenumber":"1","addr:teryt:simc":13902,"addr:teryt:sym_ul":133965,"contact:phone":"+48 504820461","contact:email":"milaiprzyjaciele@wp.pl","contact:website":"http:\/\/www.milaiprzyjaciele.pl","ref:regon":"243607142","operator":"Stowarzyszenie \"Mila I Przyjaciele\"","operator:type":"ngo","amenity":"kindergarten"}}]}