{
    "type": "FeatureCollection",
    "features": [
        {
            "id": 57266,
            "type": "Feature",
            "geometry": {
                "type": "Point",
                "coordinates": [
                    18.31417,
                    53.81252
                ]
            },
            "properties": {
                "isced:level": "1;2",
                "ref:rspo": 57266,
                "official_name": "Publiczna Szko\u0142a Podstawowa im. Ks. Kard. St. Wyszy\u0144skiego w Lubichowie",
                "name": "Publiczna Szko\u0142a Podstawowa",
                "addr:postcode": "83-240",
                "addr:city": "Lubichowo",
                "addr:street": "Dworcowa",
                "addr:housenumber": "15",
                "addr:teryt:simc": 166539,
                "addr:teryt:sym_ul": 4434,
                "phone": "+48 585885225",
                "email": "psplubichowo@wp.pl",
                "website": "http:\/\/psplubichowo.pl",
                "ref:regon": "000575858",
                "ref:vatin": "PL5922242286",
                "operator": "Gmina Lubichowo",
                "operator:type": "government",
                "amenity": "school"
            }
        },
        {
            "id": 57265,
            "type": "Feature",
            "geometry": {
                "type": "Point",
                "coordinates": [
                    18.43534,
                    53.83135
                ]
            },
            "properties": {
                "isced:level": "1;2",
                "ref:rspo": 57265,
                "official_name": "Publiczna Szko\u0142a Podstawowa w Zelgoszczy im. Andrzeja Grubby",
                "name": "Publiczna Szko\u0142a Podstawowa w Zelgoszczy",
                "addr:postcode": "83-208",
                "addr:city": "Zelgoszcz",
                "addr:street": "G\u0142\u00f3wna",
                "addr:housenumber": "29",
                "addr:teryt:simc": 166798,
                "addr:teryt:sym_ul": 5635,
                "phone": "+48 585885009",
                "email": "pspzelgoszcz@interia.pl",
                "website": "http:\/\/pspzelgoszcz.com",
                "ref:regon": "001170951",
                "ref:vatin": "PL5922242263",
                "operator": "Gmina Lubichowo",
                "operator:type": "government",
                "amenity": "school"
            }
        },
        {
            "id": 29654,
            "type": "Feature",
            "geometry": {
                "type": "Point",
                "coordinates": [
                    18.400454,
                    53.85112
                ]
            },
            "properties": {
                "isced:level": "3",
                "ref:rspo": 29654,
                "official_name": "Zaoczne Liceum Og\u00f3lnokszta\u0142c\u0105ce dla Doros\u0142ych w Lubichowie",
                "name": "Zaoczne Liceum Og\u00f3lnokszta\u0142c\u0105ce dla Doros\u0142ych w Lubichowie",
                "addr:postcode": "83-240",
                "addr:place": "Lubichowo",
                "addr:housenumber": "8",
                "addr:teryt:simc": 166539,
                "email": "magdabobek@op.pl",
                "website": "http:\/\/www.zlplubichowo.pl",
                "ref:regon": "221760642",
                "operator": "Magdalena Bobkowska",
                "operator:type": "private",
                "amenity": "school"
            }
        },
        {
            "id": 57268,
            "type": "Feature",
            "geometry": {
                "type": "Point",
                "coordinates": [
                    18.39516,
                    53.85344
                ]
            },
            "properties": {
                "ref:rspo": 57268,
                "official_name": "Publiczne Przedszkole w Lubichowie",
                "name": "Publiczne Przedszkole w Lubichowie",
                "addr:postcode": "83-240",
                "addr:city": "Lubichowo",
                "addr:street": "Zblewska",
                "addr:housenumber": "30",
                "addr:teryt:simc": 166539,
                "addr:teryt:sym_ul": 25896,
                "phone": "+48 585885283",
                "email": "przedszkole-lubichowo@tlen.pl",
                "website": "http:\/\/przedszkole-lubichowo.pl",
                "ref:regon": "190582500",
                "ref:vatin": "PL5922242292",
                "operator": "Gmina Lubichowo",
                "operator:type": "government",
                "amenity": "kindergarten"
            }
        },
        {
            "id": 268548,
            "type": "Feature",
            "geometry": {
                "type": "Point",
                "coordinates": [
                    18.39516,
                    53.85341
                ]
            },
            "properties": {
                "ref:rspo": 268548,
                "official_name": "Punkt Przedszkolny Przy Publicznym Przedszkolu w Lubichowie",
                "name": "Punkt Przedszkolny Przy Publicznym Przedszkolu w Lubichowie",
                "addr:postcode": "83-240",
                "addr:city": "Lubichowo",
                "addr:street": "Zblewska",
                "addr:housenumber": "30",
                "addr:teryt:simc": 166539,
                "addr:teryt:sym_ul": 25896,
                "phone": "+48 585885283",
                "email": "przedszkole-lubichowo@tlen.pl",
                "ref:regon": "381201683",
                "operator": "Gmina Lubichowo",
                "operator:type": "government",
                "amenity": "kindergarten"
            }
        },
        {
            "id": 122297,
            "type": "Feature",
            "geometry": {
                "type": "Point",
                "coordinates": [
                    18.40396,
                    53.85383
                ]
            },
            "properties": {
                "ref:rspo": 122297,
                "official_name": "Punkt Przedszkolny \n\"\u015awiat Malucha\"\nJolanta Ma\u0142ecka",
                "name": "Punkt Przedszkolny \n\"\u015awiat Malucha\"\nJolanta Ma\u0142ecka",
                "addr:postcode": "83-240",
                "addr:city": "Lubichowo",
                "addr:street": "Henryka Sienkiewicza",
                "addr:housenumber": "8",
                "addr:teryt:simc": 166539,
                "addr:teryt:sym_ul": 19830,
                "phone": "+48 515265714",
                "email": "bunislawa10@wp.pl",
                "ref:regon": "222045284",
                "ref:vatin": "PL5921601441",
                "operator": "Jolanta Ma\u0142ecka",
                "operator:type": "private",
                "amenity": "kindergarten"
            }
        }
    ]
}