{
    "type": "FeatureCollection",
    "features": [
        {
            "id": 26804,
            "type": "Feature",
            "geometry": {
                "type": "Point",
                "coordinates": [
                    18.580949,
                    53.767241
                ]
            },
            "properties": {
                "isced:level": "1;2",
                "ref:rspo": 26804,
                "official_name": "Publiczna Szko\u0142a Podstawowa w Mirotkach",
                "name": "Publiczna Szko\u0142a Podstawowa w Mirotkach",
                "addr:postcode": "83-225",
                "addr:place": "Mirotki",
                "addr:housenumber": "58",
                "addr:city:simc": 172014,
                "phone": "+48 585824792",
                "email": "szkolamirotki@gmail.com",
                "ref:regon": "190583787",
                "ref:vatin": "PL5922264968",
                "operator": "Gmina Sk\u00f3rcz",
                "operator:type": "government",
                "amenity": "school"
            }
        },
        {
            "id": 18149,
            "type": "Feature",
            "geometry": {
                "type": "Point",
                "coordinates": [
                    18.612125,
                    53.786825
                ]
            },
            "properties": {
                "isced:level": "1;2",
                "ref:rspo": 18149,
                "official_name": "Publiczna Szko\u0142a Podstawowa im. Ksi\u0119dza Senatora Feliksa Bolta w Bar\u0142o\u017cnie",
                "name": "Publiczna Szko\u0142a Podstawowa",
                "addr:postcode": "83-225",
                "addr:place": "Bar\u0142o\u017cno",
                "addr:housenumber": "23",
                "addr:city:simc": 171990,
                "phone": "+48 585821626",
                "email": "spbarlozno@wp.pl",
                "website": "http:\/\/www.spbarlozno.szkolnastrona.pl",
                "ref:regon": "190583770",
                "ref:vatin": "PL5922264980",
                "operator": "Gmina Sk\u00f3rcz",
                "operator:type": "government",
                "amenity": "school"
            }
        },
        {
            "id": 12849,
            "type": "Feature",
            "geometry": {
                "type": "Point",
                "coordinates": [
                    18.4651597,
                    53.8185133
                ]
            },
            "properties": {
                "isced:level": "1;2",
                "ref:rspo": 12849,
                "official_name": "Publiczna Szko\u0142a Podstawowa w Wielkim Bukowcu",
                "name": "Publiczna Szko\u0142a Podstawowa w Wielkim Bukowcu",
                "addr:postcode": "83-220",
                "addr:place": "Wielki Bukowiec",
                "addr:housenumber": "B\/N",
                "addr:city:simc": 172155,
                "phone": "+48 585824241",
                "email": "szkola@wielkibukowiec.pl",
                "website": "http:\/\/wlkbukowiec.szkolna.net\/",
                "ref:regon": "191208376",
                "ref:vatin": "PL5922264974",
                "operator": "Gmina Sk\u00f3rcz",
                "operator:type": "government",
                "amenity": "school"
            }
        },
        {
            "id": 34316,
            "type": "Feature",
            "geometry": {
                "type": "Point",
                "coordinates": [
                    18.5292089,
                    53.844626
                ]
            },
            "properties": {
                "isced:level": "1;2",
                "ref:rspo": 34316,
                "official_name": "Publiczna Szko\u0142a Podstawowa w P\u0105czewie Imienia Ks. Jana Twardowskiego",
                "name": "Publiczna Szko\u0142a Podstawowa w P\u0105czewie Imienia Ks. Jana Twardowskiego",
                "addr:postcode": "83-213",
                "addr:place": "P\u0105czewo",
                "addr:housenumber": "124",
                "addr:city:simc": 172043,
                "phone": "+48 585621648",
                "email": "zsppaczewo@wp.pl",
                "website": "http:\/\/www.zsppaczewo.szkolnastrona.pl",
                "ref:regon": "190583764",
                "ref:vatin": "PL5922264997",
                "operator": "Gmina Sk\u00f3rcz",
                "operator:type": "government",
                "amenity": "school"
            }
        }
    ]
}