{
    "type": "FeatureCollection",
    "features": [
        {
            "id": 16570,
            "type": "Feature",
            "geometry": {
                "type": "Point",
                "coordinates": [
                    18.09951,
                    53.84477
                ]
            },
            "properties": {
                "ref:rspo": 16570,
                "official_name": "Zesp\u00f3\u0142 Szk\u00f3\u0142 Ponadpodstawowych w Czarnej Wodzie",
                "name": "Zesp\u00f3\u0142 Szk\u00f3\u0142 Ponadpodstawowych w Czarnej Wodzie",
                "addr:postcode": "83-262",
                "addr:city": "Czarna Woda",
                "addr:street": "Adama Mickiewicza",
                "addr:housenumber": "1J",
                "addr:city:simc": 162139,
                "addr:street:sym_ul": 12740,
                "email": "zspczarwod@poczta.onet.pl",
                "ref:regon": "192586844",
                "ref:vatin": "PL5921194711",
                "operator": "Powiat Starogardzki",
                "operator:type": "government",
                "landuse": "education",
                "fixme": "amenity=school, amenity=college albo landuse=education w zale\u017cno\u015bci od tego, jakie plac\u00f3wki wchodz\u0105 w sk\u0142ad zespo\u0142u. Sprawd\u017a, kiedy stosowa\u0107 amenity=* a kiedy landuse=education.",
                "note": "Children RSPO: 26639;26640;26643;26645;276181"
            }
        },
        {
            "id": 26639,
            "type": "Feature",
            "geometry": {
                "type": "Point",
                "coordinates": [
                    18.09951,
                    53.844739999999994
                ]
            },
            "properties": {
                "isced:level": "3",
                "ref:rspo": 26639,
                "official_name": "Liceum Og\u00f3lnokszta\u0142c\u0105ce dla Doros\u0142ych w Czarnej Wodzie",
                "name": "Liceum Og\u00f3lnokszta\u0142c\u0105ce dla Doros\u0142ych w Czarnej Wodzie",
                "addr:postcode": "83-262",
                "addr:city": "Czarna Woda",
                "addr:street": "Adama Mickiewicza",
                "addr:housenumber": "1J",
                "addr:city:simc": 162139,
                "addr:street:sym_ul": 12734,
                "phone": "+48 585878400",
                "email": "zspczarwod@poczta.onet.pl",
                "ref:regon": "192758802",
                "operator": "Powiat Starogardzki",
                "operator:type": "government",
                "amenity": "school",
                "note": "Parent RSPO: 16570"
            }
        },
        {
            "id": 26640,
            "type": "Feature",
            "geometry": {
                "type": "Point",
                "coordinates": [
                    18.09951,
                    53.84471
                ]
            },
            "properties": {
                "isced:level": "3",
                "ref:rspo": 26640,
                "official_name": "Bran\u017cowa Szko\u0142a I Stopnia w Czarnej Wodzie",
                "name": "Bran\u017cowa Szko\u0142a I Stopnia w Czarnej Wodzie",
                "addr:postcode": "83-262",
                "addr:city": "Czarna Woda",
                "addr:street": "Adama Mickiewicza",
                "addr:housenumber": "1J",
                "addr:city:simc": 162139,
                "addr:street:sym_ul": 12740,
                "phone": "+48 585878400",
                "email": "zspczarwod@poczta.onet.pl",
                "ref:regon": "192758825",
                "operator": "Powiat Starogardzki",
                "operator:type": "government",
                "amenity": "school",
                "note": "Parent RSPO: 16570"
            }
        },
        {
            "id": 26643,
            "type": "Feature",
            "geometry": {
                "type": "Point",
                "coordinates": [
                    18.09951,
                    53.84468
                ]
            },
            "properties": {
                "isced:level": "3",
                "ref:rspo": 26643,
                "official_name": "Technikum w Czarnej Wodzie",
                "name": "Technikum w Czarnej Wodzie",
                "addr:postcode": "83-262",
                "addr:city": "Czarna Woda",
                "addr:street": "Adama Mickiewicza",
                "addr:housenumber": "1J",
                "addr:city:simc": 162139,
                "addr:street:sym_ul": 12740,
                "phone": "+48 585878400",
                "ref:regon": "220830091",
                "operator": "Powiat Starogardzki",
                "operator:type": "government",
                "amenity": "school",
                "note": "Parent RSPO: 16570"
            }
        },
        {
            "id": 26645,
            "type": "Feature",
            "geometry": {
                "type": "Point",
                "coordinates": [
                    18.09951,
                    53.844649999999994
                ]
            },
            "properties": {
                "isced:level": "4",
                "ref:rspo": 26645,
                "official_name": "Szko\u0142a Policealna w Czarnej Wodzie",
                "name": "Szko\u0142a Policealna w Czarnej Wodzie",
                "addr:postcode": "83-262",
                "addr:city": "Czarna Woda",
                "addr:street": "Adama Mickiewicza",
                "addr:housenumber": "1J",
                "addr:city:simc": 162139,
                "addr:street:sym_ul": 12740,
                "phone": "+48 585878400",
                "ref:regon": "221756267",
                "operator": "Powiat Starogardzki",
                "operator:type": "government",
                "amenity": "college",
                "note": "Parent RSPO: 16570"
            }
        },
        {
            "id": 276181,
            "type": "Feature",
            "geometry": {
                "type": "Point",
                "coordinates": [
                    18.09951,
                    53.84462
                ]
            },
            "properties": {
                "isced:level": "3",
                "ref:rspo": 276181,
                "official_name": "Bran\u017cowa Szko\u0142a II Stopnia w Czarnej Wodzie",
                "name": "Bran\u017cowa Szko\u0142a II Stopnia w Czarnej Wodzie",
                "addr:postcode": "83-262",
                "addr:city": "Czarna Woda",
                "addr:street": "Adama Mickiewicza",
                "addr:housenumber": "1J",
                "addr:city:simc": 162139,
                "addr:street:sym_ul": 12734,
                "phone": "+48 585878400",
                "email": "zspczarwod@poczta.onet.pl",
                "website": "http:\/\/www.zspczarnawod.pl",
                "ref:regon": "387024561",
                "operator": "Powiat Starogardzki",
                "operator:type": "government",
                "amenity": "school",
                "note": "Parent RSPO: 16570"
            }
        },
        {
            "id": 119276,
            "type": "Feature",
            "geometry": {
                "type": "Point",
                "coordinates": [
                    18.09707,
                    53.84563
                ]
            },
            "properties": {
                "ref:rspo": 119276,
                "official_name": "O\u015brodek Rehabilitacyjno-Edukacyjno-Wychowawczy",
                "name": "O\u015brodek Rehabilitacyjno-Edukacyjno-Wychowawczy",
                "addr:postcode": "83-262",
                "addr:city": "Czarna Woda",
                "addr:street": "Adama Mickiewicza",
                "addr:housenumber": "5A",
                "addr:city:simc": 162139,
                "addr:street:sym_ul": 12740,
                "phone": "+48 504488874",
                "email": "terapiadzieci@terapiadzieci.com",
                "ref:regon": "221944023",
                "operator": "Dane Do Uzupe\u0142nienia",
                "operator:type": "private",
                "amenity": "school"
            }
        },
        {
            "id": 42319,
            "type": "Feature",
            "geometry": {
                "type": "Point",
                "coordinates": [
                    18.08552,
                    53.84652
                ]
            },
            "properties": {
                "ref:rspo": 42319,
                "official_name": "Przedszkole Publiczne w Czarnej Wodzie",
                "name": "Przedszkole Publiczne w Czarnej Wodzie",
                "addr:postcode": "83-262",
                "addr:city": "Czarna Woda",
                "addr:street": "Mostowa",
                "addr:housenumber": "2",
                "addr:city:simc": 162139,
                "addr:street:sym_ul": 13379,
                "phone": "+48 585878849",
                "email": "przedszkole@czarna-woda.pl",
                "ref:regon": "000267269",
                "ref:vatin": "PL5921556048",
                "operator": "Gmina Czarna Woda",
                "operator:type": "government",
                "amenity": "kindergarten"
            }
        },
        {
            "id": 70893,
            "type": "Feature",
            "geometry": {
                "type": "Point",
                "coordinates": [
                    18.09639,
                    53.84756
                ]
            },
            "properties": {
                "isced:level": "1;2",
                "ref:rspo": 70893,
                "official_name": "Publiczna Szko\u0142a Podstawowa w Czarnej Wodzie",
                "name": "Publiczna Szko\u0142a Podstawowa w Czarnej Wodzie",
                "addr:postcode": "83-262",
                "addr:city": "Czarna Woda",
                "addr:street": "Adama Mickiewicza",
                "addr:housenumber": "5",
                "addr:city:simc": 162139,
                "addr:street:sym_ul": 12734,
                "phone": "+48 585878625",
                "email": "zspczwoda@wp.pl",
                "website": "http:\/\/zspczarnawoda.eu",
                "ref:regon": "220254552",
                "ref:vatin": "PL5921893254",
                "operator": "Gmina Czarna Woda",
                "operator:type": "government",
                "amenity": "school"
            }
        }
    ]
}