{
    "type": "FeatureCollection",
    "features": [
        {
            "id": 277105,
            "type": "Feature",
            "geometry": {
                "type": "Point",
                "coordinates": [
                    18.5077,
                    53.93576
                ]
            },
            "properties": {
                "ref:rspo": 277105,
                "official_name": "Publiczne Przedszkole \"Przylesie\"",
                "name": "Publiczne Przedszkole \"Przylesie\"",
                "addr:country": "PL",
                "addr:postcode": "83-200",
                "addr:city": "Starogard Gda\u0144ski",
                "addr:street": "Leszczynowa",
                "addr:housenumber": "3",
                "addr:teryt:simc": 10870,
                "addr:teryt:sym_ul": 934837,
                "contact:phone": "+48 502356663",
                "ref:regon": "388166493",
                "ref:vatin": "PL5792007692",
                "operator": "Magdalena Sta\u0144czak-\u0141epek",
                "operator:type": "private",
                "amenity": "kindergarten"
            }
        },
        {
            "id": 277331,
            "type": "Feature",
            "geometry": {
                "type": "Point",
                "coordinates": [
                    18.53267,
                    53.957
                ]
            },
            "properties": {
                "ref:rspo": 277331,
                "official_name": "Miejskie Przedszkole Publiczne Nr 1",
                "name": "Miejskie Przedszkole Publiczne Nr 1",
                "addr:country": "PL",
                "addr:postcode": "83-200",
                "addr:city": "Starogard Gda\u0144ski",
                "addr:street": "Henryka Sienkiewicza",
                "addr:housenumber": "19",
                "addr:teryt:simc": 19834,
                "addr:teryt:sym_ul": 934837,
                "contact:phone": "+48 585625489",
                "contact:email": "sekretariat@mpp1.starogard.pl",
                "ref:regon": "388643740",
                "ref:vatin": "PL5922285315",
                "operator": "Gmina Miejska Starogard Gda\u0144ski",
                "operator:type": "government",
                "amenity": "kindergarten"
            }
        },
        {
            "id": 132266,
            "type": "Feature",
            "geometry": {
                "type": "Point",
                "coordinates": [
                    18.5346699,
                    53.95718
                ]
            },
            "properties": {
                "ref:rspo": 132266,
                "official_name": "Niepubliczne Przedszkole \"Maluszek\"",
                "name": "Niepubliczne Przedszkole \"Maluszek\"",
                "addr:country": "PL",
                "addr:postcode": "83-200",
                "addr:city": "Starogard Gda\u0144ski",
                "addr:street": "Osiedle 800-lecia Starogardu",
                "addr:housenumber": "14",
                "addr:teryt:simc": 30189,
                "addr:teryt:sym_ul": 934837,
                "contact:phone": "+48 504194552",
                "contact:email": "kamila-suchoparska@wp.pl",
                "ref:regon": "365525903",
                "operator": "Kamila Suchoparska",
                "operator:type": "private",
                "amenity": "kindergarten"
            }
        },
        {
            "id": 133908,
            "type": "Feature",
            "geometry": {
                "type": "Point",
                "coordinates": [
                    18.52823,
                    53.95795
                ]
            },
            "properties": {
                "isced:level": "1;2",
                "ref:rspo": 133908,
                "official_name": "Publiczna Szko\u0142a Podstawowa Nr 8 im. Miko\u0142aja Kopernika",
                "name": "Publiczna Szko\u0142a Podstawowa Nr 8",
                "addr:country": "PL",
                "addr:postcode": "83-200",
                "addr:city": "Starogard Gda\u0144ski",
                "addr:street": "Aleja Jana Paw\u0142a II",
                "addr:housenumber": "10",
                "addr:teryt:simc": 7120,
                "addr:teryt:sym_ul": 934837,
                "contact:phone": "+48 585628793",
                "contact:email": "sekretariat@psp8.edu.pl",
                "contact:website": "http:\/\/www.psp8.edu.pl",
                "ref:regon": "367721063",
                "ref:vatin": "PL5922270182",
                "operator": "Gmina Miejska Starogard Gda\u0144ski",
                "operator:type": "government",
                "amenity": "school"
            }
        },
        {
            "id": 6826,
            "type": "Feature",
            "geometry": {
                "type": "Point",
                "coordinates": [
                    18.52586,
                    53.95961
                ]
            },
            "properties": {
                "ref:rspo": 6826,
                "official_name": "Miejskie Przedszkole Publiczne Nr4 im. \"T\u0119cz\u0105 Malowane\"",
                "name": "Miejskie Przedszkole Publiczne Nr4",
                "addr:country": "PL",
                "addr:postcode": "83-200",
                "addr:city": "Starogard Gda\u0144ski",
                "addr:street": "W\u0142adys\u0142awa Stanis\u0142awa Reymonta",
                "addr:housenumber": "7",
                "addr:teryt:simc": 18652,
                "addr:teryt:sym_ul": 934837,
                "contact:phone": "+48 585628178",
                "contact:email": "dyrektor@przedszkole4.starogard.pl",
                "contact:website": "http:\/\/www.tecza-malowane",
                "ref:regon": "190589005",
                "ref:vatin": "PL5921976454",
                "operator": "Gmina Miejska Starogard Gda\u0144ski",
                "operator:type": "government",
                "amenity": "kindergarten"
            }
        },
        {
            "id": 124104,
            "type": "Feature",
            "geometry": {
                "type": "Point",
                "coordinates": [
                    18.5216299,
                    53.96002
                ]
            },
            "properties": {
                "ref:rspo": 124104,
                "official_name": "Katolickie Przedszkole Niepubliczne \"Arka Noego\"",
                "name": "Katolickie Przedszkole Niepubliczne \"Arka Noego\"",
                "addr:country": "PL",
                "addr:postcode": "83-200",
                "addr:city": "Starogard Gda\u0144ski",
                "addr:street": "Lubichowska",
                "addr:housenumber": "56",
                "addr:teryt:simc": 11314,
                "addr:teryt:sym_ul": 934837,
                "contact:phone": "+48 793751751",
                "contact:email": "arkanoego56@wp.pl",
                "ref:regon": "222142857",
                "ref:vatin": "PL5922263035",
                "operator": "Parafia Rzymskokatolicka Pod Wezwaniem Mi\u0142osierdzia Bo\u017cego W Starogardzie Gda\u0144skim",
                "operator:type": "religious",
                "amenity": "kindergarten"
            }
        },
        {
            "id": 6557,
            "type": "Feature",
            "geometry": {
                "type": "Point",
                "coordinates": [
                    18.53042,
                    53.96068
                ]
            },
            "properties": {
                "ref:rspo": 6557,
                "official_name": "Miejskie Przedszkole Publiczne Nr 2 Z Oddzia\u0142ami Integracyjnymi",
                "name": "Miejskie Przedszkole Publiczne Nr 2 Z Oddzia\u0142ami Integracyjnymi",
                "addr:country": "PL",
                "addr:postcode": "83-200",
                "addr:city": "Starogard Gda\u0144ski",
                "addr:street": "Aleja Jana Paw\u0142a II",
                "addr:housenumber": "7",
                "addr:teryt:simc": 7120,
                "addr:teryt:sym_ul": 934837,
                "contact:phone": "+48 585622378",
                "contact:email": "przedszkole2stg@wp.pl",
                "ref:regon": "190588980",
                "ref:vatin": "PL5921976477",
                "operator": "Gmina Miejska Starogard Gda\u0144ski",
                "operator:type": "government",
                "amenity": "kindergarten"
            }
        },
        {
            "id": 7020,
            "type": "Feature",
            "geometry": {
                "type": "Point",
                "coordinates": [
                    18.50178,
                    53.96146
                ]
            },
            "properties": {
                "isced:level": "1;2",
                "ref:rspo": 7020,
                "official_name": "Publiczna Szko\u0142a Podstawowa Nr 1 im. Henryka Sienkiewicza",
                "name": "Publiczna Szko\u0142a Podstawowa Nr 1",
                "addr:country": "PL",
                "addr:postcode": "83-200",
                "addr:city": "Starogard Gda\u0144ski",
                "addr:street": "Zblewska",
                "addr:housenumber": "18",
                "addr:teryt:simc": 25896,
                "addr:teryt:sym_ul": 934837,
                "contact:phone": "+48 585629609",
                "contact:email": "sekretariat@psp1.starogard.pl",
                "contact:website": "http:\/\/psp1starogardgd.edupage.org",
                "ref:regon": "190375132",
                "ref:vatin": "PL5921194651",
                "operator": "Gmina Miejska Starogard Gda\u0144ski",
                "operator:type": "government",
                "amenity": "school"
            }
        },
        {
            "id": 111379,
            "type": "Feature",
            "geometry": {
                "type": "Point",
                "coordinates": [
                    18.50178,
                    53.96143
                ]
            },
            "properties": {
                "ref:rspo": 111379,
                "official_name": "Pedagogiczna Biblioteka Wojew\u00f3dzka w Gda\u0144sku Filia w Starogardzie Gda\u0144skim",
                "name": "Pedagogiczna Biblioteka Wojew\u00f3dzka w Gda\u0144sku Filia w Starogardzie Gda\u0144skim",
                "addr:country": "PL",
                "addr:postcode": "83-200",
                "addr:city": "Starogard Gda\u0144ski",
                "addr:street": "Zblewska",
                "addr:housenumber": "18",
                "addr:teryt:simc": 25896,
                "addr:teryt:sym_ul": 934837,
                "contact:phone": "+48 585639004",
                "contact:email": "pbwstarogardgd@pbw.it.pl",
                "ref:regon": "191688264",
                "operator": "Wojew\u00f3dztwo Pomorskie",
                "operator:type": "government",
                "amenity": "library",
                "note": "Parent RSPO: 9619"
            }
        },
        {
            "id": 6837,
            "type": "Feature",
            "geometry": {
                "type": "Point",
                "coordinates": [
                    18.53127,
                    53.96161
                ]
            },
            "properties": {
                "ref:rspo": 6837,
                "official_name": "Miejskie Przedszkole Publiczne Nr 6 im. \"Modraczek\"",
                "name": "Miejskie Przedszkole Publiczne Nr 6",
                "addr:country": "PL",
                "addr:postcode": "83-200",
                "addr:city": "Starogard Gda\u0144ski",
                "addr:street": "Aleja Jana Paw\u0142a II",
                "addr:housenumber": "5",
                "addr:teryt:simc": 7120,
                "addr:teryt:sym_ul": 934837,
                "contact:phone": "+48 585623746",
                "contact:email": "modraczek@mpp6.starogard.pl",
                "ref:regon": "190589028",
                "ref:vatin": "PL5921976431",
                "operator": "Gmina Miejska Starogard Gda\u0144ski",
                "operator:type": "government",
                "amenity": "kindergarten"
            }
        },
        {
            "id": 278158,
            "type": "Feature",
            "geometry": {
                "type": "Point",
                "coordinates": [
                    18.5231,
                    53.9622
                ]
            },
            "properties": {
                "ref:rspo": 278158,
                "official_name": "Niepubliczne Przedszkole Woow",
                "name": "Niepubliczne Przedszkole Woow",
                "addr:country": "PL",
                "addr:postcode": "83-200",
                "addr:city": "Starogard Gda\u0144ski",
                "addr:street": "Osiedle 60-lecia Odzyskania Niepodleg\u0142o\u015bci Polski",
                "addr:housenumber": "14",
                "addr:door": "4",
                "addr:teryt:simc": 57839,
                "addr:teryt:sym_ul": 934837,
                "contact:phone": "+48 572584044",
                "contact:email": "biuro.akademiawoow@gmail.com",
                "contact:website": "http:\/\/www.akademiawoow.pl",
                "ref:regon": "389849018",
                "operator": "Halina Ogonowska",
                "operator:type": "private",
                "amenity": "kindergarten"
            }
        },
        {
            "id": 6827,
            "type": "Feature",
            "geometry": {
                "type": "Point",
                "coordinates": [
                    18.52832,
                    53.96222
                ]
            },
            "properties": {
                "ref:rspo": 6827,
                "official_name": "Miejskie Przedszkole Publiczne Nr 5 im. Janusza Korczaka",
                "name": "Miejskie Przedszkole Publiczne Nr 5",
                "addr:country": "PL",
                "addr:postcode": "83-200",
                "addr:city": "Starogard Gda\u0144ski",
                "addr:street": "Aleja Jana Paw\u0142a II",
                "addr:housenumber": "8",
                "addr:teryt:simc": 7120,
                "addr:teryt:sym_ul": 934837,
                "contact:phone": "+48 585624304",
                "contact:email": "sekretariat@mpp5.starogard.pl",
                "ref:regon": "190589011",
                "ref:vatin": "PL5921976448",
                "operator": "Gmina Miejska Starogard Gda\u0144ski",
                "operator:type": "government",
                "amenity": "kindergarten"
            }
        },
        {
            "id": 6878,
            "type": "Feature",
            "geometry": {
                "type": "Point",
                "coordinates": [
                    18.52107,
                    53.96263
                ]
            },
            "properties": {
                "ref:rspo": 6878,
                "official_name": "Miejskie Przedszkole Publiczne Nr 10 im. \"S\u0142oneczna Kraina\"",
                "name": "Miejskie Przedszkole Publiczne Nr 10",
                "addr:country": "PL",
                "addr:postcode": "83-200",
                "addr:city": "Starogard Gda\u0144ski",
                "addr:street": "Osiedle 60-lecia Odzyskania Niepodleg\u0142o\u015bci Polski",
                "addr:housenumber": "8",
                "addr:teryt:simc": 57839,
                "addr:teryt:sym_ul": 934837,
                "contact:phone": "+48 585628572",
                "contact:email": "sekretariat@mpp10.starogard.pl",
                "contact:website": "http:\/\/www.mpp10.starogard.pl",
                "ref:regon": "190589040",
                "ref:vatin": "PL5921976402",
                "operator": "Gmina Miejska Starogard Gda\u0144ski",
                "operator:type": "government",
                "amenity": "kindergarten"
            }
        },
        {
            "id": 7515,
            "type": "Feature",
            "geometry": {
                "type": "Point",
                "coordinates": [
                    18.52963,
                    53.96267
                ]
            },
            "properties": {
                "isced:level": "1;2",
                "ref:rspo": 7515,
                "official_name": "Publiczna Szko\u0142a Podstawowa Nr 4 Z Oddzia\u0142ami Integracyjnymi im. Juliusza S\u0142owackiego",
                "name": "Publiczna Szko\u0142a Podstawowa Nr 4 Z Oddzia\u0142ami Integracyjnymi",
                "addr:country": "PL",
                "addr:postcode": "83-200",
                "addr:city": "Starogard Gda\u0144ski",
                "addr:street": "Aleja Jana Paw\u0142a II",
                "addr:housenumber": "4",
                "addr:teryt:simc": 7120,
                "addr:teryt:sym_ul": 934837,
                "contact:phone": "+48 585622081",
                "contact:email": "sekretariat@psp4.starogard.pl",
                "ref:regon": "190389789",
                "ref:vatin": "PL5921194622",
                "operator": "Gmina Miejska Starogard Gda\u0144ski",
                "operator:type": "government",
                "amenity": "school"
            }
        },
        {
            "id": 132269,
            "type": "Feature",
            "geometry": {
                "type": "Point",
                "coordinates": [
                    18.52695,
                    53.96301
                ]
            },
            "properties": {
                "ref:rspo": 132269,
                "official_name": "Niepubliczne Przedszkole \"T\u0119cza\"",
                "name": "Niepubliczne Przedszkole \"T\u0119cza\"",
                "addr:country": "PL",
                "addr:postcode": "83-200",
                "addr:city": "Starogard Gda\u0144ski",
                "addr:street": "Miko\u0142aja Kopernika",
                "addr:housenumber": "13",
                "addr:teryt:simc": 9282,
                "addr:teryt:sym_ul": 934837,
                "contact:phone": "+48 697500630",
                "ref:regon": "365525955",
                "operator": "Monika Gancarewicz",
                "operator:type": "private",
                "amenity": "kindergarten"
            }
        },
        {
            "id": 6861,
            "type": "Feature",
            "geometry": {
                "type": "Point",
                "coordinates": [
                    18.51086,
                    53.96393
                ]
            },
            "properties": {
                "ref:rspo": 6861,
                "official_name": "Miejskie Przedszkole Publiczne Nr 8 im. \"Bajeczka\"",
                "name": "Miejskie Przedszkole Publiczne Nr 8",
                "addr:country": "PL",
                "addr:postcode": "83-200",
                "addr:city": "Starogard Gda\u0144ski",
                "addr:street": "Osiedle Konstytucji 3-go Maja",
                "addr:housenumber": "15",
                "addr:teryt:simc": 44735,
                "addr:teryt:sym_ul": 934837,
                "contact:phone": "+48 585629900",
                "contact:email": "sekretariat@przedszkole8.stg.pl",
                "ref:regon": "000259301",
                "ref:vatin": "PL5921976425",
                "operator": "Gmina Miejska Starogard Gda\u0144ski",
                "operator:type": "government",
                "amenity": "kindergarten"
            }
        },
        {
            "id": 26948,
            "type": "Feature",
            "geometry": {
                "type": "Point",
                "coordinates": [
                    18.54329,
                    53.96398
                ]
            },
            "properties": {
                "isced:level": "1;2",
                "ref:rspo": 26948,
                "official_name": "Chrze\u015bcija\u0144ska Szko\u0142a Podstawowa im. Ks. Jana Twardowskiego",
                "name": "Chrze\u015bcija\u0144ska Szko\u0142a Podstawowa",
                "addr:country": "PL",
                "addr:postcode": "83-200",
                "addr:city": "Starogard Gda\u0144ski",
                "addr:street": "Tadeusza Ko\u015bciuszki",
                "addr:housenumber": "112",
                "addr:door": "114",
                "addr:teryt:simc": 9582,
                "addr:teryt:sym_ul": 934837,
                "contact:phone": "+48 585617581",
                "contact:email": "sekretariat@zsk.stg.pl",
                "contact:website": "http:\/\/www.zsc.stg.pl",
                "ref:regon": "221757611",
                "operator": "\"Wejher Park\" Sp\u00f3\u0142ka Z Ograniczon\u0105 Odpowiedzialno\u015bci\u0105",
                "operator:type": "private",
                "amenity": "school"
            }
        },
        {
            "id": 40099,
            "type": "Feature",
            "geometry": {
                "type": "Point",
                "coordinates": [
                    18.54329,
                    53.96395
                ]
            },
            "properties": {
                "isced:level": "3",
                "ref:rspo": 40099,
                "official_name": "Kociewskie Liceum Og\u00f3lnokszta\u0142c\u0105ce",
                "name": "Kociewskie Liceum Og\u00f3lnokszta\u0142c\u0105ce",
                "addr:country": "PL",
                "addr:postcode": "83-200",
                "addr:city": "Starogard Gda\u0144ski",
                "addr:street": "Tadeusza Ko\u015bciuszki",
                "addr:housenumber": "112",
                "addr:teryt:simc": 9582,
                "addr:teryt:sym_ul": 934837,
                "contact:phone": "+48 586600543",
                "ref:regon": "221760263",
                "operator": "Dane Do Uzupe\u0142nienia",
                "operator:type": "private",
                "amenity": "school"
            }
        },
        {
            "id": 64757,
            "type": "Feature",
            "geometry": {
                "type": "Point",
                "coordinates": [
                    18.54329,
                    53.96392
                ]
            },
            "properties": {
                "ref:rspo": 64757,
                "official_name": "Niepubliczna Poradnia Psychologiczno-Pedagogiczna \"Pro-Vobis\"",
                "name": "Niepubliczna Poradnia Psychologiczno-Pedagogiczna \"Pro-Vobis\"",
                "addr:country": "PL",
                "addr:postcode": "83-200",
                "addr:city": "Starogard Gda\u0144ski",
                "addr:street": "Tadeusza Ko\u015bciuszki",
                "addr:housenumber": "112",
                "addr:door": "114",
                "addr:teryt:simc": 9582,
                "addr:teryt:sym_ul": 934837,
                "contact:phone": "+48 585620265",
                "ref:regon": "221769821",
                "operator": "Niepubliczna Poradnia Psychologiczno - Pedagogiczna \"Pro Vobis\" Sp\u00f3\u0142ka Z Ograniczon\u0105 Odpowiedzialno\u015bci\u0105",
                "operator:type": "private",
                "healthcare": "counselling",
                "counselling_type": "education",
                "fixme": "w zale\u017cno\u015bci od przedmiotu dzia\u0142alno\u015bci (np. healthcare=counselling + counselling_type=education albo healthcare=psychotherapist)"
            }
        },
        {
            "id": 278227,
            "type": "Feature",
            "geometry": {
                "type": "Point",
                "coordinates": [
                    18.54329,
                    53.96389
                ]
            },
            "properties": {
                "isced:level": "3",
                "ref:rspo": 278227,
                "official_name": "Iv Liceum Og\u00f3lnokszta\u0142c\u0105ce Cn-B w Starogardzie Gda\u0144skim",
                "name": "Iv Liceum Og\u00f3lnokszta\u0142c\u0105ce Cn-B w Starogardzie Gda\u0144skim",
                "addr:country": "PL",
                "addr:postcode": "83-200",
                "addr:city": "Starogard Gda\u0144ski",
                "addr:street": "Tadeusza Ko\u015bciuszki",
                "addr:housenumber": "112",
                "addr:door": "114",
                "addr:teryt:simc": 9582,
                "addr:teryt:sym_ul": 934837,
                "contact:phone": "+48 585617582",
                "contact:email": "j.chrobot@cnb-feniks.edu.pl",
                "contact:website": "https:\/\/szkolyfeniks.pl\/",
                "ref:regon": "389863283",
                "operator": "Jaros\u0142aw Chrobot",
                "operator:type": "private",
                "amenity": "school"
            }
        },
        {
            "id": 16568,
            "type": "Feature",
            "geometry": {
                "type": "Point",
                "coordinates": [
                    18.54649,
                    53.96487
                ]
            },
            "properties": {
                "isced:level": "3",
                "ref:rspo": 16568,
                "official_name": "Ii Liceum Og\u00f3lnokszta\u0142c\u0105ce im.ziemi Kociewskiej w Starogardzie Gda\u0144skim",
                "name": "Ii Liceum Og\u00f3lnokszta\u0142c\u0105ce im.ziemi Kociewskiej w Starogardzie Gda\u0144skim",
                "addr:country": "PL",
                "addr:postcode": "83-200",
                "addr:city": "Starogard Gda\u0144ski",
                "addr:street": "Tadeusza Ko\u015bciuszki",
                "addr:housenumber": "131",
                "addr:teryt:simc": 9582,
                "addr:teryt:sym_ul": 934837,
                "contact:phone": "+48 585623091",
                "contact:email": "skora@zipnet.com.pl",
                "ref:regon": "192995749",
                "ref:vatin": "PL5921194705",
                "operator": "Powiat Starogardzki",
                "operator:type": "government",
                "amenity": "school"
            }
        },
        {
            "id": 25298,
            "type": "Feature",
            "geometry": {
                "type": "Point",
                "coordinates": [
                    18.53253,
                    53.96542
                ]
            },
            "properties": {
                "ref:rspo": 25298,
                "official_name": "Pa\u0144stwowa Szko\u0142a Muzyczna I St. im. Witolda Lutos\u0142awskiego w Starogardzie Gda\u0144skim",
                "name": "Pa\u0144stwowa Szko\u0142a Muzyczna I St.",
                "addr:country": "PL",
                "addr:postcode": "83-200",
                "addr:city": "Starogard Gda\u0144ski",
                "addr:street": "Tadeusza Ko\u015bciuszki",
                "addr:housenumber": "28",
                "addr:teryt:simc": 9582,
                "addr:teryt:sym_ul": 934837,
                "contact:phone": "+48 585622215",
                "contact:email": "sekretariat@muzyczna-starogard.pl",
                "ref:regon": "000278758",
                "operator": "Ministerstwo Kultury I Dziedzictwa Narodowego",
                "operator:type": "public",
                "amenity": "music_school"
            }
        },
        {
            "id": 16566,
            "type": "Feature",
            "geometry": {
                "type": "Point",
                "coordinates": [
                    18.53521,
                    53.96602
                ]
            },
            "properties": {
                "ref:rspo": 16566,
                "official_name": "Zesp\u00f3\u0142 Szk\u00f3\u0142 Ekonomicznych w Starogardzie Gda\u0144skim",
                "name": "Zesp\u00f3\u0142 Szk\u00f3\u0142 Ekonomicznych w Starogardzie Gda\u0144skim",
                "addr:country": "PL",
                "addr:postcode": "83-200",
                "addr:city": "Starogard Gda\u0144ski",
                "addr:street": "Jana Sobieskiego",
                "addr:housenumber": "6",
                "addr:teryt:simc": 20427,
                "addr:teryt:sym_ul": 934837,
                "contact:phone": "+48 585622249",
                "contact:email": "szkola@zse.com.pl",
                "contact:website": "http:\/\/zse.com.pl",
                "ref:regon": "000197758",
                "ref:vatin": "PL5921194668",
                "operator": "Powiat Starogardzki",
                "operator:type": "government",
                "landuse": "education",
                "fixme": "amenity=school, amenity=college albo landuse=education w zale\u017cno\u015bci od tego, jakie plac\u00f3wki wchodz\u0105 w sk\u0142ad zespo\u0142u. Sprawd\u017a, kiedy stosowa\u0107 amenity=* a kiedy landuse=education.",
                "note": "Children RSPO: 22454;22459;22460;122761"
            }
        },
        {
            "id": 31911,
            "type": "Feature",
            "geometry": {
                "type": "Point",
                "coordinates": [
                    18.53521,
                    53.96599
                ]
            },
            "properties": {
                "ref:rspo": 31911,
                "official_name": "Top Education Sobies\u0142aw Sowa Plac\u00f3wka Wychowania Pozaszkolnego",
                "name": "Top Education Sobies\u0142aw Sowa Plac\u00f3wka Wychowania Pozaszkolnego",
                "addr:country": "PL",
                "addr:postcode": "83-200",
                "addr:city": "Starogard Gda\u0144ski",
                "addr:street": "Jana Sobieskiego",
                "addr:housenumber": "6",
                "addr:teryt:simc": 20427,
                "addr:teryt:sym_ul": 934837,
                "contact:phone": "+48 713139425",
                "ref:regon": "221760487",
                "operator": "Dane Do Uzupe\u0142nienia",
                "operator:type": "private",
                "fixme": "w zale\u017cno\u015bci od przedmiotu dzia\u0142alno\u015bci (np. amenity=training + training=*, amenity=dancing_school, amenity=language_school, amenity=music_school)"
            }
        },
        {
            "id": 22454,
            "type": "Feature",
            "geometry": {
                "type": "Point",
                "coordinates": [
                    18.53521,
                    53.96596
                ]
            },
            "properties": {
                "isced:level": "3",
                "ref:rspo": 22454,
                "official_name": "Technikum Nr 1 im. Noblist\u00f3w Polskich w Starogardzie Gda\u0144skim",
                "name": "Technikum Nr 1",
                "addr:country": "PL",
                "addr:postcode": "83-200",
                "addr:city": "Starogard Gda\u0144ski",
                "addr:street": "Jana Sobieskiego",
                "addr:housenumber": "6",
                "addr:teryt:simc": 20427,
                "addr:teryt:sym_ul": 934837,
                "contact:phone": "+48 585622249",
                "ref:regon": "192993963",
                "operator": "Powiat Starogardzki",
                "operator:type": "government",
                "amenity": "school",
                "note": "Parent RSPO: 16566"
            }
        },
        {
            "id": 22459,
            "type": "Feature",
            "geometry": {
                "type": "Point",
                "coordinates": [
                    18.53521,
                    53.96593
                ]
            },
            "properties": {
                "ref:rspo": 22459,
                "official_name": "Kociewskie Centrum Kszta\u0142cenia Ustawicznego",
                "name": "Kociewskie Centrum Kszta\u0142cenia Ustawicznego",
                "addr:country": "PL",
                "addr:postcode": "83-200",
                "addr:city": "Starogard Gda\u0144ski",
                "addr:street": "Jana Sobieskiego",
                "addr:housenumber": "6",
                "addr:teryt:simc": 20427,
                "addr:teryt:sym_ul": 934837,
                "contact:phone": "+48 585622249",
                "ref:regon": "221516830",
                "operator": "Powiat Starogardzki",
                "operator:type": "government",
                "amenity": "school",
                "fixme": "amenity=school lub amenity=college",
                "note": "Parent RSPO: 16566"
            }
        },
        {
            "id": 22460,
            "type": "Feature",
            "geometry": {
                "type": "Point",
                "coordinates": [
                    18.53521,
                    53.9659
                ]
            },
            "properties": {
                "isced:level": "3",
                "ref:rspo": 22460,
                "official_name": "Liceum Og\u00f3lnokszta\u0142c\u0105ce dla Doros\u0142ych w Starogardzie Gda\u0144skim",
                "name": "Liceum Og\u00f3lnokszta\u0142c\u0105ce dla Doros\u0142ych w Starogardzie Gda\u0144skim",
                "addr:country": "PL",
                "addr:postcode": "83-200",
                "addr:city": "Starogard Gda\u0144ski",
                "addr:street": "Jana Sobieskiego",
                "addr:housenumber": "6",
                "addr:teryt:simc": 20427,
                "addr:teryt:sym_ul": 934837,
                "contact:phone": "+48 585622249",
                "ref:regon": "221516920",
                "operator": "Powiat Starogardzki",
                "operator:type": "government",
                "amenity": "school",
                "note": "Parent RSPO: 16566"
            }
        },
        {
            "id": 122761,
            "type": "Feature",
            "geometry": {
                "type": "Point",
                "coordinates": [
                    18.53521,
                    53.96587
                ]
            },
            "properties": {
                "isced:level": "4",
                "ref:rspo": 122761,
                "official_name": "Zesp\u00f3\u0142 Szk\u00f3\u0142 Ekonomicznych w Starogardzie Gda\u0144skim-Kociewskie Centrum Kszta\u0142cenia Ustawicznego-Szko\u0142a Policealna dla Doros\u0142ych",
                "name": "Zesp\u00f3\u0142 Szk\u00f3\u0142 Ekonomicznych w Starogardzie Gda\u0144skim-Kociewskie Centrum Kszta\u0142cenia Ustawicznego-Szko\u0142a Policealna dla Doros\u0142ych",
                "addr:country": "PL",
                "addr:postcode": "83-200",
                "addr:city": "Starogard Gda\u0144ski",
                "addr:street": "Jana Sobieskiego",
                "addr:housenumber": "6",
                "addr:teryt:simc": 20427,
                "addr:teryt:sym_ul": 934837,
                "contact:phone": "+48 585622249",
                "ref:regon": "222064034",
                "operator": "Powiat Starogardzki",
                "operator:type": "government",
                "amenity": "college",
                "note": "Parent RSPO: 16566"
            }
        },
        {
            "id": 16578,
            "type": "Feature",
            "geometry": {
                "type": "Point",
                "coordinates": [
                    18.53297,
                    53.96606
                ]
            },
            "properties": {
                "ref:rspo": 16578,
                "official_name": "Zesp\u00f3\u0142 Szk\u00f3\u0142 Zawodowych im. Mjr. H. Dobrza\u0144skiego Hubala w Starogardzie Gda\u0144skim",
                "name": "Zesp\u00f3\u0142 Szk\u00f3\u0142 Zawodowych",
                "addr:country": "PL",
                "addr:postcode": "83-200",
                "addr:city": "Starogard Gda\u0144ski",
                "addr:street": "Ignacego Paderewskiego",
                "addr:housenumber": "11",
                "addr:teryt:simc": 15529,
                "addr:teryt:sym_ul": 934837,
                "contact:phone": "+48 585625081",
                "contact:email": "sekretariat@zszstarogard.pl",
                "contact:website": "http:\/\/www.zszstarogard.pl",
                "ref:regon": "000197830",
                "ref:vatin": "PL5921194697",
                "operator": "Powiat Starogardzki",
                "operator:type": "government",
                "landuse": "education",
                "fixme": "amenity=school, amenity=college albo landuse=education w zale\u017cno\u015bci od tego, jakie plac\u00f3wki wchodz\u0105 w sk\u0142ad zespo\u0142u. Sprawd\u017a, kiedy stosowa\u0107 amenity=* a kiedy landuse=education.",
                "note": "Children RSPO: 26436;26437;128959;276202"
            }
        },
        {
            "id": 26436,
            "type": "Feature",
            "geometry": {
                "type": "Point",
                "coordinates": [
                    18.53297,
                    53.966029999999996
                ]
            },
            "properties": {
                "isced:level": "3",
                "ref:rspo": 26436,
                "official_name": "Bran\u017cowa Szko\u0142a I Stopnia w Starogardzie w Zespole Szk\u00f3\u0142 Zawodowych im. Mjr. H. Dobrza\u0144skiego Hubala w Starogardzie Gd",
                "name": "Bran\u017cowa Szko\u0142a I Stopnia w Starogardzie w Zespole Szk\u00f3\u0142 Zawodowych",
                "addr:country": "PL",
                "addr:postcode": "83-200",
                "addr:city": "Starogard Gda\u0144ski",
                "addr:street": "Ignacego Paderewskiego",
                "addr:housenumber": "11",
                "addr:teryt:simc": 15529,
                "addr:teryt:sym_ul": 934837,
                "contact:phone": "+48 585625081",
                "contact:email": "sekretariat@zszstarogard.pl",
                "contact:website": "http:\/\/www.zszstarogard.pl",
                "ref:regon": "192996252",
                "operator": "Powiat Starogardzki",
                "operator:type": "government",
                "amenity": "school",
                "note": "Parent RSPO: 16578"
            }
        },
        {
            "id": 26437,
            "type": "Feature",
            "geometry": {
                "type": "Point",
                "coordinates": [
                    18.53297,
                    53.966
                ]
            },
            "properties": {
                "isced:level": "3",
                "ref:rspo": 26437,
                "official_name": "Technikum Nr 2 w Starogardzie Gda\u0144skim",
                "name": "Technikum Nr 2 w Starogardzie Gda\u0144skim",
                "addr:country": "PL",
                "addr:postcode": "83-200",
                "addr:city": "Starogard Gda\u0144ski",
                "addr:street": "Ignacego Paderewskiego",
                "addr:housenumber": "11",
                "addr:teryt:simc": 15529,
                "addr:teryt:sym_ul": 934837,
                "contact:phone": "+48 585625081",
                "contact:email": "sekretariat@zszstarogard.pl",
                "contact:website": "http:\/\/www.zszstarogard.pl",
                "ref:regon": "192996269",
                "operator": "Powiat Starogardzki",
                "operator:type": "government",
                "amenity": "school",
                "note": "Parent RSPO: 16578"
            }
        },
        {
            "id": 128959,
            "type": "Feature",
            "geometry": {
                "type": "Point",
                "coordinates": [
                    18.53297,
                    53.96597
                ]
            },
            "properties": {
                "isced:level": "3",
                "ref:rspo": 128959,
                "official_name": "Liceum Og\u00f3lnokszta\u0142c\u0105ce dla Doros\u0142ych w Starogardzie Gda\u0144skim",
                "name": "Liceum Og\u00f3lnokszta\u0142c\u0105ce dla Doros\u0142ych w Starogardzie Gda\u0144skim",
                "addr:country": "PL",
                "addr:postcode": "83-200",
                "addr:city": "Starogard Gda\u0144ski",
                "addr:street": "Ignacego Paderewskiego",
                "addr:housenumber": "11",
                "addr:teryt:simc": 15529,
                "addr:teryt:sym_ul": 934837,
                "contact:phone": "+48 585625081",
                "ref:regon": "362440448",
                "operator": "Powiat Starogardzki",
                "operator:type": "government",
                "amenity": "school",
                "note": "Parent RSPO: 16578"
            }
        },
        {
            "id": 276202,
            "type": "Feature",
            "geometry": {
                "type": "Point",
                "coordinates": [
                    18.53297,
                    53.965939999999996
                ]
            },
            "properties": {
                "isced:level": "3",
                "ref:rspo": 276202,
                "official_name": "Bran\u017cowa Szko\u0142a II Stopnia w Starogardzie Gda\u0144skim",
                "name": "Bran\u017cowa Szko\u0142a II Stopnia w Starogardzie Gda\u0144skim",
                "addr:country": "PL",
                "addr:postcode": "83-200",
                "addr:city": "Starogard Gda\u0144ski",
                "addr:street": "Ignacego Paderewskiego",
                "addr:housenumber": "11",
                "addr:teryt:simc": 15529,
                "addr:teryt:sym_ul": 934837,
                "contact:phone": "+48 585625081",
                "contact:email": "sekretariat@zszstarogard.pl",
                "ref:regon": "387030969",
                "operator": "Powiat Starogardzki",
                "operator:type": "government",
                "amenity": "school",
                "note": "Parent RSPO: 16578"
            }
        },
        {
            "id": 7164,
            "type": "Feature",
            "geometry": {
                "type": "Point",
                "coordinates": [
                    18.51976,
                    53.96607
                ]
            },
            "properties": {
                "isced:level": "1;2",
                "ref:rspo": 7164,
                "official_name": "Publiczna Szko\u0142a Podstawowa Nr 2 im.marii Konopnickiej",
                "name": "Publiczna Szko\u0142a Podstawowa Nr 2 im.marii Konopnickiej",
                "addr:country": "PL",
                "addr:postcode": "83-200",
                "addr:city": "Starogard Gda\u0144ski",
                "addr:street": "2 Pu\u0142ku Szwole\u017cer\u00f3w Rokitnia\u0144skich",
                "addr:housenumber": "4",
                "addr:teryt:simc": 31900,
                "addr:teryt:sym_ul": 934837,
                "contact:phone": "+48 585623597",
                "contact:email": "sekretariat@psp2.starogard.pl",
                "contact:website": "http:\/\/www.psp2.stg.pl",
                "ref:regon": "190389750",
                "ref:vatin": "PL5921635138",
                "operator": "Gmina Miejska Starogard Gda\u0144ski",
                "operator:type": "government",
                "amenity": "school"
            }
        },
        {
            "id": 8774,
            "type": "Feature",
            "geometry": {
                "type": "Point",
                "coordinates": [
                    18.5310099,
                    53.96611
                ]
            },
            "properties": {
                "ref:rspo": 8774,
                "official_name": "Przedszkole Niepubliczne \"Plastu\u015b\" Akademia Ma\u0142ego Artysty",
                "name": "Przedszkole Niepubliczne \"Plastu\u015b\" Akademia Ma\u0142ego Artysty",
                "addr:country": "PL",
                "addr:postcode": "83-200",
                "addr:city": "Starogard Gda\u0144ski",
                "addr:street": "Rycerska",
                "addr:housenumber": "5",
                "addr:teryt:simc": 19186,
                "addr:teryt:sym_ul": 934837,
                "contact:phone": "+48 506037726",
                "contact:email": "plastus.stg@gmail.com",
                "ref:regon": "221735093",
                "operator": "Joanna Kozak",
                "operator:type": "private",
                "amenity": "kindergarten"
            }
        },
        {
            "id": 69744,
            "type": "Feature",
            "geometry": {
                "type": "Point",
                "coordinates": [
                    18.5310099,
                    53.96608
                ]
            },
            "properties": {
                "isced:level": "3",
                "ref:rspo": 69744,
                "official_name": "Liceum Og\u00f3lnokszta\u0142c\u0105ce dla Doros\u0142ych \"\u017bak\"",
                "name": "Liceum Og\u00f3lnokszta\u0142c\u0105ce dla Doros\u0142ych \"\u017bak\"",
                "addr:country": "PL",
                "addr:postcode": "83-200",
                "addr:city": "Starogard Gda\u0144ski",
                "addr:street": "Rycerska",
                "addr:housenumber": "5",
                "addr:teryt:simc": 19186,
                "addr:teryt:sym_ul": 934837,
                "contact:phone": "+48 585622650",
                "contact:email": "starogard@zak.edu.pl",
                "ref:regon": "221776590",
                "operator": "Centrum Nauki I Biznesu \"\u017bak\" Sp\u00f3\u0142ka Z Ograniczon\u0105 Odpowiedzialno\u015bci\u0105",
                "operator:type": "private",
                "amenity": "school"
            }
        },
        {
            "id": 90132,
            "type": "Feature",
            "geometry": {
                "type": "Point",
                "coordinates": [
                    18.5310099,
                    53.96605
                ]
            },
            "properties": {
                "isced:level": "4",
                "ref:rspo": 90132,
                "official_name": "Policealna Szko\u0142a Centrum Nauki I Biznesu \"\u017bak\"",
                "name": "Policealna Szko\u0142a Centrum Nauki I Biznesu \"\u017bak\"",
                "addr:country": "PL",
                "addr:postcode": "83-200",
                "addr:city": "Starogard Gda\u0144ski",
                "addr:street": "Rycerska",
                "addr:housenumber": "5",
                "addr:teryt:simc": 19186,
                "addr:teryt:sym_ul": 934837,
                "contact:phone": "+48 585622650",
                "contact:email": "starogard@zak.edu.pl",
                "ref:regon": "221785056",
                "operator": "Centrum Nauki I Biznesu \"\u017bak\" Sp\u00f3\u0142ka Z Ograniczon\u0105 Odpowiedzialno\u015bci\u0105",
                "operator:type": "private",
                "amenity": "college"
            }
        },
        {
            "id": 90176,
            "type": "Feature",
            "geometry": {
                "type": "Point",
                "coordinates": [
                    18.5310099,
                    53.96602
                ]
            },
            "properties": {
                "ref:rspo": 90176,
                "official_name": "O\u015brodek Szkoleniowy Centrum Nauki I Biznesu \"\u017bak\"",
                "name": "O\u015brodek Szkoleniowy Centrum Nauki I Biznesu \"\u017bak\"",
                "addr:country": "PL",
                "addr:postcode": "83-200",
                "addr:city": "Starogard Gda\u0144ski",
                "addr:street": "Rycerska",
                "addr:housenumber": "5",
                "addr:teryt:simc": 19186,
                "addr:teryt:sym_ul": 934837,
                "contact:phone": "+48 585622650",
                "ref:regon": "221785062",
                "operator": "Centrum Nauki I Biznesu \"\u017bak\" Sp\u00f3\u0142ka Z Ograniczon\u0105 Odpowiedzialno\u015bci\u0105",
                "operator:type": "private",
                "fixme": "w zale\u017cno\u015bci od przedmiotu dzia\u0142alno\u015bci (np. amenity=training + training=*, amenity=dancing_school, amenity=language_school, amenity=music_school)"
            }
        },
        {
            "id": 126060,
            "type": "Feature",
            "geometry": {
                "type": "Point",
                "coordinates": [
                    18.5310099,
                    53.96599
                ]
            },
            "properties": {
                "isced:level": "4",
                "ref:rspo": 126060,
                "official_name": "Policealna Szko\u0142a Opieki Medycznej \"\u017bak\" w Starogardzie Gda\u0144skim",
                "name": "Policealna Szko\u0142a Opieki Medycznej \"\u017bak\" w Starogardzie Gda\u0144skim",
                "addr:country": "PL",
                "addr:postcode": "83-200",
                "addr:city": "Starogard Gda\u0144ski",
                "addr:street": "Rycerska",
                "addr:housenumber": "5",
                "addr:teryt:simc": 19186,
                "addr:teryt:sym_ul": 934837,
                "contact:phone": "+48 585622650",
                "contact:email": "starogard@zak.edu.pl",
                "ref:regon": "360146992",
                "operator": "Centrum Nauki I Biznesu \"\u017bak\" Sp\u00f3\u0142ka Z Ograniczon\u0105 Odpowiedzialno\u015bci\u0105",
                "operator:type": "private",
                "amenity": "college"
            }
        },
        {
            "id": 127100,
            "type": "Feature",
            "geometry": {
                "type": "Point",
                "coordinates": [
                    18.5310099,
                    53.96596
                ]
            },
            "properties": {
                "isced:level": "4",
                "ref:rspo": 127100,
                "official_name": "Policealna Szko\u0142a Medyczna \"\u017bak\" w Starogardzie Gda\u0144skim",
                "name": "Policealna Szko\u0142a Medyczna \"\u017bak\" w Starogardzie Gda\u0144skim",
                "addr:country": "PL",
                "addr:postcode": "83-200",
                "addr:city": "Starogard Gda\u0144ski",
                "addr:street": "Rycerska",
                "addr:housenumber": "5",
                "addr:teryt:simc": 19186,
                "addr:teryt:sym_ul": 934837,
                "contact:phone": "+48 585622650",
                "contact:email": "starogard@zak.edu.pl",
                "ref:regon": "361099740",
                "operator": "Centrum Nauki I Biznesu \"\u017bak\" Sp\u00f3\u0142ka Z Ograniczon\u0105 Odpowiedzialno\u015bci\u0105",
                "operator:type": "private",
                "amenity": "college"
            }
        },
        {
            "id": 278169,
            "type": "Feature",
            "geometry": {
                "type": "Point",
                "coordinates": [
                    18.54084,
                    53.96637
                ]
            },
            "properties": {
                "ref:rspo": 278169,
                "official_name": "Punkt Przedszkolny \"Nad Wierzyc\u0105\"",
                "name": "Punkt Przedszkolny \"Nad Wierzyc\u0105\"",
                "addr:country": "PL",
                "addr:postcode": "83-200",
                "addr:city": "Starogard Gda\u0144ski",
                "addr:street": "Owidzka",
                "addr:housenumber": "20",
                "addr:teryt:simc": 15477,
                "addr:teryt:sym_ul": 934837,
                "contact:phone": "+48 691945967",
                "contact:email": "fundacja@infortes.edu.pl",
                "contact:website": "http:\/\/www.nadwierzyca.edu.pl",
                "ref:regon": "389849165",
                "operator": "Fundacja In Fortes",
                "operator:type": "ngo",
                "amenity": "kindergarten"
            }
        },
        {
            "id": 29987,
            "type": "Feature",
            "geometry": {
                "type": "Point",
                "coordinates": [
                    18.5313899,
                    53.96664
                ]
            },
            "properties": {
                "ref:rspo": 29987,
                "official_name": "Zak\u0142ad Doskonalenia Zawodowego O\u015brodek Kszta\u0142cenia Zawodowego Nr 6",
                "name": "Zak\u0142ad Doskonalenia Zawodowego O\u015brodek Kszta\u0142cenia Zawodowego Nr 6",
                "addr:country": "PL",
                "addr:postcode": "83-200",
                "addr:city": "Starogard Gda\u0144ski",
                "addr:street": "Rycerska",
                "addr:housenumber": "1",
                "addr:teryt:simc": 19186,
                "addr:teryt:sym_ul": 934837,
                "contact:phone": "+48 585623481",
                "ref:regon": "221760458",
                "operator": "Dane Do Uzupe\u0142nienia",
                "operator:type": "private",
                "fixme": "w zale\u017cno\u015bci od przedmiotu dzia\u0142alno\u015bci (np. amenity=training + training=*, amenity=dancing_school, amenity=language_school, amenity=music_school)"
            }
        },
        {
            "id": 29033,
            "type": "Feature",
            "geometry": {
                "type": "Point",
                "coordinates": [
                    18.5313,
                    53.96746
                ]
            },
            "properties": {
                "isced:level": "4",
                "ref:rspo": 29033,
                "official_name": "Centrum Kszta\u0142cenia Plejada Szko\u0142a Policealna w Starogardzie Gda\u0144skim",
                "name": "Centrum Kszta\u0142cenia Plejada Szko\u0142a Policealna w Starogardzie Gda\u0144skim",
                "addr:country": "PL",
                "addr:postcode": "83-200",
                "addr:city": "Starogard Gda\u0144ski",
                "addr:street": "Rynek",
                "addr:housenumber": "25",
                "addr:teryt:simc": 19253,
                "addr:teryt:sym_ul": 934837,
                "contact:phone": "+48 585320337",
                "ref:regon": "221759188",
                "operator": "Bo\u017cena Sugalska",
                "operator:type": "private",
                "amenity": "college"
            }
        },
        {
            "id": 64753,
            "type": "Feature",
            "geometry": {
                "type": "Point",
                "coordinates": [
                    18.5313,
                    53.96743
                ]
            },
            "properties": {
                "isced:level": "3",
                "ref:rspo": 64753,
                "official_name": "Starogardzkie Autonomiczne Liceum Og\u00f3lnokszta\u0142c\u0105ce",
                "name": "Starogardzkie Autonomiczne Liceum Og\u00f3lnokszta\u0142c\u0105ce",
                "addr:country": "PL",
                "addr:postcode": "83-200",
                "addr:city": "Starogard Gda\u0144ski",
                "addr:street": "Rynek",
                "addr:housenumber": "25",
                "addr:teryt:simc": 19253,
                "addr:teryt:sym_ul": 934837,
                "contact:phone": "+48 605070854",
                "contact:email": "ssa2004@wp.pl",
                "ref:regon": "221769726",
                "operator": "Maria Schulz",
                "operator:type": "private",
                "amenity": "school"
            }
        },
        {
            "id": 16575,
            "type": "Feature",
            "geometry": {
                "type": "Point",
                "coordinates": [
                    18.52267,
                    53.96772
                ]
            },
            "properties": {
                "ref:rspo": 16575,
                "official_name": "Specjalny O\u015brodek Szkolno-Wychowawczy im. K. Kirejczyka",
                "name": "Specjalny O\u015brodek Szkolno-Wychowawczy",
                "addr:country": "PL",
                "addr:postcode": "83-200",
                "addr:city": "Starogard Gda\u0144ski",
                "addr:street": "Chojnicka",
                "addr:housenumber": "70",
                "addr:teryt:simc": 2826,
                "addr:teryt:sym_ul": 934837,
                "contact:phone": "+48 585622269",
                "contact:email": "sekretariat@soswstarogard.pl",
                "contact:website": "http:\/\/www.soswstarogard.pl",
                "ref:regon": "000234985",
                "ref:vatin": "PL5921600826",
                "operator": "Powiat Starogardzki",
                "operator:type": "government",
                "amenity": "school",
                "note": "Children RSPO: 47634;47636;47654;47659;119721;119723"
            }
        },
        {
            "id": 47634,
            "type": "Feature",
            "geometry": {
                "type": "Point",
                "coordinates": [
                    18.52267,
                    53.96769
                ]
            },
            "properties": {
                "ref:rspo": 47634,
                "official_name": "Przedszkole",
                "name": "Przedszkole",
                "addr:country": "PL",
                "addr:postcode": "83-200",
                "addr:city": "Starogard Gda\u0144ski",
                "addr:street": "Chojnicka",
                "addr:housenumber": "70",
                "addr:teryt:simc": 2826,
                "addr:teryt:sym_ul": 934837,
                "contact:phone": "+48 585622269",
                "ref:regon": "221761104",
                "operator": "Powiat Starogardzki",
                "operator:type": "government",
                "amenity": "kindergarten",
                "note": "Parent RSPO: 16575"
            }
        },
        {
            "id": 47636,
            "type": "Feature",
            "geometry": {
                "type": "Point",
                "coordinates": [
                    18.52267,
                    53.96766
                ]
            },
            "properties": {
                "isced:level": "1;2",
                "ref:rspo": 47636,
                "official_name": "Szko\u0142a Podstawowa Nr 5",
                "name": "Szko\u0142a Podstawowa Nr 5",
                "addr:country": "PL",
                "addr:postcode": "83-200",
                "addr:city": "Starogard Gda\u0144ski",
                "addr:street": "Chojnicka",
                "addr:housenumber": "70",
                "addr:teryt:simc": 2826,
                "addr:teryt:sym_ul": 934837,
                "contact:phone": "+48 585622269",
                "contact:email": "sekretariat@soswstarogard.pl",
                "contact:website": "http:\/\/www.soswstarogard.pl",
                "ref:regon": "221761073",
                "operator": "Powiat Starogardzki",
                "operator:type": "government",
                "amenity": "school",
                "note": "Parent RSPO: 16575"
            }
        },
        {
            "id": 47654,
            "type": "Feature",
            "geometry": {
                "type": "Point",
                "coordinates": [
                    18.52267,
                    53.96763
                ]
            },
            "properties": {
                "isced:level": "3",
                "ref:rspo": 47654,
                "official_name": "Szko\u0142a Bran\u017cowa I Stopnia",
                "name": "Szko\u0142a Bran\u017cowa I Stopnia",
                "addr:country": "PL",
                "addr:postcode": "83-200",
                "addr:city": "Starogard Gda\u0144ski",
                "addr:street": "Chojnicka",
                "addr:housenumber": "70",
                "addr:teryt:simc": 2826,
                "addr:teryt:sym_ul": 934837,
                "contact:phone": "+48 585622269",
                "ref:regon": "221761015",
                "operator": "Powiat Starogardzki",
                "operator:type": "government",
                "amenity": "school",
                "note": "Parent RSPO: 16575"
            }
        },
        {
            "id": 47659,
            "type": "Feature",
            "geometry": {
                "type": "Point",
                "coordinates": [
                    18.52267,
                    53.9676
                ]
            },
            "properties": {
                "ref:rspo": 47659,
                "official_name": "Szko\u0142a Przysposabiaj\u0105ca Do Pracy",
                "name": "Szko\u0142a Przysposabiaj\u0105ca Do Pracy",
                "addr:country": "PL",
                "addr:postcode": "83-200",
                "addr:city": "Starogard Gda\u0144ski",
                "addr:street": "Chojnicka",
                "addr:housenumber": "70",
                "addr:teryt:simc": 2826,
                "addr:teryt:sym_ul": 934837,
                "contact:phone": "+48 585622269",
                "ref:regon": "221761009",
                "operator": "Powiat Starogardzki",
                "operator:type": "government",
                "amenity": "school",
                "note": "Parent RSPO: 16575"
            }
        },
        {
            "id": 119723,
            "type": "Feature",
            "geometry": {
                "type": "Point",
                "coordinates": [
                    18.52267,
                    53.96757
                ]
            },
            "properties": {
                "isced:level": "3",
                "ref:rspo": 119723,
                "official_name": "Liceum Og\u00f3lnokszta\u0142c\u0105ce Specjalne Nr Iii",
                "name": "Liceum Og\u00f3lnokszta\u0142c\u0105ce Specjalne Nr Iii",
                "addr:country": "PL",
                "addr:postcode": "83-200",
                "addr:city": "Starogard Gda\u0144ski",
                "addr:street": "Chojnicka",
                "addr:housenumber": "70",
                "addr:teryt:simc": 2826,
                "addr:teryt:sym_ul": 934837,
                "contact:phone": "+48 585622269",
                "contact:email": "sekretariat@soswstarogard.pl",
                "ref:regon": "221948765",
                "ref:vatin": "PL5921600826",
                "operator": "Powiat Starogardzki",
                "operator:type": "government",
                "amenity": "school",
                "note": "Parent RSPO: 16575"
            }
        },
        {
            "id": 31901,
            "type": "Feature",
            "geometry": {
                "type": "Point",
                "coordinates": [
                    18.53255,
                    53.96783
                ]
            },
            "properties": {
                "isced:level": "3",
                "ref:rspo": 31901,
                "official_name": "Trzyletnie Liceum dla Doros\u0142ych \"Akademia Sukcesu\"",
                "name": "Trzyletnie Liceum dla Doros\u0142ych \"Akademia Sukcesu\"",
                "addr:country": "PL",
                "addr:postcode": "83-200",
                "addr:city": "Starogard Gda\u0144ski",
                "addr:street": "rynek Rynek",
                "addr:housenumber": "36",
                "addr:door": "1",
                "addr:teryt:simc": 19252,
                "addr:teryt:sym_ul": 934837,
                "contact:phone": "+48 583513403",
                "ref:regon": "221760665",
                "operator": "Maria Schulz",
                "operator:type": "private",
                "amenity": "school"
            }
        },
        {
            "id": 126100,
            "type": "Feature",
            "geometry": {
                "type": "Point",
                "coordinates": [
                    18.53255,
                    53.9678
                ]
            },
            "properties": {
                "isced:level": "4",
                "ref:rspo": 126100,
                "official_name": "Policealna Szko\u0142a Jednoroczna \"Akademia Sukcesu\"",
                "name": "Policealna Szko\u0142a Jednoroczna \"Akademia Sukcesu\"",
                "addr:country": "PL",
                "addr:postcode": "83-200",
                "addr:city": "Starogard Gda\u0144ski",
                "addr:street": "rynek Rynek",
                "addr:housenumber": "36",
                "addr:door": "1",
                "addr:teryt:simc": 19252,
                "addr:teryt:sym_ul": 934837,
                "contact:phone": "+48 583513403",
                "ref:regon": "360148169",
                "operator": "Dane Do Uzupe\u0142nienia",
                "operator:type": "private",
                "amenity": "college"
            }
        },
        {
            "id": 34954,
            "type": "Feature",
            "geometry": {
                "type": "Point",
                "coordinates": [
                    18.52755,
                    53.96972
                ]
            },
            "properties": {
                "isced:level": "3",
                "ref:rspo": 34954,
                "official_name": "Liceum Og\u00f3lnokszta\u0142c\u0105ce Teb Edukacja dla Doros\u0142ych",
                "name": "Liceum Og\u00f3lnokszta\u0142c\u0105ce Teb Edukacja dla Doros\u0142ych",
                "addr:country": "PL",
                "addr:postcode": "83-200",
                "addr:city": "Starogard Gda\u0144ski",
                "addr:street": "Genera\u0142a J\u00f3zefa Hallera",
                "addr:housenumber": "19c",
                "addr:teryt:simc": 6485,
                "addr:teryt:sym_ul": 934837,
                "contact:phone": "+48 587750044",
                "ref:regon": "221764410",
                "operator": "Dane Do Uzupe\u0142nienia",
                "operator:type": "private",
                "amenity": "school"
            }
        },
        {
            "id": 34955,
            "type": "Feature",
            "geometry": {
                "type": "Point",
                "coordinates": [
                    18.52755,
                    53.96969
                ]
            },
            "properties": {
                "isced:level": "4",
                "ref:rspo": 34955,
                "official_name": "Niepubliczna Szko\u0142a Policealna Teb Edukacja w Starogardzie Gda\u0144skim",
                "name": "Niepubliczna Szko\u0142a Policealna Teb Edukacja w Starogardzie Gda\u0144skim",
                "addr:country": "PL",
                "addr:postcode": "83-200",
                "addr:city": "Starogard Gda\u0144ski",
                "addr:street": "Genera\u0142a J\u00f3zefa Hallera",
                "addr:housenumber": "19c",
                "addr:teryt:simc": 6485,
                "addr:teryt:sym_ul": 934837,
                "contact:phone": "+48 587750044",
                "contact:email": "starogard@teb-edukacja.pl",
                "contact:website": "https:\/\/teb.pl\/miasta\/starogard-gd\/o-nas",
                "ref:regon": "221761096",
                "operator": "Teb Edukacja Sp\u00f3\u0142ka Z Ograniczon\u0105 Odpowiedzialno\u015bci\u0105",
                "operator:type": "private",
                "amenity": "college"
            }
        },
        {
            "id": 34957,
            "type": "Feature",
            "geometry": {
                "type": "Point",
                "coordinates": [
                    18.52755,
                    53.969660000000005
                ]
            },
            "properties": {
                "isced:level": "4",
                "ref:rspo": 34957,
                "official_name": "Studium Zdrowia I Urody",
                "name": "Studium Zdrowia I Urody",
                "addr:country": "PL",
                "addr:postcode": "83-200",
                "addr:city": "Starogard Gda\u0144ski",
                "addr:street": "Genera\u0142a J\u00f3zefa Hallera",
                "addr:housenumber": "19c",
                "addr:teryt:simc": 6485,
                "addr:teryt:sym_ul": 934837,
                "contact:phone": "+48 587750044",
                "ref:regon": "221764284",
                "operator": "Dane Do Uzupe\u0142nienia",
                "operator:type": "private",
                "amenity": "college"
            }
        },
        {
            "id": 34974,
            "type": "Feature",
            "geometry": {
                "type": "Point",
                "coordinates": [
                    18.52755,
                    53.96963
                ]
            },
            "properties": {
                "ref:rspo": 34974,
                "official_name": "Teb Edukacja Studium Kszta\u0142cenia Praktycznego",
                "name": "Teb Edukacja Studium Kszta\u0142cenia Praktycznego",
                "addr:country": "PL",
                "addr:postcode": "83-200",
                "addr:city": "Starogard Gda\u0144ski",
                "addr:street": "Genera\u0142a J\u00f3zefa Hallera",
                "addr:housenumber": "19c",
                "addr:teryt:simc": 6485,
                "addr:teryt:sym_ul": 934837,
                "contact:phone": "+48 587750044",
                "contact:email": "starogard@teb-edukacja.pl",
                "contact:website": "https:\/\/teb.pl\/miasta\/starogard-gd\/o-nas",
                "ref:regon": "221761080",
                "operator": "Teb Edukacja Sp\u00f3\u0142ka Z Ograniczon\u0105 Odpowiedzialno\u015bci\u0105",
                "operator:type": "private",
                "fixme": "w zale\u017cno\u015bci od przedmiotu dzia\u0142alno\u015bci (np. amenity=training + training=*, amenity=dancing_school, amenity=language_school, amenity=music_school)"
            }
        },
        {
            "id": 119781,
            "type": "Feature",
            "geometry": {
                "type": "Point",
                "coordinates": [
                    18.52755,
                    53.9696
                ]
            },
            "properties": {
                "isced:level": "3",
                "ref:rspo": 119781,
                "official_name": "Technikum Teb Edukacja w Starogardzie Gda\u0144skim",
                "name": "Technikum Teb Edukacja w Starogardzie Gda\u0144skim",
                "addr:country": "PL",
                "addr:postcode": "83-200",
                "addr:city": "Starogard Gda\u0144ski",
                "addr:street": "Genera\u0142a J\u00f3zefa Hallera",
                "addr:housenumber": "19c",
                "addr:teryt:simc": 6485,
                "addr:teryt:sym_ul": 934837,
                "contact:phone": "+48 587750044",
                "contact:email": "starogard@teb-edukacja.pl",
                "contact:website": "http:\/\/technikum.pl\/miasta\/starogard-gd\/",
                "ref:regon": "221949581",
                "ref:vatin": "PL7781456499",
                "operator": "Teb Edukacja Sp\u00f3\u0142ka Z Ograniczon\u0105 Odpowiedzialno\u015bci\u0105",
                "operator:type": "private",
                "amenity": "school"
            }
        },
        {
            "id": 26424,
            "type": "Feature",
            "geometry": {
                "type": "Point",
                "coordinates": [
                    18.53063,
                    53.97108
                ]
            },
            "properties": {
                "isced:level": "3",
                "ref:rspo": 26424,
                "official_name": "I Liceum Og\u00f3lnokszta\u0142c\u0105ce im. Marii Sk\u0142odowskiej-Curie w Starogardzie Gda\u0144skim",
                "name": "I Liceum Og\u00f3lnokszta\u0142c\u0105ce",
                "addr:country": "PL",
                "addr:postcode": "83-200",
                "addr:city": "Starogard Gda\u0144ski",
                "addr:street": "Genera\u0142a J\u00f3zefa Hallera",
                "addr:housenumber": "34",
                "addr:teryt:simc": 6485,
                "addr:teryt:sym_ul": 934837,
                "contact:phone": "+48 585622903",
                "contact:email": "czerwonyogolniak@wp.pl",
                "contact:website": "http:\/\/www.lo.internetdsl.pl",
                "ref:regon": "192997168",
                "ref:vatin": "PL5921194680",
                "operator": "Powiat Starogardzki",
                "operator:type": "government",
                "amenity": "school"
            }
        },
        {
            "id": 92023,
            "type": "Feature",
            "geometry": {
                "type": "Point",
                "coordinates": [
                    18.52996,
                    53.97114
                ]
            },
            "properties": {
                "isced:level": "4",
                "ref:rspo": 92023,
                "official_name": "Policealna Szko\u0142a \"Akademia Sukcesu\"",
                "name": "Policealna Szko\u0142a \"Akademia Sukcesu\"",
                "addr:country": "PL",
                "addr:postcode": "83-200",
                "addr:city": "Starogard Gda\u0144ski",
                "addr:street": "Gimnazjalna",
                "addr:housenumber": "1",
                "addr:teryt:simc": 5527,
                "addr:teryt:sym_ul": 934837,
                "contact:phone": "+48 835113403",
                "ref:regon": "221788617",
                "operator": "Dane Do Uzupe\u0142nienia",
                "operator:type": "private",
                "amenity": "college"
            }
        },
        {
            "id": 16576,
            "type": "Feature",
            "geometry": {
                "type": "Point",
                "coordinates": [
                    18.53099,
                    53.97144
                ]
            },
            "properties": {
                "ref:rspo": 16576,
                "official_name": "Mi\u0119dzyszkolny O\u015brodek Sportowy w Starogardzie Gda\u0144skim",
                "name": "Mi\u0119dzyszkolny O\u015brodek Sportowy w Starogardzie Gda\u0144skim",
                "addr:country": "PL",
                "addr:postcode": "83-200",
                "addr:city": "Starogard Gda\u0144ski",
                "addr:street": "Genera\u0142a J\u00f3zefa Hallera",
                "addr:housenumber": "36",
                "addr:teryt:simc": 6485,
                "addr:teryt:sym_ul": 934837,
                "contact:phone": "+48 585624722",
                "contact:email": "mosstarogard@gmail.com",
                "contact:website": "http:\/\/www.mosstarogard.pl",
                "ref:regon": "001202941",
                "ref:vatin": "PL5921858594",
                "operator": "Powiat Starogardzki",
                "operator:type": "government",
                "leisure": "sports_centre"
            }
        },
        {
            "id": 271947,
            "type": "Feature",
            "geometry": {
                "type": "Point",
                "coordinates": [
                    18.527299880981,
                    53.972618103027
                ]
            },
            "properties": {
                "ref:rspo": 271947,
                "official_name": "Niepubliczne Przedszkole Anio\u0142ek",
                "name": "Niepubliczne Przedszkole Anio\u0142ek",
                "addr:country": "PL",
                "addr:postcode": "83-200",
                "addr:city": "Starogard Gda\u0144ski",
                "addr:street": "Powsta\u0144c\u00f3w Warszawskich",
                "addr:housenumber": "12",
                "addr:teryt:simc": 17368,
                "addr:teryt:sym_ul": 934837,
                "contact:email": "kontakt@aniolek-starogard.pl",
                "contact:website": "http:\/\/www.aniolek-starogard.pl",
                "ref:regon": "383825293",
                "operator": "Niepubliczne Przedszkole I \u017b\u0142obek Anio\u0142ek Sp\u00f3\u0142ka Z Ograniczon\u0105 Odpowiedzialno\u015bci\u0105",
                "operator:type": "private",
                "amenity": "kindergarten"
            }
        },
        {
            "id": 6748,
            "type": "Feature",
            "geometry": {
                "type": "Point",
                "coordinates": [
                    18.53036,
                    53.97331
                ]
            },
            "properties": {
                "ref:rspo": 6748,
                "official_name": "Miejskie Przedszkole Publiczne Nr 3",
                "name": "Miejskie Przedszkole Publiczne Nr 3",
                "addr:country": "PL",
                "addr:postcode": "83-200",
                "addr:city": "Starogard Gda\u0144ski",
                "addr:street": "Aleja Wojska Polskiego",
                "addr:housenumber": "8B",
                "addr:teryt:simc": 24623,
                "addr:teryt:sym_ul": 934837,
                "contact:phone": "+48 585624967",
                "contact:email": "dyrektor@mpp3.starogard.pl",
                "ref:regon": "190588997",
                "ref:vatin": "PL5921976460",
                "operator": "Gmina Miejska Starogard Gda\u0144ski",
                "operator:type": "government",
                "amenity": "kindergarten"
            }
        },
        {
            "id": 268169,
            "type": "Feature",
            "geometry": {
                "type": "Point",
                "coordinates": [
                    18.53136,
                    53.97334
                ]
            },
            "properties": {
                "ref:rspo": 268169,
                "official_name": "Niepubliczny Punkt Przedszkolny \"Pluszowy Mi\u015b\"",
                "name": "Niepubliczny Punkt Przedszkolny \"Pluszowy Mi\u015b\"",
                "addr:country": "PL",
                "addr:postcode": "83-200",
                "addr:city": "Starogard Gda\u0144ski",
                "addr:street": "Gda\u0144ska",
                "addr:housenumber": "7",
                "addr:door": "1",
                "addr:teryt:simc": 5431,
                "addr:teryt:sym_ul": 934837,
                "contact:phone": "+48 601773535",
                "contact:email": "martynabunikowska@gmail.com",
                "ref:regon": "380998320",
                "operator": "Martyna Bunikowska",
                "operator:type": "private",
                "amenity": "kindergarten"
            }
        },
        {
            "id": 16577,
            "type": "Feature",
            "geometry": {
                "type": "Point",
                "coordinates": [
                    18.5246,
                    53.97343
                ]
            },
            "properties": {
                "ref:rspo": 16577,
                "official_name": "Ognisko Pracy Pozaszkolnej w Starogardzie Gda\u0144skim",
                "name": "Ognisko Pracy Pozaszkolnej w Starogardzie Gda\u0144skim",
                "addr:country": "PL",
                "addr:postcode": "83-200",
                "addr:city": "Starogard Gda\u0144ski",
                "addr:street": "Genera\u0142a W\u0142adys\u0142awa Sikorskiego",
                "addr:housenumber": "26",
                "addr:teryt:simc": 19907,
                "addr:teryt:sym_ul": 934837,
                "contact:phone": "+48 585613326",
                "contact:email": "opp@oppstarogard.pl",
                "ref:regon": "192121039",
                "ref:vatin": "PL5922046183",
                "operator": "Powiat Starogardzki",
                "operator:type": "government",
                "amenity": "community_centre",
                "community_centre:for": "child;juvenile"
            }
        },
        {
            "id": 7071,
            "type": "Feature",
            "geometry": {
                "type": "Point",
                "coordinates": [
                    18.53019,
                    53.97476
                ]
            },
            "properties": {
                "isced:level": "1;2",
                "ref:rspo": 7071,
                "official_name": "Publiczna Szko\u0142a Podstawowa Nr 3 im. W\u0142adys\u0142awa Broniewskiego",
                "name": "Publiczna Szko\u0142a Podstawowa Nr 3",
                "addr:country": "PL",
                "addr:postcode": "83-200",
                "addr:city": "Starogard Gda\u0144ski",
                "addr:street": "J\u00f3zefa Wybickiego",
                "addr:housenumber": "17",
                "addr:teryt:simc": 24908,
                "addr:teryt:sym_ul": 934837,
                "contact:phone": "+48 585622830",
                "contact:email": "sekretariat@psp3.starogard.pl",
                "contact:website": "http:\/\/www.psp3.starogard.pl",
                "ref:regon": "190389803",
                "ref:vatin": "PL5921194645",
                "operator": "Gmina Miejska Starogard Gda\u0144ski",
                "operator:type": "government",
                "amenity": "school"
            }
        },
        {
            "id": 87355,
            "type": "Feature",
            "geometry": {
                "type": "Point",
                "coordinates": [
                    18.53019,
                    53.97473
                ]
            },
            "properties": {
                "isced:level": "3",
                "ref:rspo": 87355,
                "official_name": "Prywatne Liceum Og\u00f3lnokszta\u0142c\u0105ce dla Doros\u0142ych \"Twoja Szko\u0142a\"",
                "name": "Prywatne Liceum Og\u00f3lnokszta\u0142c\u0105ce dla Doros\u0142ych \"Twoja Szko\u0142a\"",
                "addr:country": "PL",
                "addr:postcode": "83-200",
                "addr:city": "Starogard Gda\u0144ski",
                "addr:street": "J\u00f3zefa Wybickiego",
                "addr:housenumber": "17",
                "addr:teryt:simc": 24908,
                "addr:teryt:sym_ul": 934837,
                "contact:phone": "+48 585829089",
                "ref:regon": "221781526",
                "operator": "Dane Do Uzupe\u0142nienia",
                "operator:type": "private",
                "amenity": "school"
            }
        },
        {
            "id": 126116,
            "type": "Feature",
            "geometry": {
                "type": "Point",
                "coordinates": [
                    18.53019,
                    53.974700000000006
                ]
            },
            "properties": {
                "isced:level": "4",
                "ref:rspo": 126116,
                "official_name": "Prywatna Szko\u0142a Policealna dla Doros\u0142ych 'Twoja Szko\u0142a'",
                "name": "Prywatna Szko\u0142a Policealna dla Doros\u0142ych 'Twoja Szko\u0142a'",
                "addr:country": "PL",
                "addr:postcode": "83-200",
                "addr:city": "Starogard Gda\u0144ski",
                "addr:street": "J\u00f3zefa Wybickiego",
                "addr:housenumber": "17",
                "addr:teryt:simc": 24908,
                "addr:teryt:sym_ul": 934837,
                "contact:phone": "+48 585829089",
                "ref:regon": "360153012",
                "operator": "Dane Do Uzupe\u0142nienia",
                "operator:type": "private",
                "amenity": "college"
            }
        },
        {
            "id": 8812,
            "type": "Feature",
            "geometry": {
                "type": "Point",
                "coordinates": [
                    18.5373899,
                    53.97552
                ]
            },
            "properties": {
                "ref:rspo": 8812,
                "official_name": "Niepubliczny Punkt Przedszkolny \"Kubu\u015b Puchatek I Przyjaciele\"",
                "name": "Niepubliczny Punkt Przedszkolny \"Kubu\u015b Puchatek I Przyjaciele\"",
                "addr:country": "PL",
                "addr:postcode": "83-200",
                "addr:city": "Starogard Gda\u0144ski",
                "addr:street": "Lipowa",
                "addr:housenumber": "15",
                "addr:teryt:simc": 11139,
                "addr:teryt:sym_ul": 934837,
                "contact:phone": "+48 600850958",
                "contact:email": "ossowska1@wp.pl",
                "ref:regon": "221735130",
                "operator": "Jpo Investments  Sp\u00f3\u0142ka Z Ograniczon\u0105 Odpowiedzialno\u015bci\u0105",
                "operator:type": "private",
                "amenity": "kindergarten"
            }
        },
        {
            "id": 16572,
            "type": "Feature",
            "geometry": {
                "type": "Point",
                "coordinates": [
                    18.52961,
                    53.97582
                ]
            },
            "properties": {
                "ref:rspo": 16572,
                "official_name": "Poradnia Psychologiczno-Pedagogiczna w Starogardzie Gda\u0144skim",
                "name": "Poradnia Psychologiczno-Pedagogiczna w Starogardzie Gda\u0144skim",
                "addr:country": "PL",
                "addr:postcode": "83-200",
                "addr:city": "Starogard Gda\u0144ski",
                "addr:street": "Grunwaldzka",
                "addr:housenumber": "28",
                "addr:teryt:simc": 6260,
                "addr:teryt:sym_ul": 934837,
                "contact:phone": "+48 585622982",
                "contact:email": "ppp.starogard@wp.pl",
                "contact:website": "http:\/\/www.pppstarogard.pl",
                "ref:regon": "000957880",
                "ref:vatin": "PL5921570143",
                "operator": "Powiat Starogardzki",
                "operator:type": "government",
                "healthcare": "counselling",
                "counselling_type": "education",
                "fixme": "w zale\u017cno\u015bci od przedmiotu dzia\u0142alno\u015bci (np. healthcare=counselling + counselling_type=education albo healthcare=psychotherapist)"
            }
        },
        {
            "id": 267697,
            "type": "Feature",
            "geometry": {
                "type": "Point",
                "coordinates": [
                    18.53726,
                    53.97671
                ]
            },
            "properties": {
                "ref:rspo": 267697,
                "official_name": "Przedszkole Niepubliczne Miasteczkole",
                "name": "Przedszkole Niepubliczne Miasteczkole",
                "addr:country": "PL",
                "addr:postcode": "83-200",
                "addr:city": "Starogard Gda\u0144ski",
                "addr:street": "Doktora Janusza Korczaka",
                "addr:housenumber": "19",
                "addr:teryt:simc": 9326,
                "addr:teryt:sym_ul": 934837,
                "contact:email": "miasteczkole@gmail.com",
                "ref:regon": "380517645",
                "operator": "Martyna Bunikowska",
                "operator:type": "private",
                "amenity": "kindergarten"
            }
        },
        {
            "id": 6210,
            "type": "Feature",
            "geometry": {
                "type": "Point",
                "coordinates": [
                    18.5116937,
                    53.9811312
                ]
            },
            "properties": {
                "ref:rspo": 6210,
                "official_name": "Wojew\u00f3dzki Zesp\u00f3\u0142 Szk\u00f3\u0142 Policealnych im. Matki Teresy Z Kalkuty w Starogardzie Gda\u0144skim",
                "name": "Wojew\u00f3dzki Zesp\u00f3\u0142 Szk\u00f3\u0142 Policealnych",
                "addr:country": "PL",
                "addr:postcode": "83-200",
                "addr:city": "Starogard Gda\u0144ski",
                "addr:street": "Skarszewska",
                "addr:housenumber": "7",
                "addr:teryt:simc": 20016,
                "addr:teryt:sym_ul": 934837,
                "contact:phone": "+48 585623616",
                "contact:email": "mszstarogard@poczta.onet.pl",
                "contact:website": "http:\/\/www.medyk-stg.pl",
                "ref:regon": "220105013",
                "ref:vatin": "PL5922103389",
                "operator": "Wojew\u00f3dztwo Pomorskie",
                "operator:type": "government",
                "landuse": "education",
                "fixme": "amenity=school, amenity=college albo landuse=education w zale\u017cno\u015bci od tego, jakie plac\u00f3wki wchodz\u0105 w sk\u0142ad zespo\u0142u. Sprawd\u017a, kiedy stosowa\u0107 amenity=* a kiedy landuse=education.",
                "note": "Children RSPO: 7348;7363"
            }
        },
        {
            "id": 7348,
            "type": "Feature",
            "geometry": {
                "type": "Point",
                "coordinates": [
                    18.5116937,
                    53.9811012
                ]
            },
            "properties": {
                "isced:level": "4",
                "ref:rspo": 7348,
                "official_name": "Szko\u0142a Policealna Medyczna w Starogardzie Gda\u0144skim",
                "name": "Szko\u0142a Policealna Medyczna w Starogardzie Gda\u0144skim",
                "addr:country": "PL",
                "addr:postcode": "83-200",
                "addr:city": "Starogard Gda\u0144ski",
                "addr:street": "Skarszewska",
                "addr:housenumber": "7",
                "addr:teryt:simc": 20016,
                "addr:teryt:sym_ul": 934837,
                "contact:phone": "+48 585623616",
                "contact:email": "mszstarogard@poczta.onet.pl",
                "contact:website": "http:\/\/www.medyk-stg.pl",
                "ref:regon": "000291859",
                "operator": "Wojew\u00f3dztwo Pomorskie",
                "operator:type": "government",
                "amenity": "college",
                "note": "Parent RSPO: 6210"
            }
        },
        {
            "id": 7363,
            "type": "Feature",
            "geometry": {
                "type": "Point",
                "coordinates": [
                    18.5116937,
                    53.9810712
                ]
            },
            "properties": {
                "isced:level": "4",
                "ref:rspo": 7363,
                "official_name": "Szko\u0142a Policealna Spo\u0142eczna w Starogardzie Gda\u0144skim",
                "name": "Szko\u0142a Policealna Spo\u0142eczna w Starogardzie Gda\u0144skim",
                "addr:country": "PL",
                "addr:postcode": "83-200",
                "addr:city": "Starogard Gda\u0144ski",
                "addr:street": "Skarszewska",
                "addr:housenumber": "7",
                "addr:teryt:simc": 20016,
                "addr:teryt:sym_ul": 934837,
                "contact:phone": "+48 585623616",
                "contact:email": "mszstarogard@poczta.onet.pl",
                "contact:website": "http:\/\/www.medyk-stg.pl",
                "ref:regon": "220105020",
                "operator": "Wojew\u00f3dztwo Pomorskie",
                "operator:type": "government",
                "amenity": "college",
                "note": "Parent RSPO: 6210"
            }
        },
        {
            "id": 119721,
            "type": "Feature",
            "geometry": {
                "type": "Point",
                "coordinates": [
                    18.5116937,
                    53.9810412
                ]
            },
            "properties": {
                "isced:level": "1;2",
                "ref:rspo": 119721,
                "official_name": "Szko\u0142a Podstawowa Specjalna Nr 7",
                "name": "Szko\u0142a Podstawowa Specjalna Nr 7",
                "addr:country": "PL",
                "addr:postcode": "83-200",
                "addr:city": "Starogard Gda\u0144ski",
                "addr:street": "Skarszewska",
                "addr:housenumber": "7",
                "addr:teryt:simc": 20016,
                "addr:teryt:sym_ul": 934837,
                "contact:phone": "+48 585622269",
                "contact:email": "sekretariat@soswstarogard.pl",
                "contact:website": "http:\/\/soswstarogard.pl\/",
                "ref:regon": "221948759",
                "ref:vatin": "PL5921600826",
                "operator": "Powiat Starogardzki",
                "operator:type": "government",
                "amenity": "school",
                "note": "Parent RSPO: 16575"
            }
        },
        {
            "id": 278183,
            "type": "Feature",
            "geometry": {
                "type": "Point",
                "coordinates": [
                    18.49205,
                    53.98241
                ]
            },
            "properties": {
                "ref:rspo": 278183,
                "official_name": "Integracyjno-J\u0119zykowe Przedszkole Montessori House",
                "name": "Integracyjno-J\u0119zykowe Przedszkole Montessori House",
                "addr:country": "PL",
                "addr:postcode": "83-200",
                "addr:city": "Starogard Gda\u0144ski",
                "addr:street": "Ksi\u0119dza Franciszka Kalinowskiego",
                "addr:housenumber": "28",
                "addr:teryt:simc": 7810,
                "addr:teryt:sym_ul": 934837,
                "contact:phone": "+48 606727556",
                "contact:email": "przedszkolemontessorisg@gmail.com",
                "ref:regon": "389878646",
                "operator": "J\u00f3zef Peka",
                "operator:type": "private",
                "amenity": "kindergarten"
            }
        },
        {
            "id": 111592,
            "type": "Feature",
            "geometry": {
                "type": "Point",
                "coordinates": [
                    18.49099,
                    53.98305
                ]
            },
            "properties": {
                "isced:level": "1;2",
                "ref:rspo": 111592,
                "official_name": "Publiczna Szko\u0142a Podstawowa Nr 6 im. Jana Paw\u0142a Ii",
                "name": "Publiczna Szko\u0142a Podstawowa Nr 6",
                "addr:country": "PL",
                "addr:postcode": "83-200",
                "addr:city": "Starogard Gda\u0144ski",
                "addr:street": "Biskupa Konstantego Dominika",
                "addr:housenumber": "32",
                "addr:teryt:simc": 44739,
                "addr:teryt:sym_ul": 934837,
                "contact:phone": "+48 585623050",
                "contact:email": "sekretariat@psp6.stg.pl",
                "ref:regon": "220730930",
                "ref:vatin": "PL5921893320",
                "operator": "Gmina Miejska Starogard Gda\u0144ski",
                "operator:type": "government",
                "amenity": "school"
            }
        },
        {
            "id": 8866,
            "type": "Feature",
            "geometry": {
                "type": "Point",
                "coordinates": [
                    18.50595,
                    53.98516
                ]
            },
            "properties": {
                "ref:rspo": 8866,
                "official_name": "Przedszkole Niepubliczne \"Bajkowy Domek\"",
                "name": "Przedszkole Niepubliczne \"Bajkowy Domek\"",
                "addr:country": "PL",
                "addr:postcode": "83-200",
                "addr:city": "Starogard Gda\u0144ski",
                "addr:street": "Skarszewska",
                "addr:housenumber": "25",
                "addr:teryt:simc": 20016,
                "addr:teryt:sym_ul": 934837,
                "contact:phone": "+48 510951520",
                "contact:email": "daria.kaminska08@gmail.com",
                "ref:regon": "221735160",
                "operator": "Wies\u0142aw Kami\u0144ski",
                "operator:type": "private",
                "amenity": "kindergarten"
            }
        }
    ]
}