{
    "type": "FeatureCollection",
    "features": [
        {
            "id": 26442,
            "type": "Feature",
            "geometry": {
                "type": "Point",
                "coordinates": [
                    18.52952,
                    53.79176
                ]
            },
            "properties": {
                "ref:rspo": 26442,
                "official_name": "Zesp\u00f3\u0142 Szk\u00f3\u0142 Ponadpodstawowych im.w\u0142odzimierza Mykietyna w Sk\u00f3rczu",
                "name": "Zesp\u00f3\u0142 Szk\u00f3\u0142 Ponadpodstawowych im.w\u0142odzimierza Mykietyna w Sk\u00f3rczu",
                "addr:country": "PL",
                "addr:postcode": "83-220",
                "addr:city": "Sk\u00f3rcz",
                "addr:street": "ul. Kociewska",
                "addr:housenumber": "2",
                "addr:teryt:simc": 8740,
                "addr:teryt:sym_ul": 934777,
                "contact:phone": "+48 585824248",
                "contact:email": "sekretariat@zspskorcz.pl",
                "contact:website": "http:\/\/www.zspskorcz.pl",
                "ref:regon": "000861618",
                "ref:vatin": "PL5921868807",
                "operator": "Powiat Starogardzki",
                "operator:type": "government",
                "landuse": "education",
                "fixme": "amenity=school, amenity=college albo landuse=education w zale\u017cno\u015bci od tego, jakie plac\u00f3wki wchodz\u0105 w sk\u0142ad zespo\u0142u. Sprawd\u017a, kiedy stosowa\u0107 amenity=* a kiedy landuse=education.",
                "note": "Children RSPO: 62342;62350;62360;132751;276180"
            }
        },
        {
            "id": 62342,
            "type": "Feature",
            "geometry": {
                "type": "Point",
                "coordinates": [
                    18.52952,
                    53.791729999999994
                ]
            },
            "properties": {
                "isced:level": "3",
                "ref:rspo": 62342,
                "official_name": "Bran\u017cowa Szko\u0142a I Stopnia w Zespole Szk\u00f3\u0142 Ponadpodstawowych im. W\u0142odzimierza Mykietyna w Sk\u00f3rczu",
                "name": "Bran\u017cowa Szko\u0142a I Stopnia w Zespole Szk\u00f3\u0142 Ponadpodstawowych",
                "addr:country": "PL",
                "addr:postcode": "83-220",
                "addr:city": "Sk\u00f3rcz",
                "addr:street": "ul. Kociewska",
                "addr:housenumber": "2",
                "addr:teryt:simc": 8740,
                "addr:teryt:sym_ul": 934777,
                "contact:phone": "+48 585824250",
                "contact:email": "sekretariat@zspskorcz.pl",
                "contact:website": "http:\/\/www.zspskorcz.pl",
                "ref:regon": "192986880",
                "operator": "Powiat Starogardzki",
                "operator:type": "government",
                "amenity": "school",
                "note": "Parent RSPO: 26442"
            }
        },
        {
            "id": 62350,
            "type": "Feature",
            "geometry": {
                "type": "Point",
                "coordinates": [
                    18.52952,
                    53.7917
                ]
            },
            "properties": {
                "isced:level": "4",
                "ref:rspo": 62350,
                "official_name": "Szko\u0142a Policealna",
                "name": "Szko\u0142a Policealna",
                "addr:country": "PL",
                "addr:postcode": "83-220",
                "addr:city": "Sk\u00f3rcz",
                "addr:street": "ul. Kociewska",
                "addr:housenumber": "2",
                "addr:teryt:simc": 8740,
                "addr:teryt:sym_ul": 934777,
                "contact:phone": "+48 585824250",
                "contact:email": "sekretariat@zspskorcz.pl",
                "contact:website": "http:\/\/www.zspskorcz.pl",
                "ref:regon": "220100257",
                "operator": "Powiat Starogardzki",
                "operator:type": "government",
                "amenity": "college",
                "note": "Parent RSPO: 26442"
            }
        },
        {
            "id": 62360,
            "type": "Feature",
            "geometry": {
                "type": "Point",
                "coordinates": [
                    18.52952,
                    53.791669999999996
                ]
            },
            "properties": {
                "isced:level": "3",
                "ref:rspo": 62360,
                "official_name": "Technikum w Sk\u00f3rczu",
                "name": "Technikum w Sk\u00f3rczu",
                "addr:country": "PL",
                "addr:postcode": "83-220",
                "addr:city": "Sk\u00f3rcz",
                "addr:street": "ul. Kociewska",
                "addr:housenumber": "2",
                "addr:teryt:simc": 8740,
                "addr:teryt:sym_ul": 934777,
                "contact:phone": "+48 585824250",
                "contact:email": "sekretariat@zspskorcz.pl",
                "contact:website": "http:\/\/www.zspskorcz.pl",
                "ref:regon": "220612885",
                "operator": "Powiat Starogardzki",
                "operator:type": "government",
                "amenity": "school",
                "note": "Parent RSPO: 26442"
            }
        },
        {
            "id": 132751,
            "type": "Feature",
            "geometry": {
                "type": "Point",
                "coordinates": [
                    18.52952,
                    53.791639999999994
                ]
            },
            "properties": {
                "isced:level": "3",
                "ref:rspo": 132751,
                "official_name": "Liceum Og\u00f3lnokszta\u0142c\u0105ce dla Doros\u0142ych",
                "name": "Liceum Og\u00f3lnokszta\u0142c\u0105ce dla Doros\u0142ych",
                "addr:country": "PL",
                "addr:postcode": "83-220",
                "addr:city": "Sk\u00f3rcz",
                "addr:street": "ul. Kociewska",
                "addr:housenumber": "2",
                "addr:teryt:simc": 8740,
                "addr:teryt:sym_ul": 934777,
                "contact:phone": "+48 585824250",
                "contact:email": "sekretariat@zspskorcz.pl",
                "contact:website": "http:\/\/www.zspskorcz.pl",
                "ref:regon": "366215211",
                "operator": "Powiat Starogardzki",
                "operator:type": "government",
                "amenity": "school",
                "note": "Parent RSPO: 26442"
            }
        },
        {
            "id": 276180,
            "type": "Feature",
            "geometry": {
                "type": "Point",
                "coordinates": [
                    18.52952,
                    53.79161
                ]
            },
            "properties": {
                "isced:level": "3",
                "ref:rspo": 276180,
                "official_name": "Bran\u017cowa Szko\u0142a II Stopnia w Sk\u00f3rczu",
                "name": "Bran\u017cowa Szko\u0142a II Stopnia w Sk\u00f3rczu",
                "addr:country": "PL",
                "addr:postcode": "83-220",
                "addr:city": "Sk\u00f3rcz",
                "addr:street": "ul. Kociewska",
                "addr:housenumber": "2",
                "addr:teryt:simc": 8740,
                "addr:teryt:sym_ul": 934777,
                "contact:phone": "+48 585824250",
                "contact:email": "sekretariat@zspskorcz.pl",
                "contact:website": "http:\/\/www.zspskorcz.pl",
                "ref:regon": "387024526",
                "operator": "Powiat Starogardzki",
                "operator:type": "government",
                "amenity": "school",
                "note": "Parent RSPO: 26442"
            }
        },
        {
            "id": 122468,
            "type": "Feature",
            "geometry": {
                "type": "Point",
                "coordinates": [
                    18.52621,
                    53.79606
                ]
            },
            "properties": {
                "ref:rspo": 122468,
                "official_name": "Niepubliczne Przedszkole Maluszkowo",
                "name": "Niepubliczne Przedszkole Maluszkowo",
                "addr:country": "PL",
                "addr:postcode": "83-220",
                "addr:city": "Sk\u00f3rcz",
                "addr:street": "ul. G\u0142\u00f3wna",
                "addr:housenumber": "7",
                "addr:teryt:simc": 5635,
                "addr:teryt:sym_ul": 934777,
                "contact:phone": "+48 513955831",
                "contact:email": "maluszkowoskorcz@op.pl",
                "ref:regon": "222050871",
                "ref:vatin": "PL5932277518",
                "operator": "Justyna Malkowska",
                "operator:type": "private",
                "amenity": "kindergarten"
            }
        },
        {
            "id": 30323,
            "type": "Feature",
            "geometry": {
                "type": "Point",
                "coordinates": [
                    18.5289,
                    53.79686
                ]
            },
            "properties": {
                "ref:rspo": 30323,
                "official_name": "Zesp\u00f3\u0142 Szk\u00f3\u0142 Publicznych w Sk\u00f3rczu Miejskie Przedszkole w Sk\u00f3rczu",
                "name": "Zesp\u00f3\u0142 Szk\u00f3\u0142 Publicznych w Sk\u00f3rczu Miejskie Przedszkole w Sk\u00f3rczu",
                "addr:country": "PL",
                "addr:postcode": "83-220",
                "addr:city": "Sk\u00f3rcz",
                "addr:street": "ul. Parkowa",
                "addr:housenumber": "3",
                "addr:teryt:simc": 15710,
                "addr:teryt:sym_ul": 934777,
                "contact:phone": "+48 585824408",
                "contact:email": "pspskorcz@skorcz.pl",
                "contact:website": "http:\/\/www.szkola.skorcz.pl",
                "ref:regon": "221209329",
                "operator": "Gmina Miejska Sk\u00f3rcz",
                "operator:type": "government",
                "amenity": "kindergarten",
                "note": "Parent RSPO: 22070"
            }
        },
        {
            "id": 22070,
            "type": "Feature",
            "geometry": {
                "type": "Point",
                "coordinates": [
                    18.53187,
                    53.79727
                ]
            },
            "properties": {
                "ref:rspo": 22070,
                "official_name": "Zesp\u00f3\u0142 Szk\u00f3\u0142 Publicznych w Sk\u00f3rczu",
                "name": "Zesp\u00f3\u0142 Szk\u00f3\u0142 Publicznych w Sk\u00f3rczu",
                "addr:country": "PL",
                "addr:postcode": "83-220",
                "addr:city": "Sk\u00f3rcz",
                "addr:street": "ul. gen. J\u00f3zefa Hallera",
                "addr:housenumber": "7A",
                "addr:teryt:simc": 6485,
                "addr:teryt:sym_ul": 934777,
                "contact:phone": "+48 585824408",
                "contact:email": "pspskorcz@skorcz.pl",
                "contact:website": "http:\/\/www.szkola.skorcz.pl",
                "ref:regon": "190583735",
                "ref:vatin": "PL5921894377",
                "operator": "Gmina Miejska Sk\u00f3rcz",
                "operator:type": "government",
                "landuse": "education",
                "fixme": "amenity=school, amenity=college albo landuse=education w zale\u017cno\u015bci od tego, jakie plac\u00f3wki wchodz\u0105 w sk\u0142ad zespo\u0142u. Sprawd\u017a, kiedy stosowa\u0107 amenity=* a kiedy landuse=education.",
                "note": "Children RSPO: 30323;34315"
            }
        },
        {
            "id": 34315,
            "type": "Feature",
            "geometry": {
                "type": "Point",
                "coordinates": [
                    18.53187,
                    53.797239999999995
                ]
            },
            "properties": {
                "isced:level": "1;2",
                "ref:rspo": 34315,
                "official_name": "Zesp\u00f3\u0142 Szk\u00f3\u0142 Publicznych w Sk\u00f3rczu Publiczna Szko\u0142a Podstawowa im. Franciszka Schornaka",
                "name": "Zesp\u00f3\u0142 Szk\u00f3\u0142 Publicznych w Sk\u00f3rczu Publiczna Szko\u0142a Podstawowa",
                "addr:country": "PL",
                "addr:postcode": "83-220",
                "addr:city": "Sk\u00f3rcz",
                "addr:street": "ul. gen. J\u00f3zefa Hallera",
                "addr:housenumber": "7A",
                "addr:teryt:simc": 6485,
                "addr:teryt:sym_ul": 934777,
                "contact:phone": "+48 585824408",
                "contact:email": "pspskorcz@skorcz.pl",
                "contact:website": "http:\/\/www.szkola.skorcz.pl",
                "ref:regon": "192967428",
                "operator": "Gmina Miejska Sk\u00f3rcz",
                "operator:type": "government",
                "amenity": "school",
                "note": "Parent RSPO: 22070"
            }
        }
    ]
}