{
    "type": "FeatureCollection",
    "features": [
        {
            "id": 25009,
            "type": "Feature",
            "geometry": {
                "type": "Point",
                "coordinates": [
                    18.52865,
                    53.90856
                ]
            },
            "properties": {
                "isced:level": "1;2",
                "ref:rspo": 25009,
                "official_name": "Publiczna Szko\u0142a Podstawowa w D\u0105br\u00f3wce",
                "name": "Publiczna Szko\u0142a Podstawowa w D\u0105br\u00f3wce",
                "addr:country": "PL",
                "addr:postcode": "83-212",
                "addr:city": "D\u0105br\u00f3wka",
                "addr:street": "Starogardzka",
                "addr:housenumber": "47",
                "addr:teryt:simc": 173278,
                "addr:teryt:sym_ul": 20935,
                "contact:phone": "+48 585621727",
                "contact:email": "sekretariat@psp-dabrowka.stg.pl",
                "ref:regon": "190958840",
                "ref:vatin": "PL5921596935",
                "operator": "Gmina Starogard Gda\u0144ski",
                "operator:type": "government",
                "amenity": "school"
            }
        },
        {
            "id": 28701,
            "type": "Feature",
            "geometry": {
                "type": "Point",
                "coordinates": [
                    18.446558,
                    53.918427
                ]
            },
            "properties": {
                "isced:level": "1;2",
                "ref:rspo": 28701,
                "official_name": "Publiczna Szko\u0142a Podstawowa im. Kornela Makuszy\u0144skiego w Suminie",
                "name": "Publiczna Szko\u0142a Podstawowa",
                "addr:country": "PL",
                "addr:postcode": "83-200",
                "addr:place": "Sumin",
                "addr:housenumber": "38",
                "addr:teryt:simc": 173580,
                "contact:phone": "+48 585621078",
                "contact:email": "pspsumin@wp.pl",
                "contact:website": "http:\/\/www.pspsumin.pl",
                "ref:regon": "190958885",
                "ref:vatin": "PL5922030472",
                "operator": "Gmina Starogard Gda\u0144ski",
                "operator:type": "government",
                "amenity": "school"
            }
        },
        {
            "id": 28646,
            "type": "Feature",
            "geometry": {
                "type": "Point",
                "coordinates": [
                    18.57391,
                    53.92556
                ]
            },
            "properties": {
                "isced:level": "1;2",
                "ref:rspo": 28646,
                "official_name": "Publiczna Szko\u0142a Podstawowa w Jab\u0142owie",
                "name": "Publiczna Szko\u0142a Podstawowa w Jab\u0142owie",
                "addr:country": "PL",
                "addr:postcode": "83-211",
                "addr:city": "Jab\u0142owo",
                "addr:street": "Szkolna",
                "addr:housenumber": "5",
                "addr:teryt:simc": 173284,
                "addr:teryt:sym_ul": 21970,
                "contact:phone": "+48 585621626",
                "contact:email": "sekretariat@szkolajablowo.pl",
                "ref:regon": "190958891",
                "ref:vatin": "PL5922002961",
                "operator": "Gmina Starogard Gda\u0144ski",
                "operator:type": "government",
                "amenity": "school"
            }
        },
        {
            "id": 25010,
            "type": "Feature",
            "geometry": {
                "type": "Point",
                "coordinates": [
                    18.46687,
                    53.94513
                ]
            },
            "properties": {
                "isced:level": "1;2",
                "ref:rspo": 25010,
                "official_name": "Publiczna Szko\u0142a Podstawowa w Rokocinie",
                "name": "Publiczna Szko\u0142a Podstawowa w Rokocinie",
                "addr:country": "PL",
                "addr:postcode": "83-200",
                "addr:city": "Rokocin",
                "addr:street": "Parkowa",
                "addr:housenumber": "2",
                "addr:teryt:simc": 173522,
                "addr:teryt:sym_ul": 15710,
                "contact:phone": "+48 585621019",
                "contact:email": "psprokocin@poczta.fm",
                "contact:website": "http:\/\/psprokocin.edu.pl",
                "ref:regon": "190958833",
                "ref:vatin": "PL5921892912",
                "operator": "Gmina Starogard Gda\u0144ski",
                "operator:type": "government",
                "amenity": "school"
            }
        },
        {
            "id": 91444,
            "type": "Feature",
            "geometry": {
                "type": "Point",
                "coordinates": [
                    18.57058,
                    53.95323
                ]
            },
            "properties": {
                "isced:level": "3",
                "ref:rspo": 91444,
                "official_name": "Technikum im. Gen. J\u00f3zefa Hallera w Owidzu",
                "name": "Technikum",
                "addr:country": "PL",
                "addr:postcode": "83-211",
                "addr:city": "Owidz",
                "addr:street": "Szkolna",
                "addr:housenumber": "6",
                "addr:teryt:simc": 173516,
                "addr:teryt:sym_ul": 21970,
                "contact:phone": "+48 585624825",
                "contact:email": "sekretariat@technikumowidz.pl",
                "contact:website": "http:\/\/technikumowidz.pl",
                "ref:regon": "220033621",
                "ref:vatin": "PL5921600157",
                "operator": "Powiat Starogardzki",
                "operator:type": "government",
                "amenity": "school"
            }
        },
        {
            "id": 265840,
            "type": "Feature",
            "geometry": {
                "type": "Point",
                "coordinates": [
                    18.61384,
                    53.98383
                ]
            },
            "properties": {
                "ref:rspo": 265840,
                "official_name": "Zesp\u00f3\u0142 Kszta\u0142cenia I Wychowania w Rywa\u0142dzie",
                "name": "Zesp\u00f3\u0142 Kszta\u0142cenia I Wychowania w Rywa\u0142dzie",
                "addr:country": "PL",
                "addr:postcode": "83-200",
                "addr:city": "Rywa\u0142d",
                "addr:street": "Szkolna",
                "addr:housenumber": "4",
                "addr:teryt:simc": 173539,
                "addr:teryt:sym_ul": 21970,
                "contact:phone": "+48 585621474",
                "contact:email": "zkiwryw@wp.pl",
                "contact:website": "http:\/\/zkiwrywald.pl",
                "ref:regon": "368936564",
                "operator": "Gmina Starogard Gda\u0144ski",
                "operator:type": "government",
                "landuse": "education",
                "fixme": "amenity=school, amenity=college albo landuse=education w zale\u017cno\u015bci od tego, jakie plac\u00f3wki wchodz\u0105 w sk\u0142ad zespo\u0142u. Sprawd\u017a, kiedy stosowa\u0107 amenity=* a kiedy landuse=education.",
                "note": "Children RSPO: 29853;59802"
            }
        },
        {
            "id": 29853,
            "type": "Feature",
            "geometry": {
                "type": "Point",
                "coordinates": [
                    18.61384,
                    53.983799999999995
                ]
            },
            "properties": {
                "isced:level": "1;2",
                "ref:rspo": 29853,
                "official_name": "Publiczna Szko\u0142a Podstawowa w Rywa\u0142dzie",
                "name": "Publiczna Szko\u0142a Podstawowa w Rywa\u0142dzie",
                "addr:country": "PL",
                "addr:postcode": "83-200",
                "addr:city": "Rywa\u0142d",
                "addr:street": "Szkolna",
                "addr:housenumber": "4",
                "addr:teryt:simc": 173539,
                "addr:teryt:sym_ul": 21970,
                "contact:phone": "+48 585621474",
                "contact:email": "zkiwryw@wp.pl",
                "contact:website": "http:\/\/zkiwrywald.pl",
                "ref:regon": "192814660",
                "ref:vatin": "PL5921596912",
                "operator": "Gmina Starogard Gda\u0144ski",
                "operator:type": "government",
                "amenity": "school",
                "note": "Parent RSPO: 265840"
            }
        },
        {
            "id": 25011,
            "type": "Feature",
            "geometry": {
                "type": "Point",
                "coordinates": [
                    18.6442799,
                    53.98927
                ]
            },
            "properties": {
                "isced:level": "1;2",
                "ref:rspo": 25011,
                "official_name": "Publiczna Szko\u0142a Podstawowa w Brze\u017anie Wielkim",
                "name": "Publiczna Szko\u0142a Podstawowa w Brze\u017anie Wielkim",
                "addr:country": "PL",
                "addr:postcode": "83-115",
                "addr:city": "Brze\u017ano Wielkie",
                "addr:street": "Szkolna",
                "addr:housenumber": "5",
                "addr:teryt:simc": 173249,
                "addr:teryt:sym_ul": 21970,
                "contact:phone": "+48 585621215",
                "contact:email": "sekretariat@psp-brzeznowielkie.stg.pl",
                "contact:website": "http:\/\/www.pspbrzeznowielkie.szkolna.net",
                "ref:regon": "190958827",
                "ref:vatin": "PL5921892929",
                "operator": "Gmina Starogard Gda\u0144ski",
                "operator:type": "government",
                "amenity": "school"
            }
        },
        {
            "id": 59802,
            "type": "Feature",
            "geometry": {
                "type": "Point",
                "coordinates": [
                    18.60542,
                    53.99291
                ]
            },
            "properties": {
                "ref:rspo": 59802,
                "official_name": "Przedszkole Publiczne w Rywa\u0142dzie",
                "name": "Przedszkole Publiczne w Rywa\u0142dzie",
                "addr:country": "PL",
                "addr:postcode": "83-200",
                "addr:city": "Rywa\u0142d",
                "addr:street": "Starogardzka",
                "addr:housenumber": "61",
                "addr:teryt:simc": 173539,
                "addr:teryt:sym_ul": 20935,
                "contact:phone": "+48 585621474",
                "contact:email": "zkiwryw@wp.pl",
                "ref:regon": "192814630",
                "ref:vatin": "PL5921596912",
                "operator": "Gmina Starogard Gda\u0144ski",
                "operator:type": "government",
                "amenity": "kindergarten",
                "note": "Parent RSPO: 265840"
            }
        },
        {
            "id": 60316,
            "type": "Feature",
            "geometry": {
                "type": "Point",
                "coordinates": [
                    18.52358,
                    53.99569
                ]
            },
            "properties": {
                "isced:level": "1;2",
                "ref:rspo": 60316,
                "official_name": "Publiczna Szko\u0142a Podstawowa w Kokoszkowach",
                "name": "Publiczna Szko\u0142a Podstawowa w Kokoszkowach",
                "addr:country": "PL",
                "addr:postcode": "83-207",
                "addr:city": "Kokoszkowy",
                "addr:street": "Szkolna",
                "addr:housenumber": "24",
                "addr:teryt:simc": 173367,
                "addr:teryt:sym_ul": 21970,
                "contact:phone": "+48 585621579",
                "contact:email": "sekretariat@psp-kokoszkowy.stg.pl",
                "contact:website": "http:\/\/pspkokoszkowy.edupage.org",
                "ref:regon": "191262418",
                "ref:vatin": "PL5921642575",
                "operator": "Gmina Starogard Gda\u0144ski",
                "operator:type": "government",
                "amenity": "school"
            }
        },
        {
            "id": 59817,
            "type": "Feature",
            "geometry": {
                "type": "Point",
                "coordinates": [
                    18.52469,
                    53.99578
                ]
            },
            "properties": {
                "ref:rspo": 59817,
                "official_name": "Przedszkole Publiczne w Kokoszkowach",
                "name": "Przedszkole Publiczne w Kokoszkowach",
                "addr:country": "PL",
                "addr:postcode": "83-207",
                "addr:city": "Kokoszkowy",
                "addr:street": "Szkolna",
                "addr:housenumber": "22",
                "addr:teryt:simc": 173367,
                "addr:teryt:sym_ul": 21970,
                "contact:phone": "+48 585621510",
                "contact:email": "kokoszkowy.przedszkole@wp.pl",
                "ref:regon": "190587012",
                "ref:vatin": "PL5922063626",
                "operator": "Gmina Starogard Gda\u0144ski",
                "operator:type": "government",
                "amenity": "kindergarten"
            }
        },
        {
            "id": 25008,
            "type": "Feature",
            "geometry": {
                "type": "Point",
                "coordinates": [
                    18.4982343,
                    54.019297
                ]
            },
            "properties": {
                "isced:level": "1;2",
                "ref:rspo": 25008,
                "official_name": "Publiczna Szko\u0142a Podstawowa w Trzcinsku",
                "name": "Publiczna Szko\u0142a Podstawowa w Trzcinsku",
                "addr:country": "PL",
                "addr:postcode": "83-209",
                "addr:place": "Trzci\u0144sk",
                "addr:housenumber": "14",
                "addr:teryt:simc": 173628,
                "contact:phone": "+48 585881763",
                "contact:email": "psptrzcinsk@wp.pl",
                "contact:website": "http:\/\/www.psptrzcinsk.superszkolna.pl",
                "ref:regon": "190958856",
                "ref:vatin": "PL5921600884",
                "operator": "Gmina Starogard Gda\u0144ski",
                "operator:type": "government",
                "amenity": "school"
            }
        }
    ]
}