{
    "type": "FeatureCollection",
    "features": [
        {
            "id": 25698,
            "type": "Feature",
            "geometry": {
                "type": "Point",
                "coordinates": [
                    18.93508,
                    50.26278
                ]
            },
            "properties": {
                "ref:rspo": 25698,
                "official_name": "Przedszkole Nr 16 Integracyjne",
                "name": "Przedszkole Nr 16 Integracyjne",
                "addr:country": "PL",
                "addr:postcode": "41-506",
                "addr:city": "Chorz\u00f3w",
                "addr:street": "ul. Brzozowa",
                "addr:housenumber": "9",
                "addr:teryt:simc": 2276,
                "addr:teryt:sym_ul": 938887,
                "contact:phone": "+48 322463038",
                "contact:email": "p16chorzow@gmail.com",
                "contact:website": "http:\/\/www.przedszkole16integracyjnechorzow.eprzedszkola.pl\/",
                "ref:regon": "241797753",
                "ref:vatin": "PL6271175884",
                "operator": "Miasto Chorz\u00f3w - Miasto Na Prawach Powiatu",
                "operator:type": "government",
                "amenity": "kindergarten"
            }
        },
        {
            "id": 15791,
            "type": "Feature",
            "geometry": {
                "type": "Point",
                "coordinates": [
                    18.94103,
                    50.2651899
                ]
            },
            "properties": {
                "isced:level": "1;2",
                "ref:rspo": 15791,
                "official_name": "Szko\u0142a Podstawowa Nr 12 Z Oddzia\u0142ami Integracyjnymi",
                "name": "Szko\u0142a Podstawowa Nr 12 Z Oddzia\u0142ami Integracyjnymi",
                "addr:country": "PL",
                "addr:postcode": "41-506",
                "addr:city": "Chorz\u00f3w",
                "addr:street": "ul. Skrajna",
                "addr:housenumber": "2",
                "addr:teryt:simc": 20137,
                "addr:teryt:sym_ul": 938887,
                "contact:phone": "+48 322461115",
                "contact:email": "sekretariat@sp12chorzow.pl",
                "contact:website": "http:\/\/www.sp12chorzow.pl",
                "ref:regon": "000722041",
                "ref:vatin": "PL6271177073",
                "operator": "Miasto Chorz\u00f3w - Miasto Na Prawach Powiatu",
                "operator:type": "government",
                "amenity": "school"
            }
        },
        {
            "id": 106037,
            "type": "Feature",
            "geometry": {
                "type": "Point",
                "coordinates": [
                    18.93907,
                    50.26569
                ]
            },
            "properties": {
                "ref:rspo": 106037,
                "official_name": "Niepubliczne Przedszkole \"Hajduczek\" w Chorzowie",
                "name": "Niepubliczne Przedszkole \"Hajduczek\" w Chorzowie",
                "addr:country": "PL",
                "addr:postcode": "41-506",
                "addr:city": "Chorz\u00f3w",
                "addr:street": "ul. Boles\u0142awa Prusa",
                "addr:housenumber": "7",
                "addr:teryt:simc": 17577,
                "addr:teryt:sym_ul": 938887,
                "contact:phone": "+48 535251607",
                "contact:email": "centrum.hajduczek@gmail.com",
                "ref:regon": "243142097",
                "operator": "Centrum Opieki I Rozwoju Hajduczek Sp\u00f3\u0142ka Z Ograniczon\u0105 Odpowiedzialno\u015bci\u0105",
                "operator:type": "private",
                "amenity": "kindergarten"
            }
        },
        {
            "id": 18546,
            "type": "Feature",
            "geometry": {
                "type": "Point",
                "coordinates": [
                    18.94032,
                    50.26677
                ]
            },
            "properties": {
                "ref:rspo": 18546,
                "official_name": "Przedszkole Nr 1",
                "name": "Przedszkole Nr 1",
                "addr:country": "PL",
                "addr:postcode": "41-506",
                "addr:city": "Chorz\u00f3w",
                "addr:street": "ul. Obro\u0144c\u00f3w Chorzowa",
                "addr:housenumber": "14",
                "addr:teryt:simc": 14612,
                "addr:teryt:sym_ul": 938887,
                "contact:phone": "+48 322462446",
                "contact:email": "dyrekcja@przedszkole1chorzow.pl",
                "ref:regon": "241784532",
                "ref:vatin": "PL6271175140",
                "operator": "Miasto Chorz\u00f3w - Miasto Na Prawach Powiatu",
                "operator:type": "government",
                "amenity": "kindergarten"
            }
        },
        {
            "id": 18791,
            "type": "Feature",
            "geometry": {
                "type": "Point",
                "coordinates": [
                    18.9334,
                    50.2671
                ]
            },
            "properties": {
                "ref:rspo": 18791,
                "official_name": "Przedszkole Nr 20",
                "name": "Przedszkole Nr 20",
                "addr:country": "PL",
                "addr:postcode": "41-506",
                "addr:city": "Chorz\u00f3w",
                "addr:street": "ul. ks. J\u00f3zefa Czempiela",
                "addr:housenumber": "49",
                "addr:teryt:simc": 3366,
                "addr:teryt:sym_ul": 938887,
                "contact:phone": "+48 322466361",
                "contact:email": "20przedszkole@gmail.com",
                "contact:website": "http:\/\/p20chorzow.edu.pl",
                "ref:regon": "241784970",
                "ref:vatin": "PL6271176429",
                "operator": "Miasto Chorz\u00f3w - Miasto Na Prawach Powiatu",
                "operator:type": "government",
                "amenity": "kindergarten"
            }
        },
        {
            "id": 15897,
            "type": "Feature",
            "geometry": {
                "type": "Point",
                "coordinates": [
                    18.94701,
                    50.26712
                ]
            },
            "properties": {
                "isced:level": "1;2",
                "ref:rspo": 15897,
                "official_name": "Szko\u0142a Podstawowa Nr 14",
                "name": "Szko\u0142a Podstawowa Nr 14",
                "addr:country": "PL",
                "addr:postcode": "41-506",
                "addr:city": "Chorz\u00f3w",
                "addr:street": "ul. Podmiejska",
                "addr:housenumber": "62",
                "addr:teryt:simc": 16816,
                "addr:teryt:sym_ul": 938887,
                "contact:phone": "+48 322462369",
                "contact:email": "chorzow.czternastka@interia.pl",
                "contact:website": "http:\/\/sp14chorzow.pl",
                "ref:regon": "000722064",
                "ref:vatin": "PL6271176984",
                "operator": "Miasto Chorz\u00f3w - Miasto Na Prawach Powiatu",
                "operator:type": "government",
                "amenity": "school"
            }
        },
        {
            "id": 43646,
            "type": "Feature",
            "geometry": {
                "type": "Point",
                "coordinates": [
                    18.93702,
                    50.26869
                ]
            },
            "properties": {
                "isced:level": "1;2",
                "ref:rspo": 43646,
                "official_name": "Spo\u0142eczna Szko\u0142a Podstawowa Stowarzyszenia \"Szko\u0142a Przysz\u0142o\u015bci\"",
                "name": "Spo\u0142eczna Szko\u0142a Podstawowa Stowarzyszenia \"Szko\u0142a Przysz\u0142o\u015bci\"",
                "addr:country": "PL",
                "addr:postcode": "41-506",
                "addr:city": "Chorz\u00f3w",
                "addr:street": "ul. Stefana Batorego",
                "addr:housenumber": "46",
                "addr:teryt:simc": 891,
                "addr:teryt:sym_ul": 938887,
                "contact:phone": "+48 322466214",
                "contact:email": "sekretariat@spoleczna.org",
                "contact:website": "http:\/\/spoleczna.org",
                "ref:regon": "243075656",
                "operator": "Stowarzyszenie \"Szko\u0142a Przysz\u0142o\u015bci\"",
                "operator:type": "ngo",
                "amenity": "school"
            }
        },
        {
            "id": 30292,
            "type": "Feature",
            "geometry": {
                "type": "Point",
                "coordinates": [
                    18.93814,
                    50.269
                ]
            },
            "properties": {
                "isced:level": "3",
                "ref:rspo": 30292,
                "official_name": "Technikum Mechaniczno-Elektryczne im. Nikoli Tesli",
                "name": "Technikum Mechaniczno-Elektryczne",
                "addr:country": "PL",
                "addr:postcode": "41-506",
                "addr:city": "Chorz\u00f3w",
                "addr:street": "ul. Stefana Batorego",
                "addr:housenumber": "37",
                "addr:teryt:simc": 891,
                "addr:teryt:sym_ul": 938887,
                "contact:phone": "+48 322465611",
                "contact:email": "zstio3@wp.pl",
                "contact:website": "http:\/\/zstio3.pl",
                "ref:regon": "272112550",
                "operator": "Miasto Chorz\u00f3w - Miasto Na Prawach Powiatu",
                "operator:type": "government",
                "amenity": "school"
            }
        },
        {
            "id": 275150,
            "type": "Feature",
            "geometry": {
                "type": "Point",
                "coordinates": [
                    18.93814,
                    50.268969999999996
                ]
            },
            "properties": {
                "isced:level": "3",
                "ref:rspo": 275150,
                "official_name": "Bran\u017cowa Szko\u0142a II Stopnia Prymus w Chorzowie",
                "name": "Bran\u017cowa Szko\u0142a II Stopnia Prymus w Chorzowie",
                "addr:country": "PL",
                "addr:postcode": "41-506",
                "addr:city": "Chorz\u00f3w",
                "addr:street": "ul. Stefana Batorego",
                "addr:housenumber": "37",
                "addr:teryt:simc": 891,
                "addr:teryt:sym_ul": 938887,
                "contact:phone": "+48 500428211",
                "contact:email": "chorzow@darmoweszkoly.pl",
                "contact:website": "http:\/\/www.darmoweszkoly.pl",
                "ref:regon": "386627091",
                "operator": "\"Prymus\" Centrum Kszta\u0142cenia Zawodowego I Ustawicznego Sp\u00f3\u0142ka Z Ograniczon\u0105 Odpowiedzialno\u015bci\u0105",
                "operator:type": "private",
                "amenity": "school"
            }
        },
        {
            "id": 196400,
            "type": "Feature",
            "geometry": {
                "type": "Point",
                "coordinates": [
                    18.93152,
                    50.26931
                ]
            },
            "properties": {
                "isced:level": "1;2",
                "ref:rspo": 196400,
                "official_name": "Szko\u0142a Podstawowa Nr 18 Z Oddzia\u0142ami Integracyjnymi",
                "name": "Szko\u0142a Podstawowa Nr 18 Z Oddzia\u0142ami Integracyjnymi",
                "addr:country": "PL",
                "addr:postcode": "41-506",
                "addr:city": "Chorz\u00f3w",
                "addr:street": "ul. ks. J\u00f3zefa Czempiela",
                "addr:housenumber": "52",
                "addr:teryt:simc": 3366,
                "addr:teryt:sym_ul": 938887,
                "contact:phone": "+48 322466226",
                "contact:email": "sekretariat@sp18.chorzow.pl",
                "contact:website": "http:\/\/sp18.chorzow.pl\/",
                "ref:regon": "367993672",
                "operator": "Miasto Chorz\u00f3w - Miasto Na Prawach Powiatu",
                "operator:type": "government",
                "amenity": "school"
            }
        },
        {
            "id": 56437,
            "type": "Feature",
            "geometry": {
                "type": "Point",
                "coordinates": [
                    18.93061,
                    50.27009
                ]
            },
            "properties": {
                "ref:rspo": 56437,
                "official_name": "Medyczne Centrum Szkoleniowe \"Remex\" Micha\u0142 Van Der Coghen",
                "name": "Medyczne Centrum Szkoleniowe \"Remex\" Micha\u0142 Van Der Coghen",
                "addr:country": "PL",
                "addr:postcode": "41-506",
                "addr:city": "Chorz\u00f3w",
                "addr:street": "ul. ks. bpa J\u00f3zefa Gawliny",
                "addr:housenumber": "66",
                "addr:teryt:simc": 54782,
                "addr:teryt:sym_ul": 938887,
                "contact:phone": "+48 603641139",
                "contact:email": "remex@vandercoghen.pl",
                "ref:regon": "243077000",
                "operator": "Micha\u0142 Van Der Coghen",
                "operator:type": "private",
                "fixme": "w zale\u017cno\u015bci od przedmiotu dzia\u0142alno\u015bci (np. amenity=training + training=*, amenity=dancing_school, amenity=language_school, amenity=music_school)"
            }
        },
        {
            "id": 25686,
            "type": "Feature",
            "geometry": {
                "type": "Point",
                "coordinates": [
                    18.9354799,
                    50.27323
                ]
            },
            "properties": {
                "ref:rspo": 25686,
                "official_name": "Przedszkole Nr 8",
                "name": "Przedszkole Nr 8",
                "addr:country": "PL",
                "addr:postcode": "41-506",
                "addr:city": "Chorz\u00f3w",
                "addr:street": "ul. Jana Kochanowskiego",
                "addr:housenumber": "18",
                "addr:teryt:simc": 8728,
                "addr:teryt:sym_ul": 938887,
                "contact:phone": "+48 322465091",
                "contact:email": "ossemka@poczta.fm",
                "contact:website": "https:\/\/przedszkolenr8chorzow.edupage.org\/",
                "ref:regon": "241796624",
                "ref:vatin": "PL6271175275",
                "operator": "Miasto Chorz\u00f3w - Miasto Na Prawach Powiatu",
                "operator:type": "government",
                "amenity": "kindergarten"
            }
        },
        {
            "id": 18734,
            "type": "Feature",
            "geometry": {
                "type": "Point",
                "coordinates": [
                    18.93339,
                    50.27378
                ]
            },
            "properties": {
                "ref:rspo": 18734,
                "official_name": "Przedszkole Nr 19",
                "name": "Przedszkole Nr 19",
                "addr:country": "PL",
                "addr:postcode": "41-506",
                "addr:city": "Chorz\u00f3w",
                "addr:street": "ul. Karpacka",
                "addr:housenumber": "15",
                "addr:teryt:simc": 8096,
                "addr:teryt:sym_ul": 938887,
                "contact:phone": "+48 322464162",
                "contact:email": "przedszkole19.chorzow@interia.pl",
                "contact:website": "http:\/\/www.przedszkole19chorzow.pl",
                "ref:regon": "241777331",
                "ref:vatin": "PL6271176381",
                "operator": "Miasto Chorz\u00f3w - Miasto Na Prawach Powiatu",
                "operator:type": "government",
                "amenity": "kindergarten"
            }
        },
        {
            "id": 30101,
            "type": "Feature",
            "geometry": {
                "type": "Point",
                "coordinates": [
                    18.936,
                    50.27413
                ]
            },
            "properties": {
                "isced:level": "3",
                "ref:rspo": 30101,
                "official_name": "Iii Liceum Og\u00f3lnokszta\u0142c\u0105ce im. Stefana Batorego",
                "name": "Iii Liceum Og\u00f3lnokszta\u0142c\u0105ce",
                "addr:country": "PL",
                "addr:postcode": "41-506",
                "addr:city": "Chorz\u00f3w",
                "addr:street": "ul. Farna",
                "addr:housenumber": "5-7",
                "addr:teryt:simc": 4907,
                "addr:teryt:sym_ul": 938887,
                "contact:phone": "+48 322468802",
                "contact:email": "sekretariat@3lo.edu.pl",
                "ref:regon": "000721691",
                "operator": "Miasto Chorz\u00f3w - Miasto Na Prawach Powiatu",
                "operator:type": "government",
                "amenity": "school"
            }
        },
        {
            "id": 29693,
            "type": "Feature",
            "geometry": {
                "type": "Point",
                "coordinates": [
                    18.94058,
                    50.27541
                ]
            },
            "properties": {
                "isced:level": "1;2",
                "ref:rspo": 29693,
                "official_name": "Szko\u0142a Podstawowa Nr 33 Specjalna im. Jana Brzechwy Z Oddzia\u0142ami Przyszpitalnymi",
                "name": "Szko\u0142a Podstawowa Nr 33 Specjalna",
                "addr:country": "PL",
                "addr:postcode": "41-506",
                "addr:city": "Chorz\u00f3w",
                "addr:street": "ul. Dyrekcyjna",
                "addr:housenumber": "3",
                "addr:teryt:simc": 4526,
                "addr:teryt:sym_ul": 938887,
                "contact:phone": "+48 322462612",
                "contact:email": "zs2chorzow@interia.pl",
                "ref:regon": "000721811",
                "ref:vatin": "PL6271722300",
                "operator": "Miasto Chorz\u00f3w - Miasto Na Prawach Powiatu",
                "operator:type": "government",
                "amenity": "school"
            }
        },
        {
            "id": 18350,
            "type": "Feature",
            "geometry": {
                "type": "Point",
                "coordinates": [
                    18.932,
                    50.2754199
                ]
            },
            "properties": {
                "isced:level": "1;2",
                "ref:rspo": 18350,
                "official_name": "Szko\u0142a Podstawowa Nr 32 im.ks.j.czempiela",
                "name": "Szko\u0142a Podstawowa Nr 32 im.ks.j.czempiela",
                "addr:country": "PL",
                "addr:postcode": "41-506",
                "addr:city": "Chorz\u00f3w",
                "addr:street": "ul. Kaliny",
                "addr:housenumber": "61",
                "addr:teryt:simc": 7816,
                "addr:teryt:sym_ul": 938887,
                "contact:phone": "+48 322465785",
                "contact:email": "sp32chorzow@o2.pl",
                "contact:website": "http:\/\/www.sp32.chorzow.info",
                "ref:regon": "000721805",
                "ref:vatin": "PL6271176493",
                "operator": "Miasto Chorz\u00f3w - Miasto Na Prawach Powiatu",
                "operator:type": "government",
                "amenity": "school"
            }
        },
        {
            "id": 18400,
            "type": "Feature",
            "geometry": {
                "type": "Point",
                "coordinates": [
                    18.93218,
                    50.27626
                ]
            },
            "properties": {
                "isced:level": "1;2",
                "ref:rspo": 18400,
                "official_name": "Szko\u0142a Podstawowa Nr 34 im. Sportowc\u00f3w Hajduckich",
                "name": "Szko\u0142a Podstawowa Nr 34",
                "addr:country": "PL",
                "addr:postcode": "41-506",
                "addr:city": "Chorz\u00f3w",
                "addr:street": "ul. Kaliny",
                "addr:housenumber": "55",
                "addr:teryt:simc": 7816,
                "addr:teryt:sym_ul": 938887,
                "contact:phone": "+48 322461804",
                "contact:email": "sp34@poczta.onet.pl",
                "contact:website": "http:\/\/www.sp34.chorzow.pl",
                "ref:regon": "000721828",
                "ref:vatin": "PL6271176441",
                "operator": "Miasto Chorz\u00f3w - Miasto Na Prawach Powiatu",
                "operator:type": "government",
                "amenity": "school"
            }
        },
        {
            "id": 18577,
            "type": "Feature",
            "geometry": {
                "type": "Point",
                "coordinates": [
                    18.95185,
                    50.27641
                ]
            },
            "properties": {
                "ref:rspo": 18577,
                "official_name": "Przedszkole Nr 4",
                "name": "Przedszkole Nr 4",
                "addr:country": "PL",
                "addr:postcode": "41-506",
                "addr:city": "Chorz\u00f3w",
                "addr:street": "ul. D\u0142uga",
                "addr:housenumber": "32A",
                "addr:teryt:simc": 3839,
                "addr:teryt:sym_ul": 938887,
                "contact:phone": "+48 322464632",
                "contact:email": "przedszkole4@vip.onet.pl",
                "contact:website": "http:\/\/www.p4chorzow.edupage.org",
                "ref:regon": "241775680",
                "ref:vatin": "PL6271175200",
                "operator": "Miasto Chorz\u00f3w - Miasto Na Prawach Powiatu",
                "operator:type": "government",
                "amenity": "kindergarten"
            }
        },
        {
            "id": 276615,
            "type": "Feature",
            "geometry": {
                "type": "Point",
                "coordinates": [
                    18.94758,
                    50.27747
                ]
            },
            "properties": {
                "ref:rspo": 276615,
                "official_name": "Niepubliczna Plac\u00f3wka Kszta\u0142cenia Ustawicznego Black Crown Solutions \u0141ukasz Wilczek",
                "name": "Niepubliczna Plac\u00f3wka Kszta\u0142cenia Ustawicznego Black Crown Solutions \u0141ukasz Wilczek",
                "addr:country": "PL",
                "addr:postcode": "41-506",
                "addr:city": "Chorz\u00f3w",
                "addr:street": "ul. Armii Krajowej",
                "addr:housenumber": "81",
                "addr:door": "12",
                "addr:teryt:simc": 432,
                "addr:teryt:sym_ul": 938887,
                "contact:phone": "+48 533500994",
                "contact:email": "administracja@bcs.org.pl",
                "ref:regon": "387287875",
                "operator": "\u0141ukasz Wilczek",
                "operator:type": "private",
                "fixme": "w zale\u017cno\u015bci od przedmiotu dzia\u0142alno\u015bci (np. amenity=training + training=*, amenity=dancing_school, amenity=language_school, amenity=music_school)"
            }
        },
        {
            "id": 18491,
            "type": "Feature",
            "geometry": {
                "type": "Point",
                "coordinates": [
                    18.94792,
                    50.27803
                ]
            },
            "properties": {
                "isced:level": "1;2",
                "ref:rspo": 18491,
                "official_name": "Szko\u0142a Podstawowa Nr 37 im.karola Grzesika",
                "name": "Szko\u0142a Podstawowa Nr 37 im.karola Grzesika",
                "addr:country": "PL",
                "addr:postcode": "41-500",
                "addr:city": "Chorz\u00f3w",
                "addr:street": "ul. Ratuszowa",
                "addr:housenumber": "20",
                "addr:teryt:simc": 18489,
                "addr:teryt:sym_ul": 938887,
                "contact:phone": "+48 322466610",
                "contact:email": "sp37chorzow@op.pl",
                "contact:website": "https:\/\/sp37chorzow.edupage.org\/",
                "ref:regon": "000721840",
                "ref:vatin": "PL6271176406",
                "operator": "Miasto Chorz\u00f3w - Miasto Na Prawach Powiatu",
                "operator:type": "government",
                "amenity": "school"
            }
        },
        {
            "id": 276612,
            "type": "Feature",
            "geometry": {
                "type": "Point",
                "coordinates": [
                    18.93709,
                    50.28013
                ]
            },
            "properties": {
                "ref:rspo": 276612,
                "official_name": "Centrum Szkole\u0144 Wysoko\u015bciowych Totem Sp.z O.o.sp.k.",
                "name": "Centrum Szkole\u0144 Wysoko\u015bciowych Totem Sp.z O.o.sp.k.",
                "addr:country": "PL",
                "addr:postcode": "41-506",
                "addr:city": "Chorz\u00f3w",
                "addr:street": "ul. Stalowa",
                "addr:housenumber": "17 budynek 65",
                "addr:teryt:simc": 20808,
                "addr:teryt:sym_ul": 938887,
                "contact:phone": "+48 795477705",
                "contact:email": "szkolenia@cswtotem.pl",
                "contact:website": "http:\/\/www.cswtotem.pl",
                "ref:regon": "387287668",
                "operator": "Csw Totem Sp\u00f3\u0142ka Z Ograniczon\u0105 Odpowiedzialno\u015bci\u0105 Sp\u00f3\u0142ka Komandytowa",
                "operator:type": "private",
                "fixme": "w zale\u017cno\u015bci od przedmiotu dzia\u0142alno\u015bci (np. amenity=training + training=*, amenity=dancing_school, amenity=language_school, amenity=music_school)"
            }
        },
        {
            "id": 279000,
            "type": "Feature",
            "geometry": {
                "type": "Point",
                "coordinates": [
                    18.93709,
                    50.2801
                ]
            },
            "properties": {
                "ref:rspo": 279000,
                "official_name": "Szkolgov Centrum Szkole\u0144 I Kompetencji",
                "name": "Szkolgov Centrum Szkole\u0144 I Kompetencji",
                "addr:country": "PL",
                "addr:postcode": "41-506",
                "addr:city": "Chorz\u00f3w",
                "addr:street": "ul. Stalowa",
                "addr:housenumber": "17",
                "addr:teryt:simc": 20808,
                "addr:teryt:sym_ul": 938887,
                "contact:phone": "+48 323076030",
                "contact:email": "biuro@szkolgov.pl",
                "contact:website": "http:\/\/www.szkolgov.pl",
                "ref:regon": "520376470",
                "operator": "Szkolgov Beata Czembor",
                "operator:type": "consortium",
                "fixme": "w zale\u017cno\u015bci od przedmiotu dzia\u0142alno\u015bci (np. amenity=training + training=*, amenity=dancing_school, amenity=language_school, amenity=music_school)"
            }
        },
        {
            "id": 28476,
            "type": "Feature",
            "geometry": {
                "type": "Point",
                "coordinates": [
                    18.9553699,
                    50.28028
                ]
            },
            "properties": {
                "ref:rspo": 28476,
                "official_name": "Zesp\u00f3\u0142 Szk\u00f3\u0142 Technicznych Nr 1 im. Wojciecha Korfantego",
                "name": "Zesp\u00f3\u0142 Szk\u00f3\u0142 Technicznych Nr 1",
                "addr:country": "PL",
                "addr:postcode": "41-506",
                "addr:city": "Chorz\u00f3w",
                "addr:street": "ul. Sportowa",
                "addr:housenumber": "23",
                "addr:teryt:simc": 20683,
                "addr:teryt:sym_ul": 938887,
                "contact:phone": "+48 322410216",
                "contact:email": "zst1ch@wp.pl",
                "contact:website": "http:\/\/www.zst1.edu.pl",
                "ref:regon": "000023886",
                "ref:vatin": "PL6271179422",
                "operator": "Miasto Chorz\u00f3w - Miasto Na Prawach Powiatu",
                "operator:type": "government",
                "landuse": "education",
                "fixme": "amenity=school, amenity=college albo landuse=education w zale\u017cno\u015bci od tego, jakie plac\u00f3wki wchodz\u0105 w sk\u0142ad zespo\u0142u. Sprawd\u017a, kiedy stosowa\u0107 amenity=* a kiedy landuse=education.",
                "note": "Children RSPO: 30742;30766;275628"
            }
        },
        {
            "id": 30742,
            "type": "Feature",
            "geometry": {
                "type": "Point",
                "coordinates": [
                    18.9553699,
                    50.280249999999995
                ]
            },
            "properties": {
                "isced:level": "3",
                "ref:rspo": 30742,
                "official_name": "Zesp\u00f3\u0142 Szk\u00f3\u0142 Technicznych Nr 1 im. Wojciecha Korfantego - Technikum Elektroniczne",
                "name": "Zesp\u00f3\u0142 Szk\u00f3\u0142 Technicznych Nr 1",
                "addr:country": "PL",
                "addr:postcode": "41-506",
                "addr:city": "Chorz\u00f3w",
                "addr:street": "ul. Sportowa",
                "addr:housenumber": "23",
                "addr:teryt:simc": 20683,
                "addr:teryt:sym_ul": 938887,
                "contact:phone": "+48 322410216",
                "contact:email": "zst1ch@wp.pl",
                "contact:website": "http:\/\/www.zst1.edu.pl",
                "ref:regon": "272234980",
                "operator": "Miasto Chorz\u00f3w - Miasto Na Prawach Powiatu",
                "operator:type": "government",
                "amenity": "school",
                "note": "Parent RSPO: 28476"
            }
        },
        {
            "id": 30766,
            "type": "Feature",
            "geometry": {
                "type": "Point",
                "coordinates": [
                    18.9553699,
                    50.28022
                ]
            },
            "properties": {
                "isced:level": "3",
                "ref:rspo": 30766,
                "official_name": "Zesp\u00f3\u0142 Szk\u00f3\u0142 Technicznych Nr 1 im. Wojciecha Korfantego - Bran\u017cowa Szko\u0142a I Stopnia Nr 1",
                "name": "Zesp\u00f3\u0142 Szk\u00f3\u0142 Technicznych Nr 1",
                "addr:country": "PL",
                "addr:postcode": "41-506",
                "addr:city": "Chorz\u00f3w",
                "addr:street": "ul. Sportowa",
                "addr:housenumber": "23",
                "addr:teryt:simc": 20683,
                "addr:teryt:sym_ul": 938887,
                "contact:phone": "+48 322412508",
                "contact:email": "zst1ch@wp.pl",
                "contact:website": "http:\/\/www.zst1.edu.pl",
                "ref:regon": "272234974",
                "operator": "Miasto Chorz\u00f3w - Miasto Na Prawach Powiatu",
                "operator:type": "government",
                "amenity": "school",
                "note": "Parent RSPO: 28476"
            }
        },
        {
            "id": 275628,
            "type": "Feature",
            "geometry": {
                "type": "Point",
                "coordinates": [
                    18.9553699,
                    50.28019
                ]
            },
            "properties": {
                "isced:level": "3",
                "ref:rspo": 275628,
                "official_name": "Zesp\u00f3\u0142 Szk\u00f3\u0142 Technicznych Nr1 im. Wojciecha Korfantego - Bran\u017cowa Szko\u0142a II Stopnia Nr 1",
                "name": "Zesp\u00f3\u0142 Szk\u00f3\u0142 Technicznych Nr1",
                "addr:country": "PL",
                "addr:postcode": "41-506",
                "addr:city": "Chorz\u00f3w",
                "addr:street": "ul. Sportowa",
                "addr:housenumber": "23",
                "addr:teryt:simc": 20683,
                "addr:teryt:sym_ul": 938887,
                "contact:phone": "+48 322410216",
                "contact:email": "zst1ch@wp.pl",
                "contact:website": "http:\/\/www.zst1.edu.pl",
                "ref:regon": "386929509",
                "operator": "Miasto Chorz\u00f3w - Miasto Na Prawach Powiatu",
                "operator:type": "government",
                "amenity": "school",
                "note": "Parent RSPO: 28476"
            }
        },
        {
            "id": 28487,
            "type": "Feature",
            "geometry": {
                "type": "Point",
                "coordinates": [
                    18.95089,
                    50.28061
                ]
            },
            "properties": {
                "ref:rspo": 28487,
                "official_name": "Poradnia Psychologiczno-Pedagogiczna",
                "name": "Poradnia Psychologiczno-Pedagogiczna",
                "addr:country": "PL",
                "addr:postcode": "41-506",
                "addr:city": "Chorz\u00f3w",
                "addr:street": "ul. Rac\u0142awicka",
                "addr:housenumber": "23",
                "addr:teryt:simc": 18273,
                "addr:teryt:sym_ul": 938887,
                "contact:phone": "+48 322415439",
                "contact:email": "ppp.chorzow@gmail.com",
                "contact:website": "http:\/\/www.ppp.chorzow.pl",
                "ref:regon": "000721751",
                "ref:vatin": "PL6272308927",
                "operator": "Miasto Chorz\u00f3w - Miasto Na Prawach Powiatu",
                "operator:type": "government",
                "healthcare": "counselling",
                "counselling_type": "education",
                "fixme": "w zale\u017cno\u015bci od przedmiotu dzia\u0142alno\u015bci (np. healthcare=counselling + counselling_type=education albo healthcare=psychotherapist)"
            }
        },
        {
            "id": 23213,
            "type": "Feature",
            "geometry": {
                "type": "Point",
                "coordinates": [
                    18.95968,
                    50.28147
                ]
            },
            "properties": {
                "ref:rspo": 23213,
                "official_name": "Przedszkole Nr 6",
                "name": "Przedszkole Nr 6",
                "addr:country": "PL",
                "addr:postcode": "41-500",
                "addr:city": "Chorz\u00f3w",
                "addr:street": "ul. ks. Jana Ga\u0142eczki",
                "addr:housenumber": "56",
                "addr:teryt:simc": 29890,
                "addr:teryt:sym_ul": 938887,
                "contact:phone": "+48 798012450",
                "contact:email": "przedszkole6chorzow@vp.pl",
                "contact:website": "http:\/\/www.p6chorzow.edupage.org",
                "ref:regon": "241804967",
                "ref:vatin": "PL6271175223",
                "operator": "Miasto Chorz\u00f3w - Miasto Na Prawach Powiatu",
                "operator:type": "government",
                "amenity": "kindergarten"
            }
        },
        {
            "id": 196388,
            "type": "Feature",
            "geometry": {
                "type": "Point",
                "coordinates": [
                    18.95264,
                    50.2822699
                ]
            },
            "properties": {
                "isced:level": "1;2",
                "ref:rspo": 196388,
                "official_name": "Szko\u0142a Podstawowa Nr 2 im.jana Paw\u0142a Ii",
                "name": "Szko\u0142a Podstawowa Nr 2 im.jana Paw\u0142a Ii",
                "addr:country": "PL",
                "addr:postcode": "41-500",
                "addr:city": "Chorz\u00f3w",
                "addr:street": "ul. Sportowa",
                "addr:housenumber": "4",
                "addr:teryt:simc": 20683,
                "addr:teryt:sym_ul": 938887,
                "contact:phone": "+48 322411653",
                "contact:email": "spnr2chorzow@gmail.com",
                "ref:regon": "367991532",
                "operator": "Miasto Chorz\u00f3w - Miasto Na Prawach Powiatu",
                "operator:type": "government",
                "amenity": "school"
            }
        },
        {
            "id": 18669,
            "type": "Feature",
            "geometry": {
                "type": "Point",
                "coordinates": [
                    18.9469,
                    50.28457
                ]
            },
            "properties": {
                "ref:rspo": 18669,
                "official_name": "Przedszkole Nr 11",
                "name": "Przedszkole Nr 11",
                "addr:country": "PL",
                "addr:postcode": "41-500",
                "addr:city": "Chorz\u00f3w",
                "addr:street": "ul. Czysta",
                "addr:housenumber": "12",
                "addr:teryt:simc": 3513,
                "addr:teryt:sym_ul": 938887,
                "contact:phone": "+48 322473476",
                "contact:email": "kontakt@p11chorzow.edu.pl",
                "contact:website": "http:\/\/p11.chorzow.edu.pl",
                "ref:regon": "241784822",
                "ref:vatin": "PL6271175542",
                "operator": "Miasto Chorz\u00f3w - Miasto Na Prawach Powiatu",
                "operator:type": "government",
                "amenity": "kindergarten"
            }
        },
        {
            "id": 127586,
            "type": "Feature",
            "geometry": {
                "type": "Point",
                "coordinates": [
                    18.94278,
                    50.2849999
                ]
            },
            "properties": {
                "ref:rspo": 127586,
                "official_name": "Niepubliczny Punkt Przedszkolny \"Niebieski Zak\u0105tek\"",
                "name": "Niepubliczny Punkt Przedszkolny \"Niebieski Zak\u0105tek\"",
                "addr:country": "PL",
                "addr:postcode": "41-506",
                "addr:city": "Chorz\u00f3w",
                "addr:street": "ul. Weso\u0142a",
                "addr:housenumber": "24",
                "addr:teryt:simc": 23884,
                "addr:teryt:sym_ul": 938887,
                "contact:phone": "+48 509820438",
                "contact:email": "dyrektor@niebieskizakatek.pl",
                "contact:website": "http:\/\/www.niebieskizakatek.pl",
                "ref:regon": "361735420",
                "operator": "Neurons&Future Sp\u00f3\u0142ka Z Ograniczon\u0105 Odpowiedzialno\u015bci\u0105",
                "operator:type": "private",
                "amenity": "kindergarten"
            }
        },
        {
            "id": 43645,
            "type": "Feature",
            "geometry": {
                "type": "Point",
                "coordinates": [
                    18.94738,
                    50.28504
                ]
            },
            "properties": {
                "ref:rspo": 43645,
                "official_name": "Polskie Stowarzyszenie Na Rzecz Os\u00f3b Z Niepe\u0142nosprawno\u015bci\u0105 Intelektualn\u0105 Ko\u0142o w Chorzowie O\u015brodek Rehabilitacyjno-Edukacyjno-Wychowawczy",
                "name": "Polskie Stowarzyszenie Na Rzecz Os\u00f3b Z Niepe\u0142nosprawno\u015bci\u0105 Intelektualn\u0105 Ko\u0142o w Chorzowie O\u015brodek Rehabilitacyjno-Edukacyjno-Wychowawczy",
                "addr:country": "PL",
                "addr:postcode": "41-500",
                "addr:city": "Chorz\u00f3w",
                "addr:street": "ul. Czysta",
                "addr:housenumber": "7",
                "addr:teryt:simc": 3513,
                "addr:teryt:sym_ul": 938887,
                "contact:phone": "+48 322461162",
                "contact:email": "orewchorzow@wp.pl",
                "contact:website": "http:\/\/www.psonichorzow.pl",
                "ref:regon": "243073491",
                "operator": "Polskie Stowarzyszenie Na Rzecz Os\u00f3b Z Niepe\u0142nosprawno\u015bci\u0105 Intelektualn\u0105 Ko\u0142o W Chorzowie",
                "operator:type": "ngo",
                "amenity": "school"
            }
        },
        {
            "id": 56438,
            "type": "Feature",
            "geometry": {
                "type": "Point",
                "coordinates": [
                    18.95812,
                    50.28556
                ]
            },
            "properties": {
                "ref:rspo": 56438,
                "official_name": "O\u015brodek Szkoleniowo-Us\u0142ugowo-Doradczy Ewelina Popczyk",
                "name": "O\u015brodek Szkoleniowo-Us\u0142ugowo-Doradczy Ewelina Popczyk",
                "addr:country": "PL",
                "addr:postcode": "41-500",
                "addr:city": "Chorz\u00f3w",
                "addr:street": "ul. ks. Jana Ga\u0142eczki",
                "addr:housenumber": "36",
                "addr:teryt:simc": 29890,
                "addr:teryt:sym_ul": 938887,
                "contact:phone": "+48 506181680",
                "contact:email": "ekosmetyka@vp.pl",
                "ref:regon": "243076986",
                "operator": "Ewelina Popczyk",
                "operator:type": "private",
                "fixme": "w zale\u017cno\u015bci od przedmiotu dzia\u0142alno\u015bci (np. amenity=training + training=*, amenity=dancing_school, amenity=language_school, amenity=music_school)"
            }
        },
        {
            "id": 18807,
            "type": "Feature",
            "geometry": {
                "type": "Point",
                "coordinates": [
                    18.95577,
                    50.28577
                ]
            },
            "properties": {
                "ref:rspo": 18807,
                "official_name": "Przedszkole Nr 21",
                "name": "Przedszkole Nr 21",
                "addr:country": "PL",
                "addr:postcode": "41-500",
                "addr:city": "Chorz\u00f3w",
                "addr:street": "ul. J\u00f3zefa Ryszki",
                "addr:housenumber": "33",
                "addr:teryt:simc": 19303,
                "addr:teryt:sym_ul": 938887,
                "contact:phone": "+48 322410860",
                "contact:email": "przedszkole21@onet.eu",
                "contact:website": "http:\/\/www.przedszkole21chorzow.edupage.org",
                "ref:regon": "241784816",
                "ref:vatin": "PL6271176470",
                "operator": "Miasto Chorz\u00f3w - Miasto Na Prawach Powiatu",
                "operator:type": "government",
                "amenity": "kindergarten"
            }
        },
        {
            "id": 29301,
            "type": "Feature",
            "geometry": {
                "type": "Point",
                "coordinates": [
                    18.93814,
                    50.28585
                ]
            },
            "properties": {
                "isced:level": "1;2",
                "ref:rspo": 29301,
                "official_name": "Szko\u0142a Podstawowa Nr 21 im. Gerarda Cie\u015blika",
                "name": "Szko\u0142a Podstawowa Nr 21",
                "addr:country": "PL",
                "addr:postcode": "41-500",
                "addr:city": "Chorz\u00f3w",
                "addr:street": "ul. Wolno\u015bci",
                "addr:housenumber": "133",
                "addr:teryt:simc": 24687,
                "addr:teryt:sym_ul": 938887,
                "contact:phone": "+48 322412355",
                "contact:email": "sp21chorzow@gmail.com",
                "contact:website": "https:\/\/sp21.edupage.org",
                "ref:regon": "000721923",
                "ref:vatin": "PL6271176665",
                "operator": "Miasto Chorz\u00f3w - Miasto Na Prawach Powiatu",
                "operator:type": "government",
                "amenity": "school"
            }
        },
        {
            "id": 29189,
            "type": "Feature",
            "geometry": {
                "type": "Point",
                "coordinates": [
                    18.9531767,
                    50.2860868
                ]
            },
            "properties": {
                "isced:level": "1;2",
                "ref:rspo": 29189,
                "official_name": "Szko\u0142a Podstawowa Nr 5 Z Oddzia\u0142ami Sportowymi im. Janusza Kusoci\u0144skiego",
                "name": "Szko\u0142a Podstawowa Nr 5 Z Oddzia\u0142ami Sportowymi",
                "addr:country": "PL",
                "addr:postcode": "41-516",
                "addr:city": "Chorz\u00f3w",
                "addr:street": "ul. J\u00f3zefa Ryszki",
                "addr:housenumber": "55",
                "addr:teryt:simc": 19303,
                "addr:teryt:sym_ul": 938887,
                "contact:phone": "+48 322419910",
                "contact:email": "sp5@sp5.chorzow.pl",
                "contact:website": "https:\/\/sp5.chorzow.pl\/nowastrona\/index.php",
                "ref:regon": "001327312",
                "ref:vatin": "PL6271058687",
                "operator": "Miasto Chorz\u00f3w - Miasto Na Prawach Powiatu",
                "operator:type": "government",
                "amenity": "school"
            }
        },
        {
            "id": 18563,
            "type": "Feature",
            "geometry": {
                "type": "Point",
                "coordinates": [
                    18.93824,
                    50.28761
                ]
            },
            "properties": {
                "ref:rspo": 18563,
                "official_name": "Przedszkole Nr 3",
                "name": "Przedszkole Nr 3",
                "addr:country": "PL",
                "addr:postcode": "41-500",
                "addr:city": "Chorz\u00f3w",
                "addr:street": "ul. Cieszy\u0144ska",
                "addr:housenumber": "21",
                "addr:teryt:simc": 3061,
                "addr:teryt:sym_ul": 938887,
                "contact:phone": "+48 322414413",
                "contact:email": "bobasy3@interia.pl",
                "contact:website": "http:\/\/przedszkole3chorzow.net",
                "ref:regon": "241784526",
                "ref:vatin": "PL6271175192",
                "operator": "Miasto Chorz\u00f3w - Miasto Na Prawach Powiatu",
                "operator:type": "government",
                "amenity": "kindergarten"
            }
        },
        {
            "id": 26336,
            "type": "Feature",
            "geometry": {
                "type": "Point",
                "coordinates": [
                    18.94433,
                    50.28817
                ]
            },
            "properties": {
                "ref:rspo": 26336,
                "official_name": "Przedszkole Nr 9",
                "name": "Przedszkole Nr 9",
                "addr:country": "PL",
                "addr:postcode": "41-500",
                "addr:city": "Chorz\u00f3w",
                "addr:street": "ul. Janiny Oma\u0144kowskiej",
                "addr:housenumber": "9",
                "addr:teryt:simc": 15042,
                "addr:teryt:sym_ul": 938887,
                "contact:phone": "+48 322411772",
                "contact:email": "sekretariat@pnr9.pl",
                "ref:regon": "241795895",
                "ref:vatin": "PL6271175306",
                "operator": "Miasto Chorz\u00f3w - Miasto Na Prawach Powiatu",
                "operator:type": "government",
                "amenity": "kindergarten"
            }
        },
        {
            "id": 43546,
            "type": "Feature",
            "geometry": {
                "type": "Point",
                "coordinates": [
                    18.94652,
                    50.28899
                ]
            },
            "properties": {
                "ref:rspo": 43546,
                "official_name": "Specjalny O\u015brodek Szkolno-Wychowawczy dla M\u0142odziezy Niewidomej I S\u0142abowidz\u0105cej",
                "name": "Specjalny O\u015brodek Szkolno-Wychowawczy dla M\u0142odziezy Niewidomej I S\u0142abowidz\u0105cej",
                "addr:country": "PL",
                "addr:postcode": "41-500",
                "addr:city": "Chorz\u00f3w",
                "addr:street": "ul. Hajducka",
                "addr:housenumber": "22",
                "addr:teryt:simc": 6457,
                "addr:teryt:sym_ul": 938887,
                "contact:phone": "+48 322414962",
                "contact:email": "sekretariat@soswchorzow.pl",
                "contact:website": "http:\/\/www.slask.pl",
                "ref:regon": "243074094",
                "ref:vatin": "PL6272425544",
                "operator": "Polski Zwi\u0105zek Niewidomych Okr\u0119g \u015al\u0105ski",
                "operator:type": "ngo",
                "amenity": "school",
                "note": "Children RSPO: 82407;82408;82409;262316;275405"
            }
        },
        {
            "id": 82407,
            "type": "Feature",
            "geometry": {
                "type": "Point",
                "coordinates": [
                    18.94652,
                    50.288959999999996
                ]
            },
            "properties": {
                "isced:level": "3",
                "ref:rspo": 82407,
                "official_name": "Bran\u017cowa Szko\u0142a I Stopnia dla M\u0142odzie\u017cy Niewidomej I S\u0142abowidz\u0105cej Przy Specjalnym O\u015brodku Szkolno-Wychowawczym",
                "name": "Bran\u017cowa Szko\u0142a I Stopnia dla M\u0142odzie\u017cy Niewidomej I S\u0142abowidz\u0105cej Przy Specjalnym O\u015brodku Szkolno-Wychowawczym",
                "addr:country": "PL",
                "addr:postcode": "41-500",
                "addr:city": "Chorz\u00f3w",
                "addr:street": "ul. Hajducka",
                "addr:housenumber": "22",
                "addr:teryt:simc": 6457,
                "addr:teryt:sym_ul": 938887,
                "contact:phone": "+48 322414962",
                "contact:email": "sekretariat@soswchorzow.pl",
                "contact:website": "https:\/\/sosw.slask.pl\/",
                "ref:regon": "243096813",
                "operator": "Polski Zwi\u0105zek Niewidomych Okr\u0119g \u015al\u0105ski",
                "operator:type": "ngo",
                "amenity": "school",
                "note": "Parent RSPO: 43546"
            }
        },
        {
            "id": 82408,
            "type": "Feature",
            "geometry": {
                "type": "Point",
                "coordinates": [
                    18.94652,
                    50.28893
                ]
            },
            "properties": {
                "isced:level": "3",
                "ref:rspo": 82408,
                "official_name": "Technikum Administracyjne dla M\u0142odzie\u017cy Niewidomej I S\u0142abowidz\u0105cej Przy Specjalnym O\u015brodku Szkolno-Wychowawczym",
                "name": "Technikum Administracyjne dla M\u0142odzie\u017cy Niewidomej I S\u0142abowidz\u0105cej Przy Specjalnym O\u015brodku Szkolno-Wychowawczym",
                "addr:country": "PL",
                "addr:postcode": "41-500",
                "addr:city": "Chorz\u00f3w",
                "addr:street": "ul. Hajducka",
                "addr:housenumber": "22",
                "addr:teryt:simc": 6457,
                "addr:teryt:sym_ul": 938887,
                "contact:phone": "+48 322414962",
                "contact:email": "sekretariat@soswchorzow.pl",
                "contact:website": "https:\/\/sosw.slask.pl",
                "ref:regon": "243096799",
                "operator": "Polski Zwi\u0105zek Niewidomych Okr\u0119g \u015al\u0105ski",
                "operator:type": "ngo",
                "amenity": "school",
                "note": "Parent RSPO: 43546"
            }
        },
        {
            "id": 82409,
            "type": "Feature",
            "geometry": {
                "type": "Point",
                "coordinates": [
                    18.94652,
                    50.2889
                ]
            },
            "properties": {
                "isced:level": "3",
                "ref:rspo": 82409,
                "official_name": "Technikum Masa\u017cu I Fizykoterapii dla M\u0142odzie\u017cy Niewidomej I S\u0142abowidz\u0105cej Przy Specjalnym O\u015brodku Szkolno-Wychowawczym",
                "name": "Technikum Masa\u017cu I Fizykoterapii dla M\u0142odzie\u017cy Niewidomej I S\u0142abowidz\u0105cej Przy Specjalnym O\u015brodku Szkolno-Wychowawczym",
                "addr:country": "PL",
                "addr:postcode": "41-500",
                "addr:city": "Chorz\u00f3w",
                "addr:street": "ul. Hajducka",
                "addr:housenumber": "22",
                "addr:teryt:simc": 6457,
                "addr:teryt:sym_ul": 938887,
                "contact:phone": "+48 322414962",
                "contact:email": "sekretariat@soswchorzow.pl",
                "contact:website": "https:\/\/sosw.slask.pl\/",
                "ref:regon": "243096115",
                "operator": "Polski Zwi\u0105zek Niewidomych Okr\u0119g \u015al\u0105ski",
                "operator:type": "ngo",
                "amenity": "school",
                "note": "Parent RSPO: 43546"
            }
        },
        {
            "id": 262316,
            "type": "Feature",
            "geometry": {
                "type": "Point",
                "coordinates": [
                    18.94652,
                    50.288869999999996
                ]
            },
            "properties": {
                "isced:level": "1;2",
                "ref:rspo": 262316,
                "official_name": "Szko\u0142a Podstawowa Specjalna dla M\u0142odzie\u017cy Niewidomej I S\u0142abowidz\u0105cej Przy Specjalnym O\u015brodku Szkolno-Wychowawczym dla M\u0142odzie\u017cy Niewidomej I S\u0142abowidz\u0105cej",
                "name": "Szko\u0142a Podstawowa Specjalna dla M\u0142odzie\u017cy Niewidomej I S\u0142abowidz\u0105cej Przy Specjalnym O\u015brodku Szkolno-Wychowawczym dla M\u0142odzie\u017cy Niewidomej I S\u0142abowidz\u0105cej",
                "addr:country": "PL",
                "addr:postcode": "41-500",
                "addr:city": "Chorz\u00f3w",
                "addr:street": "ul. Hajducka",
                "addr:housenumber": "22",
                "addr:teryt:simc": 6457,
                "addr:teryt:sym_ul": 938887,
                "contact:phone": "+48 322414962",
                "contact:email": "sekretariat@soswchorzow.pl",
                "contact:website": "https:\/\/sosw.slask.pl\/",
                "ref:regon": "367993407",
                "operator": "Polski Zwi\u0105zek Niewidomych Okr\u0119g \u015al\u0105ski",
                "operator:type": "ngo",
                "amenity": "school",
                "note": "Parent RSPO: 43546"
            }
        },
        {
            "id": 275405,
            "type": "Feature",
            "geometry": {
                "type": "Point",
                "coordinates": [
                    18.94652,
                    50.28884
                ]
            },
            "properties": {
                "isced:level": "3",
                "ref:rspo": 275405,
                "official_name": "Bran\u017cowa Szko\u0142a II Stopnia dla M\u0142odzie\u017cy Niewidomej I S\u0142abowidz\u0105cej Przy Specjalnym O\u015brodku Szklono-Wychowawczym dla M\u0142odzie\u017cy Niewidomej I S\u0142abowidz\u0105cej w Chorzowie",
                "name": "Bran\u017cowa Szko\u0142a II Stopnia dla M\u0142odzie\u017cy Niewidomej I S\u0142abowidz\u0105cej Przy Specjalnym O\u015brodku Szklono-Wychowawczym dla M\u0142odzie\u017cy Niewidomej I S\u0142abowidz\u0105cej w Chorzowie",
                "addr:country": "PL",
                "addr:postcode": "41-500",
                "addr:city": "Chorz\u00f3w",
                "addr:street": "ul. Hajducka",
                "addr:housenumber": "22",
                "addr:teryt:simc": 6457,
                "addr:teryt:sym_ul": 938887,
                "contact:phone": "+48 322414962",
                "contact:email": "sekretariat@soswchorzow.pl",
                "contact:website": "http:\/\/www.sosw.slask.pl",
                "ref:regon": "386915401",
                "operator": "Polski Zwi\u0105zek Niewidomych Okr\u0119g \u015al\u0105ski",
                "operator:type": "ngo",
                "amenity": "school",
                "note": "Parent RSPO: 43546"
            }
        },
        {
            "id": 196399,
            "type": "Feature",
            "geometry": {
                "type": "Point",
                "coordinates": [
                    18.95061,
                    50.28948
                ]
            },
            "properties": {
                "isced:level": "1;2",
                "ref:rspo": 196399,
                "official_name": "Szko\u0142a Podstawowa Nr 10 im.jana Kochanowskiego",
                "name": "Szko\u0142a Podstawowa Nr 10 im.jana Kochanowskiego",
                "addr:country": "PL",
                "addr:postcode": "41-500",
                "addr:city": "Chorz\u00f3w",
                "addr:street": "ul. Ludwika Urbanowicza",
                "addr:housenumber": "4",
                "addr:teryt:simc": 23395,
                "addr:teryt:sym_ul": 938887,
                "contact:phone": "+48 322416734",
                "contact:email": "sekretariat@sp10.pl",
                "ref:regon": "367993749",
                "operator": "Miasto Chorz\u00f3w - Miasto Na Prawach Powiatu",
                "operator:type": "government",
                "amenity": "school"
            }
        },
        {
            "id": 18717,
            "type": "Feature",
            "geometry": {
                "type": "Point",
                "coordinates": [
                    18.95946,
                    50.28969
                ]
            },
            "properties": {
                "ref:rspo": 18717,
                "official_name": "Przedszkole Nr 18",
                "name": "Przedszkole Nr 18",
                "addr:country": "PL",
                "addr:postcode": "41-500",
                "addr:city": "Chorz\u00f3w",
                "addr:street": "ul. ks. Jana Ga\u0142eczki",
                "addr:housenumber": "17",
                "addr:teryt:simc": 29890,
                "addr:teryt:sym_ul": 938887,
                "contact:phone": "+48 322413960",
                "contact:email": "przedszkole18chorzow@wp.pl",
                "contact:website": "http:\/\/przedszkole18chorzow.pl",
                "ref:regon": "241784800",
                "ref:vatin": "PL6271176300",
                "operator": "Miasto Chorz\u00f3w - Miasto Na Prawach Powiatu",
                "operator:type": "government",
                "amenity": "kindergarten"
            }
        },
        {
            "id": 61366,
            "type": "Feature",
            "geometry": {
                "type": "Point",
                "coordinates": [
                    18.94739,
                    50.2897
                ]
            },
            "properties": {
                "ref:rspo": 61366,
                "official_name": "Zak\u0142ad Doskonalenia Zawodowego w Katowicach - Centrum Kszta\u0142cenia Zawodowego w Chorzowie",
                "name": "Zak\u0142ad Doskonalenia Zawodowego w Katowicach - Centrum Kszta\u0142cenia Zawodowego w Chorzowie",
                "addr:country": "PL",
                "addr:postcode": "41-500",
                "addr:city": "Chorz\u00f3w",
                "addr:street": "ul. Hajducka",
                "addr:housenumber": "21",
                "addr:teryt:simc": 6457,
                "addr:teryt:sym_ul": 938887,
                "contact:phone": "+48 322412514",
                "contact:email": "chorzow@zdz.katowice.pl",
                "ref:regon": "243079677",
                "operator": "Zak\u0142ad Doskonalenia Zawodowego W Katowicach",
                "operator:type": "ngo",
                "fixme": "w zale\u017cno\u015bci od przedmiotu dzia\u0142alno\u015bci (np. amenity=training + training=*, amenity=dancing_school, amenity=language_school, amenity=music_school)"
            }
        },
        {
            "id": 39608,
            "type": "Feature",
            "geometry": {
                "type": "Point",
                "coordinates": [
                    18.94596,
                    50.2901
                ]
            },
            "properties": {
                "ref:rspo": 39608,
                "official_name": "Przedszkole Niepubliczne \"Weso\u0142e Pszcz\u00f3\u0142ki\"",
                "name": "Przedszkole Niepubliczne \"Weso\u0142e Pszcz\u00f3\u0142ki\"",
                "addr:country": "PL",
                "addr:postcode": "41-500",
                "addr:city": "Chorz\u00f3w",
                "addr:street": "ul. Hajducka",
                "addr:housenumber": "12",
                "addr:teryt:simc": 6457,
                "addr:teryt:sym_ul": 938887,
                "contact:phone": "+48 794794434",
                "contact:email": "przedszkole.chorzow@gmail.com",
                "contact:website": "http:\/\/www.wesolepszczolki.pl",
                "ref:regon": "243072356",
                "operator": "Beata Wr\u00f3blewska",
                "operator:type": "private",
                "amenity": "kindergarten"
            }
        },
        {
            "id": 131762,
            "type": "Feature",
            "geometry": {
                "type": "Point",
                "coordinates": [
                    18.96251,
                    50.29016
                ]
            },
            "properties": {
                "ref:rspo": 131762,
                "official_name": "Niepubliczne Przedszkole \"\u015awiat Dzieci\"",
                "name": "Niepubliczne Przedszkole \"\u015awiat Dzieci\"",
                "addr:country": "PL",
                "addr:postcode": "41-500",
                "addr:city": "Chorz\u00f3w",
                "addr:street": "ul. M\u0142odzie\u017cowa",
                "addr:housenumber": "31",
                "addr:door": "3",
                "addr:teryt:simc": 13096,
                "addr:teryt:sym_ul": 938887,
                "contact:phone": "+48 577701621",
                "contact:email": "swiatdzieci@interia.pl",
                "ref:regon": "365341400",
                "operator": "Marlena Kwasinska",
                "operator:type": "private",
                "amenity": "kindergarten"
            }
        },
        {
            "id": 131591,
            "type": "Feature",
            "geometry": {
                "type": "Point",
                "coordinates": [
                    18.95167,
                    50.29026
                ]
            },
            "properties": {
                "ref:rspo": 131591,
                "official_name": "Centrum Kszta\u0142cenia Zawodowego I Ustawicznego w Chorzowie",
                "name": "Centrum Kszta\u0142cenia Zawodowego I Ustawicznego w Chorzowie",
                "addr:country": "PL",
                "addr:postcode": "41-500",
                "addr:city": "Chorz\u00f3w",
                "addr:street": "ul. Ludwika Urbanowicza",
                "addr:housenumber": "2",
                "addr:teryt:simc": 23395,
                "addr:teryt:sym_ul": 938887,
                "contact:phone": "+48 322411723",
                "contact:email": "zse@adres.pl",
                "contact:website": "http:\/\/ckziu-chorzow.pl",
                "ref:regon": "365315206",
                "operator": "Miasto Chorz\u00f3w - Miasto Na Prawach Powiatu",
                "operator:type": "government",
                "landuse": "education",
                "fixme": "amenity=school, amenity=college albo landuse=education w zale\u017cno\u015bci od tego, jakie plac\u00f3wki wchodz\u0105 w sk\u0142ad zespo\u0142u. Sprawd\u017a, kiedy stosowa\u0107 amenity=* a kiedy landuse=education.",
                "note": "Children RSPO: 28508;34362"
            }
        },
        {
            "id": 105425,
            "type": "Feature",
            "geometry": {
                "type": "Point",
                "coordinates": [
                    18.95167,
                    50.29023
                ]
            },
            "properties": {
                "isced:level": "3",
                "ref:rspo": 105425,
                "official_name": "Centrum Kszta\u0142cenia Ustawicznego Ekonomist\u00f3w im.L.krzywickiego - Liceum Og\u00f3lnokszta\u0142c\u0105ce dla Doros\u0142ych",
                "name": "Centrum Kszta\u0142cenia Ustawicznego Ekonomist\u00f3w im.L.krzywickiego - Liceum Og\u00f3lnokszta\u0142c\u0105ce dla Doros\u0142ych",
                "addr:country": "PL",
                "addr:postcode": "41-500",
                "addr:city": "Chorz\u00f3w",
                "addr:street": "ul. Ludwika Urbanowicza",
                "addr:housenumber": "2",
                "addr:teryt:simc": 23395,
                "addr:teryt:sym_ul": 938887,
                "contact:phone": "+48 322411737",
                "contact:email": "sekretariatckue@gmail.com",
                "ref:regon": "277614121",
                "operator": "Miasto Chorz\u00f3w - Miasto Na Prawach Powiatu",
                "operator:type": "government",
                "amenity": "school",
                "note": "Parent RSPO: 28508"
            }
        },
        {
            "id": 106293,
            "type": "Feature",
            "geometry": {
                "type": "Point",
                "coordinates": [
                    18.95167,
                    50.290200000000006
                ]
            },
            "properties": {
                "isced:level": "4",
                "ref:rspo": 106293,
                "official_name": "Centrum Kszta\u0142cenia Ustawicznego Ekonomist\u00f3w im. Ludwika Krzywickiego -Szko\u0142a Policealna Nr 1",
                "name": "Centrum Kszta\u0142cenia Ustawicznego Ekonomist\u00f3w",
                "addr:country": "PL",
                "addr:postcode": "41-500",
                "addr:city": "Chorz\u00f3w",
                "addr:street": "ul. Ludwika Urbanowicza",
                "addr:housenumber": "2",
                "addr:teryt:simc": 23395,
                "addr:teryt:sym_ul": 938887,
                "contact:phone": "+48 322411737",
                "contact:email": "sekretariatckue@gmail.com",
                "ref:regon": "272112484",
                "operator": "Miasto Chorz\u00f3w - Miasto Na Prawach Powiatu",
                "operator:type": "government",
                "amenity": "college",
                "note": "Parent RSPO: 28508"
            }
        },
        {
            "id": 28508,
            "type": "Feature",
            "geometry": {
                "type": "Point",
                "coordinates": [
                    18.95167,
                    50.29017
                ]
            },
            "properties": {
                "ref:rspo": 28508,
                "official_name": "Centrum Kszta\u0142cenia Ustawicznego Ekonomist\u00f3w im. Ludwika Krzywickiego",
                "name": "Centrum Kszta\u0142cenia Ustawicznego Ekonomist\u00f3w",
                "addr:country": "PL",
                "addr:postcode": "41-500",
                "addr:city": "Chorz\u00f3w",
                "addr:street": "ul. Ludwika Urbanowicza",
                "addr:housenumber": "2",
                "addr:teryt:simc": 23395,
                "addr:teryt:sym_ul": 938887,
                "contact:phone": "+48 322411737",
                "contact:email": "ckuechorzow@cku.bmj.net.pl",
                "ref:regon": "000185229",
                "ref:vatin": "PL6271722174",
                "operator": "Miasto Chorz\u00f3w - Miasto Na Prawach Powiatu",
                "operator:type": "government",
                "amenity": "school",
                "fixme": "amenity=school lub amenity=college",
                "note": "Children RSPO: 105425;106293Parent RSPO: 131591"
            }
        },
        {
            "id": 34362,
            "type": "Feature",
            "geometry": {
                "type": "Point",
                "coordinates": [
                    18.95167,
                    50.29014
                ]
            },
            "properties": {
                "isced:level": "3",
                "ref:rspo": 34362,
                "official_name": "Technikum Ekonomiczne",
                "name": "Technikum Ekonomiczne",
                "addr:country": "PL",
                "addr:postcode": "41-500",
                "addr:city": "Chorz\u00f3w",
                "addr:street": "ul. Ludwika Urbanowicza",
                "addr:housenumber": "2",
                "addr:teryt:simc": 23395,
                "addr:teryt:sym_ul": 938887,
                "contact:phone": "+48 322411723",
                "contact:email": "zse@adres.pl",
                "contact:website": "http:\/\/ckziu-chorzow.pl",
                "ref:regon": "278047730",
                "operator": "Miasto Chorz\u00f3w - Miasto Na Prawach Powiatu",
                "operator:type": "government",
                "amenity": "school",
                "note": "Parent RSPO: 131591"
            }
        },
        {
            "id": 27727,
            "type": "Feature",
            "geometry": {
                "type": "Point",
                "coordinates": [
                    18.94769,
                    50.2906
                ]
            },
            "properties": {
                "ref:rspo": 27727,
                "official_name": "Zesp\u00f3\u0142 Szk\u00f3\u0142 Budowlanych im. Krzysztofa Kamila Baczy\u0144skiego",
                "name": "Zesp\u00f3\u0142 Szk\u00f3\u0142 Budowlanych",
                "addr:country": "PL",
                "addr:postcode": "41-500",
                "addr:city": "Chorz\u00f3w",
                "addr:street": "ul. gen. Henryka D\u0105browskiego",
                "addr:housenumber": "53",
                "addr:teryt:simc": 3673,
                "addr:teryt:sym_ul": 938887,
                "contact:phone": "+48 322413475",
                "contact:email": "sekretariat@zsb-chorzow.pl",
                "contact:website": "http:\/\/zsb-chorzow.pl",
                "ref:regon": "000695628",
                "ref:vatin": "PL6272251736",
                "operator": "Miasto Chorz\u00f3w - Miasto Na Prawach Powiatu",
                "operator:type": "government",
                "landuse": "education",
                "fixme": "amenity=school, amenity=college albo landuse=education w zale\u017cno\u015bci od tego, jakie plac\u00f3wki wchodz\u0105 w sk\u0142ad zespo\u0142u. Sprawd\u017a, kiedy stosowa\u0107 amenity=* a kiedy landuse=education.",
                "note": "Children RSPO: 38832;38833"
            }
        },
        {
            "id": 124946,
            "type": "Feature",
            "geometry": {
                "type": "Point",
                "coordinates": [
                    18.94769,
                    50.290569999999995
                ]
            },
            "properties": {
                "isced:level": "3",
                "ref:rspo": 124946,
                "official_name": "Zaoczne Liceum Og\u00f3lnokszta\u0142c\u0105ce dla Doros\u0142ych \"Cosinus Plus\"",
                "name": "Zaoczne Liceum Og\u00f3lnokszta\u0142c\u0105ce dla Doros\u0142ych \"Cosinus Plus\"",
                "addr:country": "PL",
                "addr:postcode": "41-500",
                "addr:city": "Chorz\u00f3w",
                "addr:street": "ul. gen. Henryka D\u0105browskiego",
                "addr:housenumber": "53",
                "addr:teryt:simc": 3673,
                "addr:teryt:sym_ul": 938887,
                "contact:phone": "+48 327068655",
                "contact:email": "chorzow@cosinus.pl",
                "ref:regon": "243668698",
                "operator": "Fundacja Impare",
                "operator:type": "ngo",
                "amenity": "school"
            }
        },
        {
            "id": 124947,
            "type": "Feature",
            "geometry": {
                "type": "Point",
                "coordinates": [
                    18.94769,
                    50.29054
                ]
            },
            "properties": {
                "isced:level": "4",
                "ref:rspo": 124947,
                "official_name": "Szko\u0142a Policealna \"Cosinus Plus\" w Chorzowie",
                "name": "Szko\u0142a Policealna \"Cosinus Plus\" w Chorzowie",
                "addr:country": "PL",
                "addr:postcode": "41-500",
                "addr:city": "Chorz\u00f3w",
                "addr:street": "ul. gen. Henryka D\u0105browskiego",
                "addr:housenumber": "53",
                "addr:teryt:simc": 3673,
                "addr:teryt:sym_ul": 938887,
                "contact:phone": "+48 327068655",
                "contact:email": "chorzow@cosinus.pl",
                "ref:regon": "243668681",
                "operator": "Fundacja Impare",
                "operator:type": "ngo",
                "amenity": "college"
            }
        },
        {
            "id": 38832,
            "type": "Feature",
            "geometry": {
                "type": "Point",
                "coordinates": [
                    18.94769,
                    50.29051
                ]
            },
            "properties": {
                "isced:level": "3",
                "ref:rspo": 38832,
                "official_name": "Zesp\u00f3\u0142 Szk\u00f3\u0142 Budowlanych im. K.k. Baczy\u0144skiego - Technikum Budowlane",
                "name": "Zesp\u00f3\u0142 Szk\u00f3\u0142 Budowlanych",
                "addr:country": "PL",
                "addr:postcode": "41-500",
                "addr:city": "Chorz\u00f3w",
                "addr:street": "ul. gen. Henryka D\u0105browskiego",
                "addr:housenumber": "53",
                "addr:teryt:simc": 3673,
                "addr:teryt:sym_ul": 938887,
                "contact:phone": "+48 322413475",
                "contact:email": "sekretariat@zsb-chorzow.pl",
                "contact:website": "http:\/\/zsb-chorzow.pl",
                "ref:regon": "272111823",
                "operator": "Miasto Chorz\u00f3w - Miasto Na Prawach Powiatu",
                "operator:type": "government",
                "amenity": "school",
                "note": "Parent RSPO: 27727"
            }
        },
        {
            "id": 38833,
            "type": "Feature",
            "geometry": {
                "type": "Point",
                "coordinates": [
                    18.94769,
                    50.290479999999995
                ]
            },
            "properties": {
                "isced:level": "3",
                "ref:rspo": 38833,
                "official_name": "Zesp\u00f3\u0142 Szk\u00f3\u0142 Budowlanych im. K.k. Baczy\u0144skiego - Bran\u017cowa Szko\u0142a I Stopnia Nr 7",
                "name": "Zesp\u00f3\u0142 Szk\u00f3\u0142 Budowlanych",
                "addr:country": "PL",
                "addr:postcode": "41-500",
                "addr:city": "Chorz\u00f3w",
                "addr:street": "ul. gen. Henryka D\u0105browskiego",
                "addr:housenumber": "53",
                "addr:teryt:simc": 3673,
                "addr:teryt:sym_ul": 938887,
                "contact:phone": "+48 322413475",
                "contact:email": "sekretariat@zsb-chorzow.pl",
                "contact:website": "http:\/\/zsb-chorzow.pl",
                "ref:regon": "272111817",
                "operator": "Miasto Chorz\u00f3w - Miasto Na Prawach Powiatu",
                "operator:type": "government",
                "amenity": "school",
                "note": "Parent RSPO: 27727"
            }
        },
        {
            "id": 26655,
            "type": "Feature",
            "geometry": {
                "type": "Point",
                "coordinates": [
                    18.99247,
                    50.29076
                ]
            },
            "properties": {
                "ref:rspo": 26655,
                "official_name": "Planetarium I Obserwatorium Astronomiczne im. Miko\u0142aja Kopernika",
                "name": "Planetarium I Obserwatorium Astronomiczne",
                "addr:country": "PL",
                "addr:postcode": "41-500",
                "addr:city": "Chorz\u00f3w",
                "addr:street": "al. Planetarium",
                "addr:housenumber": "4",
                "addr:teryt:simc": 35107,
                "addr:teryt:sym_ul": 938887,
                "contact:phone": "+48 327452728",
                "contact:email": "sekretariat@planetarium.edu.pl",
                "contact:website": "http:\/\/www.planetarium.edu.pl",
                "ref:regon": "000195854",
                "ref:vatin": "PL6271669764",
                "operator": "Wojew\u00f3dztwo \u015al\u0105skie",
                "operator:type": "government",
                "fixme": "w zale\u017cno\u015bci od przedmiotu dzia\u0142alno\u015bci (np. amenity=training + training=*, amenity=dancing_school, amenity=language_school, amenity=music_school)"
            }
        },
        {
            "id": 47152,
            "type": "Feature",
            "geometry": {
                "type": "Point",
                "coordinates": [
                    18.94561,
                    50.29128
                ]
            },
            "properties": {
                "ref:rspo": 47152,
                "official_name": "Centrum Przedsi\u0119biorczo\u015bci Sp\u00f3\u0142ka Z O.o.",
                "name": "Centrum Przedsi\u0119biorczo\u015bci Sp\u00f3\u0142ka Z O.o.",
                "addr:country": "PL",
                "addr:postcode": "41-501",
                "addr:city": "Chorz\u00f3w",
                "addr:street": "ul. Wolno\u015bci",
                "addr:housenumber": "61",
                "addr:teryt:simc": 24687,
                "addr:teryt:sym_ul": 938887,
                "contact:phone": "+48 322546180",
                "contact:email": "biuro@cpchorzow.pl",
                "ref:regon": "243073350",
                "operator": "Centrum Przedsi\u0119biorczo\u015bci Sp\u00f3\u0142ka Z Ograniczon\u0105 Odpowiedzialno\u015bci\u0105",
                "operator:type": "private",
                "fixme": "w zale\u017cno\u015bci od przedmiotu dzia\u0142alno\u015bci (np. amenity=training + training=*, amenity=dancing_school, amenity=language_school, amenity=music_school)"
            }
        },
        {
            "id": 277867,
            "type": "Feature",
            "geometry": {
                "type": "Point",
                "coordinates": [
                    18.96251,
                    50.29166
                ]
            },
            "properties": {
                "ref:rspo": 277867,
                "official_name": "Centrum Kszta\u0142cenia Zawodowego \"Ubilex\"Sylwia Czapla",
                "name": "Centrum Kszta\u0142cenia Zawodowego \"Ubilex\"Sylwia Czapla",
                "addr:country": "PL",
                "addr:postcode": "41-500",
                "addr:city": "Chorz\u00f3w",
                "addr:street": "ul. Katowicka",
                "addr:housenumber": "14",
                "addr:teryt:simc": 8206,
                "addr:teryt:sym_ul": 938887,
                "contact:phone": "+48 660404179",
                "contact:email": "m.czapla@vp.pl",
                "ref:regon": "389608651",
                "operator": "Sylwia Czapla",
                "operator:type": "private",
                "fixme": "w zale\u017cno\u015bci od przedmiotu dzia\u0142alno\u015bci (np. amenity=training + training=*, amenity=dancing_school, amenity=language_school, amenity=music_school)"
            }
        },
        {
            "id": 15777,
            "type": "Feature",
            "geometry": {
                "type": "Point",
                "coordinates": [
                    18.95073,
                    50.29183
                ]
            },
            "properties": {
                "isced:level": "1;2",
                "ref:rspo": 15777,
                "official_name": "Szko\u0142a Podstawowa Nr 1 im. Janusza Korczaka Z Oddzia\u0142ami Dwuj\u0119zycznymi",
                "name": "Szko\u0142a Podstawowa Nr 1",
                "addr:country": "PL",
                "addr:postcode": "41-500",
                "addr:city": "Chorz\u00f3w",
                "addr:street": "ul. gen. Henryka D\u0105browskiego",
                "addr:housenumber": "41",
                "addr:teryt:simc": 3673,
                "addr:teryt:sym_ul": 938887,
                "contact:phone": "+48 322410362",
                "contact:email": "sp1dyrektor@poczta.onet.pl",
                "contact:website": "http:\/\/sp1chorzow.home.pl",
                "ref:regon": "000721975",
                "ref:vatin": "PL6271058629",
                "operator": "Miasto Chorz\u00f3w - Miasto Na Prawach Powiatu",
                "operator:type": "government",
                "amenity": "school"
            }
        },
        {
            "id": 19799,
            "type": "Feature",
            "geometry": {
                "type": "Point",
                "coordinates": [
                    18.95039,
                    50.29215
                ]
            },
            "properties": {
                "ref:rspo": 19799,
                "official_name": "Pa\u0144stwowa Szko\u0142a Muzyczna I I II St. im. Grzegorza Fitelberga w Chorzowie",
                "name": "Pa\u0144stwowa Szko\u0142a Muzyczna I I II St.",
                "addr:country": "PL",
                "addr:postcode": "41-500",
                "addr:city": "Chorz\u00f3w",
                "addr:street": "ul. gen. Henryka D\u0105browskiego",
                "addr:housenumber": "43",
                "addr:teryt:simc": 3673,
                "addr:teryt:sym_ul": 938887,
                "contact:phone": "+48 322490054",
                "contact:email": "info@fitelberg.pl",
                "contact:website": "http:\/\/www.fitelberg.pl",
                "ref:regon": "000282553",
                "operator": "Ministerstwo Kultury I Dziedzictwa Narodowego",
                "operator:type": "public",
                "landuse": "education",
                "fixme": "amenity=school, amenity=college albo landuse=education w zale\u017cno\u015bci od tego, jakie plac\u00f3wki wchodz\u0105 w sk\u0142ad zespo\u0142u. Sprawd\u017a, kiedy stosowa\u0107 amenity=* a kiedy landuse=education.",
                "note": "Children RSPO: 92791;103780"
            }
        },
        {
            "id": 92791,
            "type": "Feature",
            "geometry": {
                "type": "Point",
                "coordinates": [
                    18.95039,
                    50.29212
                ]
            },
            "properties": {
                "ref:rspo": 92791,
                "official_name": "Pa\u0144stwowa Szko\u0142a Muzyczna II St. w Chorzowie",
                "name": "Pa\u0144stwowa Szko\u0142a Muzyczna II St. w Chorzowie",
                "addr:country": "PL",
                "addr:postcode": "41-500",
                "addr:city": "Chorz\u00f3w",
                "addr:street": "ul. gen. Henryka D\u0105browskiego",
                "addr:housenumber": "43",
                "addr:teryt:simc": 3673,
                "addr:teryt:sym_ul": 938887,
                "contact:phone": "+48 322490054",
                "contact:email": "info@fitelberg.pl",
                "contact:website": "http:\/\/www.fitelberg.pl",
                "ref:regon": "240067863",
                "operator": "Ministerstwo Kultury I Dziedzictwa Narodowego",
                "operator:type": "public",
                "amenity": "music_school",
                "note": "Parent RSPO: 19799"
            }
        },
        {
            "id": 103780,
            "type": "Feature",
            "geometry": {
                "type": "Point",
                "coordinates": [
                    18.95039,
                    50.29209
                ]
            },
            "properties": {
                "ref:rspo": 103780,
                "official_name": "Pa\u0144stwowa Szko\u0142a Muzyczna I St. w Chorzowie",
                "name": "Pa\u0144stwowa Szko\u0142a Muzyczna I St. w Chorzowie",
                "addr:country": "PL",
                "addr:postcode": "41-500",
                "addr:city": "Chorz\u00f3w",
                "addr:street": "ul. gen. Henryka D\u0105browskiego",
                "addr:housenumber": "43",
                "addr:teryt:simc": 3673,
                "addr:teryt:sym_ul": 938887,
                "contact:phone": "+48 322490054",
                "contact:email": "info@fitelberg.pl",
                "contact:website": "http:\/\/www.fitelberg.pl",
                "ref:regon": "240067840",
                "operator": "Ministerstwo Kultury I Dziedzictwa Narodowego",
                "operator:type": "public",
                "amenity": "music_school",
                "note": "Parent RSPO: 19799"
            }
        },
        {
            "id": 30076,
            "type": "Feature",
            "geometry": {
                "type": "Point",
                "coordinates": [
                    18.95062,
                    50.29269
                ]
            },
            "properties": {
                "isced:level": "3",
                "ref:rspo": 30076,
                "official_name": "Uniwersyteckie I Liceum Og\u00f3lnokszta\u0142c\u0105ce im. Juliusza S\u0142owackiego",
                "name": "Uniwersyteckie I Liceum Og\u00f3lnokszta\u0142c\u0105ce",
                "addr:country": "PL",
                "addr:postcode": "41-500",
                "addr:city": "Chorz\u00f3w",
                "addr:street": "ul. gen. Henryka D\u0105browskiego",
                "addr:housenumber": "36",
                "addr:teryt:simc": 3673,
                "addr:teryt:sym_ul": 938887,
                "contact:phone": "+48 322411712",
                "contact:email": "slowak@slowacki.edu.pl",
                "contact:website": "http:\/\/www.slowacki.edu.pl",
                "ref:regon": "000721679",
                "operator": "Miasto Chorz\u00f3w - Miasto Na Prawach Powiatu",
                "operator:type": "government",
                "amenity": "school"
            }
        },
        {
            "id": 19258,
            "type": "Feature",
            "geometry": {
                "type": "Point",
                "coordinates": [
                    18.95452,
                    50.29309
                ]
            },
            "properties": {
                "ref:rspo": 19258,
                "official_name": "Przedszkole Nr 25",
                "name": "Przedszkole Nr 25",
                "addr:country": "PL",
                "addr:postcode": "41-500",
                "addr:city": "Chorz\u00f3w",
                "addr:street": "ul. Jana Kili\u0144skiego",
                "addr:housenumber": "3",
                "addr:teryt:simc": 8435,
                "addr:teryt:sym_ul": 938887,
                "contact:phone": "+48 322410333",
                "contact:email": "graszkapol@poczta.fm",
                "contact:website": "http:\/\/www.przedszkole25.info",
                "ref:regon": "241784839",
                "ref:vatin": "PL6271176748",
                "operator": "Miasto Chorz\u00f3w - Miasto Na Prawach Powiatu",
                "operator:type": "government",
                "amenity": "kindergarten"
            }
        },
        {
            "id": 27498,
            "type": "Feature",
            "geometry": {
                "type": "Point",
                "coordinates": [
                    18.95138,
                    50.2933
                ]
            },
            "properties": {
                "isced:level": "3",
                "ref:rspo": 27498,
                "official_name": "Iv Liceum Og\u00f3lnokszta\u0142c\u0105ce im. Marii Sk\u0142odowskiej-Curie",
                "name": "Iv Liceum Og\u00f3lnokszta\u0142c\u0105ce",
                "addr:country": "PL",
                "addr:postcode": "41-500",
                "addr:city": "Chorz\u00f3w",
                "addr:street": "ul. gen. Henryka D\u0105browskiego",
                "addr:housenumber": "34",
                "addr:teryt:simc": 3673,
                "addr:teryt:sym_ul": 938887,
                "contact:phone": "+48 322411714",
                "contact:email": "chorzowlo4@curie.edu.pl",
                "ref:regon": "000721700",
                "ref:vatin": "PL6271179505",
                "operator": "Miasto Chorz\u00f3w - Miasto Na Prawach Powiatu",
                "operator:type": "government",
                "amenity": "school"
            }
        },
        {
            "id": 271255,
            "type": "Feature",
            "geometry": {
                "type": "Point",
                "coordinates": [
                    18.94378,
                    50.29366
                ]
            },
            "properties": {
                "ref:rspo": 271255,
                "official_name": "Zwi\u0105zek Nauczycielstwa Polskiego Zg-Filia Oupis w Chorzowie",
                "name": "Zwi\u0105zek Nauczycielstwa Polskiego Zg-Filia Oupis w Chorzowie",
                "addr:country": "PL",
                "addr:postcode": "41-500",
                "addr:city": "Chorz\u00f3w",
                "addr:street": "ul. dr Andrzeja Miel\u0119ckiego",
                "addr:housenumber": "44",
                "addr:teryt:simc": 29892,
                "addr:teryt:sym_ul": 938887,
                "contact:phone": "+48 322538802",
                "contact:email": "katowice@oupis.pl",
                "contact:website": "http:\/\/www.katowice.oupis.pl",
                "ref:regon": "383209306",
                "ref:vatin": "PL6340139556",
                "operator": "Zwi\u0105zek Nauczycielstwa Polskiego",
                "operator:type": "cooperative",
                "fixme": "w zale\u017cno\u015bci od przedmiotu dzia\u0142alno\u015bci (np. amenity=training + training=*, amenity=dancing_school, amenity=language_school, amenity=music_school)"
            }
        },
        {
            "id": 106035,
            "type": "Feature",
            "geometry": {
                "type": "Point",
                "coordinates": [
                    18.95709,
                    50.29384
                ]
            },
            "properties": {
                "ref:rspo": 106035,
                "official_name": "Niepubliczne Przedszkole \"\u017byrafa I Przyjaciele\"",
                "name": "Niepubliczne Przedszkole \"\u017byrafa I Przyjaciele\"",
                "addr:country": "PL",
                "addr:postcode": "41-500",
                "addr:city": "Chorz\u00f3w",
                "addr:street": "ul. Katowicka",
                "addr:housenumber": "73A",
                "addr:teryt:simc": 8206,
                "addr:teryt:sym_ul": 938887,
                "contact:phone": "+48 507120933",
                "contact:email": "biuro@zyrafaiprzyjaciele.pl",
                "contact:website": "http:\/\/www.zyrafaiprzyjaciele.pl",
                "ref:regon": "243142045",
                "operator": "Pawe\u0142 Markowicz",
                "operator:type": "private",
                "amenity": "kindergarten"
            }
        },
        {
            "id": 18689,
            "type": "Feature",
            "geometry": {
                "type": "Point",
                "coordinates": [
                    18.95241,
                    50.29465
                ]
            },
            "properties": {
                "ref:rspo": 18689,
                "official_name": "Przedszkole Nr 13",
                "name": "Przedszkole Nr 13",
                "addr:country": "PL",
                "addr:postcode": "41-500",
                "addr:city": "Chorz\u00f3w",
                "addr:street": "ul. Jana Sobieskiego",
                "addr:housenumber": "13",
                "addr:teryt:simc": 20427,
                "addr:teryt:sym_ul": 938887,
                "contact:phone": "+48 322411649",
                "contact:email": "przedszkole13chorzow@wp.pl",
                "contact:website": "http:\/\/www.przedszkole13chorzow.edupage.org",
                "ref:regon": "241818975",
                "ref:vatin": "PL6271175737",
                "operator": "Miasto Chorz\u00f3w - Miasto Na Prawach Powiatu",
                "operator:type": "government",
                "amenity": "kindergarten"
            }
        },
        {
            "id": 48048,
            "type": "Feature",
            "geometry": {
                "type": "Point",
                "coordinates": [
                    18.9495,
                    50.29472
                ]
            },
            "properties": {
                "ref:rspo": 48048,
                "official_name": "O\u015brodek Doskonalenia Kadr Logo-Hr",
                "name": "O\u015brodek Doskonalenia Kadr Logo-Hr",
                "addr:country": "PL",
                "addr:postcode": "41-500",
                "addr:city": "Chorz\u00f3w",
                "addr:street": "ul. Wolno\u015bci",
                "addr:housenumber": "39",
                "addr:teryt:simc": 24687,
                "addr:teryt:sym_ul": 938887,
                "contact:phone": "+48 327719450",
                "contact:email": "kcwioro@grupa-logo.pl",
                "ref:regon": "243073338",
                "operator": "Logo Sp\u00f3\u0142ka Z Ograniczon\u0105 Odpowiedzialno\u015bci\u0105",
                "operator:type": "private",
                "fixme": "w zale\u017cno\u015bci od przedmiotu dzia\u0142alno\u015bci (np. amenity=training + training=*, amenity=dancing_school, amenity=language_school, amenity=music_school)"
            }
        },
        {
            "id": 275285,
            "type": "Feature",
            "geometry": {
                "type": "Point",
                "coordinates": [
                    18.93547,
                    50.29485
                ]
            },
            "properties": {
                "isced:level": "4",
                "ref:rspo": 275285,
                "official_name": "Policealna Szko\u0142a Medus",
                "name": "Policealna Szko\u0142a Medus",
                "addr:country": "PL",
                "addr:postcode": "41-500",
                "addr:city": "Chorz\u00f3w",
                "addr:street": "ul. 75 Pu\u0142ku Piechoty",
                "addr:housenumber": "1",
                "addr:teryt:simc": 30633,
                "addr:teryt:sym_ul": 938887,
                "contact:phone": "+48 323071333",
                "contact:email": "for3szkola@gmail.com",
                "ref:regon": "386788730",
                "operator": "For3 Sp\u00f3\u0142ka Z Ograniczon\u0105 Odpowiedzialno\u015bci\u0105",
                "operator:type": "private",
                "amenity": "college"
            }
        },
        {
            "id": 279110,
            "type": "Feature",
            "geometry": {
                "type": "Point",
                "coordinates": [
                    18.93547,
                    50.294819999999994
                ]
            },
            "properties": {
                "isced:level": "4",
                "ref:rspo": 279110,
                "official_name": "Szko\u0142a Policealna Future w Chorzowie",
                "name": "Szko\u0142a Policealna Future w Chorzowie",
                "addr:country": "PL",
                "addr:postcode": "41-500",
                "addr:city": "Chorz\u00f3w",
                "addr:street": "ul. 75 Pu\u0142ku Piechoty",
                "addr:housenumber": "1",
                "addr:teryt:simc": 30633,
                "addr:teryt:sym_ul": 938887,
                "contact:phone": "+48 323071333",
                "contact:email": "for3szkola@gmail.com",
                "ref:regon": "520681629",
                "operator": "For3 Sp\u00f3\u0142ka Z Ograniczon\u0105 Odpowiedzialno\u015bci\u0105",
                "operator:type": "private",
                "amenity": "college"
            }
        },
        {
            "id": 271739,
            "type": "Feature",
            "geometry": {
                "type": "Point",
                "coordinates": [
                    18.94941,
                    50.2952
                ]
            },
            "properties": {
                "ref:rspo": 271739,
                "official_name": "Trementi",
                "name": "Trementi",
                "addr:country": "PL",
                "addr:postcode": "41-500",
                "addr:city": "Chorz\u00f3w",
                "addr:street": "ul. Wolno\u015bci",
                "addr:housenumber": "40",
                "addr:teryt:simc": 24687,
                "addr:teryt:sym_ul": 938887,
                "contact:phone": "+48 509670833",
                "contact:email": "iks@trementi.pl",
                "ref:regon": "383587860",
                "ref:vatin": "PL6262777997",
                "operator": "Trementi Natalia Piotrowska-Grocho\u0142a",
                "operator:type": "private",
                "fixme": "w zale\u017cno\u015bci od przedmiotu dzia\u0142alno\u015bci (np. amenity=training + training=*, amenity=dancing_school, amenity=language_school, amenity=music_school)"
            }
        },
        {
            "id": 26296,
            "type": "Feature",
            "geometry": {
                "type": "Point",
                "coordinates": [
                    18.96074,
                    50.29562
                ]
            },
            "properties": {
                "ref:rspo": 26296,
                "official_name": "Przedszkole Nr 5",
                "name": "Przedszkole Nr 5",
                "addr:country": "PL",
                "addr:postcode": "41-500",
                "addr:city": "Chorz\u00f3w",
                "addr:street": "ul. J\u00f3zefa Poniatowskiego",
                "addr:housenumber": "27",
                "addr:teryt:simc": 17107,
                "addr:teryt:sym_ul": 938887,
                "contact:phone": "+48 322411604",
                "contact:email": "przedszkole5gosia@gmail.com",
                "contact:website": "http:\/\/www.przedszkole5chorzow.edupage.org",
                "ref:regon": "241781143",
                "ref:vatin": "PL6271175217",
                "operator": "Miasto Chorz\u00f3w - Miasto Na Prawach Powiatu",
                "operator:type": "government",
                "amenity": "kindergarten"
            }
        },
        {
            "id": 196401,
            "type": "Feature",
            "geometry": {
                "type": "Point",
                "coordinates": [
                    18.93297,
                    50.2959699
                ]
            },
            "properties": {
                "isced:level": "1;2",
                "ref:rspo": 196401,
                "official_name": "Szko\u0142a Podstawowa Nr 38 im.wojska Polskiego",
                "name": "Szko\u0142a Podstawowa Nr 38 im.wojska Polskiego",
                "addr:country": "PL",
                "addr:postcode": "41-500",
                "addr:city": "Chorz\u00f3w",
                "addr:street": "ul. \u015al\u0105ska",
                "addr:housenumber": "3",
                "addr:teryt:simc": 22308,
                "addr:teryt:sym_ul": 938887,
                "contact:phone": "+48 322418576",
                "contact:email": "sekretariatg4chorzow@op.pl",
                "ref:regon": "367991934",
                "operator": "Miasto Chorz\u00f3w - Miasto Na Prawach Powiatu",
                "operator:type": "government",
                "amenity": "school"
            }
        },
        {
            "id": 28477,
            "type": "Feature",
            "geometry": {
                "type": "Point",
                "coordinates": [
                    18.95191,
                    50.29619
                ]
            },
            "properties": {
                "ref:rspo": 28477,
                "official_name": "Zesp\u00f3\u0142 Szk\u00f3\u0142 Technicznych Nr 2 im. Mariana Batko",
                "name": "Zesp\u00f3\u0142 Szk\u00f3\u0142 Technicznych Nr 2",
                "addr:country": "PL",
                "addr:postcode": "41-500",
                "addr:city": "Chorz\u00f3w",
                "addr:street": "ul. Powsta\u0144c\u00f3w",
                "addr:housenumber": "6a",
                "addr:teryt:simc": 17354,
                "addr:teryt:sym_ul": 938887,
                "contact:phone": "+48 322410129",
                "contact:email": "zst2mbatko@gmail.com",
                "contact:website": "http:\/\/www.zstnr2.pop.pl",
                "ref:regon": "000186430",
                "ref:vatin": "PL6271695282",
                "operator": "Miasto Chorz\u00f3w - Miasto Na Prawach Powiatu",
                "operator:type": "government",
                "landuse": "education",
                "fixme": "amenity=school, amenity=college albo landuse=education w zale\u017cno\u015bci od tego, jakie plac\u00f3wki wchodz\u0105 w sk\u0142ad zespo\u0142u. Sprawd\u017a, kiedy stosowa\u0107 amenity=* a kiedy landuse=education.",
                "note": "Children RSPO: 32014;32034"
            }
        },
        {
            "id": 32014,
            "type": "Feature",
            "geometry": {
                "type": "Point",
                "coordinates": [
                    18.95191,
                    50.29616
                ]
            },
            "properties": {
                "isced:level": "3",
                "ref:rspo": 32014,
                "official_name": "Zesp\u00f3\u0142 Szk\u00f3\u0142 Technicznych Nr 2 im. Mariana Batko - Technikum Samochodowe",
                "name": "Zesp\u00f3\u0142 Szk\u00f3\u0142 Technicznych Nr 2",
                "addr:country": "PL",
                "addr:postcode": "41-500",
                "addr:city": "Chorz\u00f3w",
                "addr:street": "ul. Powsta\u0144c\u00f3w",
                "addr:housenumber": "6a",
                "addr:teryt:simc": 17354,
                "addr:teryt:sym_ul": 938887,
                "contact:phone": "+48 322410129",
                "contact:email": "zst2mbatko@gmail.com",
                "contact:website": "http:\/\/www.zstnr2.pop.pl",
                "ref:regon": "272111912",
                "operator": "Miasto Chorz\u00f3w - Miasto Na Prawach Powiatu",
                "operator:type": "government",
                "amenity": "school",
                "note": "Parent RSPO: 28477"
            }
        },
        {
            "id": 32034,
            "type": "Feature",
            "geometry": {
                "type": "Point",
                "coordinates": [
                    18.95191,
                    50.296130000000005
                ]
            },
            "properties": {
                "isced:level": "3",
                "ref:rspo": 32034,
                "official_name": "Zesp\u00f3\u0142 Szk\u00f3\u0142 Technicznych Nr 2 im. Mariana Batko - Bran\u017cowa Szko\u0142a I Stopnia Nr 2",
                "name": "Zesp\u00f3\u0142 Szk\u00f3\u0142 Technicznych Nr 2",
                "addr:country": "PL",
                "addr:postcode": "41-500",
                "addr:city": "Chorz\u00f3w",
                "addr:street": "ul. Powsta\u0144c\u00f3w",
                "addr:housenumber": "6a",
                "addr:teryt:simc": 17354,
                "addr:teryt:sym_ul": 938887,
                "contact:phone": "+48 322410129",
                "contact:email": "zst2mbatko@gmail.com",
                "contact:website": "http:\/\/www.zstnr2.pop.pl",
                "ref:regon": "272111881",
                "operator": "Miasto Chorz\u00f3w - Miasto Na Prawach Powiatu",
                "operator:type": "government",
                "amenity": "school",
                "note": "Parent RSPO: 28477"
            }
        },
        {
            "id": 18302,
            "type": "Feature",
            "geometry": {
                "type": "Point",
                "coordinates": [
                    18.96641,
                    50.29629
                ]
            },
            "properties": {
                "isced:level": "1;2",
                "ref:rspo": 18302,
                "official_name": "Szko\u0142a Podstawowa Nr 29 im.ignacego Mo\u015bcickiego",
                "name": "Szko\u0142a Podstawowa Nr 29 im.ignacego Mo\u015bcickiego",
                "addr:country": "PL",
                "addr:postcode": "41-500",
                "addr:city": "Chorz\u00f3w",
                "addr:street": "ul. Lwowska",
                "addr:housenumber": "36",
                "addr:teryt:simc": 11467,
                "addr:teryt:sym_ul": 938887,
                "contact:phone": "+48 322410747",
                "contact:email": "s29p@poczta.onet.pl",
                "contact:website": "https:\/\/sp29chorzow.edupage.org\/",
                "ref:regon": "000721780",
                "ref:vatin": "PL6271176530",
                "operator": "Miasto Chorz\u00f3w - Miasto Na Prawach Powiatu",
                "operator:type": "government",
                "amenity": "school"
            }
        },
        {
            "id": 28480,
            "type": "Feature",
            "geometry": {
                "type": "Point",
                "coordinates": [
                    18.95586,
                    50.2964
                ]
            },
            "properties": {
                "ref:rspo": 28480,
                "official_name": "Zesp\u00f3\u0142 Szk\u00f3\u0142 Gastronomiczno-Us\u0142ugowych im. Marii D\u0105browskiej",
                "name": "Zesp\u00f3\u0142 Szk\u00f3\u0142 Gastronomiczno-Us\u0142ugowych",
                "addr:country": "PL",
                "addr:postcode": "41-500",
                "addr:city": "Chorz\u00f3w",
                "addr:street": "ul. Katowicka",
                "addr:housenumber": "64",
                "addr:teryt:simc": 8206,
                "addr:teryt:sym_ul": 938887,
                "contact:phone": "+48 322411725",
                "contact:email": "zsgu@wp.pl",
                "contact:website": "http:\/\/zsguchorzow.pl",
                "ref:regon": "000185399",
                "ref:vatin": "PL6271177133",
                "operator": "Miasto Chorz\u00f3w - Miasto Na Prawach Powiatu",
                "operator:type": "government",
                "landuse": "education",
                "fixme": "amenity=school, amenity=college albo landuse=education w zale\u017cno\u015bci od tego, jakie plac\u00f3wki wchodz\u0105 w sk\u0142ad zespo\u0142u. Sprawd\u017a, kiedy stosowa\u0107 amenity=* a kiedy landuse=education.",
                "note": "Children RSPO: 34366;34367"
            }
        },
        {
            "id": 34366,
            "type": "Feature",
            "geometry": {
                "type": "Point",
                "coordinates": [
                    18.95586,
                    50.296369999999996
                ]
            },
            "properties": {
                "isced:level": "3",
                "ref:rspo": 34366,
                "official_name": "Zesp\u00f3\u0142 Szk\u00f3\u0142 Gastronomiczno-Us\u0142ugowych im.m.d\u0105browskiej - Technikum Gastronomiczne",
                "name": "Zesp\u00f3\u0142 Szk\u00f3\u0142 Gastronomiczno-Us\u0142ugowych im.m.d\u0105browskiej - Technikum Gastronomiczne",
                "addr:country": "PL",
                "addr:postcode": "41-500",
                "addr:city": "Chorz\u00f3w",
                "addr:street": "ul. Katowicka",
                "addr:housenumber": "64",
                "addr:teryt:simc": 8206,
                "addr:teryt:sym_ul": 938887,
                "contact:phone": "+48 322411725",
                "contact:email": "zsgu.sekretariat@interia.pl",
                "ref:regon": "272090908",
                "operator": "Miasto Chorz\u00f3w - Miasto Na Prawach Powiatu",
                "operator:type": "government",
                "amenity": "school",
                "note": "Parent RSPO: 28480"
            }
        },
        {
            "id": 34367,
            "type": "Feature",
            "geometry": {
                "type": "Point",
                "coordinates": [
                    18.95586,
                    50.29634
                ]
            },
            "properties": {
                "isced:level": "3",
                "ref:rspo": 34367,
                "official_name": "Zesp\u00f3\u0142 Szk\u00f3\u0142 Gastronomiczno-Us\u0142ugowych im.m.d\u0105browskiej - Bran\u017cowa Szko\u0142a I Stopnia Nr 5",
                "name": "Zesp\u00f3\u0142 Szk\u00f3\u0142 Gastronomiczno-Us\u0142ugowych im.m.d\u0105browskiej - Bran\u017cowa Szko\u0142a I Stopnia Nr 5",
                "addr:country": "PL",
                "addr:postcode": "41-500",
                "addr:city": "Chorz\u00f3w",
                "addr:street": "ul. Katowicka",
                "addr:housenumber": "64",
                "addr:teryt:simc": 8206,
                "addr:teryt:sym_ul": 938887,
                "contact:phone": "+48 322411725",
                "contact:email": "zsgu.sekretariat@interia.pl",
                "ref:regon": "272090848",
                "operator": "Miasto Chorz\u00f3w - Miasto Na Prawach Powiatu",
                "operator:type": "government",
                "amenity": "school",
                "note": "Parent RSPO: 28480"
            }
        },
        {
            "id": 27899,
            "type": "Feature",
            "geometry": {
                "type": "Point",
                "coordinates": [
                    18.94339,
                    50.2968199
                ]
            },
            "properties": {
                "ref:rspo": 27899,
                "official_name": "M\u0142odzie\u017cowy Dom Kultury",
                "name": "M\u0142odzie\u017cowy Dom Kultury",
                "addr:country": "PL",
                "addr:postcode": "41-500",
                "addr:city": "Chorz\u00f3w",
                "addr:street": "ul. J\u00f3zefa Lompy",
                "addr:housenumber": "13",
                "addr:teryt:simc": 11249,
                "addr:teryt:sym_ul": 938887,
                "contact:phone": "+48 322413180",
                "contact:email": "sekretariat@mdkchorzow.pl",
                "contact:website": "http:\/\/www.mdkchorzow.pl",
                "ref:regon": "000721739",
                "ref:vatin": "PL6271058581",
                "operator": "Miasto Chorz\u00f3w - Miasto Na Prawach Powiatu",
                "operator:type": "government",
                "amenity": "community_centre",
                "community_centre:for": "juvenile"
            }
        },
        {
            "id": 19247,
            "type": "Feature",
            "geometry": {
                "type": "Point",
                "coordinates": [
                    18.94315,
                    50.29721
                ]
            },
            "properties": {
                "ref:rspo": 19247,
                "official_name": "Przedszkole Nr 24",
                "name": "Przedszkole Nr 24",
                "addr:country": "PL",
                "addr:postcode": "41-500",
                "addr:city": "Chorz\u00f3w",
                "addr:street": "ul. J\u00f3zefa Lompy",
                "addr:housenumber": "16",
                "addr:teryt:simc": 11249,
                "addr:teryt:sym_ul": 938887,
                "contact:phone": "+48 322493071",
                "contact:email": "kontakt@przedszkole24.kei.pl",
                "contact:website": "http:\/\/p24chorzow.edupage.org",
                "ref:regon": "241784911",
                "ref:vatin": "PL6271176607",
                "operator": "Miasto Chorz\u00f3w - Miasto Na Prawach Powiatu",
                "operator:type": "government",
                "amenity": "kindergarten"
            }
        },
        {
            "id": 127472,
            "type": "Feature",
            "geometry": {
                "type": "Point",
                "coordinates": [
                    18.9305999,
                    50.29731
                ]
            },
            "properties": {
                "ref:rspo": 127472,
                "official_name": "Niepubliczne Przedszkole \"Smerfowa Kraina\"",
                "name": "Niepubliczne Przedszkole \"Smerfowa Kraina\"",
                "addr:country": "PL",
                "addr:postcode": "41-500",
                "addr:city": "Chorz\u00f3w",
                "addr:street": "ul. Gwarecka",
                "addr:housenumber": "17A",
                "addr:teryt:simc": 6409,
                "addr:teryt:sym_ul": 938887,
                "contact:email": "sabinabrzezowska@poczta.fm",
                "ref:regon": "361641558",
                "operator": "Sabina Brzezowska Pikabu Kreatywna Przestrze\u0144 Dla Dzieci",
                "operator:type": "consortium",
                "amenity": "kindergarten"
            }
        },
        {
            "id": 49543,
            "type": "Feature",
            "geometry": {
                "type": "Point",
                "coordinates": [
                    18.9642899,
                    50.29762
                ]
            },
            "properties": {
                "ref:rspo": 49543,
                "official_name": "Agencja Reklamy Promocji I Szkole\u0144 Budoserwis Z.u.h. Sp. Z O.o.",
                "name": "Agencja Reklamy Promocji I Szkole\u0144 Budoserwis Z.u.h. Sp. Z O.o.",
                "addr:country": "PL",
                "addr:postcode": "41-500",
                "addr:city": "Chorz\u00f3w",
                "addr:street": "ul. Tadeusza Ko\u015bciuszki",
                "addr:housenumber": "31",
                "addr:teryt:simc": 9582,
                "addr:teryt:sym_ul": 938887,
                "contact:phone": "+48 322412451",
                "contact:email": "budoserwis@budoserwis.com.pl",
                "ref:regon": "243073611",
                "operator": "Budoserwis Z.u.h. Sp\u00f3\u0142ka Z Ograniczona Odpowiedzialno\u015bci\u0105",
                "operator:type": "private",
                "fixme": "w zale\u017cno\u015bci od przedmiotu dzia\u0142alno\u015bci (np. amenity=training + training=*, amenity=dancing_school, amenity=language_school, amenity=music_school)"
            }
        },
        {
            "id": 276596,
            "type": "Feature",
            "geometry": {
                "type": "Point",
                "coordinates": [
                    18.93568,
                    50.29763
                ]
            },
            "properties": {
                "ref:rspo": 276596,
                "official_name": "Przedszkole Niepubliczne Pierwsze Kroki",
                "name": "Przedszkole Niepubliczne Pierwsze Kroki",
                "addr:country": "PL",
                "addr:postcode": "41-500",
                "addr:city": "Chorz\u00f3w",
                "addr:street": "ul. Boczna",
                "addr:housenumber": "12",
                "addr:teryt:simc": 1528,
                "addr:teryt:sym_ul": 938887,
                "contact:phone": "+48 600310860",
                "contact:email": "kontakt@przedszkolepierwszekroki.pl",
                "contact:website": "http:\/\/www.przedszkolepierwszekroki.pl",
                "ref:regon": "387257644",
                "operator": "Agnieszka Szczepa\u0144ska",
                "operator:type": "private",
                "amenity": "kindergarten"
            }
        },
        {
            "id": 43728,
            "type": "Feature",
            "geometry": {
                "type": "Point",
                "coordinates": [
                    18.95203,
                    50.29766
                ]
            },
            "properties": {
                "isced:level": "3",
                "ref:rspo": 43728,
                "official_name": "Liceum Og\u00f3lnokszta\u0142c\u0105ce dla Doros\u0142ych \"\u017bak\"",
                "name": "Liceum Og\u00f3lnokszta\u0142c\u0105ce dla Doros\u0142ych \"\u017bak\"",
                "addr:country": "PL",
                "addr:postcode": "41-500",
                "addr:city": "Chorz\u00f3w",
                "addr:street": "ul. Jagiello\u0144ska",
                "addr:housenumber": "2",
                "addr:door": "4",
                "addr:teryt:simc": 7029,
                "addr:teryt:sym_ul": 938887,
                "contact:phone": "+48 322417371",
                "contact:email": "chorzow@zak.edu.pl",
                "contact:website": "http:\/\/www.zak.edu.pl",
                "ref:regon": "243077916",
                "operator": "Centrum Nauki I Biznesu \"\u017bak\" Sp\u00f3\u0142ka Z Ograniczon\u0105 Odpowiedzialno\u015bci\u0105",
                "operator:type": "private",
                "amenity": "school"
            }
        },
        {
            "id": 43860,
            "type": "Feature",
            "geometry": {
                "type": "Point",
                "coordinates": [
                    18.95203,
                    50.29763
                ]
            },
            "properties": {
                "isced:level": "4",
                "ref:rspo": 43860,
                "official_name": "Szko\u0142a Policealna Centrum Nauki I Biznesu \"\u017bak\"",
                "name": "Szko\u0142a Policealna Centrum Nauki I Biznesu \"\u017bak\"",
                "addr:country": "PL",
                "addr:postcode": "41-500",
                "addr:city": "Chorz\u00f3w",
                "addr:street": "ul. Jagiello\u0144ska",
                "addr:housenumber": "2",
                "addr:teryt:simc": 7029,
                "addr:teryt:sym_ul": 938887,
                "contact:phone": "+48 322417371",
                "contact:email": "chorzow@zak.edu.pl",
                "contact:website": "http:\/\/www.zak.edu.pl",
                "ref:regon": "243083124",
                "operator": "Centrum Nauki I Biznesu \"\u017bak\" Sp\u00f3\u0142ka Z Ograniczon\u0105 Odpowiedzialno\u015bci\u0105",
                "operator:type": "private",
                "amenity": "college"
            }
        },
        {
            "id": 44010,
            "type": "Feature",
            "geometry": {
                "type": "Point",
                "coordinates": [
                    18.95203,
                    50.2976
                ]
            },
            "properties": {
                "ref:rspo": 44010,
                "official_name": "O\u015brodek Szkoleniowy Centrum Nauki I Biznesu \"\u017bak\" w Chorzowie",
                "name": "O\u015brodek Szkoleniowy Centrum Nauki I Biznesu \"\u017bak\" w Chorzowie",
                "addr:country": "PL",
                "addr:postcode": "41-500",
                "addr:city": "Chorz\u00f3w",
                "addr:street": "ul. Jagiello\u0144ska",
                "addr:housenumber": "2",
                "addr:door": "4",
                "addr:teryt:simc": 7029,
                "addr:teryt:sym_ul": 938887,
                "contact:phone": "+48 322417371",
                "contact:email": "chorzow@zak.edu.pl",
                "contact:website": "http:\/\/www.zak.edu.pl",
                "ref:regon": "243079312",
                "operator": "Centrum Nauki I Biznesu \"\u017bak\" Sp\u00f3\u0142ka Z Ograniczon\u0105 Odpowiedzialno\u015bci\u0105",
                "operator:type": "private",
                "fixme": "w zale\u017cno\u015bci od przedmiotu dzia\u0142alno\u015bci (np. amenity=training + training=*, amenity=dancing_school, amenity=language_school, amenity=music_school)"
            }
        },
        {
            "id": 128844,
            "type": "Feature",
            "geometry": {
                "type": "Point",
                "coordinates": [
                    18.95203,
                    50.29757
                ]
            },
            "properties": {
                "isced:level": "4",
                "ref:rspo": 128844,
                "official_name": "Szko\u0142a Policealna Opieki Medycznej \"\u017bak\" w Chorzowie",
                "name": "Szko\u0142a Policealna Opieki Medycznej \"\u017bak\" w Chorzowie",
                "addr:country": "PL",
                "addr:postcode": "41-500",
                "addr:city": "Chorz\u00f3w",
                "addr:street": "ul. Jagiello\u0144ska",
                "addr:housenumber": "2",
                "addr:teryt:simc": 7029,
                "addr:teryt:sym_ul": 938887,
                "contact:phone": "+48 322417371",
                "contact:email": "chorzow@zak.edu.pl",
                "contact:website": "http:\/\/www.zak.edu.pl",
                "ref:regon": "362402962",
                "operator": "Centrum Nauki I Biznesu \"\u017bak\" Sp\u00f3\u0142ka Z Ograniczon\u0105 Odpowiedzialno\u015bci\u0105",
                "operator:type": "private",
                "amenity": "college"
            }
        },
        {
            "id": 15824,
            "type": "Feature",
            "geometry": {
                "type": "Point",
                "coordinates": [
                    18.94156,
                    50.29767
                ]
            },
            "properties": {
                "isced:level": "1;2",
                "ref:rspo": 15824,
                "official_name": "Szko\u0142a Podstawowa Nr 13 im.tadeusza Ko\u015bciuszki",
                "name": "Szko\u0142a Podstawowa Nr 13 im.tadeusza Ko\u015bciuszki",
                "addr:country": "PL",
                "addr:postcode": "41-500",
                "addr:city": "Chorz\u00f3w",
                "addr:street": "ul. dr Wincentego Styczy\u0144skiego",
                "addr:housenumber": "32",
                "addr:teryt:simc": 54787,
                "addr:teryt:sym_ul": 938887,
                "contact:phone": "+48 322411635",
                "contact:email": "sp13chorzow@poczta.onet.pl",
                "ref:regon": "000722058",
                "ref:vatin": "PL6271177015",
                "operator": "Miasto Chorz\u00f3w - Miasto Na Prawach Powiatu",
                "operator:type": "government",
                "amenity": "school"
            }
        },
        {
            "id": 43640,
            "type": "Feature",
            "geometry": {
                "type": "Point",
                "coordinates": [
                    18.96228,
                    50.29836
                ]
            },
            "properties": {
                "ref:rspo": 43640,
                "official_name": "Zesp\u00f3\u0142 Szk\u00f3\u0142 Stowarzyszenia Rodzin Katolickich Archidiecezji Katowickiej im. Kard. Prymasa Augusta Hlonda",
                "name": "Zesp\u00f3\u0142 Szk\u00f3\u0142 Stowarzyszenia Rodzin Katolickich Archidiecezji Katowickiej",
                "addr:country": "PL",
                "addr:postcode": "41-500",
                "addr:city": "Chorz\u00f3w",
                "addr:street": "ul. Tadeusza Ko\u015bciuszki",
                "addr:housenumber": "11",
                "addr:teryt:simc": 9582,
                "addr:teryt:sym_ul": 938887,
                "contact:phone": "+48 322460651",
                "contact:email": "sekretariat@katolik-chorzow.edu.pl",
                "contact:website": "http:\/\/www.katolik-chorzow.edu.pl",
                "ref:regon": "243077371",
                "ref:vatin": "PL6272423692",
                "operator": "Stowarzyszenie Rodzin Katolickich Archidiecezji Katowickiej",
                "operator:type": "ngo",
                "landuse": "education",
                "fixme": "amenity=school, amenity=college albo landuse=education w zale\u017cno\u015bci od tego, jakie plac\u00f3wki wchodz\u0105 w sk\u0142ad zespo\u0142u. Sprawd\u017a, kiedy stosowa\u0107 amenity=* a kiedy landuse=education.",
                "note": "Children RSPO: 68252;132413"
            }
        },
        {
            "id": 68252,
            "type": "Feature",
            "geometry": {
                "type": "Point",
                "coordinates": [
                    18.96228,
                    50.29833
                ]
            },
            "properties": {
                "isced:level": "3",
                "ref:rspo": 68252,
                "official_name": "Publiczne Liceum Og\u00f3lnokszta\u0142c\u0105ce Stowarzyszenia Rodzin Katolickich Archidiecezji Katowickiej",
                "name": "Publiczne Liceum Og\u00f3lnokszta\u0142c\u0105ce Stowarzyszenia Rodzin Katolickich Archidiecezji Katowickiej",
                "addr:country": "PL",
                "addr:postcode": "41-500",
                "addr:city": "Chorz\u00f3w",
                "addr:street": "ul. Tadeusza Ko\u015bciuszki",
                "addr:housenumber": "11",
                "addr:teryt:simc": 9582,
                "addr:teryt:sym_ul": 938887,
                "contact:phone": "+48 322460651",
                "contact:email": "sekretariat@katolik-chorzow.edu.pl",
                "contact:website": "http:\/\/www.katolik-chorzow.edu.pl",
                "ref:regon": "243082923",
                "operator": "Stowarzyszenie Rodzin Katolickich Archidiecezji Katowickiej",
                "operator:type": "ngo",
                "amenity": "school",
                "note": "Parent RSPO: 43640"
            }
        },
        {
            "id": 132413,
            "type": "Feature",
            "geometry": {
                "type": "Point",
                "coordinates": [
                    18.96228,
                    50.298300000000005
                ]
            },
            "properties": {
                "isced:level": "1;2",
                "ref:rspo": 132413,
                "official_name": "Szko\u0142a Podstawowa Stowarzyszenia Rodzin Katolickich",
                "name": "Szko\u0142a Podstawowa Stowarzyszenia Rodzin Katolickich",
                "addr:country": "PL",
                "addr:postcode": "41-500",
                "addr:city": "Chorz\u00f3w",
                "addr:street": "ul. Tadeusza Ko\u015bciuszki",
                "addr:housenumber": "11",
                "addr:teryt:simc": 9582,
                "addr:teryt:sym_ul": 938887,
                "contact:phone": "+48 322460651",
                "contact:email": "szkola@glk.edu.pl",
                "contact:website": "http:\/\/www.glk.edu.pl",
                "ref:regon": "365599646",
                "operator": "Stowarzyszenie Rodzin Katolickich Archidiecezji Katowickiej",
                "operator:type": "ngo",
                "amenity": "school",
                "note": "Parent RSPO: 43640"
            }
        },
        {
            "id": 19272,
            "type": "Feature",
            "geometry": {
                "type": "Point",
                "coordinates": [
                    18.93708,
                    50.29865
                ]
            },
            "properties": {
                "ref:rspo": 19272,
                "official_name": "Przedszkole Nr 27",
                "name": "Przedszkole Nr 27",
                "addr:country": "PL",
                "addr:postcode": "41-500",
                "addr:city": "Chorz\u00f3w",
                "addr:street": "ul. Wandy",
                "addr:housenumber": "34",
                "addr:teryt:simc": 23611,
                "addr:teryt:sym_ul": 938887,
                "contact:phone": "+48 322415363",
                "contact:email": "przedszkole27chorzow@wp.pl",
                "contact:website": "http:\/\/www.p27chorzow.edupage.org",
                "ref:regon": "241784928",
                "ref:vatin": "PL6271177009",
                "operator": "Miasto Chorz\u00f3w - Miasto Na Prawach Powiatu",
                "operator:type": "government",
                "amenity": "kindergarten"
            }
        },
        {
            "id": 133859,
            "type": "Feature",
            "geometry": {
                "type": "Point",
                "coordinates": [
                    18.96444,
                    50.29887
                ]
            },
            "properties": {
                "ref:rspo": 133859,
                "official_name": "Niepubliczny Punkt Przedszkolny Niebieski Zak\u0105tek Ii",
                "name": "Niepubliczny Punkt Przedszkolny Niebieski Zak\u0105tek Ii",
                "addr:country": "PL",
                "addr:postcode": "41-500",
                "addr:city": "Chorz\u00f3w",
                "addr:street": "ul. ks. Piotra Skargi",
                "addr:housenumber": "34M",
                "addr:teryt:simc": 20010,
                "addr:teryt:sym_ul": 938887,
                "contact:phone": "+48 509820438",
                "contact:email": "dyrektor@niebieskizakatek.pl",
                "ref:regon": "367698648",
                "operator": "Neurons&Future Sp\u00f3\u0142ka Z Ograniczon\u0105 Odpowiedzialno\u015bci\u0105",
                "operator:type": "private",
                "amenity": "kindergarten"
            }
        },
        {
            "id": 276914,
            "type": "Feature",
            "geometry": {
                "type": "Point",
                "coordinates": [
                    18.96428,
                    50.29912
                ]
            },
            "properties": {
                "ref:rspo": 276914,
                "official_name": "Niepubliczny Punkt Przedszkolny Niebieski Zak\u0105tek Iii",
                "name": "Niepubliczny Punkt Przedszkolny Niebieski Zak\u0105tek Iii",
                "addr:country": "PL",
                "addr:postcode": "41-500",
                "addr:city": "Chorz\u00f3w",
                "addr:street": "ul. ks. Piotra Skargi",
                "addr:housenumber": "34 M",
                "addr:teryt:simc": 20010,
                "addr:teryt:sym_ul": 938887,
                "contact:phone": "+48 509820438",
                "contact:email": "dyrektor@niebieskizakatek.pl",
                "ref:regon": "387817860",
                "operator": "Neurons&Future Sp\u00f3\u0142ka Z Ograniczon\u0105 Odpowiedzialno\u015bci\u0105",
                "operator:type": "private",
                "amenity": "kindergarten"
            }
        },
        {
            "id": 18685,
            "type": "Feature",
            "geometry": {
                "type": "Point",
                "coordinates": [
                    18.93281,
                    50.29918
                ]
            },
            "properties": {
                "ref:rspo": 18685,
                "official_name": "Integracyjne Przedszkole Nr 12 im. Marii Montessori",
                "name": "Integracyjne Przedszkole Nr 12",
                "addr:country": "PL",
                "addr:postcode": "41-500",
                "addr:city": "Chorz\u00f3w",
                "addr:street": "ul. Lipi\u0144ska",
                "addr:housenumber": "9",
                "addr:teryt:simc": 11123,
                "addr:teryt:sym_ul": 938887,
                "contact:phone": "+48 322411657",
                "contact:email": "przedszkole12chorzow@wp.pl",
                "ref:regon": "241784934",
                "ref:vatin": "PL6271175594",
                "operator": "Miasto Chorz\u00f3w - Miasto Na Prawach Powiatu",
                "operator:type": "government",
                "amenity": "kindergarten"
            }
        },
        {
            "id": 19242,
            "type": "Feature",
            "geometry": {
                "type": "Point",
                "coordinates": [
                    18.94844,
                    50.29921
                ]
            },
            "properties": {
                "ref:rspo": 19242,
                "official_name": "Przedszkole Nr 23",
                "name": "Przedszkole Nr 23",
                "addr:country": "PL",
                "addr:postcode": "41-500",
                "addr:city": "Chorz\u00f3w",
                "addr:street": "ul. Floria\u0144ska",
                "addr:housenumber": "37",
                "addr:teryt:simc": 5085,
                "addr:teryt:sym_ul": 938887,
                "contact:phone": "+48 322410423",
                "contact:email": "przedszkole23chorzow@gmail.com",
                "contact:website": "http:\/\/www.przedszkole23chorzow.edupage.org",
                "ref:regon": "241791259",
                "ref:vatin": "PL6271176547",
                "operator": "Miasto Chorz\u00f3w - Miasto Na Prawach Powiatu",
                "operator:type": "government",
                "amenity": "kindergarten"
            }
        },
        {
            "id": 124042,
            "type": "Feature",
            "geometry": {
                "type": "Point",
                "coordinates": [
                    18.9561,
                    50.29961
                ]
            },
            "properties": {
                "ref:rspo": 124042,
                "official_name": "Niepubliczna Poradnia Psychologiczno-Pedagogiczna \"Alter\" w Chorzowie",
                "name": "Niepubliczna Poradnia Psychologiczno-Pedagogiczna \"Alter\" w Chorzowie",
                "addr:country": "PL",
                "addr:postcode": "41-500",
                "addr:city": "Chorz\u00f3w",
                "addr:street": "ul. Stanis\u0142awa Moniuszki",
                "addr:housenumber": "8b",
                "addr:teryt:simc": 13246,
                "addr:teryt:sym_ul": 938887,
                "contact:phone": "+48 533309667",
                "contact:email": "chorzow@poradniaalter.pl",
                "ref:regon": "243641328",
                "operator": "Fundacja Edukacji I Wspomagania Rozwoju \"Evolver\"",
                "operator:type": "ngo",
                "healthcare": "counselling",
                "counselling_type": "education",
                "fixme": "w zale\u017cno\u015bci od przedmiotu dzia\u0142alno\u015bci (np. healthcare=counselling + counselling_type=education albo healthcare=psychotherapist)"
            }
        },
        {
            "id": 19283,
            "type": "Feature",
            "geometry": {
                "type": "Point",
                "coordinates": [
                    18.97571,
                    50.30266
                ]
            },
            "properties": {
                "ref:rspo": 19283,
                "official_name": "Przedszkole Nr 29",
                "name": "Przedszkole Nr 29",
                "addr:country": "PL",
                "addr:postcode": "41-503",
                "addr:city": "Chorz\u00f3w",
                "addr:street": "ul. Siemianowicka",
                "addr:housenumber": "61",
                "addr:teryt:simc": 19806,
                "addr:teryt:sym_ul": 938887,
                "contact:phone": "+48 322411648",
                "contact:email": "p29biuro@onet.pl",
                "contact:website": "https:\/\/przedszkole-29.edupage.org\/",
                "ref:regon": "241795910",
                "ref:vatin": "PL6271177104",
                "operator": "Miasto Chorz\u00f3w - Miasto Na Prawach Powiatu",
                "operator:type": "government",
                "amenity": "kindergarten"
            }
        },
        {
            "id": 15961,
            "type": "Feature",
            "geometry": {
                "type": "Point",
                "coordinates": [
                    18.93631,
                    50.30309
                ]
            },
            "properties": {
                "isced:level": "1;2",
                "ref:rspo": 15961,
                "official_name": "Szko\u0142a Podstawowa Nr 15 im. Konstantego Wolnego",
                "name": "Szko\u0142a Podstawowa Nr 15",
                "addr:country": "PL",
                "addr:postcode": "41-500",
                "addr:city": "Chorz\u00f3w",
                "addr:street": "ul. 3 Maja",
                "addr:housenumber": "78",
                "addr:teryt:simc": 11937,
                "addr:teryt:sym_ul": 938887,
                "contact:phone": "+48 322498399",
                "contact:email": "sp15chorzow@poczta.onet.pl",
                "contact:website": "http:\/\/www.sp15.chorzow2.pl",
                "ref:regon": "000721870",
                "ref:vatin": "PL6271176926",
                "operator": "Miasto Chorz\u00f3w - Miasto Na Prawach Powiatu",
                "operator:type": "government",
                "amenity": "school"
            }
        },
        {
            "id": 29883,
            "type": "Feature",
            "geometry": {
                "type": "Point",
                "coordinates": [
                    18.94484,
                    50.30337
                ]
            },
            "properties": {
                "isced:level": "3",
                "ref:rspo": 29883,
                "official_name": "Ii Liceum Og\u00f3lnokszta\u0142c\u0105ce im. Juliusza Ligonia",
                "name": "Ii Liceum Og\u00f3lnokszta\u0142c\u0105ce",
                "addr:country": "PL",
                "addr:postcode": "41-500",
                "addr:city": "Chorz\u00f3w",
                "addr:street": "ul. 3 Maja",
                "addr:housenumber": "22",
                "addr:teryt:simc": 11937,
                "addr:teryt:sym_ul": 938887,
                "contact:phone": "+48 322411711",
                "contact:email": "ligon.chorzow@gmail.com",
                "contact:website": "http:\/\/www.ligon.pl",
                "ref:regon": "000721685",
                "ref:vatin": "PL6271722553",
                "operator": "Miasto Chorz\u00f3w - Miasto Na Prawach Powiatu",
                "operator:type": "government",
                "amenity": "school"
            }
        },
        {
            "id": 131804,
            "type": "Feature",
            "geometry": {
                "type": "Point",
                "coordinates": [
                    18.94484,
                    50.30334
                ]
            },
            "properties": {
                "isced:level": "3",
                "ref:rspo": 131804,
                "official_name": "Atut - Liceum Og\u00f3lnokszta\u0142c\u0105ce dla Doros\u0142ych",
                "name": "Atut - Liceum Og\u00f3lnokszta\u0142c\u0105ce dla Doros\u0142ych",
                "addr:country": "PL",
                "addr:postcode": "41-500",
                "addr:city": "Chorz\u00f3w",
                "addr:street": "ul. 3 Maja",
                "addr:housenumber": "22",
                "addr:teryt:simc": 11937,
                "addr:teryt:sym_ul": 938887,
                "contact:phone": "+48 513759842",
                "contact:email": "chorzow@atutstrefarozwoju.pl",
                "contact:website": "http:\/\/www.atutstrefarozwoju.pl",
                "ref:regon": "365350728",
                "operator": "Atut Strefa Rozwoju Chorz\u00f3w Sp\u00f3\u0142ka Z Ograniczon\u0105 Odpowiedzialno\u015bci\u0105",
                "operator:type": "private",
                "amenity": "school"
            }
        },
        {
            "id": 131807,
            "type": "Feature",
            "geometry": {
                "type": "Point",
                "coordinates": [
                    18.94484,
                    50.30331
                ]
            },
            "properties": {
                "isced:level": "4",
                "ref:rspo": 131807,
                "official_name": "Atut - Szko\u0142a Policealna w Chorzowie",
                "name": "Atut - Szko\u0142a Policealna w Chorzowie",
                "addr:country": "PL",
                "addr:postcode": "41-500",
                "addr:city": "Chorz\u00f3w",
                "addr:street": "ul. 3 Maja",
                "addr:housenumber": "22",
                "addr:teryt:simc": 11937,
                "addr:teryt:sym_ul": 938887,
                "contact:phone": "+48 513759842",
                "contact:email": "chorzow@atutstrefarozwoju.pl",
                "contact:website": "http:\/\/www.atutstrefarozwoju.pl",
                "ref:regon": "365350763",
                "operator": "Danuta Rynkiewicz",
                "operator:type": "private",
                "amenity": "college"
            }
        },
        {
            "id": 132108,
            "type": "Feature",
            "geometry": {
                "type": "Point",
                "coordinates": [
                    18.94484,
                    50.30328
                ]
            },
            "properties": {
                "ref:rspo": 132108,
                "official_name": "Atut - Centrum Szkoleniowe w Chorzowie",
                "name": "Atut - Centrum Szkoleniowe w Chorzowie",
                "addr:country": "PL",
                "addr:postcode": "41-500",
                "addr:city": "Chorz\u00f3w",
                "addr:street": "ul. 3 Maja",
                "addr:housenumber": "22",
                "addr:teryt:simc": 11937,
                "addr:teryt:sym_ul": 938887,
                "contact:phone": "+48 513759842",
                "contact:email": "chorzow@atutstrefarozwoju.pl",
                "contact:website": "http:\/\/www.atutstrefarozwoju.pl",
                "ref:regon": "365463645",
                "operator": "Danuta Rynkiewicz",
                "operator:type": "private",
                "fixme": "w zale\u017cno\u015bci od przedmiotu dzia\u0142alno\u015bci (np. amenity=training + training=*, amenity=dancing_school, amenity=language_school, amenity=music_school)"
            }
        },
        {
            "id": 132701,
            "type": "Feature",
            "geometry": {
                "type": "Point",
                "coordinates": [
                    18.94484,
                    50.30325
                ]
            },
            "properties": {
                "isced:level": "4",
                "ref:rspo": 132701,
                "official_name": "Atut - Policealna Szko\u0142a Medyczna w Chorzowie",
                "name": "Atut - Policealna Szko\u0142a Medyczna w Chorzowie",
                "addr:country": "PL",
                "addr:postcode": "41-500",
                "addr:city": "Chorz\u00f3w",
                "addr:street": "ul. 3 Maja",
                "addr:housenumber": "22",
                "addr:teryt:simc": 11937,
                "addr:teryt:sym_ul": 938887,
                "contact:phone": "+48 502704840",
                "contact:email": "chorzow@atutstrefarozwoju.pl",
                "contact:website": "http:\/\/www.atutstrefarozwoju.pl",
                "ref:regon": "366066975",
                "operator": "Danuta Rynkiewicz",
                "operator:type": "private",
                "amenity": "college"
            }
        },
        {
            "id": 266234,
            "type": "Feature",
            "geometry": {
                "type": "Point",
                "coordinates": [
                    18.94484,
                    50.30322
                ]
            },
            "properties": {
                "isced:level": "1;2",
                "ref:rspo": 266234,
                "official_name": "Atut - Szko\u0142a Podstawowa dla Doros\u0142ych w Chorzowie",
                "name": "Atut - Szko\u0142a Podstawowa dla Doros\u0142ych w Chorzowie",
                "addr:country": "PL",
                "addr:postcode": "41-500",
                "addr:city": "Chorz\u00f3w",
                "addr:street": "ul. 3 Maja",
                "addr:housenumber": "22",
                "addr:teryt:simc": 11937,
                "addr:teryt:sym_ul": 938887,
                "contact:phone": "+48 513759842",
                "contact:email": "chorzow@atutstrefarozwoju.pl",
                "contact:website": "http:\/\/www.atutstrefarozwoju.pl",
                "ref:regon": "369361640",
                "operator": "Atut Strefa Rozwoju Chorz\u00f3w Sp\u00f3\u0142ka Z Ograniczon\u0105 Odpowiedzialno\u015bci\u0105",
                "operator:type": "private",
                "amenity": "school"
            }
        },
        {
            "id": 275323,
            "type": "Feature",
            "geometry": {
                "type": "Point",
                "coordinates": [
                    18.94484,
                    50.30319
                ]
            },
            "properties": {
                "isced:level": "4",
                "ref:rspo": 275323,
                "official_name": "\u015aL\u0105skie Centrum Edukacji Medycznej",
                "name": "\u015aL\u0105skie Centrum Edukacji Medycznej",
                "addr:country": "PL",
                "addr:postcode": "41-500",
                "addr:city": "Chorz\u00f3w",
                "addr:street": "ul. 3 Maja",
                "addr:housenumber": "22",
                "addr:teryt:simc": 11937,
                "addr:teryt:sym_ul": 938887,
                "contact:phone": "+48 785777415",
                "contact:email": "sekretariat.scem@gmail.com",
                "contact:website": "http:\/\/www.start-eu.com.pl",
                "ref:regon": "386810889",
                "operator": "\"Fundacja Niedaleko\"",
                "operator:type": "ngo",
                "amenity": "college"
            }
        },
        {
            "id": 277017,
            "type": "Feature",
            "geometry": {
                "type": "Point",
                "coordinates": [
                    18.94484,
                    50.30316
                ]
            },
            "properties": {
                "isced:level": "3",
                "ref:rspo": 277017,
                "official_name": "Liceum Og\u00f3lnokszta\u0142c\u0105ce im.stefana Banacha",
                "name": "Liceum Og\u00f3lnokszta\u0142c\u0105ce im.stefana Banacha",
                "addr:country": "PL",
                "addr:postcode": "41-500",
                "addr:city": "Chorz\u00f3w",
                "addr:street": "ul. 3 Maja",
                "addr:housenumber": "22",
                "addr:teryt:simc": 11937,
                "addr:teryt:sym_ul": 938887,
                "contact:phone": "+48 784364830",
                "contact:email": "sekretariat@spatia.pl",
                "contact:website": "http:\/\/www.liceumbanacha.pl",
                "ref:regon": "388009262",
                "operator": "Fundacja Rozwoju Edukacji Spatia",
                "operator:type": "ngo",
                "amenity": "school"
            }
        },
        {
            "id": 38545,
            "type": "Feature",
            "geometry": {
                "type": "Point",
                "coordinates": [
                    18.94484,
                    50.30313
                ]
            },
            "properties": {
                "ref:rspo": 38545,
                "official_name": "Pedagogiczna Biblioteka Wojew\u00f3dzka im. J. Lompy w Katowicach Filia w Chorzowie",
                "name": "Pedagogiczna Biblioteka Wojew\u00f3dzka",
                "addr:country": "PL",
                "addr:postcode": "41-506",
                "addr:city": "Chorz\u00f3w",
                "addr:street": "ul. 3 Maja",
                "addr:housenumber": "22",
                "addr:teryt:simc": 11937,
                "addr:teryt:sym_ul": 938887,
                "contact:phone": "+48 501647965",
                "contact:email": "chorzow@pbw.katowice.pl",
                "contact:website": "http:\/\/www.chorzow.pbw.katowice.pl",
                "ref:regon": "195400000",
                "ref:vatin": "PL6341759249",
                "operator": "Wojew\u00f3dztwo \u015al\u0105skie",
                "operator:type": "government",
                "amenity": "library",
                "note": "Parent RSPO: 25643"
            }
        },
        {
            "id": 27266,
            "type": "Feature",
            "geometry": {
                "type": "Point",
                "coordinates": [
                    18.9476,
                    50.3036
                ]
            },
            "properties": {
                "ref:rspo": 27266,
                "official_name": "Zesp\u00f3\u0142 Szk\u00f3\u0142 Specjalnych Nr 3",
                "name": "Zesp\u00f3\u0142 Szk\u00f3\u0142 Specjalnych Nr 3",
                "addr:country": "PL",
                "addr:postcode": "41-500",
                "addr:city": "Chorz\u00f3w",
                "addr:street": "ul. 3 Maja",
                "addr:housenumber": "16",
                "addr:teryt:simc": 11937,
                "addr:teryt:sym_ul": 938887,
                "contact:phone": "+48 322410337",
                "contact:email": "zsschorzow@o2.pl",
                "contact:website": "http:\/\/www.zss3chorzow.edupage.org",
                "ref:regon": "000861363",
                "ref:vatin": "PL6271696198",
                "operator": "Miasto Chorz\u00f3w - Miasto Na Prawach Powiatu",
                "operator:type": "government",
                "landuse": "education",
                "fixme": "amenity=school, amenity=college albo landuse=education w zale\u017cno\u015bci od tego, jakie plac\u00f3wki wchodz\u0105 w sk\u0142ad zespo\u0142u. Sprawd\u017a, kiedy stosowa\u0107 amenity=* a kiedy landuse=education.",
                "note": "Children RSPO: 29810;29840;29856"
            }
        },
        {
            "id": 29810,
            "type": "Feature",
            "geometry": {
                "type": "Point",
                "coordinates": [
                    18.9476,
                    50.30357
                ]
            },
            "properties": {
                "isced:level": "1;2",
                "ref:rspo": 29810,
                "official_name": "Zesp\u00f3\u0142 Szk\u00f3\u0142 Specjalnych Nr 3 - Szko\u0142a Podstawowa Specjalna Nr 26",
                "name": "Zesp\u00f3\u0142 Szk\u00f3\u0142 Specjalnych Nr 3 - Szko\u0142a Podstawowa Specjalna Nr 26",
                "addr:country": "PL",
                "addr:postcode": "41-500",
                "addr:city": "Chorz\u00f3w",
                "addr:street": "ul. 3 Maja",
                "addr:housenumber": "16",
                "addr:teryt:simc": 11937,
                "addr:teryt:sym_ul": 938887,
                "contact:phone": "+48 322410337",
                "contact:email": "zss3chorzow@zss3chorzow.edu.pl",
                "contact:website": "http:\/\/www.zss3chorzow.edupage.org",
                "ref:regon": "272220630",
                "operator": "Miasto Chorz\u00f3w - Miasto Na Prawach Powiatu",
                "operator:type": "government",
                "amenity": "school",
                "note": "Parent RSPO: 27266"
            }
        },
        {
            "id": 29840,
            "type": "Feature",
            "geometry": {
                "type": "Point",
                "coordinates": [
                    18.9476,
                    50.303540000000005
                ]
            },
            "properties": {
                "isced:level": "3",
                "ref:rspo": 29840,
                "official_name": "Zesp\u00f3\u0142 Szk\u00f3\u0142 Specjalnych Nr 3 - Bran\u017cowa Szko\u0142a I Stopnia Specjalna",
                "name": "Zesp\u00f3\u0142 Szk\u00f3\u0142 Specjalnych Nr 3 - Bran\u017cowa Szko\u0142a I Stopnia Specjalna",
                "addr:country": "PL",
                "addr:postcode": "41-500",
                "addr:city": "Chorz\u00f3w",
                "addr:street": "ul. 3 Maja",
                "addr:housenumber": "16",
                "addr:teryt:simc": 11937,
                "addr:teryt:sym_ul": 938887,
                "contact:phone": "+48 322410337",
                "contact:email": "zsschorzow@o2.pl",
                "contact:website": "http:\/\/www.zss3chorzow.edupage.org",
                "ref:regon": "000862760",
                "operator": "Miasto Chorz\u00f3w - Miasto Na Prawach Powiatu",
                "operator:type": "government",
                "amenity": "school",
                "note": "Parent RSPO: 27266"
            }
        },
        {
            "id": 29856,
            "type": "Feature",
            "geometry": {
                "type": "Point",
                "coordinates": [
                    18.9476,
                    50.30351
                ]
            },
            "properties": {
                "ref:rspo": 29856,
                "official_name": "Zesp\u00f3\u0142 Szk\u00f3\u0142 Specjalnych Nr 3 - Trzyletnia Szko\u0142a Przysposabiaj\u0105ca Do Pracy",
                "name": "Zesp\u00f3\u0142 Szk\u00f3\u0142 Specjalnych Nr 3 - Trzyletnia Szko\u0142a Przysposabiaj\u0105ca Do Pracy",
                "addr:country": "PL",
                "addr:postcode": "41-500",
                "addr:city": "Chorz\u00f3w",
                "addr:street": "ul. 3 Maja",
                "addr:housenumber": "16",
                "addr:teryt:simc": 11937,
                "addr:teryt:sym_ul": 938887,
                "contact:phone": "+48 322410337",
                "contact:email": "zsschorzow@o2.pl",
                "contact:website": "http:\/\/www.zss3chorzow.edupage.org",
                "ref:regon": "240435002",
                "operator": "Miasto Chorz\u00f3w - Miasto Na Prawach Powiatu",
                "operator:type": "government",
                "amenity": "school",
                "note": "Parent RSPO: 27266"
            }
        },
        {
            "id": 18446,
            "type": "Feature",
            "geometry": {
                "type": "Point",
                "coordinates": [
                    18.95476,
                    50.30365
                ]
            },
            "properties": {
                "ref:rspo": 18446,
                "official_name": "Instytut Kszta\u0142cenia Kadr I Nauczycieli",
                "name": "Instytut Kszta\u0142cenia Kadr I Nauczycieli",
                "addr:country": "PL",
                "addr:postcode": "41-500",
                "addr:city": "Chorz\u00f3w",
                "addr:street": "ul. Metalowc\u00f3w",
                "addr:housenumber": "7",
                "addr:teryt:simc": 12632,
                "addr:teryt:sym_ul": 938887,
                "contact:phone": "+48 322411731",
                "contact:email": "rektorat@socius.edu.pl",
                "contact:website": "http:\/\/www.socius.edu.pl",
                "ref:regon": "243048990",
                "ref:vatin": "PL9542528222",
                "operator": "Fundacja \"Lepszy \u015awiat\"",
                "operator:type": "ngo",
                "amenity": "training"
            }
        },
        {
            "id": 38918,
            "type": "Feature",
            "geometry": {
                "type": "Point",
                "coordinates": [
                    18.94358,
                    50.30416
                ]
            },
            "properties": {
                "ref:rspo": 38918,
                "official_name": "Przedszkole Niepubliczne Zgromadzenia Si\u00f3str S\u0142u\u017cebniczek Nmp im. \u015aw. J\u00f3zefa",
                "name": "Przedszkole Niepubliczne Zgromadzenia Si\u00f3str S\u0142u\u017cebniczek Nmp",
                "addr:country": "PL",
                "addr:postcode": "41-500",
                "addr:city": "Chorz\u00f3w",
                "addr:street": "ul. Karola Miarki",
                "addr:housenumber": "12",
                "addr:teryt:simc": 12674,
                "addr:teryt:sym_ul": 938887,
                "contact:phone": "+48 511224166",
                "contact:email": "przedszkole.swjozef@gmail.com",
                "contact:website": "http:\/\/www.przedszkole-swjozef.edupage.org",
                "ref:regon": "243077939",
                "ref:vatin": "PL6272466833",
                "operator": "Zgromadzenie Si\u00f3str S\u0142u\u017cebniczek Nmp Np  Prowincja Katowicka",
                "operator:type": "religious",
                "amenity": "kindergarten"
            }
        },
        {
            "id": 27350,
            "type": "Feature",
            "geometry": {
                "type": "Point",
                "coordinates": [
                    18.97599,
                    50.30426
                ]
            },
            "properties": {
                "ref:rspo": 27350,
                "official_name": "Zesp\u00f3\u0142 Szk\u00f3\u0142 Mistrzostwa Sportowego",
                "name": "Zesp\u00f3\u0142 Szk\u00f3\u0142 Mistrzostwa Sportowego",
                "addr:country": "PL",
                "addr:postcode": "41-503",
                "addr:city": "Chorz\u00f3w",
                "addr:street": "ul. Harcerska",
                "addr:housenumber": "2",
                "addr:teryt:simc": 6523,
                "addr:teryt:sym_ul": 938887,
                "contact:phone": "+48 322410421",
                "contact:email": "sekretariat@zsms.edu.pl",
                "contact:website": "http:\/\/www.zsms.edu.pl",
                "ref:regon": "240115585",
                "ref:vatin": "PL6272547678",
                "operator": "Miasto Chorz\u00f3w - Miasto Na Prawach Powiatu",
                "operator:type": "government",
                "landuse": "education",
                "fixme": "amenity=school, amenity=college albo landuse=education w zale\u017cno\u015bci od tego, jakie plac\u00f3wki wchodz\u0105 w sk\u0142ad zespo\u0142u. Sprawd\u017a, kiedy stosowa\u0107 amenity=* a kiedy landuse=education.",
                "note": "Children RSPO: 30058;196405"
            }
        },
        {
            "id": 30058,
            "type": "Feature",
            "geometry": {
                "type": "Point",
                "coordinates": [
                    18.97599,
                    50.30423
                ]
            },
            "properties": {
                "isced:level": "3",
                "ref:rspo": 30058,
                "official_name": "Zesp\u00f3\u0142 Szk\u00f3\u0142 Mistrzostwa Sportowego - IX Liceum Og\u00f3lnokszta\u0142c\u0105ce Mistrzostwa Sportowego im. Mi\u0142o\u015bnik\u00f3w Ziemi \u015aL\u0105skiej",
                "name": "Zesp\u00f3\u0142 Szk\u00f3\u0142 Mistrzostwa Sportowego - IX Liceum Og\u00f3lnokszta\u0142c\u0105ce Mistrzostwa Sportowego",
                "addr:country": "PL",
                "addr:postcode": "41-503",
                "addr:city": "Chorz\u00f3w",
                "addr:street": "ul. Harcerska",
                "addr:housenumber": "2",
                "addr:teryt:simc": 6523,
                "addr:teryt:sym_ul": 938887,
                "contact:phone": "+48 322410421",
                "contact:email": "mankagim6@interia.pl",
                "contact:website": "http:\/\/www.zsms.edu.pl",
                "ref:regon": "240115600",
                "ref:vatin": "PL6272547684",
                "operator": "Miasto Chorz\u00f3w - Miasto Na Prawach Powiatu",
                "operator:type": "government",
                "amenity": "school",
                "note": "Parent RSPO: 27350"
            }
        },
        {
            "id": 196405,
            "type": "Feature",
            "geometry": {
                "type": "Point",
                "coordinates": [
                    18.97599,
                    50.3042
                ]
            },
            "properties": {
                "isced:level": "1;2",
                "ref:rspo": 196405,
                "official_name": "Szko\u0142a Podstawowa Mistrzostwa Sportowego",
                "name": "Szko\u0142a Podstawowa Mistrzostwa Sportowego",
                "addr:country": "PL",
                "addr:postcode": "41-503",
                "addr:city": "Chorz\u00f3w",
                "addr:street": "ul. Harcerska",
                "addr:housenumber": "2",
                "addr:teryt:simc": 6523,
                "addr:teryt:sym_ul": 938887,
                "contact:phone": "+48 322410421",
                "contact:email": "mankagim6@interia.pl",
                "contact:website": "http:\/\/www.zsms.edu.pl",
                "ref:regon": "367991822",
                "operator": "Miasto Chorz\u00f3w - Miasto Na Prawach Powiatu",
                "operator:type": "government",
                "amenity": "school",
                "note": "Parent RSPO: 27350"
            }
        },
        {
            "id": 29557,
            "type": "Feature",
            "geometry": {
                "type": "Point",
                "coordinates": [
                    18.94547,
                    50.30468
                ]
            },
            "properties": {
                "isced:level": "1;2",
                "ref:rspo": 29557,
                "official_name": "Szko\u0142a Podstawowa Nr 22 im. Karola Miarki Z Oddzia\u0142ami Integracyjnymi",
                "name": "Szko\u0142a Podstawowa Nr 22",
                "addr:country": "PL",
                "addr:postcode": "41-500",
                "addr:city": "Chorz\u00f3w",
                "addr:street": "ul. \u015bw. Piotra",
                "addr:housenumber": "9a",
                "addr:teryt:simc": 16303,
                "addr:teryt:sym_ul": 938887,
                "contact:phone": "+48 323481283",
                "contact:email": "sekretariat@zsi-chorzow.pl",
                "ref:regon": "000721930",
                "operator": "Miasto Chorz\u00f3w - Miasto Na Prawach Powiatu",
                "operator:type": "government",
                "amenity": "school"
            }
        },
        {
            "id": 18710,
            "type": "Feature",
            "geometry": {
                "type": "Point",
                "coordinates": [
                    18.97395,
                    50.30512
                ]
            },
            "properties": {
                "ref:rspo": 18710,
                "official_name": "Przedszkole Nr 17",
                "name": "Przedszkole Nr 17",
                "addr:country": "PL",
                "addr:postcode": "41-503",
                "addr:city": "Chorz\u00f3w",
                "addr:street": "ul. Jana Kasprowicza",
                "addr:housenumber": "1",
                "addr:teryt:simc": 8153,
                "addr:teryt:sym_ul": 938887,
                "contact:phone": "+48 322416274",
                "contact:email": "przedszkolenr17chorzow@wp.pl",
                "contact:website": "http:\/\/www.przedszkolenr17chorzow.edupage.org",
                "ref:regon": "241788607",
                "ref:vatin": "PL6271176145",
                "operator": "Miasto Chorz\u00f3w - Miasto Na Prawach Powiatu",
                "operator:type": "government",
                "amenity": "kindergarten"
            }
        },
        {
            "id": 133367,
            "type": "Feature",
            "geometry": {
                "type": "Point",
                "coordinates": [
                    18.93248,
                    50.30549
                ]
            },
            "properties": {
                "ref:rspo": 133367,
                "official_name": "O\u015brodek Kszta\u0142cenia Tomasz Sienkiewicz Szkolenia",
                "name": "O\u015brodek Kszta\u0142cenia Tomasz Sienkiewicz Szkolenia",
                "addr:country": "PL",
                "addr:postcode": "41-500",
                "addr:city": "Chorz\u00f3w",
                "addr:street": "ul. Sk\u0142adowa",
                "addr:housenumber": "17",
                "addr:door": "9",
                "addr:teryt:simc": 20060,
                "addr:teryt:sym_ul": 938887,
                "contact:phone": "+48 603054688",
                "contact:email": "szkolenia@tomaszsienkiewicz.pl",
                "ref:regon": "367127443",
                "operator": "Tomasz Sienkiewicz",
                "operator:type": "private",
                "fixme": "w zale\u017cno\u015bci od przedmiotu dzia\u0142alno\u015bci (np. amenity=training + training=*, amenity=dancing_school, amenity=language_school, amenity=music_school)"
            }
        },
        {
            "id": 43641,
            "type": "Feature",
            "geometry": {
                "type": "Point",
                "coordinates": [
                    18.94537,
                    50.30565
                ]
            },
            "properties": {
                "isced:level": "4",
                "ref:rspo": 43641,
                "official_name": "Szko\u0142a Policealna Fizjoterapii",
                "name": "Szko\u0142a Policealna Fizjoterapii",
                "addr:country": "PL",
                "addr:postcode": "41-500",
                "addr:city": "Chorz\u00f3w",
                "addr:street": "ul. \u015bw. Piotra",
                "addr:housenumber": "9",
                "addr:teryt:simc": 16303,
                "addr:teryt:sym_ul": 938887,
                "contact:phone": "+48 608190921",
                "contact:email": "spfdyrektor@gmail.com",
                "ref:regon": "243075685",
                "operator": "Polskie Towarzystwo Limfologiczne",
                "operator:type": "ngo",
                "amenity": "college"
            }
        },
        {
            "id": 43643,
            "type": "Feature",
            "geometry": {
                "type": "Point",
                "coordinates": [
                    18.94537,
                    50.30562
                ]
            },
            "properties": {
                "ref:rspo": 43643,
                "official_name": "Specjalistyczny Punkt Wczesnej Rewalidacji",
                "name": "Specjalistyczny Punkt Wczesnej Rewalidacji",
                "addr:country": "PL",
                "addr:postcode": "41-500",
                "addr:city": "Chorz\u00f3w",
                "addr:street": "ul. \u015bw. Piotra",
                "addr:housenumber": "9",
                "addr:teryt:simc": 16303,
                "addr:teryt:sym_ul": 938887,
                "contact:phone": "+48 322411113",
                "contact:email": "fundacja@rfpn.org",
                "contact:website": "http:\/\/rfpn.org",
                "ref:regon": "243083035",
                "operator": "Regionalna Fundacja Pomocy Niewidomym",
                "operator:type": "ngo",
                "amenity": "school"
            }
        },
        {
            "id": 127280,
            "type": "Feature",
            "geometry": {
                "type": "Point",
                "coordinates": [
                    18.94537,
                    50.30559
                ]
            },
            "properties": {
                "ref:rspo": 127280,
                "official_name": "Niepubliczna Poradnia Psychologiczno-Pedagogiczna Spero Terapia I Wsparcie",
                "name": "Niepubliczna Poradnia Psychologiczno-Pedagogiczna Spero Terapia I Wsparcie",
                "addr:country": "PL",
                "addr:postcode": "41-500",
                "addr:city": "Chorz\u00f3w",
                "addr:street": "ul. \u015bw. Piotra",
                "addr:housenumber": "9",
                "addr:teryt:simc": 16303,
                "addr:teryt:sym_ul": 938887,
                "contact:phone": "+48 607777641",
                "contact:email": "nppp.spero@rfpn.org",
                "contact:website": "http:\/\/spero.rfpn.org",
                "ref:regon": "361305062",
                "operator": "Spero Terapia I Wsparcie Sp\u00f3\u0142ka Z Ograniczon\u0105 Odpowiedzialno\u015bci\u0105",
                "operator:type": "private",
                "fixme": "w zale\u017cno\u015bci od przedmiotu dzia\u0142alno\u015bci (np. healthcare=counselling + counselling_type=education albo healthcare=psychotherapist)"
            }
        },
        {
            "id": 27652,
            "type": "Feature",
            "geometry": {
                "type": "Point",
                "coordinates": [
                    18.94666,
                    50.30592
                ]
            },
            "properties": {
                "ref:rspo": 27652,
                "official_name": "Zesp\u00f3\u0142 Szk\u00f3\u0142 Technicznych I Og\u00f3lnokszta\u0142c\u0105cych Nr 4 im. J\u0119drzeja \u015aniadeckiego",
                "name": "Zesp\u00f3\u0142 Szk\u00f3\u0142 Technicznych I Og\u00f3lnokszta\u0142c\u0105cych Nr 4",
                "addr:country": "PL",
                "addr:postcode": "41-500",
                "addr:city": "Chorz\u00f3w",
                "addr:street": "ul. \u015bw. Piotra",
                "addr:housenumber": "1",
                "addr:teryt:simc": 16303,
                "addr:teryt:sym_ul": 938887,
                "contact:phone": "+48 322411717",
                "contact:email": "admin@sniadecki.edu.pl",
                "contact:website": "http:\/\/zstio4chorzow.pl",
                "ref:regon": "000185880",
                "ref:vatin": "PL6271722949",
                "operator": "Miasto Chorz\u00f3w - Miasto Na Prawach Powiatu",
                "operator:type": "government",
                "landuse": "education",
                "fixme": "amenity=school, amenity=college albo landuse=education w zale\u017cno\u015bci od tego, jakie plac\u00f3wki wchodz\u0105 w sk\u0142ad zespo\u0142u. Sprawd\u017a, kiedy stosowa\u0107 amenity=* a kiedy landuse=education.",
                "note": "Children RSPO: 30427;30458;30503"
            }
        },
        {
            "id": 30427,
            "type": "Feature",
            "geometry": {
                "type": "Point",
                "coordinates": [
                    18.94666,
                    50.30589
                ]
            },
            "properties": {
                "isced:level": "3",
                "ref:rspo": 30427,
                "official_name": "Zesp\u00f3\u0142 Szk\u00f3\u0142 Technicznych I Og\u00f3lnokszta\u0142c\u0105cych Nr 4 im. J\u0119drzeja \u015aniadeckiego - Technikum Chemiczne",
                "name": "Zesp\u00f3\u0142 Szk\u00f3\u0142 Technicznych I Og\u00f3lnokszta\u0142c\u0105cych Nr 4",
                "addr:country": "PL",
                "addr:postcode": "41-500",
                "addr:city": "Chorz\u00f3w",
                "addr:street": "ul. \u015bw. Piotra",
                "addr:housenumber": "1",
                "addr:teryt:simc": 16303,
                "addr:teryt:sym_ul": 938887,
                "contact:phone": "+48 322411717",
                "contact:email": "admin@sniadecki.edu.pl",
                "contact:website": "http:\/\/zstio4chorzow.pl",
                "ref:regon": "272111734",
                "operator": "Miasto Chorz\u00f3w - Miasto Na Prawach Powiatu",
                "operator:type": "government",
                "amenity": "school",
                "note": "Parent RSPO: 27652"
            }
        },
        {
            "id": 30458,
            "type": "Feature",
            "geometry": {
                "type": "Point",
                "coordinates": [
                    18.94666,
                    50.30586
                ]
            },
            "properties": {
                "isced:level": "3",
                "ref:rspo": 30458,
                "official_name": "Zesp\u00f3\u0142 Szk\u00f3\u0142 Technicznych I Og\u00f3lnokszta\u0142c\u0105cych Nr 4 im. J\u0119drzeja \u015aniadeckiego - VII Liceum Og\u00f3lnokszta\u0142c\u0105ce",
                "name": "Zesp\u00f3\u0142 Szk\u00f3\u0142 Technicznych I Og\u00f3lnokszta\u0142c\u0105cych Nr 4",
                "addr:country": "PL",
                "addr:postcode": "41-500",
                "addr:city": "Chorz\u00f3w",
                "addr:street": "ul. \u015bw. Piotra",
                "addr:housenumber": "1",
                "addr:teryt:simc": 16303,
                "addr:teryt:sym_ul": 938887,
                "contact:phone": "+48 322411717",
                "contact:email": "admin@sniadecki.edu.pl",
                "contact:website": "http:\/\/zstio4chorzow.pl",
                "ref:regon": "278118619",
                "operator": "Miasto Chorz\u00f3w - Miasto Na Prawach Powiatu",
                "operator:type": "government",
                "amenity": "school",
                "note": "Parent RSPO: 27652"
            }
        },
        {
            "id": 30503,
            "type": "Feature",
            "geometry": {
                "type": "Point",
                "coordinates": [
                    18.94666,
                    50.30583
                ]
            },
            "properties": {
                "isced:level": "4",
                "ref:rspo": 30503,
                "official_name": "Zesp\u00f3\u0142 Szk\u00f3\u0142 Technicznych I Og\u00f3lnokszta\u0142c\u0105cych Nr 4 im. J\u0119drzeja \u015aniadeckiego - Szko\u0142a Policealna Nr 4",
                "name": "Zesp\u00f3\u0142 Szk\u00f3\u0142 Technicznych I Og\u00f3lnokszta\u0142c\u0105cych Nr 4",
                "addr:country": "PL",
                "addr:postcode": "41-503",
                "addr:city": "Chorz\u00f3w",
                "addr:street": "ul. \u015bw. Piotra",
                "addr:housenumber": "1",
                "addr:teryt:simc": 16303,
                "addr:teryt:sym_ul": 938887,
                "contact:phone": "+48 322411717",
                "contact:email": "admin@sniadecki.edu.pl",
                "contact:website": "http:\/\/zstio4chorzow.pl",
                "ref:regon": "272111770",
                "operator": "Miasto Chorz\u00f3w - Miasto Na Prawach Powiatu",
                "operator:type": "government",
                "amenity": "college",
                "note": "Parent RSPO: 27652"
            }
        },
        {
            "id": 19266,
            "type": "Feature",
            "geometry": {
                "type": "Point",
                "coordinates": [
                    18.94457,
                    50.30788
                ]
            },
            "properties": {
                "ref:rspo": 19266,
                "official_name": "Przedszkole Nr 26",
                "name": "Przedszkole Nr 26",
                "addr:country": "PL",
                "addr:postcode": "41-500",
                "addr:city": "Chorz\u00f3w",
                "addr:street": "ul. Juliusza Ligonia",
                "addr:housenumber": "14",
                "addr:teryt:simc": 11058,
                "addr:teryt:sym_ul": 938887,
                "contact:phone": "+48 322411633",
                "contact:email": "przedszkole26@onet.eu",
                "contact:website": "http:\/\/www.p26chorzow.edupage.org",
                "ref:regon": "241784791",
                "ref:vatin": "PL6271176903",
                "operator": "Miasto Chorz\u00f3w - Miasto Na Prawach Powiatu",
                "operator:type": "government",
                "amenity": "kindergarten"
            }
        },
        {
            "id": 196404,
            "type": "Feature",
            "geometry": {
                "type": "Point",
                "coordinates": [
                    18.94759,
                    50.3085499
                ]
            },
            "properties": {
                "isced:level": "1;2",
                "ref:rspo": 196404,
                "official_name": "Szko\u0142a Podstawowa Nr 39 im.j\u00f3zefa Lompy",
                "name": "Szko\u0142a Podstawowa Nr 39 im.j\u00f3zefa Lompy",
                "addr:country": "PL",
                "addr:postcode": "41-500",
                "addr:city": "Chorz\u00f3w",
                "addr:street": "ul. 11 Listopada",
                "addr:housenumber": "21",
                "addr:teryt:simc": 11205,
                "addr:teryt:sym_ul": 938887,
                "contact:phone": "+48 322411706",
                "contact:email": "sp39@sp39.chorzow.pl",
                "ref:regon": "367991851",
                "operator": "Miasto Chorz\u00f3w - Miasto Na Prawach Powiatu",
                "operator:type": "government",
                "amenity": "school"
            }
        },
        {
            "id": 18637,
            "type": "Feature",
            "geometry": {
                "type": "Point",
                "coordinates": [
                    18.94281,
                    50.30876
                ]
            },
            "properties": {
                "ref:rspo": 18637,
                "official_name": "Przedszkole Nr 7",
                "name": "Przedszkole Nr 7",
                "addr:country": "PL",
                "addr:postcode": "41-500",
                "addr:city": "Chorz\u00f3w",
                "addr:street": "ul. \u0141agiewnicka",
                "addr:housenumber": "16",
                "addr:teryt:simc": 11497,
                "addr:teryt:sym_ul": 938887,
                "contact:phone": "+48 322496022",
                "contact:email": "przedszkole_7@o2.pl",
                "ref:regon": "241784963",
                "ref:vatin": "PL6271175246",
                "operator": "Miasto Chorz\u00f3w - Miasto Na Prawach Powiatu",
                "operator:type": "government",
                "amenity": "kindergarten"
            }
        },
        {
            "id": 196410,
            "type": "Feature",
            "geometry": {
                "type": "Point",
                "coordinates": [
                    18.93439,
                    50.30886
                ]
            },
            "properties": {
                "isced:level": "1;2",
                "ref:rspo": 196410,
                "official_name": "Niepubliczna Szko\u0142a Podstawowa \" Niebieski Zak\u0105tek\" Z Oddzia\u0142ami Integracyjnymi I Specjalnymi w Chorzowie",
                "name": "Niepubliczna Szko\u0142a Podstawowa \" Niebieski Zak\u0105tek\" Z Oddzia\u0142ami Integracyjnymi I Specjalnymi w Chorzowie",
                "addr:country": "PL",
                "addr:postcode": "41-500",
                "addr:city": "Chorz\u00f3w",
                "addr:street": "ul. Opolska",
                "addr:housenumber": "21",
                "addr:teryt:simc": 15095,
                "addr:teryt:sym_ul": 938887,
                "contact:phone": "+48 509820438",
                "contact:email": "dyrektor@niebieskizakatek.pl",
                "ref:regon": "367997262",
                "operator": "Neurons&Future Sp\u00f3\u0142ka Z Ograniczon\u0105 Odpowiedzialno\u015bci\u0105",
                "operator:type": "private",
                "amenity": "school"
            }
        },
        {
            "id": 16028,
            "type": "Feature",
            "geometry": {
                "type": "Point",
                "coordinates": [
                    18.94236,
                    50.30917
                ]
            },
            "properties": {
                "isced:level": "1;2",
                "ref:rspo": 16028,
                "official_name": "Szko\u0142a Podstawowa Nr 17 im.jana Paw\u0142a Ii",
                "name": "Szko\u0142a Podstawowa Nr 17 im.jana Paw\u0142a Ii",
                "addr:country": "PL",
                "addr:postcode": "41-500",
                "addr:city": "Chorz\u00f3w",
                "addr:street": "ul. \u0141agiewnicka",
                "addr:housenumber": "18",
                "addr:teryt:simc": 11497,
                "addr:teryt:sym_ul": 938887,
                "contact:phone": "+48 322496656",
                "contact:email": "sp17@o2.pl",
                "contact:website": "http:\/\/www.sp17chorzow.edu.pl",
                "ref:regon": "000721892",
                "ref:vatin": "PL6271176843",
                "operator": "Miasto Chorz\u00f3w - Miasto Na Prawach Powiatu",
                "operator:type": "government",
                "amenity": "school"
            }
        },
        {
            "id": 18052,
            "type": "Feature",
            "geometry": {
                "type": "Point",
                "coordinates": [
                    18.9747,
                    50.30918
                ]
            },
            "properties": {
                "isced:level": "1;2",
                "ref:rspo": 18052,
                "official_name": "Szko\u0142a Podstawowa Nr 24 im. Powsta\u0144c\u00f3w \u015aL\u0105skich",
                "name": "Szko\u0142a Podstawowa Nr 24",
                "addr:country": "PL",
                "addr:postcode": "41-503",
                "addr:city": "Chorz\u00f3w",
                "addr:street": "ul. 17 Sierpnia",
                "addr:housenumber": "1",
                "addr:teryt:simc": 19875,
                "addr:teryt:sym_ul": 938887,
                "contact:phone": "+48 322410378",
                "contact:email": "sekretariat_sp24@wp.pl",
                "contact:website": "https:\/\/sp24chorzowstary.edupage.org\/",
                "ref:regon": "000721946",
                "ref:vatin": "PL6271176582",
                "operator": "Miasto Chorz\u00f3w - Miasto Na Prawach Powiatu",
                "operator:type": "government",
                "amenity": "school"
            }
        },
        {
            "id": 133419,
            "type": "Feature",
            "geometry": {
                "type": "Point",
                "coordinates": [
                    18.95112,
                    50.31773
                ]
            },
            "properties": {
                "ref:rspo": 133419,
                "official_name": "Karczewska S\u0142awomira \"Eska\" Biuro Us\u0142ug Szkoleniowo-Doradczych",
                "name": "Karczewska S\u0142awomira \"Eska\" Biuro Us\u0142ug Szkoleniowo-Doradczych",
                "addr:country": "PL",
                "addr:postcode": "41-500",
                "addr:city": "Chorz\u00f3w",
                "addr:street": "ul. Okr\u0119\u017cna",
                "addr:housenumber": "32",
                "addr:teryt:simc": 14907,
                "addr:teryt:sym_ul": 938887,
                "contact:phone": "+48 322497425",
                "contact:email": "biuroeska@wp.pl",
                "ref:regon": "367261532",
                "ref:vatin": "PL6271265647",
                "operator": "S\u0142awomira Karczewska",
                "operator:type": "private",
                "fixme": "w zale\u017cno\u015bci od przedmiotu dzia\u0142alno\u015bci (np. amenity=training + training=*, amenity=dancing_school, amenity=language_school, amenity=music_school)"
            }
        },
        {
            "id": 272131,
            "type": "Feature",
            "geometry": {
                "type": "Point",
                "coordinates": [
                    18.97256,
                    50.32241
                ]
            },
            "properties": {
                "ref:rspo": 272131,
                "official_name": "Zesp\u00f3\u0142 Szkolno-Przedszkolny Nr 1 w Chorzowie",
                "name": "Zesp\u00f3\u0142 Szkolno-Przedszkolny Nr 1 w Chorzowie",
                "addr:country": "PL",
                "addr:postcode": "41-503",
                "addr:city": "Chorz\u00f3w",
                "addr:street": "ul. G\u0142\u00f3wna",
                "addr:housenumber": "21",
                "addr:teryt:simc": 5635,
                "addr:teryt:sym_ul": 938887,
                "contact:phone": "+48 322459109",
                "contact:email": "sp25chorzow@wp.pl",
                "ref:regon": "383954949",
                "operator": "Miasto Chorz\u00f3w - Miasto Na Prawach Powiatu",
                "operator:type": "government",
                "landuse": "education",
                "fixme": "amenity=school, amenity=college albo landuse=education w zale\u017cno\u015bci od tego, jakie plac\u00f3wki wchodz\u0105 w sk\u0142ad zespo\u0142u. Sprawd\u017a, kiedy stosowa\u0107 amenity=* a kiedy landuse=education.",
                "note": "Children RSPO: 18243;18816"
            }
        },
        {
            "id": 18243,
            "type": "Feature",
            "geometry": {
                "type": "Point",
                "coordinates": [
                    18.97256,
                    50.322379999999995
                ]
            },
            "properties": {
                "isced:level": "1;2",
                "ref:rspo": 18243,
                "official_name": "Szko\u0142a Podstawowa Nr 25 im.stanis\u0142awa Hadyny",
                "name": "Szko\u0142a Podstawowa Nr 25 im.stanis\u0142awa Hadyny",
                "addr:country": "PL",
                "addr:postcode": "41-508",
                "addr:city": "Chorz\u00f3w",
                "addr:street": "ul. G\u0142\u00f3wna",
                "addr:housenumber": "21",
                "addr:teryt:simc": 5635,
                "addr:teryt:sym_ul": 938887,
                "contact:phone": "+48 322459109",
                "contact:email": "sp25chorzow@wp.pl",
                "contact:website": "http:\/\/www.sp25chorzow.pl",
                "ref:regon": "000721952",
                "ref:vatin": "PL6271176576",
                "operator": "Miasto Chorz\u00f3w - Miasto Na Prawach Powiatu",
                "operator:type": "government",
                "amenity": "school",
                "note": "Parent RSPO: 272131"
            }
        },
        {
            "id": 18816,
            "type": "Feature",
            "geometry": {
                "type": "Point",
                "coordinates": [
                    18.97256,
                    50.32235
                ]
            },
            "properties": {
                "ref:rspo": 18816,
                "official_name": "Przedszkole Nr 22",
                "name": "Przedszkole Nr 22",
                "addr:country": "PL",
                "addr:postcode": "41-503",
                "addr:city": "Chorz\u00f3w",
                "addr:street": "ul. G\u0142\u00f3wna",
                "addr:housenumber": "21",
                "addr:teryt:simc": 5635,
                "addr:teryt:sym_ul": 938887,
                "contact:phone": "+48 322459134",
                "contact:email": "przedszkolenr22chorzow@wp.pl",
                "contact:website": "http:\/\/maciejkowice.pl",
                "ref:regon": "241799918",
                "ref:vatin": "PL6271176524",
                "operator": "Miasto Chorz\u00f3w - Miasto Na Prawach Powiatu",
                "operator:type": "government",
                "amenity": "kindergarten",
                "note": "Parent RSPO: 272131"
            }
        }
    ]
}