{"type":"FeatureCollection","features":[{"id":74210,"type":"Feature","geometry":{"type":"Point","coordinates":[19.409,54.14345]},"properties":{"ref:rspo":74210,"official_name":"O\u015brodek Szkoleniowy Aktywizacji Zawodowej","name":"O\u015brodek Szkoleniowy Aktywizacji Zawodowej","addr:country":"PL","addr:postcode":"82-300","addr:city":"Elbl\u0105g","addr:street":"ul. Skrzydlata","addr:housenumber":"15a","addr:teryt:simc":20158,"addr:teryt:sym_ul":932703,"contact:phone":"+48 556427005","contact:email":"lazaruselblag@poczta.onet.pl","contact:website":"http:\/\/www.lazarus.elblag.com.pl","ref:regon":"281444390","ref:vatin":"PL5782595807","operator":"Elbl\u0105skie Stowarzyszenie Pomocy Humanitarnej Im. \u015aw. \u0141azarza Lazarus","operator:type":"ngo","fixme":"w zale\u017cno\u015bci od przedmiotu dzia\u0142alno\u015bci (np. amenity=training + training=*, amenity=dancing_school, amenity=language_school, amenity=music_school)"}},{"id":38471,"type":"Feature","geometry":{"type":"Point","coordinates":[19.44227,54.14648]},"properties":{"ref:rspo":38471,"official_name":"Centrum Kszta\u0142cenia Ustawicznego w Elbl\u0105gu","name":"Centrum Kszta\u0142cenia Ustawicznego w Elbl\u0105gu","addr:country":"PL","addr:postcode":"82-300","addr:city":"Elbl\u0105g","addr:street":"ul. Rawska","addr:housenumber":"3","addr:teryt:simc":18498,"addr:teryt:sym_ul":932703,"contact:phone":"+48 556258801","contact:email":"ckziu@elblag.eu","ref:regon":"000793733","ref:vatin":"PL5781019711","operator":"Gmina Miasto Elbl\u0105g  Na Prawach Powiatu","operator:type":"government","amenity":"school","fixme":"amenity=school lub amenity=college","note":"Parent RSPO: 119188"}},{"id":92144,"type":"Feature","geometry":{"type":"Point","coordinates":[19.44227,54.146449999999994]},"properties":{"isced:level":"4","ref:rspo":92144,"official_name":"Szko\u0142a Policealna Wchodz\u0105ca w Sk\u0142ad Centrum Kszta\u0142cenia Zawodowego I Ustawicznego w Elbl\u0105gu","name":"Szko\u0142a Policealna Wchodz\u0105ca w Sk\u0142ad Centrum Kszta\u0142cenia Zawodowego I Ustawicznego w Elbl\u0105gu","addr:country":"PL","addr:postcode":"82-300","addr:city":"Elbl\u0105g","addr:street":"ul. Rawska","addr:housenumber":"3","addr:teryt:simc":18498,"addr:teryt:sym_ul":932703,"contact:phone":"+48 556258801","contact:email":"ckziu@elblag.eu","ref:regon":"280034855","ref:vatin":"PL5781019711","operator":"Gmina Miasto Elbl\u0105g  Na Prawach Powiatu","operator:type":"government","amenity":"college","note":"Parent RSPO: 119188"}},{"id":92182,"type":"Feature","geometry":{"type":"Point","coordinates":[19.44227,54.14642]},"properties":{"isced:level":"3","ref:rspo":92182,"official_name":"Liceum Og\u00f3lnokszta\u0142c\u0105ce dla Doros\u0142ych Wchodz\u0105ce w Sk\u0142ad Centrum Kszta\u0142cenia Zawodowego I Ustawicznego w Elbl\u0105gu","name":"Liceum Og\u00f3lnokszta\u0142c\u0105ce dla Doros\u0142ych Wchodz\u0105ce w Sk\u0142ad Centrum Kszta\u0142cenia Zawodowego I Ustawicznego w Elbl\u0105gu","addr:country":"PL","addr:postcode":"82-300","addr:city":"Elbl\u0105g","addr:street":"ul. Rawska","addr:housenumber":"3","addr:teryt:simc":18498,"addr:teryt:sym_ul":932703,"contact:phone":"+48 556258801","contact:email":"ckziu@elblag.eu","ref:regon":"170991332","ref:vatin":"PL5781019711","operator":"Gmina Miasto Elbl\u0105g  Na Prawach Powiatu","operator:type":"government","amenity":"school","note":"Parent RSPO: 119188"}},{"id":120988,"type":"Feature","geometry":{"type":"Point","coordinates":[19.44227,54.14639]},"properties":{"isced:level":"3","ref:rspo":120988,"official_name":"Bran\u017cowa Szko\u0142a I Stopnia Wchodz\u0105ca w Sk\u0142ad Centrum Kszta\u0142cenia Zawodowego I Ustawicznego w Elbl\u0105gu","name":"Bran\u017cowa Szko\u0142a I Stopnia Wchodz\u0105ca w Sk\u0142ad Centrum Kszta\u0142cenia Zawodowego I Ustawicznego w Elbl\u0105gu","addr:country":"PL","addr:postcode":"82-300","addr:city":"Elbl\u0105g","addr:street":"ul. Rawska","addr:housenumber":"3","addr:teryt:simc":18498,"addr:teryt:sym_ul":932703,"contact:phone":"+48 556258801","contact:email":"ckziu@elblag.eu","ref:regon":"281552776","ref:vatin":"PL5781019711","operator":"Gmina Miasto Elbl\u0105g  Na Prawach Powiatu","operator:type":"government","amenity":"school","note":"Parent RSPO: 119188"}},{"id":120989,"type":"Feature","geometry":{"type":"Point","coordinates":[19.44227,54.146359999999994]},"properties":{"isced:level":"3","ref:rspo":120989,"official_name":"Technikum Wchodz\u0105ce w Sk\u0142ad Centrum Kszta\u0142cenia Zawodowego I Ustawicznego w Elbl\u0105gu","name":"Technikum Wchodz\u0105ce w Sk\u0142ad Centrum Kszta\u0142cenia Zawodowego I Ustawicznego w Elbl\u0105gu","addr:country":"PL","addr:postcode":"82-300","addr:city":"Elbl\u0105g","addr:street":"ul. Rawska","addr:housenumber":"3","addr:teryt:simc":18498,"addr:teryt:sym_ul":932703,"contact:phone":"+48 556258801","contact:email":"ckziu@elblag.eu","ref:regon":"281552782","ref:vatin":"PL5781019711","operator":"Gmina Miasto Elbl\u0105g  Na Prawach Powiatu","operator:type":"government","amenity":"school","note":"Parent RSPO: 119188"}},{"id":262995,"type":"Feature","geometry":{"type":"Point","coordinates":[19.44227,54.14633]},"properties":{"isced:level":"1;2","ref:rspo":262995,"official_name":"Szko\u0142a Podstawowa dla Doros\u0142ych w Elbl\u0105gu","name":"Szko\u0142a Podstawowa dla Doros\u0142ych w Elbl\u0105gu","addr:country":"PL","addr:postcode":"82-300","addr:city":"Elbl\u0105g","addr:street":"ul. Rawska","addr:housenumber":"3","addr:teryt:simc":18498,"addr:teryt:sym_ul":932703,"contact:phone":"+48 556258801","contact:email":"ckziu@elblag.eu","ref:regon":"368085630","ref:vatin":"PL5781019711","operator":"Gmina Miasto Elbl\u0105g  Na Prawach Powiatu","operator:type":"government","amenity":"school","note":"Parent RSPO: 119188"}},{"id":278229,"type":"Feature","geometry":{"type":"Point","coordinates":[19.42154,54.14715]},"properties":{"ref:rspo":278229,"official_name":"Niepubliczna Plac\u00f3wka Kszta\u0142cenia Ustawicznego \"Promyk S\u0142o\u0144ca\" w Elbl\u0105gu","name":"Niepubliczna Plac\u00f3wka Kszta\u0142cenia Ustawicznego \"Promyk S\u0142o\u0144ca\" w Elbl\u0105gu","addr:country":"PL","addr:postcode":"82-300","addr:city":"Elbl\u0105g","addr:street":"ul. Lotnicza","addr:housenumber":"2","addr:teryt:simc":11270,"addr:teryt:sym_ul":932703,"contact:phone":"+48 717950950","contact:email":"szkolenia@promykslonca.pl","ref:regon":"389851989","operator":"Fundacja \"Promyk S\u0142o\u0144ca\"","operator:type":"ngo","fixme":"w zale\u017cno\u015bci od przedmiotu dzia\u0142alno\u015bci (np. amenity=training + training=*, amenity=dancing_school, amenity=language_school, amenity=music_school)"}},{"id":274250,"type":"Feature","geometry":{"type":"Point","coordinates":[19.41133,54.14729]},"properties":{"ref:rspo":274250,"official_name":"O\u015brodek Szkole\u0144 Dro\u017cd\u017cewscy","name":"O\u015brodek Szkole\u0144 Dro\u017cd\u017cewscy","addr:country":"PL","addr:postcode":"82-300","addr:city":"Elbl\u0105g","addr:street":"ul. Skrzydlata","addr:housenumber":"1","addr:teryt:simc":20158,"addr:teryt:sym_ul":932703,"contact:email":"polsafety@poczta.onet.pl","contact:website":"http:\/\/www.drozdzewscy.edu.pl","ref:regon":"385481716","operator":"Janusz Dro\u017cd\u017cewski","operator:type":"private","fixme":"w zale\u017cno\u015bci od przedmiotu dzia\u0142alno\u015bci (np. amenity=training + training=*, amenity=dancing_school, amenity=language_school, amenity=music_school) albo amenity=school, amenity=college, albo landuse=education w zale\u017cno\u015bci od tego, jakie plac\u00f3wki wchodz\u0105 w sk\u0142ad zespo\u0142u. Sprawd\u017a, kiedy stosowa\u0107 amenity=* a kiedy landuse=education."}},{"id":6132,"type":"Feature","geometry":{"type":"Point","coordinates":[19.4067599,54.14745]},"properties":{"ref:rspo":6132,"official_name":"Przedszkole Nr 18 w Elbl\u0105gu","name":"Przedszkole Nr 18 w Elbl\u0105gu","addr:country":"PL","addr:postcode":"82-300","addr:city":"Elbl\u0105g","addr:street":"ul. Romualda Mielczarskiego","addr:housenumber":"47","addr:teryt:simc":12782,"addr:teryt:sym_ul":932703,"contact:phone":"+48 556258110","contact:email":"przedszkole18@elblag.eu","ref:regon":"280563810","ref:vatin":"PL5783088403","operator":"Gmina Miasto Elbl\u0105g  Na Prawach Powiatu","operator:type":"government","amenity":"kindergarten"}},{"id":74394,"type":"Feature","geometry":{"type":"Point","coordinates":[19.44366,54.14783]},"properties":{"ref:rspo":74394,"official_name":"Niepubliczne Przedszkole Katolickie \"Dorotka\"","name":"Niepubliczne Przedszkole Katolickie \"Dorotka\"","addr:country":"PL","addr:postcode":"82-300","addr:city":"Elbl\u0105g","addr:street":"ul. Rawska","addr:housenumber":"16","addr:door":"A","addr:teryt:simc":18498,"addr:teryt:sym_ul":932703,"contact:phone":"+48 663661788","contact:email":"przedszkole@blogoslawionadorota.org","contact:website":"http:\/\/www.przedszkole.blogoslawionadorota.org","ref:regon":"281443366","ref:vatin":"PL5792068676","operator":"Centrum Ochotnik\u00f3w Cierpienia Diecezji Elbl\u0105skiej","operator:type":"ngo","amenity":"kindergarten"}},{"id":15198,"type":"Feature","geometry":{"type":"Point","coordinates":[19.40691,54.14804]},"properties":{"isced:level":"1;2","ref:rspo":15198,"official_name":"Szko\u0142a Podstawowa Nr 14 im. Jana Brzechwy w Elbl\u0105gu","name":"Szko\u0142a Podstawowa Nr 14","addr:country":"PL","addr:postcode":"82-300","addr:city":"Elbl\u0105g","addr:street":"ul. Romualda Mielczarskiego","addr:housenumber":"45","addr:teryt:simc":12782,"addr:teryt:sym_ul":932703,"contact:phone":"+48 556258582","contact:email":"sp14@elblag.eu","contact:website":"http:\/\/www.sp14.elblag.pl","ref:regon":"000211435","ref:vatin":"PL5781047305","operator":"Gmina Miasto Elbl\u0105g  Na Prawach Powiatu","operator:type":"government","amenity":"school"}},{"id":18967,"type":"Feature","geometry":{"type":"Point","coordinates":[19.42657,54.15036]},"properties":{"isced:level":"1;2","ref:rspo":18967,"official_name":"Szko\u0142a Podstawowa Nr 16 im. J\u00f3zefa Wybickiego w Elbl\u0105gu","name":"Szko\u0142a Podstawowa Nr 16","addr:country":"PL","addr:postcode":"82-300","addr:city":"Elbl\u0105g","addr:street":"ul. Sadowa","addr:housenumber":"2","addr:teryt:simc":19404,"addr:teryt:sym_ul":932703,"contact:phone":"+48 556258621","contact:email":"sp16@elblag.eu","contact:website":"http:\/\/www.sp16.elblag.pl","ref:regon":"000212073","ref:vatin":"PL5782062100","operator":"Gmina Miasto Elbl\u0105g  Na Prawach Powiatu","operator:type":"government","amenity":"school"}},{"id":38467,"type":"Feature","geometry":{"type":"Point","coordinates":[19.43565,54.15057]},"properties":{"ref:rspo":38467,"official_name":"Zesp\u00f3\u0142 Szk\u00f3\u0142 Technicznych w Elbl\u0105gu","name":"Zesp\u00f3\u0142 Szk\u00f3\u0142 Technicznych w Elbl\u0105gu","addr:country":"PL","addr:postcode":"82-300","addr:city":"Elbl\u0105g","addr:street":"ul. Artura Grottgera","addr:housenumber":"71","addr:teryt:simc":6206,"addr:teryt:sym_ul":932703,"contact:phone":"+48 556256540","contact:email":"zst@elblag.eu","contact:website":"http:\/\/www.zst.elblag.org.pl","ref:regon":"170305816","ref:vatin":"PL5781064427","operator":"Gmina Miasto Elbl\u0105g  Na Prawach Powiatu","operator:type":"government","landuse":"education","fixme":"amenity=school, amenity=college albo landuse=education w zale\u017cno\u015bci od tego, jakie plac\u00f3wki wchodz\u0105 w sk\u0142ad zespo\u0142u. Sprawd\u017a, kiedy stosowa\u0107 amenity=* a kiedy landuse=education.","note":"Children RSPO: 86467;124000"}},{"id":86467,"type":"Feature","geometry":{"type":"Point","coordinates":[19.43565,54.15054]},"properties":{"isced:level":"3","ref:rspo":86467,"official_name":"Technikum Wchodz\u0105ce w Sk\u0142ad Zespo\u0142u Szk\u00f3\u0142 Technicznych w Elbl\u0105gu","name":"Technikum Wchodz\u0105ce w Sk\u0142ad Zespo\u0142u Szk\u00f3\u0142 Technicznych w Elbl\u0105gu","addr:country":"PL","addr:postcode":"82-300","addr:city":"Elbl\u0105g","addr:street":"ul. Artura Grottgera","addr:housenumber":"71","addr:teryt:simc":6206,"addr:teryt:sym_ul":932703,"contact:phone":"+48 556256540","contact:email":"zst@elblag.eu","contact:website":"http:\/\/zst.elblag.pl\/","ref:regon":"171006518","ref:vatin":"PL5781064427","operator":"Gmina Miasto Elbl\u0105g  Na Prawach Powiatu","operator:type":"government","amenity":"school","note":"Parent RSPO: 38467"}},{"id":124000,"type":"Feature","geometry":{"type":"Point","coordinates":[19.43565,54.150510000000004]},"properties":{"isced:level":"3","ref:rspo":124000,"official_name":"Bran\u017cowa Szko\u0142a I Stopnia Wchodz\u0105ca w Sk\u0142ad Zespo\u0142u Szk\u00f3\u0142 Technicznych w Elbl\u0105gu","name":"Bran\u017cowa Szko\u0142a I Stopnia Wchodz\u0105ca w Sk\u0142ad Zespo\u0142u Szk\u00f3\u0142 Technicznych w Elbl\u0105gu","addr:country":"PL","addr:postcode":"82-300","addr:city":"Elbl\u0105g","addr:street":"ul. Artura Grottgera","addr:housenumber":"71","addr:teryt:simc":6206,"addr:teryt:sym_ul":932703,"contact:phone":"+48 556256540","contact:email":"zst@elblag.eu","ref:regon":"280302913","operator":"Gmina Miasto Elbl\u0105g  Na Prawach Powiatu","operator:type":"government","amenity":"school","note":"Parent RSPO: 38467"}},{"id":74384,"type":"Feature","geometry":{"type":"Point","coordinates":[19.4541,54.15068]},"properties":{"ref:rspo":74384,"official_name":"Niepubliczne Przedszkole Artystyczno-J\u0119zykowe \"Ma\u0142y Europejczyk\"","name":"Niepubliczne Przedszkole Artystyczno-J\u0119zykowe \"Ma\u0142y Europejczyk\"","addr:country":"PL","addr:postcode":"82-300","addr:city":"Elbl\u0105g","addr:street":"ul. gen. Jaros\u0142awa D\u0105browskiego","addr:housenumber":"33","addr:teryt:simc":3676,"addr:teryt:sym_ul":932703,"contact:phone":"+48 515406883","contact:email":"maly.europejczyk@o2.pl","ref:regon":"281443337","ref:vatin":"PL5782693674","operator":"Wioleta St\u0119pczy\u0144ska","operator:type":"private","amenity":"kindergarten"}},{"id":51837,"type":"Feature","geometry":{"type":"Point","coordinates":[19.41711,54.15145]},"properties":{"isced:level":"4","ref:rspo":51837,"official_name":"Szko\u0142a Policealna Centrum Nauki I Biznesu \"\u017bak\"","name":"Szko\u0142a Policealna Centrum Nauki I Biznesu \"\u017bak\"","addr:country":"PL","addr:postcode":"82-300","addr:city":"Elbl\u0105g","addr:street":"pl. Plac Dworcowy","addr:housenumber":"3","addr:teryt:simc":38506,"addr:teryt:sym_ul":932703,"contact:phone":"+48 556114729","contact:email":"elblag@zak.edu.pl","contact:website":"http:\/\/www.elblag.zak.edu.pl","ref:regon":"281442220","ref:vatin":"PL7292597869","operator":"Centrum Nauki I Biznesu \"\u017bak\" Sp\u00f3\u0142ka Z Ograniczon\u0105 Odpowiedzialno\u015bci\u0105","operator:type":"private","amenity":"college"}},{"id":52887,"type":"Feature","geometry":{"type":"Point","coordinates":[19.41711,54.151419999999995]},"properties":{"isced:level":"4","ref:rspo":52887,"official_name":"Szko\u0142a Policealna Bezpiecze\u0144stwa I Higieny Pracy \"\u017bak\"","name":"Szko\u0142a Policealna Bezpiecze\u0144stwa I Higieny Pracy \"\u017bak\"","addr:country":"PL","addr:postcode":"82-300","addr:city":"Elbl\u0105g","addr:street":"pl. Plac Dworcowy","addr:housenumber":"3","addr:teryt:simc":38506,"addr:teryt:sym_ul":932703,"contact:phone":"+48 556114729","contact:email":"elblag@zak.edu.pl","contact:website":"http:\/\/www.elblag.zak.edu.pl","ref:regon":"281442289","ref:vatin":"PL7292597869","operator":"Centrum Nauki I Biznesu \"\u017bak\" Sp\u00f3\u0142ka Z Ograniczon\u0105 Odpowiedzialno\u015bci\u0105","operator:type":"private","amenity":"college"}},{"id":52889,"type":"Feature","geometry":{"type":"Point","coordinates":[19.41711,54.15139]},"properties":{"isced:level":"4","ref:rspo":52889,"official_name":"Szko\u0142a Policealna Administracji \" \u017bak\"","name":"Szko\u0142a Policealna Administracji \" \u017bak\"","addr:country":"PL","addr:postcode":"82-300","addr:city":"Elbl\u0105g","addr:street":"pl. Plac Dworcowy","addr:housenumber":"3","addr:teryt:simc":38506,"addr:teryt:sym_ul":932703,"contact:phone":"+48 556114729","contact:email":"elblag@zak.edu.pl","contact:website":"http:\/\/www.elblag.zak.edu.pl","ref:regon":"281442332","ref:vatin":"PL7292597869","operator":"Centrum Nauki I Biznesu \"\u017bak\" Sp\u00f3\u0142ka Z Ograniczon\u0105 Odpowiedzialno\u015bci\u0105","operator:type":"private","amenity":"college"}},{"id":52890,"type":"Feature","geometry":{"type":"Point","coordinates":[19.41711,54.15136]},"properties":{"isced:level":"4","ref:rspo":52890,"official_name":"Szko\u0142a Policealna Kosmetyczna \"\u017bak\"","name":"Szko\u0142a Policealna Kosmetyczna \"\u017bak\"","addr:country":"PL","addr:postcode":"82-300","addr:city":"Elbl\u0105g","addr:street":"pl. Plac Dworcowy","addr:housenumber":"3","addr:teryt:simc":38506,"addr:teryt:sym_ul":932703,"contact:phone":"+48 556114729","contact:email":"elblag@zak.edu.pl","contact:website":"http:\/\/www.elblag.zak.edu.pl","ref:regon":"281442326","ref:vatin":"PL7292597869","operator":"Centrum Nauki I Biznesu \"\u017bak\" Sp\u00f3\u0142ka Z Ograniczon\u0105 Odpowiedzialno\u015bci\u0105","operator:type":"private","amenity":"college"}},{"id":52892,"type":"Feature","geometry":{"type":"Point","coordinates":[19.41711,54.151329999999994]},"properties":{"ref:rspo":52892,"official_name":"O\u015brodek Szkoleniowy Centrum Nauki I Biznesu \" \u017bak\"","name":"O\u015brodek Szkoleniowy Centrum Nauki I Biznesu \" \u017bak\"","addr:country":"PL","addr:postcode":"82-300","addr:city":"Elbl\u0105g","addr:street":"pl. Plac Dworcowy","addr:housenumber":"3","addr:teryt:simc":38506,"addr:teryt:sym_ul":932703,"contact:phone":"+48 556114729","contact:email":"elblag@zak.edu.pl","contact:website":"http:\/\/www.elblag.zak.edu.pl","ref:regon":"281442250","ref:vatin":"PL7292597869","operator":"Centrum Nauki I Biznesu \"\u017bak\" Sp\u00f3\u0142ka Z Ograniczon\u0105 Odpowiedzialno\u015bci\u0105","operator:type":"private","fixme":"w zale\u017cno\u015bci od przedmiotu dzia\u0142alno\u015bci (np. amenity=training + training=*, amenity=dancing_school, amenity=language_school, amenity=music_school)"}},{"id":131050,"type":"Feature","geometry":{"type":"Point","coordinates":[19.41711,54.1513]},"properties":{"isced:level":"3","ref:rspo":131050,"official_name":"Liceum Og\u00f3lnokszta\u0142c\u0105ce dla Doros\u0142ych \"\u017bak\" w Elbl\u0105gu","name":"Liceum Og\u00f3lnokszta\u0142c\u0105ce dla Doros\u0142ych \"\u017bak\" w Elbl\u0105gu","addr:country":"PL","addr:postcode":"82-300","addr:city":"Elbl\u0105g","addr:street":"pl. Plac Dworcowy","addr:housenumber":"3","addr:teryt:simc":38506,"addr:teryt:sym_ul":932703,"contact:phone":"+48 556114729","contact:email":"elblag@zak.edu.pl","contact:website":"http:\/\/www.elblag.zak.edu.pl","ref:regon":"364911544","operator":"Centrum Nauki I Biznesu \"\u017bak\" Sp\u00f3\u0142ka Z Ograniczon\u0105 Odpowiedzialno\u015bci\u0105","operator:type":"private","amenity":"school"}},{"id":274325,"type":"Feature","geometry":{"type":"Point","coordinates":[19.41711,54.15127]},"properties":{"isced:level":"4","ref:rspo":274325,"official_name":"Szko\u0142a Policealna Opieki Medycznej \"\u017bak\" w Elbl\u0105gu","name":"Szko\u0142a Policealna Opieki Medycznej \"\u017bak\" w Elbl\u0105gu","addr:country":"PL","addr:postcode":"82-300","addr:city":"Elbl\u0105g","addr:street":"pl. Plac Dworcowy","addr:housenumber":"3","addr:teryt:simc":38506,"addr:teryt:sym_ul":932703,"contact:phone":"+48 556114729","contact:email":"elblag@zak.edu.pl","contact:website":"https:\/\/elblag.zak.edu.pl","ref:regon":"385571299","operator":"Centrum Nauki I Biznesu \"\u017bak\" Sp\u00f3\u0142ka Z Ograniczon\u0105 Odpowiedzialno\u015bci\u0105","operator:type":"private","amenity":"college"}},{"id":13068,"type":"Feature","geometry":{"type":"Point","coordinates":[19.41771,54.15257]},"properties":{"ref:rspo":13068,"official_name":"Przedszkole Nr 34 w Elbl\u0105gu","name":"Przedszkole Nr 34 w Elbl\u0105gu","addr:country":"PL","addr:postcode":"82-300","addr:city":"Elbl\u0105g","addr:street":"al. Aleja Grunwaldzka","addr:housenumber":"67","addr:teryt:simc":52480,"addr:teryt:sym_ul":932703,"contact:phone":"+48 556258201","contact:email":"przedszkole34@elblag.eu","ref:regon":"280567244","ref:vatin":"PL5783089845","operator":"Gmina Miasto Elbl\u0105g  Na Prawach Powiatu","operator:type":"government","amenity":"kindergarten"}},{"id":71847,"type":"Feature","geometry":{"type":"Point","coordinates":[19.39074,54.15282]},"properties":{"ref:rspo":71847,"official_name":"Elbl\u0105ski O\u015brodek Szkole\u0144 \"Edukat\" Wies\u0142aw Widomski","name":"Elbl\u0105ski O\u015brodek Szkole\u0144 \"Edukat\" Wies\u0142aw Widomski","addr:country":"PL","addr:postcode":"82-300","addr:city":"Elbl\u0105g","addr:street":"ul. Warszawska","addr:housenumber":"72","addr:teryt:simc":23682,"addr:teryt:sym_ul":932703,"contact:phone":"+48 552361001","contact:email":"w.widomski@interia.pl","contact:website":"http:\/\/www.edukat.eu","ref:regon":"281442438","ref:vatin":"PL5781913470","operator":"Wies\u0142aw Widomski","operator:type":"private","fixme":"w zale\u017cno\u015bci od przedmiotu dzia\u0142alno\u015bci (np. amenity=training + training=*, amenity=dancing_school, amenity=language_school, amenity=music_school)"}},{"id":267045,"type":"Feature","geometry":{"type":"Point","coordinates":[19.41878,54.15343]},"properties":{"ref:rspo":267045,"official_name":"Terapeutyczny Punkt Przedszkolny \"Mozaika\"","name":"Terapeutyczny Punkt Przedszkolny \"Mozaika\"","addr:country":"PL","addr:postcode":"82-300","addr:city":"Elbl\u0105g","addr:street":"ul. Stefana \u017beromskiego","addr:housenumber":"3B","addr:teryt:simc":26469,"addr:teryt:sym_ul":932703,"contact:phone":"+48 730147896","contact:email":"mozaika.biuro@gmail.com","contact:website":"http:\/\/mozaikaprzedszkole.weebly.com","ref:regon":"369831910","operator":"Kamila Chabowska","operator:type":"private","amenity":"kindergarten"}},{"id":106034,"type":"Feature","geometry":{"type":"Point","coordinates":[19.4451,54.15365]},"properties":{"ref:rspo":106034,"official_name":"O\u015brodek Szkole\u0144 Ces Koni","name":"O\u015brodek Szkole\u0144 Ces Koni","addr:country":"PL","addr:postcode":"82-300","addr:city":"Elbl\u0105g","addr:street":"ul. gen. Jaros\u0142awa D\u0105browskiego","addr:housenumber":"31","addr:teryt:simc":3676,"addr:teryt:sym_ul":932703,"contact:phone":"+48 552352958","contact:email":"elblag@koni.pl","contact:website":"http:\/\/www.koni.pl","ref:regon":"281462458","ref:vatin":"PL5781784162","operator":"Pphu \"Koni\" Arkadiusz Wojtal ; Wsp\u00f3lnik Sp\u00f3\u0142ki Cywilnej Krone","operator:type":"consortium","fixme":"w zale\u017cno\u015bci od przedmiotu dzia\u0142alno\u015bci (np. amenity=training + training=*, amenity=dancing_school, amenity=language_school, amenity=music_school)"}},{"id":6674,"type":"Feature","geometry":{"type":"Point","coordinates":[19.41337,54.15377]},"properties":{"ref:rspo":6674,"official_name":"Przedszkole Nr 31 w Elbl\u0105gu","name":"Przedszkole Nr 31 w Elbl\u0105gu","addr:country":"PL","addr:postcode":"82-300","addr:city":"Elbl\u0105g","addr:street":"al. Aleja Grunwaldzka","addr:housenumber":"44A","addr:teryt:simc":52480,"addr:teryt:sym_ul":932703,"contact:phone":"+48 556258180","contact:email":"przedszkole31@elblag.eu","contact:website":"http:\/\/www.przed31elb.szkolnastrona.pl","ref:regon":"280565297","ref:vatin":"PL5783089182","operator":"Gmina Miasto Elbl\u0105g  Na Prawach Powiatu","operator:type":"government","amenity":"kindergarten"}},{"id":71845,"type":"Feature","geometry":{"type":"Point","coordinates":[19.40857,54.15502]},"properties":{"ref:rspo":71845,"official_name":"Niepubliczna Plac\u00f3wka Kszta\u0142cenia Ustawicznego Centrum Szkolenia \"Elzam\" Dariusz Ciekot","name":"Niepubliczna Plac\u00f3wka Kszta\u0142cenia Ustawicznego Centrum Szkolenia \"Elzam\" Dariusz Ciekot","addr:country":"PL","addr:postcode":"82-300","addr:city":"Elbl\u0105g","addr:street":"al. Aleja Grunwaldzka","addr:housenumber":"2","addr:teryt:simc":52480,"addr:teryt:sym_ul":932703,"contact:phone":"+48 504213556","contact:email":"dariusz.ciekot@elzam.com.pl","contact:website":"http:\/\/www.elzam.com.pl","ref:regon":"281442415","ref:vatin":"PL5781539959","operator":"Dariusz Ciekot","operator:type":"private","fixme":"w zale\u017cno\u015bci od przedmiotu dzia\u0142alno\u015bci (np. amenity=training + training=*, amenity=dancing_school, amenity=language_school, amenity=music_school)"}},{"id":74374,"type":"Feature","geometry":{"type":"Point","coordinates":[19.398609161377,54.155639648438]},"properties":{"ref:rspo":74374,"official_name":"Akademia Kszta\u0142cenia I Doradztwa \"Vademecum\" Krzysztof Dyas","name":"Akademia Kszta\u0142cenia I Doradztwa \"Vademecum\" Krzysztof Dyas","addr:country":"PL","addr:postcode":"82-300","addr:city":"Elbl\u0105g","addr:street":"ul. Pu\u0142kownika Stanis\u0142awa D\u0105bka","addr:housenumber":"185","addr:teryt:simc":39072,"addr:teryt:sym_ul":932703,"contact:phone":"+48 602835620","contact:email":"akidvademecum@o2.pl","contact:website":"http:\/\/www.vademecum.elblag.pl","ref:regon":"281443314","ref:vatin":"PL5782579659","operator":"Krzysztof Dyas","operator:type":"private","fixme":"w zale\u017cno\u015bci od przedmiotu dzia\u0142alno\u015bci (np. amenity=training + training=*, amenity=dancing_school, amenity=language_school, amenity=music_school)"}},{"id":38490,"type":"Feature","geometry":{"type":"Point","coordinates":[19.39487,54.1557]},"properties":{"ref:rspo":38490,"official_name":"Bursa Szkolna Nr 3 w Elbl\u0105gu","name":"Bursa Szkolna Nr 3 w Elbl\u0105gu","addr:country":"PL","addr:postcode":"82-300","addr:city":"Elbl\u0105g","addr:street":"ul. Wapienna","addr:housenumber":"17","addr:teryt:simc":23624,"addr:teryt:sym_ul":932703,"contact:phone":"+48 556256581","contact:email":"bs3@elblag.eu","contact:website":"http:\/\/www.bursa3elblag.pl","ref:regon":"280563424","ref:vatin":"PL5783088627","operator":"Gmina Miasto Elbl\u0105g  Na Prawach Powiatu","operator:type":"government","building":"dormitory"}},{"id":93034,"type":"Feature","geometry":{"type":"Point","coordinates":[19.41838,54.15587]},"properties":{"ref:rspo":93034,"official_name":"Warmi\u0144sko - Mazurski O\u015brodek Doskonalenia Nauczycieli","name":"Warmi\u0144sko - Mazurski O\u015brodek Doskonalenia Nauczycieli","addr:country":"PL","addr:postcode":"82-300","addr:city":"Elbl\u0105g","addr:street":"ul. Wojska Polskiego","addr:housenumber":"1","addr:teryt:simc":24628,"addr:teryt:sym_ul":932703,"contact:phone":"+48 556435252","contact:email":"sekretariat@wmodn.elblag.pl","contact:website":"http:\/\/www.wmodn.elblag.pl","ref:regon":"001393303","operator":"Wojew\u00f3dztwo Warmi\u0144sko-Mazurskie","operator:type":"government","amenity":"training"}},{"id":38470,"type":"Feature","geometry":{"type":"Point","coordinates":[19.3984251,54.1559753]},"properties":{"ref:rspo":38470,"official_name":"Zesp\u00f3\u0142 Szk\u00f3\u0142 Techniczno - Informatycznych w Elbl\u0105gu","name":"Zesp\u00f3\u0142 Szk\u00f3\u0142 Techniczno - Informatycznych w Elbl\u0105gu","addr:country":"PL","addr:postcode":"82-300","addr:city":"Elbl\u0105g","addr:street":"ul. Rycerska","addr:housenumber":"2","addr:teryt:simc":19186,"addr:teryt:sym_ul":932703,"contact:phone":"+48 556256502","contact:email":"zsti@elblag.eu","contact:website":"http:\/\/www.zsti.elblag.pl","ref:regon":"000667744","ref:vatin":"PL5782511265","operator":"Gmina Miasto Elbl\u0105g  Na Prawach Powiatu","operator:type":"government","landuse":"education","fixme":"amenity=school, amenity=college albo landuse=education w zale\u017cno\u015bci od tego, jakie plac\u00f3wki wchodz\u0105 w sk\u0142ad zespo\u0142u. Sprawd\u017a, kiedy stosowa\u0107 amenity=* a kiedy landuse=education.","note":"Children RSPO: 92777;92788;103681;277670"}},{"id":92777,"type":"Feature","geometry":{"type":"Point","coordinates":[19.3984251,54.1559453]},"properties":{"isced:level":"3","ref:rspo":92777,"official_name":"Bran\u017cowa Szko\u0142a I Stopnia Wchodz\u0105ca w Sk\u0142ad Zespo\u0142u Szk\u00f3\u0142 Techniczno-Informatycznych w Elbl\u0105gu","name":"Bran\u017cowa Szko\u0142a I Stopnia Wchodz\u0105ca w Sk\u0142ad Zespo\u0142u Szk\u00f3\u0142 Techniczno-Informatycznych w Elbl\u0105gu","addr:country":"PL","addr:postcode":"82-300","addr:city":"Elbl\u0105g","addr:street":"ul. Rycerska","addr:housenumber":"2","addr:teryt:simc":19186,"addr:teryt:sym_ul":932703,"contact:phone":"+48 556256502","contact:email":"zsti@elblag.eu","contact:website":"http:\/\/zsti.elblag.pl","ref:regon":"170991450","ref:vatin":"PL5782511265","operator":"Gmina Miasto Elbl\u0105g  Na Prawach Powiatu","operator:type":"government","amenity":"school","note":"Parent RSPO: 38470"}},{"id":92788,"type":"Feature","geometry":{"type":"Point","coordinates":[19.3984251,54.155915300000004]},"properties":{"isced:level":"4","ref:rspo":92788,"official_name":"Szko\u0142a Policealna Wchodz\u0105ca w Sk\u0142ad Zespo\u0142u Szk\u00f3\u0142 Techniczno-Informatycznych w Elbl\u0105gu","name":"Szko\u0142a Policealna Wchodz\u0105ca w Sk\u0142ad Zespo\u0142u Szk\u00f3\u0142 Techniczno-Informatycznych w Elbl\u0105gu","addr:country":"PL","addr:postcode":"82-300","addr:city":"Elbl\u0105g","addr:street":"ul. Rycerska","addr:housenumber":"2","addr:teryt:simc":19186,"addr:teryt:sym_ul":932703,"contact:phone":"+48 556256502","contact:email":"zsti@elblag.eu","ref:regon":"280035174","ref:vatin":"PL5782511265","operator":"Gmina Miasto Elbl\u0105g  Na Prawach Powiatu","operator:type":"government","amenity":"college","note":"Parent RSPO: 38470"}},{"id":103681,"type":"Feature","geometry":{"type":"Point","coordinates":[19.3984251,54.1558853]},"properties":{"isced:level":"3","ref:rspo":103681,"official_name":"Technikum Wchodz\u0105ce w Sk\u0142ad Zespo\u0142u Szk\u00f3\u0142 Techniczno-Informatycznych w Elbl\u0105gu","name":"Technikum Wchodz\u0105ce w Sk\u0142ad Zespo\u0142u Szk\u00f3\u0142 Techniczno-Informatycznych w Elbl\u0105gu","addr:country":"PL","addr:postcode":"82-300","addr:city":"Elbl\u0105g","addr:street":"ul. Rycerska","addr:housenumber":"2","addr:teryt:simc":19186,"addr:teryt:sym_ul":932703,"contact:phone":"+48 556256502","contact:email":"zsti@elblag.eu","contact:website":"http:\/\/zsti.elblag.pl","ref:regon":"280112153","ref:vatin":"PL5782511265","operator":"Gmina Miasto Elbl\u0105g  Na Prawach Powiatu","operator:type":"government","amenity":"school","note":"Parent RSPO: 38470"}},{"id":277670,"type":"Feature","geometry":{"type":"Point","coordinates":[19.3984251,54.1558553]},"properties":{"isced:level":"3","ref:rspo":277670,"official_name":"Bran\u017cowa Szko\u0142a II Stopnia Nr 1 w Elblagu","name":"Bran\u017cowa Szko\u0142a II Stopnia Nr 1 w Elblagu","addr:country":"PL","addr:postcode":"82-300","addr:city":"Elbl\u0105g","addr:street":"ul. Rycerska","addr:housenumber":"2","addr:teryt:simc":19186,"addr:teryt:sym_ul":932703,"contact:phone":"+48 556256502","contact:email":"zsti@elblag.eu","ref:regon":"389300203","operator":"Gmina Miasto Elbl\u0105g  Na Prawach Powiatu","operator:type":"government","amenity":"school","note":"Parent RSPO: 38470"}},{"id":42315,"type":"Feature","geometry":{"type":"Point","coordinates":[19.4144,54.15699]},"properties":{"ref:rspo":42315,"official_name":"Specjalny O\u015brodek Szkolno - Wychowawczy Nr 2 im. Janusza Korczaka w Elbl\u0105gu","name":"Specjalny O\u015brodek Szkolno - Wychowawczy Nr 2","addr:country":"PL","addr:postcode":"82-300","addr:city":"Elbl\u0105g","addr:street":"ul. Polna","addr:housenumber":"8a","addr:teryt:simc":17011,"addr:teryt:sym_ul":932703,"contact:phone":"+48 556258401","contact:email":"sosw2@elblag.eu","contact:website":"http:\/\/www.osw2elblag.szkolnastrona.pl","ref:regon":"000218182","ref:vatin":"PL5781055606","operator":"Gmina Miasto Elbl\u0105g  Na Prawach Powiatu","operator:type":"government","amenity":"school","note":"Children RSPO: 5972;90496"}},{"id":5972,"type":"Feature","geometry":{"type":"Point","coordinates":[19.4144,54.15696]},"properties":{"ref:rspo":5972,"official_name":"Przedszkole Specjalne w Specjalnym O\u015brodku Szkolno-Wychowawczym Nr 2 im. Janusza Korczaka w Elbl\u0105gu","name":"Przedszkole Specjalne w Specjalnym O\u015brodku Szkolno-Wychowawczym Nr 2","addr:country":"PL","addr:postcode":"82-300","addr:city":"Elbl\u0105g","addr:street":"ul. Polna","addr:housenumber":"8A","addr:teryt:simc":17011,"addr:teryt:sym_ul":932703,"contact:phone":"+48 556258401","contact:email":"sosw2@elblag.eu","ref:regon":"170393000","ref:vatin":"PL5781055606","operator":"Gmina Miasto Elbl\u0105g  Na Prawach Powiatu","operator:type":"government","amenity":"kindergarten","note":"Parent RSPO: 42315"}},{"id":90496,"type":"Feature","geometry":{"type":"Point","coordinates":[19.4144,54.15693]},"properties":{"isced:level":"1;2","ref:rspo":90496,"official_name":"Szko\u0142a Podstawowa Specjalna Wchodz\u0105ca w Sk\u0142ad Specjalnego O\u015brodka Szkolno-Wychowawczego Nr 2 im. Janusza Korczaka w Elbl\u0105gu","name":"Szko\u0142a Podstawowa Specjalna Wchodz\u0105ca w Sk\u0142ad Specjalnego O\u015brodka Szkolno-Wychowawczego Nr 2","addr:country":"PL","addr:postcode":"82-300","addr:city":"Elbl\u0105g","addr:street":"ul. Polna","addr:housenumber":"8a","addr:teryt:simc":17011,"addr:teryt:sym_ul":932703,"contact:phone":"+48 556258401","contact:email":"sosw2@elblag.eu","contact:website":"http:\/\/osw2elblag.szkolnastrona.pl","ref:regon":"001070847","ref:vatin":"PL5781055606","operator":"Gmina Miasto Elbl\u0105g  Na Prawach Powiatu","operator:type":"government","amenity":"school","note":"Parent RSPO: 42315"}},{"id":38492,"type":"Feature","geometry":{"type":"Point","coordinates":[19.4252,54.15727]},"properties":{"ref:rspo":38492,"official_name":"Bursa Szkolna Nr 4 w Elbl\u0105gu","name":"Bursa Szkolna Nr 4 w Elbl\u0105gu","addr:country":"PL","addr:postcode":"82-300","addr:city":"Elbl\u0105g","addr:street":"ul. Jana Amosa Kome\u0144skiego","addr:housenumber":"37","addr:teryt:simc":9053,"addr:teryt:sym_ul":932703,"contact:phone":"+48 556256600","contact:email":"bs4@elblag.eu","contact:website":"http:\/\/www.bursa4.elblag.com.pl","ref:regon":"280564731","ref:vatin":"PL5783089041","operator":"Gmina Miasto Elbl\u0105g  Na Prawach Powiatu","operator:type":"government","building":"dormitory"}},{"id":6064,"type":"Feature","geometry":{"type":"Point","coordinates":[19.40908,54.15749]},"properties":{"ref:rspo":6064,"official_name":"Przedszkole Nr 14 w Elbl\u0105gu","name":"Przedszkole Nr 14 w Elbl\u0105gu","addr:country":"PL","addr:postcode":"82-300","addr:city":"Elbl\u0105g","addr:street":"ul. Micha\u0142a Ba\u0142uckiego","addr:housenumber":"17","addr:teryt:simc":661,"addr:teryt:sym_ul":932703,"contact:phone":"+48 556258082","contact:email":"przedszkole14@elblag.eu","ref:regon":"280563826","ref:vatin":"PL5783088521","operator":"Gmina Miasto Elbl\u0105g  Na Prawach Powiatu","operator:type":"government","amenity":"kindergarten"}},{"id":6134,"type":"Feature","geometry":{"type":"Point","coordinates":[19.40071,54.15755]},"properties":{"ref:rspo":6134,"official_name":"Przedszkole Nr 19 w Elbl\u0105gu","name":"Przedszkole Nr 19 w Elbl\u0105gu","addr:country":"PL","addr:postcode":"82-300","addr:city":"Elbl\u0105g","addr:street":"ul. \u015alusarska","addr:housenumber":"8","addr:teryt:simc":22351,"addr:teryt:sym_ul":932703,"contact:phone":"+48 556258121","contact:email":"przedszkole19@elblag.eu","ref:regon":"280565699","ref:vatin":"PL5783088863","operator":"Gmina Miasto Elbl\u0105g  Na Prawach Powiatu","operator:type":"government","amenity":"kindergarten"}},{"id":103461,"type":"Feature","geometry":{"type":"Point","coordinates":[19.39425,54.15768]},"properties":{"ref:rspo":103461,"official_name":"Warmi\u0144sko - Mazurska Biblioteka Pedagogiczna im. Karola Wojty\u0142y w Elbl\u0105gu","name":"Warmi\u0144sko - Mazurska Biblioteka Pedagogiczna","addr:country":"PL","addr:postcode":"82-300","addr:city":"Elbl\u0105g","addr:street":"ul. \u015awi\u0119tego Ducha","addr:housenumber":"25","addr:teryt:simc":31191,"addr:teryt:sym_ul":932703,"contact:phone":"+48 552376260","contact:email":"sekretariat@wmbp.edu.pl","contact:website":"http:\/\/www.wmbp.edu.pl","ref:regon":"000754199","operator":"Wojew\u00f3dztwo Warmi\u0144sko-Mazurskie","operator:type":"government","amenity":"library"}},{"id":35100,"type":"Feature","geometry":{"type":"Point","coordinates":[19.42546,54.15768]},"properties":{"ref:rspo":35100,"official_name":"Zesp\u00f3\u0142 Szk\u00f3\u0142 Mechanicznych w Elbl\u0105gu","name":"Zesp\u00f3\u0142 Szk\u00f3\u0142 Mechanicznych w Elbl\u0105gu","addr:country":"PL","addr:postcode":"82-300","addr:city":"Elbl\u0105g","addr:street":"ul. Jana Amosa Kome\u0144skiego","addr:housenumber":"39","addr:teryt:simc":9053,"addr:teryt:sym_ul":932703,"contact:phone":"+48 556256460","contact:email":"zsm@elblag.eu","contact:website":"http:\/\/www.zsm.elblag.pl","ref:regon":"000192910","ref:vatin":"PL5781124046","operator":"Gmina Miasto Elbl\u0105g  Na Prawach Powiatu","operator:type":"government","landuse":"education","fixme":"amenity=school, amenity=college albo landuse=education w zale\u017cno\u015bci od tego, jakie plac\u00f3wki wchodz\u0105 w sk\u0142ad zespo\u0142u. Sprawd\u017a, kiedy stosowa\u0107 amenity=* a kiedy landuse=education.","note":"Children RSPO: 55847;123250"}},{"id":55847,"type":"Feature","geometry":{"type":"Point","coordinates":[19.42546,54.15765]},"properties":{"isced:level":"3","ref:rspo":55847,"official_name":"Technikum Wchodz\u0105ce w Sk\u0142ad Zespo\u0142u Szk\u00f3\u0142 Mechanicznych w Elbl\u0105gu","name":"Technikum Wchodz\u0105ce w Sk\u0142ad Zespo\u0142u Szk\u00f3\u0142 Mechanicznych w Elbl\u0105gu","addr:country":"PL","addr:postcode":"82-300","addr:city":"Elbl\u0105g","addr:street":"ul. Jana Amosa Kome\u0144skiego","addr:housenumber":"39","addr:teryt:simc":9053,"addr:teryt:sym_ul":932703,"contact:phone":"+48 556256460","contact:email":"zsm@elblag.eu","contact:website":"http:\/\/www.zsm.elblag.pl","ref:regon":"280035062","ref:vatin":"PL5781124046","operator":"Gmina Miasto Elbl\u0105g  Na Prawach Powiatu","operator:type":"government","amenity":"school","note":"Parent RSPO: 35100"}},{"id":123250,"type":"Feature","geometry":{"type":"Point","coordinates":[19.42546,54.15762]},"properties":{"isced:level":"4","ref:rspo":123250,"official_name":"Szko\u0142a Policealna Wchodz\u0105ca w Sk\u0142ad Zespo\u0142u Szk\u00f3\u0142 Mechanicznych w Elbl\u0105gu","name":"Szko\u0142a Policealna Wchodz\u0105ca w Sk\u0142ad Zespo\u0142u Szk\u00f3\u0142 Mechanicznych w Elbl\u0105gu","addr:country":"PL","addr:postcode":"82-300","addr:city":"Elbl\u0105g","addr:street":"ul. Jana Amosa Kome\u0144skiego","addr:housenumber":"39","addr:teryt:simc":9053,"addr:teryt:sym_ul":932703,"contact:phone":"+48 556256460","contact:email":"zsm@elblag.eu","ref:regon":"280035079","ref:vatin":"PL5781124046","operator":"Gmina Miasto Elbl\u0105g  Na Prawach Powiatu","operator:type":"government","amenity":"college","note":"Parent RSPO: 35100"}},{"id":120189,"type":"Feature","geometry":{"type":"Point","coordinates":[19.4058,54.15783]},"properties":{"isced:level":"4","ref:rspo":120189,"official_name":"Prywatne Policealne Studium \"Cosinus\" w Elbl\u0105gu","name":"Prywatne Policealne Studium \"Cosinus\" w Elbl\u0105gu","addr:country":"PL","addr:postcode":"82-300","addr:city":"Elbl\u0105g","addr:street":"ul. Hetma\u0144ska","addr:housenumber":"5","addr:teryt:simc":6637,"addr:teryt:sym_ul":932703,"contact:phone":"+48 552355738","contact:email":"elblag@cosinus.pl","ref:regon":"281533744","operator":"\"Fundacja Cosinus Edukacja El\"","operator:type":"ngo","amenity":"college"}},{"id":123857,"type":"Feature","geometry":{"type":"Point","coordinates":[19.4058,54.157799999999995]},"properties":{"ref:rspo":123857,"official_name":"Niepubliczna Poradnia Psychologiczno - Pedagogiczna \"Ja\u015b I Ma\u0142gosia\"","name":"Niepubliczna Poradnia Psychologiczno - Pedagogiczna \"Ja\u015b I Ma\u0142gosia\"","addr:country":"PL","addr:postcode":"82-300","addr:city":"Elbl\u0105g","addr:street":"ul. Hetma\u0144ska","addr:housenumber":"5","addr:door":"36","addr:teryt:simc":6637,"addr:teryt:sym_ul":932703,"contact:phone":"+48 943070124","contact:email":"biuro@fikk.pl","ref:regon":"281612544","ref:vatin":"PL6731788371","operator":"Instytut Kszta\u0142cenia Kadr W Likwidacji","operator:type":"ngo","healthcare":"councelling","counselling_type":"education","fixme":"w zale\u017cno\u015bci od przedmiotu dzia\u0142alno\u015bci (np. healthcare=councelling + counselling_type=education albo healthcare=psychotherapist)"}},{"id":125176,"type":"Feature","geometry":{"type":"Point","coordinates":[19.4058,54.15777]},"properties":{"isced:level":"3","ref:rspo":125176,"official_name":"Zaoczne Liceum Og\u00f3lnokszta\u0142c\u0105ce dla Doros\u0142ych \"Cosinus Plus\" w Elbl\u0105gu","name":"Zaoczne Liceum Og\u00f3lnokszta\u0142c\u0105ce dla Doros\u0142ych \"Cosinus Plus\" w Elbl\u0105gu","addr:country":"PL","addr:postcode":"82-300","addr:city":"Elbl\u0105g","addr:street":"ul. Hetma\u0144ska","addr:housenumber":"5","addr:door":"26","addr:teryt:simc":6637,"addr:teryt:sym_ul":932703,"contact:phone":"+48 552355738","contact:email":"elblag@cosinus.pl","contact:website":"http:\/\/www.cosinus.pl","ref:regon":"281626368","operator":"\"Fundacja Cosinus Edukacja El\"","operator:type":"ngo","amenity":"school"}},{"id":125182,"type":"Feature","geometry":{"type":"Point","coordinates":[19.4058,54.15774]},"properties":{"isced:level":"4","ref:rspo":125182,"official_name":"Szko\u0142a Policealna \"Cosinus Plus\" w Elbl\u0105gu","name":"Szko\u0142a Policealna \"Cosinus Plus\" w Elbl\u0105gu","addr:country":"PL","addr:postcode":"82-300","addr:city":"Elbl\u0105g","addr:street":"ul. Hetma\u0144ska","addr:housenumber":"5","addr:door":"26","addr:teryt:simc":6637,"addr:teryt:sym_ul":932703,"contact:phone":"+48 552355738","contact:email":"elblag@cosinus.pl","contact:website":"http:\/\/www.cosinus.pl","ref:regon":"281626374","operator":"\"Fundacja Cosinus Edukacja El\"","operator:type":"ngo","amenity":"college"}},{"id":15130,"type":"Feature","geometry":{"type":"Point","coordinates":[19.41714,54.15805]},"properties":{"isced:level":"1;2","ref:rspo":15130,"official_name":"Szko\u0142a Podstawowa Nr 4 im. Henryka Sienkiewicza w Elbl\u0105gu","name":"Szko\u0142a Podstawowa Nr 4","addr:country":"PL","addr:postcode":"82-300","addr:city":"Elbl\u0105g","addr:street":"ul. Adama Mickiewicza","addr:housenumber":"41","addr:teryt:simc":12740,"addr:teryt:sym_ul":932703,"contact:phone":"+48 556258481","contact:email":"sp4@elblag.eu","contact:website":"http:\/\/www.sp4.elblag.pl","ref:regon":"000206701","ref:vatin":"PL5781064806","operator":"Gmina Miasto Elbl\u0105g  Na Prawach Powiatu","operator:type":"government","amenity":"school"}},{"id":74047,"type":"Feature","geometry":{"type":"Point","coordinates":[19.39931,54.1585]},"properties":{"ref:rspo":74047,"official_name":"Zak\u0142ad Us\u0142ug I Szkole\u0144 \"Elta\" Gra\u017cyna Bielawska","name":"Zak\u0142ad Us\u0142ug I Szkole\u0144 \"Elta\" Gra\u017cyna Bielawska","addr:country":"PL","addr:postcode":"82-300","addr:city":"Elbl\u0105g","addr:street":"pl. Plac S\u0142owia\u0144ski","addr:housenumber":"2","addr:teryt:simc":38513,"addr:teryt:sym_ul":932703,"contact:phone":"+48 552353033","contact:email":"elta_bielawska@interia.pl","ref:regon":"281442906","ref:vatin":"PL5780136900","operator":"Gra\u017cyna Bielawska","operator:type":"private","fixme":"w zale\u017cno\u015bci od przedmiotu dzia\u0142alno\u015bci (np. amenity=training + training=*, amenity=dancing_school, amenity=language_school, amenity=music_school)"}},{"id":15434,"type":"Feature","geometry":{"type":"Point","coordinates":[19.4015,54.15882]},"properties":{"isced:level":"1;2","ref:rspo":15434,"official_name":"Szko\u0142a Podstawowa Nr 21 im. Miko\u0142aja Kopernika w Elbl\u0105gu","name":"Szko\u0142a Podstawowa Nr 21","addr:country":"PL","addr:postcode":"82-300","addr:city":"Elbl\u0105g","addr:street":"ul. Zbyszka Godlewskiego","addr:housenumber":"1","addr:teryt:simc":28245,"addr:teryt:sym_ul":932703,"contact:phone":"+48 556258681","contact:email":"sp21@elblag.eu","contact:website":"http:\/\/www.sp21.elblag.com.pl","ref:regon":"000213144","ref:vatin":"PL5781057953","operator":"Gmina Miasto Elbl\u0105g  Na Prawach Powiatu","operator:type":"government","amenity":"school"}},{"id":9616,"type":"Feature","geometry":{"type":"Point","coordinates":[19.38777,54.15919]},"properties":{"isced:level":"1;2","ref:rspo":9616,"official_name":"Szko\u0142a Podstawowa Nr 8 im. Stanis\u0142awa Staszica w Elbl\u0105gu","name":"Szko\u0142a Podstawowa Nr 8","addr:country":"PL","addr:postcode":"82-300","addr:city":"Elbl\u0105g","addr:street":"ul. Sza\u0144cowa","addr:housenumber":"2","addr:teryt:simc":21767,"addr:teryt:sym_ul":932703,"contact:phone":"+48 556258521","contact:email":"sp8@elblag.eu","contact:website":"http:\/\/www.sp8.elblag.pl","ref:regon":"000209390","ref:vatin":"PL5781064367","operator":"Gmina Miasto Elbl\u0105g  Na Prawach Powiatu","operator:type":"government","amenity":"school"}},{"id":6012,"type":"Feature","geometry":{"type":"Point","coordinates":[19.40291,54.15921]},"properties":{"ref:rspo":6012,"official_name":"Przedszkole Nr 10 w Elbl\u0105gu","name":"Przedszkole Nr 10 w Elbl\u0105gu","addr:country":"PL","addr:postcode":"82-300","addr:city":"Elbl\u0105g","addr:street":"ul. M\u0105czna","addr:housenumber":"8","addr:teryt:simc":12563,"addr:teryt:sym_ul":932703,"contact:phone":"+48 556258051","contact:email":"przedszkole10@elblag.eu","ref:regon":"280564719","ref:vatin":"PL5783089638","operator":"Gmina Miasto Elbl\u0105g  Na Prawach Powiatu","operator:type":"government","amenity":"kindergarten"}},{"id":85124,"type":"Feature","geometry":{"type":"Point","coordinates":[19.39957,54.15928]},"properties":{"ref:rspo":85124,"official_name":"Eur Consulting Sp\u00f3\u0142ka Z O.o.","name":"Eur Consulting Sp\u00f3\u0142ka Z O.o.","addr:country":"PL","addr:postcode":"82-300","addr:city":"Elbl\u0105g","addr:street":"ul. 1 Maja","addr:housenumber":"2","addr:teryt:simc":11926,"addr:teryt:sym_ul":932703,"contact:phone":"+48 552326514","contact:email":"pruszcz@eur.org.pl","contact:website":"http:\/\/www.eurconsulting.org.pl","ref:regon":"281447068","ref:vatin":"PL5781017184","operator":"Eur Consulting Sp\u00f3\u0142ka Z Ograniczon\u0105 Odpowiedzialno\u015bci\u0105","operator:type":"private","fixme":"w zale\u017cno\u015bci od przedmiotu dzia\u0142alno\u015bci (np. amenity=training + training=*, amenity=dancing_school, amenity=language_school, amenity=music_school)"}},{"id":6002,"type":"Feature","geometry":{"type":"Point","coordinates":[19.38831,54.15948]},"properties":{"ref:rspo":6002,"official_name":"Przedszkole Nr 5 w Elbl\u0105gu","name":"Przedszkole Nr 5 w Elbl\u0105gu","addr:country":"PL","addr:postcode":"82-300","addr:city":"Elbl\u0105g","addr:street":"ul. Sza\u0144cowa","addr:housenumber":"9","addr:teryt:simc":21767,"addr:teryt:sym_ul":932703,"contact:phone":"+48 556258020","contact:email":"przedszkole5@elblag.eu","contact:website":"http:\/\/p5elblag.edupage.org","ref:regon":"280564895","ref:vatin":"PL5783088923","operator":"Gmina Miasto Elbl\u0105g  Na Prawach Powiatu","operator:type":"government","amenity":"kindergarten"}},{"id":38487,"type":"Feature","geometry":{"type":"Point","coordinates":[19.42132,54.15952]},"properties":{"ref:rspo":38487,"official_name":"Bursa Szkolna Nr 2 w Elbl\u0105gu","name":"Bursa Szkolna Nr 2 w Elbl\u0105gu","addr:country":"PL","addr:postcode":"82-300","addr:city":"Elbl\u0105g","addr:street":"ul. Genera\u0142a Kazimierza Pu\u0142askiego","addr:housenumber":"1","addr:door":"a","addr:teryt:simc":37885,"addr:teryt:sym_ul":932703,"contact:phone":"+48 556256560","contact:email":"bs2@elblag.eu","ref:regon":"280563200","ref:vatin":"PL5783088432","operator":"Gmina Miasto Elbl\u0105g  Na Prawach Powiatu","operator:type":"government","building":"dormitory"}},{"id":263146,"type":"Feature","geometry":{"type":"Point","coordinates":[19.42132,54.15949]},"properties":{"ref:rspo":263146,"official_name":"Niepubliczne Przedszkole \"Safari'","name":"Niepubliczne Przedszkole \"Safari'","addr:country":"PL","addr:postcode":"82-300","addr:city":"Elbl\u0105g","addr:street":"ul. Genera\u0142a Kazimierza Pu\u0142askiego","addr:housenumber":"1f","addr:teryt:simc":37885,"addr:teryt:sym_ul":932703,"contact:phone":"+48 531314099","contact:email":"info@przedszkolesafari.pl","contact:website":"http:\/\/www.przedszkolesafari.pl","ref:regon":"368109677","operator":"Joanna Sitz","operator:type":"private","amenity":"kindergarten"}},{"id":32093,"type":"Feature","geometry":{"type":"Point","coordinates":[19.43241,54.15991]},"properties":{"isced:level":"1;2","ref:rspo":32093,"official_name":"Szko\u0142a Podstawowa Nr 25 im. Janusza Kusoci\u0144skiego w Elbl\u0105gu","name":"Szko\u0142a Podstawowa Nr 25","addr:country":"PL","addr:postcode":"82-300","addr:city":"Elbl\u0105g","addr:street":"ul. Wy\u017cynna","addr:housenumber":"3","addr:teryt:simc":25143,"addr:teryt:sym_ul":932703,"contact:phone":"+48 556258722","contact:email":"sp25@elblag.eu","contact:website":"http:\/\/zs2elblag.pl","ref:regon":"000213888","ref:vatin":"PL5783052598","operator":"Gmina Miasto Elbl\u0105g  Na Prawach Powiatu","operator:type":"government","amenity":"school"}},{"id":74044,"type":"Feature","geometry":{"type":"Point","coordinates":[19.4036,54.15995]},"properties":{"ref:rspo":74044,"official_name":"O\u015brodek Edukacyjno - Szkoleniowy Towarzystwa Przyjaci\u00f3\u0142 Dzieci w Elbl\u0105gu","name":"O\u015brodek Edukacyjno - Szkoleniowy Towarzystwa Przyjaci\u00f3\u0142 Dzieci w Elbl\u0105gu","addr:country":"PL","addr:postcode":"82-300","addr:city":"Elbl\u0105g","addr:street":"ul. 1 Maja","addr:housenumber":"37","addr:teryt:simc":11926,"addr:teryt:sym_ul":932703,"contact:phone":"+48 552338210","contact:email":"tpdzo@o2.pl","contact:website":"http:\/\/tpd.elblag.com.pl","ref:regon":"281442881","ref:vatin":"PL5781043075","operator":"Towarzystwo Przyjaci\u00f3\u0142 Dzieci Zarz\u0105d Oddzia\u0142u Okr\u0119gowego W Elbl\u0105gu","operator:type":"ngo","fixme":"w zale\u017cno\u015bci od przedmiotu dzia\u0142alno\u015bci (np. amenity=training + training=*, amenity=dancing_school, amenity=language_school, amenity=music_school)"}},{"id":274357,"type":"Feature","geometry":{"type":"Point","coordinates":[19.4036,54.15992]},"properties":{"ref:rspo":274357,"official_name":"O\u015brodek Doskonalenia Nauczycieli Towarzystwa Przyjaci\u00f3\u0142 Dzieci","name":"O\u015brodek Doskonalenia Nauczycieli Towarzystwa Przyjaci\u00f3\u0142 Dzieci","addr:country":"PL","addr:postcode":"82-300","addr:city":"Elbl\u0105g","addr:street":"ul. 1 Maja","addr:housenumber":"37","addr:teryt:simc":11926,"addr:teryt:sym_ul":932703,"contact:phone":"+48 552338210","contact:email":"tpdzo@o2.pl","contact:website":"http:\/\/www.tpd.elblag.com.pl","ref:regon":"385616085","operator":"Towarzystwo Przyjaci\u00f3\u0142 Dzieci Zarz\u0105d Oddzia\u0142u Okr\u0119gowego W Elbl\u0105gu","operator:type":"ngo","amenity":"training"}},{"id":75217,"type":"Feature","geometry":{"type":"Point","coordinates":[19.43149,54.16018]},"properties":{"ref:rspo":75217,"official_name":"Poradnia Doradztwa Zawodowego I Pomocy Psychologiczno-Pedagogicznej w Elbl\u0105gu","name":"Poradnia Doradztwa Zawodowego I Pomocy Psychologiczno-Pedagogicznej w Elbl\u0105gu","addr:country":"PL","addr:postcode":"82-300","addr:city":"Elbl\u0105g","addr:street":"ul. Garnizonowa","addr:housenumber":"14a","addr:teryt:simc":5347,"addr:teryt:sym_ul":932703,"contact:phone":"+48 552337788","contact:email":"poradniapim@wp.pl","ref:regon":"281443805","ref:vatin":"PL5782110744","operator":"Izabela Pyszkowska","operator:type":"private","healthcare":"councelling","counselling_type":"education","fixme":"w zale\u017cno\u015bci od przedmiotu dzia\u0142alno\u015bci (np. healthcare=councelling + counselling_type=education albo healthcare=psychotherapist)"}},{"id":14622,"type":"Feature","geometry":{"type":"Point","coordinates":[19.40955,54.16036]},"properties":{"ref:rspo":14622,"official_name":"Zesp\u00f3\u0142 Pa\u0144stwowych Szk\u00f3\u0142 Muzycznych im. Kazimierza Wi\u0142komirskiego w Elbl\u0105gu","name":"Zesp\u00f3\u0142 Pa\u0144stwowych Szk\u00f3\u0142 Muzycznych","addr:country":"PL","addr:postcode":"82-300","addr:city":"Elbl\u0105g","addr:street":"ul. Romualda Traugutta","addr:housenumber":"91","addr:teryt:simc":22965,"addr:teryt:sym_ul":932703,"contact:phone":"+48 556114040","contact:email":"sekretariat@elmuzyka.edu.pl","contact:website":"http:\/\/elmuzyka.edu.pl","ref:regon":"000277279","operator":"Ministerstwo Kultury I Dziedzictwa Narodowego","operator:type":"public","landuse":"education","fixme":"amenity=school, amenity=college albo landuse=education w zale\u017cno\u015bci od tego, jakie plac\u00f3wki wchodz\u0105 w sk\u0142ad zespo\u0142u. Sprawd\u017a, kiedy stosowa\u0107 amenity=* a kiedy landuse=education.","note":"Children RSPO: 92124;92917;92918;127073"}},{"id":92124,"type":"Feature","geometry":{"type":"Point","coordinates":[19.40955,54.160329999999995]},"properties":{"isced:level":"3","ref:rspo":92124,"official_name":"Og\u00f3lnokszta\u0142c\u0105ca Szko\u0142a Muzyczna II St. w Elbl\u0105gu","name":"Og\u00f3lnokszta\u0142c\u0105ca Szko\u0142a Muzyczna II St. w Elbl\u0105gu","addr:country":"PL","addr:postcode":"82-300","addr:city":"Elbl\u0105g","addr:street":"ul. Romualda Traugutta","addr:housenumber":"91","addr:teryt:simc":22965,"addr:teryt:sym_ul":932703,"contact:phone":"+48 556114040","contact:email":"sekretariat@elmuzyka.edu.pl","contact:website":"http:\/\/www.elmuzyka.edu.pl","ref:regon":"280014692","operator":"Ministerstwo Kultury I Dziedzictwa Narodowego","operator:type":"public","amenity":"school","note":"Parent RSPO: 14622"}},{"id":92917,"type":"Feature","geometry":{"type":"Point","coordinates":[19.40955,54.1603]},"properties":{"isced:level":"1;2","ref:rspo":92917,"official_name":"Og\u00f3lnokszta\u0142c\u0105ca Szko\u0142a Muzyczna I St. w Elbl\u0105gu","name":"Og\u00f3lnokszta\u0142c\u0105ca Szko\u0142a Muzyczna I St. w Elbl\u0105gu","addr:country":"PL","addr:postcode":"82-300","addr:city":"Elbl\u0105g","addr:street":"ul. Romualda Traugutta","addr:housenumber":"91","addr:teryt:simc":22965,"addr:teryt:sym_ul":932703,"contact:phone":"+48 556114040","contact:email":"sekretariat@elmuzyka.edu.pl","contact:website":"http:\/\/www.elmuzyka.edu.pl","ref:regon":"280014686","operator":"Ministerstwo Kultury I Dziedzictwa Narodowego","operator:type":"public","amenity":"school","note":"Parent RSPO: 14622"}},{"id":92918,"type":"Feature","geometry":{"type":"Point","coordinates":[19.40955,54.16027]},"properties":{"ref:rspo":92918,"official_name":"Pa\u0144stwowa Szko\u0142a Muzyczna II St. w Elbl\u0105gu","name":"Pa\u0144stwowa Szko\u0142a Muzyczna II St. w Elbl\u0105gu","addr:country":"PL","addr:postcode":"82-300","addr:city":"Elbl\u0105g","addr:street":"ul. Romualda Traugutta","addr:housenumber":"91","addr:teryt:simc":22965,"addr:teryt:sym_ul":932703,"contact:phone":"+48 556114040","ref:regon":"280014670","operator":"Ministerstwo Kultury I Dziedzictwa Narodowego","operator:type":"public","amenity":"music_school","note":"Parent RSPO: 14622"}},{"id":127073,"type":"Feature","geometry":{"type":"Point","coordinates":[19.40955,54.160239999999995]},"properties":{"ref:rspo":127073,"official_name":"Pa\u0144stwowa Szko\u0142a Muzyczna I St. w Elbl\u0105gu","name":"Pa\u0144stwowa Szko\u0142a Muzyczna I St. w Elbl\u0105gu","addr:country":"PL","addr:postcode":"82-300","addr:city":"Elbl\u0105g","addr:street":"ul. Romualda Traugutta","addr:housenumber":"91","addr:teryt:simc":22965,"addr:teryt:sym_ul":932703,"contact:phone":"+48 566114040","ref:regon":"361081970","operator":"Ministerstwo Kultury I Dziedzictwa Narodowego","operator:type":"public","amenity":"music_school","note":"Parent RSPO: 14622"}},{"id":275734,"type":"Feature","geometry":{"type":"Point","coordinates":[19.43257,54.161]},"properties":{"ref:rspo":275734,"official_name":"Dwuj\u0119zyczne Niepubliczne Przedszkole \"Mieszko I\"","name":"Dwuj\u0119zyczne Niepubliczne Przedszkole \"Mieszko I\"","addr:country":"PL","addr:postcode":"82-300","addr:city":"Elbl\u0105g","addr:street":"ul. Wy\u017cynna","addr:housenumber":"9","addr:teryt:simc":25143,"addr:teryt:sym_ul":932703,"contact:phone":"+48 791692222","contact:email":"przedszkole@mieszkopierwszy.pl","contact:website":"http:\/\/www.mieszkopierwszy.pl","ref:regon":"386933149","operator":"Mgm Sp\u00f3\u0142ka Z Ograniczon\u0105 Odpowiedzialno\u015bci\u0105","operator:type":"private","amenity":"kindergarten"}},{"id":128867,"type":"Feature","geometry":{"type":"Point","coordinates":[19.39689,54.16105]},"properties":{"isced:level":"1;2","ref:rspo":128867,"official_name":"Szko\u0142a Podstawowa Montessori Elbl\u0105g","name":"Szko\u0142a Podstawowa Montessori Elbl\u0105g","addr:country":"PL","addr:postcode":"82-300","addr:city":"Elbl\u0105g","addr:street":"ul. Przy Bramie Targowej","addr:housenumber":"10","addr:teryt:simc":27749,"addr:teryt:sym_ul":932703,"contact:phone":"+48 575805015","contact:email":"montessorielblag@gmail.com","contact:website":"http:\/\/www.montessorielblag.pl","ref:regon":"362416585","ref:vatin":"PL5782625767","operator":"Agnieszka Kizi\u0144ska","operator:type":"private","amenity":"school"}},{"id":42540,"type":"Feature","geometry":{"type":"Point","coordinates":[19.41011,54.16119]},"properties":{"ref:rspo":42540,"official_name":"Poradnia Psychologiczno - Pedagogiczna Nr 2 w Elbl\u0105gu","name":"Poradnia Psychologiczno - Pedagogiczna Nr 2 w Elbl\u0105gu","addr:country":"PL","addr:postcode":"82-300","addr:city":"Elbl\u0105g","addr:street":"ul. Kosynier\u00f3w Gdy\u0144skich","addr:housenumber":"30","addr:teryt:simc":9503,"addr:teryt:sym_ul":932703,"contact:phone":"+48 556258251","contact:email":"ppp2@elblag.eu","contact:website":"http:\/\/www.poradnia2elblag.pl","ref:regon":"170028742","ref:vatin":"PL5782553737","operator":"Gmina Miasto Elbl\u0105g  Na Prawach Powiatu","operator:type":"government","healthcare":"councelling","counselling_type":"education","fixme":"w zale\u017cno\u015bci od przedmiotu dzia\u0142alno\u015bci (np. healthcare=councelling + counselling_type=education albo healthcare=psychotherapist)"}},{"id":104539,"type":"Feature","geometry":{"type":"Point","coordinates":[19.41011,54.161159999999995]},"properties":{"ref:rspo":104539,"official_name":"Niepubliczna Elbl\u0105ska Plac\u00f3wka Edukacyjna \"Arm\"","name":"Niepubliczna Elbl\u0105ska Plac\u00f3wka Edukacyjna \"Arm\"","addr:country":"PL","addr:postcode":"82-300","addr:city":"Elbl\u0105g","addr:street":"ul. Kosynier\u00f3w Gdy\u0144skich","addr:housenumber":"30","addr:teryt:simc":9503,"addr:teryt:sym_ul":932703,"contact:phone":"+48 606783292","contact:email":"sekretariat@arm.edu.pl","contact:website":"http:\/\/www.arm.edu.pl","ref:regon":"281457670","ref:vatin":"PL5811460382","operator":"Sylwia Micha\u0142owska Firma \"Ar\"","operator:type":"consortium","fixme":"w zale\u017cno\u015bci od przedmiotu dzia\u0142alno\u015bci (np. amenity=training + training=*, amenity=dancing_school, amenity=language_school, amenity=music_school)"}},{"id":34415,"type":"Feature","geometry":{"type":"Point","coordinates":[19.39811,54.16184]},"properties":{"isced:level":"3","ref:rspo":34415,"official_name":"I Liceum Og\u00f3lnokszta\u0142c\u0105ce Im Juliusza S\u0142owackiego w Elbl\u0105gu","name":"I Liceum Og\u00f3lnokszta\u0142c\u0105ce Im Juliusza S\u0142owackiego w Elbl\u0105gu","addr:country":"PL","addr:postcode":"82-300","addr:city":"Elbl\u0105g","addr:street":"ul. Pocztowa","addr:housenumber":"2","addr:teryt:simc":16579,"addr:teryt:sym_ul":932703,"contact:phone":"+48 556258910","contact:email":"1lo@elblag.eu","contact:website":"http:\/\/www.1lo.elblag.pl","ref:regon":"170989654","ref:vatin":"PL5783138466","operator":"Gmina Miasto Elbl\u0105g  Na Prawach Powiatu","operator:type":"government","amenity":"school"}},{"id":86067,"type":"Feature","geometry":{"type":"Point","coordinates":[19.4011,54.16191]},"properties":{"ref:rspo":86067,"official_name":"Stowarzyszenie Ksi\u0119gowych w Polsce Niepubliczna Plac\u00f3wka Kszta\u0142cenia Ustawicznego Oddzia\u0142u Okr\u0119gowego w Elbl\u0105gu","name":"Stowarzyszenie Ksi\u0119gowych w Polsce Niepubliczna Plac\u00f3wka Kszta\u0142cenia Ustawicznego Oddzia\u0142u Okr\u0119gowego w Elbl\u0105gu","addr:country":"PL","addr:postcode":"82-300","addr:city":"Elbl\u0105g","addr:street":"ul. Powsta\u0144c\u00f3w Warszawskich","addr:housenumber":"9","addr:door":"1","addr:teryt:simc":17368,"addr:teryt:sym_ul":932703,"contact:phone":"+48 552326133","contact:email":"skwp@elblag.com.pl","contact:website":"http:\/\/www.skwp.elblag.pl","ref:regon":"281462582","ref:vatin":"PL5260307956","operator":"Stowarzyszenie Ksi\u0119gowych W Polsce","operator:type":"ngo","fixme":"w zale\u017cno\u015bci od przedmiotu dzia\u0142alno\u015bci (np. amenity=training + training=*, amenity=dancing_school, amenity=language_school, amenity=music_school)"}},{"id":84901,"type":"Feature","geometry":{"type":"Point","coordinates":[19.40481,54.16218]},"properties":{"ref:rspo":84901,"official_name":"Niepubliczna Plac\u00f3wka O\u015bwiatowo-Wychowawcza Akademia Sport\u00f3w Wodnych","name":"Niepubliczna Plac\u00f3wka O\u015bwiatowo-Wychowawcza Akademia Sport\u00f3w Wodnych","addr:country":"PL","addr:postcode":"82-300","addr:city":"Elbl\u0105g","addr:street":"ul. 12 Lutego","addr:housenumber":"8a","addr:teryt:simc":11432,"addr:teryt:sym_ul":932703,"contact:phone":"+48 556433344","contact:email":"biuro@grupawodna.pl","contact:website":"http:\/\/www.grupawodna.pl","ref:regon":"281447016","ref:vatin":"PL5781985009","operator":"Pphu \"Grupa\" Marcin Trudnowski","operator:type":"consortium","fixme":"w zale\u017cno\u015bci od przedmiotu dzia\u0142alno\u015bci (np. amenity=training + training=*, amenity=dancing_school, amenity=language_school, amenity=music_school)"}},{"id":70797,"type":"Feature","geometry":{"type":"Point","coordinates":[19.4276,54.16236]},"properties":{"ref:rspo":70797,"official_name":"Zesp\u00f3\u0142 Szk\u00f3\u0142 Pijarskich im. \u015aw. Miko\u0142aja w Elbl\u0105gu","name":"Zesp\u00f3\u0142 Szk\u00f3\u0142 Pijarskich","addr:country":"PL","addr:postcode":"82-300","addr:city":"Elbl\u0105g","addr:street":"ul. Saper\u00f3w","addr:housenumber":"20","addr:teryt:simc":19506,"addr:teryt:sym_ul":932703,"contact:phone":"+48 572774681","contact:email":"elblagpijarzy@wp.pl","contact:website":"http:\/\/www.elblag.pijarzy.pl","ref:regon":"281444064","ref:vatin":"PL5782843636","operator":"Polska Prowincja Zakonu Pijar\u00f3w","operator:type":"religious","landuse":"education","fixme":"amenity=school, amenity=college albo landuse=education w zale\u017cno\u015bci od tego, jakie plac\u00f3wki wchodz\u0105 w sk\u0142ad zespo\u0142u. Sprawd\u017a, kiedy stosowa\u0107 amenity=* a kiedy landuse=education.","note":"Children RSPO: 104460;104461"}},{"id":268170,"type":"Feature","geometry":{"type":"Point","coordinates":[19.4276,54.16233]},"properties":{"ref:rspo":268170,"official_name":"Niepubliczne Centrum Kszta\u0142cenia Zawodowego \"Cosinus\" w Elbl\u0105gu","name":"Niepubliczne Centrum Kszta\u0142cenia Zawodowego \"Cosinus\" w Elbl\u0105gu","addr:country":"PL","addr:postcode":"82-300","addr:city":"Elbl\u0105g","addr:street":"ul. Saper\u00f3w","addr:housenumber":"20","addr:teryt:simc":19506,"addr:teryt:sym_ul":932703,"contact:phone":"+48 552355738","contact:email":"elblag@cosinus.pl","ref:regon":"380998202","operator":"\"Fundacja Equamp-Fiz\"","operator:type":"ngo","fixme":"w zale\u017cno\u015bci od przedmiotu dzia\u0142alno\u015bci (np. amenity=training + training=*, amenity=dancing_school, amenity=language_school, amenity=music_school) albo amenity=school, amenity=college, albo landuse=education w zale\u017cno\u015bci od tego, jakie plac\u00f3wki wchodz\u0105 w sk\u0142ad zespo\u0142u. Sprawd\u017a, kiedy stosowa\u0107 amenity=* a kiedy landuse=education."}},{"id":104460,"type":"Feature","geometry":{"type":"Point","coordinates":[19.4276,54.1623]},"properties":{"isced:level":"1;2","ref:rspo":104460,"official_name":"Publiczna Szko\u0142a Podstawowa Zakonu Pijar\u00f3w","name":"Publiczna Szko\u0142a Podstawowa Zakonu Pijar\u00f3w","addr:country":"PL","addr:postcode":"82-300","addr:city":"Elbl\u0105g","addr:street":"ul. Saper\u00f3w","addr:housenumber":"20","addr:teryt:simc":19506,"addr:teryt:sym_ul":932703,"contact:phone":"+48 572774681","contact:email":"elblagpijarzy@wp.pl","contact:website":"http:\/\/www.elblag.pijarzy.pl","ref:regon":"281462553","ref:vatin":"PL5782843636","operator":"Polska Prowincja Zakonu Pijar\u00f3w","operator:type":"religious","amenity":"school","note":"Parent RSPO: 70797"}},{"id":104461,"type":"Feature","geometry":{"type":"Point","coordinates":[19.4276,54.16227]},"properties":{"isced:level":"3","ref:rspo":104461,"official_name":"Publiczne Liceum Og\u00f3lnokszta\u0142c\u0105ce Zakonu Pijar\u00f3w","name":"Publiczne Liceum Og\u00f3lnokszta\u0142c\u0105ce Zakonu Pijar\u00f3w","addr:country":"PL","addr:postcode":"82-300","addr:city":"Elbl\u0105g","addr:street":"ul. Saper\u00f3w","addr:housenumber":"20","addr:teryt:simc":19506,"addr:teryt:sym_ul":932703,"contact:phone":"+48 572774681","contact:email":"elblagpijarzy@wp.pl","contact:website":"http:\/\/www.elblag.pijarzy.pl","ref:regon":"281462547","ref:vatin":"PL5782843636","operator":"Polska Prowincja Zakonu Pijar\u00f3w","operator:type":"religious","amenity":"school","note":"Parent RSPO: 70797"}},{"id":118954,"type":"Feature","geometry":{"type":"Point","coordinates":[19.42452,54.16241]},"properties":{"isced:level":"1;2","ref:rspo":118954,"official_name":"Publiczna Szko\u0142a Podstawowa Stowarzyszenia Przyjaci\u00f3\u0142 Szk\u00f3\u0142 Katolickich im. \u015aw. Franciszka Z Asy\u017cu","name":"Publiczna Szko\u0142a Podstawowa Stowarzyszenia Przyjaci\u00f3\u0142 Szk\u00f3\u0142 Katolickich","addr:country":"PL","addr:postcode":"82-300","addr:city":"Elbl\u0105g","addr:street":"ul. Saper\u00f3w","addr:housenumber":"14c","addr:teryt:simc":19506,"addr:teryt:sym_ul":932703,"contact:phone":"+48 556491275","contact:email":"spsk.elblag@gmail.com","ref:regon":"281525265","ref:vatin":"PL5783112917","operator":"Stowarzyszenie Przyjaci\u00f3\u0142 Szk\u00f3\u0142 Katolickich","operator:type":"ngo","amenity":"school"}},{"id":266122,"type":"Feature","geometry":{"type":"Point","coordinates":[19.39701,54.16259]},"properties":{"ref:rspo":266122,"official_name":"Niepubliczna Poradnia Psychologiczno-Pedagogiczna \"Krasnal\"","name":"Niepubliczna Poradnia Psychologiczno-Pedagogiczna \"Krasnal\"","addr:country":"PL","addr:postcode":"82-300","addr:city":"Elbl\u0105g","addr:street":"ul. Kr\u00f3lewiecka","addr:housenumber":"2","addr:teryt:simc":9983,"addr:teryt:sym_ul":932703,"contact:phone":"+48 552327450","contact:email":"sport_elblag@pro.onet.pl","contact:website":"http:\/\/www.spor-t.pl","ref:regon":"369281102","operator":"Samodzielny Publiczny O\u015brodek Rehabilitacyjno-Terapeutyczny Dla Dzieci I M\u0142odzie\u017cy W Elbl\u0105gu","operator:type":"government","healthcare":"councelling","counselling_type":"education","fixme":"w zale\u017cno\u015bci od przedmiotu dzia\u0142alno\u015bci (np. healthcare=councelling + counselling_type=education albo healthcare=psychotherapist)"}},{"id":22773,"type":"Feature","geometry":{"type":"Point","coordinates":[19.40948,54.16266]},"properties":{"isced:level":"1;2","ref:rspo":22773,"official_name":"Szko\u0142a Podstawowa Nr 23 im. Marii D\u0105browskiej w Elbl\u0105gu","name":"Szko\u0142a Podstawowa Nr 23","addr:country":"PL","addr:postcode":"82-300","addr:city":"Elbl\u0105g","addr:street":"ul. S\u0142oneczna","addr:housenumber":"14","addr:teryt:simc":20254,"addr:teryt:sym_ul":932703,"contact:phone":"+48 556258702","contact:email":"sp23@elblag.eu","contact:website":"http:\/\/www.szkola23.pl","ref:regon":"000213405","ref:vatin":"PL5781087227","operator":"Gmina Miasto Elbl\u0105g  Na Prawach Powiatu","operator:type":"government","amenity":"school"}},{"id":42431,"type":"Feature","geometry":{"type":"Point","coordinates":[19.40948,54.16263]},"properties":{"ref:rspo":42431,"official_name":"Poradnia Psychologiczno - Pedagogiczna Nr 1 w Elbl\u0105gu","name":"Poradnia Psychologiczno - Pedagogiczna Nr 1 w Elbl\u0105gu","addr:country":"PL","addr:postcode":"82-300","addr:city":"Elbl\u0105g","addr:street":"ul. S\u0142oneczna","addr:housenumber":"14","addr:teryt:simc":20254,"addr:teryt:sym_ul":932703,"contact:phone":"+48 556258230","contact:email":"ppp1@elblag.eu","contact:website":"http:\/\/pppjeden.ehost.pl\/","ref:regon":"000218503","ref:vatin":"PL5782037533","operator":"Gmina Miasto Elbl\u0105g  Na Prawach Powiatu","operator:type":"government","healthcare":"councelling","counselling_type":"education","fixme":"w zale\u017cno\u015bci od przedmiotu dzia\u0142alno\u015bci (np. healthcare=councelling + counselling_type=education albo healthcare=psychotherapist)"}},{"id":5973,"type":"Feature","geometry":{"type":"Point","coordinates":[19.409940719604,54.162830352783]},"properties":{"ref:rspo":5973,"official_name":"Przedszkole Nr 3 im. Ba\u015bni I Bajek Polskich w Elbl\u0105gu","name":"Przedszkole Nr 3","addr:country":"PL","addr:postcode":"82-300","addr:city":"Elbl\u0105g","addr:street":"ul. Genera\u0142a J\u00f3zefa Bema","addr:housenumber":"26","addr:teryt:simc":37883,"addr:teryt:sym_ul":932703,"contact:phone":"+48 556258000","contact:email":"przedszkole3@elblag.eu","contact:website":"http:\/\/www.p3elblag.edupage.org","ref:regon":"280564748","ref:vatin":"PL5783088449","operator":"Gmina Miasto Elbl\u0105g  Na Prawach Powiatu","operator:type":"government","amenity":"kindergarten"}},{"id":6065,"type":"Feature","geometry":{"type":"Point","coordinates":[19.409940719604,54.162800352782995]},"properties":{"ref:rspo":6065,"official_name":"Przedszkole Nr 15 w Elbl\u0105gu","name":"Przedszkole Nr 15 w Elbl\u0105gu","addr:country":"PL","addr:postcode":"82-300","addr:city":"Elbl\u0105g","addr:street":"ul. Starowiejska","addr:housenumber":"24","addr:teryt:simc":20998,"addr:teryt:sym_ul":932703,"contact:phone":"+48 556258091","contact:email":"przedszkole15@elblag.eu","ref:regon":"280564872","ref:vatin":"PL5783089199","operator":"Gmina Miasto Elbl\u0105g  Na Prawach Powiatu","operator:type":"government","amenity":"kindergarten"}},{"id":6171,"type":"Feature","geometry":{"type":"Point","coordinates":[19.409940719604,54.162770352783]},"properties":{"ref:rspo":6171,"official_name":"Przedszkole Nr 23 w Elbl\u0105gu","name":"Przedszkole Nr 23 w Elbl\u0105gu","addr:country":"PL","addr:postcode":"82-300","addr:city":"Elbl\u0105g","addr:street":"ul. Pu\u0142kownika Stanis\u0142awa D\u0105bka","addr:housenumber":"49","addr:teryt:simc":39072,"addr:teryt:sym_ul":932703,"contact:phone":"+48 556258140","contact:email":"przedszkole23@elblag.eu","ref:regon":"280566411","ref:vatin":"PL5783089035","operator":"Gmina Miasto Elbl\u0105g  Na Prawach Powiatu","operator:type":"government","amenity":"kindergarten"}},{"id":6200,"type":"Feature","geometry":{"type":"Point","coordinates":[19.409940719604,54.162740352783]},"properties":{"ref:rspo":6200,"official_name":"Przedszkole Nr 26 w Elbl\u0105gu","name":"Przedszkole Nr 26 w Elbl\u0105gu","addr:country":"PL","addr:postcode":"82-300","addr:city":"Elbl\u0105g","addr:street":"ul. Genera\u0142a J\u00f3zefa Bema","addr:housenumber":"59","addr:teryt:simc":37883,"addr:teryt:sym_ul":932703,"contact:phone":"+48 556258160","contact:email":"przedszkole26@elblag.eu","contact:website":"http:\/\/p26elblag.szkolnastrona.pl","ref:regon":"280564671","ref:vatin":"PL5783088840","operator":"Gmina Miasto Elbl\u0105g  Na Prawach Powiatu","operator:type":"government","amenity":"kindergarten"}},{"id":6201,"type":"Feature","geometry":{"type":"Point","coordinates":[19.409940719604,54.162710352782995]},"properties":{"ref:rspo":6201,"official_name":"Przedszkole Nr 29 w Elbl\u0105gu","name":"Przedszkole Nr 29 w Elbl\u0105gu","addr:country":"PL","addr:postcode":"82-300","addr:city":"Elbl\u0105g","addr:street":"ul. Genera\u0142a W\u0142adys\u0142awa Andersa","addr:housenumber":"5A","addr:teryt:simc":39357,"addr:teryt:sym_ul":932703,"contact:phone":"+48 556258171","contact:email":"przedszkole29@elblag.eu","ref:regon":"280568752","ref:vatin":"PL5783089851","operator":"Gmina Miasto Elbl\u0105g  Na Prawach Powiatu","operator:type":"government","amenity":"kindergarten"}},{"id":7212,"type":"Feature","geometry":{"type":"Point","coordinates":[19.409940719604,54.162680352783]},"properties":{"ref:rspo":7212,"official_name":"Przedszkole Nr 8 w Elbl\u0105gu","name":"Przedszkole Nr 8 w Elbl\u0105gu","addr:country":"PL","addr:postcode":"82-300","addr:city":"Elbl\u0105g","addr:street":"ul. Genera\u0142a J\u00f3zefa Bema","addr:housenumber":"9","addr:teryt:simc":37883,"addr:teryt:sym_ul":932703,"contact:phone":"+48 556258040","contact:email":"przedszkole8@elblag.eu","ref:regon":"280564843","ref:vatin":"PL5783088544","operator":"Gmina Miasto Elbl\u0105g  Na Prawach Powiatu","operator:type":"government","amenity":"kindergarten"}},{"id":22400,"type":"Feature","geometry":{"type":"Point","coordinates":[19.409940719604,54.162650352783]},"properties":{"isced:level":"1;2","ref:rspo":22400,"official_name":"Szko\u0142a Podstawowa Nr 9 im. J\u00f3zefa Pi\u0142sudskiego w Elbl\u0105gu","name":"Szko\u0142a Podstawowa Nr 9","addr:country":"PL","addr:postcode":"82-300","addr:city":"Elbl\u0105g","addr:street":"ul. J\u00f3zefa Wybickiego","addr:housenumber":"20","addr:teryt:simc":24908,"addr:teryt:sym_ul":932703,"contact:phone":"+48 556258541","contact:email":"sp9@elblag.eu","contact:website":"http:\/\/www.sp9.elblag.pl","ref:regon":"001018640","ref:vatin":"PL5783117599","operator":"Gmina Miasto Elbl\u0105g  Na Prawach Powiatu","operator:type":"government","amenity":"school"}},{"id":34677,"type":"Feature","geometry":{"type":"Point","coordinates":[19.409940719604,54.162620352782994]},"properties":{"ref:rspo":34677,"official_name":"Zesp\u00f3\u0142 Szk\u00f3\u0142 Ekonomicznych I Og\u00f3lnokszta\u0142c\u0105cych w Elbl\u0105gu","name":"Zesp\u00f3\u0142 Szk\u00f3\u0142 Ekonomicznych I Og\u00f3lnokszta\u0142c\u0105cych w Elbl\u0105gu","addr:country":"PL","addr:postcode":"82-300","addr:city":"Elbl\u0105g","addr:street":"ul. Genera\u0142a J\u00f3zefa Bema","addr:housenumber":"50","addr:teryt:simc":37883,"addr:teryt:sym_ul":932703,"contact:phone":"+48 556258982","contact:email":"zseio@elblag.eu","contact:website":"http:\/\/www.elblag.edu.pl","ref:regon":"281436685","ref:vatin":"PL5781123207","operator":"Gmina Miasto Elbl\u0105g  Na Prawach Powiatu","operator:type":"government","landuse":"education","fixme":"amenity=school, amenity=college albo landuse=education w zale\u017cno\u015bci od tego, jakie plac\u00f3wki wchodz\u0105 w sk\u0142ad zespo\u0142u. Sprawd\u017a, kiedy stosowa\u0107 amenity=* a kiedy landuse=education.","note":"Children RSPO: 91596;91612;91617"}},{"id":38485,"type":"Feature","geometry":{"type":"Point","coordinates":[19.409940719604,54.162590352783]},"properties":{"ref:rspo":38485,"official_name":"M\u0142odzie\u017cowy Dom Kultury w Elbl\u0105gu","name":"M\u0142odzie\u017cowy Dom Kultury w Elbl\u0105gu","addr:country":"PL","addr:postcode":"82-300","addr:city":"Elbl\u0105g","addr:street":"ul. Genera\u0142a J\u00f3zefa Bema","addr:housenumber":"37","addr:teryt:simc":37883,"addr:teryt:sym_ul":932703,"contact:phone":"+48 556258211","contact:email":"mdk@elblag.eu","ref:regon":"001068566","ref:vatin":"PL5782083579","operator":"Gmina Miasto Elbl\u0105g  Na Prawach Powiatu","operator:type":"government","amenity":"community_centre","community_centre:for":"juvenile"}},{"id":71526,"type":"Feature","geometry":{"type":"Point","coordinates":[19.409940719604,54.162560352783]},"properties":{"ref:rspo":71526,"official_name":"Niepubliczne Przedszkole Katolickie im. B\u0142. Franciszki Siedliskiej w Elbl\u0105gu","name":"Niepubliczne Przedszkole Katolickie","addr:country":"PL","addr:postcode":"82-300","addr:city":"Elbl\u0105g","addr:street":"ul. Genera\u0142a J\u00f3zefa Bema","addr:housenumber":"79","addr:teryt:simc":37883,"addr:teryt:sym_ul":932703,"contact:phone":"+48 512260268","contact:email":"dyrektor@przedszkolekatolickie.pl","contact:website":"http:\/\/www.przedszkolekatolickie.pl","ref:regon":"281442361","ref:vatin":"PL5782933397","operator":"Stowarzyszenie Rodzic\u00f3w Dzieci Niepublicznego Przedszkola Katolickiego Im. B\u0142. Franciszki Siedliskiej W Elbl\u0105gu","operator:type":"ngo","amenity":"kindergarten"}},{"id":119188,"type":"Feature","geometry":{"type":"Point","coordinates":[19.409940719604,54.162530352782994]},"properties":{"ref:rspo":119188,"official_name":"Centrum Kszta\u0142cenia Zawodowego I Ustawicznego w Elbl\u0105gu","name":"Centrum Kszta\u0142cenia Zawodowego I Ustawicznego w Elbl\u0105gu","addr:country":"PL","addr:postcode":"82-300","addr:city":"Elbl\u0105g","addr:street":"ul. Genera\u0142a J\u00f3zefa Bema","addr:housenumber":"54","addr:teryt:simc":37883,"addr:teryt:sym_ul":932703,"contact:phone":"+48 556256725","contact:email":"ckziu@elblag.eu","contact:website":"http:\/\/ckziuelblag.pl","ref:regon":"281527710","ref:vatin":"PL5781019711","operator":"Gmina Miasto Elbl\u0105g  Na Prawach Powiatu","operator:type":"government","landuse":"education","fixme":"amenity=school, amenity=college albo landuse=education w zale\u017cno\u015bci od tego, jakie plac\u00f3wki wchodz\u0105 w sk\u0142ad zespo\u0142u. Sprawd\u017a, kiedy stosowa\u0107 amenity=* a kiedy landuse=education.","note":"Children RSPO: 38471;38484;92144;92182;120988;120989;262995"}},{"id":91596,"type":"Feature","geometry":{"type":"Point","coordinates":[19.409940719604,54.162500352783]},"properties":{"isced:level":"3","ref:rspo":91596,"official_name":"V Liceum Og\u00f3lnokszta\u0142c\u0105ce im. Haliny Po\u015bwiatowskiej Wchodz\u0105ce w Sk\u0142ad Zespo\u0142u Szk\u00f3\u0142 Ekonomicznych I Og\u00f3lnokszta\u0142c\u0105cych w Elbl\u0105gu","name":"V Liceum Og\u00f3lnokszta\u0142c\u0105ce","addr:country":"PL","addr:postcode":"82-300","addr:city":"Elbl\u0105g","addr:street":"ul. Genera\u0142a J\u00f3zefa Bema","addr:housenumber":"50","addr:teryt:simc":37883,"addr:teryt:sym_ul":932703,"contact:phone":"+48 556258982","contact:email":"zseio@elblag.eu","ref:regon":"170250357","ref:vatin":"PL5781123207","operator":"Gmina Miasto Elbl\u0105g  Na Prawach Powiatu","operator:type":"government","amenity":"school","note":"Parent RSPO: 34677"}},{"id":91612,"type":"Feature","geometry":{"type":"Point","coordinates":[19.409940719604,54.162470352783]},"properties":{"isced:level":"3","ref:rspo":91612,"official_name":"Technikum im. Flagi Polski Wchodz\u0105ce w Sk\u0142ad Zespo\u0142u Szk\u00f3\u0142 Ekonomicznych I Og\u00f3lnokszta\u0142c\u0105cych w Elbl\u0105gu","name":"Technikum","addr:country":"PL","addr:postcode":"82-300","addr:city":"Elbl\u0105g","addr:street":"ul. Genera\u0142a J\u00f3zefa Bema","addr:housenumber":"50","addr:teryt:simc":37883,"addr:teryt:sym_ul":932703,"contact:phone":"+48 556258982","contact:email":"zseio@elblag.eu","ref:regon":"170989826","ref:vatin":"PL5781123207","operator":"Gmina Miasto Elbl\u0105g  Na Prawach Powiatu","operator:type":"government","amenity":"school","note":"Parent RSPO: 34677"}},{"id":91617,"type":"Feature","geometry":{"type":"Point","coordinates":[19.409940719604,54.162440352782994]},"properties":{"isced:level":"4","ref:rspo":91617,"official_name":"Szko\u0142a Policealna Wchodz\u0105ca w Sk\u0142ad Zespo\u0142u Szk\u00f3\u0142 Ekonomicznych I Og\u00f3lnokszta\u0142c\u0105cych w Elbl\u0105gu","name":"Szko\u0142a Policealna Wchodz\u0105ca w Sk\u0142ad Zespo\u0142u Szk\u00f3\u0142 Ekonomicznych I Og\u00f3lnokszta\u0142c\u0105cych w Elbl\u0105gu","addr:country":"PL","addr:postcode":"82-300","addr:city":"Elbl\u0105g","addr:street":"ul. Genera\u0142a J\u00f3zefa Bema","addr:housenumber":"50","addr:teryt:simc":37883,"addr:teryt:sym_ul":932703,"contact:phone":"+48 556258982","contact:email":"zseio@elblag.eu","ref:regon":"280035613","ref:vatin":"PL5781123207","operator":"Gmina Miasto Elbl\u0105g  Na Prawach Powiatu","operator:type":"government","amenity":"college","note":"Parent RSPO: 34677"}},{"id":38484,"type":"Feature","geometry":{"type":"Point","coordinates":[19.409940719604,54.162410352783]},"properties":{"ref:rspo":38484,"official_name":"Centrum Kszta\u0142cenia Zawodowego Wchodz\u0105ce w Sk\u0142ad Centrum Kszta\u0142cenia Zawodowego I Ustawicznego w Elbl\u0105gu","name":"Centrum Kszta\u0142cenia Zawodowego Wchodz\u0105ce w Sk\u0142ad Centrum Kszta\u0142cenia Zawodowego I Ustawicznego w Elbl\u0105gu","addr:country":"PL","addr:postcode":"82-300","addr:city":"Elbl\u0105g","addr:street":"ul. Genera\u0142a J\u00f3zefa Bema","addr:housenumber":"54","addr:teryt:simc":37883,"addr:teryt:sym_ul":932703,"contact:phone":"+48 556256725","contact:email":"ckziu@elblag.eu","ref:regon":"170944835","ref:vatin":"PL5781019711","operator":"Gmina Miasto Elbl\u0105g  Na Prawach Powiatu","operator:type":"government","fixme":"w zale\u017cno\u015bci od przedmiotu dzia\u0142alno\u015bci (np. amenity=training + training=*, amenity=dancing_school, amenity=language_school, amenity=music_school) albo amenity=school, amenity=college, albo landuse=education w zale\u017cno\u015bci od tego, jakie plac\u00f3wki wchodz\u0105 w sk\u0142ad zespo\u0142u. Sprawd\u017a, kiedy stosowa\u0107 amenity=* a kiedy landuse=education.","note":"Parent RSPO: 119188"}},{"id":103852,"type":"Feature","geometry":{"type":"Point","coordinates":[19.42508,54.16298]},"properties":{"isced:level":"4","ref:rspo":103852,"official_name":"Szko\u0142a Policealna im.jadwigi Romanowskiej","name":"Szko\u0142a Policealna im.jadwigi Romanowskiej","addr:country":"PL","addr:postcode":"82-300","addr:city":"Elbl\u0105g","addr:street":"ul. Saper\u00f3w","addr:housenumber":"14E","addr:teryt:simc":19506,"addr:teryt:sym_ul":932703,"contact:phone":"+48 552336319","contact:email":"studium@medyk-elblag.pl","contact:website":"http:\/\/www.medyk-elblag.pl","ref:regon":"000289710","operator":"Wojew\u00f3dztwo Warmi\u0144sko-Mazurskie","operator:type":"government","amenity":"college"}},{"id":109428,"type":"Feature","geometry":{"type":"Point","coordinates":[19.42508,54.162949999999995]},"properties":{"isced:level":"4","ref:rspo":109428,"official_name":"Szko\u0142a Policealna im.jadwigi Romanowskiej","name":"Szko\u0142a Policealna im.jadwigi Romanowskiej","addr:country":"PL","addr:postcode":"82-300","addr:city":"Elbl\u0105g","addr:street":"ul. Saper\u00f3w","addr:housenumber":"14E","addr:teryt:simc":19506,"addr:teryt:sym_ul":932703,"contact:phone":"+48 552336319","contact:email":"studium@medyk-elblag.pl","contact:website":"http:\/\/www.medyk-elblag.pl","ref:regon":"281470452","operator":"Wojew\u00f3dztwo Warmi\u0144sko-Mazurskie","operator:type":"government","amenity":"college"}},{"id":74448,"type":"Feature","geometry":{"type":"Point","coordinates":[19.40642,54.16352]},"properties":{"ref:rspo":74448,"official_name":"Niepubliczne Przedszkole \"Bratek\" Agnieszka W\u0105s","name":"Niepubliczne Przedszkole \"Bratek\" Agnieszka W\u0105s","addr:country":"PL","addr:postcode":"82-300","addr:city":"Elbl\u0105g","addr:street":"ul. S\u0142oneczna","addr:housenumber":"5","addr:teryt:simc":20254,"addr:teryt:sym_ul":932703,"contact:phone":"+48 552324108","contact:email":"npbratek@wp.pl","ref:regon":"281443455","ref:vatin":"PL5782767289","operator":"Agnieszka W\u0105s","operator:type":"private","amenity":"kindergarten"}},{"id":47740,"type":"Feature","geometry":{"type":"Point","coordinates":[19.4033,54.16405]},"properties":{"isced:level":"3","ref:rspo":47740,"official_name":"Ii Liceum Og\u00f3lnokszta\u0142c\u0105ce Z Oddzia\u0142ami Dwuj\u0119zycznymi im. Kazimierza Jagiello\u0144czyka w Elbl\u0105gu","name":"Ii Liceum Og\u00f3lnokszta\u0142c\u0105ce Z Oddzia\u0142ami Dwuj\u0119zycznymi","addr:country":"PL","addr:postcode":"82-300","addr:city":"Elbl\u0105g","addr:street":"ul. Kr\u00f3lewiecka","addr:housenumber":"42","addr:teryt:simc":9983,"addr:teryt:sym_ul":932703,"contact:phone":"+48 556258881","contact:email":"2lo@elblag.eu","contact:website":"http:\/\/www.2lo.elblag.pl","ref:regon":"170989967","ref:vatin":"PL5782580473","operator":"Gmina Miasto Elbl\u0105g  Na Prawach Powiatu","operator:type":"government","amenity":"school"}},{"id":10004,"type":"Feature","geometry":{"type":"Point","coordinates":[19.41687,54.1641]},"properties":{"isced:level":"3","ref:rspo":10004,"official_name":"Iv Liceum Og\u00f3lnokszta\u0142c\u0105ce im. Komisji Edukacji Narodowej w Elbl\u0105gu","name":"Iv Liceum Og\u00f3lnokszta\u0142c\u0105ce","addr:country":"PL","addr:postcode":"82-300","addr:city":"Elbl\u0105g","addr:street":"ul. Henryka Sienkiewicza","addr:housenumber":"4","addr:teryt:simc":19834,"addr:teryt:sym_ul":932703,"contact:phone":"+48 556258940","contact:email":"4lo@elblag.eu","contact:website":"http:\/\/www.liceum.elblag.pl","ref:regon":"170228381","ref:vatin":"PL5781068721","operator":"Gmina Miasto Elbl\u0105g  Na Prawach Powiatu","operator:type":"government","amenity":"school","note":"Parent RSPO: 277447"}},{"id":6063,"type":"Feature","geometry":{"type":"Point","coordinates":[19.4069,54.16436]},"properties":{"ref:rspo":6063,"official_name":"Przedszkole Nr 13 w Elbl\u0105gu","name":"Przedszkole Nr 13 w Elbl\u0105gu","addr:country":"PL","addr:postcode":"82-300","addr:city":"Elbl\u0105g","addr:street":"ul. Kosynier\u00f3w Gdy\u0144skich","addr:housenumber":"57","addr:teryt:simc":9503,"addr:teryt:sym_ul":932703,"contact:phone":"+48 556258070","contact:email":"przedszkole13@elblag.eu","ref:regon":"280567965","ref:vatin":"PL5783089383","operator":"Gmina Miasto Elbl\u0105g  Na Prawach Powiatu","operator:type":"government","amenity":"kindergarten"}},{"id":6675,"type":"Feature","geometry":{"type":"Point","coordinates":[19.40275,54.16455]},"properties":{"ref:rspo":6675,"official_name":"Przedszkole Nr 33 w Elbl\u0105gu","name":"Przedszkole Nr 33 w Elbl\u0105gu","addr:country":"PL","addr:postcode":"82-300","addr:city":"Elbl\u0105g","addr:street":"ul. Kr\u00f3lewiecka","addr:housenumber":"35","addr:teryt:simc":9983,"addr:teryt:sym_ul":932703,"contact:phone":"+48 556258191","contact:email":"przedszkole33@elblag.eu","contact:website":"http:\/\/www.przedszkole33.edu.pl","ref:regon":"280564599","ref:vatin":"PL5783089207","operator":"Gmina Miasto Elbl\u0105g  Na Prawach Powiatu","operator:type":"government","amenity":"kindergarten"}},{"id":18934,"type":"Feature","geometry":{"type":"Point","coordinates":[19.41255,54.16504]},"properties":{"isced:level":"1;2","ref:rspo":18934,"official_name":"Szko\u0142a Podstawowa Nr 12 im. Micha\u0142a Kajki w Elbl\u0105gu","name":"Szko\u0142a Podstawowa Nr 12","addr:country":"PL","addr:postcode":"82-300","addr:city":"Elbl\u0105g","addr:street":"ul. Wojciecha Zajchowskiego","addr:housenumber":"12","addr:teryt:simc":25422,"addr:teryt:sym_ul":932703,"contact:phone":"+48 556258560","contact:email":"sp12@elblag.eu","contact:website":"http:\/\/www.sp12elblag.pl","ref:regon":"000218549","ref:vatin":"PL5781119281","operator":"Gmina Miasto Elbl\u0105g  Na Prawach Powiatu","operator:type":"government","amenity":"school"}},{"id":277447,"type":"Feature","geometry":{"type":"Point","coordinates":[19.4178748,54.1656514]},"properties":{"ref:rspo":277447,"official_name":"Zesp\u00f3\u0142 Szk\u00f3\u0142 I Plac\u00f3wek Sportowych w Elbl\u0105gu","name":"Zesp\u00f3\u0142 Szk\u00f3\u0142 I Plac\u00f3wek Sportowych w Elbl\u0105gu","addr:country":"PL","addr:postcode":"82-300","addr:city":"Elbl\u0105g","addr:street":"ul. Agrykola","addr:housenumber":"6","addr:teryt:simc":151,"addr:teryt:sym_ul":932703,"contact:phone":"+48 556258781","contact:email":"zsips@elblag.eu","ref:regon":"388944750","operator":"Gmina Miasto Elbl\u0105g  Na Prawach Powiatu","operator:type":"government","landuse":"education","fixme":"amenity=school, amenity=college albo landuse=education w zale\u017cno\u015bci od tego, jakie plac\u00f3wki wchodz\u0105 w sk\u0142ad zespo\u0142u. Sprawd\u017a, kiedy stosowa\u0107 amenity=* a kiedy landuse=education.","note":"Children RSPO: 10004;38486;267690"}},{"id":267690,"type":"Feature","geometry":{"type":"Point","coordinates":[19.4178748,54.1656214]},"properties":{"isced:level":"1;2","ref:rspo":267690,"official_name":"Sportowa Szko\u0142a Podstawowa Nr 3 im. Polskich Olimpijczyk\u00f3w w Elbl\u0105gu","name":"Sportowa Szko\u0142a Podstawowa Nr 3","addr:country":"PL","addr:postcode":"82-300","addr:city":"Elbl\u0105g","addr:street":"ul. Agrykola","addr:housenumber":"6","addr:teryt:simc":151,"addr:teryt:sym_ul":932703,"contact:phone":"+48 556258781","contact:email":"ssp3@elblag.eu","contact:website":"http:\/\/ssp3elblag.pl","ref:regon":"380514138","ref:vatin":"PL5783132280","operator":"Gmina Miasto Elbl\u0105g  Na Prawach Powiatu","operator:type":"government","amenity":"school","note":"Parent RSPO: 277447"}},{"id":38486,"type":"Feature","geometry":{"type":"Point","coordinates":[19.42435,54.1657]},"properties":{"ref:rspo":38486,"official_name":"Mi\u0119dzyszkolny O\u015brodek Sportowy","name":"Mi\u0119dzyszkolny O\u015brodek Sportowy","addr:country":"PL","addr:postcode":"82-300","addr:city":"Elbl\u0105g","addr:street":"ul. Tadeusza Ko\u015bciuszki","addr:housenumber":"77","addr:door":"A","addr:teryt:simc":9582,"addr:teryt:sym_ul":932703,"contact:phone":"+48 556258421","contact:email":"mos@elblag.eu","contact:website":"http:\/\/www.mostruso.elblag.pl","ref:regon":"001255280","ref:vatin":"PL5782040452","operator":"Gmina Miasto Elbl\u0105g  Na Prawach Powiatu","operator:type":"government","leisure":"sports_centre","note":"Parent RSPO: 277447"}},{"id":70940,"type":"Feature","geometry":{"type":"Point","coordinates":[19.40774,54.16584]},"properties":{"ref:rspo":70940,"official_name":"Niepubliczne Przedszkole \"Przyjaciele Kubusia\" Izabela Ewa Kaczmarczyk","name":"Niepubliczne Przedszkole \"Przyjaciele Kubusia\" Izabela Ewa Kaczmarczyk","addr:country":"PL","addr:postcode":"82-300","addr:city":"Elbl\u0105g","addr:street":"ul. Andrzeja Struga","addr:housenumber":"52","addr:teryt:simc":21308,"addr:teryt:sym_ul":932703,"contact:phone":"+48 552393610","contact:email":"nppk1@wp.pl","ref:regon":"281441829","ref:vatin":"PL5781644159","operator":"Izabela Kaczmarczyk","operator:type":"private","amenity":"kindergarten"}},{"id":9771,"type":"Feature","geometry":{"type":"Point","coordinates":[19.39938,54.16704]},"properties":{"isced:level":"3","ref:rspo":9771,"official_name":"Iii Liceum Og\u00f3lnokszta\u0142c\u0105ce im. Jana Paw\u0142a II w Elbl\u0105gu","name":"Iii Liceum Og\u00f3lnokszta\u0142c\u0105ce","addr:country":"PL","addr:postcode":"82-300","addr:city":"Elbl\u0105g","addr:street":"ul. Browarna","addr:housenumber":"1","addr:teryt:simc":2148,"addr:teryt:sym_ul":932703,"contact:phone":"+48 556258920","contact:email":"3lo@elblag.eu","contact:website":"http:\/\/www.3lo.elblag.pl","ref:regon":"170500707","ref:vatin":"PL5781059231","operator":"Gmina Miasto Elbl\u0105g  Na Prawach Powiatu","operator:type":"government","amenity":"school"}},{"id":6066,"type":"Feature","geometry":{"type":"Point","coordinates":[19.40406,54.16808]},"properties":{"ref:rspo":6066,"official_name":"Przedszkole Nr 17 w Elbl\u0105gu","name":"Przedszkole Nr 17 w Elbl\u0105gu","addr:country":"PL","addr:postcode":"82-300","addr:city":"Elbl\u0105g","addr:street":"ul. Karowa","addr:housenumber":"30","addr:teryt:simc":8094,"addr:teryt:sym_ul":932703,"contact:phone":"+48 556258100","contact:email":"przedszkole17@elblag.eu","contact:website":"http:\/\/przedszkole17.elblag.pl","ref:regon":"280564659","ref:vatin":"PL5783051446","operator":"Gmina Miasto Elbl\u0105g  Na Prawach Powiatu","operator:type":"government","amenity":"kindergarten"}},{"id":6170,"type":"Feature","geometry":{"type":"Point","coordinates":[19.39811,54.16859]},"properties":{"ref:rspo":6170,"official_name":"Przedszkole Nr 6 w Elbl\u0105gu","name":"Przedszkole Nr 6 w Elbl\u0105gu","addr:country":"PL","addr:postcode":"82-300","addr:city":"Elbl\u0105g","addr:street":"ul. Browarna","addr:housenumber":"13","addr:teryt:simc":2148,"addr:teryt:sym_ul":932703,"contact:phone":"+48 556258030","contact:email":"przedszkole6@elblag.eu","ref:regon":"280564702","ref:vatin":"PL5783088886","operator":"Gmina Miasto Elbl\u0105g  Na Prawach Powiatu","operator:type":"government","amenity":"kindergarten"}},{"id":38493,"type":"Feature","geometry":{"type":"Point","coordinates":[19.41053,54.16866]},"properties":{"ref:rspo":38493,"official_name":"Specjalny O\u015brodek Szkolno - Wychowawczy Nr 1 w Elbl\u0105gu","name":"Specjalny O\u015brodek Szkolno - Wychowawczy Nr 1 w Elbl\u0105gu","addr:country":"PL","addr:postcode":"82-300","addr:city":"Elbl\u0105g","addr:street":"ul. Miko\u0142aja Kopernika","addr:housenumber":"27","addr:teryt:simc":9282,"addr:teryt:sym_ul":932703,"contact:phone":"+48 556258341","contact:email":"sosw1@elblag.eu","contact:website":"http:\/\/www.sosw.elblag.com.pl","ref:regon":"000686322","ref:vatin":"PL5782062293","operator":"Gmina Miasto Elbl\u0105g  Na Prawach Powiatu","operator:type":"government","amenity":"school","note":"Children RSPO: 90886;91471;91572"}},{"id":90886,"type":"Feature","geometry":{"type":"Point","coordinates":[19.41053,54.16863]},"properties":{"isced:level":"1;2","ref:rspo":90886,"official_name":"Szko\u0142a Podstawowa Specjalna Wchodz\u0105ca w Sk\u0142ad Specjalnego O\u015brodka Szkolno-Wychowawczego Nr 1 w Elbl\u0105gu","name":"Szko\u0142a Podstawowa Specjalna Wchodz\u0105ca w Sk\u0142ad Specjalnego O\u015brodka Szkolno-Wychowawczego Nr 1 w Elbl\u0105gu","addr:country":"PL","addr:postcode":"82-300","addr:city":"Elbl\u0105g","addr:street":"ul. Miko\u0142aja Kopernika","addr:housenumber":"27","addr:teryt:simc":9282,"addr:teryt:sym_ul":932703,"contact:phone":"+48 556258341","contact:email":"sosw1@elblag.eu","ref:regon":"170991243","ref:vatin":"PL5782062293","operator":"Gmina Miasto Elbl\u0105g  Na Prawach Powiatu","operator:type":"government","amenity":"school","note":"Parent RSPO: 38493"}},{"id":91471,"type":"Feature","geometry":{"type":"Point","coordinates":[19.41053,54.168600000000005]},"properties":{"isced:level":"3","ref:rspo":91471,"official_name":"Bran\u017cowa Szko\u0142a Specjalna I Stopnia Wchodz\u0105ca w Sk\u0142ad Specjalnego O\u015brodka Szkolno-Wychowawczego Nr 1 w Elbl\u0105gu","name":"Bran\u017cowa Szko\u0142a Specjalna I Stopnia Wchodz\u0105ca w Sk\u0142ad Specjalnego O\u015brodka Szkolno-Wychowawczego Nr 1 w Elbl\u0105gu","addr:country":"PL","addr:postcode":"82-300","addr:city":"Elbl\u0105g","addr:street":"ul. Miko\u0142aja Kopernika","addr:housenumber":"27","addr:teryt:simc":9282,"addr:teryt:sym_ul":932703,"contact:phone":"+48 556258341","contact:email":"sosw1@elblag.eu","ref:regon":"170991295","ref:vatin":"PL5782062293","operator":"Gmina Miasto Elbl\u0105g  Na Prawach Powiatu","operator:type":"government","amenity":"school","note":"Parent RSPO: 38493"}},{"id":91572,"type":"Feature","geometry":{"type":"Point","coordinates":[19.41053,54.16857]},"properties":{"ref:rspo":91572,"official_name":"Szko\u0142a Specjalna Przysposabiaj\u0105ca Do Pracy Wchodz\u0105ca w Sk\u0142ad Specjalnego O\u015brodka Szkolno-Wychowawczego Nr 1 w Elbl\u0105gu","name":"Szko\u0142a Specjalna Przysposabiaj\u0105ca Do Pracy Wchodz\u0105ca w Sk\u0142ad Specjalnego O\u015brodka Szkolno-Wychowawczego Nr 1 w Elbl\u0105gu","addr:country":"PL","addr:postcode":"82-300","addr:city":"Elbl\u0105g","addr:street":"ul. Miko\u0142aja Kopernika","addr:housenumber":"27","addr:teryt:simc":9282,"addr:teryt:sym_ul":932703,"contact:phone":"+48 556258341","contact:email":"sosw1@elblag.eu","ref:regon":"281450248","ref:vatin":"PL5782062293","operator":"Gmina Miasto Elbl\u0105g  Na Prawach Powiatu","operator:type":"government","amenity":"school","note":"Parent RSPO: 38493"}},{"id":72332,"type":"Feature","geometry":{"type":"Point","coordinates":[19.40961,54.16886]},"properties":{"ref:rspo":72332,"official_name":"Regent College International Schools","name":"Regent College International Schools","addr:country":"PL","addr:postcode":"82-300","addr:city":"Elbl\u0105g","addr:street":"ul. Kr\u00f3lewiecka","addr:housenumber":"100","addr:teryt:simc":9983,"addr:teryt:sym_ul":932703,"contact:phone":"+48 552368865","contact:email":"biuro@regent.edu.pl","ref:regon":"281442556","ref:vatin":"PL7392767302","operator":"Dorota Goerick","operator:type":"private","fixme":"w zale\u017cno\u015bci od przedmiotu dzia\u0142alno\u015bci (np. amenity=training + training=*, amenity=dancing_school, amenity=language_school, amenity=music_school)"}},{"id":130863,"type":"Feature","geometry":{"type":"Point","coordinates":[19.40961,54.16883]},"properties":{"isced:level":"3","ref:rspo":130863,"official_name":"Niepubliczne Liceum Og\u00f3lnokszta\u0142c\u0105ce Regent Z Oddzia\u0142ami Dwuj\u0119zycznymi w Elbl\u0105gu","name":"Niepubliczne Liceum Og\u00f3lnokszta\u0142c\u0105ce Regent Z Oddzia\u0142ami Dwuj\u0119zycznymi w Elbl\u0105gu","addr:country":"PL","addr:postcode":"82-300","addr:city":"Elbl\u0105g","addr:street":"ul. Kr\u00f3lewiecka","addr:housenumber":"100","addr:teryt:simc":9983,"addr:teryt:sym_ul":932703,"contact:phone":"+48 552340723","contact:email":"liceum@regent.edu.pl","contact:website":"http:\/\/liceum.regent.edu.pl","ref:regon":"364633677","operator":"Dorota Goerick","operator:type":"private","amenity":"school"}},{"id":196294,"type":"Feature","geometry":{"type":"Point","coordinates":[19.40961,54.168800000000005]},"properties":{"isced:level":"1;2","ref:rspo":196294,"official_name":"Niepubliczna Szko\u0142a Podstawowa Regent Z Oddzia\u0142ami Dwuj\u0119zycznymi w Elbl\u0105gu","name":"Niepubliczna Szko\u0142a Podstawowa Regent Z Oddzia\u0142ami Dwuj\u0119zycznymi w Elbl\u0105gu","addr:country":"PL","addr:postcode":"82-300","addr:city":"Elbl\u0105g","addr:street":"ul. Kr\u00f3lewiecka","addr:housenumber":"100","addr:teryt:simc":9983,"addr:teryt:sym_ul":932703,"contact:phone":"+48 552340723","contact:email":"szkola@regent.edu.pl","ref:regon":"367991845","operator":"Dorota Goerick","operator:type":"private","amenity":"school"}},{"id":6013,"type":"Feature","geometry":{"type":"Point","coordinates":[19.41052,54.169]},"properties":{"ref:rspo":6013,"official_name":"Przedszkole Nr 11 w Elbl\u0105gu","name":"Przedszkole Nr 11 w Elbl\u0105gu","addr:country":"PL","addr:postcode":"82-300","addr:city":"Elbl\u0105g","addr:street":"ul. Miko\u0142aja Kopernika","addr:housenumber":"2","addr:teryt:simc":9282,"addr:teryt:sym_ul":932703,"contact:phone":"+48 556258060","contact:email":"przedszkole11@elblag.eu","ref:regon":"280563714","ref:vatin":"PL5783088538","operator":"Gmina Miasto Elbl\u0105g  Na Prawach Powiatu","operator:type":"government","amenity":"kindergarten"}},{"id":22611,"type":"Feature","geometry":{"type":"Point","coordinates":[19.40752,54.16943]},"properties":{"isced:level":"1;2","ref:rspo":22611,"official_name":"Szko\u0142a Podstawowa Nr 19 Z Oddzia\u0142ami Dwuj\u0119zycznymi im. Bohater\u00f3w Westerplatte w Elbl\u0105gu","name":"Szko\u0142a Podstawowa Nr 19 Z Oddzia\u0142ami Dwuj\u0119zycznymi","addr:country":"PL","addr:postcode":"82-300","addr:city":"Elbl\u0105g","addr:street":"ul. Urocza","addr:housenumber":"4","addr:teryt:simc":23406,"addr:teryt:sym_ul":932703,"contact:phone":"+48 556258660","contact:email":"sp19@elblag.eu","contact:website":"http:\/\/www.sp19elblag.hg.pl","ref:regon":"000212601","ref:vatin":"PL5781074242","operator":"Gmina Miasto Elbl\u0105g  Na Prawach Powiatu","operator:type":"government","amenity":"school"}},{"id":129640,"type":"Feature","geometry":{"type":"Point","coordinates":[19.41484,54.17064]},"properties":{"ref:rspo":129640,"official_name":"Punkt Przedszkolny w Specjalnym O\u015brodku Szkolno-Wychowawczym Nr 1 w Elbl\u0105gu","name":"Punkt Przedszkolny w Specjalnym O\u015brodku Szkolno-Wychowawczym Nr 1 w Elbl\u0105gu","addr:country":"PL","addr:postcode":"82-300","addr:city":"Elbl\u0105g","addr:street":"ul. Fryderyka Chopina","addr:housenumber":"30","addr:teryt:simc":2849,"addr:teryt:sym_ul":932703,"contact:phone":"+48 556258341","contact:email":"sosw21@elblag.eu","ref:regon":"362697880","operator":"Gmina Miasto Elbl\u0105g  Na Prawach Powiatu","operator:type":"government","amenity":"kindergarten"}},{"id":34785,"type":"Feature","geometry":{"type":"Point","coordinates":[19.41393,54.17152]},"properties":{"ref:rspo":34785,"official_name":"Zesp\u00f3\u0142 Szk\u00f3\u0142 Gospodarczych w Elbl\u0105gu","name":"Zesp\u00f3\u0142 Szk\u00f3\u0142 Gospodarczych w Elbl\u0105gu","addr:country":"PL","addr:postcode":"82-300","addr:city":"Elbl\u0105g","addr:street":"ul. Kr\u00f3lewiecka","addr:housenumber":"128","addr:teryt:simc":9983,"addr:teryt:sym_ul":932703,"contact:phone":"+48 556258861","contact:email":"zsg@elblag.eu","contact:website":"http:\/\/www.zsgelblag.pl","ref:regon":"000192502","ref:vatin":"PL5781089338","operator":"Gmina Miasto Elbl\u0105g  Na Prawach Powiatu","operator:type":"government","landuse":"education","fixme":"amenity=school, amenity=college albo landuse=education w zale\u017cno\u015bci od tego, jakie plac\u00f3wki wchodz\u0105 w sk\u0142ad zespo\u0142u. Sprawd\u017a, kiedy stosowa\u0107 amenity=* a kiedy landuse=education.","note":"Children RSPO: 90142;90157;119100"}},{"id":90142,"type":"Feature","geometry":{"type":"Point","coordinates":[19.41393,54.17149]},"properties":{"isced:level":"3","ref:rspo":90142,"official_name":"Bran\u017cowa Szko\u0142a I Stopnia Wchodz\u0105ca w Sk\u0142ad Zespo\u0142u Szk\u00f3\u0142 Gospodarczych w Elbl\u0105gu","name":"Bran\u017cowa Szko\u0142a I Stopnia Wchodz\u0105ca w Sk\u0142ad Zespo\u0142u Szk\u00f3\u0142 Gospodarczych w Elbl\u0105gu","addr:country":"PL","addr:postcode":"82-300","addr:city":"Elbl\u0105g","addr:street":"ul. Kr\u00f3lewiecka","addr:housenumber":"128","addr:teryt:simc":9983,"addr:teryt:sym_ul":932703,"contact:phone":"+48 556258861","contact:email":"zsg@elblag.eu","contact:website":"http:\/\/www.zsgelblag.pl","ref:regon":"170990901","ref:vatin":"PL5781089338","operator":"Gmina Miasto Elbl\u0105g  Na Prawach Powiatu","operator:type":"government","amenity":"school","note":"Parent RSPO: 34785"}},{"id":90157,"type":"Feature","geometry":{"type":"Point","coordinates":[19.41393,54.17146]},"properties":{"isced:level":"3","ref:rspo":90157,"official_name":"Technikum Wchodz\u0105ce w Sk\u0142ad Zespo\u0142u Szk\u00f3\u0142 Gospodarczych w Elbl\u0105gu","name":"Technikum Wchodz\u0105ce w Sk\u0142ad Zespo\u0142u Szk\u00f3\u0142 Gospodarczych w Elbl\u0105gu","addr:country":"PL","addr:postcode":"82-300","addr:city":"Elbl\u0105g","addr:street":"ul. Kr\u00f3lewiecka","addr:housenumber":"128","addr:teryt:simc":9983,"addr:teryt:sym_ul":932703,"contact:phone":"+48 556258861","contact:email":"zsg@elblag.eu","contact:website":"http:\/\/www.zsgelblag.pl","ref:regon":"170990870","ref:vatin":"PL5781089338","operator":"Gmina Miasto Elbl\u0105g  Na Prawach Powiatu","operator:type":"government","amenity":"school","note":"Parent RSPO: 34785"}},{"id":119100,"type":"Feature","geometry":{"type":"Point","coordinates":[19.41393,54.17143]},"properties":{"isced:level":"3","ref:rspo":119100,"official_name":"Liceum Og\u00f3lnokszta\u0142c\u0105ce dla Doros\u0142ych Wchodz\u0105ce w Sk\u0142ad Zespo\u0142u Szk\u00f3\u0142 Gospodarczych w Elbl\u0105gu","name":"Liceum Og\u00f3lnokszta\u0142c\u0105ce dla Doros\u0142ych Wchodz\u0105ce w Sk\u0142ad Zespo\u0142u Szk\u00f3\u0142 Gospodarczych w Elbl\u0105gu","addr:country":"PL","addr:postcode":"82-300","addr:city":"Elbl\u0105g","addr:street":"ul. Kr\u00f3lewiecka","addr:housenumber":"128","addr:teryt:simc":9983,"addr:teryt:sym_ul":932703,"contact:phone":"+48 556258861","contact:email":"zsg@elblag.eu","contact:website":"http:\/\/www.zsgelblag.pl","ref:regon":"281525584","ref:vatin":"PL5781089338","operator":"Gmina Miasto Elbl\u0105g  Na Prawach Powiatu","operator:type":"government","amenity":"school","note":"Parent RSPO: 34785"}},{"id":7213,"type":"Feature","geometry":{"type":"Point","coordinates":[19.3998199,54.17415]},"properties":{"isced:level":"1;2","ref:rspo":7213,"official_name":"Szko\u0142a Podstawowa Nr 1 im. Adama Mickiewicza w Elbl\u0105gu","name":"Szko\u0142a Podstawowa Nr 1","addr:country":"PL","addr:postcode":"82-300","addr:city":"Elbl\u0105g","addr:street":"ul. Ignacego Daszy\u0144skiego","addr:housenumber":"1","addr:teryt:simc":3639,"addr:teryt:sym_ul":932703,"contact:phone":"+48 556258460","contact:email":"sp1@elblag.eu","contact:website":"http:\/\/www.sp1.info.elblag.pl","ref:regon":"000230065","ref:vatin":"PL5781068678","operator":"Gmina Miasto Elbl\u0105g  Na Prawach Powiatu","operator:type":"government","amenity":"school"}},{"id":74388,"type":"Feature","geometry":{"type":"Point","coordinates":[19.3944,54.17678]},"properties":{"ref:rspo":74388,"official_name":"Przedszkole Niepubliczne \"Bajka\"","name":"Przedszkole Niepubliczne \"Bajka\"","addr:country":"PL","addr:postcode":"82-300","addr:city":"Elbl\u0105g","addr:street":"ul. Rypi\u0144ska","addr:housenumber":"3","addr:teryt:simc":19292,"addr:teryt:sym_ul":932703,"contact:phone":"+48 552341647","contact:email":"jadwigakantypowicz@wp.pl","ref:regon":"281443343","ref:vatin":"PL5781143109","operator":"Jadwiga Kantypowicz","operator:type":"private","amenity":"kindergarten"}},{"id":18341,"type":"Feature","geometry":{"type":"Point","coordinates":[19.41266,54.17771]},"properties":{"isced:level":"1;2","ref:rspo":18341,"official_name":"Szko\u0142a Podstawowa Nr 6 im. Marii Sk\u0142odowskiej Curie w Elbl\u0105gu","name":"Szko\u0142a Podstawowa Nr 6","addr:country":"PL","addr:postcode":"82-300","addr:city":"Elbl\u0105g","addr:street":"al. Aleja J\u00f3zefa Pi\u0142sudskiego","addr:housenumber":"4","addr:teryt:simc":41904,"addr:teryt:sym_ul":932703,"contact:phone":"+48 556258501","contact:email":"sp6@elblag.eu","contact:website":"http:\/\/www.sp6elblag.pl","ref:regon":"000208172","ref:vatin":"PL5781067466","operator":"Gmina Miasto Elbl\u0105g  Na Prawach Powiatu","operator:type":"government","amenity":"school"}},{"id":5974,"type":"Feature","geometry":{"type":"Point","coordinates":[19.41976,54.17889]},"properties":{"ref:rspo":5974,"official_name":"Przedszkole Nr 4 w Elbl\u0105gu","name":"Przedszkole Nr 4 w Elbl\u0105gu","addr:country":"PL","addr:postcode":"82-300","addr:city":"Elbl\u0105g","addr:street":"ul. Szczeci\u0144ska","addr:housenumber":"30","addr:teryt:simc":21805,"addr:teryt:sym_ul":932703,"contact:phone":"+48 556258010","contact:email":"przedszkole4@elblag.eu","ref:regon":"280566799","ref:vatin":"PL5783088857","operator":"Gmina Miasto Elbl\u0105g  Na Prawach Powiatu","operator:type":"government","amenity":"kindergarten"}},{"id":38469,"type":"Feature","geometry":{"type":"Point","coordinates":[19.39975,54.17897]},"properties":{"ref:rspo":38469,"official_name":"Zesp\u00f3\u0142 Szk\u00f3\u0142 Zawodowych Nr 1 w Elbl\u0105gu","name":"Zesp\u00f3\u0142 Szk\u00f3\u0142 Zawodowych Nr 1 w Elbl\u0105gu","addr:country":"PL","addr:postcode":"82-300","addr:city":"Elbl\u0105g","addr:street":"ul. Robotnicza","addr:housenumber":"173","addr:teryt:simc":18695,"addr:teryt:sym_ul":932703,"contact:phone":"+48 556256401","contact:email":"zsz1@elblag.eu","contact:website":"http:\/\/www.zsz1.elblag.eu","ref:regon":"000193401","ref:vatin":"PL5782061945","operator":"Gmina Miasto Elbl\u0105g  Na Prawach Powiatu","operator:type":"government","landuse":"education","fixme":"amenity=school, amenity=college albo landuse=education w zale\u017cno\u015bci od tego, jakie plac\u00f3wki wchodz\u0105 w sk\u0142ad zespo\u0142u. Sprawd\u017a, kiedy stosowa\u0107 amenity=* a kiedy landuse=education.","note":"Children RSPO: 89797;90000;277669"}},{"id":89797,"type":"Feature","geometry":{"type":"Point","coordinates":[19.39975,54.17894]},"properties":{"isced:level":"3","ref:rspo":89797,"official_name":"Bran\u017cowa Szko\u0142a I Stopnia Wchodz\u0105ca w Sk\u0142ad Zespo\u0142u Szk\u00f3\u0142 Zawodowych Nr 1 w Elbl\u0105gu","name":"Bran\u017cowa Szko\u0142a I Stopnia Wchodz\u0105ca w Sk\u0142ad Zespo\u0142u Szk\u00f3\u0142 Zawodowych Nr 1 w Elbl\u0105gu","addr:country":"PL","addr:postcode":"82-300","addr:city":"Elbl\u0105g","addr:street":"ul. Robotnicza","addr:housenumber":"173","addr:teryt:simc":18695,"addr:teryt:sym_ul":932703,"contact:phone":"+48 556256401","contact:email":"zsz1@elblag.eu","contact:website":"http:\/\/zsz1.elblag.eu","ref:regon":"170990769","ref:vatin":"PL5782061945","operator":"Gmina Miasto Elbl\u0105g  Na Prawach Powiatu","operator:type":"government","amenity":"school","note":"Parent RSPO: 38469"}},{"id":90000,"type":"Feature","geometry":{"type":"Point","coordinates":[19.39975,54.17891]},"properties":{"isced:level":"3","ref:rspo":90000,"official_name":"Technikum Wchodz\u0105ce w Sk\u0142ad Zespo\u0142u Szk\u00f3\u0142 Zawodowych Nr 1 w Elbl\u0105gu","name":"Technikum Wchodz\u0105ce w Sk\u0142ad Zespo\u0142u Szk\u00f3\u0142 Zawodowych Nr 1 w Elbl\u0105gu","addr:country":"PL","addr:postcode":"82-300","addr:city":"Elbl\u0105g","addr:street":"ul. Robotnicza","addr:housenumber":"173","addr:teryt:simc":18695,"addr:teryt:sym_ul":932703,"contact:phone":"+48 556256401","contact:email":"zsz1@elblag.eu","contact:website":"http:\/\/zsz1.elblag.eu","ref:regon":"280128438","ref:vatin":"PL5782061945","operator":"Gmina Miasto Elbl\u0105g  Na Prawach Powiatu","operator:type":"government","amenity":"school","note":"Parent RSPO: 38469"}},{"id":277669,"type":"Feature","geometry":{"type":"Point","coordinates":[19.39975,54.17888]},"properties":{"isced:level":"3","ref:rspo":277669,"official_name":"Bran\u017cowa Szko\u0142a II Stopnia Nr 2 w Elbl\u0105gu","name":"Bran\u017cowa Szko\u0142a II Stopnia Nr 2 w Elbl\u0105gu","addr:country":"PL","addr:postcode":"82-300","addr:city":"Elbl\u0105g","addr:street":"ul. Robotnicza","addr:housenumber":"173","addr:teryt:simc":18695,"addr:teryt:sym_ul":932703,"contact:phone":"+48 556256400","contact:email":"zsz1@elblag.eu","contact:website":"http:\/\/www.zsz1.elblag.eu","ref:regon":"389300195","operator":"Gmina Miasto Elbl\u0105g  Na Prawach Powiatu","operator:type":"government","amenity":"school","note":"Parent RSPO: 38469"}},{"id":15385,"type":"Feature","geometry":{"type":"Point","coordinates":[19.4159,54.17949]},"properties":{"isced:level":"1;2","ref:rspo":15385,"official_name":"Szko\u0142a Podstawowa Nr 15 im. Armii Krajowej w Elbl\u0105gu","name":"Szko\u0142a Podstawowa Nr 15","addr:country":"PL","addr:postcode":"82-300","addr:city":"Elbl\u0105g","addr:street":"ul. Modli\u0144ska","addr:housenumber":"39","addr:teryt:simc":13171,"addr:teryt:sym_ul":932703,"contact:phone":"+48 556258601","contact:email":"sp15@elblag.eu","contact:website":"http:\/\/www.sp15-elblag.pl","ref:regon":"000211760","ref:vatin":"PL5781046079","operator":"Gmina Miasto Elbl\u0105g  Na Prawach Powiatu","operator:type":"government","amenity":"school"}},{"id":85028,"type":"Feature","geometry":{"type":"Point","coordinates":[19.42678,54.17959]},"properties":{"ref:rspo":85028,"official_name":"Centrum Profilaktyki Karan","name":"Centrum Profilaktyki Karan","addr:country":"PL","addr:postcode":"82-300","addr:city":"Elbl\u0105g","addr:street":"ul. Kr\u00f3lewiecka","addr:housenumber":"197","addr:teryt:simc":9983,"addr:teryt:sym_ul":932703,"contact:phone":"+48 556496949","contact:email":"karan@karan.elblag.pl","ref:regon":"281447039","ref:vatin":"PL7961367490","operator":"Stowarzyszenie Katolicki Ruch Antynarkotyczny \" Karan \"","operator:type":"ngo","fixme":"w zale\u017cno\u015bci od przedmiotu dzia\u0142alno\u015bci (np. amenity=training + training=*, amenity=dancing_school, amenity=language_school, amenity=music_school)"}},{"id":120186,"type":"Feature","geometry":{"type":"Point","coordinates":[19.42228,54.18075]},"properties":{"ref:rspo":120186,"official_name":"Niepubliczne Przedszkole \"Balonik\"","name":"Niepubliczne Przedszkole \"Balonik\"","addr:country":"PL","addr:postcode":"82-300","addr:city":"Elbl\u0105g","addr:street":"ul. Legion\u00f3w","addr:housenumber":"31","addr:teryt:simc":10769,"addr:teryt:sym_ul":932703,"contact:phone":"+48 552352743","contact:email":"balonik.elblag@wp.pl","ref:regon":"281533750","ref:vatin":"PL5781012991","operator":"Hanna P\u0119cina Firma Us\u0142ugowo-Handlowa Woj-Pol","operator:type":"private","amenity":"kindergarten"}},{"id":74048,"type":"Feature","geometry":{"type":"Point","coordinates":[19.42232,54.18108]},"properties":{"ref:rspo":74048,"official_name":"Cts Niepubliczna Poradnia Psychologiczno-Pedagogiczna","name":"Cts Niepubliczna Poradnia Psychologiczno-Pedagogiczna","addr:country":"PL","addr:postcode":"82-300","addr:city":"Elbl\u0105g","addr:street":"ul. Legion\u00f3w","addr:housenumber":"45","addr:teryt:simc":10769,"addr:teryt:sym_ul":932703,"contact:email":"a.bratus@op.pl","ref:regon":"281442929","ref:vatin":"PL5781961701","operator":"Juliusz Albrecht","operator:type":"private","healthcare":"councelling","counselling_type":"education","fixme":"w zale\u017cno\u015bci od przedmiotu dzia\u0142alno\u015bci (np. healthcare=councelling + counselling_type=education albo healthcare=psychotherapist)"}},{"id":38466,"type":"Feature","geometry":{"type":"Point","coordinates":[19.39171,54.1811]},"properties":{"ref:rspo":38466,"official_name":"Zesp\u00f3\u0142 Szk\u00f3\u0142 In\u017cynierii \u015arodowiska I Us\u0142ug im. Miko\u0142aja Kopernika w Elbl\u0105gu","name":"Zesp\u00f3\u0142 Szk\u00f3\u0142 In\u017cynierii \u015arodowiska I Us\u0142ug","addr:country":"PL","addr:postcode":"82-300","addr:city":"Elbl\u0105g","addr:street":"ul. Obro\u0144c\u00f3w Pokoju","addr:housenumber":"44","addr:teryt:simc":14642,"addr:teryt:sym_ul":932703,"contact:phone":"+48 556256481","contact:email":"zsisiu@elblag.eu","contact:website":"http:\/\/www.zsisiu.elblag.com.pl","ref:regon":"000194004","ref:vatin":"PL5781119588","operator":"Gmina Miasto Elbl\u0105g  Na Prawach Powiatu","operator:type":"government","landuse":"education","fixme":"amenity=school, amenity=college albo landuse=education w zale\u017cno\u015bci od tego, jakie plac\u00f3wki wchodz\u0105 w sk\u0142ad zespo\u0142u. Sprawd\u017a, kiedy stosowa\u0107 amenity=* a kiedy landuse=education.","note":"Children RSPO: 89070;89071;123296;277668"}},{"id":89070,"type":"Feature","geometry":{"type":"Point","coordinates":[19.39171,54.18107]},"properties":{"isced:level":"3","ref:rspo":89070,"official_name":"Bran\u017cowa Szko\u0142a I Stopnia Wchodz\u0105ca w Sk\u0142ad Zespo\u0142u Szk\u00f3\u0142 In\u017cynierii \u015arodowiska I Us\u0142ug w Elbl\u0105gu","name":"Bran\u017cowa Szko\u0142a I Stopnia Wchodz\u0105ca w Sk\u0142ad Zespo\u0142u Szk\u00f3\u0142 In\u017cynierii \u015arodowiska I Us\u0142ug w Elbl\u0105gu","addr:country":"PL","addr:postcode":"82-300","addr:city":"Elbl\u0105g","addr:street":"ul. Obro\u0144c\u00f3w Pokoju","addr:housenumber":"44","addr:teryt:simc":14642,"addr:teryt:sym_ul":932703,"contact:phone":"+48 556256481","contact:email":"zsisiu@elblag.eu","contact:website":"http:\/\/www.zsisiu.elblag.com.pl","ref:regon":"170991007","ref:vatin":"PL5781119588","operator":"Gmina Miasto Elbl\u0105g  Na Prawach Powiatu","operator:type":"government","amenity":"school","note":"Parent RSPO: 38466"}},{"id":89071,"type":"Feature","geometry":{"type":"Point","coordinates":[19.39171,54.18104]},"properties":{"isced:level":"3","ref:rspo":89071,"official_name":"Technikum Wchodz\u0105ce w Sk\u0142ad Zespo\u0142u Szk\u00f3\u0142 In\u017cynierii \u015arodowiska I Us\u0142ug im. Miko\u0142aja Kopernika w Elbl\u0105gu","name":"Technikum Wchodz\u0105ce w Sk\u0142ad Zespo\u0142u Szk\u00f3\u0142 In\u017cynierii \u015arodowiska I Us\u0142ug","addr:country":"PL","addr:postcode":"82-300","addr:city":"Elbl\u0105g","addr:street":"ul. Obro\u0144c\u00f3w Pokoju","addr:housenumber":"44","addr:teryt:simc":14642,"addr:teryt:sym_ul":932703,"contact:phone":"+48 556256481","contact:email":"zsisiu@elblag.eu","contact:website":"http:\/\/www.zsisiu.elblag.com.pl","ref:regon":"280113187","ref:vatin":"PL5781119588","operator":"Gmina Miasto Elbl\u0105g  Na Prawach Powiatu","operator:type":"government","amenity":"school","note":"Parent RSPO: 38466"}},{"id":123296,"type":"Feature","geometry":{"type":"Point","coordinates":[19.39171,54.18101]},"properties":{"isced:level":"4","ref:rspo":123296,"official_name":"Szko\u0142a Policealna Wchodz\u0105ca w Sk\u0142ad Zespo\u0142u Szk\u00f3L In\u017cynierii \u015arodowiska I Us\u0142ug w Elbl\u0105gu","name":"Szko\u0142a Policealna Wchodz\u0105ca w Sk\u0142ad Zespo\u0142u Szk\u00f3L In\u017cynierii \u015arodowiska I Us\u0142ug w Elbl\u0105gu","addr:country":"PL","addr:postcode":"82-300","addr:city":"Elbl\u0105g","addr:street":"ul. Obro\u0144c\u00f3w Pokoju","addr:housenumber":"44","addr:teryt:simc":14642,"addr:teryt:sym_ul":932703,"contact:phone":"+48 556256481","contact:email":"zsisiu@elblag.eu","contact:website":"http:\/\/www.zsisiu.elblag.com.pl","ref:regon":"280034766","ref:vatin":"PL5781119588","operator":"Gmina Miasto Elbl\u0105g  Na Prawach Powiatu","operator:type":"government","amenity":"college","note":"Parent RSPO: 38466"}},{"id":277668,"type":"Feature","geometry":{"type":"Point","coordinates":[19.39171,54.18098]},"properties":{"isced:level":"3","ref:rspo":277668,"official_name":"Bran\u017cowa Szko\u0142a II Stopnia Nr 3 w Elbl\u0105gu","name":"Bran\u017cowa Szko\u0142a II Stopnia Nr 3 w Elbl\u0105gu","addr:country":"PL","addr:postcode":"82-300","addr:city":"Elbl\u0105g","addr:street":"ul. Obro\u0144c\u00f3w Pokoju","addr:housenumber":"44","addr:teryt:simc":14642,"addr:teryt:sym_ul":932703,"contact:phone":"+48 556256481","contact:email":"zsisiu@elblag.eu","contact:website":"http:\/\/zsisiu.elblag.eu","ref:regon":"389300189","operator":"Gmina Miasto Elbl\u0105g  Na Prawach Powiatu","operator:type":"government","amenity":"school","note":"Parent RSPO: 38466"}},{"id":71841,"type":"Feature","geometry":{"type":"Point","coordinates":[19.4271,54.18217]},"properties":{"ref:rspo":71841,"official_name":"Przedszkole Niepubliczne \"Wiki\" Bo\u017cena Weis","name":"Przedszkole Niepubliczne \"Wiki\" Bo\u017cena Weis","addr:country":"PL","addr:postcode":"82-300","addr:city":"Elbl\u0105g","addr:street":"ul. Cz\u0119stochowska","addr:housenumber":"5","addr:teryt:simc":3458,"addr:teryt:sym_ul":932703,"contact:phone":"+48 552374097","contact:email":"przedszkolewiki@vp.pl","ref:regon":"281442390","ref:vatin":"PL5781041099","operator":"Bo\u017cena Weis","operator:type":"private","amenity":"kindergarten"}},{"id":277745,"type":"Feature","geometry":{"type":"Point","coordinates":[19.38863,54.18239]},"properties":{"ref:rspo":277745,"official_name":"Centrum Kszta\u0142cenia Ustawicznego Autodas w Elbl\u0105gu","name":"Centrum Kszta\u0142cenia Ustawicznego Autodas w Elbl\u0105gu","addr:country":"PL","addr:postcode":"82-300","addr:city":"Elbl\u0105g","addr:street":"ul. Mazurska","addr:housenumber":"5E","addr:teryt:simc":12555,"addr:teryt:sym_ul":932703,"contact:phone":"+48 607612882","contact:email":"biuro@autodas.pl","contact:website":"http:\/\/www.autodas.pl","ref:regon":"389414875","operator":"\u0141ukasz Wisniewski","operator:type":"private","fixme":"w zale\u017cno\u015bci od przedmiotu dzia\u0142alno\u015bci (np. amenity=training + training=*, amenity=dancing_school, amenity=language_school, amenity=music_school)"}},{"id":121434,"type":"Feature","geometry":{"type":"Point","coordinates":[19.41985,54.18331]},"properties":{"ref:rspo":121434,"official_name":"Niepubliczne Przedszkole \"Ma\u0142y Geniusz\"","name":"Niepubliczne Przedszkole \"Ma\u0142y Geniusz\"","addr:country":"PL","addr:postcode":"82-300","addr:city":"Elbl\u0105g","addr:street":"ul. W\u0142adys\u0142awa Broniewskiego","addr:housenumber":"51\/I","addr:door":"2","addr:teryt:simc":2125,"addr:teryt:sym_ul":932703,"contact:phone":"+48 606515394","contact:email":"mila.latuszek@gmail.com","ref:regon":"281559040","ref:vatin":"PL5781898173","operator":"Agnieszka Wilczek","operator:type":"private","amenity":"kindergarten"}},{"id":91522,"type":"Feature","geometry":{"type":"Point","coordinates":[19.39863,54.18428]},"properties":{"ref:rspo":91522,"official_name":"Niepubliczne Przedszkole Montessori \"Muchomor\"","name":"Niepubliczne Przedszkole Montessori \"Muchomor\"","addr:country":"PL","addr:postcode":"82-300","addr:city":"Elbl\u0105g","addr:street":"ul. Podg\u00f3rna","addr:housenumber":"12","addr:teryt:simc":16742,"addr:teryt:sym_ul":932703,"contact:phone":"+48 535948055","contact:email":"montessorielblag@gmail.com","contact:website":"http:\/\/www.montessorielblag.pl","ref:regon":"281450047","ref:vatin":"PL5782625767","operator":"Agnieszka Kizi\u0144ska","operator:type":"private","amenity":"kindergarten"}},{"id":22571,"type":"Feature","geometry":{"type":"Point","coordinates":[19.40272,54.1846]},"properties":{"isced:level":"1;2","ref:rspo":22571,"official_name":"Szko\u0142a Podstawowa Nr 18 im. Franciszka II Rakoczego w Elbl\u0105gu","name":"Szko\u0142a Podstawowa Nr 18","addr:country":"PL","addr:postcode":"82-300","addr:city":"Elbl\u0105g","addr:street":"ul. W\u0119growska","addr:housenumber":"1","addr:teryt:simc":23945,"addr:teryt:sym_ul":932703,"contact:phone":"+48 556258640","contact:email":"sp18@elblag.eu","ref:regon":"000212340","ref:vatin":"PL5781091565","operator":"Gmina Miasto Elbl\u0105g  Na Prawach Powiatu","operator:type":"government","amenity":"school"}},{"id":70942,"type":"Feature","geometry":{"type":"Point","coordinates":[19.40308,54.18585]},"properties":{"ref:rspo":70942,"official_name":"Przedszkole Niepubliczne \"Akademia Krasnoludk\u00f3w\" Teresa Ma\u0142ecka","name":"Przedszkole Niepubliczne \"Akademia Krasnoludk\u00f3w\" Teresa Ma\u0142ecka","addr:country":"PL","addr:postcode":"82-300","addr:city":"Elbl\u0105g","addr:street":"ul. Macieja Kalenkiewicza","addr:housenumber":"24","addr:teryt:simc":7793,"addr:teryt:sym_ul":932703,"contact:phone":"+48 552357296","contact:email":"krasnoludki24@interia.pl","ref:regon":"281441887","ref:vatin":"PL5781237336","operator":"Tresa Ma\u0142ecka","operator:type":"private","amenity":"kindergarten"}},{"id":6133,"type":"Feature","geometry":{"type":"Point","coordinates":[19.3954999,54.18603]},"properties":{"ref:rspo":6133,"official_name":"Przedszkole Nr 21 w Elbl\u0105gu","name":"Przedszkole Nr 21 w Elbl\u0105gu","addr:country":"PL","addr:postcode":"82-300","addr:city":"Elbl\u0105g","addr:street":"ul. Wiejska","addr:housenumber":"6","addr:teryt:simc":24048,"addr:teryt:sym_ul":932703,"contact:phone":"+48 556258130","contact:email":"przedszkole21@elblag.eu","contact:website":"http:\/\/www.p21elblag.szkolnastrona.pl","ref:regon":"280565133","ref:vatin":"PL5783088900","operator":"Gmina Miasto Elbl\u0105g  Na Prawach Powiatu","operator:type":"government","amenity":"kindergarten"}},{"id":6172,"type":"Feature","geometry":{"type":"Point","coordinates":[19.41722,54.18814]},"properties":{"ref:rspo":6172,"official_name":"Przedszkole Nr 24 w Elbl\u0105gu","name":"Przedszkole Nr 24 w Elbl\u0105gu","addr:country":"PL","addr:postcode":"82-300","addr:city":"Elbl\u0105g","addr:street":"ul. Jana Brzechwy","addr:housenumber":"5","addr:teryt:simc":2225,"addr:teryt:sym_ul":932703,"contact:phone":"+48 556258150","contact:email":"przedszkole24@elblag.eu","ref:regon":"280564613","ref:vatin":"PL5783088426","operator":"Gmina Miasto Elbl\u0105g  Na Prawach Powiatu","operator:type":"government","amenity":"kindergarten"}},{"id":90929,"type":"Feature","geometry":{"type":"Point","coordinates":[19.39345,54.18834]},"properties":{"ref:rspo":90929,"official_name":"O\u015brodek Rehabilitacyjno-Edukacyjno-Wychowawczy","name":"O\u015brodek Rehabilitacyjno-Edukacyjno-Wychowawczy","addr:country":"PL","addr:postcode":"82-300","addr:city":"Elbl\u0105g","addr:street":"ul. Szarych Szereg\u00f3w","addr:housenumber":"32","addr:teryt:simc":21787,"addr:teryt:sym_ul":932703,"contact:phone":"+48 552337593","contact:email":"zk.elblag@psoni.org.pl","contact:website":"http:\/\/www.elblag.psoni.org.pl","ref:regon":"281451147","ref:vatin":"PL5781073260","operator":"Polskie Stowarzyszenie Na Rzecz Os\u00f3b Z Niepe\u0142nosprawno\u015bci\u0105 Intelektualn\u0105 Ko\u0142o W Elbl\u0105gu","operator:type":"ngo","amenity":"school"}},{"id":125813,"type":"Feature","geometry":{"type":"Point","coordinates":[19.39345,54.188309999999994]},"properties":{"isced:level":"1;2","ref:rspo":125813,"official_name":"Niepubliczna Szko\u0142a Podstawowa Specjalna Polskiego Stowarzyszenia Na Rzecz Os\u00f3b Z Niepe\u0142nosprawno\u015bci\u0105 Intelektualn\u0105 Ko\u0142o w Elbl\u0105gu","name":"Niepubliczna Szko\u0142a Podstawowa Specjalna Polskiego Stowarzyszenia Na Rzecz Os\u00f3b Z Niepe\u0142nosprawno\u015bci\u0105 Intelektualn\u0105 Ko\u0142o w Elbl\u0105gu","addr:country":"PL","addr:postcode":"82-300","addr:city":"Elbl\u0105g","addr:street":"ul. Szarych Szereg\u00f3w","addr:housenumber":"32","addr:teryt:simc":21787,"addr:teryt:sym_ul":932703,"contact:phone":"+48 552323816","contact:email":"zk.elblag@psoni.org.pl","contact:website":"http:\/\/www.elblag.psouu.org.pl","ref:regon":"281636214","operator":"Polskie Stowarzyszenie Na Rzecz Os\u00f3b Z Niepe\u0142nosprawno\u015bci\u0105 Intelektualn\u0105 Ko\u0142o W Elbl\u0105gu","operator:type":"ngo","amenity":"school"}},{"id":125815,"type":"Feature","geometry":{"type":"Point","coordinates":[19.39345,54.18828]},"properties":{"ref:rspo":125815,"official_name":"Niepubliczne Przedszkole Specjalne","name":"Niepubliczne Przedszkole Specjalne","addr:country":"PL","addr:postcode":"82-300","addr:city":"Elbl\u0105g","addr:street":"ul. Szarych Szereg\u00f3w","addr:housenumber":"32","addr:teryt:simc":21787,"addr:teryt:sym_ul":932703,"contact:phone":"+48 552323816","contact:email":"zk.elblag@psoni.org.pl","contact:website":"http:\/\/www.elblag.psoni.org.pl","ref:regon":"360000343","operator":"Polskie Stowarzyszenie Na Rzecz Os\u00f3b Z Niepe\u0142nosprawno\u015bci\u0105 Intelektualn\u0105 Ko\u0142o W Elbl\u0105gu","operator:type":"ngo","amenity":"kindergarten"}},{"id":126920,"type":"Feature","geometry":{"type":"Point","coordinates":[19.39345,54.18825]},"properties":{"ref:rspo":126920,"official_name":"Niepubliczna Szko\u0142a Specjalna Przysposabiaj\u0105ca Do Pracy","name":"Niepubliczna Szko\u0142a Specjalna Przysposabiaj\u0105ca Do Pracy","addr:country":"PL","addr:postcode":"82-300","addr:city":"Elbl\u0105g","addr:street":"ul. Szarych Szereg\u00f3w","addr:housenumber":"32","addr:teryt:simc":21787,"addr:teryt:sym_ul":932703,"contact:phone":"+48 552323816","contact:email":"zk.elblag@psoni.org.pl","contact:website":"http:\/\/www.elblag.psoni.org.pl","ref:regon":"360944044","operator":"Polskie Stowarzyszenie Na Rzecz Os\u00f3b Z Niepe\u0142nosprawno\u015bci\u0105 Intelektualn\u0105 Ko\u0142o W Elbl\u0105gu","operator:type":"ngo","amenity":"school"}},{"id":13249,"type":"Feature","geometry":{"type":"Point","coordinates":[19.41472,54.18856]},"properties":{"isced:level":"1;2","ref:rspo":13249,"official_name":"Szko\u0142a Podstawowa Nr 11 im. Kornela Makuszy\u0144skiego w Elbl\u0105gu","name":"Szko\u0142a Podstawowa Nr 11","addr:country":"PL","addr:postcode":"82-300","addr:city":"Elbl\u0105g","addr:street":"ul. Janusza Korczaka","addr:housenumber":"34","addr:teryt:simc":9329,"addr:teryt:sym_ul":932703,"contact:phone":"+48 556256651","contact:email":"sp11@elblag.eu","contact:website":"http:\/\/www.sp11.elblag.pl","ref:regon":"170002582","ref:vatin":"PL5782575609","operator":"Gmina Miasto Elbl\u0105g  Na Prawach Powiatu","operator:type":"government","amenity":"school"}},{"id":129127,"type":"Feature","geometry":{"type":"Point","coordinates":[19.43798,54.194]},"properties":{"ref:rspo":129127,"official_name":"Niepubliczne Przedszkole Ekologiczno-Sportowe \"Jedyneczka\"","name":"Niepubliczne Przedszkole Ekologiczno-Sportowe \"Jedyneczka\"","addr:country":"PL","addr:postcode":"82-300","addr:city":"Elbl\u0105g","addr:street":"ul. Nowogr\u00f3dzka","addr:housenumber":"7","addr:teryt:simc":14428,"addr:teryt:sym_ul":932703,"contact:email":"kontakt@jedyneczka.elblag.pl","contact:website":"http:\/\/www.jedyneczka.elblag.pl","ref:regon":"362481499","ref:vatin":"PL5782984271","operator":"Aleksandra Rogowska","operator:type":"private","amenity":"kindergarten"}},{"id":74042,"type":"Feature","geometry":{"type":"Point","coordinates":[19.43738,54.19709]},"properties":{"ref:rspo":74042,"official_name":"Centrum Kszta\u0142cenia Zawodowego Security Consulting And Training \"Scat\" Mariusz Pakie\u0142a","name":"Centrum Kszta\u0142cenia Zawodowego Security Consulting And Training \"Scat\" Mariusz Pakie\u0142a","addr:country":"PL","addr:postcode":"82-300","addr:city":"Elbl\u0105g","addr:street":"ul. Stanis\u0142awa Przybyszewskiego","addr:housenumber":"22","addr:teryt:simc":17892,"addr:teryt:sym_ul":932703,"contact:email":"scat@scat.pl","ref:regon":"281442875","ref:vatin":"PL5781113195","operator":"Mariusz Pakie\u0142a","operator:type":"private","fixme":"w zale\u017cno\u015bci od przedmiotu dzia\u0142alno\u015bci (np. amenity=training + training=*, amenity=dancing_school, amenity=language_school, amenity=music_school) albo amenity=school, amenity=college, albo landuse=education w zale\u017cno\u015bci od tego, jakie plac\u00f3wki wchodz\u0105 w sk\u0142ad zespo\u0142u. Sprawd\u017a, kiedy stosowa\u0107 amenity=* a kiedy landuse=education."}},{"id":264512,"type":"Feature","geometry":{"type":"Point","coordinates":[19.4381595,54.1975297]},"properties":{"ref:rspo":264512,"official_name":"Niepubliczne Przedszkole \"Piekarczyk\"","name":"Niepubliczne Przedszkole \"Piekarczyk\"","addr:country":"PL","addr:postcode":"82-300","addr:city":"Elbl\u0105g","addr:street":"ul. Juliana Ursyna Niemcewicza","addr:housenumber":"1","addr:teryt:simc":14177,"addr:teryt:sym_ul":932703,"contact:phone":"+48 606309804","contact:email":"piekarczyk.elblag@gmail.com","contact:website":"http:\/\/www.piekarczyk.elblag.pl","ref:regon":"368371228","operator":"Gra\u017cyna Derebecka","operator:type":"private","amenity":"kindergarten"}},{"id":129828,"type":"Feature","geometry":{"type":"Point","coordinates":[19.41629,54.19818]},"properties":{"ref:rspo":129828,"official_name":"O\u015brodek Szkolenia Nurk\u00f3w Zawodowych Frog","name":"O\u015brodek Szkolenia Nurk\u00f3w Zawodowych Frog","addr:country":"PL","addr:postcode":"82-300","addr:city":"Elbl\u0105g","addr:street":"ul. Stanis\u0142awa Sulimy","addr:housenumber":"1","addr:door":"226","addr:teryt:simc":41915,"addr:teryt:sym_ul":932703,"contact:phone":"+48 530778137","contact:email":"frog@frog.elblag.pl","contact:website":"http:\/\/www.frog.elblag.pl","ref:regon":"362938757","operator":"Frog Sp\u00f3\u0142ka Z Ograniczon\u0105 Odpowiedzialno\u015bci\u0105","operator:type":"private","fixme":"w zale\u017cno\u015bci od przedmiotu dzia\u0142alno\u015bci (np. amenity=training + training=*, amenity=dancing_school, amenity=language_school, amenity=music_school)"}},{"id":72331,"type":"Feature","geometry":{"type":"Point","coordinates":[19.45024,54.21989]},"properties":{"ref:rspo":72331,"official_name":"O\u015brodek Kszta\u0142cenia \"Edukacja\" Sp. Z O.o","name":"O\u015brodek Kszta\u0142cenia \"Edukacja\" Sp. Z O.o","addr:country":"PL","addr:postcode":"82-300","addr:city":"Elbl\u0105g","addr:street":"ul. Kornela Makuszy\u0144skiego","addr:housenumber":"20","addr:teryt:simc":12024,"addr:teryt:sym_ul":932703,"contact:phone":"+48 556420420","contact:email":"biuro@ok-edukacja.pl","ref:regon":"281442540","ref:vatin":"PL5782890498","operator":"O\u015brodek Kszta\u0142cenia Edukacja Sp\u00f3\u0142ka Z Ograniczon\u0105 Odpowiedzialno\u015bci\u0105","operator:type":"private","fixme":"w zale\u017cno\u015bci od przedmiotu dzia\u0142alno\u015bci (np. amenity=training + training=*, amenity=dancing_school, amenity=language_school, amenity=music_school)"}}]}