{
    "type": "FeatureCollection",
    "features": [
        {
            "id": 70850,
            "type": "Feature",
            "geometry": {
                "type": "Point",
                "coordinates": [
                    23.024327,
                    50.1694249
                ]
            },
            "properties": {
                "isced:level": "1;2",
                "ref:rspo": 70850,
                "official_name": "Szko\u0142a Podstawowa im. Marii Moralewicz w Dachnowie",
                "name": "Szko\u0142a Podstawowa",
                "addr:postcode": "37-611",
                "addr:city": "Dachn\u00f3w",
                "addr:street": "Jaros\u0142awska",
                "addr:housenumber": "2",
                "addr:city:simc": 600059,
                "addr:street:sym_ul": 7264,
                "phone": "+48 166321963",
                "email": "poczta@dachnow.pl",
                "website": "http:\/\/www.dachnow.pl",
                "ref:regon": "001206904",
                "ref:vatin": "PL7931431527",
                "operator": "Gmina Cieszan\u00f3w",
                "operator:type": "government",
                "amenity": "school"
            }
        },
        {
            "id": 119351,
            "type": "Feature",
            "geometry": {
                "type": "Point",
                "coordinates": [
                    23.024327,
                    50.1693949
                ]
            },
            "properties": {
                "ref:rspo": 119351,
                "official_name": "Publiczne Przedszkole w Dachnowie",
                "name": "Publiczne Przedszkole w Dachnowie",
                "addr:postcode": "37-611",
                "addr:city": "Dachn\u00f3w",
                "addr:street": "Jaros\u0142awska",
                "addr:housenumber": "2",
                "addr:city:simc": 600059,
                "addr:street:sym_ul": 7264,
                "phone": "+48 166321963",
                "email": "pp-dachnow@wp.pl",
                "website": "http:\/\/dachnow.przedszkolowo.pl\/",
                "ref:regon": "181016220",
                "ref:vatin": "PL7931461876",
                "operator": "Stowarzyszenie Cieszan\u00f3w.pl",
                "operator:type": "ngo",
                "amenity": "kindergarten"
            }
        },
        {
            "id": 268729,
            "type": "Feature",
            "geometry": {
                "type": "Point",
                "coordinates": [
                    23.16773,
                    50.2298
                ]
            },
            "properties": {
                "ref:rspo": 268729,
                "official_name": "Zesp\u00f3\u0142 Szkolno-Przedszkolny w Nowym Siole",
                "name": "Zesp\u00f3\u0142 Szkolno-Przedszkolny w Nowym Siole",
                "addr:postcode": "37-611",
                "addr:place": "Nowe Sio\u0142o",
                "addr:housenumber": "103A",
                "addr:city:simc": 600177,
                "phone": "+48 166311010",
                "email": "sp.nowesiolo@gmail.com",
                "website": "http:\/\/zsp.cieszanow.pl",
                "ref:regon": "381236807",
                "ref:vatin": "PL7931629264",
                "operator": "Stowarzyszenie Cieszan\u00f3w.pl",
                "operator:type": "ngo",
                "landuse": "education",
                "fixme": "amenity=school, amenity=college albo landuse=education w zale\u017cno\u015bci od tego, jakie plac\u00f3wki wchodz\u0105 w sk\u0142ad zespo\u0142u. Sprawd\u017a, kiedy stosowa\u0107 amenity=* a kiedy landuse=education.",
                "note": "Children RSPO: 268691;268700"
            }
        },
        {
            "id": 268691,
            "type": "Feature",
            "geometry": {
                "type": "Point",
                "coordinates": [
                    23.16773,
                    50.229769999999995
                ]
            },
            "properties": {
                "isced:level": "1;2",
                "ref:rspo": 268691,
                "official_name": "Szko\u0142a Podstawowa w Nowym Siole",
                "name": "Szko\u0142a Podstawowa w Nowym Siole",
                "addr:postcode": "37-611",
                "addr:place": "Nowe Sio\u0142o",
                "addr:housenumber": "103A",
                "addr:city:simc": 600177,
                "phone": "+48 166311010",
                "email": "sp.nowesiolo@gmail.com",
                "ref:regon": "381233223",
                "operator": "Stowarzyszenie Cieszan\u00f3w.pl",
                "operator:type": "ngo",
                "amenity": "school",
                "note": "Parent RSPO: 268729"
            }
        },
        {
            "id": 268700,
            "type": "Feature",
            "geometry": {
                "type": "Point",
                "coordinates": [
                    23.16773,
                    50.22974
                ]
            },
            "properties": {
                "ref:rspo": 268700,
                "official_name": "Publiczne Przedszkole w Nowym Siole",
                "name": "Publiczne Przedszkole w Nowym Siole",
                "addr:postcode": "37-611",
                "addr:place": "Nowe Sio\u0142o",
                "addr:housenumber": "103A",
                "addr:city:simc": 600177,
                "phone": "+48 166311010",
                "email": "sp.nowesiolo@gmail.com",
                "ref:regon": "381235311",
                "operator": "Stowarzyszenie Cieszan\u00f3w.pl",
                "operator:type": "ngo",
                "amenity": "kindergarten",
                "note": "Parent RSPO: 268729"
            }
        },
        {
            "id": 277160,
            "type": "Feature",
            "geometry": {
                "type": "Point",
                "coordinates": [
                    23.1563899,
                    50.23193
                ]
            },
            "properties": {
                "ref:rspo": 277160,
                "official_name": "Zesp\u00f3\u0142 Szkolno - Przedszkolny w Cieszanowie",
                "name": "Zesp\u00f3\u0142 Szkolno - Przedszkolny w Cieszanowie",
                "addr:postcode": "37-611",
                "addr:city": "Nowe Sio\u0142o",
                "addr:street": "Adama Mickiewicza",
                "addr:housenumber": "73",
                "addr:city:simc": 600177,
                "addr:street:sym_ul": 12734,
                "phone": "+48 166311039",
                "email": "spcieszanow@wp.pl",
                "website": "http:\/\/cieszanow.net\/",
                "ref:regon": "388214217",
                "ref:vatin": "PL7931634710",
                "operator": "Gmina Cieszan\u00f3w",
                "operator:type": "government",
                "landuse": "education",
                "fixme": "amenity=school, amenity=college albo landuse=education w zale\u017cno\u015bci od tego, jakie plac\u00f3wki wchodz\u0105 w sk\u0142ad zespo\u0142u. Sprawd\u017a, kiedy stosowa\u0107 amenity=* a kiedy landuse=education.",
                "note": "Children RSPO: 70846;70848;275599;275608"
            }
        },
        {
            "id": 70846,
            "type": "Feature",
            "geometry": {
                "type": "Point",
                "coordinates": [
                    23.1563899,
                    50.231899999999996
                ]
            },
            "properties": {
                "isced:level": "1;2",
                "ref:rspo": 70846,
                "official_name": "Szko\u0142a Podstawowa im. P\u0142k. Bronis\u0142awy Wys\u0142ouchowej z Szabatowskich w Cieszanowie",
                "name": "Szko\u0142a Podstawowa",
                "addr:postcode": "37-611",
                "addr:city": "Nowe Sio\u0142o",
                "addr:street": "Adama Mickiewicza",
                "addr:housenumber": "73",
                "addr:city:simc": 600177,
                "addr:street:sym_ul": 12734,
                "phone": "+48 166311039",
                "email": "spcieszanow@wp.pl",
                "website": "http:\/\/www.cieszanow.net",
                "ref:regon": "000559836",
                "ref:vatin": "PL7931431450",
                "operator": "Gmina Cieszan\u00f3w",
                "operator:type": "government",
                "amenity": "school",
                "note": "Parent RSPO: 277160"
            }
        },
        {
            "id": 70848,
            "type": "Feature",
            "geometry": {
                "type": "Point",
                "coordinates": [
                    23.1563899,
                    50.23187
                ]
            },
            "properties": {
                "ref:rspo": 70848,
                "official_name": "Szkolne Schronisko M\u0142odzie\u017cowe w Cieszanowie",
                "name": "Szkolne Schronisko M\u0142odzie\u017cowe w Cieszanowie",
                "addr:postcode": "37-611",
                "addr:city": "Nowe Sio\u0142o",
                "addr:street": "Adama Mickiewicza",
                "addr:housenumber": "73",
                "addr:city:simc": 600177,
                "addr:street:sym_ul": 12734,
                "phone": "+48 166311039",
                "email": "zsp_cieszanow@wp.pl",
                "website": "http:\/\/www.cieszanow.pl",
                "ref:regon": "651551351",
                "ref:vatin": "PL7931526280",
                "operator": "Gmina Cieszan\u00f3w",
                "operator:type": "government",
                "tourism": "hostel",
                "note": "Parent RSPO: 277160"
            }
        },
        {
            "id": 275608,
            "type": "Feature",
            "geometry": {
                "type": "Point",
                "coordinates": [
                    23.13398,
                    50.24322
                ]
            },
            "properties": {
                "ref:rspo": 275608,
                "official_name": "Publiczne Przedszkole w Cieszanowie",
                "name": "Publiczne Przedszkole w Cieszanowie",
                "addr:postcode": "37-611",
                "addr:city": "Cieszan\u00f3w",
                "addr:street": "Jana III Sobieskiego",
                "addr:housenumber": "1",
                "addr:city:simc": 972051,
                "addr:street:sym_ul": 20431,
                "phone": "+48 166311013",
                "email": "spcieszanow@wp.pl",
                "website": "http:\/\/cieszanow.przedszkolowo.pl\/",
                "ref:regon": "386928421",
                "ref:vatin": "PL7931464142",
                "operator": "Gmina Cieszan\u00f3w",
                "operator:type": "government",
                "amenity": "kindergarten",
                "note": "Parent RSPO: 277160"
            }
        },
        {
            "id": 268730,
            "type": "Feature",
            "geometry": {
                "type": "Point",
                "coordinates": [
                    23.05929,
                    50.25934
                ]
            },
            "properties": {
                "ref:rspo": 268730,
                "official_name": "Zesp\u00f3\u0142 Szkolno-Przedszkolny w Niemstowie",
                "name": "Zesp\u00f3\u0142 Szkolno-Przedszkolny w Niemstowie",
                "addr:postcode": "37-611",
                "addr:place": "Niemst\u00f3w",
                "addr:housenumber": "76",
                "addr:city:simc": 600154,
                "email": "spniemstow@op.pl",
                "website": "http:\/\/www.niemstow.pl\/",
                "ref:regon": "381236865",
                "ref:vatin": "PL7931629287",
                "operator": "Stowarzyszenie Cieszan\u00f3w.pl",
                "operator:type": "ngo",
                "landuse": "education",
                "fixme": "amenity=school, amenity=college albo landuse=education w zale\u017cno\u015bci od tego, jakie plac\u00f3wki wchodz\u0105 w sk\u0142ad zespo\u0142u. Sprawd\u017a, kiedy stosowa\u0107 amenity=* a kiedy landuse=education.",
                "note": "Children RSPO: 268708;268714"
            }
        },
        {
            "id": 268708,
            "type": "Feature",
            "geometry": {
                "type": "Point",
                "coordinates": [
                    23.05929,
                    50.25931
                ]
            },
            "properties": {
                "ref:rspo": 268708,
                "official_name": "Publiczne Przedszkole w Niemstowie",
                "name": "Publiczne Przedszkole w Niemstowie",
                "addr:postcode": "37-611",
                "addr:place": "Niemst\u00f3w",
                "addr:housenumber": "76",
                "addr:city:simc": 600154,
                "phone": "+48 166312005",
                "email": "spniemstow@op.pl",
                "ref:regon": "381235452",
                "operator": "Stowarzyszenie Cieszan\u00f3w.pl",
                "operator:type": "ngo",
                "amenity": "kindergarten",
                "note": "Parent RSPO: 268730"
            }
        },
        {
            "id": 268714,
            "type": "Feature",
            "geometry": {
                "type": "Point",
                "coordinates": [
                    23.05929,
                    50.259280000000004
                ]
            },
            "properties": {
                "isced:level": "1;2",
                "ref:rspo": 268714,
                "official_name": "Szko\u0142a Podstawowa w Niemstowie",
                "name": "Szko\u0142a Podstawowa w Niemstowie",
                "addr:postcode": "37-611",
                "addr:place": "Niemst\u00f3w",
                "addr:housenumber": "76",
                "addr:city:simc": 600154,
                "email": "spniemstow@op.pl",
                "website": "http:\/\/www.niemstow.pl\/",
                "ref:regon": "381235475",
                "operator": "Stowarzyszenie Cieszan\u00f3w.pl",
                "operator:type": "ngo",
                "amenity": "school",
                "note": "Parent RSPO: 268730"
            }
        },
        {
            "id": 275599,
            "type": "Feature",
            "geometry": {
                "type": "Point",
                "coordinates": [
                    23.15602,
                    50.27809
                ]
            },
            "properties": {
                "ref:rspo": 275599,
                "official_name": "Punkt Przedszkolny w Kowal\u00f3wce",
                "name": "Punkt Przedszkolny w Kowal\u00f3wce",
                "addr:postcode": "37-611",
                "addr:place": "Kowal\u00f3wka",
                "addr:housenumber": "7",
                "addr:city:simc": 600125,
                "phone": "+48 166312130",
                "email": "spcieszanow@wp.pl",
                "ref:regon": "386927930",
                "operator": "Gmina Cieszan\u00f3w",
                "operator:type": "government",
                "amenity": "kindergarten",
                "note": "Parent RSPO: 277160"
            }
        },
        {
            "id": 70844,
            "type": "Feature",
            "geometry": {
                "type": "Point",
                "coordinates": [
                    23.09262,
                    50.2988
                ]
            },
            "properties": {
                "ref:rspo": 70844,
                "official_name": "Szkolne Schronisko M\u0142odzie\u017cowe w Nowym Lubli\u0144cu",
                "name": "Szkolne Schronisko M\u0142odzie\u017cowe w Nowym Lubli\u0144cu",
                "addr:postcode": "37-611",
                "addr:place": "Nowy Lubliniec",
                "addr:housenumber": "75",
                "addr:city:simc": 600190,
                "phone": "+48 166311567",
                "ref:regon": "180612031",
                "ref:vatin": "PL7931617580",
                "operator": "Gmina Cieszan\u00f3w",
                "operator:type": "government",
                "tourism": "hostel"
            }
        },
        {
            "id": 275657,
            "type": "Feature",
            "geometry": {
                "type": "Point",
                "coordinates": [
                    23.09262,
                    50.29877
                ]
            },
            "properties": {
                "ref:rspo": 275657,
                "official_name": "Zesp\u00f3\u0142 Szkolno-Przedszkolny w Nowym Lubli\u0144cu",
                "name": "Zesp\u00f3\u0142 Szkolno-Przedszkolny w Nowym Lubli\u0144cu",
                "addr:postcode": "37-611",
                "addr:place": "Nowy Lubliniec",
                "addr:housenumber": "75",
                "addr:city:simc": 600190,
                "phone": "+48 166311567",
                "email": "splubliniec@wp.pl",
                "website": "http:\/\/www.nowylubliniec.pl\/",
                "ref:regon": "386930599",
                "ref:vatin": "PL7931628247",
                "operator": "Stowarzyszenie Cieszan\u00f3w.pl",
                "operator:type": "ngo",
                "landuse": "education",
                "fixme": "amenity=school, amenity=college albo landuse=education w zale\u017cno\u015bci od tego, jakie plac\u00f3wki wchodz\u0105 w sk\u0142ad zespo\u0142u. Sprawd\u017a, kiedy stosowa\u0107 amenity=* a kiedy landuse=education.",
                "note": "Children RSPO: 275587;275590"
            }
        },
        {
            "id": 275587,
            "type": "Feature",
            "geometry": {
                "type": "Point",
                "coordinates": [
                    23.09262,
                    50.29874
                ]
            },
            "properties": {
                "isced:level": "1;2",
                "ref:rspo": 275587,
                "official_name": "Szko\u0142a Podstawowa im. Gen. Antoniego Jeziora\u0144skiego w Nowym Lubli\u0144cu",
                "name": "Szko\u0142a Podstawowa",
                "addr:postcode": "37-611",
                "addr:place": "Nowy Lubliniec",
                "addr:housenumber": "75",
                "addr:city:simc": 600190,
                "phone": "+48 166311567",
                "email": "splubliniec@wp.pl",
                "website": "http:\/\/www.nowylubliniec.pl\/",
                "ref:regon": "386926907",
                "ref:vatin": "PL7931431467",
                "operator": "Stowarzyszenie Cieszan\u00f3w.pl",
                "operator:type": "ngo",
                "amenity": "school",
                "note": "Parent RSPO: 275657"
            }
        },
        {
            "id": 275590,
            "type": "Feature",
            "geometry": {
                "type": "Point",
                "coordinates": [
                    23.09262,
                    50.29871
                ]
            },
            "properties": {
                "ref:rspo": 275590,
                "official_name": "Publiczne Przedszkole w Nowym Lubli\u0144cu",
                "name": "Publiczne Przedszkole w Nowym Lubli\u0144cu",
                "addr:postcode": "37-611",
                "addr:place": "Nowy Lubliniec",
                "addr:housenumber": "75",
                "addr:city:simc": 600190,
                "phone": "+48 166311567",
                "email": "splubliniec@wp.pl",
                "website": "http:\/\/www.nowylubliniec.pl\/",
                "ref:regon": "386927048",
                "ref:vatin": "PL7931627845",
                "operator": "Stowarzyszenie Cieszan\u00f3w.pl",
                "operator:type": "ngo",
                "amenity": "kindergarten",
                "note": "Parent RSPO: 275657"
            }
        }
    ]
}