{
    "type": "FeatureCollection",
    "features": [
        {
            "id": 87957,
            "type": "Feature",
            "geometry": {
                "type": "Point",
                "coordinates": [
                    23.23266,
                    50.10091
                ]
            },
            "properties": {
                "isced:level": "1;2",
                "ref:rspo": 87957,
                "official_name": "Szko\u0142a Podstawowa im. Poety Ks. Jana Twardowskiego",
                "name": "Szko\u0142a Podstawowa",
                "addr:postcode": "37-625",
                "addr:place": "Krowica Sama",
                "addr:housenumber": "183",
                "addr:city:simc": 606180,
                "phone": "+48 166326154",
                "email": "sp-krowica@lubaczow.com.pl",
                "website": "http:\/\/www.sp-krowica.lubaczow.com.pl",
                "ref:regon": "001207690",
                "ref:vatin": "PL7931431674",
                "operator": "Gmina Lubacz\u00f3w",
                "operator:type": "government",
                "amenity": "school"
            }
        },
        {
            "id": 109088,
            "type": "Feature",
            "geometry": {
                "type": "Point",
                "coordinates": [
                    23.23266,
                    50.10088
                ]
            },
            "properties": {
                "ref:rspo": 109088,
                "official_name": "Szkolne Schronisko M\u0142odzie\u017cowe w Krowicy Samej",
                "name": "Szkolne Schronisko M\u0142odzie\u017cowe w Krowicy Samej",
                "addr:postcode": "37-625",
                "addr:place": "Krowica Sama",
                "addr:housenumber": "183",
                "addr:city:simc": 606180,
                "phone": "+48 166326154",
                "email": "sp-krowica@lubaczow.com.pl",
                "ref:regon": "180940137",
                "ref:vatin": "PL7931625013",
                "operator": "Gmina Lubacz\u00f3w",
                "operator:type": "government",
                "tourism": "hostel"
            }
        },
        {
            "id": 119993,
            "type": "Feature",
            "geometry": {
                "type": "Point",
                "coordinates": [
                    23.23266,
                    50.10085
                ]
            },
            "properties": {
                "ref:rspo": 119993,
                "official_name": "Niepubliczny Punkt Przedszkolny w Krowicy Samej",
                "name": "Niepubliczny Punkt Przedszkolny w Krowicy Samej",
                "addr:postcode": "37-625",
                "addr:place": "Krowica Sama",
                "addr:housenumber": "183",
                "addr:city:simc": 606180,
                "phone": "+48 166326154",
                "email": "sp-krowica@lubaczow.com.pl",
                "website": "http:\/\/www.sisggl.pl",
                "ref:regon": "181023615",
                "ref:vatin": "PL7931625214",
                "operator": "Stowarzyszenie Inicjatyw Spo\u0142eczno-Gospodarczych Gminy Lubacz\u00f3w",
                "operator:type": "ngo",
                "amenity": "kindergarten"
            }
        },
        {
            "id": 6033,
            "type": "Feature",
            "geometry": {
                "type": "Point",
                "coordinates": [
                    23.16845,
                    50.1404799
                ]
            },
            "properties": {
                "ref:rspo": 6033,
                "official_name": "Zesp\u00f3\u0142 Szkolno-Przedszkolny w Lisich Jamach",
                "name": "Zesp\u00f3\u0142 Szkolno-Przedszkolny w Lisich Jamach",
                "addr:postcode": "37-600",
                "addr:city": "Lisie Jamy",
                "addr:street": "Lwowska",
                "addr:housenumber": "45",
                "addr:city:simc": 606234,
                "addr:street:sym_ul": 11467,
                "phone": "+48 166322175",
                "email": "zsp-lisiejamy@gminalubaczow.pl",
                "website": "http:\/\/www.zsp-lisiejamy.lubaczow.com.pl",
                "ref:regon": "180467698",
                "ref:vatin": "PL7931604703",
                "operator": "Gmina Lubacz\u00f3w",
                "operator:type": "government",
                "landuse": "education",
                "fixme": "amenity=school, amenity=college albo landuse=education w zale\u017cno\u015bci od tego, jakie plac\u00f3wki wchodz\u0105 w sk\u0142ad zespo\u0142u. Sprawd\u017a, kiedy stosowa\u0107 amenity=* a kiedy landuse=education.",
                "note": "Children RSPO: 87998;88000"
            }
        },
        {
            "id": 87998,
            "type": "Feature",
            "geometry": {
                "type": "Point",
                "coordinates": [
                    23.16845,
                    50.1404499
                ]
            },
            "properties": {
                "isced:level": "1;2",
                "ref:rspo": 87998,
                "official_name": "Szko\u0142a Podstawowa w Lisich Jamach",
                "name": "Szko\u0142a Podstawowa w Lisich Jamach",
                "addr:postcode": "37-600",
                "addr:city": "Lisie Jamy",
                "addr:street": "Lwowska",
                "addr:housenumber": "45",
                "addr:city:simc": 606234,
                "addr:street:sym_ul": 11467,
                "phone": "+48 166322175",
                "email": "zsp-lisiejamy@lubaczow.com.pl",
                "ref:regon": "001207708",
                "ref:vatin": "PL7931431680",
                "operator": "Gmina Lubacz\u00f3w",
                "operator:type": "government",
                "amenity": "school",
                "note": "Parent RSPO: 6033"
            }
        },
        {
            "id": 88000,
            "type": "Feature",
            "geometry": {
                "type": "Point",
                "coordinates": [
                    23.16845,
                    50.140419900000005
                ]
            },
            "properties": {
                "ref:rspo": 88000,
                "official_name": "Publiczne Przedszkole w Lisich Jamach",
                "name": "Publiczne Przedszkole w Lisich Jamach",
                "addr:postcode": "37-600",
                "addr:city": "Lisie Jamy",
                "addr:street": "Lwowska",
                "addr:housenumber": "45",
                "addr:city:simc": 606234,
                "addr:street:sym_ul": 11467,
                "phone": "+48 166322175",
                "email": "zsp-lisiejamy@lubaczow.com.pl",
                "website": "http:\/\/zsp-lisiejamy.lubaczow.com.pl",
                "ref:regon": "650212782",
                "ref:vatin": "PL7931431823",
                "operator": "Gmina Lubacz\u00f3w",
                "operator:type": "government",
                "amenity": "kindergarten",
                "note": "Parent RSPO: 6033"
            }
        },
        {
            "id": 123667,
            "type": "Feature",
            "geometry": {
                "type": "Point",
                "coordinates": [
                    23.1097,
                    50.14741
                ]
            },
            "properties": {
                "ref:rspo": 123667,
                "official_name": "Niepubliczne Przedszkole w D\u0105bkowie",
                "name": "Niepubliczne Przedszkole w D\u0105bkowie",
                "addr:postcode": "37-600",
                "addr:place": "D\u0105bk\u00f3w",
                "addr:housenumber": "2",
                "addr:city:simc": 606004,
                "phone": "+48 666957900",
                "email": "magicznyzakatek@op.pl",
                "website": "http:\/\/magicznyzakatek.edu.pl",
                "ref:regon": "181133114",
                "ref:vatin": "PL7931625355",
                "operator": "Sp\u00f3\u0142dzielnia Socjalna \"Magiczny Zak\u0105tek\"",
                "operator:type": "cooperative",
                "amenity": "kindergarten"
            }
        },
        {
            "id": 130683,
            "type": "Feature",
            "geometry": {
                "type": "Point",
                "coordinates": [
                    23.1097,
                    50.14738
                ]
            },
            "properties": {
                "ref:rspo": 130683,
                "official_name": "Niepubliczne Przedszkole \"Kraina Malucha\" w D\u0105bkowie",
                "name": "Niepubliczne Przedszkole \"Kraina Malucha\" w D\u0105bkowie",
                "addr:postcode": "37-600",
                "addr:place": "D\u0105bk\u00f3w",
                "addr:housenumber": "2",
                "addr:city:simc": 606004,
                "phone": "+48 601506490",
                "email": "zlobek@lubaczow.com.pl",
                "ref:regon": "364328359",
                "ref:vatin": "PL7931626633",
                "operator": "Stowarzyszenie Inicjatyw Spo\u0142eczno-Gospodarczych Gminy Lubacz\u00f3w",
                "operator:type": "ngo",
                "amenity": "kindergarten"
            }
        },
        {
            "id": 87956,
            "type": "Feature",
            "geometry": {
                "type": "Point",
                "coordinates": [
                    23.160905,
                    50.1609849
                ]
            },
            "properties": {
                "ref:rspo": 87956,
                "official_name": "Zesp\u00f3\u0142 Szkolno-Przedszkolny w M\u0142odowie",
                "name": "Zesp\u00f3\u0142 Szkolno-Przedszkolny w M\u0142odowie",
                "addr:postcode": "37-600",
                "addr:city": "M\u0142od\u00f3w",
                "addr:street": "Szkolna",
                "addr:housenumber": "48",
                "addr:city:simc": 606286,
                "addr:street:sym_ul": 21970,
                "phone": "+48 166321791",
                "email": "zsp-mlodow@lubaczow.com.pl",
                "website": "http:\/\/zsp-mlodow.lubaczow.com.pl",
                "ref:regon": "180460704",
                "ref:vatin": "PL7931603891",
                "operator": "Gmina Lubacz\u00f3w",
                "operator:type": "government",
                "landuse": "education",
                "fixme": "amenity=school, amenity=college albo landuse=education w zale\u017cno\u015bci od tego, jakie plac\u00f3wki wchodz\u0105 w sk\u0142ad zespo\u0142u. Sprawd\u017a, kiedy stosowa\u0107 amenity=* a kiedy landuse=education.",
                "note": "Children RSPO: 106279;130621"
            }
        },
        {
            "id": 106279,
            "type": "Feature",
            "geometry": {
                "type": "Point",
                "coordinates": [
                    23.160905,
                    50.1609549
                ]
            },
            "properties": {
                "isced:level": "1;2",
                "ref:rspo": 106279,
                "official_name": "Szko\u0142a Podstawowa im. Marii Konopnickiej w M\u0142odowie",
                "name": "Szko\u0142a Podstawowa",
                "addr:postcode": "37-600",
                "addr:city": "M\u0142od\u00f3w",
                "addr:street": "Szkolna",
                "addr:housenumber": "48",
                "addr:city:simc": 606286,
                "addr:street:sym_ul": 21970,
                "phone": "+48 166321791",
                "email": "zsp-mlodow@lubaczow.com.pl",
                "website": "http:\/\/zsp-mlodow.lubaczow.com.pl",
                "ref:regon": "001207714",
                "ref:vatin": "PL7931431697",
                "operator": "Gmina Lubacz\u00f3w",
                "operator:type": "government",
                "amenity": "school",
                "note": "Parent RSPO: 87956"
            }
        },
        {
            "id": 130621,
            "type": "Feature",
            "geometry": {
                "type": "Point",
                "coordinates": [
                    23.160905,
                    50.160924900000005
                ]
            },
            "properties": {
                "ref:rspo": 130621,
                "official_name": "Publiczne Przedszkole w M\u0142odowie",
                "name": "Publiczne Przedszkole w M\u0142odowie",
                "addr:postcode": "37-600",
                "addr:city": "M\u0142od\u00f3w",
                "addr:street": "Szkolna",
                "addr:housenumber": "48",
                "addr:city:simc": 606286,
                "addr:street:sym_ul": 21970,
                "phone": "+48 166321791",
                "email": "zsp-mlodow@lubaczow.com.pl",
                "website": "http:\/\/zspmlodow.pl\/",
                "ref:regon": "364251409",
                "operator": "Gmina Lubacz\u00f3w",
                "operator:type": "government",
                "amenity": "kindergarten",
                "note": "Parent RSPO: 87956"
            }
        },
        {
            "id": 4288,
            "type": "Feature",
            "geometry": {
                "type": "Point",
                "coordinates": [
                    23.22922,
                    50.17298
                ]
            },
            "properties": {
                "ref:rspo": 4288,
                "official_name": "Zesp\u00f3\u0142 Szkolno-Przedszkolny w Baszni Dolnej",
                "name": "Zesp\u00f3\u0142 Szkolno-Przedszkolny w Baszni Dolnej",
                "addr:postcode": "37-621",
                "addr:city": "Basznia Dolna",
                "addr:street": "Szkolna",
                "addr:housenumber": "24",
                "addr:city:simc": 605890,
                "addr:street:sym_ul": 21970,
                "phone": "+48 166327007",
                "email": "zsp-basznia@lubaczow.com.pl",
                "website": "http:\/\/www.zsbasznia.szkolna.net",
                "ref:regon": "180460710",
                "ref:vatin": "PL7931603738",
                "operator": "Gmina Lubacz\u00f3w",
                "operator:type": "government",
                "landuse": "education",
                "fixme": "amenity=school, amenity=college albo landuse=education w zale\u017cno\u015bci od tego, jakie plac\u00f3wki wchodz\u0105 w sk\u0142ad zespo\u0142u. Sprawd\u017a, kiedy stosowa\u0107 amenity=* a kiedy landuse=education.",
                "note": "Children RSPO: 87960;130617"
            }
        },
        {
            "id": 109074,
            "type": "Feature",
            "geometry": {
                "type": "Point",
                "coordinates": [
                    23.22922,
                    50.17295
                ]
            },
            "properties": {
                "ref:rspo": 109074,
                "official_name": "Szkolne Schronisko M\u0142odzie\u017cowe w Baszni Dolnej",
                "name": "Szkolne Schronisko M\u0142odzie\u017cowe w Baszni Dolnej",
                "addr:postcode": "37-621",
                "addr:city": "Basznia Dolna",
                "addr:street": "Szkolna",
                "addr:housenumber": "24",
                "addr:city:simc": 605890,
                "addr:street:sym_ul": 21970,
                "phone": "+48 166327007",
                "email": "zsp-basznia@lubaczow.com.pl",
                "website": "http:\/\/zsp-basznia.lubaczow.com.pl",
                "ref:regon": "180940120",
                "ref:vatin": "PL7931624999",
                "operator": "Gmina Lubacz\u00f3w",
                "operator:type": "government",
                "tourism": "hostel"
            }
        },
        {
            "id": 87960,
            "type": "Feature",
            "geometry": {
                "type": "Point",
                "coordinates": [
                    23.22922,
                    50.172920000000005
                ]
            },
            "properties": {
                "isced:level": "1;2",
                "ref:rspo": 87960,
                "official_name": "Szko\u0142a Podstawowa im. Wincentego Witosa w Baszni Dolnej",
                "name": "Szko\u0142a Podstawowa",
                "addr:postcode": "37-621",
                "addr:city": "Basznia Dolna",
                "addr:street": "Szkolna",
                "addr:housenumber": "24",
                "addr:city:simc": 605890,
                "addr:street:sym_ul": 21970,
                "phone": "+48 166327007",
                "email": "zsp-basznia@lubaczow.com.pl",
                "ref:regon": "001207677",
                "ref:vatin": "PL7931431757",
                "operator": "Gmina Lubacz\u00f3w",
                "operator:type": "government",
                "amenity": "school",
                "note": "Parent RSPO: 4288"
            }
        },
        {
            "id": 130617,
            "type": "Feature",
            "geometry": {
                "type": "Point",
                "coordinates": [
                    23.22922,
                    50.17289
                ]
            },
            "properties": {
                "ref:rspo": 130617,
                "official_name": "Publiczne Przedszkole w Baszni Dolnej",
                "name": "Publiczne Przedszkole w Baszni Dolnej",
                "addr:postcode": "37-621",
                "addr:city": "Basznia Dolna",
                "addr:street": "Szkolna",
                "addr:housenumber": "24",
                "addr:city:simc": 605890,
                "addr:street:sym_ul": 21970,
                "phone": "+48 166327007",
                "email": "zsp-basznia@lubaczow.com.pl",
                "website": "http:\/\/www.zsbasznia.szkolna.net\/",
                "ref:regon": "364251071",
                "operator": "Gmina Lubacz\u00f3w",
                "operator:type": "government",
                "amenity": "kindergarten",
                "note": "Parent RSPO: 4288"
            }
        },
        {
            "id": 119991,
            "type": "Feature",
            "geometry": {
                "type": "Point",
                "coordinates": [
                    23.17099,
                    50.19948
                ]
            },
            "properties": {
                "isced:level": "1;2",
                "ref:rspo": 119991,
                "official_name": "Spo\u0142eczna Szko\u0142a Podstawowa z Oddzia\u0142em Przedszkolnym w Za\u0142u\u017cu",
                "name": "Spo\u0142eczna Szko\u0142a Podstawowa z Oddzia\u0142em Przedszkolnym w Za\u0142u\u017cu",
                "addr:postcode": "37-600",
                "addr:place": "Za\u0142u\u017ce",
                "addr:housenumber": "213",
                "addr:city:simc": 606464,
                "phone": "+48 163070231",
                "email": "szkola.zaluze@sisggl.pl",
                "website": "http:\/\/www.spzaluze.szkolna.net",
                "ref:regon": "181024201",
                "ref:vatin": "PL7931623942",
                "operator": "Stowarzyszenie Inicjatyw Spo\u0142eczno-Gospodarczych Gminy Lubacz\u00f3w",
                "operator:type": "ngo",
                "amenity": "school"
            }
        }
    ]
}