{
    "type": "FeatureCollection",
    "features": [
        {
            "id": 277441,
            "type": "Feature",
            "geometry": {
                "type": "Point",
                "coordinates": [
                    23.36237,
                    50.18894
                ]
            },
            "properties": {
                "ref:rspo": 277441,
                "official_name": "Zesp\u00f3\u0142 Szk\u00f3\u0142 I Plac\u00f3wek O\u015bwiatowych w Hory\u0144cu-Zdroju",
                "name": "Zesp\u00f3\u0142 Szk\u00f3\u0142 I Plac\u00f3wek O\u015bwiatowych w Hory\u0144cu-Zdroju",
                "addr:country": "PL",
                "addr:postcode": "37-620",
                "addr:city": "Horyniec-Zdr\u00f3j",
                "addr:street": "ul. Jana III Sobieskiego",
                "addr:housenumber": "8",
                "addr:teryt:simc": 20431,
                "addr:teryt:sym_ul": 602816,
                "contact:phone": "+48 166313015",
                "contact:email": "sphoryniec@gmail.com",
                "ref:regon": "388913731",
                "operator": "Gmina Horyniec-Zdr\u00f3j",
                "operator:type": "government",
                "landuse": "education",
                "fixme": "amenity=school, amenity=college albo landuse=education w zale\u017cno\u015bci od tego, jakie plac\u00f3wki wchodz\u0105 w sk\u0142ad zespo\u0142u. Sprawd\u017a, kiedy stosowa\u0107 amenity=* a kiedy landuse=education.",
                "note": "Children RSPO: 42435;42436;52411"
            }
        },
        {
            "id": 42436,
            "type": "Feature",
            "geometry": {
                "type": "Point",
                "coordinates": [
                    23.36237,
                    50.18891
                ]
            },
            "properties": {
                "isced:level": "1;2",
                "ref:rspo": 42436,
                "official_name": "Szko\u0142a Podstawowa im. Marsza\u0142ka J\u00f3zefa Pi\u0142sudskiego w Hory\u0144cu-Zdroju",
                "name": "Szko\u0142a Podstawowa",
                "addr:country": "PL",
                "addr:postcode": "37-620",
                "addr:city": "Horyniec-Zdr\u00f3j",
                "addr:street": "ul. Jana III Sobieskiego",
                "addr:housenumber": "8",
                "addr:teryt:simc": 20431,
                "addr:teryt:sym_ul": 602816,
                "contact:phone": "+48 166313015",
                "contact:email": "sphoryniec@gmail.com",
                "contact:website": "http:\/\/www.sphoryniec.pl",
                "ref:regon": "000663210",
                "ref:vatin": "PL7931430166",
                "operator": "Gmina Horyniec-Zdr\u00f3j",
                "operator:type": "government",
                "amenity": "school",
                "note": "Parent RSPO: 277441"
            }
        },
        {
            "id": 42435,
            "type": "Feature",
            "geometry": {
                "type": "Point",
                "coordinates": [
                    23.36281,
                    50.1897499
                ]
            },
            "properties": {
                "ref:rspo": 42435,
                "official_name": "Przedszkole w Hory\u0144cu-Zdroju",
                "name": "Przedszkole w Hory\u0144cu-Zdroju",
                "addr:country": "PL",
                "addr:postcode": "37-620",
                "addr:city": "Horyniec-Zdr\u00f3j",
                "addr:street": "ul. Jana III Sobieskiego",
                "addr:housenumber": "2a",
                "addr:teryt:simc": 20431,
                "addr:teryt:sym_ul": 602816,
                "contact:phone": "+48 166313103",
                "contact:email": "sphoryniec@gmail.com",
                "contact:website": "https:\/\/sphoryniec.pl",
                "ref:regon": "180899386",
                "operator": "Gmina Horyniec-Zdr\u00f3j",
                "operator:type": "government",
                "amenity": "kindergarten",
                "note": "Parent RSPO: 277441"
            }
        },
        {
            "id": 131245,
            "type": "Feature",
            "geometry": {
                "type": "Point",
                "coordinates": [
                    23.47031,
                    50.2581
                ]
            },
            "properties": {
                "ref:rspo": 131245,
                "official_name": "Punkt Przedszkolny w Werchracie",
                "name": "Punkt Przedszkolny w Werchracie",
                "addr:country": "PL",
                "addr:postcode": "37-622",
                "addr:place": "Werchrata",
                "addr:housenumber": "45",
                "addr:teryt:sym_ul": 602963,
                "contact:phone": "+48 166313015",
                "contact:email": "sphoryniec@gmail.com",
                "contact:website": "https:\/\/sphoryniec.pl",
                "ref:regon": "365059163",
                "operator": "Gmina Horyniec-Zdr\u00f3j",
                "operator:type": "government",
                "amenity": "kindergarten"
            }
        },
        {
            "id": 52411,
            "type": "Feature",
            "geometry": {
                "type": "Point",
                "coordinates": [
                    23.47031,
                    50.25807
                ]
            },
            "properties": {
                "ref:rspo": 52411,
                "official_name": "Szkolne Schronisko M\u0142odzie\u017cowe w Werchracie",
                "name": "Szkolne Schronisko M\u0142odzie\u017cowe w Werchracie",
                "addr:country": "PL",
                "addr:postcode": "37-622",
                "addr:place": "Werchrata",
                "addr:housenumber": "45",
                "addr:teryt:sym_ul": 602963,
                "contact:phone": "+48 166313407",
                "ref:regon": "180900600",
                "operator": "Gmina Horyniec-Zdr\u00f3j",
                "operator:type": "government",
                "tourism": "hostel",
                "note": "Parent RSPO: 277441"
            }
        }
    ]
}