{
    "type": "FeatureCollection",
    "features": [
        {
            "id": 268474,
            "type": "Feature",
            "geometry": {
                "type": "Point",
                "coordinates": [
                    23.1707432,
                    50.0257619
                ]
            },
            "properties": {
                "ref:rspo": 268474,
                "official_name": "Zesp\u00f3\u0142 Szkolno-Przedszkolny w Wielkich Oczach",
                "name": "Zesp\u00f3\u0142 Szkolno-Przedszkolny w Wielkich Oczach",
                "addr:country": "PL",
                "addr:postcode": "37-627",
                "addr:city": "Wielkie Oczy",
                "addr:street": "Le\u015bna",
                "addr:housenumber": "13",
                "addr:teryt:simc": 10898,
                "addr:teryt:sym_ul": 613263,
                "contact:phone": "+48 166310196",
                "contact:email": "zspwo@wp.pl",
                "contact:website": "http:\/\/zspwielkieoczy.szkolna.net",
                "ref:regon": "381192872",
                "ref:vatin": "PL7931629206",
                "operator": "Gmina Wielkie Oczy",
                "operator:type": "government",
                "landuse": "education",
                "fixme": "amenity=school, amenity=college albo landuse=education w zale\u017cno\u015bci od tego, jakie plac\u00f3wki wchodz\u0105 w sk\u0142ad zespo\u0142u. Sprawd\u017a, kiedy stosowa\u0107 amenity=* a kiedy landuse=education.",
                "note": "Children RSPO: 56115;268473"
            }
        },
        {
            "id": 56115,
            "type": "Feature",
            "geometry": {
                "type": "Point",
                "coordinates": [
                    23.1707432,
                    50.0257319
                ]
            },
            "properties": {
                "isced:level": "1;2",
                "ref:rspo": 56115,
                "official_name": "Publiczna Szko\u0142a Podstawowa im.henryka Sienkiewicza",
                "name": "Publiczna Szko\u0142a Podstawowa im.henryka Sienkiewicza",
                "addr:country": "PL",
                "addr:postcode": "37-627",
                "addr:city": "Wielkie Oczy",
                "addr:street": "Le\u015bna",
                "addr:housenumber": "13",
                "addr:teryt:simc": 10898,
                "addr:teryt:sym_ul": 613263,
                "contact:phone": "+48 166310196",
                "contact:email": "zspwo@wp.pl",
                "contact:website": "http:\/\/zspwielkieoczy.szkolna.net",
                "ref:regon": "000663315",
                "ref:vatin": "PL7931527291",
                "operator": "Gmina Wielkie Oczy",
                "operator:type": "government",
                "amenity": "school",
                "note": "Parent RSPO: 268474"
            }
        },
        {
            "id": 268473,
            "type": "Feature",
            "geometry": {
                "type": "Point",
                "coordinates": [
                    23.1707432,
                    50.0257019
                ]
            },
            "properties": {
                "ref:rspo": 268473,
                "official_name": "Przedszkole w Wielkich Oczach",
                "name": "Przedszkole w Wielkich Oczach",
                "addr:country": "PL",
                "addr:postcode": "37-627",
                "addr:city": "Wielkie Oczy",
                "addr:street": "Le\u015bna",
                "addr:housenumber": "13",
                "addr:teryt:simc": 10898,
                "addr:teryt:sym_ul": 613263,
                "contact:phone": "+48 166310196",
                "contact:email": "zspwo@wp.pl",
                "contact:website": "http:\/\/zspwielkieoczy.szkolna.net",
                "ref:regon": "381192837",
                "ref:vatin": "PL7931629198",
                "operator": "Gmina Wielkie Oczy",
                "operator:type": "government",
                "amenity": "kindergarten",
                "note": "Parent RSPO: 268474"
            }
        },
        {
            "id": 56118,
            "type": "Feature",
            "geometry": {
                "type": "Point",
                "coordinates": [
                    23.11352,
                    50.08012
                ]
            },
            "properties": {
                "isced:level": "1;2",
                "ref:rspo": 56118,
                "official_name": "Publiczna Szko\u0142a Podstawowa im.bohater\u00f3w Wrze\u015bnia1939 w \u0141ukawcu",
                "name": "Publiczna Szko\u0142a Podstawowa im.bohater\u00f3w Wrze\u015bnia1939 w \u0141ukawcu",
                "addr:country": "PL",
                "addr:postcode": "37-626",
                "addr:place": "\u0141ukawiec",
                "addr:housenumber": "84",
                "addr:teryt:sym_ul": 613174,
                "contact:phone": "+48 166310406",
                "contact:email": "dar777@op.pl",
                "contact:website": "http:\/\/zslukawiec.pl",
                "ref:regon": "001208317",
                "ref:vatin": "PL7931527285",
                "operator": "Gmina Wielkie Oczy",
                "operator:type": "government",
                "amenity": "school"
            }
        },
        {
            "id": 127020,
            "type": "Feature",
            "geometry": {
                "type": "Point",
                "coordinates": [
                    23.11352,
                    50.08009
                ]
            },
            "properties": {
                "ref:rspo": 127020,
                "official_name": "Punkt Przedszkolny w Publicznej Szkole Podstawowej w \u0141ukawcu",
                "name": "Punkt Przedszkolny w Publicznej Szkole Podstawowej w \u0141ukawcu",
                "addr:country": "PL",
                "addr:postcode": "37-626",
                "addr:place": "\u0141ukawiec",
                "addr:housenumber": "84",
                "addr:teryt:sym_ul": 613174,
                "contact:phone": "+48 166310406",
                "contact:email": "dar777@op.pl",
                "ref:regon": "361031156",
                "operator": "Gmina Wielkie Oczy",
                "operator:type": "government",
                "amenity": "kindergarten"
            }
        }
    ]
}