{
    "type": "FeatureCollection",
    "features": [
        {
            "id": 19497,
            "type": "Feature",
            "geometry": {
                "type": "Point",
                "coordinates": [
                    22.98788,
                    50.14825
                ]
            },
            "properties": {
                "isced:level": "1;2",
                "ref:rspo": 19497,
                "official_name": "Szko\u0142a Podstawowa w Zalesiu",
                "name": "Szko\u0142a Podstawowa w Zalesiu",
                "addr:country": "PL",
                "addr:postcode": "37-630",
                "addr:place": "Zalesie",
                "addr:housenumber": "72",
                "addr:teryt:sym_ul": 607274,
                "contact:phone": "+48 166315136",
                "contact:email": "spzalesie@o2.pl",
                "contact:website": "http:\/\/spzalesie72.edupage.org",
                "ref:regon": "001207878",
                "ref:vatin": "PL7931431119",
                "operator": "Gmina Oleszyce",
                "operator:type": "government",
                "amenity": "school"
            }
        },
        {
            "id": 70661,
            "type": "Feature",
            "geometry": {
                "type": "Point",
                "coordinates": [
                    23.0445319,
                    50.1639627
                ]
            },
            "properties": {
                "ref:rspo": 70661,
                "official_name": "Zesp\u00f3\u0142 Szk\u00f3\u0142 Centrum Kszta\u0142cenia Rolniczego w Oleszycach",
                "name": "Zesp\u00f3\u0142 Szk\u00f3\u0142 Centrum Kszta\u0142cenia Rolniczego w Oleszycach",
                "addr:country": "PL",
                "addr:postcode": "37-630",
                "addr:city": "Oleszyce",
                "addr:street": "ul. Zielona",
                "addr:housenumber": "1",
                "addr:teryt:simc": 26081,
                "addr:teryt:sym_ul": 972507,
                "contact:phone": "+48 166315055",
                "contact:email": "zs@eoleszyce.pl",
                "contact:website": "http:\/\/zs.eoleszyce.pl",
                "ref:regon": "651498616",
                "ref:vatin": "PL7931268079",
                "operator": "Ministerstwo Rolnictwa I Rozwoju Wsi",
                "operator:type": "public",
                "landuse": "education",
                "fixme": "amenity=school, amenity=college albo landuse=education w zale\u017cno\u015bci od tego, jakie plac\u00f3wki wchodz\u0105 w sk\u0142ad zespo\u0142u. Sprawd\u017a, kiedy stosowa\u0107 amenity=* a kiedy landuse=education.",
                "note": "Children RSPO: 90095;90137;278558;278559"
            }
        },
        {
            "id": 274394,
            "type": "Feature",
            "geometry": {
                "type": "Point",
                "coordinates": [
                    23.0445319,
                    50.1639327
                ]
            },
            "properties": {
                "isced:level": "3",
                "ref:rspo": 274394,
                "official_name": "Technikum Nr 1 w Oleszycach",
                "name": "Technikum Nr 1 w Oleszycach",
                "addr:country": "PL",
                "addr:postcode": "37-630",
                "addr:city": "Oleszyce",
                "addr:street": "ul. Zielona",
                "addr:housenumber": "1",
                "addr:teryt:simc": 26081,
                "addr:teryt:sym_ul": 972507,
                "contact:phone": "+48 166315055",
                "contact:email": "m.frant@powiatlubaczowski.pl",
                "ref:regon": "385692229",
                "operator": "Powiat Lubaczowski",
                "operator:type": "government",
                "amenity": "school"
            }
        },
        {
            "id": 274395,
            "type": "Feature",
            "geometry": {
                "type": "Point",
                "coordinates": [
                    23.0445319,
                    50.1639027
                ]
            },
            "properties": {
                "isced:level": "3",
                "ref:rspo": 274395,
                "official_name": "Bran\u017cowa Szko\u0142a I Stopnia Nr 1 w Oleszycach",
                "name": "Bran\u017cowa Szko\u0142a I Stopnia Nr 1 w Oleszycach",
                "addr:country": "PL",
                "addr:postcode": "37-630",
                "addr:city": "Oleszyce",
                "addr:street": "ul. Zielona",
                "addr:housenumber": "1",
                "addr:teryt:simc": 26081,
                "addr:teryt:sym_ul": 972507,
                "contact:phone": "+48 166315055",
                "contact:email": "m.frant@powiatlubaczowski.pl",
                "ref:regon": "385692347",
                "operator": "Powiat Lubaczowski",
                "operator:type": "government",
                "amenity": "school"
            }
        },
        {
            "id": 90095,
            "type": "Feature",
            "geometry": {
                "type": "Point",
                "coordinates": [
                    23.0445319,
                    50.1638727
                ]
            },
            "properties": {
                "isced:level": "3",
                "ref:rspo": 90095,
                "official_name": "Bran\u017cowa Szko\u0142a I Stopnia w Oleszycach",
                "name": "Bran\u017cowa Szko\u0142a I Stopnia w Oleszycach",
                "addr:country": "PL",
                "addr:postcode": "37-630",
                "addr:city": "Oleszyce",
                "addr:street": "ul. Zielona",
                "addr:housenumber": "1",
                "addr:teryt:simc": 26081,
                "addr:teryt:sym_ul": 972507,
                "contact:phone": "+48 166315055",
                "contact:email": "zs@eoleszyce.pl",
                "contact:website": "http:\/\/www.zs.eoleszyce.pl\/",
                "ref:regon": "651424820",
                "ref:vatin": "PL7931268079",
                "operator": "Ministerstwo Rolnictwa I Rozwoju Wsi",
                "operator:type": "public",
                "amenity": "school",
                "note": "Parent RSPO: 70661"
            }
        },
        {
            "id": 90137,
            "type": "Feature",
            "geometry": {
                "type": "Point",
                "coordinates": [
                    23.0445319,
                    50.1638427
                ]
            },
            "properties": {
                "isced:level": "3",
                "ref:rspo": 90137,
                "official_name": "Technikum w Oleszycach",
                "name": "Technikum w Oleszycach",
                "addr:country": "PL",
                "addr:postcode": "37-630",
                "addr:city": "Oleszyce",
                "addr:street": "ul. Zielona",
                "addr:housenumber": "1",
                "addr:teryt:simc": 26081,
                "addr:teryt:sym_ul": 972507,
                "contact:phone": "+48 166315055",
                "contact:email": "zs@eoleszyce.pl",
                "contact:website": "http:\/\/zs.eoleszyce.pl",
                "ref:regon": "651498622",
                "ref:vatin": "PL7931268079",
                "operator": "Ministerstwo Rolnictwa I Rozwoju Wsi",
                "operator:type": "public",
                "amenity": "school",
                "note": "Parent RSPO: 70661"
            }
        },
        {
            "id": 278558,
            "type": "Feature",
            "geometry": {
                "type": "Point",
                "coordinates": [
                    23.0445319,
                    50.1638127
                ]
            },
            "properties": {
                "isced:level": "3",
                "ref:rspo": 278558,
                "official_name": "Bran\u017cowa Szko\u0142a II Stopnia w Oleszycach",
                "name": "Bran\u017cowa Szko\u0142a II Stopnia w Oleszycach",
                "addr:country": "PL",
                "addr:postcode": "37-630",
                "addr:city": "Oleszyce",
                "addr:street": "ul. Zielona",
                "addr:housenumber": "1",
                "addr:teryt:simc": 26081,
                "addr:teryt:sym_ul": 972507,
                "contact:phone": "+48 166315055",
                "contact:email": "zs@eoleszyce.pl",
                "contact:website": "http:\/\/zs.eoleszyce.pl",
                "ref:regon": "389967657",
                "operator": "Ministerstwo Rolnictwa I Rozwoju Wsi",
                "operator:type": "public",
                "amenity": "school",
                "note": "Parent RSPO: 70661"
            }
        },
        {
            "id": 278559,
            "type": "Feature",
            "geometry": {
                "type": "Point",
                "coordinates": [
                    23.0445319,
                    50.1637827
                ]
            },
            "properties": {
                "ref:rspo": 278559,
                "official_name": "Centrum Kszta\u0142cenia Ustawicznego w Oleszycach",
                "name": "Centrum Kszta\u0142cenia Ustawicznego w Oleszycach",
                "addr:country": "PL",
                "addr:postcode": "37-630",
                "addr:city": "Oleszyce",
                "addr:street": "ul. Zielona",
                "addr:housenumber": "1",
                "addr:teryt:simc": 26081,
                "addr:teryt:sym_ul": 972507,
                "contact:phone": "+48 166315055",
                "contact:email": "zs@eoleszyce.pl",
                "contact:website": "http:\/\/zs.eoleszyce.pl",
                "ref:regon": "389967835",
                "operator": "Ministerstwo Rolnictwa I Rozwoju Wsi",
                "operator:type": "public",
                "fixme": "w zale\u017cno\u015bci od przedmiotu dzia\u0142alno\u015bci (np. amenity=training + training=*, amenity=dancing_school, amenity=language_school, amenity=music_school)",
                "note": "Parent RSPO: 70661"
            }
        },
        {
            "id": 273225,
            "type": "Feature",
            "geometry": {
                "type": "Point",
                "coordinates": [
                    23.03932,
                    50.16518
                ]
            },
            "properties": {
                "ref:rspo": 273225,
                "official_name": "O\u015brodek Rehabilitacyjno-Edukacyjno-Wychowawczy w Oleszycach",
                "name": "O\u015brodek Rehabilitacyjno-Edukacyjno-Wychowawczy w Oleszycach",
                "addr:country": "PL",
                "addr:postcode": "37-630",
                "addr:city": "Oleszyce",
                "addr:street": "ul. Zamkowa",
                "addr:housenumber": "61 A",
                "addr:teryt:simc": 25547,
                "addr:teryt:sym_ul": 972507,
                "contact:phone": "+48 166315218",
                "contact:email": "orew.oleszyce@psoni-jaroslaw.org.pl",
                "ref:regon": "384408166",
                "operator": "Polskie Stowarzyszenie Na Rzecz Os\u00f3b Z Niepe\u0142nosprawno\u015bci\u0105 Intelektualn\u0105 Ko\u0142o W Jaros\u0142awiu",
                "operator:type": "ngo",
                "amenity": "school"
            }
        },
        {
            "id": 19498,
            "type": "Feature",
            "geometry": {
                "type": "Point",
                "coordinates": [
                    23.02953,
                    50.1679699
                ]
            },
            "properties": {
                "isced:level": "1;2",
                "ref:rspo": 19498,
                "official_name": "Szko\u0142a Podstawowa im. Jana Paw\u0142a II w Oleszycach",
                "name": "Szko\u0142a Podstawowa",
                "addr:country": "PL",
                "addr:postcode": "37-630",
                "addr:city": "Oleszyce",
                "addr:street": "ul. Adama Mickiewicza",
                "addr:housenumber": "1",
                "addr:teryt:simc": 12740,
                "addr:teryt:sym_ul": 972507,
                "contact:phone": "+48 166315015",
                "contact:email": "sp-oleszyce@wp.pl",
                "contact:website": "http:\/\/www.sp-oleszyce.pl",
                "ref:regon": "000663309",
                "ref:vatin": "PL7931431094",
                "operator": "Gmina Oleszyce",
                "operator:type": "government",
                "amenity": "school"
            }
        },
        {
            "id": 19496,
            "type": "Feature",
            "geometry": {
                "type": "Point",
                "coordinates": [
                    23.02739,
                    50.16869
                ]
            },
            "properties": {
                "ref:rspo": 19496,
                "official_name": "Przedszkole Samorz\u0105dowe w Oleszycach",
                "name": "Przedszkole Samorz\u0105dowe w Oleszycach",
                "addr:country": "PL",
                "addr:postcode": "37-630",
                "addr:city": "Oleszyce",
                "addr:street": "ul. gen. J\u00f3zefa Kustronia",
                "addr:housenumber": "2",
                "addr:teryt:simc": 10495,
                "addr:teryt:sym_ul": 972507,
                "contact:phone": "+48 166315045",
                "contact:email": "przedszkole.oleszyce@interia.pl",
                "ref:regon": "001057108",
                "ref:vatin": "PL7931431326",
                "operator": "Gmina Oleszyce",
                "operator:type": "government",
                "amenity": "kindergarten"
            }
        },
        {
            "id": 19495,
            "type": "Feature",
            "geometry": {
                "type": "Point",
                "coordinates": [
                    23.0013764,
                    50.1718451
                ]
            },
            "properties": {
                "isced:level": "1;2",
                "ref:rspo": 19495,
                "official_name": "Szko\u0142a Podstawowa im. Gen. J\u00f3zefa Kustronia w Starych Oleszycach",
                "name": "Szko\u0142a Podstawowa",
                "addr:country": "PL",
                "addr:postcode": "37-630",
                "addr:city": "Stare Oleszyce",
                "addr:street": "ul. Wiejska",
                "addr:housenumber": "114",
                "addr:door": "B",
                "addr:teryt:simc": 24048,
                "addr:teryt:sym_ul": 607216,
                "contact:phone": "+48 166315016",
                "contact:email": "stoleszyce@poczta.onet.pl",
                "contact:website": "http:\/\/stoleszyce.szkolna.net",
                "ref:regon": "001207861",
                "ref:vatin": "PL7931431088",
                "operator": "Gmina Oleszyce",
                "operator:type": "government",
                "amenity": "school"
            }
        },
        {
            "id": 19499,
            "type": "Feature",
            "geometry": {
                "type": "Point",
                "coordinates": [
                    23.0013764,
                    50.171815099999996
                ]
            },
            "properties": {
                "ref:rspo": 19499,
                "official_name": "Szkolne Schronisko M\u0142odzie\u017cowe w Starych Oleszycach",
                "name": "Szkolne Schronisko M\u0142odzie\u017cowe w Starych Oleszycach",
                "addr:country": "PL",
                "addr:postcode": "37-630",
                "addr:city": "Stare Oleszyce",
                "addr:street": "ul. Wiejska",
                "addr:housenumber": "114",
                "addr:door": "b",
                "addr:teryt:simc": 24048,
                "addr:teryt:sym_ul": 607216,
                "contact:phone": "+48 166315016",
                "contact:email": "stoleszyce@poczta.onet.pl",
                "ref:regon": "180219575",
                "ref:vatin": "PL7931570996",
                "operator": "Gmina Oleszyce",
                "operator:type": "government",
                "tourism": "hostel"
            }
        },
        {
            "id": 19494,
            "type": "Feature",
            "geometry": {
                "type": "Point",
                "coordinates": [
                    23.32491,
                    50.3593
                ]
            },
            "properties": {
                "isced:level": "1;2",
                "ref:rspo": 19494,
                "official_name": "Szko\u0142a Podstawowa w Futorach",
                "name": "Szko\u0142a Podstawowa w Futorach",
                "addr:country": "PL",
                "addr:postcode": "37-630",
                "addr:place": "Futory",
                "addr:housenumber": "47 a",
                "addr:teryt:sym_ul": 607140,
                "contact:phone": "+48 166315001",
                "contact:email": "spfutory@vp.pl",
                "ref:regon": "001207849",
                "ref:vatin": "PL7931431102",
                "operator": "Gmina Oleszyce",
                "operator:type": "government",
                "amenity": "school"
            }
        }
    ]
}