{
    "type": "FeatureCollection",
    "features": [
        {
            "id": 68629,
            "type": "Feature",
            "geometry": {
                "type": "Point",
                "coordinates": [
                    23.18625,
                    50.32183
                ]
            },
            "properties": {
                "ref:rspo": 68629,
                "official_name": "Zesp\u00f3\u0142 Szk\u00f3\u0142 w Rudzie R\u00f3\u017canieckiej",
                "name": "Zesp\u00f3\u0142 Szk\u00f3\u0142 w Rudzie R\u00f3\u017canieckiej",
                "addr:postcode": "37-613",
                "addr:place": "Ruda R\u00f3\u017caniecka",
                "addr:housenumber": "180",
                "addr:teryt:simc": 607050,
                "phone": "+48 166319619",
                "email": "zs_ruda_rozaniecka@wp.pl",
                "website": "http:\/\/www.szkola.ruda-rozaniecka.com",
                "ref:regon": "651554013",
                "ref:vatin": "PL7931529858",
                "operator": "Gmina Narol",
                "operator:type": "government",
                "landuse": "education",
                "fixme": "amenity=school, amenity=college albo landuse=education w zale\u017cno\u015bci od tego, jakie plac\u00f3wki wchodz\u0105 w sk\u0142ad zespo\u0142u. Sprawd\u017a, kiedy stosowa\u0107 amenity=* a kiedy landuse=education.",
                "note": "Children RSPO: 73926;73927;73928"
            }
        },
        {
            "id": 73926,
            "type": "Feature",
            "geometry": {
                "type": "Point",
                "coordinates": [
                    23.18625,
                    50.321799999999996
                ]
            },
            "properties": {
                "isced:level": "1;2",
                "ref:rspo": 73926,
                "official_name": "Szko\u0142a Podstawowa im.kpt.w\u0142adys\u0142awa Wa\u017cnego w Rudzie R\u00f3\u017canieckiej",
                "name": "Szko\u0142a Podstawowa im.kpt.w\u0142adys\u0142awa Wa\u017cnego w Rudzie R\u00f3\u017canieckiej",
                "addr:postcode": "37-613",
                "addr:place": "Ruda R\u00f3\u017caniecka",
                "addr:housenumber": "180",
                "addr:teryt:simc": 607050,
                "phone": "+48 166319619",
                "email": "zs_ruda_rozaniecka@wp.pl",
                "website": "http:\/\/zsrudarozaniecka.pl",
                "ref:regon": "001207826",
                "ref:vatin": "PL7931388234",
                "operator": "Gmina Narol",
                "operator:type": "government",
                "amenity": "school",
                "note": "Parent RSPO: 68629"
            }
        },
        {
            "id": 73927,
            "type": "Feature",
            "geometry": {
                "type": "Point",
                "coordinates": [
                    23.18625,
                    50.32177
                ]
            },
            "properties": {
                "ref:rspo": 73927,
                "official_name": "Przedszkole Samorz\u0105dowe",
                "name": "Przedszkole Samorz\u0105dowe",
                "addr:postcode": "37-613",
                "addr:place": "Ruda R\u00f3\u017caniecka",
                "addr:housenumber": "180",
                "addr:teryt:simc": 607050,
                "phone": "+48 166319619",
                "email": "zs_ruda_rozaniecka@wp.pl",
                "ref:regon": "650235027",
                "ref:vatin": "PL7931607104",
                "operator": "Gmina Narol",
                "operator:type": "government",
                "amenity": "kindergarten",
                "note": "Parent RSPO: 68629"
            }
        },
        {
            "id": 73928,
            "type": "Feature",
            "geometry": {
                "type": "Point",
                "coordinates": [
                    23.18625,
                    50.32174
                ]
            },
            "properties": {
                "ref:rspo": 73928,
                "official_name": "Szkolne Schronisko M\u0142odzie\u017cowe",
                "name": "Szkolne Schronisko M\u0142odzie\u017cowe",
                "addr:postcode": "37-610",
                "addr:place": "Ruda R\u00f3\u017caniecka",
                "addr:housenumber": "180",
                "addr:teryt:simc": 607050,
                "phone": "+48 166319619",
                "ref:regon": "180906494",
                "operator": "Gmina Narol",
                "operator:type": "government",
                "tourism": "hostel",
                "note": "Parent RSPO: 68629"
            }
        },
        {
            "id": 68504,
            "type": "Feature",
            "geometry": {
                "type": "Point",
                "coordinates": [
                    23.3913715,
                    50.332389
                ]
            },
            "properties": {
                "isced:level": "1;2",
                "ref:rspo": 68504,
                "official_name": "Szko\u0142a Podstawowa w \u0141ukawicy",
                "name": "Szko\u0142a Podstawowa w \u0141ukawicy",
                "addr:postcode": "37-610",
                "addr:place": "\u0141ukawica",
                "addr:housenumber": "9",
                "addr:teryt:simc": 606949,
                "phone": "+48 166317075",
                "email": "sekretariat@zslukawica.pl",
                "website": "http:\/\/www.zslukawica.pl",
                "ref:regon": "001207795",
                "ref:vatin": "PL7931430976",
                "operator": "Gmina Narol",
                "operator:type": "government",
                "amenity": "school"
            }
        },
        {
            "id": 61586,
            "type": "Feature",
            "geometry": {
                "type": "Point",
                "coordinates": [
                    23.33329,
                    50.35126
                ]
            },
            "properties": {
                "isced:level": "1;2",
                "ref:rspo": 61586,
                "official_name": "Szko\u0142a Podstawowa im. \u015aw. Brata Alberta w Narolu",
                "name": "Szko\u0142a Podstawowa",
                "addr:postcode": "37-610",
                "addr:city": "Narol",
                "addr:street": "Graniczna",
                "addr:housenumber": "11",
                "addr:teryt:simc": 606984,
                "addr:teryt:sym_ul": 6075,
                "phone": "+48 166317131",
                "email": "szkola@spnarol.pl",
                "website": "http:\/\/www.spnarol.pl",
                "ref:regon": "000737628",
                "ref:vatin": "PL7931430953",
                "operator": "Gmina Narol",
                "operator:type": "government",
                "amenity": "school"
            }
        },
        {
            "id": 70724,
            "type": "Feature",
            "geometry": {
                "type": "Point",
                "coordinates": [
                    23.33329,
                    50.35123
                ]
            },
            "properties": {
                "ref:rspo": 70724,
                "official_name": "Przedszkole Samorz\u0105dowe",
                "name": "Przedszkole Samorz\u0105dowe",
                "addr:postcode": "37-610",
                "addr:city": "Narol",
                "addr:street": "Graniczna",
                "addr:housenumber": "11",
                "addr:teryt:simc": 606984,
                "addr:teryt:sym_ul": 6075,
                "phone": "+48 167324031",
                "email": "przedszkolenarol@op.pl",
                "ref:regon": "650235010",
                "operator": "Gmina Narol",
                "operator:type": "government",
                "amenity": "kindergarten"
            }
        },
        {
            "id": 69455,
            "type": "Feature",
            "geometry": {
                "type": "Point",
                "coordinates": [
                    23.19831,
                    50.37811
                ]
            },
            "properties": {
                "ref:rspo": 69455,
                "official_name": "Szkolne Schronisko M\u0142odzie\u017cowe w Hucie R\u00f3\u017canieckiej",
                "name": "Szkolne Schronisko M\u0142odzie\u017cowe w Hucie R\u00f3\u017canieckiej",
                "addr:postcode": "37-613",
                "addr:place": "Huta R\u00f3\u017caniecka",
                "addr:housenumber": "57",
                "addr:teryt:simc": 606731,
                "phone": "+48 166319614",
                "email": "schronisko_huta@wp.pl",
                "website": "http:\/\/schronisko-huta.cba.pl",
                "ref:regon": "180114681",
                "ref:vatin": "PL7931555324",
                "operator": "Gmina Narol",
                "operator:type": "government",
                "tourism": "hostel"
            }
        }
    ]
}