{
    "type": "FeatureCollection",
    "features": [
        {
            "id": 277952,
            "type": "Feature",
            "geometry": {
                "type": "Point",
                "coordinates": [
                    23.44068,
                    50.7055
                ]
            },
            "properties": {
                "isced:level": "1;2",
                "ref:rspo": 277952,
                "official_name": "Szko\u0142a Podstawowa w Cze\u015bnikach",
                "name": "Szko\u0142a Podstawowa w Cze\u015bnikach",
                "addr:country": "PL",
                "addr:postcode": "22-424",
                "addr:place": "Cze\u015bniki",
                "addr:housenumber": "125",
                "addr:teryt:simc": 897935,
                "contact:phone": "+48 846180147",
                "contact:email": "spczesniki@o2.pl",
                "ref:regon": "389698105",
                "ref:vatin": "PL9223069855",
                "operator": "Gmina Sitno",
                "operator:type": "government",
                "amenity": "school"
            }
        },
        {
            "id": 103722,
            "type": "Feature",
            "geometry": {
                "type": "Point",
                "coordinates": [
                    23.36176,
                    50.7177999
                ]
            },
            "properties": {
                "isced:level": "1;2",
                "ref:rspo": 103722,
                "official_name": "Szko\u0142a Podstawowa im. Marii D\u0105browskiej w Jaros\u0142awcu",
                "name": "Szko\u0142a Podstawowa",
                "addr:country": "PL",
                "addr:postcode": "22-424",
                "addr:place": "Jaros\u0142awiec",
                "addr:housenumber": "190",
                "addr:teryt:simc": 898076,
                "contact:phone": "+48 846112028",
                "contact:email": "jaroslawiecszkola@wp.pl",
                "contact:website": "http:\/\/spjaroslawiec.edupage.org",
                "ref:regon": "000631143",
                "ref:vatin": "PL9222487384",
                "operator": "Gmina Sitno",
                "operator:type": "government",
                "amenity": "school"
            }
        },
        {
            "id": 105001,
            "type": "Feature",
            "geometry": {
                "type": "Point",
                "coordinates": [
                    23.4233699,
                    50.7461
                ]
            },
            "properties": {
                "isced:level": "1;2",
                "ref:rspo": 105001,
                "official_name": "Szko\u0142a Podstawowa im. Stanis\u0142awy Baj w Horyszowie Polskim",
                "name": "Szko\u0142a Podstawowa",
                "addr:country": "PL",
                "addr:postcode": "22-424",
                "addr:place": "Horysz\u00f3w Polski",
                "addr:housenumber": "85",
                "addr:teryt:simc": 898047,
                "contact:phone": "+48 846111104",
                "contact:email": "sp.horyszow.polski@op.pl",
                "contact:website": "http:\/\/www.zskornelowka.szkolnastrona.pl",
                "ref:regon": "061506373",
                "ref:vatin": "PL9222961609",
                "operator": "Stowarzyszenie Rozwoju I Promocji Gminy Sitno I Okolic C.l.",
                "operator:type": "ngo",
                "amenity": "school",
                "note": "Parent RSPO: 105000"
            }
        },
        {
            "id": 263121,
            "type": "Feature",
            "geometry": {
                "type": "Point",
                "coordinates": [
                    23.36598,
                    50.75042
                ]
            },
            "properties": {
                "ref:rspo": 263121,
                "official_name": "Zesp\u00f3\u0142 Szk\u00f3\u0142 w Sitnie",
                "name": "Zesp\u00f3\u0142 Szk\u00f3\u0142 w Sitnie",
                "addr:country": "PL",
                "addr:postcode": "22-424",
                "addr:place": "Sitno",
                "addr:housenumber": "53A",
                "addr:teryt:simc": 898219,
                "contact:phone": "+48 846112410",
                "contact:email": "zespol.sitno@wp.pl",
                "contact:website": "http:\/\/zssitno.szkolna.net",
                "ref:regon": "368108360",
                "operator": "Gmina Sitno",
                "operator:type": "government",
                "landuse": "education",
                "fixme": "amenity=school, amenity=college albo landuse=education w zale\u017cno\u015bci od tego, jakie plac\u00f3wki wchodz\u0105 w sk\u0142ad zespo\u0142u. Sprawd\u017a, kiedy stosowa\u0107 amenity=* a kiedy landuse=education.",
                "note": "Children RSPO: 103720;126820"
            }
        },
        {
            "id": 103720,
            "type": "Feature",
            "geometry": {
                "type": "Point",
                "coordinates": [
                    23.36598,
                    50.750389999999996
                ]
            },
            "properties": {
                "isced:level": "1;2",
                "ref:rspo": 103720,
                "official_name": "Szko\u0142a Podstawowa im. Wandy Pop\u0142awskiej w Sitnie",
                "name": "Szko\u0142a Podstawowa",
                "addr:country": "PL",
                "addr:postcode": "22-424",
                "addr:place": "Sitno",
                "addr:housenumber": "53A",
                "addr:teryt:simc": 898219,
                "contact:phone": "+48 846112410",
                "contact:email": "zespol.sitno@wp.pl",
                "contact:website": "http:\/\/zssitno.szkolna.net\/",
                "ref:regon": "950420465",
                "ref:vatin": "PL9222487349",
                "operator": "Gmina Sitno",
                "operator:type": "government",
                "amenity": "school",
                "note": "Parent RSPO: 263121"
            }
        },
        {
            "id": 126820,
            "type": "Feature",
            "geometry": {
                "type": "Point",
                "coordinates": [
                    23.36598,
                    50.75036
                ]
            },
            "properties": {
                "ref:rspo": 126820,
                "official_name": "Przedszkole Samorz\u0105dowe w Sitnie",
                "name": "Przedszkole Samorz\u0105dowe w Sitnie",
                "addr:country": "PL",
                "addr:postcode": "22-424",
                "addr:place": "Sitno",
                "addr:housenumber": "53a",
                "addr:teryt:simc": 898219,
                "contact:phone": "+48 846112410",
                "ref:regon": "360773789",
                "operator": "Gmina Sitno",
                "operator:type": "government",
                "amenity": "kindergarten",
                "note": "Parent RSPO: 263121"
            }
        },
        {
            "id": 105003,
            "type": "Feature",
            "geometry": {
                "type": "Point",
                "coordinates": [
                    23.37302,
                    50.76262
                ]
            },
            "properties": {
                "isced:level": "1;2",
                "ref:rspo": 105003,
                "official_name": "Szko\u0142a Podstawowa w Kolonii Sitno",
                "name": "Szko\u0142a Podstawowa w Kolonii Sitno",
                "addr:country": "PL",
                "addr:postcode": "22-424",
                "addr:place": "Kolonia Sitno",
                "addr:housenumber": "51",
                "addr:teryt:simc": 898231,
                "contact:phone": "+48 846112322",
                "contact:email": "sp_sitnokol@o2.pl",
                "ref:regon": "061539214",
                "ref:vatin": "PL9223045180",
                "operator": "Stowarzyszenie Rozwoju I Promocji Gminy Sitno I Okolic C.l.",
                "operator:type": "ngo",
                "amenity": "school",
                "note": "Parent RSPO: 105000"
            }
        },
        {
            "id": 105000,
            "type": "Feature",
            "geometry": {
                "type": "Point",
                "coordinates": [
                    23.33954,
                    50.77149
                ]
            },
            "properties": {
                "ref:rspo": 105000,
                "official_name": "Zesp\u00f3\u0142 Szk\u00f3\u0142 w Kornel\u00f3wce",
                "name": "Zesp\u00f3\u0142 Szk\u00f3\u0142 w Kornel\u00f3wce",
                "addr:country": "PL",
                "addr:postcode": "22-424",
                "addr:place": "Kornel\u00f3wka",
                "addr:housenumber": "41",
                "addr:teryt:simc": 898120,
                "contact:phone": "+48 846112317",
                "contact:email": "spkornelowka@o2.pl",
                "ref:regon": "061506396",
                "ref:vatin": "PL9222961609",
                "operator": "Stowarzyszenie Rozwoju I Promocji Gminy Sitno I Okolic C.l.",
                "operator:type": "ngo",
                "landuse": "education",
                "fixme": "amenity=school, amenity=college albo landuse=education w zale\u017cno\u015bci od tego, jakie plac\u00f3wki wchodz\u0105 w sk\u0142ad zespo\u0142u. Sprawd\u017a, kiedy stosowa\u0107 amenity=* a kiedy landuse=education.",
                "note": "Children RSPO: 105001;105003;113523;113525"
            }
        },
        {
            "id": 113523,
            "type": "Feature",
            "geometry": {
                "type": "Point",
                "coordinates": [
                    23.33954,
                    50.77146
                ]
            },
            "properties": {
                "isced:level": "1;2",
                "ref:rspo": 113523,
                "official_name": "Szko\u0142a Podstawowa w Kornel\u00f3wce",
                "name": "Szko\u0142a Podstawowa w Kornel\u00f3wce",
                "addr:country": "PL",
                "addr:postcode": "22-424",
                "addr:place": "Kornel\u00f3wka",
                "addr:housenumber": "41",
                "addr:teryt:simc": 898120,
                "contact:phone": "+48 846112317",
                "contact:email": "spkornelowka@o2.pl",
                "ref:regon": "061544020",
                "ref:vatin": "PL9222961609",
                "operator": "Stowarzyszenie Rozwoju I Promocji Gminy Sitno I Okolic C.l.",
                "operator:type": "ngo",
                "amenity": "school",
                "note": "Parent RSPO: 105000"
            }
        },
        {
            "id": 113525,
            "type": "Feature",
            "geometry": {
                "type": "Point",
                "coordinates": [
                    23.33954,
                    50.77143
                ]
            },
            "properties": {
                "ref:rspo": 113525,
                "official_name": "Niepubliczne Przedszkole w Kornel\u00f3wce",
                "name": "Niepubliczne Przedszkole w Kornel\u00f3wce",
                "addr:country": "PL",
                "addr:postcode": "22-424",
                "addr:place": "Kornel\u00f3wka",
                "addr:housenumber": "41",
                "addr:teryt:simc": 898120,
                "contact:phone": "+48 846112317",
                "ref:regon": "061544037",
                "ref:vatin": "PL9222961609",
                "operator": "Stowarzyszenie Rozwoju I Promocji Gminy Sitno I Okolic C.l.",
                "operator:type": "ngo",
                "amenity": "kindergarten",
                "note": "Parent RSPO: 105000"
            }
        }
    ]
}