{
    "type": "FeatureCollection",
    "features": [
        {
            "id": 106224,
            "type": "Feature",
            "geometry": {
                "type": "Point",
                "coordinates": [
                    23.10858,
                    50.77267
                ]
            },
            "properties": {
                "isced:level": "1;2",
                "ref:rspo": 106224,
                "official_name": "Szko\u0142a Podstawowa im. Dzieci Zamojszczyzny w Z\u0142ojcu",
                "name": "Szko\u0142a Podstawowa",
                "addr:country": "PL",
                "addr:postcode": "22-413",
                "addr:place": "Z\u0142ojec",
                "addr:housenumber": "226",
                "addr:teryt:sym_ul": 896077,
                "contact:phone": "+48 846313434",
                "contact:email": "spzlojec@op.pl",
                "contact:website": "http:\/\/spzlojec.net",
                "ref:regon": "001135736",
                "ref:vatin": "PL9222487289",
                "operator": "Gmina Nielisz",
                "operator:type": "government",
                "amenity": "school"
            }
        },
        {
            "id": 119994,
            "type": "Feature",
            "geometry": {
                "type": "Point",
                "coordinates": [
                    23.0989272,
                    50.8008284
                ]
            },
            "properties": {
                "ref:rspo": 119994,
                "official_name": "Niepubliczne Przedszkole Mali Odkrywcy\nJoanna Blicharska",
                "name": "Niepubliczne Przedszkole Mali Odkrywcy\nJoanna Blicharska",
                "addr:country": "PL",
                "addr:postcode": "22-413",
                "addr:place": "Krzak",
                "addr:housenumber": "91",
                "addr:teryt:sym_ul": 895497,
                "contact:phone": "+48 797635044",
                "contact:email": "biuro@przedszkolemaliodkrywcy.info",
                "contact:website": "http:\/\/przedszkolemaliodkrywcy.info",
                "ref:regon": "061601692",
                "ref:vatin": "PL9222607888",
                "operator": "Dane Do Uzupe\u0142nienia",
                "operator:type": "private",
                "amenity": "kindergarten"
            }
        },
        {
            "id": 104540,
            "type": "Feature",
            "geometry": {
                "type": "Point",
                "coordinates": [
                    23.0422699,
                    50.80511
                ]
            },
            "properties": {
                "isced:level": "1;2",
                "ref:rspo": 104540,
                "official_name": "Szko\u0142a Podstawowa im. Jana Kr\u00f3la w Nieliszu",
                "name": "Szko\u0142a Podstawowa",
                "addr:country": "PL",
                "addr:postcode": "22-413",
                "addr:place": "Nielisz",
                "addr:housenumber": "278",
                "addr:teryt:sym_ul": 895570,
                "contact:phone": "+48 846312703",
                "contact:email": "spnielisz@op.pl",
                "contact:website": "http:\/\/www.spnielisz.edupage.org",
                "ref:regon": "001135854",
                "ref:vatin": "PL9223053570",
                "operator": "Gmina Nielisz",
                "operator:type": "government",
                "amenity": "school"
            }
        }
    ]
}