{
    "type": "FeatureCollection",
    "features": [
        {
            "id": 23327,
            "type": "Feature",
            "geometry": {
                "type": "Point",
                "coordinates": [
                    23.5217316,
                    50.6972093
                ]
            },
            "properties": {
                "isced:level": "1;2",
                "ref:rspo": 23327,
                "official_name": "Szko\u0142a Podstawowa w Niewirkowie",
                "name": "Szko\u0142a Podstawowa w Niewirkowie",
                "addr:postcode": "22-455",
                "addr:place": "Niewirk\u00f3w",
                "addr:housenumber": "157",
                "addr:city:simc": 894753,
                "phone": "+48 846180326",
                "email": "sp_niewirkow@interia.pl",
                "ref:regon": "001135794",
                "ref:vatin": "PL9222999865",
                "operator": "Gmina Mi\u0105czyn",
                "operator:type": "government",
                "amenity": "school"
            }
        },
        {
            "id": 263575,
            "type": "Feature",
            "geometry": {
                "type": "Point",
                "coordinates": [
                    23.58327,
                    50.70768
                ]
            },
            "properties": {
                "ref:rspo": 263575,
                "official_name": "Zesp\u00f3\u0142 Szkolno-Przedszkolny w Kotlicach",
                "name": "Zesp\u00f3\u0142 Szkolno-Przedszkolny w Kotlicach",
                "addr:postcode": "22-455",
                "addr:place": "Kotlice",
                "addr:housenumber": "190",
                "addr:city:simc": 894598,
                "phone": "+48 846610424",
                "email": "sp.kotlice@interia.pl",
                "ref:regon": "368202974",
                "operator": "Gmina Mi\u0105czyn",
                "operator:type": "government",
                "landuse": "education",
                "fixme": "amenity=school, amenity=college albo landuse=education w zale\u017cno\u015bci od tego, jakie plac\u00f3wki wchodz\u0105 w sk\u0142ad zespo\u0142u. Sprawd\u017a, kiedy stosowa\u0107 amenity=* a kiedy landuse=education.",
                "note": "Children RSPO: 23326;263576"
            }
        },
        {
            "id": 23326,
            "type": "Feature",
            "geometry": {
                "type": "Point",
                "coordinates": [
                    23.58327,
                    50.70765
                ]
            },
            "properties": {
                "isced:level": "1;2",
                "ref:rspo": 23326,
                "official_name": "Szko\u0142a Podstawowa w Kotlicach",
                "name": "Szko\u0142a Podstawowa w Kotlicach",
                "addr:postcode": "22-455",
                "addr:place": "Kotlice",
                "addr:housenumber": "190",
                "addr:city:simc": 894598,
                "phone": "+48 846610424",
                "email": "ursgrz451@interia.pl",
                "ref:regon": "001135825",
                "ref:vatin": "PL9222999842",
                "operator": "Gmina Mi\u0105czyn",
                "operator:type": "government",
                "amenity": "school",
                "note": "Parent RSPO: 263575"
            }
        },
        {
            "id": 263576,
            "type": "Feature",
            "geometry": {
                "type": "Point",
                "coordinates": [
                    23.58327,
                    50.707620000000006
                ]
            },
            "properties": {
                "ref:rspo": 263576,
                "official_name": "Publiczne Przedszkole Samorz\u0105dowe w Kotlicach",
                "name": "Publiczne Przedszkole Samorz\u0105dowe w Kotlicach",
                "addr:postcode": "22-455",
                "addr:place": "Kotlice",
                "addr:housenumber": "190",
                "addr:city:simc": 894598,
                "phone": "+48 846610424",
                "email": "sp.kotlice@interia.pl",
                "ref:regon": "368203703",
                "operator": "Gmina Mi\u0105czyn",
                "operator:type": "government",
                "amenity": "kindergarten",
                "note": "Parent RSPO: 263575"
            }
        },
        {
            "id": 23323,
            "type": "Feature",
            "geometry": {
                "type": "Point",
                "coordinates": [
                    23.4992899,
                    50.73718
                ]
            },
            "properties": {
                "isced:level": "1;2",
                "ref:rspo": 23323,
                "official_name": "Szko\u0142a Podstawowa w Mi\u0105czynie",
                "name": "Szko\u0142a Podstawowa w Mi\u0105czynie",
                "addr:postcode": "22-455",
                "addr:place": "Mi\u0105czyn",
                "addr:housenumber": "50A",
                "addr:city:simc": 894693,
                "phone": "+48 846180035",
                "email": "spmiaczyn@interia.pl",
                "website": "http:\/\/www.spmiaczyn.szkolnastrona.pl",
                "ref:regon": "000678009",
                "ref:vatin": "PL9222999871",
                "operator": "Gmina Mi\u0105czyn",
                "operator:type": "government",
                "amenity": "school"
            }
        },
        {
            "id": 112027,
            "type": "Feature",
            "geometry": {
                "type": "Point",
                "coordinates": [
                    23.49962,
                    50.73759
                ]
            },
            "properties": {
                "ref:rspo": 112027,
                "official_name": "Punkt Przedszkolny Przy Szkole Podstawowej w Mi\u0105czynie",
                "name": "Punkt Przedszkolny Przy Szkole Podstawowej w Mi\u0105czynie",
                "addr:postcode": "22-455",
                "addr:place": "Mi\u0105czyn",
                "addr:housenumber": "50",
                "addr:city:simc": 894693,
                "phone": "+48 846180009",
                "email": "spmiaczyn@interia.pl",
                "website": "http:\/\/spmiaczyn.szkolnastrona.pl",
                "ref:regon": "061537818",
                "ref:vatin": "PL9222999871",
                "operator": "Gmina Mi\u0105czyn",
                "operator:type": "government",
                "amenity": "kindergarten"
            }
        },
        {
            "id": 119285,
            "type": "Feature",
            "geometry": {
                "type": "Point",
                "coordinates": [
                    23.5518182,
                    50.7399509
                ]
            },
            "properties": {
                "isced:level": "1;2",
                "ref:rspo": 119285,
                "official_name": "Szko\u0142a Podstawowa w Zawalowie",
                "name": "Szko\u0142a Podstawowa w Zawalowie",
                "addr:postcode": "22-455",
                "addr:place": "Zawal\u00f3w",
                "addr:housenumber": "144",
                "addr:city:simc": 894871,
                "phone": "+48 846180006",
                "email": "sp.zawalow@gmail.com",
                "website": "http:\/\/www.spzawalow.edupage.org",
                "ref:regon": "061597306",
                "operator": "Zawalowskie Stowarzyszenie Promocji I Rozwoju",
                "operator:type": "ngo",
                "amenity": "school"
            }
        },
        {
            "id": 73631,
            "type": "Feature",
            "geometry": {
                "type": "Point",
                "coordinates": [
                    23.62497,
                    50.77925
                ]
            },
            "properties": {
                "isced:level": "1;2",
                "ref:rspo": 73631,
                "official_name": "Publiczna Szko\u0142a Podstawowa im. B\u0142. Ks.z.pisarskiego w Gdeszynie",
                "name": "Publiczna Szko\u0142a Podstawowa",
                "addr:postcode": "22-455",
                "addr:place": "Gdeszyn",
                "addr:housenumber": "139",
                "addr:city:simc": 894523,
                "phone": "+48 846180513",
                "email": "spgdeszyn1@o2.pl",
                "ref:regon": "061491430",
                "ref:vatin": "PL9223045211",
                "operator": "Stowarzyszenie Mi\u0142o\u015bnik\u00f3w Ziemi Gdeszy\u0144skiej",
                "operator:type": "ngo",
                "amenity": "school"
            }
        },
        {
            "id": 85837,
            "type": "Feature",
            "geometry": {
                "type": "Point",
                "coordinates": [
                    23.62497,
                    50.779219999999995
                ]
            },
            "properties": {
                "ref:rspo": 85837,
                "official_name": "Punkt Przedszkolny Przy Publicznej Szkole Podstawowej w Gdeszynie",
                "name": "Punkt Przedszkolny Przy Publicznej Szkole Podstawowej w Gdeszynie",
                "addr:postcode": "22-455",
                "addr:place": "Gdeszyn",
                "addr:housenumber": "139",
                "addr:city:simc": 894523,
                "phone": "+48 846180513",
                "ref:regon": "061487196",
                "ref:vatin": "PL9223045211",
                "operator": "Dane Do Uzupe\u0142nienia",
                "operator:type": "private",
                "amenity": "kindergarten"
            }
        }
    ]
}