{
    "type": "FeatureCollection",
    "features": [
        {
            "id": 75560,
            "type": "Feature",
            "geometry": {
                "type": "Point",
                "coordinates": [
                    22.984,
                    50.69702
                ]
            },
            "properties": {
                "ref:rspo": 75560,
                "official_name": "Pa\u0144stwowa Szko\u0142a Muzyczna I St. im. Karola Namys\u0142owskiego w Szczebrzeszynie",
                "name": "Pa\u0144stwowa Szko\u0142a Muzyczna I St.",
                "addr:postcode": "22-460",
                "addr:city": "Szczebrzeszyn",
                "addr:street": "Zamojska",
                "addr:housenumber": "70c",
                "addr:city:simc": 987934,
                "addr:street:sym_ul": 25557,
                "phone": "+48 845359761",
                "email": "sekretariat@psm.szczebrzeszyn.pl",
                "website": "http:\/\/psmszczebrzeszyn.lbl.pl",
                "ref:regon": "001005577",
                "operator": "Ministerstwo Kultury I Dziedzictwa Narodowego",
                "operator:type": "public",
                "amenity": "music_school"
            }
        },
        {
            "id": 5327,
            "type": "Feature",
            "geometry": {
                "type": "Point",
                "coordinates": [
                    22.98526,
                    50.69719
                ]
            },
            "properties": {
                "ref:rspo": 5327,
                "official_name": "Zesp\u00f3\u0142 Szk\u00f3\u0142 Nr 2 im. Dr Z. Klukowskiego w Szczebrzeszynie",
                "name": "Zesp\u00f3\u0142 Szk\u00f3\u0142 Nr 2",
                "addr:postcode": "22-460",
                "addr:city": "Szczebrzeszyn",
                "addr:street": "Zamojska",
                "addr:housenumber": "70",
                "addr:door": "1",
                "addr:city:simc": 987934,
                "addr:street:sym_ul": 25557,
                "phone": "+48 846821024",
                "email": "zszszcz@poczta.onet.pl",
                "website": "http:\/\/www.zs2szcz.pl",
                "ref:regon": "951151748",
                "ref:vatin": "PL9222687002",
                "operator": "Powiat Zamojski",
                "operator:type": "government",
                "landuse": "education",
                "fixme": "amenity=school, amenity=college albo landuse=education w zale\u017cno\u015bci od tego, jakie plac\u00f3wki wchodz\u0105 w sk\u0142ad zespo\u0142u. Sprawd\u017a, kiedy stosowa\u0107 amenity=* a kiedy landuse=education.",
                "note": "Children RSPO: 11173;41903;42002;42017;127857"
            }
        },
        {
            "id": 11173,
            "type": "Feature",
            "geometry": {
                "type": "Point",
                "coordinates": [
                    22.98526,
                    50.69716
                ]
            },
            "properties": {
                "isced:level": "3",
                "ref:rspo": 11173,
                "official_name": "Liceum Og\u00f3lnokszta\u0142c\u0105ce im. Zamoyskich w Szczebrzeszynie",
                "name": "Liceum Og\u00f3lnokszta\u0142c\u0105ce",
                "addr:postcode": "22-460",
                "addr:city": "Szczebrzeszyn",
                "addr:street": "Zamojska",
                "addr:housenumber": "70",
                "addr:door": "1",
                "addr:city:simc": 987934,
                "addr:street:sym_ul": 25557,
                "phone": "+48 846821024",
                "email": "zszszcz@poczta.onet.pl",
                "ref:regon": "951153167",
                "ref:vatin": "PL9221070216",
                "operator": "Powiat Zamojski",
                "operator:type": "government",
                "amenity": "school",
                "note": "Parent RSPO: 5327"
            }
        },
        {
            "id": 42002,
            "type": "Feature",
            "geometry": {
                "type": "Point",
                "coordinates": [
                    22.98526,
                    50.69713
                ]
            },
            "properties": {
                "isced:level": "3",
                "ref:rspo": 42002,
                "official_name": "Bran\u017cowa Szko\u0142a I Stopnia",
                "name": "Bran\u017cowa Szko\u0142a I Stopnia",
                "addr:postcode": "22-460",
                "addr:city": "Szczebrzeszyn",
                "addr:street": "Zamojska",
                "addr:housenumber": "70",
                "addr:city:simc": 987934,
                "addr:street:sym_ul": 25557,
                "phone": "+48 846821024",
                "email": "zszszcz@poczta.onet.pl",
                "ref:regon": "000199071",
                "ref:vatin": "PL9221070682",
                "operator": "Powiat Zamojski",
                "operator:type": "government",
                "amenity": "school",
                "note": "Parent RSPO: 5327"
            }
        },
        {
            "id": 42017,
            "type": "Feature",
            "geometry": {
                "type": "Point",
                "coordinates": [
                    22.98526,
                    50.6971
                ]
            },
            "properties": {
                "isced:level": "3",
                "ref:rspo": 42017,
                "official_name": "Liceum Og\u00f3lnokszta\u0142c\u0105ce dla Doros\u0142ych w Szczebrzeszynie",
                "name": "Liceum Og\u00f3lnokszta\u0142c\u0105ce dla Doros\u0142ych w Szczebrzeszynie",
                "addr:postcode": "22-460",
                "addr:city": "Szczebrzeszyn",
                "addr:street": "Zamojska",
                "addr:housenumber": "70",
                "addr:city:simc": 987934,
                "addr:street:sym_ul": 25557,
                "phone": "+48 846821024",
                "email": "zszszcz@poczta.onet.pl",
                "ref:regon": "061474383",
                "ref:vatin": "PL9222687002",
                "operator": "Powiat Zamojski",
                "operator:type": "government",
                "amenity": "school",
                "note": "Parent RSPO: 5327"
            }
        },
        {
            "id": 127857,
            "type": "Feature",
            "geometry": {
                "type": "Point",
                "coordinates": [
                    22.98526,
                    50.69707
                ]
            },
            "properties": {
                "isced:level": "3",
                "ref:rspo": 127857,
                "official_name": "Technikum",
                "name": "Technikum",
                "addr:postcode": "22-460",
                "addr:city": "Szczebrzeszyn",
                "addr:street": "Zamojska",
                "addr:housenumber": "70",
                "addr:door": "1",
                "addr:city:simc": 987934,
                "addr:street:sym_ul": 25557,
                "phone": "+48 846821024",
                "email": "zszszcz@poczta.onet.pl",
                "ref:regon": "361942969",
                "operator": "Powiat Zamojski",
                "operator:type": "government",
                "amenity": "school",
                "note": "Parent RSPO: 5327"
            }
        },
        {
            "id": 267804,
            "type": "Feature",
            "geometry": {
                "type": "Point",
                "coordinates": [
                    22.97749,
                    50.69769
                ]
            },
            "properties": {
                "ref:rspo": 267804,
                "official_name": "Przedszkole Niepubliczne Akademia Malucha",
                "name": "Przedszkole Niepubliczne Akademia Malucha",
                "addr:postcode": "22-460",
                "addr:city": "Szczebrzeszyn",
                "addr:street": "Ogrodowa",
                "addr:housenumber": "3",
                "addr:city:simc": 987934,
                "addr:street:sym_ul": 14834,
                "phone": "+48 731595407",
                "email": "akademia.malucha@onet.pl",
                "ref:regon": "380705335",
                "operator": "Malwina Bachta",
                "operator:type": "private",
                "amenity": "kindergarten"
            }
        },
        {
            "id": 41903,
            "type": "Feature",
            "geometry": {
                "type": "Point",
                "coordinates": [
                    22.97876,
                    50.69983
                ]
            },
            "properties": {
                "ref:rspo": 41903,
                "official_name": "Szkolne Schronisko M\u0142odzie\u017cowe",
                "name": "Szkolne Schronisko M\u0142odzie\u017cowe",
                "addr:postcode": "22-460",
                "addr:city": "Szczebrzeszyn",
                "addr:street": "Ogrodowa",
                "addr:housenumber": "14",
                "addr:door": "1",
                "addr:city:simc": 987934,
                "addr:street:sym_ul": 14834,
                "phone": "+48 846821024",
                "email": "zszszcz@poczta.onet.pl",
                "ref:regon": "061474348",
                "ref:vatin": "PL9221070216",
                "operator": "Powiat Zamojski",
                "operator:type": "government",
                "tourism": "hostel",
                "note": "Parent RSPO: 5327"
            }
        },
        {
            "id": 84019,
            "type": "Feature",
            "geometry": {
                "type": "Point",
                "coordinates": [
                    22.97947,
                    50.70001
                ]
            },
            "properties": {
                "isced:level": "1;2",
                "ref:rspo": 84019,
                "official_name": "Szko\u0142a Podstawowa Nr 1 im. Henryka Sienkiewicza w Szczebrzeszynie",
                "name": "Szko\u0142a Podstawowa Nr 1",
                "addr:postcode": "22-460",
                "addr:city": "Szczebrzeszyn",
                "addr:street": "Ogrodowa",
                "addr:housenumber": "16",
                "addr:city:simc": 987934,
                "addr:street:sym_ul": 14834,
                "phone": "+48 846821106",
                "email": "sp1.hs@interia.eu",
                "website": "http:\/\/sp1szczebrzeszyn.pl\/",
                "ref:regon": "000569645",
                "ref:vatin": "PL9222428565",
                "operator": "Gmina Szczebrzeszyn",
                "operator:type": "government",
                "amenity": "school"
            }
        },
        {
            "id": 84023,
            "type": "Feature",
            "geometry": {
                "type": "Point",
                "coordinates": [
                    22.98007,
                    50.70022
                ]
            },
            "properties": {
                "ref:rspo": 84023,
                "official_name": "Przedszkole Samorz\u0105dowe w Szczebrzeszynie",
                "name": "Przedszkole Samorz\u0105dowe w Szczebrzeszynie",
                "addr:postcode": "22-460",
                "addr:city": "Szczebrzeszyn",
                "addr:street": "Tr\u0119backa",
                "addr:housenumber": "25",
                "addr:city:simc": 987934,
                "addr:street:sym_ul": 22988,
                "phone": "+48 846821038",
                "email": "przedszkole.szczebrzeszyn@gmail.com",
                "website": "http:\/\/przedszkole.szczebrzeszyn.pl",
                "ref:regon": "060446315",
                "ref:vatin": "PL9222975391",
                "operator": "Gmina Szczebrzeszyn",
                "operator:type": "government",
                "amenity": "kindergarten"
            }
        },
        {
            "id": 84018,
            "type": "Feature",
            "geometry": {
                "type": "Point",
                "coordinates": [
                    23.07252,
                    50.70781
                ]
            },
            "properties": {
                "isced:level": "1;2",
                "ref:rspo": 84018,
                "official_name": "Szko\u0142a Podstawowa im. Stanis\u0142awa Staszica w Niedzieliskach",
                "name": "Szko\u0142a Podstawowa",
                "addr:postcode": "22-460",
                "addr:place": "Niedzieliska",
                "addr:housenumber": "111",
                "addr:city:simc": 900784,
                "phone": "+48 846273622",
                "email": "spn@onet.eu",
                "ref:regon": "061492079",
                "operator": "Stowarzyszenie O\u015bwiatowe W Niedzieliskach",
                "operator:type": "ngo",
                "amenity": "school"
            }
        },
        {
            "id": 84025,
            "type": "Feature",
            "geometry": {
                "type": "Point",
                "coordinates": [
                    23.00687,
                    50.71312
                ]
            },
            "properties": {
                "isced:level": "1;2",
                "ref:rspo": 84025,
                "official_name": "Szko\u0142a Podstawowa Nr 3 im. R\u00f3\u017cy Zamoyskiej w Szczebrzeszynie",
                "name": "Szko\u0142a Podstawowa Nr 3",
                "addr:postcode": "22-460",
                "addr:city": "Szczebrzeszyn",
                "addr:street": "Zamojska",
                "addr:housenumber": "189",
                "addr:city:simc": 987934,
                "addr:street:sym_ul": 25557,
                "phone": "+48 846821052",
                "email": "spszcz3@vp.pl",
                "website": "http:\/\/sp3szczebrzeszyn.edupage.org",
                "ref:regon": "061492085",
                "operator": "Stowarzyszenie O\u015bwiatowe \"Klemens\u00f3w\" W Szczebrzeszynie",
                "operator:type": "ngo",
                "amenity": "school"
            }
        },
        {
            "id": 84020,
            "type": "Feature",
            "geometry": {
                "type": "Point",
                "coordinates": [
                    23.02854,
                    50.7171
                ]
            },
            "properties": {
                "isced:level": "1;2",
                "ref:rspo": 84020,
                "official_name": "Szko\u0142a Podstawowa im. Marii Konopnickiej w Bodaczowie",
                "name": "Szko\u0142a Podstawowa",
                "addr:postcode": "22-460",
                "addr:place": "Bodacz\u00f3w",
                "addr:housenumber": "501",
                "addr:city:simc": 900577,
                "phone": "+48 846821626",
                "email": "sp.bodaczow@wp.pl",
                "website": "http:\/\/www.szkolapodstawowawbodaczowie.edupage.org",
                "ref:regon": "001133772",
                "ref:vatin": "PL9222428654",
                "operator": "Gmina Szczebrzeszyn",
                "operator:type": "government",
                "amenity": "school"
            }
        },
        {
            "id": 84024,
            "type": "Feature",
            "geometry": {
                "type": "Point",
                "coordinates": [
                    23.0255699,
                    50.71746
                ]
            },
            "properties": {
                "ref:rspo": 84024,
                "official_name": "Przedszkole Samorz\u0105dowe w Bodaczowie",
                "name": "Przedszkole Samorz\u0105dowe w Bodaczowie",
                "addr:postcode": "22-460",
                "addr:place": "Bodacz\u00f3w",
                "addr:housenumber": "224a",
                "addr:city:simc": 900577,
                "phone": "+48 846821634",
                "email": "przedszkole.bodaczow@op.pl",
                "website": "http:\/\/przedszkolebodaczow.edupage.org",
                "ref:regon": "060446321",
                "ref:vatin": "PL9222975385",
                "operator": "Gmina Szczebrzeszyn",
                "operator:type": "government",
                "amenity": "kindergarten"
            }
        },
        {
            "id": 84021,
            "type": "Feature",
            "geometry": {
                "type": "Point",
                "coordinates": [
                    23.08284,
                    50.71995
                ]
            },
            "properties": {
                "isced:level": "1;2",
                "ref:rspo": 84021,
                "official_name": "Szko\u0142a Podstawowa w Wiel\u0105czy",
                "name": "Szko\u0142a Podstawowa w Wiel\u0105czy",
                "addr:postcode": "22-460",
                "addr:place": "Wiel\u0105cza Poduchowna",
                "addr:housenumber": "53",
                "addr:city:simc": 900927,
                "phone": "+48 846168006",
                "email": "szkolawie@wp.pl",
                "website": "http:\/\/spwielacza.pl",
                "ref:regon": "001133795",
                "ref:vatin": "PL9222428447",
                "operator": "Gmina Szczebrzeszyn",
                "operator:type": "government",
                "amenity": "school"
            }
        },
        {
            "id": 67813,
            "type": "Feature",
            "geometry": {
                "type": "Point",
                "coordinates": [
                    23.07321,
                    50.74588
                ]
            },
            "properties": {
                "isced:level": "1;2",
                "ref:rspo": 67813,
                "official_name": "Szko\u0142a Podstawowa im. Juliana Tuwima w Wiel\u0105czy Kolonii",
                "name": "Szko\u0142a Podstawowa",
                "addr:postcode": "22-460",
                "addr:place": "Wiel\u0105cza-Kolonia",
                "addr:housenumber": "97",
                "addr:city:simc": 900896,
                "phone": "+48 846168026",
                "email": "sp_wiel_kol@wp.pl",
                "website": "http:\/\/spwielkol.pl",
                "ref:regon": "061489924",
                "operator": "Stowarzyszenie O\u015bwiatowe W Wiel\u0105czy Kolonii",
                "operator:type": "ngo",
                "amenity": "school"
            }
        }
    ]
}