{"type":"FeatureCollection","features":[{"id":34589,"type":"Feature","geometry":{"type":"Point","coordinates":[23.12074,50.63828]},"properties":{"isced:level":"1;2","ref:rspo":34589,"official_name":"Szko\u0142a Podstawowa im.batalion\u00f3w Ch\u0142opskich w W\u00f3lce Wieprzeckiej","name":"Szko\u0142a Podstawowa im.batalion\u00f3w Ch\u0142opskich w W\u00f3lce Wieprzeckiej","addr:country":"PL","addr:postcode":"22-470","addr:place":"W\u00f3lka Wieprzecka","addr:housenumber":"57","addr:teryt:sym_ul":906752,"contact:phone":"+48 846713556","contact:email":"spwolkawieprzecka@gmail.com","contact:website":"http:\/\/www.spwolkawieprzecka.szkolnastrona.pl","ref:regon":"001156804","ref:vatin":"PL9222424998","operator":"Gmina Zamo\u015b\u0107","operator:type":"government","amenity":"school"}},{"id":11393,"type":"Feature","geometry":{"type":"Point","coordinates":[23.26033,50.6541799]},"properties":{"isced:level":"1;2","ref:rspo":11393,"official_name":"Szko\u0142a Podstawowa w Bia\u0142owoli","name":"Szko\u0142a Podstawowa w Bia\u0142owoli","addr:country":"PL","addr:postcode":"22-400","addr:place":"Bia\u0142owola","addr:housenumber":"20","addr:teryt:sym_ul":905959,"contact:phone":"+48 846713812","contact:email":"spbialowola@op.pl","contact:website":"http:\/\/www.spbialowola.szkolnastrona.pl","ref:regon":"061456942","ref:vatin":"PL9222424969","operator":"Stowarzyszenie Rozwoju Lokalnego \"Dobra Szko\u0142a\"","operator:type":"ngo","amenity":"school"}},{"id":11391,"type":"Feature","geometry":{"type":"Point","coordinates":[23.22157,50.65726]},"properties":{"isced:level":"1;2","ref:rspo":11391,"official_name":"Szko\u0142a Podstawowa w Lipsku","name":"Szko\u0142a Podstawowa w Lipsku","addr:country":"PL","addr:postcode":"22-400","addr:place":"Lipsko","addr:housenumber":"126","addr:teryt:sym_ul":906195,"contact:phone":"+48 846713833","contact:email":"splipsko126@gmail.com","contact:website":"http:\/\/splipsko.szkolnastrona.pl","ref:regon":"061456847","ref:vatin":"PL9222424946","operator":"Stowarzyszenie Rozwoju Lokalnego \"Dobra Szko\u0142a\"","operator:type":"ngo","amenity":"school"}},{"id":11392,"type":"Feature","geometry":{"type":"Point","coordinates":[23.29921,50.67617]},"properties":{"isced:level":"1;2","ref:rspo":11392,"official_name":"Szko\u0142a Podstawowa w Pni\u00f3wku","name":"Szko\u0142a Podstawowa w Pni\u00f3wku","addr:country":"PL","addr:postcode":"22-400","addr:place":"Pni\u00f3wek","addr:housenumber":"133","addr:teryt:sym_ul":906410,"contact:phone":"+48 845431212","contact:email":"sp_pniowek@onet.eu","ref:regon":"061456907","ref:vatin":"PL9222424900","operator":"Stowarzyszenie Rozwoju Lokalnego \"Dobra Szko\u0142a\"","operator:type":"ngo","amenity":"school"}},{"id":74663,"type":"Feature","geometry":{"type":"Point","coordinates":[23.21566,50.68548]},"properties":{"isced:level":"1;2","ref:rspo":74663,"official_name":"Szko\u0142a Podstawowa im.marsza\u0142ka J\u00f3zefa Pi\u0142sudskiego w \u017bdanowie","name":"Szko\u0142a Podstawowa im.marsza\u0142ka J\u00f3zefa Pi\u0142sudskiego w \u017bdanowie","addr:country":"PL","addr:postcode":"22-400","addr:place":"\u017bdan\u00f3w","addr:housenumber":"124","addr:teryt:sym_ul":906930,"contact:phone":"+48 846115213","contact:email":"zszdanow@gmail.com","ref:regon":"001224693","ref:vatin":"PL9222577259","operator":"Gmina Zamo\u015b\u0107","operator:type":"government","amenity":"school"}},{"id":34497,"type":"Feature","geometry":{"type":"Point","coordinates":[23.19647,50.68726]},"properties":{"isced:level":"1;2","ref:rspo":34497,"official_name":"Szko\u0142a Podstawowa w Mokrem","name":"Szko\u0142a Podstawowa w Mokrem","addr:country":"PL","addr:postcode":"22-400","addr:place":"Mokre","addr:housenumber":"303","addr:teryt:sym_ul":906315,"contact:phone":"+48 846411577","contact:email":"sp-mokre@wp.pl","contact:website":"http:\/\/www.spmokre.pl","ref:regon":"001156856","ref:vatin":"PL9222424917","operator":"Gmina Zamo\u015b\u0107","operator:type":"government","amenity":"school"}},{"id":34464,"type":"Feature","geometry":{"type":"Point","coordinates":[23.29409,50.70056]},"properties":{"ref:rspo":34464,"official_name":"Zesp\u00f3\u0142 Szko\u0142y Podstawowej I Przedszkola w Kalinowicach","name":"Zesp\u00f3\u0142 Szko\u0142y Podstawowej I Przedszkola w Kalinowicach","addr:country":"PL","addr:postcode":"22-400","addr:place":"Kalinowice","addr:housenumber":"148A","addr:teryt:sym_ul":906143,"contact:phone":"+48 846167017","contact:email":"zspipkalinowice@gmail.com","contact:website":"http:\/\/www.zsppkalinowice.szkolnastrona.pl","ref:regon":"951197348","ref:vatin":"PL9222623048","operator":"Gmina Zamo\u015b\u0107","operator:type":"government","landuse":"education","fixme":"amenity=school, amenity=college albo landuse=education w zale\u017cno\u015bci od tego, jakie plac\u00f3wki wchodz\u0105 w sk\u0142ad zespo\u0142u. Sprawd\u017a, kiedy stosowa\u0107 amenity=* a kiedy landuse=education.","note":"Children RSPO: 80336;80337"}},{"id":80336,"type":"Feature","geometry":{"type":"Point","coordinates":[23.29409,50.70053]},"properties":{"isced:level":"1;2","ref:rspo":80336,"official_name":"Szko\u0142a Podstawowa w Kalinowicach","name":"Szko\u0142a Podstawowa w Kalinowicach","addr:country":"PL","addr:postcode":"22-400","addr:place":"Kalinowice","addr:housenumber":"148A","addr:teryt:sym_ul":906143,"contact:phone":"+48 846167017","contact:email":"zspipkalinowice@gmail.com","contact:website":"http:\/\/www.zsppkalinowice.szkolnastrona.pl","ref:regon":"951197383","operator":"Gmina Zamo\u015b\u0107","operator:type":"government","amenity":"school","note":"Parent RSPO: 34464"}},{"id":80337,"type":"Feature","geometry":{"type":"Point","coordinates":[23.29409,50.700500000000005]},"properties":{"ref:rspo":80337,"official_name":"Przedszkole w Kalinowicach","name":"Przedszkole w Kalinowicach","addr:country":"PL","addr:postcode":"22-400","addr:place":"Kalinowice","addr:housenumber":"148A","addr:teryt:sym_ul":906143,"contact:phone":"+48 846167017","contact:email":"zspipkalinowice@gmail.com","contact:website":"http:\/\/zsppkalinowice.szkolnastrona.pl","ref:regon":"951197408","ref:vatin":"PL9222425012","operator":"Gmina Zamo\u015b\u0107","operator:type":"government","amenity":"kindergarten","note":"Parent RSPO: 34464"}},{"id":80313,"type":"Feature","geometry":{"type":"Point","coordinates":[23.18597,50.7142]},"properties":{"isced:level":"1;2","ref:rspo":80313,"official_name":"Szko\u0142a Podstawowa im.papie\u017ca Jana Paw\u0142a II w P\u0142oskiem","name":"Szko\u0142a Podstawowa im.papie\u017ca Jana Paw\u0142a II w P\u0142oskiem","addr:country":"PL","addr:postcode":"22-400","addr:place":"P\u0142oskie","addr:housenumber":"139","addr:teryt:sym_ul":906338,"contact:phone":"+48 846412221","contact:email":"zsploskie@tlen.pl","contact:website":"http:\/\/www.spploskie.edupage.org","ref:regon":"001158520","ref:vatin":"PL9222577242","operator":"Gmina Zamo\u015b\u0107","operator:type":"government","amenity":"school"}},{"id":121999,"type":"Feature","geometry":{"type":"Point","coordinates":[23.31799,50.7164]},"properties":{"ref:rspo":121999,"official_name":"Niepubliczne Przedszkole \"Czerwony Koralik\"","name":"Niepubliczne Przedszkole \"Czerwony Koralik\"","addr:country":"PL","addr:postcode":"22-400","addr:place":"Szopinek","addr:housenumber":"82C","addr:teryt:sym_ul":906657,"contact:phone":"+48 511111252","contact:email":"czerwonykoralik@onet.pl","contact:website":"http:\/\/www.czerwonykoralik.com","ref:regon":"061650704","ref:vatin":"PL9190004921","operator":"\"Przysz\u0142o\u015b\u0107\" S.c. Henryk Zirebiec I Robert Zirebiec","operator:type":"consortium","amenity":"kindergarten"}},{"id":34607,"type":"Feature","geometry":{"type":"Point","coordinates":[23.12619,50.72169]},"properties":{"isced:level":"1;2","ref:rspo":34607,"official_name":"Szko\u0142a Podstawowa im.marii Konopnickiej w Zawadzie","name":"Szko\u0142a Podstawowa im.marii Konopnickiej w Zawadzie","addr:country":"PL","addr:postcode":"22-400","addr:place":"Zawada","addr:housenumber":"46","addr:teryt:sym_ul":906870,"contact:phone":"+48 846168024","contact:email":"zawadasp@o2.pl","contact:website":"http:\/\/szkolazawada.edupage.org","ref:regon":"001156827","ref:vatin":"PL9222425064","operator":"Gmina Zamo\u015b\u0107","operator:type":"government","amenity":"school"}},{"id":55085,"type":"Feature","geometry":{"type":"Point","coordinates":[23.23289,50.74824]},"properties":{"ref:rspo":55085,"official_name":"Niepubliczne Przedszkole \"Urwis\"","name":"Niepubliczne Przedszkole \"Urwis\"","addr:country":"PL","addr:postcode":"22-400","addr:place":"Sitaniec","addr:housenumber":"112","addr:teryt:sym_ul":906568,"contact:phone":"+48 783964020","contact:email":"urwis.sitaniec112@wp.pl","contact:website":"http:\/\/urwis-sitaniec.pl","ref:regon":"061486015","ref:vatin":"PL7161158112","operator":"Ma\u0142gorzata Lejb","operator:type":"private","amenity":"kindergarten"}},{"id":80326,"type":"Feature","geometry":{"type":"Point","coordinates":[23.23369,50.76109]},"properties":{"isced:level":"1;2","ref:rspo":80326,"official_name":"Szko\u0142a Podstawowa im.dzieci Zamojszczyzny w Sita\u0144cu","name":"Szko\u0142a Podstawowa im.dzieci Zamojszczyzny w Sita\u0144cu","addr:country":"PL","addr:postcode":"22-400","addr:place":"Sitaniec","addr:housenumber":"422","addr:teryt:sym_ul":906568,"contact:phone":"+48 846166210","contact:email":"zssitaniec@wp.pl","contact:website":"http:\/\/zssitaniec.szkolnastrona.pl","ref:regon":"001156862","ref:vatin":"PL9222577265","operator":"Gmina Zamo\u015b\u0107","operator:type":"government","amenity":"school"}},{"id":80308,"type":"Feature","geometry":{"type":"Point","coordinates":[23.20833,50.7617199]},"properties":{"isced:level":"1;2","ref:rspo":80308,"official_name":"Szko\u0142a Podstawowa im.edwarda Kasprzysiaka w Wysokiem","name":"Szko\u0142a Podstawowa im.edwarda Kasprzysiaka w Wysokiem","addr:country":"PL","addr:postcode":"22-400","addr:place":"Wysokie","addr:housenumber":"133","addr:teryt:sym_ul":906812,"contact:phone":"+48 846278690","contact:email":"zswysokie1916@o2.pl","contact:website":"http:\/\/spwysokie.szkolnastrona.pl","ref:regon":"001158536","ref:vatin":"PL9222577236","operator":"Gmina Zamo\u015b\u0107","operator:type":"government","amenity":"school"}},{"id":34481,"type":"Feature","geometry":{"type":"Point","coordinates":[23.29024,50.76894]},"properties":{"isced:level":"1;2","ref:rspo":34481,"official_name":"Szko\u0142a Podstawowa im.ks.jana Twardowskiego w Borowinie Sitanieckiej","name":"Szko\u0142a Podstawowa im.ks.jana Twardowskiego w Borowinie Sitanieckiej","addr:country":"PL","addr:postcode":"22-400","addr:place":"Borowina Sitaniecka","addr:housenumber":"49","addr:teryt:sym_ul":905994,"contact:phone":"+48 846166908","contact:email":"kptako@wp.pl","contact:website":"http:\/\/www.spborowina.pl","ref:regon":"001158542","ref:vatin":"PL9222424952","operator":"Gmina Zamo\u015b\u0107","operator:type":"government","amenity":"school"}}]}