{
    "type": "FeatureCollection",
    "features": [
        {
            "id": 80787,
            "type": "Feature",
            "geometry": {
                "type": "Point",
                "coordinates": [
                    23.01417,
                    50.72665
                ]
            },
            "properties": {
                "isced:level": "1;2",
                "ref:rspo": 80787,
                "official_name": "Szko\u0142a Podstawowa im. \u015aw. Jana Paw\u0142a II w Michalowie",
                "name": "Szko\u0142a Podstawowa",
                "addr:postcode": "22-448",
                "addr:city": "Michal\u00f3w",
                "addr:street": "Osiedlowa",
                "addr:housenumber": "11",
                "addr:teryt:simc": 899673,
                "addr:teryt:sym_ul": 15300,
                "phone": "+48 846821596",
                "email": "skolka@poczta.onet.pl",
                "website": "http:\/\/zs.michalow.edupage.eu",
                "ref:regon": "001136405",
                "ref:vatin": "PL9223001231",
                "operator": "Gmina Su\u0142\u00f3w",
                "operator:type": "government",
                "amenity": "school"
            }
        },
        {
            "id": 81179,
            "type": "Feature",
            "geometry": {
                "type": "Point",
                "coordinates": [
                    22.95848,
                    50.77042
                ]
            },
            "properties": {
                "isced:level": "1;2",
                "ref:rspo": 81179,
                "official_name": "Szko\u0142a Podstawowa w Su\u0142owie",
                "name": "Szko\u0142a Podstawowa w Su\u0142owie",
                "addr:postcode": "22-448",
                "addr:place": "Su\u0142\u00f3w",
                "addr:housenumber": "64",
                "addr:teryt:simc": 899874,
                "phone": "+48 846826204",
                "email": "pgsulow@gazeta.pl",
                "website": "http:\/\/www.zssulow.szkolnastrona.pl",
                "ref:regon": "001250644",
                "ref:vatin": "PL9223001248",
                "operator": "Gmina Su\u0142\u00f3w",
                "operator:type": "government",
                "amenity": "school"
            }
        },
        {
            "id": 43928,
            "type": "Feature",
            "geometry": {
                "type": "Point",
                "coordinates": [
                    22.91212,
                    50.7933
                ]
            },
            "properties": {
                "isced:level": "1;2",
                "ref:rspo": 43928,
                "official_name": "Szko\u0142a Podstawowa w Tworyczowie",
                "name": "Szko\u0142a Podstawowa w Tworyczowie",
                "addr:postcode": "22-448",
                "addr:place": "Tworycz\u00f3w",
                "addr:housenumber": "124",
                "addr:teryt:simc": 899934,
                "phone": "+48 846415101",
                "email": "sp_twor@poczta.onet.pl",
                "website": "http:\/\/www.sptworyczow.szkolnastrona.pl\/",
                "ref:regon": "001136440",
                "ref:vatin": "PL9222551283",
                "operator": "Gmina Su\u0142\u00f3w",
                "operator:type": "government",
                "amenity": "school"
            }
        }
    ]
}