{"type":"FeatureCollection","features":[{"id":48500,"type":"Feature","geometry":{"type":"Point","coordinates":[21.8811399,53.94106]},"properties":{"ref:rspo":48500,"official_name":"Zesp\u00f3\u0142 Plac\u00f3wek O\u015bwiatowych w Mi\u0142kach","name":"Zesp\u00f3\u0142 Plac\u00f3wek O\u015bwiatowych w Mi\u0142kach","addr:country":"PL","addr:postcode":"11-513","addr:city":"Mi\u0142ki","addr:street":"ul. Szkolna","addr:housenumber":"3","addr:teryt:simc":21970,"addr:teryt:sym_ul":762684,"contact:phone":"+48 874299457","contact:email":"zpomilki@poczta.onet.pl","contact:website":"http:\/\/www.zpomilki.pl","ref:regon":"510972671","ref:vatin":"PL8451753728","operator":"Gmina Mi\u0142ki","operator:type":"government","landuse":"education","fixme":"amenity=school, amenity=college albo landuse=education w zale\u017cno\u015bci od tego, jakie plac\u00f3wki wchodz\u0105 w sk\u0142ad zespo\u0142u. Sprawd\u017a, kiedy stosowa\u0107 amenity=* a kiedy landuse=education.","note":"Children RSPO: 59622;59667"}},{"id":59622,"type":"Feature","geometry":{"type":"Point","coordinates":[21.8811399,53.94103]},"properties":{"isced:level":"1;2","ref:rspo":59622,"official_name":"Szko\u0142a Podstawowa im. Jana Paw\u0142a II w Mi\u0142kach","name":"Szko\u0142a Podstawowa","addr:country":"PL","addr:postcode":"11-513","addr:city":"Mi\u0142ki","addr:street":"ul. Szkolna","addr:housenumber":"3","addr:teryt:simc":21970,"addr:teryt:sym_ul":762684,"contact:phone":"+48 874299457","contact:email":"zpomilki@poczta.onet.pl","contact:website":"http:\/\/zpomilki.pl","ref:regon":"000266778","ref:vatin":"PL8451837922","operator":"Gmina Mi\u0142ki","operator:type":"government","amenity":"school","note":"Parent RSPO: 48500"}},{"id":59667,"type":"Feature","geometry":{"type":"Point","coordinates":[21.8811399,53.941]},"properties":{"ref:rspo":59667,"official_name":"Przedszkole Samorz\u0105dowe w Mi\u0142kach","name":"Przedszkole Samorz\u0105dowe w Mi\u0142kach","addr:country":"PL","addr:postcode":"11-513","addr:city":"Mi\u0142ki","addr:street":"ul. Szkolna","addr:housenumber":"3","addr:teryt:simc":21970,"addr:teryt:sym_ul":762684,"contact:phone":"+48 874299457","ref:regon":"001011253","ref:vatin":"PL8451753705","operator":"Gmina Mi\u0142ki","operator:type":"government","amenity":"kindergarten","note":"Parent RSPO: 48500"}},{"id":48502,"type":"Feature","geometry":{"type":"Point","coordinates":[21.86024,53.96415]},"properties":{"isced:level":"1;2","ref:rspo":48502,"official_name":"Szko\u0142a Podstawowa im. \u015aw Franciszka Z Asy\u017cu w Sta\u015bwinach","name":"Szko\u0142a Podstawowa","addr:country":"PL","addr:postcode":"11-513","addr:place":"Sta\u015bwiny","addr:housenumber":"27","addr:teryt:sym_ul":762767,"contact:phone":"+48 874211013","contact:email":"szkolastaswiny@gmail.com","contact:website":"http:\/\/spstaswiny.edupage.org","ref:regon":"001164650","ref:vatin":"PL8451752901","operator":"Gmina Mi\u0142ki","operator:type":"government","amenity":"school"}},{"id":48702,"type":"Feature","geometry":{"type":"Point","coordinates":[21.76205,53.96588]},"properties":{"isced:level":"1;2","ref:rspo":48702,"official_name":"Szko\u0142a Podstawowa im. \u015aw. Jana Paw\u0142a II w Rydzewie","name":"Szko\u0142a Podstawowa","addr:country":"PL","addr:postcode":"11-513","addr:city":"Rydzewo","addr:street":"ul. Mazurska","addr:housenumber":"94","addr:teryt:simc":12555,"addr:teryt:sym_ul":762750,"contact:phone":"+48 874211093","contact:email":"sprydzewo@o2.pl","contact:website":"http:\/\/sprydzewo94.edupage.org","ref:regon":"001164666","ref:vatin":"PL8451752918","operator":"Gmina Mi\u0142ki","operator:type":"government","amenity":"school"}}]}