{
    "type": "FeatureCollection",
    "features": [
        {
            "id": 77889,
            "type": "Feature",
            "geometry": {
                "type": "Point",
                "coordinates": [
                    21.844268798828,
                    53.998924255371
                ]
            },
            "properties": {
                "isced:level": "1;2",
                "ref:rspo": 77889,
                "official_name": "Szko\u0142a Podstawowa im.konstantego Ildefonsa Ga\u0142czy\u0144skiego w Kruklankach",
                "name": "Szko\u0142a Podstawowa im.konstantego Ildefonsa Ga\u0142czy\u0144skiego w Kruklankach",
                "addr:postcode": "11-612",
                "addr:place": "Kruklanki",
                "addr:housenumber": "34",
                "addr:city:simc": 761584,
                "phone": "+48 874217025",
                "email": "spkki34@wp.pl",
                "website": "http:\/\/gimkki.edupage.org",
                "ref:regon": "000266809",
                "ref:vatin": "PL8451755265",
                "operator": "Gmina Kruklanki",
                "operator:type": "government",
                "amenity": "school"
            }
        },
        {
            "id": 44672,
            "type": "Feature",
            "geometry": {
                "type": "Point",
                "coordinates": [
                    21.99151,
                    54.06078
                ]
            },
            "properties": {
                "isced:level": "1;2",
                "ref:rspo": 44672,
                "official_name": "Szko\u0142a Podstawowa w Bo\u0107wince",
                "name": "Szko\u0142a Podstawowa w Bo\u0107wince",
                "addr:postcode": "11-612",
                "addr:place": "Bo\u0107winka",
                "addr:housenumber": "12",
                "addr:city:simc": 761450,
                "phone": "+48 874217406",
                "email": "spbmb@interklasa.pl",
                "ref:regon": "790145028",
                "ref:vatin": "PL8451755259",
                "operator": "Gmina Kruklanki",
                "operator:type": "government",
                "amenity": "school"
            }
        },
        {
            "id": 48389,
            "type": "Feature",
            "geometry": {
                "type": "Point",
                "coordinates": [
                    21.92505,
                    54.09037
                ]
            },
            "properties": {
                "ref:rspo": 48389,
                "official_name": "Punkt Przedszkolny \"Chatka Puchatka\"",
                "name": "Punkt Przedszkolny \"Chatka Puchatka\"",
                "addr:postcode": "11-612",
                "addr:city": "Kruklanki",
                "addr:street": "22 Lipca",
                "addr:housenumber": "19",
                "addr:city:simc": 761584,
                "addr:street:sym_ul": 11102,
                "phone": "+48 874217301",
                "email": "gok@kruklanki.pl",
                "website": "http:\/\/www.gok.kruklanki.pl",
                "ref:regon": "281438017",
                "operator": "Biblioteka I O\u015brodek Kultury Gminy Kruklanki",
                "operator:type": "public",
                "amenity": "kindergarten"
            }
        }
    ]
}