{
    "type": "FeatureCollection",
    "features": [
        {
            "id": 3195,
            "type": "Feature",
            "geometry": {
                "type": "Point",
                "coordinates": [
                    21.77464,
                    54.03281
                ]
            },
            "properties": {
                "ref:rspo": 3195,
                "official_name": "Przedszkole Krasnal",
                "name": "Przedszkole Krasnal",
                "addr:postcode": "11-500",
                "addr:city": "Gi\u017cycko",
                "addr:street": "Kolejowa",
                "addr:housenumber": "10",
                "addr:teryt:simc": 977692,
                "addr:teryt:sym_ul": 8828,
                "phone": "+48 874282224",
                "email": "krasnalgizycko@wp.pl",
                "ref:regon": "281418894",
                "ref:vatin": "PL8451197500",
                "operator": "Ewa Palczewska",
                "operator:type": "private",
                "amenity": "kindergarten"
            }
        },
        {
            "id": 84752,
            "type": "Feature",
            "geometry": {
                "type": "Point",
                "coordinates": [
                    21.77464,
                    54.032779999999995
                ]
            },
            "properties": {
                "ref:rspo": 84752,
                "official_name": "Szkolne Schronisko M\u0142odzie\u017cowe Krasnal",
                "name": "Szkolne Schronisko M\u0142odzie\u017cowe Krasnal",
                "addr:postcode": "11-500",
                "addr:city": "Gi\u017cycko",
                "addr:street": "Kolejowa",
                "addr:housenumber": "10",
                "addr:teryt:simc": 977692,
                "addr:teryt:sym_ul": 8828,
                "phone": "+48 874282224",
                "email": "krasnalgizycko@wp.pl",
                "ref:regon": "281448406",
                "operator": "Ewa Palczewska",
                "operator:type": "private",
                "tourism": "hostel"
            }
        },
        {
            "id": 12962,
            "type": "Feature",
            "geometry": {
                "type": "Point",
                "coordinates": [
                    21.77502,
                    54.03378
                ]
            },
            "properties": {
                "ref:rspo": 12962,
                "official_name": "Niepubliczny Zesp\u00f3\u0142 Specjalnych Plac\u00f3wek O\u015bwiatowych Psouu w Gi\u017cycku",
                "name": "Niepubliczny Zesp\u00f3\u0142 Specjalnych Plac\u00f3wek O\u015bwiatowych Psouu w Gi\u017cycku",
                "addr:postcode": "11-500",
                "addr:city": "Gi\u017cycko",
                "addr:street": "D\u0105browskiego",
                "addr:housenumber": "15",
                "addr:teryt:simc": 977692,
                "addr:teryt:sym_ul": 3667,
                "phone": "+48 874292909",
                "email": "zk.gizycko@psouu.org.pl",
                "website": "http:\/\/www.psouugizycko.org.pl",
                "ref:regon": "281427427",
                "operator": "Polskie Stowarzyszenie Na Rzecz Os\u00f3b Z Niepe\u0142nosprawno\u015bci\u0105 Intelektualn\u0105 Ko\u0142o W Gi\u017cycku",
                "operator:type": "ngo",
                "landuse": "education",
                "fixme": "amenity=school, amenity=college albo landuse=education w zale\u017cno\u015bci od tego, jakie plac\u00f3wki wchodz\u0105 w sk\u0142ad zespo\u0142u. Sprawd\u017a, kiedy stosowa\u0107 amenity=* a kiedy landuse=education.",
                "note": "Children RSPO: 17592;17637"
            }
        },
        {
            "id": 123846,
            "type": "Feature",
            "geometry": {
                "type": "Point",
                "coordinates": [
                    21.77502,
                    54.03375
                ]
            },
            "properties": {
                "ref:rspo": 123846,
                "official_name": "Niepubliczny Terapeutyczny Punkt Przedszkolny",
                "name": "Niepubliczny Terapeutyczny Punkt Przedszkolny",
                "addr:postcode": "11-500",
                "addr:city": "Gi\u017cycko",
                "addr:street": "D\u0105browskiego",
                "addr:housenumber": "15",
                "addr:teryt:simc": 977692,
                "addr:teryt:sym_ul": 3667,
                "phone": "+48 874292909",
                "email": "zk.gizycko@psouu.org.pl",
                "website": "http:\/\/www.psouugizycko.org.pl",
                "ref:regon": "281612538",
                "ref:vatin": "PL8451707131",
                "operator": "Polskie Stowarzyszenie Na Rzecz Os\u00f3b Z Niepe\u0142nosprawno\u015bci\u0105 Intelektualn\u0105 Ko\u0142o W Gi\u017cycku",
                "operator:type": "ngo",
                "amenity": "kindergarten"
            }
        },
        {
            "id": 17592,
            "type": "Feature",
            "geometry": {
                "type": "Point",
                "coordinates": [
                    21.77502,
                    54.03372
                ]
            },
            "properties": {
                "isced:level": "1;2",
                "ref:rspo": 17592,
                "official_name": "Niepubliczna Szko\u0142a Podstawowa Specjalna",
                "name": "Niepubliczna Szko\u0142a Podstawowa Specjalna",
                "addr:postcode": "11-500",
                "addr:city": "Gi\u017cycko",
                "addr:street": "D\u0105browskiego",
                "addr:housenumber": "15",
                "addr:teryt:simc": 977692,
                "addr:teryt:sym_ul": 3667,
                "phone": "+48 877341326",
                "email": "zk.gizycko@psouu.org.pl",
                "website": "http:\/\/www.psonigizycko.org.pl",
                "ref:regon": "281431156",
                "operator": "Polskie Stowarzyszenie Na Rzecz Os\u00f3b Z Niepe\u0142nosprawno\u015bci\u0105 Intelektualn\u0105 Ko\u0142o W Gi\u017cycku",
                "operator:type": "ngo",
                "amenity": "school",
                "note": "Parent RSPO: 12962"
            }
        },
        {
            "id": 17637,
            "type": "Feature",
            "geometry": {
                "type": "Point",
                "coordinates": [
                    21.77502,
                    54.03369
                ]
            },
            "properties": {
                "ref:rspo": 17637,
                "official_name": "Niepubliczna Szko\u0142a Specjalna Przysposabiaj\u0105ca Do Pracy",
                "name": "Niepubliczna Szko\u0142a Specjalna Przysposabiaj\u0105ca Do Pracy",
                "addr:postcode": "11-500",
                "addr:city": "Gi\u017cycko",
                "addr:street": "D\u0105browskiego",
                "addr:housenumber": "15",
                "addr:teryt:simc": 977692,
                "addr:teryt:sym_ul": 3667,
                "phone": "+48 877341326",
                "email": "zk.gizycko@psouu.org.pl",
                "website": "http:\/\/www.psonigizycko.org.pl",
                "ref:regon": "281431104",
                "operator": "Polskie Stowarzyszenie Na Rzecz Os\u00f3b Z Niepe\u0142nosprawno\u015bci\u0105 Intelektualn\u0105 Ko\u0142o W Gi\u017cycku",
                "operator:type": "ngo",
                "amenity": "school",
                "note": "Parent RSPO: 12962"
            }
        },
        {
            "id": 75619,
            "type": "Feature",
            "geometry": {
                "type": "Point",
                "coordinates": [
                    21.7684399,
                    54.03409
                ]
            },
            "properties": {
                "ref:rspo": 75619,
                "official_name": "Pa\u0144stwowa Szko\u0142a Muzyczna I St. w Gi\u017cycku",
                "name": "Pa\u0144stwowa Szko\u0142a Muzyczna I St. w Gi\u017cycku",
                "addr:postcode": "11-500",
                "addr:city": "Gi\u017cycko",
                "addr:street": "Kolejowa",
                "addr:housenumber": "22",
                "addr:teryt:simc": 977692,
                "addr:teryt:sym_ul": 8828,
                "phone": "+48 874282346",
                "email": "psmgizycko@poczta.onet.pl",
                "website": "http:\/\/psmgizycko.pl",
                "ref:regon": "000567830",
                "operator": "Ministerstwo Kultury I Dziedzictwa Narodowego",
                "operator:type": "public",
                "amenity": "music_school"
            }
        },
        {
            "id": 72922,
            "type": "Feature",
            "geometry": {
                "type": "Point",
                "coordinates": [
                    21.76419,
                    54.03468
                ]
            },
            "properties": {
                "ref:rspo": 72922,
                "official_name": "Centrum Szkolenia Zawodowego Uniwers",
                "name": "Centrum Szkolenia Zawodowego Uniwers",
                "addr:postcode": "11-500",
                "addr:city": "Gi\u017cycko",
                "addr:street": "Wodna",
                "addr:housenumber": "4",
                "addr:teryt:simc": 977692,
                "addr:teryt:sym_ul": 24550,
                "phone": "+48 874282276",
                "email": "cszuniwers@interia.pl",
                "website": "http:\/\/www.szkoleniauniwers.pl",
                "ref:regon": "281442711",
                "ref:vatin": "PL8451063337",
                "operator": "Agnieszka Stankiewicz",
                "operator:type": "private",
                "fixme": "w zale\u017cno\u015bci od przedmiotu dzia\u0142alno\u015bci (np. amenity=training + training=*, amenity=dancing_school, amenity=language_school, amenity=music_school)"
            }
        },
        {
            "id": 29064,
            "type": "Feature",
            "geometry": {
                "type": "Point",
                "coordinates": [
                    21.7855,
                    54.03553
                ]
            },
            "properties": {
                "ref:rspo": 29064,
                "official_name": "Specjalny O\u015brodek Szkolno-Wychowawczy Im Jana Brzechwy",
                "name": "Specjalny O\u015brodek Szkolno-Wychowawczy Im Jana Brzechwy",
                "addr:postcode": "11-500",
                "addr:city": "Gi\u017cycko",
                "addr:street": "Bia\u0142ostocka",
                "addr:housenumber": "3",
                "addr:teryt:simc": 977692,
                "addr:teryt:sym_ul": 1184,
                "phone": "+48 874283659",
                "email": "sekretariat@soswgizycko.pl",
                "website": "http:\/\/www.soswgizycko.pl",
                "ref:regon": "510896473",
                "ref:vatin": "PL8451124748",
                "operator": "Powiat Gi\u017cycki",
                "operator:type": "government",
                "amenity": "school",
                "note": "Children RSPO: 55721;55722;72964;124186"
            }
        },
        {
            "id": 55721,
            "type": "Feature",
            "geometry": {
                "type": "Point",
                "coordinates": [
                    21.7855,
                    54.0355
                ]
            },
            "properties": {
                "ref:rspo": 55721,
                "official_name": "Szko\u0142a Specjalna Nr 1 Przysposabiaj\u0105ca Do Pracy",
                "name": "Szko\u0142a Specjalna Nr 1 Przysposabiaj\u0105ca Do Pracy",
                "addr:postcode": "11-500",
                "addr:city": "Gi\u017cycko",
                "addr:street": "Bia\u0142ostocka",
                "addr:housenumber": "3",
                "addr:teryt:simc": 977692,
                "addr:teryt:sym_ul": 1184,
                "phone": "+48 874283659",
                "email": "sekretariat@soswgizycko.pl",
                "website": "http:\/\/www.soswgizycko.pl",
                "ref:regon": "280041460",
                "operator": "Powiat Gi\u017cycki",
                "operator:type": "government",
                "amenity": "school",
                "note": "Parent RSPO: 29064"
            }
        },
        {
            "id": 55722,
            "type": "Feature",
            "geometry": {
                "type": "Point",
                "coordinates": [
                    21.7855,
                    54.035470000000004
                ]
            },
            "properties": {
                "isced:level": "3",
                "ref:rspo": 55722,
                "official_name": "Bran\u017cowa Szko\u0142a 1 Stopnia Nr 2 Specjalna",
                "name": "Bran\u017cowa Szko\u0142a 1 Stopnia Nr 2 Specjalna",
                "addr:postcode": "11-500",
                "addr:city": "Gi\u017cycko",
                "addr:street": "Bia\u0142ostocka",
                "addr:housenumber": "3",
                "addr:teryt:simc": 977692,
                "addr:teryt:sym_ul": 1184,
                "phone": "+48 874283659",
                "email": "sekretariat@soswgizycko.pl",
                "website": "http:\/\/www.soswgizycko.pl",
                "ref:regon": "280041476",
                "operator": "Powiat Gi\u017cycki",
                "operator:type": "government",
                "amenity": "school",
                "note": "Parent RSPO: 29064"
            }
        },
        {
            "id": 72964,
            "type": "Feature",
            "geometry": {
                "type": "Point",
                "coordinates": [
                    21.7855,
                    54.03544
                ]
            },
            "properties": {
                "isced:level": "1;2",
                "ref:rspo": 72964,
                "official_name": "Szko\u0142a Podstawowa Nr 5",
                "name": "Szko\u0142a Podstawowa Nr 5",
                "addr:postcode": "11-500",
                "addr:city": "Gi\u017cycko",
                "addr:street": "Bia\u0142ostocka",
                "addr:housenumber": "3",
                "addr:teryt:simc": 977692,
                "addr:teryt:sym_ul": 1184,
                "phone": "+48 874283659",
                "email": "sekretariat@soswgizycko.pl",
                "website": "http:\/\/www.soswgizycko.pl",
                "ref:regon": "519478872",
                "operator": "Powiat Gi\u017cycki",
                "operator:type": "government",
                "amenity": "school",
                "note": "Parent RSPO: 29064"
            }
        },
        {
            "id": 124186,
            "type": "Feature",
            "geometry": {
                "type": "Point",
                "coordinates": [
                    21.7855,
                    54.03541
                ]
            },
            "properties": {
                "ref:rspo": 124186,
                "official_name": "Przedszkole Specjalne",
                "name": "Przedszkole Specjalne",
                "addr:postcode": "11-500",
                "addr:city": "Gi\u017cycko",
                "addr:street": "Bia\u0142ostocka",
                "addr:housenumber": "3",
                "addr:teryt:simc": 977692,
                "addr:teryt:sym_ul": 1184,
                "phone": "+48 874283659",
                "email": "sekretariat@soswgizycko.pl",
                "website": "http:\/\/www.soswgizycko.pl",
                "ref:regon": "281617091",
                "operator": "Powiat Gi\u017cycki",
                "operator:type": "government",
                "amenity": "kindergarten",
                "note": "Parent RSPO: 29064"
            }
        },
        {
            "id": 127596,
            "type": "Feature",
            "geometry": {
                "type": "Point",
                "coordinates": [
                    21.7626,
                    54.03598
                ]
            },
            "properties": {
                "ref:rspo": 127596,
                "official_name": "O\u015brodek Szkolenia Lotniczego \"Invest Mazury\"",
                "name": "O\u015brodek Szkolenia Lotniczego \"Invest Mazury\"",
                "addr:postcode": "11-500",
                "addr:city": "Gi\u017cycko",
                "addr:street": "Olszty\u0144ska",
                "addr:housenumber": "15 A",
                "addr:teryt:simc": 977692,
                "addr:teryt:sym_ul": 15016,
                "phone": "+48 874284293",
                "email": "s.tolwinski@lotniskoketrzyn.pl",
                "website": "http:\/\/www.lotniskoketrzyn.pl",
                "ref:regon": "361743313",
                "operator": "\"Invest Mazury\" Sp\u00f3\u0142ka Z Ograniczon\u0105 Odpowiedzialno\u015bci\u0105",
                "operator:type": "private",
                "fixme": "w zale\u017cno\u015bci od przedmiotu dzia\u0142alno\u015bci (np. amenity=training + training=*, amenity=dancing_school, amenity=language_school, amenity=music_school)"
            }
        },
        {
            "id": 133532,
            "type": "Feature",
            "geometry": {
                "type": "Point",
                "coordinates": [
                    21.78065,
                    54.03643
                ]
            },
            "properties": {
                "isced:level": "1;2",
                "ref:rspo": 133532,
                "official_name": "Szko\u0142a Podstawowa Nr 2 im. Chwa\u0142y Or\u0119\u017ca Polskiego",
                "name": "Szko\u0142a Podstawowa Nr 2",
                "addr:postcode": "11-500",
                "addr:city": "Gi\u017cycko",
                "addr:street": "Warszawska",
                "addr:housenumber": "39",
                "addr:teryt:simc": 977692,
                "addr:teryt:sym_ul": 23682,
                "phone": "+48 874282538",
                "email": "sp2@gizycko.pl",
                "website": "http:\/\/www.sp2.gizycko.pl",
                "ref:regon": "367389500",
                "operator": "Gmina Miejska Gi\u017cycko",
                "operator:type": "government",
                "amenity": "school"
            }
        },
        {
            "id": 20228,
            "type": "Feature",
            "geometry": {
                "type": "Point",
                "coordinates": [
                    21.76456,
                    54.0372
                ]
            },
            "properties": {
                "isced:level": "3",
                "ref:rspo": 20228,
                "official_name": "Ii Liceum Og\u00f3lnokszta\u0142c\u0105ce im. Gustawa Gizewiusza",
                "name": "Ii Liceum Og\u00f3lnokszta\u0142c\u0105ce",
                "addr:postcode": "11-500",
                "addr:city": "Gi\u017cycko",
                "addr:street": "Sikorskiego",
                "addr:housenumber": "3",
                "addr:teryt:simc": 977692,
                "addr:teryt:sym_ul": 19900,
                "phone": "+48 874285543",
                "email": "sekretariat1@poczta.onet.pl",
                "website": "http:\/\/www.lo2.eu",
                "ref:regon": "790348323",
                "ref:vatin": "PL8451647854",
                "operator": "Powiat Gi\u017cycki",
                "operator:type": "government",
                "amenity": "school"
            }
        },
        {
            "id": 55723,
            "type": "Feature",
            "geometry": {
                "type": "Point",
                "coordinates": [
                    21.76456,
                    54.037169999999996
                ]
            },
            "properties": {
                "isced:level": "4",
                "ref:rspo": 55723,
                "official_name": "Szko\u0142a Policealna im. Hanny Chrzanowskiej",
                "name": "Szko\u0142a Policealna",
                "addr:postcode": "11-500",
                "addr:city": "Gi\u017cycko",
                "addr:street": "Sikorskiego",
                "addr:housenumber": "3",
                "addr:teryt:simc": 977692,
                "addr:teryt:sym_ul": 19900,
                "phone": "+48 874283444",
                "email": "sekretmsz@wp.pl",
                "website": "http:\/\/www.medykgizycko.mazury.edu.pl",
                "ref:regon": "790334077",
                "ref:vatin": "PL8451635348",
                "operator": "Powiat Gi\u017cycki",
                "operator:type": "government",
                "amenity": "college",
                "note": "Parent RSPO: 10854"
            }
        },
        {
            "id": 72645,
            "type": "Feature",
            "geometry": {
                "type": "Point",
                "coordinates": [
                    21.77308,
                    54.03738
                ]
            },
            "properties": {
                "ref:rspo": 72645,
                "official_name": "Centrum Szkoleniowe \"Edukacja\" w Gi\u017cycku",
                "name": "Centrum Szkoleniowe \"Edukacja\" w Gi\u017cycku",
                "addr:postcode": "11-500",
                "addr:city": "Gi\u017cycko",
                "addr:street": "Adama Mickiewicza",
                "addr:housenumber": "47",
                "addr:door": "2",
                "addr:teryt:simc": 977692,
                "addr:teryt:sym_ul": 12734,
                "phone": "+48 874282159",
                "email": "biuro@edukacjagizycko.pl",
                "website": "http:\/\/www.edukacjagizycko.pl",
                "ref:regon": "281444242",
                "ref:vatin": "PL8451874828",
                "operator": "Piotr Trejnis",
                "operator:type": "private",
                "fixme": "w zale\u017cno\u015bci od przedmiotu dzia\u0142alno\u015bci (np. amenity=training + training=*, amenity=dancing_school, amenity=language_school, amenity=music_school)"
            }
        },
        {
            "id": 103444,
            "type": "Feature",
            "geometry": {
                "type": "Point",
                "coordinates": [
                    21.77308,
                    54.037349999999996
                ]
            },
            "properties": {
                "ref:rspo": 103444,
                "official_name": "Prywatny O\u015brodek Doskonalenia Nauczycieli I Doradztwa Metodycznego w Gi\u017cycku",
                "name": "Prywatny O\u015brodek Doskonalenia Nauczycieli I Doradztwa Metodycznego w Gi\u017cycku",
                "addr:postcode": "11-500",
                "addr:city": "Gi\u017cycko",
                "addr:street": "Adama Mickiewicza",
                "addr:housenumber": "47",
                "addr:door": "2",
                "addr:teryt:simc": 977692,
                "addr:teryt:sym_ul": 12734,
                "phone": "+48 874282159",
                "email": "biuro@edukacjagizycko.pl",
                "website": "http:\/\/www.edukacjagizycko.pl",
                "ref:regon": "281453672",
                "operator": "Piotr Trejnis",
                "operator:type": "private",
                "amenity": "training"
            }
        },
        {
            "id": 271187,
            "type": "Feature",
            "geometry": {
                "type": "Point",
                "coordinates": [
                    21.7688,
                    54.03771
                ]
            },
            "properties": {
                "ref:rspo": 271187,
                "official_name": "Misja Robotyka",
                "name": "Misja Robotyka",
                "addr:postcode": "11-500",
                "addr:city": "Gi\u017cycko",
                "addr:street": "3 Maja",
                "addr:housenumber": "4",
                "addr:teryt:simc": 977692,
                "addr:teryt:sym_ul": 11937,
                "phone": "+48 512081201",
                "email": "elk@misjarobotyka.pl",
                "website": "http:\/\/www.misjarobotyka.pl\/elk\/start",
                "ref:regon": "383146540",
                "operator": "Kutu Sp\u00f3\u0142ka Z Ograniczon\u0105 Odpowiedzialno\u015bci\u0105",
                "operator:type": "private",
                "fixme": "w zale\u017cno\u015bci od przedmiotu dzia\u0142alno\u015bci (np. amenity=training + training=*, amenity=dancing_school, amenity=language_school, amenity=music_school)"
            }
        },
        {
            "id": 20306,
            "type": "Feature",
            "geometry": {
                "type": "Point",
                "coordinates": [
                    21.76965,
                    54.03806
                ]
            },
            "properties": {
                "ref:rspo": 20306,
                "official_name": "Zesp\u00f3\u0142 Szk\u00f3\u0142 Elektronicznych I Informatycznych im. Komisji Edukacji Narodowej",
                "name": "Zesp\u00f3\u0142 Szk\u00f3\u0142 Elektronicznych I Informatycznych",
                "addr:postcode": "11-500",
                "addr:city": "Gi\u017cycko",
                "addr:street": "Adama Mickiewicza",
                "addr:housenumber": "27",
                "addr:teryt:simc": 977692,
                "addr:teryt:sym_ul": 12734,
                "phone": "+48 874283021",
                "email": "sekretariat@zseii.edu.pl",
                "website": "http:\/\/www.zseii.edu.pl",
                "ref:regon": "000193938",
                "ref:vatin": "PL8451093574",
                "operator": "Powiat Gi\u017cycki",
                "operator:type": "government",
                "landuse": "education",
                "fixme": "amenity=school, amenity=college albo landuse=education w zale\u017cno\u015bci od tego, jakie plac\u00f3wki wchodz\u0105 w sk\u0142ad zespo\u0142u. Sprawd\u017a, kiedy stosowa\u0107 amenity=* a kiedy landuse=education.",
                "note": "Children RSPO: 44084;44085"
            }
        },
        {
            "id": 44085,
            "type": "Feature",
            "geometry": {
                "type": "Point",
                "coordinates": [
                    21.76965,
                    54.03803
                ]
            },
            "properties": {
                "isced:level": "3",
                "ref:rspo": 44085,
                "official_name": "Technikum Nr 2",
                "name": "Technikum Nr 2",
                "addr:postcode": "11-500",
                "addr:city": "Gi\u017cycko",
                "addr:street": "Adama Mickiewicza",
                "addr:housenumber": "27",
                "addr:teryt:simc": 977692,
                "addr:teryt:sym_ul": 12734,
                "phone": "+48 874283021",
                "email": "sekretariat@zseii.edu.pl",
                "website": "http:\/\/www.zseii.edu.pl",
                "ref:regon": "519483726",
                "operator": "Powiat Gi\u017cycki",
                "operator:type": "government",
                "amenity": "school",
                "note": "Parent RSPO: 20306"
            }
        },
        {
            "id": 124893,
            "type": "Feature",
            "geometry": {
                "type": "Point",
                "coordinates": [
                    21.77143,
                    54.03839
                ]
            },
            "properties": {
                "ref:rspo": 124893,
                "official_name": "Pracownia Ceramiczna Ogniem Malowana Gra\u017cyna Lachowicz",
                "name": "Pracownia Ceramiczna Ogniem Malowana Gra\u017cyna Lachowicz",
                "addr:postcode": "11-500",
                "addr:city": "Gi\u017cycko",
                "addr:street": "Romualda Traugutta",
                "addr:housenumber": "4",
                "addr:door": "1",
                "addr:teryt:simc": 977692,
                "addr:teryt:sym_ul": 22961,
                "phone": "+48 606851869",
                "email": "ceramika@ogniemmalowana.pl",
                "website": "http:\/\/twojagaleria.pl",
                "ref:regon": "281623341",
                "ref:vatin": "PL8451314986",
                "operator": "Gra\u017cyna Lachowicz",
                "operator:type": "private",
                "fixme": "w zale\u017cno\u015bci od przedmiotu dzia\u0142alno\u015bci (np. amenity=training + training=*, amenity=dancing_school, amenity=language_school, amenity=music_school)"
            }
        },
        {
            "id": 122665,
            "type": "Feature",
            "geometry": {
                "type": "Point",
                "coordinates": [
                    21.76757,
                    54.03843
                ]
            },
            "properties": {
                "ref:rspo": 122665,
                "official_name": "O\u015brodek Szkolenia Zawodowego Cechu Rzemie\u015blnik\u00f3w I Przedsi\u0119biorc\u00f3w w Gi\u017cycku",
                "name": "O\u015brodek Szkolenia Zawodowego Cechu Rzemie\u015blnik\u00f3w I Przedsi\u0119biorc\u00f3w w Gi\u017cycku",
                "addr:postcode": "11-500",
                "addr:city": "Gi\u017cycko",
                "addr:street": "Adama Mickiewicza",
                "addr:housenumber": "1",
                "addr:teryt:simc": 977692,
                "addr:teryt:sym_ul": 12734,
                "phone": "+48 874282468",
                "email": "cechgiz@poczta.onet.pl",
                "website": "http:\/\/www.cech-gizycko.pl",
                "ref:regon": "281578511",
                "operator": "Cech Rzemie\u015blnik\u00f3w I Przedsi\u0119biorc\u00f3w W Gi\u017cycku",
                "operator:type": "cooperative",
                "fixme": "w zale\u017cno\u015bci od przedmiotu dzia\u0142alno\u015bci (np. amenity=training + training=*, amenity=dancing_school, amenity=language_school, amenity=music_school) albo amenity=school, amenity=college, albo landuse=education w zale\u017cno\u015bci od tego, jakie plac\u00f3wki wchodz\u0105 w sk\u0142ad zespo\u0142u. Sprawd\u017a, kiedy stosowa\u0107 amenity=* a kiedy landuse=education."
            }
        },
        {
            "id": 44084,
            "type": "Feature",
            "geometry": {
                "type": "Point",
                "coordinates": [
                    21.77062,
                    54.03851
                ]
            },
            "properties": {
                "ref:rspo": 44084,
                "official_name": "Szkolne Schronisko M\u0142odzie\u017cowe Nr 2",
                "name": "Szkolne Schronisko M\u0142odzie\u017cowe Nr 2",
                "addr:postcode": "11-500",
                "addr:city": "Gi\u017cycko",
                "addr:street": "Romualda Traugutta",
                "addr:housenumber": "2",
                "addr:teryt:simc": 977692,
                "addr:teryt:sym_ul": 22961,
                "phone": "+48 874285425",
                "email": "internat@zseii.edu.pl",
                "website": "http:\/\/www.zseii.edu.pl\/www_internat\/internat\/",
                "ref:regon": "280198491",
                "operator": "Powiat Gi\u017cycki",
                "operator:type": "government",
                "tourism": "hostel",
                "note": "Parent RSPO: 20306"
            }
        },
        {
            "id": 20226,
            "type": "Feature",
            "geometry": {
                "type": "Point",
                "coordinates": [
                    21.77179,
                    54.03861
                ]
            },
            "properties": {
                "isced:level": "3",
                "ref:rspo": 20226,
                "official_name": "I Liceum Og\u00f3lnokszta\u0142c\u0105ce im. Wojciecha K\u0119trzy\u0144skiego",
                "name": "I Liceum Og\u00f3lnokszta\u0142c\u0105ce",
                "addr:postcode": "11-500",
                "addr:city": "Gi\u017cycko",
                "addr:street": "Romualda Traugutta",
                "addr:housenumber": "1",
                "addr:teryt:simc": 977692,
                "addr:teryt:sym_ul": 22961,
                "phone": "+48 874282230",
                "email": "lo1@gizycko.edu.pl",
                "website": "http:\/\/www.lo1.gizycko.edu.pl",
                "ref:regon": "519478398",
                "ref:vatin": "PL8451093290",
                "operator": "Powiat Gi\u017cycki",
                "operator:type": "government",
                "amenity": "school"
            }
        },
        {
            "id": 267392,
            "type": "Feature",
            "geometry": {
                "type": "Point",
                "coordinates": [
                    21.76869,
                    54.03909
                ]
            },
            "properties": {
                "ref:rspo": 267392,
                "official_name": "Instytut Innowacji Technologicznych I Kszta\u0142cenia Zawodowego \"Novum\"",
                "name": "Instytut Innowacji Technologicznych I Kszta\u0142cenia Zawodowego \"Novum\"",
                "addr:postcode": "11-500",
                "addr:city": "Gi\u017cycko",
                "addr:street": "Pocztowa",
                "addr:housenumber": "5",
                "addr:door": "100",
                "addr:teryt:simc": 977692,
                "addr:teryt:sym_ul": 16579,
                "phone": "+48 791170921",
                "email": "biuro@cudo.edu.pl",
                "website": "http:\/\/www.cudo.edu.pl",
                "ref:regon": "380254312",
                "operator": "Cudo Sp\u00f3\u0142ka Z Ograniczon\u0105 Odpowiedzialno\u015bci\u0105",
                "operator:type": "private",
                "fixme": "w zale\u017cno\u015bci od przedmiotu dzia\u0142alno\u015bci (np. amenity=training + training=*, amenity=dancing_school, amenity=language_school, amenity=music_school)"
            }
        },
        {
            "id": 268147,
            "type": "Feature",
            "geometry": {
                "type": "Point",
                "coordinates": [
                    21.76869,
                    54.03906
                ]
            },
            "properties": {
                "ref:rspo": 268147,
                "official_name": "Regionalny O\u015brodek Doskonalenia Nauczycieli",
                "name": "Regionalny O\u015brodek Doskonalenia Nauczycieli",
                "addr:postcode": "11-500",
                "addr:city": "Gi\u017cycko",
                "addr:street": "Pocztowa",
                "addr:housenumber": "5",
                "addr:door": "100",
                "addr:teryt:simc": 977692,
                "addr:teryt:sym_ul": 16579,
                "email": "biuro@rodn.edu.pl",
                "website": "http:\/\/www.rodn.edu.pl",
                "ref:regon": "380970698",
                "operator": "Cudo Sp\u00f3\u0142ka Z Ograniczon\u0105 Odpowiedzialno\u015bci\u0105",
                "operator:type": "private",
                "amenity": "training"
            }
        },
        {
            "id": 125374,
            "type": "Feature",
            "geometry": {
                "type": "Point",
                "coordinates": [
                    21.77608,
                    54.0395
                ]
            },
            "properties": {
                "ref:rspo": 125374,
                "official_name": "Powiatowy O\u015brodek Rozwoju Edukacji w Gi\u017cycku",
                "name": "Powiatowy O\u015brodek Rozwoju Edukacji w Gi\u017cycku",
                "addr:postcode": "11-500",
                "addr:city": "Gi\u017cycko",
                "addr:street": "Sm\u0119tka",
                "addr:housenumber": "5",
                "addr:teryt:simc": 977692,
                "addr:teryt:sym_ul": 20331,
                "phone": "+48 874281028",
                "email": "sekretariat@poregizycko.pl",
                "website": "http:\/\/www.poregizycko.pl",
                "ref:regon": "281627741",
                "operator": "Powiat Gi\u017cycki",
                "operator:type": "government",
                "landuse": "education",
                "fixme": "amenity=school, amenity=college albo landuse=education w zale\u017cno\u015bci od tego, jakie plac\u00f3wki wchodz\u0105 w sk\u0142ad zespo\u0142u. Sprawd\u017a, kiedy stosowa\u0107 amenity=* a kiedy landuse=education.",
                "note": "Children RSPO: 44081;72582;125434"
            }
        },
        {
            "id": 128948,
            "type": "Feature",
            "geometry": {
                "type": "Point",
                "coordinates": [
                    21.77608,
                    54.039469999999994
                ]
            },
            "properties": {
                "ref:rspo": 128948,
                "official_name": "M\u0142odzie\u017cowy O\u015brodek Socjoterapi w Gi\u017cycku",
                "name": "M\u0142odzie\u017cowy O\u015brodek Socjoterapi w Gi\u017cycku",
                "addr:postcode": "11-500",
                "addr:city": "Gi\u017cycko",
                "addr:street": "Sm\u0119tka",
                "addr:housenumber": "5",
                "addr:teryt:simc": 977692,
                "addr:teryt:sym_ul": 20331,
                "phone": "+48 535390014",
                "email": "mosgizycko@gmail.com",
                "website": "http:\/\/mos.mazury.edu.pl",
                "ref:regon": "362436777",
                "ref:vatin": "PL8451986616",
                "operator": "Powiat Gi\u017cycki",
                "operator:type": "government",
                "fixme": "amenity=social_facility + social_facility=group_home + social_facility:for=juvenile",
                "note": "Children RSPO: 129424"
            }
        },
        {
            "id": 44081,
            "type": "Feature",
            "geometry": {
                "type": "Point",
                "coordinates": [
                    21.77608,
                    54.03944
                ]
            },
            "properties": {
                "ref:rspo": 44081,
                "official_name": "Poradnia Psychologiczno-Pedagogiczna",
                "name": "Poradnia Psychologiczno-Pedagogiczna",
                "addr:postcode": "11-500",
                "addr:city": "Gi\u017cycko",
                "addr:street": "Sm\u0119tka",
                "addr:housenumber": "5",
                "addr:teryt:simc": 977692,
                "addr:teryt:sym_ul": 20331,
                "phone": "+48 874281028",
                "email": "poradnia2@wp.pl",
                "website": "http:\/\/www.poradnia.gizycko.edu.pl",
                "ref:regon": "000695798",
                "ref:vatin": "PL8451636218",
                "operator": "Powiat Gi\u017cycki",
                "operator:type": "government",
                "healthcare": "counselling",
                "counselling_type": "education",
                "fixme": "w zale\u017cno\u015bci od przedmiotu dzia\u0142alno\u015bci (np. healthcare=counselling + counselling_type=education albo healthcare=psychotherapist)",
                "note": "Parent RSPO: 125374"
            }
        },
        {
            "id": 72582,
            "type": "Feature",
            "geometry": {
                "type": "Point",
                "coordinates": [
                    21.77608,
                    54.03941
                ]
            },
            "properties": {
                "ref:rspo": 72582,
                "official_name": "Powiatowy O\u015brodek Doskonalenia Nauczycieli w Gi\u017cycku",
                "name": "Powiatowy O\u015brodek Doskonalenia Nauczycieli w Gi\u017cycku",
                "addr:postcode": "11-500",
                "addr:city": "Gi\u017cycko",
                "addr:street": "Sm\u0119tka",
                "addr:housenumber": "5",
                "addr:teryt:simc": 977692,
                "addr:teryt:sym_ul": 20331,
                "phone": "+48 874283315",
                "email": "poradnia2dyrektor@wp.pl",
                "ref:regon": "511410596",
                "operator": "Powiat Gi\u017cycki",
                "operator:type": "government",
                "amenity": "training",
                "note": "Parent RSPO: 125374"
            }
        },
        {
            "id": 125434,
            "type": "Feature",
            "geometry": {
                "type": "Point",
                "coordinates": [
                    21.77608,
                    54.039379999999994
                ]
            },
            "properties": {
                "ref:rspo": 125434,
                "official_name": "Powiatowa Biblioteka Pedagogiczna w Gi\u017cycku",
                "name": "Powiatowa Biblioteka Pedagogiczna w Gi\u017cycku",
                "addr:postcode": "11-500",
                "addr:city": "Gi\u017cycko",
                "addr:street": "Sm\u0119tka",
                "addr:housenumber": "5",
                "addr:teryt:simc": 977692,
                "addr:teryt:sym_ul": 20331,
                "phone": "+48 874283315",
                "email": "biblioteka@poregizycko.pl",
                "website": "https:\/\/www.poregizycko.pl\/index.php\/powiatowa-biblioteka-pedagogiczna",
                "ref:regon": "281628108",
                "operator": "Powiat Gi\u017cycki",
                "operator:type": "government",
                "amenity": "library",
                "note": "Parent RSPO: 125374"
            }
        },
        {
            "id": 129424,
            "type": "Feature",
            "geometry": {
                "type": "Point",
                "coordinates": [
                    21.77608,
                    54.03935
                ]
            },
            "properties": {
                "isced:level": "1;2",
                "ref:rspo": 129424,
                "official_name": "Szko\u0142a Podstawowa Nr 8 Specjalna w Gi\u017cycku",
                "name": "Szko\u0142a Podstawowa Nr 8 Specjalna w Gi\u017cycku",
                "addr:postcode": "11-500",
                "addr:city": "Gi\u017cycko",
                "addr:street": "Sm\u0119tka",
                "addr:housenumber": "5",
                "addr:teryt:simc": 977692,
                "addr:teryt:sym_ul": 20331,
                "phone": "+48 535390014",
                "email": "mosgizycko@gmail.com",
                "ref:regon": "362598310",
                "operator": "Powiat Gi\u017cycki",
                "operator:type": "government",
                "amenity": "school",
                "note": "Parent RSPO: 128948"
            }
        },
        {
            "id": 20304,
            "type": "Feature",
            "geometry": {
                "type": "Point",
                "coordinates": [
                    21.7753452,
                    54.0397159
                ]
            },
            "properties": {
                "ref:rspo": 20304,
                "official_name": "Zesp\u00f3\u0142 Szk\u00f3\u0142 Zawodowych w Gi\u017cycku",
                "name": "Zesp\u00f3\u0142 Szk\u00f3\u0142 Zawodowych w Gi\u017cycku",
                "addr:postcode": "11-500",
                "addr:city": "Gi\u017cycko",
                "addr:street": "Tadeusza Ko\u015bciuszki",
                "addr:housenumber": "16",
                "addr:teryt:simc": 977692,
                "addr:teryt:sym_ul": 9582,
                "phone": "+48 874283241",
                "email": "zszgizycko@wp.pl",
                "website": "http:\/\/www.zsz.edu.pl",
                "ref:regon": "000861222",
                "ref:vatin": "PL8451104987",
                "operator": "Powiat Gi\u017cycki",
                "operator:type": "government",
                "landuse": "education",
                "fixme": "amenity=school, amenity=college albo landuse=education w zale\u017cno\u015bci od tego, jakie plac\u00f3wki wchodz\u0105 w sk\u0142ad zespo\u0142u. Sprawd\u017a, kiedy stosowa\u0107 amenity=* a kiedy landuse=education.",
                "note": "Children RSPO: 44082;44083;79821"
            }
        },
        {
            "id": 44082,
            "type": "Feature",
            "geometry": {
                "type": "Point",
                "coordinates": [
                    21.7753452,
                    54.039685899999995
                ]
            },
            "properties": {
                "isced:level": "3",
                "ref:rspo": 44082,
                "official_name": "Technikum Nr 3",
                "name": "Technikum Nr 3",
                "addr:postcode": "11-500",
                "addr:city": "Gi\u017cycko",
                "addr:street": "Tadeusza Ko\u015bciuszki",
                "addr:housenumber": "16",
                "addr:teryt:simc": 977692,
                "addr:teryt:sym_ul": 9582,
                "phone": "+48 874283241",
                "email": "zszgizycko@wp.pl",
                "website": "http:\/\/www.zsz.edu.pl",
                "ref:regon": "519459604",
                "operator": "Powiat Gi\u017cycki",
                "operator:type": "government",
                "amenity": "school",
                "note": "Parent RSPO: 20304"
            }
        },
        {
            "id": 44083,
            "type": "Feature",
            "geometry": {
                "type": "Point",
                "coordinates": [
                    21.7753452,
                    54.0396559
                ]
            },
            "properties": {
                "isced:level": "3",
                "ref:rspo": 44083,
                "official_name": "Bran\u017cowa Szko\u0142a I Stopnia Nr 1",
                "name": "Bran\u017cowa Szko\u0142a I Stopnia Nr 1",
                "addr:postcode": "11-500",
                "addr:city": "Gi\u017cycko",
                "addr:street": "Tadeusza Ko\u015bciuszki",
                "addr:housenumber": "16",
                "addr:teryt:simc": 977692,
                "addr:teryt:sym_ul": 9582,
                "phone": "+48 874283241",
                "email": "zszgizycko@wp.pl",
                "website": "http:\/\/www.zsz.edu.pl",
                "ref:regon": "519459550",
                "operator": "Powiat Gi\u017cycki",
                "operator:type": "government",
                "amenity": "school",
                "note": "Parent RSPO: 20304"
            }
        },
        {
            "id": 44090,
            "type": "Feature",
            "geometry": {
                "type": "Point",
                "coordinates": [
                    21.76854,
                    54.03981
                ]
            },
            "properties": {
                "isced:level": "3",
                "ref:rspo": 44090,
                "official_name": "Liceum Og\u00f3lnokszta\u0142c\u0105ce dla Doros\u0142ych Zak\u0142adu Doskonalenia Zawodowego w Bia\u0142ymstoku Z Siedzib\u0105 w Gi\u017cycku",
                "name": "Liceum Og\u00f3lnokszta\u0142c\u0105ce dla Doros\u0142ych Zak\u0142adu Doskonalenia Zawodowego w Bia\u0142ymstoku Z Siedzib\u0105 w Gi\u017cycku",
                "addr:postcode": "11-500",
                "addr:city": "Gi\u017cycko",
                "addr:street": "Miko\u0142aja Kopernika",
                "addr:housenumber": "5",
                "addr:teryt:simc": 977692,
                "addr:teryt:sym_ul": 9276,
                "phone": "+48 874282216",
                "email": "gizycko@zdz.bialystok.pl",
                "website": "http:\/\/www.gizycko.zdz.bialystok.pl",
                "ref:regon": "281440669",
                "operator": "Zak\u0142ad Doskonalenia Zawodowego",
                "operator:type": "ngo",
                "amenity": "school"
            }
        },
        {
            "id": 44092,
            "type": "Feature",
            "geometry": {
                "type": "Point",
                "coordinates": [
                    21.76854,
                    54.03978
                ]
            },
            "properties": {
                "isced:level": "3",
                "ref:rspo": 44092,
                "official_name": "Liceum Og\u00f3lnokszta\u0142c\u0105ce Zak\u0142adu Doskonalenia Zawodowego w Bia\u0142ymstoku Z Siedzib\u0105 w Gi\u017cycku",
                "name": "Liceum Og\u00f3lnokszta\u0142c\u0105ce Zak\u0142adu Doskonalenia Zawodowego w Bia\u0142ymstoku Z Siedzib\u0105 w Gi\u017cycku",
                "addr:postcode": "11-500",
                "addr:city": "Gi\u017cycko",
                "addr:street": "Miko\u0142aja Kopernika",
                "addr:housenumber": "5",
                "addr:teryt:simc": 977692,
                "addr:teryt:sym_ul": 9276,
                "phone": "+48 874282216",
                "email": "gizycko@zdz.bialystok.pl",
                "website": "http:\/\/www.gizycko.zdz.bialystok.pl",
                "ref:regon": "281441901",
                "operator": "Zak\u0142ad Doskonalenia Zawodowego",
                "operator:type": "ngo",
                "amenity": "school"
            }
        },
        {
            "id": 44093,
            "type": "Feature",
            "geometry": {
                "type": "Point",
                "coordinates": [
                    21.76854,
                    54.039750000000005
                ]
            },
            "properties": {
                "isced:level": "3",
                "ref:rspo": 44093,
                "official_name": "Technikum Zak\u0142adu Doskonalenia Zawodowego w Bia\u0142ymstoku Z Siedzib\u0105 w Gi\u017cycku",
                "name": "Technikum Zak\u0142adu Doskonalenia Zawodowego w Bia\u0142ymstoku Z Siedzib\u0105 w Gi\u017cycku",
                "addr:postcode": "11-500",
                "addr:city": "Gi\u017cycko",
                "addr:street": "Miko\u0142aja Kopernika",
                "addr:housenumber": "5",
                "addr:teryt:simc": 977692,
                "addr:teryt:sym_ul": 9276,
                "phone": "+48 874282216",
                "email": "gizycko@zdz.bialystok.pl",
                "website": "http:\/\/www.gizycko.zdz.bialystok.pl",
                "ref:regon": "281441806",
                "operator": "Zak\u0142ad Doskonalenia Zawodowego",
                "operator:type": "ngo",
                "amenity": "school"
            }
        },
        {
            "id": 53719,
            "type": "Feature",
            "geometry": {
                "type": "Point",
                "coordinates": [
                    21.76854,
                    54.03972
                ]
            },
            "properties": {
                "ref:rspo": 53719,
                "official_name": "Zak\u0142ad Doskonalenia Zawodowego w Bia\u0142ymstoku O\u015brodek Kszta\u0142cenia Zawodowego w Gi\u017cycku",
                "name": "Zak\u0142ad Doskonalenia Zawodowego w Bia\u0142ymstoku O\u015brodek Kszta\u0142cenia Zawodowego w Gi\u017cycku",
                "addr:postcode": "11-500",
                "addr:city": "Gi\u017cycko",
                "addr:street": "Miko\u0142aja Kopernika",
                "addr:housenumber": "5",
                "addr:teryt:simc": 977692,
                "addr:teryt:sym_ul": 9276,
                "phone": "+48 874282216",
                "email": "gizycko@zdz.bialystok.pl",
                "website": "http:\/\/www.szkolyzdz.pl",
                "ref:regon": "281438840",
                "operator": "Zak\u0142ad Doskonalenia Zawodowego",
                "operator:type": "ngo",
                "fixme": "w zale\u017cno\u015bci od przedmiotu dzia\u0142alno\u015bci (np. amenity=training + training=*, amenity=dancing_school, amenity=language_school, amenity=music_school)"
            }
        },
        {
            "id": 20227,
            "type": "Feature",
            "geometry": {
                "type": "Point",
                "coordinates": [
                    21.7760253,
                    54.0398763
                ]
            },
            "properties": {
                "ref:rspo": 20227,
                "official_name": "Zesp\u00f3\u0142 Szk\u00f3\u0142 Kszta\u0142towania \u015arodowiska I Agrobiznesu",
                "name": "Zesp\u00f3\u0142 Szk\u00f3\u0142 Kszta\u0142towania \u015arodowiska I Agrobiznesu",
                "addr:postcode": "11-500",
                "addr:city": "Gi\u017cycko",
                "addr:street": "Tadeusza Ko\u015bciuszki",
                "addr:housenumber": "23",
                "addr:teryt:simc": 977692,
                "addr:teryt:sym_ul": 9582,
                "phone": "+48 874282484",
                "email": "zsksia1@wp.pl",
                "website": "http:\/\/www.zsksia.edu.pl",
                "ref:regon": "519454937",
                "ref:vatin": "PL8451092971",
                "operator": "Powiat Gi\u017cycki",
                "operator:type": "government",
                "landuse": "education",
                "fixme": "amenity=school, amenity=college albo landuse=education w zale\u017cno\u015bci od tego, jakie plac\u00f3wki wchodz\u0105 w sk\u0142ad zespo\u0142u. Sprawd\u017a, kiedy stosowa\u0107 amenity=* a kiedy landuse=education.",
                "note": "Children RSPO: 69073;80576"
            }
        },
        {
            "id": 80576,
            "type": "Feature",
            "geometry": {
                "type": "Point",
                "coordinates": [
                    21.7760253,
                    54.0398463
                ]
            },
            "properties": {
                "isced:level": "3",
                "ref:rspo": 80576,
                "official_name": "Technikum Nr 1",
                "name": "Technikum Nr 1",
                "addr:postcode": "11-500",
                "addr:city": "Gi\u017cycko",
                "addr:street": "Tadeusza Ko\u015bciuszki",
                "addr:housenumber": "23",
                "addr:teryt:simc": 977692,
                "addr:teryt:sym_ul": 9582,
                "phone": "+48 874282484",
                "email": "zsksia1@wp.pl",
                "website": "http:\/\/www.zsksia.edu.pl",
                "ref:regon": "280039700",
                "operator": "Powiat Gi\u017cycki",
                "operator:type": "government",
                "amenity": "school",
                "note": "Parent RSPO: 20227"
            }
        },
        {
            "id": 69073,
            "type": "Feature",
            "geometry": {
                "type": "Point",
                "coordinates": [
                    21.7768799,
                    54.04
                ]
            },
            "properties": {
                "ref:rspo": 69073,
                "official_name": "Szkolne Schronisko M\u0142odzie\u017cowe Nr 1",
                "name": "Szkolne Schronisko M\u0142odzie\u017cowe Nr 1",
                "addr:postcode": "11-500",
                "addr:city": "Gi\u017cycko",
                "addr:street": "Sm\u0119tka",
                "addr:housenumber": "7",
                "addr:teryt:simc": 977692,
                "addr:teryt:sym_ul": 20331,
                "phone": "+48 874282266",
                "ref:regon": "280127918",
                "operator": "Powiat Gi\u017cycki",
                "operator:type": "government",
                "tourism": "hostel",
                "note": "Parent RSPO: 20227"
            }
        },
        {
            "id": 3431,
            "type": "Feature",
            "geometry": {
                "type": "Point",
                "coordinates": [
                    21.76833,
                    54.04058
                ]
            },
            "properties": {
                "isced:level": "1;2",
                "ref:rspo": 3431,
                "official_name": "Szko\u0142a Podstawowa Nr 1 im. \u015aw. Jana Paw\u0142a II w Gi\u017cycku",
                "name": "Szko\u0142a Podstawowa Nr 1",
                "addr:postcode": "11-500",
                "addr:city": "Gi\u017cycko",
                "addr:street": "Gimnazjalna",
                "addr:housenumber": "1",
                "addr:teryt:simc": 977692,
                "addr:teryt:sym_ul": 5527,
                "phone": "+48 874282416",
                "email": "sp1@gizycko.pl",
                "website": "http:\/\/www.sp1.gizycko.pl",
                "ref:regon": "001008245",
                "ref:vatin": "PL8451062119",
                "operator": "Gmina Miejska Gi\u017cycko",
                "operator:type": "government",
                "amenity": "school"
            }
        },
        {
            "id": 3102,
            "type": "Feature",
            "geometry": {
                "type": "Point",
                "coordinates": [
                    21.78253,
                    54.04086
                ]
            },
            "properties": {
                "ref:rspo": 3102,
                "official_name": "Przedszkole Miejskie Nr 4 w Gi\u017cycku",
                "name": "Przedszkole Miejskie Nr 4 w Gi\u017cycku",
                "addr:postcode": "11-500",
                "addr:city": "Gi\u017cycko",
                "addr:street": "W\u0142adys\u0142awa Jagie\u0142\u0142y",
                "addr:housenumber": "3",
                "addr:teryt:simc": 977692,
                "addr:teryt:sym_ul": 7040,
                "phone": "+48 874289838",
                "email": "pm4@gizycko.pl",
                "website": "http:\/\/www.pm4.gizycko.pl",
                "ref:regon": "510975942",
                "ref:vatin": "PL8451971431",
                "operator": "Gmina Miejska Gi\u017cycko",
                "operator:type": "government",
                "amenity": "kindergarten"
            }
        },
        {
            "id": 26841,
            "type": "Feature",
            "geometry": {
                "type": "Point",
                "coordinates": [
                    21.77818,
                    54.04119
                ]
            },
            "properties": {
                "ref:rspo": 26841,
                "official_name": "Przedszkole Niepubliczne \"Promyk\"",
                "name": "Przedszkole Niepubliczne \"Promyk\"",
                "addr:postcode": "11-500",
                "addr:city": "Gi\u017cycko",
                "addr:street": "Sm\u0119tka",
                "addr:housenumber": "22",
                "addr:teryt:simc": 977692,
                "addr:teryt:sym_ul": 20331,
                "phone": "+48 874288348",
                "email": "promyk222@poczta.onet.pl",
                "ref:regon": "281434918",
                "ref:vatin": "PL8451376898",
                "operator": "Jolanta Trzci\u0144ska",
                "operator:type": "private",
                "amenity": "kindergarten"
            }
        },
        {
            "id": 132738,
            "type": "Feature",
            "geometry": {
                "type": "Point",
                "coordinates": [
                    21.77694,
                    54.04145
                ]
            },
            "properties": {
                "ref:rspo": 132738,
                "official_name": "Niepubliczne Przedszkole Ma\u0142e Misie",
                "name": "Niepubliczne Przedszkole Ma\u0142e Misie",
                "addr:postcode": "11-500",
                "addr:city": "Gi\u017cycko",
                "addr:street": "Ignacego Daszy\u0144skiego",
                "addr:housenumber": "12",
                "addr:door": "b",
                "addr:teryt:simc": 977692,
                "addr:teryt:sym_ul": 3635,
                "phone": "+48 500156097",
                "email": "zlobek_gizycko@wp.pl",
                "website": "http:\/\/www.zlobekgizycko.pl",
                "ref:regon": "366143061",
                "ref:vatin": "PL8451848966",
                "operator": "Magdalena Gajewska",
                "operator:type": "private",
                "amenity": "kindergarten"
            }
        },
        {
            "id": 3221,
            "type": "Feature",
            "geometry": {
                "type": "Point",
                "coordinates": [
                    21.77727,
                    54.04168
                ]
            },
            "properties": {
                "ref:rspo": 3221,
                "official_name": "Przedszkole Niepubliczne \"Koralik\"",
                "name": "Przedszkole Niepubliczne \"Koralik\"",
                "addr:postcode": "11-500",
                "addr:city": "Gi\u017cycko",
                "addr:street": "Ignacego Daszy\u0144skiego",
                "addr:housenumber": "14",
                "addr:teryt:simc": 977692,
                "addr:teryt:sym_ul": 3635,
                "phone": "+48 877327908",
                "email": "ania@awt.pl",
                "website": "http:\/\/www.koralikgizycko.pl",
                "ref:regon": "281418888",
                "ref:vatin": "PL8451031113",
                "operator": "Koral Sp\u00f3\u0142ka Z Ograniczon\u0105 Odpowiedzialno\u015bci\u0105",
                "operator:type": "consortium",
                "amenity": "kindergarten"
            }
        },
        {
            "id": 277366,
            "type": "Feature",
            "geometry": {
                "type": "Point",
                "coordinates": [
                    21.76629,
                    54.0422
                ]
            },
            "properties": {
                "ref:rspo": 277366,
                "official_name": "Niepubliczny O\u015brodek Doskonalenia Nauczycieli \"Forum Edukacyjne\" w Gi\u017cycku",
                "name": "Niepubliczny O\u015brodek Doskonalenia Nauczycieli \"Forum Edukacyjne\" w Gi\u017cycku",
                "addr:postcode": "11-500",
                "addr:city": "Gi\u017cycko",
                "addr:street": "Nowowiejska",
                "addr:housenumber": "4A",
                "addr:teryt:simc": 977692,
                "addr:teryt:sym_ul": 14495,
                "phone": "+48 577280440",
                "email": "biuro-gizycko@frr.org.pl",
                "website": "http:\/\/www.frr.org.pl",
                "ref:regon": "388708965",
                "operator": "Forum Rozwoju Regionalnego Polska Wschodnia",
                "operator:type": "ngo",
                "amenity": "training"
            }
        },
        {
            "id": 17736,
            "type": "Feature",
            "geometry": {
                "type": "Point",
                "coordinates": [
                    21.78221,
                    54.0422
                ]
            },
            "properties": {
                "ref:rspo": 17736,
                "official_name": "Przedszkole \"Bajka\"",
                "name": "Przedszkole \"Bajka\"",
                "addr:postcode": "11-500",
                "addr:city": "Gi\u017cycko",
                "addr:street": "Wodoci\u0105gowa",
                "addr:housenumber": "15",
                "addr:teryt:simc": 977692,
                "addr:teryt:sym_ul": 24557,
                "phone": "+48 874289320",
                "email": "bajkajaromira@op.pl",
                "ref:regon": "281431067",
                "ref:vatin": "PL8451655204",
                "operator": "Przemys\u0142aw Prokopowicz",
                "operator:type": "private",
                "amenity": "kindergarten"
            }
        },
        {
            "id": 10854,
            "type": "Feature",
            "geometry": {
                "type": "Point",
                "coordinates": [
                    21.7747,
                    54.04302
                ]
            },
            "properties": {
                "ref:rspo": 10854,
                "official_name": "Centrum Kszta\u0142cenia Zawodowgo I Ustawicznego w Gi\u017cycku",
                "name": "Centrum Kszta\u0142cenia Zawodowgo I Ustawicznego w Gi\u017cycku",
                "addr:postcode": "11-500",
                "addr:city": "Gi\u017cycko",
                "addr:street": "Aleja 1 Maja",
                "addr:housenumber": "30",
                "addr:teryt:simc": 977692,
                "addr:teryt:sym_ul": 40237,
                "phone": "+48 874282012",
                "email": "sekretariat@ckziuwg.pl",
                "website": "http:\/\/www.ckziuwg.pl",
                "ref:regon": "280581586",
                "ref:vatin": "PL8451972809",
                "operator": "Powiat Gi\u017cycki",
                "operator:type": "government",
                "landuse": "education",
                "fixme": "amenity=school, amenity=college albo landuse=education w zale\u017cno\u015bci od tego, jakie plac\u00f3wki wchodz\u0105 w sk\u0142ad zespo\u0142u. Sprawd\u017a, kiedy stosowa\u0107 amenity=* a kiedy landuse=education.",
                "note": "Children RSPO: 17449;55723;264981;273926"
            }
        },
        {
            "id": 17449,
            "type": "Feature",
            "geometry": {
                "type": "Point",
                "coordinates": [
                    21.7747,
                    54.042989999999996
                ]
            },
            "properties": {
                "isced:level": "3",
                "ref:rspo": 17449,
                "official_name": "Liceum Og\u00f3lnokszta\u0142c\u0105ce dla Doros\u0142ych",
                "name": "Liceum Og\u00f3lnokszta\u0142c\u0105ce dla Doros\u0142ych",
                "addr:postcode": "11-500",
                "addr:city": "Gi\u017cycko",
                "addr:street": "Aleja 1 Maja",
                "addr:housenumber": "30",
                "addr:teryt:simc": 977692,
                "addr:teryt:sym_ul": 40237,
                "phone": "+48 874282012",
                "email": "cku11_gizycko@poczta.onet.pl",
                "website": "http:\/\/www.ckziuwg.pl",
                "ref:regon": "281431140",
                "operator": "Powiat Gi\u017cycki",
                "operator:type": "government",
                "amenity": "school",
                "note": "Parent RSPO: 10854"
            }
        },
        {
            "id": 264981,
            "type": "Feature",
            "geometry": {
                "type": "Point",
                "coordinates": [
                    21.7747,
                    54.04296
                ]
            },
            "properties": {
                "isced:level": "1;2",
                "ref:rspo": 264981,
                "official_name": "Szko\u0142a Podstawowa Nr 9 dla Doros\u0142ych",
                "name": "Szko\u0142a Podstawowa Nr 9 dla Doros\u0142ych",
                "addr:postcode": "11-500",
                "addr:city": "Gi\u017cycko",
                "addr:street": "Aleja 1 Maja",
                "addr:housenumber": "30",
                "addr:teryt:simc": 977692,
                "addr:teryt:sym_ul": 40237,
                "phone": "+48 874282012",
                "email": "cku11_gizycko@poczta.onet.pl",
                "ref:regon": "368542457",
                "operator": "Powiat Gi\u017cycki",
                "operator:type": "government",
                "amenity": "school",
                "note": "Parent RSPO: 10854"
            }
        },
        {
            "id": 273926,
            "type": "Feature",
            "geometry": {
                "type": "Point",
                "coordinates": [
                    21.7747,
                    54.04293
                ]
            },
            "properties": {
                "ref:rspo": 273926,
                "official_name": "Centrum Kszta\u0142cenia Zawodowego",
                "name": "Centrum Kszta\u0142cenia Zawodowego",
                "addr:postcode": "11-500",
                "addr:city": "Gi\u017cycko",
                "addr:street": "Aleja 1 Maja",
                "addr:housenumber": "30",
                "addr:teryt:simc": 977692,
                "addr:teryt:sym_ul": 40237,
                "phone": "+48 874282012",
                "email": "sekretariat@ckziuwg.pl",
                "website": "http:\/\/www.ckziuwg.pl",
                "ref:regon": "384885140",
                "operator": "Powiat Gi\u017cycki",
                "operator:type": "government",
                "fixme": "w zale\u017cno\u015bci od przedmiotu dzia\u0142alno\u015bci (np. amenity=training + training=*, amenity=dancing_school, amenity=language_school, amenity=music_school) albo amenity=school, amenity=college, albo landuse=education w zale\u017cno\u015bci od tego, jakie plac\u00f3wki wchodz\u0105 w sk\u0142ad zespo\u0142u. Sprawd\u017a, kiedy stosowa\u0107 amenity=* a kiedy landuse=education.",
                "note": "Parent RSPO: 10854"
            }
        },
        {
            "id": 3522,
            "type": "Feature",
            "geometry": {
                "type": "Point",
                "coordinates": [
                    21.76378,
                    54.0432
                ]
            },
            "properties": {
                "ref:rspo": 3522,
                "official_name": "Przedszkole Miejskie Nr 1 Z Oddzia\u0142em Integracyjnym",
                "name": "Przedszkole Miejskie Nr 1 Z Oddzia\u0142em Integracyjnym",
                "addr:postcode": "11-500",
                "addr:city": "Gi\u017cycko",
                "addr:street": "Drzyma\u0142y",
                "addr:housenumber": "9",
                "addr:teryt:simc": 977692,
                "addr:teryt:sym_ul": 4314,
                "phone": "+48 874283397",
                "email": "pm1@gizycko.pl",
                "website": "http:\/\/www.pm1.gizycko.pl",
                "ref:regon": "510975920",
                "ref:vatin": "PL8451971448",
                "operator": "Gmina Miejska Gi\u017cycko",
                "operator:type": "government",
                "amenity": "kindergarten"
            }
        },
        {
            "id": 7549,
            "type": "Feature",
            "geometry": {
                "type": "Point",
                "coordinates": [
                    21.78341,
                    54.04389
                ]
            },
            "properties": {
                "isced:level": "1;2",
                "ref:rspo": 7549,
                "official_name": "Szko\u0142a Podstawowa Nr 7 im. Janusza Korczaka w Gi\u017cycku",
                "name": "Szko\u0142a Podstawowa Nr 7",
                "addr:postcode": "11-500",
                "addr:city": "Gi\u017cycko",
                "addr:street": "Wodoci\u0105gowa",
                "addr:housenumber": "8",
                "addr:teryt:simc": 977692,
                "addr:teryt:sym_ul": 24557,
                "phone": "+48 874289060",
                "email": "sp7@gizycko.pl",
                "website": "http:\/\/www.sp7.gizycko.pl",
                "ref:regon": "001245382",
                "ref:vatin": "PL8451062421",
                "operator": "Gmina Miejska Gi\u017cycko",
                "operator:type": "government",
                "amenity": "school"
            }
        },
        {
            "id": 120916,
            "type": "Feature",
            "geometry": {
                "type": "Point",
                "coordinates": [
                    21.78094,
                    54.04414
                ]
            },
            "properties": {
                "ref:rspo": 120916,
                "official_name": "Niepubliczne Przedszkole Pod Weso\u0142\u0105 Chmurk\u0105",
                "name": "Niepubliczne Przedszkole Pod Weso\u0142\u0105 Chmurk\u0105",
                "addr:postcode": "11-500",
                "addr:city": "Gi\u017cycko",
                "addr:street": "Wodoci\u0105gowa",
                "addr:housenumber": "23",
                "addr:teryt:simc": 977692,
                "addr:teryt:sym_ul": 24557,
                "phone": "+48 506807724",
                "email": "wesolachmurka1@wp.pl",
                "website": "http:\/\/www.elk.caritas.pl",
                "ref:regon": "281550642",
                "ref:vatin": "PL8451983859",
                "operator": "Caritas Diecezji E\u0142ckiej",
                "operator:type": "religious",
                "amenity": "kindergarten"
            }
        },
        {
            "id": 273729,
            "type": "Feature",
            "geometry": {
                "type": "Point",
                "coordinates": [
                    21.78053,
                    54.04428
                ]
            },
            "properties": {
                "ref:rspo": 273729,
                "official_name": "Cogito Niepubliczne Przedszkole Montessori",
                "name": "Cogito Niepubliczne Przedszkole Montessori",
                "addr:postcode": "11-500",
                "addr:city": "Gi\u017cycko",
                "addr:street": "Kr\u00f3lowej Jadwigi",
                "addr:housenumber": "19",
                "addr:door": "54",
                "addr:teryt:simc": 977692,
                "addr:teryt:sym_ul": 10003,
                "email": "cogito.gizycko@gmail.com",
                "website": "http:\/\/www.przedszkole-cogito.pl",
                "ref:regon": "384593360",
                "operator": "Dorota Kubacka-Ko\u0142owska",
                "operator:type": "private",
                "amenity": "kindergarten"
            }
        },
        {
            "id": 3309,
            "type": "Feature",
            "geometry": {
                "type": "Point",
                "coordinates": [
                    21.77807,
                    54.04765
                ]
            },
            "properties": {
                "isced:level": "1;2",
                "ref:rspo": 3309,
                "official_name": "Szko\u0142a Podstawowa Nr 4 im. I Dywizji Piechoty w Gi\u017cycku",
                "name": "Szko\u0142a Podstawowa Nr 4",
                "addr:postcode": "11-500",
                "addr:city": "Gi\u017cycko",
                "addr:street": "3 Maja",
                "addr:housenumber": "21",
                "addr:teryt:simc": 977692,
                "addr:teryt:sym_ul": 11937,
                "phone": "+48 874283668",
                "email": "sp4@gizycko.pl",
                "website": "http:\/\/www.sp4.gizycko.pl",
                "ref:regon": "000720177",
                "ref:vatin": "PL8451056685",
                "operator": "Gmina Miejska Gi\u017cycko",
                "operator:type": "government",
                "amenity": "school"
            }
        },
        {
            "id": 122617,
            "type": "Feature",
            "geometry": {
                "type": "Point",
                "coordinates": [
                    21.77807,
                    54.047619999999995
                ]
            },
            "properties": {
                "ref:rspo": 122617,
                "official_name": "Tanmuz Bogus\u0142aw Szlaszy\u0144ski",
                "name": "Tanmuz Bogus\u0142aw Szlaszy\u0144ski",
                "addr:postcode": "11-500",
                "addr:city": "Gi\u017cycko",
                "addr:street": "3 Maja",
                "addr:housenumber": "21",
                "addr:teryt:simc": 977692,
                "addr:teryt:sym_ul": 11937,
                "phone": "+48 875204282",
                "email": "tanmuz@tanmuz.pl",
                "website": "http:\/\/www.tanmuz.pl",
                "ref:regon": "281578497",
                "operator": "Tanmuz Bogus\u0142aw Szlaszy\u0144ski",
                "operator:type": "consortium",
                "fixme": "w zale\u017cno\u015bci od przedmiotu dzia\u0142alno\u015bci (np. amenity=training + training=*, amenity=dancing_school, amenity=language_school, amenity=music_school)"
            }
        },
        {
            "id": 9846,
            "type": "Feature",
            "geometry": {
                "type": "Point",
                "coordinates": [
                    21.76651,
                    54.05347
                ]
            },
            "properties": {
                "isced:level": "1;2",
                "ref:rspo": 9846,
                "official_name": "Szko\u0142a Podstawowa Nr 3 Z Oddzia\u0142ami Integracyjnymi im. Miko\u0142aja Kopernika",
                "name": "Szko\u0142a Podstawowa Nr 3 Z Oddzia\u0142ami Integracyjnymi",
                "addr:postcode": "11-500",
                "addr:city": "Gi\u017cycko",
                "addr:street": "Wiejska",
                "addr:housenumber": "50",
                "addr:teryt:simc": 977692,
                "addr:teryt:sym_ul": 24048,
                "phone": "+48 874282135",
                "email": "sp3@gizycko.pl",
                "website": "http:\/\/www.sp3.gizycko.pl",
                "ref:regon": "000720160",
                "ref:vatin": "PL8451058023",
                "operator": "Gmina Miejska Gi\u017cycko",
                "operator:type": "government",
                "amenity": "school"
            }
        }
    ]
}