{"type":"FeatureCollection","features":[{"id":39744,"type":"Feature","geometry":{"type":"Point","coordinates":[14.94069,52.01495]},"properties":{"isced:level":"1;2","ref:rspo":39744,"official_name":"Szko\u0142a Podstawowa im. \u015aw. Jadwigi \u015aL\u0105skiej","name":"Szko\u0142a Podstawowa","addr:country":"PL","addr:postcode":"66-600","addr:place":"W\u0119\u017cyska","addr:housenumber":"162","addr:teryt:sym_ul":910736,"contact:phone":"+48 683831867","contact:email":"spwezyska@krosnoodrzanskie.pl","contact:website":"http:\/\/spw.krosnoodrzanskie.pl","ref:regon":"970572308","ref:vatin":"PL9261579854","operator":"Gmina Krosno Odrza\u0144skie","operator:type":"government","amenity":"school"}},{"id":25516,"type":"Feature","geometry":{"type":"Point","coordinates":[15.08838,52.03704]},"properties":{"ref:rspo":25516,"official_name":"Zesp\u00f3\u0142 Szkolno-Przedszkolny Przedszkole w Starym Raduszcu","name":"Zesp\u00f3\u0142 Szkolno-Przedszkolny Przedszkole w Starym Raduszcu","addr:country":"PL","addr:postcode":"66-600","addr:place":"Stary Raduszec","addr:housenumber":"47","addr:teryt:sym_ul":910707,"contact:phone":"+48 683837910","contact:email":"psr@krosnoodrzanskie.pl","ref:regon":"977985479","ref:vatin":"PL9261555256","operator":"Gmina Krosno Odrza\u0144skie","operator:type":"government","amenity":"kindergarten","note":"Parent RSPO: 131381"}},{"id":131381,"type":"Feature","geometry":{"type":"Point","coordinates":[15.09867,52.04134]},"properties":{"ref:rspo":131381,"official_name":"Zesp\u00f3\u0142 Szkolno-Przedszkolny w Kro\u015bnie Odrza\u0144skim","name":"Zesp\u00f3\u0142 Szkolno-Przedszkolny w Kro\u015bnie Odrza\u0144skim","addr:country":"PL","addr:postcode":"66-600","addr:city":"Krosno Odrza\u0144skie","addr:street":"ul. Bohater\u00f3w Wojska Polskiego","addr:housenumber":"21","addr:teryt:simc":34497,"addr:teryt:sym_ul":988460,"contact:phone":"+48 683835178","contact:email":"zsp@krosnoodrzanskie.pl","ref:regon":"365148694","ref:vatin":"PL9261675569","operator":"Gmina Krosno Odrza\u0144skie","operator:type":"government","landuse":"education","fixme":"amenity=school, amenity=college albo landuse=education w zale\u017cno\u015bci od tego, jakie plac\u00f3wki wchodz\u0105 w sk\u0142ad zespo\u0142u. Sprawd\u017a, kiedy stosowa\u0107 amenity=* a kiedy landuse=education.","note":"Children RSPO: 25516;25520"}},{"id":25520,"type":"Feature","geometry":{"type":"Point","coordinates":[15.09867,52.041309999999996]},"properties":{"isced:level":"1;2","ref:rspo":25520,"official_name":"Zesp\u00f3\u0142 Szkolno-Przedszkolny Szko\u0142a Podstawowa Nr 1 im. Marii Sk\u0142odowskiej - Curie","name":"Zesp\u00f3\u0142 Szkolno-Przedszkolny Szko\u0142a Podstawowa Nr 1","addr:country":"PL","addr:postcode":"66-600","addr:city":"Krosno Odrza\u0144skie","addr:street":"ul. Bohater\u00f3w Wojska Polskiego","addr:housenumber":"21","addr:teryt:simc":34497,"addr:teryt:sym_ul":988460,"contact:phone":"+48 683835178","contact:email":"sp1@krosnoodrzanskie.pl","contact:website":"http:\/\/www.sp1krosno.edupage.org","ref:regon":"970570551","ref:vatin":"PL9261554854","operator":"Gmina Krosno Odrza\u0144skie","operator:type":"government","amenity":"school","note":"Parent RSPO: 131381"}},{"id":6819,"type":"Feature","geometry":{"type":"Point","coordinates":[15.10073,52.04725]},"properties":{"ref:rspo":6819,"official_name":"Zesp\u00f3\u0142 Szk\u00f3\u0142 Ponadgimnazjalnych w Kro\u015bnie Odrza\u0144skim","name":"Zesp\u00f3\u0142 Szk\u00f3\u0142 Ponadgimnazjalnych w Kro\u015bnie Odrza\u0144skim","addr:country":"PL","addr:postcode":"66-600","addr:city":"Krosno Odrza\u0144skie","addr:street":"ul. Szkolna","addr:housenumber":"1","addr:teryt:simc":21970,"addr:teryt:sym_ul":988460,"contact:phone":"+48 683835052","contact:email":"sekretariat@zsp.powiatkrosnienski.pl","contact:website":"http:\/\/www.zspkrosno.edu.pl","ref:regon":"977996721","ref:vatin":"PL9261016039","operator":"Powiat Kro\u015bnie\u0144ski","operator:type":"government","landuse":"education","fixme":"amenity=school, amenity=college albo landuse=education w zale\u017cno\u015bci od tego, jakie plac\u00f3wki wchodz\u0105 w sk\u0142ad zespo\u0142u. Sprawd\u017a, kiedy stosowa\u0107 amenity=* a kiedy landuse=education.","note":"Children RSPO: 8464;73728;74164;74166;120073"}},{"id":8464,"type":"Feature","geometry":{"type":"Point","coordinates":[15.10073,52.047219999999996]},"properties":{"isced:level":"3","ref:rspo":8464,"official_name":"Bran\u017cowa Szko\u0142a I Stopnia w Kro\u015bnie Odrza\u0144skim","name":"Bran\u017cowa Szko\u0142a I Stopnia w Kro\u015bnie Odrza\u0144skim","addr:country":"PL","addr:postcode":"66-600","addr:city":"Krosno Odrza\u0144skie","addr:street":"ul. Szkolna","addr:housenumber":"1","addr:teryt:simc":21970,"addr:teryt:sym_ul":988460,"contact:phone":"+48 683835052","contact:email":"sekretariat@zsp.powiatkrosnienski.pl","contact:website":"http:\/\/www.zspkrosno.edu.pl","ref:regon":"081069030","operator":"Powiat Kro\u015bnie\u0144ski","operator:type":"government","amenity":"school","note":"Parent RSPO: 6819"}},{"id":73728,"type":"Feature","geometry":{"type":"Point","coordinates":[15.10073,52.04719]},"properties":{"isced:level":"4","ref:rspo":73728,"official_name":"Szko\u0142a Policealna w Kro\u015bnie Odrza\u0144skim","name":"Szko\u0142a Policealna w Kro\u015bnie Odrza\u0144skim","addr:country":"PL","addr:postcode":"66-600","addr:city":"Krosno Odrza\u0144skie","addr:street":"ul. Szkolna","addr:housenumber":"1","addr:teryt:simc":21970,"addr:teryt:sym_ul":988460,"contact:phone":"+48 683835022","ref:regon":"978103010","ref:vatin":"PL9261016039","operator":"Powiat Kro\u015bnie\u0144ski","operator:type":"government","amenity":"college","note":"Parent RSPO: 6819"}},{"id":74164,"type":"Feature","geometry":{"type":"Point","coordinates":[15.10073,52.04716]},"properties":{"isced:level":"3","ref:rspo":74164,"official_name":"Liceum Og\u00f3lnokszta\u0142c\u0105ce w Kro\u015bnie Odrza\u0144skim","name":"Liceum Og\u00f3lnokszta\u0142c\u0105ce w Kro\u015bnie Odrza\u0144skim","addr:country":"PL","addr:postcode":"66-600","addr:city":"Krosno Odrza\u0144skie","addr:street":"ul. Szkolna","addr:housenumber":"1","addr:teryt:simc":21970,"addr:teryt:sym_ul":988460,"contact:phone":"+48 683835022","ref:regon":"977996738","ref:vatin":"PL9261016039","operator":"Powiat Kro\u015bnie\u0144ski","operator:type":"government","amenity":"school","note":"Parent RSPO: 6819"}},{"id":74166,"type":"Feature","geometry":{"type":"Point","coordinates":[15.10073,52.047129999999996]},"properties":{"isced:level":"3","ref:rspo":74166,"official_name":"Technikum w Kro\u015bnie Odrza\u0144skim","name":"Technikum w Kro\u015bnie Odrza\u0144skim","addr:country":"PL","addr:postcode":"66-600","addr:city":"Krosno Odrza\u0144skie","addr:street":"ul. Szkolna","addr:housenumber":"1","addr:teryt:simc":21970,"addr:teryt:sym_ul":988460,"contact:phone":"+48 683835022","contact:email":"sekretariat@zsp.powiatkrosnienski.pl","contact:website":"http:\/\/www.zspkrosno.edu.pl","ref:regon":"977996767","ref:vatin":"PL9261016039","operator":"Powiat Kro\u015bnie\u0144ski","operator:type":"government","amenity":"school","note":"Parent RSPO: 6819"}},{"id":120073,"type":"Feature","geometry":{"type":"Point","coordinates":[15.10073,52.0471]},"properties":{"isced:level":"3","ref:rspo":120073,"official_name":"Liceum Og\u00f3lnokszta\u0142c\u0105ce dla Doros\u0142ych w Kro\u015bnie Odrza\u0144skim","name":"Liceum Og\u00f3lnokszta\u0142c\u0105ce dla Doros\u0142ych w Kro\u015bnie Odrza\u0144skim","addr:country":"PL","addr:postcode":"66-600","addr:city":"Krosno Odrza\u0144skie","addr:street":"ul. Szkolna","addr:housenumber":"1","addr:teryt:simc":21970,"addr:teryt:sym_ul":988460,"contact:phone":"+48 683835022","ref:regon":"081163213","operator":"Powiat Kro\u015bnie\u0144ski","operator:type":"government","amenity":"school","note":"Parent RSPO: 6819"}},{"id":25515,"type":"Feature","geometry":{"type":"Point","coordinates":[15.11125,52.05147]},"properties":{"ref:rspo":25515,"official_name":"Przedszkole Nr 4","name":"Przedszkole Nr 4","addr:country":"PL","addr:postcode":"66-600","addr:city":"Krosno Odrza\u0144skie","addr:street":"ul. Boles\u0142awa Chrobrego","addr:housenumber":"33","addr:teryt:simc":1742,"addr:teryt:sym_ul":988460,"contact:phone":"+48 683835247","contact:email":"p4@krosnoodrzanskie.pl","ref:regon":"978059504","ref:vatin":"PL9261570959","operator":"Gmina Krosno Odrza\u0144skie","operator:type":"government","amenity":"kindergarten"}},{"id":55340,"type":"Feature","geometry":{"type":"Point","coordinates":[15.10937,52.05237]},"properties":{"ref:rspo":55340,"official_name":"Zesp\u00f3\u0142 Szk\u00f3\u0142 Specjalnych w Kro\u015bnie Odrza\u0144skim","name":"Zesp\u00f3\u0142 Szk\u00f3\u0142 Specjalnych w Kro\u015bnie Odrza\u0144skim","addr:country":"PL","addr:postcode":"66-600","addr:city":"Krosno Odrza\u0144skie","addr:street":"ul. Pozna\u0144ska","addr:housenumber":"88","addr:teryt:simc":17394,"addr:teryt:sym_ul":988460,"contact:phone":"+48 683835407","contact:email":"sekretariat@zss.powiatkrosnienski.pl","contact:website":"https:\/\/zss.powiatkrosnienski.pl","ref:regon":"006089509","ref:vatin":"PL9261519088","operator":"Powiat Kro\u015bnie\u0144ski","operator:type":"government","landuse":"education","fixme":"amenity=school, amenity=college albo landuse=education w zale\u017cno\u015bci od tego, jakie plac\u00f3wki wchodz\u0105 w sk\u0142ad zespo\u0142u. Sprawd\u017a, kiedy stosowa\u0107 amenity=* a kiedy landuse=education.","note":"Children RSPO: 74270;74272"}},{"id":74270,"type":"Feature","geometry":{"type":"Point","coordinates":[15.10937,52.05234]},"properties":{"isced:level":"1;2","ref:rspo":74270,"official_name":"Szko\u0142a Podstawowa Specjalna Nr 4 w Kro\u015bnie Odrza\u0144skim","name":"Szko\u0142a Podstawowa Specjalna Nr 4 w Kro\u015bnie Odrza\u0144skim","addr:country":"PL","addr:postcode":"66-600","addr:city":"Krosno Odrza\u0144skie","addr:street":"ul. Pozna\u0144ska","addr:housenumber":"88","addr:teryt:simc":17394,"addr:teryt:sym_ul":988460,"contact:phone":"+48 683835407","contact:email":"sekretariat@zss.powiatkrosnienski.pl","contact:website":"http:\/\/zsskrosno.pl","ref:regon":"081086062","ref:vatin":"PL9261519088","operator":"Powiat Kro\u015bnie\u0144ski","operator:type":"government","amenity":"school","note":"Parent RSPO: 55340"}},{"id":74272,"type":"Feature","geometry":{"type":"Point","coordinates":[15.10937,52.052310000000006]},"properties":{"ref:rspo":74272,"official_name":"Szko\u0142a Specjalna Przysposabiaj\u0105ca Do Pracy w Kro\u015bnie Odrza\u0144skim","name":"Szko\u0142a Specjalna Przysposabiaj\u0105ca Do Pracy w Kro\u015bnie Odrza\u0144skim","addr:country":"PL","addr:postcode":"66-600","addr:city":"Krosno Odrza\u0144skie","addr:street":"ul. Pozna\u0144ska","addr:housenumber":"88","addr:teryt:simc":17394,"addr:teryt:sym_ul":988460,"contact:phone":"+48 683835407","contact:email":"sekretariat@zss.powiatkrosnienski.pl","contact:website":"http:\/\/zsskrosno.pl","ref:regon":"081086122","ref:vatin":"PL9261519088","operator":"Powiat Kro\u015bnie\u0144ski","operator:type":"government","amenity":"school","note":"Parent RSPO: 55340"}},{"id":25512,"type":"Feature","geometry":{"type":"Point","coordinates":[15.09606,52.05332]},"properties":{"ref:rspo":25512,"official_name":"Przedszkole Nr1 im. Przyjaci\u00f3\u0142 Stumilowego Lasu","name":"Przedszkole Nr1","addr:country":"PL","addr:postcode":"66-600","addr:city":"Krosno Odrza\u0144skie","addr:street":"ul. Srebrna G\u00f3ra","addr:housenumber":"2","addr:teryt:simc":20733,"addr:teryt:sym_ul":988460,"contact:phone":"+48 683835179","contact:email":"p1@krosnoodrzanskie.pl","contact:website":"http:\/\/www.p1.krosnoodrzanskie.pl","ref:regon":"977985491","ref:vatin":"PL9261555262","operator":"Gmina Krosno Odrza\u0144skie","operator:type":"government","amenity":"kindergarten"}},{"id":25518,"type":"Feature","geometry":{"type":"Point","coordinates":[15.09315,52.05399]},"properties":{"isced:level":"1;2","ref:rspo":25518,"official_name":"Szko\u0142a Podstawowa Nr 2 im. Jana Kili\u0144skiego","name":"Szko\u0142a Podstawowa Nr 2","addr:country":"PL","addr:postcode":"66-600","addr:city":"Krosno Odrza\u0144skie","addr:street":"ul. Moniuszki","addr:housenumber":"30","addr:teryt:simc":13242,"addr:teryt:sym_ul":988460,"contact:phone":"+48 683835243","contact:email":"sp2@krosnoodrzanskie.pl","contact:website":"http:\/\/www.s2.krosnoodrzanskie.pl","ref:regon":"970570539","ref:vatin":"PL9261554877","operator":"Gmina Krosno Odrza\u0144skie","operator:type":"government","amenity":"school"}},{"id":25521,"type":"Feature","geometry":{"type":"Point","coordinates":[15.10719,52.05529]},"properties":{"isced:level":"1;2","ref:rspo":25521,"official_name":"Szko\u0142a Podstawowa Nr 3 im.ignacego \u0141ukasiewicza","name":"Szko\u0142a Podstawowa Nr 3 im.ignacego \u0141ukasiewicza","addr:country":"PL","addr:postcode":"66-600","addr:city":"Krosno Odrza\u0144skie","addr:street":"ul. Pu\u0142askiego","addr:housenumber":"3","addr:teryt:simc":18091,"addr:teryt:sym_ul":988460,"contact:phone":"+48 683839500","contact:email":"sp3@krosnoodrzanskie.pl","contact:website":"http:\/\/www.sp3krosnoodrzanskie.pl","ref:regon":"970570545","ref:vatin":"PL9261675575","operator":"Gmina Krosno Odrza\u0144skie","operator:type":"government","amenity":"school"}},{"id":27239,"type":"Feature","geometry":{"type":"Point","coordinates":[15.1039169,52.0554899]},"properties":{"ref:rspo":27239,"official_name":"Pa\u0144stwowa Szko\u0142a Muzyczna I St. im. Fryderyka Chopina w Kro\u015bnie Odrza\u0144skim","name":"Pa\u0144stwowa Szko\u0142a Muzyczna I St.","addr:country":"PL","addr:postcode":"66-600","addr:city":"Krosno Odrza\u0144skie","addr:street":"ul. Piast\u00f3w","addr:housenumber":"10i","addr:teryt:simc":16057,"addr:teryt:sym_ul":988460,"contact:phone":"+48 683835466","contact:email":"psmko@interia.pl","contact:website":"http:\/\/psm.krosno-odrz.pl","ref:regon":"000577484","operator":"Ministerstwo Kultury I Dziedzictwa Narodowego","operator:type":"public","amenity":"music_school"}},{"id":44366,"type":"Feature","geometry":{"type":"Point","coordinates":[15.10568,52.05597]},"properties":{"ref:rspo":44366,"official_name":"Poradnia Psychologiczno - Pedagogiczna w Kro\u015bnie Odrza\u0144skim","name":"Poradnia Psychologiczno - Pedagogiczna w Kro\u015bnie Odrza\u0144skim","addr:country":"PL","addr:postcode":"66-600","addr:city":"Krosno Odrza\u0144skie","addr:street":"ul. Piast\u00f3w","addr:housenumber":"10B","addr:teryt:simc":16057,"addr:teryt:sym_ul":988460,"contact:phone":"+48 683830260","contact:email":"sekretariat@ppp.powiatkrosnienski.pl","contact:website":"http:\/\/www.ppp.powiatkrosnienski.pl","ref:regon":"000705887","ref:vatin":"PL9261036504","operator":"Powiat Kro\u015bnie\u0144ski","operator:type":"government","healthcare":"councelling","counselling_type":"education","fixme":"w zale\u017cno\u015bci od przedmiotu dzia\u0142alno\u015bci (np. healthcare=councelling + counselling_type=education albo healthcare=psychotherapist)"}},{"id":25514,"type":"Feature","geometry":{"type":"Point","coordinates":[15.09965,52.0561]},"properties":{"ref:rspo":25514,"official_name":"Przedszkole Nr 3 im. Jana Brzechwy","name":"Przedszkole Nr 3","addr:country":"PL","addr:postcode":"66-600","addr:city":"Krosno Odrza\u0144skie","addr:street":"ul. Piast\u00f3w","addr:housenumber":"6d","addr:teryt:simc":16057,"addr:teryt:sym_ul":988460,"contact:phone":"+48 683835456","contact:email":"p3@krosnoodrzanskie.pl","contact:website":"http:\/\/www.p3.krosnoodrzanskie.pl","ref:regon":"977985597","ref:vatin":"PL9261555285","operator":"Gmina Krosno Odrza\u0144skie","operator:type":"government","amenity":"kindergarten"}},{"id":25513,"type":"Feature","geometry":{"type":"Point","coordinates":[15.10091,52.05618]},"properties":{"ref:rspo":25513,"official_name":"Przedszkole Nr 2","name":"Przedszkole Nr 2","addr:country":"PL","addr:postcode":"66-600","addr:city":"Krosno Odrza\u0144skie","addr:street":"ul. Piast\u00f3w","addr:housenumber":"2","addr:teryt:simc":16057,"addr:teryt:sym_ul":988460,"contact:email":"p2@krosnoodrzanskie.pl","contact:website":"http:\/\/p2.krosnoodrzanskie.pl","ref:regon":"977985462","ref:vatin":"PL9261555316","operator":"Gmina Krosno Odrza\u0144skie","operator:type":"government","amenity":"kindergarten"}},{"id":25527,"type":"Feature","geometry":{"type":"Point","coordinates":[15.05034,52.0730099]},"properties":{"ref:rspo":25527,"official_name":"Zesp\u00f3\u0142 Edukacyjny","name":"Zesp\u00f3\u0142 Edukacyjny","addr:country":"PL","addr:postcode":"66-600","addr:city":"Osiecznica","addr:street":"ul. Szkolna","addr:housenumber":"15","addr:teryt:simc":21970,"addr:teryt:sym_ul":910660,"contact:phone":"+48 683837024","contact:email":"zeo@krosnoodrzanskie.pl","ref:regon":"080987886","ref:vatin":"PL9261669586","operator":"Gmina Krosno Odrza\u0144skie","operator:type":"government","landuse":"education","fixme":"amenity=school, amenity=college albo landuse=education w zale\u017cno\u015bci od tego, jakie plac\u00f3wki wchodz\u0105 w sk\u0142ad zespo\u0142u. Sprawd\u017a, kiedy stosowa\u0107 amenity=* a kiedy landuse=education.","note":"Children RSPO: 39141;41207"}},{"id":39141,"type":"Feature","geometry":{"type":"Point","coordinates":[15.05034,52.0729799]},"properties":{"ref:rspo":39141,"official_name":"Zesp\u00f3\u0142 Edukacyjny w Osiecznicy - Przedszkole","name":"Zesp\u00f3\u0142 Edukacyjny w Osiecznicy - Przedszkole","addr:country":"PL","addr:postcode":"66-600","addr:city":"Osiecznica","addr:street":"ul. Szkolna","addr:housenumber":"15","addr:teryt:simc":21970,"addr:teryt:sym_ul":910660,"contact:phone":"+48 683837024","contact:email":"szkola-osiecznica@wp.pl","ref:regon":"977985500","ref:vatin":"PL9261555279","operator":"Gmina Krosno Odrza\u0144skie","operator:type":"government","amenity":"kindergarten","note":"Parent RSPO: 25527"}},{"id":41207,"type":"Feature","geometry":{"type":"Point","coordinates":[15.05034,52.072949900000005]},"properties":{"isced:level":"1;2","ref:rspo":41207,"official_name":"Zesp\u00f3\u0142 Edukacyjny - Szko\u0142a Podstawowa im. Kawaler\u00f3w Orderu U\u015bmiechu","name":"Zesp\u00f3\u0142 Edukacyjny - Szko\u0142a Podstawowa","addr:country":"PL","addr:postcode":"66-600","addr:city":"Osiecznica","addr:street":"ul. Szkolna","addr:housenumber":"15","addr:teryt:simc":21970,"addr:teryt:sym_ul":910660,"contact:phone":"+48 683837024","contact:email":"zeo@krosnoodrzanskie.pl","ref:regon":"970572277","ref:vatin":"PL9261554883","operator":"Gmina Krosno Odrza\u0144skie","operator:type":"government","amenity":"school","note":"Parent RSPO: 25527"}},{"id":25524,"type":"Feature","geometry":{"type":"Point","coordinates":[15.21987,52.08392]},"properties":{"isced:level":"1;2","ref:rspo":25524,"official_name":"Szko\u0142a Podstawowa Im Ks. Jerzego Popie\u0142uszki w Radnicy","name":"Szko\u0142a Podstawowa Im Ks. Jerzego Popie\u0142uszki w Radnicy","addr:country":"PL","addr:postcode":"66-600","addr:place":"Radnica","addr:housenumber":"146","addr:teryt:sym_ul":910676,"contact:phone":"+48 683831525","contact:email":"spradnica@krosnoodrzanskie.pl","contact:website":"http:\/\/www.spradnica.edupage.org","ref:regon":"970572283","ref:vatin":"PL9261554908","operator":"Gmina Krosno Odrza\u0144skie","operator:type":"government","amenity":"school"}}]}