{
    "type": "FeatureCollection",
    "features": [
        {
            "id": 270507,
            "type": "Feature",
            "geometry": {
                "type": "Point",
                "coordinates": [
                    14.62044,
                    51.82091
                ]
            },
            "properties": {
                "isced:level": "1;2",
                "ref:rspo": 270507,
                "official_name": "Szko\u0142a Podstawowa w Strzegowie Filia Sp Grabice",
                "name": "Szko\u0142a Podstawowa w Strzegowie Filia Sp Grabice",
                "addr:postcode": "66-620",
                "addr:place": "Strzeg\u00f3w",
                "addr:housenumber": "79",
                "addr:teryt:simc": 909584,
                "phone": "+48 683591725",
                "email": "sp.strzegow@wp.pl",
                "website": "http:\/\/www.sptrzegow.com.pl",
                "ref:regon": "970635760",
                "operator": "Gmina Gubin",
                "operator:type": "government",
                "amenity": "school",
                "note": "Parent RSPO: 84007"
            }
        },
        {
            "id": 275944,
            "type": "Feature",
            "geometry": {
                "type": "Point",
                "coordinates": [
                    14.81552,
                    51.86886
                ]
            },
            "properties": {
                "isced:level": "1;2",
                "ref:rspo": 275944,
                "official_name": "Szko\u0142a Podstawowa w Starosiedlu Filia Sp w Czarnowicach",
                "name": "Szko\u0142a Podstawowa w Starosiedlu Filia Sp w Czarnowicach",
                "addr:postcode": "66-620",
                "addr:place": "Starosiedle",
                "addr:housenumber": "22",
                "addr:teryt:simc": 909561,
                "phone": "+48 683593707",
                "email": "czarnowice@wp.pl",
                "ref:regon": "970635753",
                "operator": "Gmina Gubin",
                "operator:type": "government",
                "amenity": "school",
                "note": "Parent RSPO: 75746"
            }
        },
        {
            "id": 84007,
            "type": "Feature",
            "geometry": {
                "type": "Point",
                "coordinates": [
                    14.70114,
                    51.86895
                ]
            },
            "properties": {
                "isced:level": "1;2",
                "ref:rspo": 84007,
                "official_name": "Szko\u0142a Podstawowa w Grabicach",
                "name": "Szko\u0142a Podstawowa w Grabicach",
                "addr:postcode": "66-620",
                "addr:place": "Grabice",
                "addr:housenumber": "59",
                "addr:teryt:simc": 909294,
                "phone": "+48 683592124",
                "email": "zs.grabice@wp.pl",
                "website": "http:\/\/zsgrabice.pl",
                "ref:regon": "970635760",
                "ref:vatin": "PL9261677893",
                "operator": "Gmina Gubin",
                "operator:type": "government",
                "amenity": "school",
                "note": "Children RSPO: 270507"
            }
        },
        {
            "id": 75746,
            "type": "Feature",
            "geometry": {
                "type": "Point",
                "coordinates": [
                    14.75975,
                    51.9032
                ]
            },
            "properties": {
                "isced:level": "1;2",
                "ref:rspo": 75746,
                "official_name": "Szko\u0142a Podstawowa w Czarnowicach",
                "name": "Szko\u0142a Podstawowa w Czarnowicach",
                "addr:postcode": "66-620",
                "addr:place": "Czarnowice",
                "addr:housenumber": "20",
                "addr:teryt:simc": 909236,
                "phone": "+48 683593707",
                "email": "czarnowice@wp.pl",
                "website": "http:\/\/sp-czarnowice.edupage.org",
                "ref:regon": "970635753",
                "ref:vatin": "PL9261677901",
                "operator": "Gmina Gubin",
                "operator:type": "government",
                "amenity": "school",
                "note": "Children RSPO: 275944"
            }
        },
        {
            "id": 84005,
            "type": "Feature",
            "geometry": {
                "type": "Point",
                "coordinates": [
                    14.86604,
                    52.03826
                ]
            },
            "properties": {
                "isced:level": "1;2",
                "ref:rspo": 84005,
                "official_name": "Szko\u0142a Podstawowa w Chlebowie",
                "name": "Szko\u0142a Podstawowa w Chlebowie",
                "addr:postcode": "66-620",
                "addr:place": "Chlebowo",
                "addr:housenumber": "123",
                "addr:teryt:simc": 909207,
                "phone": "+48 683831815",
                "email": "spchlebowo@gminagubin.pl",
                "website": "http:\/\/spchlebowo.edupage.org",
                "ref:regon": "970635747",
                "ref:vatin": "PL9261677887",
                "operator": "Gmina Gubin",
                "operator:type": "government",
                "amenity": "school"
            }
        }
    ]
}