{
    "type": "FeatureCollection",
    "features": [
        {
            "id": 89351,
            "type": "Feature",
            "geometry": {
                "type": "Point",
                "coordinates": [
                    14.73413,
                    51.9470699
                ]
            },
            "properties": {
                "isced:level": "1;2",
                "ref:rspo": 89351,
                "official_name": "Szko\u0142a Podstawowa Nr 1 im. Miko\u0142aja Kopernika w Gubinie",
                "name": "Szko\u0142a Podstawowa Nr 1",
                "addr:country": "PL",
                "addr:postcode": "66-620",
                "addr:city": "Gubin",
                "addr:street": "Rac\u0142awicka",
                "addr:housenumber": "2",
                "addr:teryt:simc": 988394,
                "addr:teryt:sym_ul": 18273,
                "contact:phone": "+48 684558146",
                "contact:email": "jjedynkagubin@poczta.fm",
                "contact:website": "http:\/\/zsgubin.edupage.org",
                "ref:regon": "080489846",
                "ref:vatin": "PL9261665559",
                "operator": "Gmina Gubin O Statusie Miejskim",
                "operator:type": "government",
                "amenity": "school"
            }
        },
        {
            "id": 7083,
            "type": "Feature",
            "geometry": {
                "type": "Point",
                "coordinates": [
                    14.7341,
                    51.9479
                ]
            },
            "properties": {
                "ref:rspo": 7083,
                "official_name": "Zesp\u00f3\u0142 Szk\u00f3\u0142 Licealnych I Technicznych im. Stanis\u0142awa Staszica w Gubinie",
                "name": "Zesp\u00f3\u0142 Szk\u00f3\u0142 Licealnych I Technicznych",
                "addr:country": "PL",
                "addr:postcode": "66-620",
                "addr:city": "Gubin",
                "addr:street": "Rac\u0142awicka",
                "addr:housenumber": "1",
                "addr:teryt:simc": 988394,
                "addr:teryt:sym_ul": 18273,
                "contact:phone": "+48 683593184",
                "contact:email": "sekretariat@zslit.gubin.pl",
                "contact:website": "http:\/\/www.zslit.gubin.pl",
                "ref:regon": "000180338",
                "ref:vatin": "PL9261353340",
                "operator": "Powiat Kro\u015bnie\u0144ski",
                "operator:type": "government",
                "landuse": "education",
                "fixme": "amenity=school, amenity=college albo landuse=education w zale\u017cno\u015bci od tego, jakie plac\u00f3wki wchodz\u0105 w sk\u0142ad zespo\u0142u. Sprawd\u017a, kiedy stosowa\u0107 amenity=* a kiedy landuse=education.",
                "note": "Children RSPO: 9697;78981;80665;120049;120075"
            }
        },
        {
            "id": 9697,
            "type": "Feature",
            "geometry": {
                "type": "Point",
                "coordinates": [
                    14.7341,
                    51.947869999999995
                ]
            },
            "properties": {
                "isced:level": "3",
                "ref:rspo": 9697,
                "official_name": "Bran\u017cowa Szko\u0142a I Stopnia Nr 1 w Gubinie",
                "name": "Bran\u017cowa Szko\u0142a I Stopnia Nr 1 w Gubinie",
                "addr:country": "PL",
                "addr:postcode": "66-620",
                "addr:city": "Gubin",
                "addr:street": "Rac\u0142awicka",
                "addr:housenumber": "1",
                "addr:teryt:simc": 988394,
                "addr:teryt:sym_ul": 18273,
                "contact:phone": "+48 683593184",
                "contact:email": "sekretariat@zslit.gubin.pl",
                "contact:website": "http:\/\/www.zslit.gubin.pl",
                "ref:regon": "081069371",
                "operator": "Powiat Kro\u015bnie\u0144ski",
                "operator:type": "government",
                "amenity": "school",
                "note": "Parent RSPO: 7083"
            }
        },
        {
            "id": 78981,
            "type": "Feature",
            "geometry": {
                "type": "Point",
                "coordinates": [
                    14.7341,
                    51.94784
                ]
            },
            "properties": {
                "isced:level": "3",
                "ref:rspo": 78981,
                "official_name": "Technikum Nr 1 w Gubinie",
                "name": "Technikum Nr 1 w Gubinie",
                "addr:country": "PL",
                "addr:postcode": "66-620",
                "addr:city": "Gubin",
                "addr:street": "Rac\u0142awicka",
                "addr:housenumber": "1",
                "addr:teryt:simc": 988394,
                "addr:teryt:sym_ul": 18273,
                "contact:phone": "+48 683593184",
                "contact:email": "sekretariat@zslit.gubin.pl",
                "contact:website": "http:\/\/www.zslit.gubin.pl",
                "ref:regon": "977998358",
                "operator": "Powiat Kro\u015bnie\u0144ski",
                "operator:type": "government",
                "amenity": "school",
                "note": "Parent RSPO: 7083"
            }
        },
        {
            "id": 80665,
            "type": "Feature",
            "geometry": {
                "type": "Point",
                "coordinates": [
                    14.7341,
                    51.94781
                ]
            },
            "properties": {
                "isced:level": "3",
                "ref:rspo": 80665,
                "official_name": "I Liceum Og\u00f3lnokszta\u0142c\u0105ce w Gubinie",
                "name": "I Liceum Og\u00f3lnokszta\u0142c\u0105ce w Gubinie",
                "addr:country": "PL",
                "addr:postcode": "66-620",
                "addr:city": "Gubin",
                "addr:street": "Rac\u0142awicka",
                "addr:housenumber": "1",
                "addr:teryt:simc": 988394,
                "addr:teryt:sym_ul": 18273,
                "contact:phone": "+48 683593184",
                "contact:email": "sekretariat@zslit.gubin.pl",
                "contact:website": "http:\/\/www.zslit.gubin.pl",
                "ref:regon": "977998401",
                "operator": "Powiat Kro\u015bnie\u0144ski",
                "operator:type": "government",
                "amenity": "school",
                "note": "Parent RSPO: 7083"
            }
        },
        {
            "id": 120075,
            "type": "Feature",
            "geometry": {
                "type": "Point",
                "coordinates": [
                    14.7341,
                    51.947779999999995
                ]
            },
            "properties": {
                "isced:level": "3",
                "ref:rspo": 120075,
                "official_name": "Liceum Og\u00f3lnokszta\u0142c\u0105ce dla Doros\u0142ych w Gubinie",
                "name": "Liceum Og\u00f3lnokszta\u0142c\u0105ce dla Doros\u0142ych w Gubinie",
                "addr:country": "PL",
                "addr:postcode": "66-620",
                "addr:city": "Gubin",
                "addr:street": "Rac\u0142awicka",
                "addr:housenumber": "1",
                "addr:teryt:simc": 988394,
                "addr:teryt:sym_ul": 18273,
                "contact:phone": "+48 683593184",
                "contact:email": "sekretariat@zslit.gubin.pl",
                "contact:website": "http:\/\/www.zslit.gubin.pl",
                "ref:regon": "081163220",
                "operator": "Powiat Kro\u015bnie\u0144ski",
                "operator:type": "government",
                "amenity": "school",
                "note": "Parent RSPO: 7083"
            }
        },
        {
            "id": 120049,
            "type": "Feature",
            "geometry": {
                "type": "Point",
                "coordinates": [
                    14.72196,
                    51.95082
                ]
            },
            "properties": {
                "ref:rspo": 120049,
                "official_name": "Szkolne Schronisko M\u0142odzie\u017cowe Przy Zslit w Gubinie",
                "name": "Szkolne Schronisko M\u0142odzie\u017cowe Przy Zslit w Gubinie",
                "addr:country": "PL",
                "addr:postcode": "66-620",
                "addr:city": "Gubin",
                "addr:street": "Obro\u0144c\u00f3w Pokoju",
                "addr:housenumber": "20",
                "addr:teryt:simc": 988394,
                "addr:teryt:sym_ul": 14642,
                "contact:phone": "+48 683593115",
                "contact:email": "sekretariat@zslit.gubin.pl",
                "contact:website": "http:\/\/www.zslit.gubin.pl",
                "ref:regon": "081163058",
                "operator": "Powiat Kro\u015bnie\u0144ski",
                "operator:type": "government",
                "tourism": "hostel",
                "note": "Parent RSPO: 7083"
            }
        },
        {
            "id": 85868,
            "type": "Feature",
            "geometry": {
                "type": "Point",
                "coordinates": [
                    14.73203,
                    51.9510999
                ]
            },
            "properties": {
                "ref:rspo": 85868,
                "official_name": "Przedszkole Miejskie Nr 2, w Gubinie, Ul. Dr. Kunickiego 8A",
                "name": "Przedszkole Miejskie Nr 2, w Gubinie, Ul. Dr. Kunickiego 8A",
                "addr:country": "PL",
                "addr:postcode": "66-620",
                "addr:city": "Gubin",
                "addr:street": "Doktora Kunickiego",
                "addr:housenumber": "8a",
                "addr:teryt:simc": 988394,
                "addr:teryt:sym_ul": 38365,
                "contact:phone": "+48 684558172",
                "contact:email": "przedszkole2g@wp.pl",
                "contact:website": "http:\/\/przedszkole2gubin.edupage.org",
                "ref:regon": "080489800",
                "ref:vatin": "PL9261662319",
                "operator": "Gmina Gubin O Statusie Miejskim",
                "operator:type": "government",
                "amenity": "kindergarten"
            }
        },
        {
            "id": 85870,
            "type": "Feature",
            "geometry": {
                "type": "Point",
                "coordinates": [
                    14.74531,
                    51.95413
                ]
            },
            "properties": {
                "isced:level": "1;2",
                "ref:rspo": 85870,
                "official_name": "Szko\u0142a Podstawowa Nr 3 Z Oddzia\u0142ami Integracyjnymi w Gubinie, Ul. Kresowa 48",
                "name": "Szko\u0142a Podstawowa Nr 3 Z Oddzia\u0142ami Integracyjnymi w Gubinie, Ul. Kresowa 48",
                "addr:country": "PL",
                "addr:postcode": "66-620",
                "addr:city": "Gubin",
                "addr:street": "Kresowa",
                "addr:housenumber": "48",
                "addr:teryt:simc": 988394,
                "addr:teryt:sym_ul": 9911,
                "contact:phone": "+48 684558177",
                "contact:email": "sp3gubin@op.pl",
                "contact:website": "http:\/\/www.sp3.gubin.com.pl",
                "ref:regon": "080489830",
                "ref:vatin": "PL9261662325",
                "operator": "Gmina Gubin O Statusie Miejskim",
                "operator:type": "government",
                "amenity": "school"
            }
        },
        {
            "id": 47205,
            "type": "Feature",
            "geometry": {
                "type": "Point",
                "coordinates": [
                    14.73215,
                    51.9550399
                ]
            },
            "properties": {
                "ref:rspo": 47205,
                "official_name": "Poradnia Psychologiczno-Pedagogiczna w Gubinie",
                "name": "Poradnia Psychologiczno-Pedagogiczna w Gubinie",
                "addr:country": "PL",
                "addr:postcode": "66-620",
                "addr:city": "Gubin",
                "addr:street": "Genera\u0142a Pu\u0142askiego",
                "addr:housenumber": "1",
                "addr:teryt:simc": 988394,
                "addr:teryt:sym_ul": 38362,
                "contact:phone": "+48 684558252",
                "contact:email": "ppp_gubin@interia.pl",
                "contact:website": "http:\/\/www.pppgubin.szkolnastrona.pl",
                "ref:regon": "970110677",
                "ref:vatin": "PL9261520565",
                "operator": "Powiat Kro\u015bnie\u0144ski",
                "operator:type": "government",
                "healthcare": "counselling",
                "counselling_type": "education",
                "fixme": "w zale\u017cno\u015bci od przedmiotu dzia\u0142alno\u015bci (np. healthcare=counselling + counselling_type=education albo healthcare=psychotherapist)"
            }
        },
        {
            "id": 131085,
            "type": "Feature",
            "geometry": {
                "type": "Point",
                "coordinates": [
                    14.73215,
                    51.9550099
                ]
            },
            "properties": {
                "ref:rspo": 131085,
                "official_name": "Europejskie Centrum Kszta\u0142cenia Zawodowego I Ustawicznego w Gubinie",
                "name": "Europejskie Centrum Kszta\u0142cenia Zawodowego I Ustawicznego w Gubinie",
                "addr:country": "PL",
                "addr:postcode": "66-620",
                "addr:city": "Gubin",
                "addr:street": "Genera\u0142a Pu\u0142askiego",
                "addr:housenumber": "1",
                "addr:teryt:simc": 988394,
                "addr:teryt:sym_ul": 38362,
                "contact:phone": "+48 684558240",
                "contact:email": "eckziu@eckziugubin.pl",
                "contact:website": "http:\/\/www.eckziugubin.pl",
                "ref:regon": "364933103",
                "ref:vatin": "PL9261675629",
                "operator": "Powiat Kro\u015bnie\u0144ski",
                "operator:type": "government",
                "landuse": "education",
                "fixme": "amenity=school, amenity=college albo landuse=education w zale\u017cno\u015bci od tego, jakie plac\u00f3wki wchodz\u0105 w sk\u0142ad zespo\u0142u. Sprawd\u017a, kiedy stosowa\u0107 amenity=* a kiedy landuse=education.",
                "note": "Children RSPO: 7435;79175;81097;81355;82755"
            }
        },
        {
            "id": 7435,
            "type": "Feature",
            "geometry": {
                "type": "Point",
                "coordinates": [
                    14.73215,
                    51.954979900000005
                ]
            },
            "properties": {
                "isced:level": "3",
                "ref:rspo": 7435,
                "official_name": "Ii Liceum Og\u00f3lnokszta\u0142c\u0105ce w Gubinie",
                "name": "Ii Liceum Og\u00f3lnokszta\u0142c\u0105ce w Gubinie",
                "addr:country": "PL",
                "addr:postcode": "66-620",
                "addr:city": "Gubin",
                "addr:street": "Genera\u0142a Pu\u0142askiego",
                "addr:housenumber": "1",
                "addr:teryt:simc": 988394,
                "addr:teryt:sym_ul": 38362,
                "contact:phone": "+48 684558240",
                "contact:email": "zspgubin@op.pl",
                "contact:website": "http:\/\/www.zspgubin.pl",
                "ref:regon": "081068489",
                "operator": "Powiat Kro\u015bnie\u0144ski",
                "operator:type": "government",
                "amenity": "school",
                "note": "Parent RSPO: 131085"
            }
        },
        {
            "id": 79175,
            "type": "Feature",
            "geometry": {
                "type": "Point",
                "coordinates": [
                    14.73215,
                    51.9549499
                ]
            },
            "properties": {
                "isced:level": "3",
                "ref:rspo": 79175,
                "official_name": "Technikum Nr 2 w Gubinie",
                "name": "Technikum Nr 2 w Gubinie",
                "addr:country": "PL",
                "addr:postcode": "66-620",
                "addr:city": "Gubin",
                "addr:street": "Genera\u0142a Pu\u0142askiego",
                "addr:housenumber": "1",
                "addr:teryt:simc": 988394,
                "addr:teryt:sym_ul": 38362,
                "contact:phone": "+48 684558240",
                "contact:email": "eckziu@eckziugubin.pl",
                "contact:website": "http:\/\/www.eckziugubin.pl",
                "ref:regon": "978051750",
                "operator": "Powiat Kro\u015bnie\u0144ski",
                "operator:type": "government",
                "amenity": "school",
                "note": "Parent RSPO: 131085"
            }
        },
        {
            "id": 81097,
            "type": "Feature",
            "geometry": {
                "type": "Point",
                "coordinates": [
                    14.73215,
                    51.9549199
                ]
            },
            "properties": {
                "isced:level": "3",
                "ref:rspo": 81097,
                "official_name": "Bran\u017cowa Szko\u0142a I Stopnia Nr 2 w Gubinie",
                "name": "Bran\u017cowa Szko\u0142a I Stopnia Nr 2 w Gubinie",
                "addr:country": "PL",
                "addr:postcode": "66-620",
                "addr:city": "Gubin",
                "addr:street": "Genera\u0142a Pu\u0142askiego",
                "addr:housenumber": "1",
                "addr:teryt:simc": 988394,
                "addr:teryt:sym_ul": 38362,
                "contact:phone": "+48 684558240",
                "ref:regon": "978051709",
                "operator": "Powiat Kro\u015bnie\u0144ski",
                "operator:type": "government",
                "amenity": "school",
                "note": "Parent RSPO: 131085"
            }
        },
        {
            "id": 81355,
            "type": "Feature",
            "geometry": {
                "type": "Point",
                "coordinates": [
                    14.73215,
                    51.954889900000005
                ]
            },
            "properties": {
                "isced:level": "4",
                "ref:rspo": 81355,
                "official_name": "Szko\u0142a Policealna Nr 2 w Gubinie",
                "name": "Szko\u0142a Policealna Nr 2 w Gubinie",
                "addr:country": "PL",
                "addr:postcode": "66-620",
                "addr:city": "Gubin",
                "addr:street": "Genera\u0142a Pu\u0142askiego",
                "addr:housenumber": "1",
                "addr:teryt:simc": 988394,
                "addr:teryt:sym_ul": 38362,
                "contact:phone": "+48 684558240",
                "ref:regon": "978051721",
                "operator": "Powiat Kro\u015bnie\u0144ski",
                "operator:type": "government",
                "amenity": "college",
                "note": "Parent RSPO: 131085"
            }
        },
        {
            "id": 82755,
            "type": "Feature",
            "geometry": {
                "type": "Point",
                "coordinates": [
                    14.73215,
                    51.9548599
                ]
            },
            "properties": {
                "isced:level": "4",
                "ref:rspo": 82755,
                "official_name": "Szko\u0142a Policealna Nr 1 w Gubinie",
                "name": "Szko\u0142a Policealna Nr 1 w Gubinie",
                "addr:country": "PL",
                "addr:postcode": "66-620",
                "addr:city": "Gubin",
                "addr:street": "Genera\u0142a Pu\u0142askiego",
                "addr:housenumber": "1",
                "addr:teryt:simc": 988394,
                "addr:teryt:sym_ul": 38362,
                "contact:phone": "+48 684558240",
                "ref:regon": "080081832",
                "operator": "Powiat Kro\u015bnie\u0144ski",
                "operator:type": "government",
                "amenity": "college",
                "note": "Parent RSPO: 131085"
            }
        },
        {
            "id": 27014,
            "type": "Feature",
            "geometry": {
                "type": "Point",
                "coordinates": [
                    14.71833,
                    51.9569199
                ]
            },
            "properties": {
                "ref:rspo": 27014,
                "official_name": "Pa\u0144stwowa Szko\u0142a Muzyczna I St. im. Kazimierza Serockiego w Gubinie",
                "name": "Pa\u0144stwowa Szko\u0142a Muzyczna I St.",
                "addr:country": "PL",
                "addr:postcode": "66-620",
                "addr:city": "Gubin",
                "addr:street": "Piastowska",
                "addr:housenumber": "23",
                "addr:teryt:simc": 988394,
                "addr:teryt:sym_ul": 16046,
                "contact:phone": "+48 683594518",
                "contact:email": "psmgubin@wp.pl",
                "contact:website": "http:\/\/psmgubin.pl",
                "ref:regon": "000577490",
                "operator": "Ministerstwo Kultury I Dziedzictwa Narodowego",
                "operator:type": "public",
                "amenity": "music_school"
            }
        },
        {
            "id": 55834,
            "type": "Feature",
            "geometry": {
                "type": "Point",
                "coordinates": [
                    14.71874,
                    51.95706
                ]
            },
            "properties": {
                "ref:rspo": 55834,
                "official_name": "Specjalny O\u015brodek Szkolno Wychowawczy im. Marii Konopnickiej w Gubinie",
                "name": "Specjalny O\u015brodek Szkolno Wychowawczy",
                "addr:country": "PL",
                "addr:postcode": "66-620",
                "addr:city": "Gubin",
                "addr:street": "Piastowska",
                "addr:housenumber": "22",
                "addr:teryt:simc": 988394,
                "addr:teryt:sym_ul": 16046,
                "contact:phone": "+48 683594486",
                "contact:email": "sekretariat@sosw.powiatkrosnienski.pl",
                "ref:regon": "000242944",
                "ref:vatin": "PL9261004881",
                "operator": "Powiat Kro\u015bnie\u0144ski",
                "operator:type": "government",
                "amenity": "school",
                "note": "Children RSPO: 9687;82760;82762"
            }
        },
        {
            "id": 9687,
            "type": "Feature",
            "geometry": {
                "type": "Point",
                "coordinates": [
                    14.71874,
                    51.957029999999996
                ]
            },
            "properties": {
                "isced:level": "3",
                "ref:rspo": 9687,
                "official_name": "Bran\u017cowa Szko\u0142a I Stopnia Nr 3 w Gubinie",
                "name": "Bran\u017cowa Szko\u0142a I Stopnia Nr 3 w Gubinie",
                "addr:country": "PL",
                "addr:postcode": "66-620",
                "addr:city": "Gubin",
                "addr:street": "Piastowska",
                "addr:housenumber": "22",
                "addr:teryt:simc": 988394,
                "addr:teryt:sym_ul": 16046,
                "contact:phone": "+48 683593214",
                "ref:regon": "081069388",
                "operator": "Powiat Kro\u015bnie\u0144ski",
                "operator:type": "government",
                "amenity": "school",
                "note": "Parent RSPO: 55834"
            }
        },
        {
            "id": 82760,
            "type": "Feature",
            "geometry": {
                "type": "Point",
                "coordinates": [
                    14.71874,
                    51.957
                ]
            },
            "properties": {
                "isced:level": "1;2",
                "ref:rspo": 82760,
                "official_name": "Szko\u0142a Podstawowa Specjalna Nr 4 w Gubinie",
                "name": "Szko\u0142a Podstawowa Specjalna Nr 4 w Gubinie",
                "addr:country": "PL",
                "addr:postcode": "66-620",
                "addr:city": "Gubin",
                "addr:street": "Piastowska",
                "addr:housenumber": "22",
                "addr:teryt:simc": 988394,
                "addr:teryt:sym_ul": 16046,
                "contact:phone": "+48 683594486",
                "contact:email": "sekretariat@sosw.powiatkrosnienski.pl",
                "ref:regon": "081088144",
                "operator": "Powiat Kro\u015bnie\u0144ski",
                "operator:type": "government",
                "amenity": "school",
                "note": "Parent RSPO: 55834"
            }
        },
        {
            "id": 82762,
            "type": "Feature",
            "geometry": {
                "type": "Point",
                "coordinates": [
                    14.71874,
                    51.95697
                ]
            },
            "properties": {
                "ref:rspo": 82762,
                "official_name": "Szko\u0142a Specjalna Przysposabiaj\u0105ca Do Pracy w Gubinie",
                "name": "Szko\u0142a Specjalna Przysposabiaj\u0105ca Do Pracy w Gubinie",
                "addr:country": "PL",
                "addr:postcode": "66-620",
                "addr:city": "Gubin",
                "addr:street": "Piastowska",
                "addr:housenumber": "22",
                "addr:teryt:simc": 988394,
                "addr:teryt:sym_ul": 16046,
                "contact:phone": "+48 683594486",
                "contact:email": "sekretariat@sosw.powiatkrosnienski.pl",
                "ref:regon": "081088167",
                "operator": "Powiat Kro\u015bnie\u0144ski",
                "operator:type": "government",
                "amenity": "school",
                "note": "Parent RSPO: 55834"
            }
        },
        {
            "id": 85867,
            "type": "Feature",
            "geometry": {
                "type": "Point",
                "coordinates": [
                    14.71973,
                    51.95719
                ]
            },
            "properties": {
                "ref:rspo": 85867,
                "official_name": "Przedszkole Miejskie Nr 1 w Gubinie, Ul. Piastowska 20",
                "name": "Przedszkole Miejskie Nr 1 w Gubinie, Ul. Piastowska 20",
                "addr:country": "PL",
                "addr:postcode": "66-620",
                "addr:city": "Gubin",
                "addr:street": "Piastowska",
                "addr:housenumber": "20",
                "addr:teryt:simc": 988394,
                "addr:teryt:sym_ul": 16046,
                "contact:phone": "+48 684558170",
                "contact:email": "przedszkolenr1gubin@interia.pl",
                "contact:website": "http:\/\/www.pmgubin.pl",
                "ref:regon": "080489786",
                "ref:vatin": "PL9261662294",
                "operator": "Gmina Gubin O Statusie Miejskim",
                "operator:type": "government",
                "amenity": "kindergarten"
            }
        },
        {
            "id": 85865,
            "type": "Feature",
            "geometry": {
                "type": "Point",
                "coordinates": [
                    14.71703,
                    51.95776
                ]
            },
            "properties": {
                "ref:rspo": 85865,
                "official_name": "Zesp\u00f3\u0142 Szk\u00f3\u0142 Og\u00f3lnokszta\u0142c\u0105cych w Gubinie, Ul. Piastowska 26",
                "name": "Zesp\u00f3\u0142 Szk\u00f3\u0142 Og\u00f3lnokszta\u0142c\u0105cych w Gubinie, Ul. Piastowska 26",
                "addr:country": "PL",
                "addr:postcode": "66-620",
                "addr:city": "Gubin",
                "addr:street": "Piastowska",
                "addr:housenumber": "26",
                "addr:teryt:simc": 988394,
                "addr:teryt:sym_ul": 16046,
                "contact:phone": "+48 684558184",
                "contact:email": "zsogubin@o2.pl",
                "contact:website": "http:\/\/www.zsogubin.pl",
                "ref:regon": "080493486",
                "ref:vatin": "PL9261671519",
                "operator": "Gmina Gubin O Statusie Miejskim",
                "operator:type": "government",
                "landuse": "education",
                "fixme": "amenity=school, amenity=college albo landuse=education w zale\u017cno\u015bci od tego, jakie plac\u00f3wki wchodz\u0105 w sk\u0142ad zespo\u0142u. Sprawd\u017a, kiedy stosowa\u0107 amenity=* a kiedy landuse=education.",
                "note": "Children RSPO: 87862;263936"
            }
        },
        {
            "id": 87862,
            "type": "Feature",
            "geometry": {
                "type": "Point",
                "coordinates": [
                    14.71703,
                    51.95773
                ]
            },
            "properties": {
                "isced:level": "3",
                "ref:rspo": 87862,
                "official_name": "Liceum Og\u00f3lnokszta\u0142c\u0105ce im.boles\u0142awa Chrobrego w Gubinie Ul. Piastowska 26",
                "name": "Liceum Og\u00f3lnokszta\u0142c\u0105ce im.boles\u0142awa Chrobrego w Gubinie Ul. Piastowska 26",
                "addr:country": "PL",
                "addr:postcode": "66-620",
                "addr:city": "Gubin",
                "addr:street": "Piastowska",
                "addr:housenumber": "26",
                "addr:teryt:simc": 988394,
                "addr:teryt:sym_ul": 16046,
                "contact:phone": "+48 684558186",
                "contact:email": "zsogubin@o2.pl",
                "contact:website": "http:\/\/www.zsogubin.pl",
                "ref:regon": "080489875",
                "ref:vatin": "PL9261662331",
                "operator": "Gmina Gubin O Statusie Miejskim",
                "operator:type": "government",
                "amenity": "school",
                "note": "Parent RSPO: 85865"
            }
        },
        {
            "id": 263936,
            "type": "Feature",
            "geometry": {
                "type": "Point",
                "coordinates": [
                    14.71703,
                    51.9577
                ]
            },
            "properties": {
                "isced:level": "1;2",
                "ref:rspo": 263936,
                "official_name": "Szko\u0142a Podstawowa Nr 5 w Gubinie",
                "name": "Szko\u0142a Podstawowa Nr 5 w Gubinie",
                "addr:country": "PL",
                "addr:postcode": "66-620",
                "addr:city": "Gubin",
                "addr:street": "Piastowska",
                "addr:housenumber": "26",
                "addr:teryt:simc": 988394,
                "addr:teryt:sym_ul": 16046,
                "contact:phone": "+48 684558184",
                "contact:email": "zsogubin@o2.pl",
                "contact:website": "http:\/\/www.zsogubin.pl",
                "ref:regon": "368243335",
                "operator": "Gmina Gubin O Statusie Miejskim",
                "operator:type": "government",
                "amenity": "school",
                "note": "Parent RSPO: 85865"
            }
        },
        {
            "id": 85869,
            "type": "Feature",
            "geometry": {
                "type": "Point",
                "coordinates": [
                    14.72073,
                    51.95963
                ]
            },
            "properties": {
                "ref:rspo": 85869,
                "official_name": "Przedszkole Miejskie Nr 3, w Gubinie, Ul. Wojska Polskiego 16",
                "name": "Przedszkole Miejskie Nr 3, w Gubinie, Ul. Wojska Polskiego 16",
                "addr:country": "PL",
                "addr:postcode": "66-620",
                "addr:city": "Gubin",
                "addr:street": "Wojska Polskiego",
                "addr:housenumber": "16",
                "addr:teryt:simc": 988394,
                "addr:teryt:sym_ul": 24628,
                "contact:phone": "+48 684558175",
                "contact:email": "przedszkolepm3@wp.pl",
                "contact:website": "https:\/\/przedszkolemiejskie3.edupage.org\/",
                "ref:regon": "080489823",
                "ref:vatin": "PL9261662302",
                "operator": "Gmina Gubin O Statusie Miejskim",
                "operator:type": "government",
                "amenity": "kindergarten"
            }
        },
        {
            "id": 85871,
            "type": "Feature",
            "geometry": {
                "type": "Point",
                "coordinates": [
                    15.10073,
                    52.04725
                ]
            },
            "properties": {
                "isced:level": "1;2",
                "ref:rspo": 85871,
                "official_name": "Szko\u0142a Podstawowa Nr 2 im. 73 Pu\u0142ku Zmechanizowanego U\u0142an\u00f3w Karpackich w Gubinie, Ul. Szkolna 1",
                "name": "Szko\u0142a Podstawowa Nr 2",
                "addr:country": "PL",
                "addr:postcode": "66-620",
                "addr:city": "Gubin",
                "addr:street": "Szkolna",
                "addr:housenumber": "1",
                "addr:teryt:simc": 988394,
                "addr:teryt:sym_ul": 21970,
                "contact:phone": "+48 684558149",
                "contact:email": "sp2gubin@wp.pl",
                "contact:website": "http:\/\/sp2gubin.pl",
                "ref:regon": "080489817",
                "ref:vatin": "PL9261662288",
                "operator": "Gmina Gubin O Statusie Miejskim",
                "operator:type": "government",
                "amenity": "school"
            }
        }
    ]
}