{
    "type": "FeatureCollection",
    "features": [
        {
            "id": 61455,
            "type": "Feature",
            "geometry": {
                "type": "Point",
                "coordinates": [
                    17.29532,
                    51.24162
                ]
            },
            "properties": {
                "isced:level": "1;2",
                "ref:rspo": 61455,
                "official_name": "Szko\u0142a Podstawowa im.or\u0142a Bia\u0142ego w Dobrzeniu",
                "name": "Szko\u0142a Podstawowa im.or\u0142a Bia\u0142ego w Dobrzeniu",
                "addr:postcode": "56-410",
                "addr:place": "Dobrze\u0144",
                "addr:housenumber": "9A",
                "addr:city:simc": 874147,
                "phone": "+48 713155368",
                "email": "spdobrzen@op.pl",
                "website": "http:\/\/www.spdobrzen.edupage.org",
                "ref:regon": "001181601",
                "ref:vatin": "PL9111350009",
                "operator": "Gmina Dobroszyce",
                "operator:type": "government",
                "amenity": "school"
            }
        },
        {
            "id": 61457,
            "type": "Feature",
            "geometry": {
                "type": "Point",
                "coordinates": [
                    17.33993,
                    51.26177
                ]
            },
            "properties": {
                "ref:rspo": 61457,
                "official_name": "Przedszkole Gminne w Dobroszycach",
                "name": "Przedszkole Gminne w Dobroszycach",
                "addr:postcode": "56-410",
                "addr:city": "Dobroszyce",
                "addr:street": "Nowosiedlicka",
                "addr:housenumber": "1",
                "addr:city:simc": 874130,
                "addr:street:sym_ul": 42507,
                "phone": "+48 717570821",
                "email": "przedszkole1dobroszyce@poczta.onet.pl",
                "website": "http:\/\/www.przedszkoledobroszyce.pl",
                "ref:regon": "021385021",
                "ref:vatin": "PL9111990134",
                "operator": "Gmina Dobroszyce",
                "operator:type": "government",
                "amenity": "kindergarten"
            }
        },
        {
            "id": 275354,
            "type": "Feature",
            "geometry": {
                "type": "Point",
                "coordinates": [
                    17.34391,
                    51.26219
                ]
            },
            "properties": {
                "ref:rspo": 275354,
                "official_name": "Anna Zabierowska \u017b\u0142obek I Przedszkole",
                "name": "Anna Zabierowska \u017b\u0142obek I Przedszkole",
                "addr:postcode": "56-410",
                "addr:city": "Dobroszyce",
                "addr:street": "Wiosenna",
                "addr:housenumber": "11",
                "addr:city:simc": 874130,
                "addr:street:sym_ul": 24364,
                "email": "koniczynkadobroszyce@gmail.com",
                "ref:regon": "386821597",
                "operator": "Anna Zabierowska \u017b\u0142obek Koniczynka",
                "operator:type": "consortium",
                "amenity": "kindergarten"
            }
        },
        {
            "id": 61454,
            "type": "Feature",
            "geometry": {
                "type": "Point",
                "coordinates": [
                    17.3413,
                    51.26323
                ]
            },
            "properties": {
                "isced:level": "1;2",
                "ref:rspo": 61454,
                "official_name": "Szko\u0142a Podstawowa im. Ireny Sendlerowej w Dobroszycach",
                "name": "Szko\u0142a Podstawowa",
                "addr:postcode": "56-410",
                "addr:city": "Dobroszyce",
                "addr:street": "Parkowa",
                "addr:housenumber": "5",
                "addr:city:simc": 874130,
                "addr:street:sym_ul": 15710,
                "phone": "+48 713141125",
                "email": "spdobroszyce@interia.pl",
                "website": "http:\/\/www.spdobroszyce.edupage.org",
                "ref:regon": "000588789",
                "ref:vatin": "PL9111350021",
                "operator": "Gmina Dobroszyce",
                "operator:type": "government",
                "amenity": "school"
            }
        },
        {
            "id": 53998,
            "type": "Feature",
            "geometry": {
                "type": "Point",
                "coordinates": [
                    17.33174,
                    51.26325
                ]
            },
            "properties": {
                "ref:rspo": 53998,
                "official_name": "Specjalny O\u015brodek Szkolno-Wychowawczy Caritas Archidiecezji Wroc\u0142awskiej",
                "name": "Specjalny O\u015brodek Szkolno-Wychowawczy Caritas Archidiecezji Wroc\u0142awskiej",
                "addr:postcode": "56-410",
                "addr:city": "Dobroszyce",
                "addr:street": "Stawowa",
                "addr:housenumber": "23",
                "addr:city:simc": 874130,
                "addr:street:sym_ul": 21101,
                "phone": "+48 713141113",
                "email": "dobroszyce@op.pl",
                "website": "http:\/\/www.wroclaw.caritas.pl",
                "ref:regon": "022000299",
                "ref:vatin": "PL9111814762",
                "operator": "Caritas Archidiecezji Wroc\u0142awskiej",
                "operator:type": "religious",
                "amenity": "school",
                "note": "Children RSPO: 90887;90888;90891;90892"
            }
        },
        {
            "id": 90887,
            "type": "Feature",
            "geometry": {
                "type": "Point",
                "coordinates": [
                    17.33174,
                    51.26322
                ]
            },
            "properties": {
                "isced:level": "1;2",
                "ref:rspo": 90887,
                "official_name": "Specjalny O\u015brodek Szkolno-Wychowawczy Caritas Archidiecezji Wroc\u0142awskiej - Szko\u0142a Podstawowa Specjalna dla Dzieci z Niepe\u0142nosprawno\u015bci\u0105 Intelektualn\u0105 w Stopniu Lekkim",
                "name": "Specjalny O\u015brodek Szkolno-Wychowawczy Caritas Archidiecezji Wroc\u0142awskiej - Szko\u0142a Podstawowa Specjalna dla Dzieci z Niepe\u0142nosprawno\u015bci\u0105 Intelektualn\u0105 w Stopniu Lekkim",
                "addr:postcode": "56-410",
                "addr:city": "Dobroszyce",
                "addr:street": "Stawowa",
                "addr:housenumber": "23",
                "addr:city:simc": 874130,
                "addr:street:sym_ul": 21101,
                "phone": "+48 713141113",
                "email": "dobroszyce@op.pl",
                "website": "http:\/\/www.wroclaw.caritas.pl",
                "ref:regon": "022018945",
                "operator": "Caritas Archidiecezji Wroc\u0142awskiej",
                "operator:type": "religious",
                "amenity": "school",
                "note": "Parent RSPO: 53998"
            }
        },
        {
            "id": 90888,
            "type": "Feature",
            "geometry": {
                "type": "Point",
                "coordinates": [
                    17.33174,
                    51.26319
                ]
            },
            "properties": {
                "isced:level": "1;2",
                "ref:rspo": 90888,
                "official_name": "Specjalny O\u015brodek Szkolno-Wychowawczy Caritas Archidiecezji Wroc\u0142awskiej - Szko\u0142a Podstawowa Specjalna dla Dzieci z Niepe\u0142nosprawno\u015bci\u0105 Intelektualn\u0105 w Stopniu Umiarkowanym I Znacznym",
                "name": "Specjalny O\u015brodek Szkolno-Wychowawczy Caritas Archidiecezji Wroc\u0142awskiej - Szko\u0142a Podstawowa Specjalna dla Dzieci z Niepe\u0142nosprawno\u015bci\u0105 Intelektualn\u0105 w Stopniu Umiarkowanym I Znacznym",
                "addr:postcode": "56-410",
                "addr:city": "Dobroszyce",
                "addr:street": "Stawowa",
                "addr:housenumber": "23",
                "addr:city:simc": 874130,
                "addr:street:sym_ul": 21101,
                "phone": "+48 713141113",
                "email": "dobroszyce@op.pl",
                "website": "http:\/\/www.wroclaw.caritas.pl",
                "ref:regon": "022018951",
                "operator": "Caritas Archidiecezji Wroc\u0142awskiej",
                "operator:type": "religious",
                "amenity": "school",
                "note": "Parent RSPO: 53998"
            }
        },
        {
            "id": 90891,
            "type": "Feature",
            "geometry": {
                "type": "Point",
                "coordinates": [
                    17.33174,
                    51.26316
                ]
            },
            "properties": {
                "isced:level": "3",
                "ref:rspo": 90891,
                "official_name": "Specjalny O\u015brodek Szkolno-Wychowawczy Caritas Archidiecezji Wroc\u0142awskiej - Bran\u017cowa Szko\u0142a I Stopnia Specjalna dla M\u0142odzie\u017cy z Niepe\u0142nosprawno\u015bci\u0105 Intelektualn\u0105 w Stopniu Lekkim",
                "name": "Specjalny O\u015brodek Szkolno-Wychowawczy Caritas Archidiecezji Wroc\u0142awskiej - Bran\u017cowa Szko\u0142a I Stopnia Specjalna dla M\u0142odzie\u017cy z Niepe\u0142nosprawno\u015bci\u0105 Intelektualn\u0105 w Stopniu Lekkim",
                "addr:postcode": "56-410",
                "addr:city": "Dobroszyce",
                "addr:street": "Stawowa",
                "addr:housenumber": "23",
                "addr:city:simc": 874130,
                "addr:street:sym_ul": 21101,
                "phone": "+48 713141113",
                "email": "dobroszyce@op.pl",
                "website": "http:\/\/www.wroclaw.caritas.pl",
                "ref:regon": "022020008",
                "operator": "Caritas Archidiecezji Wroc\u0142awskiej",
                "operator:type": "religious",
                "amenity": "school",
                "note": "Parent RSPO: 53998"
            }
        },
        {
            "id": 90892,
            "type": "Feature",
            "geometry": {
                "type": "Point",
                "coordinates": [
                    17.33174,
                    51.26313
                ]
            },
            "properties": {
                "ref:rspo": 90892,
                "official_name": "Specjalna Szko\u0142a Przysposabiaj\u0105ca do Pracy dla Uczni\u00f3w z Upo\u015bledzeniem Umys\u0142owym w Stopniu Umiarkowanym Lub Znacznym",
                "name": "Specjalna Szko\u0142a Przysposabiaj\u0105ca do Pracy dla Uczni\u00f3w z Upo\u015bledzeniem Umys\u0142owym w Stopniu Umiarkowanym Lub Znacznym",
                "addr:postcode": "56-410",
                "addr:city": "Dobroszyce",
                "addr:street": "Stawowa",
                "addr:housenumber": "23",
                "addr:city:simc": 874130,
                "addr:street:sym_ul": 21101,
                "phone": "+48 713141113",
                "email": "dobroszyce@op.pl",
                "website": "http:\/\/www.wroclaw.caritas.pl",
                "ref:regon": "022020014",
                "operator": "Caritas Archidiecezji Wroc\u0142awskiej",
                "operator:type": "religious",
                "amenity": "school",
                "note": "Parent RSPO: 53998"
            }
        }
    ]
}