{
    "type": "FeatureCollection",
    "features": [
        {
            "id": 61336,
            "type": "Feature",
            "geometry": {
                "type": "Point",
                "coordinates": [
                    17.6235927,
                    51.2731081
                ]
            },
            "properties": {
                "isced:level": "1;2",
                "ref:rspo": 61336,
                "official_name": "Szko\u0142a Podstawowa w Stradomi Wierzchniej",
                "name": "Szko\u0142a Podstawowa w Stradomi Wierzchniej",
                "addr:country": "PL",
                "addr:postcode": "56-500",
                "addr:place": "Stradomia Wierzchnia",
                "addr:housenumber": "64",
                "addr:teryt:simc": 209510,
                "contact:phone": "+48 627851388",
                "contact:email": "spstradomia64@op.pl",
                "contact:website": "http:\/\/www.spstradomia.eu",
                "ref:regon": "001228490",
                "ref:vatin": "PL9111753380",
                "operator": "Gmina Syc\u00f3w",
                "operator:type": "government",
                "amenity": "school"
            }
        },
        {
            "id": 275357,
            "type": "Feature",
            "geometry": {
                "type": "Point",
                "coordinates": [
                    17.6235927,
                    51.2730781
                ]
            },
            "properties": {
                "ref:rspo": 275357,
                "official_name": "Ma\u0142e Przedszkole w Stradomi Wierzchniej",
                "name": "Ma\u0142e Przedszkole w Stradomi Wierzchniej",
                "addr:country": "PL",
                "addr:postcode": "56-500",
                "addr:place": "Stradomia Wierzchnia",
                "addr:housenumber": "64",
                "addr:teryt:simc": 209510,
                "contact:email": "fundacjaczasstart@gmail.com",
                "ref:regon": "386827186",
                "operator": "Fundacja \"Czas Start\"",
                "operator:type": "ngo",
                "amenity": "kindergarten"
            }
        },
        {
            "id": 61344,
            "type": "Feature",
            "geometry": {
                "type": "Point",
                "coordinates": [
                    17.71428,
                    51.30464
                ]
            },
            "properties": {
                "ref:rspo": 61344,
                "official_name": "Publiczne Przedszkole Nr 3 im. Ma\u0142ego Ksi\u0119cia w Sycowie",
                "name": "Publiczne Przedszkole Nr 3",
                "addr:country": "PL",
                "addr:postcode": "56-500",
                "addr:city": "Syc\u00f3w",
                "addr:street": "Ole\u015bnicka",
                "addr:housenumber": "2b",
                "addr:teryt:simc": 937379,
                "addr:teryt:sym_ul": 14975,
                "contact:phone": "+48 627855160",
                "contact:email": "malyksiaze30@poczta.onet.pl",
                "contact:website": "http:\/\/www.malyksiaze3szkolnastrona.pl",
                "ref:regon": "932223804",
                "ref:vatin": "PL9111756390",
                "operator": "Gmina Syc\u00f3w",
                "operator:type": "government",
                "amenity": "kindergarten"
            }
        },
        {
            "id": 275852,
            "type": "Feature",
            "geometry": {
                "type": "Point",
                "coordinates": [
                    17.72167,
                    51.30817
                ]
            },
            "properties": {
                "ref:rspo": 275852,
                "official_name": "Niepubliczne Przedszkole \"U Kubusia Puchatka\"",
                "name": "Niepubliczne Przedszkole \"U Kubusia Puchatka\"",
                "addr:country": "PL",
                "addr:postcode": "56-500",
                "addr:city": "Syc\u00f3w",
                "addr:street": "Okr\u0119\u017cna",
                "addr:housenumber": "1d",
                "addr:teryt:simc": 937379,
                "addr:teryt:sym_ul": 14907,
                "contact:email": "biuro@przedszkole.olesnica.pl",
                "ref:regon": "386943320",
                "operator": "Euro Trend Sylwia Sendek",
                "operator:type": "consortium",
                "amenity": "kindergarten"
            }
        },
        {
            "id": 275313,
            "type": "Feature",
            "geometry": {
                "type": "Point",
                "coordinates": [
                    17.71859,
                    51.30881
                ]
            },
            "properties": {
                "ref:rspo": 275313,
                "official_name": "Zesp\u00f3\u0142 Szkolno-Przedszkolny w Sycowie",
                "name": "Zesp\u00f3\u0142 Szkolno-Przedszkolny w Sycowie",
                "addr:country": "PL",
                "addr:postcode": "56-500",
                "addr:city": "Syc\u00f3w",
                "addr:street": "Ko\u015bcielna",
                "addr:housenumber": "3",
                "addr:teryt:simc": 937379,
                "addr:teryt:sym_ul": 9546,
                "contact:phone": "+48 627855156",
                "contact:email": "sekretariat@sp3sycow.pl",
                "contact:website": "http:\/\/www.sp3sycow.pl",
                "ref:regon": "386803369",
                "operator": "Gmina Syc\u00f3w",
                "operator:type": "government",
                "landuse": "education",
                "fixme": "amenity=school, amenity=college albo landuse=education w zale\u017cno\u015bci od tego, jakie plac\u00f3wki wchodz\u0105 w sk\u0142ad zespo\u0142u. Sprawd\u017a, kiedy stosowa\u0107 amenity=* a kiedy landuse=education.",
                "note": "Children RSPO: 262987;275273"
            }
        },
        {
            "id": 262987,
            "type": "Feature",
            "geometry": {
                "type": "Point",
                "coordinates": [
                    17.71859,
                    51.30878
                ]
            },
            "properties": {
                "isced:level": "1;2",
                "ref:rspo": 262987,
                "official_name": "Szko\u0142a Podstawowa Nr 3 im. Jana Paw\u0142a II w Sycowie",
                "name": "Szko\u0142a Podstawowa Nr 3",
                "addr:country": "PL",
                "addr:postcode": "56-500",
                "addr:city": "Syc\u00f3w",
                "addr:street": "Ko\u015bcielna",
                "addr:housenumber": "3",
                "addr:teryt:simc": 937379,
                "addr:teryt:sym_ul": 9546,
                "contact:phone": "+48 627855156",
                "contact:email": "sekretariat@sp3sycow.pl",
                "contact:website": "http:\/\/www.sp3sycow.pl",
                "ref:regon": "368083601",
                "ref:vatin": "PL9112022856",
                "operator": "Gmina Syc\u00f3w",
                "operator:type": "government",
                "amenity": "school",
                "note": "Parent RSPO: 275313"
            }
        },
        {
            "id": 275273,
            "type": "Feature",
            "geometry": {
                "type": "Point",
                "coordinates": [
                    17.71859,
                    51.30875
                ]
            },
            "properties": {
                "ref:rspo": 275273,
                "official_name": "Publiczne Przedszkole Nr 4",
                "name": "Publiczne Przedszkole Nr 4",
                "addr:country": "PL",
                "addr:postcode": "56-500",
                "addr:city": "Syc\u00f3w",
                "addr:street": "Ko\u015bcielna",
                "addr:housenumber": "3",
                "addr:teryt:simc": 937379,
                "addr:teryt:sym_ul": 9546,
                "contact:phone": "+48 627855156",
                "contact:email": "sekretariat@sp3sycow.pl",
                "ref:regon": "386782650",
                "operator": "Gmina Syc\u00f3w",
                "operator:type": "government",
                "amenity": "kindergarten",
                "note": "Parent RSPO: 275313"
            }
        },
        {
            "id": 35049,
            "type": "Feature",
            "geometry": {
                "type": "Point",
                "coordinates": [
                    17.72477,
                    51.3090199
                ]
            },
            "properties": {
                "ref:rspo": 35049,
                "official_name": "Pa\u0144stwowa Szko\u0142a Muzyczna I St. im. Ignacego Jana Paderewskiego w Sycowie",
                "name": "Pa\u0144stwowa Szko\u0142a Muzyczna I St.",
                "addr:country": "PL",
                "addr:postcode": "56-500",
                "addr:city": "Syc\u00f3w",
                "addr:street": "Ludwika Wary\u0144skiego",
                "addr:housenumber": "2a",
                "addr:teryt:simc": 937379,
                "addr:teryt:sym_ul": 23707,
                "contact:phone": "+48 627852098",
                "contact:email": "sekretariat_psm.sycow@onet.eu",
                "contact:website": "http:\/\/psmsycow.pl",
                "ref:regon": "000989287",
                "operator": "Ministerstwo Kultury I Dziedzictwa Narodowego",
                "operator:type": "public",
                "amenity": "music_school"
            }
        },
        {
            "id": 91737,
            "type": "Feature",
            "geometry": {
                "type": "Point",
                "coordinates": [
                    17.71385,
                    51.30913
                ]
            },
            "properties": {
                "ref:rspo": 91737,
                "official_name": "Niepubliczne Przedszkole Zgromadzenia Si\u00f3str Urszulanek im. Anio\u0142\u00f3w Str\u00f3\u017c\u00f3w w Sycowie",
                "name": "Niepubliczne Przedszkole Zgromadzenia Si\u00f3str Urszulanek",
                "addr:country": "PL",
                "addr:postcode": "56-500",
                "addr:city": "Syc\u00f3w",
                "addr:street": "Piastowska",
                "addr:housenumber": "39",
                "addr:teryt:simc": 937379,
                "addr:teryt:sym_ul": 16046,
                "contact:phone": "+48 627852458",
                "contact:email": "przedszkolesycow@o2.pl",
                "ref:regon": "022020132",
                "ref:vatin": "PL6191194230",
                "operator": "Centrum \u0141\u00f3dzko-Sieradzkie Zgromadzenie Si\u00f3str Urszulanek Serca Jezusa Konaj\u0105cego",
                "operator:type": "religious",
                "amenity": "kindergarten"
            }
        },
        {
            "id": 9174,
            "type": "Feature",
            "geometry": {
                "type": "Point",
                "coordinates": [
                    17.71715,
                    51.30959
                ]
            },
            "properties": {
                "isced:level": "3",
                "ref:rspo": 9174,
                "official_name": "Liceum Og\u00f3lnokszta\u0142c\u0105ce im. Tadeusza Ko\u015bciuszki w Sycowie",
                "name": "Liceum Og\u00f3lnokszta\u0142c\u0105ce",
                "addr:country": "PL",
                "addr:postcode": "56-500",
                "addr:city": "Syc\u00f3w",
                "addr:street": "Ko\u015bcielna",
                "addr:housenumber": "12",
                "addr:teryt:simc": 937379,
                "addr:teryt:sym_ul": 9546,
                "contact:phone": "+48 627852241",
                "contact:email": "sekretariat@losycow.pl",
                "contact:website": "http:\/\/www.losycow.pl",
                "ref:regon": "000229547",
                "ref:vatin": "PL6191061138",
                "operator": "Powiat Ole\u015bnicki",
                "operator:type": "government",
                "amenity": "school"
            }
        },
        {
            "id": 61334,
            "type": "Feature",
            "geometry": {
                "type": "Point",
                "coordinates": [
                    17.6438573,
                    51.309643
                ]
            },
            "properties": {
                "isced:level": "1;2",
                "ref:rspo": 61334,
                "official_name": "Szko\u0142a Podstawowa w Dzia\u0142oszy",
                "name": "Szko\u0142a Podstawowa w Dzia\u0142oszy",
                "addr:country": "PL",
                "addr:postcode": "56-500",
                "addr:place": "Dzia\u0142osza",
                "addr:housenumber": "62",
                "addr:teryt:simc": 209438,
                "contact:phone": "+48 627851624",
                "contact:email": "spdzial@wp.pl",
                "contact:website": "http:\/\/www.spdzial.szkolnastrona.pl",
                "ref:regon": "001228521",
                "ref:vatin": "PL9111755479",
                "operator": "Gmina Syc\u00f3w",
                "operator:type": "government",
                "amenity": "school"
            }
        },
        {
            "id": 9627,
            "type": "Feature",
            "geometry": {
                "type": "Point",
                "coordinates": [
                    17.71784,
                    51.30981
                ]
            },
            "properties": {
                "ref:rspo": 9627,
                "official_name": "Poradnia Psychologiczno-Pedagogiczna w Sycowie",
                "name": "Poradnia Psychologiczno-Pedagogiczna w Sycowie",
                "addr:country": "PL",
                "addr:postcode": "56-500",
                "addr:city": "Syc\u00f3w",
                "addr:street": "M\u0142y\u0144ska",
                "addr:housenumber": "1",
                "addr:teryt:simc": 937379,
                "addr:teryt:sym_ul": 13132,
                "contact:phone": "+48 627852708",
                "contact:email": "pedagogiczna.poradnia@xl.wp.pl",
                "contact:website": "http:\/\/www.poradnia.wroclaw.pl",
                "ref:regon": "000694333",
                "ref:vatin": "PL9111725857",
                "operator": "Powiat Ole\u015bnicki",
                "operator:type": "government",
                "healthcare": "counselling",
                "counselling_type": "education",
                "fixme": "w zale\u017cno\u015bci od przedmiotu dzia\u0142alno\u015bci (np. healthcare=counselling + counselling_type=education albo healthcare=psychotherapist)",
                "note": "Parent RSPO: 123715"
            }
        },
        {
            "id": 61338,
            "type": "Feature",
            "geometry": {
                "type": "Point",
                "coordinates": [
                    17.7228299,
                    51.31
                ]
            },
            "properties": {
                "isced:level": "1;2",
                "ref:rspo": 61338,
                "official_name": "Szko\u0142a Podstawowa Nr 2 im. Marii Konopnickiej w Sycowie",
                "name": "Szko\u0142a Podstawowa Nr 2",
                "addr:country": "PL",
                "addr:postcode": "56-500",
                "addr:city": "Syc\u00f3w",
                "addr:street": "Adama Mickiewicza",
                "addr:housenumber": "5",
                "addr:teryt:simc": 937379,
                "addr:teryt:sym_ul": 12740,
                "contact:phone": "+48 627855157",
                "contact:email": "sekretariat@sp2sycow.com.pl",
                "contact:website": "http:\/\/www.sp2sycow.pl",
                "ref:regon": "001228478",
                "ref:vatin": "PL9111753411",
                "operator": "Gmina Syc\u00f3w",
                "operator:type": "government",
                "amenity": "school"
            }
        },
        {
            "id": 61337,
            "type": "Feature",
            "geometry": {
                "type": "Point",
                "coordinates": [
                    17.70566,
                    51.31069
                ]
            },
            "properties": {
                "isced:level": "1;2",
                "ref:rspo": 61337,
                "official_name": "Szko\u0142a Podstawowa Nr 1 im. III Tysi\u0105clecia w Sycowie",
                "name": "Szko\u0142a Podstawowa Nr 1",
                "addr:country": "PL",
                "addr:postcode": "56-500",
                "addr:city": "Syc\u00f3w",
                "addr:street": "Jana Matejki",
                "addr:housenumber": "5",
                "addr:teryt:simc": 937379,
                "addr:teryt:sym_ul": 12489,
                "contact:phone": "+48 627855158",
                "contact:email": "sekretariatsp1sycow@gmail.com",
                "contact:website": "http:\/\/www.sp1sycow.pl",
                "ref:regon": "001228484",
                "ref:vatin": "PL9111751760",
                "operator": "Gmina Syc\u00f3w",
                "operator:type": "government",
                "amenity": "school"
            }
        },
        {
            "id": 61343,
            "type": "Feature",
            "geometry": {
                "type": "Point",
                "coordinates": [
                    17.72159,
                    51.31113
                ]
            },
            "properties": {
                "ref:rspo": 61343,
                "official_name": "Publiczne Przedszkole Nr 2 \"Misia Uszatka\" w Sycowie",
                "name": "Publiczne Przedszkole Nr 2 \"Misia Uszatka\" w Sycowie",
                "addr:country": "PL",
                "addr:postcode": "56-500",
                "addr:city": "Syc\u00f3w",
                "addr:street": "Komorowska",
                "addr:housenumber": "2",
                "addr:teryt:simc": 937379,
                "addr:teryt:sym_ul": 9075,
                "contact:phone": "+48 627855161",
                "contact:email": "przedszkolej2sycow@o2.pl",
                "ref:regon": "932223810",
                "ref:vatin": "PL9111756438",
                "operator": "Gmina Syc\u00f3w",
                "operator:type": "government",
                "amenity": "kindergarten"
            }
        },
        {
            "id": 7545,
            "type": "Feature",
            "geometry": {
                "type": "Point",
                "coordinates": [
                    17.7113799,
                    51.31208
                ]
            },
            "properties": {
                "ref:rspo": 7545,
                "official_name": "Zesp\u00f3\u0142 Szk\u00f3\u0142 Ponadpodstawowych w Sycowie",
                "name": "Zesp\u00f3\u0142 Szk\u00f3\u0142 Ponadpodstawowych w Sycowie",
                "addr:country": "PL",
                "addr:postcode": "56-500",
                "addr:city": "Syc\u00f3w",
                "addr:street": "Ignacego Daszy\u0144skiego",
                "addr:housenumber": "42",
                "addr:teryt:simc": 937379,
                "addr:teryt:sym_ul": 3639,
                "contact:phone": "+48 627869340",
                "contact:email": "sekretariat@zsp-sycow.pl",
                "contact:website": "http:\/\/www.zsp-sycow.pl",
                "ref:regon": "000196807",
                "ref:vatin": "PL6191060297",
                "operator": "Powiat Ole\u015bnicki",
                "operator:type": "government",
                "landuse": "education",
                "fixme": "amenity=school, amenity=college albo landuse=education w zale\u017cno\u015bci od tego, jakie plac\u00f3wki wchodz\u0105 w sk\u0142ad zespo\u0142u. Sprawd\u017a, kiedy stosowa\u0107 amenity=* a kiedy landuse=education.",
                "note": "Children RSPO: 82519;82553;82637"
            }
        },
        {
            "id": 82519,
            "type": "Feature",
            "geometry": {
                "type": "Point",
                "coordinates": [
                    17.7113799,
                    51.31205
                ]
            },
            "properties": {
                "isced:level": "3",
                "ref:rspo": 82519,
                "official_name": "Bran\u017cowa Szko\u0142a I Stopnia w Sycowie w Zespole Szk\u00f3\u0142 Ponadpodstawowych w Sycowie",
                "name": "Bran\u017cowa Szko\u0142a I Stopnia w Sycowie w Zespole Szk\u00f3\u0142 Ponadpodstawowych w Sycowie",
                "addr:country": "PL",
                "addr:postcode": "56-500",
                "addr:city": "Syc\u00f3w",
                "addr:street": "Ignacego Daszy\u0144skiego",
                "addr:housenumber": "42",
                "addr:teryt:simc": 937379,
                "addr:teryt:sym_ul": 3639,
                "contact:phone": "+48 627869340",
                "contact:email": "sekretariat@zsp-sycow.pl",
                "contact:website": "http:\/\/www.zsp-sycow.pl",
                "ref:regon": "932827070",
                "operator": "Powiat Ole\u015bnicki",
                "operator:type": "government",
                "amenity": "school",
                "note": "Parent RSPO: 7545"
            }
        },
        {
            "id": 82553,
            "type": "Feature",
            "geometry": {
                "type": "Point",
                "coordinates": [
                    17.7113799,
                    51.312020000000004
                ]
            },
            "properties": {
                "isced:level": "3",
                "ref:rspo": 82553,
                "official_name": "Technikum w Sycowie w Zespole Szk\u00f3\u0142 Ponadpodstawowych w Sycowie",
                "name": "Technikum w Sycowie w Zespole Szk\u00f3\u0142 Ponadpodstawowych w Sycowie",
                "addr:country": "PL",
                "addr:postcode": "56-500",
                "addr:city": "Syc\u00f3w",
                "addr:street": "Ignacego Daszy\u0144skiego",
                "addr:housenumber": "42",
                "addr:teryt:simc": 937379,
                "addr:teryt:sym_ul": 3639,
                "contact:phone": "+48 627869340",
                "contact:email": "sekretariat@zsp-sycow.pl",
                "contact:website": "http:\/\/www.zsp-sycow.pl",
                "ref:regon": "932827057",
                "operator": "Powiat Ole\u015bnicki",
                "operator:type": "government",
                "amenity": "school",
                "note": "Parent RSPO: 7545"
            }
        },
        {
            "id": 82637,
            "type": "Feature",
            "geometry": {
                "type": "Point",
                "coordinates": [
                    17.7113799,
                    51.31199
                ]
            },
            "properties": {
                "isced:level": "3",
                "ref:rspo": 82637,
                "official_name": "Liceum Og\u00f3lnokszta\u0142c\u0105ce dla Doros\u0142ych w Sycowie w Zespole Szk\u00f3\u0142 Ponadpodstawowych w Sycowie",
                "name": "Liceum Og\u00f3lnokszta\u0142c\u0105ce dla Doros\u0142ych w Sycowie w Zespole Szk\u00f3\u0142 Ponadpodstawowych w Sycowie",
                "addr:country": "PL",
                "addr:postcode": "56-500",
                "addr:city": "Syc\u00f3w",
                "addr:street": "Ignacego Daszy\u0144skiego",
                "addr:housenumber": "42",
                "addr:teryt:simc": 937379,
                "addr:teryt:sym_ul": 3639,
                "contact:phone": "+48 627869340",
                "contact:email": "sekretariat@zsp-sycow.pl",
                "contact:website": "http:\/\/www.zsp-sycow.pl",
                "ref:regon": "021903220",
                "operator": "Powiat Ole\u015bnicki",
                "operator:type": "government",
                "amenity": "school",
                "note": "Parent RSPO: 7545"
            }
        },
        {
            "id": 61342,
            "type": "Feature",
            "geometry": {
                "type": "Point",
                "coordinates": [
                    17.72633,
                    51.31243
                ]
            },
            "properties": {
                "ref:rspo": 61342,
                "official_name": "Publiczne Przedszkole Nr 1 im. Kosza\u0142ka Opa\u0142ka w Sycowie",
                "name": "Publiczne Przedszkole Nr 1",
                "addr:country": "PL",
                "addr:postcode": "56-500",
                "addr:city": "Syc\u00f3w",
                "addr:street": "Kaliska",
                "addr:housenumber": "8",
                "addr:teryt:simc": 937379,
                "addr:teryt:sym_ul": 7823,
                "contact:phone": "+48 627855159",
                "contact:email": "przedszkolekoszalek@onet.eu",
                "ref:regon": "932223827",
                "ref:vatin": "PL9111756444",
                "operator": "Gmina Syc\u00f3w",
                "operator:type": "government",
                "amenity": "kindergarten"
            }
        },
        {
            "id": 61331,
            "type": "Feature",
            "geometry": {
                "type": "Point",
                "coordinates": [
                    17.5855031,
                    51.339673
                ]
            },
            "properties": {
                "isced:level": "1;2",
                "ref:rspo": 61331,
                "official_name": "Szko\u0142a Podstawowa w Dro\u0142towicach",
                "name": "Szko\u0142a Podstawowa w Dro\u0142towicach",
                "addr:country": "PL",
                "addr:postcode": "56-500",
                "addr:place": "Dro\u0142towice",
                "addr:housenumber": "12",
                "addr:teryt:simc": 209409,
                "contact:phone": "+48 627851427",
                "contact:email": "spdroltowice@onet.pl",
                "contact:website": "http:\/\/www.spdroltowice.edupage.org",
                "ref:regon": "001228515",
                "ref:vatin": "PL9111751783",
                "operator": "Gmina Syc\u00f3w",
                "operator:type": "government",
                "amenity": "school"
            }
        },
        {
            "id": 276092,
            "type": "Feature",
            "geometry": {
                "type": "Point",
                "coordinates": [
                    17.5855031,
                    51.339642999999995
                ]
            },
            "properties": {
                "ref:rspo": 276092,
                "official_name": "Ma\u0142e Przedszkole w Dro\u0142towicach",
                "name": "Ma\u0142e Przedszkole w Dro\u0142towicach",
                "addr:country": "PL",
                "addr:postcode": "56-500",
                "addr:place": "Dro\u0142towice",
                "addr:housenumber": "12",
                "addr:teryt:simc": 209409,
                "contact:email": "krystian.ulbin@gmail.com",
                "ref:regon": "386987866",
                "operator": "Fundacja \"Merkury\"",
                "operator:type": "ngo",
                "amenity": "kindergarten"
            }
        }
    ]
}