{
    "type": "FeatureCollection",
    "features": [
        {
            "id": 40624,
            "type": "Feature",
            "geometry": {
                "type": "Point",
                "coordinates": [
                    17.41815,
                    51.34758
                ]
            },
            "properties": {
                "isced:level": "1;2",
                "ref:rspo": 40624,
                "official_name": "Szko\u0142a Podstawowa w Grabownie Wielkim",
                "name": "Szko\u0142a Podstawowa w Grabownie Wielkim",
                "addr:postcode": "56-416",
                "addr:place": "Grabowno Wielkie",
                "addr:housenumber": "139a",
                "addr:city:simc": 881986,
                "phone": "+48 713148658",
                "email": "spgrab@o2.pl",
                "website": "http:\/\/www.sp-grabownowielkie.szkolnastrona.pl",
                "ref:regon": "001181104",
                "operator": "Gmina Twardog\u00f3ra",
                "operator:type": "government",
                "amenity": "school"
            }
        },
        {
            "id": 40626,
            "type": "Feature",
            "geometry": {
                "type": "Point",
                "coordinates": [
                    17.46018,
                    51.36471
                ]
            },
            "properties": {
                "isced:level": "1;2",
                "ref:rspo": 40626,
                "official_name": "Szko\u0142a Podstawowa Nr 2 im. Jana Paw\u0142a 2 w Twardog\u00f3rze",
                "name": "Szko\u0142a Podstawowa Nr 2",
                "addr:postcode": "56-416",
                "addr:city": "Twardog\u00f3ra",
                "addr:street": "Stefana Batorego",
                "addr:housenumber": "5",
                "addr:city:simc": 987390,
                "addr:street:sym_ul": 891,
                "phone": "+48 713159056",
                "email": "sekretariat@sp2.twardogora.pl",
                "website": "http:\/\/www.sp2.twardogora.pl",
                "ref:regon": "931059840",
                "operator": "Gmina Twardog\u00f3ra",
                "operator:type": "government",
                "amenity": "school"
            }
        },
        {
            "id": 40609,
            "type": "Feature",
            "geometry": {
                "type": "Point",
                "coordinates": [
                    17.46967,
                    51.36533
                ]
            },
            "properties": {
                "ref:rspo": 40609,
                "official_name": "Przedszkole Niepubliczne Si\u00f3str Opatrzno\u015bci Bo\u017cej w Twardog\u00f3rze",
                "name": "Przedszkole Niepubliczne Si\u00f3str Opatrzno\u015bci Bo\u017cej w Twardog\u00f3rze",
                "addr:postcode": "56-416",
                "addr:city": "Twardog\u00f3ra",
                "addr:street": "Plac Piast\u00f3w",
                "addr:housenumber": "18",
                "addr:city:simc": 987390,
                "addr:street:sym_ul": 16056,
                "email": "przedszkole.sob@wp.pl",
                "ref:regon": "022005256",
                "operator": "Zgromadzenie Si\u00f3str Opatrzno\u015bci Bo\u017cej Dom Generalny",
                "operator:type": "religious",
                "amenity": "kindergarten"
            }
        },
        {
            "id": 40622,
            "type": "Feature",
            "geometry": {
                "type": "Point",
                "coordinates": [
                    17.47022,
                    51.36724
                ]
            },
            "properties": {
                "ref:rspo": 40622,
                "official_name": "Miejskie Przedszkole w Twardog\u00f3rze",
                "name": "Miejskie Przedszkole w Twardog\u00f3rze",
                "addr:postcode": "56-416",
                "addr:city": "Twardog\u00f3ra",
                "addr:street": "Grunwaldzka",
                "addr:housenumber": "1",
                "addr:city:simc": 987390,
                "addr:street:sym_ul": 6260,
                "phone": "+48 713158067",
                "email": "przedsztward@pro.onet.pl",
                "website": "http:\/\/www.przedszkole.twardogora.pl",
                "ref:regon": "021404528",
                "operator": "Gmina Twardog\u00f3ra",
                "operator:type": "government",
                "amenity": "kindergarten"
            }
        },
        {
            "id": 277774,
            "type": "Feature",
            "geometry": {
                "type": "Point",
                "coordinates": [
                    17.45986,
                    51.36779
                ]
            },
            "properties": {
                "ref:rspo": 277774,
                "official_name": "Niepubliczne Przedszkole \"Weso\u0142e Motylki 2\"",
                "name": "Niepubliczne Przedszkole \"Weso\u0142e Motylki 2\"",
                "addr:postcode": "56-416",
                "addr:city": "Twardog\u00f3ra",
                "addr:street": "Le\u015bna",
                "addr:housenumber": "1",
                "addr:city:simc": 987390,
                "addr:street:sym_ul": 10898,
                "email": "wesolemotylki@op.pl",
                "website": "http:\/\/wesole-motylki.pl",
                "ref:regon": "389484812",
                "ref:vatin": "PL8992776391",
                "operator": "Justxu Sp\u00f3\u0142ka Z Ograniczon\u0105 Odpowiedzialno\u015bci\u0105",
                "operator:type": "private",
                "amenity": "kindergarten"
            }
        },
        {
            "id": 6907,
            "type": "Feature",
            "geometry": {
                "type": "Point",
                "coordinates": [
                    17.46979,
                    51.36869
                ]
            },
            "properties": {
                "ref:rspo": 6907,
                "official_name": "Zesp\u00f3\u0142 Szk\u00f3\u0142 Ponadpodstawowych im. Jaros\u0142awa Iwaszkiewicza w Twardog\u00f3rze",
                "name": "Zesp\u00f3\u0142 Szk\u00f3\u0142 Ponadpodstawowych",
                "addr:postcode": "56-416",
                "addr:city": "Twardog\u00f3ra",
                "addr:street": "Stanis\u0142awa Staszica",
                "addr:housenumber": "3",
                "addr:city:simc": 987390,
                "addr:street:sym_ul": 21071,
                "phone": "+48 713158014",
                "email": "sekretariat@zsptwardogora.pl",
                "website": "http:\/\/zsptwardogora.pl",
                "ref:regon": "000192962",
                "ref:vatin": "PL9111408022",
                "operator": "Powiat Ole\u015bnicki",
                "operator:type": "government",
                "landuse": "education",
                "fixme": "amenity=school, amenity=college albo landuse=education w zale\u017cno\u015bci od tego, jakie plac\u00f3wki wchodz\u0105 w sk\u0142ad zespo\u0142u. Sprawd\u017a, kiedy stosowa\u0107 amenity=* a kiedy landuse=education.",
                "note": "Children RSPO: 8219;81258;81656"
            }
        },
        {
            "id": 8219,
            "type": "Feature",
            "geometry": {
                "type": "Point",
                "coordinates": [
                    17.46979,
                    51.36866
                ]
            },
            "properties": {
                "isced:level": "3",
                "ref:rspo": 8219,
                "official_name": "Liceum Og\u00f3lnokszta\u0142c\u0105ce dla Doros\u0142ych w Twardog\u00f3rze w Zespole Szk\u00f3\u0142 Ponadpodstawowych im. Jaros\u0142awa Iwaszkiewicza w Twardog\u00f3rze",
                "name": "Liceum Og\u00f3lnokszta\u0142c\u0105ce dla Doros\u0142ych w Twardog\u00f3rze w Zespole Szk\u00f3\u0142 Ponadpodstawowych",
                "addr:postcode": "56-416",
                "addr:city": "Twardog\u00f3ra",
                "addr:street": "Stanis\u0142awa Staszica",
                "addr:housenumber": "3",
                "addr:city:simc": 987390,
                "addr:street:sym_ul": 21071,
                "phone": "+48 713158014",
                "email": "sekretariat@zsptwardogora.pl",
                "website": "http:\/\/zsptwardogora.pl",
                "ref:regon": "021953726",
                "operator": "Powiat Ole\u015bnicki",
                "operator:type": "government",
                "amenity": "school",
                "note": "Parent RSPO: 6907"
            }
        },
        {
            "id": 81258,
            "type": "Feature",
            "geometry": {
                "type": "Point",
                "coordinates": [
                    17.46979,
                    51.36863
                ]
            },
            "properties": {
                "isced:level": "3",
                "ref:rspo": 81258,
                "official_name": "Technikum w Twardog\u00f3rze w Zespole Szk\u00f3\u0142 Ponadpodstawowych im. Jaros\u0142awa Iwaszkiewicza w Twardog\u00f3rze",
                "name": "Technikum w Twardog\u00f3rze w Zespole Szk\u00f3\u0142 Ponadpodstawowych",
                "addr:postcode": "56-416",
                "addr:city": "Twardog\u00f3ra",
                "addr:street": "Stanis\u0142awa Staszica",
                "addr:housenumber": "3",
                "addr:city:simc": 987390,
                "addr:street:sym_ul": 21071,
                "phone": "+48 713158014",
                "email": "sekretariat@zsptwardogora.pl",
                "website": "http:\/\/www.zsptwardogora.pl",
                "ref:regon": "932821103",
                "operator": "Powiat Ole\u015bnicki",
                "operator:type": "government",
                "amenity": "school",
                "note": "Parent RSPO: 6907"
            }
        },
        {
            "id": 81656,
            "type": "Feature",
            "geometry": {
                "type": "Point",
                "coordinates": [
                    17.46979,
                    51.3686
                ]
            },
            "properties": {
                "isced:level": "3",
                "ref:rspo": 81656,
                "official_name": "Bran\u017cowa Szko\u0142a I Stopnia w Twardog\u00f3rze w Zespole Szk\u00f3\u0142 Ponadpodstawowych im. Jaros\u0142awa Iwaszkiewicza w Twardog\u00f3rze",
                "name": "Bran\u017cowa Szko\u0142a I Stopnia w Twardog\u00f3rze w Zespole Szk\u00f3\u0142 Ponadpodstawowych",
                "addr:postcode": "56-416",
                "addr:city": "Twardog\u00f3ra",
                "addr:street": "Stanis\u0142awa Staszica",
                "addr:housenumber": "3",
                "addr:city:simc": 987390,
                "addr:street:sym_ul": 21071,
                "phone": "+48 713158014",
                "email": "sekretariat@zsptwardogora.pl",
                "website": "http:\/\/www.zsptwardogora.pl",
                "ref:regon": "932821089",
                "operator": "Powiat Ole\u015bnicki",
                "operator:type": "government",
                "amenity": "school",
                "note": "Parent RSPO: 6907"
            }
        },
        {
            "id": 40625,
            "type": "Feature",
            "geometry": {
                "type": "Point",
                "coordinates": [
                    17.47955,
                    51.39378
                ]
            },
            "properties": {
                "isced:level": "1;2",
                "ref:rspo": 40625,
                "official_name": "Szko\u0142a Podstawowa w Goszczu",
                "name": "Szko\u0142a Podstawowa w Goszczu",
                "addr:postcode": "56-416",
                "addr:city": "Goszcz",
                "addr:street": "Szkolna",
                "addr:housenumber": "1",
                "addr:city:simc": 881911,
                "addr:street:sym_ul": 21970,
                "phone": "+48 713987091",
                "email": "spgoszcz@wr.onet.pl",
                "website": "http:\/\/www.spgoszcz.twardogora.pl",
                "ref:regon": "001181096",
                "operator": "Gmina Twardog\u00f3ra",
                "operator:type": "government",
                "amenity": "school"
            }
        }
    ]
}