{
    "type": "FeatureCollection",
    "features": [
        {
            "id": 85571,
            "type": "Feature",
            "geometry": {
                "type": "Point",
                "coordinates": [
                    17.35812,
                    51.20216
                ]
            },
            "properties": {
                "isced:level": "1;2",
                "ref:rspo": 85571,
                "official_name": "Szko\u0142a Podstawowa Nr 8 im. Noblist\u00f3w Polskich w Ole\u015bnicy",
                "name": "Szko\u0142a Podstawowa Nr 8",
                "addr:country": "PL",
                "addr:postcode": "56-400",
                "addr:city": "Ole\u015bnica",
                "addr:street": "Wiejska",
                "addr:housenumber": "35",
                "addr:teryt:simc": 987213,
                "addr:teryt:sym_ul": 24048,
                "contact:phone": "+48 717981133",
                "contact:email": "sekretariat@sp8.zosolesnica.pl",
                "ref:regon": "001267580",
                "ref:vatin": "PL9111731059",
                "operator": "Gmina Miasto Ole\u015bnica",
                "operator:type": "government",
                "amenity": "school"
            }
        },
        {
            "id": 272411,
            "type": "Feature",
            "geometry": {
                "type": "Point",
                "coordinates": [
                    17.36764,
                    51.20269
                ]
            },
            "properties": {
                "ref:rspo": 272411,
                "official_name": "Przedszkole Niepubliczne Mali Odkrywcy",
                "name": "Przedszkole Niepubliczne Mali Odkrywcy",
                "addr:country": "PL",
                "addr:postcode": "56-400",
                "addr:city": "Ole\u015bnica",
                "addr:street": "Wiejska",
                "addr:housenumber": "20",
                "addr:teryt:simc": 987213,
                "addr:teryt:sym_ul": 24048,
                "contact:phone": "+48 730137137",
                "contact:email": "biuro@maliodkrywcy.net",
                "contact:website": "http:\/\/www.maliodkrywcy.net",
                "ref:regon": "384165551",
                "operator": "Bss Sp\u00f3\u0142ka Z Ograniczon\u0105 Odpowiedzialno\u015bci\u0105",
                "operator:type": "private",
                "amenity": "kindergarten"
            }
        },
        {
            "id": 264717,
            "type": "Feature",
            "geometry": {
                "type": "Point",
                "coordinates": [
                    17.3731,
                    51.20386
                ]
            },
            "properties": {
                "ref:rspo": 264717,
                "official_name": "Integracyjny Punkt Przedszkolny \"Zaczarowany O\u0142\u00f3wek\"",
                "name": "Integracyjny Punkt Przedszkolny \"Zaczarowany O\u0142\u00f3wek\"",
                "addr:country": "PL",
                "addr:postcode": "56-400",
                "addr:city": "Ole\u015bnica",
                "addr:street": "Wa\u0142y Jagiello\u0144skie",
                "addr:housenumber": "13",
                "addr:teryt:simc": 987213,
                "addr:teryt:sym_ul": 23596,
                "contact:phone": "+48 501174592",
                "ref:regon": "368450695",
                "ref:vatin": "PL8970032594",
                "operator": "Marek Dr\u00f3\u017ad\u017a",
                "operator:type": "private",
                "amenity": "kindergarten"
            }
        },
        {
            "id": 276049,
            "type": "Feature",
            "geometry": {
                "type": "Point",
                "coordinates": [
                    17.38958,
                    51.2043
                ]
            },
            "properties": {
                "ref:rspo": 276049,
                "official_name": "Niepubliczne Przedszkole J\u0119zykowe \"Anio\u0142\u00f3w Str\u00f3\u017c\u00f3w\"",
                "name": "Niepubliczne Przedszkole J\u0119zykowe \"Anio\u0142\u00f3w Str\u00f3\u017c\u00f3w\"",
                "addr:country": "PL",
                "addr:postcode": "56-400",
                "addr:city": "Ole\u015bnica",
                "addr:street": "Ignacego Paderewskiego",
                "addr:housenumber": "4d,e,f,g,h",
                "addr:teryt:simc": 987213,
                "addr:teryt:sym_ul": 15529,
                "contact:phone": "+48 505092895",
                "contact:email": "dyrektor@katolicka.edu.pl",
                "ref:regon": "386974148",
                "operator": "Marian Jankiewicz",
                "operator:type": "private",
                "amenity": "kindergarten"
            }
        },
        {
            "id": 75523,
            "type": "Feature",
            "geometry": {
                "type": "Point",
                "coordinates": [
                    17.38834,
                    51.20455
                ]
            },
            "properties": {
                "isced:level": "4",
                "ref:rspo": 75523,
                "official_name": "\"Euroconsulting\" Polsko-Niemieckie Centrum Edukacji Biznesu. Szko\u0142a Policealna w Ole\u015bnicy",
                "name": "\"Euroconsulting\" Polsko-Niemieckie Centrum Edukacji Biznesu. Szko\u0142a Policealna w Ole\u015bnicy",
                "addr:country": "PL",
                "addr:postcode": "56-400",
                "addr:city": "Ole\u015bnica",
                "addr:street": "Ignacego Paderewskiego",
                "addr:housenumber": "2",
                "addr:teryt:simc": 987213,
                "addr:teryt:sym_ul": 15529,
                "contact:phone": "+48 717989140",
                "contact:email": "euroconsulting@poczta.fm",
                "contact:website": "http:\/\/www.ec.edu.pl",
                "ref:regon": "022007108",
                "operator": "Kazimierz G\u0119bu\u015b",
                "operator:type": "private",
                "amenity": "college"
            }
        },
        {
            "id": 76170,
            "type": "Feature",
            "geometry": {
                "type": "Point",
                "coordinates": [
                    17.38834,
                    51.204519999999995
                ]
            },
            "properties": {
                "isced:level": "3",
                "ref:rspo": 76170,
                "official_name": "\"Euroconsulting\" Centrum Kszta\u0142cenia Doros\u0142ych. Liceum Og\u00f3lnokszta\u0142c\u0105ce dla Doros\u0142ych w Ole\u015bnicy",
                "name": "\"Euroconsulting\" Centrum Kszta\u0142cenia Doros\u0142ych. Liceum Og\u00f3lnokszta\u0142c\u0105ce dla Doros\u0142ych w Ole\u015bnicy",
                "addr:country": "PL",
                "addr:postcode": "56-400",
                "addr:city": "Ole\u015bnica",
                "addr:street": "Ignacego Paderewskiego",
                "addr:housenumber": "2",
                "addr:teryt:simc": 987213,
                "addr:teryt:sym_ul": 15529,
                "contact:phone": "+48 717989140",
                "contact:email": "euroconsulting@poczta.fm",
                "contact:website": "http:\/\/www.ec.edu.pl",
                "ref:regon": "022008409",
                "operator": "Kazimierz G\u0119bu\u015b",
                "operator:type": "private",
                "amenity": "school"
            }
        },
        {
            "id": 85568,
            "type": "Feature",
            "geometry": {
                "type": "Point",
                "coordinates": [
                    17.38834,
                    51.20449
                ]
            },
            "properties": {
                "isced:level": "1;2",
                "ref:rspo": 85568,
                "official_name": "Szko\u0142a Podstawowa Nr 4 im.prof. Romana Podoskiego w Ole\u015bnicy",
                "name": "Szko\u0142a Podstawowa Nr 4 im.prof. Romana Podoskiego w Ole\u015bnicy",
                "addr:country": "PL",
                "addr:postcode": "56-400",
                "addr:city": "Ole\u015bnica",
                "addr:street": "Ignacego Paderewskiego",
                "addr:housenumber": "2",
                "addr:teryt:simc": 987213,
                "addr:teryt:sym_ul": 15529,
                "contact:phone": "+48 717981046",
                "contact:email": "sekretariat@sp4.zosolesnica.pl",
                "contact:website": "https:\/\/sp4.zosolesnica.pl\/",
                "ref:regon": "000703902",
                "ref:vatin": "PL9111731119",
                "operator": "Gmina Miasto Ole\u015bnica",
                "operator:type": "government",
                "amenity": "school"
            }
        },
        {
            "id": 5271,
            "type": "Feature",
            "geometry": {
                "type": "Point",
                "coordinates": [
                    17.37683,
                    51.20526
                ]
            },
            "properties": {
                "isced:level": "3",
                "ref:rspo": 5271,
                "official_name": "I Liceum Og\u00f3lnokszta\u0142c\u0105ce im. Juliusza S\u0142owackiego w Ole\u015bnicy",
                "name": "I Liceum Og\u00f3lnokszta\u0142c\u0105ce",
                "addr:country": "PL",
                "addr:postcode": "56-400",
                "addr:city": "Ole\u015bnica",
                "addr:street": "Juliusza S\u0142owackiego",
                "addr:housenumber": "4",
                "addr:teryt:simc": 987213,
                "addr:teryt:sym_ul": 20291,
                "contact:phone": "+48 713143280",
                "contact:email": "lo1@olesnica.pl",
                "contact:website": "http:\/\/www.lo1.olesnica.pl\/",
                "ref:regon": "932227475",
                "ref:vatin": "PL9111345505",
                "operator": "Powiat Ole\u015bnicki",
                "operator:type": "government",
                "amenity": "school"
            }
        },
        {
            "id": 85593,
            "type": "Feature",
            "geometry": {
                "type": "Point",
                "coordinates": [
                    17.37631,
                    51.20532
                ]
            },
            "properties": {
                "ref:rspo": 85593,
                "official_name": "Niepubliczne Przedszkole Artystyczne Czarodziejski Ogr\u00f3d",
                "name": "Niepubliczne Przedszkole Artystyczne Czarodziejski Ogr\u00f3d",
                "addr:country": "PL",
                "addr:postcode": "56-400",
                "addr:city": "Ole\u015bnica",
                "addr:street": "Juliusza S\u0142owackiego",
                "addr:housenumber": "5",
                "addr:teryt:simc": 987213,
                "addr:teryt:sym_ul": 20291,
                "contact:phone": "+48 723524307",
                "contact:email": "przedszkoleniepubliczne@onet.eu",
                "ref:regon": "022011216",
                "ref:vatin": "PL9111951654",
                "operator": "Centrum Edukacji I Sztuki \"Talent\" Sp\u00f3\u0142ka Z Ograniczon\u0105 Odpowiedzialno\u015bci\u0105",
                "operator:type": "private",
                "amenity": "kindergarten"
            }
        },
        {
            "id": 85591,
            "type": "Feature",
            "geometry": {
                "type": "Point",
                "coordinates": [
                    17.37041,
                    51.2053299
                ]
            },
            "properties": {
                "ref:rspo": 85591,
                "official_name": "Niepubliczne Przedszkole Na Ptasiej",
                "name": "Niepubliczne Przedszkole Na Ptasiej",
                "addr:country": "PL",
                "addr:postcode": "56-400",
                "addr:city": "Ole\u015bnica",
                "addr:street": "Ptasia",
                "addr:housenumber": "7A",
                "addr:teryt:simc": 987213,
                "addr:teryt:sym_ul": 18056,
                "contact:phone": "+48 535522945",
                "contact:email": "beatawysocka12@wp.pl",
                "ref:regon": "022010228",
                "ref:vatin": "PL8991617696",
                "operator": "Beata Wysocka",
                "operator:type": "private",
                "amenity": "kindergarten"
            }
        },
        {
            "id": 85592,
            "type": "Feature",
            "geometry": {
                "type": "Point",
                "coordinates": [
                    17.37901,
                    51.2054199
                ]
            },
            "properties": {
                "ref:rspo": 85592,
                "official_name": "Niepubliczne Przedszkole Bajkowy Klub Malucha Renata Marmajewska",
                "name": "Niepubliczne Przedszkole Bajkowy Klub Malucha Renata Marmajewska",
                "addr:country": "PL",
                "addr:postcode": "56-400",
                "addr:city": "Ole\u015bnica",
                "addr:street": "3 Maja",
                "addr:housenumber": "47",
                "addr:door": "I",
                "addr:teryt:simc": 987213,
                "addr:teryt:sym_ul": 11937,
                "contact:phone": "+48 530121250",
                "contact:email": "bajkowyklubmalucha@wp.pl",
                "ref:regon": "022010820",
                "ref:vatin": "PL9111266496",
                "operator": "Renata Marmajewska",
                "operator:type": "private",
                "amenity": "kindergarten"
            }
        },
        {
            "id": 85570,
            "type": "Feature",
            "geometry": {
                "type": "Point",
                "coordinates": [
                    17.38248,
                    51.20557
                ]
            },
            "properties": {
                "isced:level": "1;2",
                "ref:rspo": 85570,
                "official_name": "Szko\u0142a Podstawowa Nr 7 im. Jana Paw\u0142a II w Ole\u015bnicy",
                "name": "Szko\u0142a Podstawowa Nr 7",
                "addr:country": "PL",
                "addr:postcode": "56-400",
                "addr:city": "Ole\u015bnica",
                "addr:street": "11 Listopada",
                "addr:housenumber": "10",
                "addr:teryt:simc": 987213,
                "addr:teryt:sym_ul": 11205,
                "contact:phone": "+48 713144807",
                "contact:email": "sekretariat@sp7.zosolesnica.pl",
                "ref:regon": "000704876",
                "ref:vatin": "PL9111733408",
                "operator": "Gmina Miasto Ole\u015bnica",
                "operator:type": "government",
                "amenity": "school"
            }
        },
        {
            "id": 31715,
            "type": "Feature",
            "geometry": {
                "type": "Point",
                "coordinates": [
                    17.3797,
                    51.2067
                ]
            },
            "properties": {
                "ref:rspo": 31715,
                "official_name": "Przedszkole Nr 1 w Ole\u015bnicy",
                "name": "Przedszkole Nr 1 w Ole\u015bnicy",
                "addr:country": "PL",
                "addr:postcode": "56-400",
                "addr:city": "Ole\u015bnica",
                "addr:street": "Jana Kili\u0144skiego",
                "addr:housenumber": "9",
                "addr:teryt:simc": 987213,
                "addr:teryt:sym_ul": 8435,
                "contact:phone": "+48 713142664",
                "contact:email": "s.boinska@p1.zosolesnica.pl",
                "contact:website": "http:\/\/www.p1.zosolesnica.pl",
                "ref:regon": "930113684",
                "ref:vatin": "PL9111743105",
                "operator": "Gmina Miasto Ole\u015bnica",
                "operator:type": "government",
                "amenity": "kindergarten"
            }
        },
        {
            "id": 29914,
            "type": "Feature",
            "geometry": {
                "type": "Point",
                "coordinates": [
                    17.40673,
                    51.20738
                ]
            },
            "properties": {
                "ref:rspo": 29914,
                "official_name": "Niepubliczne Przedszkole \"Przedszkolandia Ole\u015bnica\"",
                "name": "Niepubliczne Przedszkole \"Przedszkolandia Ole\u015bnica\"",
                "addr:country": "PL",
                "addr:postcode": "56-400",
                "addr:city": "Ole\u015bnica",
                "addr:street": "Lotnicza",
                "addr:housenumber": "27",
                "addr:teryt:simc": 987213,
                "addr:teryt:sym_ul": 11270,
                "contact:phone": "+48 726272727",
                "contact:email": "przedszkolandia.olesnica@wp.pl",
                "ref:regon": "021989279",
                "ref:vatin": "PL9110009082",
                "operator": "Romuald Krzesi\u0144ski",
                "operator:type": "private",
                "amenity": "kindergarten"
            }
        },
        {
            "id": 85566,
            "type": "Feature",
            "geometry": {
                "type": "Point",
                "coordinates": [
                    17.38625,
                    51.20771
                ]
            },
            "properties": {
                "ref:rspo": 85566,
                "official_name": "Przedszkole Nr 6 w Ole\u015bnicy",
                "name": "Przedszkole Nr 6 w Ole\u015bnicy",
                "addr:country": "PL",
                "addr:postcode": "56-400",
                "addr:city": "Ole\u015bnica",
                "addr:street": "Kazimierza Wielkiego",
                "addr:housenumber": "7",
                "addr:teryt:simc": 987213,
                "addr:teryt:sym_ul": 8265,
                "contact:phone": "+48 713143272",
                "contact:email": "sekretariat@p6.zosolesnica.pl",
                "contact:website": "http:\/\/www.p6.zosolesnica.pl",
                "ref:regon": "930305604",
                "ref:vatin": "PL9111731065",
                "operator": "Gmina Miasto Ole\u015bnica",
                "operator:type": "government",
                "amenity": "kindergarten"
            }
        },
        {
            "id": 85565,
            "type": "Feature",
            "geometry": {
                "type": "Point",
                "coordinates": [
                    17.3869599,
                    51.20771
                ]
            },
            "properties": {
                "ref:rspo": 85565,
                "official_name": "Przedszkole Nr 4 w Ole\u015bnicy",
                "name": "Przedszkole Nr 4 w Ole\u015bnicy",
                "addr:country": "PL",
                "addr:postcode": "56-400",
                "addr:city": "Ole\u015bnica",
                "addr:street": "Kazimierza Wielkiego",
                "addr:housenumber": "4",
                "addr:teryt:simc": 987213,
                "addr:teryt:sym_ul": 8265,
                "contact:phone": "+48 713142913",
                "contact:email": "sekretariat@p4.zosolesnica.pl",
                "contact:website": "http:\/\/www.p4.zosolesnica.pl",
                "ref:regon": "930113715",
                "ref:vatin": "PL9111731071",
                "operator": "Gmina Miasto Ole\u015bnica",
                "operator:type": "government",
                "amenity": "kindergarten"
            }
        },
        {
            "id": 55643,
            "type": "Feature",
            "geometry": {
                "type": "Point",
                "coordinates": [
                    17.37839,
                    51.2079499
                ]
            },
            "properties": {
                "ref:rspo": 55643,
                "official_name": "Dolno\u015bL\u0105ski Zak\u0142ad Doskonalenia Zawodowego Oddzia\u0142 I we Wroc\u0142awiu-O\u015brodek Kszta\u0142cenia Zawodowego w Ole\u015bnicy",
                "name": "Dolno\u015bL\u0105ski Zak\u0142ad Doskonalenia Zawodowego Oddzia\u0142 I we Wroc\u0142awiu-O\u015brodek Kszta\u0142cenia Zawodowego w Ole\u015bnicy",
                "addr:country": "PL",
                "addr:postcode": "56-400",
                "addr:city": "Ole\u015bnica",
                "addr:street": "M\u0142ynarska",
                "addr:housenumber": "3",
                "addr:teryt:simc": 987213,
                "addr:teryt:sym_ul": 13112,
                "contact:phone": "+48 713142068",
                "contact:email": "okz.olesnica@dzdz.wroc.pl",
                "contact:website": "http:\/\/www.dzdz.wroc.pl",
                "ref:regon": "022000260",
                "operator": "Dolno\u015bl\u0105ski Zak\u0142ad Doskonalenia Zawodowego Oddzia\u0142 I We Wroc\u0142awiu",
                "operator:type": "ngo",
                "fixme": "w zale\u017cno\u015bci od przedmiotu dzia\u0142alno\u015bci (np. amenity=training + training=*, amenity=dancing_school, amenity=language_school, amenity=music_school)"
            }
        },
        {
            "id": 126460,
            "type": "Feature",
            "geometry": {
                "type": "Point",
                "coordinates": [
                    17.38755,
                    51.2081
                ]
            },
            "properties": {
                "ref:rspo": 126460,
                "official_name": "Niepubliczne Przedszkole Muzyczno - J\u0119zykowe Hippek",
                "name": "Niepubliczne Przedszkole Muzyczno - J\u0119zykowe Hippek",
                "addr:country": "PL",
                "addr:postcode": "56-400",
                "addr:city": "Ole\u015bnica",
                "addr:street": "Boles\u0142awa Krzywoustego",
                "addr:housenumber": "2",
                "addr:teryt:simc": 987213,
                "addr:teryt:sym_ul": 1749,
                "contact:phone": "+48 607556492",
                "contact:email": "hippekklub@gmail.com",
                "ref:regon": "360345533",
                "operator": "Marta Szurgut",
                "operator:type": "private",
                "amenity": "kindergarten"
            }
        },
        {
            "id": 133408,
            "type": "Feature",
            "geometry": {
                "type": "Point",
                "coordinates": [
                    17.39404,
                    51.20826
                ]
            },
            "properties": {
                "ref:rspo": 133408,
                "official_name": "Klub Malucha \"Chatka Puchatka\" Integracyjne Przedszkole",
                "name": "Klub Malucha \"Chatka Puchatka\" Integracyjne Przedszkole",
                "addr:country": "PL",
                "addr:postcode": "56-400",
                "addr:city": "Ole\u015bnica",
                "addr:street": "Armii Krajowej",
                "addr:housenumber": "43",
                "addr:teryt:simc": 987213,
                "addr:teryt:sym_ul": 432,
                "contact:phone": "+48 888374930",
                "ref:regon": "367241073",
                "ref:vatin": "PL9111107941",
                "operator": "Lilianna Hupfeld",
                "operator:type": "private",
                "amenity": "kindergarten"
            }
        },
        {
            "id": 85567,
            "type": "Feature",
            "geometry": {
                "type": "Point",
                "coordinates": [
                    17.3816,
                    51.20839
                ]
            },
            "properties": {
                "isced:level": "1;2",
                "ref:rspo": 85567,
                "official_name": "Szko\u0142a Podstawowa Nr 2 im. Jana Kili\u0144skiego w Ole\u015bnicy",
                "name": "Szko\u0142a Podstawowa Nr 2",
                "addr:country": "PL",
                "addr:postcode": "56-400",
                "addr:city": "Ole\u015bnica",
                "addr:street": "\u015awi\u0119tej Jadwigi",
                "addr:housenumber": "1a",
                "addr:teryt:simc": 987213,
                "addr:teryt:sym_ul": 7014,
                "contact:phone": "+48 713142323",
                "contact:email": "sekretariat@sp2.zosolesnica.pl",
                "ref:regon": "000703894",
                "ref:vatin": "PL9111731102",
                "operator": "Gmina Miasto Ole\u015bnica",
                "operator:type": "government",
                "amenity": "school"
            }
        },
        {
            "id": 267972,
            "type": "Feature",
            "geometry": {
                "type": "Point",
                "coordinates": [
                    17.39122,
                    51.20863
                ]
            },
            "properties": {
                "ref:rspo": 267972,
                "official_name": "Przedszkole Publiczne \"Zielone Ogrody\"",
                "name": "Przedszkole Publiczne \"Zielone Ogrody\"",
                "addr:country": "PL",
                "addr:postcode": "56-400",
                "addr:city": "Ole\u015bnica",
                "addr:street": "Armii Krajowej",
                "addr:housenumber": "2",
                "addr:teryt:simc": 987213,
                "addr:teryt:sym_ul": 432,
                "contact:phone": "+48 505092895",
                "contact:email": "dyrektor@katolicka.edu.pl",
                "ref:regon": "380832973",
                "operator": "Marian Jankiewicz",
                "operator:type": "private",
                "amenity": "kindergarten"
            }
        },
        {
            "id": 196217,
            "type": "Feature",
            "geometry": {
                "type": "Point",
                "coordinates": [
                    17.3907,
                    51.20928
                ]
            },
            "properties": {
                "isced:level": "1;2",
                "ref:rspo": 196217,
                "official_name": "Szko\u0142a Podstawowa Nr 1 im. Ksi\u0105\u017c\u0105t Ole\u015bnickich w Ole\u015bnicy",
                "name": "Szko\u0142a Podstawowa Nr 1",
                "addr:country": "PL",
                "addr:postcode": "56-400",
                "addr:city": "Ole\u015bnica",
                "addr:street": "Armii Krajowej",
                "addr:housenumber": "47",
                "addr:teryt:simc": 987213,
                "addr:teryt:sym_ul": 432,
                "contact:phone": "+48 713142938",
                "contact:email": "sekretariat@sp1.zosolesnica.pl",
                "contact:website": "http:\/\/sp1.zosolesnica.pl",
                "ref:regon": "367988725",
                "operator": "Gmina Miasto Ole\u015bnica",
                "operator:type": "government",
                "amenity": "school"
            }
        },
        {
            "id": 127003,
            "type": "Feature",
            "geometry": {
                "type": "Point",
                "coordinates": [
                    17.38266,
                    51.20968
                ]
            },
            "properties": {
                "ref:rspo": 127003,
                "official_name": "Centrum Kszta\u0142cenia Ustawicznego Kto",
                "name": "Centrum Kszta\u0142cenia Ustawicznego Kto",
                "addr:country": "PL",
                "addr:postcode": "56-400",
                "addr:city": "Ole\u015bnica",
                "addr:street": "Okr\u0119\u017cna",
                "addr:housenumber": "21",
                "addr:door": "2",
                "addr:teryt:simc": 987213,
                "addr:teryt:sym_ul": 14907,
                "contact:phone": "+48 606752976",
                "contact:email": "jasiega@wp.pl",
                "contact:website": "http:\/\/www.kto.com.pl",
                "ref:regon": "361033296",
                "operator": "Jaros\u0142aw Jasi\u0119ga",
                "operator:type": "private",
                "fixme": "w zale\u017cno\u015bci od przedmiotu dzia\u0142alno\u015bci (np. amenity=training + training=*, amenity=dancing_school, amenity=language_school, amenity=music_school)"
            }
        },
        {
            "id": 270174,
            "type": "Feature",
            "geometry": {
                "type": "Point",
                "coordinates": [
                    17.38173,
                    51.21058
                ]
            },
            "properties": {
                "ref:rspo": 270174,
                "official_name": "Le\u015bny Skrzat - Niepubliczne Integracyjne Przedszkole +",
                "name": "Le\u015bny Skrzat - Niepubliczne Integracyjne Przedszkole +",
                "addr:country": "PL",
                "addr:postcode": "56-400",
                "addr:city": "Ole\u015bnica",
                "addr:street": "Szkolna",
                "addr:housenumber": "5b",
                "addr:teryt:simc": 987213,
                "addr:teryt:sym_ul": 21970,
                "contact:email": "biuro@lesny-skrzat.pl",
                "contact:website": "http:\/\/www.lesny-skrzat.pl",
                "ref:regon": "382145768",
                "operator": "Le\u015bny Skrzat Sp\u00f3\u0142ka Z Ograniczon\u0105 Odpowiedzialno\u015bci\u0105",
                "operator:type": "private",
                "amenity": "kindergarten"
            }
        },
        {
            "id": 75386,
            "type": "Feature",
            "geometry": {
                "type": "Point",
                "coordinates": [
                    17.39011,
                    51.21081
                ]
            },
            "properties": {
                "isced:level": "3",
                "ref:rspo": 75386,
                "official_name": "Liceum Og\u00f3lnokszta\u0142c\u0105ce dla Doros\u0142ych w Ole\u015bnicy",
                "name": "Liceum Og\u00f3lnokszta\u0142c\u0105ce dla Doros\u0142ych w Ole\u015bnicy",
                "addr:country": "PL",
                "addr:postcode": "56-400",
                "addr:city": "Ole\u015bnica",
                "addr:street": "Jana Kochanowskiego",
                "addr:housenumber": "8",
                "addr:teryt:simc": 987213,
                "addr:teryt:sym_ul": 8728,
                "contact:phone": "+48 713147551",
                "contact:email": "agiedyk@wp.pl",
                "contact:website": "http:\/\/www.atena-olesnica.pl",
                "ref:regon": "022007031",
                "operator": "Marcin Giedyk",
                "operator:type": "private",
                "amenity": "school"
            }
        },
        {
            "id": 196261,
            "type": "Feature",
            "geometry": {
                "type": "Point",
                "coordinates": [
                    17.39011,
                    51.21078
                ]
            },
            "properties": {
                "isced:level": "1;2",
                "ref:rspo": 196261,
                "official_name": "Szko\u0142a Podstawowa Nr 3 im. Podr\u00f3\u017cnik\u00f3w I Odkrywc\u00f3w Polskich w Ole\u015bnicy",
                "name": "Szko\u0142a Podstawowa Nr 3",
                "addr:country": "PL",
                "addr:postcode": "56-400",
                "addr:city": "Ole\u015bnica",
                "addr:street": "Jana Kochanowskiego",
                "addr:housenumber": "8",
                "addr:teryt:simc": 987213,
                "addr:teryt:sym_ul": 8728,
                "contact:phone": "+48 713147551",
                "contact:email": "sekretariat@sp3.zosolesnica.pl",
                "ref:regon": "367988719",
                "operator": "Gmina Miasto Ole\u015bnica",
                "operator:type": "government",
                "amenity": "school"
            }
        },
        {
            "id": 18765,
            "type": "Feature",
            "geometry": {
                "type": "Point",
                "coordinates": [
                    17.39527,
                    51.2111
                ]
            },
            "properties": {
                "isced:level": "1;2",
                "ref:rspo": 18765,
                "official_name": "Szko\u0142a Podstawowa Gminy Ole\u015bnica w Ole\u015bnicy",
                "name": "Szko\u0142a Podstawowa Gminy Ole\u015bnica w Ole\u015bnicy",
                "addr:country": "PL",
                "addr:postcode": "56-400",
                "addr:city": "Ole\u015bnica",
                "addr:street": "Wile\u0144ska",
                "addr:housenumber": "32A",
                "addr:teryt:simc": 987213,
                "addr:teryt:sym_ul": 24289,
                "contact:phone": "+48 713140236",
                "contact:email": "spolesnica@olesnica.wroc.pl",
                "contact:website": "http:\/\/www.spgminyolesnica.pl",
                "ref:regon": "001181914",
                "operator": "Gmina Ole\u015bnica",
                "operator:type": "government",
                "amenity": "school"
            }
        },
        {
            "id": 104044,
            "type": "Feature",
            "geometry": {
                "type": "Point",
                "coordinates": [
                    17.39527,
                    51.21107
                ]
            },
            "properties": {
                "ref:rspo": 104044,
                "official_name": "Niepubliczne Przedszkole Zielona \u017babka",
                "name": "Niepubliczne Przedszkole Zielona \u017babka",
                "addr:country": "PL",
                "addr:postcode": "56-400",
                "addr:city": "Ole\u015bnica",
                "addr:street": "Wile\u0144ska",
                "addr:housenumber": "15",
                "addr:teryt:simc": 987213,
                "addr:teryt:sym_ul": 24289,
                "contact:phone": "+48 667277725",
                "contact:email": "przedszkole@zielonazabka.pl",
                "ref:regon": "022032721",
                "ref:vatin": "PL9151769447",
                "operator": "Maria Konieczna",
                "operator:type": "private",
                "amenity": "kindergarten"
            }
        },
        {
            "id": 85564,
            "type": "Feature",
            "geometry": {
                "type": "Point",
                "coordinates": [
                    17.38922,
                    51.21117
                ]
            },
            "properties": {
                "ref:rspo": 85564,
                "official_name": "Przedszkole Nr 3 w Ole\u015bnicy",
                "name": "Przedszkole Nr 3 w Ole\u015bnicy",
                "addr:country": "PL",
                "addr:postcode": "56-400",
                "addr:city": "Ole\u015bnica",
                "addr:street": "Jana Kochanowskiego",
                "addr:housenumber": "7",
                "addr:teryt:simc": 987213,
                "addr:teryt:sym_ul": 8728,
                "contact:phone": "+48 713147292",
                "contact:email": "sekretariat@p3.zosolesnica.pl",
                "ref:regon": "930113709",
                "ref:vatin": "PL9111744412",
                "operator": "Gmina Miasto Ole\u015bnica",
                "operator:type": "government",
                "amenity": "kindergarten"
            }
        },
        {
            "id": 35046,
            "type": "Feature",
            "geometry": {
                "type": "Point",
                "coordinates": [
                    17.38118,
                    51.2113
                ]
            },
            "properties": {
                "ref:rspo": 35046,
                "official_name": "Pa\u0144stwowa Szko\u0142a Muzyczna I St. im. Fryderyka Chopina w Ole\u015bnicy",
                "name": "Pa\u0144stwowa Szko\u0142a Muzyczna I St.",
                "addr:country": "PL",
                "addr:postcode": "56-400",
                "addr:city": "Ole\u015bnica",
                "addr:street": "Jana Matejki",
                "addr:housenumber": "19",
                "addr:teryt:simc": 987213,
                "addr:teryt:sym_ul": 12489,
                "contact:phone": "+48 713142123",
                "contact:email": "sekretariat@psmolesnica.pl",
                "contact:website": "http:\/\/www.psmolesnica.pl",
                "ref:regon": "000645375",
                "operator": "Ministerstwo Kultury I Dziedzictwa Narodowego",
                "operator:type": "public",
                "amenity": "music_school"
            }
        },
        {
            "id": 62398,
            "type": "Feature",
            "geometry": {
                "type": "Point",
                "coordinates": [
                    17.38836,
                    51.21164
                ]
            },
            "properties": {
                "ref:rspo": 62398,
                "official_name": "\"Vademecum\" Doradztwo, Szkolenia, Po\u015brednictwo w Ole\u015bnicy",
                "name": "\"Vademecum\" Doradztwo, Szkolenia, Po\u015brednictwo w Ole\u015bnicy",
                "addr:country": "PL",
                "addr:postcode": "56-400",
                "addr:city": "Ole\u015bnica",
                "addr:street": "Jana Kochanowskiego",
                "addr:housenumber": "5",
                "addr:teryt:simc": 987213,
                "addr:teryt:sym_ul": 8728,
                "contact:phone": "+48 605314407",
                "contact:email": "stanislaw.chudyk@vademecumsc.eu",
                "contact:website": "http:\/\/www.vademecumsc.eu",
                "ref:regon": "022001761",
                "operator": "Stanis\u0142aw Chudyk",
                "operator:type": "private",
                "fixme": "w zale\u017cno\u015bci od przedmiotu dzia\u0142alno\u015bci (np. amenity=training + training=*, amenity=dancing_school, amenity=language_school, amenity=music_school)"
            }
        },
        {
            "id": 62387,
            "type": "Feature",
            "geometry": {
                "type": "Point",
                "coordinates": [
                    17.39621,
                    51.21216
                ]
            },
            "properties": {
                "isced:level": "4",
                "ref:rspo": 62387,
                "official_name": "Policealne Studium Zawodowe \"Alfa\" w Ole\u015bnicy",
                "name": "Policealne Studium Zawodowe \"Alfa\" w Ole\u015bnicy",
                "addr:country": "PL",
                "addr:postcode": "56-400",
                "addr:city": "Ole\u015bnica",
                "addr:street": "Genera\u0142a Franciszka Kleeberga",
                "addr:housenumber": "4",
                "addr:teryt:simc": 987213,
                "addr:teryt:sym_ul": 8499,
                "contact:phone": "+48 713994044",
                "contact:email": "sekretariat@alfa.olesnica.pl",
                "contact:website": "http:\/\/www.alfa.olesnica.pl",
                "ref:regon": "022005279",
                "operator": "Zofia Steblecka",
                "operator:type": "private",
                "amenity": "college"
            }
        },
        {
            "id": 275252,
            "type": "Feature",
            "geometry": {
                "type": "Point",
                "coordinates": [
                    17.39621,
                    51.212129999999995
                ]
            },
            "properties": {
                "ref:rspo": 275252,
                "official_name": "Zesp\u00f3\u0142 Szkolno-Przedszkolny Nr 1",
                "name": "Zesp\u00f3\u0142 Szkolno-Przedszkolny Nr 1",
                "addr:country": "PL",
                "addr:postcode": "56-400",
                "addr:city": "Ole\u015bnica",
                "addr:street": "Genera\u0142a Franciszka Kleeberga",
                "addr:housenumber": "4",
                "addr:teryt:simc": 987213,
                "addr:teryt:sym_ul": 8499,
                "contact:phone": "+48 713147571",
                "contact:email": "sekretariat@sp6.zosolesnica.pl",
                "ref:regon": "386734384",
                "operator": "Gmina Miasto Ole\u015bnica",
                "operator:type": "government",
                "landuse": "education",
                "fixme": "amenity=school, amenity=college albo landuse=education w zale\u017cno\u015bci od tego, jakie plac\u00f3wki wchodz\u0105 w sk\u0142ad zespo\u0142u. Sprawd\u017a, kiedy stosowa\u0107 amenity=* a kiedy landuse=education.",
                "note": "Children RSPO: 85569;275253"
            }
        },
        {
            "id": 85569,
            "type": "Feature",
            "geometry": {
                "type": "Point",
                "coordinates": [
                    17.39621,
                    51.2121
                ]
            },
            "properties": {
                "isced:level": "1;2",
                "ref:rspo": 85569,
                "official_name": "Szko\u0142a Podstawowa Z Oddzia\u0142ami Integracyjnymi Nr 6 im. Janusza Korczaka w Ole\u015bnicy",
                "name": "Szko\u0142a Podstawowa Z Oddzia\u0142ami Integracyjnymi Nr 6",
                "addr:country": "PL",
                "addr:postcode": "56-400",
                "addr:city": "Ole\u015bnica",
                "addr:street": "Genera\u0142a Franciszka Kleeberga",
                "addr:housenumber": "4",
                "addr:teryt:simc": 987213,
                "addr:teryt:sym_ul": 8499,
                "contact:phone": "+48 713147571",
                "contact:email": "sekretariat@sp6.zosolesnica.pl",
                "ref:regon": "001231262",
                "ref:vatin": "PL9111731094",
                "operator": "Gmina Miasto Ole\u015bnica",
                "operator:type": "government",
                "amenity": "school",
                "note": "Parent RSPO: 275252"
            }
        },
        {
            "id": 275253,
            "type": "Feature",
            "geometry": {
                "type": "Point",
                "coordinates": [
                    17.39621,
                    51.21207
                ]
            },
            "properties": {
                "ref:rspo": 275253,
                "official_name": "Przedszkole Nr 2",
                "name": "Przedszkole Nr 2",
                "addr:country": "PL",
                "addr:postcode": "56-400",
                "addr:city": "Ole\u015bnica",
                "addr:street": "Genera\u0142a Franciszka Kleeberga",
                "addr:housenumber": "4",
                "addr:teryt:simc": 987213,
                "addr:teryt:sym_ul": 8499,
                "contact:phone": "+48 713147571",
                "ref:regon": "386734378",
                "operator": "Gmina Miasto Ole\u015bnica",
                "operator:type": "government",
                "amenity": "kindergarten",
                "note": "Parent RSPO: 275252"
            }
        },
        {
            "id": 131337,
            "type": "Feature",
            "geometry": {
                "type": "Point",
                "coordinates": [
                    17.38589,
                    51.21261
                ]
            },
            "properties": {
                "ref:rspo": 131337,
                "official_name": "Zesp\u00f3\u0142 Plac\u00f3wek Specjalnych w Ole\u015bnicy",
                "name": "Zesp\u00f3\u0142 Plac\u00f3wek Specjalnych w Ole\u015bnicy",
                "addr:country": "PL",
                "addr:postcode": "56-400",
                "addr:city": "Ole\u015bnica",
                "addr:street": "Wojska Polskiego",
                "addr:housenumber": "8",
                "addr:teryt:simc": 987213,
                "addr:teryt:sym_ul": 24628,
                "contact:phone": "+48 713142520",
                "contact:email": "sosw_olesnica@poczta.onet.pl",
                "contact:website": "http:\/\/www.zpsolesnica.szkolnastrona.pl",
                "ref:regon": "365134344",
                "operator": "Powiat Ole\u015bnicki",
                "operator:type": "government",
                "landuse": "education",
                "fixme": "amenity=school, amenity=college albo landuse=education w zale\u017cno\u015bci od tego, jakie plac\u00f3wki wchodz\u0105 w sk\u0142ad zespo\u0142u. Sprawd\u017a, kiedy stosowa\u0107 amenity=* a kiedy landuse=education.",
                "note": "Children RSPO: 7459;131377"
            }
        },
        {
            "id": 111284,
            "type": "Feature",
            "geometry": {
                "type": "Point",
                "coordinates": [
                    17.38589,
                    51.212579999999996
                ]
            },
            "properties": {
                "ref:rspo": 111284,
                "official_name": "Przedszkole Specjalne Nr 5 w Ole\u015bnicy dla Dzieci Z Upo\u015bledzeniem Umys\u0142owym w Stopniu Umiarkowanym I Znacznym, Z Niepe\u0142nosprawno\u015bciami Sprz\u0119\u017conymi I Z Autyzmem w Specjalnym O\u015brodku Szkolno-Wychowawczym im. Sybirak\u00f3w w Ole\u015bnicy",
                "name": "Przedszkole Specjalne Nr 5 w Ole\u015bnicy dla Dzieci Z Upo\u015bledzeniem Umys\u0142owym w Stopniu Umiarkowanym I Znacznym, Z Niepe\u0142nosprawno\u015bciami Sprz\u0119\u017conymi I Z Autyzmem w Specjalnym O\u015brodku Szkolno-Wychowawczym",
                "addr:country": "PL",
                "addr:postcode": "56-400",
                "addr:city": "Ole\u015bnica",
                "addr:street": "Wojska Polskiego",
                "addr:housenumber": "8",
                "addr:teryt:simc": 987213,
                "addr:teryt:sym_ul": 24628,
                "contact:phone": "+48 713142520",
                "contact:email": "sosw_olesnica@poczta.onet.pl",
                "contact:website": "http:\/\/www.zpsolesnica.szkolnastrona.pl",
                "ref:regon": "022092309",
                "operator": "Powiat Ole\u015bnicki",
                "operator:type": "government",
                "amenity": "kindergarten",
                "note": "Parent RSPO: 7459"
            }
        },
        {
            "id": 111285,
            "type": "Feature",
            "geometry": {
                "type": "Point",
                "coordinates": [
                    17.38589,
                    51.21255
                ]
            },
            "properties": {
                "ref:rspo": 111285,
                "official_name": "Szko\u0142a Specjalna Przysposabiaj\u0105ca Do Pracy w Ole\u015bnicy w Specjalnym O\u015brodku Szkolno-Wychowawczym im. Sybirak\u00f3w w Ole\u015bnicy",
                "name": "Szko\u0142a Specjalna Przysposabiaj\u0105ca Do Pracy w Ole\u015bnicy w Specjalnym O\u015brodku Szkolno-Wychowawczym",
                "addr:country": "PL",
                "addr:postcode": "56-400",
                "addr:city": "Ole\u015bnica",
                "addr:street": "Wojska Polskiego",
                "addr:housenumber": "8",
                "addr:teryt:simc": 987213,
                "addr:teryt:sym_ul": 24628,
                "contact:phone": "+48 713142520",
                "contact:email": "sosw_olesnica@poczta.onet.pl",
                "contact:website": "http:\/\/www.zpsolesnica.szkolnastrona.pl",
                "ref:regon": "020129853",
                "operator": "Powiat Ole\u015bnicki",
                "operator:type": "government",
                "amenity": "school",
                "note": "Parent RSPO: 7459"
            }
        },
        {
            "id": 111286,
            "type": "Feature",
            "geometry": {
                "type": "Point",
                "coordinates": [
                    17.38589,
                    51.21252
                ]
            },
            "properties": {
                "isced:level": "3",
                "ref:rspo": 111286,
                "official_name": "Bran\u017cowa Szko\u0142a Specjalna I Stopnia Nr 2 w Ole\u015bnicy w Specjalnym O\u015brodku Szkolno-Wychowawczym im. Sybirak\u00f3w w Ole\u015bnicy",
                "name": "Bran\u017cowa Szko\u0142a Specjalna I Stopnia Nr 2 w Ole\u015bnicy w Specjalnym O\u015brodku Szkolno-Wychowawczym",
                "addr:country": "PL",
                "addr:postcode": "56-400",
                "addr:city": "Ole\u015bnica",
                "addr:street": "Wojska Polskiego",
                "addr:housenumber": "8",
                "addr:teryt:simc": 987213,
                "addr:teryt:sym_ul": 24628,
                "contact:phone": "+48 713142520",
                "contact:email": "sosw_olesnica@poczta.onet.pl",
                "contact:website": "http:\/\/www.zpsolesnica.szkolnastrona.pl",
                "ref:regon": "000864835",
                "operator": "Powiat Ole\u015bnicki",
                "operator:type": "government",
                "amenity": "school",
                "note": "Parent RSPO: 7459"
            }
        },
        {
            "id": 111287,
            "type": "Feature",
            "geometry": {
                "type": "Point",
                "coordinates": [
                    17.38589,
                    51.212489999999995
                ]
            },
            "properties": {
                "isced:level": "1;2",
                "ref:rspo": 111287,
                "official_name": "Szko\u0142a Podstawowa Specjalna Nr 5 w Ole\u015bnicy w Specjalnym O\u015brodku Szkolno-Wychowawczym im. Sybirak\u00f3w w Ole\u015bnicy",
                "name": "Szko\u0142a Podstawowa Specjalna Nr 5 w Ole\u015bnicy w Specjalnym O\u015brodku Szkolno-Wychowawczym",
                "addr:country": "PL",
                "addr:postcode": "56-400",
                "addr:city": "Ole\u015bnica",
                "addr:street": "Wojska Polskiego",
                "addr:housenumber": "8",
                "addr:teryt:simc": 987213,
                "addr:teryt:sym_ul": 24628,
                "contact:phone": "+48 713142520",
                "contact:email": "sosw_olesnica@poczta.onet.pl",
                "contact:website": "http:\/\/www.zpsolesnica.szkolnastrona.pl",
                "ref:regon": "000814518",
                "operator": "Powiat Ole\u015bnicki",
                "operator:type": "government",
                "amenity": "school",
                "note": "Parent RSPO: 7459"
            }
        },
        {
            "id": 7459,
            "type": "Feature",
            "geometry": {
                "type": "Point",
                "coordinates": [
                    17.38589,
                    51.21246
                ]
            },
            "properties": {
                "ref:rspo": 7459,
                "official_name": "Specjalny O\u015brodek Szkolno-Wychowawczy im. Sybirak\u00f3w w Ole\u015bnicy",
                "name": "Specjalny O\u015brodek Szkolno-Wychowawczy",
                "addr:country": "PL",
                "addr:postcode": "56-400",
                "addr:city": "Ole\u015bnica",
                "addr:street": "Wojska Polskiego",
                "addr:housenumber": "8",
                "addr:teryt:simc": 987213,
                "addr:teryt:sym_ul": 24628,
                "contact:phone": "+48 713142520",
                "contact:email": "sosw_olesnica@poczta.onet.pl",
                "contact:website": "http:\/\/www.zpsolesnica.szkolnastrona.pl",
                "ref:regon": "930224892",
                "ref:vatin": "PL9111442970",
                "operator": "Powiat Ole\u015bnicki",
                "operator:type": "government",
                "amenity": "school",
                "note": "Children RSPO: 111284;111285;111286;111287Parent RSPO: 131337"
            }
        },
        {
            "id": 131377,
            "type": "Feature",
            "geometry": {
                "type": "Point",
                "coordinates": [
                    17.38589,
                    51.21243
                ]
            },
            "properties": {
                "ref:rspo": 131377,
                "official_name": "O\u015brodek Rewalidacyjno-Wychowawczy w Ole\u015bnicy",
                "name": "O\u015brodek Rewalidacyjno-Wychowawczy w Ole\u015bnicy",
                "addr:country": "PL",
                "addr:postcode": "56-400",
                "addr:city": "Ole\u015bnica",
                "addr:street": "Wojska Polskiego",
                "addr:housenumber": "8",
                "addr:teryt:simc": 987213,
                "addr:teryt:sym_ul": 24628,
                "contact:phone": "+48 713142520",
                "contact:email": "sosw_olesnica@poczta.onet.pl",
                "contact:website": "http:\/\/www.zpsolesnica.szkolnastrona.pl",
                "ref:regon": "365164701",
                "operator": "Powiat Ole\u015bnicki",
                "operator:type": "government",
                "amenity": "school",
                "note": "Parent RSPO: 131337"
            }
        },
        {
            "id": 104045,
            "type": "Feature",
            "geometry": {
                "type": "Point",
                "coordinates": [
                    17.40286,
                    51.21285
                ]
            },
            "properties": {
                "ref:rspo": 104045,
                "official_name": "Niepubliczne Przedszkole \u201eU Kubusia Puchatka\u201d",
                "name": "Niepubliczne Przedszkole \u201eU Kubusia Puchatka\u201d",
                "addr:country": "PL",
                "addr:postcode": "56-400",
                "addr:city": "Ole\u015bnica",
                "addr:street": "Miko\u0142aja Kopernika",
                "addr:housenumber": "6",
                "addr:teryt:simc": 987213,
                "addr:teryt:sym_ul": 9282,
                "contact:phone": "+48 717570883",
                "contact:email": "biuro@przedszkole.olesnica.pl",
                "ref:regon": "022030952",
                "ref:vatin": "PL8831417385",
                "operator": "Euro Trend Sylwia Sendek",
                "operator:type": "consortium",
                "amenity": "kindergarten"
            }
        },
        {
            "id": 85599,
            "type": "Feature",
            "geometry": {
                "type": "Point",
                "coordinates": [
                    17.38773,
                    51.2129
                ]
            },
            "properties": {
                "ref:rspo": 85599,
                "official_name": "Integracyjny Punkt Przedszkolny w Pa\u0142acyku",
                "name": "Integracyjny Punkt Przedszkolny w Pa\u0142acyku",
                "addr:country": "PL",
                "addr:postcode": "56-400",
                "addr:city": "Ole\u015bnica",
                "addr:street": "Wojska Polskiego",
                "addr:housenumber": "12",
                "addr:teryt:simc": 987213,
                "addr:teryt:sym_ul": 24628,
                "contact:phone": "+48 501189958",
                "contact:email": "biuro@wspolnyswiat.com.pl",
                "ref:regon": "022016797",
                "ref:vatin": "PL8970032594",
                "operator": "Marek Dr\u00f3\u017ad\u017a",
                "operator:type": "private",
                "amenity": "kindergarten"
            }
        },
        {
            "id": 7628,
            "type": "Feature",
            "geometry": {
                "type": "Point",
                "coordinates": [
                    17.3859,
                    51.21324
                ]
            },
            "properties": {
                "ref:rspo": 7628,
                "official_name": "Zesp\u00f3\u0142 Szk\u00f3\u0142 Zawodowych im. Marii Sk\u0142odowskiej-Curie w Ole\u015bnicy",
                "name": "Zesp\u00f3\u0142 Szk\u00f3\u0142 Zawodowych",
                "addr:country": "PL",
                "addr:postcode": "56-400",
                "addr:city": "Ole\u015bnica",
                "addr:street": "Wojska Polskiego",
                "addr:housenumber": "67\/69",
                "addr:teryt:simc": 987213,
                "addr:teryt:sym_ul": 24628,
                "contact:phone": "+48 713143041",
                "contact:email": "sekretariat@zsz.olesnica.pl",
                "contact:website": "http:\/\/www.zsz.olesnica.pl",
                "ref:regon": "000189575",
                "ref:vatin": "PL9111400753",
                "operator": "Powiat Ole\u015bnicki",
                "operator:type": "government",
                "landuse": "education",
                "fixme": "amenity=school, amenity=college albo landuse=education w zale\u017cno\u015bci od tego, jakie plac\u00f3wki wchodz\u0105 w sk\u0142ad zespo\u0142u. Sprawd\u017a, kiedy stosowa\u0107 amenity=* a kiedy landuse=education.",
                "note": "Children RSPO: 84531;84532;87104"
            }
        },
        {
            "id": 123715,
            "type": "Feature",
            "geometry": {
                "type": "Point",
                "coordinates": [
                    17.3859,
                    51.21321
                ]
            },
            "properties": {
                "ref:rspo": 123715,
                "official_name": "Zesp\u00f3\u0142 Poradni Psychologiczno-Pedagogicznych w Ole\u015bnicy",
                "name": "Zesp\u00f3\u0142 Poradni Psychologiczno-Pedagogicznych w Ole\u015bnicy",
                "addr:country": "PL",
                "addr:postcode": "56-400",
                "addr:city": "Ole\u015bnica",
                "addr:street": "Wojska Polskiego",
                "addr:housenumber": "67-69",
                "addr:teryt:simc": 987213,
                "addr:teryt:sym_ul": 24628,
                "contact:phone": "+48 713143278",
                "contact:email": "ppp.olesnica@wp.pl",
                "contact:website": "http:\/\/www.zppp-olesnica.pl",
                "ref:regon": "022471107",
                "operator": "Powiat Ole\u015bnicki",
                "operator:type": "government",
                "landuse": "education",
                "fixme": "amenity=school, amenity=college albo landuse=education w zale\u017cno\u015bci od tego, jakie plac\u00f3wki wchodz\u0105 w sk\u0142ad zespo\u0142u. Sprawd\u017a, kiedy stosowa\u0107 amenity=* a kiedy landuse=education.",
                "note": "Children RSPO: 9627;12862"
            }
        },
        {
            "id": 84531,
            "type": "Feature",
            "geometry": {
                "type": "Point",
                "coordinates": [
                    17.3859,
                    51.21318
                ]
            },
            "properties": {
                "isced:level": "3",
                "ref:rspo": 84531,
                "official_name": "Bran\u017cowa Szko\u0142a I Stopnia Nr 1 w Ole\u015bnicy w Zespole Szk\u00f3\u0142 Zawodowych im. Marii Sk\u0142odowskiej-Curie w Ole\u015bnicy",
                "name": "Bran\u017cowa Szko\u0142a I Stopnia Nr 1 w Ole\u015bnicy w Zespole Szk\u00f3\u0142 Zawodowych",
                "addr:country": "PL",
                "addr:postcode": "56-400",
                "addr:city": "Ole\u015bnica",
                "addr:street": "Wojska Polskiego",
                "addr:housenumber": "67\/69",
                "addr:teryt:simc": 987213,
                "addr:teryt:sym_ul": 24628,
                "contact:phone": "+48 713143041",
                "contact:email": "sekretariat@zsz.olesnica.pl",
                "contact:website": "http:\/\/www.zsz.olesnica.pl",
                "ref:regon": "932823622",
                "operator": "Powiat Ole\u015bnicki",
                "operator:type": "government",
                "amenity": "school",
                "note": "Parent RSPO: 7628"
            }
        },
        {
            "id": 84532,
            "type": "Feature",
            "geometry": {
                "type": "Point",
                "coordinates": [
                    17.3859,
                    51.21315
                ]
            },
            "properties": {
                "isced:level": "3",
                "ref:rspo": 84532,
                "official_name": "Technikum w Ole\u015bnicy w Zespole Szk\u00f3\u0142 Zawodowych im. Marii Sk\u0142odowskiej-Curie w Ole\u015bnicy",
                "name": "Technikum w Ole\u015bnicy w Zespole Szk\u00f3\u0142 Zawodowych",
                "addr:country": "PL",
                "addr:postcode": "56-400",
                "addr:city": "Ole\u015bnica",
                "addr:street": "Wojska Polskiego",
                "addr:housenumber": "67\/69",
                "addr:teryt:simc": 987213,
                "addr:teryt:sym_ul": 24628,
                "contact:phone": "+48 713143041",
                "contact:email": "sekretariat@zsz.olesnica.pl",
                "contact:website": "http:\/\/www.zsz.olesnica.pl",
                "ref:regon": "932823556",
                "operator": "Powiat Ole\u015bnicki",
                "operator:type": "government",
                "amenity": "school",
                "note": "Parent RSPO: 7628"
            }
        },
        {
            "id": 87104,
            "type": "Feature",
            "geometry": {
                "type": "Point",
                "coordinates": [
                    17.3859,
                    51.213119999999996
                ]
            },
            "properties": {
                "isced:level": "3",
                "ref:rspo": 87104,
                "official_name": "Liceum Og\u00f3lnokszta\u0142c\u0105ce dla Doros\u0142ych w Ole\u015bnicy w Zespole Szk\u00f3\u0142 Zawodowych im. Marii Sk\u0142odowskiej-Curie w Ole\u015bnicy",
                "name": "Liceum Og\u00f3lnokszta\u0142c\u0105ce dla Doros\u0142ych w Ole\u015bnicy w Zespole Szk\u00f3\u0142 Zawodowych",
                "addr:country": "PL",
                "addr:postcode": "56-400",
                "addr:city": "Ole\u015bnica",
                "addr:street": "Wojska Polskiego",
                "addr:housenumber": "67\/69",
                "addr:teryt:simc": 987213,
                "addr:teryt:sym_ul": 24628,
                "contact:phone": "+48 713143041",
                "contact:email": "sekretariat@zsz.olesnica.pl",
                "contact:website": "http:\/\/www.zsz.olesnica.pl",
                "ref:regon": "021404617",
                "operator": "Powiat Ole\u015bnicki",
                "operator:type": "government",
                "amenity": "school",
                "note": "Parent RSPO: 7628"
            }
        },
        {
            "id": 12862,
            "type": "Feature",
            "geometry": {
                "type": "Point",
                "coordinates": [
                    17.3859,
                    51.21309
                ]
            },
            "properties": {
                "ref:rspo": 12862,
                "official_name": "Poradnia Psychologiczno-Pedagogiczna w Ole\u015bnicy",
                "name": "Poradnia Psychologiczno-Pedagogiczna w Ole\u015bnicy",
                "addr:country": "PL",
                "addr:postcode": "56-400",
                "addr:city": "Ole\u015bnica",
                "addr:street": "Wojska Polskiego",
                "addr:housenumber": "67\/69",
                "addr:teryt:simc": 987213,
                "addr:teryt:sym_ul": 24628,
                "contact:phone": "+48 713143278",
                "contact:email": "ppp.olesnica@wp.pl",
                "contact:website": "http:\/\/www.ppp-olesnica.org",
                "ref:regon": "932821729",
                "ref:vatin": "PL9111814756",
                "operator": "Powiat Ole\u015bnicki",
                "operator:type": "government",
                "healthcare": "counselling",
                "counselling_type": "education",
                "fixme": "w zale\u017cno\u015bci od przedmiotu dzia\u0142alno\u015bci (np. healthcare=counselling + counselling_type=education albo healthcare=psychotherapist)",
                "note": "Parent RSPO: 123715"
            }
        },
        {
            "id": 41400,
            "type": "Feature",
            "geometry": {
                "type": "Point",
                "coordinates": [
                    17.38521,
                    51.21327
                ]
            },
            "properties": {
                "ref:rspo": 41400,
                "official_name": "Powiatowe Centrum Kszta\u0142cenia Zawodowego w Ole\u015bnicy",
                "name": "Powiatowe Centrum Kszta\u0142cenia Zawodowego w Ole\u015bnicy",
                "addr:country": "PL",
                "addr:postcode": "56-400",
                "addr:city": "Ole\u015bnica",
                "addr:street": "Wojska Polskiego",
                "addr:housenumber": "67",
                "addr:teryt:simc": 987213,
                "addr:teryt:sym_ul": 24628,
                "contact:phone": "+48 713143285",
                "contact:email": "sekretariat@pckzolesnica.pl",
                "contact:website": "http:\/\/www.pckzolesnica.pl",
                "ref:regon": "021313091",
                "operator": "Powiat Ole\u015bnicki",
                "operator:type": "government",
                "fixme": "w zale\u017cno\u015bci od przedmiotu dzia\u0142alno\u015bci (np. amenity=training + training=*, amenity=dancing_school, amenity=language_school, amenity=music_school) albo amenity=school, amenity=college, albo landuse=education w zale\u017cno\u015bci od tego, jakie plac\u00f3wki wchodz\u0105 w sk\u0142ad zespo\u0142u. Sprawd\u017a, kiedy stosowa\u0107 amenity=* a kiedy landuse=education."
            }
        },
        {
            "id": 9125,
            "type": "Feature",
            "geometry": {
                "type": "Point",
                "coordinates": [
                    17.39627,
                    51.21493
                ]
            },
            "properties": {
                "isced:level": "3",
                "ref:rspo": 9125,
                "official_name": "Ii Liceum Og\u00f3lnokszta\u0142c\u0105ce im. Ks. Jana Twardowskiego w Ole\u015bnicy",
                "name": "Ii Liceum Og\u00f3lnokszta\u0142c\u0105ce",
                "addr:country": "PL",
                "addr:postcode": "56-400",
                "addr:city": "Ole\u015bnica",
                "addr:street": "Wojska Polskiego",
                "addr:housenumber": "56",
                "addr:teryt:simc": 987213,
                "addr:teryt:sym_ul": 24628,
                "contact:phone": "+48 713142222",
                "contact:email": "iiloolesnica@pro.onet.pl",
                "contact:website": "http:\/\/www.lo2.olesnica.pl",
                "ref:regon": "930229599",
                "ref:vatin": "PL9111396603",
                "operator": "Powiat Ole\u015bnicki",
                "operator:type": "government",
                "amenity": "school"
            }
        },
        {
            "id": 10355,
            "type": "Feature",
            "geometry": {
                "type": "Point",
                "coordinates": [
                    17.39627,
                    51.2149
                ]
            },
            "properties": {
                "ref:rspo": 10355,
                "official_name": "Powiatowe Centrum Edukacji I Kultury w Ole\u015bnicy",
                "name": "Powiatowe Centrum Edukacji I Kultury w Ole\u015bnicy",
                "addr:country": "PL",
                "addr:postcode": "56-400",
                "addr:city": "Ole\u015bnica",
                "addr:street": "Wojska Polskiego",
                "addr:housenumber": "56",
                "addr:teryt:simc": 987213,
                "addr:teryt:sym_ul": 24628,
                "contact:phone": "+48 713140172",
                "contact:email": "sekretariat@pceik.nazwa.pl",
                "contact:website": "http:\/\/pceik.pl",
                "ref:regon": "932183217",
                "ref:vatin": "PL9111751180",
                "operator": "Powiat Ole\u015bnicki",
                "operator:type": "government",
                "landuse": "education",
                "fixme": "amenity=school, amenity=college albo landuse=education w zale\u017cno\u015bci od tego, jakie plac\u00f3wki wchodz\u0105 w sk\u0142ad zespo\u0142u. Sprawd\u017a, kiedy stosowa\u0107 amenity=* a kiedy landuse=education.",
                "note": "Children RSPO: 41383;73139;74844"
            }
        },
        {
            "id": 41383,
            "type": "Feature",
            "geometry": {
                "type": "Point",
                "coordinates": [
                    17.39627,
                    51.214870000000005
                ]
            },
            "properties": {
                "ref:rspo": 41383,
                "official_name": "Powiatowy O\u015brodek Doskonalenia Nauczycieli w Ole\u015bnicy",
                "name": "Powiatowy O\u015brodek Doskonalenia Nauczycieli w Ole\u015bnicy",
                "addr:country": "PL",
                "addr:postcode": "56-400",
                "addr:city": "Ole\u015bnica",
                "addr:street": "Wojska Polskiego",
                "addr:housenumber": "56",
                "addr:teryt:simc": 987213,
                "addr:teryt:sym_ul": 24628,
                "contact:email": "sekretariat@pceik.pl",
                "contact:website": "http:\/\/www.pceik.pl",
                "ref:regon": "021991425",
                "operator": "Powiat Ole\u015bnicki",
                "operator:type": "government",
                "amenity": "training",
                "note": "Parent RSPO: 10355"
            }
        },
        {
            "id": 73139,
            "type": "Feature",
            "geometry": {
                "type": "Point",
                "coordinates": [
                    17.39627,
                    51.21484
                ]
            },
            "properties": {
                "ref:rspo": 73139,
                "official_name": "Filia Dolno\u015bL\u0105skiej Biblioteki Pedagogicznej w Ole\u015bnicy",
                "name": "Filia Dolno\u015bL\u0105skiej Biblioteki Pedagogicznej w Ole\u015bnicy",
                "addr:country": "PL",
                "addr:postcode": "56-400",
                "addr:city": "Ole\u015bnica",
                "addr:street": "Wojska Polskiego",
                "addr:housenumber": "56",
                "addr:teryt:simc": 987213,
                "addr:teryt:sym_ul": 24628,
                "contact:phone": "+48 713142146",
                "contact:email": "fdbp_olesnica@op.pl",
                "contact:website": "http:\/\/www.pceik.pl",
                "ref:regon": "022006899",
                "operator": "Powiat Ole\u015bnicki",
                "operator:type": "government",
                "amenity": "library",
                "note": "Parent RSPO: 10355"
            }
        },
        {
            "id": 74844,
            "type": "Feature",
            "geometry": {
                "type": "Point",
                "coordinates": [
                    17.39627,
                    51.21481
                ]
            },
            "properties": {
                "ref:rspo": 74844,
                "official_name": "M\u0142odzie\u017cowy Dom Kultury w Ole\u015bnicy",
                "name": "M\u0142odzie\u017cowy Dom Kultury w Ole\u015bnicy",
                "addr:country": "PL",
                "addr:postcode": "56-400",
                "addr:city": "Ole\u015bnica",
                "addr:street": "Wojska Polskiego",
                "addr:housenumber": "56",
                "addr:teryt:simc": 987213,
                "addr:teryt:sym_ul": 24628,
                "contact:phone": "+48 713140187",
                "contact:email": "sekretariat@nazwa.pceik.pl",
                "contact:website": "http:\/\/www.pceik.pl",
                "ref:regon": "022007054",
                "operator": "Powiat Ole\u015bnicki",
                "operator:type": "government",
                "amenity": "community_centre",
                "community_centre:for": "juvenile",
                "note": "Parent RSPO: 10355"
            }
        },
        {
            "id": 29940,
            "type": "Feature",
            "geometry": {
                "type": "Point",
                "coordinates": [
                    17.37048,
                    51.2191
                ]
            },
            "properties": {
                "isced:level": "1;2",
                "ref:rspo": 29940,
                "official_name": "Katolicka Szko\u0142a Podstawowa im. \u015aw. Jana Aposto\u0142a I Ewangelisty",
                "name": "Katolicka Szko\u0142a Podstawowa",
                "addr:country": "PL",
                "addr:postcode": "56-400",
                "addr:city": "Ole\u015bnica",
                "addr:street": "P\u00f3\u0142nocna",
                "addr:housenumber": "16",
                "addr:teryt:simc": 987213,
                "addr:teryt:sym_ul": 17421,
                "contact:phone": "+48 505092895",
                "contact:email": "dyrektor@katolicka.edu.pl",
                "ref:regon": "021989339",
                "ref:vatin": "PL9111092932",
                "operator": "Marian Jankiewicz",
                "operator:type": "private",
                "amenity": "school"
            }
        },
        {
            "id": 104043,
            "type": "Feature",
            "geometry": {
                "type": "Point",
                "coordinates": [
                    17.37048,
                    51.219069999999995
                ]
            },
            "properties": {
                "ref:rspo": 104043,
                "official_name": "Niepubliczne Przedszkole Przy Katolickiej Szkole Podstawowej w Ole\u015bnicy",
                "name": "Niepubliczne Przedszkole Przy Katolickiej Szkole Podstawowej w Ole\u015bnicy",
                "addr:country": "PL",
                "addr:postcode": "56-400",
                "addr:city": "Ole\u015bnica",
                "addr:street": "P\u00f3\u0142nocna",
                "addr:housenumber": "16",
                "addr:teryt:simc": 987213,
                "addr:teryt:sym_ul": 17421,
                "contact:phone": "+48 713999985",
                "contact:email": "dyrektor@katolicka.edu.pl",
                "ref:regon": "022033940",
                "ref:vatin": "PL9111092932",
                "operator": "Marian Jankiewicz",
                "operator:type": "private",
                "amenity": "kindergarten"
            }
        },
        {
            "id": 275436,
            "type": "Feature",
            "geometry": {
                "type": "Point",
                "coordinates": [
                    17.37194,
                    51.21996
                ]
            },
            "properties": {
                "ref:rspo": 275436,
                "official_name": "Niepubliczne Przedszkole Sportowo-Artystyczne \"Ratataje\"",
                "name": "Niepubliczne Przedszkole Sportowo-Artystyczne \"Ratataje\"",
                "addr:country": "PL",
                "addr:postcode": "56-400",
                "addr:city": "Ole\u015bnica",
                "addr:street": "Wielkopolna",
                "addr:housenumber": "5c",
                "addr:teryt:simc": 987213,
                "addr:teryt:sym_ul": 27569,
                "contact:phone": "+48 512739333",
                "contact:email": "biuro@ratatajeprzedszkole.pl",
                "ref:regon": "386918569",
                "operator": "Ozone Projekt Anita Tomala-Najmrodzka",
                "operator:type": "consortium",
                "amenity": "kindergarten"
            }
        },
        {
            "id": 127433,
            "type": "Feature",
            "geometry": {
                "type": "Point",
                "coordinates": [
                    17.36877,
                    51.22045
                ]
            },
            "properties": {
                "ref:rspo": 127433,
                "official_name": "Niepubliczna Poradnia Psychologiczno-Pedagogiczna w Ole\u015bnicy",
                "name": "Niepubliczna Poradnia Psychologiczno-Pedagogiczna w Ole\u015bnicy",
                "addr:country": "PL",
                "addr:postcode": "56-400",
                "addr:city": "Ole\u015bnica",
                "addr:street": "P\u00f3\u0142nocna",
                "addr:housenumber": "19b",
                "addr:teryt:simc": 987213,
                "addr:teryt:sym_ul": 17421,
                "contact:phone": "+48 600309208",
                "contact:email": "poradnia@dobrystart.info.pl",
                "ref:regon": "361582838",
                "operator": "Paulina Wieliczko",
                "operator:type": "private",
                "healthcare": "counselling",
                "counselling_type": "education",
                "fixme": "w zale\u017cno\u015bci od przedmiotu dzia\u0142alno\u015bci (np. healthcare=counselling + counselling_type=education albo healthcare=psychotherapist)"
            }
        },
        {
            "id": 276503,
            "type": "Feature",
            "geometry": {
                "type": "Point",
                "coordinates": [
                    17.37717,
                    51.22409
                ]
            },
            "properties": {
                "ref:rspo": 276503,
                "official_name": "Integracyjny Punkt Przedszkolny \"Odkrywcy\" w Ole\u015bnicy",
                "name": "Integracyjny Punkt Przedszkolny \"Odkrywcy\" w Ole\u015bnicy",
                "addr:country": "PL",
                "addr:postcode": "56-400",
                "addr:city": "Ole\u015bnica",
                "addr:street": "Szmaragdowa",
                "addr:housenumber": "5",
                "addr:door": "2",
                "addr:teryt:simc": 987213,
                "addr:teryt:sym_ul": 22003,
                "contact:email": "biuro@wspolnyswiat.com.pl",
                "ref:regon": "387158830",
                "operator": "Beata Dr\u00f3\u017cdz",
                "operator:type": "private",
                "amenity": "kindergarten"
            }
        }
    ]
}