{
    "type": "FeatureCollection",
    "features": [
        {
            "id": 41081,
            "type": "Feature",
            "geometry": {
                "type": "Point",
                "coordinates": [
                    17.6472569,
                    51.187807
                ]
            },
            "properties": {
                "ref:rspo": 41081,
                "official_name": "Zesp\u00f3\u0142 Szkolno - Przedszkolny w Mi\u0142owicach",
                "name": "Zesp\u00f3\u0142 Szkolno - Przedszkolny w Mi\u0142owicach",
                "addr:country": "PL",
                "addr:postcode": "56-504",
                "addr:place": "Mi\u0142owice",
                "addr:housenumber": "27",
                "addr:door": "-",
                "addr:teryt:sym_ul": 197126,
                "contact:phone": "+48 627851290",
                "contact:email": "spmilowice@interia.pl",
                "contact:website": "http:\/\/www.zspmilowice.pl",
                "ref:regon": "932651470",
                "ref:vatin": "PL9111785285",
                "operator": "Gmina Dziadowa K\u0142oda",
                "operator:type": "government",
                "landuse": "education",
                "fixme": "amenity=school, amenity=college albo landuse=education w zale\u017cno\u015bci od tego, jakie plac\u00f3wki wchodz\u0105 w sk\u0142ad zespo\u0142u. Sprawd\u017a, kiedy stosowa\u0107 amenity=* a kiedy landuse=education.",
                "note": "Children RSPO: 52336;52337"
            }
        },
        {
            "id": 52336,
            "type": "Feature",
            "geometry": {
                "type": "Point",
                "coordinates": [
                    17.6472569,
                    51.187777
                ]
            },
            "properties": {
                "isced:level": "1;2",
                "ref:rspo": 52336,
                "official_name": "Szko\u0142a Podstawowa w Mi\u0142owicach",
                "name": "Szko\u0142a Podstawowa w Mi\u0142owicach",
                "addr:country": "PL",
                "addr:postcode": "56-504",
                "addr:place": "Mi\u0142owice",
                "addr:housenumber": "27",
                "addr:teryt:sym_ul": 197126,
                "contact:phone": "+48 627851290",
                "contact:email": "spmilowice@interia.pl",
                "contact:website": "http:\/\/www.zspmilowice.pl",
                "ref:regon": "001173783",
                "operator": "Gmina Dziadowa K\u0142oda",
                "operator:type": "government",
                "amenity": "school",
                "note": "Parent RSPO: 41081"
            }
        },
        {
            "id": 52337,
            "type": "Feature",
            "geometry": {
                "type": "Point",
                "coordinates": [
                    17.648193,
                    51.1909489
                ]
            },
            "properties": {
                "ref:rspo": 52337,
                "official_name": "Przedszkole Publiczne w Mi\u0142owicach",
                "name": "Przedszkole Publiczne w Mi\u0142owicach",
                "addr:country": "PL",
                "addr:postcode": "56-504",
                "addr:place": "Mi\u0142owice",
                "addr:housenumber": "90",
                "addr:teryt:sym_ul": 197126,
                "contact:phone": "+48 627851290",
                "contact:email": "spmilowice@interia.pl",
                "contact:website": "http:\/\/www.zspmilowice.pl",
                "ref:regon": "250023622",
                "operator": "Gmina Dziadowa K\u0142oda",
                "operator:type": "government",
                "amenity": "kindergarten",
                "note": "Parent RSPO: 41081"
            }
        },
        {
            "id": 41086,
            "type": "Feature",
            "geometry": {
                "type": "Point",
                "coordinates": [
                    17.6769219,
                    51.2146629
                ]
            },
            "properties": {
                "isced:level": "1;2",
                "ref:rspo": 41086,
                "official_name": "Szko\u0142a Podstawowa w Radzowicach",
                "name": "Szko\u0142a Podstawowa w Radzowicach",
                "addr:country": "PL",
                "addr:postcode": "56-504",
                "addr:place": "Radzowice",
                "addr:housenumber": "54",
                "addr:teryt:sym_ul": 197132,
                "contact:phone": "+48 627851811",
                "contact:email": "irenaszczyrk@o2.pl",
                "ref:regon": "021993080",
                "operator": "Stowarzyszenie Rozwoju Wsi Radzowice",
                "operator:type": "ngo",
                "amenity": "school"
            }
        },
        {
            "id": 41083,
            "type": "Feature",
            "geometry": {
                "type": "Point",
                "coordinates": [
                    17.70928,
                    51.23364
                ]
            },
            "properties": {
                "ref:rspo": 41083,
                "official_name": "Zesp\u00f3\u0142 Szk\u00f3\u0142 w Dziadowej K\u0142odzie",
                "name": "Zesp\u00f3\u0142 Szk\u00f3\u0142 w Dziadowej K\u0142odzie",
                "addr:country": "PL",
                "addr:postcode": "56-504",
                "addr:city": "Dziadowa K\u0142oda",
                "addr:street": "S\u0142oneczna",
                "addr:housenumber": "5",
                "addr:teryt:simc": 20254,
                "addr:teryt:sym_ul": 197043,
                "contact:phone": "+48 790356600",
                "contact:email": "zs.dziadowakloda@gmail.com",
                "contact:website": "http:\/\/www.zspdziadowakloda.pl",
                "ref:regon": "932090898",
                "ref:vatin": "PL9111785279",
                "operator": "Gmina Dziadowa K\u0142oda",
                "operator:type": "government",
                "landuse": "education",
                "fixme": "amenity=school, amenity=college albo landuse=education w zale\u017cno\u015bci od tego, jakie plac\u00f3wki wchodz\u0105 w sk\u0142ad zespo\u0142u. Sprawd\u017a, kiedy stosowa\u0107 amenity=* a kiedy landuse=education.",
                "note": "Children RSPO: 52338;52340"
            }
        },
        {
            "id": 52338,
            "type": "Feature",
            "geometry": {
                "type": "Point",
                "coordinates": [
                    17.70928,
                    51.23361
                ]
            },
            "properties": {
                "isced:level": "1;2",
                "ref:rspo": 52338,
                "official_name": "Szko\u0142a Podstawowa im. \u015aw. Jana Paw\u0142a II w Dziadowej K\u0142odzie",
                "name": "Szko\u0142a Podstawowa",
                "addr:country": "PL",
                "addr:postcode": "56-504",
                "addr:city": "Dziadowa K\u0142oda",
                "addr:street": "S\u0142oneczna",
                "addr:housenumber": "5",
                "addr:teryt:simc": 20254,
                "addr:teryt:sym_ul": 197043,
                "contact:phone": "+48 790356600",
                "contact:email": "zs.dziadowakloda@gmail.com",
                "contact:website": "http:\/\/www.zspdziadowakloda.pl",
                "ref:regon": "000640366",
                "operator": "Gmina Dziadowa K\u0142oda",
                "operator:type": "government",
                "amenity": "school",
                "note": "Parent RSPO: 41083"
            }
        },
        {
            "id": 52340,
            "type": "Feature",
            "geometry": {
                "type": "Point",
                "coordinates": [
                    17.70928,
                    51.23358
                ]
            },
            "properties": {
                "ref:rspo": 52340,
                "official_name": "Przedszkole Publiczne w Dziadowej K\u0142odzie",
                "name": "Przedszkole Publiczne w Dziadowej K\u0142odzie",
                "addr:country": "PL",
                "addr:postcode": "56-504",
                "addr:city": "Dziadowa K\u0142oda",
                "addr:street": "S\u0142oneczna",
                "addr:housenumber": "5",
                "addr:teryt:simc": 20254,
                "addr:teryt:sym_ul": 197043,
                "contact:phone": "+48 790356600",
                "contact:email": "zs.dziadowakloda@gmail.com",
                "contact:website": "http:\/\/www.zspdziadowakloda.pl",
                "ref:regon": "932090869",
                "operator": "Gmina Dziadowa K\u0142oda",
                "operator:type": "government",
                "amenity": "kindergarten",
                "note": "Parent RSPO: 41083"
            }
        }
    ]
}