{
    "type": "FeatureCollection",
    "features": [
        {
            "id": 26699,
            "type": "Feature",
            "geometry": {
                "type": "Point",
                "coordinates": [
                    18.2652595,
                    51.507264
                ]
            },
            "properties": {
                "isced:level": "1;2",
                "ref:rspo": 26699,
                "official_name": "Szko\u0142a Podstawowa im. Kardyna\u0142a Karola Wojty\u0142y w Ku\u017anicy Grabowskiej",
                "name": "Szko\u0142a Podstawowa",
                "addr:country": "PL",
                "addr:postcode": "63-522",
                "addr:place": "Ku\u017anica Grabowska",
                "addr:housenumber": "106",
                "addr:teryt:sym_ul": 201610,
                "contact:phone": "+48 627312881",
                "contact:email": "spkuznica@kraszewice.pl",
                "contact:website": "http:\/\/www.spkuznicagrabowska.szkolnastrona.pl",
                "ref:regon": "001174140",
                "ref:vatin": "PL5140200888",
                "operator": "Gmina Kraszewice",
                "operator:type": "government",
                "amenity": "school"
            }
        },
        {
            "id": 26698,
            "type": "Feature",
            "geometry": {
                "type": "Point",
                "coordinates": [
                    18.223,
                    51.51483
                ]
            },
            "properties": {
                "isced:level": "1;2",
                "ref:rspo": 26698,
                "official_name": "Szko\u0142a Podstawowa im. M. Falskiego w Kraszewicach",
                "name": "Szko\u0142a Podstawowa",
                "addr:country": "PL",
                "addr:postcode": "63-522",
                "addr:city": "Kraszewice",
                "addr:street": "ul. Plac Wolno\u015bci",
                "addr:housenumber": "1",
                "addr:door": "1",
                "addr:teryt:simc": 16415,
                "addr:teryt:sym_ul": 201514,
                "contact:phone": "+48 627312013",
                "contact:email": "spkraszewice@o2.pl",
                "contact:website": "http:\/\/www.spkraszewice.szkolnastrona.pl\/",
                "ref:regon": "001084677",
                "ref:vatin": "PL5140201244",
                "operator": "Gmina Kraszewice",
                "operator:type": "government",
                "amenity": "school"
            }
        },
        {
            "id": 26701,
            "type": "Feature",
            "geometry": {
                "type": "Point",
                "coordinates": [
                    18.22231,
                    51.51699
                ]
            },
            "properties": {
                "ref:rspo": 26701,
                "official_name": "Publiczne Przedszkole \"Mali Odkrywcy\" w Kraszewicach",
                "name": "Publiczne Przedszkole \"Mali Odkrywcy\" w Kraszewicach",
                "addr:country": "PL",
                "addr:postcode": "63-522",
                "addr:city": "Kraszewice",
                "addr:street": "ul. Wielu\u0144ska",
                "addr:housenumber": "8A",
                "addr:teryt:simc": 24117,
                "addr:teryt:sym_ul": 201514,
                "contact:phone": "+48 627282077",
                "contact:email": "przedszkole@kraszewice.pl",
                "contact:website": "http:\/\/przedszkole.kraszewice.pl",
                "ref:regon": "251591357",
                "ref:vatin": "PL5140201273",
                "operator": "Gmina Kraszewice",
                "operator:type": "government",
                "amenity": "kindergarten"
            }
        },
        {
            "id": 26703,
            "type": "Feature",
            "geometry": {
                "type": "Point",
                "coordinates": [
                    18.3018822,
                    51.5337
                ]
            },
            "properties": {
                "isced:level": "1;2",
                "ref:rspo": 26703,
                "official_name": "Publiczna Szko\u0142a Podstawowa Stowarzyszenia Przyjaci\u00f3\u0142 Szk\u00f3\u0142 Katolickich",
                "name": "Publiczna Szko\u0142a Podstawowa Stowarzyszenia Przyjaci\u00f3\u0142 Szk\u00f3\u0142 Katolickich",
                "addr:country": "PL",
                "addr:postcode": "63-522",
                "addr:place": "G\u0142uszyna",
                "addr:housenumber": "34",
                "addr:door": "34",
                "addr:teryt:sym_ul": 201388,
                "contact:phone": "+48 627312160",
                "contact:email": "pspgluszyna@wp.pl",
                "ref:regon": "302240236",
                "ref:vatin": "PL5140303329",
                "operator": "Stowarzyszenie Przyjaci\u00f3\u0142 Szk\u00f3\u0142 Katolickich",
                "operator:type": "ngo",
                "amenity": "school"
            }
        },
        {
            "id": 118949,
            "type": "Feature",
            "geometry": {
                "type": "Point",
                "coordinates": [
                    18.3018822,
                    51.53367
                ]
            },
            "properties": {
                "ref:rspo": 118949,
                "official_name": "Punkt Przedszkolny Stowarzyszenia Przyjaci\u00f3\u0142 Szk\u00f3\u0142 Katolickich w G\u0142uszynie",
                "name": "Punkt Przedszkolny Stowarzyszenia Przyjaci\u00f3\u0142 Szk\u00f3\u0142 Katolickich w G\u0142uszynie",
                "addr:country": "PL",
                "addr:postcode": "62-522",
                "addr:place": "G\u0142uszyna",
                "addr:housenumber": "34",
                "addr:teryt:sym_ul": 201388,
                "contact:phone": "+48 627312160",
                "contact:email": "pspgluszyna@wp.pl",
                "ref:regon": "302508414",
                "operator": "Dane Do Uzupe\u0142nienia",
                "operator:type": "private",
                "amenity": "kindergarten"
            }
        }
    ]
}