{
    "type": "FeatureCollection",
    "features": [
        {
            "id": 43608,
            "type": "Feature",
            "geometry": {
                "type": "Point",
                "coordinates": [
                    17.9532421,
                    51.3863129
                ]
            },
            "properties": {
                "ref:rspo": 43608,
                "official_name": "Przedszkole w Rogaszycach",
                "name": "Przedszkole w Rogaszycach",
                "addr:postcode": "63-500",
                "addr:place": "Rogaszyce",
                "addr:housenumber": "22",
                "addr:city:simc": 206374,
                "phone": "+48 627320646",
                "email": "przedszkolerogaszyce@ostrzeszow.pl",
                "ref:regon": "250023303",
                "operator": "Gmina Ostrzesz\u00f3w",
                "operator:type": "government",
                "amenity": "kindergarten"
            }
        },
        {
            "id": 43600,
            "type": "Feature",
            "geometry": {
                "type": "Point",
                "coordinates": [
                    17.9379213,
                    51.4013276
                ]
            },
            "properties": {
                "isced:level": "1;2",
                "ref:rspo": 43600,
                "official_name": "Szko\u0142a Podstawowa w Rogaszycach",
                "name": "Szko\u0142a Podstawowa w Rogaszycach",
                "addr:postcode": "63-500",
                "addr:place": "Rogaszyce",
                "addr:housenumber": "106",
                "addr:city:simc": 206374,
                "phone": "+48 627320654",
                "email": "sprogaszyce@op.pl",
                "ref:regon": "001046814",
                "operator": "Gmina Ostrzesz\u00f3w",
                "operator:type": "government",
                "amenity": "school"
            }
        },
        {
            "id": 13789,
            "type": "Feature",
            "geometry": {
                "type": "Point",
                "coordinates": [
                    17.9363199,
                    51.41791
                ]
            },
            "properties": {
                "ref:rspo": 13789,
                "official_name": "Zesp\u00f3\u0142 Szk\u00f3\u0142 Nr 2 w Ostrzeszowie im. Przyja\u017ani Polsko-Norweskiej",
                "name": "Zesp\u00f3\u0142 Szk\u00f3\u0142 Nr 2 w Ostrzeszowie",
                "addr:postcode": "63-500",
                "addr:city": "Ostrzesz\u00f3w",
                "addr:street": "Kra\u0144cowa",
                "addr:housenumber": "7",
                "addr:city:simc": 937250,
                "addr:street:sym_ul": 9819,
                "phone": "+48 627320775",
                "email": "sekretariat@zs2.ostrzeszow.pl",
                "website": "http:\/\/www.zs2.ostrzeszow.pl",
                "ref:regon": "000032520",
                "ref:vatin": "PL6221639241",
                "operator": "Powiat Ostrzeszowski",
                "operator:type": "government",
                "landuse": "education",
                "fixme": "amenity=school, amenity=college albo landuse=education w zale\u017cno\u015bci od tego, jakie plac\u00f3wki wchodz\u0105 w sk\u0142ad zespo\u0142u. Sprawd\u017a, kiedy stosowa\u0107 amenity=* a kiedy landuse=education.",
                "note": "Children RSPO: 21380;21547;21573;22832"
            }
        },
        {
            "id": 31551,
            "type": "Feature",
            "geometry": {
                "type": "Point",
                "coordinates": [
                    17.9363199,
                    51.41788
                ]
            },
            "properties": {
                "ref:rspo": 31551,
                "official_name": "Szko\u0142a Zespo\u0142\u00f3w Adama Fulary w Ostrzeszowie",
                "name": "Szko\u0142a Zespo\u0142\u00f3w Adama Fulary w Ostrzeszowie",
                "addr:postcode": "63-500",
                "addr:city": "Ostrzesz\u00f3w",
                "addr:street": "Kra\u0144cowa",
                "addr:housenumber": "7",
                "addr:city:simc": 937250,
                "addr:street:sym_ul": 9819,
                "phone": "+48 604695855",
                "email": "szkola@fulara.com",
                "website": "http:\/\/szkola.fulara.com.pl",
                "ref:regon": "302242100",
                "ref:vatin": "PL5140014996",
                "operator": "Adam Fulara",
                "operator:type": "private",
                "fixme": "w zale\u017cno\u015bci od przedmiotu dzia\u0142alno\u015bci (np. amenity=training + training=*, amenity=dancing_school, amenity=language_school, amenity=music_school)"
            }
        },
        {
            "id": 21380,
            "type": "Feature",
            "geometry": {
                "type": "Point",
                "coordinates": [
                    17.9363199,
                    51.41785
                ]
            },
            "properties": {
                "isced:level": "3",
                "ref:rspo": 21380,
                "official_name": "Technikum Nr 2",
                "name": "Technikum Nr 2",
                "addr:postcode": "63-500",
                "addr:city": "Ostrzesz\u00f3w",
                "addr:street": "Kra\u0144cowa",
                "addr:housenumber": "7",
                "addr:city:simc": 937250,
                "addr:street:sym_ul": 9819,
                "phone": "+48 627320775",
                "email": "sekretariat@zs2.ostrzeszow.pl",
                "website": "http:\/\/www.zs2.ostrzeszow.pl",
                "ref:regon": "251538162",
                "ref:vatin": "PL6221639241",
                "operator": "Powiat Ostrzeszowski",
                "operator:type": "government",
                "amenity": "school",
                "note": "Parent RSPO: 13789"
            }
        },
        {
            "id": 21547,
            "type": "Feature",
            "geometry": {
                "type": "Point",
                "coordinates": [
                    17.9363199,
                    51.41782
                ]
            },
            "properties": {
                "isced:level": "3",
                "ref:rspo": 21547,
                "official_name": "Ii Liceum Og\u00f3lnokszta\u0142c\u0105ce",
                "name": "Ii Liceum Og\u00f3lnokszta\u0142c\u0105ce",
                "addr:postcode": "63-500",
                "addr:city": "Ostrzesz\u00f3w",
                "addr:street": "Kra\u0144cowa",
                "addr:housenumber": "7",
                "addr:city:simc": 937250,
                "addr:street:sym_ul": 9819,
                "phone": "+48 627320775",
                "email": "sekretariat@zs2.ostrzeszow.pl",
                "website": "http:\/\/www.zs2.ostrzeszow.pl",
                "ref:regon": "251538185",
                "ref:vatin": "PL6221639241",
                "operator": "Powiat Ostrzeszowski",
                "operator:type": "government",
                "amenity": "school",
                "note": "Parent RSPO: 13789"
            }
        },
        {
            "id": 21573,
            "type": "Feature",
            "geometry": {
                "type": "Point",
                "coordinates": [
                    17.9363199,
                    51.41779
                ]
            },
            "properties": {
                "isced:level": "3",
                "ref:rspo": 21573,
                "official_name": "Bran\u017cowa Szko\u0142a I Stopnia Nr 2 w Ostrzeszowie",
                "name": "Bran\u017cowa Szko\u0142a I Stopnia Nr 2 w Ostrzeszowie",
                "addr:postcode": "63-500",
                "addr:city": "Ostrzesz\u00f3w",
                "addr:street": "Kra\u0144cowa",
                "addr:housenumber": "7",
                "addr:city:simc": 937250,
                "addr:street:sym_ul": 9819,
                "phone": "+48 627320775",
                "email": "sekretariat@zs2.ostrzeszow.pl",
                "website": "http:\/\/www.zs2.ostrzeszow.pl",
                "ref:regon": "251538191",
                "ref:vatin": "PL6221639241",
                "operator": "Powiat Ostrzeszowski",
                "operator:type": "government",
                "amenity": "school",
                "note": "Parent RSPO: 13789"
            }
        },
        {
            "id": 22832,
            "type": "Feature",
            "geometry": {
                "type": "Point",
                "coordinates": [
                    17.9363199,
                    51.41776
                ]
            },
            "properties": {
                "isced:level": "4",
                "ref:rspo": 22832,
                "official_name": "Szko\u0142a Policealna Nr 2",
                "name": "Szko\u0142a Policealna Nr 2",
                "addr:postcode": "63-500",
                "addr:city": "Ostrzesz\u00f3w",
                "addr:street": "Kra\u0144cowa",
                "addr:housenumber": "7",
                "addr:city:simc": 937250,
                "addr:street:sym_ul": 9819,
                "phone": "+48 627320775",
                "email": "sekretariat@zs2.ostrzeszow.pl",
                "website": "http:\/\/www.zs2.ostrzeszow.pl",
                "ref:regon": "251538216",
                "ref:vatin": "PL6221639241",
                "operator": "Powiat Ostrzeszowski",
                "operator:type": "government",
                "amenity": "college",
                "note": "Parent RSPO: 13789"
            }
        },
        {
            "id": 13990,
            "type": "Feature",
            "geometry": {
                "type": "Point",
                "coordinates": [
                    17.93196,
                    51.42161
                ]
            },
            "properties": {
                "ref:rspo": 13990,
                "official_name": "Specjalny O\u015brodek Szkolno-Wychowawczy",
                "name": "Specjalny O\u015brodek Szkolno-Wychowawczy",
                "addr:postcode": "63-500",
                "addr:city": "Ostrzesz\u00f3w",
                "addr:street": "Genera\u0142a W\u0142adys\u0142awa Sikorskiego",
                "addr:housenumber": "19",
                "addr:city:simc": 937250,
                "addr:street:sym_ul": 19907,
                "phone": "+48 627320716",
                "email": "soszw@tlen.pl",
                "website": "http:\/\/www.soswostrzeszow.szkolnastrona.pl",
                "ref:regon": "001095250",
                "ref:vatin": "PL6221647111",
                "operator": "Powiat Ostrzeszowski",
                "operator:type": "government",
                "amenity": "school",
                "note": "Children RSPO: 22996;23582;23669;109243"
            }
        },
        {
            "id": 14296,
            "type": "Feature",
            "geometry": {
                "type": "Point",
                "coordinates": [
                    17.93196,
                    51.42158
                ]
            },
            "properties": {
                "ref:rspo": 14296,
                "official_name": "Poradnia Psychologiczno-Pedagogiczna",
                "name": "Poradnia Psychologiczno-Pedagogiczna",
                "addr:postcode": "63-500",
                "addr:city": "Ostrzesz\u00f3w",
                "addr:street": "Genera\u0142a W\u0142adys\u0142awa Sikorskiego",
                "addr:housenumber": "19",
                "addr:city:simc": 937250,
                "addr:street:sym_ul": 19907,
                "phone": "+48 627320367",
                "email": "ppp_ostrzeszow@op.pl",
                "website": "http:\/\/www.poradniaostrzeszow.pl",
                "ref:regon": "000694267",
                "ref:vatin": "PL5140200919",
                "operator": "Powiat Ostrzeszowski",
                "operator:type": "government",
                "healthcare": "counselling",
                "counselling_type": "education",
                "fixme": "w zale\u017cno\u015bci od przedmiotu dzia\u0142alno\u015bci (np. healthcare=counselling + counselling_type=education albo healthcare=psychotherapist)"
            }
        },
        {
            "id": 22996,
            "type": "Feature",
            "geometry": {
                "type": "Point",
                "coordinates": [
                    17.93196,
                    51.42155
                ]
            },
            "properties": {
                "isced:level": "1;2",
                "ref:rspo": 22996,
                "official_name": "Szko\u0142a Podstawowa Specjalna",
                "name": "Szko\u0142a Podstawowa Specjalna",
                "addr:postcode": "63-500",
                "addr:city": "Ostrzesz\u00f3w",
                "addr:street": "Genera\u0142a W\u0142adys\u0142awa Sikorskiego",
                "addr:housenumber": "19",
                "addr:city:simc": 937250,
                "addr:street:sym_ul": 19907,
                "phone": "+48 627320716",
                "email": "soszw@tlen.pl",
                "website": "http:\/\/www.soswostrzeszow.szkolnastrona.pl",
                "ref:regon": "251596082",
                "ref:vatin": "PL6221647111",
                "operator": "Powiat Ostrzeszowski",
                "operator:type": "government",
                "amenity": "school",
                "note": "Parent RSPO: 13990"
            }
        },
        {
            "id": 23582,
            "type": "Feature",
            "geometry": {
                "type": "Point",
                "coordinates": [
                    17.93196,
                    51.42152
                ]
            },
            "properties": {
                "isced:level": "3",
                "ref:rspo": 23582,
                "official_name": "Bran\u017cowa Szko\u0142a Specjalna I Stopnia w Ostrzeszowie",
                "name": "Bran\u017cowa Szko\u0142a Specjalna I Stopnia w Ostrzeszowie",
                "addr:postcode": "63-500",
                "addr:city": "Ostrzesz\u00f3w",
                "addr:street": "Genera\u0142a W\u0142adys\u0142awa Sikorskiego",
                "addr:housenumber": "19",
                "addr:city:simc": 937250,
                "addr:street:sym_ul": 19907,
                "phone": "+48 627320716",
                "email": "soszw@tlen.pl",
                "website": "http:\/\/www.soswostrzeszow.szkolnastrona.pl",
                "ref:regon": "251596113",
                "ref:vatin": "PL6221647111",
                "operator": "Powiat Ostrzeszowski",
                "operator:type": "government",
                "amenity": "school",
                "note": "Parent RSPO: 13990"
            }
        },
        {
            "id": 23669,
            "type": "Feature",
            "geometry": {
                "type": "Point",
                "coordinates": [
                    17.93196,
                    51.42149
                ]
            },
            "properties": {
                "ref:rspo": 23669,
                "official_name": "Szko\u0142a Przysposabiaj\u0105ca Do Pracy",
                "name": "Szko\u0142a Przysposabiaj\u0105ca Do Pracy",
                "addr:postcode": "63-500",
                "addr:city": "Ostrzesz\u00f3w",
                "addr:street": "Genera\u0142a W\u0142adys\u0142awa Sikorskiego",
                "addr:housenumber": "19",
                "addr:city:simc": 937250,
                "addr:street:sym_ul": 19907,
                "phone": "+48 627320716",
                "email": "soszw@tlen.pl",
                "website": "http:\/\/www.soswostrzeszow.szkolnastrona.pl",
                "ref:regon": "300108627",
                "ref:vatin": "PL6221647111",
                "operator": "Powiat Ostrzeszowski",
                "operator:type": "government",
                "amenity": "school",
                "note": "Parent RSPO: 13990"
            }
        },
        {
            "id": 109243,
            "type": "Feature",
            "geometry": {
                "type": "Point",
                "coordinates": [
                    17.93196,
                    51.42146
                ]
            },
            "properties": {
                "ref:rspo": 109243,
                "official_name": "Specjalny O\u015brodek Szkolno-Wychowawczy - Przedszkole Specjalne w Ostrzeszowie",
                "name": "Specjalny O\u015brodek Szkolno-Wychowawczy - Przedszkole Specjalne w Ostrzeszowie",
                "addr:postcode": "63-500",
                "addr:city": "Ostrzesz\u00f3w",
                "addr:street": "Genera\u0142a W\u0142adys\u0142awa Sikorskiego",
                "addr:housenumber": "19",
                "addr:city:simc": 937250,
                "addr:street:sym_ul": 19907,
                "phone": "+48 627320716",
                "email": "soszw@tlen.pl",
                "website": "http:\/\/www.soswostrzeszow.szkolnastrona.pl",
                "ref:regon": "302343746",
                "operator": "Powiat Ostrzeszowski",
                "operator:type": "government",
                "amenity": "kindergarten",
                "note": "Parent RSPO: 13990"
            }
        },
        {
            "id": 43605,
            "type": "Feature",
            "geometry": {
                "type": "Point",
                "coordinates": [
                    17.93705,
                    51.42205
                ]
            },
            "properties": {
                "ref:rspo": 43605,
                "official_name": "Przedszkole Nr 5 im. S\u0142oneczny Zak\u0105tek w Ostrzeszowie",
                "name": "Przedszkole Nr 5",
                "addr:postcode": "63-500",
                "addr:city": "Ostrzesz\u00f3w",
                "addr:street": "\u0141\u0105kowa",
                "addr:housenumber": "5",
                "addr:city:simc": 937250,
                "addr:street:sym_ul": 11596,
                "phone": "+48 627320644",
                "email": "przedszkole5ostrzeszow@wp.pl",
                "ref:regon": "250023272",
                "operator": "Gmina Ostrzesz\u00f3w",
                "operator:type": "government",
                "amenity": "kindergarten"
            }
        },
        {
            "id": 267102,
            "type": "Feature",
            "geometry": {
                "type": "Point",
                "coordinates": [
                    17.90863,
                    51.42224
                ]
            },
            "properties": {
                "ref:rspo": 267102,
                "official_name": "Zesp\u00f3\u0142 Szkolno-Przedszkolny w Rojowie Z Oddzia\u0142ami Integracyjnymi",
                "name": "Zesp\u00f3\u0142 Szkolno-Przedszkolny w Rojowie Z Oddzia\u0142ami Integracyjnymi",
                "addr:postcode": "63-500",
                "addr:city": "Roj\u00f3w",
                "addr:street": "Stefana Czarnieckiego",
                "addr:housenumber": "51",
                "addr:city:simc": 206457,
                "addr:street:sym_ul": 3283,
                "phone": "+48 623320501",
                "email": "zsprojow@gmail.com",
                "ref:regon": "369922050",
                "operator": "Gmina Ostrzesz\u00f3w",
                "operator:type": "government",
                "landuse": "education",
                "fixme": "amenity=school, amenity=college albo landuse=education w zale\u017cno\u015bci od tego, jakie plac\u00f3wki wchodz\u0105 w sk\u0142ad zespo\u0142u. Sprawd\u017a, kiedy stosowa\u0107 amenity=* a kiedy landuse=education.",
                "note": "Children RSPO: 267202;269140"
            }
        },
        {
            "id": 267202,
            "type": "Feature",
            "geometry": {
                "type": "Point",
                "coordinates": [
                    17.90863,
                    51.42221
                ]
            },
            "properties": {
                "ref:rspo": 267202,
                "official_name": "Przedszkole w Rojowie",
                "name": "Przedszkole w Rojowie",
                "addr:postcode": "63-500",
                "addr:city": "Roj\u00f3w",
                "addr:street": "Stefana Czarnieckiego",
                "addr:housenumber": "51",
                "addr:city:simc": 206457,
                "addr:street:sym_ul": 3283,
                "phone": "+48 623320501",
                "email": "zsprojow@gmail.com",
                "ref:regon": "380007588",
                "operator": "Gmina Ostrzesz\u00f3w",
                "operator:type": "government",
                "amenity": "kindergarten",
                "note": "Parent RSPO: 267102"
            }
        },
        {
            "id": 269140,
            "type": "Feature",
            "geometry": {
                "type": "Point",
                "coordinates": [
                    17.90863,
                    51.422180000000004
                ]
            },
            "properties": {
                "isced:level": "1;2",
                "ref:rspo": 269140,
                "official_name": "Szko\u0142a Podstawowa w Rojowie",
                "name": "Szko\u0142a Podstawowa w Rojowie",
                "addr:postcode": "63-500",
                "addr:city": "Roj\u00f3w",
                "addr:street": "Stefana Czarnieckiego",
                "addr:housenumber": "51",
                "addr:city:simc": 206457,
                "addr:street:sym_ul": 3283,
                "phone": "+48 623320501",
                "email": "zsprojow@gmail.com",
                "ref:regon": "381384985",
                "operator": "Gmina Ostrzesz\u00f3w",
                "operator:type": "government",
                "amenity": "school",
                "note": "Parent RSPO: 267102"
            }
        },
        {
            "id": 14599,
            "type": "Feature",
            "geometry": {
                "type": "Point",
                "coordinates": [
                    17.93221,
                    51.42359
                ]
            },
            "properties": {
                "ref:rspo": 14599,
                "official_name": "Zesp\u00f3\u0142 Szk\u00f3\u0142 Nr 1 im. Powsta\u0144c\u00f3w Wielkopolskich w Ostrzeszowie",
                "name": "Zesp\u00f3\u0142 Szk\u00f3\u0142 Nr 1",
                "addr:postcode": "63-500",
                "addr:city": "Ostrzesz\u00f3w",
                "addr:street": "Genera\u0142a W\u0142adys\u0142awa Sikorskiego",
                "addr:housenumber": "9",
                "addr:city:simc": 937250,
                "addr:street:sym_ul": 19907,
                "phone": "+48 627320780",
                "email": "dyr_zs1@ostrzeszow.pl",
                "website": "http:\/\/www.zs1ostrzeszow.pl",
                "ref:regon": "000194814",
                "ref:vatin": "PL6221649133",
                "operator": "Powiat Ostrzeszowski",
                "operator:type": "government",
                "landuse": "education",
                "fixme": "amenity=school, amenity=college albo landuse=education w zale\u017cno\u015bci od tego, jakie plac\u00f3wki wchodz\u0105 w sk\u0142ad zespo\u0142u. Sprawd\u017a, kiedy stosowa\u0107 amenity=* a kiedy landuse=education.",
                "note": "Children RSPO: 19331;19470;20029"
            }
        },
        {
            "id": 19331,
            "type": "Feature",
            "geometry": {
                "type": "Point",
                "coordinates": [
                    17.93221,
                    51.423559999999995
                ]
            },
            "properties": {
                "isced:level": "3",
                "ref:rspo": 19331,
                "official_name": "Bran\u017cowa Szko\u0142a I Stopnia Nr 1 w Ostrzeszowie",
                "name": "Bran\u017cowa Szko\u0142a I Stopnia Nr 1 w Ostrzeszowie",
                "addr:postcode": "63-500",
                "addr:city": "Ostrzesz\u00f3w",
                "addr:street": "Genera\u0142a W\u0142adys\u0142awa Sikorskiego",
                "addr:housenumber": "9",
                "addr:city:simc": 937250,
                "addr:street:sym_ul": 19907,
                "phone": "+48 627320780",
                "email": "dyr_zs1@ostrzeszow.pl",
                "website": "http:\/\/www.zs1ostrzeszow.pl",
                "ref:regon": "251535525",
                "ref:vatin": "PL6221649133",
                "operator": "Powiat Ostrzeszowski",
                "operator:type": "government",
                "amenity": "school",
                "note": "Parent RSPO: 14599"
            }
        },
        {
            "id": 19470,
            "type": "Feature",
            "geometry": {
                "type": "Point",
                "coordinates": [
                    17.93221,
                    51.42353
                ]
            },
            "properties": {
                "isced:level": "3",
                "ref:rspo": 19470,
                "official_name": "Technikum Nr 1 w Ostrzeszowie",
                "name": "Technikum Nr 1 w Ostrzeszowie",
                "addr:postcode": "63-500",
                "addr:city": "Ostrzesz\u00f3w",
                "addr:street": "Genera\u0142a W\u0142adys\u0142awa Sikorskiego",
                "addr:housenumber": "9",
                "addr:city:simc": 937250,
                "addr:street:sym_ul": 19907,
                "phone": "+48 627320780",
                "email": "dyr_zs1@ostrzeszow.pl",
                "website": "http:\/\/www.zs1ostrzeszow.pl",
                "ref:regon": "251535471",
                "ref:vatin": "PL6221649133",
                "operator": "Powiat Ostrzeszowski",
                "operator:type": "government",
                "amenity": "school",
                "note": "Parent RSPO: 14599"
            }
        },
        {
            "id": 20029,
            "type": "Feature",
            "geometry": {
                "type": "Point",
                "coordinates": [
                    17.93221,
                    51.4235
                ]
            },
            "properties": {
                "isced:level": "4",
                "ref:rspo": 20029,
                "official_name": "Szko\u0142a Policealna Nr 1 w Ostrzeszowie",
                "name": "Szko\u0142a Policealna Nr 1 w Ostrzeszowie",
                "addr:postcode": "63-500",
                "addr:city": "Ostrzesz\u00f3w",
                "addr:street": "Genera\u0142a W\u0142adys\u0142awa Sikorskiego",
                "addr:housenumber": "9",
                "addr:city:simc": 937250,
                "addr:street:sym_ul": 19907,
                "phone": "+48 627320780",
                "email": "dyr_zs1@ostrzeszow.pl",
                "website": "http:\/\/www.zs1ostrzeszow.pl",
                "ref:regon": "300089309",
                "operator": "Powiat Ostrzeszowski",
                "operator:type": "government",
                "amenity": "college",
                "note": "Parent RSPO: 14599"
            }
        },
        {
            "id": 43590,
            "type": "Feature",
            "geometry": {
                "type": "Point",
                "coordinates": [
                    17.938,
                    51.4236
                ]
            },
            "properties": {
                "isced:level": "1;2",
                "ref:rspo": 43590,
                "official_name": "Szko\u0142a Podstawowa Nr 1 im. Henryka Sienkiewicza w Ostrzeszowie",
                "name": "Szko\u0142a Podstawowa Nr 1",
                "addr:postcode": "63-500",
                "addr:city": "Ostrzesz\u00f3w",
                "addr:street": "\u0141\u0105kowa",
                "addr:housenumber": "1",
                "addr:city:simc": 937250,
                "addr:street:sym_ul": 11596,
                "phone": "+48 627320648",
                "email": "sp1@ostrzeszow.pl",
                "website": "http:\/\/www.sp1ostrzeszow.szkolnastrona.pl",
                "ref:regon": "000629502",
                "operator": "Gmina Ostrzesz\u00f3w",
                "operator:type": "government",
                "amenity": "school"
            }
        },
        {
            "id": 130603,
            "type": "Feature",
            "geometry": {
                "type": "Point",
                "coordinates": [
                    17.9354799,
                    51.42528
                ]
            },
            "properties": {
                "ref:rspo": 130603,
                "official_name": "Niepubliczna Poradnia Psychologiczno-Pedagogiczna w Ostrzeszowie",
                "name": "Niepubliczna Poradnia Psychologiczno-Pedagogiczna w Ostrzeszowie",
                "addr:postcode": "63-500",
                "addr:city": "Ostrzesz\u00f3w",
                "addr:street": "Plac Kazimierza Wielkiego",
                "addr:housenumber": "2",
                "addr:door": "1",
                "addr:city:simc": 937250,
                "addr:street:sym_ul": 33786,
                "phone": "+48 603454464",
                "email": "agorzelanna@wp.pl",
                "ref:regon": "364229166",
                "operator": "Remedium Sp\u00f3\u0142ka Z Ograniczon\u0105 Odpowiedzialno\u015bci\u0105",
                "operator:type": "private",
                "healthcare": "counselling",
                "counselling_type": "education",
                "fixme": "w zale\u017cno\u015bci od przedmiotu dzia\u0142alno\u015bci (np. healthcare=counselling + counselling_type=education albo healthcare=psychotherapist)"
            }
        },
        {
            "id": 128828,
            "type": "Feature",
            "geometry": {
                "type": "Point",
                "coordinates": [
                    17.9306,
                    51.42657
                ]
            },
            "properties": {
                "ref:rspo": 128828,
                "official_name": "Ksi\u0105\u017cnica Pedagogiczna im.alfonsa Parczewskiego w Kaliszu Filia w Ostrzeszowie",
                "name": "Ksi\u0105\u017cnica Pedagogiczna im.alfonsa Parczewskiego w Kaliszu Filia w Ostrzeszowie",
                "addr:postcode": "63-500",
                "addr:city": "Ostrzesz\u00f3w",
                "addr:street": "Walerego Gorgolewskiego",
                "addr:housenumber": "3",
                "addr:city:simc": 937250,
                "addr:street:sym_ul": 5824,
                "phone": "+48 627303009",
                "email": "kp.ostrzeszow@kp.kalisz.pl",
                "website": "http:\/\/www.kp.kalisz.pl",
                "ref:regon": "694215000",
                "operator": "Wojew\u00f3dztwo Wielkopolskie",
                "operator:type": "government",
                "amenity": "library",
                "note": "Parent RSPO: 30916"
            }
        },
        {
            "id": 17180,
            "type": "Feature",
            "geometry": {
                "type": "Point",
                "coordinates": [
                    17.92524,
                    51.4267899
                ]
            },
            "properties": {
                "isced:level": "3",
                "ref:rspo": 17180,
                "official_name": "Liceum Og\u00f3lnokszta\u0142c\u0105ce dla Doros\u0142ych w Ostrzeszowie",
                "name": "Liceum Og\u00f3lnokszta\u0142c\u0105ce dla Doros\u0142ych w Ostrzeszowie",
                "addr:postcode": "63-500",
                "addr:city": "Ostrzesz\u00f3w",
                "addr:street": "Piastowska",
                "addr:housenumber": "3",
                "addr:city:simc": 937250,
                "addr:street:sym_ul": 16046,
                "phone": "+48 627320663",
                "email": "pawe.dzioba@neostrada.pl",
                "ref:regon": "302224208",
                "ref:vatin": "PL9291227485",
                "operator": "Pawe\u0142 Dzioba",
                "operator:type": "private",
                "amenity": "school"
            }
        },
        {
            "id": 43596,
            "type": "Feature",
            "geometry": {
                "type": "Point",
                "coordinates": [
                    17.92524,
                    51.4267599
                ]
            },
            "properties": {
                "isced:level": "1;2",
                "ref:rspo": 43596,
                "official_name": "Szko\u0142a Podstawowa Nr 2 im. Marii D\u0105browskiej w Ostrzeszowie",
                "name": "Szko\u0142a Podstawowa Nr 2",
                "addr:postcode": "63-500",
                "addr:city": "Ostrzesz\u00f3w",
                "addr:street": "Piastowska",
                "addr:housenumber": "3",
                "addr:city:simc": 937250,
                "addr:street:sym_ul": 16046,
                "phone": "+48 627320649",
                "email": "sp2@ostrzeszow.pl",
                "ref:regon": "000693859",
                "operator": "Gmina Ostrzesz\u00f3w",
                "operator:type": "government",
                "amenity": "school"
            }
        },
        {
            "id": 132911,
            "type": "Feature",
            "geometry": {
                "type": "Point",
                "coordinates": [
                    17.92524,
                    51.426729900000005
                ]
            },
            "properties": {
                "ref:rspo": 132911,
                "official_name": "Centrum Doradczo-Szkoleniowe A.p. One World Niepubliczna Plac\u00f3wka Kszta\u0142cenia Ustawicznego w Ostrzeszowie",
                "name": "Centrum Doradczo-Szkoleniowe A.p. One World Niepubliczna Plac\u00f3wka Kszta\u0142cenia Ustawicznego w Ostrzeszowie",
                "addr:postcode": "63-500",
                "addr:city": "Ostrzesz\u00f3w",
                "addr:street": "Piastowska",
                "addr:housenumber": "3",
                "addr:city:simc": 937250,
                "addr:street:sym_ul": 16046,
                "phone": "+48 668446067",
                "ref:regon": "366315272",
                "operator": "Dagmara Kowalik",
                "operator:type": "private",
                "fixme": "w zale\u017cno\u015bci od przedmiotu dzia\u0142alno\u015bci (np. amenity=training + training=*, amenity=dancing_school, amenity=language_school, amenity=music_school)"
            }
        },
        {
            "id": 265504,
            "type": "Feature",
            "geometry": {
                "type": "Point",
                "coordinates": [
                    17.92954,
                    51.42702
                ]
            },
            "properties": {
                "ref:rspo": 265504,
                "official_name": "Klub Malucha Daria Bielasta I Izabela Koszarna Sp\u00f3\u0142ka Cywilna",
                "name": "Klub Malucha Daria Bielasta I Izabela Koszarna Sp\u00f3\u0142ka Cywilna",
                "addr:postcode": "63-500",
                "addr:city": "Ostrzesz\u00f3w",
                "addr:street": "Zamkowa",
                "addr:housenumber": "19",
                "addr:city:simc": 937250,
                "addr:street:sym_ul": 25547,
                "email": "i.koszarna@gmail.com",
                "ref:regon": "368757040",
                "ref:vatin": "PL5140336027",
                "operator": "Klub Malucha Daria Bielasta,Izabela Koszarna Sp\u00f3\u0142ka Cywilna",
                "operator:type": "consortium",
                "amenity": "kindergarten"
            }
        },
        {
            "id": 14933,
            "type": "Feature",
            "geometry": {
                "type": "Point",
                "coordinates": [
                    17.92912,
                    51.42713
                ]
            },
            "properties": {
                "isced:level": "3",
                "ref:rspo": 14933,
                "official_name": "I Liceum Og\u00f3lnokszta\u0142c\u0105ce im. Marii Sk\u0142odowskiej-Curie",
                "name": "I Liceum Og\u00f3lnokszta\u0142c\u0105ce",
                "addr:postcode": "63-500",
                "addr:city": "Ostrzesz\u00f3w",
                "addr:street": "Zamkowa",
                "addr:housenumber": "21",
                "addr:city:simc": 937250,
                "addr:street:sym_ul": 25547,
                "phone": "+48 627320710",
                "email": "lo1@lo1.ostrzeszow.pl",
                "website": "http:\/\/lo1.info.pl",
                "ref:regon": "000694416",
                "ref:vatin": "PL6221639034",
                "operator": "Powiat Ostrzeszowski",
                "operator:type": "government",
                "amenity": "school"
            }
        },
        {
            "id": 27911,
            "type": "Feature",
            "geometry": {
                "type": "Point",
                "coordinates": [
                    17.93353,
                    51.4271699
                ]
            },
            "properties": {
                "ref:rspo": 27911,
                "official_name": "Animo Szko\u0142a J\u0119zyk\u00f3w Obcych w Ostrzeszowie",
                "name": "Animo Szko\u0142a J\u0119zyk\u00f3w Obcych w Ostrzeszowie",
                "addr:postcode": "63-500",
                "addr:city": "Ostrzesz\u00f3w",
                "addr:street": "Kaliska",
                "addr:housenumber": "8",
                "addr:city:simc": 937250,
                "addr:street:sym_ul": 7823,
                "phone": "+48 627320532",
                "email": "animo2000@interia.pl",
                "website": "http:\/\/www.animo.biz.pl",
                "ref:regon": "302239196",
                "ref:vatin": "PL6221511179",
                "operator": "Anita Mi\u0105dowicz",
                "operator:type": "private",
                "fixme": "w zale\u017cno\u015bci od przedmiotu dzia\u0142alno\u015bci (np. amenity=training + training=*, amenity=dancing_school, amenity=language_school, amenity=music_school)"
            }
        },
        {
            "id": 27417,
            "type": "Feature",
            "geometry": {
                "type": "Point",
                "coordinates": [
                    17.93352,
                    51.42753
                ]
            },
            "properties": {
                "ref:rspo": 27417,
                "official_name": "Nova Centrum Szko\u0142a J\u0119zyk\u00f3w Obcych w Ostrzeszowie",
                "name": "Nova Centrum Szko\u0142a J\u0119zyk\u00f3w Obcych w Ostrzeszowie",
                "addr:postcode": "63-500",
                "addr:city": "Ostrzesz\u00f3w",
                "addr:street": "Kaliska",
                "addr:housenumber": "10",
                "addr:city:simc": 937250,
                "addr:street:sym_ul": 7823,
                "phone": "+48 627301188",
                "email": "sekretariat@novacentrum.pl",
                "website": "http:\/\/www.novacentrum.pl",
                "ref:regon": "302238989",
                "ref:vatin": "PL6221471379",
                "operator": "Andrzej Lamek",
                "operator:type": "private",
                "fixme": "w zale\u017cno\u015bci od przedmiotu dzia\u0142alno\u015bci (np. amenity=training + training=*, amenity=dancing_school, amenity=language_school, amenity=music_school)"
            }
        },
        {
            "id": 43603,
            "type": "Feature",
            "geometry": {
                "type": "Point",
                "coordinates": [
                    17.92887,
                    51.42801
                ]
            },
            "properties": {
                "ref:rspo": 43603,
                "official_name": "Przedszkole Nr 1 Z Grup\u0105 \u017b\u0142obkow\u0105 w Ostrzeszowie",
                "name": "Przedszkole Nr 1 Z Grup\u0105 \u017b\u0142obkow\u0105 w Ostrzeszowie",
                "addr:postcode": "63-500",
                "addr:city": "Ostrzesz\u00f3w",
                "addr:street": "Norweska",
                "addr:housenumber": "1",
                "addr:city:simc": 937250,
                "addr:street:sym_ul": 14316,
                "phone": "+48 627320642",
                "email": "przedszkole-ostrzeszow@wp.pl",
                "ref:regon": "250023295",
                "operator": "Gmina Ostrzesz\u00f3w",
                "operator:type": "government",
                "amenity": "kindergarten"
            }
        },
        {
            "id": 31590,
            "type": "Feature",
            "geometry": {
                "type": "Point",
                "coordinates": [
                    17.92409,
                    51.42814
                ]
            },
            "properties": {
                "ref:rspo": 31590,
                "official_name": "Pa\u0144stwowa Szko\u0142a Muzyczna I St. im. Fryderyka Chopina w Ostrzeszowie",
                "name": "Pa\u0144stwowa Szko\u0142a Muzyczna I St.",
                "addr:postcode": "63-500",
                "addr:city": "Ostrzesz\u00f3w",
                "addr:street": "Zamkowa",
                "addr:housenumber": "37a",
                "addr:city:simc": 937250,
                "addr:street:sym_ul": 25547,
                "phone": "+48 627301538",
                "email": "psm.ostrzeszow@hot.pl",
                "website": "http:\/\/psmostrzeszow.pl",
                "ref:regon": "001270569",
                "operator": "Ministerstwo Kultury I Dziedzictwa Narodowego",
                "operator:type": "public",
                "amenity": "music_school"
            }
        },
        {
            "id": 43607,
            "type": "Feature",
            "geometry": {
                "type": "Point",
                "coordinates": [
                    17.920890808106,
                    51.428371429443
                ]
            },
            "properties": {
                "ref:rspo": 43607,
                "official_name": "Przedszkole Nr 6 im. Misia Uszatka w Ostrzeszowie",
                "name": "Przedszkole Nr 6",
                "addr:postcode": "63-500",
                "addr:city": "Ostrzesz\u00f3w",
                "addr:street": "Zielona",
                "addr:housenumber": "4",
                "addr:city:simc": 937250,
                "addr:street:sym_ul": 26081,
                "phone": "+48 627320645",
                "email": "przedszkole6.ostrzeszow@autograf.pl",
                "ref:regon": "250023289",
                "operator": "Gmina Ostrzesz\u00f3w",
                "operator:type": "government",
                "amenity": "kindergarten"
            }
        },
        {
            "id": 43610,
            "type": "Feature",
            "geometry": {
                "type": "Point",
                "coordinates": [
                    17.920890808106,
                    51.428341429442995
                ]
            },
            "properties": {
                "ref:rspo": 43610,
                "official_name": "Publiczne Przedszkole Si\u00f3str Nazaretanek im. Dzieci\u0105tka Jezus",
                "name": "Publiczne Przedszkole Si\u00f3str Nazaretanek",
                "addr:postcode": "63-500",
                "addr:city": "Ostrzesz\u00f3w",
                "addr:street": "Le\u015bna",
                "addr:housenumber": "5",
                "addr:city:simc": 937250,
                "addr:street:sym_ul": 10898,
                "phone": "+48 627322760",
                "email": "przedszkolenazaretu@ostrzeszow.pl",
                "ref:regon": "302274761",
                "operator": "Zg.ss.naj\u015bwi\u0119tszej Rodziny Z Nazaretu, Prowincja Warszawska",
                "operator:type": "religious",
                "amenity": "kindergarten"
            }
        },
        {
            "id": 266051,
            "type": "Feature",
            "geometry": {
                "type": "Point",
                "coordinates": [
                    17.9339,
                    51.42987
                ]
            },
            "properties": {
                "ref:rspo": 266051,
                "official_name": "Bajlandia Niepubliczne Przedszkole I Klub Malucha S.c. Sylwia Szygenda I Ewelina Chabierska",
                "name": "Bajlandia Niepubliczne Przedszkole I Klub Malucha S.c. Sylwia Szygenda I Ewelina Chabierska",
                "addr:postcode": "63-500",
                "addr:city": "Ostrzesz\u00f3w",
                "addr:street": "Armii Krajowej",
                "addr:housenumber": "1",
                "addr:city:simc": 937250,
                "addr:street:sym_ul": 432,
                "phone": "+48 609126024",
                "email": "bajlandia2016@wp.pl",
                "ref:regon": "369206419",
                "operator": "Fundacja Bajlandia",
                "operator:type": "ngo",
                "amenity": "kindergarten"
            }
        },
        {
            "id": 277590,
            "type": "Feature",
            "geometry": {
                "type": "Point",
                "coordinates": [
                    17.96639,
                    51.477886
                ]
            },
            "properties": {
                "ref:rspo": 277590,
                "official_name": "Zesp\u00f3\u0142 Szkolno-Przedszkolny w Siedlikowie",
                "name": "Zesp\u00f3\u0142 Szkolno-Przedszkolny w Siedlikowie",
                "addr:postcode": "63-500",
                "addr:place": "Siedlik\u00f3w",
                "addr:housenumber": "58d",
                "addr:city:simc": 206492,
                "phone": "+48 627307585",
                "email": "spsiedlikow@poczta.onet.pl",
                "website": "http:\/\/spsiedlikow.szkolnastrona.pl\/",
                "ref:regon": "389163278",
                "operator": "Gmina Ostrzesz\u00f3w",
                "operator:type": "government",
                "landuse": "education",
                "fixme": "amenity=school, amenity=college albo landuse=education w zale\u017cno\u015bci od tego, jakie plac\u00f3wki wchodz\u0105 w sk\u0142ad zespo\u0142u. Sprawd\u017a, kiedy stosowa\u0107 amenity=* a kiedy landuse=education.",
                "note": "Children RSPO: 43592;277587"
            }
        },
        {
            "id": 43592,
            "type": "Feature",
            "geometry": {
                "type": "Point",
                "coordinates": [
                    17.96639,
                    51.477855999999996
                ]
            },
            "properties": {
                "isced:level": "1;2",
                "ref:rspo": 43592,
                "official_name": "Szko\u0142a Podstawowa im. Stanis\u0142awa Miko\u0142ajczyka w Siedlikowie",
                "name": "Szko\u0142a Podstawowa",
                "addr:postcode": "63-500",
                "addr:place": "Siedlik\u00f3w",
                "addr:housenumber": "58d",
                "addr:city:simc": 206492,
                "phone": "+48 627307585",
                "email": "spsiedlikow@poczta.onet.pl",
                "ref:regon": "001046820",
                "operator": "Gmina Ostrzesz\u00f3w",
                "operator:type": "government",
                "amenity": "school",
                "note": "Parent RSPO: 277590"
            }
        },
        {
            "id": 277587,
            "type": "Feature",
            "geometry": {
                "type": "Point",
                "coordinates": [
                    17.96639,
                    51.477826
                ]
            },
            "properties": {
                "ref:rspo": 277587,
                "official_name": "Przedszkole w Siedlikowie",
                "name": "Przedszkole w Siedlikowie",
                "addr:postcode": "63-500",
                "addr:place": "Siedlik\u00f3w",
                "addr:housenumber": "58d",
                "addr:city:simc": 206492,
                "phone": "+48 627307585",
                "ref:regon": "389161747",
                "operator": "Gmina Ostrzesz\u00f3w",
                "operator:type": "government",
                "amenity": "kindergarten",
                "note": "Parent RSPO: 277590"
            }
        },
        {
            "id": 43591,
            "type": "Feature",
            "geometry": {
                "type": "Point",
                "coordinates": [
                    17.79858,
                    51.47906
                ]
            },
            "properties": {
                "isced:level": "1;2",
                "ref:rspo": 43591,
                "official_name": "Szko\u0142a Podstawowa w Szklarce Przygodzickiej",
                "name": "Szko\u0142a Podstawowa w Szklarce Przygodzickiej",
                "addr:postcode": "63-500",
                "addr:place": "Szklarka Przygodzicka",
                "addr:housenumber": "53a",
                "addr:city:simc": 206575,
                "phone": "+48 627320659",
                "email": "spszklarkap@onet.pl",
                "website": "http:\/\/www.spszklarkap.edu.pl",
                "ref:regon": "001173949",
                "operator": "Gmina Ostrzesz\u00f3w",
                "operator:type": "government",
                "amenity": "school"
            }
        },
        {
            "id": 43599,
            "type": "Feature",
            "geometry": {
                "type": "Point",
                "coordinates": [
                    17.877116,
                    51.4826849
                ]
            },
            "properties": {
                "isced:level": "1;2",
                "ref:rspo": 43599,
                "official_name": "Szko\u0142a Podstawowa im. Kornela Makuszy\u0144skiego w Nied\u017awiedziu",
                "name": "Szko\u0142a Podstawowa",
                "addr:postcode": "63-500",
                "addr:place": "Nied\u017awied\u017a",
                "addr:housenumber": "18",
                "addr:city:simc": 206316,
                "phone": "+48 627320652",
                "email": "niedzwiedzsp@wp.pl",
                "website": "http:\/\/niedzwiedzsp.szkolnastrona.pl",
                "ref:regon": "001046808",
                "operator": "Gmina Ostrzesz\u00f3w",
                "operator:type": "government",
                "amenity": "school"
            }
        }
    ]
}