{
    "type": "FeatureCollection",
    "features": [
        {
            "id": 51435,
            "type": "Feature",
            "geometry": {
                "type": "Point",
                "coordinates": [
                    18.1616723,
                    51.4497865
                ]
            },
            "properties": {
                "isced:level": "1;2",
                "ref:rspo": 51435,
                "official_name": "Szko\u0142a Podstawowa w Bobrownikach",
                "name": "Szko\u0142a Podstawowa w Bobrownikach",
                "addr:postcode": "63-520",
                "addr:place": "Bobrowniki",
                "addr:housenumber": "25",
                "addr:teryt:simc": 198597,
                "phone": "+48 627305132",
                "email": "spbobrowniki@op.pl",
                "ref:regon": "302250878",
                "ref:vatin": "PL5140207933",
                "operator": "Stowarzyszenie Rozwoju Wsi Bobrowniki",
                "operator:type": "ngo",
                "amenity": "school"
            }
        },
        {
            "id": 35152,
            "type": "Feature",
            "geometry": {
                "type": "Point",
                "coordinates": [
                    18.0893934,
                    51.4621156
                ]
            },
            "properties": {
                "isced:level": "1;2",
                "ref:rspo": 35152,
                "official_name": "Szko\u0142a Podstawowa w Marsza\u0142kach",
                "name": "Szko\u0142a Podstawowa w Marsza\u0142kach",
                "addr:postcode": "63-520",
                "addr:place": "Marsza\u0142ki",
                "addr:housenumber": "30",
                "addr:teryt:simc": 198918,
                "phone": "+48 627305238",
                "email": "marszalki1@poczta.onet.pl",
                "ref:regon": "001229012",
                "ref:vatin": "PL5140202812",
                "operator": "Miasto I Gmina Grab\u00f3w Nad Prosn\u0105",
                "operator:type": "government",
                "amenity": "school"
            }
        },
        {
            "id": 35153,
            "type": "Feature",
            "geometry": {
                "type": "Point",
                "coordinates": [
                    18.05252,
                    51.46905
                ]
            },
            "properties": {
                "isced:level": "1;2",
                "ref:rspo": 35153,
                "official_name": "Szko\u0142a Podstawowa im. Jana Paw\u0142a II w Bukownicy",
                "name": "Szko\u0142a Podstawowa",
                "addr:postcode": "63-520",
                "addr:place": "Bukownica",
                "addr:housenumber": "39",
                "addr:teryt:simc": 198634,
                "phone": "+48 627309496",
                "email": "spbukownica@poczta.onet.pl",
                "ref:regon": "001229006",
                "ref:vatin": "PL5140202829",
                "operator": "Miasto I Gmina Grab\u00f3w Nad Prosn\u0105",
                "operator:type": "government",
                "amenity": "school"
            }
        },
        {
            "id": 121600,
            "type": "Feature",
            "geometry": {
                "type": "Point",
                "coordinates": [
                    18.1058999,
                    51.50571
                ]
            },
            "properties": {
                "ref:rspo": 121600,
                "official_name": "Niepubliczne Przedszkole Kolorowe Drzewo",
                "name": "Niepubliczne Przedszkole Kolorowe Drzewo",
                "addr:postcode": "63-520",
                "addr:city": "Grab\u00f3w nad Prosn\u0105",
                "addr:street": "Ostrzeszowska",
                "addr:housenumber": "6d",
                "addr:teryt:simc": 936760,
                "addr:teryt:sym_ul": 15414,
                "phone": "+48 516132565",
                "email": "kolorowedrzewo@onet.pl",
                "website": "http:\/\/www.kolorowedrzewo.pl",
                "ref:regon": "302630888",
                "ref:vatin": "PL5140335513",
                "operator": "Przedszkole Niepubliczne Kolorowe Drzewo Angelika Dytfeld,Marta Busz-\u0141acina Sp\u00f3\u0142ka Cywilna",
                "operator:type": "consortium",
                "amenity": "kindergarten"
            }
        },
        {
            "id": 26797,
            "type": "Feature",
            "geometry": {
                "type": "Point",
                "coordinates": [
                    18.10948,
                    51.50726
                ]
            },
            "properties": {
                "ref:rspo": 26797,
                "official_name": "Publiczne Przedszkole Si\u00f3str Salezjanek w Grabowie Nad Prosn\u0105",
                "name": "Publiczne Przedszkole Si\u00f3str Salezjanek w Grabowie Nad Prosn\u0105",
                "addr:postcode": "63-520",
                "addr:city": "Grab\u00f3w nad Prosn\u0105",
                "addr:street": "Ostrzeszowska",
                "addr:housenumber": "4",
                "addr:teryt:simc": 936760,
                "addr:teryt:sym_ul": 15414,
                "email": "pssgrabownp@gmail.com",
                "ref:regon": "302241589",
                "ref:vatin": "PL5140024842",
                "operator": "Zgromadzenie C\u00f3rek Maryi Wspomo\u017cycielki (Siostry Salezjanki) Inspektoria Wroc\u0142awska",
                "operator:type": "religious",
                "amenity": "kindergarten"
            }
        },
        {
            "id": 35151,
            "type": "Feature",
            "geometry": {
                "type": "Point",
                "coordinates": [
                    18.11184,
                    51.50952
                ]
            },
            "properties": {
                "isced:level": "1;2",
                "ref:rspo": 35151,
                "official_name": "Szko\u0142a Podstawowa im. Unicef w Grabowie Nad Prosn\u0105",
                "name": "Szko\u0142a Podstawowa",
                "addr:postcode": "63-520",
                "addr:city": "Grab\u00f3w nad Prosn\u0105",
                "addr:street": "Szkolna",
                "addr:housenumber": "1",
                "addr:teryt:simc": 936760,
                "addr:teryt:sym_ul": 21970,
                "phone": "+48 627305055",
                "email": "sp_grabow@op.pl",
                "website": "http:\/\/www.sp.grabow.szkolnastrona.pl",
                "ref:regon": "000261746",
                "ref:vatin": "PL5140129713",
                "operator": "Miasto I Gmina Grab\u00f3w Nad Prosn\u0105",
                "operator:type": "government",
                "amenity": "school"
            }
        },
        {
            "id": 275097,
            "type": "Feature",
            "geometry": {
                "type": "Point",
                "coordinates": [
                    18.11827,
                    51.51626
                ]
            },
            "properties": {
                "ref:rspo": 275097,
                "official_name": "Centrum Kszta\u0142cenia Zawodowego Combat Grab\u00f3w",
                "name": "Centrum Kszta\u0142cenia Zawodowego Combat Grab\u00f3w",
                "addr:postcode": "63-520",
                "addr:place": "Grab\u00f3w-W\u00f3jtostwo",
                "addr:housenumber": "2",
                "addr:teryt:simc": 198812,
                "email": "z_tarchalski@vp.pl",
                "ref:regon": "386569235",
                "operator": "Zbigniew Tarchalski",
                "operator:type": "private",
                "fixme": "w zale\u017cno\u015bci od przedmiotu dzia\u0142alno\u015bci (np. amenity=training + training=*, amenity=dancing_school, amenity=language_school, amenity=music_school)"
            }
        }
    ]
}