{
    "type": "FeatureCollection",
    "features": [
        {
            "id": 3034,
            "type": "Feature",
            "geometry": {
                "type": "Point",
                "coordinates": [
                    18.0477406,
                    51.5296018
                ]
            },
            "properties": {
                "isced:level": "1;2",
                "ref:rspo": 3034,
                "official_name": "Szko\u0142a Podstawowa Z Oddzia\u0142em Przedszkolnym w Kaliszkowicach Kaliskich",
                "name": "Szko\u0142a Podstawowa Z Oddzia\u0142em Przedszkolnym w Kaliszkowicach Kaliskich",
                "addr:postcode": "63-510",
                "addr:place": "Kaliszkowice Kaliskie",
                "addr:housenumber": "38",
                "addr:city:simc": 203795,
                "phone": "+48 627310438",
                "email": "sp_kal_kal@wp.pl",
                "ref:regon": "001228975",
                "ref:vatin": "PL5140139456",
                "operator": "Miasto I Gmina Mikstat",
                "operator:type": "government",
                "amenity": "school"
            }
        },
        {
            "id": 3387,
            "type": "Feature",
            "geometry": {
                "type": "Point",
                "coordinates": [
                    17.9758,
                    51.5336
                ]
            },
            "properties": {
                "isced:level": "1;2",
                "ref:rspo": 3387,
                "official_name": "Szko\u0142a Podstawowa im. Ewarysta Estkowskiego w Mikstacie",
                "name": "Szko\u0142a Podstawowa",
                "addr:postcode": "63-510",
                "addr:city": "Mikstat",
                "addr:street": "Grabowska",
                "addr:housenumber": "13",
                "addr:city:simc": 937066,
                "addr:street:sym_ul": 6038,
                "phone": "+48 627310025",
                "email": "sp@mikstat.pl",
                "website": "http:\/\/www.spmikstat.szkolnastrona.pl",
                "ref:regon": "000562175",
                "ref:vatin": "PL5140140471",
                "operator": "Miasto I Gmina Mikstat",
                "operator:type": "government",
                "amenity": "school"
            }
        },
        {
            "id": 2952,
            "type": "Feature",
            "geometry": {
                "type": "Point",
                "coordinates": [
                    17.9759,
                    51.5345299
                ]
            },
            "properties": {
                "ref:rspo": 2952,
                "official_name": "Publiczne Przedszkole w Mikstacie",
                "name": "Publiczne Przedszkole w Mikstacie",
                "addr:postcode": "63-510",
                "addr:city": "Mikstat",
                "addr:street": "Estkowskiego",
                "addr:housenumber": "11",
                "addr:city:simc": 937066,
                "addr:street:sym_ul": 33783,
                "phone": "+48 627310054",
                "email": "przedszkolemikstat@o2.pl",
                "ref:regon": "251595935",
                "ref:vatin": "PL5140139491",
                "operator": "Miasto I Gmina Mikstat",
                "operator:type": "government",
                "amenity": "kindergarten"
            }
        },
        {
            "id": 3418,
            "type": "Feature",
            "geometry": {
                "type": "Point",
                "coordinates": [
                    18.048239,
                    51.544858
                ]
            },
            "properties": {
                "isced:level": "1;2",
                "ref:rspo": 3418,
                "official_name": "Szko\u0142a Podstawowa Z Oddzia\u0142em Przedszkolnym w Kaliszkowicach O\u0142obockich",
                "name": "Szko\u0142a Podstawowa Z Oddzia\u0142em Przedszkolnym w Kaliszkowicach O\u0142obockich",
                "addr:postcode": "63-510",
                "addr:place": "Kaliszkowice O\u0142obockie",
                "addr:housenumber": "1",
                "addr:city:simc": 203849,
                "phone": "+48 627310248",
                "email": "sp_ko@mikstat.pl",
                "ref:regon": "001228969",
                "ref:vatin": "PL5140139700",
                "operator": "Miasto I Gmina Mikstat",
                "operator:type": "government",
                "amenity": "school"
            }
        },
        {
            "id": 4610,
            "type": "Feature",
            "geometry": {
                "type": "Point",
                "coordinates": [
                    17.9956568,
                    51.5581539
                ]
            },
            "properties": {
                "isced:level": "1;2",
                "ref:rspo": 4610,
                "official_name": "Szko\u0142a Podstawowa im. Ludwiki Wawrzy\u0144skiej Z Oddzia\u0142em Przedszkolnym w Biskupicach Zabarycznych",
                "name": "Szko\u0142a Podstawowa",
                "addr:postcode": "63-510",
                "addr:place": "Biskupice Zabaryczne",
                "addr:housenumber": "48",
                "addr:city:simc": 203750,
                "phone": "+48 627310393",
                "email": "biskupice@wp.pl",
                "ref:regon": "001228930",
                "ref:vatin": "PL5140139551",
                "operator": "Miasto I Gmina Mikstat",
                "operator:type": "government",
                "amenity": "school"
            }
        }
    ]
}