{
    "type": "FeatureCollection",
    "features": [
        {
            "id": 26479,
            "type": "Feature",
            "geometry": {
                "type": "Point",
                "coordinates": [
                    16.5584,
                    51.8174599
                ]
            },
            "properties": {
                "isced:level": "1;2",
                "ref:rspo": 26479,
                "official_name": "Szko\u0142a Podstawowa Nr 4 im. Adama Mickiewicza",
                "name": "Szko\u0142a Podstawowa Nr 4",
                "addr:country": "PL",
                "addr:postcode": "64-100",
                "addr:city": "Leszno",
                "addr:street": "Henrykowska",
                "addr:housenumber": "1",
                "addr:teryt:simc": 6607,
                "addr:teryt:sym_ul": 954225,
                "contact:phone": "+48 655270011",
                "contact:email": "sekretariat@sp4leszno.pl",
                "ref:regon": "000739544",
                "ref:vatin": "PL6971619774",
                "operator": "Leszno-Miasto Na Prawach Powiatu",
                "operator:type": "government",
                "amenity": "school"
            }
        },
        {
            "id": 47602,
            "type": "Feature",
            "geometry": {
                "type": "Point",
                "coordinates": [
                    16.58367,
                    51.82013
                ]
            },
            "properties": {
                "ref:rspo": 47602,
                "official_name": "Przedszkole Miejskie Nr 12 w Lesznie",
                "name": "Przedszkole Miejskie Nr 12 w Lesznie",
                "addr:country": "PL",
                "addr:postcode": "64-100",
                "addr:city": "Leszno",
                "addr:street": "Czarnoleska",
                "addr:housenumber": "1",
                "addr:teryt:simc": 3296,
                "addr:teryt:sym_ul": 954225,
                "contact:phone": "+48 655270076",
                "contact:email": "przedszkole12leszno@wp.pl",
                "ref:regon": "411423700",
                "ref:vatin": "PL6972064628",
                "operator": "Leszno-Miasto Na Prawach Powiatu",
                "operator:type": "government",
                "amenity": "kindergarten"
            }
        },
        {
            "id": 58244,
            "type": "Feature",
            "geometry": {
                "type": "Point",
                "coordinates": [
                    16.59658,
                    51.8293
                ]
            },
            "properties": {
                "isced:level": "4",
                "ref:rspo": 58244,
                "official_name": "Niepubliczna Szko\u0142a Policealna Teb Edukacja w Lesznie",
                "name": "Niepubliczna Szko\u0142a Policealna Teb Edukacja w Lesznie",
                "addr:country": "PL",
                "addr:postcode": "64-100",
                "addr:city": "Leszno",
                "addr:street": "17 Stycznia",
                "addr:housenumber": "90",
                "addr:teryt:simc": 21445,
                "addr:teryt:sym_ul": 954225,
                "contact:phone": "+48 656198010",
                "contact:email": "leszno@teb.pl",
                "ref:regon": "302261267",
                "ref:vatin": "PL7781456499",
                "operator": "Teb Edukacja Sp\u00f3\u0142ka Z Ograniczon\u0105 Odpowiedzialno\u015bci\u0105",
                "operator:type": "private",
                "amenity": "college"
            }
        },
        {
            "id": 73516,
            "type": "Feature",
            "geometry": {
                "type": "Point",
                "coordinates": [
                    16.59658,
                    51.82927
                ]
            },
            "properties": {
                "ref:rspo": 73516,
                "official_name": "Teb Edukacja Studium Kszta\u0142cenia Ustawicznego",
                "name": "Teb Edukacja Studium Kszta\u0142cenia Ustawicznego",
                "addr:country": "PL",
                "addr:postcode": "64-100",
                "addr:city": "Leszno",
                "addr:street": "17 Stycznia",
                "addr:housenumber": "90",
                "addr:teryt:simc": 21445,
                "addr:teryt:sym_ul": 954225,
                "contact:phone": "+48 656198010",
                "contact:email": "leszno@teb.pl",
                "ref:regon": "302262172",
                "ref:vatin": "PL7781456499",
                "operator": "Teb Edukacja Sp\u00f3\u0142ka Z Ograniczon\u0105 Odpowiedzialno\u015bci\u0105",
                "operator:type": "private",
                "fixme": "w zale\u017cno\u015bci od przedmiotu dzia\u0142alno\u015bci (np. amenity=training + training=*, amenity=dancing_school, amenity=language_school, amenity=music_school)"
            }
        },
        {
            "id": 74710,
            "type": "Feature",
            "geometry": {
                "type": "Point",
                "coordinates": [
                    16.59658,
                    51.829240000000006
                ]
            },
            "properties": {
                "isced:level": "3",
                "ref:rspo": 74710,
                "official_name": "Technikum Teb Edukacja w Lesznie",
                "name": "Technikum Teb Edukacja w Lesznie",
                "addr:country": "PL",
                "addr:postcode": "64-100",
                "addr:city": "Leszno",
                "addr:street": "17 Stycznia",
                "addr:housenumber": "90",
                "addr:teryt:simc": 21445,
                "addr:teryt:sym_ul": 954225,
                "contact:phone": "+48 656198013",
                "contact:email": "sekretariat-leszno@teb-edukacja.pl",
                "ref:regon": "302262060",
                "ref:vatin": "PL7781456499",
                "operator": "Teb Edukacja Sp\u00f3\u0142ka Z Ograniczon\u0105 Odpowiedzialno\u015bci\u0105",
                "operator:type": "private",
                "amenity": "school"
            }
        },
        {
            "id": 83535,
            "type": "Feature",
            "geometry": {
                "type": "Point",
                "coordinates": [
                    16.59658,
                    51.82921
                ]
            },
            "properties": {
                "ref:rspo": 83535,
                "official_name": "Stowarzyszenie Ksi\u0119gowych w Polsce Oddzia\u0142 Terenowy w Lesznie Oddzia\u0142u Wielkopolskiego w Poznaniu",
                "name": "Stowarzyszenie Ksi\u0119gowych w Polsce Oddzia\u0142 Terenowy w Lesznie Oddzia\u0142u Wielkopolskiego w Poznaniu",
                "addr:country": "PL",
                "addr:postcode": "64-100",
                "addr:city": "Leszno",
                "addr:street": "17 Stycznia",
                "addr:housenumber": "90",
                "addr:door": "21",
                "addr:teryt:simc": 21445,
                "addr:teryt:sym_ul": 954225,
                "contact:phone": "+48 655205512",
                "contact:email": "leszno@skwp.leszno.pl",
                "ref:regon": "302266655",
                "ref:vatin": "PL5260307956",
                "operator": "Stowarzyszenie Ksi\u0119gowych W Polsce",
                "operator:type": "ngo",
                "fixme": "w zale\u017cno\u015bci od przedmiotu dzia\u0142alno\u015bci (np. amenity=training + training=*, amenity=dancing_school, amenity=language_school, amenity=music_school)"
            }
        },
        {
            "id": 272451,
            "type": "Feature",
            "geometry": {
                "type": "Point",
                "coordinates": [
                    16.59658,
                    51.82918
                ]
            },
            "properties": {
                "ref:rspo": 272451,
                "official_name": "Szko\u0142a J\u0119zykowa Dual Tomasz Smoczyk",
                "name": "Szko\u0142a J\u0119zykowa Dual Tomasz Smoczyk",
                "addr:country": "PL",
                "addr:postcode": "64-100",
                "addr:city": "Leszno",
                "addr:street": "17 Stycznia",
                "addr:housenumber": "90",
                "addr:teryt:simc": 21445,
                "addr:teryt:sym_ul": 954225,
                "contact:email": "office@dual.edu.pl",
                "contact:website": "http:\/\/www.dual.edu.pl",
                "ref:regon": "384179174",
                "operator": "Tomasz Smoczyk",
                "operator:type": "private",
                "fixme": "w zale\u017cno\u015bci od przedmiotu dzia\u0142alno\u015bci (np. amenity=training + training=*, amenity=dancing_school, amenity=language_school, amenity=music_school)"
            }
        },
        {
            "id": 274408,
            "type": "Feature",
            "geometry": {
                "type": "Point",
                "coordinates": [
                    16.59658,
                    51.829150000000006
                ]
            },
            "properties": {
                "ref:rspo": 274408,
                "official_name": "Niepubliczne Przedszkole Drugie Kroczki Mariusz Mania",
                "name": "Niepubliczne Przedszkole Drugie Kroczki Mariusz Mania",
                "addr:country": "PL",
                "addr:postcode": "64-100",
                "addr:city": "Leszno",
                "addr:street": "17 Stycznia",
                "addr:housenumber": "90",
                "addr:teryt:simc": 21445,
                "addr:teryt:sym_ul": 954225,
                "contact:email": "drugie.kroczki.przedszkole@gmail.com",
                "ref:regon": "385717946",
                "ref:vatin": "PL6972195968",
                "operator": "Mariusz Mania",
                "operator:type": "private",
                "amenity": "kindergarten"
            }
        },
        {
            "id": 73502,
            "type": "Feature",
            "geometry": {
                "type": "Point",
                "coordinates": [
                    16.60082,
                    51.82952
                ]
            },
            "properties": {
                "ref:rspo": 73502,
                "official_name": "Prywatne Przedszkole Niepubliczne Nr 2 w Lesznie",
                "name": "Prywatne Przedszkole Niepubliczne Nr 2 w Lesznie",
                "addr:country": "PL",
                "addr:postcode": "64-100",
                "addr:city": "Leszno",
                "addr:street": "Tadeusza Rejtana",
                "addr:housenumber": "43",
                "addr:teryt:simc": 18575,
                "addr:teryt:sym_ul": 954225,
                "contact:phone": "+48 723257211",
                "contact:email": "lucyna-machowiak@wp.pl",
                "ref:regon": "302261830",
                "ref:vatin": "PL6971857568",
                "operator": "Lucyna Machowiak",
                "operator:type": "private",
                "amenity": "kindergarten"
            }
        },
        {
            "id": 127907,
            "type": "Feature",
            "geometry": {
                "type": "Point",
                "coordinates": [
                    16.60164,
                    51.82988
                ]
            },
            "properties": {
                "isced:level": "1;2",
                "ref:rspo": 127907,
                "official_name": "Niepubliczna Specjalna Szko\u0142a Podstawowa Totus Tuus",
                "name": "Niepubliczna Specjalna Szko\u0142a Podstawowa Totus Tuus",
                "addr:country": "PL",
                "addr:postcode": "64-100",
                "addr:city": "Leszno",
                "addr:street": "Tadeusza Rejtana",
                "addr:housenumber": "37",
                "addr:teryt:simc": 18575,
                "addr:teryt:sym_ul": 954225,
                "contact:phone": "+48 785720202",
                "contact:email": "sekretariat.szkolaaac@wp.pl",
                "contact:website": "http:\/\/www.szkolaspecjalnaleszno.pl",
                "ref:regon": "361959390",
                "ref:vatin": "PL9231583650",
                "operator": "Agnieszka Kra\u015bner",
                "operator:type": "private",
                "amenity": "school"
            }
        },
        {
            "id": 5261,
            "type": "Feature",
            "geometry": {
                "type": "Point",
                "coordinates": [
                    16.57931,
                    51.83097
                ]
            },
            "properties": {
                "ref:rspo": 5261,
                "official_name": "Zesp\u00f3\u0142 Szk\u00f3\u0142 Rolniczo-Budowlanych im. \"Syn\u00f3w Pu\u0142ku\"",
                "name": "Zesp\u00f3\u0142 Szk\u00f3\u0142 Rolniczo-Budowlanych",
                "addr:country": "PL",
                "addr:postcode": "64-100",
                "addr:city": "Leszno",
                "addr:street": "1 Maja",
                "addr:housenumber": "1",
                "addr:teryt:simc": 11926,
                "addr:teryt:sym_ul": 954225,
                "contact:phone": "+48 655299430",
                "contact:email": "sekretariat@zsrb.leszno.pl",
                "contact:website": "http:\/\/www.zsrb.leszno.pl",
                "ref:regon": "000098460",
                "ref:vatin": "PL6971015237",
                "operator": "Leszno-Miasto Na Prawach Powiatu",
                "operator:type": "government",
                "landuse": "education",
                "fixme": "amenity=school, amenity=college albo landuse=education w zale\u017cno\u015bci od tego, jakie plac\u00f3wki wchodz\u0105 w sk\u0142ad zespo\u0142u. Sprawd\u017a, kiedy stosowa\u0107 amenity=* a kiedy landuse=education.",
                "note": "Children RSPO: 55838;55839"
            }
        },
        {
            "id": 55838,
            "type": "Feature",
            "geometry": {
                "type": "Point",
                "coordinates": [
                    16.57931,
                    51.83094
                ]
            },
            "properties": {
                "isced:level": "3",
                "ref:rspo": 55838,
                "official_name": "Szko\u0142a Bran\u017cowa I Stopnia Nr 3 w Lesznie",
                "name": "Szko\u0142a Bran\u017cowa I Stopnia Nr 3 w Lesznie",
                "addr:country": "PL",
                "addr:postcode": "64-100",
                "addr:city": "Leszno",
                "addr:street": "1 Maja",
                "addr:housenumber": "1",
                "addr:teryt:simc": 11926,
                "addr:teryt:sym_ul": 954225,
                "contact:phone": "+48 655299430",
                "contact:email": "sekretariat@zsrb.leszno.pl",
                "ref:regon": "411494780",
                "ref:vatin": "PL6971015237",
                "operator": "Leszno-Miasto Na Prawach Powiatu",
                "operator:type": "government",
                "amenity": "school",
                "note": "Parent RSPO: 5261"
            }
        },
        {
            "id": 55839,
            "type": "Feature",
            "geometry": {
                "type": "Point",
                "coordinates": [
                    16.57931,
                    51.83091
                ]
            },
            "properties": {
                "isced:level": "3",
                "ref:rspo": 55839,
                "official_name": "Technikum Nr 3 w Lesznie",
                "name": "Technikum Nr 3 w Lesznie",
                "addr:country": "PL",
                "addr:postcode": "64-100",
                "addr:city": "Leszno",
                "addr:street": "1 Maja",
                "addr:housenumber": "1",
                "addr:teryt:simc": 11926,
                "addr:teryt:sym_ul": 954225,
                "contact:phone": "+48 655299430",
                "contact:email": "sekretariat@zsrb.leszno.pl",
                "ref:regon": "301183967",
                "ref:vatin": "PL6971015237",
                "operator": "Leszno-Miasto Na Prawach Powiatu",
                "operator:type": "government",
                "amenity": "school",
                "note": "Parent RSPO: 5261"
            }
        },
        {
            "id": 55864,
            "type": "Feature",
            "geometry": {
                "type": "Point",
                "coordinates": [
                    16.57931,
                    51.83088
                ]
            },
            "properties": {
                "ref:rspo": 55864,
                "official_name": "Szko\u0142a Przysposabiaj\u0105ca Do Pracy",
                "name": "Szko\u0142a Przysposabiaj\u0105ca Do Pracy",
                "addr:country": "PL",
                "addr:postcode": "64-100",
                "addr:city": "Leszno",
                "addr:street": "1 Maja",
                "addr:housenumber": "1",
                "addr:teryt:simc": 11926,
                "addr:teryt:sym_ul": 954225,
                "contact:phone": "+48 655204004",
                "contact:email": "sekretariat@zss-leszno.pl",
                "ref:regon": "300031072",
                "ref:vatin": "PL6971905184",
                "operator": "Leszno-Miasto Na Prawach Powiatu",
                "operator:type": "government",
                "amenity": "school",
                "note": "Parent RSPO: 5703"
            }
        },
        {
            "id": 55866,
            "type": "Feature",
            "geometry": {
                "type": "Point",
                "coordinates": [
                    16.57931,
                    51.83085
                ]
            },
            "properties": {
                "isced:level": "3",
                "ref:rspo": 55866,
                "official_name": "Bran\u017cowa Szko\u0142a I Stopnia",
                "name": "Bran\u017cowa Szko\u0142a I Stopnia",
                "addr:country": "PL",
                "addr:postcode": "64-100",
                "addr:city": "Leszno",
                "addr:street": "1 Maja",
                "addr:housenumber": "1",
                "addr:teryt:simc": 11926,
                "addr:teryt:sym_ul": 954225,
                "contact:phone": "+48 655204004",
                "contact:email": "sekretariat@zss-leszno.pl",
                "ref:regon": "411532204",
                "ref:vatin": "PL6971905184",
                "operator": "Leszno-Miasto Na Prawach Powiatu",
                "operator:type": "government",
                "amenity": "school",
                "note": "Parent RSPO: 5703"
            }
        },
        {
            "id": 28530,
            "type": "Feature",
            "geometry": {
                "type": "Point",
                "coordinates": [
                    16.60353,
                    51.83194
                ]
            },
            "properties": {
                "isced:level": "1;2",
                "ref:rspo": 28530,
                "official_name": "Szko\u0142a Podstawowa Nr 13 Z Oddzia\u0142ami Integracyjnymi im. Kr\u00f3la Stanis\u0142awa Leszczy\u0144skiego",
                "name": "Szko\u0142a Podstawowa Nr 13 Z Oddzia\u0142ami Integracyjnymi",
                "addr:country": "PL",
                "addr:postcode": "64-100",
                "addr:city": "Leszno",
                "addr:street": "Tadeusza Rejtana",
                "addr:housenumber": "1",
                "addr:teryt:simc": 18575,
                "addr:teryt:sym_ul": 954225,
                "contact:phone": "+48 655267595",
                "contact:email": "sp13leszno@poczta.onet.pl",
                "contact:website": "http:\/\/www.sp13.leszno.pl",
                "ref:regon": "410013956",
                "operator": "Leszno-Miasto Na Prawach Powiatu",
                "operator:type": "government",
                "amenity": "school"
            }
        },
        {
            "id": 72699,
            "type": "Feature",
            "geometry": {
                "type": "Point",
                "coordinates": [
                    16.60353,
                    51.83191
                ]
            },
            "properties": {
                "ref:rspo": 72699,
                "official_name": "Niepubliczna Plac\u00f3wka O\u015bwiatowo-Wychowawcza Centrum Kultury I Ta\u0144ca Hajdasz",
                "name": "Niepubliczna Plac\u00f3wka O\u015bwiatowo-Wychowawcza Centrum Kultury I Ta\u0144ca Hajdasz",
                "addr:country": "PL",
                "addr:postcode": "64-100",
                "addr:city": "Leszno",
                "addr:street": "Tadeusza Rejtana",
                "addr:housenumber": "1",
                "addr:teryt:simc": 18575,
                "addr:teryt:sym_ul": 954225,
                "contact:phone": "+48 618218757",
                "contact:email": "hajdasz@hajdasz.pl",
                "ref:regon": "302261652",
                "ref:vatin": "PL9720905018",
                "operator": "Jacek Hajdasz",
                "operator:type": "private",
                "fixme": "w zale\u017cno\u015bci od przedmiotu dzia\u0142alno\u015bci (np. amenity=training + training=*, amenity=dancing_school, amenity=language_school, amenity=music_school)"
            }
        },
        {
            "id": 276863,
            "type": "Feature",
            "geometry": {
                "type": "Point",
                "coordinates": [
                    16.60353,
                    51.831880000000005
                ]
            },
            "properties": {
                "isced:level": "4",
                "ref:rspo": 276863,
                "official_name": "Publiczna Szko\u0142a Policealna \"Pascal\" w Lesznie",
                "name": "Publiczna Szko\u0142a Policealna \"Pascal\" w Lesznie",
                "addr:country": "PL",
                "addr:postcode": "64-100",
                "addr:city": "Leszno",
                "addr:street": "Tadeusza Rejtana",
                "addr:housenumber": "1",
                "addr:teryt:simc": 18575,
                "addr:teryt:sym_ul": 954225,
                "contact:phone": "+48 653070200",
                "contact:email": "leszno@pascal.edu.pl",
                "contact:website": "http:\/\/www.pascal.edu.pl",
                "ref:regon": "387744634",
                "operator": "Federacja Niepublicznych Plac\u00f3wek O\u015bwiatowych Sp\u00f3\u0142ka Z Ograniczon\u0105 Odpowiedzialno\u015bci\u0105",
                "operator:type": "private",
                "amenity": "college"
            }
        },
        {
            "id": 277916,
            "type": "Feature",
            "geometry": {
                "type": "Point",
                "coordinates": [
                    16.60353,
                    51.83185
                ]
            },
            "properties": {
                "ref:rspo": 277916,
                "official_name": "Zesp\u00f3\u0142 Szk\u00f3\u0142 \"Pascal\" w Lesznie",
                "name": "Zesp\u00f3\u0142 Szk\u00f3\u0142 \"Pascal\" w Lesznie",
                "addr:country": "PL",
                "addr:postcode": "64-100",
                "addr:city": "Leszno",
                "addr:street": "Tadeusza Rejtana",
                "addr:housenumber": "1",
                "addr:teryt:simc": 18575,
                "addr:teryt:sym_ul": 954225,
                "contact:phone": "+48 223784630",
                "contact:email": "federacja@fnpo.pl",
                "contact:website": "http:\/\/pascal.edu.pl",
                "ref:regon": "389657626",
                "operator": "Federacja Niepublicznych Plac\u00f3wek O\u015bwiatowych Sp\u00f3\u0142ka Z Ograniczon\u0105 Odpowiedzialno\u015bci\u0105",
                "operator:type": "private",
                "landuse": "education",
                "fixme": "amenity=school, amenity=college albo landuse=education w zale\u017cno\u015bci od tego, jakie plac\u00f3wki wchodz\u0105 w sk\u0142ad zespo\u0142u. Sprawd\u017a, kiedy stosowa\u0107 amenity=* a kiedy landuse=education.",
                "note": "Children RSPO: 273299;273339;273500;273507"
            }
        },
        {
            "id": 273299,
            "type": "Feature",
            "geometry": {
                "type": "Point",
                "coordinates": [
                    16.60353,
                    51.83182
                ]
            },
            "properties": {
                "isced:level": "3",
                "ref:rspo": 273299,
                "official_name": "Liceum Og\u00f3lnokszta\u0142c\u0105ce dla Doros\u0142ych \"Pascal\" w Lesznie",
                "name": "Liceum Og\u00f3lnokszta\u0142c\u0105ce dla Doros\u0142ych \"Pascal\" w Lesznie",
                "addr:country": "PL",
                "addr:postcode": "64-100",
                "addr:city": "Leszno",
                "addr:street": "Tadeusza Rejtana",
                "addr:housenumber": "1",
                "addr:teryt:simc": 18575,
                "addr:teryt:sym_ul": 954225,
                "contact:phone": "+48 653070200",
                "contact:email": "leszno@pascal.edu.pl",
                "ref:regon": "384436168",
                "operator": "Federacja Niepublicznych Plac\u00f3wek O\u015bwiatowych Sp\u00f3\u0142ka Z Ograniczon\u0105 Odpowiedzialno\u015bci\u0105",
                "operator:type": "private",
                "amenity": "school",
                "note": "Parent RSPO: 277916"
            }
        },
        {
            "id": 273339,
            "type": "Feature",
            "geometry": {
                "type": "Point",
                "coordinates": [
                    16.60353,
                    51.831790000000005
                ]
            },
            "properties": {
                "isced:level": "4",
                "ref:rspo": 273339,
                "official_name": "Zaoczna Policealna Szko\u0142a Zawodowa \"Pascal\" w Lesznie",
                "name": "Zaoczna Policealna Szko\u0142a Zawodowa \"Pascal\" w Lesznie",
                "addr:country": "PL",
                "addr:postcode": "64-100",
                "addr:city": "Leszno",
                "addr:street": "Tadeusza Rejtana",
                "addr:housenumber": "1",
                "addr:teryt:simc": 18575,
                "addr:teryt:sym_ul": 954225,
                "contact:phone": "+48 653070200",
                "contact:email": "leszno@pascal.edu.pl",
                "ref:regon": "384448036",
                "operator": "Federacja Niepublicznych Plac\u00f3wek O\u015bwiatowych Sp\u00f3\u0142ka Z Ograniczon\u0105 Odpowiedzialno\u015bci\u0105",
                "operator:type": "private",
                "amenity": "college",
                "note": "Parent RSPO: 277916"
            }
        },
        {
            "id": 273500,
            "type": "Feature",
            "geometry": {
                "type": "Point",
                "coordinates": [
                    16.60353,
                    51.83176
                ]
            },
            "properties": {
                "isced:level": "4",
                "ref:rspo": 273500,
                "official_name": "Stacjonarna Policealna Szko\u0142a Medyczna \"Pascal\" w Lesznie",
                "name": "Stacjonarna Policealna Szko\u0142a Medyczna \"Pascal\" w Lesznie",
                "addr:country": "PL",
                "addr:postcode": "64-100",
                "addr:city": "Leszno",
                "addr:street": "Tadeusza Rejtana",
                "addr:housenumber": "1",
                "addr:teryt:simc": 18575,
                "addr:teryt:sym_ul": 954225,
                "contact:phone": "+48 653070200",
                "contact:email": "leszno@pascal.edu.pl",
                "ref:regon": "384482398",
                "operator": "Federacja Niepublicznych Plac\u00f3wek O\u015bwiatowych Sp\u00f3\u0142ka Z Ograniczon\u0105 Odpowiedzialno\u015bci\u0105",
                "operator:type": "private",
                "amenity": "college",
                "note": "Parent RSPO: 277916"
            }
        },
        {
            "id": 273507,
            "type": "Feature",
            "geometry": {
                "type": "Point",
                "coordinates": [
                    16.60353,
                    51.83173
                ]
            },
            "properties": {
                "isced:level": "4",
                "ref:rspo": 273507,
                "official_name": "Zaoczna Policealna Szko\u0142a Medyczna \"Pascal\" w Lesznie",
                "name": "Zaoczna Policealna Szko\u0142a Medyczna \"Pascal\" w Lesznie",
                "addr:country": "PL",
                "addr:postcode": "64-100",
                "addr:city": "Leszno",
                "addr:street": "Tadeusza Rejtana",
                "addr:housenumber": "1",
                "addr:teryt:simc": 18575,
                "addr:teryt:sym_ul": 954225,
                "contact:phone": "+48 653070200",
                "contact:email": "leszno@pascal.edu.pl",
                "ref:regon": "384482406",
                "operator": "Federacja Niepublicznych Plac\u00f3wek O\u015bwiatowych Sp\u00f3\u0142ka Z Ograniczon\u0105 Odpowiedzialno\u015bci\u0105",
                "operator:type": "private",
                "amenity": "college",
                "note": "Parent RSPO: 277916"
            }
        },
        {
            "id": 121655,
            "type": "Feature",
            "geometry": {
                "type": "Point",
                "coordinates": [
                    16.58341,
                    51.83259
                ]
            },
            "properties": {
                "ref:rspo": 121655,
                "official_name": "Micha\u0142 Nied\u017awiedzi\u0144ski Agencja Ochrony \"Glock\"",
                "name": "Micha\u0142 Nied\u017awiedzi\u0144ski Agencja Ochrony \"Glock\"",
                "addr:country": "PL",
                "addr:postcode": "64-100",
                "addr:city": "Leszno",
                "addr:street": "Strzelecka",
                "addr:housenumber": "7",
                "addr:door": "211",
                "addr:teryt:simc": 21381,
                "addr:teryt:sym_ul": 954225,
                "contact:phone": "+48 693864782",
                "contact:email": "gloock5@o2.pl",
                "contact:website": "http:\/\/www.agencjaglock.home.pl",
                "ref:regon": "302636514",
                "ref:vatin": "PL6971572883",
                "operator": "Micha\u0142 Nied\u017awiedzi\u0144ski",
                "operator:type": "private",
                "fixme": "w zale\u017cno\u015bci od przedmiotu dzia\u0142alno\u015bci (np. amenity=training + training=*, amenity=dancing_school, amenity=language_school, amenity=music_school)"
            }
        },
        {
            "id": 6936,
            "type": "Feature",
            "geometry": {
                "type": "Point",
                "coordinates": [
                    16.59283,
                    51.83366
                ]
            },
            "properties": {
                "isced:level": "3",
                "ref:rspo": 6936,
                "official_name": "Ii Liceum Og\u00f3lnokszta\u0142c\u0105ce im. Miko\u0142aja Kopernika Z Oddzia\u0142ami Dwuj\u0119zycznymi I Mi\u0119dzynarodowymi w Lesznie",
                "name": "Ii Liceum Og\u00f3lnokszta\u0142c\u0105ce",
                "addr:country": "PL",
                "addr:postcode": "64-100",
                "addr:city": "Leszno",
                "addr:street": "Boles\u0142awa Prusa",
                "addr:housenumber": "33",
                "addr:teryt:simc": 17577,
                "addr:teryt:sym_ul": 954225,
                "contact:phone": "+48 655268485",
                "contact:email": "sekretariat@iilo.leszno.pl",
                "ref:regon": "001097510",
                "operator": "Leszno-Miasto Na Prawach Powiatu",
                "operator:type": "government",
                "amenity": "school"
            }
        },
        {
            "id": 58153,
            "type": "Feature",
            "geometry": {
                "type": "Point",
                "coordinates": [
                    16.59163,
                    51.83497
                ]
            },
            "properties": {
                "ref:rspo": 58153,
                "official_name": "Przedszkole Niepubliczne \"Kolorowy \u015awiat\"",
                "name": "Przedszkole Niepubliczne \"Kolorowy \u015awiat\"",
                "addr:country": "PL",
                "addr:postcode": "64-100",
                "addr:city": "Leszno",
                "addr:street": "Boles\u0142awa Prusa",
                "addr:housenumber": "35",
                "addr:teryt:simc": 17577,
                "addr:teryt:sym_ul": 954225,
                "contact:phone": "+48 655266565",
                "contact:email": "sekretariat@kolorowy-swiat.pl",
                "contact:website": "http:\/\/www.kolorowy-swiat.pl",
                "ref:regon": "302260664",
                "ref:vatin": "PL6972239105",
                "operator": "Maria Jurczy\u0144ska",
                "operator:type": "private",
                "amenity": "kindergarten"
            }
        },
        {
            "id": 107050,
            "type": "Feature",
            "geometry": {
                "type": "Point",
                "coordinates": [
                    16.57421,
                    51.83556
                ]
            },
            "properties": {
                "ref:rspo": 107050,
                "official_name": "Przedszkole \"Rainbow\" w Lesznie",
                "name": "Przedszkole \"Rainbow\" w Lesznie",
                "addr:country": "PL",
                "addr:postcode": "64-100",
                "addr:city": "Leszno",
                "addr:street": "Aleksandra Fredry",
                "addr:housenumber": "25",
                "addr:teryt:simc": 5172,
                "addr:teryt:sym_ul": 954225,
                "contact:phone": "+48 727544287",
                "contact:email": "przedszkole-rainbow@wp.pl",
                "ref:regon": "302325100",
                "ref:vatin": "PL6971499554",
                "operator": "Iwona Musielak",
                "operator:type": "private",
                "amenity": "kindergarten"
            }
        },
        {
            "id": 275571,
            "type": "Feature",
            "geometry": {
                "type": "Point",
                "coordinates": [
                    16.59269,
                    51.836
                ]
            },
            "properties": {
                "ref:rspo": 275571,
                "official_name": "Dwuj\u0119zyczny Punkt Przedszkolny Akademia Montessori",
                "name": "Dwuj\u0119zyczny Punkt Przedszkolny Akademia Montessori",
                "addr:country": "PL",
                "addr:postcode": "64-100",
                "addr:city": "Leszno",
                "addr:street": "Boles\u0142awa Karpi\u0144skiego",
                "addr:housenumber": "2",
                "addr:teryt:simc": 8105,
                "addr:teryt:sym_ul": 954225,
                "contact:email": "edison2033@wp.pl",
                "ref:regon": "386925977",
                "operator": "Edyta Wawrzyniak",
                "operator:type": "private",
                "amenity": "kindergarten"
            }
        },
        {
            "id": 55874,
            "type": "Feature",
            "geometry": {
                "type": "Point",
                "coordinates": [
                    16.57909,
                    51.83653
                ]
            },
            "properties": {
                "ref:rspo": 55874,
                "official_name": "Niepubliczne Przedszkole \"Weso\u0142a Ciuchcia\"",
                "name": "Niepubliczne Przedszkole \"Weso\u0142a Ciuchcia\"",
                "addr:country": "PL",
                "addr:postcode": "64-100",
                "addr:city": "Leszno",
                "addr:street": "Henryka Sienkiewicza",
                "addr:housenumber": "8",
                "addr:teryt:simc": 19834,
                "addr:teryt:sym_ul": 954225,
                "contact:phone": "+48 693906215",
                "contact:email": "dyrektor@wesolaciuchcia.pl",
                "ref:regon": "302252423",
                "ref:vatin": "PL6972181015",
                "operator": "Agnieszka Lesi\u0144ska",
                "operator:type": "private",
                "amenity": "kindergarten"
            }
        },
        {
            "id": 55884,
            "type": "Feature",
            "geometry": {
                "type": "Point",
                "coordinates": [
                    16.59184,
                    51.8371
                ]
            },
            "properties": {
                "ref:rspo": 55884,
                "official_name": "Przedszkole Miejskie Nr 10 w Lesznie \"Zielony \u015awiat\"",
                "name": "Przedszkole Miejskie Nr 10 w Lesznie \"Zielony \u015awiat\"",
                "addr:country": "PL",
                "addr:postcode": "64-100",
                "addr:city": "Leszno",
                "addr:street": "Boles\u0142awa Prusa",
                "addr:housenumber": "22c",
                "addr:teryt:simc": 17577,
                "addr:teryt:sym_ul": 954225,
                "contact:phone": "+48 655268126",
                "contact:email": "poczta@przedszkolezielonyswiat.pl",
                "ref:regon": "411423685",
                "ref:vatin": "PL6972064605",
                "operator": "Leszno-Miasto Na Prawach Powiatu",
                "operator:type": "government",
                "amenity": "kindergarten"
            }
        },
        {
            "id": 59806,
            "type": "Feature",
            "geometry": {
                "type": "Point",
                "coordinates": [
                    16.57759,
                    51.83731
                ]
            },
            "properties": {
                "ref:rspo": 59806,
                "official_name": "O\u015brodek Rehabilitacyjno-Edukacyjno-Wychowawczy im. \"Piotrusia Pana w Lesznie",
                "name": "O\u015brodek Rehabilitacyjno-Edukacyjno-Wychowawczy",
                "addr:country": "PL",
                "addr:postcode": "64-100",
                "addr:city": "Leszno",
                "addr:street": "Starozamkowa",
                "addr:housenumber": "14a",
                "addr:teryt:simc": 21006,
                "addr:teryt:sym_ul": 954225,
                "contact:phone": "+48 655296474",
                "contact:email": "orew.leszno@psoni.org.pl",
                "contact:website": "http:\/\/www.psoni-leszno.pl",
                "ref:regon": "302261793",
                "ref:vatin": "PL6971078002",
                "operator": "Polskie Stowarzyszenie Na Rzecz Os\u00f3b Z Niepe\u0142nosprawno\u015bci\u0105 Intelektualn\u0105 Ko\u0142o W Lesznie",
                "operator:type": "ngo",
                "amenity": "school"
            }
        },
        {
            "id": 48064,
            "type": "Feature",
            "geometry": {
                "type": "Point",
                "coordinates": [
                    16.60152,
                    51.83834
                ]
            },
            "properties": {
                "ref:rspo": 48064,
                "official_name": "Przedszkole Miejskie Nr 19 w Lesznie im. Le\u015bna Kraina",
                "name": "Przedszkole Miejskie Nr 19 w Lesznie",
                "addr:country": "PL",
                "addr:postcode": "64-100",
                "addr:city": "Leszno",
                "addr:street": "Juliusza Osterwy",
                "addr:housenumber": "4",
                "addr:teryt:simc": 15365,
                "addr:teryt:sym_ul": 954225,
                "contact:phone": "+48 655268290",
                "contact:email": "przedszkole19@onet.eu",
                "ref:regon": "411424779",
                "ref:vatin": "PL6972064663",
                "operator": "Leszno-Miasto Na Prawach Powiatu",
                "operator:type": "government",
                "amenity": "kindergarten"
            }
        },
        {
            "id": 268158,
            "type": "Feature",
            "geometry": {
                "type": "Point",
                "coordinates": [
                    16.57013,
                    51.83876
                ]
            },
            "properties": {
                "ref:rspo": 268158,
                "official_name": "Przedszkole Niepubliczne Norlandia",
                "name": "Przedszkole Niepubliczne Norlandia",
                "addr:country": "PL",
                "addr:postcode": "64-100",
                "addr:city": "Leszno",
                "addr:street": "Genera\u0142a J\u00f3zefa Kustronia",
                "addr:housenumber": "1",
                "addr:teryt:simc": 10495,
                "addr:teryt:sym_ul": 954225,
                "contact:email": "katarzyna.dworczak@norlandia.com",
                "contact:website": "http:\/\/www.norlandiaprzedszkola.pl",
                "ref:regon": "380983130",
                "operator": "Norlandia Polska Sp\u00f3\u0142ka Z Ograniczon\u0105 Odpowiedzialno\u015bci\u0105",
                "operator:type": "private",
                "amenity": "kindergarten"
            }
        },
        {
            "id": 48063,
            "type": "Feature",
            "geometry": {
                "type": "Point",
                "coordinates": [
                    16.58264,
                    51.83885
                ]
            },
            "properties": {
                "ref:rspo": 48063,
                "official_name": "Przedszkole Miejskie Nr 18 w Lesznie \"Sportowa Kraina\"",
                "name": "Przedszkole Miejskie Nr 18 w Lesznie \"Sportowa Kraina\"",
                "addr:country": "PL",
                "addr:postcode": "64-100",
                "addr:city": "Leszno",
                "addr:street": "Porucznika Leona W\u0142odarczaka",
                "addr:housenumber": "3",
                "addr:teryt:simc": 33859,
                "addr:teryt:sym_ul": 954225,
                "contact:phone": "+48 655203187",
                "contact:email": "przedszkole18.leszno@gmail.com",
                "ref:regon": "411423739",
                "ref:vatin": "PL6972064657",
                "operator": "Leszno-Miasto Na Prawach Powiatu",
                "operator:type": "government",
                "amenity": "kindergarten"
            }
        },
        {
            "id": 47336,
            "type": "Feature",
            "geometry": {
                "type": "Point",
                "coordinates": [
                    16.5788699,
                    51.8388599
                ]
            },
            "properties": {
                "ref:rspo": 47336,
                "official_name": "Przedszkole Miejskie Nr 6 w Lesznie",
                "name": "Przedszkole Miejskie Nr 6 w Lesznie",
                "addr:country": "PL",
                "addr:postcode": "64-100",
                "addr:city": "Leszno",
                "addr:street": "17 Stycznia",
                "addr:housenumber": "13",
                "addr:teryt:simc": 21445,
                "addr:teryt:sym_ul": 954225,
                "contact:phone": "+48 655204064",
                "contact:email": "szosteczka@wp.pl",
                "ref:regon": "411423640",
                "ref:vatin": "PL6972064545",
                "operator": "Leszno-Miasto Na Prawach Powiatu",
                "operator:type": "government",
                "amenity": "kindergarten"
            }
        },
        {
            "id": 47333,
            "type": "Feature",
            "geometry": {
                "type": "Point",
                "coordinates": [
                    16.57467,
                    51.83956
                ]
            },
            "properties": {
                "ref:rspo": 47333,
                "official_name": "Przedszkole Miejskie Nr 4 w Lesznie",
                "name": "Przedszkole Miejskie Nr 4 w Lesznie",
                "addr:country": "PL",
                "addr:postcode": "64-100",
                "addr:city": "Leszno",
                "addr:street": "Jana Popli\u0144skiego",
                "addr:housenumber": "4",
                "addr:teryt:simc": 17157,
                "addr:teryt:sym_ul": 954225,
                "contact:phone": "+48 655203856",
                "contact:email": "przedszkole4leszno@wp.pl",
                "contact:website": "http:\/\/pm4leszno.przedszkolna.net",
                "ref:regon": "411423627",
                "ref:vatin": "PL6972064574",
                "operator": "Leszno-Miasto Na Prawach Powiatu",
                "operator:type": "government",
                "amenity": "kindergarten"
            }
        },
        {
            "id": 48191,
            "type": "Feature",
            "geometry": {
                "type": "Point",
                "coordinates": [
                    16.57428,
                    51.83964
                ]
            },
            "properties": {
                "ref:rspo": 48191,
                "official_name": "Przedszkole \"Happy - Days - Szcz\u0119\u015bliwe Dni\" w Lesznie",
                "name": "Przedszkole \"Happy - Days - Szcz\u0119\u015bliwe Dni\" w Lesznie",
                "addr:country": "PL",
                "addr:postcode": "64-100",
                "addr:city": "Leszno",
                "addr:street": "Jana Popli\u0144skiego",
                "addr:housenumber": "1",
                "addr:teryt:simc": 17157,
                "addr:teryt:sym_ul": 954225,
                "contact:phone": "+48 608111377",
                "contact:email": "dyrektor@happydays-leszno.pl",
                "ref:regon": "302246954",
                "ref:vatin": "PL6692516331",
                "operator": "Fundacja \"Happy Days - Szcz\u0119\u015bliwe Dni\"",
                "operator:type": "ngo",
                "amenity": "kindergarten"
            }
        },
        {
            "id": 5703,
            "type": "Feature",
            "geometry": {
                "type": "Point",
                "coordinates": [
                    16.58262,
                    51.8401799
                ]
            },
            "properties": {
                "ref:rspo": 5703,
                "official_name": "Zesp\u00f3\u0142 Szk\u00f3\u0142 Specjalnych im. Janusza Korczaka",
                "name": "Zesp\u00f3\u0142 Szk\u00f3\u0142 Specjalnych",
                "addr:country": "PL",
                "addr:postcode": "64-100",
                "addr:city": "Leszno",
                "addr:street": "Aleje Jana Paw\u0142a II",
                "addr:housenumber": "10",
                "addr:teryt:simc": 35344,
                "addr:teryt:sym_ul": 954225,
                "contact:phone": "+48 655204004",
                "contact:email": "sekretariat@zss-leszno.pl",
                "ref:regon": "410225090",
                "ref:vatin": "PL6971905184",
                "operator": "Leszno-Miasto Na Prawach Powiatu",
                "operator:type": "government",
                "landuse": "education",
                "fixme": "amenity=school, amenity=college albo landuse=education w zale\u017cno\u015bci od tego, jakie plac\u00f3wki wchodz\u0105 w sk\u0142ad zespo\u0142u. Sprawd\u017a, kiedy stosowa\u0107 amenity=* a kiedy landuse=education.",
                "note": "Children RSPO: 55857;55864;55866"
            }
        },
        {
            "id": 27987,
            "type": "Feature",
            "geometry": {
                "type": "Point",
                "coordinates": [
                    16.58262,
                    51.8401499
                ]
            },
            "properties": {
                "isced:level": "1;2",
                "ref:rspo": 27987,
                "official_name": "Szko\u0142a Podstawowa Nr 7 im. Wojska Polskiego",
                "name": "Szko\u0142a Podstawowa Nr 7",
                "addr:country": "PL",
                "addr:postcode": "64-100",
                "addr:city": "Leszno",
                "addr:street": "Aleje Jana Paw\u0142a II",
                "addr:housenumber": "10",
                "addr:teryt:simc": 35344,
                "addr:teryt:sym_ul": 954225,
                "contact:phone": "+48 655204005",
                "contact:email": "sp7@sp7.leszno.net",
                "ref:regon": "000739567",
                "ref:vatin": "PL6971047013",
                "operator": "Leszno-Miasto Na Prawach Powiatu",
                "operator:type": "government",
                "amenity": "school"
            }
        },
        {
            "id": 43668,
            "type": "Feature",
            "geometry": {
                "type": "Point",
                "coordinates": [
                    16.58262,
                    51.840119900000005
                ]
            },
            "properties": {
                "ref:rspo": 43668,
                "official_name": "Mi\u0119dzyszkolny O\u015brodek Sportowy w Lesznie",
                "name": "Mi\u0119dzyszkolny O\u015brodek Sportowy w Lesznie",
                "addr:country": "PL",
                "addr:postcode": "64-100",
                "addr:city": "Leszno",
                "addr:street": "Aleje Jana Paw\u0142a II",
                "addr:housenumber": "10",
                "addr:teryt:simc": 35344,
                "addr:teryt:sym_ul": 954225,
                "contact:phone": "+48 655209177",
                "contact:email": "biuro@mos-leszno.pl",
                "ref:regon": "410319098",
                "ref:vatin": "PL6971598701",
                "operator": "Leszno-Miasto Na Prawach Powiatu",
                "operator:type": "government",
                "leisure": "sports_centre"
            }
        },
        {
            "id": 55857,
            "type": "Feature",
            "geometry": {
                "type": "Point",
                "coordinates": [
                    16.58262,
                    51.8400899
                ]
            },
            "properties": {
                "isced:level": "1;2",
                "ref:rspo": 55857,
                "official_name": "Szko\u0142a Podstawowa Nr 6",
                "name": "Szko\u0142a Podstawowa Nr 6",
                "addr:country": "PL",
                "addr:postcode": "64-100",
                "addr:city": "Leszno",
                "addr:street": "Aleje Jana Paw\u0142a II",
                "addr:housenumber": "10",
                "addr:teryt:simc": 35344,
                "addr:teryt:sym_ul": 954225,
                "contact:phone": "+48 655204004",
                "contact:email": "sekretariat@zss-leszno.pl",
                "ref:regon": "411532196",
                "ref:vatin": "PL6971905184",
                "operator": "Leszno-Miasto Na Prawach Powiatu",
                "operator:type": "government",
                "amenity": "school",
                "note": "Parent RSPO: 5703"
            }
        },
        {
            "id": 26478,
            "type": "Feature",
            "geometry": {
                "type": "Point",
                "coordinates": [
                    16.57671,
                    51.84071
                ]
            },
            "properties": {
                "isced:level": "1;2",
                "ref:rspo": 26478,
                "official_name": "Szko\u0142a Podstawowa Nr 3 im. Marii Curie Sk\u0142odowskiej",
                "name": "Szko\u0142a Podstawowa Nr 3",
                "addr:country": "PL",
                "addr:postcode": "64-100",
                "addr:city": "Leszno",
                "addr:street": "Plac Jana Amosa Kome\u0144skiego",
                "addr:housenumber": "1",
                "addr:teryt:simc": 50032,
                "addr:teryt:sym_ul": 954225,
                "contact:phone": "+48 655204002",
                "contact:email": "sekretariat@sp3leszno.pl",
                "contact:website": "http:\/\/sp3leszno.edupage.org",
                "ref:regon": "000739538",
                "ref:vatin": "PL6971018106",
                "operator": "Leszno-Miasto Na Prawach Powiatu",
                "operator:type": "government",
                "amenity": "school"
            }
        },
        {
            "id": 4408,
            "type": "Feature",
            "geometry": {
                "type": "Point",
                "coordinates": [
                    16.5706099,
                    51.8407399
                ]
            },
            "properties": {
                "isced:level": "1;2",
                "ref:rspo": 4408,
                "official_name": "Szko\u0142a Podstawowa Nr 1 im. Marii Konopnickiej w Lesznie",
                "name": "Szko\u0142a Podstawowa Nr 1",
                "addr:country": "PL",
                "addr:postcode": "64-100",
                "addr:city": "Leszno",
                "addr:street": "Aleje Zygmunta Krasi\u0144skiego",
                "addr:housenumber": "2",
                "addr:teryt:simc": 42439,
                "addr:teryt:sym_ul": 954225,
                "contact:phone": "+48 655299128",
                "contact:email": "sp1leszno@gmail.com",
                "ref:regon": "001094730",
                "ref:vatin": "PL6971041252",
                "operator": "Leszno-Miasto Na Prawach Powiatu",
                "operator:type": "government",
                "amenity": "school"
            }
        },
        {
            "id": 47335,
            "type": "Feature",
            "geometry": {
                "type": "Point",
                "coordinates": [
                    16.57747,
                    51.84133
                ]
            },
            "properties": {
                "ref:rspo": 47335,
                "official_name": "Przedszkole Miejskie Nr 5 w Lesznie",
                "name": "Przedszkole Miejskie Nr 5 w Lesznie",
                "addr:country": "PL",
                "addr:postcode": "64-100",
                "addr:city": "Leszno",
                "addr:street": "pl. Jana Amosa Kome\u0144skiego",
                "addr:housenumber": "5",
                "addr:teryt:simc": 9052,
                "addr:teryt:sym_ul": 954225,
                "contact:phone": "+48 655203275",
                "contact:email": "przedszkole5leszno@wp.pl",
                "contact:website": "http:\/\/pm5leszno.przedszkolna.net",
                "ref:regon": "411423633",
                "ref:vatin": "PL6972064568",
                "operator": "Leszno-Miasto Na Prawach Powiatu",
                "operator:type": "government",
                "amenity": "kindergarten"
            }
        },
        {
            "id": 78951,
            "type": "Feature",
            "geometry": {
                "type": "Point",
                "coordinates": [
                    16.57553,
                    51.84172
                ]
            },
            "properties": {
                "isced:level": "3",
                "ref:rspo": 78951,
                "official_name": "Liceum Og\u00f3lnokszta\u0142c\u0105ce dla Doros\u0142ych w Lesznie",
                "name": "Liceum Og\u00f3lnokszta\u0142c\u0105ce dla Doros\u0142ych w Lesznie",
                "addr:country": "PL",
                "addr:postcode": "64-100",
                "addr:city": "Leszno",
                "addr:street": "Zielona",
                "addr:housenumber": "30",
                "addr:teryt:simc": 26081,
                "addr:teryt:sym_ul": 954225,
                "contact:phone": "+48 655296706",
                "contact:email": "zpssleszno@wp.pl",
                "contact:website": "http:\/\/plo-leszno.pl",
                "ref:regon": "302263941",
                "ref:vatin": "PL6971857551",
                "operator": "Ewelina \u015awita\u0142a",
                "operator:type": "private",
                "amenity": "school",
                "note": "Parent RSPO: 129961"
            }
        },
        {
            "id": 275095,
            "type": "Feature",
            "geometry": {
                "type": "Point",
                "coordinates": [
                    16.5714,
                    51.84175
                ]
            },
            "properties": {
                "isced:level": "1;2",
                "ref:rspo": 275095,
                "official_name": "Szko\u0142a Podstawowa Towarzystwa Salezja\u0144skiego w Lesznie",
                "name": "Szko\u0142a Podstawowa Towarzystwa Salezja\u0144skiego w Lesznie",
                "addr:country": "PL",
                "addr:postcode": "64-100",
                "addr:city": "Leszno",
                "addr:street": "Plac Jana Metziga",
                "addr:housenumber": "14",
                "addr:teryt:simc": 50023,
                "addr:teryt:sym_ul": 954225,
                "contact:email": "lesznosp@salezjanie.pl",
                "contact:website": "http:\/\/www.lesznosp.salezjanie.pl",
                "ref:regon": "386567408",
                "ref:vatin": "PL6972377801",
                "operator": "Inspektoria Towarzystwa Salezja\u0144skiego \u015aw.jana Bosko",
                "operator:type": "religious",
                "amenity": "school"
            }
        },
        {
            "id": 61490,
            "type": "Feature",
            "geometry": {
                "type": "Point",
                "coordinates": [
                    16.57576,
                    51.84181
                ]
            },
            "properties": {
                "isced:level": "3",
                "ref:rspo": 61490,
                "official_name": "Prywatne Liceum Og\u00f3lnokszta\u0142c\u0105ce im. C.k. Norwida w Lesznie",
                "name": "Prywatne Liceum Og\u00f3lnokszta\u0142c\u0105ce",
                "addr:country": "PL",
                "addr:postcode": "64-100",
                "addr:city": "Leszno",
                "addr:street": "Zielona",
                "addr:housenumber": "5",
                "addr:teryt:simc": 26081,
                "addr:teryt:sym_ul": 954225,
                "contact:phone": "+48 655296706",
                "contact:email": "ploleszno@wp.pl",
                "contact:website": "http:\/\/www.plo-leszno.pl",
                "ref:regon": "302256289",
                "ref:vatin": "PL6972306505",
                "operator": "Eugeniusz \u015awita\u0142a",
                "operator:type": "private",
                "amenity": "school"
            }
        },
        {
            "id": 113671,
            "type": "Feature",
            "geometry": {
                "type": "Point",
                "coordinates": [
                    16.57576,
                    51.84178
                ]
            },
            "properties": {
                "ref:rspo": 113671,
                "official_name": "O\u015brodek Informacji I Edukacji Europejskiej Leszczy\u0144skie Centrum Doskonalenia Nauczycieli",
                "name": "O\u015brodek Informacji I Edukacji Europejskiej Leszczy\u0144skie Centrum Doskonalenia Nauczycieli",
                "addr:country": "PL",
                "addr:postcode": "64-100",
                "addr:city": "Leszno",
                "addr:street": "Zielona",
                "addr:housenumber": "5",
                "addr:teryt:simc": 26081,
                "addr:teryt:sym_ul": 954225,
                "contact:phone": "+48 655299795",
                "ref:regon": "302399126",
                "operator": "Dane Do Uzupe\u0142nienia",
                "operator:type": "private",
                "amenity": "training"
            }
        },
        {
            "id": 129961,
            "type": "Feature",
            "geometry": {
                "type": "Point",
                "coordinates": [
                    16.57576,
                    51.841750000000005
                ]
            },
            "properties": {
                "ref:rspo": 129961,
                "official_name": "Zesp\u00f3\u0142 Prywatnych Szk\u00f3\u0142 \u015arednich Ewelina Szcz\u0119snowicz",
                "name": "Zesp\u00f3\u0142 Prywatnych Szk\u00f3\u0142 \u015arednich Ewelina Szcz\u0119snowicz",
                "addr:country": "PL",
                "addr:postcode": "64-100",
                "addr:city": "Leszno",
                "addr:street": "Zielona",
                "addr:housenumber": "5",
                "addr:teryt:simc": 26081,
                "addr:teryt:sym_ul": 954225,
                "contact:phone": "+48 655296706",
                "contact:email": "zpssleszno@wp.pl",
                "contact:website": "http:\/\/www.zpssleszno.pl",
                "ref:regon": "363170407",
                "operator": "Ewelina \u015awita\u0142a",
                "operator:type": "private",
                "landuse": "education",
                "fixme": "amenity=school, amenity=college albo landuse=education w zale\u017cno\u015bci od tego, jakie plac\u00f3wki wchodz\u0105 w sk\u0142ad zespo\u0142u. Sprawd\u017a, kiedy stosowa\u0107 amenity=* a kiedy landuse=education.",
                "note": "Children RSPO: 78951"
            }
        },
        {
            "id": 31029,
            "type": "Feature",
            "geometry": {
                "type": "Point",
                "coordinates": [
                    16.57642,
                    51.84197
                ]
            },
            "properties": {
                "ref:rspo": 31029,
                "official_name": "Centrum Doskonalenia Nauczycieli w Lesznie",
                "name": "Centrum Doskonalenia Nauczycieli w Lesznie",
                "addr:country": "PL",
                "addr:postcode": "64-100",
                "addr:city": "Leszno",
                "addr:street": "Boles\u0142awa Chrobrego",
                "addr:housenumber": "15",
                "addr:teryt:simc": 1742,
                "addr:teryt:sym_ul": 954225,
                "contact:phone": "+48 655299062",
                "contact:email": "oswiata@cdn.leszno.pl",
                "contact:website": "http:\/\/cdn.leszno.pl",
                "ref:regon": "001387290",
                "ref:vatin": "PL6971020103",
                "operator": "Wojew\u00f3dztwo Wielkopolskie",
                "operator:type": "government",
                "landuse": "education",
                "fixme": "amenity=school, amenity=college albo landuse=education w zale\u017cno\u015bci od tego, jakie plac\u00f3wki wchodz\u0105 w sk\u0142ad zespo\u0142u. Sprawd\u017a, kiedy stosowa\u0107 amenity=* a kiedy landuse=education.",
                "note": "Children RSPO: 115152;115168"
            }
        },
        {
            "id": 43667,
            "type": "Feature",
            "geometry": {
                "type": "Point",
                "coordinates": [
                    16.57642,
                    51.84194
                ]
            },
            "properties": {
                "ref:rspo": 43667,
                "official_name": "Poradnia Psychologiczno-Pedagogiczna w Lesznie",
                "name": "Poradnia Psychologiczno-Pedagogiczna w Lesznie",
                "addr:country": "PL",
                "addr:postcode": "64-100",
                "addr:city": "Leszno",
                "addr:street": "Boles\u0142awa Chrobrego",
                "addr:housenumber": "15",
                "addr:teryt:simc": 1742,
                "addr:teryt:sym_ul": 954225,
                "contact:phone": "+48 655293035",
                "contact:email": "poradniapedag@autograf.pl",
                "ref:regon": "410026781",
                "ref:vatin": "PL6971674804",
                "operator": "Leszno-Miasto Na Prawach Powiatu",
                "operator:type": "government",
                "healthcare": "counselling",
                "counselling_type": "education",
                "fixme": "w zale\u017cno\u015bci od przedmiotu dzia\u0142alno\u015bci (np. healthcare=counselling + counselling_type=education albo healthcare=psychotherapist)"
            }
        },
        {
            "id": 115152,
            "type": "Feature",
            "geometry": {
                "type": "Point",
                "coordinates": [
                    16.57642,
                    51.841910000000006
                ]
            },
            "properties": {
                "ref:rspo": 115152,
                "official_name": "O\u015brodek Doskonalenia Nauczycieli w Lesznie",
                "name": "O\u015brodek Doskonalenia Nauczycieli w Lesznie",
                "addr:country": "PL",
                "addr:postcode": "64-100",
                "addr:city": "Leszno",
                "addr:street": "Boles\u0142awa Chrobrego",
                "addr:housenumber": "15",
                "addr:teryt:simc": 1742,
                "addr:teryt:sym_ul": 954225,
                "contact:phone": "+48 655299062",
                "contact:email": "oswiata@cdn.leszno.pl",
                "ref:regon": "302457533",
                "operator": "Wojew\u00f3dztwo Wielkopolskie",
                "operator:type": "government",
                "amenity": "training",
                "note": "Parent RSPO: 31029"
            }
        },
        {
            "id": 115168,
            "type": "Feature",
            "geometry": {
                "type": "Point",
                "coordinates": [
                    16.57642,
                    51.84188
                ]
            },
            "properties": {
                "ref:rspo": 115168,
                "official_name": "Publiczna Bilbioteka Pedagogiczna w Lesznie",
                "name": "Publiczna Bilbioteka Pedagogiczna w Lesznie",
                "addr:country": "PL",
                "addr:postcode": "64-100",
                "addr:city": "Leszno",
                "addr:street": "Boles\u0142awa Chrobrego",
                "addr:housenumber": "15",
                "addr:teryt:simc": 1742,
                "addr:teryt:sym_ul": 954225,
                "contact:phone": "+48 655299334",
                "contact:email": "pbpleszno@cdn.leszno.pl",
                "ref:regon": "300906464",
                "operator": "Wojew\u00f3dztwo Wielkopolskie",
                "operator:type": "government",
                "amenity": "library",
                "note": "Children RSPO: 128846;128848;128849Parent RSPO: 31029"
            }
        },
        {
            "id": 27827,
            "type": "Feature",
            "geometry": {
                "type": "Point",
                "coordinates": [
                    16.59603,
                    51.84212
                ]
            },
            "properties": {
                "ref:rspo": 27827,
                "official_name": "O\u015brodek Szkolenia Zawodowego \"Edytor\" Waldemar Hajnsz",
                "name": "O\u015brodek Szkolenia Zawodowego \"Edytor\" Waldemar Hajnsz",
                "addr:country": "PL",
                "addr:postcode": "64-100",
                "addr:city": "Leszno",
                "addr:street": "Jana Dekana",
                "addr:housenumber": "3b",
                "addr:door": "-",
                "addr:teryt:simc": 3725,
                "addr:teryt:sym_ul": 954225,
                "contact:phone": "+48 655296409",
                "contact:email": "biuro@osz-leszno.pl",
                "contact:website": "http:\/\/www.osz-leszno.pl",
                "ref:regon": "302238854",
                "ref:vatin": "PL6961214018",
                "operator": "Waldemar Hajnsz",
                "operator:type": "private",
                "fixme": "w zale\u017cno\u015bci od przedmiotu dzia\u0142alno\u015bci (np. amenity=training + training=*, amenity=dancing_school, amenity=language_school, amenity=music_school)"
            }
        },
        {
            "id": 27828,
            "type": "Feature",
            "geometry": {
                "type": "Point",
                "coordinates": [
                    16.59603,
                    51.84209
                ]
            },
            "properties": {
                "ref:rspo": 27828,
                "official_name": "O\u015brodek Szkolenia Zawodowego \"Edytor\" Miko\u0142aj Hajnsz",
                "name": "O\u015brodek Szkolenia Zawodowego \"Edytor\" Miko\u0142aj Hajnsz",
                "addr:country": "PL",
                "addr:postcode": "64-100",
                "addr:city": "Leszno",
                "addr:street": "Jana Dekana",
                "addr:housenumber": "3b",
                "addr:door": "-",
                "addr:teryt:simc": 3725,
                "addr:teryt:sym_ul": 954225,
                "contact:phone": "+48 655296409",
                "contact:email": "formularz@osz-leszno.pl",
                "ref:regon": "302238848",
                "ref:vatin": "PL6961401045",
                "operator": "Miko\u0142aj Hajnsz",
                "operator:type": "private",
                "fixme": "w zale\u017cno\u015bci od przedmiotu dzia\u0142alno\u015bci (np. amenity=training + training=*, amenity=dancing_school, amenity=language_school, amenity=music_school)"
            }
        },
        {
            "id": 278873,
            "type": "Feature",
            "geometry": {
                "type": "Point",
                "coordinates": [
                    16.57914,
                    51.84271
                ]
            },
            "properties": {
                "ref:rspo": 278873,
                "official_name": "Niepubliczne Przedszkole Kraina Elf\u00f3w w Lesznie",
                "name": "Niepubliczne Przedszkole Kraina Elf\u00f3w w Lesznie",
                "addr:country": "PL",
                "addr:postcode": "64-100",
                "addr:city": "Leszno",
                "addr:street": "Kr\u00f3lowej Jadwigi",
                "addr:housenumber": "30",
                "addr:teryt:simc": 10003,
                "addr:teryt:sym_ul": 954225,
                "contact:phone": "+48 683888431",
                "contact:email": "biuro@wzgorzadalkowskie.pl",
                "contact:website": "http:\/\/www.wzgorzadalkowskie.pl",
                "ref:regon": "520134146",
                "operator": "Fundacja \"Porozumienie Wzg\u00f3rz Dalkowskich\"",
                "operator:type": "ngo",
                "amenity": "kindergarten"
            }
        },
        {
            "id": 72325,
            "type": "Feature",
            "geometry": {
                "type": "Point",
                "coordinates": [
                    16.57436,
                    51.84292
                ]
            },
            "properties": {
                "ref:rspo": 72325,
                "official_name": "O\u015brodek Szkoleniowy Centrum Nauki I Biznesu \"\u017bak\" w Lesznie",
                "name": "O\u015brodek Szkoleniowy Centrum Nauki I Biznesu \"\u017bak\" w Lesznie",
                "addr:country": "PL",
                "addr:postcode": "64-100",
                "addr:city": "Leszno",
                "addr:street": "Rynek",
                "addr:housenumber": "33",
                "addr:teryt:simc": 19252,
                "addr:teryt:sym_ul": 954225,
                "contact:phone": "+48 655202300",
                "contact:email": "leszno@zak.edu.pl",
                "ref:regon": "302262083",
                "ref:vatin": "PL7292597869",
                "operator": "Centrum Nauki I Biznesu \"\u017bak\" Sp\u00f3\u0142ka Z Ograniczon\u0105 Odpowiedzialno\u015bci\u0105",
                "operator:type": "private",
                "fixme": "w zale\u017cno\u015bci od przedmiotu dzia\u0142alno\u015bci (np. amenity=training + training=*, amenity=dancing_school, amenity=language_school, amenity=music_school)"
            }
        },
        {
            "id": 72326,
            "type": "Feature",
            "geometry": {
                "type": "Point",
                "coordinates": [
                    16.57436,
                    51.84289
                ]
            },
            "properties": {
                "isced:level": "4",
                "ref:rspo": 72326,
                "official_name": "Policealna Szko\u0142a Zawodowa \"\u017bak\" w Lesznie",
                "name": "Policealna Szko\u0142a Zawodowa \"\u017bak\" w Lesznie",
                "addr:country": "PL",
                "addr:postcode": "64-100",
                "addr:city": "Leszno",
                "addr:street": "Rynek",
                "addr:housenumber": "33",
                "addr:teryt:simc": 19252,
                "addr:teryt:sym_ul": 954225,
                "contact:phone": "+48 655202300",
                "contact:email": "leszno@zak.edu.pl",
                "ref:regon": "302262077",
                "ref:vatin": "PL7292597869",
                "operator": "Centrum Nauki I Biznesu \"\u017bak\" Sp\u00f3\u0142ka Z Ograniczon\u0105 Odpowiedzialno\u015bci\u0105",
                "operator:type": "private",
                "amenity": "college"
            }
        },
        {
            "id": 72328,
            "type": "Feature",
            "geometry": {
                "type": "Point",
                "coordinates": [
                    16.57436,
                    51.84286
                ]
            },
            "properties": {
                "isced:level": "4",
                "ref:rspo": 72328,
                "official_name": "Szko\u0142a Policealna Centrum Nauki I Biznesu \"\u017bak\" w Lesznie",
                "name": "Szko\u0142a Policealna Centrum Nauki I Biznesu \"\u017bak\" w Lesznie",
                "addr:country": "PL",
                "addr:postcode": "64-100",
                "addr:city": "Leszno",
                "addr:street": "Rynek",
                "addr:housenumber": "33",
                "addr:teryt:simc": 19252,
                "addr:teryt:sym_ul": 954225,
                "contact:phone": "+48 655202300",
                "contact:email": "leszno@zak.edu.pl",
                "ref:regon": "302262232",
                "ref:vatin": "PL7292597869",
                "operator": "Centrum Nauki I Biznesu \"\u017bak\" Sp\u00f3\u0142ka Z Ograniczon\u0105 Odpowiedzialno\u015bci\u0105",
                "operator:type": "private",
                "amenity": "college"
            }
        },
        {
            "id": 72329,
            "type": "Feature",
            "geometry": {
                "type": "Point",
                "coordinates": [
                    16.57436,
                    51.84283
                ]
            },
            "properties": {
                "isced:level": "3",
                "ref:rspo": 72329,
                "official_name": "Liceum Og\u00f3lnokszta\u0142c\u0105ce dla Doros\u0142ych \"\u017bak\" w Lesznie",
                "name": "Liceum Og\u00f3lnokszta\u0142c\u0105ce dla Doros\u0142ych \"\u017bak\" w Lesznie",
                "addr:country": "PL",
                "addr:postcode": "64-100",
                "addr:city": "Leszno",
                "addr:street": "Rynek",
                "addr:housenumber": "33",
                "addr:teryt:simc": 19252,
                "addr:teryt:sym_ul": 954225,
                "contact:phone": "+48 655202300",
                "contact:email": "leszno@zak.edu.pl",
                "ref:regon": "302262255",
                "ref:vatin": "PL7292597869",
                "operator": "Centrum Nauki I Biznesu \"\u017bak\" Sp\u00f3\u0142ka Z Ograniczon\u0105 Odpowiedzialno\u015bci\u0105",
                "operator:type": "private",
                "amenity": "school"
            }
        },
        {
            "id": 126293,
            "type": "Feature",
            "geometry": {
                "type": "Point",
                "coordinates": [
                    16.57436,
                    51.8428
                ]
            },
            "properties": {
                "isced:level": "4",
                "ref:rspo": 126293,
                "official_name": "Szko\u0142a Policealna Opieki Medycznej \"\u017bak\" w Lesznie",
                "name": "Szko\u0142a Policealna Opieki Medycznej \"\u017bak\" w Lesznie",
                "addr:country": "PL",
                "addr:postcode": "64-100",
                "addr:city": "Leszno",
                "addr:street": "Rynek",
                "addr:housenumber": "33",
                "addr:teryt:simc": 19252,
                "addr:teryt:sym_ul": 954225,
                "contact:phone": "+48 655202300",
                "contact:email": "leszno@zak.edu.pl",
                "ref:regon": "360213292",
                "operator": "Centrum Nauki I Biznesu \"\u017bak\" Sp\u00f3\u0142ka Z Ograniczon\u0105 Odpowiedzialno\u015bci\u0105",
                "operator:type": "private",
                "amenity": "college"
            }
        },
        {
            "id": 126299,
            "type": "Feature",
            "geometry": {
                "type": "Point",
                "coordinates": [
                    16.57436,
                    51.84277
                ]
            },
            "properties": {
                "isced:level": "4",
                "ref:rspo": 126299,
                "official_name": "Szko\u0142a Policealna Medyczna \"\u017bak\" w Lesznie",
                "name": "Szko\u0142a Policealna Medyczna \"\u017bak\" w Lesznie",
                "addr:country": "PL",
                "addr:postcode": "64-100",
                "addr:city": "Leszno",
                "addr:street": "Rynek",
                "addr:housenumber": "33",
                "addr:teryt:simc": 19252,
                "addr:teryt:sym_ul": 954225,
                "contact:phone": "+48 655292300",
                "contact:email": "leszno@zak.edu.pl",
                "ref:regon": "360213263",
                "operator": "Centrum Nauki I Biznesu \"\u017bak\" Sp\u00f3\u0142ka Z Ograniczon\u0105 Odpowiedzialno\u015bci\u0105",
                "operator:type": "private",
                "amenity": "college"
            }
        },
        {
            "id": 73637,
            "type": "Feature",
            "geometry": {
                "type": "Point",
                "coordinates": [
                    16.57254,
                    51.84298
                ]
            },
            "properties": {
                "isced:level": "4",
                "ref:rspo": 73637,
                "official_name": "Szko\u0142a Przedsi\u0119biorczo\u015bci I Zarz\u0105dzania Przy Instytucie Edukacji I Biznesu w Lesznie",
                "name": "Szko\u0142a Przedsi\u0119biorczo\u015bci I Zarz\u0105dzania Przy Instytucie Edukacji I Biznesu w Lesznie",
                "addr:country": "PL",
                "addr:postcode": "64-100",
                "addr:city": "Leszno",
                "addr:street": "S\u0142owia\u0144ska",
                "addr:housenumber": "11",
                "addr:teryt:simc": 20294,
                "addr:teryt:sym_ul": 954225,
                "contact:phone": "+48 655294820",
                "contact:email": "instytut@pseii.leszno.pl",
                "contact:website": "http:\/\/www.pseii.leszno.pl",
                "ref:regon": "302263875",
                "ref:vatin": "PL6971011794",
                "operator": "Dariusz Nowakowski 1\/Biuro Bada\u0144 Marketingowych 2\/Instytut Edukacji I Biznesu'",
                "operator:type": "consortium",
                "amenity": "college"
            }
        },
        {
            "id": 47337,
            "type": "Feature",
            "geometry": {
                "type": "Point",
                "coordinates": [
                    16.55848,
                    51.84319
                ]
            },
            "properties": {
                "ref:rspo": 47337,
                "official_name": "Przedszkole Miejskie Nr 7 w Lesznie im. Misia Uszatka",
                "name": "Przedszkole Miejskie Nr 7 w Lesznie",
                "addr:country": "PL",
                "addr:postcode": "64-100",
                "addr:city": "Leszno",
                "addr:street": "Stefana \u017beromskiego",
                "addr:housenumber": "19",
                "addr:teryt:simc": 26469,
                "addr:teryt:sym_ul": 954225,
                "contact:phone": "+48 655207949",
                "contact:email": "przedszkole7@onet.eu",
                "ref:regon": "411423656",
                "ref:vatin": "PL6972064551",
                "operator": "Leszno-Miasto Na Prawach Powiatu",
                "operator:type": "government",
                "amenity": "kindergarten"
            }
        },
        {
            "id": 113733,
            "type": "Feature",
            "geometry": {
                "type": "Point",
                "coordinates": [
                    16.57592,
                    51.84353
                ]
            },
            "properties": {
                "ref:rspo": 113733,
                "official_name": "Instytut Doskonalenia Nauczycieli Enter",
                "name": "Instytut Doskonalenia Nauczycieli Enter",
                "addr:country": "PL",
                "addr:postcode": "64-100",
                "addr:city": "Leszno",
                "addr:street": "Zielona",
                "addr:housenumber": "14",
                "addr:teryt:simc": 26081,
                "addr:teryt:sym_ul": 954225,
                "contact:phone": "+48 655299533",
                "ref:regon": "302400237",
                "operator": "Dane Do Uzupe\u0142nienia",
                "operator:type": "private",
                "amenity": "training"
            }
        },
        {
            "id": 268189,
            "type": "Feature",
            "geometry": {
                "type": "Point",
                "coordinates": [
                    16.57592,
                    51.8435
                ]
            },
            "properties": {
                "ref:rspo": 268189,
                "official_name": "Instytut J\u0119zyk\u00f3w Obcych Enter",
                "name": "Instytut J\u0119zyk\u00f3w Obcych Enter",
                "addr:country": "PL",
                "addr:postcode": "64-100",
                "addr:city": "Leszno",
                "addr:street": "Zielona",
                "addr:housenumber": "14",
                "addr:teryt:simc": 26081,
                "addr:teryt:sym_ul": 954225,
                "contact:email": "biuro@instytutenter.pl",
                "contact:website": "http:\/\/www.instytutenter.pl",
                "ref:regon": "381007202",
                "operator": "Sylwia Klabi\u0144ska",
                "operator:type": "private",
                "fixme": "w zale\u017cno\u015bci od przedmiotu dzia\u0142alno\u015bci (np. amenity=training + training=*, amenity=dancing_school, amenity=language_school, amenity=music_school)"
            }
        },
        {
            "id": 58341,
            "type": "Feature",
            "geometry": {
                "type": "Point",
                "coordinates": [
                    16.57749,
                    51.84367
                ]
            },
            "properties": {
                "isced:level": "3",
                "ref:rspo": 58341,
                "official_name": "Liceum Og\u00f3lnokszta\u0142c\u0105ce dla Doros\u0142ych",
                "name": "Liceum Og\u00f3lnokszta\u0142c\u0105ce dla Doros\u0142ych",
                "addr:country": "PL",
                "addr:postcode": "64-100",
                "addr:city": "Leszno",
                "addr:street": "Kr\u00f3tka",
                "addr:housenumber": "5",
                "addr:teryt:simc": 10009,
                "addr:teryt:sym_ul": 954225,
                "contact:phone": "+48 655292521",
                "contact:email": "szkoly@zdz.leszno.pl",
                "ref:regon": "302260629",
                "ref:vatin": "PL7770001720",
                "operator": "Zak\u0142ad Doskonalenia Zawodowego",
                "operator:type": "ngo",
                "amenity": "school"
            }
        },
        {
            "id": 87135,
            "type": "Feature",
            "geometry": {
                "type": "Point",
                "coordinates": [
                    16.57749,
                    51.84364
                ]
            },
            "properties": {
                "ref:rspo": 87135,
                "official_name": "Zak\u0142ad Doskonalenia Zawodowego Centrum Kszta\u0142cenia",
                "name": "Zak\u0142ad Doskonalenia Zawodowego Centrum Kszta\u0142cenia",
                "addr:country": "PL",
                "addr:postcode": "64-100",
                "addr:city": "Leszno",
                "addr:street": "Kr\u00f3tka",
                "addr:housenumber": "5",
                "addr:teryt:simc": 10009,
                "addr:teryt:sym_ul": 954225,
                "contact:phone": "+48 655292521",
                "contact:email": "kursy@zdz.leszno.pl",
                "ref:regon": "302271076",
                "ref:vatin": "PL7770001720",
                "operator": "Zak\u0142ad Doskonalenia Zawodowego",
                "operator:type": "ngo",
                "fixme": "w zale\u017cno\u015bci od przedmiotu dzia\u0142alno\u015bci (np. amenity=training + training=*, amenity=dancing_school, amenity=language_school, amenity=music_school)"
            }
        },
        {
            "id": 271143,
            "type": "Feature",
            "geometry": {
                "type": "Point",
                "coordinates": [
                    16.57749,
                    51.843610000000005
                ]
            },
            "properties": {
                "isced:level": "1;2",
                "ref:rspo": 271143,
                "official_name": "Szko\u0142a Podstawowa dla Doros\u0142ych Zdz",
                "name": "Szko\u0142a Podstawowa dla Doros\u0142ych Zdz",
                "addr:country": "PL",
                "addr:postcode": "64-100",
                "addr:city": "Leszno",
                "addr:street": "Kr\u00f3tka",
                "addr:housenumber": "5",
                "addr:teryt:simc": 10009,
                "addr:teryt:sym_ul": 954225,
                "contact:phone": "+48 655292521",
                "contact:email": "irena.marszalek@zdz.leszno.pl",
                "contact:website": "http:\/\/www.zdz.leszno.pl",
                "ref:regon": "383113345",
                "operator": "Zak\u0142ad Doskonalenia Zawodowego",
                "operator:type": "ngo",
                "amenity": "school"
            }
        },
        {
            "id": 114627,
            "type": "Feature",
            "geometry": {
                "type": "Point",
                "coordinates": [
                    16.57028,
                    51.84375
                ]
            },
            "properties": {
                "ref:rspo": 114627,
                "official_name": "Prywatny Zesp\u00f3\u0142 Szk\u00f3\u0142 Henryk J\u00f3\u017awiak",
                "name": "Prywatny Zesp\u00f3\u0142 Szk\u00f3\u0142 Henryk J\u00f3\u017awiak",
                "addr:country": "PL",
                "addr:postcode": "64-100",
                "addr:city": "Leszno",
                "addr:street": "Aleje Zygmunta Krasi\u0144skiego",
                "addr:housenumber": "22",
                "addr:teryt:simc": 42439,
                "addr:teryt:sym_ul": 954225,
                "contact:phone": "+48 502491768",
                "contact:email": "szkolaprywatnaleszno@gmail.com",
                "contact:website": "http:\/\/www.szkolaprywatnaleszno.pl",
                "ref:regon": "302429471",
                "ref:vatin": "PL6971424504",
                "operator": "Henryk J\u00f3\u017awiak",
                "operator:type": "private",
                "landuse": "education",
                "fixme": "amenity=school, amenity=college albo landuse=education w zale\u017cno\u015bci od tego, jakie plac\u00f3wki wchodz\u0105 w sk\u0142ad zespo\u0142u. Sprawd\u017a, kiedy stosowa\u0107 amenity=* a kiedy landuse=education.",
                "note": "Children RSPO: 87372"
            }
        },
        {
            "id": 87372,
            "type": "Feature",
            "geometry": {
                "type": "Point",
                "coordinates": [
                    16.57028,
                    51.84372
                ]
            },
            "properties": {
                "isced:level": "1;2",
                "ref:rspo": 87372,
                "official_name": "Prywatna Szko\u0142a Podstawowa - Henryk J\u00f3\u017awiak",
                "name": "Prywatna Szko\u0142a Podstawowa - Henryk J\u00f3\u017awiak",
                "addr:country": "PL",
                "addr:postcode": "64-100",
                "addr:city": "Leszno",
                "addr:street": "Aleje Zygmunta Krasi\u0144skiego",
                "addr:housenumber": "22",
                "addr:teryt:simc": 42439,
                "addr:teryt:sym_ul": 954225,
                "contact:phone": "+48 502491768",
                "contact:email": "szkolaprywatnaleszno@gmail.com",
                "contact:website": "http:\/\/www.szkolaprywatnaleszno.pl",
                "ref:regon": "302272992",
                "ref:vatin": "PL6971424504",
                "operator": "Henryk J\u00f3\u017awiak",
                "operator:type": "private",
                "amenity": "school",
                "note": "Parent RSPO: 114627"
            }
        },
        {
            "id": 28528,
            "type": "Feature",
            "geometry": {
                "type": "Point",
                "coordinates": [
                    16.58252,
                    51.84398
                ]
            },
            "properties": {
                "isced:level": "1;2",
                "ref:rspo": 28528,
                "official_name": "Szko\u0142a Podstawowa Nr 10 im. \u015awi\u0119tego Jana Paw\u0142a Ii",
                "name": "Szko\u0142a Podstawowa Nr 10",
                "addr:country": "PL",
                "addr:postcode": "64-100",
                "addr:city": "Leszno",
                "addr:street": "Jagiello\u0144ska",
                "addr:housenumber": "7",
                "addr:teryt:simc": 7029,
                "addr:teryt:sym_ul": 954225,
                "contact:phone": "+48 655204008",
                "contact:email": "sp_10_leszno@interia.pl",
                "ref:regon": "000739596",
                "ref:vatin": "PL6971902352",
                "operator": "Leszno-Miasto Na Prawach Powiatu",
                "operator:type": "government",
                "amenity": "school"
            }
        },
        {
            "id": 47338,
            "type": "Feature",
            "geometry": {
                "type": "Point",
                "coordinates": [
                    16.58342,
                    51.84411
                ]
            },
            "properties": {
                "ref:rspo": 47338,
                "official_name": "Przedszkole Miejskie Nr 8 w Lesznie im. Czerwonego Kapturka",
                "name": "Przedszkole Miejskie Nr 8 w Lesznie",
                "addr:country": "PL",
                "addr:postcode": "64-100",
                "addr:city": "Leszno",
                "addr:street": "Jagiello\u0144ska",
                "addr:housenumber": "6",
                "addr:teryt:simc": 7029,
                "addr:teryt:sym_ul": 954225,
                "contact:phone": "+48 655204551",
                "contact:email": "dyrektor@przedszkole.leszno.eu",
                "ref:regon": "411423662",
                "ref:vatin": "PL6972064539",
                "operator": "Leszno-Miasto Na Prawach Powiatu",
                "operator:type": "government",
                "amenity": "kindergarten"
            }
        },
        {
            "id": 267822,
            "type": "Feature",
            "geometry": {
                "type": "Point",
                "coordinates": [
                    16.5695,
                    51.84413
                ]
            },
            "properties": {
                "ref:rspo": 267822,
                "official_name": "Przedszkole J\u0119zykowe \"Bajka\"",
                "name": "Przedszkole J\u0119zykowe \"Bajka\"",
                "addr:country": "PL",
                "addr:postcode": "64-100",
                "addr:city": "Leszno",
                "addr:street": "Skarbowa",
                "addr:housenumber": "3A",
                "addr:teryt:simc": 20003,
                "addr:teryt:sym_ul": 954225,
                "contact:phone": "+48 607377107",
                "contact:email": "zbiorczykb@interia.pl",
                "ref:regon": "380676674",
                "operator": "Bo\u017cena Zbiorczyk",
                "operator:type": "private",
                "amenity": "kindergarten"
            }
        },
        {
            "id": 64850,
            "type": "Feature",
            "geometry": {
                "type": "Point",
                "coordinates": [
                    16.58109,
                    51.84513
                ]
            },
            "properties": {
                "isced:level": "3",
                "ref:rspo": 64850,
                "official_name": "Pierwsze Prywatne Liceum Og\u00f3lnokszta\u0142cace im. Tadeusza \u0141opusza\u0144skiego w Lesznie",
                "name": "Pierwsze Prywatne Liceum Og\u00f3lnokszta\u0142cace",
                "addr:country": "PL",
                "addr:postcode": "64-100",
                "addr:city": "Leszno",
                "addr:street": "Genera\u0142a Jaros\u0142awa D\u0105browskiego",
                "addr:housenumber": "5",
                "addr:teryt:simc": 3676,
                "addr:teryt:sym_ul": 954225,
                "contact:phone": "+48 655295927",
                "contact:email": "annahan13@wp.pl",
                "ref:regon": "302262410",
                "ref:vatin": "PL6971284322",
                "operator": "Anna Handke",
                "operator:type": "private",
                "amenity": "school"
            }
        },
        {
            "id": 55846,
            "type": "Feature",
            "geometry": {
                "type": "Point",
                "coordinates": [
                    16.58567,
                    51.8454
                ]
            },
            "properties": {
                "ref:rspo": 55846,
                "official_name": "Przedszkole Miejskie Nr 11 w Lesznie Im Marii Konopnickiej",
                "name": "Przedszkole Miejskie Nr 11 w Lesznie Im Marii Konopnickiej",
                "addr:country": "PL",
                "addr:postcode": "64-100",
                "addr:city": "Leszno",
                "addr:street": "Prochownia",
                "addr:housenumber": "25b",
                "addr:teryt:simc": 17498,
                "addr:teryt:sym_ul": 954225,
                "contact:phone": "+48 655206350",
                "contact:email": "info@przedszkole11.leszno.pl",
                "ref:regon": "411423691",
                "ref:vatin": "PL6972064611",
                "operator": "Leszno-Miasto Na Prawach Powiatu",
                "operator:type": "government",
                "amenity": "kindergarten"
            }
        },
        {
            "id": 16190,
            "type": "Feature",
            "geometry": {
                "type": "Point",
                "coordinates": [
                    16.57097,
                    51.84542
                ]
            },
            "properties": {
                "ref:rspo": 16190,
                "official_name": "Pa\u0144stwowa Szko\u0142a Muzyczna I I II St. im. Romana Maciejewskiego w Lesznie",
                "name": "Pa\u0144stwowa Szko\u0142a Muzyczna I I II St.",
                "addr:country": "PL",
                "addr:postcode": "64-100",
                "addr:city": "Leszno",
                "addr:street": "Wa\u0142owa",
                "addr:housenumber": "3",
                "addr:teryt:simc": 23586,
                "addr:teryt:sym_ul": 954225,
                "contact:phone": "+48 655207473",
                "contact:email": "psmleszno@wp.pl",
                "contact:website": "http:\/\/psm.leszno.pl",
                "ref:regon": "300026496",
                "operator": "Ministerstwo Kultury I Dziedzictwa Narodowego",
                "operator:type": "public",
                "landuse": "education",
                "fixme": "amenity=school, amenity=college albo landuse=education w zale\u017cno\u015bci od tego, jakie plac\u00f3wki wchodz\u0105 w sk\u0142ad zespo\u0142u. Sprawd\u017a, kiedy stosowa\u0107 amenity=* a kiedy landuse=education.",
                "note": "Children RSPO: 78083;78084"
            }
        },
        {
            "id": 78083,
            "type": "Feature",
            "geometry": {
                "type": "Point",
                "coordinates": [
                    16.57097,
                    51.845389999999995
                ]
            },
            "properties": {
                "ref:rspo": 78083,
                "official_name": "Pa\u0144stwowa Szko\u0142a Muzyczna I St. w Lesznie",
                "name": "Pa\u0144stwowa Szko\u0142a Muzyczna I St. w Lesznie",
                "addr:country": "PL",
                "addr:postcode": "64-100",
                "addr:city": "Leszno",
                "addr:street": "Wa\u0142owa",
                "addr:housenumber": "3",
                "addr:teryt:simc": 23586,
                "addr:teryt:sym_ul": 954225,
                "contact:phone": "+48 655207473",
                "ref:regon": "000830339",
                "operator": "Ministerstwo Kultury I Dziedzictwa Narodowego",
                "operator:type": "public",
                "amenity": "music_school",
                "note": "Parent RSPO: 16190"
            }
        },
        {
            "id": 78084,
            "type": "Feature",
            "geometry": {
                "type": "Point",
                "coordinates": [
                    16.57097,
                    51.84536
                ]
            },
            "properties": {
                "ref:rspo": 78084,
                "official_name": "Pa\u0144stwowa Szko\u0142a Muzyczna II St. w Lesznie",
                "name": "Pa\u0144stwowa Szko\u0142a Muzyczna II St. w Lesznie",
                "addr:country": "PL",
                "addr:postcode": "64-100",
                "addr:city": "Leszno",
                "addr:street": "Wa\u0142owa",
                "addr:housenumber": "3",
                "addr:teryt:simc": 23586,
                "addr:teryt:sym_ul": 954225,
                "contact:phone": "+48 655207473",
                "ref:regon": "300026510",
                "operator": "Ministerstwo Kultury I Dziedzictwa Narodowego",
                "operator:type": "public",
                "amenity": "music_school",
                "note": "Parent RSPO: 16190"
            }
        },
        {
            "id": 48062,
            "type": "Feature",
            "geometry": {
                "type": "Point",
                "coordinates": [
                    16.59956,
                    51.84551
                ]
            },
            "properties": {
                "ref:rspo": 48062,
                "official_name": "Przedszkole Miejskie Nr 15 w Lesznie",
                "name": "Przedszkole Miejskie Nr 15 w Lesznie",
                "addr:country": "PL",
                "addr:postcode": "64-100",
                "addr:city": "Leszno",
                "addr:street": "Rumu\u0144ska",
                "addr:housenumber": "13",
                "addr:teryt:simc": 19099,
                "addr:teryt:sym_ul": 954225,
                "contact:phone": "+48 655200784",
                "contact:email": "przedszkole15leszno@wp.pl",
                "ref:regon": "411423722",
                "ref:vatin": "PL6972064640",
                "operator": "Leszno-Miasto Na Prawach Powiatu",
                "operator:type": "government",
                "amenity": "kindergarten"
            }
        },
        {
            "id": 55868,
            "type": "Feature",
            "geometry": {
                "type": "Point",
                "coordinates": [
                    16.56026,
                    51.84566
                ]
            },
            "properties": {
                "ref:rspo": 55868,
                "official_name": "Przedszkole Miejskie Nr 3 w Lesznie",
                "name": "Przedszkole Miejskie Nr 3 w Lesznie",
                "addr:country": "PL",
                "addr:postcode": "64-100",
                "addr:city": "Leszno",
                "addr:street": "Stanis\u0142awa Wyspia\u0144skiego",
                "addr:housenumber": "2",
                "addr:teryt:simc": 25084,
                "addr:teryt:sym_ul": 954225,
                "contact:phone": "+48 655203852",
                "contact:email": "przedszkole3leszno@wp.pl",
                "ref:regon": "411423610",
                "ref:vatin": "PL6972064580",
                "operator": "Leszno-Miasto Na Prawach Powiatu",
                "operator:type": "government",
                "amenity": "kindergarten"
            }
        },
        {
            "id": 28529,
            "type": "Feature",
            "geometry": {
                "type": "Point",
                "coordinates": [
                    16.5999717,
                    51.8457311
                ]
            },
            "properties": {
                "isced:level": "1;2",
                "ref:rspo": 28529,
                "official_name": "Szko\u0142a Podstawowa Nr 12 im. Genera\u0142a Stefana Roweckiego - \"Grota\"",
                "name": "Szko\u0142a Podstawowa Nr 12",
                "addr:country": "PL",
                "addr:postcode": "64-100",
                "addr:city": "Leszno",
                "addr:street": "Rumu\u0144ska",
                "addr:housenumber": "6ab",
                "addr:teryt:simc": 19099,
                "addr:teryt:sym_ul": 954225,
                "contact:phone": "+48 655200230",
                "contact:email": "sp12leszno@poczta.onet.pl",
                "contact:website": "http:\/\/dwunastka.leszno.pl",
                "ref:regon": "001307226",
                "ref:vatin": "PL6971015220",
                "operator": "Leszno-Miasto Na Prawach Powiatu",
                "operator:type": "government",
                "amenity": "school"
            }
        },
        {
            "id": 5450,
            "type": "Feature",
            "geometry": {
                "type": "Point",
                "coordinates": [
                    16.5641399,
                    51.8460899
                ]
            },
            "properties": {
                "ref:rspo": 5450,
                "official_name": "Zesp\u00f3\u0142 Szk\u00f3\u0142 Elektroniczno-Telekomunikacyjnych",
                "name": "Zesp\u00f3\u0142 Szk\u00f3\u0142 Elektroniczno-Telekomunikacyjnych",
                "addr:country": "PL",
                "addr:postcode": "64-100",
                "addr:city": "Leszno",
                "addr:street": "Jana Kili\u0144skiego",
                "addr:housenumber": "4",
                "addr:teryt:simc": 8435,
                "addr:teryt:sym_ul": 954225,
                "contact:phone": "+48 655206125",
                "contact:email": "sekretariat@zset.leszno.pl",
                "contact:website": "https:\/\/zset.leszno.pl",
                "ref:regon": "410390593",
                "operator": "Leszno-Miasto Na Prawach Powiatu",
                "operator:type": "government",
                "landuse": "education",
                "fixme": "amenity=school, amenity=college albo landuse=education w zale\u017cno\u015bci od tego, jakie plac\u00f3wki wchodz\u0105 w sk\u0142ad zespo\u0142u. Sprawd\u017a, kiedy stosowa\u0107 amenity=* a kiedy landuse=education.",
                "note": "Children RSPO: 55393;55405"
            }
        },
        {
            "id": 55393,
            "type": "Feature",
            "geometry": {
                "type": "Point",
                "coordinates": [
                    16.5641399,
                    51.8460599
                ]
            },
            "properties": {
                "isced:level": "3",
                "ref:rspo": 55393,
                "official_name": "Szko\u0142a Bran\u017cowa I Stopnia Nr 5 w Lesznie",
                "name": "Szko\u0142a Bran\u017cowa I Stopnia Nr 5 w Lesznie",
                "addr:country": "PL",
                "addr:postcode": "64-100",
                "addr:city": "Leszno",
                "addr:street": "Jana Kili\u0144skiego",
                "addr:housenumber": "4",
                "addr:teryt:simc": 8435,
                "addr:teryt:sym_ul": 954225,
                "contact:phone": "+48 655205905",
                "contact:email": "sekretariat@zset.leszno.pl",
                "ref:regon": "411493036",
                "ref:vatin": "PL6971352986",
                "operator": "Leszno-Miasto Na Prawach Powiatu",
                "operator:type": "government",
                "amenity": "school",
                "note": "Parent RSPO: 5450"
            }
        },
        {
            "id": 55405,
            "type": "Feature",
            "geometry": {
                "type": "Point",
                "coordinates": [
                    16.5641399,
                    51.846029900000005
                ]
            },
            "properties": {
                "isced:level": "3",
                "ref:rspo": 55405,
                "official_name": "Technikum Nr 5 w Lesznie",
                "name": "Technikum Nr 5 w Lesznie",
                "addr:country": "PL",
                "addr:postcode": "64-100",
                "addr:city": "Leszno",
                "addr:street": "Jana Kili\u0144skiego",
                "addr:housenumber": "4",
                "addr:teryt:simc": 8435,
                "addr:teryt:sym_ul": 954225,
                "contact:phone": "+48 655205905",
                "contact:email": "sekretariat@zset.leszno.pl",
                "ref:regon": "301190016",
                "ref:vatin": "PL6971352986",
                "operator": "Leszno-Miasto Na Prawach Powiatu",
                "operator:type": "government",
                "amenity": "school",
                "note": "Parent RSPO: 5450"
            }
        },
        {
            "id": 43654,
            "type": "Feature",
            "geometry": {
                "type": "Point",
                "coordinates": [
                    16.5770929,
                    51.8463725
                ]
            },
            "properties": {
                "isced:level": "3",
                "ref:rspo": 43654,
                "official_name": "Iii Liceum Og\u00f3lnokszta\u0142c\u0105ce im. Juliusza S\u0142owackiego",
                "name": "Iii Liceum Og\u00f3lnokszta\u0142c\u0105ce",
                "addr:country": "PL",
                "addr:postcode": "64-100",
                "addr:city": "Leszno",
                "addr:street": "pl. Tadeusza Ko\u015bciuszki",
                "addr:housenumber": "5",
                "addr:teryt:simc": 9580,
                "addr:teryt:sym_ul": 954225,
                "contact:phone": "+48 655299014",
                "contact:email": "lo3leszno@gmail.com",
                "contact:website": "http:\/\/3loleszno.eu\/",
                "ref:regon": "410254602",
                "ref:vatin": "PL6971019991",
                "operator": "Leszno-Miasto Na Prawach Powiatu",
                "operator:type": "government",
                "amenity": "school"
            }
        },
        {
            "id": 48182,
            "type": "Feature",
            "geometry": {
                "type": "Point",
                "coordinates": [
                    16.57987,
                    51.84645
                ]
            },
            "properties": {
                "ref:rspo": 48182,
                "official_name": "Przedszkole im. \u015aw. Jana Paw\u0142a II Prowzdzone Przez Zgromadzenie Si\u00f3str \u015aw. El\u017cbiety w Lesznie",
                "name": "Przedszkole",
                "addr:country": "PL",
                "addr:postcode": "64-100",
                "addr:city": "Leszno",
                "addr:street": "Niepodleg\u0142o\u015bci",
                "addr:housenumber": "37",
                "addr:teryt:simc": 14203,
                "addr:teryt:sym_ul": 954225,
                "contact:phone": "+48 655205636",
                "contact:email": "pjp2.leszno@onet.eu",
                "contact:website": "http:\/\/www.pjp2.pl",
                "ref:regon": "302251211",
                "ref:vatin": "PL6971103869",
                "operator": "Zgromadzenie Si\u00f3str \u015aw. El\u017cbiety Prowincja Pozna\u0144ska",
                "operator:type": "religious",
                "amenity": "kindergarten"
            }
        },
        {
            "id": 43651,
            "type": "Feature",
            "geometry": {
                "type": "Point",
                "coordinates": [
                    16.57153,
                    51.84668
                ]
            },
            "properties": {
                "isced:level": "3",
                "ref:rspo": 43651,
                "official_name": "I Liceum Og\u00f3lnokszta\u0142c\u0105ce im. Rodu Leszczy\u0144skich w Lesznie",
                "name": "I Liceum Og\u00f3lnokszta\u0142c\u0105ce",
                "addr:country": "PL",
                "addr:postcode": "64-100",
                "addr:city": "Leszno",
                "addr:street": "Karola Kurpi\u0144skiego",
                "addr:housenumber": "1",
                "addr:teryt:simc": 10465,
                "addr:teryt:sym_ul": 954225,
                "contact:phone": "+48 655299425",
                "contact:email": "lo1@leszno.edu.pl",
                "contact:website": "http:\/\/jedynka-leszno.edupage.org",
                "ref:regon": "411529544",
                "ref:vatin": "PL6972326169",
                "operator": "Leszno-Miasto Na Prawach Powiatu",
                "operator:type": "government",
                "amenity": "school"
            }
        },
        {
            "id": 27989,
            "type": "Feature",
            "geometry": {
                "type": "Point",
                "coordinates": [
                    16.55985,
                    51.84685
                ]
            },
            "properties": {
                "isced:level": "1;2",
                "ref:rspo": 27989,
                "official_name": "Szko\u0142a Podstawowa Nr 9 im. Ks. Kard. Stefana Wyszy\u0144skiego",
                "name": "Szko\u0142a Podstawowa Nr 9",
                "addr:country": "PL",
                "addr:postcode": "64-100",
                "addr:city": "Leszno",
                "addr:street": "Ksi\u0119dza Kardyna\u0142a Stefana Wyszy\u0144skiego",
                "addr:housenumber": "57",
                "addr:teryt:simc": 40976,
                "addr:teryt:sym_ul": 954225,
                "contact:phone": "+48 655204007",
                "contact:email": "sp9leszno@poczta.onet.pl",
                "contact:website": "http:\/\/www.sp9leszno.pl",
                "ref:regon": "000739580",
                "ref:vatin": "PL6971041803",
                "operator": "Leszno-Miasto Na Prawach Powiatu",
                "operator:type": "government",
                "amenity": "school"
            }
        },
        {
            "id": 5319,
            "type": "Feature",
            "geometry": {
                "type": "Point",
                "coordinates": [
                    16.57205,
                    51.8470299
                ]
            },
            "properties": {
                "ref:rspo": 5319,
                "official_name": "Zesp\u00f3\u0142 Szk\u00f3\u0142 Nr 4 im. Powsta\u0144c\u00f3w Wielkopolskich w Lesznie",
                "name": "Zesp\u00f3\u0142 Szk\u00f3\u0142 Nr 4",
                "addr:country": "PL",
                "addr:postcode": "64-100",
                "addr:city": "Leszno",
                "addr:street": "Karola Kurpi\u0144skiego",
                "addr:housenumber": "2",
                "addr:teryt:simc": 10465,
                "addr:teryt:sym_ul": 954225,
                "contact:phone": "+48 655299534",
                "contact:email": "sekretariat@zs4-leszno.pl",
                "contact:website": "http:\/\/www.zs4-leszno.pl",
                "ref:regon": "000238032",
                "ref:vatin": "PL6971630942",
                "operator": "Leszno-Miasto Na Prawach Powiatu",
                "operator:type": "government",
                "landuse": "education",
                "fixme": "amenity=school, amenity=college albo landuse=education w zale\u017cno\u015bci od tego, jakie plac\u00f3wki wchodz\u0105 w sk\u0142ad zespo\u0142u. Sprawd\u017a, kiedy stosowa\u0107 amenity=* a kiedy landuse=education.",
                "note": "Children RSPO: 43661;47332;48892"
            }
        },
        {
            "id": 43661,
            "type": "Feature",
            "geometry": {
                "type": "Point",
                "coordinates": [
                    16.57205,
                    51.8469999
                ]
            },
            "properties": {
                "isced:level": "3",
                "ref:rspo": 43661,
                "official_name": "Iv Liceum Og\u00f3lnokszta\u0142c\u0105ce im. Karola Kazimierza Kurpi\u0144skiego",
                "name": "Iv Liceum Og\u00f3lnokszta\u0142c\u0105ce",
                "addr:country": "PL",
                "addr:postcode": "64-100",
                "addr:city": "Leszno",
                "addr:street": "Karola Kurpi\u0144skiego",
                "addr:housenumber": "2",
                "addr:teryt:simc": 10465,
                "addr:teryt:sym_ul": 954225,
                "contact:phone": "+48 655299534",
                "contact:email": "sekretariat@zs4-leszno.pl",
                "contact:website": "http:\/\/www.zs4-leszno.pl",
                "ref:regon": "411505526",
                "ref:vatin": "PL6971020043",
                "operator": "Leszno-Miasto Na Prawach Powiatu",
                "operator:type": "government",
                "amenity": "school",
                "note": "Parent RSPO: 5319"
            }
        },
        {
            "id": 47332,
            "type": "Feature",
            "geometry": {
                "type": "Point",
                "coordinates": [
                    16.57205,
                    51.846969900000005
                ]
            },
            "properties": {
                "isced:level": "3",
                "ref:rspo": 47332,
                "official_name": "Technikum Nr 4 w Lesznie",
                "name": "Technikum Nr 4 w Lesznie",
                "addr:country": "PL",
                "addr:postcode": "64-100",
                "addr:city": "Leszno",
                "addr:street": "Karola Kurpi\u0144skiego",
                "addr:housenumber": "2",
                "addr:teryt:simc": 10465,
                "addr:teryt:sym_ul": 954225,
                "contact:phone": "+48 655299534",
                "contact:email": "sekretariat@zs4-leszno.pl",
                "contact:website": "http:\/\/www.zs4-leszno.pl",
                "ref:regon": "301196295",
                "ref:vatin": "PL6971630942",
                "operator": "Leszno-Miasto Na Prawach Powiatu",
                "operator:type": "government",
                "amenity": "school",
                "note": "Parent RSPO: 5319"
            }
        },
        {
            "id": 48892,
            "type": "Feature",
            "geometry": {
                "type": "Point",
                "coordinates": [
                    16.57205,
                    51.8469399
                ]
            },
            "properties": {
                "isced:level": "3",
                "ref:rspo": 48892,
                "official_name": "Szko\u0142a Bran\u017cowa I Stopnia Nr 4 w Lesznie",
                "name": "Szko\u0142a Bran\u017cowa I Stopnia Nr 4 w Lesznie",
                "addr:country": "PL",
                "addr:postcode": "64-100",
                "addr:city": "Leszno",
                "addr:street": "Karola Kurpi\u0144skiego",
                "addr:housenumber": "2",
                "addr:teryt:simc": 10465,
                "addr:teryt:sym_ul": 954225,
                "contact:phone": "+48 655299534",
                "contact:email": "sekretariat@zs4-leszno.pl",
                "contact:website": "http:\/\/www.zs4-leszno.pl",
                "ref:regon": "411494455",
                "ref:vatin": "PL6971630942",
                "operator": "Leszno-Miasto Na Prawach Powiatu",
                "operator:type": "government",
                "amenity": "school",
                "note": "Parent RSPO: 5319"
            }
        },
        {
            "id": 48066,
            "type": "Feature",
            "geometry": {
                "type": "Point",
                "coordinates": [
                    16.60025,
                    51.84744
                ]
            },
            "properties": {
                "ref:rspo": 48066,
                "official_name": "Przedszkole Miejskie Nr 21 Z Oddzia\u0142ami Integracyjnymi I Odzia\u0142ami Specjanymi im. \"Przyjaci\u00f3\u0142 Kubusia Puchatka\" w Lesznie",
                "name": "Przedszkole Miejskie Nr 21 Z Oddzia\u0142ami Integracyjnymi I Odzia\u0142ami Specjanymi",
                "addr:country": "PL",
                "addr:postcode": "64-100",
                "addr:city": "Leszno",
                "addr:street": "Armii Krajowej",
                "addr:housenumber": "11",
                "addr:teryt:simc": 432,
                "addr:teryt:sym_ul": 954225,
                "contact:phone": "+48 655200065",
                "contact:email": "przedszkole21@poczta.onet.pl",
                "contact:website": "http:\/\/www.przedszkole21leszno.pl",
                "ref:regon": "411423751",
                "ref:vatin": "PL6972064692",
                "operator": "Leszno-Miasto Na Prawach Powiatu",
                "operator:type": "government",
                "amenity": "kindergarten"
            }
        },
        {
            "id": 48170,
            "type": "Feature",
            "geometry": {
                "type": "Point",
                "coordinates": [
                    16.60461,
                    51.84775
                ]
            },
            "properties": {
                "ref:rspo": 48170,
                "official_name": "Niepubliczny Punkt Przedszkolny \"Domowe Przedszkole\"",
                "name": "Niepubliczny Punkt Przedszkolny \"Domowe Przedszkole\"",
                "addr:country": "PL",
                "addr:postcode": "64-100",
                "addr:city": "Leszno",
                "addr:street": "Francuska",
                "addr:housenumber": "9",
                "addr:teryt:simc": 5154,
                "addr:teryt:sym_ul": 954225,
                "contact:phone": "+48 509585114",
                "contact:email": "lenaandrzejak@gmail.com",
                "ref:regon": "302249036",
                "ref:vatin": "PL6971215976",
                "operator": "Magdalena Andrzejak",
                "operator:type": "private",
                "amenity": "kindergarten"
            }
        },
        {
            "id": 43665,
            "type": "Feature",
            "geometry": {
                "type": "Point",
                "coordinates": [
                    16.57289,
                    51.84805
                ]
            },
            "properties": {
                "ref:rspo": 43665,
                "official_name": "Bursa Mi\u0119dzyszkolna Nr 1 w Lesznie",
                "name": "Bursa Mi\u0119dzyszkolna Nr 1 w Lesznie",
                "addr:country": "PL",
                "addr:postcode": "64-100",
                "addr:city": "Leszno",
                "addr:street": "Ksi\u0119cia J\u00f3zefa Poniatowskiego",
                "addr:housenumber": "11",
                "addr:teryt:simc": 17113,
                "addr:teryt:sym_ul": 954225,
                "contact:phone": "+48 655204049",
                "contact:email": "sekretariat.bursams1@vp.pl",
                "ref:regon": "004093330",
                "ref:vatin": "PL6971015421",
                "operator": "Leszno-Miasto Na Prawach Powiatu",
                "operator:type": "government",
                "building": "dormitory"
            }
        },
        {
            "id": 4948,
            "type": "Feature",
            "geometry": {
                "type": "Point",
                "coordinates": [
                    16.57227,
                    51.84808
                ]
            },
            "properties": {
                "ref:rspo": 4948,
                "official_name": "Zesp\u00f3\u0142 Szk\u00f3\u0142 Ekonomicznych im. J. A. Kome\u0144skiego",
                "name": "Zesp\u00f3\u0142 Szk\u00f3\u0142 Ekonomicznych",
                "addr:country": "PL",
                "addr:postcode": "64-100",
                "addr:city": "Leszno",
                "addr:street": "Ksi\u0119cia J\u00f3zefa Poniatowskiego",
                "addr:housenumber": "2",
                "addr:teryt:simc": 17113,
                "addr:teryt:sym_ul": 954225,
                "contact:phone": "+48 655299428",
                "contact:email": "sekretariat@zse.leszno.pl",
                "contact:website": "http:\/\/www.zse.leszno.pl",
                "ref:regon": "000183035",
                "ref:vatin": "PL6971905238",
                "operator": "Leszno-Miasto Na Prawach Powiatu",
                "operator:type": "government",
                "landuse": "education",
                "fixme": "amenity=school, amenity=college albo landuse=education w zale\u017cno\u015bci od tego, jakie plac\u00f3wki wchodz\u0105 w sk\u0142ad zespo\u0142u. Sprawd\u017a, kiedy stosowa\u0107 amenity=* a kiedy landuse=education.",
                "note": "Children RSPO: 66104;66351"
            }
        },
        {
            "id": 66104,
            "type": "Feature",
            "geometry": {
                "type": "Point",
                "coordinates": [
                    16.57227,
                    51.84805
                ]
            },
            "properties": {
                "isced:level": "3",
                "ref:rspo": 66104,
                "official_name": "Szko\u0142a Bran\u017cowa I Stopnia Nr 1 w Lesznie",
                "name": "Szko\u0142a Bran\u017cowa I Stopnia Nr 1 w Lesznie",
                "addr:country": "PL",
                "addr:postcode": "64-100",
                "addr:city": "Leszno",
                "addr:street": "Ksi\u0119cia J\u00f3zefa Poniatowskiego",
                "addr:housenumber": "2",
                "addr:teryt:simc": 17113,
                "addr:teryt:sym_ul": 954225,
                "contact:phone": "+48 655299428",
                "contact:email": "sekretariat@zse.leszno.pl",
                "contact:website": "http:\/\/www.zse.leszno.pl",
                "ref:regon": "411504981",
                "ref:vatin": "PL6971905238",
                "operator": "Leszno-Miasto Na Prawach Powiatu",
                "operator:type": "government",
                "amenity": "school",
                "note": "Parent RSPO: 4948"
            }
        },
        {
            "id": 66351,
            "type": "Feature",
            "geometry": {
                "type": "Point",
                "coordinates": [
                    16.57227,
                    51.848020000000005
                ]
            },
            "properties": {
                "isced:level": "3",
                "ref:rspo": 66351,
                "official_name": "Technikum Nr 1 w Lesznie",
                "name": "Technikum Nr 1 w Lesznie",
                "addr:country": "PL",
                "addr:postcode": "64-100",
                "addr:city": "Leszno",
                "addr:street": "Ksi\u0119cia J\u00f3zefa Poniatowskiego",
                "addr:housenumber": "2",
                "addr:teryt:simc": 17113,
                "addr:teryt:sym_ul": 954225,
                "contact:phone": "+48 655299428",
                "contact:email": "sekretariat@zse.leszno.pl",
                "contact:website": "http:\/\/www.zse.leszno.pl",
                "ref:regon": "301190619",
                "ref:vatin": "PL6971905238",
                "operator": "Leszno-Miasto Na Prawach Powiatu",
                "operator:type": "government",
                "amenity": "school",
                "note": "Parent RSPO: 4948"
            }
        },
        {
            "id": 38794,
            "type": "Feature",
            "geometry": {
                "type": "Point",
                "coordinates": [
                    16.57523,
                    51.8484
                ]
            },
            "properties": {
                "isced:level": "1;2",
                "ref:rspo": 38794,
                "official_name": "Szko\u0142a Podstawowa Nr 2 im. Obro\u0144c\u00f3w Polskiego Morza",
                "name": "Szko\u0142a Podstawowa Nr 2",
                "addr:country": "PL",
                "addr:postcode": "64-100",
                "addr:city": "Leszno",
                "addr:street": "Gabriela Narutowicza",
                "addr:housenumber": "57",
                "addr:teryt:simc": 14018,
                "addr:teryt:sym_ul": 954225,
                "contact:phone": "+48 655296045",
                "contact:email": "sp2.kotwica@gmail.com",
                "contact:website": "http:\/\/www.sp2.leszno.pl",
                "ref:regon": "004109308",
                "ref:vatin": "PL6971019910",
                "operator": "Leszno-Miasto Na Prawach Powiatu",
                "operator:type": "government",
                "amenity": "school"
            }
        },
        {
            "id": 130814,
            "type": "Feature",
            "geometry": {
                "type": "Point",
                "coordinates": [
                    16.58368,
                    51.84889
                ]
            },
            "properties": {
                "isced:level": "3",
                "ref:rspo": 130814,
                "official_name": "Technikum Kolejowe w Lesznie",
                "name": "Technikum Kolejowe w Lesznie",
                "addr:country": "PL",
                "addr:postcode": "64-100",
                "addr:city": "Leszno",
                "addr:street": "Jana Ostroroga",
                "addr:housenumber": "9A",
                "addr:teryt:simc": 15384,
                "addr:teryt:sym_ul": 954225,
                "contact:phone": "+48 784408407",
                "contact:email": "leszno@kolejowe.edu.pl",
                "contact:website": "http:\/\/leszno.kolejowe.edu.pl",
                "ref:regon": "364535822",
                "ref:vatin": "PL9671156171",
                "operator": "Centrum Nauki I Szkolnictwa \"Edukator\" Sp\u00f3\u0142ka Z Ograniczon\u0105 Odpowiedzialno\u015bci\u0105",
                "operator:type": "private",
                "amenity": "school"
            }
        },
        {
            "id": 48065,
            "type": "Feature",
            "geometry": {
                "type": "Point",
                "coordinates": [
                    16.57286,
                    51.84942
                ]
            },
            "properties": {
                "ref:rspo": 48065,
                "official_name": "Przedszkole Miejskie Nr 20 w Lesznie \"Ba\u015bniowa Kraina\"",
                "name": "Przedszkole Miejskie Nr 20 w Lesznie \"Ba\u015bniowa Kraina\"",
                "addr:country": "PL",
                "addr:postcode": "64-100",
                "addr:city": "Leszno",
                "addr:street": "Kazimierza Karasia",
                "addr:housenumber": "11",
                "addr:teryt:simc": 8007,
                "addr:teryt:sym_ul": 954225,
                "contact:phone": "+48 655203528",
                "contact:email": "przedszkole20@poczta.onet.eu",
                "contact:website": "http:\/\/www.basniowakraina.leszno.pl",
                "ref:regon": "411423745",
                "ref:vatin": "PL6972064686",
                "operator": "Leszno-Miasto Na Prawach Powiatu",
                "operator:type": "government",
                "amenity": "kindergarten"
            }
        },
        {
            "id": 268912,
            "type": "Feature",
            "geometry": {
                "type": "Point",
                "coordinates": [
                    16.57201,
                    51.85143
                ]
            },
            "properties": {
                "ref:rspo": 268912,
                "official_name": "Przedszkole Niebieska Ciuchcia",
                "name": "Przedszkole Niebieska Ciuchcia",
                "addr:country": "PL",
                "addr:postcode": "64-100",
                "addr:city": "Leszno",
                "addr:street": "Zacisze",
                "addr:housenumber": "10",
                "addr:teryt:simc": 25314,
                "addr:teryt:sym_ul": 954225,
                "contact:phone": "+48 693906215",
                "contact:email": "dyrektor@wesolaciuchcia.pl",
                "ref:regon": "381283681",
                "operator": "Agnieszka Lesi\u0144ska",
                "operator:type": "private",
                "amenity": "kindergarten"
            }
        },
        {
            "id": 43669,
            "type": "Feature",
            "geometry": {
                "type": "Point",
                "coordinates": [
                    16.57815,
                    51.8519099
                ]
            },
            "properties": {
                "ref:rspo": 43669,
                "official_name": "Centrum Kszta\u0142cenia Zawodowego w Lesznie",
                "name": "Centrum Kszta\u0142cenia Zawodowego w Lesznie",
                "addr:country": "PL",
                "addr:postcode": "64-100",
                "addr:city": "Leszno",
                "addr:street": "Gabriela Narutowicza",
                "addr:housenumber": "74",
                "addr:teryt:simc": 14018,
                "addr:teryt:sym_ul": 954225,
                "contact:phone": "+48 655299435",
                "contact:email": "poczta@zst-leszno.pl",
                "ref:regon": "410372193",
                "operator": "Leszno-Miasto Na Prawach Powiatu",
                "operator:type": "government",
                "fixme": "w zale\u017cno\u015bci od przedmiotu dzia\u0142alno\u015bci (np. amenity=training + training=*, amenity=dancing_school, amenity=language_school, amenity=music_school) albo amenity=school, amenity=college, albo landuse=education w zale\u017cno\u015bci od tego, jakie plac\u00f3wki wchodz\u0105 w sk\u0142ad zespo\u0142u. Sprawd\u017a, kiedy stosowa\u0107 amenity=* a kiedy landuse=education.",
                "note": "Parent RSPO: 133936"
            }
        },
        {
            "id": 133936,
            "type": "Feature",
            "geometry": {
                "type": "Point",
                "coordinates": [
                    16.5775599,
                    51.85264
                ]
            },
            "properties": {
                "ref:rspo": 133936,
                "official_name": "Zesp\u00f3\u0142 Szk\u00f3\u0142 Technicznych - Centrum Kszta\u0142cenia Zawodowego I Ustawicznego w Lesznie",
                "name": "Zesp\u00f3\u0142 Szk\u00f3\u0142 Technicznych - Centrum Kszta\u0142cenia Zawodowego I Ustawicznego w Lesznie",
                "addr:country": "PL",
                "addr:postcode": "64-100",
                "addr:city": "Leszno",
                "addr:street": "Gabriela Narutowicza",
                "addr:housenumber": "74a",
                "addr:teryt:simc": 14018,
                "addr:teryt:sym_ul": 954225,
                "contact:phone": "+48 655299435",
                "contact:email": "poczta@zst-leszno.pl",
                "contact:website": "http:\/\/www.zst-leszno.pl",
                "ref:regon": "367734309",
                "ref:vatin": "PL6972338020",
                "operator": "Leszno-Miasto Na Prawach Powiatu",
                "operator:type": "government",
                "landuse": "education",
                "fixme": "amenity=school, amenity=college albo landuse=education w zale\u017cno\u015bci od tego, jakie plac\u00f3wki wchodz\u0105 w sk\u0142ad zespo\u0142u. Sprawd\u017a, kiedy stosowa\u0107 amenity=* a kiedy landuse=education.",
                "note": "Children RSPO: 43669;57876;57878;264080"
            }
        },
        {
            "id": 57876,
            "type": "Feature",
            "geometry": {
                "type": "Point",
                "coordinates": [
                    16.5775599,
                    51.85261
                ]
            },
            "properties": {
                "isced:level": "3",
                "ref:rspo": 57876,
                "official_name": "Technikum Nr 2 w Lesznie",
                "name": "Technikum Nr 2 w Lesznie",
                "addr:country": "PL",
                "addr:postcode": "64-100",
                "addr:city": "Leszno",
                "addr:street": "Gabriela Narutowicza",
                "addr:housenumber": "74a",
                "addr:teryt:simc": 14018,
                "addr:teryt:sym_ul": 954225,
                "contact:phone": "+48 655299435",
                "contact:email": "poczta@zst-leszno.pl",
                "ref:regon": "301191330",
                "operator": "Leszno-Miasto Na Prawach Powiatu",
                "operator:type": "government",
                "amenity": "school",
                "note": "Parent RSPO: 133936"
            }
        },
        {
            "id": 57878,
            "type": "Feature",
            "geometry": {
                "type": "Point",
                "coordinates": [
                    16.5775599,
                    51.85258
                ]
            },
            "properties": {
                "isced:level": "3",
                "ref:rspo": 57878,
                "official_name": "Szko\u0142a Bran\u017cowa I Stopnia Nr 2 w Lesznie",
                "name": "Szko\u0142a Bran\u017cowa I Stopnia Nr 2 w Lesznie",
                "addr:country": "PL",
                "addr:postcode": "64-100",
                "addr:city": "Leszno",
                "addr:street": "Gabriela Narutowicza",
                "addr:housenumber": "74a",
                "addr:teryt:simc": 14018,
                "addr:teryt:sym_ul": 954225,
                "contact:phone": "+48 655299435",
                "contact:email": "poczta@zst-leszno.pl",
                "ref:regon": "411503846",
                "operator": "Leszno-Miasto Na Prawach Powiatu",
                "operator:type": "government",
                "amenity": "school",
                "note": "Parent RSPO: 133936"
            }
        },
        {
            "id": 264080,
            "type": "Feature",
            "geometry": {
                "type": "Point",
                "coordinates": [
                    16.5775599,
                    51.85255
                ]
            },
            "properties": {
                "isced:level": "4",
                "ref:rspo": 264080,
                "official_name": "Policealna Szko\u0142a Zawodowa Nr 2",
                "name": "Policealna Szko\u0142a Zawodowa Nr 2",
                "addr:country": "PL",
                "addr:postcode": "64-100",
                "addr:city": "Leszno",
                "addr:street": "Gabriela Narutowicza",
                "addr:housenumber": "74a",
                "addr:teryt:simc": 14018,
                "addr:teryt:sym_ul": 954225,
                "contact:phone": "+48 655299435",
                "contact:email": "poczta@zst-leszno.pl",
                "ref:regon": "368259081",
                "operator": "Leszno-Miasto Na Prawach Powiatu",
                "operator:type": "government",
                "amenity": "college",
                "note": "Parent RSPO: 133936"
            }
        },
        {
            "id": 64714,
            "type": "Feature",
            "geometry": {
                "type": "Point",
                "coordinates": [
                    16.6092,
                    51.85685
                ]
            },
            "properties": {
                "ref:rspo": 64714,
                "official_name": "Prywatne Przedszkole \"Akademia Odkrywc\u00f3w\"",
                "name": "Prywatne Przedszkole \"Akademia Odkrywc\u00f3w\"",
                "addr:country": "PL",
                "addr:postcode": "64-100",
                "addr:city": "Leszno",
                "addr:street": "Iglasta",
                "addr:housenumber": "4",
                "addr:teryt:simc": 6860,
                "addr:teryt:sym_ul": 954225,
                "contact:phone": "+48 655208899",
                "contact:email": "sekretariat@akademiaodkrywcow.leszno.pl",
                "ref:regon": "302262137",
                "ref:vatin": "PL6961380277",
                "operator": "Pawe\u0142 Kuropka",
                "operator:type": "private",
                "amenity": "kindergarten"
            }
        },
        {
            "id": 128726,
            "type": "Feature",
            "geometry": {
                "type": "Point",
                "coordinates": [
                    16.6092,
                    51.85682
                ]
            },
            "properties": {
                "isced:level": "1;2",
                "ref:rspo": 128726,
                "official_name": "Akademia Odkrywc\u00f3w Dwuj\u0119zyczna Niepubliczna Szko\u0142a Podstawowa",
                "name": "Akademia Odkrywc\u00f3w Dwuj\u0119zyczna Niepubliczna Szko\u0142a Podstawowa",
                "addr:country": "PL",
                "addr:postcode": "64-100",
                "addr:city": "Leszno",
                "addr:street": "Iglasta",
                "addr:housenumber": "4",
                "addr:teryt:simc": 6860,
                "addr:teryt:sym_ul": 954225,
                "contact:phone": "+48 655208899",
                "contact:email": "sekretariat@akademiaodkrywcow.leszno.pl",
                "contact:website": "http:\/\/www.akademiaodkrywcow.leszno.pl",
                "ref:regon": "362392169",
                "operator": "Pawe\u0142 Kuropka",
                "operator:type": "private",
                "amenity": "school"
            }
        },
        {
            "id": 126292,
            "type": "Feature",
            "geometry": {
                "type": "Point",
                "coordinates": [
                    16.55651,
                    51.85695
                ]
            },
            "properties": {
                "ref:rspo": 126292,
                "official_name": "Przedszkole J\u0119zykowe Orbi Centrum Animus Przemys\u0142aw Walkowiak",
                "name": "Przedszkole J\u0119zykowe Orbi Centrum Animus Przemys\u0142aw Walkowiak",
                "addr:country": "PL",
                "addr:postcode": "64-100",
                "addr:city": "Leszno",
                "addr:street": "Artura Grottgera",
                "addr:housenumber": "35",
                "addr:teryt:simc": 6206,
                "addr:teryt:sym_ul": 954225,
                "contact:phone": "+48 661747261",
                "contact:email": "przedszkole.orbi@gmail.com",
                "contact:website": "http:\/\/www.przedszkoleorbi.pl",
                "ref:regon": "360202839",
                "operator": "Przemys\u0142aw Walkowiak",
                "operator:type": "private",
                "amenity": "kindergarten"
            }
        },
        {
            "id": 274574,
            "type": "Feature",
            "geometry": {
                "type": "Point",
                "coordinates": [
                    16.6148,
                    51.86505
                ]
            },
            "properties": {
                "ref:rspo": 274574,
                "official_name": "Niepubliczna Trzyletnia Szko\u0142a Specjalna Przysposabiaj\u0105ca Do Pracy Totus Tuus",
                "name": "Niepubliczna Trzyletnia Szko\u0142a Specjalna Przysposabiaj\u0105ca Do Pracy Totus Tuus",
                "addr:country": "PL",
                "addr:postcode": "64-100",
                "addr:city": "Leszno",
                "addr:street": "Osiecka",
                "addr:housenumber": "41",
                "addr:teryt:simc": 15233,
                "addr:teryt:sym_ul": 954225,
                "contact:email": "sekretariat.szkolaaac@wp.pl",
                "contact:website": "http:\/\/www.szkolaspecjalnaleszno.pl",
                "ref:regon": "385983040",
                "operator": "Agnieszka Kra\u015bner",
                "operator:type": "private",
                "amenity": "school"
            }
        },
        {
            "id": 26480,
            "type": "Feature",
            "geometry": {
                "type": "Point",
                "coordinates": [
                    16.58463,
                    51.86583
                ]
            },
            "properties": {
                "isced:level": "1;2",
                "ref:rspo": 26480,
                "official_name": "Szko\u0142a Podstawowa Nr 5 im. Henryka Sienkiewicza",
                "name": "Szko\u0142a Podstawowa Nr 5",
                "addr:country": "PL",
                "addr:postcode": "64-100",
                "addr:city": "Leszno",
                "addr:street": "\u0141owiecka",
                "addr:housenumber": "50c",
                "addr:teryt:simc": 11695,
                "addr:teryt:sym_ul": 954225,
                "contact:phone": "+48 655271220",
                "contact:email": "sp5leszno@poczta.onet.pl",
                "contact:website": "http:\/\/www.sp5leszno.pl",
                "ref:regon": "000900198",
                "ref:vatin": "PL6971018282",
                "operator": "Leszno-Miasto Na Prawach Powiatu",
                "operator:type": "government",
                "amenity": "school"
            }
        },
        {
            "id": 58152,
            "type": "Feature",
            "geometry": {
                "type": "Point",
                "coordinates": [
                    16.58463,
                    51.8658
                ]
            },
            "properties": {
                "ref:rspo": 58152,
                "official_name": "Przedszkole Miejskie Nr 13 w Lesznie",
                "name": "Przedszkole Miejskie Nr 13 w Lesznie",
                "addr:country": "PL",
                "addr:postcode": "64-100",
                "addr:city": "Leszno",
                "addr:street": "\u0141owiecka",
                "addr:housenumber": "50c",
                "addr:teryt:simc": 11695,
                "addr:teryt:sym_ul": 954225,
                "contact:phone": "+48 655290118",
                "contact:email": "przedszkole13.leszno@wp.pl",
                "contact:website": "http:\/\/www.przedszkole13-leszno.pl",
                "ref:regon": "411423716",
                "ref:vatin": "PL6972064634",
                "operator": "Leszno-Miasto Na Prawach Powiatu",
                "operator:type": "government",
                "amenity": "kindergarten"
            }
        },
        {
            "id": 128358,
            "type": "Feature",
            "geometry": {
                "type": "Point",
                "coordinates": [
                    16.57967,
                    51.8686099
                ]
            },
            "properties": {
                "ref:rspo": 128358,
                "official_name": "Przedszkole Publiczne Bajkowy Las",
                "name": "Przedszkole Publiczne Bajkowy Las",
                "addr:country": "PL",
                "addr:postcode": "64-100",
                "addr:city": "Leszno",
                "addr:street": "Jana Kazimierza",
                "addr:housenumber": "1B",
                "addr:teryt:simc": 7117,
                "addr:teryt:sym_ul": 954225,
                "contact:phone": "+48 536877113",
                "contact:email": "biuro@bajkowylas.com",
                "ref:regon": "362251753",
                "operator": "Natalia Aleksandrov",
                "operator:type": "private",
                "amenity": "kindergarten"
            }
        }
    ]
}