{
    "type": "FeatureCollection",
    "features": [
        {
            "id": 91394,
            "type": "Feature",
            "geometry": {
                "type": "Point",
                "coordinates": [
                    19.36614,
                    50.6980999
                ]
            },
            "properties": {
                "ref:rspo": 91394,
                "official_name": "Szkolne Schronisko M\u0142odzie\u017cowe w Siedlcu",
                "name": "Szkolne Schronisko M\u0142odzie\u017cowe w Siedlcu",
                "addr:postcode": "42-253",
                "addr:city": "Siedlec",
                "addr:street": "Szkolna",
                "addr:housenumber": "8",
                "addr:city:simc": 133534,
                "addr:street:sym_ul": 21970,
                "phone": "+48 343278009",
                "email": "schroniskozpo@janow.pl",
                "ref:regon": "151971420",
                "ref:vatin": "PL9491939664",
                "operator": "Gmina Jan\u00f3w",
                "operator:type": "government",
                "tourism": "hostel",
                "note": "Parent RSPO: 276182"
            }
        },
        {
            "id": 92265,
            "type": "Feature",
            "geometry": {
                "type": "Point",
                "coordinates": [
                    19.538173,
                    50.704035
                ]
            },
            "properties": {
                "isced:level": "1;2",
                "ref:rspo": 92265,
                "official_name": "Szko\u0142a Podstawowa im. \u015aw. Stanis\u0142awa Kostki w Lgoczance",
                "name": "Szko\u0142a Podstawowa",
                "addr:postcode": "42-253",
                "addr:place": "Lgoczanka",
                "addr:housenumber": "1A",
                "addr:city:simc": 133327,
                "phone": "+48 343278780",
                "email": "splgoczanka@janow.pl",
                "website": "http:\/\/www.splgoczanka.pl",
                "ref:regon": "001204897",
                "ref:vatin": "PL9491940058",
                "operator": "Gmina Jan\u00f3w",
                "operator:type": "government",
                "amenity": "school"
            }
        },
        {
            "id": 92266,
            "type": "Feature",
            "geometry": {
                "type": "Point",
                "coordinates": [
                    19.43307,
                    50.70896
                ]
            },
            "properties": {
                "ref:rspo": 92266,
                "official_name": "Przedszkole w Z\u0142otym Potoku",
                "name": "Przedszkole w Z\u0142otym Potoku",
                "addr:postcode": "42-253",
                "addr:city": "Z\u0142oty Potok",
                "addr:street": "Tadeusza Ko\u015bciuszki",
                "addr:housenumber": "21B",
                "addr:city:simc": 133451,
                "addr:street:sym_ul": 9572,
                "phone": "+48 343278118",
                "email": "przedszkolezp@janow.pl",
                "ref:regon": "150031027",
                "ref:vatin": "PL9491940006",
                "operator": "Gmina Jan\u00f3w",
                "operator:type": "government",
                "amenity": "kindergarten"
            }
        },
        {
            "id": 20569,
            "type": "Feature",
            "geometry": {
                "type": "Point",
                "coordinates": [
                    19.4346,
                    50.7117999
                ]
            },
            "properties": {
                "ref:rspo": 20569,
                "official_name": "Zesp\u00f3\u0142 Szk\u00f3\u0142 im. W\u0142adys\u0142awa Szafera w Z\u0142otym Potoku",
                "name": "Zesp\u00f3\u0142 Szk\u00f3\u0142",
                "addr:postcode": "42-253",
                "addr:city": "Z\u0142oty Potok",
                "addr:street": "Tadeusza Ko\u015bciuszki",
                "addr:housenumber": "7",
                "addr:city:simc": 133451,
                "addr:street:sym_ul": 9572,
                "phone": "+48 343278008",
                "email": "sekretariat@zlpotok.pl",
                "website": "http:\/\/www.zlpotok.pl",
                "ref:regon": "000096721",
                "ref:vatin": "PL9490242441",
                "operator": "Powiat Cz\u0119stochowski",
                "operator:type": "government",
                "landuse": "education",
                "fixme": "amenity=school, amenity=college albo landuse=education w zale\u017cno\u015bci od tego, jakie plac\u00f3wki wchodz\u0105 w sk\u0142ad zespo\u0142u. Sprawd\u017a, kiedy stosowa\u0107 amenity=* a kiedy landuse=education.",
                "note": "Children RSPO: 73009;73021;73036;73227;115432"
            }
        },
        {
            "id": 73009,
            "type": "Feature",
            "geometry": {
                "type": "Point",
                "coordinates": [
                    19.4346,
                    50.7117699
                ]
            },
            "properties": {
                "isced:level": "3",
                "ref:rspo": 73009,
                "official_name": "Zesp\u00f3\u0142 Szk\u00f3\u0142 im. W\u0142adys\u0142awa Szafera Bran\u017cowa Szko\u0142a I Stopnia w Z\u0142otym Potoku",
                "name": "Zesp\u00f3\u0142 Szk\u00f3\u0142",
                "addr:postcode": "42-253",
                "addr:city": "Z\u0142oty Potok",
                "addr:street": "Tadeusza Ko\u015bciuszki",
                "addr:housenumber": "7",
                "addr:city:simc": 133451,
                "addr:street:sym_ul": 9572,
                "phone": "+48 343278008",
                "email": "sekretariat@zlpotok.pl",
                "ref:regon": "240608419",
                "operator": "Powiat Cz\u0119stochowski",
                "operator:type": "government",
                "amenity": "school",
                "note": "Parent RSPO: 20569"
            }
        },
        {
            "id": 73021,
            "type": "Feature",
            "geometry": {
                "type": "Point",
                "coordinates": [
                    19.4346,
                    50.711739900000005
                ]
            },
            "properties": {
                "isced:level": "3",
                "ref:rspo": 73021,
                "official_name": "Zesp\u00f3\u0142 Szk\u00f3\u0142 im. W\u0142adys\u0142awa Szafera Technikum w Z\u0142otym Potoku",
                "name": "Zesp\u00f3\u0142 Szk\u00f3\u0142",
                "addr:postcode": "42-253",
                "addr:city": "Z\u0142oty Potok",
                "addr:street": "Tadeusza Ko\u015bciuszki",
                "addr:housenumber": "7",
                "addr:city:simc": 133451,
                "addr:street:sym_ul": 9572,
                "phone": "+48 343278008",
                "email": "sekretariat@zlpotok.pl",
                "website": "http:\/\/www.zlpotok.pl",
                "ref:regon": "151992444",
                "operator": "Powiat Cz\u0119stochowski",
                "operator:type": "government",
                "amenity": "school",
                "note": "Parent RSPO: 20569"
            }
        },
        {
            "id": 73036,
            "type": "Feature",
            "geometry": {
                "type": "Point",
                "coordinates": [
                    19.4346,
                    50.7117099
                ]
            },
            "properties": {
                "isced:level": "4",
                "ref:rspo": 73036,
                "official_name": "Zesp\u00f3\u0142 Szk\u00f3\u0142 im. W\u0142adys\u0142awa Szafera Szko\u0142a Policealna w Z\u0142otym Potoku",
                "name": "Zesp\u00f3\u0142 Szk\u00f3\u0142",
                "addr:postcode": "42-253",
                "addr:city": "Z\u0142oty Potok",
                "addr:street": "Tadeusza Ko\u015bciuszki",
                "addr:housenumber": "7",
                "addr:city:simc": 133451,
                "addr:street:sym_ul": 9572,
                "phone": "+48 343278008",
                "email": "sekretariat@zlpotok.pl",
                "ref:regon": "240996456",
                "operator": "Powiat Cz\u0119stochowski",
                "operator:type": "government",
                "amenity": "college",
                "note": "Parent RSPO: 20569"
            }
        },
        {
            "id": 73227,
            "type": "Feature",
            "geometry": {
                "type": "Point",
                "coordinates": [
                    19.4346,
                    50.7116799
                ]
            },
            "properties": {
                "ref:rspo": 73227,
                "official_name": "Zesp\u00f3\u0142 Szk\u00f3\u0142 im. W\u0142adys\u0142awa Szafera Szkolne Schronisko M\u0142odzie\u017cowe w Z\u0142otym Potoku",
                "name": "Zesp\u00f3\u0142 Szk\u00f3\u0142",
                "addr:postcode": "42-253",
                "addr:city": "Z\u0142oty Potok",
                "addr:street": "Tadeusza Ko\u015bciuszki",
                "addr:housenumber": "7",
                "addr:city:simc": 133451,
                "addr:street:sym_ul": 9572,
                "phone": "+48 343278008",
                "email": "sekretariat@zlpotok.pl",
                "ref:regon": "151960295",
                "operator": "Powiat Cz\u0119stochowski",
                "operator:type": "government",
                "tourism": "hostel",
                "note": "Parent RSPO: 20569"
            }
        },
        {
            "id": 115432,
            "type": "Feature",
            "geometry": {
                "type": "Point",
                "coordinates": [
                    19.4346,
                    50.711649900000005
                ]
            },
            "properties": {
                "isced:level": "3",
                "ref:rspo": 115432,
                "official_name": "Liceum Og\u00f3lnokszta\u0142c\u0105ce dla Doros\u0142ych w Z\u0142otym Potoku",
                "name": "Liceum Og\u00f3lnokszta\u0142c\u0105ce dla Doros\u0142ych w Z\u0142otym Potoku",
                "addr:postcode": "42-253",
                "addr:city": "Z\u0142oty Potok",
                "addr:street": "Tadeusza Ko\u015bciuszki",
                "addr:housenumber": "7",
                "addr:city:simc": 133451,
                "addr:street:sym_ul": 9572,
                "phone": "+48 343278008",
                "email": "sekretariat@zlpotok.pl",
                "website": "http:\/\/www.zlpotok.pl",
                "ref:regon": "243309137",
                "operator": "Powiat Cz\u0119stochowski",
                "operator:type": "government",
                "amenity": "school",
                "note": "Parent RSPO: 20569"
            }
        },
        {
            "id": 73670,
            "type": "Feature",
            "geometry": {
                "type": "Point",
                "coordinates": [
                    19.43331,
                    50.7237099
                ]
            },
            "properties": {
                "isced:level": "3",
                "ref:rspo": 73670,
                "official_name": "Niepubliczne Liceum Og\u00f3lnokszta\u0142c\u0105ce dla Doros\u0142ych w Janowie",
                "name": "Niepubliczne Liceum Og\u00f3lnokszta\u0142c\u0105ce dla Doros\u0142ych w Janowie",
                "addr:postcode": "42-253",
                "addr:city": "Jan\u00f3w",
                "addr:street": "Szkolna",
                "addr:housenumber": "2",
                "addr:city:simc": 133273,
                "addr:street:sym_ul": 21970,
                "phone": "+48 781681230",
                "email": "jaroslawfoltyn@wp.pl",
                "ref:regon": "243085442",
                "operator": "Jaros\u0142aw Folt\u0144ski",
                "operator:type": "private",
                "amenity": "school"
            }
        },
        {
            "id": 276182,
            "type": "Feature",
            "geometry": {
                "type": "Point",
                "coordinates": [
                    19.43331,
                    50.7236799
                ]
            },
            "properties": {
                "ref:rspo": 276182,
                "official_name": "Zesp\u00f3\u0142 Plac\u00f3wek O\u015bwiatowych w Janowie",
                "name": "Zesp\u00f3\u0142 Plac\u00f3wek O\u015bwiatowych w Janowie",
                "addr:postcode": "42-253",
                "addr:city": "Jan\u00f3w",
                "addr:street": "Szkolna",
                "addr:housenumber": "2",
                "addr:city:simc": 133273,
                "addr:street:sym_ul": 21970,
                "phone": "+48 343278009",
                "email": "zpojanow@janow.pl",
                "ref:regon": "387021692",
                "ref:vatin": "PL9492182045",
                "operator": "Gmina Jan\u00f3w",
                "operator:type": "government",
                "landuse": "education",
                "fixme": "amenity=school, amenity=college albo landuse=education w zale\u017cno\u015bci od tego, jakie plac\u00f3wki wchodz\u0105 w sk\u0142ad zespo\u0142u. Sprawd\u017a, kiedy stosowa\u0107 amenity=* a kiedy landuse=education.",
                "note": "Children RSPO: 91394;91397;91398"
            }
        },
        {
            "id": 91397,
            "type": "Feature",
            "geometry": {
                "type": "Point",
                "coordinates": [
                    19.43331,
                    50.723649900000005
                ]
            },
            "properties": {
                "isced:level": "1;2",
                "ref:rspo": 91397,
                "official_name": "Szko\u0142a Podstawowa im. Romualda Traugutta w Janowie",
                "name": "Szko\u0142a Podstawowa",
                "addr:postcode": "42-253",
                "addr:city": "Jan\u00f3w",
                "addr:street": "Szkolna",
                "addr:housenumber": "2",
                "addr:city:simc": 133273,
                "addr:street:sym_ul": 21970,
                "phone": "+48 343278009",
                "email": "zpojanow@janow.pl",
                "ref:regon": "000266548",
                "ref:vatin": "PL9491939658",
                "operator": "Gmina Jan\u00f3w",
                "operator:type": "government",
                "amenity": "school",
                "note": "Parent RSPO: 276182"
            }
        },
        {
            "id": 91398,
            "type": "Feature",
            "geometry": {
                "type": "Point",
                "coordinates": [
                    19.43331,
                    50.7236199
                ]
            },
            "properties": {
                "ref:rspo": 91398,
                "official_name": "Przedszkole w Janowie",
                "name": "Przedszkole w Janowie",
                "addr:postcode": "42-253",
                "addr:city": "Jan\u00f3w",
                "addr:street": "Szkolna",
                "addr:housenumber": "2",
                "addr:city:simc": 133273,
                "addr:street:sym_ul": 21970,
                "phone": "+48 343278295",
                "email": "zpojanow@janow.pl",
                "ref:regon": "150031010",
                "ref:vatin": "PL9491939983",
                "operator": "Gmina Jan\u00f3w",
                "operator:type": "government",
                "amenity": "kindergarten",
                "note": "Parent RSPO: 276182"
            }
        },
        {
            "id": 262370,
            "type": "Feature",
            "geometry": {
                "type": "Point",
                "coordinates": [
                    19.39765,
                    50.7346999
                ]
            },
            "properties": {
                "isced:level": "1;2",
                "ref:rspo": 262370,
                "official_name": "Szko\u0142a Podstawowa w Piasku",
                "name": "Szko\u0142a Podstawowa w Piasku",
                "addr:postcode": "42-253",
                "addr:city": "Piasek",
                "addr:street": "\u017burawska",
                "addr:housenumber": "2",
                "addr:city:simc": 133422,
                "addr:street:sym_ul": 26587,
                "phone": "+48 343278531",
                "email": "sppiasek@janow.pl",
                "ref:regon": "367991868",
                "operator": "Gmina Jan\u00f3w",
                "operator:type": "government",
                "amenity": "school"
            }
        },
        {
            "id": 91393,
            "type": "Feature",
            "geometry": {
                "type": "Point",
                "coordinates": [
                    19.3987519,
                    50.7726089
                ]
            },
            "properties": {
                "isced:level": "1;2",
                "ref:rspo": 91393,
                "official_name": "Szko\u0142a Podstawowa im.w\u0142adys\u0142awa Broniewskiego w Lus\u0142awicach",
                "name": "Szko\u0142a Podstawowa im.w\u0142adys\u0142awa Broniewskiego w Lus\u0142awicach",
                "addr:postcode": "42-253",
                "addr:place": "Lus\u0142awice",
                "addr:housenumber": "70",
                "addr:city:simc": 133362,
                "phone": "+48 343278753",
                "email": "spluslawice@janow.pl",
                "website": "http:\/\/spluslawice.janow.pl",
                "ref:regon": "001204911",
                "ref:vatin": "PL9491939641",
                "operator": "Gmina Jan\u00f3w",
                "operator:type": "government",
                "amenity": "school"
            }
        }
    ]
}