{
    "type": "FeatureCollection",
    "features": [
        {
            "id": 269169,
            "type": "Feature",
            "geometry": {
                "type": "Point",
                "coordinates": [
                    19.1337699,
                    50.86841
                ]
            },
            "properties": {
                "ref:rspo": 269169,
                "official_name": "Niepubliczne Artystyczne Przedszkole Olka Klepacza ,,Klepacz\u00f3wka\"",
                "name": "Niepubliczne Artystyczne Przedszkole Olka Klepacza ,,Klepacz\u00f3wka\"",
                "addr:country": "PL",
                "addr:postcode": "42-233",
                "addr:city": "Wierzchowisko",
                "addr:street": "Szkolna",
                "addr:housenumber": "12",
                "addr:teryt:simc": 139070,
                "addr:teryt:sym_ul": 21970,
                "contact:email": "kontakt@klepaczowka.pl",
                "contact:website": "http:\/\/www.klepaczowka.pl",
                "ref:regon": "381390804",
                "operator": "Iwona Klepacz",
                "operator:type": "private",
                "amenity": "kindergarten"
            }
        },
        {
            "id": 264290,
            "type": "Feature",
            "geometry": {
                "type": "Point",
                "coordinates": [
                    19.13237,
                    50.8728399
                ]
            },
            "properties": {
                "ref:rspo": 264290,
                "official_name": "Zesp\u00f3\u0142 Szkolno-Przedszkolny w Wierzchowisku",
                "name": "Zesp\u00f3\u0142 Szkolno-Przedszkolny w Wierzchowisku",
                "addr:country": "PL",
                "addr:postcode": "42-233",
                "addr:city": "Wierzchowisko",
                "addr:street": "D\u0142uga",
                "addr:housenumber": "110",
                "addr:teryt:simc": 139070,
                "addr:teryt:sym_ul": 3839,
                "contact:phone": "+48 343287210",
                "contact:email": "zspwierzchowisko@gmail.com",
                "contact:website": "http:\/\/www.zspwierzchowisko.edu.pl",
                "ref:regon": "368304137",
                "ref:vatin": "PL5732888068",
                "operator": "Gmina Mykan\u00f3w",
                "operator:type": "government",
                "landuse": "education",
                "fixme": "amenity=school, amenity=college albo landuse=education w zale\u017cno\u015bci od tego, jakie plac\u00f3wki wchodz\u0105 w sk\u0142ad zespo\u0142u. Sprawd\u017a, kiedy stosowa\u0107 amenity=* a kiedy landuse=education.",
                "note": "Children RSPO: 53455;264289"
            }
        },
        {
            "id": 53455,
            "type": "Feature",
            "geometry": {
                "type": "Point",
                "coordinates": [
                    19.13237,
                    50.8728099
                ]
            },
            "properties": {
                "isced:level": "1;2",
                "ref:rspo": 53455,
                "official_name": "Szko\u0142a Podstawowa im.tadeusza Ko\u015bciuszki w Wierzchowisku",
                "name": "Szko\u0142a Podstawowa im.tadeusza Ko\u015bciuszki w Wierzchowisku",
                "addr:country": "PL",
                "addr:postcode": "42-233",
                "addr:city": "Wierzchowisko",
                "addr:street": "D\u0142uga",
                "addr:housenumber": "110",
                "addr:teryt:simc": 139070,
                "addr:teryt:sym_ul": 3839,
                "contact:phone": "+48 343287210",
                "contact:email": "zspwierzchowisko@gmail.com",
                "contact:website": "http:\/\/www.szpwierzchowisko.szkolnastrona.pl",
                "ref:regon": "001204450",
                "ref:vatin": "PL5732479855",
                "operator": "Gmina Mykan\u00f3w",
                "operator:type": "government",
                "amenity": "school",
                "note": "Parent RSPO: 264290"
            }
        },
        {
            "id": 264289,
            "type": "Feature",
            "geometry": {
                "type": "Point",
                "coordinates": [
                    19.13237,
                    50.872779900000005
                ]
            },
            "properties": {
                "ref:rspo": 264289,
                "official_name": "Przedszkole w Wierzchowisku",
                "name": "Przedszkole w Wierzchowisku",
                "addr:country": "PL",
                "addr:postcode": "42-233",
                "addr:city": "Wierzchowisko",
                "addr:street": "D\u0142uga",
                "addr:housenumber": "110",
                "addr:teryt:simc": 139070,
                "addr:teryt:sym_ul": 3839,
                "contact:phone": "+48 343287210",
                "contact:email": "zspwierzchowisko@gmail.com",
                "contact:website": "http:\/\/www.szpwierzchowisko.szkolnastrona.pl",
                "ref:regon": "368304108",
                "operator": "Gmina Mykan\u00f3w",
                "operator:type": "government",
                "amenity": "kindergarten",
                "note": "Parent RSPO: 264290"
            }
        },
        {
            "id": 53458,
            "type": "Feature",
            "geometry": {
                "type": "Point",
                "coordinates": [
                    19.09447,
                    50.87739
                ]
            },
            "properties": {
                "ref:rspo": 53458,
                "official_name": "Przedszkole Niepubliczne ,,Kotek Leon\"",
                "name": "Przedszkole Niepubliczne ,,Kotek Leon\"",
                "addr:country": "PL",
                "addr:postcode": "42-233",
                "addr:city": "Wola Hankowska",
                "addr:street": "Akacjowa",
                "addr:housenumber": "144",
                "addr:teryt:simc": 139092,
                "addr:teryt:sym_ul": 157,
                "contact:phone": "+48 691878838",
                "contact:email": "kontakt@kotekleon.pl",
                "contact:website": "http:\/\/www.kotekleon.pl",
                "ref:regon": "243074852",
                "ref:vatin": "PL5732574619",
                "operator": "Robert Ki\u0107",
                "operator:type": "private",
                "amenity": "kindergarten"
            }
        },
        {
            "id": 109726,
            "type": "Feature",
            "geometry": {
                "type": "Point",
                "coordinates": [
                    19.08265,
                    50.89296
                ]
            },
            "properties": {
                "isced:level": "1;2",
                "ref:rspo": 109726,
                "official_name": "Szko\u0142a Podstawowa im.jana Kochanowskiego w Czarnym Lesie",
                "name": "Szko\u0142a Podstawowa im.jana Kochanowskiego w Czarnym Lesie",
                "addr:country": "PL",
                "addr:postcode": "42-233",
                "addr:city": "Czarny Las",
                "addr:street": "Szkolna",
                "addr:housenumber": "6",
                "addr:teryt:simc": 138750,
                "addr:teryt:sym_ul": 21970,
                "contact:phone": "+48 343280252",
                "contact:email": "spczarny@o2.pl",
                "contact:website": "http:\/\/www.spczarny.pl",
                "ref:regon": "001204437",
                "ref:vatin": "PL5732834948",
                "operator": "Gmina Mykan\u00f3w",
                "operator:type": "government",
                "amenity": "school"
            }
        },
        {
            "id": 21632,
            "type": "Feature",
            "geometry": {
                "type": "Point",
                "coordinates": [
                    19.11839,
                    50.8944
                ]
            },
            "properties": {
                "ref:rspo": 21632,
                "official_name": "Zesp\u00f3\u0142 Szkolno-Przedszkolny w Lubojnie",
                "name": "Zesp\u00f3\u0142 Szkolno-Przedszkolny w Lubojnie",
                "addr:country": "PL",
                "addr:postcode": "42-233",
                "addr:city": "Lubojna",
                "addr:street": "Stra\u017cacka",
                "addr:housenumber": "21",
                "addr:teryt:simc": 138862,
                "addr:teryt:sym_ul": 21271,
                "contact:phone": "+48 343289614",
                "contact:email": "zsplubojna@interia.pl",
                "contact:website": "https:\/\/zsplubojna.edupage.org",
                "ref:regon": "242629259",
                "ref:vatin": "PL5732834813",
                "operator": "Gmina Mykan\u00f3w",
                "operator:type": "government",
                "landuse": "education",
                "fixme": "amenity=school, amenity=college albo landuse=education w zale\u017cno\u015bci od tego, jakie plac\u00f3wki wchodz\u0105 w sk\u0142ad zespo\u0142u. Sprawd\u017a, kiedy stosowa\u0107 amenity=* a kiedy landuse=education.",
                "note": "Children RSPO: 109714;109715"
            }
        },
        {
            "id": 109714,
            "type": "Feature",
            "geometry": {
                "type": "Point",
                "coordinates": [
                    19.11839,
                    50.894369999999995
                ]
            },
            "properties": {
                "ref:rspo": 109714,
                "official_name": "Przedszkole w Lubojnie",
                "name": "Przedszkole w Lubojnie",
                "addr:country": "PL",
                "addr:postcode": "42-233",
                "addr:city": "Lubojna",
                "addr:street": "Stra\u017cacka",
                "addr:housenumber": "21",
                "addr:teryt:simc": 138862,
                "addr:teryt:sym_ul": 21271,
                "contact:phone": "+48 343289613",
                "contact:email": "zsplubojna@interia.pl",
                "contact:website": "http:\/\/zsplubojna.edupage.org",
                "ref:regon": "150538387",
                "ref:vatin": "PL5732479795",
                "operator": "Gmina Mykan\u00f3w",
                "operator:type": "government",
                "amenity": "kindergarten",
                "note": "Parent RSPO: 21632"
            }
        },
        {
            "id": 109715,
            "type": "Feature",
            "geometry": {
                "type": "Point",
                "coordinates": [
                    19.11839,
                    50.89434
                ]
            },
            "properties": {
                "isced:level": "1;2",
                "ref:rspo": 109715,
                "official_name": "Szko\u0142a Podstawowa im.jana Paw\u0142a II w Lubojnie",
                "name": "Szko\u0142a Podstawowa im.jana Paw\u0142a II w Lubojnie",
                "addr:country": "PL",
                "addr:postcode": "42-233",
                "addr:city": "Lubojna",
                "addr:street": "Stra\u017cacka",
                "addr:housenumber": "21",
                "addr:teryt:simc": 138862,
                "addr:teryt:sym_ul": 21271,
                "contact:phone": "+48 343289614",
                "contact:email": "zsplubojna@interia.pl",
                "contact:website": "http:\/\/zsplubojna.edupage.org",
                "ref:regon": "001204443",
                "ref:vatin": "PL5732479890",
                "operator": "Gmina Mykan\u00f3w",
                "operator:type": "government",
                "amenity": "school",
                "note": "Parent RSPO: 21632"
            }
        },
        {
            "id": 53457,
            "type": "Feature",
            "geometry": {
                "type": "Point",
                "coordinates": [
                    19.15749,
                    50.91472
                ]
            },
            "properties": {
                "isced:level": "1;2",
                "ref:rspo": 53457,
                "official_name": "Szko\u0142a Podstawowa im.jana Brzechwy w Radostkowie",
                "name": "Szko\u0142a Podstawowa im.jana Brzechwy w Radostkowie",
                "addr:country": "PL",
                "addr:postcode": "42-233",
                "addr:city": "Radostk\u00f3w-Kolonia",
                "addr:street": "Szkolna",
                "addr:housenumber": "1",
                "addr:teryt:simc": 138974,
                "addr:teryt:sym_ul": 21970,
                "contact:phone": "+48 343288035",
                "contact:email": "spradostkow@op.pl",
                "contact:website": "http:\/\/www.spradostkow.edupage.org",
                "ref:regon": "001204472",
                "ref:vatin": "PL5732479683",
                "operator": "Gmina Mykan\u00f3w",
                "operator:type": "government",
                "amenity": "school"
            }
        },
        {
            "id": 53450,
            "type": "Feature",
            "geometry": {
                "type": "Point",
                "coordinates": [
                    19.08155,
                    50.91689
                ]
            },
            "properties": {
                "ref:rspo": 53450,
                "official_name": "Przedszkole w Ku\u017anicy Kiedrzy\u0144skiej",
                "name": "Przedszkole w Ku\u017anicy Kiedrzy\u0144skiej",
                "addr:country": "PL",
                "addr:postcode": "42-233",
                "addr:city": "Ku\u017anica Kiedrzy\u0144ska",
                "addr:street": "Wincentego Witosa",
                "addr:housenumber": "120",
                "addr:teryt:simc": 138833,
                "addr:teryt:sym_ul": 24459,
                "contact:phone": "+48 343280006",
                "contact:email": "przedszkole.kuznica@mykanow.pl",
                "contact:website": "http:\/\/www.pkuznica.szkolnastrona.pl",
                "ref:regon": "151983333",
                "ref:vatin": "PL5732479789",
                "operator": "Gmina Mykan\u00f3w",
                "operator:type": "government",
                "amenity": "kindergarten"
            }
        },
        {
            "id": 21631,
            "type": "Feature",
            "geometry": {
                "type": "Point",
                "coordinates": [
                    19.19711,
                    50.9231
                ]
            },
            "properties": {
                "ref:rspo": 21631,
                "official_name": "Zesp\u00f3\u0142 Szkolno-Przedszkolny w Mykanowie",
                "name": "Zesp\u00f3\u0142 Szkolno-Przedszkolny w Mykanowie",
                "addr:country": "PL",
                "addr:postcode": "42-233",
                "addr:city": "Mykan\u00f3w",
                "addr:street": "S\u0142oneczna",
                "addr:housenumber": "114",
                "addr:teryt:simc": 138922,
                "addr:teryt:sym_ul": 20254,
                "contact:phone": "+48 343288526",
                "contact:email": "zspmykanow@gmail.com",
                "contact:website": "http:\/\/www.mykanow.edu.pl",
                "ref:regon": "242633999",
                "ref:vatin": "PL5732834919",
                "operator": "Gmina Mykan\u00f3w",
                "operator:type": "government",
                "landuse": "education",
                "fixme": "amenity=school, amenity=college albo landuse=education w zale\u017cno\u015bci od tego, jakie plac\u00f3wki wchodz\u0105 w sk\u0142ad zespo\u0142u. Sprawd\u017a, kiedy stosowa\u0107 amenity=* a kiedy landuse=education.",
                "note": "Children RSPO: 109779;110068"
            }
        },
        {
            "id": 109779,
            "type": "Feature",
            "geometry": {
                "type": "Point",
                "coordinates": [
                    19.19711,
                    50.923069999999996
                ]
            },
            "properties": {
                "ref:rspo": 109779,
                "official_name": "Przedszkole w Mykanowie",
                "name": "Przedszkole w Mykanowie",
                "addr:country": "PL",
                "addr:postcode": "42-233",
                "addr:city": "Mykan\u00f3w",
                "addr:street": "S\u0142oneczna",
                "addr:housenumber": "114",
                "addr:teryt:simc": 138922,
                "addr:teryt:sym_ul": 20254,
                "contact:phone": "+48 343288526",
                "contact:email": "zspmykanow@gmail.com",
                "contact:website": "http:\/\/www.mykanow.edu.pl",
                "ref:regon": "150538370",
                "ref:vatin": "PL5732479826",
                "operator": "Gmina Mykan\u00f3w",
                "operator:type": "government",
                "amenity": "kindergarten",
                "note": "Parent RSPO: 21631"
            }
        },
        {
            "id": 110068,
            "type": "Feature",
            "geometry": {
                "type": "Point",
                "coordinates": [
                    19.19711,
                    50.92304
                ]
            },
            "properties": {
                "isced:level": "1;2",
                "ref:rspo": 110068,
                "official_name": "Szko\u0142a Podstawowa im.stefana Okrzei w Mykanowie",
                "name": "Szko\u0142a Podstawowa im.stefana Okrzei w Mykanowie",
                "addr:country": "PL",
                "addr:postcode": "42-233",
                "addr:city": "Mykan\u00f3w",
                "addr:street": "S\u0142oneczna",
                "addr:housenumber": "114",
                "addr:teryt:simc": 138922,
                "addr:teryt:sym_ul": 20254,
                "contact:phone": "+48 343288526",
                "contact:email": "zspmykanow@gmail.com",
                "contact:website": "http:\/\/www.mykanow.edu.pl",
                "ref:regon": "000271466",
                "ref:vatin": "PL5732479772",
                "operator": "Gmina Mykan\u00f3w",
                "operator:type": "government",
                "amenity": "school",
                "note": "Parent RSPO: 21631"
            }
        },
        {
            "id": 21630,
            "type": "Feature",
            "geometry": {
                "type": "Point",
                "coordinates": [
                    19.2738576,
                    50.9278351
                ]
            },
            "properties": {
                "ref:rspo": 21630,
                "official_name": "Zesp\u00f3\u0142 Szkolno-Przedszkolny w Borownie",
                "name": "Zesp\u00f3\u0142 Szkolno-Przedszkolny w Borownie",
                "addr:country": "PL",
                "addr:postcode": "42-233",
                "addr:city": "Borowno-Kolonia",
                "addr:street": "Klonowa",
                "addr:housenumber": "6\/8",
                "addr:teryt:simc": 138721,
                "addr:teryt:sym_ul": 8574,
                "contact:phone": "+48 343133313",
                "contact:email": "szkola@szkolaborowno.pl",
                "contact:website": "http:\/\/www.szkolaborowno.pl",
                "ref:regon": "242632758",
                "ref:vatin": "PL5732835333",
                "operator": "Gmina Mykan\u00f3w",
                "operator:type": "government",
                "landuse": "education",
                "fixme": "amenity=school, amenity=college albo landuse=education w zale\u017cno\u015bci od tego, jakie plac\u00f3wki wchodz\u0105 w sk\u0142ad zespo\u0142u. Sprawd\u017a, kiedy stosowa\u0107 amenity=* a kiedy landuse=education.",
                "note": "Children RSPO: 109781;109782"
            }
        },
        {
            "id": 109781,
            "type": "Feature",
            "geometry": {
                "type": "Point",
                "coordinates": [
                    19.2738576,
                    50.9278051
                ]
            },
            "properties": {
                "ref:rspo": 109781,
                "official_name": "Przedszkole w Borownie",
                "name": "Przedszkole w Borownie",
                "addr:country": "PL",
                "addr:postcode": "42-233",
                "addr:city": "Borowno-Kolonia",
                "addr:street": "Klonowa",
                "addr:housenumber": "6\/8",
                "addr:teryt:simc": 138721,
                "addr:teryt:sym_ul": 8574,
                "contact:phone": "+48 343289107",
                "contact:email": "szkola@szkolaborowno.pl",
                "contact:website": "http:\/\/www.szkolaborowno.pl",
                "ref:regon": "150538401",
                "ref:vatin": "PL5732479737",
                "operator": "Gmina Mykan\u00f3w",
                "operator:type": "government",
                "amenity": "kindergarten",
                "note": "Parent RSPO: 21630"
            }
        },
        {
            "id": 109782,
            "type": "Feature",
            "geometry": {
                "type": "Point",
                "coordinates": [
                    19.2738576,
                    50.927775100000005
                ]
            },
            "properties": {
                "isced:level": "1;2",
                "ref:rspo": 109782,
                "official_name": "Szko\u0142a Podstawowa im.edwarda Reszke w Borownie",
                "name": "Szko\u0142a Podstawowa im.edwarda Reszke w Borownie",
                "addr:country": "PL",
                "addr:postcode": "42-233",
                "addr:city": "Borowno-Kolonia",
                "addr:street": "Klonowa",
                "addr:housenumber": "6\/8",
                "addr:teryt:simc": 138721,
                "addr:teryt:sym_ul": 8574,
                "contact:phone": "+48 431333133",
                "contact:email": "szkola@szkolaborowno.pl",
                "contact:website": "http:\/\/www.szkolaborowno.pl",
                "ref:regon": "001204377",
                "ref:vatin": "PL5732479861",
                "operator": "Gmina Mykan\u00f3w",
                "operator:type": "government",
                "amenity": "school",
                "note": "Parent RSPO: 21630"
            }
        },
        {
            "id": 104945,
            "type": "Feature",
            "geometry": {
                "type": "Point",
                "coordinates": [
                    19.12301,
                    50.93182
                ]
            },
            "properties": {
                "isced:level": "1;2",
                "ref:rspo": 104945,
                "official_name": "Publiczna Szko\u0142a Podstawowa Stowarzyszenia Przyjaci\u00f3\u0142 Szk\u00f3\u0142 Katolickich im.dzieci Fatimskich w Rybnej",
                "name": "Publiczna Szko\u0142a Podstawowa Stowarzyszenia Przyjaci\u00f3\u0142 Szk\u00f3\u0142 Katolickich im.dzieci Fatimskich w Rybnej",
                "addr:country": "PL",
                "addr:postcode": "42-231",
                "addr:city": "Rybna",
                "addr:street": "Szkolna",
                "addr:housenumber": "5",
                "addr:teryt:simc": 138997,
                "addr:teryt:sym_ul": 21970,
                "contact:phone": "+48 343288121",
                "contact:email": "rybnapsp@wp.pl",
                "contact:website": "http:\/\/www.rybnapsp.szkolnastrona.pl",
                "ref:regon": "243134070",
                "ref:vatin": "PL5732470653",
                "operator": "Stowarzyszenie Przyjaci\u00f3\u0142 Szk\u00f3\u0142 Katolickich",
                "operator:type": "ngo",
                "amenity": "school"
            }
        },
        {
            "id": 109777,
            "type": "Feature",
            "geometry": {
                "type": "Point",
                "coordinates": [
                    19.1754,
                    50.95208
                ]
            },
            "properties": {
                "isced:level": "1;2",
                "ref:rspo": 109777,
                "official_name": "Szko\u0142a Podstawowa im.marcina Kacprzaka",
                "name": "Szko\u0142a Podstawowa im.marcina Kacprzaka",
                "addr:country": "PL",
                "addr:postcode": "42-231",
                "addr:city": "Stary Cykarzew",
                "addr:street": "Szkolna",
                "addr:housenumber": "12",
                "addr:teryt:simc": 139028,
                "addr:teryt:sym_ul": 21970,
                "contact:phone": "+48 343289323",
                "contact:email": "sp_cykarzew@poczta.onet.pl",
                "contact:website": "http:\/\/www.spcykarzew.szkolnastrona.pl",
                "ref:regon": "001204383",
                "ref:vatin": "PL5732834931",
                "operator": "Gmina Mykan\u00f3w",
                "operator:type": "government",
                "amenity": "school"
            }
        },
        {
            "id": 53449,
            "type": "Feature",
            "geometry": {
                "type": "Point",
                "coordinates": [
                    19.1706246,
                    50.9525869
                ]
            },
            "properties": {
                "ref:rspo": 53449,
                "official_name": "Przedszkole w Starym Cykarzewie",
                "name": "Przedszkole w Starym Cykarzewie",
                "addr:country": "PL",
                "addr:postcode": "42-231",
                "addr:city": "Stary Cykarzew",
                "addr:street": "Kolejowa",
                "addr:housenumber": "7",
                "addr:teryt:simc": 139028,
                "addr:teryt:sym_ul": 8828,
                "contact:phone": "+48 343289337",
                "contact:email": "przedszkole.cykarzew@mykanow.pl",
                "contact:website": "http:\/\/www.przedszkolecykarzew.szkolnastrona.pl",
                "ref:regon": "150538424",
                "ref:vatin": "PL5732479766",
                "operator": "Gmina Mykan\u00f3w",
                "operator:type": "government",
                "amenity": "kindergarten"
            }
        },
        {
            "id": 53453,
            "type": "Feature",
            "geometry": {
                "type": "Point",
                "coordinates": [
                    19.11621,
                    50.95478
                ]
            },
            "properties": {
                "isced:level": "1;2",
                "ref:rspo": 53453,
                "official_name": "Szko\u0142a Podstawowa im.wo\u0142y\u0144skiej Brygady Kawalerii w Starym Kocinie",
                "name": "Szko\u0142a Podstawowa im.wo\u0142y\u0144skiej Brygady Kawalerii w Starym Kocinie",
                "addr:country": "PL",
                "addr:postcode": "42-231",
                "addr:city": "Stary Kocin",
                "addr:street": "Kr\u0119ta",
                "addr:housenumber": "91",
                "addr:teryt:simc": 139034,
                "addr:teryt:sym_ul": 9925,
                "contact:phone": "+48 343288389",
                "contact:email": "starykocin@interia.pl",
                "contact:website": "http:\/\/www.spstarykocin.szkolnastrona.pl",
                "ref:regon": "001204408",
                "ref:vatin": "PL5732479878",
                "operator": "Gmina Mykan\u00f3w",
                "operator:type": "government",
                "amenity": "school"
            }
        },
        {
            "id": 53452,
            "type": "Feature",
            "geometry": {
                "type": "Point",
                "coordinates": [
                    19.1513199,
                    50.98498
                ]
            },
            "properties": {
                "isced:level": "1;2",
                "ref:rspo": 53452,
                "official_name": "Szko\u0142a Podstawowa im. 6 Pu\u0142ku Piechoty w Starym Broniszewie",
                "name": "Szko\u0142a Podstawowa",
                "addr:country": "PL",
                "addr:postcode": "42-231",
                "addr:city": "Stary Broniszew",
                "addr:street": "Kwiatowa",
                "addr:housenumber": "28",
                "addr:teryt:simc": 139011,
                "addr:teryt:sym_ul": 10562,
                "contact:phone": "+48 343209004",
                "contact:email": "szkolabroniszew@op.pl",
                "contact:website": "http:\/\/www.szkolabroniszew.szkolnastrona.pl",
                "ref:regon": "001204390",
                "ref:vatin": "PL5732479714",
                "operator": "Gmina Mykan\u00f3w",
                "operator:type": "government",
                "amenity": "school"
            }
        }
    ]
}