{
    "type": "FeatureCollection",
    "features": [
        {
            "id": 32077,
            "type": "Feature",
            "geometry": {
                "type": "Point",
                "coordinates": [
                    19.34662,
                    50.80898
                ]
            },
            "properties": {
                "isced:level": "1;2",
                "ref:rspo": 32077,
                "official_name": "Szko\u0142a Podstawowa im.janusza Korczaka w Zawadzie",
                "name": "Szko\u0142a Podstawowa im.janusza Korczaka w Zawadzie",
                "addr:country": "PL",
                "addr:postcode": "42-270",
                "addr:city": "Zawada",
                "addr:street": "Cz\u0119stochowska",
                "addr:housenumber": "8",
                "addr:teryt:simc": 134545,
                "addr:teryt:sym_ul": 3458,
                "contact:phone": "+48 343281488",
                "contact:email": "zawadagim@poczta.onet.pl",
                "contact:website": "http:\/\/www.z.s.zawada.szkolnastrona.pl",
                "ref:regon": "001204992",
                "ref:vatin": "PL9492065090",
                "operator": "Gmina K\u0142omnice",
                "operator:type": "government",
                "amenity": "school"
            }
        },
        {
            "id": 80790,
            "type": "Feature",
            "geometry": {
                "type": "Point",
                "coordinates": [
                    19.35075,
                    50.85709
                ]
            },
            "properties": {
                "isced:level": "1;2",
                "ref:rspo": 80790,
                "official_name": "Szko\u0142a Podstawowa im. Kornela Makuszy\u0144skiego w Skrzydlowie",
                "name": "Szko\u0142a Podstawowa",
                "addr:country": "PL",
                "addr:postcode": "42-270",
                "addr:city": "Skrzydl\u00f3w",
                "addr:street": "G\u0142\u00f3wna",
                "addr:housenumber": "6a",
                "addr:teryt:simc": 134479,
                "addr:teryt:sym_ul": 5635,
                "contact:phone": "+48 343281670",
                "contact:email": "zs_skrzydlow@o2.pl",
                "contact:website": "http:\/\/www.spskrzydlow.klomnice.pl",
                "ref:regon": "001204957",
                "ref:vatin": "PL9492066043",
                "operator": "Gmina K\u0142omnice",
                "operator:type": "government",
                "amenity": "school"
            }
        },
        {
            "id": 32078,
            "type": "Feature",
            "geometry": {
                "type": "Point",
                "coordinates": [
                    19.45478,
                    50.88601
                ]
            },
            "properties": {
                "isced:level": "1;2",
                "ref:rspo": 32078,
                "official_name": "Szko\u0142a Podstawowa im.boles\u0142awa Prusa w Garnku",
                "name": "Szko\u0142a Podstawowa im.boles\u0142awa Prusa w Garnku",
                "addr:country": "PL",
                "addr:postcode": "42-270",
                "addr:city": "Garnek",
                "addr:street": "Szkolna",
                "addr:housenumber": "18",
                "addr:teryt:simc": 134172,
                "addr:teryt:sym_ul": 21970,
                "contact:phone": "+48 343281649",
                "contact:email": "szkolagarnek@o2.pl",
                "contact:website": "http:\/\/spgarnek.szkolnastrona.pl\/",
                "ref:regon": "001204963",
                "ref:vatin": "PL9492066037",
                "operator": "Gmina K\u0142omnice",
                "operator:type": "government",
                "amenity": "school"
            }
        },
        {
            "id": 24215,
            "type": "Feature",
            "geometry": {
                "type": "Point",
                "coordinates": [
                    19.33541,
                    50.88971
                ]
            },
            "properties": {
                "ref:rspo": 24215,
                "official_name": "Przedszkole w Rzerz\u0119czycach",
                "name": "Przedszkole w Rzerz\u0119czycach",
                "addr:country": "PL",
                "addr:postcode": "42-270",
                "addr:city": "Rzerz\u0119czyce",
                "addr:street": "Skrzydlowska",
                "addr:housenumber": "98",
                "addr:teryt:simc": 134440,
                "addr:teryt:sym_ul": 20160,
                "contact:phone": "+48 343281245",
                "contact:email": "przedszkole1993@o2.pl",
                "ref:regon": "150028019",
                "ref:vatin": "PL9491469655",
                "operator": "Gmina K\u0142omnice",
                "operator:type": "government",
                "amenity": "kindergarten"
            }
        },
        {
            "id": 21844,
            "type": "Feature",
            "geometry": {
                "type": "Point",
                "coordinates": [
                    19.3357,
                    50.88987
                ]
            },
            "properties": {
                "isced:level": "1;2",
                "ref:rspo": 21844,
                "official_name": "Szko\u0142a Podstawowa im.henryka Sienkiewicza w Rzerz\u0119czycach",
                "name": "Szko\u0142a Podstawowa im.henryka Sienkiewicza w Rzerz\u0119czycach",
                "addr:country": "PL",
                "addr:postcode": "42-270",
                "addr:city": "Rzerz\u0119czyce",
                "addr:street": "Skrzydlowska",
                "addr:housenumber": "91",
                "addr:teryt:simc": 134440,
                "addr:teryt:sym_ul": 20160,
                "contact:phone": "+48 343336665",
                "contact:email": "zs_rzerzeczyce@o2.pl",
                "contact:website": "http:\/\/rzerzeczyce.szkolnastrona.pl\/",
                "ref:regon": "001205141",
                "ref:vatin": "PL9492065078",
                "operator": "Gmina K\u0142omnice",
                "operator:type": "government",
                "amenity": "school"
            }
        },
        {
            "id": 277839,
            "type": "Feature",
            "geometry": {
                "type": "Point",
                "coordinates": [
                    19.3357,
                    50.88984
                ]
            },
            "properties": {
                "ref:rspo": 277839,
                "official_name": "Olimpia - Mali Herosi",
                "name": "Olimpia - Mali Herosi",
                "addr:country": "PL",
                "addr:postcode": "42-270",
                "addr:city": "Rzerz\u0119czyce",
                "addr:street": "Skrzydlowska",
                "addr:housenumber": "91",
                "addr:teryt:simc": 134440,
                "addr:teryt:sym_ul": 20160,
                "contact:phone": "+48 533833292",
                "contact:email": "monika.sikorska@rakow.com",
                "ref:regon": "389577577",
                "operator": "Monika Sikorska",
                "operator:type": "private",
                "amenity": "kindergarten"
            }
        },
        {
            "id": 30020,
            "type": "Feature",
            "geometry": {
                "type": "Point",
                "coordinates": [
                    19.30782,
                    50.9124
                ]
            },
            "properties": {
                "isced:level": "1;2",
                "ref:rspo": 30020,
                "official_name": "Szko\u0142a Podstawowa im. Jana Kochanowskiego w Witkowicach",
                "name": "Szko\u0142a Podstawowa",
                "addr:country": "PL",
                "addr:postcode": "42-270",
                "addr:city": "Witkowice",
                "addr:street": "Cz\u0119stochowska",
                "addr:housenumber": "22",
                "addr:teryt:simc": 134539,
                "addr:teryt:sym_ul": 3458,
                "contact:phone": "+48 343289201",
                "contact:email": "zswitkowice@o2.pl",
                "contact:website": "http:\/\/spwitkowice.edupage.org\/",
                "ref:regon": "001204986",
                "ref:vatin": "PL9492066020",
                "operator": "Gmina K\u0142omnice",
                "operator:type": "government",
                "amenity": "school"
            }
        },
        {
            "id": 32076,
            "type": "Feature",
            "geometry": {
                "type": "Point",
                "coordinates": [
                    19.40631,
                    50.9176
                ]
            },
            "properties": {
                "isced:level": "1;2",
                "ref:rspo": 32076,
                "official_name": "Szko\u0142a Podstawowa im.jana Paw\u0142a II w Konarach",
                "name": "Szko\u0142a Podstawowa im.jana Paw\u0142a II w Konarach",
                "addr:country": "PL",
                "addr:postcode": "42-270",
                "addr:city": "Konary",
                "addr:street": "Szkolna",
                "addr:housenumber": "3",
                "addr:teryt:simc": 134315,
                "addr:teryt:sym_ul": 21970,
                "contact:phone": "+48 343281584",
                "contact:email": "szkolakonary@op.pl",
                "contact:website": "https:\/\/szkolakonary.edupage.org",
                "ref:regon": "001204970",
                "ref:vatin": "PL9492065084",
                "operator": "Gmina K\u0142omnice",
                "operator:type": "government",
                "amenity": "school"
            }
        },
        {
            "id": 24214,
            "type": "Feature",
            "geometry": {
                "type": "Point",
                "coordinates": [
                    19.35837,
                    50.92069
                ]
            },
            "properties": {
                "ref:rspo": 24214,
                "official_name": "Przedszkole w K\u0142omnicach",
                "name": "Przedszkole w K\u0142omnicach",
                "addr:country": "PL",
                "addr:postcode": "42-270",
                "addr:city": "K\u0142omnice",
                "addr:street": "S\u0105dowa",
                "addr:housenumber": "1",
                "addr:teryt:simc": 134278,
                "addr:teryt:sym_ul": 19581,
                "contact:phone": "+48 343281055",
                "contact:email": "przedszkoleklomnice@o2.pl",
                "ref:regon": "150028002",
                "ref:vatin": "PL9491469833",
                "operator": "Gmina K\u0142omnice",
                "operator:type": "government",
                "amenity": "kindergarten"
            }
        },
        {
            "id": 21842,
            "type": "Feature",
            "geometry": {
                "type": "Point",
                "coordinates": [
                    19.3603,
                    50.92459
                ]
            },
            "properties": {
                "isced:level": "1;2",
                "ref:rspo": 21842,
                "official_name": "Szko\u0142a Podstawowa im.grzegorza Piramowicza w K\u0142omnicach",
                "name": "Szko\u0142a Podstawowa im.grzegorza Piramowicza w K\u0142omnicach",
                "addr:country": "PL",
                "addr:postcode": "42-270",
                "addr:city": "K\u0142omnice",
                "addr:street": "Szkolna",
                "addr:housenumber": "1",
                "addr:teryt:simc": 134278,
                "addr:teryt:sym_ul": 21970,
                "contact:phone": "+48 343281038",
                "contact:email": "zs_klomnice@o2.pl",
                "ref:regon": "000209496",
                "ref:vatin": "PL9492065061",
                "operator": "Gmina K\u0142omnice",
                "operator:type": "government",
                "amenity": "school"
            }
        },
        {
            "id": 277480,
            "type": "Feature",
            "geometry": {
                "type": "Point",
                "coordinates": [
                    19.3603,
                    50.92456
                ]
            },
            "properties": {
                "isced:level": "3",
                "ref:rspo": 277480,
                "official_name": "Publiczne Zaoczne Liceum Og\u00f3lnokszta\u0142c\u0105ce dla Doros\u0142ych \"Edukacja\" w K\u0142omnicach",
                "name": "Publiczne Zaoczne Liceum Og\u00f3lnokszta\u0142c\u0105ce dla Doros\u0142ych \"Edukacja\" w K\u0142omnicach",
                "addr:country": "PL",
                "addr:postcode": "42-270",
                "addr:city": "K\u0142omnice",
                "addr:street": "Szkolna",
                "addr:housenumber": "1",
                "addr:teryt:simc": 134278,
                "addr:teryt:sym_ul": 21970,
                "contact:phone": "+48 728395244",
                "contact:email": "klomnice@szkoly-edukacja.pl",
                "contact:website": "http:\/\/www.szkoly-edukacja.pl",
                "ref:regon": "388984375",
                "operator": "Marzena \u017bemejda-Zybura",
                "operator:type": "private",
                "amenity": "school"
            }
        },
        {
            "id": 277481,
            "type": "Feature",
            "geometry": {
                "type": "Point",
                "coordinates": [
                    19.3603,
                    50.924530000000004
                ]
            },
            "properties": {
                "isced:level": "4",
                "ref:rspo": 277481,
                "official_name": "Publiczna Szko\u0142a Policealna \"Edukacja\" w K\u0142omnicach",
                "name": "Publiczna Szko\u0142a Policealna \"Edukacja\" w K\u0142omnicach",
                "addr:country": "PL",
                "addr:postcode": "42-270",
                "addr:city": "K\u0142omnice",
                "addr:street": "Szkolna",
                "addr:housenumber": "1",
                "addr:teryt:simc": 134278,
                "addr:teryt:sym_ul": 21970,
                "contact:phone": "+48 728395244",
                "contact:email": "klomnice@szkoly-edukacja.pl",
                "contact:website": "http:\/\/www.szkoly-edukacja.pl",
                "ref:regon": "388984731",
                "operator": "Marzena \u017bemejda-Zybura",
                "operator:type": "private",
                "amenity": "college"
            }
        }
    ]
}