{
    "type": "FeatureCollection",
    "features": [
        {
            "id": 73629,
            "type": "Feature",
            "geometry": {
                "type": "Point",
                "coordinates": [
                    18.97302,
                    50.7724
                ]
            },
            "properties": {
                "ref:rspo": 73629,
                "official_name": "Zesp\u00f3\u0142 Szkolno-Przedszkolny w Blachowni",
                "name": "Zesp\u00f3\u0142 Szkolno-Przedszkolny w Blachowni",
                "addr:postcode": "42-290",
                "addr:city": "Blachownia",
                "addr:street": "Wsp\u00f3lna",
                "addr:housenumber": "5",
                "addr:city:simc": 931365,
                "addr:street:sym_ul": 24885,
                "phone": "+48 343270345",
                "email": "psp3beata@op.pl",
                "website": "http:\/\/sp3blachownia.pl\/",
                "ref:regon": "152067957",
                "ref:vatin": "PL5732539652",
                "operator": "Gmina Blachownia",
                "operator:type": "government",
                "landuse": "education",
                "fixme": "amenity=school, amenity=college albo landuse=education w zale\u017cno\u015bci od tego, jakie plac\u00f3wki wchodz\u0105 w sk\u0142ad zespo\u0142u. Sprawd\u017a, kiedy stosowa\u0107 amenity=* a kiedy landuse=education.",
                "note": "Children RSPO: 80471;80837"
            }
        },
        {
            "id": 80471,
            "type": "Feature",
            "geometry": {
                "type": "Point",
                "coordinates": [
                    18.97302,
                    50.772369999999995
                ]
            },
            "properties": {
                "ref:rspo": 80471,
                "official_name": "Przedszkole Nr 1 w Blachowni",
                "name": "Przedszkole Nr 1 w Blachowni",
                "addr:postcode": "42-290",
                "addr:city": "Blachownia",
                "addr:street": "Wsp\u00f3lna",
                "addr:housenumber": "5",
                "addr:city:simc": 931365,
                "addr:street:sym_ul": 24885,
                "phone": "+48 343270286",
                "email": "zspmariola@onet.pl",
                "website": "http:\/\/www.sp3blachownia.edupage.org",
                "ref:regon": "150027959",
                "operator": "Gmina Blachownia",
                "operator:type": "government",
                "amenity": "kindergarten",
                "note": "Parent RSPO: 73629"
            }
        },
        {
            "id": 80837,
            "type": "Feature",
            "geometry": {
                "type": "Point",
                "coordinates": [
                    18.97302,
                    50.77234
                ]
            },
            "properties": {
                "isced:level": "1;2",
                "ref:rspo": 80837,
                "official_name": "Szko\u0142a Podstawowa Nr 3 im. Stanis\u0142awa Staszica w Zespole Szkolno - Przedszkolnym w Blachowni",
                "name": "Szko\u0142a Podstawowa Nr 3",
                "addr:postcode": "42-290",
                "addr:city": "Blachownia",
                "addr:street": "Wsp\u00f3lna",
                "addr:housenumber": "5",
                "addr:city:simc": 931365,
                "addr:street:sym_ul": 24885,
                "phone": "+48 343270345",
                "email": "psp3beata@op.pl",
                "website": "http:\/\/www.sp3blachownia.edupage.org",
                "ref:regon": "001155029",
                "operator": "Gmina Blachownia",
                "operator:type": "government",
                "amenity": "school",
                "note": "Parent RSPO: 73629"
            }
        },
        {
            "id": 74149,
            "type": "Feature",
            "geometry": {
                "type": "Point",
                "coordinates": [
                    18.96244,
                    50.78006
                ]
            },
            "properties": {
                "isced:level": "1;2",
                "ref:rspo": 74149,
                "official_name": "Szko\u0142a Podstawowa Nr 1 im. Marii Konopnickiej w Blachowni",
                "name": "Szko\u0142a Podstawowa Nr 1",
                "addr:postcode": "42-290",
                "addr:city": "Blachownia",
                "addr:street": "Henryka Sienkiewicza",
                "addr:housenumber": "8",
                "addr:city:simc": 931365,
                "addr:street:sym_ul": 19834,
                "phone": "+48 343270324",
                "email": "blachowniaszkola1@op.pl",
                "website": "http:\/\/www.sp1blachownia.szkolna.net",
                "ref:regon": "000255734",
                "ref:vatin": "PL5732479996",
                "operator": "Gmina Blachownia",
                "operator:type": "government",
                "amenity": "school"
            }
        },
        {
            "id": 26145,
            "type": "Feature",
            "geometry": {
                "type": "Point",
                "coordinates": [
                    18.95806,
                    50.78028
                ]
            },
            "properties": {
                "ref:rspo": 26145,
                "official_name": "Publiczne Przedszkole Z Oddzia\u0142em Integracyjnym Nr 2 im. Plastusia w Blachowni",
                "name": "Publiczne Przedszkole Z Oddzia\u0142em Integracyjnym Nr 2",
                "addr:postcode": "42-290",
                "addr:city": "Blachownia",
                "addr:street": "Stefana \u017beromskiego",
                "addr:housenumber": "4A",
                "addr:city:simc": 931365,
                "addr:street:sym_ul": 26469,
                "email": "przedszkolenr2wblachowni@op.pl",
                "website": "http:\/\/www.przedszkolenr2wblachowni.przedszkolowo.pl",
                "ref:regon": "000207824",
                "ref:vatin": "PL5732479915",
                "operator": "Gmina Blachownia",
                "operator:type": "government",
                "amenity": "kindergarten"
            }
        },
        {
            "id": 123810,
            "type": "Feature",
            "geometry": {
                "type": "Point",
                "coordinates": [
                    18.90344,
                    50.7831199
                ]
            },
            "properties": {
                "isced:level": "1;2",
                "ref:rspo": 123810,
                "official_name": "Publiczna Szko\u0142a Podstawowa im. Marii Sk\u0142odowskiej - Curie w Cisiu",
                "name": "Publiczna Szko\u0142a Podstawowa",
                "addr:postcode": "42-290",
                "addr:city": "Cisie",
                "addr:street": "Cisia\u0144ska",
                "addr:housenumber": "46",
                "addr:city:simc": 130375,
                "addr:street:sym_ul": 28026,
                "phone": "+48 343270536",
                "email": "pspcisie@wp.pl",
                "website": "http:\/\/www.szkola-cisie.pl",
                "ref:regon": "243631519",
                "ref:vatin": "PL5732583185",
                "operator": "Stowarzyszenie Rozwoju Wsi Cisie",
                "operator:type": "ngo",
                "amenity": "school"
            }
        },
        {
            "id": 26148,
            "type": "Feature",
            "geometry": {
                "type": "Point",
                "coordinates": [
                    18.96143,
                    50.7894999
                ]
            },
            "properties": {
                "ref:rspo": 26148,
                "official_name": "Niepubliczne Przedszkole \"Weso\u0142e Sowy",
                "name": "Niepubliczne Przedszkole \"Weso\u0142e Sowy",
                "addr:postcode": "42-290",
                "addr:city": "Blachownia",
                "addr:street": "Le\u015bna",
                "addr:housenumber": "11a",
                "addr:city:simc": 931365,
                "addr:street:sym_ul": 10898,
                "email": "wesole_sowy@op.pl",
                "website": "http:\/\/www.wesolesowy.pl",
                "ref:regon": "243063009",
                "ref:vatin": "PL5731723572",
                "operator": "Alicja Domaga\u0142a",
                "operator:type": "private",
                "amenity": "kindergarten"
            }
        },
        {
            "id": 120409,
            "type": "Feature",
            "geometry": {
                "type": "Point",
                "coordinates": [
                    18.94525,
                    50.79276
                ]
            },
            "properties": {
                "ref:rspo": 120409,
                "official_name": "Sportowe Niepubliczne Przedszkole Tik Tak",
                "name": "Sportowe Niepubliczne Przedszkole Tik Tak",
                "addr:postcode": "42-290",
                "addr:city": "Blachownia",
                "addr:street": "Akacjowa",
                "addr:housenumber": "8",
                "addr:city:simc": 931365,
                "addr:street:sym_ul": 157,
                "phone": "+48 509911679",
                "email": "tiktak.przedszkole@interia.pl",
                "website": "http:\/\/www.tiktak-przedszkole.com",
                "ref:regon": "243383406",
                "ref:vatin": "PL5732563596",
                "operator": "\u0141ukasz Norman",
                "operator:type": "private",
                "amenity": "kindergarten"
            }
        },
        {
            "id": 80839,
            "type": "Feature",
            "geometry": {
                "type": "Point",
                "coordinates": [
                    19.00541,
                    50.7952299
                ]
            },
            "properties": {
                "ref:rspo": 80839,
                "official_name": "Przedszkole w \u0141ojkach",
                "name": "Przedszkole w \u0141ojkach",
                "addr:postcode": "42-290",
                "addr:city": "\u0141ojki",
                "addr:street": "D\u0142uga",
                "addr:housenumber": "50",
                "addr:city:simc": 130501,
                "addr:street:sym_ul": 3839,
                "phone": "+48 343271201",
                "email": "przedszkolelojki@tlen.pl",
                "website": "http:\/\/www.splojki.szkolnastrona.pl",
                "ref:regon": "150027965",
                "operator": "Gmina Blachownia",
                "operator:type": "government",
                "amenity": "kindergarten",
                "note": "Parent RSPO: 73696"
            }
        },
        {
            "id": 73696,
            "type": "Feature",
            "geometry": {
                "type": "Point",
                "coordinates": [
                    19.0053899,
                    50.79628
                ]
            },
            "properties": {
                "ref:rspo": 73696,
                "official_name": "Zesp\u00f3\u0142 Szkolno-Przedszkolny w \u0141ojkach",
                "name": "Zesp\u00f3\u0142 Szkolno-Przedszkolny w \u0141ojkach",
                "addr:postcode": "42-290",
                "addr:city": "\u0141ojki",
                "addr:street": "D\u0142uga",
                "addr:housenumber": "48",
                "addr:city:simc": 130501,
                "addr:street:sym_ul": 3839,
                "phone": "+48 343271154",
                "email": "kornelmak@poczta.onet.pl",
                "website": "http:\/\/www.splojki.szkolnastrona.pl",
                "ref:regon": "152067963",
                "ref:vatin": "PL5732539669",
                "operator": "Gmina Blachownia",
                "operator:type": "government",
                "landuse": "education",
                "fixme": "amenity=school, amenity=college albo landuse=education w zale\u017cno\u015bci od tego, jakie plac\u00f3wki wchodz\u0105 w sk\u0142ad zespo\u0142u. Sprawd\u017a, kiedy stosowa\u0107 amenity=* a kiedy landuse=education.",
                "note": "Children RSPO: 80473;80839"
            }
        },
        {
            "id": 80473,
            "type": "Feature",
            "geometry": {
                "type": "Point",
                "coordinates": [
                    19.0053899,
                    50.79625
                ]
            },
            "properties": {
                "isced:level": "1;2",
                "ref:rspo": 80473,
                "official_name": "Szko\u0142a Podstawowa im. Kornela Makuszy\u0144skiego w Zespole Szkolno - Przedszkolnym w \u0141ojkach",
                "name": "Szko\u0142a Podstawowa",
                "addr:postcode": "42-290",
                "addr:city": "\u0141ojki",
                "addr:street": "D\u0142uga",
                "addr:housenumber": "48",
                "addr:city:simc": 130501,
                "addr:street:sym_ul": 3839,
                "phone": "+48 343271154",
                "email": "kornelmak@poczta.onet.pl",
                "website": "http:\/\/www.splojki.szkolnastrona.pl",
                "ref:regon": "001155041",
                "operator": "Gmina Blachownia",
                "operator:type": "government",
                "amenity": "school",
                "note": "Parent RSPO: 73696"
            }
        }
    ]
}