{
    "type": "FeatureCollection",
    "features": [
        {
            "id": 132084,
            "type": "Feature",
            "geometry": {
                "type": "Point",
                "coordinates": [
                    19.23153,
                    50.8607
                ]
            },
            "properties": {
                "ref:rspo": 132084,
                "official_name": "Zesp\u00f3\u0142 Szkolno - Przedszkolny nr 2 w R\u0119dzinach",
                "name": "Zesp\u00f3\u0142 Szkolno - Przedszkolny nr 2 w R\u0119dzinach",
                "addr:postcode": "42-242",
                "addr:city": "R\u0119dziny",
                "addr:street": "Dzia\u0142kowicz\u00f3w",
                "addr:housenumber": "20",
                "addr:city:simc": 144584,
                "addr:street:sym_ul": 4577,
                "phone": "+48 343201450",
                "email": "zsp2@redziny.pl",
                "ref:regon": "365451530",
                "operator": "Gmina R\u0119dziny",
                "operator:type": "government",
                "landuse": "education",
                "fixme": "amenity=school, amenity=college albo landuse=education w zale\u017cno\u015bci od tego, jakie plac\u00f3wki wchodz\u0105 w sk\u0142ad zespo\u0142u. Sprawd\u017a, kiedy stosowa\u0107 amenity=* a kiedy landuse=education.",
                "note": "Children RSPO: 55091;55983"
            }
        },
        {
            "id": 55983,
            "type": "Feature",
            "geometry": {
                "type": "Point",
                "coordinates": [
                    19.23153,
                    50.86067
                ]
            },
            "properties": {
                "isced:level": "1;2",
                "ref:rspo": 55983,
                "official_name": "Szko\u0142a Podstawowa im. K. Pu\u0142askigo w R\u0119dzinach Osiedlu",
                "name": "Szko\u0142a Podstawowa",
                "addr:postcode": "42-242",
                "addr:city": "R\u0119dziny",
                "addr:street": "Dzia\u0142kowicz\u00f3w",
                "addr:housenumber": "20",
                "addr:city:simc": 144584,
                "addr:street:sym_ul": 4577,
                "phone": "+48 343201450",
                "email": "zsp2@redziny.pl",
                "ref:regon": "001199950",
                "operator": "Gmina R\u0119dziny",
                "operator:type": "government",
                "amenity": "school",
                "note": "Parent RSPO: 132084"
            }
        },
        {
            "id": 55091,
            "type": "Feature",
            "geometry": {
                "type": "Point",
                "coordinates": [
                    19.22891,
                    50.86465
                ]
            },
            "properties": {
                "ref:rspo": 55091,
                "official_name": "Gminne Przedszkole Publiczne w R\u0119dzinach - Osiedlu",
                "name": "Gminne Przedszkole Publiczne w R\u0119dzinach - Osiedlu",
                "addr:postcode": "42-242",
                "addr:city": "R\u0119dziny",
                "addr:street": "W\u0142adys\u0142awa Broniewskiego",
                "addr:housenumber": "7",
                "addr:city:simc": 144584,
                "addr:street:sym_ul": 2125,
                "phone": "+48 343279004",
                "email": "zsp2@redziny.pl",
                "ref:regon": "150034623",
                "operator": "Gmina R\u0119dziny",
                "operator:type": "government",
                "amenity": "kindergarten",
                "note": "Parent RSPO: 132084"
            }
        },
        {
            "id": 54095,
            "type": "Feature",
            "geometry": {
                "type": "Point",
                "coordinates": [
                    19.25292,
                    50.86469
                ]
            },
            "properties": {
                "isced:level": "1;2",
                "ref:rspo": 54095,
                "official_name": "Szko\u0142a Podstawowa im. M. Konopnickiej w Koninie",
                "name": "Szko\u0142a Podstawowa",
                "addr:postcode": "42-240",
                "addr:city": "Konin",
                "addr:street": "Kielecka",
                "addr:housenumber": "37",
                "addr:city:simc": 144532,
                "addr:street:sym_ul": 8379,
                "phone": "+48 343279552",
                "email": "spkonin@redziny.pl",
                "ref:regon": "001198004",
                "operator": "Gmina R\u0119dziny",
                "operator:type": "government",
                "amenity": "school"
            }
        },
        {
            "id": 132083,
            "type": "Feature",
            "geometry": {
                "type": "Point",
                "coordinates": [
                    19.25526,
                    50.86511
                ]
            },
            "properties": {
                "ref:rspo": 132083,
                "official_name": "Zesp\u00f3\u0142 Szkolno - Przedszkolny nr 1 w R\u0119dzinach",
                "name": "Zesp\u00f3\u0142 Szkolno - Przedszkolny nr 1 w R\u0119dzinach",
                "addr:postcode": "42-242",
                "addr:city": "R\u0119dziny",
                "addr:street": "Szkolna",
                "addr:housenumber": "7",
                "addr:city:simc": 144584,
                "addr:street:sym_ul": 21970,
                "phone": "+48 343279019",
                "email": "zsp1@redziny.pl",
                "website": "http:\/\/www.zsp1redziny.pl",
                "ref:regon": "365451375",
                "operator": "Gmina R\u0119dziny",
                "operator:type": "government",
                "landuse": "education",
                "fixme": "amenity=school, amenity=college albo landuse=education w zale\u017cno\u015bci od tego, jakie plac\u00f3wki wchodz\u0105 w sk\u0142ad zespo\u0142u. Sprawd\u017a, kiedy stosowa\u0107 amenity=* a kiedy landuse=education.",
                "note": "Children RSPO: 53906;55881"
            }
        },
        {
            "id": 53906,
            "type": "Feature",
            "geometry": {
                "type": "Point",
                "coordinates": [
                    19.25526,
                    50.86508
                ]
            },
            "properties": {
                "ref:rspo": 53906,
                "official_name": "Gminne Przedszkole Publiczne im. Jana Brzechwy w R\u0119dzinach",
                "name": "Gminne Przedszkole Publiczne",
                "addr:postcode": "42-242",
                "addr:city": "R\u0119dziny",
                "addr:street": "Szkolna",
                "addr:housenumber": "7",
                "addr:city:simc": 144584,
                "addr:street:sym_ul": 21970,
                "phone": "+48 343279019",
                "email": "zsp1@redziny.pl",
                "ref:regon": "150034652",
                "operator": "Gmina R\u0119dziny",
                "operator:type": "government",
                "amenity": "kindergarten",
                "note": "Parent RSPO: 132083"
            }
        },
        {
            "id": 55881,
            "type": "Feature",
            "geometry": {
                "type": "Point",
                "coordinates": [
                    19.25526,
                    50.865050000000004
                ]
            },
            "properties": {
                "isced:level": "1;2",
                "ref:rspo": 55881,
                "official_name": "Szko\u0142a Podstawowa im. G. Morcinka w R\u0119dzinach",
                "name": "Szko\u0142a Podstawowa",
                "addr:postcode": "42-242",
                "addr:city": "R\u0119dziny",
                "addr:street": "Szkolna",
                "addr:housenumber": "7",
                "addr:city:simc": 144584,
                "addr:street:sym_ul": 21970,
                "phone": "+48 343279019",
                "email": "zsp1@redziny.pl",
                "ref:regon": "000273560",
                "operator": "Gmina R\u0119dziny",
                "operator:type": "government",
                "amenity": "school",
                "note": "Parent RSPO: 132083"
            }
        },
        {
            "id": 55858,
            "type": "Feature",
            "geometry": {
                "type": "Point",
                "coordinates": [
                    19.24116,
                    50.8769
                ]
            },
            "properties": {
                "ref:rspo": 55858,
                "official_name": "Przedszkole Publiczne w Rudnikach",
                "name": "Przedszkole Publiczne w Rudnikach",
                "addr:postcode": "42-240",
                "addr:city": "Rudniki",
                "addr:street": "Ogrodowa",
                "addr:housenumber": "13A",
                "addr:city:simc": 144644,
                "addr:street:sym_ul": 14834,
                "phone": "+48 343279541",
                "email": "zsprudniki@redziny.pl",
                "website": "http:\/\/zsprudniki.edupage.org",
                "ref:regon": "150034646",
                "operator": "Gmina R\u0119dziny",
                "operator:type": "government",
                "amenity": "kindergarten",
                "note": "Parent RSPO: 51938"
            }
        },
        {
            "id": 51938,
            "type": "Feature",
            "geometry": {
                "type": "Point",
                "coordinates": [
                    19.24269,
                    50.87898
                ]
            },
            "properties": {
                "ref:rspo": 51938,
                "official_name": "Zesp\u00f3\u0142 Szkolno - Przedszkolny im. Jana Paw\u0142a II w Rudnikach",
                "name": "Zesp\u00f3\u0142 Szkolno - Przedszkolny",
                "addr:postcode": "42-240",
                "addr:city": "Rudniki",
                "addr:street": "Szkolna",
                "addr:housenumber": "11",
                "addr:city:simc": 144644,
                "addr:street:sym_ul": 21970,
                "phone": "+48 343279541",
                "email": "zsprudniki@redziny.pl",
                "website": "http:\/\/www.zsprudniki.edupage.org",
                "ref:regon": "152176847",
                "operator": "Gmina R\u0119dziny",
                "operator:type": "government",
                "landuse": "education",
                "fixme": "amenity=school, amenity=college albo landuse=education w zale\u017cno\u015bci od tego, jakie plac\u00f3wki wchodz\u0105 w sk\u0142ad zespo\u0142u. Sprawd\u017a, kiedy stosowa\u0107 amenity=* a kiedy landuse=education.",
                "note": "Children RSPO: 55858;56528"
            }
        },
        {
            "id": 56528,
            "type": "Feature",
            "geometry": {
                "type": "Point",
                "coordinates": [
                    19.24269,
                    50.878949999999996
                ]
            },
            "properties": {
                "isced:level": "1;2",
                "ref:rspo": 56528,
                "official_name": "Szko\u0142a Podstawowa w Rudnikach",
                "name": "Szko\u0142a Podstawowa w Rudnikach",
                "addr:postcode": "42-240",
                "addr:city": "Rudniki",
                "addr:street": "Szkolna",
                "addr:housenumber": "11",
                "addr:city:simc": 144644,
                "addr:street:sym_ul": 21970,
                "phone": "+48 343279541",
                "email": "zsprudniki@interia.pl",
                "website": "http:\/\/zsprudniki.edupage.org",
                "ref:regon": "001197980",
                "operator": "Gmina R\u0119dziny",
                "operator:type": "government",
                "amenity": "school",
                "note": "Parent RSPO: 51938"
            }
        },
        {
            "id": 55349,
            "type": "Feature",
            "geometry": {
                "type": "Point",
                "coordinates": [
                    19.2179499,
                    50.89599
                ]
            },
            "properties": {
                "ref:rspo": 55349,
                "official_name": "Gminne Przedszkole Publiczne w Ko\u015bcielcu",
                "name": "Gminne Przedszkole Publiczne w Ko\u015bcielcu",
                "addr:postcode": "42-240",
                "addr:city": "Ko\u015bcielec",
                "addr:street": "Wolno\u015bci",
                "addr:housenumber": "90",
                "addr:city:simc": 144549,
                "addr:street:sym_ul": 24687,
                "phone": "+48 343200194",
                "email": "zspkoscielec@redziny.pl",
                "ref:regon": "150034630",
                "operator": "Gmina R\u0119dziny",
                "operator:type": "government",
                "amenity": "kindergarten",
                "note": "Parent RSPO: 132082"
            }
        },
        {
            "id": 132082,
            "type": "Feature",
            "geometry": {
                "type": "Point",
                "coordinates": [
                    19.2161,
                    50.89664
                ]
            },
            "properties": {
                "ref:rspo": 132082,
                "official_name": "Zesp\u00f3\u0142 Szkolno - Przedszkolny w Ko\u015bcielcu",
                "name": "Zesp\u00f3\u0142 Szkolno - Przedszkolny w Ko\u015bcielcu",
                "addr:postcode": "42-240",
                "addr:city": "Ko\u015bcielec",
                "addr:street": "Wolno\u015bci",
                "addr:housenumber": "93",
                "addr:city:simc": 144549,
                "addr:street:sym_ul": 24687,
                "phone": "+48 343200212",
                "email": "zspkoscielec@redziny.pl",
                "ref:regon": "365451487",
                "operator": "Gmina R\u0119dziny",
                "operator:type": "government",
                "landuse": "education",
                "fixme": "amenity=school, amenity=college albo landuse=education w zale\u017cno\u015bci od tego, jakie plac\u00f3wki wchodz\u0105 w sk\u0142ad zespo\u0142u. Sprawd\u017a, kiedy stosowa\u0107 amenity=* a kiedy landuse=education.",
                "note": "Children RSPO: 55349;56545"
            }
        },
        {
            "id": 56545,
            "type": "Feature",
            "geometry": {
                "type": "Point",
                "coordinates": [
                    19.2161,
                    50.896609999999995
                ]
            },
            "properties": {
                "isced:level": "1;2",
                "ref:rspo": 56545,
                "official_name": "Szko\u0142a Podstawowa im. Janusza Korczaka w Ko\u015bcielcu",
                "name": "Szko\u0142a Podstawowa",
                "addr:postcode": "42-240",
                "addr:city": "Ko\u015bcielec",
                "addr:street": "Wolno\u015bci",
                "addr:housenumber": "93",
                "addr:city:simc": 144549,
                "addr:street:sym_ul": 24687,
                "phone": "+48 343200212",
                "email": "zspkoscielec@redziny.pl",
                "website": "http:\/\/spkoscielec.pl",
                "ref:regon": "001197996",
                "operator": "Gmina R\u0119dziny",
                "operator:type": "government",
                "amenity": "school",
                "note": "Parent RSPO: 132082"
            }
        }
    ]
}