{
    "type": "FeatureCollection",
    "features": [
        {
            "id": 48110,
            "type": "Feature",
            "geometry": {
                "type": "Point",
                "coordinates": [
                    19.2874899,
                    50.70174
                ]
            },
            "properties": {
                "isced:level": "1;2",
                "ref:rspo": 48110,
                "official_name": "Szko\u0142a Podstawowa w Biskupicach",
                "name": "Szko\u0142a Podstawowa w Biskupicach",
                "addr:postcode": "42-256",
                "addr:city": "Biskupice",
                "addr:street": "Szkolna",
                "addr:housenumber": "4",
                "addr:teryt:simc": 140480,
                "addr:teryt:sym_ul": 21970,
                "phone": "+48 343285021",
                "email": "biskupicesp@onet.eu",
                "ref:regon": "001203923",
                "ref:vatin": "PL9491801109",
                "operator": "Gmina Olsztyn",
                "operator:type": "government",
                "amenity": "school"
            }
        },
        {
            "id": 80661,
            "type": "Feature",
            "geometry": {
                "type": "Point",
                "coordinates": [
                    19.32983,
                    50.7243
                ]
            },
            "properties": {
                "isced:level": "1;2",
                "ref:rspo": 80661,
                "official_name": "Szko\u0142a Podstawowa im. Jaros\u0142awa D\u0105browskiego",
                "name": "Szko\u0142a Podstawowa",
                "addr:postcode": "42-256",
                "addr:city": "Zr\u0119bice Pierwsze",
                "addr:street": "G\u0142\u00f3wna",
                "addr:housenumber": "143",
                "addr:teryt:simc": 140876,
                "addr:teryt:sym_ul": 5635,
                "phone": "+48 343286233",
                "email": "zszrebice@o2.pl",
                "ref:regon": "001203892",
                "ref:vatin": "PL9491864179",
                "operator": "Gmina Olsztyn",
                "operator:type": "government",
                "amenity": "school"
            }
        },
        {
            "id": 80600,
            "type": "Feature",
            "geometry": {
                "type": "Point",
                "coordinates": [
                    19.26332,
                    50.74617
                ]
            },
            "properties": {
                "ref:rspo": 80600,
                "official_name": "Gminne Przedszkole w Olsztynie",
                "name": "Gminne Przedszkole w Olsztynie",
                "addr:postcode": "42-256",
                "addr:city": "Olsztyn",
                "addr:street": "Napoleona",
                "addr:housenumber": "22",
                "addr:teryt:simc": 140675,
                "addr:teryt:sym_ul": 13985,
                "phone": "+48 343285097",
                "email": "przedszkole.gmina.olsztyn@gmail.com",
                "ref:regon": "150527142",
                "ref:vatin": "PL9491804272",
                "operator": "Gmina Olsztyn",
                "operator:type": "government",
                "amenity": "kindergarten"
            }
        },
        {
            "id": 50266,
            "type": "Feature",
            "geometry": {
                "type": "Point",
                "coordinates": [
                    19.26772,
                    50.74778
                ]
            },
            "properties": {
                "isced:level": "1;2",
                "ref:rspo": 50266,
                "official_name": "Szko\u0142a Podstawowa w Olsztynie",
                "name": "Szko\u0142a Podstawowa w Olsztynie",
                "addr:postcode": "42-256",
                "addr:city": "Olsztyn",
                "addr:street": "Kuhna",
                "addr:housenumber": "18",
                "addr:teryt:simc": 140675,
                "addr:teryt:sym_ul": 10340,
                "phone": "+48 343285012",
                "email": "sp.olsz@gazeta.pl",
                "website": "http:\/\/www.spolsz.iq.pl\/",
                "ref:regon": "000640099",
                "ref:vatin": "PL9491802853",
                "operator": "Gmina Olsztyn",
                "operator:type": "government",
                "amenity": "school"
            }
        },
        {
            "id": 49987,
            "type": "Feature",
            "geometry": {
                "type": "Point",
                "coordinates": [
                    19.32124,
                    50.76743
                ]
            },
            "properties": {
                "isced:level": "1;2",
                "ref:rspo": 49987,
                "official_name": "Szko\u0142a Podstawowa w Turowie",
                "name": "Szko\u0142a Podstawowa w Turowie",
                "addr:postcode": "42-256",
                "addr:city": "Tur\u00f3w",
                "addr:street": "Szkolna",
                "addr:housenumber": "12",
                "addr:teryt:simc": 140758,
                "addr:teryt:sym_ul": 21970,
                "phone": "+48 343286213",
                "email": "spturow@onet.eu",
                "website": "http:\/\/spturow.edu.pl",
                "ref:regon": "001203917",
                "ref:vatin": "PL9491787912",
                "operator": "Gmina Olsztyn",
                "operator:type": "government",
                "amenity": "school"
            }
        },
        {
            "id": 91104,
            "type": "Feature",
            "geometry": {
                "type": "Point",
                "coordinates": [
                    19.2597662,
                    50.7761929
                ]
            },
            "properties": {
                "isced:level": "1;2",
                "ref:rspo": 91104,
                "official_name": "Szko\u0142a Podstawowa w Kusi\u0119tach",
                "name": "Szko\u0142a Podstawowa w Kusi\u0119tach",
                "addr:postcode": "42-256",
                "addr:place": "Kusi\u0119ta",
                "addr:housenumber": "208",
                "addr:teryt:simc": 140646,
                "phone": "+48 343285036",
                "email": "spkusieta.sekretariat@wp.pl",
                "website": "http:\/\/spkusieta.com.pl\/",
                "ref:regon": "001203900",
                "ref:vatin": "PL9491864618",
                "operator": "Gmina Olsztyn",
                "operator:type": "government",
                "amenity": "school"
            }
        }
    ]
}