{
    "type": "FeatureCollection",
    "features": [
        {
            "id": 21299,
            "type": "Feature",
            "geometry": {
                "type": "Point",
                "coordinates": [
                    19.09606,
                    50.70913
                ]
            },
            "properties": {
                "isced:level": "1;2",
                "ref:rspo": 21299,
                "official_name": "Szko\u0142a Podstawowa w Nieradzie",
                "name": "Szko\u0142a Podstawowa w Nieradzie",
                "addr:postcode": "42-262",
                "addr:city": "Micha\u0142\u00f3w",
                "addr:street": "Laurowa",
                "addr:housenumber": "54",
                "addr:city:simc": 142473,
                "addr:street:sym_ul": 10716,
                "phone": "+48 343274488",
                "email": "nieradaszkola@op.pl",
                "ref:regon": "001204006",
                "ref:vatin": "PL5732479364",
                "operator": "Gmina Poczesna",
                "operator:type": "government",
                "amenity": "school"
            }
        },
        {
            "id": 38913,
            "type": "Feature",
            "geometry": {
                "type": "Point",
                "coordinates": [
                    19.15508,
                    50.71216
                ]
            },
            "properties": {
                "ref:rspo": 38913,
                "official_name": "Przedszkole w Poczesnej",
                "name": "Przedszkole w Poczesnej",
                "addr:postcode": "42-262",
                "addr:city": "Kolonia Poczesna",
                "addr:street": "Szkolna",
                "addr:housenumber": "4",
                "addr:city:simc": 142438,
                "addr:street:sym_ul": 21970,
                "phone": "+48 343274190",
                "email": "poczesna.przedszkole@gmail.com",
                "website": "http:\/\/www.przedszkolepoczesna.pl",
                "ref:regon": "151961886",
                "ref:vatin": "PL5732479401",
                "operator": "Gmina Poczesna",
                "operator:type": "government",
                "amenity": "kindergarten"
            }
        },
        {
            "id": 21337,
            "type": "Feature",
            "geometry": {
                "type": "Point",
                "coordinates": [
                    19.15358,
                    50.71304
                ]
            },
            "properties": {
                "isced:level": "1;2",
                "ref:rspo": 21337,
                "official_name": "Szko\u0142a Podstawowa im.gustawa Morcinka w Poczesnej",
                "name": "Szko\u0142a Podstawowa im.gustawa Morcinka w Poczesnej",
                "addr:postcode": "42-262",
                "addr:city": "Kolonia Poczesna",
                "addr:street": "Szkolna",
                "addr:housenumber": "2",
                "addr:city:simc": 142438,
                "addr:street:sym_ul": 21970,
                "phone": "+48 343608004",
                "email": "sppoczesna@poczta.onet.pl",
                "website": "http:\/\/www.sp.poczesna.edu.pl",
                "ref:regon": "000272891",
                "ref:vatin": "PL5732479453",
                "operator": "Gmina Poczesna",
                "operator:type": "government",
                "amenity": "school"
            }
        },
        {
            "id": 38911,
            "type": "Feature",
            "geometry": {
                "type": "Point",
                "coordinates": [
                    19.128,
                    50.72713
                ]
            },
            "properties": {
                "ref:rspo": 38911,
                "official_name": "Przedszkole w Hucie Starej A",
                "name": "Przedszkole w Hucie Starej A",
                "addr:postcode": "42-263",
                "addr:city": "Huta Stara A",
                "addr:street": "Lipowa",
                "addr:housenumber": "4",
                "addr:city:simc": 142533,
                "addr:street:sym_ul": 11139,
                "phone": "+48 343275515",
                "email": "pphutastara@op.pl",
                "ref:regon": "151961917",
                "ref:vatin": "PL5732479370",
                "operator": "Gmina Poczesna",
                "operator:type": "government",
                "amenity": "kindergarten"
            }
        },
        {
            "id": 35105,
            "type": "Feature",
            "geometry": {
                "type": "Point",
                "coordinates": [
                    19.1386,
                    50.73712
                ]
            },
            "properties": {
                "isced:level": "1;2",
                "ref:rspo": 35105,
                "official_name": "Szko\u0142a Podstawowa im.kazimierza Wielkiego w Hucie Starej B",
                "name": "Szko\u0142a Podstawowa im.kazimierza Wielkiego w Hucie Starej B",
                "addr:postcode": "42-263",
                "addr:city": "Huta Stara B",
                "addr:street": "Adama Mickiewicza",
                "addr:housenumber": "12",
                "addr:city:simc": 142540,
                "addr:street:sym_ul": 12740,
                "phone": "+48 343275511",
                "email": "sphutastarab@interia.pl",
                "website": "http:\/\/zshutastarab.szkolnastrona.pl",
                "ref:regon": "001203981",
                "ref:vatin": "PL5732744470",
                "operator": "Gmina Poczesna",
                "operator:type": "government",
                "amenity": "school"
            }
        },
        {
            "id": 27665,
            "type": "Feature",
            "geometry": {
                "type": "Point",
                "coordinates": [
                    19.13462,
                    50.73834
                ]
            },
            "properties": {
                "ref:rspo": 27665,
                "official_name": "Przedszkole w Hucie Starej B",
                "name": "Przedszkole w Hucie Starej B",
                "addr:postcode": "42-263",
                "addr:city": "Huta Stara B",
                "addr:street": "Czysta",
                "addr:housenumber": "1",
                "addr:city:simc": 142540,
                "addr:street:sym_ul": 3513,
                "phone": "+48 343275531",
                "email": "pp.huta_b@poczta.onet.pl",
                "ref:regon": "151964666",
                "ref:vatin": "PL5732479387",
                "operator": "Gmina Poczesna",
                "operator:type": "government",
                "amenity": "kindergarten"
            }
        },
        {
            "id": 29124,
            "type": "Feature",
            "geometry": {
                "type": "Point",
                "coordinates": [
                    19.1524914,
                    50.7451285
                ]
            },
            "properties": {
                "isced:level": "1;2",
                "ref:rspo": 29124,
                "official_name": "Szko\u0142a Podstawowa im.miko\u0142aja Kopernika we Wrzosowej",
                "name": "Szko\u0142a Podstawowa im.miko\u0142aja Kopernika we Wrzosowej",
                "addr:postcode": "42-263",
                "addr:city": "Wrzosowa",
                "addr:street": "Szkolna",
                "addr:housenumber": "4",
                "addr:city:simc": 142579,
                "addr:street:sym_ul": 21970,
                "phone": "+48 343275567",
                "email": "zswrzosowa@o2.pl",
                "ref:regon": "001203998",
                "ref:vatin": "PL5732745469",
                "operator": "Gmina Poczesna",
                "operator:type": "government",
                "amenity": "school"
            }
        },
        {
            "id": 38915,
            "type": "Feature",
            "geometry": {
                "type": "Point",
                "coordinates": [
                    19.15236,
                    50.74617
                ]
            },
            "properties": {
                "ref:rspo": 38915,
                "official_name": "Przedszkole we Wrzosowej",
                "name": "Przedszkole we Wrzosowej",
                "addr:postcode": "42-263",
                "addr:city": "Wrzosowa",
                "addr:street": "Szkolna",
                "addr:housenumber": "2",
                "addr:city:simc": 142579,
                "addr:street:sym_ul": 21970,
                "phone": "+48 343275529",
                "email": "przedszkole-wrzosowa@wp.pl",
                "website": "http:\/\/www.przedszkolewrzosowa.szkonastrona.pl",
                "ref:regon": "151961892",
                "ref:vatin": "PL5732479418",
                "operator": "Gmina Poczesna",
                "operator:type": "government",
                "amenity": "kindergarten"
            }
        },
        {
            "id": 21147,
            "type": "Feature",
            "geometry": {
                "type": "Point",
                "coordinates": [
                    19.17855,
                    50.74731
                ]
            },
            "properties": {
                "ref:rspo": 21147,
                "official_name": "Zesp\u00f3\u0142 Szkolno-Przedszkolny w S\u0142owiku",
                "name": "Zesp\u00f3\u0142 Szkolno-Przedszkolny w S\u0142owiku",
                "addr:postcode": "42-263",
                "addr:city": "S\u0142owik",
                "addr:street": "Podlaska",
                "addr:housenumber": "4",
                "addr:city:simc": 142510,
                "addr:street:sym_ul": 16793,
                "phone": "+48 343275523",
                "email": "zspslowik@onet.eu",
                "website": "http:\/\/www.zspslowik.edupage.org",
                "ref:regon": "152176008",
                "ref:vatin": "PL5732575381",
                "operator": "Gmina Poczesna",
                "operator:type": "government",
                "landuse": "education",
                "fixme": "amenity=school, amenity=college albo landuse=education w zale\u017cno\u015bci od tego, jakie plac\u00f3wki wchodz\u0105 w sk\u0142ad zespo\u0142u. Sprawd\u017a, kiedy stosowa\u0107 amenity=* a kiedy landuse=education.",
                "note": "Children RSPO: 29126;29128"
            }
        },
        {
            "id": 29126,
            "type": "Feature",
            "geometry": {
                "type": "Point",
                "coordinates": [
                    19.17855,
                    50.747279999999996
                ]
            },
            "properties": {
                "isced:level": "1;2",
                "ref:rspo": 29126,
                "official_name": "Szko\u0142a Podstawowa w S\u0142owiku w Zespole Szkolno-Przedszkolnym w S\u0142owiku",
                "name": "Szko\u0142a Podstawowa w S\u0142owiku w Zespole Szkolno-Przedszkolnym w S\u0142owiku",
                "addr:postcode": "42-263",
                "addr:city": "S\u0142owik",
                "addr:street": "Podlaska",
                "addr:housenumber": "4",
                "addr:city:simc": 142510,
                "addr:street:sym_ul": 16793,
                "phone": "+48 343275523",
                "email": "zspslowik@onet.eu",
                "website": "http:\/\/www.zspslowik.edupage.org",
                "ref:regon": "001204012",
                "operator": "Gmina Poczesna",
                "operator:type": "government",
                "amenity": "school",
                "note": "Parent RSPO: 21147"
            }
        },
        {
            "id": 29128,
            "type": "Feature",
            "geometry": {
                "type": "Point",
                "coordinates": [
                    19.17855,
                    50.74725
                ]
            },
            "properties": {
                "ref:rspo": 29128,
                "official_name": "Przedszkole w S\u0142owiku w Zespole Szkolno-Przedszkolnym w S\u0142owiku",
                "name": "Przedszkole w S\u0142owiku w Zespole Szkolno-Przedszkolnym w S\u0142owiku",
                "addr:postcode": "42-263",
                "addr:city": "S\u0142owik",
                "addr:street": "Podlaska",
                "addr:housenumber": "4",
                "addr:city:simc": 142510,
                "addr:street:sym_ul": 16793,
                "phone": "+48 343275523",
                "email": "zspslowik@onet.eu",
                "website": "http:\/\/www.zspslowik.edupage.org",
                "ref:regon": "151961900",
                "operator": "Gmina Poczesna",
                "operator:type": "government",
                "amenity": "kindergarten",
                "note": "Parent RSPO: 21147"
            }
        },
        {
            "id": 127568,
            "type": "Feature",
            "geometry": {
                "type": "Point",
                "coordinates": [
                    19.15215,
                    50.75255
                ]
            },
            "properties": {
                "ref:rspo": 127568,
                "official_name": "Niepubliczne Przedszkole \"Zaczarowany Ogr\u00f3d\"",
                "name": "Niepubliczne Przedszkole \"Zaczarowany Ogr\u00f3d\"",
                "addr:postcode": "42-263",
                "addr:city": "Wrzosowa",
                "addr:street": "Katowicka",
                "addr:housenumber": "42a",
                "addr:city:simc": 142579,
                "addr:street:sym_ul": 8206,
                "phone": "+48 604297373",
                "email": "dyrektor@zaczarowany-ogrod.com",
                "website": "http:\/\/zaczarowany-ogrod.com",
                "ref:regon": "361708127",
                "operator": "Iwona Ko\u0142odziejczak",
                "operator:type": "private",
                "amenity": "kindergarten"
            }
        }
    ]
}