{
    "type": "FeatureCollection",
    "features": [
        {
            "id": 10985,
            "type": "Feature",
            "geometry": {
                "type": "Point",
                "coordinates": [
                    19.5645269,
                    50.81812
                ]
            },
            "properties": {
                "isced:level": "1;2",
                "ref:rspo": 10985,
                "official_name": "Szko\u0142a Podstawowa w Olbrachcicach",
                "name": "Szko\u0142a Podstawowa w Olbrachcicach",
                "addr:country": "PL",
                "addr:postcode": "42-265",
                "addr:place": "Olbrachcice",
                "addr:housenumber": "146",
                "addr:teryt:sym_ul": 130932,
                "contact:phone": "+48 343548129",
                "contact:email": "sp.olbrachcice@dabrowazielona.pl",
                "contact:website": "http:\/\/www.olbrachcice.szkola.pl",
                "ref:regon": "001155130",
                "ref:vatin": "PL9490615770",
                "operator": "Gmina D\u0105browa Zielona",
                "operator:type": "government",
                "amenity": "school"
            }
        },
        {
            "id": 10969,
            "type": "Feature",
            "geometry": {
                "type": "Point",
                "coordinates": [
                    19.55648,
                    50.8433599
                ]
            },
            "properties": {
                "isced:level": "1;2",
                "ref:rspo": 10969,
                "official_name": "Szko\u0142a Podstawowa im. W\u0142adys\u0142awa Broniewskiego",
                "name": "Szko\u0142a Podstawowa",
                "addr:country": "PL",
                "addr:postcode": "42-265",
                "addr:city": "D\u0105browa Zielona",
                "addr:street": "Plac Ko\u015bciuszki",
                "addr:housenumber": "49",
                "addr:teryt:simc": 33975,
                "addr:teryt:sym_ul": 130850,
                "contact:phone": "+48 343555146",
                "contact:email": "sp@dabrowazielona.pl",
                "contact:website": "http:\/\/www.zsdz.pl",
                "ref:regon": "000565682",
                "ref:vatin": "PL9492184481",
                "operator": "Gmina D\u0105browa Zielona",
                "operator:type": "government",
                "amenity": "school"
            }
        },
        {
            "id": 3059,
            "type": "Feature",
            "geometry": {
                "type": "Point",
                "coordinates": [
                    19.61797,
                    50.85944
                ]
            },
            "properties": {
                "isced:level": "1;2",
                "ref:rspo": 3059,
                "official_name": "Niepubliczna Szko\u0142a Podstawowa im. Marii Konopnickiej w Soborzycach",
                "name": "Niepubliczna Szko\u0142a Podstawowa",
                "addr:country": "PL",
                "addr:postcode": "42-265",
                "addr:city": "Soborzyce",
                "addr:street": "Plac Wolno\u015bci",
                "addr:housenumber": "4",
                "addr:teryt:simc": 16414,
                "addr:teryt:sym_ul": 130978,
                "contact:phone": "+48 343555102",
                "contact:email": "nspsoborzyce@interia.pl",
                "ref:regon": "243007241",
                "operator": "Stowarzyszenie Na Rzecz Rozwoju Wsi Soborzyce",
                "operator:type": "ngo",
                "amenity": "school"
            }
        },
        {
            "id": 4173,
            "type": "Feature",
            "geometry": {
                "type": "Point",
                "coordinates": [
                    19.57314,
                    50.88909
                ]
            },
            "properties": {
                "ref:rspo": 4173,
                "official_name": "Gminne Przedszkole w D\u0105browie Zielonej",
                "name": "Gminne Przedszkole w D\u0105browie Zielonej",
                "addr:country": "PL",
                "addr:postcode": "42-265",
                "addr:city": "D\u0105browa Zielona",
                "addr:street": "Plac Ko\u015bciuszki",
                "addr:housenumber": "5",
                "addr:teryt:simc": 33975,
                "addr:teryt:sym_ul": 130850,
                "contact:email": "przedszkoledz@dabrowazielona.pl",
                "contact:website": "http:\/\/www.przedszkoledz.pl",
                "ref:regon": "151017704",
                "ref:vatin": "PL9490615787",
                "operator": "Gmina D\u0105browa Zielona",
                "operator:type": "government",
                "amenity": "kindergarten"
            }
        }
    ]
}