{
    "type": "FeatureCollection",
    "features": [
        {
            "id": 82372,
            "type": "Feature",
            "geometry": {
                "type": "Point",
                "coordinates": [
                    17.77265,
                    52.38152
                ]
            },
            "properties": {
                "ref:rspo": 82372,
                "official_name": "Zesp\u00f3\u0142 Szkolno-Przedszkolny im. Powsta\u0144c\u00f3w Wielkopolskich w Miel\u017cynie",
                "name": "Zesp\u00f3\u0142 Szkolno-Przedszkolny",
                "addr:postcode": "62-230",
                "addr:city": "Miel\u017cyn",
                "addr:street": "Strza\u0142kowska",
                "addr:housenumber": "1",
                "addr:city:simc": 300624,
                "addr:street:sym_ul": 21350,
                "phone": "+48 614775004",
                "email": "mielzynek@poczta.onet.pl",
                "website": "http:\/\/www.szkolamielzyn.pl",
                "ref:regon": "634233041",
                "ref:vatin": "PL7842216520",
                "operator": "Gmina I Miasto Witkowo",
                "operator:type": "government",
                "landuse": "education",
                "fixme": "amenity=school, amenity=college albo landuse=education w zale\u017cno\u015bci od tego, jakie plac\u00f3wki wchodz\u0105 w sk\u0142ad zespo\u0142u. Sprawd\u017a, kiedy stosowa\u0107 amenity=* a kiedy landuse=education.",
                "note": "Children RSPO: 82368;82369"
            }
        },
        {
            "id": 82368,
            "type": "Feature",
            "geometry": {
                "type": "Point",
                "coordinates": [
                    17.77265,
                    52.38149
                ]
            },
            "properties": {
                "ref:rspo": 82368,
                "official_name": "Przedszkole w Zespole Szkolno-Przedszkolnym w Miel\u017cynie",
                "name": "Przedszkole w Zespole Szkolno-Przedszkolnym w Miel\u017cynie",
                "addr:postcode": "62-230",
                "addr:city": "Miel\u017cyn",
                "addr:street": "Strza\u0142kowska",
                "addr:housenumber": "1",
                "addr:city:simc": 300624,
                "addr:street:sym_ul": 21350,
                "phone": "+48 614775004",
                "email": "mielzynek@poczta.onet.pl",
                "website": "http:\/\/www.szkolamielzyn.pl",
                "ref:regon": "310501191",
                "operator": "Gmina I Miasto Witkowo",
                "operator:type": "government",
                "amenity": "kindergarten",
                "note": "Parent RSPO: 82372"
            }
        },
        {
            "id": 82369,
            "type": "Feature",
            "geometry": {
                "type": "Point",
                "coordinates": [
                    17.77265,
                    52.381460000000004
                ]
            },
            "properties": {
                "isced:level": "1;2",
                "ref:rspo": 82369,
                "official_name": "Szko\u0142a Podstawowa w Zespole Szkolno-Przedszkolnym w Miel\u017cynie",
                "name": "Szko\u0142a Podstawowa w Zespole Szkolno-Przedszkolnym w Miel\u017cynie",
                "addr:postcode": "62-230",
                "addr:city": "Miel\u017cyn",
                "addr:street": "Strza\u0142kowska",
                "addr:housenumber": "1",
                "addr:city:simc": 300624,
                "addr:street:sym_ul": 21350,
                "phone": "+48 614775004",
                "email": "mielzynek@poczta.onet.pl",
                "website": "http:\/\/www.szkolamielzyn.pl",
                "ref:regon": "001194874",
                "operator": "Gmina I Miasto Witkowo",
                "operator:type": "government",
                "amenity": "school",
                "note": "Parent RSPO: 82372"
            }
        },
        {
            "id": 115406,
            "type": "Feature",
            "geometry": {
                "type": "Point",
                "coordinates": [
                    17.7150809,
                    52.4071155
                ]
            },
            "properties": {
                "ref:rspo": 115406,
                "official_name": "Niepubliczne Przedszkole w Gorzykowie",
                "name": "Niepubliczne Przedszkole w Gorzykowie",
                "addr:postcode": "62-230",
                "addr:place": "Gorzykowo",
                "addr:housenumber": "3",
                "addr:city:simc": 300512,
                "phone": "+48 614775790",
                "ref:regon": "302471941",
                "operator": "\"Stowarzyszenie - Razem W Przysz\u0142o\u015b\u0107\"",
                "operator:type": "ngo",
                "amenity": "kindergarten"
            }
        },
        {
            "id": 115407,
            "type": "Feature",
            "geometry": {
                "type": "Point",
                "coordinates": [
                    17.7150809,
                    52.4070855
                ]
            },
            "properties": {
                "isced:level": "1;2",
                "ref:rspo": 115407,
                "official_name": "Niepubliczna Szko\u0142a Podstawowa w Gorzykowie",
                "name": "Niepubliczna Szko\u0142a Podstawowa w Gorzykowie",
                "addr:postcode": "62-230",
                "addr:place": "Gorzykowo",
                "addr:housenumber": "3",
                "addr:city:simc": 300512,
                "phone": "+48 614775790",
                "email": "dspgorzykowo@wp.pl",
                "ref:regon": "302471912",
                "operator": "\"Stowarzyszenie - Razem W Przysz\u0142o\u015b\u0107\"",
                "operator:type": "ngo",
                "amenity": "school"
            }
        },
        {
            "id": 129715,
            "type": "Feature",
            "geometry": {
                "type": "Point",
                "coordinates": [
                    17.7717684,
                    52.4360387
                ]
            },
            "properties": {
                "ref:rspo": 129715,
                "official_name": "Niepubliczne Przedszkole Bajkowy \u015awiat Alicja Matysiak",
                "name": "Niepubliczne Przedszkole Bajkowy \u015awiat Alicja Matysiak",
                "addr:postcode": "62-230",
                "addr:city": "Witkowo",
                "addr:street": "Jana Paw\u0142a II",
                "addr:housenumber": "16f",
                "addr:city:simc": 949388,
                "addr:street:sym_ul": 7123,
                "phone": "+48 616699940",
                "email": "pasternakaga@interia.pl",
                "website": "http:\/\/www.bajkowyswiatwitkowo.pl",
                "ref:regon": "362788571",
                "ref:vatin": "PL7971134161",
                "operator": "Alicja Matysiak",
                "operator:type": "private",
                "amenity": "kindergarten"
            }
        },
        {
            "id": 133918,
            "type": "Feature",
            "geometry": {
                "type": "Point",
                "coordinates": [
                    17.77431,
                    52.43654
                ]
            },
            "properties": {
                "isced:level": "1;2",
                "ref:rspo": 133918,
                "official_name": "Szko\u0142a Podstawowa nr 1 im. Adama Borysa",
                "name": "Szko\u0142a Podstawowa nr 1",
                "addr:postcode": "62-230",
                "addr:city": "Witkowo",
                "addr:street": "Pozna\u0144ska",
                "addr:housenumber": "47",
                "addr:city:simc": 949388,
                "addr:street:sym_ul": 17394,
                "phone": "+48 614778250",
                "email": "sp.adamborys@wp.pl",
                "ref:regon": "367732262",
                "operator": "Gmina I Miasto Witkowo",
                "operator:type": "government",
                "amenity": "school"
            }
        },
        {
            "id": 82365,
            "type": "Feature",
            "geometry": {
                "type": "Point",
                "coordinates": [
                    17.7760399,
                    52.43739
                ]
            },
            "properties": {
                "ref:rspo": 82365,
                "official_name": "Przedszkole Miejskie Bajka w Witkowie",
                "name": "Przedszkole Miejskie Bajka w Witkowie",
                "addr:postcode": "62-230",
                "addr:city": "Witkowo",
                "addr:street": "Powsta\u0144c\u00f3w Wielkopolskich",
                "addr:housenumber": "17",
                "addr:city:simc": 949388,
                "addr:street:sym_ul": 17377,
                "phone": "+48 614778193",
                "email": "przedszkole81@wp.pl",
                "ref:regon": "000996169",
                "ref:vatin": "PL7842216589",
                "operator": "Gmina I Miasto Witkowo",
                "operator:type": "government",
                "amenity": "kindergarten"
            }
        },
        {
            "id": 86810,
            "type": "Feature",
            "geometry": {
                "type": "Point",
                "coordinates": [
                    17.76978,
                    52.44033
                ]
            },
            "properties": {
                "ref:rspo": 86810,
                "official_name": "Przedszkole-Ochronka im. Dzieci\u0105tka Jezus w Witkowie",
                "name": "Przedszkole-Ochronka",
                "addr:postcode": "62-230",
                "addr:city": "Witkowo",
                "addr:street": "Czerniejewska",
                "addr:housenumber": "2",
                "addr:city:simc": 949388,
                "addr:street:sym_ul": 3394,
                "phone": "+48 614778948",
                "email": "ochronka@vp.pl",
                "ref:regon": "302273827",
                "ref:vatin": "PL7842393601",
                "operator": "Prowincja \u015awi\u0119tego J\u00f3zefa Zgromadzenia Si\u00f3str S\u0142u\u017cebniczek Niepokalanego Pocz\u0119cia Naj\u015bwi\u0119tszej Maryi Panny",
                "operator:type": "religious",
                "amenity": "kindergarten"
            }
        },
        {
            "id": 56350,
            "type": "Feature",
            "geometry": {
                "type": "Point",
                "coordinates": [
                    17.77842,
                    52.4406
                ]
            },
            "properties": {
                "ref:rspo": 56350,
                "official_name": "Zesp\u00f3\u0142 Szk\u00f3\u0142 Ponadpodstawowych im. Dezyderego Ch\u0142apowskiego w Witkowie",
                "name": "Zesp\u00f3\u0142 Szk\u00f3\u0142 Ponadpodstawowych",
                "addr:postcode": "62-230",
                "addr:city": "Witkowo",
                "addr:street": "Warszawska",
                "addr:housenumber": "29",
                "addr:city:simc": 949388,
                "addr:street:sym_ul": 23682,
                "phone": "+48 614778135",
                "email": "sekretariat@zspwitkowo.pl",
                "website": "http:\/\/www.zspwitkowo.pl",
                "ref:regon": "000095360",
                "ref:vatin": "PL7842206349",
                "operator": "Powiat Gnie\u017anie\u0144ski",
                "operator:type": "government",
                "landuse": "education",
                "fixme": "amenity=school, amenity=college albo landuse=education w zale\u017cno\u015bci od tego, jakie plac\u00f3wki wchodz\u0105 w sk\u0142ad zespo\u0142u. Sprawd\u017a, kiedy stosowa\u0107 amenity=* a kiedy landuse=education.",
                "note": "Children RSPO: 78972;79007;79187;79294;79346;86047"
            }
        },
        {
            "id": 78972,
            "type": "Feature",
            "geometry": {
                "type": "Point",
                "coordinates": [
                    17.77842,
                    52.44057
                ]
            },
            "properties": {
                "isced:level": "3",
                "ref:rspo": 78972,
                "official_name": "Liceum Og\u00f3lnokszta\u0142c\u0105ce w Zespole Szk\u00f3\u0142 Ponadpodstawowych im. Dezyderego Ch\u0142apowskiego w Witkowie",
                "name": "Liceum Og\u00f3lnokszta\u0142c\u0105ce w Zespole Szk\u00f3\u0142 Ponadpodstawowych",
                "addr:postcode": "62-230",
                "addr:city": "Witkowo",
                "addr:street": "Warszawska",
                "addr:housenumber": "29",
                "addr:city:simc": 949388,
                "addr:street:sym_ul": 23682,
                "phone": "+48 614778135",
                "email": "sekretariat@zspwitkowo.pl",
                "website": "http:\/\/www.zswitkowo.pl",
                "ref:regon": "634161554",
                "ref:vatin": "PL7842206349",
                "operator": "Powiat Gnie\u017anie\u0144ski",
                "operator:type": "government",
                "amenity": "school",
                "note": "Parent RSPO: 56350"
            }
        },
        {
            "id": 79007,
            "type": "Feature",
            "geometry": {
                "type": "Point",
                "coordinates": [
                    17.77842,
                    52.440540000000006
                ]
            },
            "properties": {
                "isced:level": "3",
                "ref:rspo": 79007,
                "official_name": "Technikum w Zespole Szk\u00f3\u0142 Ponadpodstawowych im. Dezyderego Ch\u0142apowskiego w Witkowie",
                "name": "Technikum w Zespole Szk\u00f3\u0142 Ponadpodstawowych",
                "addr:postcode": "62-230",
                "addr:city": "Witkowo",
                "addr:street": "Warszawska",
                "addr:housenumber": "29",
                "addr:city:simc": 949388,
                "addr:street:sym_ul": 23682,
                "phone": "+48 614778135",
                "email": "sekretariat@zspwitkowo.pl",
                "website": "http:\/\/www.zspwitkowo.pl",
                "ref:regon": "634161502",
                "ref:vatin": "PL7842206349",
                "operator": "Powiat Gnie\u017anie\u0144ski",
                "operator:type": "government",
                "amenity": "school",
                "note": "Parent RSPO: 56350"
            }
        },
        {
            "id": 79187,
            "type": "Feature",
            "geometry": {
                "type": "Point",
                "coordinates": [
                    17.77842,
                    52.44051
                ]
            },
            "properties": {
                "isced:level": "3",
                "ref:rspo": 79187,
                "official_name": "Technikum Informatyczne w Zespole Szk\u00f3\u0142 Ponadpodstawowych im. Dezyderego Ch\u0142apowskiego w Witkowie",
                "name": "Technikum Informatyczne w Zespole Szk\u00f3\u0142 Ponadpodstawowych",
                "addr:postcode": "62-230",
                "addr:city": "Witkowo",
                "addr:street": "Warszawska",
                "addr:housenumber": "29",
                "addr:city:simc": 949388,
                "addr:street:sym_ul": 23682,
                "phone": "+48 614778135",
                "email": "sekretariat@zspwitkowo.pl",
                "website": "http:\/\/www.zspwitkowo.pl",
                "ref:regon": "300634623",
                "ref:vatin": "PL7842206349",
                "operator": "Powiat Gnie\u017anie\u0144ski",
                "operator:type": "government",
                "amenity": "school",
                "note": "Parent RSPO: 56350"
            }
        },
        {
            "id": 79294,
            "type": "Feature",
            "geometry": {
                "type": "Point",
                "coordinates": [
                    17.77842,
                    52.44048
                ]
            },
            "properties": {
                "isced:level": "3",
                "ref:rspo": 79294,
                "official_name": "Zesp\u00f3\u0142 Szk\u00f3\u0142 Ponadpodstawowych im. Dezyderego Ch\u0142apowskiego w Witkowie -Technikum \u017bywienia I Us\u0142ug Gastronomicznych",
                "name": "Zesp\u00f3\u0142 Szk\u00f3\u0142 Ponadpodstawowych",
                "addr:postcode": "62-230",
                "addr:city": "Witkowo",
                "addr:street": "Warszawska",
                "addr:housenumber": "29",
                "addr:city:simc": 949388,
                "addr:street:sym_ul": 23682,
                "phone": "+48 614778135",
                "email": "sekretariat@zspwitkowo.pl",
                "website": "http:\/\/www.zspwitkowo.pl",
                "ref:regon": "302265070",
                "ref:vatin": "PL7842206349",
                "operator": "Powiat Gnie\u017anie\u0144ski",
                "operator:type": "government",
                "amenity": "school",
                "note": "Parent RSPO: 56350"
            }
        },
        {
            "id": 79346,
            "type": "Feature",
            "geometry": {
                "type": "Point",
                "coordinates": [
                    17.77842,
                    52.440450000000006
                ]
            },
            "properties": {
                "isced:level": "3",
                "ref:rspo": 79346,
                "official_name": "Bran\u017cowa Szko\u0142a I Stopnia w Zespole Szk\u00f3\u0142 Ponadpodstawowych im. Dezyderego Ch\u0142apowskiego w Witkowie",
                "name": "Bran\u017cowa Szko\u0142a I Stopnia w Zespole Szk\u00f3\u0142 Ponadpodstawowych",
                "addr:postcode": "62-230",
                "addr:city": "Witkowo",
                "addr:street": "Warszawska",
                "addr:housenumber": "29",
                "addr:city:simc": 949388,
                "addr:street:sym_ul": 23682,
                "phone": "+48 614778135",
                "email": "sekretariat@zspwitkowo.pl",
                "website": "http:\/\/www.zspwitkowo.pl",
                "ref:regon": "634380470",
                "ref:vatin": "PL7842206349",
                "operator": "Powiat Gnie\u017anie\u0144ski",
                "operator:type": "government",
                "amenity": "school",
                "note": "Parent RSPO: 56350"
            }
        },
        {
            "id": 86047,
            "type": "Feature",
            "geometry": {
                "type": "Point",
                "coordinates": [
                    17.77842,
                    52.44042
                ]
            },
            "properties": {
                "isced:level": "3",
                "ref:rspo": 86047,
                "official_name": "Zesp\u00f3\u0142 Szk\u00f3\u0142 Ponadpodstawowych im.dezyderego Ch\u0142apowskiego Liceum Og\u00f3lnokszta\u0142c\u0105ce dla Doros\u0142ych",
                "name": "Zesp\u00f3\u0142 Szk\u00f3\u0142 Ponadpodstawowych im.dezyderego Ch\u0142apowskiego Liceum Og\u00f3lnokszta\u0142c\u0105ce dla Doros\u0142ych",
                "addr:postcode": "62-230",
                "addr:city": "Witkowo",
                "addr:street": "Warszawska",
                "addr:housenumber": "29",
                "addr:city:simc": 949388,
                "addr:street:sym_ul": 23682,
                "phone": "+48 614778135",
                "email": "sekretariat@zspwitkowo.pl",
                "website": "http:\/\/www.zspwitkowo.pl",
                "ref:regon": "301367087",
                "ref:vatin": "PL7842206349",
                "operator": "Powiat Gnie\u017anie\u0144ski",
                "operator:type": "government",
                "amenity": "school",
                "note": "Parent RSPO: 56350"
            }
        },
        {
            "id": 82363,
            "type": "Feature",
            "geometry": {
                "type": "Point",
                "coordinates": [
                    17.76494,
                    52.4406899
                ]
            },
            "properties": {
                "isced:level": "1;2",
                "ref:rspo": 82363,
                "official_name": "Szko\u0142a Podstawowa nr 2 im. Lotnictwa Polskiego w Witkowie",
                "name": "Szko\u0142a Podstawowa nr 2",
                "addr:postcode": "62-230",
                "addr:city": "Witkowo",
                "addr:street": "Czerniejewska",
                "addr:housenumber": "14",
                "addr:city:simc": 949388,
                "addr:street:sym_ul": 3394,
                "phone": "+48 614778251",
                "email": "spwitkowo@list.pl",
                "ref:regon": "000264615",
                "ref:vatin": "PL7842216566",
                "operator": "Gmina I Miasto Witkowo",
                "operator:type": "government",
                "amenity": "school"
            }
        },
        {
            "id": 105153,
            "type": "Feature",
            "geometry": {
                "type": "Point",
                "coordinates": [
                    17.77045,
                    52.44092
                ]
            },
            "properties": {
                "ref:rspo": 105153,
                "official_name": "Zak\u0142ad Poprawczy w Witkowie",
                "name": "Zak\u0142ad Poprawczy w Witkowie",
                "addr:postcode": "62-230",
                "addr:city": "Witkowo",
                "addr:street": "Park Ko\u015bciuszki",
                "addr:housenumber": "9",
                "addr:city:simc": 949388,
                "addr:street:sym_ul": 15700,
                "phone": "+48 614778244",
                "email": "sekretariat@witkowo.zp.gov.pl",
                "website": "http:\/\/www.witkowo.zp.gov.pl",
                "ref:regon": "000324205",
                "operator": "Ministerstwo Sprawiedliwo\u015bci",
                "operator:type": "government",
                "note": "Children RSPO: 124913;124915"
            }
        },
        {
            "id": 124913,
            "type": "Feature",
            "geometry": {
                "type": "Point",
                "coordinates": [
                    17.77045,
                    52.440889999999996
                ]
            },
            "properties": {
                "isced:level": "1;2",
                "ref:rspo": 124913,
                "official_name": "Szko\u0142a Podstawowa Specjalna nr 4 w Zak\u0142adzie Poprawczym w Witkowie",
                "name": "Szko\u0142a Podstawowa Specjalna nr 4 w Zak\u0142adzie Poprawczym w Witkowie",
                "addr:postcode": "62-230",
                "addr:city": "Witkowo",
                "addr:street": "Park Ko\u015bciuszki",
                "addr:housenumber": "9",
                "addr:city:simc": 949388,
                "addr:street:sym_ul": 15700,
                "phone": "+48 614778244",
                "email": "sekretariat@witkowo.zp.gov.pl",
                "website": "http:\/\/www.witkowo.zp.gov.pl",
                "ref:regon": "302821750",
                "operator": "Ministerstwo Sprawiedliwo\u015bci",
                "operator:type": "government",
                "amenity": "school",
                "note": "Parent RSPO: 105153"
            }
        },
        {
            "id": 124915,
            "type": "Feature",
            "geometry": {
                "type": "Point",
                "coordinates": [
                    17.77045,
                    52.44086
                ]
            },
            "properties": {
                "isced:level": "3",
                "ref:rspo": 124915,
                "official_name": "Bran\u017cowa Szko\u0142a I Stopnia Specjalna nr 2 w Zak\u0142adzie Poprawczym w Witkowie",
                "name": "Bran\u017cowa Szko\u0142a I Stopnia Specjalna nr 2 w Zak\u0142adzie Poprawczym w Witkowie",
                "addr:postcode": "62-230",
                "addr:city": "Witkowo",
                "addr:street": "Park Ko\u015bciuszki",
                "addr:housenumber": "9",
                "addr:city:simc": 949388,
                "addr:street:sym_ul": 15700,
                "phone": "+48 614778244",
                "email": "sekretariat@witkowo.zp.gov.pl",
                "website": "http:\/\/www.witkowo.zp.gov.pl",
                "ref:regon": "302821766",
                "operator": "Ministerstwo Sprawiedliwo\u015bci",
                "operator:type": "government",
                "amenity": "school",
                "note": "Parent RSPO: 105153"
            }
        },
        {
            "id": 124650,
            "type": "Feature",
            "geometry": {
                "type": "Point",
                "coordinates": [
                    17.78832,
                    52.44098
                ]
            },
            "properties": {
                "ref:rspo": 124650,
                "official_name": "Domowe Przedszkole",
                "name": "Domowe Przedszkole",
                "addr:postcode": "62-230",
                "addr:city": "Witkowo",
                "addr:street": "Zakole",
                "addr:housenumber": "3",
                "addr:city:simc": 949388,
                "addr:street:sym_ul": 25452,
                "phone": "+48 785250979",
                "email": "urszulastryjska@interia.pl",
                "ref:regon": "302815872",
                "operator": "Urszula Stryjska",
                "operator:type": "private",
                "amenity": "kindergarten"
            }
        },
        {
            "id": 111471,
            "type": "Feature",
            "geometry": {
                "type": "Point",
                "coordinates": [
                    17.76667,
                    52.44124
                ]
            },
            "properties": {
                "ref:rspo": 111471,
                "official_name": "Plac\u00f3wka Niepubliczna Kszta\u0142cenia Ustawicznego I Praktycznego Liga Obrony Kraju w Witkowie",
                "name": "Plac\u00f3wka Niepubliczna Kszta\u0142cenia Ustawicznego I Praktycznego Liga Obrony Kraju w Witkowie",
                "addr:postcode": "62-230",
                "addr:city": "Witkowo",
                "addr:street": "\u017bwirki i Wigury",
                "addr:housenumber": "3",
                "addr:city:simc": 949388,
                "addr:street:sym_ul": 26608,
                "phone": "+48 513184406",
                "email": "biuro.oskwitkowo@lok.org.pl",
                "website": "http:\/\/www.lok.org.pl",
                "ref:regon": "302376020",
                "ref:vatin": "PL5210086832",
                "operator": "Liga Obrony Kraju Oddzia\u0142 Biura Zarz\u0105du G\u0142\u00f3wnego W Poznaniu",
                "operator:type": "ngo",
                "fixme": "w zale\u017cno\u015bci od przedmiotu dzia\u0142alno\u015bci (np. amenity=training + training=*, amenity=dancing_school, amenity=language_school, amenity=music_school)"
            }
        },
        {
            "id": 264522,
            "type": "Feature",
            "geometry": {
                "type": "Point",
                "coordinates": [
                    17.76869,
                    52.44533
                ]
            },
            "properties": {
                "ref:rspo": 264522,
                "official_name": "J\u0119zykowe Przedszkole \"Mali Odkrywcy\"",
                "name": "J\u0119zykowe Przedszkole \"Mali Odkrywcy\"",
                "addr:postcode": "62-230",
                "addr:city": "Witkowo",
                "addr:street": "Dworcowa",
                "addr:housenumber": "10",
                "addr:city:simc": 949388,
                "addr:street:sym_ul": 4434,
                "ref:regon": "368372707",
                "ref:vatin": "PL7842453059",
                "operator": "Bart\u0142omiej Szuba",
                "operator:type": "private",
                "amenity": "kindergarten"
            }
        }
    ]
}