{
    "type": "FeatureCollection",
    "features": [
        {
            "id": 126345,
            "type": "Feature",
            "geometry": {
                "type": "Point",
                "coordinates": [
                    17.5372999,
                    52.50269
                ]
            },
            "properties": {
                "isced:level": "1;2",
                "ref:rspo": 126345,
                "official_name": "Szko\u0142a Podstawowa w Szczytnikach Duchownych Filia w Mnichowie",
                "name": "Szko\u0142a Podstawowa w Szczytnikach Duchownych Filia w Mnichowie",
                "addr:country": "PL",
                "addr:postcode": "62-200",
                "addr:place": "Mnichowo",
                "addr:housenumber": "29",
                "addr:door": "-",
                "addr:teryt:sym_ul": 583510,
                "contact:phone": "+48 614261892",
                "contact:email": "zsg.szczytniki@wp.pl",
                "ref:regon": "122514900",
                "operator": "Gmina Gniezno",
                "operator:type": "government",
                "amenity": "school",
                "note": "Parent RSPO: 31909"
            }
        },
        {
            "id": 27473,
            "type": "Feature",
            "geometry": {
                "type": "Point",
                "coordinates": [
                    17.66972,
                    52.51897
                ]
            },
            "properties": {
                "ref:rspo": 27473,
                "official_name": "Zesp\u00f3\u0142 Szk\u00f3\u0142 w Szczytnikach Duchownych",
                "name": "Zesp\u00f3\u0142 Szk\u00f3\u0142 w Szczytnikach Duchownych",
                "addr:country": "PL",
                "addr:postcode": "62-200",
                "addr:place": "Szczytniki Duchowne",
                "addr:housenumber": "27",
                "addr:teryt:sym_ul": 583680,
                "contact:phone": "+48 614245773",
                "contact:email": "zsg.szczytniki@wp.pl",
                "contact:website": "http:\/\/zsgszczytniki.szkolnastrona.pl",
                "ref:regon": "634606542",
                "ref:vatin": "PL7842275712",
                "operator": "Gmina Gniezno",
                "operator:type": "government",
                "landuse": "education",
                "fixme": "amenity=school, amenity=college albo landuse=education w zale\u017cno\u015bci od tego, jakie plac\u00f3wki wchodz\u0105 w sk\u0142ad zespo\u0142u. Sprawd\u017a, kiedy stosowa\u0107 amenity=* a kiedy landuse=education.",
                "note": "Children RSPO: 31909;31969"
            }
        },
        {
            "id": 31909,
            "type": "Feature",
            "geometry": {
                "type": "Point",
                "coordinates": [
                    17.66972,
                    52.51894
                ]
            },
            "properties": {
                "isced:level": "1;2",
                "ref:rspo": 31909,
                "official_name": "Szko\u0142a Podstawowa w Szczytnikach Duchownych",
                "name": "Szko\u0142a Podstawowa w Szczytnikach Duchownych",
                "addr:country": "PL",
                "addr:postcode": "62-200",
                "addr:place": "Szczytniki Duchowne",
                "addr:housenumber": "27",
                "addr:teryt:sym_ul": 583680,
                "contact:phone": "+48 614245773",
                "contact:email": "zsg.szczytniki@wp.pl",
                "ref:regon": "001225149",
                "operator": "Gmina Gniezno",
                "operator:type": "government",
                "amenity": "school",
                "note": "Children RSPO: 126345Parent RSPO: 27473"
            }
        },
        {
            "id": 31969,
            "type": "Feature",
            "geometry": {
                "type": "Point",
                "coordinates": [
                    17.66972,
                    52.518910000000005
                ]
            },
            "properties": {
                "ref:rspo": 31969,
                "official_name": "Przedszkole w Szczytnikach Duchownych",
                "name": "Przedszkole w Szczytnikach Duchownych",
                "addr:country": "PL",
                "addr:postcode": "62-200",
                "addr:place": "Szczytniki Duchowne",
                "addr:housenumber": "27",
                "addr:teryt:sym_ul": 583680,
                "contact:phone": "+48 614245773",
                "contact:email": "zsg.szczytniki@wp.pl",
                "ref:regon": "300639951",
                "operator": "Gmina Gniezno",
                "operator:type": "government",
                "amenity": "kindergarten",
                "note": "Parent RSPO: 27473"
            }
        },
        {
            "id": 118768,
            "type": "Feature",
            "geometry": {
                "type": "Point",
                "coordinates": [
                    17.68333,
                    52.55006
                ]
            },
            "properties": {
                "ref:rspo": 118768,
                "official_name": "Zesp\u00f3\u0142 Szk\u00f3\u0142 w Jankowie Dolnym",
                "name": "Zesp\u00f3\u0142 Szk\u00f3\u0142 w Jankowie Dolnym",
                "addr:country": "PL",
                "addr:postcode": "62-200",
                "addr:place": "Jankowo Dolne",
                "addr:housenumber": "9",
                "addr:teryt:sym_ul": 583438,
                "contact:phone": "+48 614245774",
                "contact:email": "szkolajd09@wp.pl",
                "contact:website": "http:\/\/www.zsjankowodolne.szkolnastrona.pl",
                "ref:regon": "302501381",
                "ref:vatin": "PL7842490669",
                "operator": "Gmina Gniezno",
                "operator:type": "government",
                "landuse": "education",
                "fixme": "amenity=school, amenity=college albo landuse=education w zale\u017cno\u015bci od tego, jakie plac\u00f3wki wchodz\u0105 w sk\u0142ad zespo\u0142u. Sprawd\u017a, kiedy stosowa\u0107 amenity=* a kiedy landuse=education.",
                "note": "Children RSPO: 19015;118847"
            }
        },
        {
            "id": 19015,
            "type": "Feature",
            "geometry": {
                "type": "Point",
                "coordinates": [
                    17.68333,
                    52.55003
                ]
            },
            "properties": {
                "isced:level": "1;2",
                "ref:rspo": 19015,
                "official_name": "Szko\u0142a Podstawowa im.arkadego Fiedlera w Jankowie Dolnym",
                "name": "Szko\u0142a Podstawowa im.arkadego Fiedlera w Jankowie Dolnym",
                "addr:country": "PL",
                "addr:postcode": "62-200",
                "addr:place": "Jankowo Dolne",
                "addr:housenumber": "9",
                "addr:teryt:sym_ul": 583438,
                "contact:phone": "+48 614271197",
                "contact:email": "szkolajd09@wp.pl",
                "contact:website": "http:\/\/www.zsjankowodolne.szkolnastrona.pl",
                "ref:regon": "001224807",
                "ref:vatin": "PL7841649197",
                "operator": "Gmina Gniezno",
                "operator:type": "government",
                "amenity": "school",
                "note": "Parent RSPO: 118768"
            }
        },
        {
            "id": 118847,
            "type": "Feature",
            "geometry": {
                "type": "Point",
                "coordinates": [
                    17.68333,
                    52.550000000000004
                ]
            },
            "properties": {
                "ref:rspo": 118847,
                "official_name": "Zesp\u00f3\u0142 Szk\u00f3\u0142 w Jankowie Dolnym Przedszkole Publiczne",
                "name": "Zesp\u00f3\u0142 Szk\u00f3\u0142 w Jankowie Dolnym Przedszkole Publiczne",
                "addr:country": "PL",
                "addr:postcode": "62-200",
                "addr:place": "Jankowo Dolne",
                "addr:housenumber": "9",
                "addr:teryt:sym_ul": 583438,
                "contact:phone": "+48 614271197",
                "contact:email": "spjankowodolne@wp.pl",
                "ref:regon": "302503931",
                "operator": "Gmina Gniezno",
                "operator:type": "government",
                "amenity": "kindergarten",
                "note": "Parent RSPO: 118768"
            }
        },
        {
            "id": 278165,
            "type": "Feature",
            "geometry": {
                "type": "Point",
                "coordinates": [
                    17.52587,
                    52.56504
                ]
            },
            "properties": {
                "ref:rspo": 278165,
                "official_name": "Przedszkole w Oborze",
                "name": "Przedszkole w Oborze",
                "addr:country": "PL",
                "addr:postcode": "62-200",
                "addr:place": "Obora",
                "addr:housenumber": "30",
                "addr:teryt:sym_ul": 583562,
                "contact:phone": "+48 614279610",
                "contact:email": "sekretariat@przedszkolezdziechowa.pl",
                "ref:regon": "389849254",
                "operator": "Gmina Gniezno",
                "operator:type": "government",
                "amenity": "kindergarten",
                "note": "Parent RSPO: 275990"
            }
        },
        {
            "id": 275754,
            "type": "Feature",
            "geometry": {
                "type": "Point",
                "coordinates": [
                    17.5965,
                    52.56619
                ]
            },
            "properties": {
                "ref:rspo": 275754,
                "official_name": "Przedszkole w Pyszczynie",
                "name": "Przedszkole w Pyszczynie",
                "addr:country": "PL",
                "addr:postcode": "62-200",
                "addr:place": "Pyszczyn",
                "addr:housenumber": "22",
                "addr:teryt:sym_ul": 583616,
                "contact:phone": "+48 506855286",
                "contact:email": "sekretariat@przedszkolezdziechowa.pl",
                "ref:regon": "386933630",
                "operator": "Gmina Gniezno",
                "operator:type": "government",
                "amenity": "kindergarten",
                "note": "Parent RSPO: 275990"
            }
        },
        {
            "id": 19017,
            "type": "Feature",
            "geometry": {
                "type": "Point",
                "coordinates": [
                    17.630356,
                    52.5774822
                ]
            },
            "properties": {
                "isced:level": "1;2",
                "ref:rspo": 19017,
                "official_name": "Szko\u0142a Podstawowa w Go\u015blinowie",
                "name": "Szko\u0142a Podstawowa w Go\u015blinowie",
                "addr:country": "PL",
                "addr:postcode": "62-200",
                "addr:place": "Go\u015blinowo",
                "addr:housenumber": "14",
                "addr:teryt:sym_ul": 583409,
                "contact:phone": "+48 614267283",
                "contact:email": "spgoslinowo@wp.pl",
                "contact:website": "http:\/\/www.spgoslinowo.superszkolna.pl",
                "ref:regon": "001225161",
                "ref:vatin": "PL7841568889",
                "operator": "Gmina Gniezno",
                "operator:type": "government",
                "amenity": "school"
            }
        },
        {
            "id": 27747,
            "type": "Feature",
            "geometry": {
                "type": "Point",
                "coordinates": [
                    17.55735,
                    52.58588
                ]
            },
            "properties": {
                "isced:level": "1;2",
                "ref:rspo": 27747,
                "official_name": "Szko\u0142a Podstawowa im. Powsta\u0144c\u00f3w Wielkopolskich 1918\/1919 w Zdziechowie",
                "name": "Szko\u0142a Podstawowa",
                "addr:country": "PL",
                "addr:postcode": "62-200",
                "addr:place": "Zdziechowa",
                "addr:housenumber": "136",
                "addr:teryt:sym_ul": 583728,
                "contact:phone": "+48 614271613",
                "contact:email": "zdziechowa@wp.pl",
                "ref:regon": "001225126",
                "operator": "Gmina Gniezno",
                "operator:type": "government",
                "amenity": "school",
                "note": "Children RSPO: 273099"
            }
        },
        {
            "id": 275990,
            "type": "Feature",
            "geometry": {
                "type": "Point",
                "coordinates": [
                    17.55735,
                    52.58585
                ]
            },
            "properties": {
                "ref:rspo": 275990,
                "official_name": "Zesp\u00f3\u0142 Przedszkoli w Zdziechowie",
                "name": "Zesp\u00f3\u0142 Przedszkoli w Zdziechowie",
                "addr:country": "PL",
                "addr:postcode": "62-200",
                "addr:place": "Zdziechowa",
                "addr:housenumber": "136",
                "addr:teryt:sym_ul": 583728,
                "contact:email": "sekretariat@przedszkolezdziechowa.pl",
                "ref:regon": "386962524",
                "operator": "Gmina Gniezno",
                "operator:type": "government",
                "landuse": "education",
                "fixme": "amenity=school, amenity=college albo landuse=education w zale\u017cno\u015bci od tego, jakie plac\u00f3wki wchodz\u0105 w sk\u0142ad zespo\u0142u. Sprawd\u017a, kiedy stosowa\u0107 amenity=* a kiedy landuse=education.",
                "note": "Children RSPO: 19018;275754;278165"
            }
        },
        {
            "id": 19018,
            "type": "Feature",
            "geometry": {
                "type": "Point",
                "coordinates": [
                    17.55735,
                    52.585820000000005
                ]
            },
            "properties": {
                "ref:rspo": 19018,
                "official_name": "Przedszkole Gminy Gniezno w Zdziechowie",
                "name": "Przedszkole Gminy Gniezno w Zdziechowie",
                "addr:country": "PL",
                "addr:postcode": "62-200",
                "addr:place": "Zdziechowa",
                "addr:housenumber": "136",
                "addr:teryt:sym_ul": 583728,
                "contact:phone": "+48 511979077",
                "contact:email": "sekretariat@przedszkolezdziechowa.pl",
                "ref:regon": "632049072",
                "ref:vatin": "PL7841638785",
                "operator": "Gmina Gniezno",
                "operator:type": "government",
                "amenity": "kindergarten",
                "note": "Parent RSPO: 275990"
            }
        },
        {
            "id": 111468,
            "type": "Feature",
            "geometry": {
                "type": "Point",
                "coordinates": [
                    17.60893,
                    52.62005
                ]
            },
            "properties": {
                "ref:rspo": 111468,
                "official_name": "Plac\u00f3wka Szkoleniowa \"Filar\"",
                "name": "Plac\u00f3wka Szkoleniowa \"Filar\"",
                "addr:country": "PL",
                "addr:postcode": "62-200",
                "addr:city": "Modliszewko",
                "addr:street": "Jana i Katarzyny Gac\u00f3w",
                "addr:housenumber": "8",
                "addr:teryt:simc": 41076,
                "addr:teryt:sym_ul": 583533,
                "contact:phone": "+48 501601881",
                "contact:email": "rszarlowski@o2.pl",
                "contact:website": "http:\/\/www.filar.vel.pl",
                "ref:regon": "302375982",
                "ref:vatin": "PL7841017936",
                "operator": "Rafa\u0142 Szar\u0142owski",
                "operator:type": "private",
                "fixme": "w zale\u017cno\u015bci od przedmiotu dzia\u0142alno\u015bci (np. amenity=training + training=*, amenity=dancing_school, amenity=language_school, amenity=music_school)"
            }
        },
        {
            "id": 273099,
            "type": "Feature",
            "geometry": {
                "type": "Point",
                "coordinates": [
                    17.61227,
                    52.62043
                ]
            },
            "properties": {
                "isced:level": "1;2",
                "ref:rspo": 273099,
                "official_name": "Szko\u0142a Podstawowa im. Powsta\u0144c\u00f3w Wlkp. 1918\/19 w Zdziechowie Filia w Modliszewku",
                "name": "Szko\u0142a Podstawowa",
                "addr:country": "PL",
                "addr:postcode": "62-200",
                "addr:place": "Modliszewko",
                "addr:housenumber": "13",
                "addr:teryt:sym_ul": 583533,
                "contact:phone": "+48 614245775",
                "contact:email": "spmodliszewko@wp.pl",
                "ref:regon": "122512600",
                "operator": "Gmina Gniezno",
                "operator:type": "government",
                "amenity": "school",
                "note": "Parent RSPO: 27747"
            }
        }
    ]
}