{
    "type": "FeatureCollection",
    "features": [
        {
            "id": 113719,
            "type": "Feature",
            "geometry": {
                "type": "Point",
                "coordinates": [
                    17.58796,
                    52.49478
                ]
            },
            "properties": {
                "ref:rspo": 113719,
                "official_name": "Studium Doskonalenia Mened\u017cer\u00f3w O\u015bwiaty",
                "name": "Studium Doskonalenia Mened\u017cer\u00f3w O\u015bwiaty",
                "addr:postcode": "62-200",
                "addr:city": "Gniezno",
                "addr:street": "Jemio\u0142owa",
                "addr:housenumber": "4",
                "addr:teryt:simc": 970632,
                "addr:teryt:sym_ul": 7477,
                "ref:regon": "302400020",
                "operator": "Dane Do Uzupe\u0142nienia",
                "operator:type": "private",
                "amenity": "training"
            }
        },
        {
            "id": 14080,
            "type": "Feature",
            "geometry": {
                "type": "Point",
                "coordinates": [
                    17.58714,
                    52.50188
                ]
            },
            "properties": {
                "ref:rspo": 14080,
                "official_name": "Przedszkole Le\u015bna Kraina im. Ireny Sendlerowej",
                "name": "Przedszkole Le\u015bna Kraina",
                "addr:postcode": "62-200",
                "addr:city": "Gniezno",
                "addr:street": "G\u0119barzewska",
                "addr:housenumber": "12",
                "addr:teryt:simc": 970632,
                "addr:teryt:sym_ul": 5472,
                "phone": "+48 664188793",
                "email": "sekretariat@porkom.com.pl",
                "website": "http:\/\/www.porkom.com.pl",
                "ref:regon": "302212487",
                "operator": "Fundacja Wspierania I Rozwoju Edukacji",
                "operator:type": "ngo",
                "amenity": "kindergarten"
            }
        },
        {
            "id": 14243,
            "type": "Feature",
            "geometry": {
                "type": "Point",
                "coordinates": [
                    17.58714,
                    52.50185
                ]
            },
            "properties": {
                "isced:level": "1;2",
                "ref:rspo": 14243,
                "official_name": "Szko\u0142a Podstawowa Porkom im. Ireny Sendlerowej",
                "name": "Szko\u0142a Podstawowa Porkom",
                "addr:postcode": "62-200",
                "addr:city": "Gniezno",
                "addr:street": "G\u0119barzewska",
                "addr:housenumber": "12",
                "addr:teryt:simc": 970632,
                "addr:teryt:sym_ul": 5472,
                "phone": "+48 614245320",
                "email": "sekretariat@porkom.com.pl",
                "website": "http:\/\/www.porkom.com.pl",
                "ref:regon": "302212560",
                "operator": "Fundacja Wspierania I Rozwoju Edukacji",
                "operator:type": "ngo",
                "amenity": "school"
            }
        },
        {
            "id": 81134,
            "type": "Feature",
            "geometry": {
                "type": "Point",
                "coordinates": [
                    17.58714,
                    52.50182
                ]
            },
            "properties": {
                "isced:level": "4",
                "ref:rspo": 81134,
                "official_name": "Prywatne Policealne Studium Porkom Technik Bhp w Gnie\u017anie",
                "name": "Prywatne Policealne Studium Porkom Technik Bhp w Gnie\u017anie",
                "addr:postcode": "62-200",
                "addr:city": "Gniezno",
                "addr:street": "G\u0119barzewska",
                "addr:housenumber": "12",
                "addr:teryt:simc": 970632,
                "addr:teryt:sym_ul": 5472,
                "phone": "+48 614245320",
                "email": "sekretariat@porkom.com.pl",
                "website": "http:\/\/www.porkom.com.pl",
                "ref:regon": "302266388",
                "ref:vatin": "PL7841005821",
                "operator": "Fundacja Wspierania I Rozwoju Edukacji",
                "operator:type": "ngo",
                "amenity": "college"
            }
        },
        {
            "id": 263327,
            "type": "Feature",
            "geometry": {
                "type": "Point",
                "coordinates": [
                    17.58714,
                    52.50179
                ]
            },
            "properties": {
                "isced:level": "1;2",
                "ref:rspo": 263327,
                "official_name": "Szko\u0142a Podstawowa dla Doros\u0142ych Porkom im. Ireny Sendlerowej",
                "name": "Szko\u0142a Podstawowa dla Doros\u0142ych Porkom",
                "addr:postcode": "62-200",
                "addr:city": "Gniezno",
                "addr:street": "G\u0119barzewska",
                "addr:housenumber": "12",
                "addr:teryt:simc": 970632,
                "addr:teryt:sym_ul": 5472,
                "ref:regon": "368182800",
                "operator": "Fundacja Wspierania I Rozwoju Edukacji",
                "operator:type": "ngo",
                "amenity": "school"
            }
        },
        {
            "id": 276086,
            "type": "Feature",
            "geometry": {
                "type": "Point",
                "coordinates": [
                    17.58714,
                    52.50176
                ]
            },
            "properties": {
                "isced:level": "3",
                "ref:rspo": 276086,
                "official_name": "Liceum Og\u00f3lnokszta\u0142c\u0105ce Porkom im. Ireny Sendlerowej w Gnie\u017anie",
                "name": "Liceum Og\u00f3lnokszta\u0142c\u0105ce Porkom",
                "addr:postcode": "62-200",
                "addr:city": "Gniezno",
                "addr:street": "G\u0119barzewska",
                "addr:housenumber": "12",
                "addr:teryt:simc": 970632,
                "addr:teryt:sym_ul": 5472,
                "email": "kontakt@fundacja.org.pl",
                "website": "http:\/\/www.fundacja.org.pl",
                "ref:regon": "386985880",
                "operator": "Fundacja Wspierania I Rozwoju Edukacji",
                "operator:type": "ngo",
                "amenity": "school"
            }
        },
        {
            "id": 119604,
            "type": "Feature",
            "geometry": {
                "type": "Point",
                "coordinates": [
                    17.6051499,
                    52.51363
                ]
            },
            "properties": {
                "ref:rspo": 119604,
                "official_name": "Prywatne Przedszkole \"S\u0142oneczko\"",
                "name": "Prywatne Przedszkole \"S\u0142oneczko\"",
                "addr:postcode": "62-200",
                "addr:city": "Gniezno",
                "addr:street": "Wiosenna",
                "addr:housenumber": "1 A",
                "addr:teryt:simc": 970632,
                "addr:teryt:sym_ul": 24364,
                "phone": "+48 606435819",
                "email": "monikakapela@wp.pl",
                "website": "http:\/\/www.sloneczko.gniezno.pl\/",
                "ref:regon": "302520616",
                "operator": "Monika Graczyk",
                "operator:type": "private",
                "amenity": "kindergarten"
            }
        },
        {
            "id": 12187,
            "type": "Feature",
            "geometry": {
                "type": "Point",
                "coordinates": [
                    17.59681,
                    52.51414
                ]
            },
            "properties": {
                "isced:level": "1;2",
                "ref:rspo": 12187,
                "official_name": "J\u0119zykowa Szko\u0142a Podstawowa \"Prymus\"",
                "name": "J\u0119zykowa Szko\u0142a Podstawowa \"Prymus\"",
                "addr:postcode": "62-200",
                "addr:city": "Gniezno",
                "addr:street": "Artyleryjska",
                "addr:housenumber": "1",
                "addr:teryt:simc": 970632,
                "addr:teryt:sym_ul": 457,
                "phone": "+48 604655256",
                "email": "biuro@prymusgniezno.pl",
                "website": "http:\/\/prymusgniezno.pl\/szkola\/",
                "ref:regon": "302208994",
                "operator": "Cfactory Sp\u00f3\u0142ka Z Ograniczon\u0105 Odpowiedzialno\u015bci\u0105",
                "operator:type": "private",
                "amenity": "school"
            }
        },
        {
            "id": 119609,
            "type": "Feature",
            "geometry": {
                "type": "Point",
                "coordinates": [
                    17.59681,
                    52.514109999999995
                ]
            },
            "properties": {
                "ref:rspo": 119609,
                "official_name": "J\u0119zykowe Przedszkole \"Prymus\"",
                "name": "J\u0119zykowe Przedszkole \"Prymus\"",
                "addr:postcode": "62-200",
                "addr:city": "Gniezno",
                "addr:street": "Artyleryjska",
                "addr:housenumber": "1",
                "addr:teryt:simc": 970632,
                "addr:teryt:sym_ul": 457,
                "phone": "+48 668580951",
                "website": "http:\/\/www.prymusgniezno.pl\/przedszkole\/",
                "ref:regon": "302520680",
                "operator": "Cfactory Sp\u00f3\u0142ka Z Ograniczon\u0105 Odpowiedzialno\u015bci\u0105",
                "operator:type": "private",
                "amenity": "kindergarten"
            }
        },
        {
            "id": 8376,
            "type": "Feature",
            "geometry": {
                "type": "Point",
                "coordinates": [
                    17.6083,
                    52.51506
                ]
            },
            "properties": {
                "ref:rspo": 8376,
                "official_name": "Przedszkole Nr 6 Polne Kwiaty",
                "name": "Przedszkole Nr 6 Polne Kwiaty",
                "addr:postcode": "62-200",
                "addr:city": "Gniezno",
                "addr:street": "Wiosenna",
                "addr:housenumber": "7",
                "addr:teryt:simc": 970632,
                "addr:teryt:sym_ul": 24364,
                "phone": "+48 614261295",
                "email": "polnekwiaty@post.pl",
                "website": "http:\/\/www.polnekwiaty.deo.pl\/portal",
                "ref:regon": "301595983",
                "ref:vatin": "PL7842470939",
                "operator": "Miasto Gniezno",
                "operator:type": "government",
                "amenity": "kindergarten"
            }
        },
        {
            "id": 8373,
            "type": "Feature",
            "geometry": {
                "type": "Point",
                "coordinates": [
                    17.59561,
                    52.51657
                ]
            },
            "properties": {
                "ref:rspo": 8373,
                "official_name": "Przedszkole Nr 2 \u0179r\u00f3de\u0142ko",
                "name": "Przedszkole Nr 2 \u0179r\u00f3de\u0142ko",
                "addr:postcode": "62-200",
                "addr:city": "Gniezno",
                "addr:street": "Wrzesi\u0144ska",
                "addr:housenumber": "49A",
                "addr:teryt:simc": 970632,
                "addr:teryt:sym_ul": 24851,
                "phone": "+48 612452114",
                "email": "przedszkolenr2gn@gmail.com",
                "website": "http:\/\/www.przedszkole2.gniezno.pl",
                "ref:regon": "301607054",
                "ref:vatin": "PL7842470916",
                "operator": "Miasto Gniezno",
                "operator:type": "government",
                "amenity": "kindergarten"
            }
        },
        {
            "id": 9280,
            "type": "Feature",
            "geometry": {
                "type": "Point",
                "coordinates": [
                    17.60197,
                    52.51787
                ]
            },
            "properties": {
                "isced:level": "1;2",
                "ref:rspo": 9280,
                "official_name": "Szko\u0142a Podstawowa Nr 8 im. Miko\u0142aja Kopernika",
                "name": "Szko\u0142a Podstawowa Nr 8",
                "addr:postcode": "62-200",
                "addr:city": "Gniezno",
                "addr:street": "Paw\u0142a Cymsa",
                "addr:housenumber": "14",
                "addr:teryt:simc": 970632,
                "addr:teryt:sym_ul": 3181,
                "phone": "+48 614263626",
                "email": "sekretariat@sp8.gniezno.eu",
                "website": "http:\/\/sp8.gniezno.pl",
                "ref:regon": "000242051",
                "ref:vatin": "PL7841294274",
                "operator": "Miasto Gniezno",
                "operator:type": "government",
                "amenity": "school"
            }
        },
        {
            "id": 130845,
            "type": "Feature",
            "geometry": {
                "type": "Point",
                "coordinates": [
                    17.59628,
                    52.51805
                ]
            },
            "properties": {
                "isced:level": "3",
                "ref:rspo": 130845,
                "official_name": "Szko\u0142a Techniczna Zak\u0142adu Doskonalenia Zawodowego",
                "name": "Szko\u0142a Techniczna Zak\u0142adu Doskonalenia Zawodowego",
                "addr:postcode": "62-200",
                "addr:city": "Gniezno",
                "addr:street": "Wrzesi\u0144ska",
                "addr:housenumber": "43-55",
                "addr:teryt:simc": 970632,
                "addr:teryt:sym_ul": 24851,
                "phone": "+48 609110334",
                "email": "sekretariat@szkoly-mundurowe.pl",
                "website": "http:\/\/zdz.poznan.pl",
                "ref:regon": "364603363",
                "ref:vatin": "PL7770001720",
                "operator": "Zak\u0142ad Doskonalenia Zawodowego",
                "operator:type": "ngo",
                "amenity": "school"
            }
        },
        {
            "id": 277647,
            "type": "Feature",
            "geometry": {
                "type": "Point",
                "coordinates": [
                    17.59628,
                    52.51802
                ]
            },
            "properties": {
                "isced:level": "3",
                "ref:rspo": 277647,
                "official_name": "Mundurowe Liceum Og\u00f3lnokszta\u0142c\u0105ce Zak\u0142adu Doskonalenia Zawodowego w Gnie\u017anie",
                "name": "Mundurowe Liceum Og\u00f3lnokszta\u0142c\u0105ce Zak\u0142adu Doskonalenia Zawodowego w Gnie\u017anie",
                "addr:postcode": "62-200",
                "addr:city": "Gniezno",
                "addr:street": "Wrzesi\u0144ska",
                "addr:housenumber": "43-55",
                "addr:door": "6",
                "addr:teryt:simc": 970632,
                "addr:teryt:sym_ul": 24851,
                "phone": "+48 609110334",
                "email": "sekretariat@szkoly-mundurowe.pl",
                "ref:regon": "389248454",
                "operator": "Zak\u0142ad Doskonalenia Zawodowego",
                "operator:type": "ngo",
                "amenity": "school"
            }
        },
        {
            "id": 103616,
            "type": "Feature",
            "geometry": {
                "type": "Point",
                "coordinates": [
                    17.55386,
                    52.52737
                ]
            },
            "properties": {
                "ref:rspo": 103616,
                "official_name": "Niepubliczne Przedszkole \"Szkrabu\u015b\"",
                "name": "Niepubliczne Przedszkole \"Szkrabu\u015b\"",
                "addr:postcode": "62-200",
                "addr:city": "Gniezno",
                "addr:street": "Kostrzy\u0144ska",
                "addr:housenumber": "41",
                "addr:teryt:simc": 970632,
                "addr:teryt:sym_ul": 9495,
                "phone": "+48 604318563",
                "email": "biuro@szkrabus.pl",
                "ref:regon": "302293824",
                "operator": "Paulina Landowska",
                "operator:type": "private",
                "amenity": "kindergarten"
            }
        },
        {
            "id": 123678,
            "type": "Feature",
            "geometry": {
                "type": "Point",
                "coordinates": [
                    17.5762211,
                    52.5295898
                ]
            },
            "properties": {
                "isced:level": "1;2",
                "ref:rspo": 123678,
                "official_name": "Szko\u0142a Podstawowa \"Rodzice-Dzieciom\" im. Kardyna\u0142a Stefana Wyszy\u0144skiego - Prymasa Tysi\u0105clecia",
                "name": "Szko\u0142a Podstawowa \"Rodzice-Dzieciom\"",
                "addr:postcode": "62-200",
                "addr:city": "Gniezno",
                "addr:street": "Elizy Orzeszkowej",
                "addr:housenumber": "20",
                "addr:teryt:simc": 970632,
                "addr:teryt:sym_ul": 15211,
                "phone": "+48 614266103",
                "email": "szkolapodstawowa.rodzicedzieciom@interia.pl",
                "website": "http:\/\/szkolapodstawowa-rodzicedzieciom.pl",
                "ref:regon": "302781222",
                "operator": "Stowarzyszenie \"Rodzice - Dzieciom\"",
                "operator:type": "ngo",
                "amenity": "school"
            }
        },
        {
            "id": 119795,
            "type": "Feature",
            "geometry": {
                "type": "Point",
                "coordinates": [
                    17.600563049316,
                    52.531070709229
                ]
            },
            "properties": {
                "ref:rspo": 119795,
                "official_name": "Specjalny Punkt Przedszkolny Mali Mistrzowie",
                "name": "Specjalny Punkt Przedszkolny Mali Mistrzowie",
                "addr:postcode": "62-200",
                "addr:city": "Gniezno",
                "addr:street": "Franklina Roosevelta",
                "addr:housenumber": "43",
                "addr:teryt:simc": 970632,
                "addr:teryt:sym_ul": 18855,
                "phone": "+48 600415426",
                "ref:regon": "302523477",
                "operator": "Marta Pomorska",
                "operator:type": "private",
                "amenity": "kindergarten"
            }
        },
        {
            "id": 10458,
            "type": "Feature",
            "geometry": {
                "type": "Point",
                "coordinates": [
                    17.59665,
                    52.53112
                ]
            },
            "properties": {
                "ref:rspo": 10458,
                "official_name": "\"Niebieska Sowa\" Terapeutyczny Punkt Przedszkolny",
                "name": "\"Niebieska Sowa\" Terapeutyczny Punkt Przedszkolny",
                "addr:postcode": "62-200",
                "addr:city": "Gniezno",
                "addr:street": "Warszawska",
                "addr:housenumber": "21",
                "addr:teryt:simc": 970632,
                "addr:teryt:sym_ul": 23682,
                "phone": "+48 722253727",
                "email": "niebieska.sowa@wp.pl",
                "ref:regon": "302203940",
                "operator": "Anna Ciszewska",
                "operator:type": "private",
                "amenity": "kindergarten"
            }
        },
        {
            "id": 119962,
            "type": "Feature",
            "geometry": {
                "type": "Point",
                "coordinates": [
                    17.59665,
                    52.53109
                ]
            },
            "properties": {
                "ref:rspo": 119962,
                "official_name": "Zak\u0142ad Doskonalenia Zawodowego Centrum Kszta\u0142cenia w Poznaniu O\u015brodek Kszta\u0142cenia Zawodowego w Gnie\u017anie",
                "name": "Zak\u0142ad Doskonalenia Zawodowego Centrum Kszta\u0142cenia w Poznaniu O\u015brodek Kszta\u0142cenia Zawodowego w Gnie\u017anie",
                "addr:postcode": "62-200",
                "addr:city": "Gniezno",
                "addr:street": "Warszawska",
                "addr:housenumber": "21",
                "addr:teryt:simc": 970632,
                "addr:teryt:sym_ul": 23682,
                "phone": "+48 614241811",
                "email": "okz.gniezno@zdz.poznan.pl",
                "website": "http:\/\/www.zdz.poznan.pl",
                "ref:regon": "302528960",
                "ref:vatin": "PL7770001720",
                "operator": "Zak\u0142ad Doskonalenia Zawodowego",
                "operator:type": "ngo",
                "fixme": "w zale\u017cno\u015bci od przedmiotu dzia\u0142alno\u015bci (np. amenity=training + training=*, amenity=dancing_school, amenity=language_school, amenity=music_school)"
            }
        },
        {
            "id": 118831,
            "type": "Feature",
            "geometry": {
                "type": "Point",
                "coordinates": [
                    17.60734,
                    52.53139
                ]
            },
            "properties": {
                "ref:rspo": 118831,
                "official_name": "Niepubliczna Placowka Kszta\u0142cenia Ustawicznego Stowarzyszenie Ksi\u0119gowych w Polsce Oddzia\u0142 Terenowy w Gnie\u017anie Oddzia\u0142u Wielkopolskiego",
                "name": "Niepubliczna Placowka Kszta\u0142cenia Ustawicznego Stowarzyszenie Ksi\u0119gowych w Polsce Oddzia\u0142 Terenowy w Gnie\u017anie Oddzia\u0142u Wielkopolskiego",
                "addr:postcode": "62-200",
                "addr:city": "Gniezno",
                "addr:street": "Pocztowa",
                "addr:housenumber": "9",
                "addr:teryt:simc": 970632,
                "addr:teryt:sym_ul": 16579,
                "phone": "+48 614281434",
                "email": "gniezno@skwp.pl",
                "website": "http:\/\/www.skwp.poznan.pl\/gniezno",
                "ref:regon": "302503871",
                "ref:vatin": "PL5260307956",
                "operator": "Stowarzyszenie Ksi\u0119gowych W Polsce",
                "operator:type": "ngo",
                "fixme": "w zale\u017cno\u015bci od przedmiotu dzia\u0142alno\u015bci (np. amenity=training + training=*, amenity=dancing_school, amenity=language_school, amenity=music_school)"
            }
        },
        {
            "id": 109547,
            "type": "Feature",
            "geometry": {
                "type": "Point",
                "coordinates": [
                    17.5963299,
                    52.53165
                ]
            },
            "properties": {
                "ref:rspo": 109547,
                "official_name": "Freedom School",
                "name": "Freedom School",
                "addr:postcode": "62-200",
                "addr:city": "Gniezno",
                "addr:street": "Warszawska",
                "addr:housenumber": "28",
                "addr:teryt:simc": 970632,
                "addr:teryt:sym_ul": 23682,
                "phone": "+48 614263943",
                "email": "gniezno@leaderschool.com.pl",
                "website": "http:\/\/www.gniezno.leaderschool.pl",
                "ref:regon": "302347862",
                "ref:vatin": "PL7841350073",
                "operator": "Damian Kr\u00f3licki",
                "operator:type": "private",
                "fixme": "w zale\u017cno\u015bci od przedmiotu dzia\u0142alno\u015bci (np. amenity=training + training=*, amenity=dancing_school, amenity=language_school, amenity=music_school)"
            }
        },
        {
            "id": 11098,
            "type": "Feature",
            "geometry": {
                "type": "Point",
                "coordinates": [
                    17.60209,
                    52.53188
                ]
            },
            "properties": {
                "ref:rspo": 11098,
                "official_name": "Przedszkole Si\u00f3str Mi\u0142osierdzia \u015aw. Wincentego A Paul",
                "name": "Przedszkole Si\u00f3str Mi\u0142osierdzia \u015aw. Wincentego A Paul",
                "addr:postcode": "62-200",
                "addr:city": "Gniezno",
                "addr:street": "Lecha",
                "addr:housenumber": "11",
                "addr:teryt:simc": 970632,
                "addr:teryt:sym_ul": 10737,
                "phone": "+48 614263670",
                "email": "poczta@siostrygniezno.net",
                "website": "http:\/\/www.siostrygniezno.net\/przedszkole\/",
                "ref:regon": "302211625",
                "operator": "Zgromadzenie Si\u00f3str Mi\u0142osierdzia \u015aw. Wincentego A Paulo Prowincja Che\u0142mi\u0144sko-Pozna\u0144ska",
                "operator:type": "religious",
                "amenity": "kindergarten"
            }
        },
        {
            "id": 28245,
            "type": "Feature",
            "geometry": {
                "type": "Point",
                "coordinates": [
                    17.60544,
                    52.5319
                ]
            },
            "properties": {
                "ref:rspo": 28245,
                "official_name": "Zesp\u00f3\u0142 Szk\u00f3\u0142 Ekonomicznych w Gnie\u017anie",
                "name": "Zesp\u00f3\u0142 Szk\u00f3\u0142 Ekonomicznych w Gnie\u017anie",
                "addr:postcode": "62-200",
                "addr:city": "Gniezno",
                "addr:street": "Boles\u0142awa Chrobrego",
                "addr:housenumber": "23",
                "addr:teryt:simc": 970632,
                "addr:teryt:sym_ul": 1742,
                "phone": "+48 614282910",
                "email": "zseogniezno@epoczta.pl",
                "website": "http:\/\/www.zseogniezno.pl",
                "ref:regon": "000179996",
                "ref:vatin": "PL7841115389",
                "operator": "Powiat Gnie\u017anie\u0144ski",
                "operator:type": "government",
                "landuse": "education",
                "fixme": "amenity=school, amenity=college albo landuse=education w zale\u017cno\u015bci od tego, jakie plac\u00f3wki wchodz\u0105 w sk\u0142ad zespo\u0142u. Sprawd\u017a, kiedy stosowa\u0107 amenity=* a kiedy landuse=education.",
                "note": "Children RSPO: 34535;34539;118853"
            }
        },
        {
            "id": 34535,
            "type": "Feature",
            "geometry": {
                "type": "Point",
                "coordinates": [
                    17.60544,
                    52.53187
                ]
            },
            "properties": {
                "isced:level": "3",
                "ref:rspo": 34535,
                "official_name": "Technikum w Zespole Szk\u00f3\u0142 Ekonomicznych w Gnie\u017anie",
                "name": "Technikum w Zespole Szk\u00f3\u0142 Ekonomicznych w Gnie\u017anie",
                "addr:postcode": "62-200",
                "addr:city": "Gniezno",
                "addr:street": "Boles\u0142awa Chrobrego",
                "addr:housenumber": "23",
                "addr:teryt:simc": 970632,
                "addr:teryt:sym_ul": 1742,
                "phone": "+48 614282910",
                "email": "zseogniezno@epoczta.pl",
                "website": "http:\/\/www.zseogniezno.pl",
                "ref:regon": "639832094",
                "ref:vatin": "PL7841115389",
                "operator": "Powiat Gnie\u017anie\u0144ski",
                "operator:type": "government",
                "amenity": "school",
                "note": "Parent RSPO: 28245"
            }
        },
        {
            "id": 34539,
            "type": "Feature",
            "geometry": {
                "type": "Point",
                "coordinates": [
                    17.60544,
                    52.53184
                ]
            },
            "properties": {
                "isced:level": "3",
                "ref:rspo": 34539,
                "official_name": "Bran\u017cowa Szko\u0142a I Stopnia w Zespole Szk\u00f3\u0142 Ekonomicznych w Gnie\u017anie",
                "name": "Bran\u017cowa Szko\u0142a I Stopnia w Zespole Szk\u00f3\u0142 Ekonomicznych w Gnie\u017anie",
                "addr:postcode": "62-200",
                "addr:city": "Gniezno",
                "addr:street": "Boles\u0142awa Chrobrego",
                "addr:housenumber": "23",
                "addr:teryt:simc": 970632,
                "addr:teryt:sym_ul": 1742,
                "phone": "+48 614282910",
                "email": "zseogniezno@epoczta.pl",
                "website": "http:\/\/www.zseogniezno.pl",
                "ref:regon": "639832042",
                "ref:vatin": "PL7841115389",
                "operator": "Powiat Gnie\u017anie\u0144ski",
                "operator:type": "government",
                "amenity": "school",
                "note": "Parent RSPO: 28245"
            }
        },
        {
            "id": 118853,
            "type": "Feature",
            "geometry": {
                "type": "Point",
                "coordinates": [
                    17.60544,
                    52.53181
                ]
            },
            "properties": {
                "isced:level": "3",
                "ref:rspo": 118853,
                "official_name": "Liceum Og\u00f3lnokszta\u0142c\u0105ce dla Doros\u0142ych",
                "name": "Liceum Og\u00f3lnokszta\u0142c\u0105ce dla Doros\u0142ych",
                "addr:postcode": "62-200",
                "addr:city": "Gniezno",
                "addr:street": "Boles\u0142awa Chrobrego",
                "addr:housenumber": "23",
                "addr:teryt:simc": 970632,
                "addr:teryt:sym_ul": 1742,
                "phone": "+48 614282910",
                "email": "zseogniezno@epoczta.pl",
                "website": "http:\/\/www.zseogniezno.pl",
                "ref:regon": "302503977",
                "ref:vatin": "PL7841115389",
                "operator": "Powiat Gnie\u017anie\u0144ski",
                "operator:type": "government",
                "amenity": "school",
                "note": "Parent RSPO: 28245"
            }
        },
        {
            "id": 111498,
            "type": "Feature",
            "geometry": {
                "type": "Point",
                "coordinates": [
                    17.60297,
                    52.53236
                ]
            },
            "properties": {
                "ref:rspo": 111498,
                "official_name": "Info-Tech Gniezno",
                "name": "Info-Tech Gniezno",
                "addr:postcode": "62-200",
                "addr:city": "Gniezno",
                "addr:street": "Lecha",
                "addr:housenumber": "1a",
                "addr:teryt:simc": 970632,
                "addr:teryt:sym_ul": 10737,
                "phone": "+48 602646820",
                "email": "infotech@post.pl",
                "website": "http:\/\/www.infotech.gniezno.pl",
                "ref:regon": "302376639",
                "ref:vatin": "PL7841001384",
                "operator": "Pawe\u0142 G\u0142owacki",
                "operator:type": "private",
                "fixme": "w zale\u017cno\u015bci od przedmiotu dzia\u0142alno\u015bci (np. amenity=training + training=*, amenity=dancing_school, amenity=language_school, amenity=music_school)"
            }
        },
        {
            "id": 8384,
            "type": "Feature",
            "geometry": {
                "type": "Point",
                "coordinates": [
                    17.60848,
                    52.53263
                ]
            },
            "properties": {
                "ref:rspo": 8384,
                "official_name": "Przedszkole Nr 12 \"Plastusiowo\"",
                "name": "Przedszkole Nr 12 \"Plastusiowo\"",
                "addr:postcode": "62-200",
                "addr:city": "Gniezno",
                "addr:street": "Pocztowa",
                "addr:housenumber": "11",
                "addr:teryt:simc": 970632,
                "addr:teryt:sym_ul": 16579,
                "phone": "+48 614261936",
                "email": "12przedszkole@wp.pl",
                "website": "http:\/\/www.przedszkole12gniezno.pl.tl",
                "ref:regon": "301603808",
                "ref:vatin": "PL7842471815",
                "operator": "Miasto Gniezno",
                "operator:type": "government",
                "amenity": "kindergarten"
            }
        },
        {
            "id": 48891,
            "type": "Feature",
            "geometry": {
                "type": "Point",
                "coordinates": [
                    17.60357,
                    52.53268
                ]
            },
            "properties": {
                "isced:level": "3",
                "ref:rspo": 48891,
                "official_name": "Liceum Og\u00f3lnokszta\u0142c\u0105ce Teb Edukacja dla Doros\u0142ych w Gnie\u017anie",
                "name": "Liceum Og\u00f3lnokszta\u0142c\u0105ce Teb Edukacja dla Doros\u0142ych w Gnie\u017anie",
                "addr:postcode": "62-200",
                "addr:city": "Gniezno",
                "addr:street": "Boles\u0142awa Chrobrego",
                "addr:housenumber": "26",
                "addr:teryt:simc": 970632,
                "addr:teryt:sym_ul": 1742,
                "phone": "+48 614250272",
                "email": "gniezno@teb.pl",
                "website": "http:\/\/www.teb.pl",
                "ref:regon": "302260612",
                "operator": "Teb Edukacja Sp\u00f3\u0142ka Z Ograniczon\u0105 Odpowiedzialno\u015bci\u0105",
                "operator:type": "private",
                "amenity": "school"
            }
        },
        {
            "id": 49126,
            "type": "Feature",
            "geometry": {
                "type": "Point",
                "coordinates": [
                    17.60357,
                    52.53265
                ]
            },
            "properties": {
                "ref:rspo": 49126,
                "official_name": "Teb Edukacja Studium Kszta\u0142cenia Praktycznego",
                "name": "Teb Edukacja Studium Kszta\u0142cenia Praktycznego",
                "addr:postcode": "62-200",
                "addr:city": "Gniezno",
                "addr:street": "Boles\u0142awa Chrobrego",
                "addr:housenumber": "26",
                "addr:teryt:simc": 970632,
                "addr:teryt:sym_ul": 1742,
                "phone": "+48 614250272",
                "email": "gniezno@teb.pl",
                "website": "http:\/\/www.teb.pl",
                "ref:regon": "302260693",
                "ref:vatin": "PL7781456499",
                "operator": "Teb Edukacja Sp\u00f3\u0142ka Z Ograniczon\u0105 Odpowiedzialno\u015bci\u0105",
                "operator:type": "private",
                "fixme": "w zale\u017cno\u015bci od przedmiotu dzia\u0142alno\u015bci (np. amenity=training + training=*, amenity=dancing_school, amenity=language_school, amenity=music_school)"
            }
        },
        {
            "id": 60236,
            "type": "Feature",
            "geometry": {
                "type": "Point",
                "coordinates": [
                    17.60357,
                    52.53262
                ]
            },
            "properties": {
                "isced:level": "4",
                "ref:rspo": 60236,
                "official_name": "Niepubliczna Szko\u0142a Policealna Teb Edukacja w Gnie\u017anie",
                "name": "Niepubliczna Szko\u0142a Policealna Teb Edukacja w Gnie\u017anie",
                "addr:postcode": "62-200",
                "addr:city": "Gniezno",
                "addr:street": "Boles\u0142awa Chrobrego",
                "addr:housenumber": "26",
                "addr:teryt:simc": 970632,
                "addr:teryt:sym_ul": 1742,
                "phone": "+48 614250272",
                "email": "gniezno@teb.pl",
                "website": "http:\/\/www.teb.pl",
                "ref:regon": "302261764",
                "ref:vatin": "PL7781456499",
                "operator": "Teb Edukacja Sp\u00f3\u0142ka Z Ograniczon\u0105 Odpowiedzialno\u015bci\u0105",
                "operator:type": "private",
                "amenity": "college"
            }
        },
        {
            "id": 83676,
            "type": "Feature",
            "geometry": {
                "type": "Point",
                "coordinates": [
                    17.60357,
                    52.53259
                ]
            },
            "properties": {
                "isced:level": "4",
                "ref:rspo": 83676,
                "official_name": "Studium Medyczne Teb Edukacja w Gnie\u017anie",
                "name": "Studium Medyczne Teb Edukacja w Gnie\u017anie",
                "addr:postcode": "62-200",
                "addr:city": "Gniezno",
                "addr:street": "Boles\u0142awa Chrobrego",
                "addr:housenumber": "26",
                "addr:teryt:simc": 970632,
                "addr:teryt:sym_ul": 1742,
                "phone": "+48 614250272",
                "email": "gniezno@teb.pl",
                "website": "http:\/\/www.teb.pl",
                "ref:regon": "302269978",
                "ref:vatin": "PL7781456499",
                "operator": "Teb Edukacja Sp\u00f3\u0142ka Z Ograniczon\u0105 Odpowiedzialno\u015bci\u0105",
                "operator:type": "private",
                "amenity": "college"
            }
        },
        {
            "id": 86046,
            "type": "Feature",
            "geometry": {
                "type": "Point",
                "coordinates": [
                    17.60357,
                    52.53256
                ]
            },
            "properties": {
                "isced:level": "3",
                "ref:rspo": 86046,
                "official_name": "Technikum Teb Edukacja w Gnie\u017anie",
                "name": "Technikum Teb Edukacja w Gnie\u017anie",
                "addr:postcode": "62-200",
                "addr:city": "Gniezno",
                "addr:street": "Boles\u0142awa Chrobrego",
                "addr:housenumber": "26",
                "addr:teryt:simc": 970632,
                "addr:teryt:sym_ul": 1742,
                "phone": "+48 614250272",
                "email": "gniezno@teb.pl",
                "website": "http:\/\/www.teb.pl",
                "ref:regon": "302269984",
                "ref:vatin": "PL7781456499",
                "operator": "Teb Edukacja Sp\u00f3\u0142ka Z Ograniczon\u0105 Odpowiedzialno\u015bci\u0105",
                "operator:type": "private",
                "amenity": "school"
            }
        },
        {
            "id": 17005,
            "type": "Feature",
            "geometry": {
                "type": "Point",
                "coordinates": [
                    17.5827957,
                    52.5331317
                ]
            },
            "properties": {
                "isced:level": "3",
                "ref:rspo": 17005,
                "official_name": "I Liceum Og\u00f3lnokszta\u0142c\u0105ce im. Boles\u0142awa Chrobrego w Gnie\u017anie",
                "name": "I Liceum Og\u00f3lnokszta\u0142c\u0105ce",
                "addr:postcode": "62-200",
                "addr:city": "Gniezno",
                "addr:street": "Profesora J\u00f3zefa Kostrzewskiego",
                "addr:housenumber": "3",
                "addr:teryt:simc": 970632,
                "addr:teryt:sym_ul": 9490,
                "phone": "+48 614264645",
                "email": "sekretariat@1lo.gniezno.pl",
                "website": "http:\/\/www.1lo.gniezno.pl",
                "ref:regon": "001289362",
                "ref:vatin": "PL7841539741",
                "operator": "Powiat Gnie\u017anie\u0144ski",
                "operator:type": "government",
                "amenity": "school"
            }
        },
        {
            "id": 126225,
            "type": "Feature",
            "geometry": {
                "type": "Point",
                "coordinates": [
                    17.5827957,
                    52.533101699999996
                ]
            },
            "properties": {
                "isced:level": "4",
                "ref:rspo": 126225,
                "official_name": "Szko\u0142a Policealna \"Cosinus Plus\" w Gnie\u017anie",
                "name": "Szko\u0142a Policealna \"Cosinus Plus\" w Gnie\u017anie",
                "addr:postcode": "62-200",
                "addr:city": "Gniezno",
                "addr:street": "Profesora J\u00f3zefa Kostrzewskiego",
                "addr:housenumber": "3",
                "addr:teryt:simc": 970632,
                "addr:teryt:sym_ul": 9490,
                "phone": "+48 614251875",
                "email": "gniezno@cosinus.pl",
                "website": "http:\/\/www.cosinus.pl",
                "ref:regon": "360181340",
                "operator": "Fundacja Tablon",
                "operator:type": "ngo",
                "amenity": "college"
            }
        },
        {
            "id": 126226,
            "type": "Feature",
            "geometry": {
                "type": "Point",
                "coordinates": [
                    17.5827957,
                    52.5330717
                ]
            },
            "properties": {
                "isced:level": "3",
                "ref:rspo": 126226,
                "official_name": "Zaoczne Liceum Og\u00f3lnokszta\u0142c\u0105ce dla Doros\u0142ych \"Cosinus Plus\" w Gnie\u017anie",
                "name": "Zaoczne Liceum Og\u00f3lnokszta\u0142c\u0105ce dla Doros\u0142ych \"Cosinus Plus\" w Gnie\u017anie",
                "addr:postcode": "62-200",
                "addr:city": "Gniezno",
                "addr:street": "Profesora J\u00f3zefa Kostrzewskiego",
                "addr:housenumber": "3",
                "addr:teryt:simc": 970632,
                "addr:teryt:sym_ul": 9490,
                "phone": "+48 614251875",
                "ref:regon": "360181273",
                "operator": "Fundacja Tablon",
                "operator:type": "ngo",
                "amenity": "school"
            }
        },
        {
            "id": 277844,
            "type": "Feature",
            "geometry": {
                "type": "Point",
                "coordinates": [
                    17.5771799,
                    52.53325
                ]
            },
            "properties": {
                "isced:level": "1;2",
                "ref:rspo": 277844,
                "official_name": "Szko\u0142a Podstawowa Specjalna Nr 15 Z Oddzia\u0142ami Przedszkolnymi w Gnie\u017cnie",
                "name": "Szko\u0142a Podstawowa Specjalna Nr 15 Z Oddzia\u0142ami Przedszkolnymi w Gnie\u017cnie",
                "addr:postcode": "62-200",
                "addr:city": "Gniezno",
                "addr:street": "Pozna\u0144ska",
                "addr:housenumber": "15",
                "addr:teryt:simc": 970632,
                "addr:teryt:sym_ul": 17394,
                "phone": "+48 614240768",
                "email": "sekretaiat.mosgniezno@gmail.com",
                "ref:regon": "389581691",
                "operator": "Powiat Gnie\u017anie\u0144ski",
                "operator:type": "government",
                "amenity": "school",
                "note": "Parent RSPO: 277829"
            }
        },
        {
            "id": 277845,
            "type": "Feature",
            "geometry": {
                "type": "Point",
                "coordinates": [
                    17.5771799,
                    52.53322
                ]
            },
            "properties": {
                "isced:level": "3",
                "ref:rspo": 277845,
                "official_name": "Iv Liceum Og\u00f3lnokszta\u0142c\u0105ce Specjalne w Gnie\u017anie",
                "name": "Iv Liceum Og\u00f3lnokszta\u0142c\u0105ce Specjalne w Gnie\u017anie",
                "addr:postcode": "62-200",
                "addr:city": "Gniezno",
                "addr:street": "Pozna\u0144ska",
                "addr:housenumber": "15",
                "addr:teryt:simc": 970632,
                "addr:teryt:sym_ul": 17394,
                "phone": "+48 614240768",
                "email": "sekretariat.mosgniezno@gmail.com",
                "ref:regon": "389581679",
                "operator": "Powiat Gnie\u017anie\u0144ski",
                "operator:type": "government",
                "amenity": "school",
                "note": "Parent RSPO: 277829"
            }
        },
        {
            "id": 118657,
            "type": "Feature",
            "geometry": {
                "type": "Point",
                "coordinates": [
                    17.62261,
                    52.53333
                ]
            },
            "properties": {
                "ref:rspo": 118657,
                "official_name": "Przedszkole Niepubliczne Akademia \"Misio\"",
                "name": "Przedszkole Niepubliczne Akademia \"Misio\"",
                "addr:postcode": "62-200",
                "addr:city": "Gniezno",
                "addr:street": "Ignacego Paderewskiego",
                "addr:housenumber": "2",
                "addr:teryt:simc": 970632,
                "addr:teryt:sym_ul": 15529,
                "phone": "+48 660770465",
                "email": "info@akademiamisio.pl",
                "website": "http:\/\/www.akademiamisio.gniezno.pl",
                "ref:regon": "302497834",
                "operator": "Paulina Jakubowska",
                "operator:type": "private",
                "amenity": "kindergarten"
            }
        },
        {
            "id": 90523,
            "type": "Feature",
            "geometry": {
                "type": "Point",
                "coordinates": [
                    17.59899,
                    52.53347
                ]
            },
            "properties": {
                "ref:rspo": 90523,
                "official_name": "Wielkopolskie Samorz\u0105dowe Centrum Kszta\u0142cenia Zawodowego I Ustawicznego w Gnie\u017anie",
                "name": "Wielkopolskie Samorz\u0105dowe Centrum Kszta\u0142cenia Zawodowego I Ustawicznego w Gnie\u017anie",
                "addr:postcode": "62-200",
                "addr:city": "Gniezno",
                "addr:street": "Mieszka I",
                "addr:housenumber": "27",
                "addr:teryt:simc": 970632,
                "addr:teryt:sym_ul": 12832,
                "phone": "+48 614263448",
                "email": "szkola@medyk.gniezno.pl",
                "website": "http:\/\/www.wsckziu.gniezno.pl",
                "ref:regon": "302278888",
                "operator": "Wojew\u00f3dztwo Wielkopolskie",
                "operator:type": "government",
                "landuse": "education",
                "fixme": "amenity=school, amenity=college albo landuse=education w zale\u017cno\u015bci od tego, jakie plac\u00f3wki wchodz\u0105 w sk\u0142ad zespo\u0142u. Sprawd\u017a, kiedy stosowa\u0107 amenity=* a kiedy landuse=education.",
                "note": "Children RSPO: 69540;264038"
            }
        },
        {
            "id": 115145,
            "type": "Feature",
            "geometry": {
                "type": "Point",
                "coordinates": [
                    17.59899,
                    52.53344
                ]
            },
            "properties": {
                "ref:rspo": 115145,
                "official_name": "Publiczna Biblioteka Pedagogiczna w Poznaniu Filia w Gnie\u017anie",
                "name": "Publiczna Biblioteka Pedagogiczna w Poznaniu Filia w Gnie\u017anie",
                "addr:postcode": "62-200",
                "addr:city": "Gniezno",
                "addr:street": "Mieszka I",
                "addr:housenumber": "27",
                "addr:teryt:simc": 970632,
                "addr:teryt:sym_ul": 12832,
                "phone": "+48 577001317",
                "email": "biblioteka@gniezno.pbp.poznan.pl",
                "website": "http:\/\/gniezno.pbp.poznan.pl",
                "ref:regon": "639810550",
                "operator": "Wojew\u00f3dztwo Wielkopolskie",
                "operator:type": "government",
                "amenity": "library",
                "note": "Parent RSPO: 30977"
            }
        },
        {
            "id": 69540,
            "type": "Feature",
            "geometry": {
                "type": "Point",
                "coordinates": [
                    17.59899,
                    52.53341
                ]
            },
            "properties": {
                "isced:level": "4",
                "ref:rspo": 69540,
                "official_name": "Medyczne Studium Zawodowe im. Dr Karola Marcinkowskiego w Gnie\u017anie",
                "name": "Medyczne Studium Zawodowe",
                "addr:postcode": "62-200",
                "addr:city": "Gniezno",
                "addr:street": "Mieszka I",
                "addr:housenumber": "27",
                "addr:teryt:simc": 970632,
                "addr:teryt:sym_ul": 12832,
                "phone": "+48 614263448",
                "email": "szkola@medyk.gniezno.pl",
                "website": "http:\/\/www.wsckziu.gniezno.pl",
                "ref:regon": "000290699",
                "ref:vatin": "PL7841643728",
                "operator": "Wojew\u00f3dztwo Wielkopolskie",
                "operator:type": "government",
                "amenity": "college",
                "note": "Parent RSPO: 90523"
            }
        },
        {
            "id": 264038,
            "type": "Feature",
            "geometry": {
                "type": "Point",
                "coordinates": [
                    17.59899,
                    52.53338
                ]
            },
            "properties": {
                "ref:rspo": 264038,
                "official_name": "Centrum Kszta\u0142cenia Ustawicznego w Gnie\u017anie",
                "name": "Centrum Kszta\u0142cenia Ustawicznego w Gnie\u017anie",
                "addr:postcode": "62-200",
                "addr:city": "Gniezno",
                "addr:street": "Mieszka I",
                "addr:housenumber": "27",
                "addr:teryt:simc": 970632,
                "addr:teryt:sym_ul": 12832,
                "phone": "+48 614263448",
                "email": "szkola@medyk.gniezno.pl",
                "ref:regon": "368254132",
                "operator": "Wojew\u00f3dztwo Wielkopolskie",
                "operator:type": "government",
                "fixme": "w zale\u017cno\u015bci od przedmiotu dzia\u0142alno\u015bci (np. amenity=training + training=*, amenity=dancing_school, amenity=language_school, amenity=music_school)",
                "note": "Parent RSPO: 90523"
            }
        },
        {
            "id": 12188,
            "type": "Feature",
            "geometry": {
                "type": "Point",
                "coordinates": [
                    17.60133934021,
                    52.533920288086
                ]
            },
            "properties": {
                "isced:level": "1;2",
                "ref:rspo": 12188,
                "official_name": "Szko\u0142a Podstawowa Milenium",
                "name": "Szko\u0142a Podstawowa Milenium",
                "addr:postcode": "62-200",
                "addr:city": "Gniezno",
                "addr:street": "Leopolda Okulickiego",
                "addr:housenumber": "3A",
                "addr:teryt:simc": 970632,
                "addr:teryt:sym_ul": 14930,
                "phone": "+48 614245007",
                "email": "sp@milenium.edu.pl",
                "website": "http:\/\/sp.milenium.edu.pl\/",
                "ref:regon": "302209019",
                "operator": "Gnie\u017anie\u0144ska Szko\u0142a Wy\u017csza Milenium",
                "operator:type": "private",
                "amenity": "school"
            }
        },
        {
            "id": 15646,
            "type": "Feature",
            "geometry": {
                "type": "Point",
                "coordinates": [
                    17.60133934021,
                    52.533890288086
                ]
            },
            "properties": {
                "ref:rspo": 15646,
                "official_name": "Przedszkole Milenium \"Mali Odkrywcy\"",
                "name": "Przedszkole Milenium \"Mali Odkrywcy\"",
                "addr:postcode": "62-200",
                "addr:city": "Gniezno",
                "addr:street": "Leopolda Okulickiego",
                "addr:housenumber": "3A",
                "addr:teryt:simc": 970632,
                "addr:teryt:sym_ul": 14930,
                "phone": "+48 614245007",
                "email": "przedszkole@milenium.edu.pl",
                "website": "http:\/\/milenium.edu.pl",
                "ref:regon": "302215238",
                "operator": "Gnie\u017anie\u0144ska Szko\u0142a Wy\u017csza Milenium",
                "operator:type": "private",
                "amenity": "kindergarten"
            }
        },
        {
            "id": 28248,
            "type": "Feature",
            "geometry": {
                "type": "Point",
                "coordinates": [
                    17.60133934021,
                    52.533860288086004
                ]
            },
            "properties": {
                "ref:rspo": 28248,
                "official_name": "Specjalny O\u015brodek Szkolno-Wychowawczy Nr2",
                "name": "Specjalny O\u015brodek Szkolno-Wychowawczy Nr2",
                "addr:postcode": "62-200",
                "addr:city": "Gniezno",
                "addr:street": "Powsta\u0144c\u00f3w Wielkopolskich",
                "addr:housenumber": "16",
                "addr:teryt:simc": 970632,
                "addr:teryt:sym_ul": 17379,
                "phone": "+48 614245711",
                "email": "sekretariat@sosw2.gniezno.pl",
                "website": "http:\/\/www.sosw2.gniezno.pl",
                "ref:regon": "000248326",
                "ref:vatin": "PL7841887933",
                "operator": "Powiat Gnie\u017anie\u0144ski",
                "operator:type": "government",
                "amenity": "school",
                "note": "Children RSPO: 41651;41654;41655"
            }
        },
        {
            "id": 111466,
            "type": "Feature",
            "geometry": {
                "type": "Point",
                "coordinates": [
                    17.60133934021,
                    52.533830288086
                ]
            },
            "properties": {
                "ref:rspo": 111466,
                "official_name": "\"Pak-System\" Plac\u00f3wka Niepubliczna",
                "name": "\"Pak-System\" Plac\u00f3wka Niepubliczna",
                "addr:postcode": "62-200",
                "addr:city": "Gniezno",
                "addr:street": "Franklina Roosevelta",
                "addr:housenumber": "104b",
                "addr:door": "3",
                "addr:teryt:simc": 970632,
                "addr:teryt:sym_ul": 18855,
                "phone": "+48 609773881",
                "email": "jackowiak.czeslaw@wp.pl",
                "ref:regon": "302375960",
                "ref:vatin": "PL7841353410",
                "operator": "Czes\u0142aw Jackowiak",
                "operator:type": "private",
                "fixme": "w zale\u017cno\u015bci od przedmiotu dzia\u0142alno\u015bci (np. amenity=training + training=*, amenity=dancing_school, amenity=language_school, amenity=music_school)"
            }
        },
        {
            "id": 130843,
            "type": "Feature",
            "geometry": {
                "type": "Point",
                "coordinates": [
                    17.60133934021,
                    52.533800288086
                ]
            },
            "properties": {
                "isced:level": "3",
                "ref:rspo": 130843,
                "official_name": "Akademickie Liceum Og\u00f3lnokszta\u0142c\u0105ce Milenium",
                "name": "Akademickie Liceum Og\u00f3lnokszta\u0142c\u0105ce Milenium",
                "addr:postcode": "62-200",
                "addr:city": "Gniezno",
                "addr:street": "Leopolda Okulickiego",
                "addr:housenumber": "3A",
                "addr:teryt:simc": 970632,
                "addr:teryt:sym_ul": 14930,
                "phone": "+48 614245007",
                "email": "liceum@akademickie.edu.pl",
                "website": "http:\/\/milenium.edu.pl",
                "ref:regon": "364601602",
                "ref:vatin": "PL7842220668",
                "operator": "Gnie\u017anie\u0144ska Szko\u0142a Wy\u017csza Milenium",
                "operator:type": "private",
                "amenity": "school"
            }
        },
        {
            "id": 279107,
            "type": "Feature",
            "geometry": {
                "type": "Point",
                "coordinates": [
                    17.60133934021,
                    52.533770288086004
                ]
            },
            "properties": {
                "ref:rspo": 279107,
                "official_name": "Studium Doskonalenia Menad\u017cer\u00f3w Organizacji w Gnie\u017anie",
                "name": "Studium Doskonalenia Menad\u017cer\u00f3w Organizacji w Gnie\u017anie",
                "addr:postcode": "62-200",
                "addr:city": "Gniezno",
                "addr:street": "Leopolda Okulickiego",
                "addr:housenumber": "3a",
                "addr:teryt:simc": 970632,
                "addr:teryt:sym_ul": 14930,
                "phone": "+48 614255313",
                "email": "gniezno@sdmo.edu.pl",
                "ref:regon": "520673185",
                "operator": "Lechos\u0142aw Gawrecki",
                "operator:type": "private",
                "fixme": "w zale\u017cno\u015bci od przedmiotu dzia\u0142alno\u015bci (np. amenity=training + training=*, amenity=dancing_school, amenity=language_school, amenity=music_school)"
            }
        },
        {
            "id": 41651,
            "type": "Feature",
            "geometry": {
                "type": "Point",
                "coordinates": [
                    17.60133934021,
                    52.533740288086
                ]
            },
            "properties": {
                "isced:level": "1;2",
                "ref:rspo": 41651,
                "official_name": "Szko\u0142a Podstawowa Nr 14 Specjalna w Specjalnym O\u015brodku Szkolno - Wychowawczym Nr 2 w Gnie\u017anie",
                "name": "Szko\u0142a Podstawowa Nr 14 Specjalna w Specjalnym O\u015brodku Szkolno - Wychowawczym Nr 2 w Gnie\u017anie",
                "addr:postcode": "62-200",
                "addr:city": "Gniezno",
                "addr:street": "Powsta\u0144c\u00f3w Wielkopolskich",
                "addr:housenumber": "16",
                "addr:teryt:simc": 970632,
                "addr:teryt:sym_ul": 17379,
                "email": "sekretariat@sosw2.gniezno.pl",
                "website": "http:\/\/www.sosw2.gniezno.pl",
                "ref:regon": "639823698",
                "ref:vatin": "PL7841887933",
                "operator": "Powiat Gnie\u017anie\u0144ski",
                "operator:type": "government",
                "amenity": "school",
                "note": "Parent RSPO: 28248"
            }
        },
        {
            "id": 41654,
            "type": "Feature",
            "geometry": {
                "type": "Point",
                "coordinates": [
                    17.60133934021,
                    52.533710288086
                ]
            },
            "properties": {
                "isced:level": "3",
                "ref:rspo": 41654,
                "official_name": "Bran\u017cowa Szko\u0142a I Stopnia Nr 14 Specjalna w Specjalnym O\u015brodku Szkolno - Wychowawczym Nr 2 w Gnie\u017anie",
                "name": "Bran\u017cowa Szko\u0142a I Stopnia Nr 14 Specjalna w Specjalnym O\u015brodku Szkolno - Wychowawczym Nr 2 w Gnie\u017anie",
                "addr:postcode": "62-200",
                "addr:city": "Gniezno",
                "addr:street": "Powsta\u0144c\u00f3w Wielkopolskich",
                "addr:housenumber": "16",
                "addr:teryt:simc": 970632,
                "addr:teryt:sym_ul": 17379,
                "phone": "+48 614245711",
                "email": "sekretariat@sosw2.gniezno.pl",
                "website": "http:\/\/www.sosw2.gniezno.pl",
                "ref:regon": "639823735",
                "ref:vatin": "PL7841887933",
                "operator": "Powiat Gnie\u017anie\u0144ski",
                "operator:type": "government",
                "amenity": "school",
                "note": "Parent RSPO: 28248"
            }
        },
        {
            "id": 41655,
            "type": "Feature",
            "geometry": {
                "type": "Point",
                "coordinates": [
                    17.60133934021,
                    52.533680288086
                ]
            },
            "properties": {
                "ref:rspo": 41655,
                "official_name": "Szko\u0142a Specjalna Przyspasabiaj\u0105ca Do Pracy w Specjalnym O\u015brodku Szkolno - Wychowawczym Nr 2 w Gnie\u017anie",
                "name": "Szko\u0142a Specjalna Przyspasabiaj\u0105ca Do Pracy w Specjalnym O\u015brodku Szkolno - Wychowawczym Nr 2 w Gnie\u017anie",
                "addr:postcode": "62-200",
                "addr:city": "Gniezno",
                "addr:street": "Powsta\u0144c\u00f3w Wielkopolskich",
                "addr:housenumber": "16",
                "addr:teryt:simc": 970632,
                "addr:teryt:sym_ul": 17379,
                "email": "sekretariat@sosw2.gniezno.pl",
                "website": "http:\/\/www.sosw2.gniezno.pl",
                "ref:regon": "300018338",
                "ref:vatin": "PL7841887933",
                "operator": "Powiat Gnie\u017anie\u0144ski",
                "operator:type": "government",
                "amenity": "school",
                "note": "Parent RSPO: 28248"
            }
        },
        {
            "id": 20012,
            "type": "Feature",
            "geometry": {
                "type": "Point",
                "coordinates": [
                    17.605,
                    52.53417
                ]
            },
            "properties": {
                "ref:rspo": 20012,
                "official_name": "Zesp\u00f3\u0142 Szk\u00f3\u0142 im. Jana III Sobieskiego",
                "name": "Zesp\u00f3\u0142 Szk\u00f3\u0142",
                "addr:postcode": "62-200",
                "addr:city": "Gniezno",
                "addr:street": "Jana III Sobieskiego",
                "addr:housenumber": "20",
                "addr:teryt:simc": 970632,
                "addr:teryt:sym_ul": 20431,
                "phone": "+48 614261371",
                "email": "zssobieski@liceum.gniezno.pl",
                "website": "http:\/\/www.liceum.gniezno.pl",
                "ref:regon": "634475880",
                "ref:vatin": "PL7842227535",
                "operator": "Powiat Gnie\u017anie\u0144ski",
                "operator:type": "government",
                "landuse": "education",
                "fixme": "amenity=school, amenity=college albo landuse=education w zale\u017cno\u015bci od tego, jakie plac\u00f3wki wchodz\u0105 w sk\u0142ad zespo\u0142u. Sprawd\u017a, kiedy stosowa\u0107 amenity=* a kiedy landuse=education.",
                "note": "Children RSPO: 29678;42809"
            }
        },
        {
            "id": 20118,
            "type": "Feature",
            "geometry": {
                "type": "Point",
                "coordinates": [
                    17.605,
                    52.53414
                ]
            },
            "properties": {
                "ref:rspo": 20118,
                "official_name": "Zesp\u00f3\u0142 Szk\u00f3\u0142 Przyrodniczo- Us\u0142ugowych im. Stanis\u0142awa Miko\u0142ajczyka w Gnie\u017anie",
                "name": "Zesp\u00f3\u0142 Szk\u00f3\u0142 Przyrodniczo- Us\u0142ugowych",
                "addr:postcode": "62-200",
                "addr:city": "Gniezno",
                "addr:street": "Jana III Sobieskiego",
                "addr:housenumber": "20",
                "addr:teryt:simc": 970632,
                "addr:teryt:sym_ul": 20431,
                "phone": "+48 614262073",
                "email": "sekretariat@zsp1-gniezno.pl",
                "website": "http:\/\/www.zsp1gniezno.pl",
                "ref:regon": "000095058",
                "ref:vatin": "PL7842203374",
                "operator": "Powiat Gnie\u017anie\u0144ski",
                "operator:type": "government",
                "landuse": "education",
                "fixme": "amenity=school, amenity=college albo landuse=education w zale\u017cno\u015bci od tego, jakie plac\u00f3wki wchodz\u0105 w sk\u0142ad zespo\u0142u. Sprawd\u017a, kiedy stosowa\u0107 amenity=* a kiedy landuse=education.",
                "note": "Children RSPO: 29685;42761;276056"
            }
        },
        {
            "id": 29678,
            "type": "Feature",
            "geometry": {
                "type": "Point",
                "coordinates": [
                    17.605,
                    52.534110000000005
                ]
            },
            "properties": {
                "isced:level": "3",
                "ref:rspo": 29678,
                "official_name": "Liceum Og\u00f3lnokszta\u0142c\u0105ce dla Doros\u0142ych w Gnie\u017anie",
                "name": "Liceum Og\u00f3lnokszta\u0142c\u0105ce dla Doros\u0142ych w Gnie\u017anie",
                "addr:postcode": "62-200",
                "addr:city": "Gniezno",
                "addr:street": "Jana III Sobieskiego",
                "addr:housenumber": "20",
                "addr:teryt:simc": 970632,
                "addr:teryt:sym_ul": 20431,
                "phone": "+48 614261371",
                "email": "zssobieski@liceum.gniezno.pl",
                "website": "http:\/\/www.liceum.gniezno.pl",
                "ref:regon": "634475896",
                "ref:vatin": "PL7842227535",
                "operator": "Powiat Gnie\u017anie\u0144ski",
                "operator:type": "government",
                "amenity": "school",
                "note": "Parent RSPO: 20012"
            }
        },
        {
            "id": 42809,
            "type": "Feature",
            "geometry": {
                "type": "Point",
                "coordinates": [
                    17.605,
                    52.53408
                ]
            },
            "properties": {
                "isced:level": "3",
                "ref:rspo": 42809,
                "official_name": "Iii Liceum Og\u00f3lnokszta\u0142c\u0105ce w Zespole Szk\u00f3\u0142 im. Jana III Sobieskiego w Gnie\u017anie",
                "name": "Iii Liceum Og\u00f3lnokszta\u0142c\u0105ce w Zespole Szk\u00f3\u0142",
                "addr:postcode": "62-200",
                "addr:city": "Gniezno",
                "addr:street": "Jana III Sobieskiego",
                "addr:housenumber": "20",
                "addr:teryt:simc": 970632,
                "addr:teryt:sym_ul": 20431,
                "phone": "+48 614261371",
                "email": "zssobieski@liceum.gniezno.pl",
                "website": "http:\/\/www.liceum.gniezno.pl",
                "ref:regon": "639830907",
                "ref:vatin": "PL7842227535",
                "operator": "Powiat Gnie\u017anie\u0144ski",
                "operator:type": "government",
                "amenity": "school",
                "note": "Parent RSPO: 20012"
            }
        },
        {
            "id": 29685,
            "type": "Feature",
            "geometry": {
                "type": "Point",
                "coordinates": [
                    17.605,
                    52.53405
                ]
            },
            "properties": {
                "isced:level": "3",
                "ref:rspo": 29685,
                "official_name": "Technikum w Zespole Szk\u00f3\u0142 Przyrodniczo - Us\u0142ugowych w Gnie\u017anie",
                "name": "Technikum w Zespole Szk\u00f3\u0142 Przyrodniczo - Us\u0142ugowych w Gnie\u017anie",
                "addr:postcode": "62-200",
                "addr:city": "Gniezno",
                "addr:street": "Jana III Sobieskiego",
                "addr:housenumber": "20",
                "addr:teryt:simc": 970632,
                "addr:teryt:sym_ul": 20431,
                "phone": "+48 614262073",
                "email": "sekretariat@zsp1-gniezno.pl",
                "website": "http:\/\/www.zsp1gniezno.pl",
                "ref:regon": "639844460",
                "ref:vatin": "PL7842203374",
                "operator": "Powiat Gnie\u017anie\u0144ski",
                "operator:type": "government",
                "amenity": "school",
                "note": "Parent RSPO: 20118"
            }
        },
        {
            "id": 42761,
            "type": "Feature",
            "geometry": {
                "type": "Point",
                "coordinates": [
                    17.605,
                    52.534020000000005
                ]
            },
            "properties": {
                "isced:level": "3",
                "ref:rspo": 42761,
                "official_name": "Bran\u017cowa Szko\u0142a I Stopnia w Zespole Szk\u00f3\u0142 Przyrodniczo - Us\u0142ugowychw Gnie\u017anie",
                "name": "Bran\u017cowa Szko\u0142a I Stopnia w Zespole Szk\u00f3\u0142 Przyrodniczo - Us\u0142ugowychw Gnie\u017anie",
                "addr:postcode": "62-200",
                "addr:city": "Gniezno",
                "addr:street": "Jana III Sobieskiego",
                "addr:housenumber": "20",
                "addr:teryt:simc": 970632,
                "addr:teryt:sym_ul": 20431,
                "phone": "+48 614262073",
                "email": "sekretariat@zsp1-gniezno.pl",
                "website": "http:\/\/www.zsp1-gniezno.pl\/",
                "ref:regon": "634418250",
                "ref:vatin": "PL7842214515",
                "operator": "Powiat Gnie\u017anie\u0144ski",
                "operator:type": "government",
                "amenity": "school",
                "note": "Parent RSPO: 20118"
            }
        },
        {
            "id": 276056,
            "type": "Feature",
            "geometry": {
                "type": "Point",
                "coordinates": [
                    17.605,
                    52.53399
                ]
            },
            "properties": {
                "isced:level": "3",
                "ref:rspo": 276056,
                "official_name": "Branzowa Szko\u0142a II Stopnia Nr 1 w Gnie\u017anie",
                "name": "Branzowa Szko\u0142a II Stopnia Nr 1 w Gnie\u017anie",
                "addr:postcode": "62-200",
                "addr:city": "Gniezno",
                "addr:street": "Jana III Sobieskiego",
                "addr:housenumber": "20",
                "addr:teryt:simc": 970632,
                "addr:teryt:sym_ul": 20431,
                "phone": "+48 614262073",
                "email": "zsp1.gniezno@wp.pl",
                "ref:regon": "386972988",
                "operator": "Powiat Gnie\u017anie\u0144ski",
                "operator:type": "government",
                "amenity": "school",
                "note": "Parent RSPO: 20118"
            }
        },
        {
            "id": 26798,
            "type": "Feature",
            "geometry": {
                "type": "Point",
                "coordinates": [
                    17.59817,
                    52.53435
                ]
            },
            "properties": {
                "ref:rspo": 26798,
                "official_name": "Zesp\u00f3\u0142 Pa\u0144stwowych Szk\u00f3\u0142 Muzycznych w Gnie\u017anie",
                "name": "Zesp\u00f3\u0142 Pa\u0144stwowych Szk\u00f3\u0142 Muzycznych w Gnie\u017anie",
                "addr:postcode": "62-200",
                "addr:city": "Gniezno",
                "addr:street": "Mieszka I",
                "addr:housenumber": "20",
                "addr:teryt:simc": 970632,
                "addr:teryt:sym_ul": 12832,
                "phone": "+48 614263460",
                "email": "zpsm2gniezno@o2.pl",
                "website": "http:\/\/www.muzyczna.gniezno.pl",
                "ref:regon": "639640897",
                "operator": "Ministerstwo Kultury I Dziedzictwa Narodowego",
                "operator:type": "public",
                "landuse": "education",
                "fixme": "amenity=school, amenity=college albo landuse=education w zale\u017cno\u015bci od tego, jakie plac\u00f3wki wchodz\u0105 w sk\u0142ad zespo\u0142u. Sprawd\u017a, kiedy stosowa\u0107 amenity=* a kiedy landuse=education.",
                "note": "Children RSPO: 16177;90372"
            }
        },
        {
            "id": 16177,
            "type": "Feature",
            "geometry": {
                "type": "Point",
                "coordinates": [
                    17.59817,
                    52.53432
                ]
            },
            "properties": {
                "ref:rspo": 16177,
                "official_name": "Pa\u0144stwowa Szko\u0142a Muzyczna II St. w Gnie\u017anie",
                "name": "Pa\u0144stwowa Szko\u0142a Muzyczna II St. w Gnie\u017anie",
                "addr:postcode": "62-200",
                "addr:city": "Gniezno",
                "addr:street": "Mieszka I",
                "addr:housenumber": "20",
                "addr:teryt:simc": 970632,
                "addr:teryt:sym_ul": 12832,
                "phone": "+48 614263460",
                "email": "zpsm-gniezno@o2.pl",
                "website": "http:\/\/www.muzyczna.gniezno.pl",
                "ref:regon": "634373575",
                "operator": "Ministerstwo Kultury I Dziedzictwa Narodowego",
                "operator:type": "public",
                "amenity": "music_school",
                "note": "Parent RSPO: 26798"
            }
        },
        {
            "id": 90372,
            "type": "Feature",
            "geometry": {
                "type": "Point",
                "coordinates": [
                    17.59817,
                    52.534290000000006
                ]
            },
            "properties": {
                "isced:level": "1;2",
                "ref:rspo": 90372,
                "official_name": "Pa\u0144stwowa Og\u00f3lnokszta\u0142c\u0105ca Szko\u0142a Muzyczna I St. im. Feliksa Nowowiejskiego w Gnie\u017anie",
                "name": "Pa\u0144stwowa Og\u00f3lnokszta\u0142c\u0105ca Szko\u0142a Muzyczna I St.",
                "addr:postcode": "62-200",
                "addr:city": "Gniezno",
                "addr:street": "Mieszka I",
                "addr:housenumber": "20",
                "addr:teryt:simc": 970632,
                "addr:teryt:sym_ul": 12832,
                "phone": "+48 614263460",
                "email": "zpsm2gniezno@o2.pl",
                "ref:regon": "634385176",
                "operator": "Ministerstwo Kultury I Dziedzictwa Narodowego",
                "operator:type": "public",
                "amenity": "school",
                "note": "Parent RSPO: 26798"
            }
        },
        {
            "id": 20299,
            "type": "Feature",
            "geometry": {
                "type": "Point",
                "coordinates": [
                    17.61742,
                    52.53469
                ]
            },
            "properties": {
                "ref:rspo": 20299,
                "official_name": "Zesp\u00f3\u0142 Szk\u00f3\u0142 Technicznych im. Papie\u017ca Jana Paw\u0142a Ii",
                "name": "Zesp\u00f3\u0142 Szk\u00f3\u0142 Technicznych",
                "addr:postcode": "62-200",
                "addr:city": "Gniezno",
                "addr:street": "Augusta Cieszkowskiego",
                "addr:housenumber": "17",
                "addr:teryt:simc": 970632,
                "addr:teryt:sym_ul": 3055,
                "phone": "+48 614265637",
                "email": "sekretariat@zst.gniezno.pl",
                "website": "http:\/\/www.zst.gniezno.pl",
                "ref:regon": "000688048",
                "ref:vatin": "PL7842210871",
                "operator": "Powiat Gnie\u017anie\u0144ski",
                "operator:type": "government",
                "landuse": "education",
                "fixme": "amenity=school, amenity=college albo landuse=education w zale\u017cno\u015bci od tego, jakie plac\u00f3wki wchodz\u0105 w sk\u0142ad zespo\u0142u. Sprawd\u017a, kiedy stosowa\u0107 amenity=* a kiedy landuse=education.",
                "note": "Children RSPO: 35314;42413;56331;118842;132022;276051"
            }
        },
        {
            "id": 35314,
            "type": "Feature",
            "geometry": {
                "type": "Point",
                "coordinates": [
                    17.61742,
                    52.534659999999995
                ]
            },
            "properties": {
                "isced:level": "3",
                "ref:rspo": 35314,
                "official_name": "Technikum w Zespole Szk\u00f3\u0142 Technicznych w Gnie\u017anie",
                "name": "Technikum w Zespole Szk\u00f3\u0142 Technicznych w Gnie\u017anie",
                "addr:postcode": "62-200",
                "addr:city": "Gniezno",
                "addr:street": "Augusta Cieszkowskiego",
                "addr:housenumber": "17",
                "addr:teryt:simc": 970632,
                "addr:teryt:sym_ul": 3055,
                "phone": "+48 614265637",
                "email": "sekretariat@zst.gniezno.pl",
                "website": "http:\/\/www.zst.gniezno.pl",
                "ref:regon": "639837625",
                "ref:vatin": "PL7842210871",
                "operator": "Powiat Gnie\u017anie\u0144ski",
                "operator:type": "government",
                "amenity": "school",
                "note": "Parent RSPO: 20299"
            }
        },
        {
            "id": 42413,
            "type": "Feature",
            "geometry": {
                "type": "Point",
                "coordinates": [
                    17.61742,
                    52.53463
                ]
            },
            "properties": {
                "isced:level": "3",
                "ref:rspo": 42413,
                "official_name": "Bran\u017cowa Szko\u0142a I Stopnia w Zespole Szk\u00f3\u0142 Technicznych w Gnie\u017anie",
                "name": "Bran\u017cowa Szko\u0142a I Stopnia w Zespole Szk\u00f3\u0142 Technicznych w Gnie\u017anie",
                "addr:postcode": "62-200",
                "addr:city": "Gniezno",
                "addr:street": "Augusta Cieszkowskiego",
                "addr:housenumber": "17",
                "addr:teryt:simc": 970632,
                "addr:teryt:sym_ul": 3055,
                "phone": "+48 614265637",
                "email": "sekretariat@zst.gniezno.pl",
                "website": "http:\/\/www.zst.gniezno.pl",
                "ref:regon": "639837648",
                "ref:vatin": "PL7842210871",
                "operator": "Powiat Gnie\u017anie\u0144ski",
                "operator:type": "government",
                "amenity": "school",
                "note": "Parent RSPO: 20299"
            }
        },
        {
            "id": 56331,
            "type": "Feature",
            "geometry": {
                "type": "Point",
                "coordinates": [
                    17.61742,
                    52.5346
                ]
            },
            "properties": {
                "isced:level": "3",
                "ref:rspo": 56331,
                "official_name": "Zesp\u00f3\u0142 Szk\u00f3\u0142 Technicznych im. Papie\u017ca Jana Paw\u0142a II - Liceum Og\u00f3lnokszta\u0142c\u0105ce",
                "name": "Zesp\u00f3\u0142 Szk\u00f3\u0142 Technicznych",
                "addr:postcode": "62-200",
                "addr:city": "Gniezno",
                "addr:street": "Augusta Cieszkowskiego",
                "addr:housenumber": "17",
                "addr:teryt:simc": 970632,
                "addr:teryt:sym_ul": 3055,
                "phone": "+48 614265637",
                "email": "sekretariat@zst.gniezno.pl",
                "website": "http:\/\/www.zst.gniezno.pl",
                "ref:regon": "639837654",
                "ref:vatin": "PL7842210871",
                "operator": "Powiat Gnie\u017anie\u0144ski",
                "operator:type": "government",
                "amenity": "school",
                "note": "Parent RSPO: 20299"
            }
        },
        {
            "id": 118842,
            "type": "Feature",
            "geometry": {
                "type": "Point",
                "coordinates": [
                    17.61742,
                    52.534569999999995
                ]
            },
            "properties": {
                "isced:level": "3",
                "ref:rspo": 118842,
                "official_name": "Liceum Og\u00f3lnokszta\u0142c\u0105ce dla Doros\u0142ych w Zespole Szk\u00f3\u0142 Technicznych w Gnie\u017anie",
                "name": "Liceum Og\u00f3lnokszta\u0142c\u0105ce dla Doros\u0142ych w Zespole Szk\u00f3\u0142 Technicznych w Gnie\u017anie",
                "addr:postcode": "62-200",
                "addr:city": "Gniezno",
                "addr:street": "Augusta Cieszkowskiego",
                "addr:housenumber": "17",
                "addr:teryt:simc": 970632,
                "addr:teryt:sym_ul": 3055,
                "phone": "+48 614265637",
                "email": "sekretariat@zst.gniezno.pl",
                "website": "http:\/\/www.zst.gniezno.pl",
                "ref:regon": "302503954",
                "ref:vatin": "PL7842210871",
                "operator": "Powiat Gnie\u017anie\u0144ski",
                "operator:type": "government",
                "amenity": "school",
                "note": "Parent RSPO: 20299"
            }
        },
        {
            "id": 132022,
            "type": "Feature",
            "geometry": {
                "type": "Point",
                "coordinates": [
                    17.61742,
                    52.53454
                ]
            },
            "properties": {
                "isced:level": "4",
                "ref:rspo": 132022,
                "official_name": "Szko\u0142a Policealna dla Doros\u0142ych w Zespole Szk\u00f3\u0142 Technicznych w Gnie\u017anie",
                "name": "Szko\u0142a Policealna dla Doros\u0142ych w Zespole Szk\u00f3\u0142 Technicznych w Gnie\u017anie",
                "addr:postcode": "62-200",
                "addr:city": "Gniezno",
                "addr:street": "Augusta Cieszkowskiego",
                "addr:housenumber": "17",
                "addr:teryt:simc": 970632,
                "addr:teryt:sym_ul": 3055,
                "phone": "+48 614265637",
                "email": "sekretariat@zst.gniezno.pl",
                "website": "http:\/\/www.zst.gniezno.pl",
                "ref:regon": "300122870",
                "operator": "Powiat Gnie\u017anie\u0144ski",
                "operator:type": "government",
                "amenity": "college",
                "note": "Parent RSPO: 20299"
            }
        },
        {
            "id": 276051,
            "type": "Feature",
            "geometry": {
                "type": "Point",
                "coordinates": [
                    17.61742,
                    52.53451
                ]
            },
            "properties": {
                "isced:level": "3",
                "ref:rspo": 276051,
                "official_name": "Bran\u017cowa Szko\u0142a II Stopnia Nr 2 w Zespole Szk\u00f3\u0142 Technicznych w Gnie\u017anie",
                "name": "Bran\u017cowa Szko\u0142a II Stopnia Nr 2 w Zespole Szk\u00f3\u0142 Technicznych w Gnie\u017anie",
                "addr:postcode": "62-200",
                "addr:city": "Gniezno",
                "addr:street": "Augusta Cieszkowskiego",
                "addr:housenumber": "17",
                "addr:teryt:simc": 970632,
                "addr:teryt:sym_ul": 3055,
                "phone": "+48 614265637",
                "email": "sekretariat@zst.gniezno.pl",
                "website": "http:\/\/www.zst.gniezno.pl",
                "ref:regon": "386972936",
                "operator": "Powiat Gnie\u017anie\u0144ski",
                "operator:type": "government",
                "amenity": "school",
                "note": "Parent RSPO: 20299"
            }
        },
        {
            "id": 9278,
            "type": "Feature",
            "geometry": {
                "type": "Point",
                "coordinates": [
                    17.60117,
                    52.53473
                ]
            },
            "properties": {
                "isced:level": "1;2",
                "ref:rspo": 9278,
                "official_name": "Szko\u0142a Podstawowa Nr 5 im. Arkadego Fiedlera",
                "name": "Szko\u0142a Podstawowa Nr 5",
                "addr:postcode": "62-200",
                "addr:city": "Gniezno",
                "addr:street": "Boles\u0142awa Chrobrego",
                "addr:housenumber": "12",
                "addr:teryt:simc": 970632,
                "addr:teryt:sym_ul": 1742,
                "phone": "+48 614263997",
                "email": "sekretariat@sp5.gniezno.eu",
                "website": "http:\/\/www.sp5.gniezno.pl",
                "ref:regon": "000238871",
                "ref:vatin": "PL7841549840",
                "operator": "Miasto Gniezno",
                "operator:type": "government",
                "amenity": "school"
            }
        },
        {
            "id": 20365,
            "type": "Feature",
            "geometry": {
                "type": "Point",
                "coordinates": [
                    17.60339,
                    52.53493
                ]
            },
            "properties": {
                "ref:rspo": 20365,
                "official_name": "Zesp\u00f3\u0142 Szk\u00f3\u0142 Ponadpodstawowych Nr 3",
                "name": "Zesp\u00f3\u0142 Szk\u00f3\u0142 Ponadpodstawowych Nr 3",
                "addr:postcode": "62-200",
                "addr:city": "Gniezno",
                "addr:street": "Henryka Sienkiewicza",
                "addr:housenumber": "6",
                "addr:teryt:simc": 970632,
                "addr:teryt:sym_ul": 19834,
                "phone": "+48 614263153",
                "email": "sienkiewiczzsp3@interia.pl",
                "website": "http:\/\/www.zsp3-gniezno.pl",
                "ref:regon": "000245569",
                "ref:vatin": "PL7842250161",
                "operator": "Powiat Gnie\u017anie\u0144ski",
                "operator:type": "government",
                "landuse": "education",
                "fixme": "amenity=school, amenity=college albo landuse=education w zale\u017cno\u015bci od tego, jakie plac\u00f3wki wchodz\u0105 w sk\u0142ad zespo\u0142u. Sprawd\u017a, kiedy stosowa\u0107 amenity=* a kiedy landuse=education.",
                "note": "Children RSPO: 56333;56335;119013;276058"
            }
        },
        {
            "id": 56333,
            "type": "Feature",
            "geometry": {
                "type": "Point",
                "coordinates": [
                    17.60339,
                    52.5349
                ]
            },
            "properties": {
                "isced:level": "3",
                "ref:rspo": 56333,
                "official_name": "Bran\u017cowa Szko\u0142a I Stopnia w Zespole Szk\u00f3\u0142 Ponadpodstawowych Nr 3 w Gnie\u017anie",
                "name": "Bran\u017cowa Szko\u0142a I Stopnia w Zespole Szk\u00f3\u0142 Ponadpodstawowych Nr 3 w Gnie\u017anie",
                "addr:postcode": "62-200",
                "addr:city": "Gniezno",
                "addr:street": "Henryka Sienkiewicza",
                "addr:housenumber": "6",
                "addr:teryt:simc": 970632,
                "addr:teryt:sym_ul": 19834,
                "phone": "+48 614263153",
                "email": "sienkiewiczzsp3@interia.pl",
                "website": "http:\/\/www.zsp3-gniezno.pl",
                "ref:regon": "639824870",
                "ref:vatin": "PL7842250161",
                "operator": "Powiat Gnie\u017anie\u0144ski",
                "operator:type": "government",
                "amenity": "school",
                "note": "Parent RSPO: 20365"
            }
        },
        {
            "id": 56335,
            "type": "Feature",
            "geometry": {
                "type": "Point",
                "coordinates": [
                    17.60339,
                    52.534870000000005
                ]
            },
            "properties": {
                "isced:level": "3",
                "ref:rspo": 56335,
                "official_name": "Technikum w Zespole Szk\u00f3\u0142 Ponadpodstawowych Nr 3 w Gnie\u017anie",
                "name": "Technikum w Zespole Szk\u00f3\u0142 Ponadpodstawowych Nr 3 w Gnie\u017anie",
                "addr:postcode": "62-200",
                "addr:city": "Gniezno",
                "addr:street": "Henryka Sienkiewicza",
                "addr:housenumber": "6",
                "addr:teryt:simc": 970632,
                "addr:teryt:sym_ul": 19834,
                "phone": "+48 614263153",
                "email": "sienkiewiczzsp3@interia.pl",
                "website": "http:\/\/www.zsp3-gniezno.pl",
                "ref:regon": "639824918",
                "ref:vatin": "PL7842250161",
                "operator": "Powiat Gnie\u017anie\u0144ski",
                "operator:type": "government",
                "amenity": "school",
                "note": "Parent RSPO: 20365"
            }
        },
        {
            "id": 119013,
            "type": "Feature",
            "geometry": {
                "type": "Point",
                "coordinates": [
                    17.60339,
                    52.53484
                ]
            },
            "properties": {
                "isced:level": "3",
                "ref:rspo": 119013,
                "official_name": "Liceum Og\u00f3lnokszta\u0142c\u0105ce dla Doros\u0142ych w Zespole Szk\u00f3\u0142 Ponadpodstawowych Nr 3 w Gnie\u017anie",
                "name": "Liceum Og\u00f3lnokszta\u0142c\u0105ce dla Doros\u0142ych w Zespole Szk\u00f3\u0142 Ponadpodstawowych Nr 3 w Gnie\u017anie",
                "addr:postcode": "62-200",
                "addr:city": "Gniezno",
                "addr:street": "Henryka Sienkiewicza",
                "addr:housenumber": "6",
                "addr:teryt:simc": 970632,
                "addr:teryt:sym_ul": 19834,
                "phone": "+48 614263153",
                "email": "sienkiewiczzsp3@interia.pl",
                "website": "http:\/\/www.zsp3-gniezno.pl",
                "ref:regon": "302508532",
                "ref:vatin": "PL7842250161",
                "operator": "Powiat Gnie\u017anie\u0144ski",
                "operator:type": "government",
                "amenity": "school",
                "note": "Parent RSPO: 20365"
            }
        },
        {
            "id": 276058,
            "type": "Feature",
            "geometry": {
                "type": "Point",
                "coordinates": [
                    17.60339,
                    52.53481
                ]
            },
            "properties": {
                "isced:level": "3",
                "ref:rspo": 276058,
                "official_name": "Bran\u017cowa Szko\u0142a II Stopnia Nr 3 w Zespole Szk\u00f3\u0142 Ponadpodstawowych Nr 3 w Gnie\u017anie",
                "name": "Bran\u017cowa Szko\u0142a II Stopnia Nr 3 w Zespole Szk\u00f3\u0142 Ponadpodstawowych Nr 3 w Gnie\u017anie",
                "addr:postcode": "62-200",
                "addr:city": "Gniezno",
                "addr:street": "Henryka Sienkiewicza",
                "addr:housenumber": "6",
                "addr:teryt:simc": 970632,
                "addr:teryt:sym_ul": 19834,
                "phone": "+48 614263153",
                "email": "sienkiewiczzsp3@interia.pl",
                "website": "http:\/\/www.zsp3-gniezno.pl",
                "ref:regon": "386974059",
                "operator": "Powiat Gnie\u017anie\u0144ski",
                "operator:type": "government",
                "amenity": "school",
                "note": "Parent RSPO: 20365"
            }
        },
        {
            "id": 9276,
            "type": "Feature",
            "geometry": {
                "type": "Point",
                "coordinates": [
                    17.6007399,
                    52.53513
                ]
            },
            "properties": {
                "isced:level": "1;2",
                "ref:rspo": 9276,
                "official_name": "Szko\u0142a Podstawowa Nr 2 im.ksi\u0119dza Majora Mateusza Zab\u0142ockiego",
                "name": "Szko\u0142a Podstawowa Nr 2 im.ksi\u0119dza Majora Mateusza Zab\u0142ockiego",
                "addr:postcode": "62-200",
                "addr:city": "Gniezno",
                "addr:street": "Ksi\u0119dza Prymasa Macieja \u0141ubie\u0144skiego",
                "addr:housenumber": "7",
                "addr:teryt:simc": 970632,
                "addr:teryt:sym_ul": 34062,
                "phone": "+48 614244500",
                "email": "sekretariat@sp2.gniezno.eu",
                "website": "http:\/\/sp2gniezno.pl",
                "ref:regon": "000233371",
                "ref:vatin": "PL7841529636",
                "operator": "Miasto Gniezno",
                "operator:type": "government",
                "amenity": "school"
            }
        },
        {
            "id": 60238,
            "type": "Feature",
            "geometry": {
                "type": "Point",
                "coordinates": [
                    17.6007399,
                    52.5351
                ]
            },
            "properties": {
                "ref:rspo": 60238,
                "official_name": "Zesp\u00f3\u0142 Szk\u00f3\u0142 Zaocznych w Gnie\u017anie",
                "name": "Zesp\u00f3\u0142 Szk\u00f3\u0142 Zaocznych w Gnie\u017anie",
                "addr:postcode": "62-200",
                "addr:city": "Gniezno",
                "addr:street": "Ksi\u0119dza Prymasa Macieja \u0141ubie\u0144skiego",
                "addr:housenumber": "7",
                "addr:teryt:simc": 970632,
                "addr:teryt:sym_ul": 34062,
                "phone": "+48 614244500",
                "email": "lo.gniezno@op.pl",
                "website": "http:\/\/www.licea-zaoczne.pl",
                "ref:regon": "302261712",
                "ref:vatin": "PL7841424274",
                "operator": "Jadwiga Antkowiak",
                "operator:type": "private",
                "landuse": "education",
                "fixme": "amenity=school, amenity=college albo landuse=education w zale\u017cno\u015bci od tego, jakie plac\u00f3wki wchodz\u0105 w sk\u0142ad zespo\u0142u. Sprawd\u017a, kiedy stosowa\u0107 amenity=* a kiedy landuse=education.",
                "note": "Children RSPO: 126222"
            }
        },
        {
            "id": 126222,
            "type": "Feature",
            "geometry": {
                "type": "Point",
                "coordinates": [
                    17.6007399,
                    52.535070000000005
                ]
            },
            "properties": {
                "isced:level": "3",
                "ref:rspo": 126222,
                "official_name": "Zaoczne Liceum Og\u00f3lnokszta\u0142c\u0105ce dla Doros\u0142ych w Gnie\u017anie",
                "name": "Zaoczne Liceum Og\u00f3lnokszta\u0142c\u0105ce dla Doros\u0142ych w Gnie\u017anie",
                "addr:postcode": "62-200",
                "addr:city": "Gniezno",
                "addr:street": "Ksi\u0119dza Prymasa Macieja \u0141ubie\u0144skiego",
                "addr:housenumber": "7",
                "addr:teryt:simc": 970632,
                "addr:teryt:sym_ul": 34062,
                "phone": "+48 614244500",
                "email": "lo.gniezno@op.pl",
                "ref:regon": "360181468",
                "ref:vatin": "PL7841424274",
                "operator": "Jadwiga Antkowiak",
                "operator:type": "private",
                "amenity": "school",
                "note": "Parent RSPO: 60238"
            }
        },
        {
            "id": 8379,
            "type": "Feature",
            "geometry": {
                "type": "Point",
                "coordinates": [
                    17.6064,
                    52.53524
                ]
            },
            "properties": {
                "ref:rspo": 8379,
                "official_name": "Przedszkole Nr 10 Z Oddzia\u0142ami Integracyjnymi Janek W\u0119drowniczek",
                "name": "Przedszkole Nr 10 Z Oddzia\u0142ami Integracyjnymi Janek W\u0119drowniczek",
                "addr:postcode": "62-200",
                "addr:city": "Gniezno",
                "addr:street": "Jana III Sobieskiego",
                "addr:housenumber": "22",
                "addr:teryt:simc": 970632,
                "addr:teryt:sym_ul": 20431,
                "phone": "+48 614261793",
                "email": "p10gniezno@o2.pl",
                "website": "http:\/\/www.przedszkole10.gniezno.pl",
                "ref:regon": "301586079",
                "ref:vatin": "PL7842470678",
                "operator": "Miasto Gniezno",
                "operator:type": "government",
                "amenity": "kindergarten"
            }
        },
        {
            "id": 133319,
            "type": "Feature",
            "geometry": {
                "type": "Point",
                "coordinates": [
                    17.63969,
                    52.53545
                ]
            },
            "properties": {
                "ref:rspo": 133319,
                "official_name": "Niepubliczne Przedszkole \"Przedszkoludki\"",
                "name": "Niepubliczne Przedszkole \"Przedszkoludki\"",
                "addr:postcode": "62-200",
                "addr:city": "Gniezno",
                "addr:street": "Mazowiecka",
                "addr:housenumber": "2",
                "addr:teryt:simc": 970632,
                "addr:teryt:sym_ul": 12540,
                "phone": "+48 606697359",
                "email": "przedszkoludki@wp.pl",
                "ref:regon": "367012237",
                "operator": "Ma\u0142gorzata Kowalska",
                "operator:type": "private",
                "amenity": "kindergarten"
            }
        },
        {
            "id": 264606,
            "type": "Feature",
            "geometry": {
                "type": "Point",
                "coordinates": [
                    17.58093,
                    52.5357
                ]
            },
            "properties": {
                "ref:rspo": 264606,
                "official_name": "Niepubliczne Przedszkole Weso\u0142e Biedroneczki",
                "name": "Niepubliczne Przedszkole Weso\u0142e Biedroneczki",
                "addr:postcode": "62-200",
                "addr:city": "Gniezno",
                "addr:street": "Stefana Czarnieckiego",
                "addr:housenumber": "6A",
                "addr:teryt:simc": 970632,
                "addr:teryt:sym_ul": 3283,
                "email": "biedronki.baki@gmail.com",
                "website": "http:\/\/www.wesolebideroneczki.pl",
                "ref:regon": "368394028",
                "operator": "Joanna Noak-Kasztelan",
                "operator:type": "private",
                "amenity": "kindergarten"
            }
        },
        {
            "id": 17028,
            "type": "Feature",
            "geometry": {
                "type": "Point",
                "coordinates": [
                    17.60107,
                    52.5357
                ]
            },
            "properties": {
                "isced:level": "3",
                "ref:rspo": 17028,
                "official_name": "Ii Liceum Og\u00f3lnokszta\u0142cace",
                "name": "Ii Liceum Og\u00f3lnokszta\u0142cace",
                "addr:postcode": "62-200",
                "addr:city": "Gniezno",
                "addr:street": "Ksi\u0119dza Prymasa Macieja \u0141ubie\u0144skiego",
                "addr:housenumber": "3",
                "addr:door": "5",
                "addr:teryt:simc": 970632,
                "addr:teryt:sym_ul": 34062,
                "phone": "+48 614261344",
                "email": "glo2@o2.pl",
                "website": "http:\/\/www.2lo.gniezno.pl",
                "ref:regon": "000243990",
                "ref:vatin": "PL7841073610",
                "operator": "Powiat Gnie\u017anie\u0144ski",
                "operator:type": "government",
                "amenity": "school"
            }
        },
        {
            "id": 56351,
            "type": "Feature",
            "geometry": {
                "type": "Point",
                "coordinates": [
                    17.6019,
                    52.53598
                ]
            },
            "properties": {
                "ref:rspo": 56351,
                "official_name": "Poradnia Psychologiczno - Pedagogiczna w Gnie\u017anie",
                "name": "Poradnia Psychologiczno - Pedagogiczna w Gnie\u017anie",
                "addr:postcode": "62-200",
                "addr:city": "Gniezno",
                "addr:street": "Ksi\u0119dza Kardyna\u0142a Stefana Wyszy\u0144skiego",
                "addr:housenumber": "4",
                "addr:teryt:simc": 970632,
                "addr:teryt:sym_ul": 25114,
                "phone": "+48 614246640",
                "email": "poradnia@ppp.powiat-gniezno.pl",
                "ref:regon": "000708259",
                "ref:vatin": "PL7842072570",
                "operator": "Powiat Gnie\u017anie\u0144ski",
                "operator:type": "government",
                "healthcare": "counselling",
                "counselling_type": "education",
                "fixme": "w zale\u017cno\u015bci od przedmiotu dzia\u0142alno\u015bci (np. healthcare=counselling + counselling_type=education albo healthcare=psychotherapist)"
            }
        },
        {
            "id": 109603,
            "type": "Feature",
            "geometry": {
                "type": "Point",
                "coordinates": [
                    17.59507,
                    52.53623
                ]
            },
            "properties": {
                "ref:rspo": 109603,
                "official_name": "Gnie\u017anie\u0144ska Agencja Rozwoju Gospodarczego Sp. Z O.o.",
                "name": "Gnie\u017anie\u0144ska Agencja Rozwoju Gospodarczego Sp. Z O.o.",
                "addr:postcode": "62-200",
                "addr:city": "Gniezno",
                "addr:street": "Rynek",
                "addr:housenumber": "10",
                "addr:door": "1",
                "addr:teryt:simc": 970632,
                "addr:teryt:sym_ul": 19252,
                "phone": "+48 614264534",
                "email": "biuro@garg.pl",
                "website": "http:\/\/www.garg.pl",
                "ref:regon": "302349766",
                "ref:vatin": "PL7842198822",
                "operator": "Gnie\u017anie\u0144ska Agencja Rozwoju Gospodarczego Sp\u00f3\u0142ka Z Ograniczon\u0105 Odpowiedzialno\u015bci\u0105 W Likwidacji",
                "operator:type": "private",
                "fixme": "w zale\u017cno\u015bci od przedmiotu dzia\u0142alno\u015bci (np. amenity=training + training=*, amenity=dancing_school, amenity=language_school, amenity=music_school)"
            }
        },
        {
            "id": 122612,
            "type": "Feature",
            "geometry": {
                "type": "Point",
                "coordinates": [
                    17.59471,
                    52.53631
                ]
            },
            "properties": {
                "ref:rspo": 122612,
                "official_name": "Centrum Kszta\u0142cenia Zawodowego w Gnie\u017anie",
                "name": "Centrum Kszta\u0142cenia Zawodowego w Gnie\u017anie",
                "addr:postcode": "62-200",
                "addr:city": "Gniezno",
                "addr:street": "Tumska",
                "addr:housenumber": "15",
                "addr:teryt:simc": 970632,
                "addr:teryt:sym_ul": 23140,
                "phone": "+48 614263637",
                "email": "biuro@cechgniezno.pl",
                "website": "http:\/\/www.cechgniezno.pl",
                "ref:regon": "302688310",
                "ref:vatin": "PL7841085642",
                "operator": "Cech Rzemios\u0142a I Ma\u0142ej Przedsi\u0119biorczo\u015bci W Gnie\u017anie",
                "operator:type": "ngo",
                "fixme": "w zale\u017cno\u015bci od przedmiotu dzia\u0142alno\u015bci (np. amenity=training + training=*, amenity=dancing_school, amenity=language_school, amenity=music_school) albo amenity=school, amenity=college, albo landuse=education w zale\u017cno\u015bci od tego, jakie plac\u00f3wki wchodz\u0105 w sk\u0142ad zespo\u0142u. Sprawd\u017a, kiedy stosowa\u0107 amenity=* a kiedy landuse=education."
            }
        },
        {
            "id": 124276,
            "type": "Feature",
            "geometry": {
                "type": "Point",
                "coordinates": [
                    17.59471,
                    52.53628
                ]
            },
            "properties": {
                "isced:level": "3",
                "ref:rspo": 124276,
                "official_name": "Cechowa Szko\u0142a Rzemie\u015blnicza w Gnie\u017anie",
                "name": "Cechowa Szko\u0142a Rzemie\u015blnicza w Gnie\u017anie",
                "addr:postcode": "62-200",
                "addr:city": "Gniezno",
                "addr:street": "Tumska",
                "addr:housenumber": "15",
                "addr:teryt:simc": 970632,
                "addr:teryt:sym_ul": 23140,
                "phone": "+48 500408424",
                "email": "csr@csrgniezno.pl",
                "website": "http:\/\/www.cech.gniezno.pl",
                "ref:regon": "302809759",
                "ref:vatin": "PL7841085642",
                "operator": "Cech Rzemios\u0142a I Ma\u0142ej Przedsi\u0119biorczo\u015bci W Gnie\u017anie",
                "operator:type": "ngo",
                "amenity": "school"
            }
        },
        {
            "id": 8374,
            "type": "Feature",
            "geometry": {
                "type": "Point",
                "coordinates": [
                    17.60054,
                    52.53638
                ]
            },
            "properties": {
                "ref:rspo": 8374,
                "official_name": "Przedszkole Nr 3 Kubu\u015b Puchatek",
                "name": "Przedszkole Nr 3 Kubu\u015b Puchatek",
                "addr:postcode": "62-200",
                "addr:city": "Gniezno",
                "addr:street": "D\u0105br\u00f3wki",
                "addr:housenumber": "13",
                "addr:teryt:simc": 970632,
                "addr:teryt:sym_ul": 3701,
                "phone": "+48 614261947",
                "email": "kubus981@wp.pl",
                "website": "http:\/\/www.przedszkole3.gniezno.pl",
                "ref:regon": "301586412",
                "ref:vatin": "PL7842470974",
                "operator": "Miasto Gniezno",
                "operator:type": "government",
                "amenity": "kindergarten"
            }
        },
        {
            "id": 35323,
            "type": "Feature",
            "geometry": {
                "type": "Point",
                "coordinates": [
                    17.61946,
                    52.53646
                ]
            },
            "properties": {
                "ref:rspo": 35323,
                "official_name": "Centrum Kszta\u0142cenia Zawodowego w Gnie\u017anie",
                "name": "Centrum Kszta\u0142cenia Zawodowego w Gnie\u017anie",
                "addr:postcode": "62-200",
                "addr:city": "Gniezno",
                "addr:street": "Juliusza S\u0142owackiego",
                "addr:housenumber": "45",
                "addr:door": "47",
                "addr:teryt:simc": 970632,
                "addr:teryt:sym_ul": 20291,
                "phone": "+48 614265341",
                "email": "ckpgniezno@wp.pl",
                "ref:regon": "302246150",
                "operator": "Powiat Gnie\u017anie\u0144ski",
                "operator:type": "government",
                "fixme": "w zale\u017cno\u015bci od przedmiotu dzia\u0142alno\u015bci (np. amenity=training + training=*, amenity=dancing_school, amenity=language_school, amenity=music_school) albo amenity=school, amenity=college, albo landuse=education w zale\u017cno\u015bci od tego, jakie plac\u00f3wki wchodz\u0105 w sk\u0142ad zespo\u0142u. Sprawd\u017a, kiedy stosowa\u0107 amenity=* a kiedy landuse=education."
            }
        },
        {
            "id": 272291,
            "type": "Feature",
            "geometry": {
                "type": "Point",
                "coordinates": [
                    17.61946,
                    52.536429999999996
                ]
            },
            "properties": {
                "ref:rspo": 272291,
                "official_name": "Centrum Kszta\u0142cenia Zawodowego I Ustawicznego",
                "name": "Centrum Kszta\u0142cenia Zawodowego I Ustawicznego",
                "addr:postcode": "62-200",
                "addr:city": "Gniezno",
                "addr:street": "Juliusza S\u0142owackiego",
                "addr:housenumber": "45",
                "addr:door": "47",
                "addr:teryt:simc": 970632,
                "addr:teryt:sym_ul": 20291,
                "phone": "+48 614265341",
                "email": "sekretariat@ckziu.gniezno.pl",
                "ref:regon": "384091947",
                "operator": "Powiat Gnie\u017anie\u0144ski",
                "operator:type": "government",
                "landuse": "education",
                "fixme": "amenity=school, amenity=college albo landuse=education w zale\u017cno\u015bci od tego, jakie plac\u00f3wki wchodz\u0105 w sk\u0142ad zespo\u0142u. Sprawd\u017a, kiedy stosowa\u0107 amenity=* a kiedy landuse=education.",
                "note": "Children RSPO: 274362;274363"
            }
        },
        {
            "id": 274362,
            "type": "Feature",
            "geometry": {
                "type": "Point",
                "coordinates": [
                    17.61946,
                    52.5364
                ]
            },
            "properties": {
                "isced:level": "3",
                "ref:rspo": 274362,
                "official_name": "Bran\u017cowa Szko\u0142a I Stopnia Nr 1 w Gnie\u017anie",
                "name": "Bran\u017cowa Szko\u0142a I Stopnia Nr 1 w Gnie\u017anie",
                "addr:postcode": "62-200",
                "addr:city": "Gniezno",
                "addr:street": "Juliusza S\u0142owackiego",
                "addr:housenumber": "45",
                "addr:door": "47",
                "addr:teryt:simc": 970632,
                "addr:teryt:sym_ul": 20291,
                "phone": "+48 614265341",
                "email": "sekretariat@ckziu.gniezno.pl",
                "ref:regon": "385621703",
                "operator": "Powiat Gnie\u017anie\u0144ski",
                "operator:type": "government",
                "amenity": "school",
                "note": "Parent RSPO: 272291"
            }
        },
        {
            "id": 274363,
            "type": "Feature",
            "geometry": {
                "type": "Point",
                "coordinates": [
                    17.61946,
                    52.53637
                ]
            },
            "properties": {
                "ref:rspo": 274363,
                "official_name": "Centrum Kszta\u0142cenia Ustawicznego w Gnie\u017anie",
                "name": "Centrum Kszta\u0142cenia Ustawicznego w Gnie\u017anie",
                "addr:postcode": "62-200",
                "addr:city": "Gniezno",
                "addr:street": "Juliusza S\u0142owackiego",
                "addr:housenumber": "45",
                "addr:door": "47",
                "addr:teryt:simc": 970632,
                "addr:teryt:sym_ul": 20291,
                "phone": "+48 614265341",
                "email": "sekretariat@ckziu.gniezno.pl",
                "ref:regon": "385621672",
                "operator": "Powiat Gnie\u017anie\u0144ski",
                "operator:type": "government",
                "fixme": "w zale\u017cno\u015bci od przedmiotu dzia\u0142alno\u015bci (np. amenity=training + training=*, amenity=dancing_school, amenity=language_school, amenity=music_school)",
                "note": "Parent RSPO: 272291"
            }
        },
        {
            "id": 9277,
            "type": "Feature",
            "geometry": {
                "type": "Point",
                "coordinates": [
                    17.5793,
                    52.53714
                ]
            },
            "properties": {
                "isced:level": "1;2",
                "ref:rspo": 9277,
                "official_name": "Szko\u0142a Podstawowa Nr 3 im. \u015awi\u0119tego Wojciecha",
                "name": "Szko\u0142a Podstawowa Nr 3",
                "addr:postcode": "62-200",
                "addr:city": "Gniezno",
                "addr:street": "Stefana Czarnieckiego",
                "addr:housenumber": "7",
                "addr:teryt:simc": 970632,
                "addr:teryt:sym_ul": 3283,
                "phone": "+48 614264427",
                "email": "sekretariat@sp3.gniezno.eu",
                "website": "http:\/\/www.sp3.gniezno.pl",
                "ref:regon": "001098780",
                "ref:vatin": "PL7841404515",
                "operator": "Miasto Gniezno",
                "operator:type": "government",
                "amenity": "school"
            }
        },
        {
            "id": 133284,
            "type": "Feature",
            "geometry": {
                "type": "Point",
                "coordinates": [
                    17.59812,
                    52.53735
                ]
            },
            "properties": {
                "ref:rspo": 133284,
                "official_name": "Niepubliczna Poradnia Psychologiczno-Pedagogiczna \"Niko\u015b\"",
                "name": "Niepubliczna Poradnia Psychologiczno-Pedagogiczna \"Niko\u015b\"",
                "addr:postcode": "62-200",
                "addr:city": "Gniezno",
                "addr:street": "Grzybowo",
                "addr:housenumber": "4",
                "addr:teryt:simc": 970632,
                "addr:teryt:sym_ul": 6343,
                "phone": "+48 608181070",
                "email": "npppng.4@wp.pl",
                "website": "http:\/\/www.nikos.pl",
                "ref:regon": "366919410",
                "ref:vatin": "PL7842157728",
                "operator": "Gra\u017cyna Talaczy\u0144ska",
                "operator:type": "private",
                "healthcare": "counselling",
                "counselling_type": "education",
                "fixme": "w zale\u017cno\u015bci od przedmiotu dzia\u0142alno\u015bci (np. healthcare=counselling + counselling_type=education albo healthcare=psychotherapist)"
            }
        },
        {
            "id": 12189,
            "type": "Feature",
            "geometry": {
                "type": "Point",
                "coordinates": [
                    17.5789,
                    52.53779
                ]
            },
            "properties": {
                "ref:rspo": 12189,
                "official_name": "Niepubliczne Przedszkole Integracyjne \"Mistrzowie Zabawy\"",
                "name": "Niepubliczne Przedszkole Integracyjne \"Mistrzowie Zabawy\"",
                "addr:postcode": "62-200",
                "addr:city": "Gniezno",
                "addr:street": "Miodowa",
                "addr:housenumber": "6A",
                "addr:teryt:simc": 970632,
                "addr:teryt:sym_ul": 12991,
                "phone": "+48 600415426",
                "email": "mistrzowiezabawy@wp.pl",
                "website": "http:\/\/www.przedszkolegniezno.pl",
                "ref:regon": "302208959",
                "operator": "Marta Pomorska",
                "operator:type": "private",
                "amenity": "kindergarten"
            }
        },
        {
            "id": 111499,
            "type": "Feature",
            "geometry": {
                "type": "Point",
                "coordinates": [
                    17.57364,
                    52.53788
                ]
            },
            "properties": {
                "ref:rspo": 111499,
                "official_name": "Centrum Rozwoju I Edukacji Kompetentni",
                "name": "Centrum Rozwoju I Edukacji Kompetentni",
                "addr:postcode": "62-200",
                "addr:city": "Gniezno",
                "addr:street": "My\u015bliwiecka",
                "addr:housenumber": "32",
                "addr:teryt:simc": 970632,
                "addr:teryt:sym_ul": 13562,
                "phone": "+48 691855437",
                "email": "natalia.poremska@gmail.com",
                "website": "http:\/\/www.kompetentni.edu.pl",
                "ref:regon": "302376616",
                "ref:vatin": "PL7842351689",
                "operator": "Natalia Poremska",
                "operator:type": "private",
                "fixme": "w zale\u017cno\u015bci od przedmiotu dzia\u0142alno\u015bci (np. amenity=training + training=*, amenity=dancing_school, amenity=language_school, amenity=music_school)"
            }
        },
        {
            "id": 111503,
            "type": "Feature",
            "geometry": {
                "type": "Point",
                "coordinates": [
                    17.57364,
                    52.53785
                ]
            },
            "properties": {
                "ref:rspo": 111503,
                "official_name": "Centrum Rozwoju I Edukacji Kompetentni",
                "name": "Centrum Rozwoju I Edukacji Kompetentni",
                "addr:postcode": "62-200",
                "addr:city": "Gniezno",
                "addr:street": "My\u015bliwiecka",
                "addr:housenumber": "32",
                "addr:teryt:simc": 970632,
                "addr:teryt:sym_ul": 13562,
                "phone": "+48 691855437",
                "email": "natalia.poremska@gmail.com",
                "website": "http:\/\/www.kompetentni.edu.pl",
                "ref:regon": "302377283",
                "ref:vatin": "PL7842351689",
                "operator": "Natalia Poremska",
                "operator:type": "private",
                "fixme": "w zale\u017cno\u015bci od przedmiotu dzia\u0142alno\u015bci (np. amenity=training + training=*, amenity=dancing_school, amenity=language_school, amenity=music_school)"
            }
        },
        {
            "id": 109602,
            "type": "Feature",
            "geometry": {
                "type": "Point",
                "coordinates": [
                    17.62217,
                    52.53807
                ]
            },
            "properties": {
                "ref:rspo": 109602,
                "official_name": "Pro-Consulting Tomasz Wachowiak,Alicja Wachowiak",
                "name": "Pro-Consulting Tomasz Wachowiak,Alicja Wachowiak",
                "addr:postcode": "62-200",
                "addr:city": "Gniezno",
                "addr:street": "Stefana \u017beromskiego",
                "addr:housenumber": "38",
                "addr:teryt:simc": 970632,
                "addr:teryt:sym_ul": 26469,
                "phone": "+48 601961925",
                "email": "t_wachowiak@poczta.onet.pl",
                "ref:regon": "302349772",
                "ref:vatin": "PL7842171289",
                "operator": "Tomasz Wachowiak",
                "operator:type": "private",
                "fixme": "w zale\u017cno\u015bci od przedmiotu dzia\u0142alno\u015bci (np. amenity=training + training=*, amenity=dancing_school, amenity=language_school, amenity=music_school)"
            }
        },
        {
            "id": 50284,
            "type": "Feature",
            "geometry": {
                "type": "Point",
                "coordinates": [
                    17.59531,
                    52.5380899
                ]
            },
            "properties": {
                "ref:rspo": 50284,
                "official_name": "Specjalny O\u015brodek Wychowawczy Zgromadzenia Si\u00f3str S\u0142u\u017cebniczek Niepokalanego Pocz\u0119cia Naj\u015bwi\u0119tszej Maryi Panny w Gnie\u017anie",
                "name": "Specjalny O\u015brodek Wychowawczy Zgromadzenia Si\u00f3str S\u0142u\u017cebniczek Niepokalanego Pocz\u0119cia Naj\u015bwi\u0119tszej Maryi Panny w Gnie\u017anie",
                "addr:postcode": "62-200",
                "addr:city": "Gniezno",
                "addr:street": "\u015awi\u0119tego Wojciecha",
                "addr:housenumber": "3",
                "addr:teryt:simc": 970632,
                "addr:teryt:sym_ul": 24581,
                "phone": "+48 614261959",
                "email": "specjalnyosrodek@vp.pl",
                "website": "http:\/\/www.sow.gniezno.pl",
                "ref:regon": "302257930",
                "ref:vatin": "PL7841732998",
                "operator": "Zgromadzenie Si\u00f3str S\u0142u\u017cebniczek Niepokalanego Pocz\u0119cia Naj\u015bwi\u0119tszej Maryi Panny",
                "operator:type": "religious",
                "amenity": "social_facility",
                "social_facility": "group_home",
                "social_facility:for": "child;juvenile"
            }
        },
        {
            "id": 264179,
            "type": "Feature",
            "geometry": {
                "type": "Point",
                "coordinates": [
                    17.60009,
                    52.53812
                ]
            },
            "properties": {
                "ref:rspo": 264179,
                "official_name": "Terapeutyczny Punkt Przedszkolny \"Miaau\"",
                "name": "Terapeutyczny Punkt Przedszkolny \"Miaau\"",
                "addr:postcode": "62-200",
                "addr:city": "Gniezno",
                "addr:street": "\u015awi\u0119tego Jana",
                "addr:housenumber": "8",
                "addr:teryt:simc": 970632,
                "addr:teryt:sym_ul": 7113,
                "email": "zydowo@yahoo.com",
                "website": "http:\/\/www.miaau.pl",
                "ref:regon": "368280833",
                "operator": "Agnieszka Tores",
                "operator:type": "private",
                "amenity": "kindergarten"
            }
        },
        {
            "id": 277834,
            "type": "Feature",
            "geometry": {
                "type": "Point",
                "coordinates": [
                    17.60009,
                    52.53809
                ]
            },
            "properties": {
                "isced:level": "1;2",
                "ref:rspo": 277834,
                "official_name": "Niepubliczna Specjalna Szko\u0142a Podstawowa \"M\u0142ode Or\u0142y\" w Gnie\u017anie",
                "name": "Niepubliczna Specjalna Szko\u0142a Podstawowa \"M\u0142ode Or\u0142y\" w Gnie\u017anie",
                "addr:postcode": "62-200",
                "addr:city": "Gniezno",
                "addr:street": "\u015awi\u0119tego Jana",
                "addr:housenumber": "8",
                "addr:teryt:simc": 970632,
                "addr:teryt:sym_ul": 7113,
                "phone": "+48 885996968",
                "email": "agnieszka_tores@wp.pl",
                "website": "http:\/\/www.miaau.info",
                "ref:regon": "389576075",
                "operator": "Stowarzyszenie Miaau",
                "operator:type": "ngo",
                "amenity": "school"
            }
        },
        {
            "id": 131310,
            "type": "Feature",
            "geometry": {
                "type": "Point",
                "coordinates": [
                    17.62168,
                    52.53812
                ]
            },
            "properties": {
                "ref:rspo": 131310,
                "official_name": "Parytet O\u015brodek Kszta\u0142cenia Zawodowego",
                "name": "Parytet O\u015brodek Kszta\u0142cenia Zawodowego",
                "addr:postcode": "62-200",
                "addr:city": "Gniezno",
                "addr:street": "Stefana \u017beromskiego",
                "addr:housenumber": "31",
                "addr:teryt:simc": 970632,
                "addr:teryt:sym_ul": 26469,
                "phone": "+48 723135084",
                "email": "margareta.gorkowska@gmail.com",
                "ref:regon": "365107637",
                "ref:vatin": "PL7842084797",
                "operator": "Margareta G\u00f3rkowska-Adamczak",
                "operator:type": "private",
                "fixme": "w zale\u017cno\u015bci od przedmiotu dzia\u0142alno\u015bci (np. amenity=training + training=*, amenity=dancing_school, amenity=language_school, amenity=music_school)"
            }
        },
        {
            "id": 196270,
            "type": "Feature",
            "geometry": {
                "type": "Point",
                "coordinates": [
                    17.6064,
                    52.53854
                ]
            },
            "properties": {
                "isced:level": "1;2",
                "ref:rspo": 196270,
                "official_name": "Szko\u0142a Podstawowa Nr 1 im. Zjazdu Gnie\u017anie\u0144skiego",
                "name": "Szko\u0142a Podstawowa Nr 1",
                "addr:postcode": "62-200",
                "addr:city": "Gniezno",
                "addr:street": "\u015awi\u0119tego Jana",
                "addr:housenumber": "2A",
                "addr:teryt:simc": 970632,
                "addr:teryt:sym_ul": 7113,
                "phone": "+48 614261696",
                "email": "szkola@sp1.gniezno.eu",
                "website": "http:\/\/www.sp1gniezno.pl",
                "ref:regon": "367993548",
                "operator": "Miasto Gniezno",
                "operator:type": "government",
                "amenity": "school"
            }
        },
        {
            "id": 11099,
            "type": "Feature",
            "geometry": {
                "type": "Point",
                "coordinates": [
                    17.60405,
                    52.53878
                ]
            },
            "properties": {
                "ref:rspo": 11099,
                "official_name": "Przedszkole im. B\u0142ogos\u0142awionego Edmunda Bojanowskiego Zgromadzenia Si\u00f3str S\u0142u\u017cebniczek Npnmp",
                "name": "Przedszkole",
                "addr:postcode": "62-200",
                "addr:city": "Gniezno",
                "addr:street": "\u015awi\u0119tego Micha\u0142a",
                "addr:housenumber": "18",
                "addr:teryt:simc": 970632,
                "addr:teryt:sym_ul": 12697,
                "phone": "+48 614261045",
                "email": "ochronka.gniezno@wp.pl",
                "ref:regon": "302211631",
                "operator": "Prowincja \u015awi\u0119tego J\u00f3zefa Zgromadzenia Si\u00f3str S\u0142u\u017cebniczek Niepokalanego Pocz\u0119cia Naj\u015bwi\u0119tszej Maryi Panny",
                "operator:type": "religious",
                "amenity": "kindergarten"
            }
        },
        {
            "id": 118651,
            "type": "Feature",
            "geometry": {
                "type": "Point",
                "coordinates": [
                    17.60119,
                    52.53888
                ]
            },
            "properties": {
                "ref:rspo": 118651,
                "official_name": "Przedszkole Tup Tup \nMarcelina Wojtaszek",
                "name": "Przedszkole Tup Tup \nMarcelina Wojtaszek",
                "addr:postcode": "62-200",
                "addr:city": "Gniezno",
                "addr:street": "3 Maja",
                "addr:housenumber": "20",
                "addr:teryt:simc": 970632,
                "addr:teryt:sym_ul": 11937,
                "phone": "+48 608760181",
                "email": "info@etuptup.pl",
                "website": "http:\/\/www.etuptup.pl",
                "ref:regon": "302497805",
                "operator": "Marcelina Wojtaszek",
                "operator:type": "private",
                "amenity": "kindergarten"
            }
        },
        {
            "id": 8375,
            "type": "Feature",
            "geometry": {
                "type": "Point",
                "coordinates": [
                    17.59804,
                    52.53956
                ]
            },
            "properties": {
                "ref:rspo": 8375,
                "official_name": "Przedszkole Nr 5 Mali Przyrodnicy",
                "name": "Przedszkole Nr 5 Mali Przyrodnicy",
                "addr:postcode": "62-200",
                "addr:city": "Gniezno",
                "addr:street": "Rybna",
                "addr:housenumber": "7",
                "addr:teryt:simc": 970632,
                "addr:teryt:sym_ul": 19178,
                "phone": "+48 614261601",
                "email": "maliprzyrodnicy@tlen.pl",
                "website": "http:\/\/p5gniezno.edupage.org",
                "ref:regon": "301590106",
                "ref:vatin": "PL7842470922",
                "operator": "Miasto Gniezno",
                "operator:type": "government",
                "amenity": "kindergarten"
            }
        },
        {
            "id": 8378,
            "type": "Feature",
            "geometry": {
                "type": "Point",
                "coordinates": [
                    17.58135,
                    52.53957
                ]
            },
            "properties": {
                "ref:rspo": 8378,
                "official_name": "Przedszkole Nr 9 Le\u015bne Ludki",
                "name": "Przedszkole Nr 9 Le\u015bne Ludki",
                "addr:postcode": "62-200",
                "addr:city": "Gniezno",
                "addr:street": "Radosna",
                "addr:housenumber": "4",
                "addr:teryt:simc": 970632,
                "addr:teryt:sym_ul": 18322,
                "phone": "+48 614264787",
                "email": "przedszkole9@poczta.onet.pl",
                "website": "http:\/\/www.przedszkole9.gniezno.pl",
                "ref:regon": "301603760",
                "ref:vatin": "PL7842471809",
                "operator": "Miasto Gniezno",
                "operator:type": "government",
                "amenity": "kindergarten"
            }
        },
        {
            "id": 9281,
            "type": "Feature",
            "geometry": {
                "type": "Point",
                "coordinates": [
                    17.61647,
                    52.54079
                ]
            },
            "properties": {
                "isced:level": "1;2",
                "ref:rspo": 9281,
                "official_name": "Szko\u0142a Podstawowa Nr 9 im. Mieszka I",
                "name": "Szko\u0142a Podstawowa Nr 9",
                "addr:postcode": "62-200",
                "addr:city": "Gniezno",
                "addr:street": "Ksi\u0119dza Stanis\u0142awa Staszica",
                "addr:housenumber": "5",
                "addr:teryt:simc": 970632,
                "addr:teryt:sym_ul": 21068,
                "phone": "+48 614265113",
                "email": "sekretariat@sp9.gniezno.eu",
                "website": "http:\/\/www.sp9.gniezno.pl",
                "ref:regon": "000242766",
                "ref:vatin": "PL7841275466",
                "operator": "Miasto Gniezno",
                "operator:type": "government",
                "amenity": "school"
            }
        },
        {
            "id": 8382,
            "type": "Feature",
            "geometry": {
                "type": "Point",
                "coordinates": [
                    17.60799,
                    52.54111
                ]
            },
            "properties": {
                "ref:rspo": 8382,
                "official_name": "Przedszkole Nr 15 \"Pszcz\u00f3\u0142ka Maja\"",
                "name": "Przedszkole Nr 15 \"Pszcz\u00f3\u0142ka Maja\"",
                "addr:postcode": "62-200",
                "addr:city": "Gniezno",
                "addr:street": "Stanis\u0142awa Chudoby",
                "addr:housenumber": "4A",
                "addr:teryt:simc": 970632,
                "addr:teryt:sym_ul": 2925,
                "phone": "+48 614264922",
                "email": "pszczolkamaja15@go2.pl",
                "website": "http:\/\/www.pszczolkamaja15.pl",
                "ref:regon": "301605546",
                "ref:vatin": "PL7842471324",
                "operator": "Miasto Gniezno",
                "operator:type": "government",
                "amenity": "kindergarten"
            }
        },
        {
            "id": 9279,
            "type": "Feature",
            "geometry": {
                "type": "Point",
                "coordinates": [
                    17.6053065,
                    52.5411101
                ]
            },
            "properties": {
                "isced:level": "1;2",
                "ref:rspo": 9279,
                "official_name": "Szko\u0142a Podstawowa Nr 6 im. Henryka Sienkiewicza",
                "name": "Szko\u0142a Podstawowa Nr 6",
                "addr:postcode": "62-200",
                "addr:city": "Gniezno",
                "addr:street": "\u017bwirki i Wigury",
                "addr:housenumber": "22",
                "addr:teryt:simc": 970632,
                "addr:teryt:sym_ul": 26608,
                "phone": "+48 614261325",
                "email": "sekretariat@sp6.gniezno.eu",
                "website": "http:\/\/www.sp6.gniezno.pl",
                "ref:regon": "000240112",
                "ref:vatin": "PL7841275443",
                "operator": "Miasto Gniezno",
                "operator:type": "government",
                "amenity": "school"
            }
        },
        {
            "id": 125128,
            "type": "Feature",
            "geometry": {
                "type": "Point",
                "coordinates": [
                    17.61766,
                    52.54116
                ]
            },
            "properties": {
                "ref:rspo": 125128,
                "official_name": "Niepubliczne Przedszkole Bajkowy \u015awiat",
                "name": "Niepubliczne Przedszkole Bajkowy \u015awiat",
                "addr:postcode": "62-200",
                "addr:city": "Gniezno",
                "addr:street": "Ksi\u0119dza Stanis\u0142awa Staszica",
                "addr:housenumber": "12A",
                "addr:teryt:simc": 970632,
                "addr:teryt:sym_ul": 21068,
                "phone": "+48 533642624",
                "ref:regon": "302827415",
                "operator": "Wiktoria Wiesner",
                "operator:type": "private",
                "amenity": "kindergarten"
            }
        },
        {
            "id": 20522,
            "type": "Feature",
            "geometry": {
                "type": "Point",
                "coordinates": [
                    17.60485,
                    52.54119
                ]
            },
            "properties": {
                "ref:rspo": 20522,
                "official_name": "Specjalny O\u015brodek Szkolno - Wychowawczy Nr1",
                "name": "Specjalny O\u015brodek Szkolno - Wychowawczy Nr1",
                "addr:postcode": "62-200",
                "addr:city": "Gniezno",
                "addr:street": "\u017bwirki i Wigury",
                "addr:housenumber": "27",
                "addr:teryt:simc": 970632,
                "addr:teryt:sym_ul": 26608,
                "phone": "+48 614261422",
                "email": "sosw1.gniezno@post.pl",
                "website": "http:\/\/www.sosw1gniezno.szkolna.net",
                "ref:regon": "000248378",
                "ref:vatin": "PL7841670984",
                "operator": "Powiat Gnie\u017anie\u0144ski",
                "operator:type": "government",
                "amenity": "school",
                "note": "Children RSPO: 56340;132020"
            }
        },
        {
            "id": 56340,
            "type": "Feature",
            "geometry": {
                "type": "Point",
                "coordinates": [
                    17.60485,
                    52.54116
                ]
            },
            "properties": {
                "isced:level": "1;2",
                "ref:rspo": 56340,
                "official_name": "Szko\u0142a Podstawowa Nr 13 Specjalna w Specjalnym O\u015brodku Szkolno - Wychowawczym Nr 1 w Gnie\u017anie",
                "name": "Szko\u0142a Podstawowa Nr 13 Specjalna w Specjalnym O\u015brodku Szkolno - Wychowawczym Nr 1 w Gnie\u017anie",
                "addr:postcode": "62-200",
                "addr:city": "Gniezno",
                "addr:street": "\u017bwirki i Wigury",
                "addr:housenumber": "27",
                "addr:teryt:simc": 970632,
                "addr:teryt:sym_ul": 26608,
                "phone": "+48 614261422",
                "email": "sosw1.gniezno@post.pl",
                "website": "http:\/\/www.sosw1.gniezno.szkolna.net",
                "ref:regon": "302256208",
                "ref:vatin": "PL7841670984",
                "operator": "Powiat Gnie\u017anie\u0144ski",
                "operator:type": "government",
                "amenity": "school",
                "note": "Parent RSPO: 20522"
            }
        },
        {
            "id": 132020,
            "type": "Feature",
            "geometry": {
                "type": "Point",
                "coordinates": [
                    17.60485,
                    52.54113
                ]
            },
            "properties": {
                "ref:rspo": 132020,
                "official_name": "Szko\u0142a Specjalna Przysposabiaj\u0105ca Do Pracy w Gnie\u017anie",
                "name": "Szko\u0142a Specjalna Przysposabiaj\u0105ca Do Pracy w Gnie\u017anie",
                "addr:postcode": "62-200",
                "addr:city": "Gniezno",
                "addr:street": "\u017bwirki i Wigury",
                "addr:housenumber": "27",
                "addr:teryt:simc": 970632,
                "addr:teryt:sym_ul": 26608,
                "phone": "+48 614261422",
                "email": "sosw1.gniezno@post.pl",
                "website": "http:\/\/sosw1gniezno.szkolna.net",
                "ref:regon": "365420179",
                "ref:vatin": "PL7841670984",
                "operator": "Powiat Gnie\u017anie\u0144ski",
                "operator:type": "government",
                "amenity": "school",
                "note": "Parent RSPO: 20522"
            }
        },
        {
            "id": 8380,
            "type": "Feature",
            "geometry": {
                "type": "Point",
                "coordinates": [
                    17.6110856,
                    52.5411943
                ]
            },
            "properties": {
                "ref:rspo": 8380,
                "official_name": "Przedszkole Nr 13 \"Gniazdo Orl\u0105t\"",
                "name": "Przedszkole Nr 13 \"Gniazdo Orl\u0105t\"",
                "addr:postcode": "62-200",
                "addr:city": "Gniezno",
                "addr:street": "J\u00f3zefa Paczkowskiego",
                "addr:housenumber": "11",
                "addr:teryt:simc": 970632,
                "addr:teryt:sym_ul": 15519,
                "phone": "+48 614263650",
                "email": "gniazdo.orlat@wp.pl",
                "website": "http:\/\/www.przedszkole13.gniezno.pl",
                "ref:regon": "301586955",
                "ref:vatin": "PL7842470684",
                "operator": "Miasto Gniezno",
                "operator:type": "government",
                "amenity": "kindergarten"
            }
        },
        {
            "id": 196271,
            "type": "Feature",
            "geometry": {
                "type": "Point",
                "coordinates": [
                    17.6108631,
                    52.5414943
                ]
            },
            "properties": {
                "isced:level": "1;2",
                "ref:rspo": 196271,
                "official_name": "Szko\u0142a Podstawowa Nr 7 im. Powsta\u0144c\u00f3w Wielkopolskich 1918\/1919",
                "name": "Szko\u0142a Podstawowa Nr 7",
                "addr:postcode": "62-200",
                "addr:city": "Gniezno",
                "addr:street": "J\u00f3zefa Paczkowskiego",
                "addr:housenumber": "13",
                "addr:teryt:simc": 970632,
                "addr:teryt:sym_ul": 15519,
                "phone": "+48 614282020",
                "email": "sekretariat@sp7.gniezno.eu",
                "website": "http:\/\/www.sp7gniezno.pl",
                "ref:regon": "367991905",
                "operator": "Miasto Gniezno",
                "operator:type": "government",
                "amenity": "school"
            }
        },
        {
            "id": 11811,
            "type": "Feature",
            "geometry": {
                "type": "Point",
                "coordinates": [
                    17.60922,
                    52.5416
                ]
            },
            "properties": {
                "ref:rspo": 11811,
                "official_name": "Prywatne Przedszkole \"Kajtu\u015b\" Magdalena Wo\u017aniak",
                "name": "Prywatne Przedszkole \"Kajtu\u015b\" Magdalena Wo\u017aniak",
                "addr:postcode": "62-200",
                "addr:city": "Gniezno",
                "addr:street": "Stanis\u0142awa Chudoby",
                "addr:housenumber": "16A",
                "addr:teryt:simc": 970632,
                "addr:teryt:sym_ul": 2925,
                "phone": "+48 696467474",
                "email": "biuro@przedszkolekajtus.pl",
                "website": "http:\/\/www.przedszkolekajtus.pl\/",
                "ref:regon": "302208327",
                "operator": "Magdalena Wo\u017aniak",
                "operator:type": "private",
                "amenity": "kindergarten"
            }
        },
        {
            "id": 127811,
            "type": "Feature",
            "geometry": {
                "type": "Point",
                "coordinates": [
                    17.60922,
                    52.54157
                ]
            },
            "properties": {
                "isced:level": "1;2",
                "ref:rspo": 127811,
                "official_name": "Prywatna Szko\u0142a Podstawowa \"Akademia Maxima\"",
                "name": "Prywatna Szko\u0142a Podstawowa \"Akademia Maxima\"",
                "addr:postcode": "62-200",
                "addr:city": "Gniezno",
                "addr:street": "Stanis\u0142awa Chudoby",
                "addr:housenumber": "16a",
                "addr:teryt:simc": 970632,
                "addr:teryt:sym_ul": 2925,
                "phone": "+48 696467474",
                "email": "szkola@akademiamaxima.pl",
                "website": "http:\/\/akademiamaxima.pl",
                "ref:regon": "361857413",
                "operator": "Magdalena Wo\u017aniak",
                "operator:type": "private",
                "amenity": "school"
            }
        },
        {
            "id": 8377,
            "type": "Feature",
            "geometry": {
                "type": "Point",
                "coordinates": [
                    17.61403,
                    52.54233
                ]
            },
            "properties": {
                "ref:rspo": 8377,
                "official_name": "Przedszkole Nr 8 Mali Polanie",
                "name": "Przedszkole Nr 8 Mali Polanie",
                "addr:postcode": "62-200",
                "addr:city": "Gniezno",
                "addr:street": "Budowlanych",
                "addr:housenumber": "22",
                "addr:teryt:simc": 970632,
                "addr:teryt:sym_ul": 2337,
                "phone": "+48 614262896",
                "email": "malipolanie@op.pl",
                "website": "http:\/\/www.przedszkole8.gniezno.pl",
                "ref:regon": "301585909",
                "ref:vatin": "PL7842470968",
                "operator": "Miasto Gniezno",
                "operator:type": "government",
                "amenity": "kindergarten"
            }
        },
        {
            "id": 277650,
            "type": "Feature",
            "geometry": {
                "type": "Point",
                "coordinates": [
                    17.60958,
                    52.54319
                ]
            },
            "properties": {
                "ref:rspo": 277650,
                "official_name": "Specjalny O\u015brodek Wychowawczy Willa Na Skarpie w Gnie\u017anie",
                "name": "Specjalny O\u015brodek Wychowawczy Willa Na Skarpie w Gnie\u017anie",
                "addr:postcode": "62-200",
                "addr:city": "Gniezno",
                "addr:street": "J\u00f3zefa Paczkowskiego",
                "addr:housenumber": "2",
                "addr:teryt:simc": 970632,
                "addr:teryt:sym_ul": 15519,
                "phone": "+48 781338261",
                "email": "biuro@zpasjadlaswiata.org",
                "website": "http:\/\/www.fundacjapgpasja.org",
                "ref:regon": "389248477",
                "operator": "Fundacja Patryk Gewert Z Pasj\u0105 Dla \u015awiata",
                "operator:type": "ngo",
                "amenity": "social_facility",
                "social_facility": "group_home",
                "social_facility:for": "child;juvenile"
            }
        },
        {
            "id": 8372,
            "type": "Feature",
            "geometry": {
                "type": "Point",
                "coordinates": [
                    17.60033,
                    52.54764
                ]
            },
            "properties": {
                "ref:rspo": 8372,
                "official_name": "Przedszkole Nr 1 Weso\u0142e Nutki",
                "name": "Przedszkole Nr 1 Weso\u0142e Nutki",
                "addr:postcode": "62-200",
                "addr:city": "Gniezno",
                "addr:street": "os. W\u0142adys\u0142awa \u0141okietka",
                "addr:housenumber": "21",
                "addr:teryt:simc": 970632,
                "addr:teryt:sym_ul": 11651,
                "phone": "+48 614266220",
                "email": "wesolenutki1@go2.pl",
                "website": "http:\/\/przedszkole1.eu",
                "ref:regon": "301605670",
                "ref:vatin": "PL7842471330",
                "operator": "Miasto Gniezno",
                "operator:type": "government",
                "amenity": "kindergarten"
            }
        },
        {
            "id": 119606,
            "type": "Feature",
            "geometry": {
                "type": "Point",
                "coordinates": [
                    17.60636,
                    52.5477
                ]
            },
            "properties": {
                "ref:rspo": 119606,
                "official_name": "Niepubliczne Przedszkole \"Orze\u0142ki\" Caritas Archidiecezji Gnie\u017anie\u0144skiej",
                "name": "Niepubliczne Przedszkole \"Orze\u0142ki\" Caritas Archidiecezji Gnie\u017anie\u0144skiej",
                "addr:postcode": "62-200",
                "addr:city": "Gniezno",
                "addr:street": "os. Or\u0142a Bia\u0142ego",
                "addr:housenumber": "20",
                "addr:teryt:simc": 970632,
                "addr:teryt:sym_ul": 15168,
                "phone": "+48 614255782",
                "email": "przedszkoleorzelki@caritas.gniezno.pl",
                "website": "http:\/\/www.orzelki.gniezno.pl",
                "ref:regon": "302520645",
                "operator": "Caritas Archidiecezji Gnie\u017anie\u0144skiej",
                "operator:type": "cooperative",
                "amenity": "kindergarten"
            }
        },
        {
            "id": 196272,
            "type": "Feature",
            "geometry": {
                "type": "Point",
                "coordinates": [
                    17.60763,
                    52.54836
                ]
            },
            "properties": {
                "isced:level": "1;2",
                "ref:rspo": 196272,
                "official_name": "Szko\u0142a Podstawowa Nr 10 im. Polskich Noblist\u00f3w",
                "name": "Szko\u0142a Podstawowa Nr 10",
                "addr:postcode": "62-200",
                "addr:city": "Gniezno",
                "addr:street": "Osiedle Osiedle Or\u0142a Bia\u0142ego",
                "addr:housenumber": "18",
                "addr:teryt:simc": 970632,
                "addr:teryt:sym_ul": 48151,
                "phone": "+48 614242866",
                "email": "sekretariat@sp10.gniezno.eu",
                "website": "http:\/\/www.sp10.gniezno.pl",
                "ref:regon": "367992572",
                "operator": "Miasto Gniezno",
                "operator:type": "government",
                "amenity": "school"
            }
        },
        {
            "id": 8383,
            "type": "Feature",
            "geometry": {
                "type": "Point",
                "coordinates": [
                    17.61014,
                    52.54942
                ]
            },
            "properties": {
                "ref:rspo": 8383,
                "official_name": "Przedszkole Nr 17 \"Piastowska Gromada\"",
                "name": "Przedszkole Nr 17 \"Piastowska Gromada\"",
                "addr:postcode": "62-200",
                "addr:city": "Gniezno",
                "addr:street": "Osiedle Osiedle Piastowskie",
                "addr:housenumber": "18",
                "addr:teryt:simc": 970632,
                "addr:teryt:sym_ul": 42919,
                "phone": "+48 614266160",
                "email": "przedszkole17@op.pl",
                "website": "http:\/\/www.przedszkole17.gniezno.pl",
                "ref:regon": "301612902",
                "ref:vatin": "PL7842472192",
                "operator": "Miasto Gniezno",
                "operator:type": "government",
                "amenity": "kindergarten"
            }
        },
        {
            "id": 8381,
            "type": "Feature",
            "geometry": {
                "type": "Point",
                "coordinates": [
                    17.60401,
                    52.54959
                ]
            },
            "properties": {
                "ref:rspo": 8381,
                "official_name": "Przedszkole Nr 14 \"Mali Piastowie\"",
                "name": "Przedszkole Nr 14 \"Mali Piastowie\"",
                "addr:postcode": "62-200",
                "addr:city": "Gniezno",
                "addr:street": "os. Jagiello\u0144skie",
                "addr:housenumber": "33",
                "addr:teryt:simc": 970632,
                "addr:teryt:sym_ul": 7033,
                "phone": "+48 614266895",
                "email": "p14dyrektor@gmail.com",
                "website": "http:\/\/www.p14gniezno.com",
                "ref:regon": "301612813",
                "ref:vatin": "PL7842472200",
                "operator": "Miasto Gniezno",
                "operator:type": "government",
                "amenity": "kindergarten"
            }
        },
        {
            "id": 9282,
            "type": "Feature",
            "geometry": {
                "type": "Point",
                "coordinates": [
                    17.5990499,
                    52.54962
                ]
            },
            "properties": {
                "isced:level": "1;2",
                "ref:rspo": 9282,
                "official_name": "Szko\u0142a Podstawowa Nr 12 im. Prof. Adama Wodziczki",
                "name": "Szko\u0142a Podstawowa Nr 12",
                "addr:postcode": "62-200",
                "addr:city": "Gniezno",
                "addr:street": "Osiedle Osiedle Kazimierza Wielkiego",
                "addr:housenumber": "33",
                "addr:teryt:simc": 970632,
                "addr:teryt:sym_ul": 48149,
                "phone": "+48 614266443",
                "email": "sekretariat@sp12.gniezno.eu",
                "website": "http:\/\/www.sp12.gniezno.pl",
                "ref:regon": "630372136",
                "ref:vatin": "PL7841396359",
                "operator": "Miasto Gniezno",
                "operator:type": "government",
                "amenity": "school"
            }
        },
        {
            "id": 277969,
            "type": "Feature",
            "geometry": {
                "type": "Point",
                "coordinates": [
                    17.62585,
                    52.55582
                ]
            },
            "properties": {
                "ref:rspo": 277969,
                "official_name": "Niepubliczne Przedszkole \"Planeta Przyg\u00f3d\"",
                "name": "Niepubliczne Przedszkole \"Planeta Przyg\u00f3d\"",
                "addr:postcode": "62-200",
                "addr:city": "Gniezno",
                "addr:street": "Orcholska",
                "addr:housenumber": "62A",
                "addr:teryt:simc": 970632,
                "addr:teryt:sym_ul": 15117,
                "phone": "+48 788333106",
                "email": "planetaprzygod@wp.pl",
                "website": "http:\/\/www.planetaprzygod.pl",
                "ref:regon": "389712549",
                "operator": "Katarzyna Pawlak-Cie\u015blewicz",
                "operator:type": "private",
                "amenity": "kindergarten"
            }
        },
        {
            "id": 277829,
            "type": "Feature",
            "geometry": {
                "type": "Point",
                "coordinates": [
                    17.60749,
                    52.55636
                ]
            },
            "properties": {
                "ref:rspo": 277829,
                "official_name": "Zesp\u00f3\u0142 Plac\u00f3wek Edukacyjno - Wychowawczych w Gnie\u017anie",
                "name": "Zesp\u00f3\u0142 Plac\u00f3wek Edukacyjno - Wychowawczych w Gnie\u017anie",
                "addr:postcode": "62-200",
                "addr:city": "Gniezno",
                "addr:street": "Gda\u0144ska",
                "addr:housenumber": "106",
                "addr:teryt:simc": 970632,
                "addr:teryt:sym_ul": 5431,
                "phone": "+48 614240768",
                "email": "sekretariat.mosgniezno@gmail.com",
                "ref:regon": "389575510",
                "operator": "Powiat Gnie\u017anie\u0144ski",
                "operator:type": "government",
                "landuse": "education",
                "fixme": "amenity=school, amenity=college albo landuse=education w zale\u017cno\u015bci od tego, jakie plac\u00f3wki wchodz\u0105 w sk\u0142ad zespo\u0142u. Sprawd\u017a, kiedy stosowa\u0107 amenity=* a kiedy landuse=education.",
                "note": "Children RSPO: 131261;277844;277845"
            }
        },
        {
            "id": 40540,
            "type": "Feature",
            "geometry": {
                "type": "Point",
                "coordinates": [
                    17.60749,
                    52.556329999999996
                ]
            },
            "properties": {
                "isced:level": "1;2",
                "ref:rspo": 40540,
                "official_name": "Szko\u0142a Podstawowa Specjalna Nr 11 w Gnie\u017anie",
                "name": "Szko\u0142a Podstawowa Specjalna Nr 11 w Gnie\u017anie",
                "addr:postcode": "62-200",
                "addr:city": "Gniezno",
                "addr:street": "Gda\u0144ska",
                "addr:housenumber": "106",
                "addr:teryt:simc": 970632,
                "addr:teryt:sym_ul": 5431,
                "phone": "+48 614240768",
                "email": "sekretariat.mosgniezno@gmail.com",
                "website": "http:\/\/mos.powiat-gniezno.pl",
                "ref:regon": "301156226",
                "ref:vatin": "PL7842442512",
                "operator": "Powiat Gnie\u017anie\u0144ski",
                "operator:type": "government",
                "amenity": "school",
                "note": "Parent RSPO: 131261"
            }
        },
        {
            "id": 131261,
            "type": "Feature",
            "geometry": {
                "type": "Point",
                "coordinates": [
                    17.60749,
                    52.5563
                ]
            },
            "properties": {
                "ref:rspo": 131261,
                "official_name": "M\u0142odzie\u017cowy O\u015brodek Socjoterapii w Gnie\u017anie",
                "name": "M\u0142odzie\u017cowy O\u015brodek Socjoterapii w Gnie\u017anie",
                "addr:postcode": "62-200",
                "addr:city": "Gniezno",
                "addr:street": "Gda\u0144ska",
                "addr:housenumber": "106",
                "addr:teryt:simc": 970632,
                "addr:teryt:sym_ul": 5431,
                "phone": "+48 614240768",
                "email": "sekretariat.mosgniezno@gmail.com",
                "website": "http:\/\/mos.powiat-gniezno.pl",
                "ref:regon": "365076167",
                "operator": "Powiat Gnie\u017anie\u0144ski",
                "operator:type": "government",
                "fixme": "amenity=social_facility + social_facility=group_home + social_facility:for=juvenile",
                "note": "Children RSPO: 40540Parent RSPO: 277829"
            }
        }
    ]
}