{
    "type": "FeatureCollection",
    "features": [
        {
            "id": 58852,
            "type": "Feature",
            "geometry": {
                "type": "Point",
                "coordinates": [
                    17.597551345825,
                    52.538177490234
                ]
            },
            "properties": {
                "ref:rspo": 58852,
                "official_name": "Przedszkole Samorz\u0105dowe",
                "name": "Przedszkole Samorz\u0105dowe",
                "addr:country": "PL",
                "addr:postcode": "62-212",
                "addr:place": "Mieleszyn",
                "addr:housenumber": "24",
                "addr:teryt:simc": 588677,
                "contact:phone": "+48 614295075",
                "contact:email": "przedszkole@mieleszyn.pl",
                "ref:regon": "639527110",
                "ref:vatin": "PL7841396425",
                "operator": "Gmina Mieleszyn",
                "operator:type": "government",
                "amenity": "kindergarten"
            }
        },
        {
            "id": 60223,
            "type": "Feature",
            "geometry": {
                "type": "Point",
                "coordinates": [
                    17.48564,
                    52.63554
                ]
            },
            "properties": {
                "isced:level": "1;2",
                "ref:rspo": 60223,
                "official_name": "Szko\u0142a Podstawowa im. Arkadego Fiedlera w Karniszewie",
                "name": "Szko\u0142a Podstawowa",
                "addr:country": "PL",
                "addr:postcode": "62-212",
                "addr:place": "Karniszewo",
                "addr:housenumber": "11A",
                "addr:teryt:simc": 588631,
                "contact:phone": "+48 614295085",
                "contact:email": "sp_karniszewo@mieleszyn.pl",
                "ref:regon": "001227763",
                "ref:vatin": "PL7842136407",
                "operator": "Gmina Mieleszyn",
                "operator:type": "government",
                "amenity": "school"
            }
        },
        {
            "id": 278082,
            "type": "Feature",
            "geometry": {
                "type": "Point",
                "coordinates": [
                    17.51669,
                    52.6641
                ]
            },
            "properties": {
                "ref:rspo": 278082,
                "official_name": "Przedszkole \"Fantazja\" w Przysiece",
                "name": "Przedszkole \"Fantazja\" w Przysiece",
                "addr:country": "PL",
                "addr:postcode": "62-212",
                "addr:place": "Przysieka",
                "addr:housenumber": "26A",
                "addr:teryt:simc": 588737,
                "contact:email": "awk3@wp.pl",
                "ref:regon": "389763469",
                "operator": "Przedszkole \"Fantazja\" Sp\u00f3\u0142ka Z Ograniczon\u0105 Odpowiedzialno\u015bci\u0105",
                "operator:type": "private",
                "amenity": "kindergarten"
            }
        },
        {
            "id": 59007,
            "type": "Feature",
            "geometry": {
                "type": "Point",
                "coordinates": [
                    17.4930999,
                    52.66893
                ]
            },
            "properties": {
                "isced:level": "1;2",
                "ref:rspo": 59007,
                "official_name": "Szko\u0142a Podstawowa im. Stefana Kard. Wyszy\u0144skiego w Mieleszynie",
                "name": "Szko\u0142a Podstawowa",
                "addr:country": "PL",
                "addr:postcode": "62-212",
                "addr:place": "Mieleszyn",
                "addr:housenumber": "35c",
                "addr:teryt:simc": 588677,
                "contact:phone": "+48 614295078",
                "contact:email": "sekretariat@spmieleszyn.pl",
                "contact:website": "http:\/\/spmieleszyn.superszkolna.pl",
                "ref:regon": "634210873",
                "ref:vatin": "PL7842169298",
                "operator": "Gmina Mieleszyn",
                "operator:type": "government",
                "amenity": "school"
            }
        },
        {
            "id": 60224,
            "type": "Feature",
            "geometry": {
                "type": "Point",
                "coordinates": [
                    17.46242,
                    52.71225
                ]
            },
            "properties": {
                "isced:level": "1;2",
                "ref:rspo": 60224,
                "official_name": "Szko\u0142a Podstawowa im. Stulecia Odzyskania Niepodleg\u0142o\u015bci w \u0141opiennie",
                "name": "Szko\u0142a Podstawowa",
                "addr:country": "PL",
                "addr:postcode": "62-213",
                "addr:place": "\u0141opienno",
                "addr:housenumber": "117",
                "addr:teryt:simc": 588660,
                "contact:phone": "+48 614295088",
                "contact:email": "szkolalopienno@interia.pl",
                "contact:website": "http:\/\/www.szkolalopienno.pl",
                "ref:regon": "001227160",
                "ref:vatin": "PL7842136376",
                "operator": "Gmina Mieleszyn",
                "operator:type": "government",
                "amenity": "school"
            }
        }
    ]
}