{"type":"FeatureCollection","features":[{"id":274458,"type":"Feature","geometry":{"type":"Point","coordinates":[17.7594127,52.5300057]},"properties":{"ref:rspo":274458,"official_name":"Nibylandia Niepubliczne Przedszkole I \u017b\u0142obek Sp. Z O.o.","name":"Nibylandia Niepubliczne Przedszkole I \u017b\u0142obek Sp. Z O.o.","addr:country":"PL","addr:postcode":"62-240","addr:place":"Wymys\u0142owo","addr:housenumber":"32","addr:teryt:sym_ul":98447,"contact:phone":"+48 505826105","contact:email":"nibylandia-pl@wp.pl","ref:regon":"385810539","operator":"Nibylandia Sp.z O.o Niepubliczne Przedszkole I \u017b\u0142obek Sp\u00f3\u0142ka Z Ograniczon\u0105 Odpowiedzialno\u015bci\u0105","operator:type":"private","amenity":"kindergarten"}},{"id":29240,"type":"Feature","geometry":{"type":"Point","coordinates":[17.8979102,52.5476991]},"properties":{"isced:level":"1;2","ref:rspo":29240,"official_name":"Szko\u0142a Podstawowa im. Bohater\u00f3w Wrze\u015bnia 1939 R. w Trzem\u017calu","name":"Szko\u0142a Podstawowa","addr:country":"PL","addr:postcode":"62-235","addr:place":"Trzem\u017cal","addr:housenumber":"56","addr:teryt:sym_ul":98424,"contact:phone":"+48 614154628","contact:email":"sptrzemzal@trzemeszno.pl","contact:website":"http:\/\/www.sptrzemzal.cba.pl","ref:regon":"001156365","ref:vatin":"PL7842382796","operator":"Gmina Trzemeszno","operator:type":"government","amenity":"school"}},{"id":105152,"type":"Feature","geometry":{"type":"Point","coordinates":[17.81816,52.55557]},"properties":{"ref:rspo":105152,"official_name":"Zak\u0142ad Poprawczy w Trzemesznie","name":"Zak\u0142ad Poprawczy w Trzemesznie","addr:country":"PL","addr:postcode":"62-240","addr:city":"Trzemeszno","addr:street":"ul. Adama Mickiewicza","addr:housenumber":"35","addr:teryt:simc":12740,"addr:teryt:sym_ul":929701,"contact:phone":"+48 614154259","contact:email":"sekretariat@trzemeszno.zp.gov.pl","contact:website":"http:\/\/www.trzemeszno.zp.gov.pl","ref:regon":"000321750","operator":"Ministerstwo Sprawiedliwo\u015bci","operator:type":"public","note":"Children RSPO: 124908;124910"}},{"id":124908,"type":"Feature","geometry":{"type":"Point","coordinates":[17.81816,52.55554]},"properties":{"isced:level":"1;2","ref:rspo":124908,"official_name":"Szko\u0142a Podstawowa Nr 4 w Zak\u0142adzie Poprawczym w Trzemesznie","name":"Szko\u0142a Podstawowa Nr 4 w Zak\u0142adzie Poprawczym w Trzemesznie","addr:country":"PL","addr:postcode":"62-240","addr:city":"Trzemeszno","addr:street":"ul. Adama Mickiewicza","addr:housenumber":"35","addr:teryt:simc":12740,"addr:teryt:sym_ul":929701,"contact:phone":"+48 614154260","contact:email":"sekretariat@trzemeszno.zp.gov.pl","contact:website":"http:\/\/www.trzemeszno.zp.gov.pl","ref:regon":"302821230","operator":"Ministerstwo Sprawiedliwo\u015bci","operator:type":"public","amenity":"school","note":"Parent RSPO: 105152"}},{"id":124910,"type":"Feature","geometry":{"type":"Point","coordinates":[17.81816,52.555510000000005]},"properties":{"isced:level":"3","ref:rspo":124910,"official_name":"Bran\u017cowa Szko\u0142a I Stopnia Nr 2 w Zak\u0142adzie Poprawczym w Trzemesznie","name":"Bran\u017cowa Szko\u0142a I Stopnia Nr 2 w Zak\u0142adzie Poprawczym w Trzemesznie","addr:country":"PL","addr:postcode":"62-240","addr:city":"Trzemeszno","addr:street":"ul. Adama Mickiewicza","addr:housenumber":"35","addr:teryt:simc":12740,"addr:teryt:sym_ul":929701,"contact:phone":"+48 614154260","contact:email":"sekretariat@trzemeszno.zp.gov.pl","contact:website":"http:\/\/www.trzemeszno.zp.pl\/","ref:regon":"302821737","operator":"Ministerstwo Sprawiedliwo\u015bci","operator:type":"public","amenity":"school","note":"Parent RSPO: 105152"}},{"id":119033,"type":"Feature","geometry":{"type":"Point","coordinates":[17.81715,52.55903]},"properties":{"ref:rspo":119033,"official_name":"Zesp\u00f3\u0142 Szk\u00f3\u0142 Og\u00f3lnokszta\u0142c\u0105cych I Zawodowych","name":"Zesp\u00f3\u0142 Szk\u00f3\u0142 Og\u00f3lnokszta\u0142c\u0105cych I Zawodowych","addr:country":"PL","addr:postcode":"62-240","addr:city":"Trzemeszno","addr:street":"pl. Micha\u0142a Ko\u015bcieszy-Kosmowskiego","addr:housenumber":"5","addr:teryt:simc":9559,"addr:teryt:sym_ul":929701,"contact:phone":"+48 614154355","contact:email":"zsoiz@zstrzemeszno.pl","contact:website":"http:\/\/www.zstrzemeszno.pl","ref:regon":"302509773","ref:vatin":"PL7842490646","operator":"Gmina Trzemeszno","operator:type":"government","landuse":"education","fixme":"amenity=school, amenity=college albo landuse=education w zale\u017cno\u015bci od tego, jakie plac\u00f3wki wchodz\u0105 w sk\u0142ad zespo\u0142u. Sprawd\u017a, kiedy stosowa\u0107 amenity=* a kiedy landuse=education.","note":"Children RSPO: 29680;29683;56347;130652;266899"}},{"id":29680,"type":"Feature","geometry":{"type":"Point","coordinates":[17.81715,52.559]},"properties":{"isced:level":"3","ref:rspo":29680,"official_name":"Liceum Og\u00f3lnokszta\u0142c\u0105ce im. Micha\u0142a Kosmowskiego w Trzemesznie","name":"Liceum Og\u00f3lnokszta\u0142c\u0105ce","addr:country":"PL","addr:postcode":"62-240","addr:city":"Trzemeszno","addr:street":"pl. Micha\u0142a Ko\u015bcieszy-Kosmowskiego","addr:housenumber":"5","addr:teryt:simc":9559,"addr:teryt:sym_ul":929701,"contact:phone":"+48 614154355","contact:email":"zsoiz@zstrzemeszno.pl","contact:website":"http:\/\/www.zstrzemeszno.pl","ref:regon":"000230964","operator":"Gmina Trzemeszno","operator:type":"government","amenity":"school","note":"Parent RSPO: 119033"}},{"id":29683,"type":"Feature","geometry":{"type":"Point","coordinates":[17.81715,52.55897]},"properties":{"isced:level":"4","ref:rspo":29683,"official_name":"Szko\u0142a Policealna w Trzemesznie","name":"Szko\u0142a Policealna w Trzemesznie","addr:country":"PL","addr:postcode":"62-240","addr:city":"Trzemeszno","addr:street":"pl. Micha\u0142a Ko\u015bcieszy-Kosmowskiego","addr:housenumber":"5","addr:teryt:simc":9559,"addr:teryt:sym_ul":929701,"contact:phone":"+48 614154355","contact:email":"zsoiz@zstrzemeszno.pl","contact:website":"http:\/\/www.zstrzemeszno.pl","ref:regon":"300130271","operator":"Gmina Trzemeszno","operator:type":"government","amenity":"college","note":"Parent RSPO: 119033"}},{"id":56347,"type":"Feature","geometry":{"type":"Point","coordinates":[17.81715,52.55894]},"properties":{"isced:level":"3","ref:rspo":56347,"official_name":"Bran\u017cowa Szko\u0142a I Stopnia im. Hipolita Cegielskiego w Trzemesznie","name":"Bran\u017cowa Szko\u0142a I Stopnia","addr:country":"PL","addr:postcode":"62-240","addr:city":"Trzemeszno","addr:street":"pl. Micha\u0142a Ko\u015bcieszy-Kosmowskiego","addr:housenumber":"5","addr:teryt:simc":9559,"addr:teryt:sym_ul":929701,"contact:phone":"+48 614154355","contact:email":"zsoiz@zstrzemeszno.pl","contact:website":"http:\/\/www.zstrzemeszno.pl","ref:regon":"639853156","ref:vatin":"PL7842210865","operator":"Gmina Trzemeszno","operator:type":"government","amenity":"school","note":"Parent RSPO: 119033"}},{"id":130652,"type":"Feature","geometry":{"type":"Point","coordinates":[17.81715,52.55891]},"properties":{"isced:level":"3","ref:rspo":130652,"official_name":"Liceum Og\u00f3lnokszta\u0142c\u0105ce dla Doros\u0142ych","name":"Liceum Og\u00f3lnokszta\u0142c\u0105ce dla Doros\u0142ych","addr:country":"PL","addr:postcode":"62-240","addr:city":"Trzemeszno","addr:street":"pl. Micha\u0142a Ko\u015bcieszy-Kosmowskiego","addr:housenumber":"5","addr:teryt:simc":9559,"addr:teryt:sym_ul":929701,"contact:phone":"+48 614154355","contact:email":"zsoiz@zstrzemeszno.pl","contact:website":"http:\/\/www.zstrzemeszno.pl","ref:regon":"364285621","operator":"Gmina Trzemeszno","operator:type":"government","amenity":"school","note":"Parent RSPO: 119033"}},{"id":266899,"type":"Feature","geometry":{"type":"Point","coordinates":[17.81715,52.55888]},"properties":{"isced:level":"3","ref:rspo":266899,"official_name":"Technikum w Trzemesznie","name":"Technikum w Trzemesznie","addr:country":"PL","addr:postcode":"62-240","addr:city":"Trzemeszno","addr:street":"pl. Micha\u0142a Ko\u015bcieszy-Kosmowskiego","addr:housenumber":"5","addr:teryt:simc":9559,"addr:teryt:sym_ul":929701,"contact:phone":"+48 614154355","contact:email":"zsoiz@zstrzemeszno.pl","contact:website":"http:\/\/www.zstrzemeszno.pl","ref:regon":"369732556","operator":"Gmina Trzemeszno","operator:type":"government","amenity":"school","note":"Parent RSPO: 119033"}},{"id":26528,"type":"Feature","geometry":{"type":"Point","coordinates":[17.82125,52.55912]},"properties":{"isced:level":"1;2","ref:rspo":26528,"official_name":"Szko\u0142a Podstawowa Nr 2 im. Polskich Olimpijczyk\u00f3w w Trzemesznie","name":"Szko\u0142a Podstawowa Nr 2","addr:country":"PL","addr:postcode":"62-240","addr:city":"Trzemeszno","addr:street":"ul. 1 Maja","addr:housenumber":"11","addr:teryt:simc":11926,"addr:teryt:sym_ul":929701,"contact:phone":"+48 616669761","contact:email":"sp2@trzemeszno.pl","contact:website":"http:\/\/www.tsp2.edu.pl","ref:regon":"001156112","ref:vatin":"PL7842382862","operator":"Gmina Trzemeszno","operator:type":"government","amenity":"school"}},{"id":27302,"type":"Feature","geometry":{"type":"Point","coordinates":[17.82644,52.5594899]},"properties":{"isced:level":"1;2","ref:rspo":27302,"official_name":"Szko\u0142a Podstawowa Nr 1 im. Jana Kili\u0144skiego w Trzemesznie","name":"Szko\u0142a Podstawowa Nr 1","addr:country":"PL","addr:postcode":"62-240","addr:city":"Trzemeszno","addr:street":"ul. Jana i J\u0119drzeja \u015aniadeckich","addr:housenumber":"18","addr:teryt:simc":22383,"addr:teryt:sym_ul":929701,"contact:phone":"+48 616669163","contact:email":"sp1@trzemeszno.pl","contact:website":"http:\/\/www.sp1trzemeszno.pl","ref:regon":"000264584","ref:vatin":"PL7842382879","operator":"Gmina Trzemeszno","operator:type":"government","amenity":"school"}},{"id":27889,"type":"Feature","geometry":{"type":"Point","coordinates":[17.82355,52.5604]},"properties":{"ref:rspo":27889,"official_name":"Przedszkole Nr 1 im. \"Chatka Puchatka\" w Trzemesznie","name":"Przedszkole Nr 1","addr:country":"PL","addr:postcode":"62-240","addr:city":"Trzemeszno","addr:street":"pl. \u015bw. Wojciecha","addr:housenumber":"15","addr:teryt:simc":24580,"addr:teryt:sym_ul":929701,"contact:phone":"+48 616669338","contact:email":"przedszkolenr1@trzemeszno.pl","contact:website":"http:\/\/www.chatka-puchtka.edu.pl","ref:regon":"000264302","ref:vatin":"PL7842389083","operator":"Gmina Trzemeszno","operator:type":"government","amenity":"kindergarten"}},{"id":276482,"type":"Feature","geometry":{"type":"Point","coordinates":[17.82251,52.56142]},"properties":{"ref:rspo":276482,"official_name":"Akademia Szkole\u0144 Obronnych \"Giwera\"","name":"Akademia Szkole\u0144 Obronnych \"Giwera\"","addr:country":"PL","addr:postcode":"62-240","addr:city":"Trzemeszno","addr:street":"pl. Jana Kili\u0144skiego","addr:housenumber":"14","addr:teryt:simc":8434,"addr:teryt:sym_ul":929701,"contact:email":"szkolenia@asog.pl","contact:website":"http:\/\/www.asog.pl","ref:regon":"387156185","operator":"Ryszard Malak","operator:type":"private","fixme":"w zale\u017cno\u015bci od przedmiotu dzia\u0142alno\u015bci (np. amenity=training + training=*, amenity=dancing_school, amenity=language_school, amenity=music_school)"}},{"id":27664,"type":"Feature","geometry":{"type":"Point","coordinates":[17.82795,52.56471]},"properties":{"ref:rspo":27664,"official_name":"Przedszkole Nr 2 im. Misia Uszatka w Trzemesznie","name":"Przedszkole Nr 2","addr:country":"PL","addr:postcode":"62-240","addr:city":"Trzemeszno","addr:street":"ul. Boles\u0142awa Chrobrego","addr:housenumber":"8","addr:teryt:simc":1742,"addr:teryt:sym_ul":929701,"contact:phone":"+48 616669165","contact:email":"przedszkolenr2@trzemeszno.pl","contact:website":"http:\/\/www.mis-uszatek.pl\/","ref:regon":"634428098","ref:vatin":"PL7842382773","operator":"Gmina Trzemeszno","operator:type":"government","amenity":"kindergarten"}},{"id":27401,"type":"Feature","geometry":{"type":"Point","coordinates":[17.8093044,52.6086841]},"properties":{"isced:level":"1;2","ref:rspo":27401,"official_name":"Szko\u0142a Podstawowa im. Powstania Wielkopolskiego w Kruchowie","name":"Szko\u0142a Podstawowa","addr:country":"PL","addr:postcode":"62-240","addr:place":"Kruchowo","addr:housenumber":"1","addr:teryt:sym_ul":98217,"contact:phone":"+48 616669166","contact:email":"spkruchowo@trzemeszno.pl","contact:website":"http:\/\/spkruchowo.superszkolna.pl","ref:regon":"001156342","ref:vatin":"PL7842382804","operator":"Gmina Trzemeszno","operator:type":"government","amenity":"school"}}]}