{
    "type": "FeatureCollection",
    "features": [
        {
            "id": 108881,
            "type": "Feature",
            "geometry": {
                "type": "Point",
                "coordinates": [
                    17.42805,
                    52.48822
                ]
            },
            "properties": {
                "isced:level": "1;2",
                "ref:rspo": 108881,
                "official_name": "Szko\u0142a Podstawowa w Fa\u0142kowie",
                "name": "Szko\u0142a Podstawowa w Fa\u0142kowie",
                "addr:postcode": "62-262",
                "addr:place": "Fa\u0142kowo",
                "addr:housenumber": "1",
                "addr:teryt:simc": 588364,
                "phone": "+48 614275942",
                "email": "spfalkowo@go2.pl",
                "website": "http:\/\/www.spfalkowo.pl",
                "ref:regon": "001227728",
                "ref:vatin": "PL7842473323",
                "operator": "Gmina \u0141ubowo",
                "operator:type": "government",
                "amenity": "school"
            }
        },
        {
            "id": 108882,
            "type": "Feature",
            "geometry": {
                "type": "Point",
                "coordinates": [
                    17.41833,
                    52.4929599
                ]
            },
            "properties": {
                "ref:rspo": 108882,
                "official_name": "Przedszkole Nr 1 w Fa\u0142kowie",
                "name": "Przedszkole Nr 1 w Fa\u0142kowie",
                "addr:postcode": "62-262",
                "addr:place": "Fa\u0142kowo",
                "addr:housenumber": "136A",
                "addr:teryt:simc": 588364,
                "phone": "+48 612278177",
                "email": "przedszkole.falkowo@wp.pl",
                "website": "http:\/\/www.przedszkole.falkowo.szkolnastrona.pl",
                "ref:regon": "632049149",
                "ref:vatin": "PL7842473369",
                "operator": "Gmina \u0141ubowo",
                "operator:type": "government",
                "amenity": "kindergarten"
            }
        },
        {
            "id": 111289,
            "type": "Feature",
            "geometry": {
                "type": "Point",
                "coordinates": [
                    17.50138,
                    52.50978
                ]
            },
            "properties": {
                "ref:rspo": 111289,
                "official_name": "Przedszkole Nr 2 w Wo\u017anikach T\u0119czowy Domek",
                "name": "Przedszkole Nr 2 w Wo\u017anikach T\u0119czowy Domek",
                "addr:postcode": "26-260",
                "addr:place": "Wo\u017aniki",
                "addr:housenumber": "33a",
                "addr:teryt:simc": 588565,
                "phone": "+48 614275941",
                "email": "przedszkole-wozniki@wp.pl",
                "ref:regon": "302373233",
                "ref:vatin": "PL7842299291",
                "operator": "Gmina \u0141ubowo",
                "operator:type": "government",
                "amenity": "kindergarten"
            }
        },
        {
            "id": 108879,
            "type": "Feature",
            "geometry": {
                "type": "Point",
                "coordinates": [
                    17.36676,
                    52.50998
                ]
            },
            "properties": {
                "isced:level": "1;2",
                "ref:rspo": 108879,
                "official_name": "Szko\u0142a Podstawowa Tysi\u0105clecia im. Mieszka I w Lednog\u00f3rze",
                "name": "Szko\u0142a Podstawowa Tysi\u0105clecia",
                "addr:postcode": "62-261",
                "addr:place": "Lednog\u00f3ra",
                "addr:housenumber": "40A",
                "addr:teryt:simc": 588401,
                "phone": "+48 614275939",
                "email": "splednogora@op.pl",
                "website": "http:\/\/www.splednogora.pl",
                "ref:regon": "001227711",
                "ref:vatin": "PL7842473317",
                "operator": "Gmina \u0141ubowo",
                "operator:type": "government",
                "amenity": "school"
            }
        },
        {
            "id": 80382,
            "type": "Feature",
            "geometry": {
                "type": "Point",
                "coordinates": [
                    17.45973,
                    52.51293
                ]
            },
            "properties": {
                "isced:level": "1;2",
                "ref:rspo": 80382,
                "official_name": "Szko\u0142a Podstawowa w \u0141ubowie",
                "name": "Szko\u0142a Podstawowa w \u0141ubowie",
                "addr:postcode": "62-260",
                "addr:place": "\u0141ubowo",
                "addr:housenumber": "13c",
                "addr:teryt:simc": 588430,
                "phone": "+48 614275940",
                "email": "splubowo@op.pl",
                "ref:regon": "000636092",
                "ref:vatin": "PL7842473151",
                "operator": "Gmina \u0141ubowo",
                "operator:type": "government",
                "amenity": "school"
            }
        },
        {
            "id": 108867,
            "type": "Feature",
            "geometry": {
                "type": "Point",
                "coordinates": [
                    17.45403,
                    52.54875
                ]
            },
            "properties": {
                "isced:level": "1;2",
                "ref:rspo": 108867,
                "official_name": "Szko\u0142a Podstawowa im. Tadeusza Ko\u015bciuszki w Owieczkach",
                "name": "Szko\u0142a Podstawowa",
                "addr:postcode": "62-260",
                "addr:place": "Owieczki",
                "addr:housenumber": "11a",
                "addr:teryt:simc": 588460,
                "phone": "+48 614275943",
                "email": "sp_owieczki@lubowo.pl",
                "ref:regon": "001227680",
                "ref:vatin": "PL7842473139",
                "operator": "Gmina \u0141ubowo",
                "operator:type": "government",
                "amenity": "school"
            }
        }
    ]
}