{
    "type": "FeatureCollection",
    "features": [
        {
            "id": 63350,
            "type": "Feature",
            "geometry": {
                "type": "Point",
                "coordinates": [
                    17.35858,
                    52.57723
                ]
            },
            "properties": {
                "isced:level": "1;2",
                "ref:rspo": 63350,
                "official_name": "Szko\u0142a Podstawowa im. Ks.j\u00f3zefa Rado\u0144skiego w S\u0142awnie , 62-265 S\u0142awno, Ul. Gnie\u017anie\u0144ska 37",
                "name": "Szko\u0142a Podstawowa",
                "addr:country": "PL",
                "addr:postcode": "62-265",
                "addr:city": "S\u0142awno",
                "addr:street": "Gnie\u017anie\u0144ska",
                "addr:housenumber": "37",
                "addr:teryt:simc": 5670,
                "addr:teryt:sym_ul": 585012,
                "contact:phone": "+48 614297038",
                "contact:email": "spslawno.edu@gmail.com",
                "contact:website": "http:\/\/www.szkolapodstawowawslawnie.pl.tl",
                "ref:regon": "001224925",
                "ref:vatin": "PL7841619807",
                "operator": "Gmina Kiszkowo",
                "operator:type": "government",
                "amenity": "school"
            }
        },
        {
            "id": 108991,
            "type": "Feature",
            "geometry": {
                "type": "Point",
                "coordinates": [
                    17.25616,
                    52.58921
                ]
            },
            "properties": {
                "ref:rspo": 108991,
                "official_name": "Przedszkole \"Bajka\" Kiszkowo",
                "name": "Przedszkole \"Bajka\" Kiszkowo",
                "addr:country": "PL",
                "addr:postcode": "62-280",
                "addr:city": "Kiszkowo",
                "addr:street": "3 Maja",
                "addr:housenumber": "2",
                "addr:teryt:simc": 11937,
                "addr:teryt:sym_ul": 584892,
                "contact:phone": "+48 614297043",
                "contact:email": "zesp1@wp.pl",
                "ref:regon": "631577739",
                "operator": "Gmina Kiszkowo",
                "operator:type": "government",
                "amenity": "kindergarten",
                "note": "Parent RSPO: 107288"
            }
        },
        {
            "id": 107288,
            "type": "Feature",
            "geometry": {
                "type": "Point",
                "coordinates": [
                    17.25776,
                    52.58941
                ]
            },
            "properties": {
                "ref:rspo": 107288,
                "official_name": "Zesp\u00f3\u0142 Szkolno-Przedszkolny",
                "name": "Zesp\u00f3\u0142 Szkolno-Przedszkolny",
                "addr:country": "PL",
                "addr:postcode": "62-280",
                "addr:city": "Kiszkowo",
                "addr:street": "Szkolna",
                "addr:housenumber": "21",
                "addr:teryt:simc": 21970,
                "addr:teryt:sym_ul": 584892,
                "contact:phone": "+48 614297030",
                "contact:email": "zesp1@wp.pl",
                "ref:regon": "634226615",
                "operator": "Gmina Kiszkowo",
                "operator:type": "government",
                "landuse": "education",
                "fixme": "amenity=school, amenity=college albo landuse=education w zale\u017cno\u015bci od tego, jakie plac\u00f3wki wchodz\u0105 w sk\u0142ad zespo\u0142u. Sprawd\u017a, kiedy stosowa\u0107 amenity=* a kiedy landuse=education.",
                "note": "Children RSPO: 108991;109418"
            }
        },
        {
            "id": 109418,
            "type": "Feature",
            "geometry": {
                "type": "Point",
                "coordinates": [
                    17.25776,
                    52.58938
                ]
            },
            "properties": {
                "isced:level": "1;2",
                "ref:rspo": 109418,
                "official_name": "Szko\u0142a Podstawowa im.witolda Szkudlarka w Kiszkowie",
                "name": "Szko\u0142a Podstawowa im.witolda Szkudlarka w Kiszkowie",
                "addr:country": "PL",
                "addr:postcode": "62-280",
                "addr:city": "Kiszkowo",
                "addr:street": "Szkolna",
                "addr:housenumber": "21",
                "addr:teryt:simc": 21970,
                "addr:teryt:sym_ul": 584892,
                "contact:phone": "+48 614297030",
                "contact:email": "zesp1@wp.pl",
                "ref:regon": "000600332",
                "operator": "Gmina Kiszkowo",
                "operator:type": "government",
                "amenity": "school",
                "note": "Parent RSPO: 107288"
            }
        },
        {
            "id": 107273,
            "type": "Feature",
            "geometry": {
                "type": "Point",
                "coordinates": [
                    17.34504,
                    52.6134
                ]
            },
            "properties": {
                "isced:level": "1;2",
                "ref:rspo": 107273,
                "official_name": "Szko\u0142a Podstawowa\nIm. Wincentego Witosa\n\u0141agiewniki Ko\u015bcielne\n62-272 \u0141agiewniki\nKo\u015bcielne",
                "name": "Szko\u0142a Podstawowa\nIm. Wincentego Witosa\n\u0141agiewniki Ko\u015bcielne\n62-272 \u0141agiewniki\nKo\u015bcielne",
                "addr:country": "PL",
                "addr:postcode": "62-272",
                "addr:place": "\u0141agiewniki Ko\u015bcielne",
                "addr:housenumber": "14",
                "addr:teryt:sym_ul": 584923,
                "contact:phone": "+48 614297041",
                "contact:email": "splagiewniki@poczta.onet.pl",
                "contact:website": "http:\/\/www.facebook.com\/splagiewniki",
                "ref:regon": "001224919",
                "ref:vatin": "PL7841619807",
                "operator": "Gmina Kiszkowo",
                "operator:type": "government",
                "amenity": "school"
            }
        }
    ]
}