{
    "type": "FeatureCollection",
    "features": [
        {
            "id": 278402,
            "type": "Feature",
            "geometry": {
                "type": "Point",
                "coordinates": [
                    23.18689,
                    53.18282
                ]
            },
            "properties": {
                "ref:rspo": 278402,
                "official_name": "Przedszkole Niepubliczne \"Happy II\"",
                "name": "Przedszkole Niepubliczne \"Happy II\"",
                "addr:country": "PL",
                "addr:postcode": "16-010",
                "addr:city": "Wasilk\u00f3w",
                "addr:street": "Nadawki",
                "addr:housenumber": "1",
                "addr:door": "U1",
                "addr:teryt:simc": 923526,
                "addr:teryt:sym_ul": 34962,
                "contact:email": "sekretariat@centrum-happy.pl",
                "contact:website": "http:\/\/www.centrum-happy.pl",
                "ref:regon": "389889549",
                "ref:vatin": "PL5423239389",
                "operator": "Podlaska Akademia Kompetencji Sp\u00f3\u0142ka Z Ograniczon\u0105 Odpowiedzialno\u015bci\u0105",
                "operator:type": "private",
                "amenity": "kindergarten"
            }
        },
        {
            "id": 5215,
            "type": "Feature",
            "geometry": {
                "type": "Point",
                "coordinates": [
                    23.20234,
                    53.19681
                ]
            },
            "properties": {
                "ref:rspo": 5215,
                "official_name": "Przedszkole \"S\u0142oneczne\" w Wasilkowie",
                "name": "Przedszkole \"S\u0142oneczne\" w Wasilkowie",
                "addr:country": "PL",
                "addr:postcode": "16-010",
                "addr:city": "Wasilk\u00f3w",
                "addr:street": "Henryka Sienkiewicza",
                "addr:housenumber": "24",
                "addr:teryt:simc": 923526,
                "addr:teryt:sym_ul": 19834,
                "contact:phone": "+48 857185501",
                "contact:email": "dyrektor@przedszkole.wasilkow.pl",
                "contact:website": "http:\/\/przedszkolewasilkow.szkolnastrona.pl",
                "ref:regon": "000942802",
                "ref:vatin": "PL9660793661",
                "operator": "Gmina Wasilk\u00f3w",
                "operator:type": "government",
                "amenity": "kindergarten"
            }
        },
        {
            "id": 9101,
            "type": "Feature",
            "geometry": {
                "type": "Point",
                "coordinates": [
                    23.15716,
                    53.19804
                ]
            },
            "properties": {
                "ref:rspo": 9101,
                "official_name": "Punkt Przedszkolny \"Bajkowy Dom\" w Jurowcach",
                "name": "Punkt Przedszkolny \"Bajkowy Dom\" w Jurowcach",
                "addr:country": "PL",
                "addr:postcode": "16-010",
                "addr:city": "Jurowce",
                "addr:street": "Wasilkowska",
                "addr:housenumber": "2",
                "addr:teryt:simc": 43541,
                "addr:teryt:sym_ul": 23726,
                "contact:phone": "+48 857436327",
                "contact:email": "dyrektor@przedszkole.wasilkow.pl",
                "contact:website": "http:\/\/przedszkolewasilkow.szkolnastrona.pl\/p,31,bajkowy-dom-w-jurowcach",
                "ref:regon": "200724393",
                "operator": "Gmina Wasilk\u00f3w",
                "operator:type": "government",
                "amenity": "kindergarten"
            }
        },
        {
            "id": 90728,
            "type": "Feature",
            "geometry": {
                "type": "Point",
                "coordinates": [
                    23.15716,
                    53.19801
                ]
            },
            "properties": {
                "isced:level": "1;2",
                "ref:rspo": 90728,
                "official_name": "Szko\u0142a Filialna w Jurowcach",
                "name": "Szko\u0142a Filialna w Jurowcach",
                "addr:country": "PL",
                "addr:postcode": "16-010",
                "addr:city": "Jurowce",
                "addr:street": "Wasilkowska",
                "addr:housenumber": "2",
                "addr:teryt:simc": 43541,
                "addr:teryt:sym_ul": 23726,
                "contact:phone": "+48 857185498",
                "contact:email": "psp_wasilkow@op.pl",
                "ref:regon": "116368400",
                "operator": "Gmina Wasilk\u00f3w",
                "operator:type": "government",
                "amenity": "school",
                "note": "Parent RSPO: 4359"
            }
        },
        {
            "id": 265975,
            "type": "Feature",
            "geometry": {
                "type": "Point",
                "coordinates": [
                    23.20439,
                    53.19832
                ]
            },
            "properties": {
                "ref:rspo": 265975,
                "official_name": "Publiczne Przedszkole Z Oddzia\u0142ami Integracyjnymi \"Tekakwita\" w Wasilkowie",
                "name": "Publiczne Przedszkole Z Oddzia\u0142ami Integracyjnymi \"Tekakwita\" w Wasilkowie",
                "addr:country": "PL",
                "addr:postcode": "16-010",
                "addr:city": "Wasilk\u00f3w",
                "addr:street": "Bia\u0142ostocka",
                "addr:housenumber": "1A",
                "addr:teryt:simc": 923526,
                "addr:teryt:sym_ul": 1184,
                "contact:email": "tekakwita.dyrektor@gmail.com",
                "contact:website": "http:\/\/przedszkole.tekakwita.pl\/",
                "ref:regon": "369111251",
                "ref:vatin": "PL9662099640",
                "operator": "Katarzyna Tymi\u0144ska",
                "operator:type": "private",
                "amenity": "kindergarten"
            }
        },
        {
            "id": 125229,
            "type": "Feature",
            "geometry": {
                "type": "Point",
                "coordinates": [
                    23.20513,
                    53.19876
                ]
            },
            "properties": {
                "ref:rspo": 125229,
                "official_name": "Przedszkole Niepubliczne \"Happy\"",
                "name": "Przedszkole Niepubliczne \"Happy\"",
                "addr:country": "PL",
                "addr:postcode": "16-010",
                "addr:city": "Wasilk\u00f3w",
                "addr:street": "Bia\u0142ostocka",
                "addr:housenumber": "106A\/U1",
                "addr:teryt:simc": 923526,
                "addr:teryt:sym_ul": 1184,
                "contact:phone": "+48 720820678",
                "contact:email": "biuro.happy@gmail.com",
                "contact:website": "https:\/\/centrum-happy.pl\/przedszkole-wasilkow\/przedszkole\/",
                "ref:regon": "200885877",
                "ref:vatin": "PL5423239389",
                "operator": "Podlaska Akademia Kompetencji Sp\u00f3\u0142ka Z Ograniczon\u0105 Odpowiedzialno\u015bci\u0105",
                "operator:type": "private",
                "amenity": "kindergarten"
            }
        },
        {
            "id": 130333,
            "type": "Feature",
            "geometry": {
                "type": "Point",
                "coordinates": [
                    23.20503,
                    53.199
                ]
            },
            "properties": {
                "isced:level": "1;2",
                "ref:rspo": 130333,
                "official_name": "Dwuj\u0119zyczna Prywatna Szko\u0142a Podstawowa im. Antoniego Bu\u0107ko w Wasilkowie",
                "name": "Dwuj\u0119zyczna Prywatna Szko\u0142a Podstawowa",
                "addr:country": "PL",
                "addr:postcode": "16-010",
                "addr:city": "Wasilk\u00f3w",
                "addr:street": "Antoniego Bu\u0107ki",
                "addr:housenumber": "10",
                "addr:teryt:simc": 923526,
                "addr:teryt:sym_ul": 56780,
                "contact:phone": "+48 501508195",
                "contact:email": "wasilkowszkola@gmail.com",
                "contact:website": "http:\/\/www.wasilkowszkola.edupage.org",
                "ref:regon": "363879577",
                "ref:vatin": "PL5421026873",
                "operator": "Katarzyna Tymi\u0144ska",
                "operator:type": "private",
                "amenity": "school"
            }
        },
        {
            "id": 133482,
            "type": "Feature",
            "geometry": {
                "type": "Point",
                "coordinates": [
                    23.2071,
                    53.20018
                ]
            },
            "properties": {
                "isced:level": "1;2",
                "ref:rspo": 133482,
                "official_name": "Szko\u0142a Podstawowa Nr 1 im. Ks Wac\u0142awa Rabczy\u0144skiego w Wasilkowie",
                "name": "Szko\u0142a Podstawowa Nr 1",
                "addr:country": "PL",
                "addr:postcode": "16-010",
                "addr:city": "Wasilk\u00f3w",
                "addr:street": "Adama Mickiewicza",
                "addr:housenumber": "2",
                "addr:teryt:simc": 923526,
                "addr:teryt:sym_ul": 12740,
                "contact:phone": "+48 857185263",
                "contact:email": "dyrektor@sp1wasilkow.pl",
                "contact:website": "http:\/\/www.sp1wasilkow.pl",
                "ref:regon": "367360211",
                "ref:vatin": "PL9662114718",
                "operator": "Gmina Wasilk\u00f3w",
                "operator:type": "government",
                "amenity": "school"
            }
        },
        {
            "id": 274237,
            "type": "Feature",
            "geometry": {
                "type": "Point",
                "coordinates": [
                    23.20613,
                    53.20355
                ]
            },
            "properties": {
                "ref:rspo": 274237,
                "official_name": "Publiczne Przedszkole \"Tekakwita\" w Wasilkowie",
                "name": "Publiczne Przedszkole \"Tekakwita\" w Wasilkowie",
                "addr:country": "PL",
                "addr:postcode": "16-010",
                "addr:city": "Wasilk\u00f3w",
                "addr:street": "Ko\u015bcielna",
                "addr:housenumber": "55",
                "addr:teryt:simc": 923526,
                "addr:teryt:sym_ul": 9546,
                "contact:phone": "+48 601945494",
                "contact:email": "c.chorabik@wp.pl",
                "ref:regon": "385469187",
                "operator": "Cecylia Chorabik",
                "operator:type": "private",
                "amenity": "kindergarten"
            }
        },
        {
            "id": 4359,
            "type": "Feature",
            "geometry": {
                "type": "Point",
                "coordinates": [
                    23.20782,
                    53.2049
                ]
            },
            "properties": {
                "isced:level": "1;2",
                "ref:rspo": 4359,
                "official_name": "Szko\u0142a Podstawowa im. Kr\u00f3la Zygmunta Augusta w Wasilkowie",
                "name": "Szko\u0142a Podstawowa",
                "addr:country": "PL",
                "addr:postcode": "16-010",
                "addr:city": "Wasilk\u00f3w",
                "addr:street": "Polna",
                "addr:housenumber": "1\/4A",
                "addr:teryt:simc": 923526,
                "addr:teryt:sym_ul": 17011,
                "contact:phone": "+48 857185498",
                "contact:email": "psp_wasilkow@op.pl",
                "contact:website": "http:\/\/www.spwasilkow.pl",
                "ref:regon": "001163684",
                "ref:vatin": "PL9661284186",
                "operator": "Gmina Wasilk\u00f3w",
                "operator:type": "government",
                "amenity": "school",
                "note": "Children RSPO: 22857;90728"
            }
        },
        {
            "id": 128596,
            "type": "Feature",
            "geometry": {
                "type": "Point",
                "coordinates": [
                    23.20299,
                    53.2078599
                ]
            },
            "properties": {
                "ref:rspo": 128596,
                "official_name": "Niepubliczna Poradnia Psychologiczno - Pedagogiczna \"B\u0142\u0119kitny Delfin\"",
                "name": "Niepubliczna Poradnia Psychologiczno - Pedagogiczna \"B\u0142\u0119kitny Delfin\"",
                "addr:country": "PL",
                "addr:postcode": "16-010",
                "addr:city": "Wasilk\u00f3w",
                "addr:street": "Krucza",
                "addr:housenumber": "14",
                "addr:door": "1",
                "addr:teryt:simc": 923526,
                "addr:teryt:sym_ul": 10013,
                "contact:phone": "+48 857222655",
                "contact:email": "blekitny.delfin@wp.pl",
                "contact:website": "http:\/\/www.blekitnydelfin.pl",
                "ref:regon": "362335438",
                "operator": "Fundacja Polska Edukacja Im. Komisji Edukacji Narodowej",
                "operator:type": "ngo",
                "healthcare": "counselling",
                "counselling_type": "education",
                "fixme": "w zale\u017cno\u015bci od przedmiotu dzia\u0142alno\u015bci (np. healthcare=counselling + counselling_type=education albo healthcare=psychotherapist)"
            }
        },
        {
            "id": 124385,
            "type": "Feature",
            "geometry": {
                "type": "Point",
                "coordinates": [
                    23.21284,
                    53.21378
                ]
            },
            "properties": {
                "ref:rspo": 124385,
                "official_name": "Niepubliczne Przedszkole \"Weso\u0142e Robaczki\"",
                "name": "Niepubliczne Przedszkole \"Weso\u0142e Robaczki\"",
                "addr:country": "PL",
                "addr:postcode": "16-010",
                "addr:city": "Wasilk\u00f3w",
                "addr:street": "\u015awierkowa",
                "addr:housenumber": "1\/3",
                "addr:teryt:simc": 923526,
                "addr:teryt:sym_ul": 22508,
                "contact:phone": "+48 857423711",
                "contact:email": "biuro@wesolerobaczki.pl",
                "contact:website": "http:\/\/www.wesolerobaczki.pl",
                "ref:regon": "200878660",
                "ref:vatin": "PL9662085804",
                "operator": "Magdalena Bia\u0142ozor",
                "operator:type": "private",
                "amenity": "kindergarten"
            }
        },
        {
            "id": 9136,
            "type": "Feature",
            "geometry": {
                "type": "Point",
                "coordinates": [
                    23.17522,
                    53.21826
                ]
            },
            "properties": {
                "ref:rspo": 9136,
                "official_name": "Punkt Przedszkolny \"Przedszkolak\" w Sochoniach",
                "name": "Punkt Przedszkolny \"Przedszkolak\" w Sochoniach",
                "addr:country": "PL",
                "addr:postcode": "16-010",
                "addr:city": "Sochonie",
                "addr:street": "Ko\u015bcielna",
                "addr:housenumber": "1",
                "addr:teryt:simc": 43660,
                "addr:teryt:sym_ul": 9546,
                "contact:phone": "+48 857185266",
                "contact:email": "dyrektor@przedszkole.wasilkow.pl",
                "contact:website": "http:\/\/przedszkolewasilkow.szkolnastrona.pl\/p,32,punkt-przedszkolny-przedszkolak-w-sochoniach",
                "ref:regon": "200724401",
                "operator": "Gmina Wasilk\u00f3w",
                "operator:type": "government",
                "amenity": "kindergarten"
            }
        },
        {
            "id": 22857,
            "type": "Feature",
            "geometry": {
                "type": "Point",
                "coordinates": [
                    23.17522,
                    53.21823
                ]
            },
            "properties": {
                "isced:level": "1;2",
                "ref:rspo": 22857,
                "official_name": "Szko\u0142a Filialna w Sochoniach",
                "name": "Szko\u0142a Filialna w Sochoniach",
                "addr:country": "PL",
                "addr:postcode": "16-010",
                "addr:city": "Sochonie",
                "addr:street": "Ko\u015bcielna",
                "addr:housenumber": "1",
                "addr:teryt:simc": 43660,
                "addr:teryt:sym_ul": 9546,
                "contact:phone": "+48 857185498",
                "contact:email": "psp_wasilkow@op.pl",
                "ref:regon": "116368400",
                "operator": "Gmina Wasilk\u00f3w",
                "operator:type": "government",
                "amenity": "school",
                "note": "Parent RSPO: 4359"
            }
        },
        {
            "id": 128663,
            "type": "Feature",
            "geometry": {
                "type": "Point",
                "coordinates": [
                    23.28895,
                    53.23615
                ]
            },
            "properties": {
                "isced:level": "3",
                "ref:rspo": 128663,
                "official_name": "Bran\u017cowa Szko\u0142a I Stopnia Syriusz w Wasilkowie",
                "name": "Bran\u017cowa Szko\u0142a I Stopnia Syriusz w Wasilkowie",
                "addr:country": "PL",
                "addr:postcode": "16-010",
                "addr:city": "Wasilk\u00f3w",
                "addr:street": "Supra\u015blska",
                "addr:housenumber": "21",
                "addr:teryt:simc": 923526,
                "addr:teryt:sym_ul": 21586,
                "contact:phone": "+48 570417414",
                "contact:email": "sekretariat@szkolysyriusz.pl",
                "contact:website": "http:\/\/www.szkolysyriusz.pl",
                "ref:regon": "362362607",
                "operator": "Fundacja \"Syriusz\"",
                "operator:type": "ngo",
                "amenity": "school"
            }
        },
        {
            "id": 196377,
            "type": "Feature",
            "geometry": {
                "type": "Point",
                "coordinates": [
                    23.28895,
                    53.23612
                ]
            },
            "properties": {
                "isced:level": "1;2",
                "ref:rspo": 196377,
                "official_name": "Szko\u0142a Podstawowa Syriusz w Wasilkowie",
                "name": "Szko\u0142a Podstawowa Syriusz w Wasilkowie",
                "addr:country": "PL",
                "addr:postcode": "16-010",
                "addr:city": "Wasilk\u00f3w",
                "addr:street": "Supra\u015blska",
                "addr:housenumber": "21",
                "addr:teryt:simc": 923526,
                "addr:teryt:sym_ul": 21586,
                "contact:phone": "+48 570417414",
                "contact:email": "sekretariat@szkolysyriusz.pl",
                "contact:website": "http:\/\/www.szkolysyriusz.pl",
                "ref:regon": "368000532",
                "ref:vatin": "PL5461391030",
                "operator": "Fundacja \"Syriusz\"",
                "operator:type": "ngo",
                "amenity": "school"
            }
        },
        {
            "id": 5148,
            "type": "Feature",
            "geometry": {
                "type": "Point",
                "coordinates": [
                    23.28221,
                    53.2362899
                ]
            },
            "properties": {
                "isced:level": "1;2",
                "ref:rspo": 5148,
                "official_name": "Publiczna Szko\u0142a Podstawowa im. Janusza Korczaka w Studziankach",
                "name": "Publiczna Szko\u0142a Podstawowa",
                "addr:country": "PL",
                "addr:postcode": "16-010",
                "addr:city": "Studzianki",
                "addr:street": "Supra\u015blska",
                "addr:housenumber": "2",
                "addr:teryt:simc": 43676,
                "addr:teryt:sym_ul": 21586,
                "contact:phone": "+48 857184631",
                "contact:email": "sekretariat@psp.wasilkow.pl",
                "contact:website": "http:\/\/www.spstudzianki.szkolnastrona.pl",
                "ref:regon": "001163678",
                "ref:vatin": "PL9661483253",
                "operator": "Gmina Wasilk\u00f3w",
                "operator:type": "government",
                "amenity": "school"
            }
        },
        {
            "id": 20232,
            "type": "Feature",
            "geometry": {
                "type": "Point",
                "coordinates": [
                    23.28221,
                    53.2362599
                ]
            },
            "properties": {
                "ref:rspo": 20232,
                "official_name": "Punkt Przedszkolny \"Ma\u0142e Przedszkole\" w Studziankach",
                "name": "Punkt Przedszkolny \"Ma\u0142e Przedszkole\" w Studziankach",
                "addr:country": "PL",
                "addr:postcode": "16-010",
                "addr:city": "Studzianki",
                "addr:street": "Supra\u015blska",
                "addr:housenumber": "2",
                "addr:teryt:simc": 43676,
                "addr:teryt:sym_ul": 21586,
                "contact:phone": "+48 857184631",
                "contact:email": "dyrektor.spstudzianki@wp.pl",
                "contact:website": "http:\/\/przedszkolowo.pl\/przedszkole\/19153,punkt-przedszkolny-male-przedszkole-w-studziankach",
                "ref:regon": "200730695",
                "operator": "Gmina Wasilk\u00f3w",
                "operator:type": "government",
                "amenity": "kindergarten"
            }
        }
    ]
}