{
    "type": "FeatureCollection",
    "features": [
        {
            "id": 58568,
            "type": "Feature",
            "geometry": {
                "type": "Point",
                "coordinates": [
                    23.05626,
                    53.01199
                ]
            },
            "properties": {
                "ref:rspo": 58568,
                "official_name": "Zesp\u00f3\u0142 Szk\u00f3\u0142 w Turo\u015bni Ko\u015bcielnej",
                "name": "Zesp\u00f3\u0142 Szk\u00f3\u0142 w Turo\u015bni Ko\u015bcielnej",
                "addr:country": "PL",
                "addr:postcode": "18-106",
                "addr:city": "Turo\u015b\u0144 Ko\u015bcielna",
                "addr:street": "Bia\u0142ostocka",
                "addr:housenumber": "4",
                "addr:teryt:simc": 1184,
                "addr:teryt:sym_ul": 43009,
                "contact:phone": "+48 856505210",
                "contact:email": "sekretariat@zs.turosnkoscielna.pl",
                "contact:website": "http:\/\/www.zs.turosnkoscielna.pl",
                "ref:regon": "200487088",
                "ref:vatin": "PL9662071825",
                "operator": "Gmina Turo\u015b\u0144 Ko\u015bcielna",
                "operator:type": "government",
                "landuse": "education",
                "fixme": "amenity=school, amenity=college albo landuse=education w zale\u017cno\u015bci od tego, jakie plac\u00f3wki wchodz\u0105 w sk\u0142ad zespo\u0142u. Sprawd\u017a, kiedy stosowa\u0107 amenity=* a kiedy landuse=education.",
                "note": "Children RSPO: 74598;123580"
            }
        },
        {
            "id": 74598,
            "type": "Feature",
            "geometry": {
                "type": "Point",
                "coordinates": [
                    23.05626,
                    53.011959999999995
                ]
            },
            "properties": {
                "isced:level": "1;2",
                "ref:rspo": 74598,
                "official_name": "Szko\u0142a Podstawowa im. Stanis\u0142awa Staszica w Turo\u015bni Ko\u015bcielnej",
                "name": "Szko\u0142a Podstawowa",
                "addr:country": "PL",
                "addr:postcode": "18-106",
                "addr:city": "Turo\u015b\u0144 Ko\u015bcielna",
                "addr:street": "Bia\u0142ostocka",
                "addr:housenumber": "4",
                "addr:teryt:simc": 1184,
                "addr:teryt:sym_ul": 43009,
                "contact:phone": "+48 856505210",
                "contact:email": "sekretariat@zs.turosnkoscielna.pl",
                "ref:regon": "000270001",
                "operator": "Gmina Turo\u015b\u0144 Ko\u015bcielna",
                "operator:type": "government",
                "amenity": "school",
                "note": "Parent RSPO: 58568"
            }
        },
        {
            "id": 123580,
            "type": "Feature",
            "geometry": {
                "type": "Point",
                "coordinates": [
                    23.05626,
                    53.01193
                ]
            },
            "properties": {
                "ref:rspo": 123580,
                "official_name": "Przedszkole Samorz\u0105dowe w Turo\u015bni Ko\u015bcielnej",
                "name": "Przedszkole Samorz\u0105dowe w Turo\u015bni Ko\u015bcielnej",
                "addr:country": "PL",
                "addr:postcode": "18-106",
                "addr:city": "Turo\u015b\u0144 Ko\u015bcielna",
                "addr:street": "Bia\u0142ostocka",
                "addr:housenumber": "4",
                "addr:teryt:simc": 1184,
                "addr:teryt:sym_ul": 43009,
                "contact:phone": "+48 856505210",
                "contact:email": "sekretariat@zs.turosnkoscielna.pl",
                "ref:regon": "200869766",
                "operator": "Gmina Turo\u015b\u0144 Ko\u015bcielna",
                "operator:type": "government",
                "amenity": "kindergarten",
                "note": "Parent RSPO: 58568"
            }
        },
        {
            "id": 58566,
            "type": "Feature",
            "geometry": {
                "type": "Point",
                "coordinates": [
                    23.00835,
                    53.01947
                ]
            },
            "properties": {
                "isced:level": "1;2",
                "ref:rspo": 58566,
                "official_name": "Szko\u0142a Podstawowa im. Marii Konopnickiej w Turo\u015bni Dolnej",
                "name": "Szko\u0142a Podstawowa",
                "addr:country": "PL",
                "addr:postcode": "18-106",
                "addr:city": "Turo\u015b\u0144 Dolna",
                "addr:street": "Szkolna",
                "addr:housenumber": "2",
                "addr:teryt:simc": 21970,
                "addr:teryt:sym_ul": 42961,
                "contact:phone": "+48 856505120",
                "contact:email": "sekretariat@sptd.turosnkoscielna.pl",
                "ref:regon": "001141582",
                "ref:vatin": "PL9661467774",
                "operator": "Gmina Turo\u015b\u0144 Ko\u015bcielna",
                "operator:type": "government",
                "amenity": "school"
            }
        },
        {
            "id": 58564,
            "type": "Feature",
            "geometry": {
                "type": "Point",
                "coordinates": [
                    23.030976,
                    53.0561809
                ]
            },
            "properties": {
                "isced:level": "1;2",
                "ref:rspo": 58564,
                "official_name": "Szko\u0142a Podstawowa im. Leonarda Prystroma w To\u0142czach",
                "name": "Szko\u0142a Podstawowa",
                "addr:country": "PL",
                "addr:postcode": "18-106",
                "addr:place": "To\u0142cze",
                "addr:housenumber": "6",
                "addr:teryt:sym_ul": 42926,
                "contact:phone": "+48 856504425",
                "contact:email": "sekretariat@sptolcze.turosnkoscielna.pl",
                "ref:regon": "001141599",
                "ref:vatin": "PL9661467863",
                "operator": "Gmina Turo\u015b\u0144 Ko\u015bcielna",
                "operator:type": "government",
                "amenity": "school"
            }
        },
        {
            "id": 58569,
            "type": "Feature",
            "geometry": {
                "type": "Point",
                "coordinates": [
                    23.0480349,
                    53.0885
                ]
            },
            "properties": {
                "ref:rspo": 58569,
                "official_name": "Przedszkole Niepubliczne \"Puchatek\" w Niewodnicy Ko\u015bcielnej",
                "name": "Przedszkole Niepubliczne \"Puchatek\" w Niewodnicy Ko\u015bcielnej",
                "addr:country": "PL",
                "addr:postcode": "18-106",
                "addr:city": "Niewodnica Ko\u015bcielna",
                "addr:street": "Ko\u015bcielna",
                "addr:housenumber": "10",
                "addr:teryt:simc": 9546,
                "addr:teryt:sym_ul": 42814,
                "contact:email": "tmrfly@gmail.com",
                "ref:regon": "200736953",
                "operator": "Tomasz Muszy\u0144ski",
                "operator:type": "private",
                "amenity": "kindergarten"
            }
        },
        {
            "id": 58978,
            "type": "Feature",
            "geometry": {
                "type": "Point",
                "coordinates": [
                    23.0480349,
                    53.08847
                ]
            },
            "properties": {
                "isced:level": "1;2",
                "ref:rspo": 58978,
                "official_name": "Niepubliczna Szko\u0142a Podstawowa w Niewodnicy Ko\u015bcielnej",
                "name": "Niepubliczna Szko\u0142a Podstawowa w Niewodnicy Ko\u015bcielnej",
                "addr:country": "PL",
                "addr:postcode": "18-106",
                "addr:city": "Niewodnica Ko\u015bcielna",
                "addr:street": "Ko\u015bcielna",
                "addr:housenumber": "10",
                "addr:teryt:simc": 9546,
                "addr:teryt:sym_ul": 42814,
                "contact:phone": "+48 856504575",
                "contact:email": "marekdanilewicz@poczta.onet.pl",
                "contact:website": "https:\/\/www.niewodnica.edu.pl",
                "ref:regon": "200737013",
                "ref:vatin": "PL5421691300",
                "operator": "Marek Danilewicz",
                "operator:type": "private",
                "amenity": "school"
            }
        }
    ]
}