{
    "type": "FeatureCollection",
    "features": [
        {
            "id": 49927,
            "type": "Feature",
            "geometry": {
                "type": "Point",
                "coordinates": [
                    20.87011,
                    52.1841
                ]
            },
            "properties": {
                "ref:rspo": 49927,
                "official_name": "Specjalistyczna Poradnia Ma\u0142ego Dziecka Iwe",
                "name": "Specjalistyczna Poradnia Ma\u0142ego Dziecka Iwe",
                "addr:country": "PL",
                "addr:postcode": "02-495",
                "addr:city": "Warszawa",
                "addr:street": "Regulska",
                "addr:housenumber": "86",
                "addr:teryt:simc": 18556,
                "addr:teryt:sym_ul": 918784,
                "contact:phone": "+48 600633888",
                "contact:email": "dyrektor@ledu.com.pl",
                "ref:regon": "146367954",
                "operator": "Ledu Sp\u00f3\u0142ka Z Ograniczon\u0105 Odpowiedzialno\u015bci\u0105",
                "operator:type": "private",
                "healthcare": "counselling",
                "counselling_type": "education",
                "fixme": "w zale\u017cno\u015bci od przedmiotu dzia\u0142alno\u015bci (np. healthcare=counselling + counselling_type=education albo healthcare=psychotherapist)"
            }
        },
        {
            "id": 266313,
            "type": "Feature",
            "geometry": {
                "type": "Point",
                "coordinates": [
                    20.87011,
                    52.18407
                ]
            },
            "properties": {
                "ref:rspo": 266313,
                "official_name": "Punkt Przedszkolny Iwe \"Tumiraj\"",
                "name": "Punkt Przedszkolny Iwe \"Tumiraj\"",
                "addr:country": "PL",
                "addr:postcode": "02-495",
                "addr:city": "Warszawa",
                "addr:street": "Regulska",
                "addr:housenumber": "86",
                "addr:teryt:simc": 18556,
                "addr:teryt:sym_ul": 918784,
                "contact:phone": "+48 600633888",
                "contact:email": "dyrektor@ledu.com.pl",
                "ref:regon": "369417180",
                "operator": "Ledu Sp\u00f3\u0142ka Z Ograniczon\u0105 Odpowiedzialno\u015bci\u0105",
                "operator:type": "private",
                "amenity": "kindergarten"
            }
        },
        {
            "id": 76183,
            "type": "Feature",
            "geometry": {
                "type": "Point",
                "coordinates": [
                    20.8683,
                    52.18457
                ]
            },
            "properties": {
                "ref:rspo": 76183,
                "official_name": "Przedszkole Nr 413 w Warszawie",
                "name": "Przedszkole Nr 413 w Warszawie",
                "addr:country": "PL",
                "addr:postcode": "02-495",
                "addr:city": "Warszawa",
                "addr:street": "G\u00f3rna Droga",
                "addr:housenumber": "10",
                "addr:teryt:simc": 35362,
                "addr:teryt:sym_ul": 918784,
                "contact:phone": "+48 222772109",
                "contact:email": "hzaleska@edu.um.warszawa.pl",
                "contact:website": "http:\/\/www.przedszkole413.pl",
                "ref:regon": "141957579",
                "ref:vatin": "PL5222927616",
                "operator": "Ursus",
                "operator:type": "government",
                "amenity": "kindergarten"
            }
        },
        {
            "id": 83623,
            "type": "Feature",
            "geometry": {
                "type": "Point",
                "coordinates": [
                    20.88217,
                    52.18667
                ]
            },
            "properties": {
                "ref:rspo": 83623,
                "official_name": "Niepubliczne Przedszkole \"Bajeczka\"",
                "name": "Niepubliczne Przedszkole \"Bajeczka\"",
                "addr:country": "PL",
                "addr:postcode": "02-495",
                "addr:city": "Warszawa",
                "addr:street": "Prawnicza",
                "addr:housenumber": "29",
                "addr:teryt:simc": 17457,
                "addr:teryt:sym_ul": 918784,
                "contact:phone": "+48 504814302",
                "contact:email": "bajeczka2@poczta.onet.pl",
                "ref:regon": "146428740",
                "operator": "Agnieszka Chmielewska",
                "operator:type": "private",
                "amenity": "kindergarten"
            }
        },
        {
            "id": 274053,
            "type": "Feature",
            "geometry": {
                "type": "Point",
                "coordinates": [
                    20.8951,
                    52.18689
                ]
            },
            "properties": {
                "ref:rspo": 274053,
                "official_name": "Szko\u0142a Muzyczna Yamaha Mariusz Kolinko",
                "name": "Szko\u0142a Muzyczna Yamaha Mariusz Kolinko",
                "addr:country": "PL",
                "addr:postcode": "02-495",
                "addr:city": "Warszawa",
                "addr:street": "Skoroszewska",
                "addr:housenumber": "26a",
                "addr:door": "29",
                "addr:teryt:simc": 20094,
                "addr:teryt:sym_ul": 918784,
                "contact:email": "milanowek@yamahaszkola.pl",
                "contact:website": "http:\/\/www.milanowek.yamahaszkola.pl",
                "ref:regon": "385092593",
                "operator": "Mariusz Kolinko",
                "operator:type": "private",
                "fixme": "w zale\u017cno\u015bci od przedmiotu dzia\u0142alno\u015bci (np. amenity=training + training=*, amenity=dancing_school, amenity=language_school, amenity=music_school)"
            }
        },
        {
            "id": 133575,
            "type": "Feature",
            "geometry": {
                "type": "Point",
                "coordinates": [
                    20.8882,
                    52.18734
                ]
            },
            "properties": {
                "isced:level": "1;2",
                "ref:rspo": 133575,
                "official_name": "Szko\u0142a Podstawowa Nr 381 im. Krzysztofa Kamila Baczy\u0144skiego",
                "name": "Szko\u0142a Podstawowa Nr 381",
                "addr:country": "PL",
                "addr:postcode": "02-495",
                "addr:city": "Warszawa",
                "addr:street": "Micha\u0142a Drzyma\u0142y",
                "addr:housenumber": "1",
                "addr:teryt:simc": 4317,
                "addr:teryt:sym_ul": 918784,
                "contact:phone": "+48 226627315",
                "contact:email": "sp381@edu.um.warszawa.pl",
                "ref:regon": "367420568",
                "operator": "Ursus",
                "operator:type": "government",
                "amenity": "school"
            }
        },
        {
            "id": 75025,
            "type": "Feature",
            "geometry": {
                "type": "Point",
                "coordinates": [
                    20.88977,
                    52.18942
                ]
            },
            "properties": {
                "isced:level": "1;2",
                "ref:rspo": 75025,
                "official_name": "Szko\u0142a Podstawowa Z Oddzia\u0142ami Integracyjnymi Nr 14 im. Bohater\u00f3w Warszawy w Warszawie",
                "name": "Szko\u0142a Podstawowa Z Oddzia\u0142ami Integracyjnymi Nr 14",
                "addr:country": "PL",
                "addr:postcode": "02-495",
                "addr:city": "Warszawa",
                "addr:street": "gen. Kazimierza Sosnkowskiego",
                "addr:housenumber": "10",
                "addr:teryt:simc": 20596,
                "addr:teryt:sym_ul": 918784,
                "contact:phone": "+48 226626405",
                "contact:email": "szkolapodstawowanr14@op.pl",
                "contact:website": "http:\/\/www.szkolanr14.pl",
                "ref:regon": "000800440",
                "ref:vatin": "PL5222517404",
                "operator": "Ursus",
                "operator:type": "government",
                "amenity": "school"
            }
        },
        {
            "id": 128474,
            "type": "Feature",
            "geometry": {
                "type": "Point",
                "coordinates": [
                    20.90009,
                    52.19013
                ]
            },
            "properties": {
                "ref:rspo": 128474,
                "official_name": "Przedszkole Niepubliczne Artystyczno-J\u0119zykowe Entliczek Pentliczek",
                "name": "Przedszkole Niepubliczne Artystyczno-J\u0119zykowe Entliczek Pentliczek",
                "addr:country": "PL",
                "addr:postcode": "02-495",
                "addr:city": "Warszawa",
                "addr:street": "Skoroszewska",
                "addr:housenumber": "5",
                "addr:door": "7",
                "addr:teryt:simc": 20094,
                "addr:teryt:sym_ul": 918784,
                "contact:phone": "+48 690000658",
                "contact:email": "przedszkole@przedszkoleentliczek.pl",
                "contact:website": "http:\/\/www.przedszkoleentliczek.pl",
                "ref:regon": "362291132",
                "operator": "Patryk Jasi\u0144ski",
                "operator:type": "private",
                "amenity": "kindergarten"
            }
        },
        {
            "id": 110275,
            "type": "Feature",
            "geometry": {
                "type": "Point",
                "coordinates": [
                    20.88216,
                    52.19023
                ]
            },
            "properties": {
                "ref:rspo": 110275,
                "official_name": "Montessori dla Przedszkolak\u00f3w Punkt Przedszkolny",
                "name": "Montessori dla Przedszkolak\u00f3w Punkt Przedszkolny",
                "addr:country": "PL",
                "addr:postcode": "02-495",
                "addr:city": "Warszawa",
                "addr:street": "Prawnicza",
                "addr:housenumber": "58",
                "addr:teryt:simc": 17457,
                "addr:teryt:sym_ul": 918784,
                "contact:phone": "+48 226627475",
                "contact:email": "sekretariat@poem.pl",
                "contact:website": "http:\/\/www.poem.pl",
                "ref:regon": "146552060",
                "operator": "Fundacja \"Daj Mi Czas\"",
                "operator:type": "ngo",
                "amenity": "kindergarten"
            }
        },
        {
            "id": 21436,
            "type": "Feature",
            "geometry": {
                "type": "Point",
                "coordinates": [
                    20.88057,
                    52.1905
                ]
            },
            "properties": {
                "ref:rspo": 21436,
                "official_name": "Niepubliczne Przedszkole Angielsko-Polskie \"Maja\"",
                "name": "Niepubliczne Przedszkole Angielsko-Polskie \"Maja\"",
                "addr:country": "PL",
                "addr:postcode": "02-495",
                "addr:city": "Warszawa",
                "addr:street": "Jerzego Micha\u0142owicza",
                "addr:housenumber": "78",
                "addr:teryt:simc": 12705,
                "addr:teryt:sym_ul": 918784,
                "contact:phone": "+48 660290367",
                "contact:email": "przedszkolejezykowe@interia.pl",
                "contact:website": "http:\/\/przedszkolemaja.pl",
                "ref:regon": "146323550",
                "operator": "Monika Kwiecie\u0144",
                "operator:type": "private",
                "amenity": "kindergarten"
            }
        },
        {
            "id": 84933,
            "type": "Feature",
            "geometry": {
                "type": "Point",
                "coordinates": [
                    20.87962,
                    52.1906
                ]
            },
            "properties": {
                "ref:rspo": 84933,
                "official_name": "Przedszkole Niepubliczne Zgromadzenia Si\u00f3str Imienia Jezus",
                "name": "Przedszkole Niepubliczne Zgromadzenia Si\u00f3str Imienia Jezus",
                "addr:country": "PL",
                "addr:postcode": "02-495",
                "addr:city": "Warszawa",
                "addr:street": "Kaczorowska",
                "addr:housenumber": "3",
                "addr:teryt:simc": 7738,
                "addr:teryt:sym_ul": 918784,
                "contact:phone": "+48 228678117",
                "contact:email": "przedszkole.ursus@poczta.onet.pl",
                "contact:website": "http:\/\/przedszkole-ursus.com.pl",
                "ref:regon": "146442590",
                "operator": "Zgromadzenie Si\u00f3str Naj\u015bwi\u0119tszego Imienia Jezus Pod Opiek\u0105 Maryi Panny Wspomo\u017cenia Wiernych",
                "operator:type": "religious",
                "amenity": "kindergarten"
            }
        },
        {
            "id": 265855,
            "type": "Feature",
            "geometry": {
                "type": "Point",
                "coordinates": [
                    20.88886,
                    52.19093
                ]
            },
            "properties": {
                "ref:rspo": 265855,
                "official_name": "Centrum Edukacji Matematycznej",
                "name": "Centrum Edukacji Matematycznej",
                "addr:country": "PL",
                "addr:postcode": "02-495",
                "addr:city": "Warszawa",
                "addr:street": "gen. Kazimierza Sosnkowskiego",
                "addr:housenumber": "16",
                "addr:teryt:simc": 20596,
                "addr:teryt:sym_ul": 918784,
                "contact:phone": "+48 501489849",
                "ref:regon": "368949897",
                "operator": "W\u0142odzimierz Krawczyk",
                "operator:type": "private",
                "fixme": "w zale\u017cno\u015bci od przedmiotu dzia\u0142alno\u015bci (np. amenity=training + training=*, amenity=dancing_school, amenity=language_school, amenity=music_school)"
            }
        },
        {
            "id": 75540,
            "type": "Feature",
            "geometry": {
                "type": "Point",
                "coordinates": [
                    20.89075,
                    52.1916
                ]
            },
            "properties": {
                "ref:rspo": 75540,
                "official_name": "Przedszkole Nr 112 \"Le\u015bne Skrzaty\" w Warszawie",
                "name": "Przedszkole Nr 112 \"Le\u015bne Skrzaty\" w Warszawie",
                "addr:country": "PL",
                "addr:postcode": "02-495",
                "addr:city": "Warszawa",
                "addr:street": "Bernarda Wapowskiego",
                "addr:housenumber": "3",
                "addr:teryt:simc": 23632,
                "addr:teryt:sym_ul": 918784,
                "contact:phone": "+48 222772122",
                "contact:email": "p112@edu.um.warszawa.pl",
                "contact:website": "http:\/\/www.przedszkole112.com",
                "ref:regon": "013006403",
                "ref:vatin": "PL5222516600",
                "operator": "Ursus",
                "operator:type": "government",
                "amenity": "kindergarten"
            }
        },
        {
            "id": 111909,
            "type": "Feature",
            "geometry": {
                "type": "Point",
                "coordinates": [
                    20.89621,
                    52.1921899
                ]
            },
            "properties": {
                "ref:rspo": 111909,
                "official_name": "Przedszkole Nr 200 \"G\u0105ski Balbinki\"",
                "name": "Przedszkole Nr 200 \"G\u0105ski Balbinki\"",
                "addr:country": "PL",
                "addr:postcode": "02-495",
                "addr:city": "Warszawa",
                "addr:street": "Balbinki",
                "addr:housenumber": "1",
                "addr:teryt:simc": 621,
                "addr:teryt:sym_ul": 918784,
                "contact:phone": "+48 222772120",
                "contact:email": "p200@edu.um.warszawa.pl",
                "contact:website": "http:\/\/www.przedszkole200.pl",
                "ref:regon": "013006389",
                "ref:vatin": "PL5222516540",
                "operator": "Ursus",
                "operator:type": "government",
                "amenity": "kindergarten"
            }
        },
        {
            "id": 74888,
            "type": "Feature",
            "geometry": {
                "type": "Point",
                "coordinates": [
                    20.8954099,
                    52.19272
                ]
            },
            "properties": {
                "isced:level": "1;2",
                "ref:rspo": 74888,
                "official_name": "Szko\u0142a Podstawowa Nr 4 im. W\u0142adys\u0142awa Broniewskiego w Warszawie",
                "name": "Szko\u0142a Podstawowa Nr 4",
                "addr:country": "PL",
                "addr:postcode": "02-495",
                "addr:city": "Warszawa",
                "addr:street": "Walerego S\u0142awka",
                "addr:housenumber": "9",
                "addr:teryt:simc": 20209,
                "addr:teryt:sym_ul": 918784,
                "contact:phone": "+48 226626780",
                "contact:email": "sekretariat@sp4.warszawa.pl",
                "contact:website": "http:\/\/www.sp4.warszawa.pl",
                "ref:regon": "000800456",
                "ref:vatin": "PL5222516994",
                "operator": "Ursus",
                "operator:type": "government",
                "amenity": "school"
            }
        },
        {
            "id": 74903,
            "type": "Feature",
            "geometry": {
                "type": "Point",
                "coordinates": [
                    20.90446,
                    52.19296
                ]
            },
            "properties": {
                "ref:rspo": 74903,
                "official_name": "Hipopo Niepubliczne Przedszkole XXI Wieku Centrum Edukacji Lokalnej",
                "name": "Hipopo Niepubliczne Przedszkole XXI Wieku Centrum Edukacji Lokalnej",
                "addr:country": "PL",
                "addr:postcode": "02-495",
                "addr:city": "Warszawa",
                "addr:street": "Dzieci Warszawy",
                "addr:housenumber": "27a",
                "addr:teryt:simc": 4605,
                "addr:teryt:sym_ul": 918784,
                "contact:phone": "+48 501026220",
                "contact:email": "m.rembowska@wp.pl",
                "contact:website": "http:\/\/www.hipopo.pl",
                "ref:regon": "146373848",
                "operator": "Monika Rembowska",
                "operator:type": "private",
                "amenity": "kindergarten"
            }
        },
        {
            "id": 266036,
            "type": "Feature",
            "geometry": {
                "type": "Point",
                "coordinates": [
                    20.89849,
                    52.19312
                ]
            },
            "properties": {
                "isced:level": "3",
                "ref:rspo": 266036,
                "official_name": "Niepubliczne Liceum Og\u00f3lnokszta\u0142c\u0105ce Montessori w Warszawie",
                "name": "Niepubliczne Liceum Og\u00f3lnokszta\u0142c\u0105ce Montessori w Warszawie",
                "addr:country": "PL",
                "addr:postcode": "02-495",
                "addr:city": "Warszawa",
                "addr:street": "Tomcia Palucha",
                "addr:housenumber": "25",
                "addr:teryt:simc": 22859,
                "addr:teryt:sym_ul": 918784,
                "contact:phone": "+48 226627475",
                "contact:email": "sekretariat@poem.pl",
                "contact:website": "http:\/\/www.liceum-montessori.pl",
                "ref:regon": "369158666",
                "operator": "Fundacja \"Daj Mi Czas\"",
                "operator:type": "ngo",
                "amenity": "school"
            }
        },
        {
            "id": 75717,
            "type": "Feature",
            "geometry": {
                "type": "Point",
                "coordinates": [
                    20.8646299,
                    52.19314
                ]
            },
            "properties": {
                "ref:rspo": 75717,
                "official_name": "Przedszkole Nr 168 \"Misiowa Gromadka\" w Warszawie",
                "name": "Przedszkole Nr 168 \"Misiowa Gromadka\" w Warszawie",
                "addr:country": "PL",
                "addr:postcode": "02-495",
                "addr:city": "Warszawa",
                "addr:street": "Zag\u0142oby",
                "addr:housenumber": "27",
                "addr:teryt:simc": 25353,
                "addr:teryt:sym_ul": 918784,
                "contact:phone": "+48 222772181",
                "contact:email": "p168@edu.um.warszawa.pl",
                "contact:website": "http:\/\/www.przedszkole168.waw.pl",
                "ref:regon": "013006596",
                "ref:vatin": "PL5222516528",
                "operator": "Ursus",
                "operator:type": "government",
                "amenity": "kindergarten"
            }
        },
        {
            "id": 275580,
            "type": "Feature",
            "geometry": {
                "type": "Point",
                "coordinates": [
                    20.909234,
                    52.193262
                ]
            },
            "properties": {
                "isced:level": "1;2",
                "ref:rspo": 275580,
                "official_name": "Niepubliczna Szko\u0142a Podstawowa Z Oddzia\u0142ami Dwuj\u0119zycznymi H2H",
                "name": "Niepubliczna Szko\u0142a Podstawowa Z Oddzia\u0142ami Dwuj\u0119zycznymi H2H",
                "addr:country": "PL",
                "addr:postcode": "02-495",
                "addr:city": "Warszawa",
                "addr:street": "Ry\u017cowa",
                "addr:housenumber": "33b",
                "addr:teryt:simc": 19309,
                "addr:teryt:sym_ul": 918784,
                "contact:phone": "+48 736362676",
                "contact:email": "sekretariat@h2h.edu.pl",
                "contact:website": "http:\/\/www.h2h.edu.pl",
                "ref:regon": "386926327",
                "operator": "Human To Human Sp\u00f3\u0142ka Z Ograniczon\u0105 Odpowiedzialno\u015bci\u0105",
                "operator:type": "private",
                "amenity": "school"
            }
        },
        {
            "id": 80544,
            "type": "Feature",
            "geometry": {
                "type": "Point",
                "coordinates": [
                    20.88611,
                    52.1933
                ]
            },
            "properties": {
                "ref:rspo": 80544,
                "official_name": "Niepubliczne Przedszkole Qbu\u015b",
                "name": "Niepubliczne Przedszkole Qbu\u015b",
                "addr:country": "PL",
                "addr:postcode": "02-495",
                "addr:city": "Warszawa",
                "addr:street": "gen. Kazimierza Sosnkowskiego",
                "addr:housenumber": "32",
                "addr:teryt:simc": 20596,
                "addr:teryt:sym_ul": 918784,
                "contact:phone": "+48 513726235",
                "contact:email": "gusna@op.pl",
                "contact:website": "http:\/\/qbus.edu.pl",
                "ref:regon": "146444821",
                "operator": "Agnieszka Kluska",
                "operator:type": "private",
                "amenity": "kindergarten"
            }
        },
        {
            "id": 75743,
            "type": "Feature",
            "geometry": {
                "type": "Point",
                "coordinates": [
                    20.89628,
                    52.19374
                ]
            },
            "properties": {
                "ref:rspo": 75743,
                "official_name": "Przedszkole Nr 194 w Warszawie",
                "name": "Przedszkole Nr 194 w Warszawie",
                "addr:country": "PL",
                "addr:postcode": "02-495",
                "addr:city": "Warszawa",
                "addr:street": "Walerego S\u0142awka",
                "addr:housenumber": "7",
                "addr:teryt:simc": 20209,
                "addr:teryt:sym_ul": 918784,
                "contact:phone": "+48 226674344",
                "contact:email": "p194@edu.um.warszawa.pl",
                "ref:regon": "013006395",
                "ref:vatin": "PL5222516563",
                "operator": "Ursus",
                "operator:type": "government",
                "amenity": "kindergarten"
            }
        },
        {
            "id": 4778,
            "type": "Feature",
            "geometry": {
                "type": "Point",
                "coordinates": [
                    20.898,
                    52.1937799
                ]
            },
            "properties": {
                "ref:rspo": 4778,
                "official_name": "Przedszkole Z Oddzia\u0142ami Integracyjnymi Nr 418",
                "name": "Przedszkole Z Oddzia\u0142ami Integracyjnymi Nr 418",
                "addr:country": "PL",
                "addr:postcode": "02-495",
                "addr:city": "Warszawa",
                "addr:street": "Jana Marcina Szancera",
                "addr:housenumber": "7",
                "addr:teryt:simc": 21756,
                "addr:teryt:sym_ul": 918784,
                "contact:phone": "+48 502739107",
                "contact:email": "p418@edu.um.warszawa.pl",
                "contact:website": "http:\/\/www.przedszkole418.eprzedszkola.pl",
                "ref:regon": "146263350",
                "ref:vatin": "PL5222998183",
                "operator": "Ursus",
                "operator:type": "government",
                "amenity": "kindergarten"
            }
        },
        {
            "id": 75689,
            "type": "Feature",
            "geometry": {
                "type": "Point",
                "coordinates": [
                    20.86947,
                    52.19383
                ]
            },
            "properties": {
                "ref:rspo": 75689,
                "official_name": "Przedszkole Integracyjne Nr 137 im. Janusza Korczaka w Warszawie",
                "name": "Przedszkole Integracyjne Nr 137",
                "addr:country": "PL",
                "addr:postcode": "02-495",
                "addr:city": "Warszawa",
                "addr:street": "Zag\u0142oby",
                "addr:housenumber": "11",
                "addr:teryt:simc": 25353,
                "addr:teryt:sym_ul": 918784,
                "contact:phone": "+48 222772171",
                "contact:email": "p137@edu.um.warszawa.pl",
                "contact:website": "http:\/\/www.p137.edupage.org",
                "ref:regon": "013006580",
                "ref:vatin": "PL5222516623",
                "operator": "Ursus",
                "operator:type": "government",
                "amenity": "kindergarten"
            }
        },
        {
            "id": 133576,
            "type": "Feature",
            "geometry": {
                "type": "Point",
                "coordinates": [
                    20.86151,
                    52.19385
                ]
            },
            "properties": {
                "isced:level": "1;2",
                "ref:rspo": 133576,
                "official_name": "Szko\u0142a Podstawowa Nr 383 im. Ks. Stefana Kardyna\u0142a Wyszy\u0144skiego",
                "name": "Szko\u0142a Podstawowa Nr 383",
                "addr:country": "PL",
                "addr:postcode": "02-495",
                "addr:city": "Warszawa",
                "addr:street": "Warszawska",
                "addr:housenumber": "63",
                "addr:teryt:simc": 23682,
                "addr:teryt:sym_ul": 918784,
                "contact:phone": "+48 226670932",
                "contact:email": "sp383@edu.um.warszawa.pl",
                "contact:website": "http:\/\/sp383wawa.edupage.org",
                "ref:regon": "367421220",
                "operator": "Ursus",
                "operator:type": "government",
                "amenity": "school"
            }
        },
        {
            "id": 127066,
            "type": "Feature",
            "geometry": {
                "type": "Point",
                "coordinates": [
                    20.89282,
                    52.19398
                ]
            },
            "properties": {
                "ref:rspo": 127066,
                "official_name": "Arka Andrzej Traczyk Niepubliczna Poradnia Psychologiczno-Pedagogiczna",
                "name": "Arka Andrzej Traczyk Niepubliczna Poradnia Psychologiczno-Pedagogiczna",
                "addr:country": "PL",
                "addr:postcode": "02-495",
                "addr:city": "Warszawa",
                "addr:street": "Karola Adamieckiego",
                "addr:housenumber": "3",
                "addr:door": "13",
                "addr:teryt:simc": 105,
                "addr:teryt:sym_ul": 918784,
                "contact:phone": "+48 600215270",
                "contact:email": "arka@poradniaarka.pl",
                "ref:regon": "361084974",
                "operator": "Andrzej Traczyk",
                "operator:type": "private",
                "healthcare": "counselling",
                "counselling_type": "education",
                "fixme": "w zale\u017cno\u015bci od przedmiotu dzia\u0142alno\u015bci (np. healthcare=counselling + counselling_type=education albo healthcare=psychotherapist)"
            }
        },
        {
            "id": 49244,
            "type": "Feature",
            "geometry": {
                "type": "Point",
                "coordinates": [
                    20.87416,
                    52.19411
                ]
            },
            "properties": {
                "ref:rspo": 49244,
                "official_name": "Niepubliczne Przedszkole \"Delfinki\"",
                "name": "Niepubliczne Przedszkole \"Delfinki\"",
                "addr:country": "PL",
                "addr:postcode": "02-495",
                "addr:city": "Warszawa",
                "addr:street": "Orl\u0105t Lwowskich",
                "addr:housenumber": "1",
                "addr:teryt:simc": 15148,
                "addr:teryt:sym_ul": 918784,
                "contact:phone": "+48 693303187",
                "contact:email": "yamaha.ursus@wp.pl",
                "contact:website": "http:\/\/przedszkoledelfinki.pl",
                "ref:regon": "146401496",
                "operator": "Monika Naro\u017cniak",
                "operator:type": "private",
                "amenity": "kindergarten"
            }
        },
        {
            "id": 76142,
            "type": "Feature",
            "geometry": {
                "type": "Point",
                "coordinates": [
                    20.8641599,
                    52.19427
                ]
            },
            "properties": {
                "ref:rspo": 76142,
                "official_name": "Przedszkole Nr 343 \"Na Miodowej G\u00f3rce\"",
                "name": "Przedszkole Nr 343 \"Na Miodowej G\u00f3rce\"",
                "addr:country": "PL",
                "addr:postcode": "02-495",
                "addr:city": "Warszawa",
                "addr:street": "Warszawska",
                "addr:housenumber": "53",
                "addr:teryt:simc": 23682,
                "addr:teryt:sym_ul": 918784,
                "contact:phone": "+48 222772112",
                "contact:email": "p343@edu.um.warszawa.pl",
                "contact:website": "https:\/\/przedszkole343.warszawa.pl",
                "ref:regon": "013006751",
                "ref:vatin": "PL5222516511",
                "operator": "Ursus",
                "operator:type": "government",
                "amenity": "kindergarten"
            }
        },
        {
            "id": 133574,
            "type": "Feature",
            "geometry": {
                "type": "Point",
                "coordinates": [
                    20.89506,
                    52.19454
                ]
            },
            "properties": {
                "isced:level": "1;2",
                "ref:rspo": 133574,
                "official_name": "Szko\u0142a Podstawowa Nr 382 im. Warszawskich Dzieci",
                "name": "Szko\u0142a Podstawowa Nr 382",
                "addr:country": "PL",
                "addr:postcode": "02-495",
                "addr:city": "Warszawa",
                "addr:street": "Koni\u0144ska",
                "addr:housenumber": "2",
                "addr:teryt:simc": 9163,
                "addr:teryt:sym_ul": 918784,
                "contact:phone": "+48 226684797",
                "contact:email": "sekretariat@sp382.warszawa.pl",
                "contact:website": "http:\/\/www.sp382.warszawa.pl",
                "ref:regon": "367420491",
                "ref:vatin": "PL5223095827",
                "operator": "Ursus",
                "operator:type": "government",
                "amenity": "school"
            }
        },
        {
            "id": 21429,
            "type": "Feature",
            "geometry": {
                "type": "Point",
                "coordinates": [
                    20.90565,
                    52.19469
                ]
            },
            "properties": {
                "ref:rspo": 21429,
                "official_name": "\"Ma\u0142e Przedszkole\" Niepubliczne Przedszkole Integracyjne",
                "name": "\"Ma\u0142e Przedszkole\" Niepubliczne Przedszkole Integracyjne",
                "addr:country": "PL",
                "addr:postcode": "02-495",
                "addr:city": "Warszawa",
                "addr:street": "Apartamentowa",
                "addr:housenumber": "12",
                "addr:door": "A",
                "addr:teryt:simc": 34314,
                "addr:teryt:sym_ul": 918784,
                "contact:phone": "+48 694759151",
                "contact:email": "perla_misaki@wp.pl",
                "ref:regon": "146326441",
                "operator": "Centrum Tw\u00f3rczej Edukacji Sp\u00f3\u0142ka Z Ograniczon\u0105 Odpowiedzialno\u015bci\u0105",
                "operator:type": "private",
                "amenity": "kindergarten"
            }
        },
        {
            "id": 264411,
            "type": "Feature",
            "geometry": {
                "type": "Point",
                "coordinates": [
                    20.88645,
                    52.1947199
                ]
            },
            "properties": {
                "ref:rspo": 264411,
                "official_name": "Publiczne Przedszkole Biedroneczka",
                "name": "Publiczne Przedszkole Biedroneczka",
                "addr:country": "PL",
                "addr:postcode": "02-495",
                "addr:city": "Warszawa",
                "addr:street": "Rynkowa",
                "addr:housenumber": "6",
                "addr:teryt:simc": 19285,
                "addr:teryt:sym_ul": 918784,
                "contact:phone": "+48 228249682",
                "contact:email": "mybiedroneczki@wp.pl",
                "ref:regon": "368335238",
                "operator": "Barbara Fr\u0105czek",
                "operator:type": "private",
                "amenity": "kindergarten"
            }
        },
        {
            "id": 276764,
            "type": "Feature",
            "geometry": {
                "type": "Point",
                "coordinates": [
                    20.90569,
                    52.19501
                ]
            },
            "properties": {
                "ref:rspo": 276764,
                "official_name": "Publiczne Przedszkole \"Ma\u0142e Przedszkole\"",
                "name": "Publiczne Przedszkole \"Ma\u0142e Przedszkole\"",
                "addr:country": "PL",
                "addr:postcode": "02-495",
                "addr:city": "Warszawa",
                "addr:street": "Apartamentowa",
                "addr:housenumber": "12a",
                "addr:teryt:simc": 34314,
                "addr:teryt:sym_ul": 918784,
                "contact:phone": "+48 694759151",
                "contact:email": "maleprzedszkole@strona.pl",
                "ref:regon": "387533274",
                "operator": "Monika Amanowicz",
                "operator:type": "private",
                "amenity": "kindergarten"
            }
        },
        {
            "id": 83306,
            "type": "Feature",
            "geometry": {
                "type": "Point",
                "coordinates": [
                    20.8839,
                    52.19522
                ]
            },
            "properties": {
                "ref:rspo": 83306,
                "official_name": "Integracyjne Niepubliczne Przedszkole Montessori \"Elipsoida\"",
                "name": "Integracyjne Niepubliczne Przedszkole Montessori \"Elipsoida\"",
                "addr:country": "PL",
                "addr:postcode": "02-495",
                "addr:city": "Warszawa",
                "addr:street": "Cierlicka",
                "addr:housenumber": "19",
                "addr:teryt:simc": 3036,
                "addr:teryt:sym_ul": 918784,
                "contact:phone": "+48 223749808",
                "contact:email": "montessori@elipsoida.pl",
                "contact:website": "http:\/\/www.elispoida.pl",
                "ref:regon": "146429804",
                "operator": "Dominika Malkus-Jankowska",
                "operator:type": "private",
                "amenity": "kindergarten"
            }
        },
        {
            "id": 126716,
            "type": "Feature",
            "geometry": {
                "type": "Point",
                "coordinates": [
                    20.88698,
                    52.19526
                ]
            },
            "properties": {
                "ref:rspo": 126716,
                "official_name": "Niepubliczna Plac\u00f3wka O\u015bwiatowa Legion",
                "name": "Niepubliczna Plac\u00f3wka O\u015bwiatowa Legion",
                "addr:country": "PL",
                "addr:postcode": "02-495",
                "addr:city": "Warszawa",
                "addr:street": "Bohater\u00f3w Warszawy",
                "addr:housenumber": "26",
                "addr:door": "28",
                "addr:teryt:simc": 1679,
                "addr:teryt:sym_ul": 918784,
                "contact:phone": "+48 602597477",
                "contact:email": "info@legionszkolenia.pl",
                "ref:regon": "360659450",
                "operator": "Grzegorz O\u017carek",
                "operator:type": "private",
                "fixme": "w zale\u017cno\u015bci od przedmiotu dzia\u0142alno\u015bci (np. amenity=training + training=*, amenity=dancing_school, amenity=language_school, amenity=music_school)"
            }
        },
        {
            "id": 267726,
            "type": "Feature",
            "geometry": {
                "type": "Point",
                "coordinates": [
                    20.89548,
                    52.19527
                ]
            },
            "properties": {
                "ref:rspo": 267726,
                "official_name": "Przedszkole Nr 439",
                "name": "Przedszkole Nr 439",
                "addr:country": "PL",
                "addr:postcode": "02-495",
                "addr:city": "Warszawa",
                "addr:street": "Walerego S\u0142awka",
                "addr:housenumber": "2a",
                "addr:teryt:simc": 20209,
                "addr:teryt:sym_ul": 918784,
                "contact:phone": "+48 797891881",
                "contact:email": "p439@edu.um.warszawa.pl",
                "ref:regon": "380575074",
                "ref:vatin": "PL5223134674",
                "operator": "Ursus",
                "operator:type": "government",
                "amenity": "kindergarten"
            }
        },
        {
            "id": 267382,
            "type": "Feature",
            "geometry": {
                "type": "Point",
                "coordinates": [
                    20.88991,
                    52.1953699
                ]
            },
            "properties": {
                "ref:rspo": 267382,
                "official_name": "Przedszkole Niepubliczne \"Edu Szkraby\"",
                "name": "Przedszkole Niepubliczne \"Edu Szkraby\"",
                "addr:country": "PL",
                "addr:postcode": "02-495",
                "addr:city": "Warszawa",
                "addr:street": "Henryka Opie\u0144skiego",
                "addr:housenumber": "1",
                "addr:teryt:simc": 15082,
                "addr:teryt:sym_ul": 918784,
                "contact:phone": "+48 509744521",
                "contact:email": "przedszkole@eduszkraby.pl",
                "ref:regon": "380244101",
                "operator": "El\u017cbieta Tryburcy-Kubacka",
                "operator:type": "private",
                "amenity": "kindergarten"
            }
        },
        {
            "id": 266188,
            "type": "Feature",
            "geometry": {
                "type": "Point",
                "coordinates": [
                    20.86311,
                    52.19544
                ]
            },
            "properties": {
                "ref:rspo": 266188,
                "official_name": "O\u015brodek Doskonalenia Kadr Ergon",
                "name": "O\u015brodek Doskonalenia Kadr Ergon",
                "addr:country": "PL",
                "addr:postcode": "02-496",
                "addr:city": "Warszawa",
                "addr:street": "Warszawska",
                "addr:housenumber": "58C",
                "addr:door": "47",
                "addr:teryt:simc": 23682,
                "addr:teryt:sym_ul": 918784,
                "contact:phone": "+48 224785729",
                "contact:email": "biuro@bhp-ergon.pl",
                "ref:regon": "369341005",
                "operator": "Tadeusz Knotek",
                "operator:type": "private",
                "fixme": "w zale\u017cno\u015bci od przedmiotu dzia\u0142alno\u015bci (np. amenity=training + training=*, amenity=dancing_school, amenity=language_school, amenity=music_school)"
            }
        },
        {
            "id": 272119,
            "type": "Feature",
            "geometry": {
                "type": "Point",
                "coordinates": [
                    20.87955,
                    52.19578
                ]
            },
            "properties": {
                "ref:rspo": 272119,
                "official_name": "Przedszkole Nr 441",
                "name": "Przedszkole Nr 441",
                "addr:country": "PL",
                "addr:postcode": "02-495",
                "addr:city": "Warszawa",
                "addr:street": "Stanis\u0142awa Wojciechowskiego",
                "addr:housenumber": "13",
                "addr:teryt:simc": 24589,
                "addr:teryt:sym_ul": 918784,
                "contact:phone": "+48 502412654",
                "contact:email": "p441@edu.um.warszawa.pl",
                "contact:website": "http:\/\/p441.waw.pl",
                "ref:regon": "383942900",
                "operator": "Ursus",
                "operator:type": "government",
                "amenity": "kindergarten"
            }
        },
        {
            "id": 69861,
            "type": "Feature",
            "geometry": {
                "type": "Point",
                "coordinates": [
                    20.89181,
                    52.19601
                ]
            },
            "properties": {
                "ref:rspo": 69861,
                "official_name": "Niepubliczne Przedszkole Edukacyjno-Sportowe \"Bambino\"",
                "name": "Niepubliczne Przedszkole Edukacyjno-Sportowe \"Bambino\"",
                "addr:country": "PL",
                "addr:postcode": "02-495",
                "addr:city": "Warszawa",
                "addr:street": "Rakietnik\u00f3w",
                "addr:housenumber": "15",
                "addr:teryt:simc": 18414,
                "addr:teryt:sym_ul": 918784,
                "contact:phone": "+48 226626129",
                "contact:email": "info@przedszkola-bambino.pl",
                "ref:regon": "146442087",
                "operator": "Igor Zbrzeski",
                "operator:type": "private",
                "amenity": "kindergarten"
            }
        },
        {
            "id": 85247,
            "type": "Feature",
            "geometry": {
                "type": "Point",
                "coordinates": [
                    20.89889,
                    52.19607
                ]
            },
            "properties": {
                "ref:rspo": 85247,
                "official_name": "Niepubliczne Przedszkole Integracyjne \"Bia\u0142y Mi\u015b\"",
                "name": "Niepubliczne Przedszkole Integracyjne \"Bia\u0142y Mi\u015b\"",
                "addr:country": "PL",
                "addr:postcode": "02-495",
                "addr:city": "Warszawa",
                "addr:street": "Dzieci Warszawy",
                "addr:housenumber": "42",
                "addr:teryt:simc": 4605,
                "addr:teryt:sym_ul": 918784,
                "contact:phone": "+48 793432318",
                "contact:email": "jaroslaw.bialy@gmail.com",
                "contact:website": "http:\/\/www.mikolajek.waw.pl",
                "ref:regon": "146429655",
                "operator": "Ewa Bia\u0142y",
                "operator:type": "private",
                "amenity": "kindergarten"
            }
        },
        {
            "id": 105214,
            "type": "Feature",
            "geometry": {
                "type": "Point",
                "coordinates": [
                    20.89889,
                    52.196039999999996
                ]
            },
            "properties": {
                "isced:level": "3",
                "ref:rspo": 105214,
                "official_name": "Lvi Liceum Og\u00f3lnokszta\u0142c\u0105ce im. Rotmistrza Witolda Pileckiego",
                "name": "Lvi Liceum Og\u00f3lnokszta\u0142c\u0105ce",
                "addr:country": "PL",
                "addr:postcode": "02-495",
                "addr:city": "Warszawa",
                "addr:street": "Dzieci Warszawy",
                "addr:housenumber": "42",
                "addr:teryt:simc": 4605,
                "addr:teryt:sym_ul": 918784,
                "contact:phone": "+48 226626412",
                "contact:email": "lo56@edu.um.warszawa.pl",
                "contact:website": "http:\/\/56lo.waw.pl",
                "ref:regon": "000799279",
                "operator": "Ursus",
                "operator:type": "government",
                "amenity": "school"
            }
        },
        {
            "id": 105215,
            "type": "Feature",
            "geometry": {
                "type": "Point",
                "coordinates": [
                    20.89889,
                    52.19601
                ]
            },
            "properties": {
                "ref:rspo": 105215,
                "official_name": "Zesp\u00f3\u0142 Szk\u00f3\u0142 Nr 42",
                "name": "Zesp\u00f3\u0142 Szk\u00f3\u0142 Nr 42",
                "addr:country": "PL",
                "addr:postcode": "02-495",
                "addr:city": "Warszawa",
                "addr:street": "Dzieci Warszawy",
                "addr:housenumber": "42",
                "addr:teryt:simc": 4605,
                "addr:teryt:sym_ul": 918784,
                "contact:phone": "+48 226626281",
                "contact:email": "zs42@karski.edu.pl",
                "contact:website": "http:\/\/www.zsnr42.edu.pl",
                "ref:regon": "000040100",
                "ref:vatin": "PL5221010117",
                "operator": "Ursus",
                "operator:type": "government",
                "landuse": "education",
                "fixme": "amenity=school, amenity=college albo landuse=education w zale\u017cno\u015bci od tego, jakie plac\u00f3wki wchodz\u0105 w sk\u0142ad zespo\u0142u. Sprawd\u017a, kiedy stosowa\u0107 amenity=* a kiedy landuse=education.",
                "note": "Children RSPO: 122179;122181;129029"
            }
        },
        {
            "id": 105216,
            "type": "Feature",
            "geometry": {
                "type": "Point",
                "coordinates": [
                    20.89889,
                    52.19598
                ]
            },
            "properties": {
                "ref:rspo": 105216,
                "official_name": "Poradnia Psychologiczno-Pedagogiczna Nr 15",
                "name": "Poradnia Psychologiczno-Pedagogiczna Nr 15",
                "addr:country": "PL",
                "addr:postcode": "02-495",
                "addr:city": "Warszawa",
                "addr:street": "Dzieci Warszawy",
                "addr:housenumber": "42",
                "addr:teryt:simc": 4605,
                "addr:teryt:sym_ul": 918784,
                "contact:phone": "+48 228867328",
                "contact:email": "sekretariat@poradnia15.pl",
                "contact:website": "http:\/\/www.poradnia15.pl",
                "ref:regon": "000838252",
                "ref:vatin": "PL5222677438",
                "operator": "Ursus",
                "operator:type": "government",
                "healthcare": "counselling",
                "counselling_type": "education",
                "fixme": "w zale\u017cno\u015bci od przedmiotu dzia\u0142alno\u015bci (np. healthcare=counselling + counselling_type=education albo healthcare=psychotherapist)"
            }
        },
        {
            "id": 267728,
            "type": "Feature",
            "geometry": {
                "type": "Point",
                "coordinates": [
                    20.89889,
                    52.195949999999996
                ]
            },
            "properties": {
                "isced:level": "1;2",
                "ref:rspo": 267728,
                "official_name": "Szko\u0142a Podstawowa Nr 360",
                "name": "Szko\u0142a Podstawowa Nr 360",
                "addr:country": "PL",
                "addr:postcode": "02-495",
                "addr:city": "Warszawa",
                "addr:street": "Dzieci Warszawy",
                "addr:housenumber": "42A",
                "addr:teryt:simc": 4605,
                "addr:teryt:sym_ul": 918784,
                "contact:phone": "+48 226272823",
                "contact:email": "sp360@edu.um.warszawa.pl",
                "contact:website": "http:\/\/www.sp360.warszawa.pl",
                "ref:regon": "380575097",
                "ref:vatin": "PL5223134645",
                "operator": "Ursus",
                "operator:type": "government",
                "amenity": "school"
            }
        },
        {
            "id": 122179,
            "type": "Feature",
            "geometry": {
                "type": "Point",
                "coordinates": [
                    20.89889,
                    52.19592
                ]
            },
            "properties": {
                "isced:level": "3",
                "ref:rspo": 122179,
                "official_name": "Technikum Nr 8 im. Jana Karskiego",
                "name": "Technikum Nr 8",
                "addr:country": "PL",
                "addr:postcode": "02-495",
                "addr:city": "Warszawa",
                "addr:street": "Dzieci Warszawy",
                "addr:housenumber": "42",
                "addr:teryt:simc": 4605,
                "addr:teryt:sym_ul": 918784,
                "contact:phone": "+48 226626281",
                "contact:email": "zsnr42@interia.pl",
                "contact:website": "http:\/\/www.zsnr42.edu.pl",
                "ref:regon": "015781968",
                "ref:vatin": "PL5221010117",
                "operator": "Ursus",
                "operator:type": "government",
                "amenity": "school",
                "note": "Parent RSPO: 105215"
            }
        },
        {
            "id": 122181,
            "type": "Feature",
            "geometry": {
                "type": "Point",
                "coordinates": [
                    20.89889,
                    52.19589
                ]
            },
            "properties": {
                "isced:level": "3",
                "ref:rspo": 122181,
                "official_name": "Bran\u017cowa Szko\u0142a I Stopnia Nr 37 im. Jana Karskiego",
                "name": "Bran\u017cowa Szko\u0142a I Stopnia Nr 37",
                "addr:country": "PL",
                "addr:postcode": "02-495",
                "addr:city": "Warszawa",
                "addr:street": "Dzieci Warszawy",
                "addr:housenumber": "42",
                "addr:teryt:simc": 4605,
                "addr:teryt:sym_ul": 918784,
                "contact:phone": "+48 226626281",
                "contact:email": "zsnr42@interia.pl",
                "contact:website": "http:\/\/www.zsnr42.edu.pl",
                "ref:regon": "015782028",
                "ref:vatin": "PL5221010117",
                "operator": "Ursus",
                "operator:type": "government",
                "amenity": "school",
                "note": "Parent RSPO: 105215"
            }
        },
        {
            "id": 129029,
            "type": "Feature",
            "geometry": {
                "type": "Point",
                "coordinates": [
                    20.89889,
                    52.195859999999996
                ]
            },
            "properties": {
                "isced:level": "3",
                "ref:rspo": 129029,
                "official_name": "Cliv Liceum Og\u00f3lnokszta\u0142c\u0105ce dla Doros\u0142ych",
                "name": "Cliv Liceum Og\u00f3lnokszta\u0142c\u0105ce dla Doros\u0142ych",
                "addr:country": "PL",
                "addr:postcode": "02-495",
                "addr:city": "Warszawa",
                "addr:street": "Dzieci Warszawy",
                "addr:housenumber": "42",
                "addr:teryt:simc": 4605,
                "addr:teryt:sym_ul": 918784,
                "contact:phone": "+48 226626281",
                "contact:email": "zsnr42@interia.pl",
                "contact:website": "http:\/\/www.zsnr42.edu.pl",
                "ref:regon": "362454953",
                "operator": "Ursus",
                "operator:type": "government",
                "amenity": "school",
                "note": "Parent RSPO: 105215"
            }
        },
        {
            "id": 121196,
            "type": "Feature",
            "geometry": {
                "type": "Point",
                "coordinates": [
                    20.87516,
                    52.19628
                ]
            },
            "properties": {
                "ref:rspo": 121196,
                "official_name": "Przedszkole Niepubliczne Akademia Ma\u0142ych Smok\u00f3w",
                "name": "Przedszkole Niepubliczne Akademia Ma\u0142ych Smok\u00f3w",
                "addr:country": "PL",
                "addr:postcode": "02-495",
                "addr:city": "Warszawa",
                "addr:street": "W\u0142adys\u0142awa Be\u0142zy",
                "addr:housenumber": "15",
                "addr:teryt:simc": 1005,
                "addr:teryt:sym_ul": 918784,
                "contact:phone": "+48 223949898",
                "contact:email": "ursus@happycentre.pl",
                "contact:website": "http:\/\/www.happycentre.pl",
                "ref:regon": "147010059",
                "operator": "Andrzej Niewiarowski",
                "operator:type": "private",
                "amenity": "kindergarten"
            }
        },
        {
            "id": 74989,
            "type": "Feature",
            "geometry": {
                "type": "Point",
                "coordinates": [
                    20.86748,
                    52.19637
                ]
            },
            "properties": {
                "isced:level": "1;2",
                "ref:rspo": 74989,
                "official_name": "Szko\u0142a Podstawowa Nr 11 im. \u017bo\u0142nierzy I Dywizji Ko\u015bciuszkowskiej w Warszawie",
                "name": "Szko\u0142a Podstawowa Nr 11",
                "addr:country": "PL",
                "addr:postcode": "02-495",
                "addr:city": "Warszawa",
                "addr:street": "Mariana Keniga",
                "addr:housenumber": "20",
                "addr:teryt:simc": 8320,
                "addr:teryt:sym_ul": 918784,
                "contact:phone": "+48 226670927",
                "contact:email": "sp11@edu.um.warszawa.pl",
                "contact:website": "http:\/\/www.sp11warszawa.edupage.org",
                "ref:regon": "000800427",
                "ref:vatin": "PL5222516988",
                "operator": "Ursus",
                "operator:type": "government",
                "amenity": "school"
            }
        },
        {
            "id": 111910,
            "type": "Feature",
            "geometry": {
                "type": "Point",
                "coordinates": [
                    20.8697899,
                    52.19642
                ]
            },
            "properties": {
                "ref:rspo": 111910,
                "official_name": "Przedszkole Nr 219 \"Niezapominajka\" w Warszawie",
                "name": "Przedszkole Nr 219 \"Niezapominajka\" w Warszawie",
                "addr:country": "PL",
                "addr:postcode": "02-495",
                "addr:city": "Warszawa",
                "addr:street": "Mariana Keniga",
                "addr:housenumber": "16",
                "addr:teryt:simc": 8320,
                "addr:teryt:sym_ul": 918784,
                "contact:phone": "+48 222772114",
                "contact:email": "p219@edu.um.warszawa.pl",
                "contact:website": "http:\/\/www.p219.waw.pl",
                "ref:regon": "013006432",
                "ref:vatin": "PL5222516534",
                "operator": "Ursus",
                "operator:type": "government",
                "amenity": "kindergarten"
            }
        },
        {
            "id": 277241,
            "type": "Feature",
            "geometry": {
                "type": "Point",
                "coordinates": [
                    20.89541,
                    52.19677
                ]
            },
            "properties": {
                "ref:rspo": 277241,
                "official_name": "Niepubliczna Poradnia Psychologiczno-Pedagogiczna \"Mali I Duzi\"",
                "name": "Niepubliczna Poradnia Psychologiczno-Pedagogiczna \"Mali I Duzi\"",
                "addr:country": "PL",
                "addr:postcode": "02-495",
                "addr:city": "Warszawa",
                "addr:street": "Dzieci Warszawy",
                "addr:housenumber": "48",
                "addr:door": "26",
                "addr:teryt:simc": 4605,
                "addr:teryt:sym_ul": 918784,
                "contact:phone": "+48 500153976",
                "contact:email": "m.chachon@wp.pl",
                "ref:regon": "388420320",
                "operator": "Magdalena Chacho\u0144-Fa\u0142ek",
                "operator:type": "private",
                "healthcare": "counselling",
                "counselling_type": "education",
                "fixme": "w zale\u017cno\u015bci od przedmiotu dzia\u0142alno\u015bci (np. healthcare=counselling + counselling_type=education albo healthcare=psychotherapist)"
            }
        },
        {
            "id": 85497,
            "type": "Feature",
            "geometry": {
                "type": "Point",
                "coordinates": [
                    20.89183,
                    52.19701
                ]
            },
            "properties": {
                "ref:rspo": 85497,
                "official_name": "Niepubliczne Przedszkole \"Pomara\u0144czowa Ciuchcia\"",
                "name": "Niepubliczne Przedszkole \"Pomara\u0144czowa Ciuchcia\"",
                "addr:country": "PL",
                "addr:postcode": "02-495",
                "addr:city": "Warszawa",
                "addr:street": "Rakietnik\u00f3w",
                "addr:housenumber": "6\/8",
                "addr:teryt:simc": 18414,
                "addr:teryt:sym_ul": 918784,
                "contact:phone": "+48 226626370",
                "contact:email": "ursus@pomaranczowa-ciuchcia.pl",
                "contact:website": "http:\/\/www.pomaranczowa-ciuchcia.pl",
                "ref:regon": "146437436",
                "operator": "Marta Zbrzeska",
                "operator:type": "private",
                "amenity": "kindergarten"
            }
        },
        {
            "id": 123804,
            "type": "Feature",
            "geometry": {
                "type": "Point",
                "coordinates": [
                    20.89508,
                    52.19778
                ]
            },
            "properties": {
                "ref:rspo": 123804,
                "official_name": "Przedszkole Integracyjne Domek Przedszkolaka",
                "name": "Przedszkole Integracyjne Domek Przedszkolaka",
                "addr:country": "PL",
                "addr:postcode": "02-495",
                "addr:city": "Warszawa",
                "addr:street": "Nowotyska",
                "addr:housenumber": "11",
                "addr:teryt:simc": 14489,
                "addr:teryt:sym_ul": 918784,
                "contact:phone": "+48 609536607",
                "contact:email": "biuro@domekprzedszkolaka.edu.pl",
                "contact:website": "http:\/\/www.domekprzedszkolaka.edu.pl",
                "ref:regon": "147353003",
                "operator": "Edukado Sp\u00f3\u0142ka Z Ograniczon\u0105 Odpowiedzialno\u015bci\u0105",
                "operator:type": "private",
                "amenity": "kindergarten"
            }
        },
        {
            "id": 83293,
            "type": "Feature",
            "geometry": {
                "type": "Point",
                "coordinates": [
                    20.891139984131,
                    52.197860717773
                ]
            },
            "properties": {
                "ref:rspo": 83293,
                "official_name": "Przedszkole Niepubliczne \"Biedroneczka\"",
                "name": "Przedszkole Niepubliczne \"Biedroneczka\"",
                "addr:country": "PL",
                "addr:postcode": "02-495",
                "addr:city": "Warszawa",
                "addr:street": "Plutonu AK \"Torpedy\"",
                "addr:housenumber": "14",
                "addr:teryt:simc": 44890,
                "addr:teryt:sym_ul": 918784,
                "contact:phone": "+48 228249682",
                "contact:email": "mybiedroneczki@wp.pl",
                "contact:website": "http:\/\/mybiedroneczki.przedszkola.net.pl",
                "ref:regon": "146433007",
                "operator": "Barbara Fr\u0105czek",
                "operator:type": "private",
                "amenity": "kindergarten"
            }
        },
        {
            "id": 129262,
            "type": "Feature",
            "geometry": {
                "type": "Point",
                "coordinates": [
                    20.88794,
                    52.19799
                ]
            },
            "properties": {
                "ref:rspo": 129262,
                "official_name": "Niepubliczne Przedszkole Integracyjne Baby Academy Warszawa - Ursus",
                "name": "Niepubliczne Przedszkole Integracyjne Baby Academy Warszawa - Ursus",
                "addr:country": "PL",
                "addr:postcode": "02-495",
                "addr:city": "Warszawa",
                "addr:street": "Traktorzyst\u00f3w",
                "addr:housenumber": "20",
                "addr:teryt:simc": 22939,
                "addr:teryt:sym_ul": 918784,
                "contact:phone": "+48 791666206",
                "contact:email": "ursus@babyacademy.pl",
                "ref:regon": "362533687",
                "operator": "Olga Odziemczyk",
                "operator:type": "private",
                "amenity": "kindergarten"
            }
        },
        {
            "id": 34231,
            "type": "Feature",
            "geometry": {
                "type": "Point",
                "coordinates": [
                    20.88907,
                    52.19831
                ]
            },
            "properties": {
                "isced:level": "1;2",
                "ref:rspo": 34231,
                "official_name": "Spo\u0142eczna Szko\u0142a Podstawowa Nr 4 im. W\u0142adys\u0142awa Grabskiego Spo\u0142ecznego Towarzystwa O\u015bwiatowego",
                "name": "Spo\u0142eczna Szko\u0142a Podstawowa Nr 4",
                "addr:country": "PL",
                "addr:postcode": "02-495",
                "addr:city": "Warszawa",
                "addr:street": "Traktorzyst\u00f3w",
                "addr:housenumber": "16",
                "addr:teryt:simc": 22939,
                "addr:teryt:sym_ul": 918784,
                "contact:phone": "+48 502350624",
                "contact:email": "sekretariat@sto4.edu.pl",
                "contact:website": "http:\/\/www.sto4.edu.pl",
                "ref:regon": "146355425",
                "ref:vatin": "PL5222350631",
                "operator": "25 Samodzielne Ko\u0142o Terenowe Spo\u0142ecznego Towarzystwa O\u015bwiatowego",
                "operator:type": "ngo",
                "amenity": "school"
            }
        },
        {
            "id": 267397,
            "type": "Feature",
            "geometry": {
                "type": "Point",
                "coordinates": [
                    20.88907,
                    52.19828
                ]
            },
            "properties": {
                "ref:rspo": 267397,
                "official_name": "Niepubliczna Poradnia Psychologiczno-Pedagogiczna \"Kompas\"",
                "name": "Niepubliczna Poradnia Psychologiczno-Pedagogiczna \"Kompas\"",
                "addr:country": "PL",
                "addr:postcode": "02-495",
                "addr:city": "Warszawa",
                "addr:street": "Traktorzyst\u00f3w",
                "addr:housenumber": "16",
                "addr:teryt:simc": 22939,
                "addr:teryt:sym_ul": 918784,
                "contact:phone": "+48 507890647",
                "contact:email": "kontakt@poradniakompas.pl",
                "contact:website": "http:\/\/www.poradniakompas.pl",
                "ref:regon": "380266456",
                "operator": "25 Samodzielne Ko\u0142o Terenowe Spo\u0142ecznego Towarzystwa O\u015bwiatowego",
                "operator:type": "ngo",
                "healthcare": "counselling",
                "counselling_type": "education",
                "fixme": "w zale\u017cno\u015bci od przedmiotu dzia\u0142alno\u015bci (np. healthcare=counselling + counselling_type=education albo healthcare=psychotherapist)"
            }
        },
        {
            "id": 80512,
            "type": "Feature",
            "geometry": {
                "type": "Point",
                "coordinates": [
                    20.89698,
                    52.19909
                ]
            },
            "properties": {
                "ref:rspo": 80512,
                "official_name": "Niepubliczne Przedszkole \"Le\u015bna Kraina\"",
                "name": "Niepubliczne Przedszkole \"Le\u015bna Kraina\"",
                "addr:country": "PL",
                "addr:postcode": "02-495",
                "addr:city": "Warszawa",
                "addr:street": "Baranowska",
                "addr:housenumber": "14",
                "addr:teryt:simc": 713,
                "addr:teryt:sym_ul": 918784,
                "contact:phone": "+48 607774987",
                "contact:email": "annajagodzinska1@op.pl",
                "contact:website": "http:\/\/www.lesna-kraina.com.pl",
                "ref:regon": "146412086",
                "operator": "Anna Jagodzi\u0144ska-Szymczak",
                "operator:type": "private",
                "amenity": "kindergarten"
            }
        },
        {
            "id": 52992,
            "type": "Feature",
            "geometry": {
                "type": "Point",
                "coordinates": [
                    20.86647,
                    52.19961
                ]
            },
            "properties": {
                "isced:level": "1;2",
                "ref:rspo": 52992,
                "official_name": "Niepubliczna Podstawowa Szko\u0142a Montessori w Warszawie",
                "name": "Niepubliczna Podstawowa Szko\u0142a Montessori w Warszawie",
                "addr:country": "PL",
                "addr:postcode": "02-496",
                "addr:city": "Warszawa",
                "addr:street": "Henryka II Pobo\u017cnego",
                "addr:housenumber": "1",
                "addr:teryt:simc": 44888,
                "addr:teryt:sym_ul": 918784,
                "contact:phone": "+48 228828555",
                "contact:email": "sekretariat@poem.pl",
                "contact:website": "http:\/\/www.poem.pl",
                "ref:regon": "146399925",
                "ref:vatin": "PL5222500349",
                "operator": "Dorota Rotowska",
                "operator:type": "private",
                "amenity": "school"
            }
        },
        {
            "id": 83606,
            "type": "Feature",
            "geometry": {
                "type": "Point",
                "coordinates": [
                    20.86647,
                    52.19958
                ]
            },
            "properties": {
                "ref:rspo": 83606,
                "official_name": "Przedszkole Montessori",
                "name": "Przedszkole Montessori",
                "addr:country": "PL",
                "addr:postcode": "02-496",
                "addr:city": "Warszawa",
                "addr:street": "Henryka II Pobo\u017cnego",
                "addr:housenumber": "1",
                "addr:teryt:simc": 44888,
                "addr:teryt:sym_ul": 918784,
                "contact:phone": "+48 226627475",
                "contact:email": "sekretariat@montessori.dag.pl",
                "contact:website": "http:\/\/www.montessori.dag.pl",
                "ref:regon": "146438559",
                "operator": "Dorota Rotowska",
                "operator:type": "private",
                "amenity": "kindergarten"
            }
        },
        {
            "id": 43386,
            "type": "Feature",
            "geometry": {
                "type": "Point",
                "coordinates": [
                    20.86265,
                    52.19968
                ]
            },
            "properties": {
                "ref:rspo": 43386,
                "official_name": "Przedszkole Niepubliczne im. Ksi\u0119dza Bronis\u0142awa Markiewicza",
                "name": "Przedszkole Niepubliczne",
                "addr:country": "PL",
                "addr:postcode": "02-496",
                "addr:city": "Warszawa",
                "addr:street": "Boles\u0142awa \u015amia\u0142ego",
                "addr:housenumber": "37",
                "addr:teryt:simc": 1755,
                "addr:teryt:sym_ul": 918784,
                "contact:phone": "+48 228827181",
                "contact:email": "golabki.przedszkole@michalitki.pl",
                "contact:website": "http:\/\/www.michalitki.edu.pl",
                "ref:regon": "146400893",
                "operator": "Zgromadzenie Si\u00f3str \u015aw. Micha\u0142a Archanio\u0142a W Miejscu Piastowym",
                "operator:type": "religious",
                "amenity": "kindergarten"
            }
        },
        {
            "id": 274087,
            "type": "Feature",
            "geometry": {
                "type": "Point",
                "coordinates": [
                    20.8899,
                    52.20027
                ]
            },
            "properties": {
                "ref:rspo": 274087,
                "official_name": "Niepubliczne Dwuj\u0119zyczne Przedszkole \"Akwarelki\"",
                "name": "Niepubliczne Dwuj\u0119zyczne Przedszkole \"Akwarelki\"",
                "addr:country": "PL",
                "addr:postcode": "02-495",
                "addr:city": "Warszawa",
                "addr:street": "Quo Vadis",
                "addr:housenumber": "1A",
                "addr:door": "U1,2,3",
                "addr:teryt:simc": 55146,
                "addr:teryt:sym_ul": 918784,
                "contact:phone": "+48 519129973",
                "contact:email": "kontakt@akwarelki.com",
                "contact:website": "http:\/\/www.akwarelki.com",
                "ref:regon": "385171520",
                "operator": "Bartosz Go\u0142\u0119biowski",
                "operator:type": "private",
                "amenity": "kindergarten"
            }
        },
        {
            "id": 133897,
            "type": "Feature",
            "geometry": {
                "type": "Point",
                "coordinates": [
                    20.8673,
                    52.20051
                ]
            },
            "properties": {
                "ref:rspo": 133897,
                "official_name": "Publiczne Przedszkole Klub Malucha Si\u00f3dme Niebo",
                "name": "Publiczne Przedszkole Klub Malucha Si\u00f3dme Niebo",
                "addr:country": "PL",
                "addr:postcode": "02-496",
                "addr:city": "Warszawa",
                "addr:street": "Or\u0142\u00f3w Piastowskich",
                "addr:housenumber": "56",
                "addr:teryt:simc": 15183,
                "addr:teryt:sym_ul": 918784,
                "contact:phone": "+48 601450018",
                "contact:email": "dyrektor.s.godlewska@gmail.com",
                "ref:regon": "367718606",
                "operator": "Sylwia Godlewska",
                "operator:type": "private",
                "amenity": "kindergarten"
            }
        },
        {
            "id": 266238,
            "type": "Feature",
            "geometry": {
                "type": "Point",
                "coordinates": [
                    20.8924,
                    52.20133
                ]
            },
            "properties": {
                "ref:rspo": 266238,
                "official_name": "Centrum Szkolenia Zawodowego",
                "name": "Centrum Szkolenia Zawodowego",
                "addr:country": "PL",
                "addr:postcode": "02-495",
                "addr:city": "Warszawa",
                "addr:street": "Plac Czerwca 1976 Roku",
                "addr:housenumber": "7",
                "addr:door": "51",
                "addr:teryt:simc": 45361,
                "addr:teryt:sym_ul": 918784,
                "contact:phone": "+48 224782874",
                "contact:email": "szkolenia@csz.waw.pl",
                "ref:regon": "369362800",
                "operator": "Robert Krogulec",
                "operator:type": "private",
                "fixme": "w zale\u017cno\u015bci od przedmiotu dzia\u0142alno\u015bci (np. amenity=training + training=*, amenity=dancing_school, amenity=language_school, amenity=music_school)"
            }
        },
        {
            "id": 122172,
            "type": "Feature",
            "geometry": {
                "type": "Point",
                "coordinates": [
                    20.8686599,
                    52.20136
                ]
            },
            "properties": {
                "isced:level": "1;2",
                "ref:rspo": 122172,
                "official_name": "Szko\u0142a Podstawowa Z Oddzia\u0142ami Integracyjnymi Nr 2 im. Jana Paw\u0142a Ii",
                "name": "Szko\u0142a Podstawowa Z Oddzia\u0142ami Integracyjnymi Nr 2",
                "addr:country": "PL",
                "addr:postcode": "02-496",
                "addr:city": "Warszawa",
                "addr:street": "Or\u0142\u00f3w Piastowskich",
                "addr:housenumber": "47",
                "addr:teryt:simc": 15183,
                "addr:teryt:sym_ul": 918784,
                "contact:phone": "+48 226674654",
                "contact:email": "sekretariat@sp2.warszawa.pl",
                "contact:website": "http:\/\/sp2.warszawa.pl",
                "ref:regon": "015781916",
                "ref:vatin": "PL5222660461",
                "operator": "Ursus",
                "operator:type": "government",
                "amenity": "school"
            }
        },
        {
            "id": 84736,
            "type": "Feature",
            "geometry": {
                "type": "Point",
                "coordinates": [
                    20.86473,
                    52.2019499
                ]
            },
            "properties": {
                "ref:rspo": 84736,
                "official_name": "Przedszkole Niepubliczne \"Tralala\" - Wychowanie Przez Sztuk\u0119",
                "name": "Przedszkole Niepubliczne \"Tralala\" - Wychowanie Przez Sztuk\u0119",
                "addr:country": "PL",
                "addr:postcode": "02-496",
                "addr:city": "Warszawa",
                "addr:street": "Przemys\u0142awa II",
                "addr:housenumber": "12",
                "addr:teryt:simc": 17740,
                "addr:teryt:sym_ul": 918784,
                "contact:phone": "+48 885506666",
                "contact:email": "ursus@przedszkoletralala.pl",
                "contact:website": "http:\/\/www.przedszkoletralala.pl",
                "ref:regon": "146422877",
                "operator": "Edusmart Sp\u00f3\u0142ka Z Ograniczon\u0105 Odpowiedzialno\u015bci\u0105",
                "operator:type": "private",
                "amenity": "kindergarten"
            }
        },
        {
            "id": 84951,
            "type": "Feature",
            "geometry": {
                "type": "Point",
                "coordinates": [
                    20.86392,
                    52.20456
                ]
            },
            "properties": {
                "ref:rspo": 84951,
                "official_name": "Polsko-Angielskie Przedszkole Niepubliczne U\u015bmiech",
                "name": "Polsko-Angielskie Przedszkole Niepubliczne U\u015bmiech",
                "addr:country": "PL",
                "addr:postcode": "02-496",
                "addr:city": "Warszawa",
                "addr:street": "Zygmunta Augusta",
                "addr:housenumber": "6",
                "addr:teryt:simc": 26334,
                "addr:teryt:sym_ul": 918784,
                "contact:phone": "+48 601072476",
                "contact:email": "przedszkole.usmiech.ursus@gmail.com",
                "ref:regon": "146423167",
                "operator": "Ewa Szeliga",
                "operator:type": "private",
                "amenity": "kindergarten"
            }
        },
        {
            "id": 275245,
            "type": "Feature",
            "geometry": {
                "type": "Point",
                "coordinates": [
                    20.88101,
                    52.20492
                ]
            },
            "properties": {
                "ref:rspo": 275245,
                "official_name": "Niepubliczne Przedszkole J\u0119zykowe Smart Planet",
                "name": "Niepubliczne Przedszkole J\u0119zykowe Smart Planet",
                "addr:country": "PL",
                "addr:postcode": "02-495",
                "addr:city": "Warszawa",
                "addr:street": "Posag 7 Panien",
                "addr:housenumber": "14",
                "addr:door": "u1",
                "addr:teryt:simc": 32940,
                "addr:teryt:sym_ul": 918784,
                "contact:phone": "+48 506776565",
                "contact:email": "biuro@smartplanet.edu.pl",
                "contact:website": "http:\/\/www.smartplanet.edu.pl",
                "ref:regon": "386742030",
                "operator": "Marcin Marci\u0144ski",
                "operator:type": "private",
                "amenity": "kindergarten"
            }
        }
    ]
}