{
    "type": "FeatureCollection",
    "features": [
        {
            "id": 17902,
            "type": "Feature",
            "geometry": {
                "type": "Point",
                "coordinates": [
                    20.92724609375,
                    52.190586090088
                ]
            },
            "properties": {
                "isced:level": "1;2",
                "ref:rspo": 17902,
                "official_name": "Szko\u0142a Podstawowa Nr 23 im. Edwarda Szyma\u0144skiego",
                "name": "Szko\u0142a Podstawowa Nr 23",
                "addr:country": "PL",
                "addr:postcode": "02-053",
                "addr:city": "Warszawa",
                "addr:street": "Miko\u0142aja Reja",
                "addr:housenumber": "1",
                "addr:teryt:simc": 18565,
                "addr:teryt:sym_ul": 918643,
                "contact:phone": "+48 228250938",
                "contact:email": "sekretariat@sp23.warszawa.pl",
                "contact:website": "http:\/\/www.sp23.warszawa.pl",
                "ref:regon": "000800752",
                "ref:vatin": "PL5262391518",
                "operator": "Ochota",
                "operator:type": "government",
                "amenity": "school"
            }
        },
        {
            "id": 23441,
            "type": "Feature",
            "geometry": {
                "type": "Point",
                "coordinates": [
                    20.92724609375,
                    52.190556090087995
                ]
            },
            "properties": {
                "ref:rspo": 23441,
                "official_name": "Przedszkole Nr 315 im. Zbigniewa Rychlickiego",
                "name": "Przedszkole Nr 315",
                "addr:country": "PL",
                "addr:postcode": "02-122",
                "addr:city": "Warszawa",
                "addr:street": "Szczepana Grzeszczyka",
                "addr:housenumber": "2",
                "addr:teryt:simc": 6327,
                "addr:teryt:sym_ul": 918643,
                "contact:phone": "+48 228227113",
                "contact:email": "p315@edu.um.warszawa.pl",
                "contact:website": "http:\/\/www.przedszkole315.waw.pl",
                "ref:regon": "013006745",
                "ref:vatin": "PL5262391599",
                "operator": "Ochota",
                "operator:type": "government",
                "amenity": "kindergarten"
            }
        },
        {
            "id": 23346,
            "type": "Feature",
            "geometry": {
                "type": "Point",
                "coordinates": [
                    20.97805,
                    52.19533
                ]
            },
            "properties": {
                "isced:level": "1;2",
                "ref:rspo": 23346,
                "official_name": "Szko\u0142a Podstawowa Z Oddzia\u0142ami Integracyjnymi Nr 280 im. Tytusa Cha\u0142ubi\u0144skiego w Warszawie",
                "name": "Szko\u0142a Podstawowa Z Oddzia\u0142ami Integracyjnymi Nr 280",
                "addr:country": "PL",
                "addr:postcode": "01-130",
                "addr:city": "Warszawa",
                "addr:street": "Gorlicka",
                "addr:housenumber": "3",
                "addr:teryt:simc": 5826,
                "addr:teryt:sym_ul": 918643,
                "contact:phone": "+48 226583430",
                "contact:email": "sekretariat@szkola280.pl",
                "contact:website": "http:\/\/www.szkola280.pl",
                "ref:regon": "000800410",
                "ref:vatin": "PL5262388137",
                "operator": "Ochota",
                "operator:type": "government",
                "amenity": "school"
            }
        },
        {
            "id": 23439,
            "type": "Feature",
            "geometry": {
                "type": "Point",
                "coordinates": [
                    20.98116,
                    52.19673
                ]
            },
            "properties": {
                "ref:rspo": 23439,
                "official_name": "Przedszkole Nr 293",
                "name": "Przedszkole Nr 293",
                "addr:country": "PL",
                "addr:postcode": "02-132",
                "addr:city": "Warszawa",
                "addr:street": "Stefana Baleya",
                "addr:housenumber": "5",
                "addr:teryt:simc": 628,
                "addr:teryt:sym_ul": 918643,
                "contact:phone": "+48 228235320",
                "contact:email": "p293@edu.um.warszawa.pl",
                "contact:website": "http:\/\/www.przedszkole293.pl",
                "ref:regon": "013006691",
                "ref:vatin": "PL5262390217",
                "operator": "Ochota",
                "operator:type": "government",
                "amenity": "kindergarten"
            }
        },
        {
            "id": 23440,
            "type": "Feature",
            "geometry": {
                "type": "Point",
                "coordinates": [
                    20.97406,
                    52.19702
                ]
            },
            "properties": {
                "ref:rspo": 23440,
                "official_name": "Przedszkole Integracyjne Nr 312",
                "name": "Przedszkole Integracyjne Nr 312",
                "addr:country": "PL",
                "addr:postcode": "02-115",
                "addr:city": "Warszawa",
                "addr:street": "W\u0142adys\u0142awa Oki\u0144skiego",
                "addr:housenumber": "5",
                "addr:teryt:simc": 14872,
                "addr:teryt:sym_ul": 918643,
                "contact:phone": "+48 228232023",
                "contact:email": "ejarzabek@edu.um.warszawa.pl",
                "contact:website": "http:\/\/www.przedszkole312waw.szkolnastrona.pl",
                "ref:regon": "013006716",
                "ref:vatin": "PL5262390223",
                "operator": "Ochota",
                "operator:type": "government",
                "amenity": "kindergarten"
            }
        },
        {
            "id": 266853,
            "type": "Feature",
            "geometry": {
                "type": "Point",
                "coordinates": [
                    20.96571,
                    52.19939
                ]
            },
            "properties": {
                "ref:rspo": 266853,
                "official_name": "Niepubliczne Przedszkole Sportowo-J\u0119zykowe Fair Play",
                "name": "Niepubliczne Przedszkole Sportowo-J\u0119zykowe Fair Play",
                "addr:country": "PL",
                "addr:postcode": "02-390",
                "addr:city": "Warszawa",
                "addr:street": "Gr\u00f3jecka",
                "addr:housenumber": "208",
                "addr:teryt:simc": 6215,
                "addr:teryt:sym_ul": 918643,
                "contact:phone": "+48 789372156",
                "contact:email": "biuro@przedszkolefairplay-grojecka.pl",
                "ref:regon": "369711407",
                "operator": "Education&Fun Sp\u00f3\u0142ka Z Ograniczon\u0105 Odpowiedzialno\u015bci\u0105",
                "operator:type": "private",
                "amenity": "kindergarten"
            }
        },
        {
            "id": 23438,
            "type": "Feature",
            "geometry": {
                "type": "Point",
                "coordinates": [
                    20.98245,
                    52.19948
                ]
            },
            "properties": {
                "ref:rspo": 23438,
                "official_name": "Przedszkole Nr 255",
                "name": "Przedszkole Nr 255",
                "addr:country": "PL",
                "addr:postcode": "02-121",
                "addr:city": "Warszawa",
                "addr:street": "W\u0142adys\u0142awa Koroty\u0144skiego",
                "addr:housenumber": "3",
                "addr:teryt:simc": 9373,
                "addr:teryt:sym_ul": 918643,
                "contact:phone": "+48 228231516",
                "contact:email": "kkuzniarska@edu.um.warszawa.pl",
                "contact:website": "http:\/\/przedszkole255.waw.pl",
                "ref:regon": "013006685",
                "ref:vatin": "PL5262387971",
                "operator": "Ochota",
                "operator:type": "government",
                "amenity": "kindergarten"
            }
        },
        {
            "id": 123009,
            "type": "Feature",
            "geometry": {
                "type": "Point",
                "coordinates": [
                    20.97778,
                    52.19957
                ]
            },
            "properties": {
                "ref:rspo": 123009,
                "official_name": "Punkt Przedszkolny \"Mamy Czas\"",
                "name": "Punkt Przedszkolny \"Mamy Czas\"",
                "addr:country": "PL",
                "addr:postcode": "02-127",
                "addr:city": "Warszawa",
                "addr:street": "Karola Bohdanowicza",
                "addr:housenumber": "5",
                "addr:teryt:simc": 1692,
                "addr:teryt:sym_ul": 918643,
                "contact:phone": "+48 502224960",
                "contact:email": "info@mamyczas.waw.pl",
                "contact:website": "http:\/\/www.mamyczas.waw.pl",
                "ref:regon": "147231234",
                "operator": "Beata Urba\u0144ska",
                "operator:type": "private",
                "amenity": "kindergarten"
            }
        },
        {
            "id": 34224,
            "type": "Feature",
            "geometry": {
                "type": "Point",
                "coordinates": [
                    20.96478,
                    52.20017
                ]
            },
            "properties": {
                "isced:level": "1;2",
                "ref:rspo": 34224,
                "official_name": "Prywatna Szko\u0142a Podstawowa Nr 51 im. Jana Brzechwy",
                "name": "Prywatna Szko\u0142a Podstawowa Nr 51",
                "addr:country": "PL",
                "addr:postcode": "02-389",
                "addr:city": "Warszawa",
                "addr:street": "Harfowa",
                "addr:housenumber": "2",
                "addr:teryt:simc": 6537,
                "addr:teryt:sym_ul": 918643,
                "contact:phone": "+48 797480880",
                "contact:email": "sekretariatprzyparku@probeanus.pl",
                "contact:website": "http:\/\/www.probeanus.pl",
                "ref:regon": "146355626",
                "ref:vatin": "PL5210092927",
                "operator": "\"Pro Beanus\" Sp\u00f3\u0142ka Z Ograniczon\u0105 Odpowiedzialno\u015bci\u0105",
                "operator:type": "private",
                "amenity": "school"
            }
        },
        {
            "id": 272065,
            "type": "Feature",
            "geometry": {
                "type": "Point",
                "coordinates": [
                    20.95899,
                    52.20034
                ]
            },
            "properties": {
                "ref:rspo": 272065,
                "official_name": "Niepubliczny Punkt Przedszkolny Przedszk\u00f3\u0142ka Talent\u00f3w",
                "name": "Niepubliczny Punkt Przedszkolny Przedszk\u00f3\u0142ka Talent\u00f3w",
                "addr:country": "PL",
                "addr:postcode": "02-384",
                "addr:city": "Warszawa",
                "addr:street": "W\u0142odarzewska",
                "addr:housenumber": "45c",
                "addr:teryt:simc": 24512,
                "addr:teryt:sym_ul": 918643,
                "contact:phone": "+48 660902901",
                "contact:email": "przedszkolkatalentow@gmail.com",
                "ref:regon": "383904259",
                "operator": "Pawe\u0142 Stolarski",
                "operator:type": "private",
                "amenity": "kindergarten"
            }
        },
        {
            "id": 108873,
            "type": "Feature",
            "geometry": {
                "type": "Point",
                "coordinates": [
                    20.96181,
                    52.20078
                ]
            },
            "properties": {
                "ref:rspo": 108873,
                "official_name": "Przedszkole \"Ala Ma Kota\"",
                "name": "Przedszkole \"Ala Ma Kota\"",
                "addr:country": "PL",
                "addr:postcode": "02-386",
                "addr:city": "Warszawa",
                "addr:street": "Altowa",
                "addr:housenumber": "5",
                "addr:teryt:simc": 26883,
                "addr:teryt:sym_ul": 918643,
                "contact:phone": "+48 507150513",
                "contact:email": "altowa@alamakota.edu.pl",
                "ref:regon": "146515194",
                "operator": "Fundacja \"Ala Ma Kota\"",
                "operator:type": "ngo",
                "amenity": "kindergarten"
            }
        },
        {
            "id": 16880,
            "type": "Feature",
            "geometry": {
                "type": "Point",
                "coordinates": [
                    20.98135,
                    52.20103
                ]
            },
            "properties": {
                "isced:level": "1;2",
                "ref:rspo": 16880,
                "official_name": "Szko\u0142a Podstawowa Nr 10 im. Grzegorza Piramowicza",
                "name": "Szko\u0142a Podstawowa Nr 10",
                "addr:country": "PL",
                "addr:postcode": "02-128",
                "addr:city": "Warszawa",
                "addr:street": "Jasielska",
                "addr:housenumber": "49\/53",
                "addr:teryt:simc": 7299,
                "addr:teryt:sym_ul": 918643,
                "contact:phone": "+48 228234197",
                "contact:email": "sp10@sp10.waw.pl",
                "contact:website": "http:\/\/www.sp10warszawa.edupage.org",
                "ref:regon": "000800730",
                "ref:vatin": "PL5262391487",
                "operator": "Ochota",
                "operator:type": "government",
                "amenity": "school"
            }
        },
        {
            "id": 266360,
            "type": "Feature",
            "geometry": {
                "type": "Point",
                "coordinates": [
                    20.96249,
                    52.20116
                ]
            },
            "properties": {
                "ref:rspo": 266360,
                "official_name": "Fcpl Sp. Z O.o.",
                "name": "Fcpl Sp. Z O.o.",
                "addr:country": "PL",
                "addr:postcode": "02-384",
                "addr:city": "Warszawa",
                "addr:street": "W\u0142odarzewska",
                "addr:housenumber": "33",
                "addr:teryt:simc": 24512,
                "addr:teryt:sym_ul": 918643,
                "contact:phone": "+48 228241128",
                "contact:email": "office@franklincovey.pl",
                "ref:regon": "369440204",
                "operator": "Fcpl Sp\u00f3\u0142ka Z Ograniczon\u0105 Odpowiedzialno\u015bci\u0105",
                "operator:type": "private",
                "fixme": "w zale\u017cno\u015bci od przedmiotu dzia\u0142alno\u015bci (np. amenity=training + training=*, amenity=dancing_school, amenity=language_school, amenity=music_school)"
            }
        },
        {
            "id": 123547,
            "type": "Feature",
            "geometry": {
                "type": "Point",
                "coordinates": [
                    20.96142,
                    52.20189
                ]
            },
            "properties": {
                "ref:rspo": 123547,
                "official_name": "Przedszkole Niepubliczne Motylek 3",
                "name": "Przedszkole Niepubliczne Motylek 3",
                "addr:country": "PL",
                "addr:postcode": "02-386",
                "addr:city": "Warszawa",
                "addr:street": "Usypiskowa",
                "addr:housenumber": "3A",
                "addr:teryt:simc": 23440,
                "addr:teryt:sym_ul": 918643,
                "contact:phone": "+48 691825159",
                "contact:email": "motylektrzy@wp.pl",
                "contact:website": "http:\/\/www.motylek3.pl",
                "ref:regon": "147325120",
                "operator": "Ma\u0142gorzata Grzeszczyk-Mikoda",
                "operator:type": "private",
                "amenity": "kindergarten"
            }
        },
        {
            "id": 126198,
            "type": "Feature",
            "geometry": {
                "type": "Point",
                "coordinates": [
                    20.95291,
                    52.20193
                ]
            },
            "properties": {
                "ref:rspo": 126198,
                "official_name": "Terapeutyczny Punkt Przedszkolny Ma\u0142e Kajtki",
                "name": "Terapeutyczny Punkt Przedszkolny Ma\u0142e Kajtki",
                "addr:country": "PL",
                "addr:postcode": "02-384",
                "addr:city": "Warszawa",
                "addr:street": "W\u0142odarzewska",
                "addr:housenumber": "65d",
                "addr:teryt:simc": 24512,
                "addr:teryt:sym_ul": 918643,
                "contact:phone": "+48 501042239",
                "contact:email": "rejestracja@kajtek-wawa.pl",
                "contact:website": "http:\/\/www.malekajtki.pl",
                "ref:regon": "360170418",
                "operator": "Anna Dunajska",
                "operator:type": "private",
                "amenity": "kindergarten"
            }
        },
        {
            "id": 123159,
            "type": "Feature",
            "geometry": {
                "type": "Point",
                "coordinates": [
                    20.9613,
                    52.20205
                ]
            },
            "properties": {
                "ref:rspo": 123159,
                "official_name": "Przedszkole Niepubliczne Thames British School",
                "name": "Przedszkole Niepubliczne Thames British School",
                "addr:country": "PL",
                "addr:postcode": "02-386",
                "addr:city": "Warszawa",
                "addr:street": "Usypiskowa",
                "addr:housenumber": "5",
                "addr:teryt:simc": 23440,
                "addr:teryt:sym_ul": 918643,
                "contact:phone": "+48 881401405",
                "contact:email": "info@thamesbritishschool.pl",
                "contact:website": "http:\/\/thamesbritishschool.pl",
                "ref:regon": "147266540",
                "operator": "Thames British School Sp\u00f3\u0142ka Z Ograniczon\u0105 Odpowiedzialno\u015bci\u0105",
                "operator:type": "private",
                "amenity": "kindergarten"
            }
        },
        {
            "id": 22989,
            "type": "Feature",
            "geometry": {
                "type": "Point",
                "coordinates": [
                    20.95193,
                    52.20239
                ]
            },
            "properties": {
                "ref:rspo": 22989,
                "official_name": "Przedszkole Niepubliczne \"Motylek II\"",
                "name": "Przedszkole Niepubliczne \"Motylek II\"",
                "addr:country": "PL",
                "addr:postcode": "02-384",
                "addr:city": "Warszawa",
                "addr:street": "W\u0142odarzewska",
                "addr:housenumber": "71",
                "addr:teryt:simc": 24512,
                "addr:teryt:sym_ul": 918643,
                "contact:phone": "+48 226595873",
                "contact:email": "motylekdwa@wp.pl",
                "contact:website": "http:\/\/motylek2.pl",
                "ref:regon": "146328049",
                "operator": "Ma\u0142gorzata \u0141ukasik",
                "operator:type": "private",
                "amenity": "kindergarten"
            }
        },
        {
            "id": 81077,
            "type": "Feature",
            "geometry": {
                "type": "Point",
                "coordinates": [
                    20.95196,
                    52.2024
                ]
            },
            "properties": {
                "ref:rspo": 81077,
                "official_name": "Przedszkole Niepubliczne Wr\u00f3belek Elemelek",
                "name": "Przedszkole Niepubliczne Wr\u00f3belek Elemelek",
                "addr:country": "PL",
                "addr:postcode": "02-384",
                "addr:city": "Warszawa",
                "addr:street": "W\u0142odarzewska",
                "addr:housenumber": "71A",
                "addr:teryt:simc": 24512,
                "addr:teryt:sym_ul": 918643,
                "contact:phone": "+48 510333442",
                "contact:email": "biuro@wrobelekelemelek.com",
                "ref:regon": "146413619",
                "operator": "Irena Nguyen Van",
                "operator:type": "private",
                "amenity": "kindergarten"
            }
        },
        {
            "id": 22659,
            "type": "Feature",
            "geometry": {
                "type": "Point",
                "coordinates": [
                    20.97614,
                    52.20243
                ]
            },
            "properties": {
                "ref:rspo": 22659,
                "official_name": "Przedszkole Nr 59",
                "name": "Przedszkole Nr 59",
                "addr:country": "PL",
                "addr:postcode": "02-119",
                "addr:city": "Warszawa",
                "addr:street": "Pruszkowska",
                "addr:housenumber": "10",
                "addr:teryt:simc": 17593,
                "addr:teryt:sym_ul": 918643,
                "contact:phone": "+48 228235107",
                "contact:email": "p59@edu.um.warszawa.pl",
                "ref:regon": "013006461",
                "ref:vatin": "PL5262387965",
                "operator": "Ochota",
                "operator:type": "government",
                "amenity": "kindergarten"
            }
        },
        {
            "id": 83868,
            "type": "Feature",
            "geometry": {
                "type": "Point",
                "coordinates": [
                    20.97325,
                    52.20267
                ]
            },
            "properties": {
                "ref:rspo": 83868,
                "official_name": "Pierwsze Niepubliczne Przedszkole Terapeutyczne Fundacji Synapsis",
                "name": "Pierwsze Niepubliczne Przedszkole Terapeutyczne Fundacji Synapsis",
                "addr:country": "PL",
                "addr:postcode": "02-106",
                "addr:city": "Warszawa",
                "addr:street": "J\u00f3zefa Siemie\u0144skiego",
                "addr:housenumber": "21",
                "addr:teryt:simc": 19812,
                "addr:teryt:sym_ul": 918643,
                "contact:phone": "+48 512345210",
                "contact:email": "przedszkole@synapsis.waw.pl",
                "contact:website": "http:\/\/www.przedszkolesynapsis.pl\/",
                "ref:regon": "146429810",
                "operator": "Fundacja Synapsis",
                "operator:type": "ngo",
                "amenity": "kindergarten"
            }
        },
        {
            "id": 278201,
            "type": "Feature",
            "geometry": {
                "type": "Point",
                "coordinates": [
                    20.95572,
                    52.20272
                ]
            },
            "properties": {
                "ref:rspo": 278201,
                "official_name": "Prywatne Przedszkole Pro-Beanusik",
                "name": "Prywatne Przedszkole Pro-Beanusik",
                "addr:country": "PL",
                "addr:postcode": "02-384",
                "addr:city": "Warszawa",
                "addr:street": "Przy Parku",
                "addr:housenumber": "36",
                "addr:teryt:simc": 31897,
                "addr:teryt:sym_ul": 918643,
                "contact:phone": "+48 502793772",
                "contact:email": "i.stelmasiak@probeanus.pl",
                "ref:regon": "389855303",
                "operator": "Izabela Stelmasiak",
                "operator:type": "private",
                "amenity": "kindergarten"
            }
        },
        {
            "id": 265039,
            "type": "Feature",
            "geometry": {
                "type": "Point",
                "coordinates": [
                    20.96155,
                    52.20314
                ]
            },
            "properties": {
                "ref:rspo": 265039,
                "official_name": "Przedszkole Niepubliczne Rubik Music School",
                "name": "Przedszkole Niepubliczne Rubik Music School",
                "addr:country": "PL",
                "addr:postcode": "02-386",
                "addr:city": "Warszawa",
                "addr:street": "Usypiskowa",
                "addr:housenumber": "14",
                "addr:teryt:simc": 23440,
                "addr:teryt:sym_ul": 918643,
                "contact:phone": "+48 605275275",
                "contact:email": "biuro@rubikschool.pl",
                "contact:website": "http:\/\/rubikschool.pl",
                "ref:regon": "368561420",
                "operator": "Rubik School Sp\u00f3\u0142ka Z Ograniczon\u0105 Odpowiedzialno\u015bci\u0105",
                "operator:type": "private",
                "amenity": "kindergarten"
            }
        },
        {
            "id": 23311,
            "type": "Feature",
            "geometry": {
                "type": "Point",
                "coordinates": [
                    20.97202,
                    52.20314
                ]
            },
            "properties": {
                "isced:level": "1;2",
                "ref:rspo": 23311,
                "official_name": "Szko\u0142a Podstawowa Nr 264 im. Gabrieli Mistral w Warszawie",
                "name": "Szko\u0142a Podstawowa Nr 264",
                "addr:country": "PL",
                "addr:postcode": "02-104",
                "addr:city": "Warszawa",
                "addr:street": "Walentego Skoroch\u00f3d-Majewskiego",
                "addr:housenumber": "17",
                "addr:teryt:simc": 20091,
                "addr:teryt:sym_ul": 918643,
                "contact:phone": "+48 228232438",
                "contact:email": "sp264@edu.um.warszawa.pl",
                "contact:website": "http:\/\/sp264.superszkolna.pl",
                "ref:regon": "000800396",
                "ref:vatin": "PL5262388083",
                "operator": "Ochota",
                "operator:type": "government",
                "amenity": "school"
            }
        },
        {
            "id": 23602,
            "type": "Feature",
            "geometry": {
                "type": "Point",
                "coordinates": [
                    20.97202,
                    52.203109999999995
                ]
            },
            "properties": {
                "ref:rspo": 23602,
                "official_name": "Ognisko Pracy Pozaszkolnej",
                "name": "Ognisko Pracy Pozaszkolnej",
                "addr:country": "PL",
                "addr:postcode": "02-104",
                "addr:city": "Warszawa",
                "addr:street": "Walentego Skoroch\u00f3d-Majewskiego",
                "addr:housenumber": "17",
                "addr:teryt:simc": 20091,
                "addr:teryt:sym_ul": 918643,
                "contact:phone": "+48 228232438",
                "contact:email": "opp264@edu.um.warszawa.pl",
                "contact:website": "http:\/\/www.oppochota.superszkolna.pl",
                "ref:regon": "015765165",
                "ref:vatin": "PL5262388083",
                "operator": "Ochota",
                "operator:type": "government",
                "amenity": "community_centre",
                "community_centre:for": "child;juvenile"
            }
        },
        {
            "id": 23436,
            "type": "Feature",
            "geometry": {
                "type": "Point",
                "coordinates": [
                    20.98396,
                    52.20432
                ]
            },
            "properties": {
                "ref:rspo": 23436,
                "official_name": "Przedszkole Nr 241",
                "name": "Przedszkole Nr 241",
                "addr:country": "PL",
                "addr:postcode": "02-109",
                "addr:city": "Warszawa",
                "addr:street": "Ksi\u0119cia Trojdena",
                "addr:housenumber": "5B",
                "addr:teryt:simc": 23008,
                "addr:teryt:sym_ul": 918643,
                "contact:phone": "+48 228234119",
                "contact:email": "trojdenek@gmail.com",
                "contact:website": "http:\/\/trojdenek.com.pl",
                "ref:regon": "013006656",
                "ref:vatin": "PL5262391122",
                "operator": "Ochota",
                "operator:type": "government",
                "amenity": "kindergarten"
            }
        },
        {
            "id": 25238,
            "type": "Feature",
            "geometry": {
                "type": "Point",
                "coordinates": [
                    20.96768,
                    52.20468
                ]
            },
            "properties": {
                "isced:level": "1;2",
                "ref:rspo": 25238,
                "official_name": "Szko\u0142a Podstawowa Nr 152 im. Marii D\u0105browskiej w Warszawie",
                "name": "Szko\u0142a Podstawowa Nr 152",
                "addr:country": "PL",
                "addr:postcode": "02-398",
                "addr:city": "Warszawa",
                "addr:street": "Powsta\u0144c\u00f3w Wielkopolskich",
                "addr:housenumber": "4",
                "addr:teryt:simc": 17377,
                "addr:teryt:sym_ul": 918643,
                "contact:phone": "+48 228226608",
                "contact:email": "sp152@dabrowska.waw.pl",
                "contact:website": "http:\/\/dabrowska.edupage.org",
                "ref:regon": "000800315",
                "operator": "Ochota",
                "operator:type": "government",
                "amenity": "school"
            }
        },
        {
            "id": 23545,
            "type": "Feature",
            "geometry": {
                "type": "Point",
                "coordinates": [
                    20.96856,
                    52.20475
                ]
            },
            "properties": {
                "ref:rspo": 23545,
                "official_name": "Mi\u0119dzyszkolny O\u015brodek Sportowy Nr 7",
                "name": "Mi\u0119dzyszkolny O\u015brodek Sportowy Nr 7",
                "addr:country": "PL",
                "addr:postcode": "02-396",
                "addr:city": "Warszawa",
                "addr:street": "Geodet\u00f3w",
                "addr:housenumber": "1",
                "addr:teryt:simc": 5452,
                "addr:teryt:sym_ul": 918643,
                "contact:phone": "+48 228226607",
                "contact:email": "mos7ochota@interia.pl",
                "contact:website": "http:\/\/www.mosochota.waw.pl",
                "ref:regon": "000960013",
                "ref:vatin": "PL5262388172",
                "operator": "Ochota",
                "operator:type": "government",
                "leisure": "sports_centre"
            }
        },
        {
            "id": 23437,
            "type": "Feature",
            "geometry": {
                "type": "Point",
                "coordinates": [
                    20.97365,
                    52.20492
                ]
            },
            "properties": {
                "ref:rspo": 23437,
                "official_name": "Przedszkole Nr 248",
                "name": "Przedszkole Nr 248",
                "addr:country": "PL",
                "addr:postcode": "02-107",
                "addr:city": "Warszawa",
                "addr:street": "Karola Dickensa",
                "addr:housenumber": "5A",
                "addr:teryt:simc": 3828,
                "addr:teryt:sym_ul": 918643,
                "contact:email": "p248@edu.um.warszawa.pl",
                "contact:website": "http:\/\/przedszkole248.waw.pl",
                "ref:regon": "013006662",
                "ref:vatin": "PL5262387959",
                "operator": "Ochota",
                "operator:type": "government",
                "amenity": "kindergarten"
            }
        },
        {
            "id": 17104,
            "type": "Feature",
            "geometry": {
                "type": "Point",
                "coordinates": [
                    20.96606,
                    52.2057
                ]
            },
            "properties": {
                "ref:rspo": 17104,
                "official_name": "Zesp\u00f3\u0142 Szk\u00f3\u0142 Nr 26",
                "name": "Zesp\u00f3\u0142 Szk\u00f3\u0142 Nr 26",
                "addr:country": "PL",
                "addr:postcode": "02-397",
                "addr:city": "Warszawa",
                "addr:street": "Urbanist\u00f3w",
                "addr:housenumber": "3",
                "addr:teryt:simc": 23391,
                "addr:teryt:sym_ul": 918643,
                "contact:phone": "+48 228233099",
                "contact:email": "zs26@zs26.edu.pl",
                "contact:website": "http:\/\/zs26.edu.pl",
                "ref:regon": "000180976",
                "ref:vatin": "PL5261690756",
                "operator": "Ochota",
                "operator:type": "government",
                "landuse": "education",
                "fixme": "amenity=school, amenity=college albo landuse=education w zale\u017cno\u015bci od tego, jakie plac\u00f3wki wchodz\u0105 w sk\u0142ad zespo\u0142u. Sprawd\u017a, kiedy stosowa\u0107 amenity=* a kiedy landuse=education.",
                "note": "Children RSPO: 26849;26938"
            }
        },
        {
            "id": 123445,
            "type": "Feature",
            "geometry": {
                "type": "Point",
                "coordinates": [
                    20.96606,
                    52.20567
                ]
            },
            "properties": {
                "ref:rspo": 123445,
                "official_name": "Abc Florystyki- Szkolenia Florystyczne",
                "name": "Abc Florystyki- Szkolenia Florystyczne",
                "addr:country": "PL",
                "addr:postcode": "02-397",
                "addr:city": "Warszawa",
                "addr:street": "Urbanist\u00f3w",
                "addr:housenumber": "3",
                "addr:teryt:simc": 23391,
                "addr:teryt:sym_ul": 918643,
                "contact:phone": "+48 785115185",
                "contact:email": "abcflorystyki@wp.pl",
                "contact:website": "http:\/\/szkolenia-florystyczne.pl",
                "ref:regon": "147313452",
                "operator": "Maria Dembowska",
                "operator:type": "private",
                "fixme": "w zale\u017cno\u015bci od przedmiotu dzia\u0142alno\u015bci (np. amenity=training + training=*, amenity=dancing_school, amenity=language_school, amenity=music_school)"
            }
        },
        {
            "id": 125611,
            "type": "Feature",
            "geometry": {
                "type": "Point",
                "coordinates": [
                    20.96606,
                    52.20564
                ]
            },
            "properties": {
                "isced:level": "1;2",
                "ref:rspo": 125611,
                "official_name": "Korczakowska Szko\u0142a Marze\u0144 - Niepubliczna Szko\u0142a Podstawowa Warszawie",
                "name": "Korczakowska Szko\u0142a Marze\u0144 - Niepubliczna Szko\u0142a Podstawowa Warszawie",
                "addr:country": "PL",
                "addr:postcode": "02-397",
                "addr:city": "Warszawa",
                "addr:street": "Urbanist\u00f3w",
                "addr:housenumber": "3",
                "addr:teryt:simc": 23391,
                "addr:teryt:sym_ul": 918643,
                "contact:phone": "+48 603151843",
                "contact:email": "ksm@uczelniakorczaka.pl",
                "contact:website": "http:\/\/sp.wspkorczak.eu",
                "ref:regon": "147459919",
                "operator": "Uczelnia Korczaka",
                "operator:type": "private",
                "amenity": "school"
            }
        },
        {
            "id": 26849,
            "type": "Feature",
            "geometry": {
                "type": "Point",
                "coordinates": [
                    20.96606,
                    52.20561
                ]
            },
            "properties": {
                "isced:level": "3",
                "ref:rspo": 26849,
                "official_name": "Technikum Nr 24 w Warszawie",
                "name": "Technikum Nr 24 w Warszawie",
                "addr:country": "PL",
                "addr:postcode": "02-397",
                "addr:city": "Warszawa",
                "addr:street": "Urbanist\u00f3w",
                "addr:housenumber": "3",
                "addr:teryt:simc": 23391,
                "addr:teryt:sym_ul": 918643,
                "contact:phone": "+48 228222031",
                "contact:email": "zs26@zs26.edu.pl",
                "contact:website": "http:\/\/zs26.edu.pl",
                "ref:regon": "141409955",
                "operator": "Ochota",
                "operator:type": "government",
                "amenity": "school",
                "note": "Parent RSPO: 17104"
            }
        },
        {
            "id": 26938,
            "type": "Feature",
            "geometry": {
                "type": "Point",
                "coordinates": [
                    20.96606,
                    52.20558
                ]
            },
            "properties": {
                "isced:level": "4",
                "ref:rspo": 26938,
                "official_name": "Szko\u0142a Policealna Nr 17 w Warszawie",
                "name": "Szko\u0142a Policealna Nr 17 w Warszawie",
                "addr:country": "PL",
                "addr:postcode": "02-397",
                "addr:city": "Warszawa",
                "addr:street": "Urbanist\u00f3w",
                "addr:housenumber": "3",
                "addr:teryt:simc": 23391,
                "addr:teryt:sym_ul": 918643,
                "contact:phone": "+48 228222031",
                "contact:email": "zs26@zs26.edu.pl",
                "contact:website": "http:\/\/zs26.edu.pl",
                "ref:regon": "140193418",
                "operator": "Ochota",
                "operator:type": "government",
                "amenity": "college",
                "note": "Parent RSPO: 17104"
            }
        },
        {
            "id": 123923,
            "type": "Feature",
            "geometry": {
                "type": "Point",
                "coordinates": [
                    20.9785,
                    52.2062
                ]
            },
            "properties": {
                "ref:rspo": 123923,
                "official_name": "Akademia Opieku\u0144czo-Medyczna",
                "name": "Akademia Opieku\u0144czo-Medyczna",
                "addr:country": "PL",
                "addr:postcode": "02-109",
                "addr:city": "Warszawa",
                "addr:street": "Ksi\u0119cia Trojdena",
                "addr:housenumber": "4",
                "addr:teryt:simc": 23008,
                "addr:teryt:sym_ul": 918643,
                "contact:phone": "+48 228684882",
                "contact:email": "ekstbogd@go2.pl",
                "ref:regon": "147363409",
                "operator": "Bogdan Ekstowicz",
                "operator:type": "private",
                "fixme": "w zale\u017cno\u015bci od przedmiotu dzia\u0142alno\u015bci (np. amenity=training + training=*, amenity=dancing_school, amenity=language_school, amenity=music_school)"
            }
        },
        {
            "id": 273411,
            "type": "Feature",
            "geometry": {
                "type": "Point",
                "coordinates": [
                    20.94249,
                    52.20631
                ]
            },
            "properties": {
                "ref:rspo": 273411,
                "official_name": "Niebieski Koralik 2 Niepubliczny Punkt Przedszkolny",
                "name": "Niebieski Koralik 2 Niepubliczny Punkt Przedszkolny",
                "addr:country": "PL",
                "addr:postcode": "02-342",
                "addr:city": "Warszawa",
                "addr:street": "Aleja Aleje Jerozolimskie",
                "addr:housenumber": "168",
                "addr:teryt:simc": 45207,
                "addr:teryt:sym_ul": 918643,
                "contact:phone": "+48 516190234",
                "ref:regon": "384463567",
                "operator": "Dorota Serwach",
                "operator:type": "private",
                "amenity": "kindergarten"
            }
        },
        {
            "id": 133533,
            "type": "Feature",
            "geometry": {
                "type": "Point",
                "coordinates": [
                    20.97599,
                    52.20637
                ]
            },
            "properties": {
                "isced:level": "3",
                "ref:rspo": 133533,
                "official_name": "Clx Liceum Og\u00f3lnokszta\u0142c\u0105ce im. Gen. Dyw. Stefana Roweckiego \"Grota\" w Warszawie",
                "name": "Clx Liceum Og\u00f3lnokszta\u0142c\u0105ce",
                "addr:country": "PL",
                "addr:postcode": "02-106",
                "addr:city": "Warszawa",
                "addr:street": "J\u00f3zefa Siemie\u0144skiego",
                "addr:housenumber": "6",
                "addr:teryt:simc": 19812,
                "addr:teryt:sym_ul": 918643,
                "contact:phone": "+48 228223129",
                "contact:email": "lo160@edu.um.warszawa.pl",
                "ref:regon": "367397390",
                "operator": "Ochota",
                "operator:type": "government",
                "amenity": "school"
            }
        },
        {
            "id": 105405,
            "type": "Feature",
            "geometry": {
                "type": "Point",
                "coordinates": [
                    20.98479,
                    52.20715
                ]
            },
            "properties": {
                "isced:level": "1;2",
                "ref:rspo": 105405,
                "official_name": "Szko\u0142a Podstawowa w Dzieci\u0119cym Szpitalu Klinicznym im. J\u00f3zefa Polikarpa Brudzi\u0144skiego Specjalna Nr 287",
                "name": "Szko\u0142a Podstawowa w Dzieci\u0119cym Szpitalu Klinicznym",
                "addr:country": "PL",
                "addr:postcode": "02-091",
                "addr:city": "Warszawa",
                "addr:street": "\u017bwirki i Wigury",
                "addr:housenumber": "63A",
                "addr:teryt:simc": 26608,
                "addr:teryt:sym_ul": 918643,
                "contact:phone": "+48 223179405",
                "contact:email": "sp287@edu.um.warszawa.pl",
                "contact:website": "http:\/\/sps287.edu.pl",
                "ref:regon": "016270454",
                "operator": "Miasto Sto\u0142eczne Warszawa",
                "operator:type": "government",
                "amenity": "school"
            }
        },
        {
            "id": 29239,
            "type": "Feature",
            "geometry": {
                "type": "Point",
                "coordinates": [
                    20.97156,
                    52.20783
                ]
            },
            "properties": {
                "isced:level": "3",
                "ref:rspo": 29239,
                "official_name": "Lxix Liceum Og\u00f3lnokszta\u0142c\u0105ce Z Oddzia\u0142ami Integracyjnymi im. Bohater\u00f3w Powstania Warszawskiego 1944 w Warszawie",
                "name": "Lxix Liceum Og\u00f3lnokszta\u0142c\u0105ce Z Oddzia\u0142ami Integracyjnymi",
                "addr:country": "PL",
                "addr:postcode": "02-377",
                "addr:city": "Warszawa",
                "addr:street": "Stanis\u0142awa Skar\u017cy\u0144skiego",
                "addr:housenumber": "8",
                "addr:teryt:simc": 20027,
                "addr:teryt:sym_ul": 918643,
                "contact:phone": "+48 228229989",
                "contact:email": "sekretariat@lo69.edu.pl",
                "contact:website": "http:\/\/www.lo69.pl",
                "ref:regon": "015766058",
                "operator": "Ochota",
                "operator:type": "government",
                "amenity": "school"
            }
        },
        {
            "id": 273295,
            "type": "Feature",
            "geometry": {
                "type": "Point",
                "coordinates": [
                    20.95626,
                    52.20793
                ]
            },
            "properties": {
                "ref:rspo": 273295,
                "official_name": "Przedszkole Niepubliczne Rubik Music School",
                "name": "Przedszkole Niepubliczne Rubik Music School",
                "addr:country": "PL",
                "addr:postcode": "02-202",
                "addr:city": "Warszawa",
                "addr:street": "Drawska",
                "addr:housenumber": "11",
                "addr:teryt:simc": 4168,
                "addr:teryt:sym_ul": 918643,
                "contact:phone": "+48 503122599",
                "ref:regon": "384433891",
                "operator": "Rubik School Sp\u00f3\u0142ka Z Ograniczon\u0105 Odpowiedzialno\u015bci\u0105",
                "operator:type": "private",
                "amenity": "kindergarten"
            }
        },
        {
            "id": 80513,
            "type": "Feature",
            "geometry": {
                "type": "Point",
                "coordinates": [
                    20.95445,
                    52.20805
                ]
            },
            "properties": {
                "ref:rspo": 80513,
                "official_name": "Przedszkole Niepubliczne \"Piotru\u015b Pan\"",
                "name": "Przedszkole Niepubliczne \"Piotru\u015b Pan\"",
                "addr:country": "PL",
                "addr:postcode": "02-207",
                "addr:city": "Warszawa",
                "addr:street": "Filipinki",
                "addr:housenumber": "6",
                "addr:teryt:simc": 5004,
                "addr:teryt:sym_ul": 918643,
                "contact:phone": "+48 226584568",
                "contact:email": "przedszkole.piotrus@onet.pl",
                "contact:website": "http:\/\/www.piotruspan.waw.pl",
                "ref:regon": "146412100",
                "operator": "Barbara Jak\u00f3bowska",
                "operator:type": "private",
                "amenity": "kindergarten"
            }
        },
        {
            "id": 23289,
            "type": "Feature",
            "geometry": {
                "type": "Point",
                "coordinates": [
                    20.9669199,
                    52.20827
                ]
            },
            "properties": {
                "isced:level": "1;2",
                "ref:rspo": 23289,
                "official_name": "Szko\u0142a Podstawowa Nr 175 im. Heleny Marusarz\u00f3wny w Warszawie",
                "name": "Szko\u0142a Podstawowa Nr 175",
                "addr:country": "PL",
                "addr:postcode": "02-381",
                "addr:city": "Warszawa",
                "addr:street": "Trzech Budrys\u00f3w",
                "addr:housenumber": "32",
                "addr:teryt:simc": 23079,
                "addr:teryt:sym_ul": 918643,
                "contact:phone": "+48 228222005",
                "contact:email": "sekretariat@sp175.pl",
                "contact:website": "http:\/\/www.sp175.pl",
                "ref:regon": "000800338",
                "ref:vatin": "PL5262399141",
                "operator": "Ochota",
                "operator:type": "government",
                "amenity": "school"
            }
        },
        {
            "id": 22853,
            "type": "Feature",
            "geometry": {
                "type": "Point",
                "coordinates": [
                    20.96717,
                    52.20899
                ]
            },
            "properties": {
                "ref:rspo": 22853,
                "official_name": "Przedszkole Nr 176",
                "name": "Przedszkole Nr 176",
                "addr:country": "PL",
                "addr:postcode": "02-381",
                "addr:city": "Warszawa",
                "addr:street": "Trzech Budrys\u00f3w",
                "addr:housenumber": "24",
                "addr:teryt:simc": 23079,
                "addr:teryt:sym_ul": 918643,
                "contact:phone": "+48 228225785",
                "contact:email": "p176@edu.um.warszawa.pl",
                "contact:website": "http:\/\/www.przedszkole176.pl",
                "ref:regon": "013006610",
                "ref:vatin": "PL5262393658",
                "operator": "Ochota",
                "operator:type": "government",
                "amenity": "kindergarten"
            }
        },
        {
            "id": 23434,
            "type": "Feature",
            "geometry": {
                "type": "Point",
                "coordinates": [
                    20.97168,
                    52.2095399
                ]
            },
            "properties": {
                "ref:rspo": 23434,
                "official_name": "Przedszkole Nr 225",
                "name": "Przedszkole Nr 225",
                "addr:country": "PL",
                "addr:postcode": "02-378",
                "addr:city": "Warszawa",
                "addr:street": "Stefana Bobrowskiego",
                "addr:housenumber": "5",
                "addr:teryt:simc": 1498,
                "addr:teryt:sym_ul": 918643,
                "contact:phone": "+48 228229348",
                "contact:email": "p225@edu.um.warszawa.pl",
                "contact:website": "http:\/\/przedszkole225waw.szkolnastrona.pl",
                "ref:regon": "013006633",
                "ref:vatin": "PL5262391116",
                "operator": "Ochota",
                "operator:type": "government",
                "amenity": "kindergarten"
            }
        },
        {
            "id": 132758,
            "type": "Feature",
            "geometry": {
                "type": "Point",
                "coordinates": [
                    20.98441,
                    52.20975
                ]
            },
            "properties": {
                "isced:level": "4",
                "ref:rspo": 132758,
                "official_name": "Europejskie Centrum Opieki D\u0142ugoterminowej Policealna Szko\u0142a dla Opiekun\u00f3w Medycznych w Warszawie",
                "name": "Europejskie Centrum Opieki D\u0142ugoterminowej Policealna Szko\u0142a dla Opiekun\u00f3w Medycznych w Warszawie",
                "addr:country": "PL",
                "addr:postcode": "02-097",
                "addr:city": "Warszawa",
                "addr:street": "Stefana Banacha",
                "addr:housenumber": "1 a",
                "addr:teryt:simc": 666,
                "addr:teryt:sym_ul": 918643,
                "contact:phone": "+48 566123567",
                "contact:email": "opiekunmedyczny@tzmo.com.pl",
                "contact:website": "http:\/\/opiekunmedyczny.com.pl",
                "ref:regon": "366204101",
                "operator": "Toru\u0144skie Zak\u0142ady Materia\u0142\u00f3w Opatrunkowych - Sp\u00f3\u0142ka Akcyjna",
                "operator:type": "private",
                "amenity": "college"
            }
        },
        {
            "id": 22661,
            "type": "Feature",
            "geometry": {
                "type": "Point",
                "coordinates": [
                    20.9772399,
                    52.21002
                ]
            },
            "properties": {
                "ref:rspo": 22661,
                "official_name": "Przedszkole Nr 66",
                "name": "Przedszkole Nr 66",
                "addr:country": "PL",
                "addr:postcode": "02-101",
                "addr:city": "Warszawa",
                "addr:street": "Gr\u00f3jecka",
                "addr:housenumber": "93",
                "addr:teryt:simc": 6215,
                "addr:teryt:sym_ul": 918643,
                "contact:phone": "+48 228221948",
                "contact:email": "p66@edu.um.warszawa.pl",
                "contact:website": "http:\/\/www.p66.przedszkola.net.pl",
                "ref:regon": "013006410",
                "ref:vatin": "PL5262390370",
                "operator": "Ochota",
                "operator:type": "government",
                "amenity": "kindergarten"
            }
        },
        {
            "id": 25293,
            "type": "Feature",
            "geometry": {
                "type": "Point",
                "coordinates": [
                    20.9772399,
                    52.20999
                ]
            },
            "properties": {
                "isced:level": "3",
                "ref:rspo": 25293,
                "official_name": "Xxi Liceum Og\u00f3lnokszta\u0142c\u0105ce im. Hugona Ko\u0142\u0142\u0105taja w Warszawie",
                "name": "Xxi Liceum Og\u00f3lnokszta\u0142c\u0105ce",
                "addr:country": "PL",
                "addr:postcode": "02-101",
                "addr:city": "Warszawa",
                "addr:street": "Gr\u00f3jecka",
                "addr:housenumber": "93",
                "addr:teryt:simc": 6215,
                "addr:teryt:sym_ul": 918643,
                "contact:phone": "+48 228222102",
                "contact:email": "lo21@edu.um.warszawa.pl",
                "contact:website": "http:\/\/www.liceum21.waw.ids.pl",
                "ref:regon": "000799240",
                "ref:vatin": "PL5262388108",
                "operator": "Ochota",
                "operator:type": "government",
                "amenity": "school"
            }
        },
        {
            "id": 131350,
            "type": "Feature",
            "geometry": {
                "type": "Point",
                "coordinates": [
                    20.9772399,
                    52.20996
                ]
            },
            "properties": {
                "isced:level": "4",
                "ref:rspo": 131350,
                "official_name": "Szko\u0142a Policealna Studium Pracownik\u00f3w Medycznych I Spo\u0142ecznych",
                "name": "Szko\u0142a Policealna Studium Pracownik\u00f3w Medycznych I Spo\u0142ecznych",
                "addr:country": "PL",
                "addr:postcode": "02-101",
                "addr:city": "Warszawa",
                "addr:street": "Gr\u00f3jecka",
                "addr:housenumber": "93",
                "addr:teryt:simc": 6215,
                "addr:teryt:sym_ul": 918643,
                "contact:phone": "+48 510036706",
                "contact:email": "warszawa@oswiatalingwista.eu",
                "contact:website": "http:\/\/www.szkolymedyczne.eu",
                "ref:regon": "365131908",
                "operator": "\"O\u015bwiata-Lingwista\" Nadba\u0142tyckie Centrum Edukacji Sp\u00f3\u0142ka Z Ograniczon\u0105 Odpowiedzialno\u015bci\u0105",
                "operator:type": "private",
                "amenity": "college"
            }
        },
        {
            "id": 121300,
            "type": "Feature",
            "geometry": {
                "type": "Point",
                "coordinates": [
                    20.95694,
                    52.21041
                ]
            },
            "properties": {
                "ref:rspo": 121300,
                "official_name": "Niepubliczne Przedszkole Niebieski Koralik",
                "name": "Niepubliczne Przedszkole Niebieski Koralik",
                "addr:country": "PL",
                "addr:postcode": "02-203",
                "addr:city": "Warszawa",
                "addr:street": "Kurhan",
                "addr:housenumber": "10F",
                "addr:teryt:simc": 10438,
                "addr:teryt:sym_ul": 918643,
                "contact:phone": "+48 516190234",
                "contact:email": "katarzyna.serwach@gmail.com",
                "contact:website": "http:\/\/www.niebieskikoralik.edu.pl",
                "ref:regon": "147031446",
                "operator": "Dorota Serwach",
                "operator:type": "private",
                "amenity": "kindergarten"
            }
        },
        {
            "id": 29820,
            "type": "Feature",
            "geometry": {
                "type": "Point",
                "coordinates": [
                    21.005,
                    52.21042
                ]
            },
            "properties": {
                "isced:level": "3",
                "ref:rspo": 29820,
                "official_name": "Liceum Og\u00f3lnokszta\u0142c\u0105ce Spo\u0142eczne Nr 17",
                "name": "Liceum Og\u00f3lnokszta\u0142c\u0105ce Spo\u0142eczne Nr 17",
                "addr:country": "PL",
                "addr:postcode": "02-591",
                "addr:city": "Warszawa",
                "addr:street": "Stefana Batorego",
                "addr:housenumber": "14",
                "addr:teryt:simc": 891,
                "addr:teryt:sym_ul": 918643,
                "contact:phone": "+48 228254001",
                "contact:email": "siedemnastkalos@gmail.com",
                "contact:website": "http:\/\/www.siedemnastka.org",
                "ref:regon": "146342776",
                "operator": "Towarzystwo Spo\u0142ecznego Liceum Og\u00f3lnokszta\u0142c\u0105cego W Warszawie",
                "operator:type": "ngo",
                "amenity": "school"
            }
        },
        {
            "id": 129179,
            "type": "Feature",
            "geometry": {
                "type": "Point",
                "coordinates": [
                    20.95774,
                    52.21076
                ]
            },
            "properties": {
                "ref:rspo": 129179,
                "official_name": "Niepubliczne Przedszkole \"Radosne Dzieciaki\"",
                "name": "Niepubliczne Przedszkole \"Radosne Dzieciaki\"",
                "addr:country": "PL",
                "addr:postcode": "02-203",
                "addr:city": "Warszawa",
                "addr:street": "Kurhan",
                "addr:housenumber": "12k",
                "addr:teryt:simc": 10438,
                "addr:teryt:sym_ul": 918643,
                "contact:phone": "+48 660228858",
                "contact:email": "beata.libera-orkowska@wp.pl",
                "ref:regon": "362522991",
                "operator": "Beata Libera-Orkowska",
                "operator:type": "private",
                "amenity": "kindergarten"
            }
        },
        {
            "id": 273974,
            "type": "Feature",
            "geometry": {
                "type": "Point",
                "coordinates": [
                    20.95252,
                    52.21111
                ]
            },
            "properties": {
                "ref:rspo": 273974,
                "official_name": "Akademia Mistrzostwa Kadrowo-P\u0142acowego I Zarz\u0105dzania Zasobami Ludzkimi",
                "name": "Akademia Mistrzostwa Kadrowo-P\u0142acowego I Zarz\u0105dzania Zasobami Ludzkimi",
                "addr:country": "PL",
                "addr:postcode": "02-222",
                "addr:city": "Warszawa",
                "addr:street": "Aleja Aleje Jerozolimskie",
                "addr:housenumber": "181b",
                "addr:teryt:simc": 45207,
                "addr:teryt:sym_ul": 918643,
                "contact:phone": "+48 786200258",
                "ref:regon": "384938042",
                "operator": "Monika Smulewicz",
                "operator:type": "private",
                "fixme": "w zale\u017cno\u015bci od przedmiotu dzia\u0142alno\u015bci (np. amenity=training + training=*, amenity=dancing_school, amenity=language_school, amenity=music_school)"
            }
        },
        {
            "id": 274587,
            "type": "Feature",
            "geometry": {
                "type": "Point",
                "coordinates": [
                    20.95252,
                    52.211079999999995
                ]
            },
            "properties": {
                "ref:rspo": 274587,
                "official_name": "Inprogress Skills - Niepubliczna Plac\u00f3wka Kszta\u0142cenia Ustawicznego",
                "name": "Inprogress Skills - Niepubliczna Plac\u00f3wka Kszta\u0142cenia Ustawicznego",
                "addr:country": "PL",
                "addr:postcode": "02-222",
                "addr:city": "Warszawa",
                "addr:street": "Aleja Aleje Jerozolimskie",
                "addr:housenumber": "181B",
                "addr:teryt:simc": 45207,
                "addr:teryt:sym_ul": 918643,
                "contact:phone": "+48 123579579",
                "contact:email": "biuro@inprogress.pl",
                "ref:regon": "386007537",
                "operator": "Inprogress Skills Sp\u00f3\u0142ka Z Ograniczon\u0105 Odpowiedzialno\u015bci\u0105",
                "operator:type": "private",
                "fixme": "w zale\u017cno\u015bci od przedmiotu dzia\u0142alno\u015bci (np. amenity=training + training=*, amenity=dancing_school, amenity=language_school, amenity=music_school)"
            }
        },
        {
            "id": 105415,
            "type": "Feature",
            "geometry": {
                "type": "Point",
                "coordinates": [
                    20.967,
                    52.21154
                ]
            },
            "properties": {
                "isced:level": "1;2",
                "ref:rspo": 105415,
                "official_name": "Szko\u0142a Podstawowa Specjalna Nr 177",
                "name": "Szko\u0142a Podstawowa Specjalna Nr 177",
                "addr:country": "PL",
                "addr:postcode": "02-353",
                "addr:city": "Warszawa",
                "addr:street": "Szcz\u0119\u015bliwicka",
                "addr:housenumber": "45\/47",
                "addr:teryt:simc": 21847,
                "addr:teryt:sym_ul": 918643,
                "contact:phone": "+48 228220642",
                "contact:email": "sekretariat@szczesliwicka.edu.pl",
                "contact:website": "http:\/\/www.szczesliwicka.edu.pl",
                "ref:regon": "016438238",
                "operator": "Miasto Sto\u0142eczne Warszawa",
                "operator:type": "government",
                "amenity": "school"
            }
        },
        {
            "id": 11136,
            "type": "Feature",
            "geometry": {
                "type": "Point",
                "coordinates": [
                    20.97628,
                    52.21268
                ]
            },
            "properties": {
                "ref:rspo": 11136,
                "official_name": "Przedszkole Nr 99 im. Misia Wojtka",
                "name": "Przedszkole Nr 99",
                "addr:country": "PL",
                "addr:postcode": "02-360",
                "addr:city": "Warszawa",
                "addr:street": "Siewierska",
                "addr:housenumber": "3",
                "addr:teryt:simc": 19890,
                "addr:teryt:sym_ul": 918643,
                "contact:phone": "+48 228222332",
                "contact:email": "ejakowlew@edu.um.warszawa.pl",
                "contact:website": "http:\/\/www.przedszkole99.waw.pl",
                "ref:regon": "013006538",
                "ref:vatin": "PL5262391085",
                "operator": "Ochota",
                "operator:type": "government",
                "amenity": "kindergarten"
            }
        },
        {
            "id": 133326,
            "type": "Feature",
            "geometry": {
                "type": "Point",
                "coordinates": [
                    20.9871899,
                    52.21269
                ]
            },
            "properties": {
                "ref:rspo": 133326,
                "official_name": "Egurrola Dance Studio",
                "name": "Egurrola Dance Studio",
                "addr:country": "PL",
                "addr:postcode": "02-089",
                "addr:city": "Warszawa",
                "addr:street": "\u017bwirki i Wigury",
                "addr:housenumber": "99a",
                "addr:teryt:simc": 26608,
                "addr:teryt:sym_ul": 918643,
                "contact:phone": "+48 601202020",
                "contact:email": "ksiegowosc@egurrola.pl",
                "ref:regon": "367026328",
                "operator": "Agustin Egurrola",
                "operator:type": "private",
                "fixme": "w zale\u017cno\u015bci od przedmiotu dzia\u0142alno\u015bci (np. amenity=training + training=*, amenity=dancing_school, amenity=language_school, amenity=music_school)"
            }
        },
        {
            "id": 133327,
            "type": "Feature",
            "geometry": {
                "type": "Point",
                "coordinates": [
                    20.9871899,
                    52.21266
                ]
            },
            "properties": {
                "ref:rspo": 133327,
                "official_name": "Egurrola Dance Studio",
                "name": "Egurrola Dance Studio",
                "addr:country": "PL",
                "addr:postcode": "02-089",
                "addr:city": "Warszawa",
                "addr:street": "\u017bwirki i Wigury",
                "addr:housenumber": "99a",
                "addr:teryt:simc": 26608,
                "addr:teryt:sym_ul": 918643,
                "contact:phone": "+48 601202020",
                "contact:email": "ksiegowosc@egurrola.pl",
                "ref:regon": "367026334",
                "operator": "Agustin Egurrola",
                "operator:type": "private",
                "fixme": "w zale\u017cno\u015bci od przedmiotu dzia\u0142alno\u015bci (np. amenity=training + training=*, amenity=dancing_school, amenity=language_school, amenity=music_school)"
            }
        },
        {
            "id": 22665,
            "type": "Feature",
            "geometry": {
                "type": "Point",
                "coordinates": [
                    20.97565,
                    52.21291
                ]
            },
            "properties": {
                "ref:rspo": 22665,
                "official_name": "Przedszkole Z Oddzia\u0142ami Integracyjnymi Nr 102",
                "name": "Przedszkole Z Oddzia\u0142ami Integracyjnymi Nr 102",
                "addr:country": "PL",
                "addr:postcode": "02-360",
                "addr:city": "Warszawa",
                "addr:street": "Siewierska",
                "addr:housenumber": "5\/7",
                "addr:teryt:simc": 19890,
                "addr:teryt:sym_ul": 918643,
                "contact:phone": "+48 228221157",
                "contact:email": "p102@edu.um.warszawa.pl",
                "contact:website": "http:\/\/www.przedszkole102.waw.szkolnastrona.pl",
                "ref:regon": "013006567",
                "ref:vatin": "PL5262387942",
                "operator": "Ochota",
                "operator:type": "government",
                "amenity": "kindergarten"
            }
        },
        {
            "id": 17107,
            "type": "Feature",
            "geometry": {
                "type": "Point",
                "coordinates": [
                    20.96764,
                    52.21366
                ]
            },
            "properties": {
                "ref:rspo": 17107,
                "official_name": "Zesp\u00f3\u0142 Szk\u00f3\u0142 im. In\u017c. Stanis\u0142awa Wysockiego D. \"Kolej\u00f3wka\"",
                "name": "Zesp\u00f3\u0142 Szk\u00f3\u0142",
                "addr:country": "PL",
                "addr:postcode": "02-353",
                "addr:city": "Warszawa",
                "addr:street": "Szcz\u0119\u015bliwicka",
                "addr:housenumber": "56",
                "addr:teryt:simc": 21847,
                "addr:teryt:sym_ul": 918643,
                "contact:phone": "+48 228223252",
                "contact:email": "zskol@edu.um.warszawa.pl",
                "contact:website": "http:\/\/www.swysocki.edu.pl",
                "ref:regon": "017296504",
                "ref:vatin": "PL5261740170",
                "operator": "Ochota",
                "operator:type": "government",
                "landuse": "education",
                "fixme": "amenity=school, amenity=college albo landuse=education w zale\u017cno\u015bci od tego, jakie plac\u00f3wki wchodz\u0105 w sk\u0142ad zespo\u0142u. Sprawd\u017a, kiedy stosowa\u0107 amenity=* a kiedy landuse=education.",
                "note": "Children RSPO: 29316;29816"
            }
        },
        {
            "id": 17234,
            "type": "Feature",
            "geometry": {
                "type": "Point",
                "coordinates": [
                    20.96764,
                    52.213629999999995
                ]
            },
            "properties": {
                "ref:rspo": 17234,
                "official_name": "Zesp\u00f3\u0142 Szk\u00f3\u0142 Samochodowych I Licealnych Nr 1",
                "name": "Zesp\u00f3\u0142 Szk\u00f3\u0142 Samochodowych I Licealnych Nr 1",
                "addr:country": "PL",
                "addr:postcode": "02-353",
                "addr:city": "Warszawa",
                "addr:street": "Szcz\u0119\u015bliwicka",
                "addr:housenumber": "56",
                "addr:teryt:simc": 21847,
                "addr:teryt:sym_ul": 918643,
                "contact:phone": "+48 228240545",
                "contact:email": "szkola@zssil1.edu.pl",
                "contact:website": "http:\/\/www.zssil1.edu.pl",
                "ref:regon": "000187518",
                "ref:vatin": "PL5261022730",
                "operator": "Ochota",
                "operator:type": "government",
                "landuse": "education",
                "fixme": "amenity=school, amenity=college albo landuse=education w zale\u017cno\u015bci od tego, jakie plac\u00f3wki wchodz\u0105 w sk\u0142ad zespo\u0142u. Sprawd\u017a, kiedy stosowa\u0107 amenity=* a kiedy landuse=education.",
                "note": "Children RSPO: 30309;30391"
            }
        },
        {
            "id": 121967,
            "type": "Feature",
            "geometry": {
                "type": "Point",
                "coordinates": [
                    20.96764,
                    52.2136
                ]
            },
            "properties": {
                "ref:rspo": 121967,
                "official_name": "Stowarzyszenie Bezpieczna Praca - Szkolenia",
                "name": "Stowarzyszenie Bezpieczna Praca - Szkolenia",
                "addr:country": "PL",
                "addr:postcode": "02-353",
                "addr:city": "Warszawa",
                "addr:street": "Szcz\u0119\u015bliwicka",
                "addr:housenumber": "56",
                "addr:teryt:simc": 21847,
                "addr:teryt:sym_ul": 918643,
                "contact:phone": "+48 609537730",
                "contact:email": "biuro@szkolenia-elektryczne.pl",
                "ref:regon": "147101359",
                "operator": "Stowarzyszenie Bezpieczna Praca",
                "operator:type": "ngo",
                "fixme": "w zale\u017cno\u015bci od przedmiotu dzia\u0142alno\u015bci (np. amenity=training + training=*, amenity=dancing_school, amenity=language_school, amenity=music_school)"
            }
        },
        {
            "id": 29316,
            "type": "Feature",
            "geometry": {
                "type": "Point",
                "coordinates": [
                    20.96764,
                    52.21357
                ]
            },
            "properties": {
                "isced:level": "3",
                "ref:rspo": 29316,
                "official_name": "Technikum Nr 7 w Warszawie",
                "name": "Technikum Nr 7 w Warszawie",
                "addr:country": "PL",
                "addr:postcode": "02-353",
                "addr:city": "Warszawa",
                "addr:street": "Szcz\u0119\u015bliwicka",
                "addr:housenumber": "56",
                "addr:teryt:simc": 21847,
                "addr:teryt:sym_ul": 918643,
                "contact:phone": "+48 228223252",
                "contact:email": "zskol@edu.um.warszawa.pl",
                "contact:website": "http:\/\/www.swysocki.edu.pl",
                "ref:regon": "017296533",
                "operator": "Ochota",
                "operator:type": "government",
                "amenity": "school",
                "note": "Parent RSPO: 17107"
            }
        },
        {
            "id": 29816,
            "type": "Feature",
            "geometry": {
                "type": "Point",
                "coordinates": [
                    20.96764,
                    52.213539999999995
                ]
            },
            "properties": {
                "isced:level": "4",
                "ref:rspo": 29816,
                "official_name": "Szko\u0142a Policealna Nr 16 w Warszawie",
                "name": "Szko\u0142a Policealna Nr 16 w Warszawie",
                "addr:country": "PL",
                "addr:postcode": "02-353",
                "addr:city": "Warszawa",
                "addr:street": "Szcz\u0119\u015bliwicka",
                "addr:housenumber": "56",
                "addr:teryt:simc": 21847,
                "addr:teryt:sym_ul": 918643,
                "contact:phone": "+48 228223252",
                "contact:email": "zskol@edu.um.warszawa.pl",
                "contact:website": "http:\/\/www.swysocki.edu.pl",
                "ref:regon": "140031420",
                "operator": "Ochota",
                "operator:type": "government",
                "amenity": "college",
                "note": "Parent RSPO: 17107"
            }
        },
        {
            "id": 30309,
            "type": "Feature",
            "geometry": {
                "type": "Point",
                "coordinates": [
                    20.96764,
                    52.21351
                ]
            },
            "properties": {
                "isced:level": "3",
                "ref:rspo": 30309,
                "official_name": "Bran\u017cowa Szko\u0142a Samochodowa I Stopnia Nr 2",
                "name": "Bran\u017cowa Szko\u0142a Samochodowa I Stopnia Nr 2",
                "addr:country": "PL",
                "addr:postcode": "02-353",
                "addr:city": "Warszawa",
                "addr:street": "Szcz\u0119\u015bliwicka",
                "addr:housenumber": "56",
                "addr:teryt:simc": 21847,
                "addr:teryt:sym_ul": 918643,
                "contact:phone": "+48 228240545",
                "contact:email": "szkola@zssil1.edu.pl",
                "contact:website": "http:\/\/www.zssamoch.internetdsl.pl",
                "ref:regon": "015850215",
                "operator": "Ochota",
                "operator:type": "government",
                "amenity": "school",
                "note": "Parent RSPO: 17234"
            }
        },
        {
            "id": 30391,
            "type": "Feature",
            "geometry": {
                "type": "Point",
                "coordinates": [
                    20.96764,
                    52.21348
                ]
            },
            "properties": {
                "isced:level": "3",
                "ref:rspo": 30391,
                "official_name": "Technikum Samochodowe Nr 1 im. Romana Macieja Pijanowskiego w Warszawie",
                "name": "Technikum Samochodowe Nr 1",
                "addr:country": "PL",
                "addr:postcode": "02-353",
                "addr:city": "Warszawa",
                "addr:street": "Szcz\u0119\u015bliwicka",
                "addr:housenumber": "56",
                "addr:teryt:simc": 21847,
                "addr:teryt:sym_ul": 918643,
                "contact:phone": "+48 228240545",
                "contact:email": "szkola@zssil1.edu.pl",
                "contact:website": "http:\/\/www.zssamoch.internetdsl.pl",
                "ref:regon": "015850110",
                "operator": "Ochota",
                "operator:type": "government",
                "amenity": "school",
                "note": "Parent RSPO: 17234"
            }
        },
        {
            "id": 23442,
            "type": "Feature",
            "geometry": {
                "type": "Point",
                "coordinates": [
                    20.97237,
                    52.2138
                ]
            },
            "properties": {
                "ref:rspo": 23442,
                "official_name": "Przedszkole Integracyjne Nr 404",
                "name": "Przedszkole Integracyjne Nr 404",
                "addr:country": "PL",
                "addr:postcode": "02-364",
                "addr:city": "Warszawa",
                "addr:street": "Bia\u0142obrzeska",
                "addr:housenumber": "19",
                "addr:teryt:simc": 1173,
                "addr:teryt:sym_ul": 918643,
                "contact:phone": "+48 226595018",
                "contact:email": "p404@edu.um.warszawa.pl",
                "contact:website": "http:\/\/www.przedszkole404.waw.pl",
                "ref:regon": "013006774",
                "ref:vatin": "PL5262391151",
                "operator": "Ochota",
                "operator:type": "government",
                "amenity": "kindergarten"
            }
        },
        {
            "id": 129737,
            "type": "Feature",
            "geometry": {
                "type": "Point",
                "coordinates": [
                    20.96131,
                    52.21389
                ]
            },
            "properties": {
                "ref:rspo": 129737,
                "official_name": "Przedszkole Niepubliczne \"Ulik\"",
                "name": "Przedszkole Niepubliczne \"Ulik\"",
                "addr:country": "PL",
                "addr:postcode": "02-389",
                "addr:city": "Warszawa",
                "addr:street": "Aleja Bohater\u00f3w Wrze\u015bnia",
                "addr:housenumber": "18",
                "addr:door": "2",
                "addr:teryt:simc": 45577,
                "addr:teryt:sym_ul": 918643,
                "contact:phone": "+48 515839555",
                "contact:email": "ulikprzedszkole@gmail.com",
                "contact:website": "http:\/\/ulik.edu.pl",
                "ref:regon": "362809310",
                "operator": "Ulik Chimczuka Sp\u00f3\u0142ka Z Ograniczon\u0105 Odpowiedzialno\u015bci\u0105",
                "operator:type": "private",
                "amenity": "kindergarten"
            }
        },
        {
            "id": 22662,
            "type": "Feature",
            "geometry": {
                "type": "Point",
                "coordinates": [
                    20.97562,
                    52.21391
                ]
            },
            "properties": {
                "ref:rspo": 22662,
                "official_name": "Przedszkole Z Oddzia\u0142ami Integracyjnymi Nr 70",
                "name": "Przedszkole Z Oddzia\u0142ami Integracyjnymi Nr 70",
                "addr:country": "PL",
                "addr:postcode": "02-348",
                "addr:city": "Warszawa",
                "addr:street": "Rokosowska",
                "addr:housenumber": "2",
                "addr:teryt:simc": 18806,
                "addr:teryt:sym_ul": 918643,
                "contact:phone": "+48 228222321",
                "contact:email": "p70@edu.um.warszawa.pl",
                "contact:website": "http:\/\/www.przedszkole70.com.pl",
                "ref:regon": "013006490",
                "ref:vatin": "PL5262390246",
                "operator": "Ochota",
                "operator:type": "government",
                "amenity": "kindergarten"
            }
        },
        {
            "id": 277613,
            "type": "Feature",
            "geometry": {
                "type": "Point",
                "coordinates": [
                    20.97727,
                    52.21393
                ]
            },
            "properties": {
                "ref:rspo": 277613,
                "official_name": "Centrum Edukacji I Rozoju - Progresownia",
                "name": "Centrum Edukacji I Rozoju - Progresownia",
                "addr:country": "PL",
                "addr:postcode": "01-493",
                "addr:city": "Warszawa",
                "addr:street": "Ba\u015bniowa",
                "addr:housenumber": "3",
                "addr:door": "516",
                "addr:teryt:simc": 864,
                "addr:teryt:sym_ul": 918643,
                "contact:email": "rafal.klebanski@gmail.com",
                "contact:website": "http:\/\/www.progresownia.com.pl",
                "ref:regon": "389197047",
                "operator": "Progresownia Rafa\u0142 Kleba\u0144ski",
                "operator:type": "consortium",
                "amenity": "training"
            }
        },
        {
            "id": 129224,
            "type": "Feature",
            "geometry": {
                "type": "Point",
                "coordinates": [
                    20.99693,
                    52.21423
                ]
            },
            "properties": {
                "ref:rspo": 129224,
                "official_name": "Niepubliczna Poradnia Psychologiczno-Pedagogiczna \"Synapsis\" dla Dzieci I M\u0142odzie\u017cy Z Uszkodzeniami O\u015brodkowego Uk\u0142adu Nerwowego",
                "name": "Niepubliczna Poradnia Psychologiczno-Pedagogiczna \"Synapsis\" dla Dzieci I M\u0142odzie\u017cy Z Uszkodzeniami O\u015brodkowego Uk\u0142adu Nerwowego",
                "addr:country": "PL",
                "addr:postcode": "02-085",
                "addr:city": "Warszawa",
                "addr:street": "Ondraszka",
                "addr:housenumber": "3",
                "addr:teryt:simc": 15048,
                "addr:teryt:sym_ul": 918643,
                "contact:phone": "+48 228258722",
                "ref:regon": "362525937",
                "operator": "Fundacja Synapsis",
                "operator:type": "ngo",
                "healthcare": "counselling",
                "counselling_type": "education",
                "fixme": "w zale\u017cno\u015bci od przedmiotu dzia\u0142alno\u015bci (np. healthcare=counselling + counselling_type=education albo healthcare=psychotherapist)"
            }
        },
        {
            "id": 272836,
            "type": "Feature",
            "geometry": {
                "type": "Point",
                "coordinates": [
                    20.99693,
                    52.2142
                ]
            },
            "properties": {
                "ref:rspo": 272836,
                "official_name": "Niepubliczna Plac\u00f3wka Kszta\u0142cenia Ustawicznego Synapsis",
                "name": "Niepubliczna Plac\u00f3wka Kszta\u0142cenia Ustawicznego Synapsis",
                "addr:country": "PL",
                "addr:postcode": "02-085",
                "addr:city": "Warszawa",
                "addr:street": "Ondraszka",
                "addr:housenumber": "3",
                "addr:teryt:simc": 15048,
                "addr:teryt:sym_ul": 918643,
                "contact:phone": "+48 228258742",
                "contact:email": "fundacja@synapsis.org.pl",
                "ref:regon": "384299636",
                "operator": "Fundacja Synapsis",
                "operator:type": "ngo",
                "fixme": "w zale\u017cno\u015bci od przedmiotu dzia\u0142alno\u015bci (np. amenity=training + training=*, amenity=dancing_school, amenity=language_school, amenity=music_school)"
            }
        },
        {
            "id": 264741,
            "type": "Feature",
            "geometry": {
                "type": "Point",
                "coordinates": [
                    20.97316,
                    52.21438
                ]
            },
            "properties": {
                "ref:rspo": 264741,
                "official_name": "Baby Room Gym",
                "name": "Baby Room Gym",
                "addr:country": "PL",
                "addr:postcode": "02-348",
                "addr:city": "Warszawa",
                "addr:street": "Rokosowska",
                "addr:housenumber": "7",
                "addr:door": "56",
                "addr:teryt:simc": 18806,
                "addr:teryt:sym_ul": 918643,
                "contact:phone": "+48 509123669",
                "ref:regon": "368446498",
                "operator": "Preschool Group Sp\u00f3\u0142ka Z Ograniczon\u0105 Odpowiedzialno\u015bci\u0105",
                "operator:type": "private",
                "fixme": "w zale\u017cno\u015bci od przedmiotu dzia\u0142alno\u015bci (np. amenity=training + training=*, amenity=dancing_school, amenity=language_school, amenity=music_school)"
            }
        },
        {
            "id": 79804,
            "type": "Feature",
            "geometry": {
                "type": "Point",
                "coordinates": [
                    20.97057,
                    52.21441
                ]
            },
            "properties": {
                "isced:level": "3",
                "ref:rspo": 79804,
                "official_name": "Akademickie Liceum Og\u00f3lnokszta\u0142c\u0105ce Przy Pjatk",
                "name": "Akademickie Liceum Og\u00f3lnokszta\u0142c\u0105ce Przy Pjatk",
                "addr:country": "PL",
                "addr:postcode": "02-353",
                "addr:city": "Warszawa",
                "addr:street": "Szcz\u0119\u015bliwicka",
                "addr:housenumber": "33a",
                "addr:teryt:simc": 21847,
                "addr:teryt:sym_ul": 918643,
                "contact:phone": "+48 660532051",
                "contact:email": "liceum@pja.edu.pl",
                "contact:website": "http:\/\/www.liceum.pja.edu.pl",
                "ref:regon": "146444376",
                "operator": "Polsko-Japo\u0144ska Akademia Technik Komputerowych",
                "operator:type": "private",
                "amenity": "school"
            }
        },
        {
            "id": 23581,
            "type": "Feature",
            "geometry": {
                "type": "Point",
                "coordinates": [
                    20.97282,
                    52.21495
                ]
            },
            "properties": {
                "ref:rspo": 23581,
                "official_name": "M\u0142odzie\u017cowy Dom Kultury \"Ochota\"",
                "name": "M\u0142odzie\u017cowy Dom Kultury \"Ochota\"",
                "addr:country": "PL",
                "addr:postcode": "02-348",
                "addr:city": "Warszawa",
                "addr:street": "Rokosowska",
                "addr:housenumber": "10",
                "addr:teryt:simc": 18806,
                "addr:teryt:sym_ul": 918643,
                "contact:phone": "+48 228222895",
                "contact:email": "sekretariat@mdkochota.edu.pl",
                "contact:website": "http:\/\/www.mdkochota.edu.pl",
                "ref:regon": "000959317",
                "ref:vatin": "PL5262590867",
                "operator": "Ochota",
                "operator:type": "government",
                "amenity": "community_centre",
                "community_centre:for": "juvenile"
            }
        },
        {
            "id": 23178,
            "type": "Feature",
            "geometry": {
                "type": "Point",
                "coordinates": [
                    20.97434,
                    52.21516
                ]
            },
            "properties": {
                "isced:level": "1;2",
                "ref:rspo": 23178,
                "official_name": "Szko\u0142a Podstawowa Z Oddzia\u0142ami Integracyjnymi Nr 61 im. Juliana Przybosia w Warszawie",
                "name": "Szko\u0142a Podstawowa Z Oddzia\u0142ami Integracyjnymi Nr 61",
                "addr:country": "PL",
                "addr:postcode": "02-340",
                "addr:city": "Warszawa",
                "addr:street": "Bia\u0142obrzeska",
                "addr:housenumber": "27",
                "addr:teryt:simc": 1173,
                "addr:teryt:sym_ul": 918643,
                "contact:phone": "+48 228222736",
                "contact:email": "rwrotniak@edu.um.warszawa.pl",
                "contact:website": "http:\/\/www.szkola61.pl",
                "ref:regon": "000800769",
                "ref:vatin": "PL5262387988",
                "operator": "Ochota",
                "operator:type": "government",
                "amenity": "school"
            }
        },
        {
            "id": 22663,
            "type": "Feature",
            "geometry": {
                "type": "Point",
                "coordinates": [
                    20.97639,
                    52.21552
                ]
            },
            "properties": {
                "ref:rspo": 22663,
                "official_name": "Przedszkole Nr 100",
                "name": "Przedszkole Nr 100",
                "addr:country": "PL",
                "addr:postcode": "02-344",
                "addr:city": "Warszawa",
                "addr:street": "Cz\u0119stochowska",
                "addr:housenumber": "16\/18",
                "addr:teryt:simc": 3458,
                "addr:teryt:sym_ul": 918643,
                "contact:phone": "+48 228221252",
                "contact:email": "p100@edu.um.warszawa.pl",
                "contact:website": "http:\/\/www.przedszkolenr100.pl",
                "ref:regon": "013006544",
                "ref:vatin": "PL5262399135",
                "operator": "Ochota",
                "operator:type": "government",
                "amenity": "kindergarten"
            }
        },
        {
            "id": 22664,
            "type": "Feature",
            "geometry": {
                "type": "Point",
                "coordinates": [
                    20.97926,
                    52.21573
                ]
            },
            "properties": {
                "ref:rspo": 22664,
                "official_name": "Przedszkole Nr 101",
                "name": "Przedszkole Nr 101",
                "addr:country": "PL",
                "addr:postcode": "02-345",
                "addr:city": "Warszawa",
                "addr:street": "Chotomowska",
                "addr:housenumber": "3",
                "addr:teryt:simc": 2868,
                "addr:teryt:sym_ul": 918643,
                "contact:phone": "+48 228222706",
                "contact:email": "p101@edu.um.warszawa.pl",
                "contact:website": "http:\/\/www.przedszkole101.szkolnastrona.pl",
                "ref:regon": "013006550",
                "ref:vatin": "PL5262399098",
                "operator": "Ochota",
                "operator:type": "government",
                "amenity": "kindergarten"
            }
        },
        {
            "id": 17220,
            "type": "Feature",
            "geometry": {
                "type": "Point",
                "coordinates": [
                    20.9685099,
                    52.21591
                ]
            },
            "properties": {
                "ref:rspo": 17220,
                "official_name": "Centrum Kszta\u0142cenia Ustawicznego Nr 2",
                "name": "Centrum Kszta\u0142cenia Ustawicznego Nr 2",
                "addr:country": "PL",
                "addr:postcode": "02-353",
                "addr:city": "Warszawa",
                "addr:street": "Szcz\u0119\u015bliwicka",
                "addr:housenumber": "50\/54",
                "addr:teryt:simc": 21847,
                "addr:teryt:sym_ul": 918643,
                "contact:phone": "+48 228229895",
                "contact:email": "cku2@rubikon.pl",
                "contact:website": "http:\/\/cku2.waw.pl",
                "ref:regon": "000959790",
                "ref:vatin": "PL5262273003",
                "operator": "Ochota",
                "operator:type": "government",
                "amenity": "school",
                "fixme": "amenity=school lub amenity=college",
                "note": "Children RSPO: 30184;133534"
            }
        },
        {
            "id": 133549,
            "type": "Feature",
            "geometry": {
                "type": "Point",
                "coordinates": [
                    20.9685099,
                    52.21588
                ]
            },
            "properties": {
                "isced:level": "3",
                "ref:rspo": 133549,
                "official_name": "Niepubliczne Liceum Og\u00f3lnokszta\u0142c\u0105ce Nr 2 im. Janusza Korczaka",
                "name": "Niepubliczne Liceum Og\u00f3lnokszta\u0142c\u0105ce Nr 2",
                "addr:country": "PL",
                "addr:postcode": "02-353",
                "addr:city": "Warszawa",
                "addr:street": "Szcz\u0119\u015bliwicka",
                "addr:housenumber": "50\/54",
                "addr:teryt:simc": 21847,
                "addr:teryt:sym_ul": 918643,
                "contact:phone": "+48 515303945",
                "contact:email": "liceum.korczaka@gmail.com",
                "ref:regon": "367417520",
                "operator": "Karol Strzelczyk",
                "operator:type": "private",
                "amenity": "school"
            }
        },
        {
            "id": 30184,
            "type": "Feature",
            "geometry": {
                "type": "Point",
                "coordinates": [
                    20.9685099,
                    52.21585
                ]
            },
            "properties": {
                "isced:level": "3",
                "ref:rspo": 30184,
                "official_name": "Cxxxiii Liceum Og\u00f3lnokszta\u0142c\u0105ce dla Doros\u0142ych w Warszawie",
                "name": "Cxxxiii Liceum Og\u00f3lnokszta\u0142c\u0105ce dla Doros\u0142ych w Warszawie",
                "addr:country": "PL",
                "addr:postcode": "02-353",
                "addr:city": "Warszawa",
                "addr:street": "Szcz\u0119\u015bliwicka",
                "addr:housenumber": "50\/54",
                "addr:teryt:simc": 21847,
                "addr:teryt:sym_ul": 918643,
                "contact:phone": "+48 228229895",
                "contact:email": "cku2@rubikon.pl",
                "contact:website": "http:\/\/cku2.waw.pl",
                "ref:regon": "140059520",
                "operator": "Ochota",
                "operator:type": "government",
                "amenity": "school",
                "note": "Parent RSPO: 17220"
            }
        },
        {
            "id": 133534,
            "type": "Feature",
            "geometry": {
                "type": "Point",
                "coordinates": [
                    20.9685099,
                    52.21582
                ]
            },
            "properties": {
                "isced:level": "1;2",
                "ref:rspo": 133534,
                "official_name": "Szko\u0142a Podstawowa dla Doros\u0142ych Nr 372 w Warszawie",
                "name": "Szko\u0142a Podstawowa dla Doros\u0142ych Nr 372 w Warszawie",
                "addr:country": "PL",
                "addr:postcode": "02-353",
                "addr:city": "Warszawa",
                "addr:street": "Szcz\u0119\u015bliwicka",
                "addr:housenumber": "50\/54",
                "addr:teryt:simc": 21847,
                "addr:teryt:sym_ul": 918643,
                "contact:phone": "+48 228229895",
                "contact:email": "cku2@rubikon.pl",
                "ref:regon": "367397444",
                "operator": "Ochota",
                "operator:type": "government",
                "amenity": "school",
                "note": "Parent RSPO: 17220"
            }
        },
        {
            "id": 23387,
            "type": "Feature",
            "geometry": {
                "type": "Point",
                "coordinates": [
                    20.9959,
                    52.2161199
                ]
            },
            "properties": {
                "ref:rspo": 23387,
                "official_name": "Iii Ogr\u00f3d Jordanowski",
                "name": "Iii Ogr\u00f3d Jordanowski",
                "addr:country": "PL",
                "addr:postcode": "02-034",
                "addr:city": "Warszawa",
                "addr:street": "Wawelska",
                "addr:housenumber": "3",
                "addr:teryt:simc": 23749,
                "addr:teryt:sym_ul": 918643,
                "contact:phone": "+48 228251444",
                "contact:email": "sekretariat@ogrodjordanowski3.szkolnastrona.pl",
                "contact:website": "http:\/\/ogrodjordanowski3.szkolnastrona.pl",
                "ref:regon": "012840860",
                "ref:vatin": "PL5262390281",
                "operator": "Ochota",
                "operator:type": "government",
                "amenity": "community_centre",
                "community_centre:for": "child;juvenile"
            }
        },
        {
            "id": 17026,
            "type": "Feature",
            "geometry": {
                "type": "Point",
                "coordinates": [
                    20.97014,
                    52.21642
                ]
            },
            "properties": {
                "ref:rspo": 17026,
                "official_name": "Zesp\u00f3\u0142 Szk\u00f3\u0142 Nr 4 im. Eugeniusza Kwiatkowskiego",
                "name": "Zesp\u00f3\u0142 Szk\u00f3\u0142 Nr 4",
                "addr:country": "PL",
                "addr:postcode": "02-353",
                "addr:city": "Warszawa",
                "addr:street": "Szcz\u0119\u015bliwicka",
                "addr:housenumber": "46",
                "addr:teryt:simc": 21847,
                "addr:teryt:sym_ul": 918643,
                "contact:phone": "+48 228231436",
                "contact:email": "zsel4@zse4.waw.ids.pl",
                "contact:website": "http:\/\/www.zse4.waw.ids.pl",
                "ref:regon": "000683269",
                "ref:vatin": "PL5261673545",
                "operator": "Ochota",
                "operator:type": "government",
                "landuse": "education",
                "fixme": "amenity=school, amenity=college albo landuse=education w zale\u017cno\u015bci od tego, jakie plac\u00f3wki wchodz\u0105 w sk\u0142ad zespo\u0142u. Sprawd\u017a, kiedy stosowa\u0107 amenity=* a kiedy landuse=education.",
                "note": "Children RSPO: 26380;26796"
            }
        },
        {
            "id": 26380,
            "type": "Feature",
            "geometry": {
                "type": "Point",
                "coordinates": [
                    20.97014,
                    52.21639
                ]
            },
            "properties": {
                "isced:level": "4",
                "ref:rspo": 26380,
                "official_name": "Szko\u0142a Policealna Nr 12 w Warszawie",
                "name": "Szko\u0142a Policealna Nr 12 w Warszawie",
                "addr:country": "PL",
                "addr:postcode": "02-353",
                "addr:city": "Warszawa",
                "addr:street": "Szcz\u0119\u015bliwicka",
                "addr:housenumber": "46",
                "addr:teryt:simc": 21847,
                "addr:teryt:sym_ul": 918643,
                "contact:phone": "+48 228231436",
                "contact:email": "zsel4@zse4.waw.ids.pl",
                "contact:website": "http:\/\/www.zse4.waw.ids.pl",
                "ref:regon": "015765739",
                "operator": "Ochota",
                "operator:type": "government",
                "amenity": "college",
                "note": "Parent RSPO: 17026"
            }
        },
        {
            "id": 26796,
            "type": "Feature",
            "geometry": {
                "type": "Point",
                "coordinates": [
                    20.97014,
                    52.21636
                ]
            },
            "properties": {
                "isced:level": "3",
                "ref:rspo": 26796,
                "official_name": "Technikum Nr 10 im. Eugeniusza Kwiatkowskiego w Warszawie",
                "name": "Technikum Nr 10",
                "addr:country": "PL",
                "addr:postcode": "02-353",
                "addr:city": "Warszawa",
                "addr:street": "Szcz\u0119\u015bliwicka",
                "addr:housenumber": "46",
                "addr:teryt:simc": 21847,
                "addr:teryt:sym_ul": 918643,
                "contact:phone": "+48 228231436",
                "contact:email": "zsel4@zse4.waw.ids.pl",
                "contact:website": "http:\/\/www.zse.waw.ids.pl",
                "ref:regon": "015765662",
                "operator": "Ochota",
                "operator:type": "government",
                "amenity": "school",
                "note": "Parent RSPO: 17026"
            }
        },
        {
            "id": 23610,
            "type": "Feature",
            "geometry": {
                "type": "Point",
                "coordinates": [
                    20.97811,
                    52.21647
                ]
            },
            "properties": {
                "ref:rspo": 23610,
                "official_name": "Poradnia Psychologiczno-Pedagogiczna Nr 9",
                "name": "Poradnia Psychologiczno-Pedagogiczna Nr 9",
                "addr:country": "PL",
                "addr:postcode": "02-323",
                "addr:city": "Warszawa",
                "addr:street": "Radomska",
                "addr:housenumber": "13\/21",
                "addr:teryt:simc": 18316,
                "addr:teryt:sym_ul": 918643,
                "contact:phone": "+48 228222887",
                "contact:email": "sekretariat@poradnia9.waw.pl",
                "contact:website": "http:\/\/www.poradnia9.waw.pl",
                "ref:regon": "000838246",
                "ref:vatin": "PL5262735900",
                "operator": "Ochota",
                "operator:type": "government",
                "healthcare": "counselling",
                "counselling_type": "education",
                "fixme": "w zale\u017cno\u015bci od przedmiotu dzia\u0142alno\u015bci (np. healthcare=counselling + counselling_type=education albo healthcare=psychotherapist)"
            }
        },
        {
            "id": 22660,
            "type": "Feature",
            "geometry": {
                "type": "Point",
                "coordinates": [
                    20.97432,
                    52.21656
                ]
            },
            "properties": {
                "ref:rspo": 22660,
                "official_name": "Przedszkole Nr 61",
                "name": "Przedszkole Nr 61",
                "addr:country": "PL",
                "addr:postcode": "02-351",
                "addr:city": "Warszawa",
                "addr:street": "Lelechowska",
                "addr:housenumber": "7",
                "addr:teryt:simc": 10789,
                "addr:teryt:sym_ul": 918643,
                "contact:phone": "+48 228221283",
                "contact:email": "p61@edu.um.warszawa.pl",
                "contact:website": "http:\/\/www.przedszkole61.edupage.org",
                "ref:regon": "013006484",
                "ref:vatin": "PL5262391145",
                "operator": "Ochota",
                "operator:type": "government",
                "amenity": "kindergarten"
            }
        },
        {
            "id": 38438,
            "type": "Feature",
            "geometry": {
                "type": "Point",
                "coordinates": [
                    20.98442,
                    52.21667
                ]
            },
            "properties": {
                "isced:level": "1;2",
                "ref:rspo": 38438,
                "official_name": "Szko\u0142a Podstawowa Thames British School",
                "name": "Szko\u0142a Podstawowa Thames British School",
                "addr:country": "PL",
                "addr:postcode": "02-034",
                "addr:city": "Warszawa",
                "addr:street": "Wawelska",
                "addr:housenumber": "66\/74",
                "addr:teryt:simc": 23749,
                "addr:teryt:sym_ul": 918643,
                "contact:phone": "+48 228221575",
                "contact:email": "ochota@thamesbritishschool.pl",
                "contact:website": "http:\/\/thamesbritishschool.pl",
                "ref:regon": "146377964",
                "ref:vatin": "PL5222431708",
                "operator": "\"Meridian\" Sp\u00f3\u0142ka Z Ograniczon\u0105 Odpowiedzialno\u015bci\u0105",
                "operator:type": "private",
                "amenity": "school"
            }
        },
        {
            "id": 105690,
            "type": "Feature",
            "geometry": {
                "type": "Point",
                "coordinates": [
                    20.97668,
                    52.2167
                ]
            },
            "properties": {
                "isced:level": "1;2",
                "ref:rspo": 105690,
                "official_name": "Szko\u0142a Podstawowa Specjalna Nr 327 im.dr.anny Lechowicz",
                "name": "Szko\u0142a Podstawowa Specjalna Nr 327 im.dr.anny Lechowicz",
                "addr:country": "PL",
                "addr:postcode": "02-325",
                "addr:city": "Warszawa",
                "addr:street": "Bia\u0142obrzeska",
                "addr:housenumber": "44",
                "addr:teryt:simc": 1173,
                "addr:teryt:sym_ul": 918643,
                "contact:phone": "+48 228221261",
                "contact:email": "sekretariat@sp327.edu.pl",
                "contact:website": "http:\/\/www.sp327.edu.pl",
                "ref:regon": "012732857",
                "operator": "Miasto Sto\u0142eczne Warszawa",
                "operator:type": "government",
                "amenity": "school"
            }
        },
        {
            "id": 25263,
            "type": "Feature",
            "geometry": {
                "type": "Point",
                "coordinates": [
                    20.9964,
                    52.21705
                ]
            },
            "properties": {
                "isced:level": "3",
                "ref:rspo": 25263,
                "official_name": "Vii Liceum Og\u00f3lnokszta\u0142c\u0105ce im. Juliusza S\u0142owackiego w Warszawie",
                "name": "Vii Liceum Og\u00f3lnokszta\u0142c\u0105ce",
                "addr:country": "PL",
                "addr:postcode": "02-067",
                "addr:city": "Warszawa",
                "addr:street": "Wawelska",
                "addr:housenumber": "46",
                "addr:teryt:simc": 23749,
                "addr:teryt:sym_ul": 918643,
                "contact:phone": "+48 228250553",
                "contact:email": "julius@liceum7.edu.pl",
                "contact:website": "http:\/\/www.liceum7.edu.pl",
                "ref:regon": "015765975",
                "ref:vatin": "PL5261736599",
                "operator": "Ochota",
                "operator:type": "government",
                "amenity": "school"
            }
        },
        {
            "id": 124108,
            "type": "Feature",
            "geometry": {
                "type": "Point",
                "coordinates": [
                    20.9964,
                    52.21702
                ]
            },
            "properties": {
                "ref:rspo": 124108,
                "official_name": "Polskie Centrum Edukacji Tomasz Marciniak Sp\u00f3\u0142ka Jawna",
                "name": "Polskie Centrum Edukacji Tomasz Marciniak Sp\u00f3\u0142ka Jawna",
                "addr:country": "PL",
                "addr:postcode": "02-067",
                "addr:city": "Warszawa",
                "addr:street": "Wawelska",
                "addr:housenumber": "46",
                "addr:teryt:simc": 23749,
                "addr:teryt:sym_ul": 918643,
                "contact:phone": "+48 224975769",
                "contact:website": "http:\/\/www.kursy.edu.pl",
                "ref:regon": "147379296",
                "operator": "Tomasz Marciniak",
                "operator:type": "private",
                "fixme": "w zale\u017cno\u015bci od przedmiotu dzia\u0142alno\u015bci (np. amenity=training + training=*, amenity=dancing_school, amenity=language_school, amenity=music_school)"
            }
        },
        {
            "id": 124109,
            "type": "Feature",
            "geometry": {
                "type": "Point",
                "coordinates": [
                    20.9964,
                    52.21699
                ]
            },
            "properties": {
                "ref:rspo": 124109,
                "official_name": "Polskie Centrum Edukacji Tomasz Marciniak Sp\u00f3\u0142ka Jawna",
                "name": "Polskie Centrum Edukacji Tomasz Marciniak Sp\u00f3\u0142ka Jawna",
                "addr:country": "PL",
                "addr:postcode": "02-067",
                "addr:city": "Warszawa",
                "addr:street": "Wawelska",
                "addr:housenumber": "46",
                "addr:teryt:simc": 23749,
                "addr:teryt:sym_ul": 918643,
                "contact:phone": "+48 224975769",
                "contact:email": "szkolenia@szkolenia.pl.edu.pl",
                "ref:regon": "147379340",
                "operator": "Tomasz Marciniak",
                "operator:type": "private",
                "fixme": "w zale\u017cno\u015bci od przedmiotu dzia\u0142alno\u015bci (np. amenity=training + training=*, amenity=dancing_school, amenity=language_school, amenity=music_school)"
            }
        },
        {
            "id": 120074,
            "type": "Feature",
            "geometry": {
                "type": "Point",
                "coordinates": [
                    21.003,
                    52.21739
                ]
            },
            "properties": {
                "ref:rspo": 120074,
                "official_name": "Przedszkole Niepubliczne \"Lalilu\"",
                "name": "Przedszkole Niepubliczne \"Lalilu\"",
                "addr:country": "PL",
                "addr:postcode": "02-061",
                "addr:city": "Warszawa",
                "addr:street": "Wawelska",
                "addr:housenumber": "16",
                "addr:teryt:simc": 23749,
                "addr:teryt:sym_ul": 918643,
                "contact:phone": "+48 601191820",
                "contact:email": "przedszkole@lalilu.pl",
                "ref:regon": "146881355",
                "operator": "Dorota Ruszkiewicz",
                "operator:type": "private",
                "amenity": "kindergarten"
            }
        },
        {
            "id": 53023,
            "type": "Feature",
            "geometry": {
                "type": "Point",
                "coordinates": [
                    21.00396,
                    52.21748
                ]
            },
            "properties": {
                "isced:level": "4",
                "ref:rspo": 53023,
                "official_name": "Policealne Studium Informatyki I Rachunkowo\u015bci",
                "name": "Policealne Studium Informatyki I Rachunkowo\u015bci",
                "addr:country": "PL",
                "addr:postcode": "02-081",
                "addr:city": "Warszawa",
                "addr:street": "S\u0119dziowska",
                "addr:housenumber": "1",
                "addr:teryt:simc": 19726,
                "addr:teryt:sym_ul": 918643,
                "contact:phone": "+48 228251021",
                "contact:email": "biuro@inglo.pl",
                "ref:regon": "146373558",
                "operator": "Inter Global O\u015bwiata Sp\u00f3\u0142ka Z Ograniczon\u0105 Odpowiedzialno\u015bci\u0105",
                "operator:type": "private",
                "amenity": "college"
            }
        },
        {
            "id": 64413,
            "type": "Feature",
            "geometry": {
                "type": "Point",
                "coordinates": [
                    20.9796799,
                    52.2176
                ]
            },
            "properties": {
                "ref:rspo": 64413,
                "official_name": "Niepubliczny O\u015brodek Rewalidacyjno Wychowawczy dla Dzieci I M\u0142odzie\u017cy Niewidomej I S\u0142abowidz\u0105cej Ze Sprz\u0119\u017conymi Niepe\u0142nosprawno\u015bciami Przy Zespole O\u015brodkow dla Dzieci I M\u0142odzie\u017cy Niewidomej I S\u0142abowidz\u0105cej Ze Sprz\u0119\u017conymi Niepe\u0142nosprawno",
                "name": "Niepubliczny O\u015brodek Rewalidacyjno Wychowawczy dla Dzieci I M\u0142odzie\u017cy Niewidomej I S\u0142abowidz\u0105cej Ze Sprz\u0119\u017conymi Niepe\u0142nosprawno\u015bciami Przy Zespole O\u015brodkow dla Dzieci I M\u0142odzie\u017cy Niewidomej I S\u0142abowidz\u0105cej Ze Sprz\u0119\u017conymi Niepe\u0142nosprawno",
                "addr:country": "PL",
                "addr:postcode": "02-321",
                "addr:city": "Warszawa",
                "addr:street": "Kopi\u0144ska",
                "addr:housenumber": "6\/10",
                "addr:teryt:simc": 9296,
                "addr:teryt:sym_ul": 918643,
                "contact:phone": "+48 228220344",
                "contact:email": "tecza@idn.org.pl",
                "contact:website": "http:\/\/www.tecza.org",
                "ref:regon": "146374010",
                "operator": "Stowarzyszenie Rodzic\u00f3w I Przyjaci\u00f3\u0142 Dzieci Niewidomych I S\u0142abowidz\u0105cych \"T\u0119cza\"",
                "operator:type": "ngo",
                "amenity": "school"
            }
        },
        {
            "id": 81835,
            "type": "Feature",
            "geometry": {
                "type": "Point",
                "coordinates": [
                    20.9796799,
                    52.217569999999995
                ]
            },
            "properties": {
                "ref:rspo": 81835,
                "official_name": "Przedszkole Niepubliczne Specjalne \"T\u0119cza\"",
                "name": "Przedszkole Niepubliczne Specjalne \"T\u0119cza\"",
                "addr:country": "PL",
                "addr:postcode": "02-321",
                "addr:city": "Warszawa",
                "addr:street": "Kopi\u0144ska",
                "addr:housenumber": "6",
                "addr:door": "10",
                "addr:teryt:simc": 9296,
                "addr:teryt:sym_ul": 918643,
                "contact:phone": "+48 228220344",
                "contact:email": "tecza@idn.org.pl",
                "contact:website": "http:\/\/www.tecza.org",
                "ref:regon": "146428325",
                "operator": "Stowarzyszenie Rodzic\u00f3w I Przyjaci\u00f3\u0142 Dzieci Niewidomych I S\u0142abowidz\u0105cych \"T\u0119cza\"",
                "operator:type": "ngo",
                "amenity": "kindergarten"
            }
        },
        {
            "id": 266358,
            "type": "Feature",
            "geometry": {
                "type": "Point",
                "coordinates": [
                    20.9796799,
                    52.21754
                ]
            },
            "properties": {
                "ref:rspo": 266358,
                "official_name": "Centrum Kszta\u0142cenia Kadr Przy Stowarzyszeniu Rodzic\u00f3w I Przyjaci\u00f3\u0142 Dzieci Niewidz\u0105cych I S\u0142abowidz\u0105cych \"T\u0119cza\"",
                "name": "Centrum Kszta\u0142cenia Kadr Przy Stowarzyszeniu Rodzic\u00f3w I Przyjaci\u00f3\u0142 Dzieci Niewidz\u0105cych I S\u0142abowidz\u0105cych \"T\u0119cza\"",
                "addr:country": "PL",
                "addr:postcode": "02-321",
                "addr:city": "Warszawa",
                "addr:street": "Kopi\u0144ska",
                "addr:housenumber": "6",
                "addr:door": "10",
                "addr:teryt:simc": 9296,
                "addr:teryt:sym_ul": 918643,
                "contact:phone": "+48 228220344",
                "contact:email": "tecza@idn.org.pl",
                "ref:regon": "369440109",
                "operator": "Stowarzyszenie Rodzic\u00f3w I Przyjaci\u00f3\u0142 Dzieci Niewidomych I S\u0142abowidz\u0105cych \"T\u0119cza\"",
                "operator:type": "ngo",
                "fixme": "w zale\u017cno\u015bci od przedmiotu dzia\u0142alno\u015bci (np. amenity=training + training=*, amenity=dancing_school, amenity=language_school, amenity=music_school)"
            }
        },
        {
            "id": 131351,
            "type": "Feature",
            "geometry": {
                "type": "Point",
                "coordinates": [
                    20.98278,
                    52.21763
                ]
            },
            "properties": {
                "ref:rspo": 131351,
                "official_name": "Przedszkole W\u0142oskie Piccolo Leonardo",
                "name": "Przedszkole W\u0142oskie Piccolo Leonardo",
                "addr:country": "PL",
                "addr:postcode": "02-031",
                "addr:city": "Warszawa",
                "addr:street": "Gr\u00f3jecka",
                "addr:housenumber": "39",
                "addr:teryt:simc": 6215,
                "addr:teryt:sym_ul": 918643,
                "contact:phone": "+48 608309305",
                "contact:email": "przedszkole@piccololeonardo.pl",
                "contact:website": "http:\/\/www.piccololeonardo.pl",
                "ref:regon": "365131937",
                "operator": "Joanna Bartnik",
                "operator:type": "private",
                "amenity": "kindergarten"
            }
        },
        {
            "id": 266550,
            "type": "Feature",
            "geometry": {
                "type": "Point",
                "coordinates": [
                    20.99836,
                    52.21773
                ]
            },
            "properties": {
                "ref:rspo": 266550,
                "official_name": "Studium Prawa Europejskiego",
                "name": "Studium Prawa Europejskiego",
                "addr:country": "PL",
                "addr:postcode": "02-070",
                "addr:city": "Warszawa",
                "addr:street": "Antoniego Solariego",
                "addr:housenumber": "1",
                "addr:door": "1",
                "addr:teryt:simc": 20513,
                "addr:teryt:sym_ul": 918643,
                "contact:phone": "+48 228333890",
                "contact:email": "m.jeruzalska@spe.edu.pl",
                "ref:regon": "369556390",
                "operator": "Instytut Bada\u0144 Nad Demokracj\u0105 Sp\u00f3\u0142ka Z Ograniczon\u0105 Odpowiedzialno\u015bci\u0105",
                "operator:type": "private",
                "fixme": "w zale\u017cno\u015bci od przedmiotu dzia\u0142alno\u015bci (np. amenity=training + training=*, amenity=dancing_school, amenity=language_school, amenity=music_school)"
            }
        },
        {
            "id": 274637,
            "type": "Feature",
            "geometry": {
                "type": "Point",
                "coordinates": [
                    20.99836,
                    52.2177
                ]
            },
            "properties": {
                "ref:rspo": 274637,
                "official_name": "Olimp - Plac\u00f3wka Doskonalenia Nauczycieli",
                "name": "Olimp - Plac\u00f3wka Doskonalenia Nauczycieli",
                "addr:country": "PL",
                "addr:postcode": "02-070",
                "addr:city": "Warszawa",
                "addr:street": "Antoniego Solariego",
                "addr:housenumber": "1",
                "addr:door": "1",
                "addr:teryt:simc": 20513,
                "addr:teryt:sym_ul": 918643,
                "contact:phone": "+48 228333890",
                "contact:email": "sekretariat@olimp-pdn.edu.pl",
                "contact:website": "http:\/\/www.olimp-pdn.edu.pl",
                "ref:regon": "386126093",
                "operator": "Instytut Bada\u0144 Nad Demokracj\u0105 Sp\u00f3\u0142ka Z Ograniczon\u0105 Odpowiedzialno\u015bci\u0105",
                "operator:type": "private",
                "amenity": "training"
            }
        },
        {
            "id": 266348,
            "type": "Feature",
            "geometry": {
                "type": "Point",
                "coordinates": [
                    21.00397,
                    52.21773
                ]
            },
            "properties": {
                "ref:rspo": 266348,
                "official_name": "Niepubliczna Plac\u00f3wka Kszta\u0142cenia Ustawicznego Centrum Certyfikacji J\u0119zykowej Lang dla Doros\u0142ych",
                "name": "Niepubliczna Plac\u00f3wka Kszta\u0142cenia Ustawicznego Centrum Certyfikacji J\u0119zykowej Lang dla Doros\u0142ych",
                "addr:country": "PL",
                "addr:postcode": "02-081",
                "addr:city": "Warszawa",
                "addr:street": "S\u0119dziowska",
                "addr:housenumber": "5",
                "addr:teryt:simc": 19726,
                "addr:teryt:sym_ul": 918643,
                "contact:phone": "+48 228252273",
                "contact:email": "lang@lang.com.pl",
                "ref:regon": "369436680",
                "operator": "Lang Ltc Sp\u00f3\u0142ka Z Ograniczon\u0105 Odpowiedzialno\u015bci\u0105",
                "operator:type": "private",
                "fixme": "w zale\u017cno\u015bci od przedmiotu dzia\u0142alno\u015bci (np. amenity=training + training=*, amenity=dancing_school, amenity=language_school, amenity=music_school)"
            }
        },
        {
            "id": 266350,
            "type": "Feature",
            "geometry": {
                "type": "Point",
                "coordinates": [
                    21.00397,
                    52.2177
                ]
            },
            "properties": {
                "ref:rspo": 266350,
                "official_name": "Niepubliczna Plac\u00f3wka O\u015bwiatowo-Wychowawcza Centrum Certyfikacji J\u0119zykowej Lang dla Dzieci I M\u0142odzie\u017cy",
                "name": "Niepubliczna Plac\u00f3wka O\u015bwiatowo-Wychowawcza Centrum Certyfikacji J\u0119zykowej Lang dla Dzieci I M\u0142odzie\u017cy",
                "addr:country": "PL",
                "addr:postcode": "02-081",
                "addr:city": "Warszawa",
                "addr:street": "S\u0119dziowska",
                "addr:housenumber": "5",
                "addr:teryt:simc": 19726,
                "addr:teryt:sym_ul": 918643,
                "contact:phone": "+48 228252273",
                "ref:regon": "369436705",
                "operator": "Lang Ltc Sp\u00f3\u0142ka Z Ograniczon\u0105 Odpowiedzialno\u015bci\u0105",
                "operator:type": "private",
                "fixme": "w zale\u017cno\u015bci od przedmiotu dzia\u0142alno\u015bci (np. amenity=training + training=*, amenity=dancing_school, amenity=language_school, amenity=music_school)"
            }
        },
        {
            "id": 22849,
            "type": "Feature",
            "geometry": {
                "type": "Point",
                "coordinates": [
                    20.99758,
                    52.21783
                ]
            },
            "properties": {
                "ref:rspo": 22849,
                "official_name": "Przedszkole Nr 111",
                "name": "Przedszkole Nr 111",
                "addr:country": "PL",
                "addr:postcode": "02-066",
                "addr:city": "Warszawa",
                "addr:street": "b\u0142. \u0141adys\u0142awa z Gielniowa",
                "addr:housenumber": "9\/11",
                "addr:teryt:simc": 11496,
                "addr:teryt:sym_ul": 918643,
                "contact:phone": "+48 228752970",
                "contact:email": "p111@edu.um.warszawa.pl",
                "contact:website": "http:\/\/przedszkole111.waw.pl",
                "ref:regon": "015232658",
                "ref:vatin": "PL5262646102",
                "operator": "Ochota",
                "operator:type": "government",
                "amenity": "kindergarten"
            }
        },
        {
            "id": 22851,
            "type": "Feature",
            "geometry": {
                "type": "Point",
                "coordinates": [
                    21.003926451787,
                    52.218117634074
                ]
            },
            "properties": {
                "ref:rspo": 22851,
                "official_name": "Przedszkole Nr 114",
                "name": "Przedszkole Nr 114",
                "addr:country": "PL",
                "addr:postcode": "02-071",
                "addr:city": "Warszawa",
                "addr:street": "Mariana Langiewicza",
                "addr:housenumber": "1",
                "addr:door": "3",
                "addr:teryt:simc": 10636,
                "addr:teryt:sym_ul": 918643,
                "contact:phone": "+48 228251194",
                "contact:email": "przedszkole114@op.pl",
                "contact:website": "http:\/\/www.radosneprzedszkole114.pl",
                "ref:regon": "013006573",
                "ref:vatin": "PL5262390200",
                "operator": "Ochota",
                "operator:type": "government",
                "amenity": "kindergarten"
            }
        },
        {
            "id": 31075,
            "type": "Feature",
            "geometry": {
                "type": "Point",
                "coordinates": [
                    20.99988,
                    52.21826
                ]
            },
            "properties": {
                "isced:level": "1;2",
                "ref:rspo": 31075,
                "official_name": "Prywatna Szko\u0142a Podstawowa Nr 81 Fundacji \"Rodzice Dzieciom\"",
                "name": "Prywatna Szko\u0142a Podstawowa Nr 81 Fundacji \"Rodzice Dzieciom\"",
                "addr:country": "PL",
                "addr:postcode": "02-078",
                "addr:city": "Warszawa",
                "addr:street": "Ludwika Krzywickiego",
                "addr:housenumber": "30",
                "addr:teryt:simc": 10167,
                "addr:teryt:sym_ul": 918643,
                "contact:phone": "+48 228251854",
                "contact:email": "sekretariat@spn81.edu.pl",
                "contact:website": "http:\/\/www.nsp81.pl",
                "ref:regon": "146349287",
                "operator": "Fundacja \"Rodzice Dzieciom\"",
                "operator:type": "ngo",
                "amenity": "school"
            }
        },
        {
            "id": 25406,
            "type": "Feature",
            "geometry": {
                "type": "Point",
                "coordinates": [
                    20.97586,
                    52.21913
                ]
            },
            "properties": {
                "isced:level": "3",
                "ref:rspo": 25406,
                "official_name": "Xlviii Liceum Og\u00f3lnokszta\u0142c\u0105ce im. Edwarda Dembowskiego w Warszawie",
                "name": "Xlviii Liceum Og\u00f3lnokszta\u0142c\u0105ce",
                "addr:country": "PL",
                "addr:postcode": "02-315",
                "addr:city": "Warszawa",
                "addr:street": "Barska",
                "addr:housenumber": "32",
                "addr:teryt:simc": 777,
                "addr:teryt:sym_ul": 918643,
                "contact:phone": "+48 228220658",
                "contact:email": "lo48@lo48.waw.pl",
                "contact:website": "http:\/\/www.lo48.waw.pl",
                "ref:regon": "000799262",
                "ref:vatin": "PL5262391524",
                "operator": "Ochota",
                "operator:type": "government",
                "amenity": "school"
            }
        },
        {
            "id": 81773,
            "type": "Feature",
            "geometry": {
                "type": "Point",
                "coordinates": [
                    20.9819,
                    52.21927
                ]
            },
            "properties": {
                "ref:rspo": 81773,
                "official_name": "M\u0142odzie\u017cowy O\u015brodek Wychowawczy Ksi\u0119\u017cy Orionist\u00f3w",
                "name": "M\u0142odzie\u017cowy O\u015brodek Wychowawczy Ksi\u0119\u017cy Orionist\u00f3w",
                "addr:country": "PL",
                "addr:postcode": "02-315",
                "addr:city": "Warszawa",
                "addr:street": "Barska",
                "addr:housenumber": "4",
                "addr:teryt:simc": 777,
                "addr:teryt:sym_ul": 918643,
                "contact:phone": "+48 228220280",
                "contact:email": "dyrektor@barskaorione.pl",
                "contact:website": "http:\/\/www.barskaorione.pl",
                "ref:regon": "146445335",
                "ref:vatin": "PL5262199910",
                "operator": "Zgromadzenie Zakonne Ma\u0142e Dzie\u0142o Boskiej Opatrzno\u015bci - Orioni\u015bci Prowincja Polska",
                "operator:type": "religious",
                "fixme": "amenity=social_facility + social_facility=group_home + social_facility:for=juvenile",
                "note": "Children RSPO: 103820"
            }
        },
        {
            "id": 103820,
            "type": "Feature",
            "geometry": {
                "type": "Point",
                "coordinates": [
                    20.9819,
                    52.21924
                ]
            },
            "properties": {
                "isced:level": "1;2",
                "ref:rspo": 103820,
                "official_name": "Szko\u0142a Podstawowa Nr 174 Ma\u0142e Dzie\u0142o Boskiej Opatrzno\u015bci - Orioni\u015bci",
                "name": "Szko\u0142a Podstawowa Nr 174 Ma\u0142e Dzie\u0142o Boskiej Opatrzno\u015bci - Orioni\u015bci",
                "addr:country": "PL",
                "addr:postcode": "02-315",
                "addr:city": "Warszawa",
                "addr:street": "Barska",
                "addr:housenumber": "4",
                "addr:teryt:simc": 777,
                "addr:teryt:sym_ul": 918643,
                "contact:phone": "+48 228220280",
                "contact:email": "dyrektor@barskaorione.pl",
                "contact:website": "http:\/\/barskaorione.pl",
                "ref:regon": "146441679",
                "operator": "Zgromadzenie Zakonne Ma\u0142e Dzie\u0142o Boskiej Opatrzno\u015bci - Orioni\u015bci Prowincja Polska",
                "operator:type": "religious",
                "amenity": "school",
                "note": "Parent RSPO: 81773"
            }
        },
        {
            "id": 25801,
            "type": "Feature",
            "geometry": {
                "type": "Point",
                "coordinates": [
                    21.00275,
                    52.2199
                ]
            },
            "properties": {
                "isced:level": "3",
                "ref:rspo": 25801,
                "official_name": "Xiv Liceum Og\u00f3lnokszta\u0142c\u0105ce im. Stanis\u0142awa Staszica w Warszawie",
                "name": "Xiv Liceum Og\u00f3lnokszta\u0142c\u0105ce",
                "addr:country": "PL",
                "addr:postcode": "02-010",
                "addr:city": "Warszawa",
                "addr:street": "Nowowiejska",
                "addr:housenumber": "37a",
                "addr:teryt:simc": 14495,
                "addr:teryt:sym_ul": 918643,
                "contact:phone": "+48 228251325",
                "contact:email": "szkola@staszic.waw.pl",
                "contact:website": "http:\/\/www.staszic.waw.pl",
                "ref:regon": "015765320",
                "operator": "Ochota",
                "operator:type": "government",
                "amenity": "school"
            }
        },
        {
            "id": 127833,
            "type": "Feature",
            "geometry": {
                "type": "Point",
                "coordinates": [
                    21.00275,
                    52.21987
                ]
            },
            "properties": {
                "isced:level": "3",
                "ref:rspo": 127833,
                "official_name": "Liceum Og\u00f3lnokszta\u0142c\u0105ce dla Doros\u0142ych \"Educatio\" w Warszawie",
                "name": "Liceum Og\u00f3lnokszta\u0142c\u0105ce dla Doros\u0142ych \"Educatio\" w Warszawie",
                "addr:country": "PL",
                "addr:postcode": "02-010",
                "addr:city": "Warszawa",
                "addr:street": "Nowowiejska",
                "addr:housenumber": "37a",
                "addr:teryt:simc": 14495,
                "addr:teryt:sym_ul": 918643,
                "contact:phone": "+48 501232791",
                "contact:email": "info@educatio.edu.pl",
                "ref:regon": "361873599",
                "operator": "Piotr St\u0119pie\u0144",
                "operator:type": "private",
                "amenity": "school"
            }
        },
        {
            "id": 127834,
            "type": "Feature",
            "geometry": {
                "type": "Point",
                "coordinates": [
                    21.00275,
                    52.219840000000005
                ]
            },
            "properties": {
                "isced:level": "4",
                "ref:rspo": 127834,
                "official_name": "Szko\u0142a Policealna \"Educatio\"",
                "name": "Szko\u0142a Policealna \"Educatio\"",
                "addr:country": "PL",
                "addr:postcode": "02-010",
                "addr:city": "Warszawa",
                "addr:street": "Nowowiejska",
                "addr:housenumber": "37 a",
                "addr:teryt:simc": 14495,
                "addr:teryt:sym_ul": 918643,
                "contact:phone": "+48 223432282",
                "contact:email": "info@educatio.edu.pl",
                "ref:regon": "361873613",
                "operator": "Piotr St\u0119pie\u0144",
                "operator:type": "private",
                "amenity": "college"
            }
        },
        {
            "id": 120192,
            "type": "Feature",
            "geometry": {
                "type": "Point",
                "coordinates": [
                    20.98934,
                    52.22102
                ]
            },
            "properties": {
                "isced:level": "1;2",
                "ref:rspo": 120192,
                "official_name": "Bednarska Szko\u0142a Podstawowa",
                "name": "Bednarska Szko\u0142a Podstawowa",
                "addr:country": "PL",
                "addr:postcode": "02-026",
                "addr:city": "Warszawa",
                "addr:street": "Raszy\u0144ska",
                "addr:housenumber": "22",
                "addr:teryt:simc": 18467,
                "addr:teryt:sym_ul": 918643,
                "contact:phone": "+48 228222515",
                "ref:regon": "146887725",
                "operator": "Towarzystwo Przyjaci\u00f3\u0142 I Spo\u0142ecznego Liceum Og\u00f3lnokszta\u0142c\u0105cego",
                "operator:type": "ngo",
                "amenity": "school"
            }
        },
        {
            "id": 266840,
            "type": "Feature",
            "geometry": {
                "type": "Point",
                "coordinates": [
                    21.0004199,
                    52.22193
                ]
            },
            "properties": {
                "ref:rspo": 266840,
                "official_name": "Szko\u0142a J\u0119zyk\u00f3w Obcych Linguae Mundi",
                "name": "Szko\u0142a J\u0119zyk\u00f3w Obcych Linguae Mundi",
                "addr:country": "PL",
                "addr:postcode": "02-078",
                "addr:city": "Warszawa",
                "addr:street": "Ludwika Krzywickiego",
                "addr:housenumber": "34",
                "addr:teryt:simc": 10167,
                "addr:teryt:sym_ul": 918643,
                "contact:phone": "+48 226542218",
                "contact:email": "u.sajkowska@linguaemundi.pl",
                "ref:regon": "369708078",
                "operator": "Szko\u0142a Jezyk\u00f3w Obcych Linguae Mundi Sp\u00f3\u0142ka Z Ograniczon\u0105 Odpowiedzialno\u015bci\u0105",
                "operator:type": "private",
                "fixme": "w zale\u017cno\u015bci od przedmiotu dzia\u0142alno\u015bci (np. amenity=training + training=*, amenity=dancing_school, amenity=language_school, amenity=music_school)"
            }
        },
        {
            "id": 23192,
            "type": "Feature",
            "geometry": {
                "type": "Point",
                "coordinates": [
                    20.98395,
                    52.22195
                ]
            },
            "properties": {
                "isced:level": "1;2",
                "ref:rspo": 23192,
                "official_name": "Szko\u0142a Podstawowa Nr 97 im. Leona Kruczkowskiego w Warszawie",
                "name": "Szko\u0142a Podstawowa Nr 97",
                "addr:country": "PL",
                "addr:postcode": "02-302",
                "addr:city": "Warszawa",
                "addr:street": "Spiska",
                "addr:housenumber": "1",
                "addr:teryt:simc": 20666,
                "addr:teryt:sym_ul": 918643,
                "contact:phone": "+48 228220920",
                "contact:email": "sp97@sp97.waw.pl",
                "contact:website": "http:\/\/www.sp97.waw.pl",
                "ref:regon": "000800806",
                "ref:vatin": "PL5262388114",
                "operator": "Ochota",
                "operator:type": "government",
                "amenity": "school"
            }
        },
        {
            "id": 271674,
            "type": "Feature",
            "geometry": {
                "type": "Point",
                "coordinates": [
                    20.98647,
                    52.22216
                ]
            },
            "properties": {
                "ref:rspo": 271674,
                "official_name": "Niepubliczna Szko\u0142a Specjalna Przysposabiaj\u0105ca Do Pracy \"Nie Z Tej Bajki\"",
                "name": "Niepubliczna Szko\u0142a Specjalna Przysposabiaj\u0105ca Do Pracy \"Nie Z Tej Bajki\"",
                "addr:country": "PL",
                "addr:postcode": "02-120",
                "addr:city": "Warszawa",
                "addr:street": "Gr\u00f3jecka",
                "addr:housenumber": "97",
                "addr:door": "700",
                "addr:teryt:simc": 6215,
                "addr:teryt:sym_ul": 918643,
                "contact:phone": "+48 603160140",
                "contact:email": "szkolanieztejbajki@gmail.com",
                "ref:regon": "383520228",
                "operator": "Stowarzyszenie Przyjaci\u00f3\u0142 Os\u00f3b Z Autyzmem \"Nie Z Tej Bajki\"",
                "operator:type": "ngo",
                "amenity": "school"
            }
        },
        {
            "id": 273450,
            "type": "Feature",
            "geometry": {
                "type": "Point",
                "coordinates": [
                    20.98647,
                    52.22213
                ]
            },
            "properties": {
                "ref:rspo": 273450,
                "official_name": "Pozaszkolna Plac\u00f3wka Specjalistyczna \"Nie Z Tej Bajki\"",
                "name": "Pozaszkolna Plac\u00f3wka Specjalistyczna \"Nie Z Tej Bajki\"",
                "addr:country": "PL",
                "addr:postcode": "02-120",
                "addr:city": "Warszawa",
                "addr:street": "Gr\u00f3jecka",
                "addr:housenumber": "97",
                "addr:teryt:simc": 6215,
                "addr:teryt:sym_ul": 918643,
                "contact:phone": "+48 603160400",
                "contact:email": "placowka@nieztejbajki.pl",
                "ref:regon": "384472000",
                "operator": "Stowarzyszenie Przyjaci\u00f3\u0142 Os\u00f3b Z Autyzmem \"Nie Z Tej Bajki\"",
                "operator:type": "ngo",
                "fixme": "w zale\u017cno\u015bci od przedmiotu dzia\u0142alno\u015bci (np. amenity=training + training=*, amenity=dancing_school, amenity=language_school, amenity=music_school)"
            }
        },
        {
            "id": 41236,
            "type": "Feature",
            "geometry": {
                "type": "Point",
                "coordinates": [
                    20.98971,
                    52.22313
                ]
            },
            "properties": {
                "ref:rspo": 41236,
                "official_name": "O\u015brodek Edukacji Informatycznej I Zastosowa\u0144 Komputer\u00f3w w Warszawie",
                "name": "O\u015brodek Edukacji Informatycznej I Zastosowa\u0144 Komputer\u00f3w w Warszawie",
                "addr:country": "PL",
                "addr:postcode": "02-026",
                "addr:city": "Warszawa",
                "addr:street": "Raszy\u0144ska",
                "addr:housenumber": "8\/10",
                "addr:teryt:simc": 18467,
                "addr:teryt:sym_ul": 918643,
                "contact:phone": "+48 225794100",
                "contact:email": "sekretariat@oeiizk.waw.pl",
                "contact:website": "http:\/\/www.oeiizk.waw.pl",
                "ref:regon": "142735680",
                "ref:vatin": "PL7010272815",
                "operator": "Wojew\u00f3dztwo Mazowieckie",
                "operator:type": "government",
                "amenity": "training"
            }
        },
        {
            "id": 14785,
            "type": "Feature",
            "geometry": {
                "type": "Point",
                "coordinates": [
                    21.00061,
                    52.22313
                ]
            },
            "properties": {
                "isced:level": "1;2",
                "ref:rspo": 14785,
                "official_name": "Szko\u0142a Podstawowa w Mazowieckim Centrum Neuropsychiatrii Specjalna Nr 302",
                "name": "Szko\u0142a Podstawowa w Mazowieckim Centrum Neuropsychiatrii Specjalna Nr 302",
                "addr:country": "PL",
                "addr:postcode": "02-008",
                "addr:city": "Warszawa",
                "addr:street": "Koszykowa",
                "addr:housenumber": "79 B",
                "addr:teryt:simc": 9537,
                "addr:teryt:sym_ul": 918643,
                "contact:phone": "+48 224682422",
                "contact:email": "sp302@edu.um.warszawa.pl",
                "ref:regon": "012439749",
                "ref:vatin": "PL5213090478",
                "operator": "Miasto Sto\u0142eczne Warszawa",
                "operator:type": "government",
                "amenity": "school"
            }
        },
        {
            "id": 122429,
            "type": "Feature",
            "geometry": {
                "type": "Point",
                "coordinates": [
                    20.9962,
                    52.22346
                ]
            },
            "properties": {
                "ref:rspo": 122429,
                "official_name": "Centrum British Council dla Doros\u0142ych",
                "name": "Centrum British Council dla Doros\u0142ych",
                "addr:country": "PL",
                "addr:postcode": "00-675",
                "addr:city": "Warszawa",
                "addr:street": "Koszykowa",
                "addr:housenumber": "54",
                "addr:teryt:simc": 9537,
                "addr:teryt:sym_ul": 918643,
                "contact:phone": "+48 226955900",
                "contact:website": "http:\/\/www.britishcouncil.pl",
                "ref:regon": "147143100",
                "operator": "Fundacja British Council",
                "operator:type": "ngo",
                "fixme": "w zale\u017cno\u015bci od przedmiotu dzia\u0142alno\u015bci (np. amenity=training + training=*, amenity=dancing_school, amenity=language_school, amenity=music_school)"
            }
        },
        {
            "id": 273977,
            "type": "Feature",
            "geometry": {
                "type": "Point",
                "coordinates": [
                    20.99128,
                    52.22499
                ]
            },
            "properties": {
                "ref:rspo": 273977,
                "official_name": "Centrum Szkoleniowe Rb Akademia",
                "name": "Centrum Szkoleniowe Rb Akademia",
                "addr:country": "PL",
                "addr:postcode": "02-017",
                "addr:city": "Warszawa",
                "addr:street": "Aleja Aleje Jerozolimskie",
                "addr:housenumber": "123a",
                "addr:teryt:simc": 45207,
                "addr:teryt:sym_ul": 918643,
                "contact:phone": "+48 222766184",
                "contact:email": "szkoleia@russellbedford.pl",
                "ref:regon": "384943528",
                "operator": "\"Russell Bedford Poland Akademia Sp\u00f3\u0142ka Z Ograniczon\u0105 Odpowiedzialno\u015bci\u0105\"",
                "operator:type": "private",
                "fixme": "w zale\u017cno\u015bci od przedmiotu dzia\u0142alno\u015bci (np. amenity=training + training=*, amenity=dancing_school, amenity=language_school, amenity=music_school)"
            }
        },
        {
            "id": 23435,
            "type": "Feature",
            "geometry": {
                "type": "Point",
                "coordinates": [
                    20.99346,
                    52.22515
                ]
            },
            "properties": {
                "ref:rspo": 23435,
                "official_name": "Przedszkole Nr 239",
                "name": "Przedszkole Nr 239",
                "addr:country": "PL",
                "addr:postcode": "02-017",
                "addr:city": "Warszawa",
                "addr:street": "Aleja Aleje Jerozolimskie",
                "addr:housenumber": "117A",
                "addr:teryt:simc": 45207,
                "addr:teryt:sym_ul": 918643,
                "contact:phone": "+48 226292383",
                "contact:email": "awolek@edu.um.warszawa.pl",
                "contact:website": "http:\/\/www.przedszkole239.waw.pl",
                "ref:regon": "013006640",
                "ref:vatin": "PL5262391139",
                "operator": "Ochota",
                "operator:type": "government",
                "amenity": "kindergarten"
            }
        },
        {
            "id": 130430,
            "type": "Feature",
            "geometry": {
                "type": "Point",
                "coordinates": [
                    20.99921,
                    52.22686
                ]
            },
            "properties": {
                "ref:rspo": 130430,
                "official_name": "Egurrola Dance Studio Wawer",
                "name": "Egurrola Dance Studio Wawer",
                "addr:country": "PL",
                "addr:postcode": "02-001",
                "addr:city": "Warszawa",
                "addr:street": "Aleja Aleje Jerozolimskie",
                "addr:housenumber": "91",
                "addr:teryt:simc": 45207,
                "addr:teryt:sym_ul": 918643,
                "contact:email": "agustin@egurrola.pl",
                "ref:regon": "364019411",
                "operator": "World Dance Sp\u00f3\u0142ka Z Ograniczon\u0105 Odpowiedzialno\u015bci\u0105",
                "operator:type": "private",
                "fixme": "w zale\u017cno\u015bci od przedmiotu dzia\u0142alno\u015bci (np. amenity=training + training=*, amenity=dancing_school, amenity=language_school, amenity=music_school)"
            }
        },
        {
            "id": 130431,
            "type": "Feature",
            "geometry": {
                "type": "Point",
                "coordinates": [
                    20.99921,
                    52.22683
                ]
            },
            "properties": {
                "ref:rspo": 130431,
                "official_name": "Egurrola Dance Studio Wawer",
                "name": "Egurrola Dance Studio Wawer",
                "addr:country": "PL",
                "addr:postcode": "02-001",
                "addr:city": "Warszawa",
                "addr:street": "Aleja Aleje Jerozolimskie",
                "addr:housenumber": "91",
                "addr:teryt:simc": 45207,
                "addr:teryt:sym_ul": 918643,
                "contact:email": "agustin@egurrola.pl",
                "ref:regon": "364019440",
                "operator": "World Dance Sp\u00f3\u0142ka Z Ograniczon\u0105 Odpowiedzialno\u015bci\u0105",
                "operator:type": "private",
                "fixme": "w zale\u017cno\u015bci od przedmiotu dzia\u0142alno\u015bci (np. amenity=training + training=*, amenity=dancing_school, amenity=language_school, amenity=music_school)"
            }
        },
        {
            "id": 271853,
            "type": "Feature",
            "geometry": {
                "type": "Point",
                "coordinates": [
                    20.99921,
                    52.226800000000004
                ]
            },
            "properties": {
                "ref:rspo": 271853,
                "official_name": "Egurrola Dance Studio Blue City Plac\u00f3wka O\u015bwiatowo-Wychowawcza",
                "name": "Egurrola Dance Studio Blue City Plac\u00f3wka O\u015bwiatowo-Wychowawcza",
                "addr:country": "PL",
                "addr:postcode": "02-001",
                "addr:city": "Warszawa",
                "addr:street": "Aleja Aleje Jerozolimskie",
                "addr:housenumber": "91",
                "addr:teryt:simc": 45207,
                "addr:teryt:sym_ul": 918643,
                "contact:phone": "+48 601529529",
                "contact:email": "m.chmurzynska@egurrola.pl",
                "ref:regon": "383696677",
                "operator": "Egurrola Dance Studio Sp\u00f3\u0142ka Z Ograniczon\u0105 Odpowiedzialno\u015bci\u0105",
                "operator:type": "private",
                "fixme": "w zale\u017cno\u015bci od przedmiotu dzia\u0142alno\u015bci (np. amenity=training + training=*, amenity=dancing_school, amenity=language_school, amenity=music_school)"
            }
        },
        {
            "id": 271854,
            "type": "Feature",
            "geometry": {
                "type": "Point",
                "coordinates": [
                    20.99921,
                    52.22677
                ]
            },
            "properties": {
                "ref:rspo": 271854,
                "official_name": "Egurrola Dance Studio Blue City Plac\u00f3wka Kszta\u0142cenia Ustawicznego",
                "name": "Egurrola Dance Studio Blue City Plac\u00f3wka Kszta\u0142cenia Ustawicznego",
                "addr:country": "PL",
                "addr:postcode": "02-001",
                "addr:city": "Warszawa",
                "addr:street": "Aleja Aleje Jerozolimskie",
                "addr:housenumber": "91",
                "addr:teryt:simc": 45207,
                "addr:teryt:sym_ul": 918643,
                "contact:phone": "+48 601529529",
                "contact:email": "m.chmurzynska@egurrola.pl",
                "ref:regon": "383696683",
                "operator": "Egurrola Dance Studio Sp\u00f3\u0142ka Z Ograniczon\u0105 Odpowiedzialno\u015bci\u0105",
                "operator:type": "private",
                "fixme": "w zale\u017cno\u015bci od przedmiotu dzia\u0142alno\u015bci (np. amenity=training + training=*, amenity=dancing_school, amenity=language_school, amenity=music_school)"
            }
        },
        {
            "id": 133074,
            "type": "Feature",
            "geometry": {
                "type": "Point",
                "coordinates": [
                    21.00052,
                    52.22718
                ]
            },
            "properties": {
                "ref:rspo": 133074,
                "official_name": "Fit Academy",
                "name": "Fit Academy",
                "addr:country": "PL",
                "addr:postcode": "02-001",
                "addr:city": "Warszawa",
                "addr:street": "Aleja Aleje Jerozolimskie",
                "addr:housenumber": "85",
                "addr:door": "21",
                "addr:teryt:simc": 45207,
                "addr:teryt:sym_ul": 918643,
                "contact:phone": "+48 698705031",
                "contact:email": "michal@fit-academy.pl",
                "ref:regon": "366598146",
                "operator": "Les\u0142aw Blacha",
                "operator:type": "private",
                "fixme": "w zale\u017cno\u015bci od przedmiotu dzia\u0142alno\u015bci (np. amenity=training + training=*, amenity=dancing_school, amenity=language_school, amenity=music_school)"
            }
        }
    ]
}