{
    "type": "FeatureCollection",
    "features": [
        {
            "id": 122979,
            "type": "Feature",
            "geometry": {
                "type": "Point",
                "coordinates": [
                    20.97155,
                    52.25638
                ]
            },
            "properties": {
                "ref:rspo": 122979,
                "official_name": "O\u015brodek Doskonalenia Kadr Interprofesja",
                "name": "O\u015brodek Doskonalenia Kadr Interprofesja",
                "addr:postcode": "01-796",
                "addr:city": "Warszawa",
                "addr:street": "Duchnicka",
                "addr:housenumber": "3",
                "addr:door": "326",
                "addr:teryt:simc": 920048,
                "addr:teryt:sym_ul": 4348,
                "phone": "+48 226639819",
                "email": "interprofesja@wp.pl",
                "website": "http:\/\/www.interprfesja.pl",
                "ref:regon": "147225222",
                "operator": "Andrzej Zab\u0142ocki",
                "operator:type": "private",
                "fixme": "w zale\u017cno\u015bci od przedmiotu dzia\u0142alno\u015bci (np. amenity=training + training=*, amenity=dancing_school, amenity=language_school, amenity=music_school)"
            }
        },
        {
            "id": 133597,
            "type": "Feature",
            "geometry": {
                "type": "Point",
                "coordinates": [
                    20.95742,
                    52.2565
                ]
            },
            "properties": {
                "ref:rspo": 133597,
                "official_name": "Prywatne Przedszkole \"Balibu\"",
                "name": "Prywatne Przedszkole \"Balibu\"",
                "addr:postcode": "01-748",
                "addr:city": "Warszawa",
                "addr:street": "Szamocka",
                "addr:housenumber": "10B",
                "addr:door": "138",
                "addr:teryt:simc": 920048,
                "addr:teryt:sym_ul": 21749,
                "phone": "+48 602203932",
                "email": "biuro@balibu.pl",
                "website": "http:\/\/www.balibu.pl",
                "ref:regon": "367460071",
                "operator": "Malgorzata Jaczkowska",
                "operator:type": "private",
                "amenity": "kindergarten"
            }
        },
        {
            "id": 268864,
            "type": "Feature",
            "geometry": {
                "type": "Point",
                "coordinates": [
                    20.9642,
                    52.2568399
                ]
            },
            "properties": {
                "ref:rspo": 268864,
                "official_name": "Przedszkole Genialne Dzieciaki",
                "name": "Przedszkole Genialne Dzieciaki",
                "addr:postcode": "01-748",
                "addr:city": "Warszawa",
                "addr:street": "Kaliny J\u0119drusik",
                "addr:housenumber": "5",
                "addr:door": "U5",
                "addr:teryt:simc": 920048,
                "addr:teryt:sym_ul": 47206,
                "phone": "+48 667302849",
                "email": "przedszkole@genialnedzieciaki.pl",
                "ref:regon": "381269741",
                "operator": "Ldy Consult Sp\u00f3\u0142ka Z Ograniczon\u0105 Odpowiedzialno\u015bci\u0105",
                "operator:type": "private",
                "amenity": "kindergarten"
            }
        },
        {
            "id": 277821,
            "type": "Feature",
            "geometry": {
                "type": "Point",
                "coordinates": [
                    20.97241,
                    52.25692
                ]
            },
            "properties": {
                "ref:rspo": 277821,
                "official_name": "Niepubliczne Centrum Doskonalenia Nauczycieli Edu&Development",
                "name": "Niepubliczne Centrum Doskonalenia Nauczycieli Edu&Development",
                "addr:postcode": "01-756",
                "addr:city": "Warszawa",
                "addr:street": "Przasnyska",
                "addr:housenumber": "2",
                "addr:door": "171",
                "addr:teryt:simc": 920048,
                "addr:teryt:sym_ul": 17618,
                "email": "ncdn.anna.osiecka@gmail.com",
                "ref:regon": "389556782",
                "operator": "Centrum Edukacji Dziecka Sp\u00f3\u0142ka Z Ograniczon\u0105 Odpowiedzialno\u015bci\u0105",
                "operator:type": "private",
                "amenity": "training"
            }
        },
        {
            "id": 131309,
            "type": "Feature",
            "geometry": {
                "type": "Point",
                "coordinates": [
                    20.95735,
                    52.25704
                ]
            },
            "properties": {
                "ref:rspo": 131309,
                "official_name": "Broadway Musical School",
                "name": "Broadway Musical School",
                "addr:postcode": "01-748",
                "addr:city": "Warszawa",
                "addr:street": "Szamocka",
                "addr:housenumber": "10C",
                "addr:door": "88",
                "addr:teryt:simc": 920048,
                "addr:teryt:sym_ul": 21749,
                "phone": "+48 606329434",
                "email": "marta.godzisz@musical.edu.pl",
                "ref:regon": "365107838",
                "operator": "Marta Godzisz",
                "operator:type": "private",
                "fixme": "w zale\u017cno\u015bci od przedmiotu dzia\u0142alno\u015bci (np. amenity=training + training=*, amenity=dancing_school, amenity=language_school, amenity=music_school)"
            }
        },
        {
            "id": 16909,
            "type": "Feature",
            "geometry": {
                "type": "Point",
                "coordinates": [
                    20.97465,
                    52.25843
                ]
            },
            "properties": {
                "ref:rspo": 16909,
                "official_name": "Przedszkole Niepubliczne Baby Room Preschool",
                "name": "Przedszkole Niepubliczne Baby Room Preschool",
                "addr:postcode": "01-793",
                "addr:city": "Warszawa",
                "addr:street": "Ludwika Rydygiera",
                "addr:housenumber": "15a",
                "addr:door": "U3",
                "addr:teryt:simc": 920048,
                "addr:teryt:sym_ul": 19216,
                "phone": "+48 607617417",
                "email": "marta@babyroom.edu.pl",
                "website": "http:\/\/www.babyroom.edu.pl",
                "ref:regon": "146312048",
                "operator": "Magdalena Trepczy\u0144ska",
                "operator:type": "private",
                "amenity": "kindergarten"
            }
        },
        {
            "id": 278070,
            "type": "Feature",
            "geometry": {
                "type": "Point",
                "coordinates": [
                    20.96843,
                    52.25859
                ]
            },
            "properties": {
                "ref:rspo": 278070,
                "official_name": "Niepubliczne Przedszkole J\u0119zykowe Happy Hippo",
                "name": "Niepubliczne Przedszkole J\u0119zykowe Happy Hippo",
                "addr:postcode": "01-753",
                "addr:city": "Warszawa",
                "addr:street": "Zygmunta H\u00fcbnera",
                "addr:housenumber": "1",
                "addr:door": "u1",
                "addr:teryt:simc": 920048,
                "addr:teryt:sym_ul": 55446,
                "phone": "+48 509362132",
                "email": "tomasz.marcinski@gmail.com",
                "ref:regon": "389783348",
                "operator": "Tomasz Marci\u0144ski",
                "operator:type": "private",
                "amenity": "kindergarten"
            }
        },
        {
            "id": 278795,
            "type": "Feature",
            "geometry": {
                "type": "Point",
                "coordinates": [
                    20.97551,
                    52.25865
                ]
            },
            "properties": {
                "ref:rspo": 278795,
                "official_name": "Przedszkole Niepubliczne Wioska Tiny Wings",
                "name": "Przedszkole Niepubliczne Wioska Tiny Wings",
                "addr:postcode": "01-793",
                "addr:city": "Warszawa",
                "addr:street": "Ludwika Rydygiera",
                "addr:housenumber": "13B",
                "addr:door": "U4",
                "addr:teryt:simc": 920048,
                "addr:teryt:sym_ul": 19216,
                "phone": "+48 504071622",
                "email": "marta.matys@wp.pl",
                "ref:regon": "520072617",
                "operator": "Skrzyd\u0142a Sp\u00f3\u0142ka Z Ograniczon\u0105 Odpowiedzialno\u015bci\u0105",
                "operator:type": "private",
                "amenity": "kindergarten"
            }
        },
        {
            "id": 269340,
            "type": "Feature",
            "geometry": {
                "type": "Point",
                "coordinates": [
                    20.96559,
                    52.25946
                ]
            },
            "properties": {
                "ref:rspo": 269340,
                "official_name": "Przedszkole Niepubliczne Edu Flaming",
                "name": "Przedszkole Niepubliczne Edu Flaming",
                "addr:postcode": "01-755",
                "addr:city": "Warszawa",
                "addr:street": "Zygmunta Krasi\u0144skiego",
                "addr:housenumber": "59a",
                "addr:door": "31",
                "addr:teryt:simc": 920048,
                "addr:teryt:sym_ul": 9848,
                "phone": "+48 503102315",
                "email": "adamstyrnik@gmail.com",
                "ref:regon": "381439864",
                "operator": "Amd Warszawa Sp\u00f3\u0142ka Z Ograniczon\u0105 Odpowiedzialno\u015bci\u0105",
                "operator:type": "private",
                "amenity": "kindergarten"
            }
        },
        {
            "id": 277797,
            "type": "Feature",
            "geometry": {
                "type": "Point",
                "coordinates": [
                    20.97178,
                    52.26074
                ]
            },
            "properties": {
                "isced:level": "1;2",
                "ref:rspo": 277797,
                "official_name": "Szko\u0142a Podstawowa Nr 396",
                "name": "Szko\u0142a Podstawowa Nr 396",
                "addr:postcode": "01-794",
                "addr:city": "Warszawa",
                "addr:street": "Anny German",
                "addr:housenumber": "5A",
                "addr:teryt:simc": 920048,
                "addr:teryt:sym_ul": 45675,
                "phone": "+48 222771699",
                "email": "sp396@edu.um.warszawa.pl",
                "website": "http:\/\/sp396.edu.pl",
                "ref:regon": "389528283",
                "operator": "\u017boliborz",
                "operator:type": "government",
                "amenity": "school"
            }
        },
        {
            "id": 277801,
            "type": "Feature",
            "geometry": {
                "type": "Point",
                "coordinates": [
                    20.97226,
                    52.26074
                ]
            },
            "properties": {
                "ref:rspo": 277801,
                "official_name": "Przedszkole Nr 446",
                "name": "Przedszkole Nr 446",
                "addr:postcode": "01-794",
                "addr:city": "Warszawa",
                "addr:street": "Anny German",
                "addr:housenumber": "5",
                "addr:teryt:simc": 920048,
                "addr:teryt:sym_ul": 45675,
                "phone": "+48 222772270",
                "email": "p446@edu.um.warszawa.pl",
                "website": "http:\/\/www.przedszkole446.edu.pl",
                "ref:regon": "389528314",
                "operator": "\u017boliborz",
                "operator:type": "government",
                "amenity": "kindergarten"
            }
        },
        {
            "id": 14427,
            "type": "Feature",
            "geometry": {
                "type": "Point",
                "coordinates": [
                    20.99208,
                    52.26109
                ]
            },
            "properties": {
                "ref:rspo": 14427,
                "official_name": "Zesp\u00f3\u0142 Szk\u00f3\u0142 Nr 28",
                "name": "Zesp\u00f3\u0142 Szk\u00f3\u0142 Nr 28",
                "addr:postcode": "01-518",
                "addr:city": "Warszawa",
                "addr:street": "gen. J\u00f3zefa Zaj\u0105czka",
                "addr:housenumber": "7",
                "addr:teryt:simc": 920048,
                "addr:teryt:sym_ul": 25416,
                "phone": "+48 228443634",
                "email": "zs28@zs28.waw.pl",
                "website": "http:\/\/www.zs28.waw.pl",
                "ref:regon": "000179884",
                "ref:vatin": "PL5211014007",
                "operator": "\u017boliborz",
                "operator:type": "government",
                "landuse": "education",
                "fixme": "amenity=school, amenity=college albo landuse=education w zale\u017cno\u015bci od tego, jakie plac\u00f3wki wchodz\u0105 w sk\u0142ad zespo\u0142u. Sprawd\u017a, kiedy stosowa\u0107 amenity=* a kiedy landuse=education.",
                "note": "Children RSPO: 83189;121341;125810"
            }
        },
        {
            "id": 19706,
            "type": "Feature",
            "geometry": {
                "type": "Point",
                "coordinates": [
                    20.99208,
                    52.26106
                ]
            },
            "properties": {
                "ref:rspo": 19706,
                "official_name": "Zesp\u00f3\u0142 Szk\u00f3\u0142 Elektronicznych I Licealnych",
                "name": "Zesp\u00f3\u0142 Szk\u00f3\u0142 Elektronicznych I Licealnych",
                "addr:postcode": "01-518",
                "addr:city": "Warszawa",
                "addr:street": "gen. J\u00f3zefa Zaj\u0105czka",
                "addr:housenumber": "7",
                "addr:teryt:simc": 920048,
                "addr:teryt:sym_ul": 25416,
                "phone": "+48 228391223",
                "email": "zseil@zseil.edu.pl",
                "website": "http:\/\/www.zseil.edu.pl",
                "ref:regon": "000190963",
                "ref:vatin": "PL1180083820",
                "operator": "\u017boliborz",
                "operator:type": "government",
                "landuse": "education",
                "fixme": "amenity=school, amenity=college albo landuse=education w zale\u017cno\u015bci od tego, jakie plac\u00f3wki wchodz\u0105 w sk\u0142ad zespo\u0142u. Sprawd\u017a, kiedy stosowa\u0107 amenity=* a kiedy landuse=education.",
                "note": "Children RSPO: 39661;39662;39669;127109"
            }
        },
        {
            "id": 114587,
            "type": "Feature",
            "geometry": {
                "type": "Point",
                "coordinates": [
                    20.99208,
                    52.261030000000005
                ]
            },
            "properties": {
                "isced:level": "4",
                "ref:rspo": 114587,
                "official_name": "Szko\u0142a Zawod\u00f3w Filmowych Niepubliczna Policealna Szko\u0142a Plastyczna Przy Warszawskiej Szkole Filmowej",
                "name": "Szko\u0142a Zawod\u00f3w Filmowych Niepubliczna Policealna Szko\u0142a Plastyczna Przy Warszawskiej Szkole Filmowej",
                "addr:postcode": "01-518",
                "addr:city": "Warszawa",
                "addr:street": "gen. J\u00f3zefa Zaj\u0105czka",
                "addr:housenumber": "7",
                "addr:teryt:simc": 920048,
                "addr:teryt:sym_ul": 25416,
                "phone": "+48 228390050",
                "email": "info@szkolafilmowa.pl",
                "website": "http:\/\/szkolafilmowa.pl",
                "ref:regon": "146677011",
                "operator": "Linda & \u015alesicki Production Sp\u00f3\u0142ka Z Ograniczon\u0105 Odpowiedziano\u015bci\u0105",
                "operator:type": "private",
                "amenity": "college"
            }
        },
        {
            "id": 268757,
            "type": "Feature",
            "geometry": {
                "type": "Point",
                "coordinates": [
                    20.99208,
                    52.261
                ]
            },
            "properties": {
                "isced:level": "4",
                "ref:rspo": 268757,
                "official_name": "Niepubliczna Policealna Szko\u0142a Muzyczna Wokalno-Aktorska Przy Warszawskiej Szkole Filmowej w Warszawie",
                "name": "Niepubliczna Policealna Szko\u0142a Muzyczna Wokalno-Aktorska Przy Warszawskiej Szkole Filmowej w Warszawie",
                "addr:postcode": "01-518",
                "addr:city": "Warszawa",
                "addr:street": "gen. J\u00f3zefa Zaj\u0105czka",
                "addr:housenumber": "7",
                "addr:teryt:simc": 920048,
                "addr:teryt:sym_ul": 25416,
                "phone": "+48 228390050",
                "email": "studiumaktorskie@szkolafilmowa.pl",
                "website": "http:\/\/studiumaktorskie.pl",
                "ref:regon": "381243368",
                "operator": "Linda & \u015alesicki Production Sp\u00f3\u0142ka Z Ograniczon\u0105 Odpowiedziano\u015bci\u0105",
                "operator:type": "private",
                "amenity": "college"
            }
        },
        {
            "id": 83189,
            "type": "Feature",
            "geometry": {
                "type": "Point",
                "coordinates": [
                    20.99208,
                    52.26097
                ]
            },
            "properties": {
                "isced:level": "3",
                "ref:rspo": 83189,
                "official_name": "Technikum Elektryczne Nr 2 im. Syn\u00f3w Pu\u0142ku",
                "name": "Technikum Elektryczne Nr 2",
                "addr:postcode": "01-518",
                "addr:city": "Warszawa",
                "addr:street": "gen. J\u00f3zefa Zaj\u0105czka",
                "addr:housenumber": "7",
                "addr:teryt:simc": 920048,
                "addr:teryt:sym_ul": 25416,
                "phone": "+48 228444767",
                "email": "www.zs28@zs28.waw.pl",
                "ref:regon": "015769275",
                "ref:vatin": "PL5211014007",
                "operator": "\u017boliborz",
                "operator:type": "government",
                "amenity": "school",
                "note": "Parent RSPO: 14427"
            }
        },
        {
            "id": 121341,
            "type": "Feature",
            "geometry": {
                "type": "Point",
                "coordinates": [
                    20.99208,
                    52.260940000000005
                ]
            },
            "properties": {
                "isced:level": "4",
                "ref:rspo": 121341,
                "official_name": "Szko\u0142a Policealna Nr 39",
                "name": "Szko\u0142a Policealna Nr 39",
                "addr:postcode": "01-518",
                "addr:city": "Warszawa",
                "addr:street": "gen. J\u00f3zefa Zaj\u0105czka",
                "addr:housenumber": "7",
                "addr:teryt:simc": 920048,
                "addr:teryt:sym_ul": 25416,
                "phone": "+48 228443634",
                "email": "zs28@za28.waw.pl",
                "ref:regon": "140090753",
                "operator": "\u017boliborz",
                "operator:type": "government",
                "amenity": "college",
                "note": "Parent RSPO: 14427"
            }
        },
        {
            "id": 125810,
            "type": "Feature",
            "geometry": {
                "type": "Point",
                "coordinates": [
                    20.99208,
                    52.26091
                ]
            },
            "properties": {
                "isced:level": "3",
                "ref:rspo": 125810,
                "official_name": "Bran\u017cowa Szko\u0142a I Stopnia Nr 61",
                "name": "Bran\u017cowa Szko\u0142a I Stopnia Nr 61",
                "addr:postcode": "01-518",
                "addr:city": "Warszawa",
                "addr:street": "gen. J\u00f3zefa Zaj\u0105czka",
                "addr:housenumber": "7",
                "addr:teryt:simc": 920048,
                "addr:teryt:sym_ul": 25416,
                "phone": "+48 228443634",
                "email": "zs28@zs28.waw.pl",
                "website": "http:\/\/www.zs28.waw.pl",
                "ref:regon": "015769341",
                "ref:vatin": "PL5211014007",
                "operator": "\u017boliborz",
                "operator:type": "government",
                "amenity": "school",
                "note": "Parent RSPO: 14427"
            }
        },
        {
            "id": 39661,
            "type": "Feature",
            "geometry": {
                "type": "Point",
                "coordinates": [
                    20.99208,
                    52.26088
                ]
            },
            "properties": {
                "isced:level": "3",
                "ref:rspo": 39661,
                "official_name": "Bran\u017cowa Szko\u0142a Elektroniczna I Stopnia Nr 2",
                "name": "Bran\u017cowa Szko\u0142a Elektroniczna I Stopnia Nr 2",
                "addr:postcode": "01-518",
                "addr:city": "Warszawa",
                "addr:street": "gen. J\u00f3zefa Zaj\u0105czka",
                "addr:housenumber": "7",
                "addr:teryt:simc": 920048,
                "addr:teryt:sym_ul": 25416,
                "phone": "+48 228391223",
                "email": "zseil@zseil.edu.pl",
                "website": "http:\/\/www.zseil.edu.pl",
                "ref:regon": "015790387",
                "ref:vatin": "PL1180083820",
                "operator": "\u017boliborz",
                "operator:type": "government",
                "amenity": "school",
                "note": "Parent RSPO: 19706"
            }
        },
        {
            "id": 39662,
            "type": "Feature",
            "geometry": {
                "type": "Point",
                "coordinates": [
                    20.99208,
                    52.260850000000005
                ]
            },
            "properties": {
                "isced:level": "3",
                "ref:rspo": 39662,
                "official_name": "Technikum Elektroniczne Nr 3 im. \u017bo\u0142nierzy Armii Krajowej \"\u017bywiciel\"",
                "name": "Technikum Elektroniczne Nr 3",
                "addr:postcode": "01-518",
                "addr:city": "Warszawa",
                "addr:street": "gen. J\u00f3zefa Zaj\u0105czka",
                "addr:housenumber": "7",
                "addr:teryt:simc": 920048,
                "addr:teryt:sym_ul": 25416,
                "phone": "+48 228391223",
                "email": "zseil@zseil.edu.pl",
                "website": "http:\/\/www.zseil.edu.pl",
                "ref:regon": "015790370",
                "ref:vatin": "PL1180083820",
                "operator": "\u017boliborz",
                "operator:type": "government",
                "amenity": "school",
                "note": "Parent RSPO: 19706"
            }
        },
        {
            "id": 127109,
            "type": "Feature",
            "geometry": {
                "type": "Point",
                "coordinates": [
                    20.99208,
                    52.26082
                ]
            },
            "properties": {
                "isced:level": "3",
                "ref:rspo": 127109,
                "official_name": "Cxlix Liceum Og\u00f3lnokszta\u0142c\u0105ce dla Doros\u0142ych",
                "name": "Cxlix Liceum Og\u00f3lnokszta\u0142c\u0105ce dla Doros\u0142ych",
                "addr:postcode": "01-518",
                "addr:city": "Warszawa",
                "addr:street": "gen. J\u00f3zefa Zaj\u0105czka",
                "addr:housenumber": "7",
                "addr:teryt:simc": 920048,
                "addr:teryt:sym_ul": 25416,
                "phone": "+48 228391223",
                "email": "zseil@zseil.edu.pl",
                "website": "http:\/\/zseil.edu.pl",
                "ref:regon": "361121652",
                "ref:vatin": "PL1180083820",
                "operator": "\u017boliborz",
                "operator:type": "government",
                "amenity": "school",
                "note": "Parent RSPO: 19706"
            }
        },
        {
            "id": 118675,
            "type": "Feature",
            "geometry": {
                "type": "Point",
                "coordinates": [
                    20.99208,
                    52.26079
                ]
            },
            "properties": {
                "isced:level": "3",
                "ref:rspo": 118675,
                "official_name": "Liceum Filmowe Z Oddzia\u0142ami Dwuj\u0119zycznymi Przy Warszawskiej Szkole Filmowej",
                "name": "Liceum Filmowe Z Oddzia\u0142ami Dwuj\u0119zycznymi Przy Warszawskiej Szkole Filmowej",
                "addr:postcode": "01-518",
                "addr:city": "Warszawa",
                "addr:street": "gen. J\u00f3zefa Zaj\u0105czka",
                "addr:housenumber": "7",
                "addr:teryt:simc": 920048,
                "addr:teryt:sym_ul": 25416,
                "phone": "+48 789394339",
                "email": "sekretariat@liceumfilmowe.pl",
                "website": "http:\/\/www.liceumfilmowe.pl",
                "ref:regon": "146816151",
                "operator": "Linda & \u015alesicki Production Sp\u00f3\u0142ka Z Ograniczon\u0105 Odpowiedziano\u015bci\u0105",
                "operator:type": "private",
                "amenity": "school",
                "note": "Parent RSPO: 128962"
            }
        },
        {
            "id": 122978,
            "type": "Feature",
            "geometry": {
                "type": "Point",
                "coordinates": [
                    20.99208,
                    52.260760000000005
                ]
            },
            "properties": {
                "ref:rspo": 122978,
                "official_name": "Warsztaty Filmowe Przy Wsf",
                "name": "Warsztaty Filmowe Przy Wsf",
                "addr:postcode": "01-518",
                "addr:city": "Warszawa",
                "addr:street": "gen. J\u00f3zefa Zaj\u0105czka",
                "addr:housenumber": "7",
                "addr:teryt:simc": 920048,
                "addr:teryt:sym_ul": 25416,
                "phone": "+48 228390050",
                "email": "info@szkolafilmowa.pl",
                "ref:regon": "147225162",
                "operator": "Linda & \u015alesicki Production Sp\u00f3\u0142ka Z Ograniczon\u0105 Odpowiedziano\u015bci\u0105",
                "operator:type": "private",
                "fixme": "w zale\u017cno\u015bci od przedmiotu dzia\u0142alno\u015bci (np. amenity=training + training=*, amenity=dancing_school, amenity=language_school, amenity=music_school)",
                "note": "Parent RSPO: 128962"
            }
        },
        {
            "id": 130432,
            "type": "Feature",
            "geometry": {
                "type": "Point",
                "coordinates": [
                    20.99208,
                    52.26073
                ]
            },
            "properties": {
                "isced:level": "3",
                "ref:rspo": 130432,
                "official_name": "Liceum Og\u00f3lnokszta\u0142c\u0105ce Kreacji Gier Wideo Przy Warszawskiej Szkole Filmowej",
                "name": "Liceum Og\u00f3lnokszta\u0142c\u0105ce Kreacji Gier Wideo Przy Warszawskiej Szkole Filmowej",
                "addr:postcode": "01-518",
                "addr:city": "Warszawa",
                "addr:street": "gen. J\u00f3zefa Zaj\u0105czka",
                "addr:housenumber": "7",
                "addr:teryt:simc": 920048,
                "addr:teryt:sym_ul": 25416,
                "phone": "+48 221100097",
                "email": "sekretariat@liceumgier.pl",
                "ref:regon": "364019256",
                "operator": "Linda & \u015alesicki Production Sp\u00f3\u0142ka Z Ograniczon\u0105 Odpowiedziano\u015bci\u0105",
                "operator:type": "private",
                "amenity": "school",
                "note": "Parent RSPO: 128962"
            }
        },
        {
            "id": 133714,
            "type": "Feature",
            "geometry": {
                "type": "Point",
                "coordinates": [
                    20.97627,
                    52.26121
                ]
            },
            "properties": {
                "ref:rspo": 133714,
                "official_name": "Przedszkole Nr 433",
                "name": "Przedszkole Nr 433",
                "addr:postcode": "01-793",
                "addr:city": "Warszawa",
                "addr:street": "Ludwika Rydygiera",
                "addr:housenumber": "8a",
                "addr:teryt:simc": 920048,
                "addr:teryt:sym_ul": 19216,
                "phone": "+48 222772222",
                "email": "p433@edu.um.warszawa.pl",
                "website": "http:\/\/przedszkole433.waw.pl",
                "ref:regon": "367560482",
                "ref:vatin": "PL5252720593",
                "operator": "\u017boliborz",
                "operator:type": "government",
                "amenity": "kindergarten"
            }
        },
        {
            "id": 19705,
            "type": "Feature",
            "geometry": {
                "type": "Point",
                "coordinates": [
                    20.98835,
                    52.26197
                ]
            },
            "properties": {
                "ref:rspo": 19705,
                "official_name": "Zesp\u00f3\u0142 Szk\u00f3\u0142 Nr 31 im. Jana Kili\u0144skiego",
                "name": "Zesp\u00f3\u0142 Szk\u00f3\u0142 Nr 31",
                "addr:postcode": "01-513",
                "addr:city": "Warszawa",
                "addr:street": "Alojzego Feli\u0144skiego",
                "addr:housenumber": "13",
                "addr:teryt:simc": 920048,
                "addr:teryt:sym_ul": 4946,
                "phone": "+48 228390041",
                "email": "zs31@edu.um.warszawa.pl",
                "website": "http:\/\/www.zs31.waw.pl",
                "ref:regon": "000190466",
                "ref:vatin": "PL5251570625",
                "operator": "\u017boliborz",
                "operator:type": "government",
                "landuse": "education",
                "fixme": "amenity=school, amenity=college albo landuse=education w zale\u017cno\u015bci od tego, jakie plac\u00f3wki wchodz\u0105 w sk\u0142ad zespo\u0142u. Sprawd\u017a, kiedy stosowa\u0107 amenity=* a kiedy landuse=education.",
                "note": "Children RSPO: 39652;39656;39657;39659"
            }
        },
        {
            "id": 121307,
            "type": "Feature",
            "geometry": {
                "type": "Point",
                "coordinates": [
                    20.98835,
                    52.261939999999996
                ]
            },
            "properties": {
                "ref:rspo": 121307,
                "official_name": "Niepubliczne Przedszkole Pracownia Rodziny Madurar",
                "name": "Niepubliczne Przedszkole Pracownia Rodziny Madurar",
                "addr:postcode": "02-963",
                "addr:city": "Warszawa",
                "addr:street": "Alojzego Feli\u0144skiego",
                "addr:housenumber": "13",
                "addr:teryt:simc": 920048,
                "addr:teryt:sym_ul": 4946,
                "phone": "+48 511142057",
                "email": "madurar@op.pl",
                "website": "http:\/\/www.madurar.przedszkole.pl",
                "ref:regon": "147030910",
                "operator": "Julia Podejko-Coutinho",
                "operator:type": "private",
                "amenity": "kindergarten"
            }
        },
        {
            "id": 39652,
            "type": "Feature",
            "geometry": {
                "type": "Point",
                "coordinates": [
                    20.98835,
                    52.26191
                ]
            },
            "properties": {
                "isced:level": "3",
                "ref:rspo": 39652,
                "official_name": "Cxiv Liceum Og\u00f3lnokszta\u0142c\u0105ce im. Jana Kili\u0144skiego",
                "name": "Cxiv Liceum Og\u00f3lnokszta\u0142c\u0105ce",
                "addr:postcode": "01-513",
                "addr:city": "Warszawa",
                "addr:street": "Alojzego Feli\u0144skiego",
                "addr:housenumber": "13",
                "addr:teryt:simc": 920048,
                "addr:teryt:sym_ul": 4946,
                "phone": "+48 228390041",
                "email": "zs31@edu.um.warszawa.pl",
                "website": "http:\/\/www.zs31.waw.pl",
                "ref:regon": "015789094",
                "ref:vatin": "PL5251570625",
                "operator": "\u017boliborz",
                "operator:type": "government",
                "amenity": "school",
                "note": "Parent RSPO: 19705"
            }
        },
        {
            "id": 39656,
            "type": "Feature",
            "geometry": {
                "type": "Point",
                "coordinates": [
                    20.98835,
                    52.26188
                ]
            },
            "properties": {
                "isced:level": "3",
                "ref:rspo": 39656,
                "official_name": "Technikum Mechaniczne Nr 7 im. Jana Kili\u0144skiego",
                "name": "Technikum Mechaniczne Nr 7",
                "addr:postcode": "01-513",
                "addr:city": "Warszawa",
                "addr:street": "Alojzego Feli\u0144skiego",
                "addr:housenumber": "13",
                "addr:teryt:simc": 920048,
                "addr:teryt:sym_ul": 4946,
                "phone": "+48 228390041",
                "email": "zs31@edu.um.warszawa.pl",
                "website": "http:\/\/www.zs31.waw.pl",
                "ref:regon": "015789065",
                "ref:vatin": "PL5251570625",
                "operator": "\u017boliborz",
                "operator:type": "government",
                "amenity": "school",
                "note": "Parent RSPO: 19705"
            }
        },
        {
            "id": 39657,
            "type": "Feature",
            "geometry": {
                "type": "Point",
                "coordinates": [
                    20.98835,
                    52.261849999999995
                ]
            },
            "properties": {
                "isced:level": "3",
                "ref:rspo": 39657,
                "official_name": "Bran\u017cowa Szko\u0142a Rzemios\u0142 Artystycznych I Stopnia Nr 65",
                "name": "Bran\u017cowa Szko\u0142a Rzemios\u0142 Artystycznych I Stopnia Nr 65",
                "addr:postcode": "01-513",
                "addr:city": "Warszawa",
                "addr:street": "Alojzego Feli\u0144skiego",
                "addr:housenumber": "13",
                "addr:teryt:simc": 920048,
                "addr:teryt:sym_ul": 4946,
                "phone": "+48 228390041",
                "email": "zs31@edu.um.warszawa.pl",
                "website": "http:\/\/www.zs31.waw.pl",
                "ref:regon": "146355017",
                "ref:vatin": "PL5251570625",
                "operator": "\u017boliborz",
                "operator:type": "government",
                "amenity": "school",
                "note": "Parent RSPO: 19705"
            }
        },
        {
            "id": 20900,
            "type": "Feature",
            "geometry": {
                "type": "Point",
                "coordinates": [
                    20.9615,
                    52.26202
                ]
            },
            "properties": {
                "ref:rspo": 20900,
                "official_name": "Niepubliczne \"Weso\u0142e Przedszkole Tpd\" im. Marii Kownackiej",
                "name": "Niepubliczne \"Weso\u0142e Przedszkole Tpd\"",
                "addr:postcode": "01-737",
                "addr:city": "Warszawa",
                "addr:street": "Elbl\u0105ska",
                "addr:housenumber": "43",
                "addr:teryt:simc": 920048,
                "addr:teryt:sym_ul": 4758,
                "phone": "+48 226338133",
                "email": "tpd-z@wp.pl",
                "website": "http:\/\/tpdz.przedszkola.net.pl",
                "ref:regon": "146319263",
                "operator": "Towarzystwo Przyjaci\u00f3\u0142 Dzieci",
                "operator:type": "ngo",
                "amenity": "kindergarten"
            }
        },
        {
            "id": 64405,
            "type": "Feature",
            "geometry": {
                "type": "Point",
                "coordinates": [
                    20.97057,
                    52.26238
                ]
            },
            "properties": {
                "ref:rspo": 64405,
                "official_name": "O\u015brodek Rehabilitacyjno-Edukacyjno-Wychowawczy",
                "name": "O\u015brodek Rehabilitacyjno-Edukacyjno-Wychowawczy",
                "addr:postcode": "01-755",
                "addr:city": "Warszawa",
                "addr:street": "Zygmunta Krasi\u0144skiego",
                "addr:housenumber": "41a",
                "addr:teryt:simc": 920048,
                "addr:teryt:sym_ul": 9848,
                "phone": "+48 226338188",
                "email": "orew-or@neostrada.pl",
                "ref:regon": "146422660",
                "operator": "Warszawskie Ko\u0142o Polskiego Stowarzyszenia Na Rzecz Os\u00f3b Z Niepe\u0142nosprawno\u015bci\u0105 Intelektualn\u0105.",
                "operator:type": "ngo",
                "amenity": "school"
            }
        },
        {
            "id": 25461,
            "type": "Feature",
            "geometry": {
                "type": "Point",
                "coordinates": [
                    20.9542094,
                    52.2623871
                ]
            },
            "properties": {
                "isced:level": "3",
                "ref:rspo": 25461,
                "official_name": "Liceum Og\u00f3lnokszta\u0142c\u0105ce Niepubliczne Nr 29 im. Ignacego Jana Paderewskiego",
                "name": "Liceum Og\u00f3lnokszta\u0142c\u0105ce Niepubliczne Nr 29",
                "addr:postcode": "01-728",
                "addr:city": "Warszawa",
                "addr:street": "Pow\u0105zkowska",
                "addr:housenumber": "90",
                "addr:teryt:simc": 920048,
                "addr:teryt:sym_ul": 17323,
                "phone": "+48 226338289",
                "email": "lon29@wp.pl",
                "ref:regon": "146333665",
                "operator": "Marcin Krysztoforski",
                "operator:type": "private",
                "amenity": "school"
            }
        },
        {
            "id": 20768,
            "type": "Feature",
            "geometry": {
                "type": "Point",
                "coordinates": [
                    20.98443,
                    52.26243
                ]
            },
            "properties": {
                "isced:level": "1;2",
                "ref:rspo": 20768,
                "official_name": "Szko\u0142a Podstawowa Z Oddzia\u0142ami Integracyjnymi Nr 68 im. Artura Oppmana",
                "name": "Szko\u0142a Podstawowa Z Oddzia\u0142ami Integracyjnymi Nr 68",
                "addr:postcode": "01-507",
                "addr:city": "Warszawa",
                "addr:street": "Or-Ota",
                "addr:housenumber": "5",
                "addr:teryt:simc": 920048,
                "addr:teryt:sym_ul": 15105,
                "phone": "+48 222771607",
                "email": "sp68@edu.um.warszawa.pl",
                "website": "http:\/\/www.oppman.edu.pl",
                "ref:regon": "010415800",
                "ref:vatin": "PL5251568686",
                "operator": "\u017boliborz",
                "operator:type": "government",
                "amenity": "school"
            }
        },
        {
            "id": 266586,
            "type": "Feature",
            "geometry": {
                "type": "Point",
                "coordinates": [
                    20.9926987,
                    52.262592
                ]
            },
            "properties": {
                "ref:rspo": 266586,
                "official_name": "Centrum Fizjoedukacji \"Animusz\"",
                "name": "Centrum Fizjoedukacji \"Animusz\"",
                "addr:postcode": "01-517",
                "addr:city": "Warszawa",
                "addr:street": "Adama Mickiewicza",
                "addr:housenumber": "18a",
                "addr:door": "3",
                "addr:teryt:simc": 920048,
                "addr:teryt:sym_ul": 12740,
                "phone": "+48 601624711",
                "email": "sekretariat@animusz.pl",
                "ref:regon": "369589314",
                "operator": "Adam Figeland",
                "operator:type": "private",
                "fixme": "w zale\u017cno\u015bci od przedmiotu dzia\u0142alno\u015bci (np. amenity=training + training=*, amenity=dancing_school, amenity=language_school, amenity=music_school)"
            }
        },
        {
            "id": 19729,
            "type": "Feature",
            "geometry": {
                "type": "Point",
                "coordinates": [
                    20.98754,
                    52.26281
                ]
            },
            "properties": {
                "ref:rspo": 19729,
                "official_name": "Poradnia Psychologiczno-Pedagogiczna Nr 3",
                "name": "Poradnia Psychologiczno-Pedagogiczna Nr 3",
                "addr:postcode": "01-513",
                "addr:city": "Warszawa",
                "addr:street": "Alojzego Feli\u0144skiego",
                "addr:housenumber": "15",
                "addr:teryt:simc": 920048,
                "addr:teryt:sym_ul": 4946,
                "phone": "+48 222772210",
                "email": "ppp3@edu.um.warszawa.pl",
                "website": "http:\/\/www.poradnia-nr3.pl",
                "ref:regon": "016403582",
                "ref:vatin": "PL5252306764",
                "operator": "\u017boliborz",
                "operator:type": "government",
                "healthcare": "counselling",
                "counselling_type": "education",
                "fixme": "w zale\u017cno\u015bci od przedmiotu dzia\u0142alno\u015bci (np. healthcare=counselling + counselling_type=education albo healthcare=psychotherapist)"
            }
        },
        {
            "id": 19730,
            "type": "Feature",
            "geometry": {
                "type": "Point",
                "coordinates": [
                    20.98754,
                    52.26278
                ]
            },
            "properties": {
                "isced:level": "3",
                "ref:rspo": 19730,
                "official_name": "I Liceum Og\u00f3lnokszta\u0142c\u0105ce Z Oddzia\u0142ami Integracyjnymi im. Boles\u0142awa Limanowskiego",
                "name": "I Liceum Og\u00f3lnokszta\u0142c\u0105ce Z Oddzia\u0142ami Integracyjnymi",
                "addr:postcode": "01-513",
                "addr:city": "Warszawa",
                "addr:street": "Alojzego Feli\u0144skiego",
                "addr:housenumber": "15",
                "addr:teryt:simc": 920048,
                "addr:teryt:sym_ul": 4946,
                "phone": "+48 228394813",
                "email": "jedynka@jedynka.org",
                "website": "http:\/\/www.jedynka.org",
                "ref:regon": "010703219",
                "ref:vatin": "PL5251457662",
                "operator": "\u017boliborz",
                "operator:type": "government",
                "amenity": "school"
            }
        },
        {
            "id": 80304,
            "type": "Feature",
            "geometry": {
                "type": "Point",
                "coordinates": [
                    20.98754,
                    52.262750000000004
                ]
            },
            "properties": {
                "isced:level": "4",
                "ref:rspo": 80304,
                "official_name": "Policealna Szko\u0142a Kosmetyczna Akademia Prenier",
                "name": "Policealna Szko\u0142a Kosmetyczna Akademia Prenier",
                "addr:postcode": "01-513",
                "addr:city": "Warszawa",
                "addr:street": "Alojzego Feli\u0144skiego",
                "addr:housenumber": "15",
                "addr:teryt:simc": 920048,
                "addr:teryt:sym_ul": 4946,
                "phone": "+48 223532624",
                "email": "prenierwaw5@wp.pl",
                "ref:regon": "146407702",
                "operator": "Ecal Polska Sp\u00f3\u0142ka Z Ograniczon\u0105 Odpowiedzialno\u015bci\u0105",
                "operator:type": "private",
                "amenity": "college"
            }
        },
        {
            "id": 128962,
            "type": "Feature",
            "geometry": {
                "type": "Point",
                "coordinates": [
                    20.98754,
                    52.26272
                ]
            },
            "properties": {
                "ref:rspo": 128962,
                "official_name": "Zesp\u00f3\u0142 Szk\u00f3\u0142 Filmowych Przy Warszawskiej Szkole Filmowej",
                "name": "Zesp\u00f3\u0142 Szk\u00f3\u0142 Filmowych Przy Warszawskiej Szkole Filmowej",
                "addr:postcode": "01-513",
                "addr:city": "Warszawa",
                "addr:street": "Alojzego Feli\u0144skiego",
                "addr:housenumber": "15",
                "addr:teryt:simc": 920048,
                "addr:teryt:sym_ul": 4946,
                "phone": "+48 221100097",
                "email": "sekreteriat@liceumfilmowe.pl",
                "website": "http:\/\/szkolafilmowa.pl",
                "ref:regon": "362443530",
                "operator": "Linda & \u015alesicki Production Sp\u00f3\u0142ka Z Ograniczon\u0105 Odpowiedziano\u015bci\u0105",
                "operator:type": "private",
                "landuse": "education",
                "fixme": "amenity=school, amenity=college albo landuse=education w zale\u017cno\u015bci od tego, jakie plac\u00f3wki wchodz\u0105 w sk\u0142ad zespo\u0142u. Sprawd\u017a, kiedy stosowa\u0107 amenity=* a kiedy landuse=education.",
                "note": "Children RSPO: 118675;122978;130432"
            }
        },
        {
            "id": 19698,
            "type": "Feature",
            "geometry": {
                "type": "Point",
                "coordinates": [
                    20.99463,
                    52.26322
                ]
            },
            "properties": {
                "ref:rspo": 19698,
                "official_name": "Przedszkole Nr 132",
                "name": "Przedszkole Nr 132",
                "addr:postcode": "01-523",
                "addr:city": "Warszawa",
                "addr:street": "\u015amia\u0142a",
                "addr:housenumber": "20",
                "addr:teryt:simc": 920048,
                "addr:teryt:sym_ul": 22356,
                "phone": "+48 228390508",
                "email": "p132@edu.um.warszawa.pl",
                "ref:regon": "012524685",
                "ref:vatin": "PL5251101215",
                "operator": "\u017boliborz",
                "operator:type": "government",
                "amenity": "kindergarten"
            }
        },
        {
            "id": 39649,
            "type": "Feature",
            "geometry": {
                "type": "Point",
                "coordinates": [
                    20.96159,
                    52.26326
                ]
            },
            "properties": {
                "isced:level": "3",
                "ref:rspo": 39649,
                "official_name": "Lxiv Liceum Og\u00f3lnokszta\u0142c\u0105ce im. Stanis\u0142awa Ignacego Witkiewicza \"Witkacego\"",
                "name": "Lxiv Liceum Og\u00f3lnokszta\u0142c\u0105ce",
                "addr:postcode": "01-737",
                "addr:city": "Warszawa",
                "addr:street": "Elbl\u0105ska",
                "addr:housenumber": "51",
                "addr:teryt:simc": 920048,
                "addr:teryt:sym_ul": 4758,
                "phone": "+48 226332404",
                "email": "lo64@edu.um.warszawa.pl",
                "website": "http:\/\/www.liceum64.pl",
                "ref:regon": "015788315",
                "ref:vatin": "PL5251569450",
                "operator": "\u017boliborz",
                "operator:type": "government",
                "amenity": "school"
            }
        },
        {
            "id": 64398,
            "type": "Feature",
            "geometry": {
                "type": "Point",
                "coordinates": [
                    20.97541,
                    52.26341
                ]
            },
            "properties": {
                "isced:level": "1;2",
                "ref:rspo": 64398,
                "official_name": "Niepubliczna Specjalna Szko\u0142a Podstawowa Realizuj\u0105ca Program Rehabilitacji \"Nasza Szko\u0142a\"",
                "name": "Niepubliczna Specjalna Szko\u0142a Podstawowa Realizuj\u0105ca Program Rehabilitacji \"Nasza Szko\u0142a\"",
                "addr:postcode": "01-876",
                "addr:city": "Warszawa",
                "addr:street": "W\u0142adys\u0142awa Broniewskiego",
                "addr:housenumber": "89",
                "addr:teryt:simc": 920048,
                "addr:teryt:sym_ul": 2125,
                "phone": "+48 228393957",
                "email": "szkola.warszawa@aga.org.pl",
                "ref:regon": "146422506",
                "ref:vatin": "PL5251034619",
                "operator": "Stowarzyszenie \"Po Pierwsze Rodzina\"",
                "operator:type": "ngo",
                "amenity": "school"
            }
        },
        {
            "id": 133712,
            "type": "Feature",
            "geometry": {
                "type": "Point",
                "coordinates": [
                    20.99538,
                    52.2637799
                ]
            },
            "properties": {
                "isced:level": "1;2",
                "ref:rspo": 133712,
                "official_name": "Szko\u0142a Podstawowa Nr 392 im. Jana Bytnara Ps. \"Rudy\"",
                "name": "Szko\u0142a Podstawowa Nr 392",
                "addr:postcode": "01-524",
                "addr:city": "Warszawa",
                "addr:street": "Aleja Wojska Polskiego",
                "addr:housenumber": "1A",
                "addr:teryt:simc": 920048,
                "addr:teryt:sym_ul": 33790,
                "phone": "+48 222771620",
                "email": "sp392@edu.um.warszawa.pl",
                "website": "http:\/\/sp392.waw.pl",
                "ref:regon": "367560358",
                "ref:vatin": "PL5252123816",
                "operator": "\u017boliborz",
                "operator:type": "government",
                "amenity": "school"
            }
        },
        {
            "id": 19697,
            "type": "Feature",
            "geometry": {
                "type": "Point",
                "coordinates": [
                    20.9779899,
                    52.26409
                ]
            },
            "properties": {
                "ref:rspo": 19697,
                "official_name": "Przedszkole Nr 197 \"Do-Re-Mi\"",
                "name": "Przedszkole Nr 197 \"Do-Re-Mi\"",
                "addr:postcode": "01-786",
                "addr:city": "Warszawa",
                "addr:street": "ks. Jerzego Popie\u0142uszki",
                "addr:housenumber": "3A",
                "addr:teryt:simc": 920048,
                "addr:teryt:sym_ul": 17149,
                "phone": "+48 226638706",
                "email": "przedszkole197@gmail.com",
                "website": "http:\/\/przedszkole197.schoolpage.pl",
                "ref:regon": "012524679",
                "ref:vatin": "PL5251572328",
                "operator": "\u017boliborz",
                "operator:type": "government",
                "amenity": "kindergarten"
            }
        },
        {
            "id": 266422,
            "type": "Feature",
            "geometry": {
                "type": "Point",
                "coordinates": [
                    20.97799,
                    52.26409
                ]
            },
            "properties": {
                "ref:rspo": 266422,
                "official_name": "Art Studio",
                "name": "Art Studio",
                "addr:postcode": "01-786",
                "addr:city": "Warszawa",
                "addr:street": "ks. Jerzego Popie\u0142uszki",
                "addr:housenumber": "3",
                "addr:teryt:simc": 920048,
                "addr:teryt:sym_ul": 17149,
                "phone": "+48 609533773",
                "email": "artstudio@artstudio.edu.pl",
                "ref:regon": "369489529",
                "operator": "Eryk Kawalec",
                "operator:type": "private",
                "fixme": "w zale\u017cno\u015bci od przedmiotu dzia\u0142alno\u015bci (np. amenity=training + training=*, amenity=dancing_school, amenity=language_school, amenity=music_school)"
            }
        },
        {
            "id": 30171,
            "type": "Feature",
            "geometry": {
                "type": "Point",
                "coordinates": [
                    20.98861,
                    52.26421
                ]
            },
            "properties": {
                "ref:rspo": 30171,
                "official_name": "Niepubliczne Przedszkole Integracyjne Radosna Planeta",
                "name": "Niepubliczne Przedszkole Integracyjne Radosna Planeta",
                "addr:postcode": "01-554",
                "addr:city": "Warszawa",
                "addr:street": "Aleja Wojska Polskiego",
                "addr:housenumber": "20",
                "addr:teryt:simc": 920048,
                "addr:teryt:sym_ul": 33790,
                "phone": "+48 509993128",
                "email": "rhongo@radosnaplaneta.com",
                "website": "http:\/\/www.radosnaplaneta.com",
                "ref:regon": "146401473",
                "operator": "Roberto Hongo Moreno",
                "operator:type": "private",
                "amenity": "kindergarten"
            }
        },
        {
            "id": 19693,
            "type": "Feature",
            "geometry": {
                "type": "Point",
                "coordinates": [
                    20.96763,
                    52.26438
                ]
            },
            "properties": {
                "ref:rspo": 19693,
                "official_name": "Przedszkole Nr 87",
                "name": "Przedszkole Nr 87",
                "addr:postcode": "01-780",
                "addr:city": "Warszawa",
                "addr:street": "W\u0142adys\u0142awa Broniewskiego",
                "addr:housenumber": "9d",
                "addr:teryt:simc": 920048,
                "addr:teryt:sym_ul": 2125,
                "phone": "+48 222772236",
                "email": "p87@edu.um.warszawa.pl",
                "website": "http:\/\/www.przedszkole87.siteor.pl",
                "ref:regon": "012526394",
                "ref:vatin": "PL5251987147",
                "operator": "\u017boliborz",
                "operator:type": "government",
                "amenity": "kindergarten"
            }
        },
        {
            "id": 39647,
            "type": "Feature",
            "geometry": {
                "type": "Point",
                "coordinates": [
                    20.97644,
                    52.26441
                ]
            },
            "properties": {
                "isced:level": "3",
                "ref:rspo": 39647,
                "official_name": "Xvi Liceum Og\u00f3lnokszta\u0142c\u0105ce Z Oddzia\u0142ami Dwuj\u0119zycznymi im. Stefanii Sempo\u0142owskiej",
                "name": "Xvi Liceum Og\u00f3lnokszta\u0142c\u0105ce Z Oddzia\u0142ami Dwuj\u0119zycznymi",
                "addr:postcode": "01-786",
                "addr:city": "Warszawa",
                "addr:street": "ks. Jerzego Popie\u0142uszki",
                "addr:housenumber": "5",
                "addr:teryt:simc": 920048,
                "addr:teryt:sym_ul": 17149,
                "phone": "+48 226636894",
                "email": "lo16@edu.um.warszawa.pl",
                "website": "http:\/\/www.sempolowska.eu",
                "ref:regon": "000799144",
                "ref:vatin": "PL5252136730",
                "operator": "\u017boliborz",
                "operator:type": "government",
                "amenity": "school"
            }
        },
        {
            "id": 122387,
            "type": "Feature",
            "geometry": {
                "type": "Point",
                "coordinates": [
                    20.97644,
                    52.264379999999996
                ]
            },
            "properties": {
                "ref:rspo": 122387,
                "official_name": "Perro- Niepubliczna Plac\u00f3wka Kszta\u0142cenia Ustawicznego",
                "name": "Perro- Niepubliczna Plac\u00f3wka Kszta\u0142cenia Ustawicznego",
                "addr:postcode": "01-786",
                "addr:city": "Warszawa",
                "addr:street": "ks. Jerzego Popie\u0142uszki",
                "addr:housenumber": "5",
                "addr:teryt:simc": 920048,
                "addr:teryt:sym_ul": 17149,
                "phone": "+48 601925574",
                "email": "kurs@dogoterapia.net",
                "website": "http:\/\/www.dogoterapia.net",
                "ref:regon": "147140320",
                "operator": "Agnieszka Potocka",
                "operator:type": "private",
                "fixme": "w zale\u017cno\u015bci od przedmiotu dzia\u0142alno\u015bci (np. amenity=training + training=*, amenity=dancing_school, amenity=language_school, amenity=music_school)"
            }
        },
        {
            "id": 20769,
            "type": "Feature",
            "geometry": {
                "type": "Point",
                "coordinates": [
                    20.96438,
                    52.26456
                ]
            },
            "properties": {
                "isced:level": "1;2",
                "ref:rspo": 20769,
                "official_name": "Szko\u0142a Podstawowa Nr 92 im. Jana Brzechwy",
                "name": "Szko\u0142a Podstawowa Nr 92",
                "addr:postcode": "01-756",
                "addr:city": "Warszawa",
                "addr:street": "Przasnyska",
                "addr:housenumber": "18A",
                "addr:teryt:simc": 920048,
                "addr:teryt:sym_ul": 17618,
                "phone": "+48 222771688",
                "email": "sp92@edu.um.warszawa.pl",
                "website": "http:\/\/www.sp92.waw.pl",
                "ref:regon": "000801272",
                "ref:vatin": "PL5251100931",
                "operator": "\u017boliborz",
                "operator:type": "government",
                "amenity": "school"
            }
        },
        {
            "id": 266447,
            "type": "Feature",
            "geometry": {
                "type": "Point",
                "coordinates": [
                    20.9772399,
                    52.265
                ]
            },
            "properties": {
                "ref:rspo": 266447,
                "official_name": "Angloschool",
                "name": "Angloschool",
                "addr:postcode": "01-786",
                "addr:city": "Warszawa",
                "addr:street": "ks. Jerzego Popie\u0142uszki",
                "addr:housenumber": "7",
                "addr:teryt:simc": 920048,
                "addr:teryt:sym_ul": 17149,
                "phone": "+48 784639182",
                "email": "egzaminycambridge@angloschool.com.pl",
                "website": "http:\/\/www.angloschool.com.pl",
                "ref:regon": "369499887",
                "operator": "Agnieszka Heintze",
                "operator:type": "private",
                "fixme": "w zale\u017cno\u015bci od przedmiotu dzia\u0142alno\u015bci (np. amenity=training + training=*, amenity=dancing_school, amenity=language_school, amenity=music_school)"
            }
        },
        {
            "id": 109989,
            "type": "Feature",
            "geometry": {
                "type": "Point",
                "coordinates": [
                    20.99045,
                    52.26517
                ]
            },
            "properties": {
                "isced:level": "4",
                "ref:rspo": 109989,
                "official_name": "Studio Sztuki Artystyczne Policealne Studium Zawodowe w Warszawie",
                "name": "Studio Sztuki Artystyczne Policealne Studium Zawodowe w Warszawie",
                "addr:postcode": "01-552",
                "addr:city": "Warszawa",
                "addr:street": "pl. Inwalid\u00f3w",
                "addr:housenumber": "10",
                "addr:teryt:simc": 920048,
                "addr:teryt:sym_ul": 6918,
                "phone": "+48 228396865",
                "email": "studiosztuki@studiosztuki.pl",
                "ref:regon": "146546830",
                "operator": "Danuta Konarzewska",
                "operator:type": "private",
                "amenity": "college"
            }
        },
        {
            "id": 19695,
            "type": "Feature",
            "geometry": {
                "type": "Point",
                "coordinates": [
                    20.96137,
                    52.26549
                ]
            },
            "properties": {
                "ref:rspo": 19695,
                "official_name": "Przedszkole Z Oddzia\u0142ami Integracyjnymi Nr 288",
                "name": "Przedszkole Z Oddzia\u0142ami Integracyjnymi Nr 288",
                "addr:postcode": "01-737",
                "addr:city": "Warszawa",
                "addr:street": "Elbl\u0105ska",
                "addr:housenumber": "63A",
                "addr:teryt:simc": 920048,
                "addr:teryt:sym_ul": 4758,
                "phone": "+48 226339082",
                "email": "p288@edu.um.warszawa.pl",
                "website": "http:\/\/www.przedszkole288.waw.pl",
                "ref:regon": "012524604",
                "ref:vatin": "PL1180035956",
                "operator": "\u017boliborz",
                "operator:type": "government",
                "amenity": "kindergarten"
            }
        },
        {
            "id": 19692,
            "type": "Feature",
            "geometry": {
                "type": "Point",
                "coordinates": [
                    20.9796799,
                    52.26561
                ]
            },
            "properties": {
                "ref:rspo": 19692,
                "official_name": "Przedszkole Nr 109 \"Ludeczkowo\"",
                "name": "Przedszkole Nr 109 \"Ludeczkowo\"",
                "addr:postcode": "01-578",
                "addr:city": "Warszawa",
                "addr:street": "Plac Dionizego Henkla",
                "addr:housenumber": "2",
                "addr:teryt:simc": 920048,
                "addr:teryt:sym_ul": 45388,
                "phone": "+48 228392896",
                "email": "przedszkole109@vp.pl",
                "website": "http:\/\/www.przedszkoleludeczkowo.pl",
                "ref:regon": "012524722",
                "ref:vatin": "PL5251933654",
                "operator": "\u017boliborz",
                "operator:type": "government",
                "amenity": "kindergarten"
            }
        },
        {
            "id": 14783,
            "type": "Feature",
            "geometry": {
                "type": "Point",
                "coordinates": [
                    20.974830627441,
                    52.265720367432
                ]
            },
            "properties": {
                "ref:rspo": 14783,
                "official_name": "Specjalny O\u015brodek Szkolno-Wychowawczy Nr 9",
                "name": "Specjalny O\u015brodek Szkolno-Wychowawczy Nr 9",
                "addr:postcode": "01-640",
                "addr:city": "Warszawa",
                "addr:street": "Jana Chryzostoma Paska",
                "addr:housenumber": "10",
                "addr:teryt:simc": 920048,
                "addr:teryt:sym_ul": 15770,
                "phone": "+48 228332205",
                "email": "edarka@edu.um.warszawa.pl",
                "website": "http:\/\/www.sosw9.waw.pl",
                "ref:regon": "015867760",
                "ref:vatin": "PL5252318299",
                "operator": "Miasto Sto\u0142eczne Warszawa",
                "operator:type": "government",
                "amenity": "school",
                "note": "Children RSPO: 105332"
            }
        },
        {
            "id": 105332,
            "type": "Feature",
            "geometry": {
                "type": "Point",
                "coordinates": [
                    20.974830627441,
                    52.265690367432
                ]
            },
            "properties": {
                "isced:level": "1;2",
                "ref:rspo": 105332,
                "official_name": "Szko\u0142a Podstawowa Specjalna Nr 155",
                "name": "Szko\u0142a Podstawowa Specjalna Nr 155",
                "addr:postcode": "01-640",
                "addr:city": "Warszawa",
                "addr:street": "Jana Chryzostoma Paska",
                "addr:housenumber": "10",
                "addr:teryt:simc": 920048,
                "addr:teryt:sym_ul": 15770,
                "phone": "+48 228332205",
                "email": "edarka@edu.um.warszawa.pl",
                "website": "http:\/\/www.sosw9.waw.pl",
                "ref:regon": "000967512",
                "operator": "Miasto Sto\u0142eczne Warszawa",
                "operator:type": "government",
                "amenity": "school",
                "note": "Parent RSPO: 14783"
            }
        },
        {
            "id": 25904,
            "type": "Feature",
            "geometry": {
                "type": "Point",
                "coordinates": [
                    20.98391,
                    52.2659499
                ]
            },
            "properties": {
                "ref:rspo": 25904,
                "official_name": "Punkt Przedszkolny Wie\u017ca Je\u017ca",
                "name": "Punkt Przedszkolny Wie\u017ca Je\u017ca",
                "addr:postcode": "01-571",
                "addr:city": "Warszawa",
                "addr:street": "Jana Kozietulskiego",
                "addr:housenumber": "37",
                "addr:door": "1",
                "addr:teryt:simc": 920048,
                "addr:teryt:sym_ul": 9719,
                "phone": "+48 604236564",
                "email": "magdanowa77@gmail.com",
                "website": "http:\/\/www.wiezajeza.pl",
                "ref:regon": "146335517",
                "operator": "Fundacja Wie\u017ca Je\u017ca",
                "operator:type": "ngo",
                "amenity": "kindergarten"
            }
        },
        {
            "id": 126084,
            "type": "Feature",
            "geometry": {
                "type": "Point",
                "coordinates": [
                    20.96425,
                    52.26599
                ]
            },
            "properties": {
                "ref:rspo": 126084,
                "official_name": "Punkt Przedszkolny Kleks",
                "name": "Punkt Przedszkolny Kleks",
                "addr:postcode": "01-780",
                "addr:city": "Warszawa",
                "addr:street": "W\u0142adys\u0142awa Broniewskiego",
                "addr:housenumber": "21",
                "addr:door": "62",
                "addr:teryt:simc": 920048,
                "addr:teryt:sym_ul": 2125,
                "phone": "+48 223741386",
                "email": "sekretariat@kleks.edu.pl",
                "website": "http:\/\/www.kleks.edu.pl",
                "ref:regon": "360150924",
                "operator": "Agnieszka Lema\u0144ska",
                "operator:type": "private",
                "amenity": "kindergarten"
            }
        },
        {
            "id": 29709,
            "type": "Feature",
            "geometry": {
                "type": "Point",
                "coordinates": [
                    20.97642,
                    52.26599
                ]
            },
            "properties": {
                "isced:level": "3",
                "ref:rspo": 29709,
                "official_name": "Prywatne Liceum Og\u00f3lnokszta\u0142c\u0105ce Zgromadzenia Si\u00f3str Zmartwychwstania Pa\u0144skiego im. Matki Jadwigi Borz\u0119ckiej",
                "name": "Prywatne Liceum Og\u00f3lnokszta\u0142c\u0105ce Zgromadzenia Si\u00f3str Zmartwychwstania Pa\u0144skiego",
                "addr:postcode": "01-784",
                "addr:city": "Warszawa",
                "addr:street": "Zygmunta Krasi\u0144skiego",
                "addr:housenumber": "31",
                "addr:teryt:simc": 920048,
                "addr:teryt:sym_ul": 9848,
                "phone": "+48 226638777",
                "email": "szkola@szarotka.edu.pl",
                "website": "http:\/\/www.szarotka.edu.pl",
                "ref:regon": "146348891",
                "operator": "Zg.ss.zmartwychwstania Pa\u0144skiego,Prowincja Warszawska",
                "operator:type": "religious",
                "amenity": "school"
            }
        },
        {
            "id": 123543,
            "type": "Feature",
            "geometry": {
                "type": "Point",
                "coordinates": [
                    20.97642,
                    52.26596
                ]
            },
            "properties": {
                "isced:level": "1;2",
                "ref:rspo": 123543,
                "official_name": "Szko\u0142a Podstawowa Si\u00f3str Zmartwychwstanek im. B\u0142. S. Alicji Kotowskiej",
                "name": "Szko\u0142a Podstawowa Si\u00f3str Zmartwychwstanek",
                "addr:postcode": "01-784",
                "addr:city": "Warszawa",
                "addr:street": "Zygmunta Krasi\u0144skiego",
                "addr:housenumber": "31",
                "addr:teryt:simc": 920048,
                "addr:teryt:sym_ul": 9848,
                "phone": "+48 226633542",
                "email": "szkola@szarotka.edu.pl",
                "website": "http:\/\/www.szarotka.edu.pl",
                "ref:regon": "147325946",
                "operator": "Zg.ss.zmartwychwstania Pa\u0144skiego,Prowincja Warszawska",
                "operator:type": "religious",
                "amenity": "school"
            }
        },
        {
            "id": 267304,
            "type": "Feature",
            "geometry": {
                "type": "Point",
                "coordinates": [
                    20.97642,
                    52.265930000000004
                ]
            },
            "properties": {
                "isced:level": "1;2",
                "ref:rspo": 267304,
                "official_name": "Publiczna Szko\u0142a Podstawowa Si\u00f3str Zmartwychwstanek im. B\u0142. S.alicji Kotowskiej",
                "name": "Publiczna Szko\u0142a Podstawowa Si\u00f3str Zmartwychwstanek",
                "addr:postcode": "01-784",
                "addr:city": "Warszawa",
                "addr:street": "Zygmunta Krasi\u0144skiego",
                "addr:housenumber": "31",
                "addr:teryt:simc": 920048,
                "addr:teryt:sym_ul": 9848,
                "phone": "+48 226638777",
                "email": "szkola@szarotka.edu.pl",
                "website": "http:\/\/www.szarotka.edu.pl",
                "ref:regon": "380077650",
                "operator": "Zg.ss.zmartwychwstania Pa\u0144skiego,Prowincja Warszawska",
                "operator:type": "religious",
                "amenity": "school"
            }
        },
        {
            "id": 25905,
            "type": "Feature",
            "geometry": {
                "type": "Point",
                "coordinates": [
                    20.9864,
                    52.26661
                ]
            },
            "properties": {
                "ref:rspo": 25905,
                "official_name": "Punkt Przedszkolny Mambaleu",
                "name": "Punkt Przedszkolny Mambaleu",
                "addr:postcode": "01-568",
                "addr:city": "Warszawa",
                "addr:street": "Stefana Pogonowskiego",
                "addr:housenumber": "21",
                "addr:door": "1",
                "addr:teryt:simc": 920048,
                "addr:teryt:sym_ul": 16902,
                "phone": "+48 508198462",
                "email": "malgosiasulikowska1@gmail.com",
                "website": "http:\/\/www.mambaleu.com",
                "ref:regon": "146338071",
                "operator": "Ma\u0142gorzata Sulikowska",
                "operator:type": "private",
                "amenity": "kindergarten"
            }
        },
        {
            "id": 20770,
            "type": "Feature",
            "geometry": {
                "type": "Point",
                "coordinates": [
                    20.96928,
                    52.26674
                ]
            },
            "properties": {
                "isced:level": "1;2",
                "ref:rspo": 20770,
                "official_name": "Szko\u0142a Podstawowa Nr 267 im. Juliusza S\u0142owackiego",
                "name": "Szko\u0142a Podstawowa Nr 267",
                "addr:postcode": "01-773",
                "addr:city": "Warszawa",
                "addr:street": "Braci Za\u0142uskich",
                "addr:housenumber": "1",
                "addr:teryt:simc": 920048,
                "addr:teryt:sym_ul": 2007,
                "phone": "+48 226634849",
                "email": "sp267@edu.um.warszawa.pl",
                "website": "http:\/\/www.sp267.waw.pl",
                "ref:regon": "010412730",
                "ref:vatin": "PL5251503729",
                "operator": "\u017boliborz",
                "operator:type": "government",
                "amenity": "school"
            }
        },
        {
            "id": 83300,
            "type": "Feature",
            "geometry": {
                "type": "Point",
                "coordinates": [
                    20.963307,
                    52.2669222
                ]
            },
            "properties": {
                "ref:rspo": 83300,
                "official_name": "Przedszkole Niepubliczne \"Male\u0144stwo I Przyjaciele\"",
                "name": "Przedszkole Niepubliczne \"Male\u0144stwo I Przyjaciele\"",
                "addr:postcode": "01-771",
                "addr:city": "Warszawa",
                "addr:street": "W\u0142adys\u0142awa Broniewskiego",
                "addr:housenumber": "28",
                "addr:teryt:simc": 920048,
                "addr:teryt:sym_ul": 2125,
                "phone": "+48 696240690",
                "email": "malenstwo@malenstwo24.pl",
                "ref:regon": "146415890",
                "operator": "Pawe\u0142 Bobrowski",
                "operator:type": "private",
                "amenity": "kindergarten"
            }
        },
        {
            "id": 130784,
            "type": "Feature",
            "geometry": {
                "type": "Point",
                "coordinates": [
                    20.9817399,
                    52.2669799
                ]
            },
            "properties": {
                "ref:rspo": 130784,
                "official_name": "Przedszkole Lalibam",
                "name": "Przedszkole Lalibam",
                "addr:postcode": "01-576",
                "addr:city": "Warszawa",
                "addr:street": "Juliusza Kossaka",
                "addr:housenumber": "12",
                "addr:teryt:simc": 920048,
                "addr:teryt:sym_ul": 9463,
                "phone": "+48 514827731",
                "email": "biuro@lalibam.pl",
                "ref:regon": "364545938",
                "operator": "Lalibam Sp\u00f3\u0142ka Z Ograniczon\u0105 Odpowiedzialno\u015bci\u0105",
                "operator:type": "private",
                "amenity": "kindergarten"
            }
        },
        {
            "id": 19728,
            "type": "Feature",
            "geometry": {
                "type": "Point",
                "coordinates": [
                    20.976028,
                    52.2674618
                ]
            },
            "properties": {
                "ref:rspo": 19728,
                "official_name": "Ognisko Pracy Pozaszkolnej \"\u017boliborz\"",
                "name": "Ognisko Pracy Pozaszkolnej \"\u017boliborz\"",
                "addr:postcode": "01-595",
                "addr:city": "Warszawa",
                "addr:street": "ks. Jerzego Popie\u0142uszki",
                "addr:housenumber": "13",
                "addr:teryt:simc": 920048,
                "addr:teryt:sym_ul": 17149,
                "phone": "+48 228394241",
                "email": "oppzol@edu.um.warszawa.pl",
                "website": "http:\/\/www.oppzoliborz.waw.pl",
                "ref:regon": "012864620",
                "ref:vatin": "PL5251975575",
                "operator": "\u017boliborz",
                "operator:type": "government",
                "amenity": "community_centre",
                "community_centre:for": "child;juvenile"
            }
        },
        {
            "id": 131364,
            "type": "Feature",
            "geometry": {
                "type": "Point",
                "coordinates": [
                    20.98162,
                    52.26785
                ]
            },
            "properties": {
                "ref:rspo": 131364,
                "official_name": "One Way Math - Plac\u00f3wka O\u015bwiatowo-Wychowawcza",
                "name": "One Way Math - Plac\u00f3wka O\u015bwiatowo-Wychowawcza",
                "addr:postcode": "03-257",
                "addr:city": "Warszawa",
                "addr:street": "Zygmunta Krasi\u0144skiego",
                "addr:housenumber": "16",
                "addr:door": "29",
                "addr:teryt:simc": 920048,
                "addr:teryt:sym_ul": 9848,
                "phone": "+48 507006321",
                "email": "kontakt@oneway.edu.pl",
                "ref:regon": "365139057",
                "operator": "Agnieszka Tomasik-Walczak",
                "operator:type": "private",
                "fixme": "w zale\u017cno\u015bci od przedmiotu dzia\u0142alno\u015bci (np. amenity=training + training=*, amenity=dancing_school, amenity=language_school, amenity=music_school)"
            }
        },
        {
            "id": 105673,
            "type": "Feature",
            "geometry": {
                "type": "Point",
                "coordinates": [
                    20.99116,
                    52.26788
                ]
            },
            "properties": {
                "isced:level": "1;2",
                "ref:rspo": 105673,
                "official_name": "Szko\u0142a Podstawowa Specjalna Nr 123",
                "name": "Szko\u0142a Podstawowa Specjalna Nr 123",
                "addr:postcode": "01-548",
                "addr:city": "Warszawa",
                "addr:street": "Stefana Czarnieckiego",
                "addr:housenumber": "49",
                "addr:teryt:simc": 920048,
                "addr:teryt:sym_ul": 3283,
                "phone": "+48 228392252",
                "email": "jboguszewska@edu.um.warszawa.pl",
                "website": "https:\/\/sps123.waw.pl\/",
                "ref:regon": "016428903",
                "operator": "Miasto Sto\u0142eczne Warszawa",
                "operator:type": "government",
                "amenity": "school"
            }
        },
        {
            "id": 130881,
            "type": "Feature",
            "geometry": {
                "type": "Point",
                "coordinates": [
                    20.98314,
                    52.26838
                ]
            },
            "properties": {
                "ref:rspo": 130881,
                "official_name": "Laboratorium Pomiar\u00f3w \u015arodowiskowych. Szkolenia w Zakresie Bhp",
                "name": "Laboratorium Pomiar\u00f3w \u015arodowiskowych. Szkolenia w Zakresie Bhp",
                "addr:postcode": "01-582",
                "addr:city": "Warszawa",
                "addr:street": "Filarecka",
                "addr:housenumber": "2",
                "addr:teryt:simc": 920048,
                "addr:teryt:sym_ul": 4993,
                "phone": "+48 226582636",
                "ref:regon": "364650405",
                "operator": "Andrzej \u0141uczaj",
                "operator:type": "private",
                "fixme": "w zale\u017cno\u015bci od przedmiotu dzia\u0142alno\u015bci (np. amenity=training + training=*, amenity=dancing_school, amenity=language_school, amenity=music_school)"
            }
        },
        {
            "id": 133707,
            "type": "Feature",
            "geometry": {
                "type": "Point",
                "coordinates": [
                    20.98314,
                    52.26835
                ]
            },
            "properties": {
                "isced:level": "1;2",
                "ref:rspo": 133707,
                "official_name": "Szko\u0142a Podstawowa Nr 391 im. Macieja Aleksego Dawidowskiego Ps. \"Alek\"",
                "name": "Szko\u0142a Podstawowa Nr 391",
                "addr:postcode": "01-582",
                "addr:city": "Warszawa",
                "addr:street": "Filarecka",
                "addr:housenumber": "2",
                "addr:teryt:simc": 920048,
                "addr:teryt:sym_ul": 4993,
                "phone": "+48 222771630",
                "email": "sp391@edu.um.warszawa.pl",
                "website": "http:\/\/www.sp391.edu.pl",
                "ref:regon": "367560170",
                "ref:vatin": "PL5252132956",
                "operator": "\u017boliborz",
                "operator:type": "government",
                "amenity": "school"
            }
        },
        {
            "id": 19701,
            "type": "Feature",
            "geometry": {
                "type": "Point",
                "coordinates": [
                    20.96399,
                    52.26871
                ]
            },
            "properties": {
                "ref:rspo": 19701,
                "official_name": "Przedszkole Nr 361",
                "name": "Przedszkole Nr 361",
                "addr:postcode": "01-710",
                "addr:city": "Warszawa",
                "addr:street": "W\u0142o\u015bcia\u0144ska",
                "addr:housenumber": "6a",
                "addr:teryt:simc": 920048,
                "addr:teryt:sym_ul": 24532,
                "phone": "+48 226333892",
                "email": "p361@edu.um.warszawa.pl",
                "website": "http:\/\/www.przedszkole361.waw.pl",
                "ref:regon": "012524509",
                "ref:vatin": "PL5251557122",
                "operator": "\u017boliborz",
                "operator:type": "government",
                "amenity": "kindergarten"
            }
        },
        {
            "id": 19700,
            "type": "Feature",
            "geometry": {
                "type": "Point",
                "coordinates": [
                    20.98076,
                    52.26916
                ]
            },
            "properties": {
                "ref:rspo": 19700,
                "official_name": "Przedszkole Nr 130 im. Marii Kownackiej",
                "name": "Przedszkole Nr 130",
                "addr:postcode": "01-586",
                "addr:city": "Warszawa",
                "addr:street": "Paw\u0142a Suzina",
                "addr:housenumber": "4",
                "addr:teryt:simc": 920048,
                "addr:teryt:sym_ul": 21616,
                "phone": "+48 228332373",
                "email": "p130@edu.um.warszawa.pl",
                "website": "http:\/\/www.p130.przedszkola.net.pl",
                "ref:regon": "012524700",
                "ref:vatin": "PL5251920640",
                "operator": "\u017boliborz",
                "operator:type": "government",
                "amenity": "kindergarten"
            }
        },
        {
            "id": 85113,
            "type": "Feature",
            "geometry": {
                "type": "Point",
                "coordinates": [
                    20.97566,
                    52.26926
                ]
            },
            "properties": {
                "ref:rspo": 85113,
                "official_name": "Niepubliczne Przedszkole Zielona Wie\u017ca \u017boliborz",
                "name": "Niepubliczne Przedszkole Zielona Wie\u017ca \u017boliborz",
                "addr:postcode": "01-590",
                "addr:city": "Warszawa",
                "addr:street": "ks. Jerzego Popie\u0142uszki",
                "addr:housenumber": "14",
                "addr:door": "117",
                "addr:teryt:simc": 920048,
                "addr:teryt:sym_ul": 17149,
                "phone": "+48 720910116",
                "email": "fpds@fpds.org.pl",
                "ref:regon": "146439814",
                "operator": "Sp\u00f3\u0142dzielnia Socjalna \"Po\u017cywienie - Darem Serca\"",
                "operator:type": "cooperative",
                "amenity": "kindergarten"
            }
        },
        {
            "id": 124052,
            "type": "Feature",
            "geometry": {
                "type": "Point",
                "coordinates": [
                    20.99936,
                    52.2694199
                ]
            },
            "properties": {
                "ref:rspo": 124052,
                "official_name": "O\u015brodek Szkoleniowy Centrum Edukacji Bezpiecze\u0144stwa Alfa",
                "name": "O\u015brodek Szkoleniowy Centrum Edukacji Bezpiecze\u0144stwa Alfa",
                "addr:postcode": "01-531",
                "addr:city": "Warszawa",
                "addr:street": "Wybrze\u017ce Gdy\u0144skie",
                "addr:housenumber": "2",
                "addr:teryt:simc": 920048,
                "addr:teryt:sym_ul": 24917,
                "phone": "+48 226286070",
                "email": "biuro@alfaszkolenia.pl",
                "website": "http:\/\/www.alfaszkolenia.pl",
                "ref:regon": "147370817",
                "operator": "Centrum Edukacji Bezpiecze\u0144stwa \"Alfa\" Sp\u00f3\u0142ka Z Ograniczon\u0105 Odpowiedzialno\u015bci\u0105",
                "operator:type": "private",
                "fixme": "w zale\u017cno\u015bci od przedmiotu dzia\u0142alno\u015bci (np. amenity=training + training=*, amenity=dancing_school, amenity=language_school, amenity=music_school)"
            }
        },
        {
            "id": 19699,
            "type": "Feature",
            "geometry": {
                "type": "Point",
                "coordinates": [
                    20.97745,
                    52.26999
                ]
            },
            "properties": {
                "ref:rspo": 19699,
                "official_name": "Przedszkole Nr 131",
                "name": "Przedszkole Nr 131",
                "addr:postcode": "01-589",
                "addr:city": "Warszawa",
                "addr:street": "Sierpecka",
                "addr:housenumber": "9A",
                "addr:teryt:simc": 920048,
                "addr:teryt:sym_ul": 19865,
                "phone": "+48 228330573",
                "email": "p131@edu.um.warszawa.pl",
                "website": "http:\/\/www.przedszkole131.waw.pl",
                "ref:regon": "012524691",
                "ref:vatin": "PL1180035695",
                "operator": "\u017boliborz",
                "operator:type": "government",
                "amenity": "kindergarten"
            }
        },
        {
            "id": 80546,
            "type": "Feature",
            "geometry": {
                "type": "Point",
                "coordinates": [
                    20.97596,
                    52.27026
                ]
            },
            "properties": {
                "ref:rspo": 80546,
                "official_name": "Przedszkole Niepubliczne \"Zdrowoje\u017c\"",
                "name": "Przedszkole Niepubliczne \"Zdrowoje\u017c\"",
                "addr:postcode": "01-590",
                "addr:city": "Warszawa",
                "addr:street": "ks. Jerzego Popie\u0142uszki",
                "addr:housenumber": "16",
                "addr:teryt:simc": 920048,
                "addr:teryt:sym_ul": 17149,
                "phone": "+48 502339096",
                "email": "zdrowojez@gmail.com",
                "website": "http:\/\/www.zdrowojez.pl",
                "ref:regon": "146416084",
                "operator": "Dagmara Miler",
                "operator:type": "private",
                "amenity": "kindergarten"
            }
        },
        {
            "id": 84925,
            "type": "Feature",
            "geometry": {
                "type": "Point",
                "coordinates": [
                    20.97596,
                    52.27023
                ]
            },
            "properties": {
                "ref:rspo": 84925,
                "official_name": "Academy International \u017boliborz",
                "name": "Academy International \u017boliborz",
                "addr:postcode": "01-590",
                "addr:city": "Warszawa",
                "addr:street": "ks. Jerzego Popie\u0142uszki",
                "addr:housenumber": "16",
                "addr:teryt:simc": 920048,
                "addr:teryt:sym_ul": 17149,
                "phone": "+48 228339808",
                "email": "zoliborz@przedszkola.pl",
                "ref:regon": "146423055",
                "operator": "Academy International Sp\u00f3\u0142ka Z Ograniczon\u0105 Odpowiedzialno\u015bci\u0105",
                "operator:type": "private",
                "amenity": "kindergarten"
            }
        },
        {
            "id": 274360,
            "type": "Feature",
            "geometry": {
                "type": "Point",
                "coordinates": [
                    20.97399,
                    52.2703
                ]
            },
            "properties": {
                "ref:rspo": 274360,
                "official_name": "Niepubliczny O\u015brodek Doskonalenia Zawodowego Nauczycieli I Dyrektor\u00f3w Szk\u00f3\u0142 I Plac\u00f3wek O\u015bwiatowych Talent",
                "name": "Niepubliczny O\u015brodek Doskonalenia Zawodowego Nauczycieli I Dyrektor\u00f3w Szk\u00f3\u0142 I Plac\u00f3wek O\u015bwiatowych Talent",
                "addr:postcode": "01-595",
                "addr:city": "Warszawa",
                "addr:street": "ks. Jerzego Popie\u0142uszki",
                "addr:housenumber": "19\/21",
                "addr:door": "312",
                "addr:teryt:simc": 920048,
                "addr:teryt:sym_ul": 17149,
                "phone": "+48 664129586",
                "email": "biuro@pti.edu.pl",
                "website": "http:\/\/www.pti.edu.pl",
                "ref:regon": "385620595",
                "operator": "Pti Szkolenia Dla Bran\u017cy Edukacyjnej  Sp\u00f3\u0142ka Z Ograniczon\u0105 Odpowiedzialno\u015bci\u0105",
                "operator:type": "private",
                "amenity": "training"
            }
        },
        {
            "id": 14451,
            "type": "Feature",
            "geometry": {
                "type": "Point",
                "coordinates": [
                    20.99545,
                    52.2707
                ]
            },
            "properties": {
                "ref:rspo": 14451,
                "official_name": "Zesp\u00f3\u0142 Pa\u0144stwowych Szk\u00f3\u0142 Muzycznych Nr 4 im. Karola Szymanowskiego w Warszawie",
                "name": "Zesp\u00f3\u0142 Pa\u0144stwowych Szk\u00f3\u0142 Muzycznych Nr 4",
                "addr:postcode": "01-530",
                "addr:city": "Warszawa",
                "addr:street": "Zygmunta Krasi\u0144skiego",
                "addr:housenumber": "1",
                "addr:teryt:simc": 920048,
                "addr:teryt:sym_ul": 9848,
                "phone": "+48 228391878",
                "email": "sekretariat@szymanowski.edu.pl",
                "website": "http:\/\/szymanowski.edu.pl",
                "ref:regon": "016070258",
                "operator": "Ministerstwo Kultury I Dziedzictwa Narodowego",
                "operator:type": "public",
                "landuse": "education",
                "fixme": "amenity=school, amenity=college albo landuse=education w zale\u017cno\u015bci od tego, jakie plac\u00f3wki wchodz\u0105 w sk\u0142ad zespo\u0142u. Sprawd\u017a, kiedy stosowa\u0107 amenity=* a kiedy landuse=education.",
                "note": "Children RSPO: 103582;103583;103584"
            }
        },
        {
            "id": 103582,
            "type": "Feature",
            "geometry": {
                "type": "Point",
                "coordinates": [
                    20.99545,
                    52.270669999999996
                ]
            },
            "properties": {
                "isced:level": "1;2",
                "ref:rspo": 103582,
                "official_name": "Og\u00f3lnokszta\u0142c\u0105ca Szko\u0142a Muzyczna I St. w Warszawie",
                "name": "Og\u00f3lnokszta\u0142c\u0105ca Szko\u0142a Muzyczna I St. w Warszawie",
                "addr:postcode": "01-530",
                "addr:city": "Warszawa",
                "addr:street": "Zygmunta Krasi\u0144skiego",
                "addr:housenumber": "1",
                "addr:teryt:simc": 920048,
                "addr:teryt:sym_ul": 9848,
                "phone": "+48 228391878",
                "email": "sekretariat@szymanowski.edu.pl",
                "website": "http:\/\/www.szymanowski.edu.pl",
                "ref:regon": "140096490",
                "operator": "Ministerstwo Kultury I Dziedzictwa Narodowego",
                "operator:type": "public",
                "amenity": "school",
                "note": "Parent RSPO: 14451"
            }
        },
        {
            "id": 103583,
            "type": "Feature",
            "geometry": {
                "type": "Point",
                "coordinates": [
                    20.99545,
                    52.27064
                ]
            },
            "properties": {
                "isced:level": "3",
                "ref:rspo": 103583,
                "official_name": "Og\u00f3lnokszta\u0142c\u0105ca Szko\u0142a Muzyczna II St. w Warszawie",
                "name": "Og\u00f3lnokszta\u0142c\u0105ca Szko\u0142a Muzyczna II St. w Warszawie",
                "addr:postcode": "01-530",
                "addr:city": "Warszawa",
                "addr:street": "Zygmunta Krasi\u0144skiego",
                "addr:housenumber": "1",
                "addr:teryt:simc": 920048,
                "addr:teryt:sym_ul": 9848,
                "phone": "+48 228391878",
                "email": "sekretariat@szymanowski.edu.pl",
                "website": "http:\/\/www.szymanowski.edu.pl",
                "ref:regon": "140096483",
                "operator": "Ministerstwo Kultury I Dziedzictwa Narodowego",
                "operator:type": "public",
                "amenity": "school",
                "note": "Parent RSPO: 14451"
            }
        },
        {
            "id": 103584,
            "type": "Feature",
            "geometry": {
                "type": "Point",
                "coordinates": [
                    20.99545,
                    52.27061
                ]
            },
            "properties": {
                "ref:rspo": 103584,
                "official_name": "Pa\u0144stwowa Szko\u0142a Muzyczna II St. w Warszawie",
                "name": "Pa\u0144stwowa Szko\u0142a Muzyczna II St. w Warszawie",
                "addr:postcode": "01-530",
                "addr:city": "Warszawa",
                "addr:street": "Zygmunta Krasi\u0144skiego",
                "addr:housenumber": "1",
                "addr:teryt:simc": 920048,
                "addr:teryt:sym_ul": 9848,
                "phone": "+48 228391878",
                "email": "sekretariat@szymanowski.edu.pl",
                "website": "http:\/\/www.szymanowski.edu.pl",
                "ref:regon": "016070270",
                "operator": "Ministerstwo Kultury I Dziedzictwa Narodowego",
                "operator:type": "public",
                "amenity": "music_school",
                "note": "Parent RSPO: 14451"
            }
        },
        {
            "id": 19707,
            "type": "Feature",
            "geometry": {
                "type": "Point",
                "coordinates": [
                    20.96534,
                    52.27073
                ]
            },
            "properties": {
                "ref:rspo": 19707,
                "official_name": "Zesp\u00f3\u0142 Szk\u00f3\u0142 Samochodowych I Licealnych Nr 3 im. Ignacego Jana Paderewskiego",
                "name": "Zesp\u00f3\u0142 Szk\u00f3\u0142 Samochodowych I Licealnych Nr 3",
                "addr:postcode": "01-710",
                "addr:city": "Warszawa",
                "addr:street": "W\u0142o\u015bcia\u0144ska",
                "addr:housenumber": "35",
                "addr:teryt:simc": 920048,
                "addr:teryt:sym_ul": 24532,
                "phone": "+48 226633038",
                "email": "zssl3@edu.um.warszawa.pl",
                "website": "http:\/\/www.wloscianska.strefa.pl",
                "ref:regon": "000180172",
                "ref:vatin": "PL5252136871",
                "operator": "\u017boliborz",
                "operator:type": "government",
                "landuse": "education",
                "fixme": "amenity=school, amenity=college albo landuse=education w zale\u017cno\u015bci od tego, jakie plac\u00f3wki wchodz\u0105 w sk\u0142ad zespo\u0142u. Sprawd\u017a, kiedy stosowa\u0107 amenity=* a kiedy landuse=education.",
                "note": "Children RSPO: 39679;39680;122426;127103"
            }
        },
        {
            "id": 39679,
            "type": "Feature",
            "geometry": {
                "type": "Point",
                "coordinates": [
                    20.96534,
                    52.2707
                ]
            },
            "properties": {
                "isced:level": "3",
                "ref:rspo": 39679,
                "official_name": "Bran\u017cowa Szko\u0142a I Stopnia Nr 11",
                "name": "Bran\u017cowa Szko\u0142a I Stopnia Nr 11",
                "addr:postcode": "01-710",
                "addr:city": "Warszawa",
                "addr:street": "W\u0142o\u015bcia\u0144ska",
                "addr:housenumber": "35",
                "addr:teryt:simc": 920048,
                "addr:teryt:sym_ul": 24532,
                "phone": "+48 226633038",
                "email": "zssl3@edu.um.warszawa.pl",
                "website": "http:\/\/www.wloscianska.strefa.pl",
                "ref:regon": "015789289",
                "ref:vatin": "PL5252136871",
                "operator": "\u017boliborz",
                "operator:type": "government",
                "amenity": "school",
                "note": "Parent RSPO: 19707"
            }
        },
        {
            "id": 39680,
            "type": "Feature",
            "geometry": {
                "type": "Point",
                "coordinates": [
                    20.96534,
                    52.27067
                ]
            },
            "properties": {
                "isced:level": "3",
                "ref:rspo": 39680,
                "official_name": "Technikum Samochodowe Nr 3",
                "name": "Technikum Samochodowe Nr 3",
                "addr:postcode": "01-710",
                "addr:city": "Warszawa",
                "addr:street": "W\u0142o\u015bcia\u0144ska",
                "addr:housenumber": "35",
                "addr:teryt:simc": 920048,
                "addr:teryt:sym_ul": 24532,
                "phone": "+48 226633038",
                "email": "zssl3@edu.um.warszawa.pl",
                "website": "http:\/\/www.wloscianska.strefa.pl",
                "ref:regon": "015789272",
                "ref:vatin": "PL5252136871",
                "operator": "\u017boliborz",
                "operator:type": "government",
                "amenity": "school",
                "note": "Parent RSPO: 19707"
            }
        },
        {
            "id": 122426,
            "type": "Feature",
            "geometry": {
                "type": "Point",
                "coordinates": [
                    20.96534,
                    52.27064
                ]
            },
            "properties": {
                "isced:level": "4",
                "ref:rspo": 122426,
                "official_name": "Szko\u0142a Policealna Nr 33",
                "name": "Szko\u0142a Policealna Nr 33",
                "addr:postcode": "01-710",
                "addr:city": "Warszawa",
                "addr:street": "W\u0142o\u015bcia\u0144ska",
                "addr:housenumber": "35",
                "addr:teryt:simc": 920048,
                "addr:teryt:sym_ul": 24532,
                "phone": "+48 226633038",
                "email": "zssl3@edu.um.warszawa.pl",
                "website": "http:\/\/www.wloscianska.strefa.pl",
                "ref:regon": "140226900",
                "ref:vatin": "PL5252136871",
                "operator": "\u017boliborz",
                "operator:type": "government",
                "amenity": "college",
                "note": "Parent RSPO: 19707"
            }
        },
        {
            "id": 127103,
            "type": "Feature",
            "geometry": {
                "type": "Point",
                "coordinates": [
                    20.96534,
                    52.27061
                ]
            },
            "properties": {
                "isced:level": "3",
                "ref:rspo": 127103,
                "official_name": "Cl Liceum Og\u00f3lnokszta\u0142c\u0105ce dla Doros\u0142ych",
                "name": "Cl Liceum Og\u00f3lnokszta\u0142c\u0105ce dla Doros\u0142ych",
                "addr:postcode": "01-710",
                "addr:city": "Warszawa",
                "addr:street": "W\u0142o\u015bcia\u0144ska",
                "addr:housenumber": "35",
                "addr:teryt:simc": 920048,
                "addr:teryt:sym_ul": 24532,
                "phone": "+48 226633038",
                "email": "zssl3@edu.um.warszawa.pl",
                "website": "http:\/\/www.wloscianska.strefa.pl",
                "ref:regon": "361111381",
                "operator": "\u017boliborz",
                "operator:type": "government",
                "amenity": "school",
                "note": "Parent RSPO: 19707"
            }
        },
        {
            "id": 266957,
            "type": "Feature",
            "geometry": {
                "type": "Point",
                "coordinates": [
                    20.99008,
                    52.2712
                ]
            },
            "properties": {
                "ref:rspo": 266957,
                "official_name": "O\u015brodek Szkoleniowy Info Grupa",
                "name": "O\u015brodek Szkoleniowy Info Grupa",
                "addr:postcode": "01-605",
                "addr:city": "Warszawa",
                "addr:street": "Dziennikarska",
                "addr:housenumber": "12",
                "addr:teryt:simc": 920048,
                "addr:teryt:sym_ul": 4631,
                "phone": "+48 606510400",
                "email": "k.szymanski@infogrupa.pl",
                "ref:regon": "369760529",
                "operator": "Krzysztof Szyma\u0144ski",
                "operator:type": "private",
                "fixme": "w zale\u017cno\u015bci od przedmiotu dzia\u0142alno\u015bci (np. amenity=training + training=*, amenity=dancing_school, amenity=language_school, amenity=music_school)"
            }
        },
        {
            "id": 123509,
            "type": "Feature",
            "geometry": {
                "type": "Point",
                "coordinates": [
                    20.98977,
                    52.27216
                ]
            },
            "properties": {
                "ref:rspo": 123509,
                "official_name": "Punkt Przedszkolny Dotti Pelotti",
                "name": "Punkt Przedszkolny Dotti Pelotti",
                "addr:postcode": "01-605",
                "addr:city": "Warszawa",
                "addr:street": "Dziennikarska",
                "addr:housenumber": "21",
                "addr:teryt:simc": 920048,
                "addr:teryt:sym_ul": 4631,
                "phone": "+48 539743001",
                "email": "biuro@dottipelotti.com",
                "website": "http:\/\/www.dottipelotti.com",
                "ref:regon": "147322250",
                "operator": "Dotti Pelotti Sp\u00f3\u0142ka Z Ograniczon\u0105 Odpowiedzialno\u015bci\u0105",
                "operator:type": "private",
                "amenity": "kindergarten"
            }
        },
        {
            "id": 19702,
            "type": "Feature",
            "geometry": {
                "type": "Point",
                "coordinates": [
                    20.98645,
                    52.27232
                ]
            },
            "properties": {
                "ref:rspo": 19702,
                "official_name": "Przedszkole Nr 212",
                "name": "Przedszkole Nr 212",
                "addr:postcode": "01-611",
                "addr:city": "Warszawa",
                "addr:street": "Czes\u0142awa Ludwika Rybi\u0144skiego",
                "addr:housenumber": "2",
                "addr:teryt:simc": 920048,
                "addr:teryt:sym_ul": 19171,
                "phone": "+48 228398867",
                "email": "p212@edu.um.warszawa.pl",
                "website": "http:\/\/www.p212waw.edupage.org",
                "ref:regon": "012524662",
                "ref:vatin": "PL5251572340",
                "operator": "\u017boliborz",
                "operator:type": "government",
                "amenity": "kindergarten"
            }
        },
        {
            "id": 24975,
            "type": "Feature",
            "geometry": {
                "type": "Point",
                "coordinates": [
                    20.97418,
                    52.27255
                ]
            },
            "properties": {
                "ref:rspo": 24975,
                "official_name": "Punkt Przedszkolny \"Sotis\"",
                "name": "Punkt Przedszkolny \"Sotis\"",
                "addr:postcode": "01-633",
                "addr:city": "Warszawa",
                "addr:street": "Gda\u0144ska",
                "addr:housenumber": "2",
                "addr:door": "24",
                "addr:teryt:simc": 920048,
                "addr:teryt:sym_ul": 5431,
                "phone": "+48 695599799",
                "email": "warszawa.zoliborz@sotis.edu.pl",
                "ref:regon": "146333932",
                "operator": "Sotis Sp\u00f3\u0142ka Z Ograniczon\u0105 Odpowiedzialno\u015bci\u0105",
                "operator:type": "private",
                "amenity": "kindergarten"
            }
        },
        {
            "id": 19694,
            "type": "Feature",
            "geometry": {
                "type": "Point",
                "coordinates": [
                    20.97643,
                    52.27332
                ]
            },
            "properties": {
                "ref:rspo": 19694,
                "official_name": "Przedszkole Integracyjne Nr 247",
                "name": "Przedszkole Integracyjne Nr 247",
                "addr:postcode": "01-632",
                "addr:city": "Warszawa",
                "addr:street": "Bieniewicka",
                "addr:housenumber": "32",
                "addr:teryt:simc": 920048,
                "addr:teryt:sym_ul": 1287,
                "phone": "+48 228328408",
                "email": "p247@edu.um.warszawa.pl",
                "ref:regon": "012525348",
                "ref:vatin": "PL5252004201",
                "operator": "\u017boliborz",
                "operator:type": "government",
                "amenity": "kindergarten"
            }
        },
        {
            "id": 20767,
            "type": "Feature",
            "geometry": {
                "type": "Point",
                "coordinates": [
                    20.983,
                    52.2746799
                ]
            },
            "properties": {
                "isced:level": "1;2",
                "ref:rspo": 20767,
                "official_name": "Szko\u0142a Podstawowa Nr 65 im. W\u0142adys\u0142awa Orkana",
                "name": "Szko\u0142a Podstawowa Nr 65",
                "addr:postcode": "01-647",
                "addr:city": "Warszawa",
                "addr:street": "M\u015bcis\u0142awska",
                "addr:housenumber": "1",
                "addr:teryt:simc": 920048,
                "addr:teryt:sym_ul": 13459,
                "phone": "+48 228335836",
                "email": "sp65@edu.um.warszawa.pl",
                "website": "http:\/\/www.sp65.waw.pl",
                "ref:regon": "010414917",
                "ref:vatin": "PL5251575344",
                "operator": "\u017boliborz",
                "operator:type": "government",
                "amenity": "school"
            }
        },
        {
            "id": 105686,
            "type": "Feature",
            "geometry": {
                "type": "Point",
                "coordinates": [
                    20.97516,
                    52.27476
                ]
            },
            "properties": {
                "isced:level": "1;2",
                "ref:rspo": 105686,
                "official_name": "Szko\u0142a Podstawowa Specjalna Nr 291",
                "name": "Szko\u0142a Podstawowa Specjalna Nr 291",
                "addr:postcode": "01-644",
                "addr:city": "Warszawa",
                "addr:street": "Henryka Dembi\u0144skiego",
                "addr:housenumber": "1",
                "addr:teryt:simc": 920048,
                "addr:teryt:sym_ul": 3743,
                "phone": "+48 223530109",
                "email": "sp291@edu.um.warszawa.pl",
                "website": "http:\/\/www.sp291.edupage.org",
                "ref:regon": "015836988",
                "operator": "Miasto Sto\u0142eczne Warszawa",
                "operator:type": "government",
                "amenity": "school"
            }
        }
    ]
}