{
    "type": "FeatureCollection",
    "features": [
        {
            "id": 61592,
            "type": "Feature",
            "geometry": {
                "type": "Point",
                "coordinates": [
                    21.13575,
                    52.24686
                ]
            },
            "properties": {
                "ref:rspo": 61592,
                "official_name": "Przedszkole Nr 160",
                "name": "Przedszkole Nr 160",
                "addr:country": "PL",
                "addr:postcode": "04-256",
                "addr:city": "Warszawa",
                "addr:street": "Niepo\u0142omicka",
                "addr:housenumber": "26",
                "addr:teryt:simc": 988810,
                "addr:teryt:sym_ul": 14209,
                "contact:phone": "+48 228152312",
                "contact:email": "przedszkole160warszawa@gmail.com",
                "contact:website": "http:\/\/www.p160.waw.pl",
                "ref:regon": "013004657",
                "ref:vatin": "PL9521929507",
                "operator": "Rembert\u00f3w",
                "operator:type": "government",
                "amenity": "kindergarten"
            }
        },
        {
            "id": 73117,
            "type": "Feature",
            "geometry": {
                "type": "Point",
                "coordinates": [
                    21.13575,
                    52.246829999999996
                ]
            },
            "properties": {
                "ref:rspo": 73117,
                "official_name": "Zesp\u00f3\u0142 Szk\u00f3\u0142 Nr 74",
                "name": "Zesp\u00f3\u0142 Szk\u00f3\u0142 Nr 74",
                "addr:country": "PL",
                "addr:postcode": "04-256",
                "addr:city": "Warszawa",
                "addr:street": "Niepo\u0142omicka",
                "addr:housenumber": "26",
                "addr:teryt:simc": 988810,
                "addr:teryt:sym_ul": 14209,
                "contact:phone": "+48 228798018",
                "contact:email": "sekretariat@zs74.pl",
                "contact:website": "http:\/\/www.zs74.szkolnastrona.pl",
                "ref:regon": "015211314",
                "ref:vatin": "PL9521897629",
                "operator": "Rembert\u00f3w",
                "operator:type": "government",
                "landuse": "education",
                "fixme": "amenity=school, amenity=college albo landuse=education w zale\u017cno\u015bci od tego, jakie plac\u00f3wki wchodz\u0105 w sk\u0142ad zespo\u0142u. Sprawd\u017a, kiedy stosowa\u0107 amenity=* a kiedy landuse=education.",
                "note": "Children RSPO: 103935;103940"
            }
        },
        {
            "id": 103935,
            "type": "Feature",
            "geometry": {
                "type": "Point",
                "coordinates": [
                    21.13575,
                    52.2468
                ]
            },
            "properties": {
                "isced:level": "1;2",
                "ref:rspo": 103935,
                "official_name": "Og\u00f3lnokszta\u0142c\u0105ca Szko\u0142a Muzyczna I Stopnia w Zespole Szk\u00f3\u0142 Nr 74",
                "name": "Og\u00f3lnokszta\u0142c\u0105ca Szko\u0142a Muzyczna I Stopnia w Zespole Szk\u00f3\u0142 Nr 74",
                "addr:country": "PL",
                "addr:postcode": "04-256",
                "addr:city": "Warszawa",
                "addr:street": "Niepo\u0142omicka",
                "addr:housenumber": "26",
                "addr:teryt:simc": 988810,
                "addr:teryt:sym_ul": 14209,
                "contact:phone": "+48 228798018",
                "contact:email": "sekretariat@zs74.pl",
                "contact:website": "http:\/\/www.zs74.pl",
                "ref:regon": "015211320",
                "ref:vatin": "PL9521897629",
                "operator": "Rembert\u00f3w",
                "operator:type": "government",
                "amenity": "school",
                "note": "Parent RSPO: 73117"
            }
        },
        {
            "id": 103940,
            "type": "Feature",
            "geometry": {
                "type": "Point",
                "coordinates": [
                    21.13575,
                    52.24677
                ]
            },
            "properties": {
                "isced:level": "1;2",
                "ref:rspo": 103940,
                "official_name": "Szko\u0142a Podstawowa Nr 254 im. Gen Franciszka \u017bymirskiego w Zespole Szk\u00f3\u0142 Nr 74",
                "name": "Szko\u0142a Podstawowa Nr 254",
                "addr:country": "PL",
                "addr:postcode": "04-256",
                "addr:city": "Warszawa",
                "addr:street": "Niepo\u0142omicka",
                "addr:housenumber": "26",
                "addr:teryt:simc": 988810,
                "addr:teryt:sym_ul": 14209,
                "contact:phone": "+48 228798018",
                "contact:email": "sekretariat@zs74.pl",
                "contact:website": "http:\/\/www.zs74.pl",
                "ref:regon": "000801361",
                "ref:vatin": "PL9521897629",
                "operator": "Rembert\u00f3w",
                "operator:type": "government",
                "amenity": "school",
                "note": "Parent RSPO: 73117"
            }
        },
        {
            "id": 61607,
            "type": "Feature",
            "geometry": {
                "type": "Point",
                "coordinates": [
                    21.16822,
                    52.251
                ]
            },
            "properties": {
                "ref:rspo": 61607,
                "official_name": "Przedszkole Nr 158",
                "name": "Przedszkole Nr 158",
                "addr:country": "PL",
                "addr:postcode": "04-491",
                "addr:city": "Warszawa",
                "addr:street": "Dw\u00f3ch Mieczy",
                "addr:housenumber": "30\/36",
                "addr:teryt:simc": 988810,
                "addr:teryt:sym_ul": 4470,
                "contact:phone": "+48 226119132",
                "contact:email": "p158@edu.um.warszawa.pl",
                "contact:website": "http:\/\/p158.przedszkola.net.pl",
                "ref:regon": "017230646",
                "ref:vatin": "PL9521898913",
                "operator": "Rembert\u00f3w",
                "operator:type": "government",
                "amenity": "kindergarten"
            }
        },
        {
            "id": 88214,
            "type": "Feature",
            "geometry": {
                "type": "Point",
                "coordinates": [
                    21.16385,
                    52.25279
                ]
            },
            "properties": {
                "isced:level": "1;2",
                "ref:rspo": 88214,
                "official_name": "Szko\u0142a Podstawowa Z Oddzia\u0142ami Integracyjnymi Nr 189 \nIm. Marsza\u0142aka J\u00f3zefa Pi\u0142sudskiego",
                "name": "Szko\u0142a Podstawowa Z Oddzia\u0142ami Integracyjnymi Nr 189 \nIm. Marsza\u0142aka J\u00f3zefa Pi\u0142sudskiego",
                "addr:country": "PL",
                "addr:postcode": "04-491",
                "addr:city": "Warszawa",
                "addr:street": "Dw\u00f3ch Mieczy",
                "addr:housenumber": "5",
                "addr:teryt:simc": 988810,
                "addr:teryt:sym_ul": 4470,
                "contact:phone": "+48 226119566",
                "contact:email": "sekretariat@sp189.pl",
                "contact:website": "http:\/\/www.sp189.pl",
                "ref:regon": "017230592",
                "operator": "Rembert\u00f3w",
                "operator:type": "government",
                "amenity": "school"
            }
        },
        {
            "id": 268561,
            "type": "Feature",
            "geometry": {
                "type": "Point",
                "coordinates": [
                    21.16681,
                    52.2572
                ]
            },
            "properties": {
                "isced:level": "1;2",
                "ref:rspo": 268561,
                "official_name": "Prywatna Szko\u0142a Podstawowa im. Zofii I J\u0119drzeja Moraczewskich",
                "name": "Prywatna Szko\u0142a Podstawowa",
                "addr:country": "PL",
                "addr:postcode": "04-402",
                "addr:city": "Warszawa",
                "addr:street": "Cyrulik\u00f3w",
                "addr:housenumber": "87",
                "addr:teryt:simc": 988810,
                "addr:teryt:sym_ul": 3202,
                "contact:phone": "+48 537070746",
                "contact:email": "szkola.rembertow@moracz.edu.pl",
                "ref:regon": "381201967",
                "operator": "Artur Abramowicz",
                "operator:type": "private",
                "amenity": "school"
            }
        },
        {
            "id": 262429,
            "type": "Feature",
            "geometry": {
                "type": "Point",
                "coordinates": [
                    21.17739,
                    52.25914
                ]
            },
            "properties": {
                "isced:level": "1;2",
                "ref:rspo": 262429,
                "official_name": "Szko\u0142a Podstawowa Nr 376 im. Bohater\u00f3w Westrplatte w Warszawie",
                "name": "Szko\u0142a Podstawowa Nr 376",
                "addr:country": "PL",
                "addr:postcode": "04-408",
                "addr:city": "Warszawa",
                "addr:street": "gen. Karola Ziemskiego \"Wachnowskiego\"",
                "addr:housenumber": "22",
                "addr:teryt:simc": 988810,
                "addr:teryt:sym_ul": 30564,
                "contact:phone": "+48 226119339",
                "contact:email": "sp376@edu.um.warszawa.pl",
                "contact:website": "http:\/\/www.sp376.pl",
                "ref:regon": "368008002",
                "operator": "Rembert\u00f3w",
                "operator:type": "government",
                "amenity": "school"
            }
        },
        {
            "id": 126200,
            "type": "Feature",
            "geometry": {
                "type": "Point",
                "coordinates": [
                    21.15942,
                    52.2593
                ]
            },
            "properties": {
                "ref:rspo": 126200,
                "official_name": "Niepubliczny Punkt Przedszkolny Weso\u0142y Plecak",
                "name": "Niepubliczny Punkt Przedszkolny Weso\u0142y Plecak",
                "addr:country": "PL",
                "addr:postcode": "04-453",
                "addr:city": "Warszawa",
                "addr:street": "Katiuszy",
                "addr:housenumber": "3",
                "addr:teryt:simc": 988810,
                "addr:teryt:sym_ul": 8205,
                "contact:phone": "+48 725138900",
                "contact:email": "wesolyplecak@gmail.com",
                "ref:regon": "360170499",
                "operator": "Katarzyna \u017bandarczuk",
                "operator:type": "private",
                "amenity": "kindergarten"
            }
        },
        {
            "id": 14321,
            "type": "Feature",
            "geometry": {
                "type": "Point",
                "coordinates": [
                    21.13239,
                    52.25943
                ]
            },
            "properties": {
                "ref:rspo": 14321,
                "official_name": "M\u0142odzie\u017cowy O\u015brodek Wychowawczy Nr 2",
                "name": "M\u0142odzie\u017cowy O\u015brodek Wychowawczy Nr 2",
                "addr:country": "PL",
                "addr:postcode": "04-462",
                "addr:city": "Warszawa",
                "addr:street": "Stra\u017cacka",
                "addr:housenumber": "57",
                "addr:teryt:simc": 988810,
                "addr:teryt:sym_ul": 21271,
                "contact:phone": "+48 226735094",
                "contact:email": "sekretariat.mow2@eduwarszawa.pl",
                "contact:website": "http:\/\/www.mowstrazacka.com",
                "ref:regon": "000959122",
                "ref:vatin": "PL9521368115",
                "operator": "Miasto Sto\u0142eczne Warszawa",
                "operator:type": "government",
                "fixme": "amenity=social_facility + social_facility=group_home + social_facility:for=juvenile",
                "note": "Children RSPO: 105304"
            }
        },
        {
            "id": 105304,
            "type": "Feature",
            "geometry": {
                "type": "Point",
                "coordinates": [
                    21.13239,
                    52.2594
                ]
            },
            "properties": {
                "isced:level": "1;2",
                "ref:rspo": 105304,
                "official_name": "Szko\u0142a Podstawowa Specjalna Nr 131",
                "name": "Szko\u0142a Podstawowa Specjalna Nr 131",
                "addr:country": "PL",
                "addr:postcode": "04-462",
                "addr:city": "Warszawa",
                "addr:street": "Stra\u017cacka",
                "addr:housenumber": "57",
                "addr:teryt:simc": 988810,
                "addr:teryt:sym_ul": 21271,
                "contact:phone": "+48 226735094",
                "contact:email": "mowstrazacka@mowstrazacka.com",
                "contact:website": "http:\/\/mowstrazacka.com",
                "ref:regon": "000967498",
                "operator": "Miasto Sto\u0142eczne Warszawa",
                "operator:type": "government",
                "amenity": "school",
                "note": "Parent RSPO: 14321"
            }
        },
        {
            "id": 61535,
            "type": "Feature",
            "geometry": {
                "type": "Point",
                "coordinates": [
                    21.15327,
                    52.25968
                ]
            },
            "properties": {
                "ref:rspo": 61535,
                "official_name": "Przedszkole Nr 243",
                "name": "Przedszkole Nr 243",
                "addr:country": "PL",
                "addr:postcode": "04-451",
                "addr:city": "Warszawa",
                "addr:street": "Kordiana",
                "addr:housenumber": "7\/11",
                "addr:teryt:simc": 988810,
                "addr:teryt:sym_ul": 9347,
                "contact:phone": "+48 226119296",
                "contact:email": "p243@interia.pl",
                "contact:website": "http:\/\/www.p243.waw.pl",
                "ref:regon": "013005036",
                "ref:vatin": "PL9521892603",
                "operator": "Rembert\u00f3w",
                "operator:type": "government",
                "amenity": "kindergarten"
            }
        },
        {
            "id": 61432,
            "type": "Feature",
            "geometry": {
                "type": "Point",
                "coordinates": [
                    21.15649,
                    52.2632199
                ]
            },
            "properties": {
                "isced:level": "1;2",
                "ref:rspo": 61432,
                "official_name": "Szko\u0142a Podstawowa Nr 217 Z Oddzia\u0142ami Integracyjnymi im. Obro\u0144c\u00f3w Radiostacji Armii Krajowej w Rembertowie",
                "name": "Szko\u0142a Podstawowa Nr 217 Z Oddzia\u0142ami Integracyjnymi",
                "addr:country": "PL",
                "addr:postcode": "04-450",
                "addr:city": "Warszawa",
                "addr:street": "Ignacego Paderewskiego",
                "addr:housenumber": "45",
                "addr:teryt:simc": 988810,
                "addr:teryt:sym_ul": 15529,
                "contact:phone": "+48 226119433",
                "contact:email": "sp217@edu.um.warszawa.pl",
                "contact:website": "http:\/\/www.sp217.pl",
                "ref:regon": "000801326",
                "ref:vatin": "PL9521899249",
                "operator": "Rembert\u00f3w",
                "operator:type": "government",
                "amenity": "school"
            }
        },
        {
            "id": 109862,
            "type": "Feature",
            "geometry": {
                "type": "Point",
                "coordinates": [
                    21.16197,
                    52.26338
                ]
            },
            "properties": {
                "ref:rspo": 109862,
                "official_name": "Przedszkole Niepubliczne \"U Kubusia Puchatka\"",
                "name": "Przedszkole Niepubliczne \"U Kubusia Puchatka\"",
                "addr:country": "PL",
                "addr:postcode": "04-416",
                "addr:city": "Warszawa",
                "addr:street": "Bombardier\u00f3w",
                "addr:housenumber": "13",
                "addr:teryt:simc": 988810,
                "addr:teryt:sym_ul": 1786,
                "contact:phone": "+48 734488364",
                "contact:email": "info@przedszkoleukubusia.pl",
                "ref:regon": "146542370",
                "operator": "Magdalena Mo\u015bcicka",
                "operator:type": "private",
                "amenity": "kindergarten"
            }
        },
        {
            "id": 61590,
            "type": "Feature",
            "geometry": {
                "type": "Point",
                "coordinates": [
                    21.18337,
                    52.26343
                ]
            },
            "properties": {
                "ref:rspo": 61590,
                "official_name": "Przedszkole Nr 376 Z Oddzia\u0142ami Integracyjnymi",
                "name": "Przedszkole Nr 376 Z Oddzia\u0142ami Integracyjnymi",
                "addr:country": "PL",
                "addr:postcode": "00-910",
                "addr:city": "Warszawa",
                "addr:street": "Admiralska",
                "addr:housenumber": "17",
                "addr:teryt:simc": 988810,
                "addr:teryt:sym_ul": 126,
                "contact:email": "p376@edu.um.warszawa.pl",
                "contact:website": "http:\/\/www.przedszkole376.waw.pl",
                "ref:regon": "015232670",
                "ref:vatin": "PL9521899189",
                "operator": "Rembert\u00f3w",
                "operator:type": "government",
                "amenity": "kindergarten"
            }
        },
        {
            "id": 26313,
            "type": "Feature",
            "geometry": {
                "type": "Point",
                "coordinates": [
                    21.16459,
                    52.26353
                ]
            },
            "properties": {
                "ref:rspo": 26313,
                "official_name": "Przedszkole Niepubliczne \"Kubu\u015b Puchatek I Przyjaciele\"",
                "name": "Przedszkole Niepubliczne \"Kubu\u015b Puchatek I Przyjaciele\"",
                "addr:country": "PL",
                "addr:postcode": "04-418",
                "addr:city": "Warszawa",
                "addr:street": "Kordiana",
                "addr:housenumber": "71B",
                "addr:teryt:simc": 988810,
                "addr:teryt:sym_ul": 9347,
                "contact:phone": "+48 226118888",
                "contact:email": "przedszkole@puchatekprzedszkole.edu.pl",
                "contact:website": "http:\/\/www.puchatekprzedszkole.edu.pl",
                "ref:regon": "146339337",
                "operator": "Kubus Puchatek I Przyjaciele Sp\u00f3\u0142ka Z Ograniczon\u0105 Odpowiedzialno\u015bci\u0105",
                "operator:type": "private",
                "amenity": "kindergarten"
            }
        },
        {
            "id": 28034,
            "type": "Feature",
            "geometry": {
                "type": "Point",
                "coordinates": [
                    21.16707,
                    52.26437
                ]
            },
            "properties": {
                "ref:rspo": 28034,
                "official_name": "Przedszkole Niepubliczne \"Delfinek\"",
                "name": "Przedszkole Niepubliczne \"Delfinek\"",
                "addr:country": "PL",
                "addr:postcode": "04-418",
                "addr:city": "Warszawa",
                "addr:street": "Kordiana",
                "addr:housenumber": "85",
                "addr:teryt:simc": 988810,
                "addr:teryt:sym_ul": 9347,
                "contact:phone": "+48 608320941",
                "contact:email": "d.lopata@wp.pl",
                "contact:website": "http:\/\/www.delfinek.edu.pl",
                "ref:regon": "146347199",
                "operator": "Danuta \u0141opata",
                "operator:type": "private",
                "amenity": "kindergarten"
            }
        },
        {
            "id": 59581,
            "type": "Feature",
            "geometry": {
                "type": "Point",
                "coordinates": [
                    21.16704,
                    52.26526
                ]
            },
            "properties": {
                "isced:level": "3",
                "ref:rspo": 59581,
                "official_name": "Li Liceum Og\u00f3lnokszta\u0142c\u0105ce im. Tadeusza Ko\u015bciuszki",
                "name": "Li Liceum Og\u00f3lnokszta\u0142c\u0105ce",
                "addr:country": "PL",
                "addr:postcode": "04-421",
                "addr:city": "Warszawa",
                "addr:street": "Kadrowa",
                "addr:housenumber": "9",
                "addr:teryt:simc": 988810,
                "addr:teryt:sym_ul": 7764,
                "contact:phone": "+48 226119391",
                "contact:email": "lo51@lilo.edu.pl",
                "contact:website": "http:\/\/www.lilo.edu.pl",
                "ref:regon": "000799115",
                "ref:vatin": "PL9521262925",
                "operator": "Rembert\u00f3w",
                "operator:type": "government",
                "amenity": "school"
            }
        },
        {
            "id": 127324,
            "type": "Feature",
            "geometry": {
                "type": "Point",
                "coordinates": [
                    21.16704,
                    52.265229999999995
                ]
            },
            "properties": {
                "ref:rspo": 127324,
                "official_name": "Przedszkole Nr 423",
                "name": "Przedszkole Nr 423",
                "addr:country": "PL",
                "addr:postcode": "04-421",
                "addr:city": "Warszawa",
                "addr:street": "Kadrowa",
                "addr:housenumber": "9",
                "addr:teryt:simc": 988810,
                "addr:teryt:sym_ul": 7764,
                "contact:phone": "+48 222432657",
                "contact:email": "p423@edu.um.warszawa.pl",
                "contact:website": "http:\/\/www.przedszkole423.pl",
                "ref:regon": "361362752",
                "operator": "Rembert\u00f3w",
                "operator:type": "government",
                "amenity": "kindergarten"
            }
        },
        {
            "id": 81772,
            "type": "Feature",
            "geometry": {
                "type": "Point",
                "coordinates": [
                    21.17027,
                    52.26575
                ]
            },
            "properties": {
                "isced:level": "1;2",
                "ref:rspo": 81772,
                "official_name": "Publiczna Szko\u0142a Podstawowa Spo\u0142ecznego Towarzystwa O\u015bwiatowego",
                "name": "Publiczna Szko\u0142a Podstawowa Spo\u0142ecznego Towarzystwa O\u015bwiatowego",
                "addr:country": "PL",
                "addr:postcode": "04-423",
                "addr:city": "Warszawa",
                "addr:street": "Aleja Sztandar\u00f3w",
                "addr:housenumber": "2",
                "addr:teryt:simc": 988810,
                "addr:teryt:sym_ul": 45568,
                "contact:phone": "+48 226735408",
                "contact:email": "m.mojsak@superszkola.pl",
                "contact:website": "http:\/\/www.superszkola.pl",
                "ref:regon": "146437270",
                "ref:vatin": "PL9522032305",
                "operator": "Samodzielne Ko\u0142o Terenowe Nr 174 Spo\u0142ecznego Towarzystwa O\u015bwiatowego",
                "operator:type": "ngo",
                "amenity": "school"
            }
        },
        {
            "id": 277614,
            "type": "Feature",
            "geometry": {
                "type": "Point",
                "coordinates": [
                    21.15315,
                    52.26652
                ]
            },
            "properties": {
                "ref:rspo": 277614,
                "official_name": "Przedszkole Publiczne \"Gumi\u015b\"",
                "name": "Przedszkole Publiczne \"Gumi\u015b\"",
                "addr:country": "PL",
                "addr:postcode": "04-445",
                "addr:city": "Warszawa",
                "addr:street": "Szafarzy",
                "addr:housenumber": "22",
                "addr:teryt:simc": 988810,
                "addr:teryt:sym_ul": 21706,
                "contact:phone": "+48 503785453",
                "contact:email": "walczak213@wp.pl",
                "ref:regon": "389197082",
                "operator": "Natalia Walczak",
                "operator:type": "private",
                "amenity": "kindergarten"
            }
        },
        {
            "id": 80510,
            "type": "Feature",
            "geometry": {
                "type": "Point",
                "coordinates": [
                    21.15421,
                    52.26661
                ]
            },
            "properties": {
                "ref:rspo": 80510,
                "official_name": "Niepubliczne Przedszkole \"Biedroneczka\"",
                "name": "Niepubliczne Przedszkole \"Biedroneczka\"",
                "addr:country": "PL",
                "addr:postcode": "04-443",
                "addr:city": "Warszawa",
                "addr:street": "Ignacego Paderewskiego",
                "addr:housenumber": "83",
                "addr:teryt:simc": 988810,
                "addr:teryt:sym_ul": 15529,
                "contact:phone": "+48 510175585",
                "contact:email": "przedszkole.biedroneczka@wp.pl",
                "contact:website": "http:\/\/www.przedszkolebiedroneczka.pl",
                "ref:regon": "146444590",
                "operator": "Iwona Jaczewska",
                "operator:type": "private",
                "amenity": "kindergarten"
            }
        },
        {
            "id": 85484,
            "type": "Feature",
            "geometry": {
                "type": "Point",
                "coordinates": [
                    21.16589,
                    52.27078
                ]
            },
            "properties": {
                "ref:rspo": 85484,
                "official_name": "Przedszkole Niepubliczne Gwiazdeczki",
                "name": "Przedszkole Niepubliczne Gwiazdeczki",
                "addr:country": "PL",
                "addr:postcode": "04-424",
                "addr:city": "Warszawa",
                "addr:street": "Jerzego",
                "addr:housenumber": "38",
                "addr:teryt:simc": 988810,
                "addr:teryt:sym_ul": 7489,
                "contact:phone": "+48 227812903",
                "contact:email": "gwiazdeczki.waw@wp.pl",
                "contact:website": "http:\/\/www.gwiazdeczki.waw.pl",
                "ref:regon": "146441136",
                "operator": "Joanna Go\u0142\u0119biewska",
                "operator:type": "private",
                "amenity": "kindergarten"
            }
        }
    ]
}