{
    "type": "FeatureCollection",
    "features": [
        {
            "id": 84911,
            "type": "Feature",
            "geometry": {
                "type": "Point",
                "coordinates": [
                    21.24427,
                    52.2125
                ]
            },
            "properties": {
                "ref:rspo": 84911,
                "official_name": "Niepubliczne Przedszkole \"Robu\u015b\"",
                "name": "Niepubliczne Przedszkole \"Robu\u015b\"",
                "addr:country": "PL",
                "addr:postcode": "05-077",
                "addr:city": "Warszawa",
                "addr:street": "ul. Magnolii",
                "addr:housenumber": "6",
                "addr:teryt:simc": 11907,
                "addr:teryt:sym_ul": 921728,
                "contact:email": "ewelina@robus.pl",
                "contact:website": "http:\/\/www.robus.pl",
                "ref:regon": "146441923",
                "operator": "Ewelina Szulawska",
                "operator:type": "private",
                "amenity": "kindergarten"
            }
        },
        {
            "id": 278518,
            "type": "Feature",
            "geometry": {
                "type": "Point",
                "coordinates": [
                    21.22646,
                    52.21352
                ]
            },
            "properties": {
                "ref:rspo": 278518,
                "official_name": "Punkt Przedszkolny Szumi Szum",
                "name": "Punkt Przedszkolny Szumi Szum",
                "addr:country": "PL",
                "addr:postcode": "05-077",
                "addr:city": "Warszawa",
                "addr:street": "ul. Mahoniowa",
                "addr:housenumber": "8",
                "addr:teryt:simc": 11919,
                "addr:teryt:sym_ul": 921728,
                "contact:phone": "+48 537615333",
                "contact:email": "zosia@szumiszum.pl",
                "ref:regon": "389947123",
                "operator": "Edukacja W Blisko\u015bci Sp\u00f3\u0142ka Z Ograniczon\u0105 Odpowiedzialno\u015bci\u0105",
                "operator:type": "private",
                "amenity": "kindergarten"
            }
        },
        {
            "id": 276343,
            "type": "Feature",
            "geometry": {
                "type": "Point",
                "coordinates": [
                    21.2267398,
                    52.215272
                ]
            },
            "properties": {
                "ref:rspo": 276343,
                "official_name": "Niepubliczna Poradnia Psychologiczno-Pedagogiczna Abc Terapii Dziecka",
                "name": "Niepubliczna Poradnia Psychologiczno-Pedagogiczna Abc Terapii Dziecka",
                "addr:country": "PL",
                "addr:postcode": "05-077",
                "addr:city": "Warszawa",
                "addr:street": "ul. Jesionowa",
                "addr:housenumber": "2",
                "addr:teryt:simc": 7506,
                "addr:teryt:sym_ul": 921728,
                "contact:phone": "+48 501228090",
                "contact:email": "abcterapiidziecka@gmail.com",
                "ref:regon": "387105101",
                "operator": "Marta Dusi\u0144ska",
                "operator:type": "private",
                "healthcare": "counselling",
                "counselling_type": "education",
                "fixme": "w zale\u017cno\u015bci od przedmiotu dzia\u0142alno\u015bci (np. healthcare=counselling + counselling_type=education albo healthcare=psychotherapist)"
            }
        },
        {
            "id": 268163,
            "type": "Feature",
            "geometry": {
                "type": "Point",
                "coordinates": [
                    21.23968,
                    52.2158
                ]
            },
            "properties": {
                "ref:rspo": 268163,
                "official_name": "Niepubliczna Poradnia Psychologiczno-Pedagogiczna \"Tacy Sami\"",
                "name": "Niepubliczna Poradnia Psychologiczno-Pedagogiczna \"Tacy Sami\"",
                "addr:country": "PL",
                "addr:postcode": "05-077",
                "addr:city": "Warszawa",
                "addr:street": "ul. Pogodna",
                "addr:housenumber": "27",
                "addr:teryt:simc": 16900,
                "addr:teryt:sym_ul": 921728,
                "contact:phone": "+48 793663407",
                "contact:email": "biuro@tacysami.com.pl",
                "contact:website": "http:\/\/www.tacysami.com.pl",
                "ref:regon": "380990181",
                "operator": "Anna Artman-Ka\u0142uska",
                "operator:type": "private",
                "healthcare": "counselling",
                "counselling_type": "education",
                "fixme": "w zale\u017cno\u015bci od przedmiotu dzia\u0142alno\u015bci (np. healthcare=counselling + counselling_type=education albo healthcare=psychotherapist)"
            }
        },
        {
            "id": 27495,
            "type": "Feature",
            "geometry": {
                "type": "Point",
                "coordinates": [
                    21.23799,
                    52.21584
                ]
            },
            "properties": {
                "ref:rspo": 27495,
                "official_name": "Niepubliczne Przedszkole Montessori House",
                "name": "Niepubliczne Przedszkole Montessori House",
                "addr:country": "PL",
                "addr:postcode": "05-077",
                "addr:city": "Warszawa",
                "addr:street": "ul. Jana Paw\u0142a II",
                "addr:housenumber": "214",
                "addr:teryt:simc": 7123,
                "addr:teryt:sym_ul": 921728,
                "contact:phone": "+48 534718248",
                "contact:email": "malgorzata.szczepura@montessori-house.com.pl",
                "contact:website": "http:\/\/montessori-house.com.pl",
                "ref:regon": "146339550",
                "operator": "Ma\u0142gorzata Lewandowska-Szczepura",
                "operator:type": "private",
                "amenity": "kindergarten"
            }
        },
        {
            "id": 48886,
            "type": "Feature",
            "geometry": {
                "type": "Point",
                "coordinates": [
                    21.22955,
                    52.21629
                ]
            },
            "properties": {
                "ref:rspo": 48886,
                "official_name": "Przedszkole Niepubliczne Domek Weso\u0142a",
                "name": "Przedszkole Niepubliczne Domek Weso\u0142a",
                "addr:country": "PL",
                "addr:postcode": "05-077",
                "addr:city": "Warszawa",
                "addr:street": "ul. Jana Paw\u0142a II",
                "addr:housenumber": "112",
                "addr:teryt:simc": 7123,
                "addr:teryt:sym_ul": 921728,
                "contact:phone": "+48 570206204",
                "contact:email": "kontakt@domekwesola.pl",
                "contact:website": "http:\/\/www.domekwesola.pl",
                "ref:regon": "146367434",
                "operator": "Nasz Domek Sp\u00f3\u0142ka Z Ograniczon\u0105 Odpowiedzialno\u015bci\u0105",
                "operator:type": "private",
                "amenity": "kindergarten"
            }
        },
        {
            "id": 122654,
            "type": "Feature",
            "geometry": {
                "type": "Point",
                "coordinates": [
                    21.25055,
                    52.21647
                ]
            },
            "properties": {
                "ref:rspo": 122654,
                "official_name": "Przedszkole Niepubliczne Macierzanka",
                "name": "Przedszkole Niepubliczne Macierzanka",
                "addr:country": "PL",
                "addr:postcode": "05-077",
                "addr:city": "Warszawa",
                "addr:street": "ul. Macierzanki",
                "addr:housenumber": "1",
                "addr:teryt:simc": 11849,
                "addr:teryt:sym_ul": 921728,
                "contact:phone": "+48 501394045",
                "contact:email": "macierzanka1010@wp.pl",
                "ref:regon": "147169682",
                "operator": "Marcin Rosi\u0144ski",
                "operator:type": "private",
                "amenity": "kindergarten"
            }
        },
        {
            "id": 126381,
            "type": "Feature",
            "geometry": {
                "type": "Point",
                "coordinates": [
                    21.22779,
                    52.21696
                ]
            },
            "properties": {
                "ref:rspo": 126381,
                "official_name": "Specjalistyczna Poradnia Psychologiczno-Pedagogiczna dla Dzieci, M\u0142odzie\u017cy I Doros\u0142ych",
                "name": "Specjalistyczna Poradnia Psychologiczno-Pedagogiczna dla Dzieci, M\u0142odzie\u017cy I Doros\u0142ych",
                "addr:country": "PL",
                "addr:postcode": "05-077",
                "addr:city": "Warszawa",
                "addr:street": "ul. Dolomitowa",
                "addr:housenumber": "2",
                "addr:teryt:simc": 4060,
                "addr:teryt:sym_ul": 921728,
                "contact:phone": "+48 601346801",
                "contact:email": "psychoton@host.com.pl",
                "ref:regon": "360282778",
                "operator": "Katarzyna Madali\u0144ska-Zaj\u0105c",
                "operator:type": "private",
                "healthcare": "counselling",
                "counselling_type": "education",
                "fixme": "w zale\u017cno\u015bci od przedmiotu dzia\u0142alno\u015bci (np. healthcare=counselling + counselling_type=education albo healthcare=psychotherapist)"
            }
        },
        {
            "id": 122946,
            "type": "Feature",
            "geometry": {
                "type": "Point",
                "coordinates": [
                    21.2164499,
                    52.21697
                ]
            },
            "properties": {
                "ref:rspo": 122946,
                "official_name": "Europejskie Centrum Kszta\u0142cenia Ustawicznego w Weso\u0142ej",
                "name": "Europejskie Centrum Kszta\u0142cenia Ustawicznego w Weso\u0142ej",
                "addr:country": "PL",
                "addr:postcode": "05-077",
                "addr:city": "Warszawa",
                "addr:street": "ul. Kruszyny",
                "addr:housenumber": "28",
                "addr:teryt:simc": 10048,
                "addr:teryt:sym_ul": 921728,
                "contact:phone": "+48 227733377",
                "contact:email": "michal@educenter.pl",
                "ref:regon": "147220319",
                "operator": "Micha\u0142 Grzywacz",
                "operator:type": "private",
                "fixme": "w zale\u017cno\u015bci od przedmiotu dzia\u0142alno\u015bci (np. amenity=training + training=*, amenity=dancing_school, amenity=language_school, amenity=music_school)"
            }
        },
        {
            "id": 127002,
            "type": "Feature",
            "geometry": {
                "type": "Point",
                "coordinates": [
                    21.2164499,
                    52.21694
                ]
            },
            "properties": {
                "ref:rspo": 127002,
                "official_name": "Zesp\u00f3\u0142 Szk\u00f3\u0142 I Plac\u00f3wek O\u015bwiatowych Szko\u0142a Rodzinna",
                "name": "Zesp\u00f3\u0142 Szk\u00f3\u0142 I Plac\u00f3wek O\u015bwiatowych Szko\u0142a Rodzinna",
                "addr:country": "PL",
                "addr:postcode": "05-077",
                "addr:city": "Warszawa",
                "addr:street": "ul. Kruszyny",
                "addr:housenumber": "28",
                "addr:teryt:simc": 10048,
                "addr:teryt:sym_ul": 921728,
                "contact:phone": "+48 227733377",
                "contact:email": "michal@mag1.pl",
                "ref:regon": "361011596",
                "operator": "Halina Grzywacz",
                "operator:type": "private",
                "landuse": "education",
                "fixme": "amenity=school, amenity=college albo landuse=education w zale\u017cno\u015bci od tego, jakie plac\u00f3wki wchodz\u0105 w sk\u0142ad zespo\u0142u. Sprawd\u017a, kiedy stosowa\u0107 amenity=* a kiedy landuse=education.",
                "note": "Children RSPO: 22058;31707;73747;109526;111399;115053;120685"
            }
        },
        {
            "id": 22058,
            "type": "Feature",
            "geometry": {
                "type": "Point",
                "coordinates": [
                    21.2164499,
                    52.216910000000006
                ]
            },
            "properties": {
                "isced:level": "4",
                "ref:rspo": 22058,
                "official_name": "Policealne Europejskiej Studium Zawodowe w Weso\u0142ej",
                "name": "Policealne Europejskiej Studium Zawodowe w Weso\u0142ej",
                "addr:country": "PL",
                "addr:postcode": "05-077",
                "addr:city": "Warszawa",
                "addr:street": "ul. Kruszyny",
                "addr:housenumber": "28",
                "addr:teryt:simc": 10048,
                "addr:teryt:sym_ul": 921728,
                "contact:phone": "+48 227733377",
                "contact:email": "michal@mag1.pl",
                "contact:website": "http:\/\/www.szkolarodzinna.pl",
                "ref:regon": "146325766",
                "operator": "Halina Grzywacz",
                "operator:type": "private",
                "amenity": "college",
                "note": "Parent RSPO: 127002"
            }
        },
        {
            "id": 31707,
            "type": "Feature",
            "geometry": {
                "type": "Point",
                "coordinates": [
                    21.2164499,
                    52.21688
                ]
            },
            "properties": {
                "isced:level": "1;2",
                "ref:rspo": 31707,
                "official_name": "Szko\u0142a Podstawowa Niepubliczna Nr 90 \"Szko\u0142a Rodzinna\"",
                "name": "Szko\u0142a Podstawowa Niepubliczna Nr 90 \"Szko\u0142a Rodzinna\"",
                "addr:country": "PL",
                "addr:postcode": "05-077",
                "addr:city": "Warszawa",
                "addr:street": "ul. Kruszyny",
                "addr:housenumber": "28",
                "addr:teryt:simc": 10048,
                "addr:teryt:sym_ul": 921728,
                "contact:phone": "+48 227733377",
                "contact:email": "michal@mag1.pl",
                "ref:regon": "146363933",
                "ref:vatin": "PL9521203124",
                "operator": "Halina Grzywacz",
                "operator:type": "private",
                "amenity": "school",
                "note": "Parent RSPO: 127002"
            }
        },
        {
            "id": 109526,
            "type": "Feature",
            "geometry": {
                "type": "Point",
                "coordinates": [
                    21.2164499,
                    52.21685
                ]
            },
            "properties": {
                "ref:rspo": 109526,
                "official_name": "Przedszkole Rodzinne w Weso\u0142ej",
                "name": "Przedszkole Rodzinne w Weso\u0142ej",
                "addr:country": "PL",
                "addr:postcode": "05-077",
                "addr:city": "Warszawa",
                "addr:street": "ul. Kruszyny",
                "addr:housenumber": "28",
                "addr:teryt:simc": 10048,
                "addr:teryt:sym_ul": 921728,
                "contact:phone": "+48 227733377",
                "contact:email": "michal@mag1.pl",
                "ref:regon": "146531589",
                "operator": "Halina Grzywacz",
                "operator:type": "private",
                "amenity": "kindergarten",
                "note": "Parent RSPO: 127002"
            }
        },
        {
            "id": 111399,
            "type": "Feature",
            "geometry": {
                "type": "Point",
                "coordinates": [
                    21.2164499,
                    52.216820000000006
                ]
            },
            "properties": {
                "isced:level": "3",
                "ref:rspo": 111399,
                "official_name": "Niepubliczne Liceum Og\u00f3lnokszta\u0142c\u0105ce Zaoczne dla Doros\u0142ych w Weso\u0142ej",
                "name": "Niepubliczne Liceum Og\u00f3lnokszta\u0142c\u0105ce Zaoczne dla Doros\u0142ych w Weso\u0142ej",
                "addr:country": "PL",
                "addr:postcode": "05-077",
                "addr:city": "Warszawa",
                "addr:street": "ul. Kruszyny",
                "addr:housenumber": "28",
                "addr:teryt:simc": 10048,
                "addr:teryt:sym_ul": 921728,
                "contact:phone": "+48 227733377",
                "contact:email": "michal@mag1.pl",
                "ref:regon": "146572861",
                "operator": "Halina Grzywacz",
                "operator:type": "private",
                "amenity": "school",
                "note": "Parent RSPO: 127002"
            }
        },
        {
            "id": 115053,
            "type": "Feature",
            "geometry": {
                "type": "Point",
                "coordinates": [
                    21.2164499,
                    52.21679
                ]
            },
            "properties": {
                "ref:rspo": 115053,
                "official_name": "Poradnia Psychologiczno-Pedagogiczno-Rehabilitacyjna w Weso\u0142ej",
                "name": "Poradnia Psychologiczno-Pedagogiczno-Rehabilitacyjna w Weso\u0142ej",
                "addr:country": "PL",
                "addr:postcode": "05-077",
                "addr:city": "Warszawa",
                "addr:street": "ul. Kruszyny",
                "addr:housenumber": "28",
                "addr:teryt:simc": 10048,
                "addr:teryt:sym_ul": 921728,
                "contact:phone": "+48 227733377",
                "contact:email": "michal@mag1.pl",
                "ref:regon": "146725170",
                "operator": "Halina Grzywacz",
                "operator:type": "private",
                "healthcare": "counselling",
                "counselling_type": "education",
                "fixme": "w zale\u017cno\u015bci od przedmiotu dzia\u0142alno\u015bci (np. healthcare=counselling + counselling_type=education albo healthcare=psychotherapist)",
                "note": "Parent RSPO: 127002"
            }
        },
        {
            "id": 120685,
            "type": "Feature",
            "geometry": {
                "type": "Point",
                "coordinates": [
                    21.2164499,
                    52.21676
                ]
            },
            "properties": {
                "ref:rspo": 120685,
                "official_name": "Europejskie Centrum Kszta\u0142cenia dla M\u0142odzie\u017cy w Weso\u0142ej",
                "name": "Europejskie Centrum Kszta\u0142cenia dla M\u0142odzie\u017cy w Weso\u0142ej",
                "addr:country": "PL",
                "addr:postcode": "05-077",
                "addr:city": "Warszawa",
                "addr:street": "ul. Kruszyny",
                "addr:housenumber": "28",
                "addr:teryt:simc": 10048,
                "addr:teryt:sym_ul": 921728,
                "contact:phone": "+48 227733377",
                "contact:email": "michal@mag1.pl",
                "ref:regon": "146939178",
                "operator": "Micha\u0142 Grzywacz",
                "operator:type": "private",
                "fixme": "w zale\u017cno\u015bci od przedmiotu dzia\u0142alno\u015bci (np. amenity=training + training=*, amenity=dancing_school, amenity=language_school, amenity=music_school)",
                "note": "Parent RSPO: 127002"
            }
        },
        {
            "id": 133545,
            "type": "Feature",
            "geometry": {
                "type": "Point",
                "coordinates": [
                    21.24076,
                    52.2175
                ]
            },
            "properties": {
                "isced:level": "1;2",
                "ref:rspo": 133545,
                "official_name": "Szko\u0142a Podstawowa Nr 385 im. Marsza\u0142ka J\u00f3zefa Pi\u0142sudskiego",
                "name": "Szko\u0142a Podstawowa Nr 385",
                "addr:country": "PL",
                "addr:postcode": "05-077",
                "addr:city": "Warszawa",
                "addr:street": "ul. Klimatyczna",
                "addr:housenumber": "1",
                "addr:teryt:simc": 8541,
                "addr:teryt:sym_ul": 921728,
                "contact:phone": "+48 227732335",
                "contact:email": "sekretariat@sp385.waw.pl",
                "contact:website": "http:\/\/www.sp385.waw.pl",
                "ref:regon": "367405267",
                "operator": "Weso\u0142a",
                "operator:type": "government",
                "amenity": "school"
            }
        },
        {
            "id": 270871,
            "type": "Feature",
            "geometry": {
                "type": "Point",
                "coordinates": [
                    21.24076,
                    52.21747
                ]
            },
            "properties": {
                "isced:level": "3",
                "ref:rspo": 270871,
                "official_name": "Clxiii Liceum Og\u00f3lnokszta\u0142c\u0105ce",
                "name": "Clxiii Liceum Og\u00f3lnokszta\u0142c\u0105ce",
                "addr:country": "PL",
                "addr:postcode": "05-077",
                "addr:city": "Warszawa",
                "addr:street": "ul. Klimatyczna",
                "addr:housenumber": "1",
                "addr:teryt:simc": 8541,
                "addr:teryt:sym_ul": 921728,
                "contact:phone": "+48 227733527",
                "contact:email": "sekretariat@163lo.waw.pl",
                "contact:website": "http:\/\/www.163lo.waw.pl",
                "ref:regon": "383012220",
                "operator": "Weso\u0142a",
                "operator:type": "government",
                "amenity": "school"
            }
        },
        {
            "id": 73747,
            "type": "Feature",
            "geometry": {
                "type": "Point",
                "coordinates": [
                    21.21632,
                    52.21752
                ]
            },
            "properties": {
                "isced:level": "3",
                "ref:rspo": 73747,
                "official_name": "Liceum Og\u00f3lnokszta\u0142c\u0105ce Niepubliczne Nr 27 \"Szko\u0142a Rodzinna\"",
                "name": "Liceum Og\u00f3lnokszta\u0142c\u0105ce Niepubliczne Nr 27 \"Szko\u0142a Rodzinna\"",
                "addr:country": "PL",
                "addr:postcode": "05-075",
                "addr:city": "Warszawa",
                "addr:street": "ul. Kruszyny",
                "addr:housenumber": "14a",
                "addr:teryt:simc": 10048,
                "addr:teryt:sym_ul": 921728,
                "contact:phone": "+48 227733377",
                "contact:email": "michal@mag1.pl",
                "ref:regon": "146439270",
                "operator": "Halina Grzywacz",
                "operator:type": "private",
                "amenity": "school",
                "note": "Parent RSPO: 127002"
            }
        },
        {
            "id": 128475,
            "type": "Feature",
            "geometry": {
                "type": "Point",
                "coordinates": [
                    21.2348,
                    52.21782
                ]
            },
            "properties": {
                "ref:rspo": 128475,
                "official_name": "Dwuj\u0119zyczne Przedszkole Niepubliczne Superbohaterowie",
                "name": "Dwuj\u0119zyczne Przedszkole Niepubliczne Superbohaterowie",
                "addr:country": "PL",
                "addr:postcode": "05-077",
                "addr:city": "Warszawa",
                "addr:street": "ul. Cieplarniana",
                "addr:housenumber": "25f",
                "addr:door": "2",
                "addr:teryt:simc": 3026,
                "addr:teryt:sym_ul": 921728,
                "contact:phone": "+48 505698883",
                "contact:email": "superbohaterowie@onet.pl",
                "ref:regon": "362291184",
                "operator": "Katarzyna Mi\u0142osz",
                "operator:type": "private",
                "amenity": "kindergarten"
            }
        },
        {
            "id": 264747,
            "type": "Feature",
            "geometry": {
                "type": "Point",
                "coordinates": [
                    21.23755,
                    52.2184
                ]
            },
            "properties": {
                "ref:rspo": 264747,
                "official_name": "Przedszkole Publiczne \"Kubu\u015b\"",
                "name": "Przedszkole Publiczne \"Kubu\u015b\"",
                "addr:country": "PL",
                "addr:postcode": "05-077",
                "addr:city": "Warszawa",
                "addr:street": "ul. Je\u017adziecka",
                "addr:housenumber": "21f",
                "addr:door": "13",
                "addr:teryt:simc": 7544,
                "addr:teryt:sym_ul": 921728,
                "contact:phone": "+48 224010500",
                "contact:email": "przedszkolekubus@op.pl",
                "contact:website": "http:\/\/przedszkolekubus.pl",
                "ref:regon": "368446995",
                "operator": "El\u017cbieta Nowicka",
                "operator:type": "private",
                "amenity": "kindergarten"
            }
        },
        {
            "id": 43929,
            "type": "Feature",
            "geometry": {
                "type": "Point",
                "coordinates": [
                    21.23535,
                    52.21864
                ]
            },
            "properties": {
                "isced:level": "1;2",
                "ref:rspo": 43929,
                "official_name": "Szko\u0142a Podstawowa Nr 353 im. \"Wielkich Odkrywc\u00f3w\"",
                "name": "Szko\u0142a Podstawowa Nr 353",
                "addr:country": "PL",
                "addr:postcode": "05-077",
                "addr:city": "Warszawa",
                "addr:street": "ul. Cieplarniana",
                "addr:housenumber": "23",
                "addr:teryt:simc": 3026,
                "addr:teryt:sym_ul": 921728,
                "contact:phone": "+48 222036255",
                "contact:email": "szkola@sp353.pl",
                "contact:website": "http:\/\/sp353.pl\/",
                "ref:regon": "146097868",
                "ref:vatin": "PL9522119377",
                "operator": "Weso\u0142a",
                "operator:type": "government",
                "amenity": "school"
            }
        },
        {
            "id": 31764,
            "type": "Feature",
            "geometry": {
                "type": "Point",
                "coordinates": [
                    21.22833,
                    52.21965
                ]
            },
            "properties": {
                "ref:rspo": 31764,
                "official_name": "Niepubliczny Punkt Przedszkolny \"\u017b\u00f3\u0142ta Kaczuszka\"",
                "name": "Niepubliczny Punkt Przedszkolny \"\u017b\u00f3\u0142ta Kaczuszka\"",
                "addr:country": "PL",
                "addr:postcode": "05-077",
                "addr:city": "Warszawa",
                "addr:street": "ul. Diamentowa",
                "addr:housenumber": "13A",
                "addr:teryt:simc": 3826,
                "addr:teryt:sym_ul": 921728,
                "contact:phone": "+48 609026186",
                "contact:email": "info@zoltakaczuszka.pl",
                "contact:website": "http:\/\/www.zoltakaczuszka.pl",
                "ref:regon": "146351172",
                "operator": "\u017baneta Araszkiewicz W\u0119gli\u0144ska",
                "operator:type": "private",
                "amenity": "kindergarten"
            }
        },
        {
            "id": 130281,
            "type": "Feature",
            "geometry": {
                "type": "Point",
                "coordinates": [
                    21.24904,
                    52.21996
                ]
            },
            "properties": {
                "ref:rspo": 130281,
                "official_name": "Przedszkole Publiczne \"Gumi\u015b\"",
                "name": "Przedszkole Publiczne \"Gumi\u015b\"",
                "addr:country": "PL",
                "addr:postcode": "05-075",
                "addr:city": "Warszawa",
                "addr:street": "ul. Poezji",
                "addr:housenumber": "11",
                "addr:teryt:simc": 16899,
                "addr:teryt:sym_ul": 921728,
                "contact:phone": "+48 503785453",
                "contact:email": "walczak213@wp.pl",
                "ref:regon": "363756225",
                "operator": "Natalia Walczak",
                "operator:type": "private",
                "amenity": "kindergarten"
            }
        },
        {
            "id": 130978,
            "type": "Feature",
            "geometry": {
                "type": "Point",
                "coordinates": [
                    21.24476,
                    52.22049
                ]
            },
            "properties": {
                "ref:rspo": 130978,
                "official_name": "Sportfarm",
                "name": "Sportfarm",
                "addr:country": "PL",
                "addr:postcode": "05-077",
                "addr:city": "Warszawa",
                "addr:street": "ul. Dworkowa",
                "addr:housenumber": "9a",
                "addr:door": "22",
                "addr:teryt:simc": 4441,
                "addr:teryt:sym_ul": 921728,
                "contact:phone": "+48 698200020",
                "contact:email": "biuro@sportedu.pl",
                "ref:regon": "364816219",
                "operator": "Mariusz Grzywacz  Baurski",
                "operator:type": "private",
                "fixme": "w zale\u017cno\u015bci od przedmiotu dzia\u0142alno\u015bci (np. amenity=training + training=*, amenity=dancing_school, amenity=language_school, amenity=music_school)"
            }
        },
        {
            "id": 54012,
            "type": "Feature",
            "geometry": {
                "type": "Point",
                "coordinates": [
                    21.230739593506,
                    52.222919464111
                ]
            },
            "properties": {
                "ref:rspo": 54012,
                "official_name": "Przedszkole Nr 262",
                "name": "Przedszkole Nr 262",
                "addr:country": "PL",
                "addr:postcode": "05-075",
                "addr:city": "Warszawa",
                "addr:street": "ul. Antoniego Pankracego \u0141aguny",
                "addr:housenumber": "3",
                "addr:teryt:simc": 44103,
                "addr:teryt:sym_ul": 921728,
                "contact:phone": "+48 226119243",
                "contact:email": "p262@edu.um.warszawa.pl",
                "contact:website": "http:\/\/www.przedszkole262.wawnet.pl",
                "ref:regon": "013003793",
                "ref:vatin": "PL9521471876",
                "operator": "Weso\u0142a",
                "operator:type": "government",
                "amenity": "kindergarten"
            }
        },
        {
            "id": 54139,
            "type": "Feature",
            "geometry": {
                "type": "Point",
                "coordinates": [
                    21.22144,
                    52.22355
                ]
            },
            "properties": {
                "isced:level": "1;2",
                "ref:rspo": 54139,
                "official_name": "Szko\u0142a Podstawowa Nr 173 im. G\u00f3rnik\u00f3w Polskich",
                "name": "Szko\u0142a Podstawowa Nr 173",
                "addr:country": "PL",
                "addr:postcode": "05-077",
                "addr:city": "Warszawa",
                "addr:street": "inne Trakt Brzeski",
                "addr:housenumber": "18",
                "addr:teryt:simc": 30078,
                "addr:teryt:sym_ul": 921728,
                "contact:phone": "+48 227733925",
                "contact:email": "szkola@sp173.waw.pl",
                "contact:website": "https:\/\/www.sp173.waw.pl\/",
                "ref:regon": "000799598",
                "ref:vatin": "PL9521471965",
                "operator": "Weso\u0142a",
                "operator:type": "government",
                "amenity": "school"
            }
        },
        {
            "id": 54014,
            "type": "Feature",
            "geometry": {
                "type": "Point",
                "coordinates": [
                    21.23903,
                    52.22375
                ]
            },
            "properties": {
                "ref:rspo": 54014,
                "official_name": "Przedszkole Nr 260",
                "name": "Przedszkole Nr 260",
                "addr:country": "PL",
                "addr:postcode": "05-077",
                "addr:city": "Warszawa",
                "addr:street": "inne Trakt Brzeski",
                "addr:housenumber": "85",
                "addr:teryt:simc": 30078,
                "addr:teryt:sym_ul": 921728,
                "contact:phone": "+48 227733994",
                "contact:email": "p260@edu.um.warszawa.pl",
                "contact:website": "https:\/\/p260.przedszkola.net.pl\/",
                "ref:regon": "013003267",
                "ref:vatin": "PL8221925060",
                "operator": "Weso\u0142a",
                "operator:type": "government",
                "amenity": "kindergarten"
            }
        },
        {
            "id": 73785,
            "type": "Feature",
            "geometry": {
                "type": "Point",
                "coordinates": [
                    21.23417,
                    52.22382
                ]
            },
            "properties": {
                "isced:level": "3",
                "ref:rspo": 73785,
                "official_name": "I Spo\u0142eczne Liceum Og\u00f3lnokszta\u0142c\u0105ce im.emanuela Bu\u0142haka w Warszawie Weso\u0142ej",
                "name": "I Spo\u0142eczne Liceum Og\u00f3lnokszta\u0142c\u0105ce im.emanuela Bu\u0142haka w Warszawie Weso\u0142ej",
                "addr:country": "PL",
                "addr:postcode": "05-077",
                "addr:city": "Warszawa",
                "addr:street": "inne Trakt Brzeski",
                "addr:housenumber": "63",
                "addr:teryt:simc": 30078,
                "addr:teryt:sym_ul": 921728,
                "contact:phone": "+48 227733600",
                "contact:email": "sekretariat@szkolybulhaka.pl",
                "contact:website": "http:\/\/www.szkolybulhaka.pl",
                "ref:regon": "146439257",
                "operator": "Fundacja Kultura I Nauka",
                "operator:type": "ngo",
                "amenity": "school"
            }
        },
        {
            "id": 124583,
            "type": "Feature",
            "geometry": {
                "type": "Point",
                "coordinates": [
                    21.24411,
                    52.22504
                ]
            },
            "properties": {
                "ref:rspo": 124583,
                "official_name": "Niepubliczne Przedszkole J\u0119zykowo-Artystyczne \"Le\u015bne Skrzaty\"",
                "name": "Niepubliczne Przedszkole J\u0119zykowo-Artystyczne \"Le\u015bne Skrzaty\"",
                "addr:country": "PL",
                "addr:postcode": "05-077",
                "addr:city": "Warszawa",
                "addr:street": "al. Aleja marsz. J\u00f3zefa Pi\u0142sudskiego",
                "addr:housenumber": "4c",
                "addr:teryt:simc": 45210,
                "addr:teryt:sym_ul": 921728,
                "contact:phone": "+48 605329947",
                "contact:email": "sekretariat@lesneskrzaty.edu.pl",
                "contact:website": "http:\/\/lesneskrzaty.edu.pl",
                "ref:regon": "147400582",
                "operator": "Nadia Meguedad",
                "operator:type": "private",
                "amenity": "kindergarten"
            }
        },
        {
            "id": 131718,
            "type": "Feature",
            "geometry": {
                "type": "Point",
                "coordinates": [
                    21.2542,
                    52.23539
                ]
            },
            "properties": {
                "isced:level": "3",
                "ref:rspo": 131718,
                "official_name": "Prywatne Liceum Og\u00f3lnokszta\u0142c\u0105ce im. Zofii I J\u0119drzeja Moraczewskich",
                "name": "Prywatne Liceum Og\u00f3lnokszta\u0142c\u0105ce",
                "addr:country": "PL",
                "addr:postcode": "05-077",
                "addr:city": "Warszawa",
                "addr:street": "al. Aleja marsz. J\u00f3zefa Pi\u0142sudskiego",
                "addr:housenumber": "73",
                "addr:teryt:simc": 45210,
                "addr:teryt:sym_ul": 921728,
                "contact:phone": "+48 693548901",
                "contact:email": "artur.abramowicz@moracz.edu.pl",
                "ref:regon": "365339052",
                "operator": "Artur Abramowicz",
                "operator:type": "private",
                "amenity": "school"
            }
        },
        {
            "id": 278232,
            "type": "Feature",
            "geometry": {
                "type": "Point",
                "coordinates": [
                    21.25432,
                    52.23727
                ]
            },
            "properties": {
                "ref:rspo": 278232,
                "official_name": "Niepubliczne Blisko\u015bciowe Przedszkole Dzieci\u0119ca Osada",
                "name": "Niepubliczne Blisko\u015bciowe Przedszkole Dzieci\u0119ca Osada",
                "addr:country": "PL",
                "addr:postcode": "05-077",
                "addr:city": "Warszawa",
                "addr:street": "al. Aleja marsz. J\u00f3zefa Pi\u0142sudskiego",
                "addr:housenumber": "73J",
                "addr:teryt:simc": 45210,
                "addr:teryt:sym_ul": 921728,
                "contact:phone": "+48 792648800",
                "contact:email": "przedszkole@dzieciecaosada.pl",
                "contact:website": "http:\/\/www.dzieciecaosada.pl",
                "ref:regon": "389855355",
                "operator": "El\u017cbieta Kostyk",
                "operator:type": "private",
                "amenity": "kindergarten"
            }
        },
        {
            "id": 87205,
            "type": "Feature",
            "geometry": {
                "type": "Point",
                "coordinates": [
                    21.19136,
                    52.23921
                ]
            },
            "properties": {
                "isced:level": "1;2",
                "ref:rspo": 87205,
                "official_name": "Szko\u0142a Podstawowa Nr 172 im. Polskiej Organizacji Wojskowej",
                "name": "Szko\u0142a Podstawowa Nr 172",
                "addr:country": "PL",
                "addr:postcode": "05-075",
                "addr:city": "Warszawa",
                "addr:street": "ul. Brata Alberta",
                "addr:housenumber": "46",
                "addr:teryt:simc": 2046,
                "addr:teryt:sym_ul": 921728,
                "contact:phone": "+48 227734204",
                "contact:email": "sp172@edu.um.warszawa.pl",
                "contact:website": "http:\/\/www.sp172.edupage.org",
                "ref:regon": "000799581",
                "ref:vatin": "PL9521598944",
                "operator": "Weso\u0142a",
                "operator:type": "government",
                "amenity": "school"
            }
        },
        {
            "id": 121939,
            "type": "Feature",
            "geometry": {
                "type": "Point",
                "coordinates": [
                    21.17878,
                    52.24515
                ]
            },
            "properties": {
                "ref:rspo": 121939,
                "official_name": "O\u015brodek Szkolenia Grom",
                "name": "O\u015brodek Szkolenia Grom",
                "addr:country": "PL",
                "addr:postcode": "05-075",
                "addr:city": "Warszawa",
                "addr:street": "ul. Wsp\u00f3lna",
                "addr:housenumber": "2c",
                "addr:door": "2-4",
                "addr:teryt:simc": 24885,
                "addr:teryt:sym_ul": 921728,
                "contact:phone": "+48 227608568",
                "contact:email": "info@gromgroup.pl",
                "contact:website": "http:\/\/www.gromgroup.pl",
                "ref:regon": "147099740",
                "operator": "Grom Group Sp\u00f3\u0142ka Z Ograniczon\u0105 Odpowiedzialno\u015bci\u0105",
                "operator:type": "private",
                "fixme": "w zale\u017cno\u015bci od przedmiotu dzia\u0142alno\u015bci (np. amenity=training + training=*, amenity=dancing_school, amenity=language_school, amenity=music_school)"
            }
        },
        {
            "id": 121197,
            "type": "Feature",
            "geometry": {
                "type": "Point",
                "coordinates": [
                    21.1901699,
                    52.24522
                ]
            },
            "properties": {
                "ref:rspo": 121197,
                "official_name": "J\u0119zykowe Przedszkole Limonka",
                "name": "J\u0119zykowe Przedszkole Limonka",
                "addr:country": "PL",
                "addr:postcode": "05-075",
                "addr:city": "Warszawa",
                "addr:street": "ul. Warszawska",
                "addr:housenumber": "57",
                "addr:teryt:simc": 23682,
                "addr:teryt:sym_ul": 921728,
                "contact:phone": "+48 601209610",
                "contact:email": "zapisy@limonka.edu.pl",
                "contact:website": "http:\/\/www.limonka.edu.pl",
                "ref:regon": "147010088",
                "operator": "Patrycja Paku\u0142a",
                "operator:type": "private",
                "amenity": "kindergarten"
            }
        },
        {
            "id": 26340,
            "type": "Feature",
            "geometry": {
                "type": "Point",
                "coordinates": [
                    21.22511,
                    52.24586
                ]
            },
            "properties": {
                "ref:rspo": 26340,
                "official_name": "Niepubliczne Przedszkole Jacek I Agatka",
                "name": "Niepubliczne Przedszkole Jacek I Agatka",
                "addr:country": "PL",
                "addr:postcode": "05-075",
                "addr:city": "Warszawa",
                "addr:street": "ul. Cypriana Godebskiego",
                "addr:housenumber": "2",
                "addr:teryt:simc": 5681,
                "addr:teryt:sym_ul": 921728,
                "contact:phone": "+48 227737217",
                "contact:email": "przedszkole@jacek-agatka.pl",
                "contact:website": "http:\/\/www.jacek-agatka.pl",
                "ref:regon": "146337255",
                "operator": "Anna Kuczy\u0144ska",
                "operator:type": "private",
                "amenity": "kindergarten"
            }
        },
        {
            "id": 39202,
            "type": "Feature",
            "geometry": {
                "type": "Point",
                "coordinates": [
                    21.19152,
                    52.24792
                ]
            },
            "properties": {
                "ref:rspo": 39202,
                "official_name": "Przedszkole \"Abc\"",
                "name": "Przedszkole \"Abc\"",
                "addr:country": "PL",
                "addr:postcode": "05-075",
                "addr:city": "Warszawa",
                "addr:street": "ul. Wsp\u00f3lna",
                "addr:housenumber": "35",
                "addr:teryt:simc": 24885,
                "addr:teryt:sym_ul": 921728,
                "contact:phone": "+48 227735204",
                "contact:email": "przedszkole@szkola-dwujezyczna.pl",
                "ref:regon": "146399753",
                "operator": "Anna Zalewska-Lipka",
                "operator:type": "private",
                "amenity": "kindergarten"
            }
        },
        {
            "id": 53000,
            "type": "Feature",
            "geometry": {
                "type": "Point",
                "coordinates": [
                    21.19454,
                    52.24848
                ]
            },
            "properties": {
                "isced:level": "1;2",
                "ref:rspo": 53000,
                "official_name": "Dwuj\u0119zyczna Szko\u0142a Podstawowa Nr 1",
                "name": "Dwuj\u0119zyczna Szko\u0142a Podstawowa Nr 1",
                "addr:country": "PL",
                "addr:postcode": "05-075",
                "addr:city": "Warszawa",
                "addr:street": "ul. Wsp\u00f3lna",
                "addr:housenumber": "55",
                "addr:teryt:simc": 24885,
                "addr:teryt:sym_ul": 921728,
                "contact:phone": "+48 600202851",
                "contact:email": "azalewska@szkola-dwujezyczna.pl",
                "contact:website": "http:\/\/szkola-dwujezyczna.pl",
                "ref:regon": "146405637",
                "ref:vatin": "PL9521000823",
                "operator": "Fundacja Edukacji Dwuj\u0119zycznej Amaltea",
                "operator:type": "ngo",
                "amenity": "school"
            }
        },
        {
            "id": 270387,
            "type": "Feature",
            "geometry": {
                "type": "Point",
                "coordinates": [
                    21.19454,
                    52.24845
                ]
            },
            "properties": {
                "isced:level": "3",
                "ref:rspo": 270387,
                "official_name": "Dwuj\u0119zyczne Liceum Nr 1",
                "name": "Dwuj\u0119zyczne Liceum Nr 1",
                "addr:country": "PL",
                "addr:postcode": "05-075",
                "addr:city": "Warszawa",
                "addr:street": "ul. Wsp\u00f3lna",
                "addr:housenumber": "55",
                "addr:teryt:simc": 24885,
                "addr:teryt:sym_ul": 921728,
                "contact:phone": "+48 604131415",
                "ref:regon": "382502518",
                "operator": "Fundacja Edukacji Dwuj\u0119zycznej Amaltea",
                "operator:type": "ngo",
                "amenity": "school"
            }
        },
        {
            "id": 265871,
            "type": "Feature",
            "geometry": {
                "type": "Point",
                "coordinates": [
                    21.24598,
                    52.24962
                ]
            },
            "properties": {
                "isced:level": "1;2",
                "ref:rspo": 265871,
                "official_name": "Prywatna Szko\u0142a Podstawowa im. Zofii I J\u0119drzeja Moraczewskich",
                "name": "Prywatna Szko\u0142a Podstawowa",
                "addr:country": "PL",
                "addr:postcode": "05-075",
                "addr:city": "Warszawa",
                "addr:street": "ul. Armii Krajowej",
                "addr:housenumber": "121",
                "addr:teryt:simc": 432,
                "addr:teryt:sym_ul": 921728,
                "contact:phone": "+48 793250090",
                "contact:email": "e.antoniuk@moracz.edu.pl",
                "ref:regon": "368969552",
                "operator": "Artur Abramowicz",
                "operator:type": "private",
                "amenity": "school"
            }
        },
        {
            "id": 128816,
            "type": "Feature",
            "geometry": {
                "type": "Point",
                "coordinates": [
                    21.25372,
                    52.24974
                ]
            },
            "properties": {
                "ref:rspo": 128816,
                "official_name": "Przedszkole Jaskinia Talent\u00f3w",
                "name": "Przedszkole Jaskinia Talent\u00f3w",
                "addr:country": "PL",
                "addr:postcode": "05-075",
                "addr:city": "Warszawa",
                "addr:street": "ul. Orla",
                "addr:housenumber": "10",
                "addr:teryt:simc": 15141,
                "addr:teryt:sym_ul": 921728,
                "contact:phone": "+48 530446063",
                "contact:email": "anna.machuta@gmail.com",
                "ref:regon": "362397793",
                "operator": "Anna Kramek- Machuta",
                "operator:type": "private",
                "amenity": "kindergarten"
            }
        },
        {
            "id": 54016,
            "type": "Feature",
            "geometry": {
                "type": "Point",
                "coordinates": [
                    21.23186,
                    52.2499
                ]
            },
            "properties": {
                "ref:rspo": 54016,
                "official_name": "Przedszkole Nr 261 \"Pod D\u0119bami\"",
                "name": "Przedszkole Nr 261 \"Pod D\u0119bami\"",
                "addr:country": "PL",
                "addr:postcode": "05-075",
                "addr:city": "Warszawa",
                "addr:street": "ul. Armii Krajowej",
                "addr:housenumber": "72",
                "addr:teryt:simc": 432,
                "addr:teryt:sym_ul": 921728,
                "contact:phone": "+48 227735858",
                "contact:email": "p261@edu.um.warszawa.pl",
                "contact:website": "https:\/\/przedszkole261.szkolnastrona.pl\/",
                "ref:regon": "013003801",
                "ref:vatin": "PL9521715309",
                "operator": "Weso\u0142a",
                "operator:type": "government",
                "amenity": "kindergarten"
            }
        },
        {
            "id": 133535,
            "type": "Feature",
            "geometry": {
                "type": "Point",
                "coordinates": [
                    21.22363,
                    52.2502
                ]
            },
            "properties": {
                "ref:rspo": 133535,
                "official_name": "Przedszkole Nr 434 \"Na G\u00f3rce\"",
                "name": "Przedszkole Nr 434 \"Na G\u00f3rce\"",
                "addr:country": "PL",
                "addr:postcode": "05-077",
                "addr:city": "Warszawa",
                "addr:street": "ul. 1 Praskiego Pu\u0142ku WP",
                "addr:housenumber": "116",
                "addr:teryt:simc": 44416,
                "addr:teryt:sym_ul": 921728,
                "contact:phone": "+48 222442902",
                "contact:email": "p434@edu.um.warszawa.pl",
                "contact:website": "http:\/\/przedszkole434.pl",
                "ref:regon": "367405209",
                "operator": "Weso\u0142a",
                "operator:type": "government",
                "amenity": "kindergarten"
            }
        },
        {
            "id": 54132,
            "type": "Feature",
            "geometry": {
                "type": "Point",
                "coordinates": [
                    21.22661,
                    52.25069
                ]
            },
            "properties": {
                "isced:level": "1;2",
                "ref:rspo": 54132,
                "official_name": "Szko\u0142a Podstawowa Nr 171 im. Stanis\u0142awa Staszica",
                "name": "Szko\u0142a Podstawowa Nr 171",
                "addr:country": "PL",
                "addr:postcode": "05-075",
                "addr:city": "Warszawa",
                "addr:street": "ul. Armii Krajowej",
                "addr:housenumber": "39",
                "addr:teryt:simc": 432,
                "addr:teryt:sym_ul": 921728,
                "contact:phone": "+48 227739052",
                "contact:email": "sp171wesola@poczta.onet.pl",
                "contact:website": "http:\/\/www.sp171wesola.edu.pl",
                "ref:regon": "000799575",
                "ref:vatin": "PL9521471936",
                "operator": "Weso\u0142a",
                "operator:type": "government",
                "amenity": "school"
            }
        },
        {
            "id": 29718,
            "type": "Feature",
            "geometry": {
                "type": "Point",
                "coordinates": [
                    21.21688,
                    52.25101
                ]
            },
            "properties": {
                "ref:rspo": 29718,
                "official_name": "Spo\u0142eczna Szko\u0142a Muzyczna I St. im. Wojciecha Kilara w Warszawie",
                "name": "Spo\u0142eczna Szko\u0142a Muzyczna I St.",
                "addr:country": "PL",
                "addr:postcode": "05-075",
                "addr:city": "Warszawa",
                "addr:street": "ul. Armii Krajowej",
                "addr:housenumber": "9",
                "addr:teryt:simc": 432,
                "addr:teryt:sym_ul": 921728,
                "contact:phone": "+48 602787222",
                "contact:email": "ewa.sulikowska@poczta.onet.pl",
                "ref:regon": "146348916",
                "operator": "Fundacja Kultura I Nauka",
                "operator:type": "ngo",
                "amenity": "music_school"
            }
        },
        {
            "id": 34237,
            "type": "Feature",
            "geometry": {
                "type": "Point",
                "coordinates": [
                    21.21688,
                    52.25098
                ]
            },
            "properties": {
                "isced:level": "1;2",
                "ref:rspo": 34237,
                "official_name": "Spo\u0142eczna Szko\u0142a Podstawowa Nr 12 im. Emanuela Bu\u0142haka",
                "name": "Spo\u0142eczna Szko\u0142a Podstawowa Nr 12",
                "addr:country": "PL",
                "addr:postcode": "05-075",
                "addr:city": "Warszawa",
                "addr:street": "ul. Armii Krajowej",
                "addr:housenumber": "9",
                "addr:teryt:simc": 432,
                "addr:teryt:sym_ul": 921728,
                "contact:phone": "+48 227735592",
                "contact:email": "podstawowa@szkolybulhaka.pl",
                "contact:website": "http:\/\/www.podstawowa.szkolybulhaka.pl",
                "ref:regon": "146357772",
                "ref:vatin": "PL9521263534",
                "operator": "Fundacja Kultura I Nauka",
                "operator:type": "ngo",
                "amenity": "school"
            }
        },
        {
            "id": 54009,
            "type": "Feature",
            "geometry": {
                "type": "Point",
                "coordinates": [
                    21.2236517,
                    52.2522899
                ]
            },
            "properties": {
                "ref:rspo": 54009,
                "official_name": "Poradnia Psychologiczno-Pedagogiczna Nr 23",
                "name": "Poradnia Psychologiczno-Pedagogiczna Nr 23",
                "addr:country": "PL",
                "addr:postcode": "05-075",
                "addr:city": "Warszawa",
                "addr:street": "ul. 1 Praskiego Pu\u0142ku WP",
                "addr:housenumber": "8",
                "addr:teryt:simc": 44416,
                "addr:teryt:sym_ul": 921728,
                "contact:phone": "+48 227600387",
                "contact:email": "ppp23@edu.um.warszawa.pl",
                "contact:website": "http:\/\/www.ppp23.waw.pl",
                "ref:regon": "142541527",
                "ref:vatin": "PL9522095317",
                "operator": "Weso\u0142a",
                "operator:type": "government",
                "healthcare": "counselling",
                "counselling_type": "education",
                "fixme": "w zale\u017cno\u015bci od przedmiotu dzia\u0142alno\u015bci (np. healthcare=counselling + counselling_type=education albo healthcare=psychotherapist)"
            }
        },
        {
            "id": 126074,
            "type": "Feature",
            "geometry": {
                "type": "Point",
                "coordinates": [
                    21.22132,
                    52.25266
                ]
            },
            "properties": {
                "ref:rspo": 126074,
                "official_name": "Prywatne Przedszkole Ja\u015b I Ma\u0142gosia",
                "name": "Prywatne Przedszkole Ja\u015b I Ma\u0142gosia",
                "addr:country": "PL",
                "addr:postcode": "05-075",
                "addr:city": "Warszawa",
                "addr:street": "ul. Jana Kili\u0144skiego",
                "addr:housenumber": "44",
                "addr:teryt:simc": 8435,
                "addr:teryt:sym_ul": 921728,
                "contact:phone": "+48 603789001",
                "contact:email": "przedszkole.prywatne@wp.pl",
                "contact:website": "http:\/\/www.jasimalgosia.waw.pl",
                "ref:regon": "360141799",
                "operator": "Ewa Szuba",
                "operator:type": "private",
                "amenity": "kindergarten"
            }
        },
        {
            "id": 54142,
            "type": "Feature",
            "geometry": {
                "type": "Point",
                "coordinates": [
                    21.23054,
                    52.25598
                ]
            },
            "properties": {
                "isced:level": "1;2",
                "ref:rspo": 54142,
                "official_name": "Szko\u0142a Podstawowa Nr 174 Z Oddzia\u0142ami Integracyjnymi im. Tadeusza Ko\u015bciuszki",
                "name": "Szko\u0142a Podstawowa Nr 174 Z Oddzia\u0142ami Integracyjnymi",
                "addr:country": "PL",
                "addr:postcode": "05-075",
                "addr:city": "Warszawa",
                "addr:street": "pl. Plac Wojska Polskiego",
                "addr:housenumber": "28",
                "addr:teryt:simc": 45397,
                "addr:teryt:sym_ul": 921728,
                "contact:phone": "+48 227734003",
                "contact:email": "sekretariat@sp174.pl",
                "contact:website": "http:\/\/www.sp174.pl",
                "ref:regon": "010383743",
                "ref:vatin": "PL9521481656",
                "operator": "Weso\u0142a",
                "operator:type": "government",
                "amenity": "school"
            }
        },
        {
            "id": 54101,
            "type": "Feature",
            "geometry": {
                "type": "Point",
                "coordinates": [
                    21.22956,
                    52.25786
                ]
            },
            "properties": {
                "ref:rspo": 54101,
                "official_name": "Przedszkole Nr 259 \"Le\u015bna Bajka\"",
                "name": "Przedszkole Nr 259 \"Le\u015bna Bajka\"",
                "addr:country": "PL",
                "addr:postcode": "05-075",
                "addr:city": "Warszawa",
                "addr:street": "pl. Plac Wojska Polskiego",
                "addr:housenumber": "18",
                "addr:teryt:simc": 45397,
                "addr:teryt:sym_ul": 921728,
                "contact:phone": "+48 227736179",
                "contact:email": "p259@edu.um.warszawa.pl",
                "contact:website": "https:\/\/www.przedszkole259.pl\/",
                "ref:regon": "015315226",
                "ref:vatin": "PL9521907664",
                "operator": "Weso\u0142a",
                "operator:type": "government",
                "amenity": "kindergarten"
            }
        }
    ]
}