{
    "type": "FeatureCollection",
    "features": [
        {
            "id": 23467,
            "type": "Feature",
            "geometry": {
                "type": "Point",
                "coordinates": [
                    20.95263,
                    52.26561
                ]
            },
            "properties": {
                "ref:rspo": 23467,
                "official_name": "Przedszkole Nr 318 \"Zielony Zak\u0105tek\"",
                "name": "Przedszkole Nr 318 \"Zielony Zak\u0105tek\"",
                "addr:country": "PL",
                "addr:postcode": "01-864",
                "addr:city": "Warszawa",
                "addr:street": "ul. Jana Kochanowskiego",
                "addr:housenumber": "9a",
                "addr:teryt:simc": 8728,
                "addr:teryt:sym_ul": 988804,
                "contact:phone": "+48 226639281",
                "contact:email": "p318@edu.um.warszawa.pl",
                "contact:website": "http:\/\/www.zielonyzakatek.waw.pl",
                "ref:regon": "012525354",
                "ref:vatin": "PL1180132642",
                "operator": "Bielany",
                "operator:type": "government",
                "amenity": "kindergarten"
            }
        },
        {
            "id": 90980,
            "type": "Feature",
            "geometry": {
                "type": "Point",
                "coordinates": [
                    20.95558,
                    52.26577
                ]
            },
            "properties": {
                "isced:level": "3",
                "ref:rspo": 90980,
                "official_name": "Prywatne Technikum Handlowo-Mened\u017cerskie \"Hermes\"",
                "name": "Prywatne Technikum Handlowo-Mened\u017cerskie \"Hermes\"",
                "addr:country": "PL",
                "addr:postcode": "01-864",
                "addr:city": "Warszawa",
                "addr:street": "ul. Jana Kochanowskiego",
                "addr:housenumber": "1",
                "addr:teryt:simc": 8728,
                "addr:teryt:sym_ul": 988804,
                "contact:phone": "+48 228650607",
                "contact:email": "szkolahermes@wp.pl",
                "contact:website": "http:\/\/www.szkoly-hermes.pl",
                "ref:regon": "146437324",
                "operator": "Joanna Krzywos\u0105dzka",
                "operator:type": "private",
                "amenity": "school"
            }
        },
        {
            "id": 269792,
            "type": "Feature",
            "geometry": {
                "type": "Point",
                "coordinates": [
                    20.94468,
                    52.26622
                ]
            },
            "properties": {
                "ref:rspo": 269792,
                "official_name": "Punkt Przedszkolny Artystyczno-J\u0119zykowe \"Super Przedszkole\"",
                "name": "Punkt Przedszkolny Artystyczno-J\u0119zykowe \"Super Przedszkole\"",
                "addr:country": "PL",
                "addr:postcode": "01-858",
                "addr:city": "Warszawa",
                "addr:street": "ul. gen. Klemensa Stanis\u0142awa Rudnickiego",
                "addr:housenumber": "3a",
                "addr:door": "14\/15h",
                "addr:teryt:simc": 52322,
                "addr:teryt:sym_ul": 988804,
                "contact:phone": "+48 510777976",
                "contact:email": "super-przedszkole@outlook.com",
                "ref:regon": "381771736",
                "operator": "W\u0142odzimierz Paw\u0142owski",
                "operator:type": "private",
                "amenity": "kindergarten"
            }
        },
        {
            "id": 272281,
            "type": "Feature",
            "geometry": {
                "type": "Point",
                "coordinates": [
                    20.94468,
                    52.266189999999995
                ]
            },
            "properties": {
                "ref:rspo": 272281,
                "official_name": "Przedszkole Artystyczno-J\u0119zykowe \"Super Przedszkole\"",
                "name": "Przedszkole Artystyczno-J\u0119zykowe \"Super Przedszkole\"",
                "addr:country": "PL",
                "addr:postcode": "01-858",
                "addr:city": "Warszawa",
                "addr:street": "ul. gen. Klemensa Stanis\u0142awa Rudnickiego",
                "addr:housenumber": "3a",
                "addr:door": "14\/15 h",
                "addr:teryt:simc": 52322,
                "addr:teryt:sym_ul": 988804,
                "contact:phone": "+48 510777976",
                "contact:email": "super-przedszkole@outlook.com",
                "ref:regon": "384083729",
                "operator": "W\u0142odzimierz Paw\u0142owski",
                "operator:type": "private",
                "amenity": "kindergarten"
            }
        },
        {
            "id": 34999,
            "type": "Feature",
            "geometry": {
                "type": "Point",
                "coordinates": [
                    20.94863,
                    52.26694
                ]
            },
            "properties": {
                "ref:rspo": 34999,
                "official_name": "Przedszkole Niepubliczne \"Kraina Czar\u00f3w\"",
                "name": "Przedszkole Niepubliczne \"Kraina Czar\u00f3w\"",
                "addr:country": "PL",
                "addr:postcode": "01-864",
                "addr:city": "Warszawa",
                "addr:street": "ul. Literacka",
                "addr:housenumber": "19",
                "addr:door": "4",
                "addr:teryt:simc": 11221,
                "addr:teryt:sym_ul": 988804,
                "contact:email": "kontakt@krainaczarow.pl",
                "contact:website": "http:\/\/www.krainaczarow.pl",
                "ref:regon": "146353403",
                "operator": "Centrum Rozwoju Dziecka Sp\u00f3\u0142ka Z Ograniczon\u0105 Odpowiedzialno\u015bci\u0105",
                "operator:type": "private",
                "amenity": "kindergarten"
            }
        },
        {
            "id": 26496,
            "type": "Feature",
            "geometry": {
                "type": "Point",
                "coordinates": [
                    20.95421,
                    52.26721
                ]
            },
            "properties": {
                "isced:level": "1;2",
                "ref:rspo": 26496,
                "official_name": "Szko\u0142a Podstawowa Nr 293 im. Jana Kochanowskiego",
                "name": "Szko\u0142a Podstawowa Nr 293",
                "addr:country": "PL",
                "addr:postcode": "01-864",
                "addr:city": "Warszawa",
                "addr:street": "ul. Jana Kochanowskiego",
                "addr:housenumber": "8",
                "addr:teryt:simc": 8728,
                "addr:teryt:sym_ul": 988804,
                "contact:phone": "+48 226331377",
                "contact:email": "sekretariat@sp293.edu.pl",
                "contact:website": "http:\/\/www.sp293.edupage.org",
                "ref:regon": "010412634",
                "ref:vatin": "PL1180430948",
                "operator": "Bielany",
                "operator:type": "government",
                "amenity": "school"
            }
        },
        {
            "id": 23494,
            "type": "Feature",
            "geometry": {
                "type": "Point",
                "coordinates": [
                    20.9526499,
                    52.26726
                ]
            },
            "properties": {
                "ref:rspo": 23494,
                "official_name": "Przedszkole Nr 105 \"Weso\u0142a Stopi\u0105tka\"",
                "name": "Przedszkole Nr 105 \"Weso\u0142a Stopi\u0105tka\"",
                "addr:country": "PL",
                "addr:postcode": "01-864",
                "addr:city": "Warszawa",
                "addr:street": "ul. Jana Kochanowskiego",
                "addr:housenumber": "10",
                "addr:teryt:simc": 8728,
                "addr:teryt:sym_ul": 988804,
                "contact:phone": "+48 226330119",
                "contact:email": "p105@edu.um.warszawa.pl",
                "contact:website": "http:\/\/www.przedszkole105.waw.pl",
                "ref:regon": "012525390",
                "ref:vatin": "PL1180125725",
                "operator": "Bielany",
                "operator:type": "government",
                "amenity": "kindergarten"
            }
        },
        {
            "id": 273437,
            "type": "Feature",
            "geometry": {
                "type": "Point",
                "coordinates": [
                    20.93955,
                    52.26962
                ]
            },
            "properties": {
                "ref:rspo": 273437,
                "official_name": "Punkt Przedszkolny Magiczny Most",
                "name": "Punkt Przedszkolny Magiczny Most",
                "addr:country": "PL",
                "addr:postcode": "01-864",
                "addr:city": "Warszawa",
                "addr:street": "ul. Jana Kochanowskiego",
                "addr:housenumber": "43a",
                "addr:teryt:simc": 8728,
                "addr:teryt:sym_ul": 988804,
                "contact:phone": "+48 690504392",
                "contact:email": "przedszkole@magicznymost.pl",
                "ref:regon": "384469890",
                "operator": "Magiczny Most Sp\u00f3\u0142ka Z Ograniczon\u0105 Odpowiedzialno\u015bci\u0105",
                "operator:type": "private",
                "amenity": "kindergarten"
            }
        },
        {
            "id": 23463,
            "type": "Feature",
            "geometry": {
                "type": "Point",
                "coordinates": [
                    20.94629,
                    52.27033
                ]
            },
            "properties": {
                "ref:rspo": 23463,
                "official_name": "Przedszkole Nr 287 \"Piotrusia Pana\"",
                "name": "Przedszkole Nr 287 \"Piotrusia Pana\"",
                "addr:country": "PL",
                "addr:postcode": "01-876",
                "addr:city": "Warszawa",
                "addr:street": "ul. W\u0142adys\u0142awa Broniewskiego",
                "addr:housenumber": "81",
                "addr:teryt:simc": 2125,
                "addr:teryt:sym_ul": 988804,
                "contact:phone": "+48 226336418",
                "contact:email": "p287@edu.um.warszawa.pl",
                "contact:website": "http:\/\/p287.przedszkola.net.pl",
                "ref:regon": "012524610",
                "ref:vatin": "PL1180150019",
                "operator": "Bielany",
                "operator:type": "government",
                "amenity": "kindergarten"
            }
        },
        {
            "id": 125142,
            "type": "Feature",
            "geometry": {
                "type": "Point",
                "coordinates": [
                    20.9549,
                    52.27043
                ]
            },
            "properties": {
                "ref:rspo": 125142,
                "official_name": "Asysta Poradnia Psychologiczno-Pedagogiczna Katarzyna Osak",
                "name": "Asysta Poradnia Psychologiczno-Pedagogiczna Katarzyna Osak",
                "addr:country": "PL",
                "addr:postcode": "01-892",
                "addr:city": "Warszawa",
                "addr:street": "ul. Zbigniewa Romaszewskiego",
                "addr:housenumber": "6",
                "addr:door": "U3",
                "addr:teryt:simc": 52563,
                "addr:teryt:sym_ul": 988804,
                "contact:phone": "+48 781887880",
                "contact:email": "poradnia@asysta.org",
                "contact:website": "http:\/\/asysta.org",
                "ref:regon": "147428089",
                "operator": "Katarzyna Osak",
                "operator:type": "private",
                "healthcare": "counselling",
                "counselling_type": "education",
                "fixme": "w zale\u017cno\u015bci od przedmiotu dzia\u0142alno\u015bci (np. healthcare=counselling + counselling_type=education albo healthcare=psychotherapist)"
            }
        },
        {
            "id": 271852,
            "type": "Feature",
            "geometry": {
                "type": "Point",
                "coordinates": [
                    20.9549,
                    52.270399999999995
                ]
            },
            "properties": {
                "ref:rspo": 271852,
                "official_name": "Asysta Terapeutyczny Punkt Przedszkolny",
                "name": "Asysta Terapeutyczny Punkt Przedszkolny",
                "addr:country": "PL",
                "addr:postcode": "01-892",
                "addr:city": "Warszawa",
                "addr:street": "ul. Zbigniewa Romaszewskiego",
                "addr:housenumber": "6",
                "addr:door": "U3",
                "addr:teryt:simc": 52563,
                "addr:teryt:sym_ul": 988804,
                "contact:phone": "+48 781886880",
                "contact:email": "office@asysta.org",
                "contact:website": "http:\/\/www.asysta.org",
                "ref:regon": "383696648",
                "operator": "Maria Zi\u00f3\u0142kowska",
                "operator:type": "private",
                "amenity": "kindergarten"
            }
        },
        {
            "id": 23498,
            "type": "Feature",
            "geometry": {
                "type": "Point",
                "coordinates": [
                    20.94105,
                    52.27099
                ]
            },
            "properties": {
                "ref:rspo": 23498,
                "official_name": "Przedszkole Nr 271 \"Wr\u00f3belka Elemelka\"",
                "name": "Przedszkole Nr 271 \"Wr\u00f3belka Elemelka\"",
                "addr:country": "PL",
                "addr:postcode": "01-876",
                "addr:city": "Warszawa",
                "addr:street": "ul. W\u0142adys\u0142awa Broniewskiego",
                "addr:housenumber": "93",
                "addr:teryt:simc": 2125,
                "addr:teryt:sym_ul": 988804,
                "contact:phone": "+48 226333877",
                "contact:email": "p271@edu.um.warszawa.pl",
                "contact:website": "http:\/\/www.elemelek.szkolna.net",
                "ref:regon": "012525377",
                "ref:vatin": "PL1180474561",
                "operator": "Bielany",
                "operator:type": "government",
                "amenity": "kindergarten"
            }
        },
        {
            "id": 5120,
            "type": "Feature",
            "geometry": {
                "type": "Point",
                "coordinates": [
                    20.92936,
                    52.2718
                ]
            },
            "properties": {
                "isced:level": "1;2",
                "ref:rspo": 5120,
                "official_name": "Szko\u0142a Podstawowa Nr 352 w Warszawie im. Jerzego Huberta Wagnera",
                "name": "Szko\u0142a Podstawowa Nr 352 w Warszawie",
                "addr:country": "PL",
                "addr:postcode": "01-922",
                "addr:city": "Warszawa",
                "addr:street": "ul. Josepha Conrada",
                "addr:housenumber": "6",
                "addr:teryt:simc": 3124,
                "addr:teryt:sym_ul": 988804,
                "contact:phone": "+48 226697581",
                "contact:email": "sp352@edu.um.warszawa.pl",
                "contact:website": "http:\/\/sp352.edupage.org",
                "ref:regon": "146263806",
                "ref:vatin": "PL1182092094",
                "operator": "Bielany",
                "operator:type": "government",
                "amenity": "school"
            }
        },
        {
            "id": 23879,
            "type": "Feature",
            "geometry": {
                "type": "Point",
                "coordinates": [
                    20.92936,
                    52.27177
                ]
            },
            "properties": {
                "isced:level": "3",
                "ref:rspo": 23879,
                "official_name": "Liceum Og\u00f3lnokszta\u0142c\u0105ce Centrum Szkoleniowego \"Wiedza\"",
                "name": "Liceum Og\u00f3lnokszta\u0142c\u0105ce Centrum Szkoleniowego \"Wiedza\"",
                "addr:country": "PL",
                "addr:postcode": "01-922",
                "addr:city": "Warszawa",
                "addr:street": "ul. Josepha Conrada",
                "addr:housenumber": "6",
                "addr:teryt:simc": 3124,
                "addr:teryt:sym_ul": 988804,
                "contact:phone": "+48 607846491",
                "ref:regon": "146331821",
                "operator": "Wanda Musia\u0142",
                "operator:type": "private",
                "amenity": "school"
            }
        },
        {
            "id": 106183,
            "type": "Feature",
            "geometry": {
                "type": "Point",
                "coordinates": [
                    20.92936,
                    52.27174
                ]
            },
            "properties": {
                "ref:rspo": 106183,
                "official_name": "Spo\u0142eczna Szko\u0142a Muzyczna I St. im. Witolda Lutos\u0142awskiego w Warszawie",
                "name": "Spo\u0142eczna Szko\u0142a Muzyczna I St.",
                "addr:country": "PL",
                "addr:postcode": "01-992",
                "addr:city": "Warszawa",
                "addr:street": "ul. Josepha Conrada",
                "addr:housenumber": "6",
                "addr:teryt:simc": 3124,
                "addr:teryt:sym_ul": 988804,
                "contact:phone": "+48 600015902",
                "contact:email": "sekretariat@szkolamuzyczna.warszawa.pl",
                "contact:website": "http:\/\/szkolamuzyczna.warszawa.pl",
                "ref:regon": "146471730",
                "operator": "Fundacja Przestrze\u0144 Dla Muzyki",
                "operator:type": "ngo",
                "amenity": "music_school"
            }
        },
        {
            "id": 271868,
            "type": "Feature",
            "geometry": {
                "type": "Point",
                "coordinates": [
                    20.92936,
                    52.27171
                ]
            },
            "properties": {
                "ref:rspo": 271868,
                "official_name": "Spo\u0142eczna Szko\u0142a Muzyczna II St. im. Witolda Lutos\u0142awskiego w Warszawie",
                "name": "Spo\u0142eczna Szko\u0142a Muzyczna II St.",
                "addr:country": "PL",
                "addr:postcode": "01-922",
                "addr:city": "Warszawa",
                "addr:street": "ul. Josepha Conrada",
                "addr:housenumber": "6",
                "addr:teryt:simc": 3124,
                "addr:teryt:sym_ul": 988804,
                "contact:phone": "+48 600974694",
                "contact:email": "sekretariat@szkolamuzyczna.warszawa.pl",
                "contact:website": "http:\/\/2st.szkolamuzyczna.warszawa.pl",
                "ref:regon": "383717149",
                "operator": "Fundacja Przestrze\u0144 Dla Muzyki",
                "operator:type": "ngo",
                "amenity": "music_school"
            }
        },
        {
            "id": 23510,
            "type": "Feature",
            "geometry": {
                "type": "Point",
                "coordinates": [
                    20.93845,
                    52.27239
                ]
            },
            "properties": {
                "isced:level": "1;2",
                "ref:rspo": 23510,
                "official_name": "Szko\u0142a Podstawowa Nr 289 im. Henryka Sienkiewicza",
                "name": "Szko\u0142a Podstawowa Nr 289",
                "addr:country": "PL",
                "addr:postcode": "01-876",
                "addr:city": "Warszawa",
                "addr:street": "ul. W\u0142adys\u0142awa Broniewskiego",
                "addr:housenumber": "99a",
                "addr:teryt:simc": 2125,
                "addr:teryt:sym_ul": 988804,
                "contact:phone": "+48 226636773",
                "contact:email": "sp289@edu.um.warszawa.pl",
                "contact:website": "http:\/\/sp289.edupage.org",
                "ref:regon": "010415667",
                "ref:vatin": "PL1180135994",
                "operator": "Bielany",
                "operator:type": "government",
                "amenity": "school"
            }
        },
        {
            "id": 23470,
            "type": "Feature",
            "geometry": {
                "type": "Point",
                "coordinates": [
                    20.93196,
                    52.27257
                ]
            },
            "properties": {
                "ref:rspo": 23470,
                "official_name": "Przedszkole Nr 328 \"Akademia Pod Czere\u015bni\u0105\"",
                "name": "Przedszkole Nr 328 \"Akademia Pod Czere\u015bni\u0105\"",
                "addr:country": "PL",
                "addr:postcode": "01-903",
                "addr:city": "Warszawa",
                "addr:street": "ul. Marii D\u0105browskiej",
                "addr:housenumber": "5a",
                "addr:teryt:simc": 3691,
                "addr:teryt:sym_ul": 988804,
                "contact:phone": "+48 226697813",
                "contact:email": "p328@edu.um.warszawa.pl",
                "contact:website": "http:\/\/www.328.edupage.org",
                "ref:regon": "012524544",
                "ref:vatin": "PL1180150427",
                "operator": "Bielany",
                "operator:type": "government",
                "amenity": "kindergarten"
            }
        },
        {
            "id": 23497,
            "type": "Feature",
            "geometry": {
                "type": "Point",
                "coordinates": [
                    20.93599,
                    52.27261
                ]
            },
            "properties": {
                "ref:rspo": 23497,
                "official_name": "Przedszkole Nr 308 \"Krasnala Ha\u0142aba\u0142y\"",
                "name": "Przedszkole Nr 308 \"Krasnala Ha\u0142aba\u0142y\"",
                "addr:country": "PL",
                "addr:postcode": "01-842",
                "addr:city": "Warszawa",
                "addr:street": "al. Aleja W\u0142adys\u0142awa Reymonta",
                "addr:housenumber": "8a",
                "addr:teryt:simc": 45214,
                "addr:teryt:sym_ul": 988804,
                "contact:phone": "+48 226639217",
                "contact:email": "p308@edu.um.warszawa.pl",
                "contact:website": "http:\/\/www.p308waw.szkolnastrona.pl",
                "ref:regon": "012524515",
                "ref:vatin": "PL1180474839",
                "operator": "Bielany",
                "operator:type": "government",
                "amenity": "kindergarten"
            }
        },
        {
            "id": 34506,
            "type": "Feature",
            "geometry": {
                "type": "Point",
                "coordinates": [
                    20.96165,
                    52.2734499
                ]
            },
            "properties": {
                "isced:level": "3",
                "ref:rspo": 34506,
                "official_name": "Cxxii Liceum Og\u00f3lnokszta\u0142c\u0105ce im. Ignacego Domeyki",
                "name": "Cxxii Liceum Og\u00f3lnokszta\u0142c\u0105ce",
                "addr:country": "PL",
                "addr:postcode": "01-891",
                "addr:city": "Warszawa",
                "addr:street": "ul. Leopolda Staffa",
                "addr:housenumber": "3\/5",
                "addr:teryt:simc": 20798,
                "addr:teryt:sym_ul": 988804,
                "contact:phone": "+48 228640891",
                "contact:email": "sekretariat@domeyko.edu.pl",
                "contact:website": "http:\/\/www.domeyko.edu.pl",
                "ref:regon": "015164566",
                "operator": "Bielany",
                "operator:type": "government",
                "amenity": "school"
            }
        },
        {
            "id": 21432,
            "type": "Feature",
            "geometry": {
                "type": "Point",
                "coordinates": [
                    20.93077,
                    52.2735399
                ]
            },
            "properties": {
                "ref:rspo": 21432,
                "official_name": "Przedszkole Niepubliczne \"Ma\u0142y Odkrywca\" Sportowo-Integracyjne",
                "name": "Przedszkole Niepubliczne \"Ma\u0142y Odkrywca\" Sportowo-Integracyjne",
                "addr:country": "PL",
                "addr:postcode": "01-903",
                "addr:city": "Warszawa",
                "addr:street": "ul. Marii D\u0105browskiej",
                "addr:housenumber": "15",
                "addr:teryt:simc": 3691,
                "addr:teryt:sym_ul": 988804,
                "contact:phone": "+48 510410510",
                "contact:email": "przedszkole@malyodkrywca.com",
                "contact:website": "http:\/\/www.malyodkrywca.com",
                "ref:regon": "146326501",
                "operator": "Sebastian \u0141ysakowski",
                "operator:type": "private",
                "amenity": "kindergarten"
            }
        },
        {
            "id": 23472,
            "type": "Feature",
            "geometry": {
                "type": "Point",
                "coordinates": [
                    20.9606,
                    52.27364
                ]
            },
            "properties": {
                "ref:rspo": 23472,
                "official_name": "Przedszkole Nr 301 \"Zaczarowany \u015awiat\"",
                "name": "Przedszkole Nr 301 \"Zaczarowany \u015awiat\"",
                "addr:country": "PL",
                "addr:postcode": "01-891",
                "addr:city": "Warszawa",
                "addr:street": "ul. Leopolda Staffa",
                "addr:housenumber": "7b",
                "addr:teryt:simc": 20798,
                "addr:teryt:sym_ul": 988804,
                "contact:phone": "+48 228353873",
                "contact:email": "p301@edu.um.warszawa.pl",
                "contact:website": "http:\/\/www.przedszkole301.waw.szkolnastrona.pl",
                "ref:regon": "012524573",
                "ref:vatin": "PL1180036476",
                "operator": "Bielany",
                "operator:type": "government",
                "amenity": "kindergarten"
            }
        },
        {
            "id": 123241,
            "type": "Feature",
            "geometry": {
                "type": "Point",
                "coordinates": [
                    20.92052,
                    52.27402
                ]
            },
            "properties": {
                "ref:rspo": 123241,
                "official_name": "Przedszkole Nr 422",
                "name": "Przedszkole Nr 422",
                "addr:country": "PL",
                "addr:postcode": "01-929",
                "addr:city": "Warszawa",
                "addr:street": "ul. Br\u0105zownicza",
                "addr:housenumber": "17",
                "addr:teryt:simc": 2070,
                "addr:teryt:sym_ul": 988804,
                "contact:phone": "+48 226696229",
                "contact:email": "p422@edu.um.warszawa.pl",
                "contact:website": "http:\/\/www.przedszkole422.waw.pl\/",
                "ref:regon": "147277905",
                "operator": "Bielany",
                "operator:type": "government",
                "amenity": "kindergarten"
            }
        },
        {
            "id": 23505,
            "type": "Feature",
            "geometry": {
                "type": "Point",
                "coordinates": [
                    20.95676,
                    52.27412
                ]
            },
            "properties": {
                "isced:level": "1;2",
                "ref:rspo": 23505,
                "official_name": "Szko\u0142a Podstawowa Nr 187 im. Adama Mickiewicza",
                "name": "Szko\u0142a Podstawowa Nr 187",
                "addr:country": "PL",
                "addr:postcode": "01-884",
                "addr:city": "Warszawa",
                "addr:street": "ul. Leopolda Staffa",
                "addr:housenumber": "21",
                "addr:teryt:simc": 20798,
                "addr:teryt:sym_ul": 988804,
                "contact:phone": "+48 228340387",
                "contact:email": "sp187@edu.um.warszawa.pl",
                "contact:website": "https:\/\/sp187warszawa.edupage.org\/",
                "ref:regon": "011339017",
                "ref:vatin": "PL1180133073",
                "operator": "Bielany",
                "operator:type": "government",
                "amenity": "school"
            }
        },
        {
            "id": 34499,
            "type": "Feature",
            "geometry": {
                "type": "Point",
                "coordinates": [
                    20.94861,
                    52.27416
                ]
            },
            "properties": {
                "isced:level": "1;2",
                "ref:rspo": 34499,
                "official_name": "Szko\u0142a Podstawowa Z Oddzia\u0142ami Integracyjnymi Nr 214 im. Stanis\u0142awa Skrypija",
                "name": "Szko\u0142a Podstawowa Z Oddzia\u0142ami Integracyjnymi Nr 214",
                "addr:country": "PL",
                "addr:postcode": "01-835",
                "addr:city": "Warszawa",
                "addr:street": "ul. Antoniego Fontany",
                "addr:housenumber": "1",
                "addr:teryt:simc": 5119,
                "addr:teryt:sym_ul": 988804,
                "contact:phone": "+48 228346568",
                "contact:email": "sekretariat@spnr214.pl",
                "contact:website": "http:\/\/www.spnr214.pl",
                "ref:regon": "010409974",
                "operator": "Bielany",
                "operator:type": "government",
                "amenity": "school"
            }
        },
        {
            "id": 23496,
            "type": "Feature",
            "geometry": {
                "type": "Point",
                "coordinates": [
                    20.949,
                    52.27445
                ]
            },
            "properties": {
                "ref:rspo": 23496,
                "official_name": "Przedszkole Nr 236 \"Mali Odkrywcy\"",
                "name": "Przedszkole Nr 236 \"Mali Odkrywcy\"",
                "addr:country": "PL",
                "addr:postcode": "01-884",
                "addr:city": "Warszawa",
                "addr:street": "ul. Antoniego Fontany",
                "addr:housenumber": "2",
                "addr:teryt:simc": 5119,
                "addr:teryt:sym_ul": 988804,
                "contact:phone": "+48 228346585",
                "contact:email": "p236@edu.um.warszawa.pl",
                "contact:website": "http:\/\/www.p236maliodkrywcy.edupage.org",
                "ref:regon": "012524656",
                "ref:vatin": "PL1180133386",
                "operator": "Bielany",
                "operator:type": "government",
                "amenity": "kindergarten"
            }
        },
        {
            "id": 23500,
            "type": "Feature",
            "geometry": {
                "type": "Point",
                "coordinates": [
                    20.94145,
                    52.27469
                ]
            },
            "properties": {
                "ref:rspo": 23500,
                "official_name": "Przedszkole Nr 307 \"Weso\u0142e Ekoludki\"",
                "name": "Przedszkole Nr 307 \"Weso\u0142e Ekoludki\"",
                "addr:country": "PL",
                "addr:postcode": "01-833",
                "addr:city": "Warszawa",
                "addr:street": "ul. Ksi\u0119garzy",
                "addr:housenumber": "9",
                "addr:teryt:simc": 10235,
                "addr:teryt:sym_ul": 988804,
                "contact:phone": "+48 228347943",
                "contact:email": "p307@edu.um.warszawa.pl",
                "contact:website": "http:\/\/www.p307.pl",
                "ref:regon": "012524596",
                "ref:vatin": "PL1180036507",
                "operator": "Bielany",
                "operator:type": "government",
                "amenity": "kindergarten"
            }
        },
        {
            "id": 90990,
            "type": "Feature",
            "geometry": {
                "type": "Point",
                "coordinates": [
                    20.93113,
                    52.27483
                ]
            },
            "properties": {
                "ref:rspo": 90990,
                "official_name": "Przedszkola Pomara\u0144czowa Ciuchcia Sp. Z O.o. Sp\u00f3\u0142ka Komandytowa",
                "name": "Przedszkola Pomara\u0144czowa Ciuchcia Sp. Z O.o. Sp\u00f3\u0142ka Komandytowa",
                "addr:country": "PL",
                "addr:postcode": "01-904",
                "addr:city": "Warszawa",
                "addr:street": "ul. Jerzego Bajana",
                "addr:housenumber": "35",
                "addr:teryt:simc": 600,
                "addr:teryt:sym_ul": 988804,
                "contact:phone": "+48 690997933",
                "contact:email": "bielany@pomaranczowa-ciuchcia.pl",
                "contact:website": "http:\/\/pomaranczowa-ciuchcia.pl",
                "ref:regon": "146440734",
                "operator": "Przedszkola Pomara\u0144czowa Ciuchcia Sp\u00f3\u0142ka Z Ograniczon\u0105 Odpowiedzialno\u015bci\u0105",
                "operator:type": "private",
                "amenity": "kindergarten"
            }
        },
        {
            "id": 269109,
            "type": "Feature",
            "geometry": {
                "type": "Point",
                "coordinates": [
                    20.93113,
                    52.2748
                ]
            },
            "properties": {
                "ref:rspo": 269109,
                "official_name": "Niepubliczna Poradnia Psychologiczno-Pedagogiczna Auris",
                "name": "Niepubliczna Poradnia Psychologiczno-Pedagogiczna Auris",
                "addr:country": "PL",
                "addr:postcode": "01-904",
                "addr:city": "Warszawa",
                "addr:street": "ul. Jerzego Bajana",
                "addr:housenumber": "35",
                "addr:teryt:simc": 600,
                "addr:teryt:sym_ul": 988804,
                "contact:phone": "+48 602245265",
                "contact:email": "dyrektor@poradnia-auris.pl",
                "ref:regon": "381370931",
                "operator": "Przedszkola Pomara\u0144czowa Ciuchcia Sp\u00f3\u0142ka Z Ograniczon\u0105 Odpowiedzialno\u015bci\u0105",
                "operator:type": "private",
                "healthcare": "counselling",
                "counselling_type": "education",
                "fixme": "w zale\u017cno\u015bci od przedmiotu dzia\u0142alno\u015bci (np. healthcare=counselling + counselling_type=education albo healthcare=psychotherapist)"
            }
        },
        {
            "id": 23478,
            "type": "Feature",
            "geometry": {
                "type": "Point",
                "coordinates": [
                    20.95648,
                    52.27492
                ]
            },
            "properties": {
                "ref:rspo": 23478,
                "official_name": "Przedszkole Nr 182 \"Tajemniczy Ogr\u00f3d\"",
                "name": "Przedszkole Nr 182 \"Tajemniczy Ogr\u00f3d\"",
                "addr:country": "PL",
                "addr:postcode": "01-886",
                "addr:city": "Warszawa",
                "addr:street": "ul. Zofii Na\u0142kowskiej",
                "addr:housenumber": "3",
                "addr:teryt:simc": 13967,
                "addr:teryt:sym_ul": 988804,
                "contact:phone": "+48 226696685",
                "contact:email": "p182@edu.um.warszawa.pl",
                "contact:website": "http:\/\/ww.przedszkole182.waw.pl",
                "ref:regon": "012525489",
                "ref:vatin": "PL1180135600",
                "operator": "Bielany",
                "operator:type": "government",
                "amenity": "kindergarten"
            }
        },
        {
            "id": 23486,
            "type": "Feature",
            "geometry": {
                "type": "Point",
                "coordinates": [
                    20.94821,
                    52.27514
                ]
            },
            "properties": {
                "isced:level": "3",
                "ref:rspo": 23486,
                "official_name": "Xxii Liceum Og\u00f3lnokszta\u0142c\u0105ce Z Oddzia\u0142ami Dwuj\u0119zycznymi im. Jos\u00e9 Mart\u00ed",
                "name": "Xxii Liceum Og\u00f3lnokszta\u0142c\u0105ce Z Oddzia\u0142ami Dwuj\u0119zycznymi",
                "addr:country": "PL",
                "addr:postcode": "01-884",
                "addr:city": "Warszawa",
                "addr:street": "ul. Leopolda Staffa",
                "addr:housenumber": "111",
                "addr:teryt:simc": 20798,
                "addr:teryt:sym_ul": 988804,
                "contact:phone": "+48 228340357",
                "contact:email": "sekretariat@josemarti.pl",
                "contact:website": "http:\/\/josemarti.pl",
                "ref:regon": "016415042",
                "ref:vatin": "PL1181742420",
                "operator": "Bielany",
                "operator:type": "government",
                "amenity": "school"
            }
        },
        {
            "id": 29755,
            "type": "Feature",
            "geometry": {
                "type": "Point",
                "coordinates": [
                    20.9686,
                    52.27546
                ]
            },
            "properties": {
                "isced:level": "3",
                "ref:rspo": 29755,
                "official_name": "Liceum Og\u00f3lnokszta\u0142c\u0105ce Nr 50 Stowarzyszenie Kultury I Edukacji",
                "name": "Liceum Og\u00f3lnokszta\u0142c\u0105ce Nr 50 Stowarzyszenie Kultury I Edukacji",
                "addr:country": "PL",
                "addr:postcode": "01-692",
                "addr:city": "Warszawa",
                "addr:street": "ul. Kolektorska",
                "addr:housenumber": "9\/11",
                "addr:teryt:simc": 8835,
                "addr:teryt:sym_ul": 988804,
                "contact:phone": "+48 228268889",
                "contact:email": "liceum50@skie.pl",
                "ref:regon": "146368623",
                "operator": "Stowarzyszenie Kultury I Edukacji",
                "operator:type": "ngo",
                "amenity": "school"
            }
        },
        {
            "id": 34222,
            "type": "Feature",
            "geometry": {
                "type": "Point",
                "coordinates": [
                    20.9686,
                    52.27543
                ]
            },
            "properties": {
                "isced:level": "1;2",
                "ref:rspo": 34222,
                "official_name": "Szko\u0142a Podstawowa Nr 86 Stowarzyszenia Kultury I Edukacji",
                "name": "Szko\u0142a Podstawowa Nr 86 Stowarzyszenia Kultury I Edukacji",
                "addr:country": "PL",
                "addr:postcode": "01-692",
                "addr:city": "Warszawa",
                "addr:street": "ul. Kolektorska",
                "addr:housenumber": "9\/11",
                "addr:teryt:simc": 8835,
                "addr:teryt:sym_ul": 988804,
                "contact:phone": "+48 228388926",
                "contact:email": "sp86@skie.pl",
                "contact:website": "http:\/\/www.skie.pl",
                "ref:regon": "146355388",
                "ref:vatin": "PL5271045997",
                "operator": "Stowarzyszenie Kultury I Edukacji",
                "operator:type": "ngo",
                "amenity": "school"
            }
        },
        {
            "id": 269591,
            "type": "Feature",
            "geometry": {
                "type": "Point",
                "coordinates": [
                    20.91412,
                    52.27559
                ]
            },
            "properties": {
                "ref:rspo": 269591,
                "official_name": "Niepubliczne Przedszkole Kreatywne Dzieci",
                "name": "Niepubliczne Przedszkole Kreatywne Dzieci",
                "addr:country": "PL",
                "addr:postcode": "01-925",
                "addr:city": "Warszawa",
                "addr:street": "ul. Maszewska",
                "addr:housenumber": "20",
                "addr:door": "u2",
                "addr:teryt:simc": 12460,
                "addr:teryt:sym_ul": 988804,
                "contact:phone": "+48 534676222",
                "contact:email": "biuro@kreatywnedzieci.waw.pl",
                "ref:regon": "381581734",
                "operator": "Anna K\u00fcnstler",
                "operator:type": "private",
                "amenity": "kindergarten"
            }
        },
        {
            "id": 23501,
            "type": "Feature",
            "geometry": {
                "type": "Point",
                "coordinates": [
                    20.93067,
                    52.27596
                ]
            },
            "properties": {
                "isced:level": "1;2",
                "ref:rspo": 23501,
                "official_name": "Szko\u0142a Podstawowa Nr 80 im. Marii Kownackiej",
                "name": "Szko\u0142a Podstawowa Nr 80",
                "addr:country": "PL",
                "addr:postcode": "01-904",
                "addr:city": "Warszawa",
                "addr:street": "ul. Aspekt",
                "addr:housenumber": "48",
                "addr:teryt:simc": 471,
                "addr:teryt:sym_ul": 988804,
                "contact:phone": "+48 226697937",
                "contact:email": "sp80@edu.um.warszawa.pl",
                "contact:website": "http:\/\/www.sp80.edu.pl",
                "ref:regon": "010412462",
                "ref:vatin": "PL1180138024",
                "operator": "Bielany",
                "operator:type": "government",
                "amenity": "school"
            }
        },
        {
            "id": 14219,
            "type": "Feature",
            "geometry": {
                "type": "Point",
                "coordinates": [
                    20.93909,
                    52.27604
                ]
            },
            "properties": {
                "ref:rspo": 14219,
                "official_name": "Zesp\u00f3\u0142 Plac\u00f3wek Opieku\u0144czo-Wychowawczych",
                "name": "Zesp\u00f3\u0142 Plac\u00f3wek Opieku\u0144czo-Wychowawczych",
                "addr:country": "PL",
                "addr:postcode": "01-842",
                "addr:city": "Warszawa",
                "addr:street": "al. W\u0142adys\u0142awa Stanis\u0142awa Reymonta",
                "addr:housenumber": "16",
                "addr:teryt:simc": 18649,
                "addr:teryt:sym_ul": 988804,
                "contact:phone": "+48 228643836",
                "contact:email": "zpow@zpow.eu",
                "contact:website": "http:\/\/www.zpow.eu",
                "ref:regon": "006472007",
                "ref:vatin": "PL1180132010",
                "operator": "Miasto Sto\u0142eczne Warszawa",
                "operator:type": "government",
                "landuse": "education",
                "fixme": "amenity=school, amenity=college albo landuse=education w zale\u017cno\u015bci od tego, jakie plac\u00f3wki wchodz\u0105 w sk\u0142ad zespo\u0142u. Sprawd\u017a, kiedy stosowa\u0107 amenity=* a kiedy landuse=education.",
                "note": "Children RSPO: 105294;105295"
            }
        },
        {
            "id": 105294,
            "type": "Feature",
            "geometry": {
                "type": "Point",
                "coordinates": [
                    20.93909,
                    52.27601
                ]
            },
            "properties": {
                "ref:rspo": 105294,
                "official_name": "Bursa Nr 8",
                "name": "Bursa Nr 8",
                "addr:country": "PL",
                "addr:postcode": "01-842",
                "addr:city": "Warszawa",
                "addr:street": "al. W\u0142adys\u0142awa Stanis\u0142awa Reymonta",
                "addr:housenumber": "16",
                "addr:teryt:simc": 18649,
                "addr:teryt:sym_ul": 988804,
                "contact:phone": "+48 228346302",
                "contact:email": "zpow@zpow.pl",
                "contact:website": "http:\/\/www.zpow.pl",
                "ref:regon": "015858033",
                "operator": "Miasto Sto\u0142eczne Warszawa",
                "operator:type": "government",
                "building": "dormitory",
                "note": "Parent RSPO: 14219"
            }
        },
        {
            "id": 105295,
            "type": "Feature",
            "geometry": {
                "type": "Point",
                "coordinates": [
                    20.93909,
                    52.275980000000004
                ]
            },
            "properties": {
                "ref:rspo": 105295,
                "official_name": "M\u0142odzie\u017cowy O\u015brodek Socjoterapii Nr 4",
                "name": "M\u0142odzie\u017cowy O\u015brodek Socjoterapii Nr 4",
                "addr:country": "PL",
                "addr:postcode": "01-842",
                "addr:city": "Warszawa",
                "addr:street": "al. W\u0142adys\u0142awa Stanis\u0142awa Reymonta",
                "addr:housenumber": "16",
                "addr:teryt:simc": 18649,
                "addr:teryt:sym_ul": 988804,
                "contact:phone": "+48 228348684",
                "contact:email": "zpow@polmedia.com.pl",
                "contact:website": "http:\/\/zpow.eu",
                "ref:regon": "015857967",
                "operator": "Miasto Sto\u0142eczne Warszawa",
                "operator:type": "government",
                "fixme": "amenity=social_facility + social_facility=group_home + social_facility:for=juvenile",
                "note": "Children RSPO: 106323;126161Parent RSPO: 14219"
            }
        },
        {
            "id": 106323,
            "type": "Feature",
            "geometry": {
                "type": "Point",
                "coordinates": [
                    20.93909,
                    52.27595
                ]
            },
            "properties": {
                "isced:level": "1;2",
                "ref:rspo": 106323,
                "official_name": "Szko\u0142a Podstawowa Specjalna Nr 347 w M\u0142odzie\u017cowym O\u015brodku Socjoterapii Nr 4 w Zespole Plac\u00f3wek Opieku\u0144czo-Wychowawczych",
                "name": "Szko\u0142a Podstawowa Specjalna Nr 347 w M\u0142odzie\u017cowym O\u015brodku Socjoterapii Nr 4 w Zespole Plac\u00f3wek Opieku\u0144czo-Wychowawczych",
                "addr:country": "PL",
                "addr:postcode": "01-842",
                "addr:city": "Warszawa",
                "addr:street": "al. W\u0142adys\u0142awa Stanis\u0142awa Reymonta",
                "addr:housenumber": "16",
                "addr:teryt:simc": 18649,
                "addr:teryt:sym_ul": 988804,
                "contact:phone": "+48 228348684",
                "contact:email": "zpow@zpow.eu",
                "contact:website": "http:\/\/zpow.eu",
                "ref:regon": "015858056",
                "operator": "Miasto Sto\u0142eczne Warszawa",
                "operator:type": "government",
                "amenity": "school",
                "note": "Parent RSPO: 105295"
            }
        },
        {
            "id": 126161,
            "type": "Feature",
            "geometry": {
                "type": "Point",
                "coordinates": [
                    20.93909,
                    52.27592
                ]
            },
            "properties": {
                "isced:level": "3",
                "ref:rspo": 126161,
                "official_name": "Cxli Liceum Og\u00f3lnokszta\u0142c\u0105ce Specjalne",
                "name": "Cxli Liceum Og\u00f3lnokszta\u0142c\u0105ce Specjalne",
                "addr:country": "PL",
                "addr:postcode": "01-842",
                "addr:city": "Warszawa",
                "addr:street": "al. W\u0142adys\u0142awa Stanis\u0142awa Reymonta",
                "addr:housenumber": "16",
                "addr:teryt:simc": 18649,
                "addr:teryt:sym_ul": 988804,
                "contact:phone": "+48 228348684",
                "contact:email": "zpow@zpow.eu",
                "contact:website": "http:\/\/zpow.eu",
                "ref:regon": "360163163",
                "operator": "Miasto Sto\u0142eczne Warszawa",
                "operator:type": "government",
                "amenity": "school",
                "note": "Parent RSPO: 105295"
            }
        },
        {
            "id": 133677,
            "type": "Feature",
            "geometry": {
                "type": "Point",
                "coordinates": [
                    20.94104,
                    52.2763
                ]
            },
            "properties": {
                "isced:level": "1;2",
                "ref:rspo": 133677,
                "official_name": "Szko\u0142a Podstawowa Nr 369 im. Antoniego Boles\u0142awa Dobrowolskiego",
                "name": "Szko\u0142a Podstawowa Nr 369",
                "addr:country": "PL",
                "addr:postcode": "01-849",
                "addr:city": "Warszawa",
                "addr:street": "ul. Stanis\u0142awa Przybyszewskiego",
                "addr:housenumber": "45",
                "addr:teryt:simc": 17892,
                "addr:teryt:sym_ul": 988804,
                "contact:phone": "+48 228340673",
                "contact:email": "sp369@edu.um.warszawa.pl",
                "contact:website": "http:\/\/www.sp369.edupage.org",
                "ref:regon": "367529006",
                "ref:vatin": "PL1182148914",
                "operator": "Bielany",
                "operator:type": "government",
                "amenity": "school"
            }
        },
        {
            "id": 126192,
            "type": "Feature",
            "geometry": {
                "type": "Point",
                "coordinates": [
                    20.95112,
                    52.27677
                ]
            },
            "properties": {
                "ref:rspo": 126192,
                "official_name": "Niepubliczna Poradnia Psychologiczno-Pedagogiczna \"Edukacja\"",
                "name": "Niepubliczna Poradnia Psychologiczno-Pedagogiczna \"Edukacja\"",
                "addr:country": "PL",
                "addr:postcode": "01-819",
                "addr:city": "Warszawa",
                "addr:street": "ul. Stefana \u017beromskiego",
                "addr:housenumber": "14",
                "addr:teryt:simc": 26469,
                "addr:teryt:sym_ul": 988804,
                "contact:phone": "+48 606253600",
                "contact:email": "poradnia.edukacja@wp.pl",
                "ref:regon": "360170312",
                "operator": "Anna Iwa\u0144ska",
                "operator:type": "private",
                "healthcare": "counselling",
                "counselling_type": "education",
                "fixme": "w zale\u017cno\u015bci od przedmiotu dzia\u0142alno\u015bci (np. healthcare=counselling + counselling_type=education albo healthcare=psychotherapist)"
            }
        },
        {
            "id": 31731,
            "type": "Feature",
            "geometry": {
                "type": "Point",
                "coordinates": [
                    20.94307,
                    52.27694
                ]
            },
            "properties": {
                "ref:rspo": 31731,
                "official_name": "Punkt Przedszkolny \"Brzd\u0105ce Na \u0141\u0105ce\"",
                "name": "Punkt Przedszkolny \"Brzd\u0105ce Na \u0141\u0105ce\"",
                "addr:country": "PL",
                "addr:postcode": "01-851",
                "addr:city": "Warszawa",
                "addr:street": "ul. Kleczewska",
                "addr:housenumber": "23",
                "addr:teryt:simc": 8493,
                "addr:teryt:sym_ul": 988804,
                "contact:phone": "+48 604640261",
                "contact:email": "kontakt@brzdacenalace.pl",
                "contact:website": "http:\/\/www.brzdacenalace.pl",
                "ref:regon": "146350971",
                "operator": "Ma\u0142gorzata Brach",
                "operator:type": "private",
                "amenity": "kindergarten"
            }
        },
        {
            "id": 23466,
            "type": "Feature",
            "geometry": {
                "type": "Point",
                "coordinates": [
                    20.947780609131,
                    52.276969909668
                ]
            },
            "properties": {
                "ref:rspo": 23466,
                "official_name": "Przedszkole Z Oddzia\u0142ami Integracyjnymi Nr 309 \"Ba\u015bniowa Kraina\"",
                "name": "Przedszkole Z Oddzia\u0142ami Integracyjnymi Nr 309 \"Ba\u015bniowa Kraina\"",
                "addr:country": "PL",
                "addr:postcode": "01-893",
                "addr:city": "Warszawa",
                "addr:street": "ul. Hansa Christiana Andersena",
                "addr:housenumber": "7",
                "addr:teryt:simc": 289,
                "addr:teryt:sym_ul": 988804,
                "contact:phone": "+48 226631291",
                "contact:email": "p309@edu.um.warszawa.pl",
                "contact:website": "http:\/\/www.przedszkole309.pl",
                "ref:regon": "012524521",
                "ref:vatin": "PL1180474615",
                "operator": "Bielany",
                "operator:type": "government",
                "amenity": "kindergarten"
            }
        },
        {
            "id": 23480,
            "type": "Feature",
            "geometry": {
                "type": "Point",
                "coordinates": [
                    20.947780609131,
                    52.276939909667995
                ]
            },
            "properties": {
                "ref:rspo": 23480,
                "official_name": "Przedszkole Nr 327 \"Kolorowa Kraina\"",
                "name": "Przedszkole Nr 327 \"Kolorowa Kraina\"",
                "addr:country": "PL",
                "addr:postcode": "01-922",
                "addr:city": "Warszawa",
                "addr:street": "ul. Josepha Conrada",
                "addr:housenumber": "10a",
                "addr:teryt:simc": 3124,
                "addr:teryt:sym_ul": 988804,
                "contact:phone": "+48 226697242",
                "contact:email": "p327@edu.um.warszawa.pl",
                "contact:website": "http:\/\/kolorowakraina.waw.pl",
                "ref:regon": "012524538",
                "ref:vatin": "PL1180036482",
                "operator": "Bielany",
                "operator:type": "government",
                "amenity": "kindergarten"
            }
        },
        {
            "id": 23509,
            "type": "Feature",
            "geometry": {
                "type": "Point",
                "coordinates": [
                    20.947780609131,
                    52.276909909668
                ]
            },
            "properties": {
                "isced:level": "1;2",
                "ref:rspo": 23509,
                "official_name": "Szko\u0142a Podstawowa Nr 273 im. Dr. Aleksandra Landy",
                "name": "Szko\u0142a Podstawowa Nr 273",
                "addr:country": "PL",
                "addr:postcode": "01-944",
                "addr:city": "Warszawa",
                "addr:street": "ul. J\u00f3zefa Balcerzaka",
                "addr:housenumber": "1",
                "addr:teryt:simc": 624,
                "addr:teryt:sym_ul": 988804,
                "contact:phone": "+48 228346474",
                "contact:email": "sp273@edu.um.warszawa.pl",
                "contact:website": "http:\/\/www.szkola273.edu.pl",
                "ref:regon": "010412798",
                "ref:vatin": "PL1180135907",
                "operator": "Bielany",
                "operator:type": "government",
                "amenity": "school",
                "note": "Children RSPO: 109690"
            }
        },
        {
            "id": 26484,
            "type": "Feature",
            "geometry": {
                "type": "Point",
                "coordinates": [
                    20.947780609131,
                    52.276879909668
                ]
            },
            "properties": {
                "ref:rspo": 26484,
                "official_name": "M\u0142odzie\u017cowy Dom Kultury im. Marii Gwizdak",
                "name": "M\u0142odzie\u017cowy Dom Kultury",
                "addr:country": "PL",
                "addr:postcode": "01-911",
                "addr:city": "Warszawa",
                "addr:street": "ul. Hansa Christiana Andersena",
                "addr:housenumber": "4",
                "addr:teryt:simc": 289,
                "addr:teryt:sym_ul": 988804,
                "contact:phone": "+48 228359347",
                "contact:email": "sekretariat@mdkandersena.pl",
                "contact:website": "http:\/\/www.mdkandersena.edupage.org",
                "ref:regon": "010410240",
                "ref:vatin": "PL1180126044",
                "operator": "Bielany",
                "operator:type": "government",
                "amenity": "community_centre",
                "community_centre:for": "juvenile"
            }
        },
        {
            "id": 27158,
            "type": "Feature",
            "geometry": {
                "type": "Point",
                "coordinates": [
                    20.947780609131,
                    52.276849909667995
                ]
            },
            "properties": {
                "isced:level": "3",
                "ref:rspo": 27158,
                "official_name": "Lix Liceum Og\u00f3lnokszta\u0142c\u0105ce Mistrzostwa Sportowego im. Janusza Kusoci\u0144skiego",
                "name": "Lix Liceum Og\u00f3lnokszta\u0142c\u0105ce Mistrzostwa Sportowego",
                "addr:country": "PL",
                "addr:postcode": "01-952",
                "addr:city": "Warszawa",
                "addr:street": "ul. Samuela Bogumi\u0142a Lindego",
                "addr:housenumber": "20",
                "addr:teryt:simc": 11081,
                "addr:teryt:sym_ul": 988804,
                "contact:phone": "+48 228348658",
                "contact:email": "lo59@edu.um.warszawa.pl",
                "contact:website": "http:\/\/www.kusy.edu.pl",
                "ref:regon": "015762623",
                "ref:vatin": "PL1180133050",
                "operator": "Bielany",
                "operator:type": "government",
                "amenity": "school"
            }
        },
        {
            "id": 34510,
            "type": "Feature",
            "geometry": {
                "type": "Point",
                "coordinates": [
                    20.947780609131,
                    52.276819909668
                ]
            },
            "properties": {
                "isced:level": "3",
                "ref:rspo": 34510,
                "official_name": "Xxxix Liceum Og\u00f3lnokszta\u0142c\u0105ce im. Lotnictwa Polskiego",
                "name": "Xxxix Liceum Og\u00f3lnokszta\u0142c\u0105ce",
                "addr:country": "PL",
                "addr:postcode": "01-806",
                "addr:city": "Warszawa",
                "addr:street": "ul. Bogumi\u0142a Zuga",
                "addr:housenumber": "16",
                "addr:teryt:simc": 26274,
                "addr:teryt:sym_ul": 988804,
                "contact:phone": "+48 228346033",
                "contact:email": "lo39@edu.um.warszawa.pl",
                "contact:website": "http:\/\/lo39.pl",
                "ref:regon": "000959719",
                "operator": "Bielany",
                "operator:type": "government",
                "amenity": "school"
            }
        },
        {
            "id": 275994,
            "type": "Feature",
            "geometry": {
                "type": "Point",
                "coordinates": [
                    20.9632129,
                    52.2772152
                ]
            },
            "properties": {
                "ref:rspo": 275994,
                "official_name": "Punkt Przedszkolny \"Blisko-Nasze Miejsce Na Bielanach\"",
                "name": "Punkt Przedszkolny \"Blisko-Nasze Miejsce Na Bielanach\"",
                "addr:country": "PL",
                "addr:postcode": "01-695",
                "addr:city": "Warszawa",
                "addr:street": "ul. Chlewi\u0144ska",
                "addr:housenumber": "18",
                "addr:door": "20",
                "addr:teryt:simc": 2725,
                "addr:teryt:sym_ul": 988804,
                "contact:phone": "+48 600816952",
                "contact:email": "kontakt@blisko-bielany.pl",
                "ref:regon": "386963966",
                "operator": "Anna Wrzyszcz",
                "operator:type": "private",
                "amenity": "kindergarten"
            }
        },
        {
            "id": 26481,
            "type": "Feature",
            "geometry": {
                "type": "Point",
                "coordinates": [
                    20.9487099,
                    52.27729
                ]
            },
            "properties": {
                "ref:rspo": 26481,
                "official_name": "Zesp\u00f3\u0142 Szk\u00f3\u0142 Nr 35 im. Zofii Jaroszewicz \"Kasi\"",
                "name": "Zesp\u00f3\u0142 Szk\u00f3\u0142 Nr 35",
                "addr:country": "PL",
                "addr:postcode": "01-831",
                "addr:city": "Warszawa",
                "addr:street": "ul. Stefana \u017beromskiego",
                "addr:housenumber": "22\/28",
                "addr:teryt:simc": 26469,
                "addr:teryt:sym_ul": 988804,
                "contact:phone": "+48 228343264",
                "contact:email": "zs35@zs35.pl",
                "contact:website": "http:\/\/www.zs35.pl",
                "ref:regon": "000829738",
                "ref:vatin": "PL1180077742",
                "operator": "Bielany",
                "operator:type": "government",
                "landuse": "education",
                "fixme": "amenity=school, amenity=college albo landuse=education w zale\u017cno\u015bci od tego, jakie plac\u00f3wki wchodz\u0105 w sk\u0142ad zespo\u0142u. Sprawd\u017a, kiedy stosowa\u0107 amenity=* a kiedy landuse=education.",
                "note": "Children RSPO: 27281;27283"
            }
        },
        {
            "id": 27281,
            "type": "Feature",
            "geometry": {
                "type": "Point",
                "coordinates": [
                    20.9487099,
                    52.27726
                ]
            },
            "properties": {
                "isced:level": "3",
                "ref:rspo": 27281,
                "official_name": "Bran\u017cowa Szko\u0142a I Stopnia Nr 18",
                "name": "Bran\u017cowa Szko\u0142a I Stopnia Nr 18",
                "addr:country": "PL",
                "addr:postcode": "01-831",
                "addr:city": "Warszawa",
                "addr:street": "ul. Stefana \u017beromskiego",
                "addr:housenumber": "22\/28",
                "addr:teryt:simc": 26469,
                "addr:teryt:sym_ul": 988804,
                "contact:phone": "+48 228343264",
                "contact:email": "zs35@zs35.pl",
                "contact:website": "http:\/\/www.zs35.pl",
                "ref:regon": "015761374",
                "operator": "Bielany",
                "operator:type": "government",
                "amenity": "school",
                "note": "Parent RSPO: 26481"
            }
        },
        {
            "id": 27283,
            "type": "Feature",
            "geometry": {
                "type": "Point",
                "coordinates": [
                    20.9487099,
                    52.27723
                ]
            },
            "properties": {
                "isced:level": "3",
                "ref:rspo": 27283,
                "official_name": "Technikum Ekonomiczne Nr 5",
                "name": "Technikum Ekonomiczne Nr 5",
                "addr:country": "PL",
                "addr:postcode": "01-831",
                "addr:city": "Warszawa",
                "addr:street": "ul. Stefana \u017beromskiego",
                "addr:housenumber": "22\/28",
                "addr:teryt:simc": 26469,
                "addr:teryt:sym_ul": 988804,
                "contact:phone": "+48 228343264",
                "contact:email": "zs35@zs35.pl",
                "contact:website": "http:\/\/www.zs35.pl",
                "ref:regon": "015761339",
                "operator": "Bielany",
                "operator:type": "government",
                "amenity": "school",
                "note": "Parent RSPO: 26481"
            }
        },
        {
            "id": 274013,
            "type": "Feature",
            "geometry": {
                "type": "Point",
                "coordinates": [
                    20.933619999938,
                    52.277375000011
                ]
            },
            "properties": {
                "ref:rspo": 274013,
                "official_name": "Przedszkole Niepubliczne Viva Kids",
                "name": "Przedszkole Niepubliczne Viva Kids",
                "addr:country": "PL",
                "addr:postcode": "01-905",
                "addr:city": "Warszawa",
                "addr:street": "ul. Renesansowa",
                "addr:housenumber": "20",
                "addr:door": "U1,U2",
                "addr:teryt:simc": 18603,
                "addr:teryt:sym_ul": 988804,
                "contact:phone": "+48 506076951",
                "contact:email": "biuro@vivakids.com.pl",
                "contact:website": "http:\/\/vivakids.com.pl\/",
                "ref:regon": "385012648",
                "operator": "Krzysztof Michalski",
                "operator:type": "private",
                "amenity": "kindergarten"
            }
        },
        {
            "id": 278410,
            "type": "Feature",
            "geometry": {
                "type": "Point",
                "coordinates": [
                    20.97038,
                    52.27739
                ]
            },
            "properties": {
                "ref:rspo": 278410,
                "official_name": "Niepubliczny Punkt Przedszkolny \"8 Krok\u00f3w\"",
                "name": "Niepubliczny Punkt Przedszkolny \"8 Krok\u00f3w\"",
                "addr:country": "PL",
                "addr:postcode": "01-689",
                "addr:city": "Warszawa",
                "addr:street": "ul. Marka H\u0142aski",
                "addr:housenumber": "10A",
                "addr:teryt:simc": 6677,
                "addr:teryt:sym_ul": 988804,
                "contact:phone": "+48 735483395",
                "contact:email": "kontakt@przedszkole8krokow.pl",
                "contact:website": "http:\/\/www.przedszkole8krokow.pl",
                "ref:regon": "389883877",
                "operator": "Edukacja 2.0 Sp\u00f3\u0142ka Z Ograniczon\u0105 Odpowiedzialno\u015bci\u0105",
                "operator:type": "private",
                "amenity": "kindergarten"
            }
        },
        {
            "id": 23465,
            "type": "Feature",
            "geometry": {
                "type": "Point",
                "coordinates": [
                    20.91834,
                    52.27745
                ]
            },
            "properties": {
                "ref:rspo": 23465,
                "official_name": "Przedszkole Nr 340 \"Kasztanowego Ludka\"",
                "name": "Przedszkole Nr 340 \"Kasztanowego Ludka\"",
                "addr:country": "PL",
                "addr:postcode": "01-923",
                "addr:city": "Warszawa",
                "addr:street": "ul. Wojciecha Bogus\u0142awskiego",
                "addr:housenumber": "8a",
                "addr:teryt:simc": 1608,
                "addr:teryt:sym_ul": 988804,
                "contact:phone": "+48 228476367",
                "contact:email": "p340@edu.um.warszawa.pl",
                "contact:website": "http:\/\/www.przedszkole340.pl",
                "ref:regon": "012047050",
                "ref:vatin": "PL1180131594",
                "operator": "Bielany",
                "operator:type": "government",
                "amenity": "kindergarten"
            }
        },
        {
            "id": 23491,
            "type": "Feature",
            "geometry": {
                "type": "Point",
                "coordinates": [
                    20.94007,
                    52.27754
                ]
            },
            "properties": {
                "ref:rspo": 23491,
                "official_name": "Zesp\u00f3\u0142 Szk\u00f3\u0142 Nr 18",
                "name": "Zesp\u00f3\u0142 Szk\u00f3\u0142 Nr 18",
                "addr:country": "PL",
                "addr:postcode": "01-882",
                "addr:city": "Warszawa",
                "addr:street": "ul. Stefana \u017beromskiego",
                "addr:housenumber": "81",
                "addr:teryt:simc": 26469,
                "addr:teryt:sym_ul": 988804,
                "contact:phone": "+48 228347201",
                "contact:email": "dyrekcja@zs18.edu.pl",
                "contact:website": "http:\/\/zs18.edu.pl",
                "ref:regon": "000190213",
                "ref:vatin": "PL1180130531",
                "operator": "Bielany",
                "operator:type": "government",
                "landuse": "education",
                "fixme": "amenity=school, amenity=college albo landuse=education w zale\u017cno\u015bci od tego, jakie plac\u00f3wki wchodz\u0105 w sk\u0142ad zespo\u0142u. Sprawd\u017a, kiedy stosowa\u0107 amenity=* a kiedy landuse=education.",
                "note": "Children RSPO: 34513;34515;34516"
            }
        },
        {
            "id": 34513,
            "type": "Feature",
            "geometry": {
                "type": "Point",
                "coordinates": [
                    20.94007,
                    52.27751
                ]
            },
            "properties": {
                "isced:level": "3",
                "ref:rspo": 34513,
                "official_name": "Lii Liceum Og\u00f3lnokszta\u0142c\u0105ce im. W\u0142adys\u0142awa Stanis\u0142awa Reymonta",
                "name": "Lii Liceum Og\u00f3lnokszta\u0142c\u0105ce",
                "addr:country": "PL",
                "addr:postcode": "01-882",
                "addr:city": "Warszawa",
                "addr:street": "ul. Stefana \u017beromskiego",
                "addr:housenumber": "81",
                "addr:teryt:simc": 26469,
                "addr:teryt:sym_ul": 988804,
                "contact:phone": "+48 228347201",
                "contact:email": "dyrekcja@zs18.edu.pl",
                "contact:website": "http:\/\/zs18.szkolnastrona.pl",
                "ref:regon": "015768070",
                "operator": "Bielany",
                "operator:type": "government",
                "amenity": "school",
                "note": "Parent RSPO: 23491"
            }
        },
        {
            "id": 34515,
            "type": "Feature",
            "geometry": {
                "type": "Point",
                "coordinates": [
                    20.94007,
                    52.277480000000004
                ]
            },
            "properties": {
                "isced:level": "3",
                "ref:rspo": 34515,
                "official_name": "Technikum Ksi\u0119garskie im. Stefana \u017beromskiego",
                "name": "Technikum Ksi\u0119garskie",
                "addr:country": "PL",
                "addr:postcode": "01-882",
                "addr:city": "Warszawa",
                "addr:street": "ul. Stefana \u017beromskiego",
                "addr:housenumber": "81",
                "addr:teryt:simc": 26469,
                "addr:teryt:sym_ul": 988804,
                "contact:phone": "+48 228347201",
                "contact:email": "dyrekcja@zs18.edu.pl",
                "contact:website": "http:\/\/zs18.szkolnastrona.pl",
                "ref:regon": "015767997",
                "operator": "Bielany",
                "operator:type": "government",
                "amenity": "school",
                "note": "Parent RSPO: 23491"
            }
        },
        {
            "id": 34516,
            "type": "Feature",
            "geometry": {
                "type": "Point",
                "coordinates": [
                    20.94007,
                    52.27745
                ]
            },
            "properties": {
                "isced:level": "4",
                "ref:rspo": 34516,
                "official_name": "Szko\u0142a Policealna Nr 6",
                "name": "Szko\u0142a Policealna Nr 6",
                "addr:country": "PL",
                "addr:postcode": "01-882",
                "addr:city": "Warszawa",
                "addr:street": "ul. Stefana \u017beromskiego",
                "addr:housenumber": "81",
                "addr:teryt:simc": 26469,
                "addr:teryt:sym_ul": 988804,
                "contact:phone": "+48 228347201",
                "contact:email": "dyrekcja@zs18.edu.pl",
                "ref:regon": "015767968",
                "operator": "Bielany",
                "operator:type": "government",
                "amenity": "college",
                "note": "Parent RSPO: 23491"
            }
        },
        {
            "id": 84930,
            "type": "Feature",
            "geometry": {
                "type": "Point",
                "coordinates": [
                    20.95015,
                    52.27772
                ]
            },
            "properties": {
                "ref:rspo": 84930,
                "official_name": "Przedszkole Si\u00f3str Salezjanek im. \u015awi\u0119tego Dominika Savio w Warszawie",
                "name": "Przedszkole Si\u00f3str Salezjanek",
                "addr:country": "PL",
                "addr:postcode": "01-820",
                "addr:city": "Warszawa",
                "addr:street": "ul. Lisowska",
                "addr:housenumber": "29",
                "addr:teryt:simc": 11191,
                "addr:teryt:sym_ul": 988804,
                "contact:phone": "+48 228340863",
                "contact:email": "dominik@cmw.waw.pl",
                "ref:regon": "146442584",
                "operator": "Zgromadzenie C\u00f3rek Maryi Wspomo\u017cycielki (Siostry Salezjanki) Inspektoria Warszawska",
                "operator:type": "religious",
                "amenity": "kindergarten"
            }
        },
        {
            "id": 23504,
            "type": "Feature",
            "geometry": {
                "type": "Point",
                "coordinates": [
                    20.9496,
                    52.27821
                ]
            },
            "properties": {
                "isced:level": "1;2",
                "ref:rspo": 23504,
                "official_name": "Szko\u0142a Podstawowa Nr 133 im. Stefana Czarnieckiego",
                "name": "Szko\u0142a Podstawowa Nr 133",
                "addr:country": "PL",
                "addr:postcode": "01-835",
                "addr:city": "Warszawa",
                "addr:street": "ul. Antoniego Fontany",
                "addr:housenumber": "3",
                "addr:teryt:simc": 5119,
                "addr:teryt:sym_ul": 988804,
                "contact:phone": "+48 228342831",
                "ref:regon": "010412380",
                "ref:vatin": "PL1180130442",
                "operator": "Bielany",
                "operator:type": "government",
                "amenity": "school"
            }
        },
        {
            "id": 23469,
            "type": "Feature",
            "geometry": {
                "type": "Point",
                "coordinates": [
                    20.95899,
                    52.27837
                ]
            },
            "properties": {
                "ref:rspo": 23469,
                "official_name": "Przedszkole Specjalne Nr 245 dla Dzieci S\u0142abowidz\u0105cych \"Sowy M\u0105drej G\u0142owy\"",
                "name": "Przedszkole Specjalne Nr 245 dla Dzieci S\u0142abowidz\u0105cych \"Sowy M\u0105drej G\u0142owy\"",
                "addr:country": "PL",
                "addr:postcode": "01-870",
                "addr:city": "Warszawa",
                "addr:street": "ul. Ksawerego Pruszy\u0144skiego",
                "addr:housenumber": "1",
                "addr:teryt:simc": 17598,
                "addr:teryt:sym_ul": 988804,
                "contact:phone": "+48 228340689",
                "contact:email": "p245@edu.um.warszawa.pl",
                "contact:website": "http:\/\/www.przedszkole245.waw.pl",
                "ref:regon": "011099576",
                "ref:vatin": "PL1181396509",
                "operator": "Bielany",
                "operator:type": "government",
                "amenity": "kindergarten"
            }
        },
        {
            "id": 266391,
            "type": "Feature",
            "geometry": {
                "type": "Point",
                "coordinates": [
                    20.95464,
                    52.27897
                ]
            },
            "properties": {
                "ref:rspo": 266391,
                "official_name": "Niepubliczna Plac\u00f3wka O\u015bwiatowa Hallmark Events Katarzyna Sagun",
                "name": "Niepubliczna Plac\u00f3wka O\u015bwiatowa Hallmark Events Katarzyna Sagun",
                "addr:country": "PL",
                "addr:postcode": "01-817",
                "addr:city": "Warszawa",
                "addr:street": "ul. Jana Kasprowicza",
                "addr:housenumber": "31",
                "addr:door": "3",
                "addr:teryt:simc": 8153,
                "addr:teryt:sym_ul": 988804,
                "contact:phone": "+48 222252850",
                "contact:email": "katarzyna.sagun@he.waw.pl",
                "ref:regon": "369468993",
                "operator": "Katarzyna Sagun",
                "operator:type": "private",
                "fixme": "w zale\u017cno\u015bci od przedmiotu dzia\u0142alno\u015bci (np. amenity=training + training=*, amenity=dancing_school, amenity=language_school, amenity=music_school)"
            }
        },
        {
            "id": 132354,
            "type": "Feature",
            "geometry": {
                "type": "Point",
                "coordinates": [
                    20.94419,
                    52.27935
                ]
            },
            "properties": {
                "isced:level": "1;2",
                "ref:rspo": 132354,
                "official_name": "Niepubliczna Szko\u0142a Podstawowa Fundacji Scolar",
                "name": "Niepubliczna Szko\u0142a Podstawowa Fundacji Scolar",
                "addr:country": "PL",
                "addr:postcode": "01-851",
                "addr:city": "Warszawa",
                "addr:street": "ul. Kleczewska",
                "addr:housenumber": "50",
                "addr:teryt:simc": 8493,
                "addr:teryt:sym_ul": 988804,
                "contact:phone": "+48 228484324",
                "contact:email": "szkola@scolar.pl",
                "ref:regon": "365563714",
                "operator": "Fundacja Scolar",
                "operator:type": "ngo",
                "amenity": "school"
            }
        },
        {
            "id": 23477,
            "type": "Feature",
            "geometry": {
                "type": "Point",
                "coordinates": [
                    20.95818,
                    52.27939
                ]
            },
            "properties": {
                "ref:rspo": 23477,
                "official_name": "Przedszkole Nr 181 \"Weso\u0142e Nutki\"",
                "name": "Przedszkole Nr 181 \"Weso\u0142e Nutki\"",
                "addr:country": "PL",
                "addr:postcode": "01-870",
                "addr:city": "Warszawa",
                "addr:street": "ul. Ksawerego Pruszy\u0144skiego",
                "addr:housenumber": "5",
                "addr:teryt:simc": 17598,
                "addr:teryt:sym_ul": 988804,
                "contact:phone": "+48 228341630",
                "contact:email": "p181@edu.um.warszawa.pl",
                "contact:website": "http:\/\/www.wesolenutki.waw.pl",
                "ref:regon": "012047009",
                "ref:vatin": "PL1180131795",
                "operator": "Bielany",
                "operator:type": "government",
                "amenity": "kindergarten"
            }
        },
        {
            "id": 23502,
            "type": "Feature",
            "geometry": {
                "type": "Point",
                "coordinates": [
                    20.9734266,
                    52.2794099
                ]
            },
            "properties": {
                "isced:level": "1;2",
                "ref:rspo": 23502,
                "official_name": "Szko\u0142a Podstawowa Nr 53 im. Mariusza Zaruskiego",
                "name": "Szko\u0142a Podstawowa Nr 53",
                "addr:country": "PL",
                "addr:postcode": "01-689",
                "addr:city": "Warszawa",
                "addr:street": "ul. Rudzka",
                "addr:housenumber": "6",
                "addr:teryt:simc": 19082,
                "addr:teryt:sym_ul": 988804,
                "contact:phone": "+48 228336565",
                "contact:email": "sp53@edu.um.warszawa.pl",
                "contact:website": "http:\/\/www.zaruski.edu.pl",
                "ref:regon": "010412545",
                "ref:vatin": "PL1180131973",
                "operator": "Bielany",
                "operator:type": "government",
                "amenity": "school"
            }
        },
        {
            "id": 29951,
            "type": "Feature",
            "geometry": {
                "type": "Point",
                "coordinates": [
                    20.96211,
                    52.2797399
                ]
            },
            "properties": {
                "isced:level": "1;2",
                "ref:rspo": 29951,
                "official_name": "Szko\u0142a Podstawowa Niepubliczna Nr 74 im. B\u0142ogos\u0142awionego Honorata Ko\u017ami\u0144skiego",
                "name": "Szko\u0142a Podstawowa Niepubliczna Nr 74",
                "addr:country": "PL",
                "addr:postcode": "01-698",
                "addr:city": "Warszawa",
                "addr:street": "ul. W\u0142adys\u0142awa Smole\u0144skiego",
                "addr:housenumber": "31",
                "addr:teryt:simc": 20359,
                "addr:teryt:sym_ul": 988804,
                "contact:phone": "+48 228322707",
                "contact:email": "szkola@smolenskiego.edu.pl",
                "contact:website": "http:\/\/www.smolenskiego.edu.pl",
                "ref:regon": "146368882",
                "ref:vatin": "PL1181538168",
                "operator": "Zgromadzenie Si\u00f3str Naj\u015bwi\u0119tszego Imienia Jezus Pod Opiek\u0105 Maryi Panny Wspomo\u017cenia Wiernych",
                "operator:type": "religious",
                "amenity": "school"
            }
        },
        {
            "id": 84934,
            "type": "Feature",
            "geometry": {
                "type": "Point",
                "coordinates": [
                    20.96211,
                    52.2797099
                ]
            },
            "properties": {
                "ref:rspo": 84934,
                "official_name": "Przedszkole Si\u00f3str Imienia Jezus",
                "name": "Przedszkole Si\u00f3str Imienia Jezus",
                "addr:country": "PL",
                "addr:postcode": "01-698",
                "addr:city": "Warszawa",
                "addr:street": "ul. W\u0142adys\u0142awa Smole\u0144skiego",
                "addr:housenumber": "31",
                "addr:teryt:simc": 20359,
                "addr:teryt:sym_ul": 988804,
                "contact:phone": "+48 228337300",
                "contact:email": "przedszkole.bielany@gmail.com",
                "ref:regon": "146433071",
                "operator": "Zgromadzenie Si\u00f3str Naj\u015bwi\u0119tszego Imienia Jezus Pod Opiek\u0105 Maryi Panny Wspomo\u017cenia Wiernych",
                "operator:type": "religious",
                "amenity": "kindergarten"
            }
        },
        {
            "id": 23484,
            "type": "Feature",
            "geometry": {
                "type": "Point",
                "coordinates": [
                    20.96668,
                    52.28006
                ]
            },
            "properties": {
                "ref:rspo": 23484,
                "official_name": "Zesp\u00f3\u0142 Szk\u00f3\u0142 Nr 10 im. Stanis\u0142awa Staszica",
                "name": "Zesp\u00f3\u0142 Szk\u00f3\u0142 Nr 10",
                "addr:country": "PL",
                "addr:postcode": "01-883",
                "addr:city": "Warszawa",
                "addr:street": "ul. W\u0142odzimierza Perzy\u0144skiego",
                "addr:housenumber": "10",
                "addr:teryt:simc": 15968,
                "addr:teryt:sym_ul": 988804,
                "contact:phone": "+48 228332868",
                "contact:email": "zs10@edu.um.warszawa.pl",
                "contact:website": "http:\/\/www.zs10.pl",
                "ref:regon": "000678311",
                "ref:vatin": "PL1180824050",
                "operator": "Bielany",
                "operator:type": "government",
                "landuse": "education",
                "fixme": "amenity=school, amenity=college albo landuse=education w zale\u017cno\u015bci od tego, jakie plac\u00f3wki wchodz\u0105 w sk\u0142ad zespo\u0142u. Sprawd\u017a, kiedy stosowa\u0107 amenity=* a kiedy landuse=education.",
                "note": "Children RSPO: 27160;121562"
            }
        },
        {
            "id": 273964,
            "type": "Feature",
            "geometry": {
                "type": "Point",
                "coordinates": [
                    20.96668,
                    52.28003
                ]
            },
            "properties": {
                "isced:level": "3",
                "ref:rspo": 273964,
                "official_name": "Liceum Og\u00f3lnokszta\u0142c\u0105ce dla Doros\u0142ych \"Expertus\" w Warszawie",
                "name": "Liceum Og\u00f3lnokszta\u0142c\u0105ce dla Doros\u0142ych \"Expertus\" w Warszawie",
                "addr:country": "PL",
                "addr:postcode": "01-883",
                "addr:city": "Warszawa",
                "addr:street": "ul. W\u0142odzimierza Perzy\u0144skiego",
                "addr:housenumber": "10",
                "addr:teryt:simc": 15968,
                "addr:teryt:sym_ul": 988804,
                "contact:phone": "+48 603192612",
                "ref:regon": "384920906",
                "operator": "Expertus.info.pl Sp\u00f3\u0142ka Z Ograniczon\u0105 Odpowiedzialno\u015bci\u0105",
                "operator:type": "private",
                "amenity": "school"
            }
        },
        {
            "id": 278793,
            "type": "Feature",
            "geometry": {
                "type": "Point",
                "coordinates": [
                    20.96668,
                    52.28
                ]
            },
            "properties": {
                "isced:level": "4",
                "ref:rspo": 278793,
                "official_name": "Szko\u0142a Policealna \"Expertus\"",
                "name": "Szko\u0142a Policealna \"Expertus\"",
                "addr:country": "PL",
                "addr:postcode": "01-883",
                "addr:city": "Warszawa",
                "addr:street": "ul. W\u0142odzimierza Perzy\u0144skiego",
                "addr:housenumber": "10",
                "addr:teryt:simc": 15968,
                "addr:teryt:sym_ul": 988804,
                "contact:phone": "+48 603890177",
                "contact:email": "kosieniak.sisib@poczta.fm",
                "ref:regon": "520072600",
                "operator": "Expertus.info.pl Sp\u00f3\u0142ka Z Ograniczon\u0105 Odpowiedzialno\u015bci\u0105",
                "operator:type": "private",
                "amenity": "college"
            }
        },
        {
            "id": 27160,
            "type": "Feature",
            "geometry": {
                "type": "Point",
                "coordinates": [
                    20.96668,
                    52.27997
                ]
            },
            "properties": {
                "isced:level": "3",
                "ref:rspo": 27160,
                "official_name": "Technikum Nr 25 im. Stanis\u0142awa Staszica",
                "name": "Technikum Nr 25",
                "addr:country": "PL",
                "addr:postcode": "01-883",
                "addr:city": "Warszawa",
                "addr:street": "ul. W\u0142odzimierza Perzy\u0144skiego",
                "addr:housenumber": "10",
                "addr:teryt:simc": 15968,
                "addr:teryt:sym_ul": 988804,
                "contact:phone": "+48 228332868",
                "contact:email": "zs10@edu.um.warszawa.pl",
                "contact:website": "http:\/\/zs10.pl",
                "ref:regon": "015768235",
                "operator": "Bielany",
                "operator:type": "government",
                "amenity": "school",
                "note": "Parent RSPO: 23484"
            }
        },
        {
            "id": 121562,
            "type": "Feature",
            "geometry": {
                "type": "Point",
                "coordinates": [
                    20.96668,
                    52.279939999999996
                ]
            },
            "properties": {
                "isced:level": "3",
                "ref:rspo": 121562,
                "official_name": "Cxliii Liceum Og\u00f3lnokszta\u0142c\u0105ce dla Doros\u0142ych w Warszawie",
                "name": "Cxliii Liceum Og\u00f3lnokszta\u0142c\u0105ce dla Doros\u0142ych w Warszawie",
                "addr:country": "PL",
                "addr:postcode": "01-883",
                "addr:city": "Warszawa",
                "addr:street": "ul. W\u0142odzimierza Perzy\u0144skiego",
                "addr:housenumber": "10",
                "addr:teryt:simc": 15968,
                "addr:teryt:sym_ul": 988804,
                "contact:phone": "+48 228332868",
                "contact:email": "zs10@edu.um.warszawa.pl",
                "contact:website": "http:\/\/zs10.pl",
                "ref:regon": "147059976",
                "operator": "Bielany",
                "operator:type": "government",
                "amenity": "school",
                "note": "Parent RSPO: 23484"
            }
        },
        {
            "id": 125504,
            "type": "Feature",
            "geometry": {
                "type": "Point",
                "coordinates": [
                    20.95497,
                    52.28033
                ]
            },
            "properties": {
                "ref:rspo": 125504,
                "official_name": "Punkt Przedszkolny \u015awiat Montessori",
                "name": "Punkt Przedszkolny \u015awiat Montessori",
                "addr:country": "PL",
                "addr:postcode": "01-839",
                "addr:city": "Warszawa",
                "addr:street": "ul. Barcicka",
                "addr:housenumber": "10",
                "addr:teryt:simc": 738,
                "addr:teryt:sym_ul": 988804,
                "contact:phone": "+48 606143423",
                "contact:email": "joaska@webgraf.pl",
                "contact:website": "http:\/\/swiat-montessori.pl",
                "ref:regon": "147450054",
                "operator": "Joanna Grzywa",
                "operator:type": "private",
                "amenity": "kindergarten"
            }
        },
        {
            "id": 23468,
            "type": "Feature",
            "geometry": {
                "type": "Point",
                "coordinates": [
                    20.97755,
                    52.28053
                ]
            },
            "properties": {
                "ref:rspo": 23468,
                "official_name": "Przedszkole Nr 346 \"Pod Kasztanem\"",
                "name": "Przedszkole Nr 346 \"Pod Kasztanem\"",
                "addr:country": "PL",
                "addr:postcode": "01-684",
                "addr:city": "Warszawa",
                "addr:street": "ul. Klaudyny",
                "addr:housenumber": "8",
                "addr:teryt:simc": 8488,
                "addr:teryt:sym_ul": 988804,
                "contact:phone": "+48 228331585",
                "contact:email": "p346@edu.um.warszawa.pl",
                "contact:website": "https:\/\/przedszkole346.edupage.org",
                "ref:regon": "012524567",
                "ref:vatin": "PL1180531856",
                "operator": "Bielany",
                "operator:type": "government",
                "amenity": "kindergarten"
            }
        },
        {
            "id": 13050,
            "type": "Feature",
            "geometry": {
                "type": "Point",
                "coordinates": [
                    20.94866,
                    52.28138
                ]
            },
            "properties": {
                "ref:rspo": 13050,
                "official_name": "Mruczankowe Przedszkole",
                "name": "Mruczankowe Przedszkole",
                "addr:country": "PL",
                "addr:postcode": "01-833",
                "addr:city": "Warszawa",
                "addr:street": "ul. Lipi\u0144ska",
                "addr:housenumber": "11",
                "addr:teryt:simc": 11123,
                "addr:teryt:sym_ul": 988804,
                "contact:phone": "+48 600414112",
                "contact:email": "przedszkole@mruczankowe.pl",
                "contact:website": "http:\/\/mruczankowe.pl",
                "ref:regon": "146295338",
                "operator": "Marzena Ko\u0142nierzak",
                "operator:type": "private",
                "amenity": "kindergarten"
            }
        },
        {
            "id": 273433,
            "type": "Feature",
            "geometry": {
                "type": "Point",
                "coordinates": [
                    20.92561,
                    52.28156
                ]
            },
            "properties": {
                "ref:rspo": 273433,
                "official_name": "Punkt Przedszkolny Little Blue",
                "name": "Punkt Przedszkolny Little Blue",
                "addr:country": "PL",
                "addr:postcode": "01-909",
                "addr:city": "Warszawa",
                "addr:street": "ul. Sokratesa",
                "addr:housenumber": "2a",
                "addr:door": "u2",
                "addr:teryt:simc": 20510,
                "addr:teryt:sym_ul": 988804,
                "contact:phone": "+48 797243722",
                "contact:email": "przedszkolelittleblue@gmail.com",
                "ref:regon": "384469630",
                "operator": "Katarzyna Wiesio\u0142ek",
                "operator:type": "private",
                "amenity": "kindergarten"
            }
        },
        {
            "id": 23471,
            "type": "Feature",
            "geometry": {
                "type": "Point",
                "coordinates": [
                    20.94283,
                    52.28157
                ]
            },
            "properties": {
                "ref:rspo": 23471,
                "official_name": "Przedszkole Nr 49 \"Pluszowy Mi\u015b\"",
                "name": "Przedszkole Nr 49 \"Pluszowy Mi\u015b\"",
                "addr:country": "PL",
                "addr:postcode": "01-848",
                "addr:city": "Warszawa",
                "addr:street": "ul. Skalbmierska",
                "addr:housenumber": "12",
                "addr:teryt:simc": 19961,
                "addr:teryt:sym_ul": 988804,
                "contact:phone": "+48 228340012",
                "contact:email": "p49@edu.um.warszawa.pl",
                "contact:website": "http:\/\/www.p49w-wa.wikom.pl",
                "ref:regon": "012524751",
                "ref:vatin": "PL1180491720",
                "operator": "Bielany",
                "operator:type": "government",
                "amenity": "kindergarten"
            }
        },
        {
            "id": 84923,
            "type": "Feature",
            "geometry": {
                "type": "Point",
                "coordinates": [
                    20.94424,
                    52.28206
                ]
            },
            "properties": {
                "ref:rspo": 84923,
                "official_name": "Akademia U\u015bmiechu Dwuj\u0119zyczne Przedszkole",
                "name": "Akademia U\u015bmiechu Dwuj\u0119zyczne Przedszkole",
                "addr:country": "PL",
                "addr:postcode": "01-824",
                "addr:city": "Warszawa",
                "addr:street": "ul. Stanis\u0142awa Przybyszewskiego",
                "addr:housenumber": "69",
                "addr:teryt:simc": 17892,
                "addr:teryt:sym_ul": 988804,
                "contact:phone": "+48 228346512",
                "contact:email": "olga.wodnicka@gmail.com",
                "ref:regon": "146422802",
                "operator": "Olga Wodnicka",
                "operator:type": "private",
                "amenity": "kindergarten"
            }
        },
        {
            "id": 113871,
            "type": "Feature",
            "geometry": {
                "type": "Point",
                "coordinates": [
                    20.96686,
                    52.2822699
                ]
            },
            "properties": {
                "ref:rspo": 113871,
                "official_name": "Niepubliczny O\u015brodek Doskonalenia Nauczycieli \"Supernauczyciel\"",
                "name": "Niepubliczny O\u015brodek Doskonalenia Nauczycieli \"Supernauczyciel\"",
                "addr:country": "PL",
                "addr:postcode": "01-687",
                "addr:city": "Warszawa",
                "addr:street": "ul. Lektykarska",
                "addr:housenumber": "44",
                "addr:teryt:simc": 10788,
                "addr:teryt:sym_ul": 988804,
                "contact:phone": "+48 224096061",
                "contact:email": "biuro@supernauczyciel.pl",
                "contact:website": "http:\/\/www.supernauczyciel.pl",
                "ref:regon": "146635610",
                "operator": "Ewa Wojtyra",
                "operator:type": "private",
                "amenity": "training"
            }
        },
        {
            "id": 123240,
            "type": "Feature",
            "geometry": {
                "type": "Point",
                "coordinates": [
                    20.95545,
                    52.28254
                ]
            },
            "properties": {
                "ref:rspo": 123240,
                "official_name": "Przedszkole Nr 421",
                "name": "Przedszkole Nr 421",
                "addr:country": "PL",
                "addr:postcode": "01-803",
                "addr:city": "Warszawa",
                "addr:street": "ul. Ceg\u0142owska",
                "addr:housenumber": "13a",
                "addr:teryt:simc": 2592,
                "addr:teryt:sym_ul": 988804,
                "contact:phone": "+48 228340803",
                "contact:email": "p421@edu.um.warszawa.pl",
                "contact:website": "http:\/\/przedszkole421.edupage.org",
                "ref:regon": "147277897",
                "operator": "Bielany",
                "operator:type": "government",
                "amenity": "kindergarten"
            }
        },
        {
            "id": 124866,
            "type": "Feature",
            "geometry": {
                "type": "Point",
                "coordinates": [
                    20.97205,
                    52.28318
                ]
            },
            "properties": {
                "ref:rspo": 124866,
                "official_name": "Centrum Zaj\u0119\u0107 Dodatkowych Centrum Dobrej Edukacji Sp. Z O.o.",
                "name": "Centrum Zaj\u0119\u0107 Dodatkowych Centrum Dobrej Edukacji Sp. Z O.o.",
                "addr:country": "PL",
                "addr:postcode": "01-684",
                "addr:city": "Warszawa",
                "addr:street": "ul. Klaudyny",
                "addr:housenumber": "28a",
                "addr:teryt:simc": 8488,
                "addr:teryt:sym_ul": 988804,
                "contact:phone": "+48 696633350",
                "contact:email": "biuro@cde.edu.pl",
                "ref:regon": "147408796",
                "operator": "Centrum Dobrej Edukacji Sp\u00f3\u0142ka Z Ograniczon\u0105 Odpowiedzialno\u015bci\u0105",
                "operator:type": "private",
                "fixme": "w zale\u017cno\u015bci od przedmiotu dzia\u0142alno\u015bci (np. amenity=training + training=*, amenity=dancing_school, amenity=language_school, amenity=music_school)"
            }
        },
        {
            "id": 23475,
            "type": "Feature",
            "geometry": {
                "type": "Point",
                "coordinates": [
                    20.97845,
                    52.2834999
                ]
            },
            "properties": {
                "ref:rspo": 23475,
                "official_name": "Przedszkole Nr 364 \"Pod T\u0119cz\u0105\"",
                "name": "Przedszkole Nr 364 \"Pod T\u0119cz\u0105\"",
                "addr:country": "PL",
                "addr:postcode": "01-651",
                "addr:city": "Warszawa",
                "addr:street": "ul. Gwia\u017adzista",
                "addr:housenumber": "27",
                "addr:teryt:simc": 6422,
                "addr:teryt:sym_ul": 988804,
                "contact:phone": "+48 228330391",
                "contact:email": "p364@edu.um.warszawa.pl",
                "contact:website": "http:\/\/www.przedszkole364.waw.pl",
                "ref:regon": "012527614",
                "ref:vatin": "PL1180185638",
                "operator": "Bielany",
                "operator:type": "government",
                "amenity": "kindergarten"
            }
        },
        {
            "id": 130685,
            "type": "Feature",
            "geometry": {
                "type": "Point",
                "coordinates": [
                    20.94483,
                    52.28351
                ]
            },
            "properties": {
                "ref:rspo": 130685,
                "official_name": "Smart-Mat\/Dobra Edukacja",
                "name": "Smart-Mat\/Dobra Edukacja",
                "addr:country": "PL",
                "addr:postcode": "01-823",
                "addr:city": "Warszawa",
                "addr:street": "ul. Jana Kasprowicza",
                "addr:housenumber": "103",
                "addr:door": "3",
                "addr:teryt:simc": 8153,
                "addr:teryt:sym_ul": 988804,
                "contact:phone": "+48 662220202",
                "contact:email": "biuro@smart-mat.pl",
                "ref:regon": "364353541",
                "operator": "Joanna Prokopowicz",
                "operator:type": "private",
                "fixme": "w zale\u017cno\u015bci od przedmiotu dzia\u0142alno\u015bci (np. amenity=training + training=*, amenity=dancing_school, amenity=language_school, amenity=music_school)"
            }
        },
        {
            "id": 34512,
            "type": "Feature",
            "geometry": {
                "type": "Point",
                "coordinates": [
                    20.97045,
                    52.2835899
                ]
            },
            "properties": {
                "isced:level": "3",
                "ref:rspo": 34512,
                "official_name": "Xli Liceum Og\u00f3lnokszta\u0142c\u0105ce im. Joachima Lelewela",
                "name": "Xli Liceum Og\u00f3lnokszta\u0142c\u0105ce",
                "addr:country": "PL",
                "addr:postcode": "01-682",
                "addr:city": "Warszawa",
                "addr:street": "ul. Kiwerska",
                "addr:housenumber": "3",
                "addr:teryt:simc": 8468,
                "addr:teryt:sym_ul": 988804,
                "contact:phone": "+48 228331333",
                "contact:email": "sekretariat@lelewel.waw.pl",
                "contact:website": "http:\/\/www.lelewel.waw.pl",
                "ref:regon": "000799167",
                "operator": "Bielany",
                "operator:type": "government",
                "amenity": "school"
            }
        },
        {
            "id": 23506,
            "type": "Feature",
            "geometry": {
                "type": "Point",
                "coordinates": [
                    20.9398,
                    52.2838
                ]
            },
            "properties": {
                "isced:level": "1;2",
                "ref:rspo": 23506,
                "official_name": "Szko\u0142a Podstawowa Nr 209 im. Hanki Ordon\u00f3wny",
                "name": "Szko\u0142a Podstawowa Nr 209",
                "addr:country": "PL",
                "addr:postcode": "01-840",
                "addr:city": "Warszawa",
                "addr:street": "al. Aleja W\u0142adys\u0142awa Reymonta",
                "addr:housenumber": "25",
                "addr:teryt:simc": 45214,
                "addr:teryt:sym_ul": 988804,
                "contact:phone": "+48 226635569",
                "contact:email": "sp209@edu.um.warszawa.pl",
                "contact:website": "https:\/\/szkolapodstawowa209.edupage.org\/",
                "ref:regon": "010414857",
                "ref:vatin": "PL1180149967",
                "operator": "Bielany",
                "operator:type": "government",
                "amenity": "school"
            }
        },
        {
            "id": 23476,
            "type": "Feature",
            "geometry": {
                "type": "Point",
                "coordinates": [
                    20.95029,
                    52.28384
                ]
            },
            "properties": {
                "ref:rspo": 23476,
                "official_name": "Przedszkole Nr 97 \"Le\u015bna Polanka\"",
                "name": "Przedszkole Nr 97 \"Le\u015bna Polanka\"",
                "addr:country": "PL",
                "addr:postcode": "01-810",
                "addr:city": "Warszawa",
                "addr:street": "ul. Twardowska",
                "addr:housenumber": "23",
                "addr:teryt:simc": 23204,
                "addr:teryt:sym_ul": 988804,
                "contact:phone": "+48 228341341",
                "contact:email": "p97@edu.um.warszawa.pl",
                "contact:website": "http:\/\/przedszkole97.waw.pl",
                "ref:regon": "012524739",
                "ref:vatin": "PL1180785031",
                "operator": "Bielany",
                "operator:type": "government",
                "amenity": "kindergarten"
            }
        },
        {
            "id": 23474,
            "type": "Feature",
            "geometry": {
                "type": "Point",
                "coordinates": [
                    20.93236,
                    52.28389
                ]
            },
            "properties": {
                "ref:rspo": 23474,
                "official_name": "Przedszkole Nr 409 \"Kr\u00f3lestwo Maciusia I\"",
                "name": "Przedszkole Nr 409 \"Kr\u00f3lestwo Maciusia I\"",
                "addr:country": "PL",
                "addr:postcode": "01-910",
                "addr:city": "Warszawa",
                "addr:street": "ul. Lwa To\u0142stoja",
                "addr:housenumber": "2",
                "addr:teryt:simc": 22837,
                "addr:teryt:sym_ul": 988804,
                "contact:phone": "+48 228646107",
                "contact:email": "p409@edu.um.warszawa.pl",
                "contact:website": "http:\/\/www.p409w-wa.wikom.pl",
                "ref:regon": "012524490",
                "ref:vatin": "PL1180149944",
                "operator": "Bielany",
                "operator:type": "government",
                "amenity": "kindergarten"
            }
        },
        {
            "id": 23488,
            "type": "Feature",
            "geometry": {
                "type": "Point",
                "coordinates": [
                    20.93236,
                    52.28386
                ]
            },
            "properties": {
                "ref:rspo": 23488,
                "official_name": "Zesp\u00f3\u0142 Szk\u00f3\u0142 Nr 49",
                "name": "Zesp\u00f3\u0142 Szk\u00f3\u0142 Nr 49",
                "addr:country": "PL",
                "addr:postcode": "01-910",
                "addr:city": "Warszawa",
                "addr:street": "ul. Lwa To\u0142stoja",
                "addr:housenumber": "2",
                "addr:teryt:simc": 22837,
                "addr:teryt:sym_ul": 988804,
                "contact:phone": "+48 228359558",
                "contact:email": "sekretariat@gorski.edu.pl",
                "contact:website": "http:\/\/www.gorski.edu.pl",
                "ref:regon": "015524941",
                "ref:vatin": "PL1181694684",
                "operator": "Bielany",
                "operator:type": "government",
                "landuse": "education",
                "fixme": "amenity=school, amenity=college albo landuse=education w zale\u017cno\u015bci od tego, jakie plac\u00f3wki wchodz\u0105 w sk\u0142ad zespo\u0142u. Sprawd\u017a, kiedy stosowa\u0107 amenity=* a kiedy landuse=education.",
                "note": "Children RSPO: 27280;133678"
            }
        },
        {
            "id": 27280,
            "type": "Feature",
            "geometry": {
                "type": "Point",
                "coordinates": [
                    20.93236,
                    52.28383
                ]
            },
            "properties": {
                "isced:level": "3",
                "ref:rspo": 27280,
                "official_name": "Lx Liceum Og\u00f3lnokszta\u0142c\u0105ce im. Wojciecha G\u00f3rskiego",
                "name": "Lx Liceum Og\u00f3lnokszta\u0142c\u0105ce",
                "addr:country": "PL",
                "addr:postcode": "01-910",
                "addr:city": "Warszawa",
                "addr:street": "ul. Lwa To\u0142stoja",
                "addr:housenumber": "2",
                "addr:teryt:simc": 22837,
                "addr:teryt:sym_ul": 988804,
                "contact:phone": "+48 228359558",
                "contact:email": "sekretariat@gorski.edu.pl",
                "contact:website": "http:\/\/www.gorski.edu.pl",
                "ref:regon": "001009931",
                "operator": "Bielany",
                "operator:type": "government",
                "amenity": "school",
                "note": "Parent RSPO: 23488"
            }
        },
        {
            "id": 133678,
            "type": "Feature",
            "geometry": {
                "type": "Point",
                "coordinates": [
                    20.93236,
                    52.2838
                ]
            },
            "properties": {
                "isced:level": "1;2",
                "ref:rspo": 133678,
                "official_name": "Szko\u0142a Podstawowa Nr 370",
                "name": "Szko\u0142a Podstawowa Nr 370",
                "addr:country": "PL",
                "addr:postcode": "01-910",
                "addr:city": "Warszawa",
                "addr:street": "ul. Lwa To\u0142stoja",
                "addr:housenumber": "2",
                "addr:teryt:simc": 22837,
                "addr:teryt:sym_ul": 988804,
                "contact:phone": "+48 228359558",
                "contact:email": "sekretariat@gorski.edu.pl",
                "contact:website": "http:\/\/www.gorski.edu.pl",
                "ref:regon": "367529029",
                "operator": "Bielany",
                "operator:type": "government",
                "amenity": "school",
                "note": "Parent RSPO: 23488"
            }
        },
        {
            "id": 121613,
            "type": "Feature",
            "geometry": {
                "type": "Point",
                "coordinates": [
                    20.9745,
                    52.2839699
                ]
            },
            "properties": {
                "ref:rspo": 121613,
                "official_name": "Niepubliczne Przedszkola Ciuchcia Puch Puch Agata Wawer",
                "name": "Niepubliczne Przedszkola Ciuchcia Puch Puch Agata Wawer",
                "addr:country": "PL",
                "addr:postcode": "01-651",
                "addr:city": "Warszawa",
                "addr:street": "ul. Klaudyny",
                "addr:housenumber": "32",
                "addr:teryt:simc": 8488,
                "addr:teryt:sym_ul": 988804,
                "contact:phone": "+48 228336675",
                "contact:email": "przedszkole@puchpuch.pl",
                "ref:regon": "146366848",
                "operator": "Agata Wawer",
                "operator:type": "private",
                "amenity": "kindergarten"
            }
        },
        {
            "id": 274030,
            "type": "Feature",
            "geometry": {
                "type": "Point",
                "coordinates": [
                    20.9745,
                    52.2839399
                ]
            },
            "properties": {
                "ref:rspo": 274030,
                "official_name": "Niepubliczne Przedszkole \"Karuzela Montessori\"",
                "name": "Niepubliczne Przedszkole \"Karuzela Montessori\"",
                "addr:country": "PL",
                "addr:postcode": "01-684",
                "addr:city": "Warszawa",
                "addr:street": "ul. Klaudyny",
                "addr:housenumber": "32",
                "addr:teryt:simc": 8488,
                "addr:teryt:sym_ul": 988804,
                "contact:phone": "+48 504064244",
                "contact:email": "anna.przybylska@karuzela.edu.pl",
                "ref:regon": "385045872",
                "operator": "Anna Przybylska",
                "operator:type": "private",
                "amenity": "kindergarten"
            }
        },
        {
            "id": 23495,
            "type": "Feature",
            "geometry": {
                "type": "Point",
                "coordinates": [
                    20.95629,
                    52.2840599
                ]
            },
            "properties": {
                "ref:rspo": 23495,
                "official_name": "Przedszkole Nr 240 im. Polskich Olimpijczyk\u00f3w",
                "name": "Przedszkole Nr 240",
                "addr:country": "PL",
                "addr:postcode": "00-968",
                "addr:city": "Warszawa",
                "addr:street": "ul. Marymoncka",
                "addr:housenumber": "34",
                "addr:teryt:simc": 12424,
                "addr:teryt:sym_ul": 988804,
                "contact:phone": "+48 228641115",
                "contact:email": "p240@edu.um.warszawa.pl",
                "contact:website": "http:\/\/www.przedszkole240.waw.pl",
                "ref:regon": "012524640",
                "ref:vatin": "PL1180785025",
                "operator": "Bielany",
                "operator:type": "government",
                "amenity": "kindergarten"
            }
        },
        {
            "id": 53024,
            "type": "Feature",
            "geometry": {
                "type": "Point",
                "coordinates": [
                    20.95629,
                    52.2840299
                ]
            },
            "properties": {
                "isced:level": "1;2",
                "ref:rspo": 53024,
                "official_name": "Niepubliczna Szko\u0142a Podstawowa im. Juliusza Verne'a",
                "name": "Niepubliczna Szko\u0142a Podstawowa",
                "addr:country": "PL",
                "addr:postcode": "01-813",
                "addr:city": "Warszawa",
                "addr:street": "ul. Marymoncka",
                "addr:housenumber": "34",
                "addr:teryt:simc": 12424,
                "addr:teryt:sym_ul": 988804,
                "contact:phone": "+48 606236000",
                "contact:email": "szkola@verne.edu.pl",
                "contact:website": "http:\/\/www.verne.edu.pl",
                "ref:regon": "146373630",
                "operator": "Agata Wawer",
                "operator:type": "private",
                "amenity": "school"
            }
        },
        {
            "id": 23507,
            "type": "Feature",
            "geometry": {
                "type": "Point",
                "coordinates": [
                    20.94259,
                    52.28437
                ]
            },
            "properties": {
                "isced:level": "1;2",
                "ref:rspo": 23507,
                "official_name": "Szko\u0142a Podstawowa Z Oddzia\u0142ami Integracyjnymi Nr 223 im. Partyzant\u00f3w Ziemi Kieleckiej",
                "name": "Szko\u0142a Podstawowa Z Oddzia\u0142ami Integracyjnymi Nr 223",
                "addr:country": "PL",
                "addr:postcode": "01-823",
                "addr:city": "Warszawa",
                "addr:street": "ul. Jana Kasprowicza",
                "addr:housenumber": "107",
                "addr:teryt:simc": 8153,
                "addr:teryt:sym_ul": 988804,
                "contact:phone": "+48 228342678",
                "contact:email": "sp223@edu.um.warszawa.pl",
                "contact:website": "http:\/\/sp223.edupage.org",
                "ref:regon": "010423773",
                "ref:vatin": "PL1180132346",
                "operator": "Bielany",
                "operator:type": "government",
                "amenity": "school"
            }
        },
        {
            "id": 31797,
            "type": "Feature",
            "geometry": {
                "type": "Point",
                "coordinates": [
                    20.93922,
                    52.28438
                ]
            },
            "properties": {
                "isced:level": "1;2",
                "ref:rspo": 31797,
                "official_name": "Spo\u0142eczna Szko\u0142a Podstawowa Integracyjna Nr 100 Spo\u0142ecznego Towarzystwa O\u015bwiatowego",
                "name": "Spo\u0142eczna Szko\u0142a Podstawowa Integracyjna Nr 100 Spo\u0142ecznego Towarzystwa O\u015bwiatowego",
                "addr:country": "PL",
                "addr:postcode": "01-912",
                "addr:city": "Warszawa",
                "addr:street": "ul. Wolumen",
                "addr:housenumber": "3",
                "addr:teryt:simc": 24705,
                "addr:teryt:sym_ul": 988804,
                "contact:phone": "+48 228657455",
                "contact:email": "sekretariat@jaskolka100.org",
                "contact:website": "http:\/\/www.jaskolka100.org",
                "ref:regon": "146368907",
                "ref:vatin": "PL1181895218",
                "operator": "Samodzielne Ko\u0142o Terenowe Nr 232 Spo\u0142ecznego Towarzystwa O\u015bwiatowego",
                "operator:type": "ngo",
                "amenity": "school"
            }
        },
        {
            "id": 85141,
            "type": "Feature",
            "geometry": {
                "type": "Point",
                "coordinates": [
                    20.93922,
                    52.284349999999996
                ]
            },
            "properties": {
                "ref:rspo": 85141,
                "official_name": "Spo\u0142eczne Przedszkole Integracyjne Fundacji Czas Dzieci\u0144stwa",
                "name": "Spo\u0142eczne Przedszkole Integracyjne Fundacji Czas Dzieci\u0144stwa",
                "addr:country": "PL",
                "addr:postcode": "01-912",
                "addr:city": "Warszawa",
                "addr:street": "ul. Wolumen",
                "addr:housenumber": "3",
                "addr:teryt:simc": 24705,
                "addr:teryt:sym_ul": 988804,
                "contact:phone": "+48 226635521",
                "contact:email": "biuro@czasdziecinstwa.com.pl",
                "contact:website": "http:\/\/www.czasdziecinstwa.com.pl",
                "ref:regon": "146437531",
                "operator": "Fundacja Anny Florek Czas Dzieci\u0144stwa",
                "operator:type": "ngo",
                "amenity": "kindergarten"
            }
        },
        {
            "id": 266849,
            "type": "Feature",
            "geometry": {
                "type": "Point",
                "coordinates": [
                    20.97211,
                    52.28438
                ]
            },
            "properties": {
                "ref:rspo": 266849,
                "official_name": "Imagine Szko\u0142a J\u0119zyka Angielskiego",
                "name": "Imagine Szko\u0142a J\u0119zyka Angielskiego",
                "addr:country": "PL",
                "addr:postcode": "01-684",
                "addr:city": "Warszawa",
                "addr:street": "ul. Klaudyny",
                "addr:housenumber": "34a",
                "addr:teryt:simc": 8488,
                "addr:teryt:sym_ul": 988804,
                "contact:phone": "+48 228338156",
                "ref:regon": "369710796",
                "operator": "Danuta Zi\u00f3\u0142kowska",
                "operator:type": "private",
                "fixme": "w zale\u017cno\u015bci od przedmiotu dzia\u0142alno\u015bci (np. amenity=training + training=*, amenity=dancing_school, amenity=language_school, amenity=music_school)"
            }
        },
        {
            "id": 121560,
            "type": "Feature",
            "geometry": {
                "type": "Point",
                "coordinates": [
                    20.93782,
                    52.28526
                ]
            },
            "properties": {
                "ref:rspo": 121560,
                "official_name": "Przedszkole Niepubliczne Zielona Wie\u017ca",
                "name": "Przedszkole Niepubliczne Zielona Wie\u017ca",
                "addr:country": "PL",
                "addr:postcode": "01-915",
                "addr:city": "Warszawa",
                "addr:street": "ul. Wergiliusza",
                "addr:housenumber": "5",
                "addr:teryt:simc": 23871,
                "addr:teryt:sym_ul": 988804,
                "contact:phone": "+48 506964531",
                "contact:email": "kontakt@zielonawieza.edu.pl",
                "contact:website": "http:\/\/www.zielonawieza.edu.pl",
                "ref:regon": "147059781",
                "operator": "Zielona Wie\u017ca Sp\u00f3\u0142ka Z Ograniczon\u0105 Odpowiedzialno\u015bci\u0105",
                "operator:type": "private",
                "amenity": "kindergarten"
            }
        },
        {
            "id": 26485,
            "type": "Feature",
            "geometry": {
                "type": "Point",
                "coordinates": [
                    20.95116,
                    52.28552
                ]
            },
            "properties": {
                "ref:rspo": 26485,
                "official_name": "M\u0142odzie\u017cowy Dom Kultury \"Bielany\"",
                "name": "M\u0142odzie\u017cowy Dom Kultury \"Bielany\"",
                "addr:country": "PL",
                "addr:postcode": "01-809",
                "addr:city": "Warszawa",
                "addr:street": "ul. Ceg\u0142owska",
                "addr:housenumber": "39",
                "addr:teryt:simc": 2592,
                "addr:teryt:sym_ul": 988804,
                "contact:phone": "+48 228341347",
                "contact:email": "mdkbie@edu.um.warszawa.pl",
                "contact:website": "http:\/\/www.mdkbielany.pl",
                "ref:regon": "010412947",
                "ref:vatin": "PL1180887470",
                "operator": "Bielany",
                "operator:type": "government",
                "amenity": "community_centre",
                "community_centre:for": "juvenile"
            }
        },
        {
            "id": 105417,
            "type": "Feature",
            "geometry": {
                "type": "Point",
                "coordinates": [
                    20.95187,
                    52.28637
                ]
            },
            "properties": {
                "isced:level": "1;2",
                "ref:rspo": 105417,
                "official_name": "Szko\u0142a Podstawowa Specjalna Nr\u00a0346 w Szpitalu Biela\u0144skim im. Ks. Jerzego Popie\u0142uszki Samodzielnym Publicznym Zak\u0142adzie Opieki Zdrowotnej",
                "name": "Szko\u0142a Podstawowa Specjalna Nr\u00a0346 w Szpitalu Biela\u0144skim",
                "addr:country": "PL",
                "addr:postcode": "01-809",
                "addr:city": "Warszawa",
                "addr:street": "ul. Ceg\u0142owska",
                "addr:housenumber": "80",
                "addr:teryt:simc": 2592,
                "addr:teryt:sym_ul": 988804,
                "contact:phone": "+48 228343007",
                "contact:email": "bkolasinska@edu.um.warszawa.pl",
                "ref:regon": "012747586",
                "operator": "Miasto Sto\u0142eczne Warszawa",
                "operator:type": "government",
                "amenity": "school"
            }
        },
        {
            "id": 34505,
            "type": "Feature",
            "geometry": {
                "type": "Point",
                "coordinates": [
                    20.97692,
                    52.28638
                ]
            },
            "properties": {
                "isced:level": "3",
                "ref:rspo": 34505,
                "official_name": "Xciv Liceum Og\u00f3lnokszta\u0142c\u0105ce im. Gen. Stanis\u0142awa Maczka",
                "name": "Xciv Liceum Og\u00f3lnokszta\u0142c\u0105ce",
                "addr:country": "PL",
                "addr:postcode": "01-651",
                "addr:city": "Warszawa",
                "addr:street": "ul. Gwia\u017adzista",
                "addr:housenumber": "35",
                "addr:teryt:simc": 6422,
                "addr:teryt:sym_ul": 988804,
                "contact:phone": "+48 228330258",
                "contact:email": "sekretariat@maczek.waw.pl",
                "contact:website": "http:\/\/www.maczek.waw.pl",
                "ref:regon": "015761345",
                "ref:vatin": "PL5252248481",
                "operator": "Bielany",
                "operator:type": "government",
                "amenity": "school"
            }
        },
        {
            "id": 270142,
            "type": "Feature",
            "geometry": {
                "type": "Point",
                "coordinates": [
                    20.92673,
                    52.28654
                ]
            },
            "properties": {
                "ref:rspo": 270142,
                "official_name": "Integracyjne Przedszkole \"\u015awiat Dziecka\"",
                "name": "Integracyjne Przedszkole \"\u015awiat Dziecka\"",
                "addr:country": "PL",
                "addr:postcode": "01-948",
                "addr:city": "Warszawa",
                "addr:street": "ul. Tomasza Nocznickiego",
                "addr:housenumber": "25",
                "addr:door": "U 6-7",
                "addr:teryt:simc": 14295,
                "addr:teryt:sym_ul": 988804,
                "contact:phone": "+48 692085450",
                "contact:email": "przedszkole@swiat-dziecka.eu",
                "contact:website": "https:\/\/swiat-dziecka.eu\/",
                "ref:regon": "382086190",
                "operator": "Jaros\u0142aw Radko",
                "operator:type": "private",
                "amenity": "kindergarten"
            }
        },
        {
            "id": 278551,
            "type": "Feature",
            "geometry": {
                "type": "Point",
                "coordinates": [
                    20.92673,
                    52.28651
                ]
            },
            "properties": {
                "ref:rspo": 278551,
                "official_name": "Poradnia Psychologiczno - Pedagogiczna Przyl\u0105dek Nadziei",
                "name": "Poradnia Psychologiczno - Pedagogiczna Przyl\u0105dek Nadziei",
                "addr:country": "PL",
                "addr:postcode": "01-948",
                "addr:city": "Warszawa",
                "addr:street": "ul. Tomasza Nocznickiego",
                "addr:housenumber": "25",
                "addr:door": "u6",
                "addr:teryt:simc": 14295,
                "addr:teryt:sym_ul": 988804,
                "contact:phone": "+48 608589689",
                "ref:regon": "389969627",
                "operator": "Iwona Lemiesz",
                "operator:type": "private",
                "healthcare": "counselling",
                "counselling_type": "education",
                "fixme": "w zale\u017cno\u015bci od przedmiotu dzia\u0142alno\u015bci (np. healthcare=counselling + counselling_type=education albo healthcare=psychotherapist)"
            }
        },
        {
            "id": 109690,
            "type": "Feature",
            "geometry": {
                "type": "Point",
                "coordinates": [
                    20.87742,
                    52.28747
                ]
            },
            "properties": {
                "isced:level": "1;2",
                "ref:rspo": 109690,
                "official_name": "Szko\u0142a Podstawowa Nr 273 im. Dr. Aleksandra Landy w Warszawie, Szko\u0142a Filialna w Warszawie",
                "name": "Szko\u0142a Podstawowa Nr 273",
                "addr:country": "PL",
                "addr:postcode": "01-934",
                "addr:city": "Warszawa",
                "addr:street": "ul. Arkuszowa",
                "addr:housenumber": "202",
                "addr:teryt:simc": 412,
                "addr:teryt:sym_ul": 988804,
                "contact:phone": "+48 228350075",
                "contact:email": "sp273@edu.um.warszawa.pl",
                "contact:website": "http:\/\/www.sp273.edu.pl",
                "ref:regon": "104127980",
                "operator": "Bielany",
                "operator:type": "government",
                "amenity": "school",
                "note": "Parent RSPO: 23509"
            }
        },
        {
            "id": 23481,
            "type": "Feature",
            "geometry": {
                "type": "Point",
                "coordinates": [
                    20.93546,
                    52.28774
                ]
            },
            "properties": {
                "ref:rspo": 23481,
                "official_name": "Przedszkole Z Oddzia\u0142ami Integracyjnymi Nr 341 \"Kota Filemona\"",
                "name": "Przedszkole Z Oddzia\u0142ami Integracyjnymi Nr 341 \"Kota Filemona\"",
                "addr:country": "PL",
                "addr:postcode": "01-915",
                "addr:city": "Warszawa",
                "addr:street": "ul. Wergiliusza",
                "addr:housenumber": "15",
                "addr:teryt:simc": 23871,
                "addr:teryt:sym_ul": 988804,
                "contact:phone": "+48 226636069",
                "contact:email": "p341@edu.um.warszawa.pl",
                "contact:website": "http:\/\/www.przedszkolenr341.szkolnastrona.pl",
                "ref:regon": "012525383",
                "ref:vatin": "PL1180120544",
                "operator": "Bielany",
                "operator:type": "government",
                "amenity": "kindergarten"
            }
        },
        {
            "id": 23479,
            "type": "Feature",
            "geometry": {
                "type": "Point",
                "coordinates": [
                    20.938,
                    52.28852
                ]
            },
            "properties": {
                "ref:rspo": 23479,
                "official_name": "Przedszkole Nr 268 \"S\u0142oneczny Promyk\"",
                "name": "Przedszkole Nr 268 \"S\u0142oneczny Promyk\"",
                "addr:country": "PL",
                "addr:postcode": "01-962",
                "addr:city": "Warszawa",
                "addr:street": "ul. Przytyk",
                "addr:housenumber": "5a",
                "addr:teryt:simc": 18014,
                "addr:teryt:sym_ul": 988804,
                "contact:phone": "+48 228343597",
                "contact:email": "p268@edu.um.warszawa.pl",
                "contact:website": "http:\/\/www.slonecznypromyk.pl",
                "ref:regon": "012524633",
                "ref:vatin": "PL1180132694",
                "operator": "Bielany",
                "operator:type": "government",
                "amenity": "kindergarten"
            }
        },
        {
            "id": 23508,
            "type": "Feature",
            "geometry": {
                "type": "Point",
                "coordinates": [
                    20.93816,
                    52.28963
                ]
            },
            "properties": {
                "isced:level": "1;2",
                "ref:rspo": 23508,
                "official_name": "Szko\u0142a Podstawowa Z Oddzia\u0142ami Integracyjnymi Nr 247 im. Kazimierza Lisieckiego \"Dziadka\"",
                "name": "Szko\u0142a Podstawowa Z Oddzia\u0142ami Integracyjnymi Nr 247",
                "addr:country": "PL",
                "addr:postcode": "01-951",
                "addr:city": "Warszawa",
                "addr:street": "ul. Wrzeciono",
                "addr:housenumber": "9",
                "addr:teryt:simc": 24849,
                "addr:teryt:sym_ul": 988804,
                "contact:phone": "+48 228341249",
                "contact:email": "sp247@edu.um.warszawa.pl",
                "contact:website": "http:\/\/sp247.pl",
                "ref:regon": "010410180",
                "ref:vatin": "PL1180118435",
                "operator": "Bielany",
                "operator:type": "government",
                "amenity": "school"
            }
        },
        {
            "id": 26486,
            "type": "Feature",
            "geometry": {
                "type": "Point",
                "coordinates": [
                    20.94204,
                    52.2905299
                ]
            },
            "properties": {
                "ref:rspo": 26486,
                "official_name": "Pozaszkolna Plac\u00f3wka Specjalistyczna - Biela\u0144skie Centrum Edukacji Kulturalnej im. Jonasza Kofty",
                "name": "Pozaszkolna Plac\u00f3wka Specjalistyczna - Biela\u0144skie Centrum Edukacji Kulturalnej",
                "addr:country": "PL",
                "addr:postcode": "01-957",
                "addr:city": "Warszawa",
                "addr:street": "ul. Szegedy\u0144ska",
                "addr:housenumber": "9a",
                "addr:teryt:simc": 21890,
                "addr:teryt:sym_ul": 988804,
                "contact:phone": "+48 228345259",
                "contact:email": "sekretariat@centrumszegedynska9a.pl",
                "ref:regon": "141937967",
                "ref:vatin": "PL1182004894",
                "operator": "Bielany",
                "operator:type": "government",
                "fixme": "w zale\u017cno\u015bci od przedmiotu dzia\u0142alno\u015bci (np. amenity=training + training=*, amenity=dancing_school, amenity=language_school, amenity=music_school)"
            }
        },
        {
            "id": 52414,
            "type": "Feature",
            "geometry": {
                "type": "Point",
                "coordinates": [
                    20.93793,
                    52.29072
                ]
            },
            "properties": {
                "ref:rspo": 52414,
                "official_name": "\"Bajeczka\" Niepubliczne Przedszkole Integracyjne",
                "name": "\"Bajeczka\" Niepubliczne Przedszkole Integracyjne",
                "addr:country": "PL",
                "addr:postcode": "01-954",
                "addr:city": "Warszawa",
                "addr:street": "ul. Wrzeciono",
                "addr:housenumber": "12",
                "addr:door": "4",
                "addr:teryt:simc": 24849,
                "addr:teryt:sym_ul": 988804,
                "contact:phone": "+48 505142983",
                "contact:email": "bajkoweprzedszkola@o2.pl",
                "contact:website": "http:\/\/www.bajkoweprzedszkola.pl",
                "ref:regon": "146403236",
                "operator": "Krzysztof Pejas",
                "operator:type": "private",
                "amenity": "kindergarten"
            }
        },
        {
            "id": 34507,
            "type": "Feature",
            "geometry": {
                "type": "Point",
                "coordinates": [
                    20.94312,
                    52.29154
                ]
            },
            "properties": {
                "isced:level": "1;2",
                "ref:rspo": 34507,
                "official_name": "Szko\u0142a Podstawowa Nr 263 im. Powsta\u0144c\u00f3w Wielkopolskich",
                "name": "Szko\u0142a Podstawowa Nr 263",
                "addr:country": "PL",
                "addr:postcode": "01-957",
                "addr:city": "Warszawa",
                "addr:street": "ul. Szegedy\u0144ska",
                "addr:housenumber": "11",
                "addr:teryt:simc": 21890,
                "addr:teryt:sym_ul": 988804,
                "contact:phone": "+48 228345423",
                "contact:email": "mgawryjolek@edu.um.warszawa.pl",
                "contact:website": "http:\/\/www.sp263.edu.pl",
                "ref:regon": "010408940",
                "ref:vatin": "PL1181556999",
                "operator": "Bielany",
                "operator:type": "government",
                "amenity": "school"
            }
        },
        {
            "id": 26487,
            "type": "Feature",
            "geometry": {
                "type": "Point",
                "coordinates": [
                    20.9331299,
                    52.29169
                ]
            },
            "properties": {
                "ref:rspo": 26487,
                "official_name": "Przedszkole Nr 272 im. \"Misia Uszatka\"",
                "name": "Przedszkole Nr 272",
                "addr:country": "PL",
                "addr:postcode": "01-944",
                "addr:city": "Warszawa",
                "addr:street": "ul. Tadeusza Gajcego",
                "addr:housenumber": "9",
                "addr:teryt:simc": 5250,
                "addr:teryt:sym_ul": 988804,
                "contact:phone": "+48 228352157",
                "contact:email": "p272@edu.um.warszawa.pl",
                "contact:website": "http:\/\/www.uszatek.waw.pl",
                "ref:regon": "012524627",
                "ref:vatin": "PL1180784971",
                "operator": "Bielany",
                "operator:type": "government",
                "amenity": "kindergarten"
            }
        },
        {
            "id": 23473,
            "type": "Feature",
            "geometry": {
                "type": "Point",
                "coordinates": [
                    20.94274,
                    52.29219
                ]
            },
            "properties": {
                "ref:rspo": 23473,
                "official_name": "Przedszkole Nr 306 \"Mali Optymi\u015bci\"",
                "name": "Przedszkole Nr 306 \"Mali Optymi\u015bci\"",
                "addr:country": "PL",
                "addr:postcode": "01-957",
                "addr:city": "Warszawa",
                "addr:street": "ul. Szegedy\u0144ska",
                "addr:housenumber": "13",
                "addr:teryt:simc": 21890,
                "addr:teryt:sym_ul": 988804,
                "contact:phone": "+48 228348213",
                "contact:email": "p306@edu.um.warszawa.pl",
                "ref:regon": "012524580",
                "ref:vatin": "PL1180135617",
                "operator": "Bielany",
                "operator:type": "government",
                "amenity": "kindergarten"
            }
        },
        {
            "id": 23464,
            "type": "Feature",
            "geometry": {
                "type": "Point",
                "coordinates": [
                    20.93963,
                    52.29354
                ]
            },
            "properties": {
                "ref:rspo": 23464,
                "official_name": "Przedszkole Nr 334 im. Jasia I Ma\u0142gosi",
                "name": "Przedszkole Nr 334",
                "addr:country": "PL",
                "addr:postcode": "01-960",
                "addr:city": "Warszawa",
                "addr:street": "ul. Przy Agorze",
                "addr:housenumber": "12",
                "addr:teryt:simc": 17803,
                "addr:teryt:sym_ul": 988804,
                "contact:phone": "+48 228347157",
                "contact:email": "p334@edu.um.warszawa.pl",
                "contact:website": "http:\/\/przedszkolandia334.edupage.org",
                "ref:regon": "012047021",
                "ref:vatin": "PL1180118412",
                "operator": "Bielany",
                "operator:type": "government",
                "amenity": "kindergarten"
            }
        },
        {
            "id": 23512,
            "type": "Feature",
            "geometry": {
                "type": "Point",
                "coordinates": [
                    20.93789,
                    52.29431
                ]
            },
            "properties": {
                "ref:rspo": 23512,
                "official_name": "Poradnia Psychologiczno-Pedagogiczna Nr 10",
                "name": "Poradnia Psychologiczno-Pedagogiczna Nr 10",
                "addr:country": "PL",
                "addr:postcode": "01-963",
                "addr:city": "Warszawa",
                "addr:street": "ul. Wrzeciono",
                "addr:housenumber": "24",
                "addr:teryt:simc": 24849,
                "addr:teryt:sym_ul": 988804,
                "contact:phone": "+48 228350348",
                "contact:email": "ppp10@edu.um.warszawa.pl",
                "contact:website": "http:\/\/www.ppp10.waw.pl",
                "ref:regon": "000838111",
                "ref:vatin": "PL1181745453",
                "operator": "Bielany",
                "operator:type": "government",
                "healthcare": "counselling",
                "counselling_type": "education",
                "fixme": "w zale\u017cno\u015bci od przedmiotu dzia\u0142alno\u015bci (np. healthcare=counselling + counselling_type=education albo healthcare=psychotherapist)"
            }
        },
        {
            "id": 23462,
            "type": "Feature",
            "geometry": {
                "type": "Point",
                "coordinates": [
                    20.93878,
                    52.29562
                ]
            },
            "properties": {
                "ref:rspo": 23462,
                "official_name": "Przedszkole Nr 39 \"Pod Topolami\"",
                "name": "Przedszkole Nr 39 \"Pod Topolami\"",
                "addr:country": "PL",
                "addr:postcode": "01-947",
                "addr:city": "Warszawa",
                "addr:street": "ul. Dorycka",
                "addr:housenumber": "1",
                "addr:teryt:simc": 4136,
                "addr:teryt:sym_ul": 988804,
                "contact:phone": "+48 228350809",
                "contact:email": "p39@edu.um.warszawa.pl",
                "contact:website": "http:\/\/www.p39.pl",
                "ref:regon": "012047038",
                "ref:vatin": "PL1180794432",
                "operator": "Bielany",
                "operator:type": "government",
                "amenity": "kindergarten"
            }
        },
        {
            "id": 52985,
            "type": "Feature",
            "geometry": {
                "type": "Point",
                "coordinates": [
                    20.93804,
                    52.2963499
                ]
            },
            "properties": {
                "isced:level": "1;2",
                "ref:rspo": 52985,
                "official_name": "Szko\u0142a Podstawowa Nr 3 Przymierza Rodzin im. B\u0142ogos\u0142awionego Ks. Jerzego Popie\u0142uszki",
                "name": "Szko\u0142a Podstawowa Nr 3 Przymierza Rodzin",
                "addr:country": "PL",
                "addr:postcode": "01-948",
                "addr:city": "Warszawa",
                "addr:street": "ul. Tomasza Nocznickiego",
                "addr:housenumber": "7",
                "addr:teryt:simc": 14295,
                "addr:teryt:sym_ul": 988804,
                "contact:phone": "+48 228649250",
                "contact:email": "p.garal@spr3.edu.pl",
                "contact:website": "http:\/\/www.spr3bielany.edu.pl",
                "ref:regon": "146403466",
                "ref:vatin": "PL1182153111",
                "operator": "Stowarzyszenie \"Przymierze Rodzin\"",
                "operator:type": "ngo",
                "amenity": "school"
            }
        },
        {
            "id": 128503,
            "type": "Feature",
            "geometry": {
                "type": "Point",
                "coordinates": [
                    20.959,
                    52.29654
                ]
            },
            "properties": {
                "ref:rspo": 128503,
                "official_name": "Punkt Przedszkolny \"Le\u015bna Droga\"",
                "name": "Punkt Przedszkolny \"Le\u015bna Droga\"",
                "addr:country": "PL",
                "addr:postcode": "01-815",
                "addr:city": "Warszawa",
                "addr:street": "ul. Dewajtis",
                "addr:housenumber": "3",
                "addr:teryt:simc": 3784,
                "addr:teryt:sym_ul": 988804,
                "contact:phone": "+48 600403430",
                "contact:email": "a.pluska@lesnadroga.edu.pl",
                "ref:regon": "362302261",
                "operator": "Anna P\u0142uska",
                "operator:type": "private",
                "amenity": "kindergarten"
            }
        },
        {
            "id": 129897,
            "type": "Feature",
            "geometry": {
                "type": "Point",
                "coordinates": [
                    20.959,
                    52.29651
                ]
            },
            "properties": {
                "isced:level": "3",
                "ref:rspo": 129897,
                "official_name": "Publiczne Liceum Og\u00f3lnokszta\u0142c\u0105ce im. B\u0142. Ks. Romana Archutowskiego",
                "name": "Publiczne Liceum Og\u00f3lnokszta\u0142c\u0105ce",
                "addr:country": "PL",
                "addr:postcode": "01-815",
                "addr:city": "Warszawa",
                "addr:street": "ul. Dewajtis",
                "addr:housenumber": "3",
                "addr:teryt:simc": 3784,
                "addr:teryt:sym_ul": 988804,
                "contact:phone": "+48 228390840",
                "contact:email": "sekretariat@archutowski.edu.pl",
                "contact:website": "http:\/\/archutowski.edu.pl",
                "ref:regon": "363061842",
                "operator": "Centrum Edukacyjne Archidiecezji Warszawskiej",
                "operator:type": "religious",
                "amenity": "school"
            }
        },
        {
            "id": 266165,
            "type": "Feature",
            "geometry": {
                "type": "Point",
                "coordinates": [
                    20.94274,
                    52.2993499
                ]
            },
            "properties": {
                "ref:rspo": 266165,
                "official_name": "Am Studio Akademia Umiej\u0119tno\u015bci Strzeleckich",
                "name": "Am Studio Akademia Umiej\u0119tno\u015bci Strzeleckich",
                "addr:country": "PL",
                "addr:postcode": "01-977",
                "addr:city": "Warszawa",
                "addr:street": "ul. Marymoncka",
                "addr:housenumber": "42",
                "addr:teryt:simc": 12424,
                "addr:teryt:sym_ul": 988804,
                "contact:phone": "+48 605044055",
                "contact:email": "amstudio@post.pl",
                "ref:regon": "369322203",
                "operator": "Andrzej Martyniak",
                "operator:type": "private",
                "fixme": "w zale\u017cno\u015bci od przedmiotu dzia\u0142alno\u015bci (np. amenity=training + training=*, amenity=dancing_school, amenity=language_school, amenity=music_school)"
            }
        },
        {
            "id": 82619,
            "type": "Feature",
            "geometry": {
                "type": "Point",
                "coordinates": [
                    20.88155,
                    52.30215
                ]
            },
            "properties": {
                "ref:rspo": 82619,
                "official_name": "Prywatne Przedszkole \"\u015apiewaj\u0105ce Brzd\u0105ce\"",
                "name": "Prywatne Przedszkole \"\u015apiewaj\u0105ce Brzd\u0105ce\"",
                "addr:country": "PL",
                "addr:postcode": "01-932",
                "addr:city": "Warszawa",
                "addr:street": "ul. Estrady",
                "addr:housenumber": "75B",
                "addr:teryt:simc": 4834,
                "addr:teryt:sym_ul": 988804,
                "contact:phone": "+48 228179426",
                "contact:email": "agnieszka@spiewajacebrzdace.pl",
                "contact:website": "http:\/\/www.spiewajacebrzdace.pl",
                "ref:regon": "146445499",
                "operator": "Agnieszka P\u0142uciennik",
                "operator:type": "private",
                "amenity": "kindergarten"
            }
        },
        {
            "id": 31951,
            "type": "Feature",
            "geometry": {
                "type": "Point",
                "coordinates": [
                    20.88303,
                    52.30219
                ]
            },
            "properties": {
                "ref:rspo": 31951,
                "official_name": "Niepubliczne Przedszkole \"Rado\u015bni Odkrywcy\"",
                "name": "Niepubliczne Przedszkole \"Rado\u015bni Odkrywcy\"",
                "addr:country": "PL",
                "addr:postcode": "01-932",
                "addr:city": "Warszawa",
                "addr:street": "ul. Estrady",
                "addr:housenumber": "128A",
                "addr:teryt:simc": 4834,
                "addr:teryt:sym_ul": 988804,
                "contact:phone": "+48 796500510",
                "contact:email": "igor.przedszkole@gmail.com",
                "ref:regon": "146364230",
                "operator": "Igor Zaborowski",
                "operator:type": "private",
                "amenity": "kindergarten"
            }
        },
        {
            "id": 265488,
            "type": "Feature",
            "geometry": {
                "type": "Point",
                "coordinates": [
                    20.92415,
                    52.30655
                ]
            },
            "properties": {
                "ref:rspo": 265488,
                "official_name": "Dwuj\u0119zyczno-Prozdrowotne Przedszkole Niepubliczne Kolorowe Kredy",
                "name": "Dwuj\u0119zyczno-Prozdrowotne Przedszkole Niepubliczne Kolorowe Kredy",
                "addr:country": "PL",
                "addr:postcode": "01-990",
                "addr:city": "Warszawa",
                "addr:street": "ul. Encyklopedyczna",
                "addr:housenumber": "17",
                "addr:teryt:simc": 4800,
                "addr:teryt:sym_ul": 988804,
                "contact:phone": "+48 600485005",
                "contact:email": "info@przedszkolekolorowekredy.pl",
                "contact:website": "http:\/\/przedszkolekolorowekredy.pl",
                "ref:regon": "368751505",
                "operator": "Beata Prycel",
                "operator:type": "private",
                "amenity": "kindergarten"
            }
        },
        {
            "id": 129904,
            "type": "Feature",
            "geometry": {
                "type": "Point",
                "coordinates": [
                    20.93394,
                    52.30721
                ]
            },
            "properties": {
                "ref:rspo": 129904,
                "official_name": "Niepubliczny Terapeutyczny Punkt Przedszkolny \"Pastelowa Uk\u0142adanka\"",
                "name": "Niepubliczny Terapeutyczny Punkt Przedszkolny \"Pastelowa Uk\u0142adanka\"",
                "addr:country": "PL",
                "addr:postcode": "01-971",
                "addr:city": "Warszawa",
                "addr:street": "ul. Farysa",
                "addr:housenumber": "57",
                "addr:teryt:simc": 4910,
                "addr:teryt:sym_ul": 988804,
                "contact:phone": "+48 608520636",
                "contact:email": "rafal.kawa@wspieraniewrozwoju.pl",
                "ref:regon": "363066213",
                "operator": "Wspieranie W Rozwoju",
                "operator:type": "ngo",
                "amenity": "kindergarten"
            }
        },
        {
            "id": 271804,
            "type": "Feature",
            "geometry": {
                "type": "Point",
                "coordinates": [
                    20.92014,
                    52.30822
                ]
            },
            "properties": {
                "ref:rspo": 271804,
                "official_name": "Punkt Przedszkolny \"Bluebees - Akademia dla Dzieci Z Autyzmem\"",
                "name": "Punkt Przedszkolny \"Bluebees - Akademia dla Dzieci Z Autyzmem\"",
                "addr:country": "PL",
                "addr:postcode": "01-989",
                "addr:city": "Warszawa",
                "addr:street": "ul. Anny Jagiellonki",
                "addr:housenumber": "2a",
                "addr:teryt:simc": 341,
                "addr:teryt:sym_ul": 988804,
                "contact:phone": "+48 570540047",
                "contact:email": "a.stachowiak@bluebees.pl",
                "contact:website": "http:\/\/bluebees.pl",
                "ref:regon": "383657358",
                "operator": "Fundacja Bluebees",
                "operator:type": "ngo",
                "amenity": "kindergarten"
            }
        },
        {
            "id": 26954,
            "type": "Feature",
            "geometry": {
                "type": "Point",
                "coordinates": [
                    20.92779,
                    52.30862
                ]
            },
            "properties": {
                "isced:level": "3",
                "ref:rspo": 26954,
                "official_name": "Liceum Og\u00f3lnokszta\u0142c\u0105ce Nr 13",
                "name": "Liceum Og\u00f3lnokszta\u0142c\u0105ce Nr 13",
                "addr:country": "PL",
                "addr:postcode": "01-929",
                "addr:city": "Warszawa",
                "addr:street": "ul. Josepha Conrada",
                "addr:housenumber": "7",
                "addr:teryt:simc": 3124,
                "addr:teryt:sym_ul": 988804,
                "contact:phone": "+48 226690332",
                "contact:email": "los13@los13.edu.pl",
                "contact:website": "http:\/\/www.los13.edu.pl",
                "ref:regon": "146340346",
                "operator": "Bartosz Przygoda",
                "operator:type": "private",
                "amenity": "school"
            }
        },
        {
            "id": 85488,
            "type": "Feature",
            "geometry": {
                "type": "Point",
                "coordinates": [
                    20.92779,
                    52.308589999999995
                ]
            },
            "properties": {
                "ref:rspo": 85488,
                "official_name": "Przedszkole \"Akademia Ma\u0142ych Smok\u00f3w\"",
                "name": "Przedszkole \"Akademia Ma\u0142ych Smok\u00f3w\"",
                "addr:country": "PL",
                "addr:postcode": "01-922",
                "addr:city": "Warszawa",
                "addr:street": "ul. Josepha Conrada",
                "addr:housenumber": "7",
                "addr:teryt:simc": 3124,
                "addr:teryt:sym_ul": 988804,
                "contact:phone": "+48 224233434",
                "contact:email": "info@happycentre.pl",
                "ref:regon": "146433600",
                "operator": "Andrzej Niewiarowski",
                "operator:type": "private",
                "amenity": "kindergarten"
            }
        },
        {
            "id": 128471,
            "type": "Feature",
            "geometry": {
                "type": "Point",
                "coordinates": [
                    20.92779,
                    52.30856
                ]
            },
            "properties": {
                "isced:level": "1;2",
                "ref:rspo": 128471,
                "official_name": "Niepubliczna Szko\u0142a Podstawowa",
                "name": "Niepubliczna Szko\u0142a Podstawowa",
                "addr:country": "PL",
                "addr:postcode": "01-929",
                "addr:city": "Warszawa",
                "addr:street": "ul. Josepha Conrada",
                "addr:housenumber": "7",
                "addr:teryt:simc": 3124,
                "addr:teryt:sym_ul": 988804,
                "contact:phone": "+48 226690332",
                "contact:email": "los13@los13.edu.pl",
                "ref:regon": "362290871",
                "operator": "Bartosz Przygoda",
                "operator:type": "private",
                "amenity": "school"
            }
        },
        {
            "id": 124382,
            "type": "Feature",
            "geometry": {
                "type": "Point",
                "coordinates": [
                    20.92291,
                    52.30975
                ]
            },
            "properties": {
                "ref:rspo": 124382,
                "official_name": "Niepubliczne Przedszkole J\u0119zykowe \"Spanglish Garden\"",
                "name": "Niepubliczne Przedszkole J\u0119zykowe \"Spanglish Garden\"",
                "addr:country": "PL",
                "addr:postcode": "01-981",
                "addr:city": "Warszawa",
                "addr:street": "ul. Balaton",
                "addr:housenumber": "8a",
                "addr:teryt:simc": 620,
                "addr:teryt:sym_ul": 988804,
                "contact:phone": "+48 228649300",
                "ref:regon": "147391216",
                "operator": "Marek Boleszczuk",
                "operator:type": "private",
                "amenity": "kindergarten"
            }
        },
        {
            "id": 265898,
            "type": "Feature",
            "geometry": {
                "type": "Point",
                "coordinates": [
                    20.92291,
                    52.30972
                ]
            },
            "properties": {
                "ref:rspo": 265898,
                "official_name": "Niepubliczne Przedszkole \"Motylkowa Akademia\"",
                "name": "Niepubliczne Przedszkole \"Motylkowa Akademia\"",
                "addr:country": "PL",
                "addr:postcode": "01-938",
                "addr:city": "Warszawa",
                "addr:street": "ul. Balaton",
                "addr:housenumber": "8a",
                "addr:teryt:simc": 620,
                "addr:teryt:sym_ul": 988804,
                "contact:phone": "+48 533331210",
                "contact:email": "anna.lange@motylki.edu.pl",
                "ref:regon": "368997235",
                "operator": "Polskie Stowarzyszenie Promocji O\u015bwiatowych Oddzia\u0142 I",
                "operator:type": "ngo",
                "amenity": "kindergarten"
            }
        },
        {
            "id": 23503,
            "type": "Feature",
            "geometry": {
                "type": "Point",
                "coordinates": [
                    20.91984,
                    52.31083
                ]
            },
            "properties": {
                "isced:level": "1;2",
                "ref:rspo": 23503,
                "official_name": "Szko\u0142a Podstawowa Nr 77 im. Wandy Ziele\u0144czyk",
                "name": "Szko\u0142a Podstawowa Nr 77",
                "addr:country": "PL",
                "addr:postcode": "01-980",
                "addr:city": "Warszawa",
                "addr:street": "ul. Samog\u0142oska",
                "addr:housenumber": "9",
                "addr:teryt:simc": 19466,
                "addr:teryt:sym_ul": 988804,
                "contact:phone": "+48 228340992",
                "contact:email": "sp77@edu.um.warszawa.pl",
                "contact:website": "http:\/\/sp77.edupage.org\/",
                "ref:regon": "010412893",
                "ref:vatin": "PL1180132056",
                "operator": "Bielany",
                "operator:type": "government",
                "amenity": "school"
            }
        },
        {
            "id": 132366,
            "type": "Feature",
            "geometry": {
                "type": "Point",
                "coordinates": [
                    20.91546,
                    52.31149
                ]
            },
            "properties": {
                "ref:rspo": 132366,
                "official_name": "Niepubliczne Przedszkole Uniwersytetu Kardyna\u0142a Stefana Wyszy\u0144skiego",
                "name": "Niepubliczne Przedszkole Uniwersytetu Kardyna\u0142a Stefana Wyszy\u0144skiego",
                "addr:country": "PL",
                "addr:postcode": "01-978",
                "addr:city": "Warszawa",
                "addr:street": "ul. \u017bubrowa",
                "addr:housenumber": "12",
                "addr:teryt:simc": 26548,
                "addr:teryt:sym_ul": 988804,
                "contact:phone": "+48 507097739",
                "contact:email": "przedszkole@uksw.edu.pl",
                "ref:regon": "365573888",
                "operator": "Uniwersytet Kardyna\u0142a Stefana Wyszy\u0144skiego W Warszawie",
                "operator:type": "private",
                "amenity": "kindergarten"
            }
        },
        {
            "id": 21428,
            "type": "Feature",
            "geometry": {
                "type": "Point",
                "coordinates": [
                    20.9175,
                    52.31293
                ]
            },
            "properties": {
                "ref:rspo": 21428,
                "official_name": "Olimpiakos Centrum Kszta\u0142cenia Kadr Sportowych",
                "name": "Olimpiakos Centrum Kszta\u0142cenia Kadr Sportowych",
                "addr:country": "PL",
                "addr:postcode": "01-938",
                "addr:city": "Warszawa",
                "addr:street": "ul. Kazimierza W\u00f3ycickiego",
                "addr:housenumber": "1\/3",
                "addr:teryt:simc": 24800,
                "addr:teryt:sym_ul": 988804,
                "contact:phone": "+48 508356718",
                "contact:email": "biuro@olimpiakos.org.pl",
                "contact:website": "http:\/\/www.olimpiakos.org.pl",
                "ref:regon": "146323610",
                "operator": "Krzysztof Mizera",
                "operator:type": "private",
                "fixme": "w zale\u017cno\u015bci od przedmiotu dzia\u0142alno\u015bci (np. amenity=training + training=*, amenity=dancing_school, amenity=language_school, amenity=music_school)"
            }
        },
        {
            "id": 25835,
            "type": "Feature",
            "geometry": {
                "type": "Point",
                "coordinates": [
                    20.9175,
                    52.3129
                ]
            },
            "properties": {
                "isced:level": "3",
                "ref:rspo": 25835,
                "official_name": "Liceum Og\u00f3lnokszta\u0142c\u0105ce Niepubliczne Nr 43 Z Oddzia\u0142ami Dwuj\u0119zycznymi im. Lotnik\u00f3w Ameryka\u0144skich",
                "name": "Liceum Og\u00f3lnokszta\u0142c\u0105ce Niepubliczne Nr 43 Z Oddzia\u0142ami Dwuj\u0119zycznymi",
                "addr:country": "PL",
                "addr:postcode": "01-938",
                "addr:city": "Warszawa",
                "addr:street": "ul. Kazimierza W\u00f3ycickiego",
                "addr:housenumber": "1\/3",
                "addr:teryt:simc": 24800,
                "addr:teryt:sym_ul": 988804,
                "contact:phone": "+48 228354330",
                "contact:email": "sekretariat@pspo.edu.pl",
                "contact:website": "http:\/\/www.pspo.edu.pl",
                "ref:regon": "146441461",
                "operator": "Polskie Stowarzyszenie Promocji O\u015bwiatowych Oddzia\u0142 I",
                "operator:type": "ngo",
                "amenity": "school"
            }
        },
        {
            "id": 28116,
            "type": "Feature",
            "geometry": {
                "type": "Point",
                "coordinates": [
                    20.9175,
                    52.312870000000004
                ]
            },
            "properties": {
                "isced:level": "1;2",
                "ref:rspo": 28116,
                "official_name": "Spo\u0142eczna Szko\u0142a Podstawowa Nr 13 Z Oddzia\u0142ami Dwuj\u0119zycznymi im. Lotnik\u00f3w Ameryka\u0144skich",
                "name": "Spo\u0142eczna Szko\u0142a Podstawowa Nr 13 Z Oddzia\u0142ami Dwuj\u0119zycznymi",
                "addr:country": "PL",
                "addr:postcode": "01-938",
                "addr:city": "Warszawa",
                "addr:street": "ul. Kazimierza W\u00f3ycickiego",
                "addr:housenumber": "1\/3",
                "addr:teryt:simc": 24800,
                "addr:teryt:sym_ul": 988804,
                "contact:phone": "+48 228349188",
                "contact:email": "ssp13@pspo.edu.pl",
                "contact:website": "http:\/\/www.pspo.edu.pl",
                "ref:regon": "146348833",
                "ref:vatin": "PL1180037435",
                "operator": "Polskie Stowarzyszenie Promocji O\u015bwiatowych Oddzia\u0142 I",
                "operator:type": "ngo",
                "amenity": "school"
            }
        },
        {
            "id": 31811,
            "type": "Feature",
            "geometry": {
                "type": "Point",
                "coordinates": [
                    20.9175,
                    52.31284
                ]
            },
            "properties": {
                "isced:level": "1;2",
                "ref:rspo": 31811,
                "official_name": "Katolicka Szko\u0142a Podstawowa Nr 109 Fundacji Na Rzecz Rodziny im. \u015aw. Rodziny",
                "name": "Katolicka Szko\u0142a Podstawowa Nr 109 Fundacji Na Rzecz Rodziny",
                "addr:country": "PL",
                "addr:postcode": "01-938",
                "addr:city": "Warszawa",
                "addr:street": "ul. Kazimierza W\u00f3ycickiego",
                "addr:housenumber": "1\/3",
                "addr:teryt:simc": 24800,
                "addr:teryt:sym_ul": 988804,
                "contact:phone": "+48 228354104",
                "contact:email": "ksp.mlociny@fnrr.pl",
                "contact:website": "http:\/\/www.ksp109.waw.pl",
                "ref:regon": "146377622",
                "ref:vatin": "PL9512153154",
                "operator": "\"Fundacja Na Rzecz Rodziny\"",
                "operator:type": "ngo",
                "amenity": "school"
            }
        },
        {
            "id": 131706,
            "type": "Feature",
            "geometry": {
                "type": "Point",
                "coordinates": [
                    20.01856,
                    52.81954
                ]
            },
            "properties": {
                "isced:level": "1;2",
                "ref:rspo": 131706,
                "official_name": "Szko\u0142a Podstawowa \"Szko\u0142a w Chmurze\"",
                "name": "Szko\u0142a Podstawowa \"Szko\u0142a w Chmurze\"",
                "addr:country": "PL",
                "addr:postcode": "01-874",
                "addr:city": "Warszawa",
                "addr:street": "ul. Zbigniewa Romaszewskiego",
                "addr:housenumber": "23",
                "addr:door": "2",
                "addr:teryt:simc": 52563,
                "addr:teryt:sym_ul": 988804,
                "contact:phone": "+48 605035629",
                "contact:email": "kontakt@szkolawchmurze.org",
                "ref:regon": "365337538",
                "operator": "Szko\u0142a W Chmurze Sp\u00f3\u0142ka Z Ograniczon\u0105 Odpowiedzialno\u015bci\u0105",
                "operator:type": "private",
                "amenity": "school"
            }
        },
        {
            "id": 275491,
            "type": "Feature",
            "geometry": {
                "type": "Point",
                "coordinates": [
                    20.01856,
                    52.81951
                ]
            },
            "properties": {
                "isced:level": "3",
                "ref:rspo": 275491,
                "official_name": "I Liceum w Chmurze",
                "name": "I Liceum w Chmurze",
                "addr:country": "PL",
                "addr:postcode": "01-874",
                "addr:city": "Warszawa",
                "addr:street": "ul. Zbigniewa Romaszewskiego",
                "addr:housenumber": "23",
                "addr:door": "2",
                "addr:teryt:simc": 52563,
                "addr:teryt:sym_ul": 988804,
                "contact:phone": "+48 605035629",
                "contact:email": "kontakt@liceumwchmurze.pl",
                "ref:regon": "386925983",
                "operator": "Szko\u0142a W Chmurze Sp\u00f3\u0142ka Z Ograniczon\u0105 Odpowiedzialno\u015bci\u0105",
                "operator:type": "private",
                "amenity": "school"
            }
        },
        {
            "id": 277925,
            "type": "Feature",
            "geometry": {
                "type": "Point",
                "coordinates": [
                    20.01856,
                    52.819480000000006
                ]
            },
            "properties": {
                "isced:level": "1;2",
                "ref:rspo": 277925,
                "official_name": "Turkusowa Wie\u017ca - Szko\u0142a Podstawowa w Chmurze",
                "name": "Turkusowa Wie\u017ca - Szko\u0142a Podstawowa w Chmurze",
                "addr:country": "PL",
                "addr:postcode": "01-874",
                "addr:city": "Warszawa",
                "addr:street": "ul. Zbigniewa Romaszewskiego",
                "addr:housenumber": "23",
                "addr:door": "2",
                "addr:teryt:simc": 52563,
                "addr:teryt:sym_ul": 988804,
                "contact:phone": "+48 603744329",
                "contact:email": "kontakt@szkolawchmurze.org",
                "ref:regon": "389667458",
                "operator": "Fundacja Spo\u0142ecze\u0144stwo",
                "operator:type": "ngo",
                "amenity": "school"
            }
        }
    ]
}