{
    "type": "FeatureCollection",
    "features": [
        {
            "id": 122980,
            "type": "Feature",
            "geometry": {
                "type": "Point",
                "coordinates": [
                    21.02943,
                    52.24915
                ]
            },
            "properties": {
                "ref:rspo": 122980,
                "official_name": "Niepubliczny O\u015brodek Kszta\u0142cenia Ustawicznego Sub Rosa",
                "name": "Niepubliczny O\u015brodek Kszta\u0142cenia Ustawicznego Sub Rosa",
                "addr:postcode": "03-704",
                "addr:city": "Warszawa",
                "addr:street": "Panie\u0144ska",
                "addr:housenumber": "4",
                "addr:door": "5",
                "addr:teryt:simc": 919298,
                "addr:teryt:sym_ul": 15628,
                "phone": "+48 662296584",
                "email": "salon@subrosa.waw.pl",
                "ref:regon": "147225274",
                "operator": "Agnieszka Niemczura",
                "operator:type": "private",
                "fixme": "w zale\u017cno\u015bci od przedmiotu dzia\u0142alno\u015bci (np. amenity=training + training=*, amenity=dancing_school, amenity=language_school, amenity=music_school)"
            }
        },
        {
            "id": 25422,
            "type": "Feature",
            "geometry": {
                "type": "Point",
                "coordinates": [
                    21.03668,
                    52.25017
                ]
            },
            "properties": {
                "isced:level": "1;2",
                "ref:rspo": 25422,
                "official_name": "Szko\u0142a Podstawowa Nr 50 im. Kr\u00f3lowej Jadwigi w Warszawie",
                "name": "Szko\u0142a Podstawowa Nr 50",
                "addr:postcode": "03-721",
                "addr:city": "Warszawa",
                "addr:street": "Jagiello\u0144ska",
                "addr:housenumber": "7",
                "addr:teryt:simc": 919298,
                "addr:teryt:sym_ul": 7029,
                "phone": "+48 226191754",
                "email": "sekretariat@sp50.waw.pl",
                "website": "http:\/\/sp50.waw.pl",
                "ref:regon": "000801830",
                "ref:vatin": "PL1132051495",
                "operator": "Praga-P\u00f3\u0142noc",
                "operator:type": "government",
                "amenity": "school"
            }
        },
        {
            "id": 20114,
            "type": "Feature",
            "geometry": {
                "type": "Point",
                "coordinates": [
                    21.03474,
                    52.25025
                ]
            },
            "properties": {
                "ref:rspo": 20114,
                "official_name": "Przedszkole Nr 183 w Warszawie",
                "name": "Przedszkole Nr 183 w Warszawie",
                "addr:postcode": "03-713",
                "addr:city": "Warszawa",
                "addr:street": "Wrzesi\u0144ska",
                "addr:housenumber": "10",
                "addr:teryt:simc": 919298,
                "addr:teryt:sym_ul": 24851,
                "phone": "+48 224001779",
                "email": "p183@edu.um.warszawa.pl",
                "website": "http:\/\/www.p183.warszawa.szkolnastrona.pl\/",
                "ref:regon": "013001469",
                "ref:vatin": "PL1132398833",
                "operator": "Praga-P\u00f3\u0142noc",
                "operator:type": "government",
                "amenity": "kindergarten"
            }
        },
        {
            "id": 133484,
            "type": "Feature",
            "geometry": {
                "type": "Point",
                "coordinates": [
                    21.0310099,
                    52.2504599
                ]
            },
            "properties": {
                "isced:level": "1;2",
                "ref:rspo": 133484,
                "official_name": "Szko\u0142a Podstawowa Nr 395 im. Rotmistrza Witolda Pileckiego",
                "name": "Szko\u0142a Podstawowa Nr 395",
                "addr:postcode": "03-709",
                "addr:city": "Warszawa",
                "addr:street": "J\u00f3zefa Sierakowskiego",
                "addr:housenumber": "9",
                "addr:teryt:simc": 919298,
                "addr:teryt:sym_ul": 19850,
                "phone": "+48 226192186",
                "email": "spnr395@gmail.com",
                "website": "http:\/\/pilecki.waw.pl",
                "ref:regon": "367361699",
                "ref:vatin": "PL1132949983",
                "operator": "Praga-P\u00f3\u0142noc",
                "operator:type": "government",
                "amenity": "school"
            }
        },
        {
            "id": 127201,
            "type": "Feature",
            "geometry": {
                "type": "Point",
                "coordinates": [
                    21.0270699,
                    52.25066
                ]
            },
            "properties": {
                "ref:rspo": 127201,
                "official_name": "Ibd Business School",
                "name": "Ibd Business School",
                "addr:postcode": "03-704",
                "addr:city": "Warszawa",
                "addr:street": "Panie\u0144ska",
                "addr:housenumber": "9",
                "addr:door": "1",
                "addr:teryt:simc": 919298,
                "addr:teryt:sym_ul": 15628,
                "phone": "+48 607857186",
                "email": "ibd@ibd.pl",
                "ref:regon": "361198353",
                "operator": "Ibd Business School Sp\u00f3\u0142ka Z Ograniczon\u0105 Odpowiedzialno\u015bci\u0105",
                "operator:type": "private",
                "fixme": "w zale\u017cno\u015bci od przedmiotu dzia\u0142alno\u015bci (np. amenity=training + training=*, amenity=dancing_school, amenity=language_school, amenity=music_school)"
            }
        },
        {
            "id": 266964,
            "type": "Feature",
            "geometry": {
                "type": "Point",
                "coordinates": [
                    21.0270699,
                    52.25063
                ]
            },
            "properties": {
                "ref:rspo": 266964,
                "official_name": "Instytut Rozwoju Biznesu",
                "name": "Instytut Rozwoju Biznesu",
                "addr:postcode": "03-704",
                "addr:city": "Warszawa",
                "addr:street": "Panie\u0144ska",
                "addr:housenumber": "9",
                "addr:door": "1",
                "addr:teryt:simc": 919298,
                "addr:teryt:sym_ul": 15628,
                "phone": "+48 225188583",
                "email": "pfbz@pfbz.pl",
                "ref:regon": "369763657",
                "operator": "Polska Fundacja Bada\u0144 Nad Zarz\u0105dzaniem",
                "operator:type": "ngo",
                "fixme": "w zale\u017cno\u015bci od przedmiotu dzia\u0142alno\u015bci (np. amenity=training + training=*, amenity=dancing_school, amenity=language_school, amenity=music_school)"
            }
        },
        {
            "id": 269048,
            "type": "Feature",
            "geometry": {
                "type": "Point",
                "coordinates": [
                    21.0270699,
                    52.250600000000006
                ]
            },
            "properties": {
                "ref:rspo": 269048,
                "official_name": "Przedszkole Niepubliczne Ulik",
                "name": "Przedszkole Niepubliczne Ulik",
                "addr:postcode": "03-704",
                "addr:city": "Warszawa",
                "addr:street": "Panie\u0144ska",
                "addr:housenumber": "9",
                "addr:door": "4",
                "addr:teryt:simc": 919298,
                "addr:teryt:sym_ul": 15628,
                "phone": "+48 515839555",
                "email": "ulikprzedszkole@gmail.com",
                "ref:regon": "381341036",
                "operator": "Ulik Chimczuka Sp\u00f3\u0142ka Z Ograniczon\u0105 Odpowiedzialno\u015bci\u0105",
                "operator:type": "private",
                "amenity": "kindergarten"
            }
        },
        {
            "id": 121694,
            "type": "Feature",
            "geometry": {
                "type": "Point",
                "coordinates": [
                    21.04447,
                    52.25067
                ]
            },
            "properties": {
                "ref:rspo": 121694,
                "official_name": "Prywatne Centrum Kszta\u0142cenia Zawodowego",
                "name": "Prywatne Centrum Kszta\u0142cenia Zawodowego",
                "addr:postcode": "03-738",
                "addr:city": "Warszawa",
                "addr:street": "Kijowska",
                "addr:housenumber": "3",
                "addr:teryt:simc": 919298,
                "addr:teryt:sym_ul": 8427,
                "phone": "+48 226189692",
                "email": "pckz3@wp.pl",
                "ref:regon": "147078347",
                "operator": "Marta Pacewicz",
                "operator:type": "private",
                "landuse": "education",
                "fixme": "amenity=school, amenity=college albo landuse=education w zale\u017cno\u015bci od tego, jakie plac\u00f3wki wchodz\u0105 w sk\u0142ad zespo\u0142u. Sprawd\u017a, kiedy stosowa\u0107 amenity=* a kiedy landuse=education.",
                "note": "Children RSPO: 27487;52513;73938"
            }
        },
        {
            "id": 122345,
            "type": "Feature",
            "geometry": {
                "type": "Point",
                "coordinates": [
                    21.04447,
                    52.25064
                ]
            },
            "properties": {
                "ref:rspo": 122345,
                "official_name": "Centrum Kszta\u0142cenia Zawodowego \"Kijowska\"",
                "name": "Centrum Kszta\u0142cenia Zawodowego \"Kijowska\"",
                "addr:postcode": "03-738",
                "addr:city": "Warszawa",
                "addr:street": "Kijowska",
                "addr:housenumber": "3",
                "addr:teryt:simc": 919298,
                "addr:teryt:sym_ul": 8427,
                "phone": "+48 226189692",
                "email": "odn@kijowska3.edu.pl",
                "ref:regon": "147135884",
                "operator": "Marta Pacewicz",
                "operator:type": "private",
                "fixme": "w zale\u017cno\u015bci od przedmiotu dzia\u0142alno\u015bci (np. amenity=training + training=*, amenity=dancing_school, amenity=language_school, amenity=music_school)"
            }
        },
        {
            "id": 129558,
            "type": "Feature",
            "geometry": {
                "type": "Point",
                "coordinates": [
                    21.04447,
                    52.25061
                ]
            },
            "properties": {
                "isced:level": "4",
                "ref:rspo": 129558,
                "official_name": "Akademia Realizacji D\u017awi\u0119ku w Warszawie",
                "name": "Akademia Realizacji D\u017awi\u0119ku w Warszawie",
                "addr:postcode": "03-738",
                "addr:city": "Warszawa",
                "addr:street": "Kijowska",
                "addr:housenumber": "3",
                "addr:teryt:simc": 919298,
                "addr:teryt:sym_ul": 8427,
                "phone": "+48 787100777",
                "email": "info@ard.edu.pl",
                "website": "http:\/\/www.ard.edu.pl",
                "ref:regon": "362666336",
                "operator": "Krzysztof Maszota",
                "operator:type": "private",
                "amenity": "college"
            }
        },
        {
            "id": 27487,
            "type": "Feature",
            "geometry": {
                "type": "Point",
                "coordinates": [
                    21.04447,
                    52.25058
                ]
            },
            "properties": {
                "isced:level": "3",
                "ref:rspo": 27487,
                "official_name": "Prywatne Technikum Weterynarii Nr 1 w Prywatnym Centrum Kszta\u0142cenia Zawodowego",
                "name": "Prywatne Technikum Weterynarii Nr 1 w Prywatnym Centrum Kszta\u0142cenia Zawodowego",
                "addr:postcode": "02-638",
                "addr:city": "Warszawa",
                "addr:street": "Kijowska",
                "addr:housenumber": "3",
                "addr:teryt:simc": 919298,
                "addr:teryt:sym_ul": 8427,
                "phone": "+48 226189692",
                "email": "pckz3@wp.pl",
                "website": "http:\/\/www.pckz.edu.pl",
                "ref:regon": "146375439",
                "operator": "Marta Pacewicz",
                "operator:type": "private",
                "amenity": "school",
                "note": "Parent RSPO: 121694"
            }
        },
        {
            "id": 52513,
            "type": "Feature",
            "geometry": {
                "type": "Point",
                "coordinates": [
                    21.04447,
                    52.25055
                ]
            },
            "properties": {
                "isced:level": "4",
                "ref:rspo": 52513,
                "official_name": "Prywatna Szko\u0142a Policealna Nr 1 w Prywatnym Centrum Kszta\u0142cenia Zawodowego",
                "name": "Prywatna Szko\u0142a Policealna Nr 1 w Prywatnym Centrum Kszta\u0142cenia Zawodowego",
                "addr:postcode": "03-738",
                "addr:city": "Warszawa",
                "addr:street": "Kijowska",
                "addr:housenumber": "3",
                "addr:teryt:simc": 919298,
                "addr:teryt:sym_ul": 8427,
                "phone": "+48 226189692",
                "email": "pckz@pckz.edu.pl",
                "website": "http:\/\/www.pckz.edu.pl",
                "ref:regon": "146405494",
                "operator": "Marta Pacewicz",
                "operator:type": "private",
                "amenity": "college",
                "note": "Parent RSPO: 121694"
            }
        },
        {
            "id": 73938,
            "type": "Feature",
            "geometry": {
                "type": "Point",
                "coordinates": [
                    21.04447,
                    52.25052
                ]
            },
            "properties": {
                "isced:level": "4",
                "ref:rspo": 73938,
                "official_name": "Prywatna Szko\u0142a Policealna Nr 1 dla Doros\u0142ychw Prywatnym Centrum Kszta\u0142cenia Zawodowego",
                "name": "Prywatna Szko\u0142a Policealna Nr 1 dla Doros\u0142ychw Prywatnym Centrum Kszta\u0142cenia Zawodowego",
                "addr:postcode": "03-738",
                "addr:city": "Warszawa",
                "addr:street": "Kijowska",
                "addr:housenumber": "3",
                "addr:teryt:simc": 919298,
                "addr:teryt:sym_ul": 8427,
                "phone": "+48 226189140",
                "email": "pckz@pckz.edu.pl",
                "ref:regon": "146439300",
                "operator": "Marta Pacewicz",
                "operator:type": "private",
                "amenity": "college",
                "note": "Parent RSPO: 121694"
            }
        },
        {
            "id": 44142,
            "type": "Feature",
            "geometry": {
                "type": "Point",
                "coordinates": [
                    21.04286,
                    52.2521
                ]
            },
            "properties": {
                "isced:level": "4",
                "ref:rspo": 44142,
                "official_name": "Medyczna Szko\u0142a Policealna Nr 3 im. Dr Andrzeja Krocina w Warszawie",
                "name": "Medyczna Szko\u0142a Policealna Nr 3",
                "addr:postcode": "03-737",
                "addr:city": "Warszawa",
                "addr:street": "Brzeska",
                "addr:housenumber": "12",
                "addr:teryt:simc": 919298,
                "addr:teryt:sym_ul": 2230,
                "phone": "+48 226281341",
                "email": "sekretariat@msp3.waw.pl",
                "website": "http:\/\/www.msp3.waw.pl",
                "ref:regon": "000295395",
                "ref:vatin": "PL5261673516",
                "operator": "Wojew\u00f3dztwo Mazowieckie",
                "operator:type": "government",
                "amenity": "college"
            }
        },
        {
            "id": 84874,
            "type": "Feature",
            "geometry": {
                "type": "Point",
                "coordinates": [
                    21.03574,
                    52.25224
                ]
            },
            "properties": {
                "isced:level": "3",
                "ref:rspo": 84874,
                "official_name": "Wielokulturowe Liceum Humanistyczne im. Jacka Kuronia",
                "name": "Wielokulturowe Liceum Humanistyczne",
                "addr:postcode": "03-708",
                "addr:city": "Warszawa",
                "addr:street": "ks. Ignacego K\u0142opotowskiego",
                "addr:housenumber": "31",
                "addr:teryt:simc": 919298,
                "addr:teryt:sym_ul": 8630,
                "phone": "+48 226702142",
                "email": "szkola@wlh.edu.pl",
                "ref:regon": "146416210",
                "operator": "Towarzystwo Przyjaci\u00f3\u0142 I Spo\u0142ecznego Liceum Og\u00f3lnokszta\u0142c\u0105cego",
                "operator:type": "ngo",
                "amenity": "school"
            }
        },
        {
            "id": 27466,
            "type": "Feature",
            "geometry": {
                "type": "Point",
                "coordinates": [
                    21.034744,
                    52.252403
                ]
            },
            "properties": {
                "ref:rspo": 27466,
                "official_name": "Przedszkole Nr 163 w Warszawie",
                "name": "Przedszkole Nr 163 w Warszawie",
                "addr:postcode": "03-719",
                "addr:city": "Warszawa",
                "addr:street": "Jagiello\u0144ska",
                "addr:housenumber": "28",
                "addr:teryt:simc": 919298,
                "addr:teryt:sym_ul": 7029,
                "phone": "+48 226192542",
                "email": "p163@edu.um.warszawa.pl",
                "website": "http:\/\/www.przedszkolemilusie.blizej.info\/",
                "ref:regon": "013001417",
                "ref:vatin": "PL1132399850",
                "operator": "Praga-P\u00f3\u0142noc",
                "operator:type": "government",
                "amenity": "kindergarten"
            }
        },
        {
            "id": 40982,
            "type": "Feature",
            "geometry": {
                "type": "Point",
                "coordinates": [
                    21.03324,
                    52.2534
                ]
            },
            "properties": {
                "isced:level": "3",
                "ref:rspo": 40982,
                "official_name": "Viii Liceum Og\u00f3lnokszta\u0142c\u0105ce im. W\u0142adys\u0142awa Iv",
                "name": "Viii Liceum Og\u00f3lnokszta\u0142c\u0105ce",
                "addr:postcode": "03-719",
                "addr:city": "Warszawa",
                "addr:street": "Jagiello\u0144ska",
                "addr:housenumber": "38",
                "addr:teryt:simc": 919298,
                "addr:teryt:sym_ul": 7029,
                "phone": "+48 226192745",
                "email": "sekretariat@wladyslaw.edu.pl",
                "website": "http:\/\/www.wladyslaw.edu.pl",
                "ref:regon": "000799010",
                "ref:vatin": "PL1131020848",
                "operator": "Praga-P\u00f3\u0142noc",
                "operator:type": "government",
                "amenity": "school"
            }
        },
        {
            "id": 27703,
            "type": "Feature",
            "geometry": {
                "type": "Point",
                "coordinates": [
                    21.03754,
                    52.2537
                ]
            },
            "properties": {
                "isced:level": "3",
                "ref:rspo": 27703,
                "official_name": "Spo\u0142eczne Liceum Og\u00f3lnokszta\u0142c\u0105ce Nr 3 Spo\u0142ecznego Towarzystwa O\u015bwiatowego",
                "name": "Spo\u0142eczne Liceum Og\u00f3lnokszta\u0142c\u0105ce Nr 3 Spo\u0142ecznego Towarzystwa O\u015bwiatowego",
                "addr:postcode": "03-741",
                "addr:city": "Warszawa",
                "addr:street": "Bia\u0142ostocka",
                "addr:housenumber": "4",
                "addr:teryt:simc": 919298,
                "addr:teryt:sym_ul": 1184,
                "phone": "+48 226193904",
                "email": "spollic3@wp.pl",
                "website": "http:\/\/www.3slo.pl",
                "ref:regon": "146348684",
                "operator": "Samodzielne Ko\u0142o Terenowe Nr 140 Sto",
                "operator:type": "ngo",
                "amenity": "school"
            }
        },
        {
            "id": 122385,
            "type": "Feature",
            "geometry": {
                "type": "Point",
                "coordinates": [
                    21.03754,
                    52.25367
                ]
            },
            "properties": {
                "ref:rspo": 122385,
                "official_name": "Centrum Edukacyjne Migaj Naturalnie",
                "name": "Centrum Edukacyjne Migaj Naturalnie",
                "addr:postcode": "03-741",
                "addr:city": "Warszawa",
                "addr:street": "Bia\u0142ostocka",
                "addr:housenumber": "4",
                "addr:teryt:simc": 919298,
                "addr:teryt:sym_ul": 1184,
                "phone": "+48 228314071",
                "email": "biuro@pzg.org.pl",
                "website": "http:\/\/ww.pzg.org.pl",
                "ref:regon": "147140260",
                "operator": "Polski Zwi\u0105zek G\u0142uchych",
                "operator:type": "ngo",
                "fixme": "w zale\u017cno\u015bci od przedmiotu dzia\u0142alno\u015bci (np. amenity=training + training=*, amenity=dancing_school, amenity=language_school, amenity=music_school)"
            }
        },
        {
            "id": 133548,
            "type": "Feature",
            "geometry": {
                "type": "Point",
                "coordinates": [
                    21.03754,
                    52.253640000000004
                ]
            },
            "properties": {
                "isced:level": "1;2",
                "ref:rspo": 133548,
                "official_name": "Spo\u0142eczna Szko\u0142a Podstawowa im. S. Lema Spo\u0142ecznego Towarzystwa O\u015bwiatowego",
                "name": "Spo\u0142eczna Szko\u0142a Podstawowa",
                "addr:postcode": "03-741",
                "addr:city": "Warszawa",
                "addr:street": "Bia\u0142ostocka",
                "addr:housenumber": "4",
                "addr:teryt:simc": 919298,
                "addr:teryt:sym_ul": 1184,
                "phone": "+48 226193904",
                "email": "spollic3@wp.pl",
                "website": "http:\/\/www.3slo.pl",
                "ref:regon": "367417394",
                "operator": "Samodzielne Ko\u0142o Terenowe Nr 140 Sto",
                "operator:type": "ngo",
                "amenity": "school"
            }
        },
        {
            "id": 20110,
            "type": "Feature",
            "geometry": {
                "type": "Point",
                "coordinates": [
                    21.04693,
                    52.2539299
                ]
            },
            "properties": {
                "ref:rspo": 20110,
                "official_name": "Przedszkole Nr 174 w Warszawie",
                "name": "Przedszkole Nr 174 w Warszawie",
                "addr:postcode": "03-742",
                "addr:city": "Warszawa",
                "addr:street": "Markowska",
                "addr:housenumber": "8",
                "addr:teryt:simc": 919298,
                "addr:teryt:sym_ul": 12375,
                "phone": "+48 226196406",
                "email": "p174@edu.um.warszawa.pl",
                "website": "http:\/\/www.przedszkole174.pl",
                "ref:regon": "013001328",
                "ref:vatin": "PL1132398827",
                "operator": "Praga-P\u00f3\u0142noc",
                "operator:type": "government",
                "amenity": "kindergarten"
            }
        },
        {
            "id": 118664,
            "type": "Feature",
            "geometry": {
                "type": "Point",
                "coordinates": [
                    21.0382001,
                    52.2540409
                ]
            },
            "properties": {
                "ref:rspo": 118664,
                "official_name": "Niepubliczna Poradnia Psychologiczno-Pedagogiczna \"Zielony Balonik\"",
                "name": "Niepubliczna Poradnia Psychologiczno-Pedagogiczna \"Zielony Balonik\"",
                "addr:postcode": "03-741",
                "addr:city": "Warszawa",
                "addr:street": "Bia\u0142ostocka",
                "addr:housenumber": "10",
                "addr:door": "18",
                "addr:teryt:simc": 919298,
                "addr:teryt:sym_ul": 1184,
                "phone": "+48 662633861",
                "email": "poradniazielonybalonik@wp.pl",
                "ref:regon": "146812816",
                "operator": "Kinga Szwarc",
                "operator:type": "private",
                "healthcare": "counselling",
                "counselling_type": "education",
                "fixme": "w zale\u017cno\u015bci od przedmiotu dzia\u0142alno\u015bci (np. healthcare=counselling + counselling_type=education albo healthcare=psychotherapist)"
            }
        },
        {
            "id": 21253,
            "type": "Feature",
            "geometry": {
                "type": "Point",
                "coordinates": [
                    21.03901,
                    52.25421
                ]
            },
            "properties": {
                "isced:level": "1;2",
                "ref:rspo": 21253,
                "official_name": "Szko\u0142a Podstawowa Z Oddzia\u0142ami Integracyjnymi Nr 73 im. Kr\u00f3la Stefana Batorego w Warszawie",
                "name": "Szko\u0142a Podstawowa Z Oddzia\u0142ami Integracyjnymi Nr 73",
                "addr:postcode": "03-741",
                "addr:city": "Warszawa",
                "addr:street": "Bia\u0142ostocka",
                "addr:housenumber": "10\/18",
                "addr:teryt:simc": 919298,
                "addr:teryt:sym_ul": 1184,
                "phone": "+48 226195501",
                "email": "sekretariat@sp73.edu.pl",
                "website": "http:\/\/www.sp73.waw.pl\/",
                "ref:regon": "000801881",
                "ref:vatin": "PL1132398715",
                "operator": "Praga-P\u00f3\u0142noc",
                "operator:type": "government",
                "amenity": "school"
            }
        },
        {
            "id": 70374,
            "type": "Feature",
            "geometry": {
                "type": "Point",
                "coordinates": [
                    21.04823,
                    52.25435
                ]
            },
            "properties": {
                "isced:level": "4",
                "ref:rspo": 70374,
                "official_name": "Policealna Warszawska Szko\u0142a Medyczna",
                "name": "Policealna Warszawska Szko\u0142a Medyczna",
                "addr:postcode": "03-735",
                "addr:city": "Warszawa",
                "addr:street": "Z\u0105bkowska",
                "addr:housenumber": "42",
                "addr:teryt:simc": 919298,
                "addr:teryt:sym_ul": 25882,
                "phone": "+48 783253206",
                "email": "szkola@cezalfa.pl",
                "website": "http:\/\/www.pwsm.edu.pl",
                "ref:regon": "146434171",
                "operator": "Centrum Edukacji Zawodowej Alfa Sp\u00f3\u0142ka Z Ograniczon\u0105 Odpowiedzialno\u015bci\u0105",
                "operator:type": "private",
                "amenity": "college"
            }
        },
        {
            "id": 21235,
            "type": "Feature",
            "geometry": {
                "type": "Point",
                "coordinates": [
                    21.04938,
                    52.25522
                ]
            },
            "properties": {
                "isced:level": "1;2",
                "ref:rspo": 21235,
                "official_name": "Szko\u0142a Podstawowa Z Oddzia\u0142ami Integracyjnymi Nr 30 im. Powsta\u0144c\u00f3w 1863 R. w Warszawie",
                "name": "Szko\u0142a Podstawowa Z Oddzia\u0142ami Integracyjnymi Nr 30",
                "addr:postcode": "03-772",
                "addr:city": "Warszawa",
                "addr:street": "Kaw\u0119czy\u0144ska",
                "addr:housenumber": "2",
                "addr:teryt:simc": 919298,
                "addr:teryt:sym_ul": 8227,
                "phone": "+48 226195382",
                "email": "sp30@edu.um.warszawa.pl",
                "website": "http:\/\/www.sp30.edu.pl\/",
                "ref:regon": "000801993",
                "ref:vatin": "PL1132216401",
                "operator": "Praga-P\u00f3\u0142noc",
                "operator:type": "government",
                "amenity": "school"
            }
        },
        {
            "id": 267766,
            "type": "Feature",
            "geometry": {
                "type": "Point",
                "coordinates": [
                    21.04797,
                    52.25591
                ]
            },
            "properties": {
                "ref:rspo": 267766,
                "official_name": "Zesp\u00f3\u0142 Szkolno-Przedszkolny Nr 10",
                "name": "Zesp\u00f3\u0142 Szkolno-Przedszkolny Nr 10",
                "addr:postcode": "03-746",
                "addr:city": "Warszawa",
                "addr:street": "Tarchomi\u0144ska",
                "addr:housenumber": "4",
                "addr:door": "-",
                "addr:teryt:simc": 919298,
                "addr:teryt:sym_ul": 22643,
                "phone": "+48 226190505",
                "email": "zsp@zspnr10.waw.pl",
                "website": "http:\/\/zspnr10.waw.pl",
                "ref:regon": "380617803",
                "operator": "Miasto Sto\u0142eczne Warszawa",
                "operator:type": "government",
                "landuse": "education",
                "fixme": "amenity=school, amenity=college albo landuse=education w zale\u017cno\u015bci od tego, jakie plac\u00f3wki wchodz\u0105 w sk\u0142ad zespo\u0142u. Sprawd\u017a, kiedy stosowa\u0107 amenity=* a kiedy landuse=education.",
                "note": "Children RSPO: 105667;267767"
            }
        },
        {
            "id": 105667,
            "type": "Feature",
            "geometry": {
                "type": "Point",
                "coordinates": [
                    21.04797,
                    52.25588
                ]
            },
            "properties": {
                "isced:level": "1;2",
                "ref:rspo": 105667,
                "official_name": "Szko\u0142a Podstawowa Specjalna Nr 6",
                "name": "Szko\u0142a Podstawowa Specjalna Nr 6",
                "addr:postcode": "03-746",
                "addr:city": "Warszawa",
                "addr:street": "Tarchomi\u0144ska",
                "addr:housenumber": "4",
                "addr:teryt:simc": 919298,
                "addr:teryt:sym_ul": 22643,
                "phone": "+48 226190505",
                "email": "zsp@zspnr10.waw.pl",
                "website": "http:\/\/www.zspnr10.waw.pl",
                "ref:regon": "000967506",
                "operator": "Miasto Sto\u0142eczne Warszawa",
                "operator:type": "government",
                "amenity": "school",
                "note": "Parent RSPO: 267766"
            }
        },
        {
            "id": 267767,
            "type": "Feature",
            "geometry": {
                "type": "Point",
                "coordinates": [
                    21.04797,
                    52.25585
                ]
            },
            "properties": {
                "ref:rspo": 267767,
                "official_name": "Przedszkole Specjalne Nr 438",
                "name": "Przedszkole Specjalne Nr 438",
                "addr:postcode": "03-746",
                "addr:city": "Warszawa",
                "addr:street": "Tarchomi\u0144ska",
                "addr:housenumber": "4",
                "addr:door": "-",
                "addr:teryt:simc": 919298,
                "addr:teryt:sym_ul": 22643,
                "phone": "+48 226190505",
                "email": "zsp@zspnr10.waw.pl",
                "ref:regon": "380617832",
                "operator": "Miasto Sto\u0142eczne Warszawa",
                "operator:type": "government",
                "amenity": "kindergarten",
                "note": "Parent RSPO: 267766"
            }
        },
        {
            "id": 103585,
            "type": "Feature",
            "geometry": {
                "type": "Point",
                "coordinates": [
                    21.0528825,
                    52.2565193
                ]
            },
            "properties": {
                "isced:level": "1;2",
                "ref:rspo": 103585,
                "official_name": "Og\u00f3lnokszta\u0142c\u0105ca Szko\u0142a Muzyczna I St. im. Stanis\u0142awa Moniuszki w Warszawie",
                "name": "Og\u00f3lnokszta\u0142c\u0105ca Szko\u0142a Muzyczna I St.",
                "addr:postcode": "03-775",
                "addr:city": "Warszawa",
                "addr:street": "Kaw\u0119czy\u0144ska",
                "addr:housenumber": "23",
                "addr:door": "25",
                "addr:teryt:simc": 919298,
                "addr:teryt:sym_ul": 8227,
                "phone": "+48 226190464",
                "email": "zsm.moniuszko@gmail.com",
                "ref:regon": "000276765",
                "operator": "Ministerstwo Kultury I Dziedzictwa Narodowego",
                "operator:type": "public",
                "amenity": "school",
                "note": "Parent RSPO: 14401"
            }
        },
        {
            "id": 103586,
            "type": "Feature",
            "geometry": {
                "type": "Point",
                "coordinates": [
                    21.0528825,
                    52.2564893
                ]
            },
            "properties": {
                "ref:rspo": 103586,
                "official_name": "Pa\u0144stwowa Szko\u0142a Muzyczna I St. w Warszawie",
                "name": "Pa\u0144stwowa Szko\u0142a Muzyczna I St. w Warszawie",
                "addr:postcode": "03-775",
                "addr:city": "Warszawa",
                "addr:street": "Kaw\u0119czy\u0144ska",
                "addr:housenumber": "23",
                "addr:door": "25",
                "addr:teryt:simc": 919298,
                "addr:teryt:sym_ul": 8227,
                "phone": "+48 226190464",
                "ref:regon": "146445720",
                "operator": "Ministerstwo Kultury I Dziedzictwa Narodowego",
                "operator:type": "public",
                "amenity": "music_school",
                "note": "Parent RSPO: 14401"
            }
        },
        {
            "id": 20106,
            "type": "Feature",
            "geometry": {
                "type": "Point",
                "coordinates": [
                    21.0302991,
                    52.2566009
                ]
            },
            "properties": {
                "ref:rspo": 20106,
                "official_name": "Przedszkole Nr 165 w Warszawie",
                "name": "Przedszkole Nr 165 w Warszawie",
                "addr:postcode": "03-461",
                "addr:city": "Warszawa",
                "addr:street": "Ratuszowa",
                "addr:housenumber": "8a",
                "addr:teryt:simc": 919298,
                "addr:teryt:sym_ul": 18489,
                "phone": "+48 226192804",
                "email": "p165@edu.um.warszawa.pl",
                "website": "http:\/\/przedszkole165.pl\/",
                "ref:regon": "013001452",
                "ref:vatin": "PL1132398773",
                "operator": "Praga-P\u00f3\u0142noc",
                "operator:type": "government",
                "amenity": "kindergarten"
            }
        },
        {
            "id": 21312,
            "type": "Feature",
            "geometry": {
                "type": "Point",
                "coordinates": [
                    21.029779434204,
                    52.256801605225
                ]
            },
            "properties": {
                "isced:level": "1;2",
                "ref:rspo": 21312,
                "official_name": "Szko\u0142a Podstawowa Nr 258 im. Gen. Jakuba Jasi\u0144skiego",
                "name": "Szko\u0142a Podstawowa Nr 258",
                "addr:postcode": "03-472",
                "addr:city": "Warszawa",
                "addr:street": "Bertolta Brechta",
                "addr:housenumber": "8",
                "addr:teryt:simc": 919298,
                "addr:teryt:sym_ul": 2073,
                "phone": "+48 226192385",
                "email": "sekretariat@sp258.edu.pl",
                "website": "http:\/\/www.sp258.edu.pl",
                "ref:regon": "000801616",
                "ref:vatin": "PL1132379439",
                "operator": "Praga-P\u00f3\u0142noc",
                "operator:type": "government",
                "amenity": "school",
                "note": "Children RSPO: 122436"
            }
        },
        {
            "id": 272624,
            "type": "Feature",
            "geometry": {
                "type": "Point",
                "coordinates": [
                    21.029779434204,
                    52.256771605225
                ]
            },
            "properties": {
                "isced:level": "4",
                "ref:rspo": 272624,
                "official_name": "Policealna Szko\u0142a Ochrony Zdrowia \"Omega\" w Warszawie",
                "name": "Policealna Szko\u0142a Ochrony Zdrowia \"Omega\" w Warszawie",
                "addr:postcode": "03-472",
                "addr:city": "Warszawa",
                "addr:street": "Bertolta Brechta",
                "addr:housenumber": "8",
                "addr:teryt:simc": 919298,
                "addr:teryt:sym_ul": 2073,
                "phone": "+48 413445171",
                "ref:regon": "384270532",
                "operator": "Lokalne Centrum Edukacji \"Omega\" \u0141oboda - Tamborowska Sp\u00f3\u0142ka Z Ograniczon\u0105 Odpowiedzialno\u015bci\u0105",
                "operator:type": "private",
                "amenity": "college"
            }
        },
        {
            "id": 14401,
            "type": "Feature",
            "geometry": {
                "type": "Point",
                "coordinates": [
                    21.05393,
                    52.25697
                ]
            },
            "properties": {
                "ref:rspo": 14401,
                "official_name": "Zesp\u00f3\u0142 Szk\u00f3\u0142 Muzycznych I St. im. Stanis\u0142awa Moniuszki w Warszawie",
                "name": "Zesp\u00f3\u0142 Szk\u00f3\u0142 Muzycznych I St.",
                "addr:postcode": "03-775",
                "addr:city": "Warszawa",
                "addr:street": "Kaw\u0119czy\u0144ska",
                "addr:housenumber": "23\/25",
                "addr:teryt:simc": 919298,
                "addr:teryt:sym_ul": 8227,
                "phone": "+48 226190464",
                "email": "zsm.moniuszko@gmail.com",
                "website": "http:\/\/szkola-moniuszko.edu.pl",
                "ref:regon": "141098745",
                "operator": "Ministerstwo Kultury I Dziedzictwa Narodowego",
                "operator:type": "public",
                "landuse": "education",
                "fixme": "amenity=school, amenity=college albo landuse=education w zale\u017cno\u015bci od tego, jakie plac\u00f3wki wchodz\u0105 w sk\u0142ad zespo\u0142u. Sprawd\u017a, kiedy stosowa\u0107 amenity=* a kiedy landuse=education.",
                "note": "Children RSPO: 103585;103586"
            }
        },
        {
            "id": 31134,
            "type": "Feature",
            "geometry": {
                "type": "Point",
                "coordinates": [
                    21.057,
                    52.25746
                ]
            },
            "properties": {
                "isced:level": "3",
                "ref:rspo": 31134,
                "official_name": "Akademickie Liceum Og\u00f3lnokszta\u0142c\u0105ce Wy\u017cszej Szko\u0142y Mened\u017cerskiej w Warszawie",
                "name": "Akademickie Liceum Og\u00f3lnokszta\u0142c\u0105ce Wy\u017cszej Szko\u0142y Mened\u017cerskiej w Warszawie",
                "addr:postcode": "03-772",
                "addr:city": "Warszawa",
                "addr:street": "Kaw\u0119czy\u0144ska",
                "addr:housenumber": "36",
                "addr:teryt:simc": 919298,
                "addr:teryt:sym_ul": 8227,
                "phone": "+48 228188302",
                "email": "superszkola@mac.edu.pl",
                "website": "https:\/\/liceum.wsm.warszawa.pl\/",
                "ref:regon": "146350110",
                "operator": "\"Wy\u017csza Szko\u0142a Mened\u017cerska W Warszawie\"",
                "operator:type": "private",
                "amenity": "school"
            }
        },
        {
            "id": 77429,
            "type": "Feature",
            "geometry": {
                "type": "Point",
                "coordinates": [
                    21.057,
                    52.25743
                ]
            },
            "properties": {
                "isced:level": "4",
                "ref:rspo": 77429,
                "official_name": "Regionalny O\u015brodek Edukacji Szko\u0142a Policealna",
                "name": "Regionalny O\u015brodek Edukacji Szko\u0142a Policealna",
                "addr:postcode": "03-772",
                "addr:city": "Warszawa",
                "addr:street": "Kaw\u0119czy\u0144ska",
                "addr:housenumber": "36",
                "addr:teryt:simc": 919298,
                "addr:teryt:sym_ul": 8227,
                "phone": "+48 228270137",
                "email": "biuro@roe.pl",
                "website": "http:\/\/www.roe.pl",
                "ref:regon": "146434113",
                "operator": "Regionalny O\u015brodek Edukacji Sp\u00f3\u0142ka Z Ograniczon\u0105 Odpowiedzialno\u015bci\u0105",
                "operator:type": "private",
                "amenity": "college"
            }
        },
        {
            "id": 110061,
            "type": "Feature",
            "geometry": {
                "type": "Point",
                "coordinates": [
                    21.057,
                    52.257400000000004
                ]
            },
            "properties": {
                "isced:level": "4",
                "ref:rspo": 110061,
                "official_name": "Niepubliczna Artystyczna Policealna Szko\u0142a Plastyczna Roe w Warszawie",
                "name": "Niepubliczna Artystyczna Policealna Szko\u0142a Plastyczna Roe w Warszawie",
                "addr:postcode": "03-772",
                "addr:city": "Warszawa",
                "addr:street": "Kaw\u0119czy\u0144ska",
                "addr:housenumber": "36",
                "addr:teryt:simc": 919298,
                "addr:teryt:sym_ul": 8227,
                "phone": "+48 228270137",
                "email": "biuro@roe.pl",
                "website": "http:\/\/www.roe.pl",
                "ref:regon": "146548331",
                "operator": "Regionalny O\u015brodek Edukacji Sp\u00f3\u0142ka Z Ograniczon\u0105 Odpowiedzialno\u015bci\u0105",
                "operator:type": "private",
                "amenity": "college"
            }
        },
        {
            "id": 110421,
            "type": "Feature",
            "geometry": {
                "type": "Point",
                "coordinates": [
                    21.057,
                    52.25737
                ]
            },
            "properties": {
                "isced:level": "4",
                "ref:rspo": 110421,
                "official_name": "Niepubliczna Policealna Szko\u0142a Wiza\u017cu I Charakteryzacji Make Up Star w Warszawie",
                "name": "Niepubliczna Policealna Szko\u0142a Wiza\u017cu I Charakteryzacji Make Up Star w Warszawie",
                "addr:postcode": "03-772",
                "addr:city": "Warszawa",
                "addr:street": "Kaw\u0119czy\u0144ska",
                "addr:housenumber": "36",
                "addr:teryt:simc": 919298,
                "addr:teryt:sym_ul": 8227,
                "phone": "+48 228704567",
                "email": "sekretariat@szkolawizazu.pl",
                "website": "http:\/\/www.szkolawizazu.pl",
                "ref:regon": "146555615",
                "operator": "Beata Dr\u00f3\u017cd\u017c",
                "operator:type": "private",
                "amenity": "college"
            }
        },
        {
            "id": 122378,
            "type": "Feature",
            "geometry": {
                "type": "Point",
                "coordinates": [
                    21.057,
                    52.25734
                ]
            },
            "properties": {
                "ref:rspo": 122378,
                "official_name": "Akademia Wiza\u017cu, Stylizacji I Charakteryzacji Make Up Star - Plac\u00f3wka Kszta\u0142cenia Ustawicznego",
                "name": "Akademia Wiza\u017cu, Stylizacji I Charakteryzacji Make Up Star - Plac\u00f3wka Kszta\u0142cenia Ustawicznego",
                "addr:postcode": "03-772",
                "addr:city": "Warszawa",
                "addr:street": "Kaw\u0119czy\u0144ska",
                "addr:housenumber": "36",
                "addr:teryt:simc": 919298,
                "addr:teryt:sym_ul": 8227,
                "phone": "+48 228704567",
                "email": "biuro@szkolawizazu.pl",
                "website": "http:\/\/www.szkolawizazu.pl",
                "ref:regon": "147138351",
                "operator": "Beata Dr\u00f3\u017cd\u017c",
                "operator:type": "private",
                "fixme": "w zale\u017cno\u015bci od przedmiotu dzia\u0142alno\u015bci (np. amenity=training + training=*, amenity=dancing_school, amenity=language_school, amenity=music_school)"
            }
        },
        {
            "id": 131740,
            "type": "Feature",
            "geometry": {
                "type": "Point",
                "coordinates": [
                    21.057,
                    52.257310000000004
                ]
            },
            "properties": {
                "isced:level": "4",
                "ref:rspo": 131740,
                "official_name": "Policealna Szko\u0142a Zawodowa Edicus w Warszawie",
                "name": "Policealna Szko\u0142a Zawodowa Edicus w Warszawie",
                "addr:postcode": "03-772",
                "addr:city": "Warszawa",
                "addr:street": "Kaw\u0119czy\u0144ska",
                "addr:housenumber": "36",
                "addr:teryt:simc": 919298,
                "addr:teryt:sym_ul": 8227,
                "phone": "+48 725777725",
                "email": "orwig@interia.pl",
                "ref:regon": "365340658",
                "operator": "Iwona Poteralska",
                "operator:type": "private",
                "amenity": "college"
            }
        },
        {
            "id": 133636,
            "type": "Feature",
            "geometry": {
                "type": "Point",
                "coordinates": [
                    21.057,
                    52.25728
                ]
            },
            "properties": {
                "isced:level": "1;2",
                "ref:rspo": 133636,
                "official_name": "Akademicka Szko\u0142a Podstawowa Wy\u017cszej Szko\u0142y Mened\u017cerskiej w Warszawie",
                "name": "Akademicka Szko\u0142a Podstawowa Wy\u017cszej Szko\u0142y Mened\u017cerskiej w Warszawie",
                "addr:postcode": "03-772",
                "addr:city": "Warszawa",
                "addr:street": "Kaw\u0119czy\u0144ska",
                "addr:housenumber": "36",
                "addr:teryt:simc": 919298,
                "addr:teryt:sym_ul": 8227,
                "phone": "+48 228188302",
                "email": "superszkola@mac.edu.pl",
                "website": "https:\/\/liceum.wsm.warszawa.pl\/",
                "ref:regon": "367511012",
                "operator": "\"Wy\u017csza Szko\u0142a Mened\u017cerska W Warszawie\"",
                "operator:type": "private",
                "amenity": "school"
            }
        },
        {
            "id": 28199,
            "type": "Feature",
            "geometry": {
                "type": "Point",
                "coordinates": [
                    21.03258,
                    52.25751
                ]
            },
            "properties": {
                "ref:rspo": 28199,
                "official_name": "Zesp\u00f3\u0142 Szk\u00f3\u0142 Nr 33 w Warszawie",
                "name": "Zesp\u00f3\u0142 Szk\u00f3\u0142 Nr 33 w Warszawie",
                "addr:postcode": "03-448",
                "addr:city": "Warszawa",
                "addr:street": "Targowa",
                "addr:housenumber": "86",
                "addr:teryt:simc": 919298,
                "addr:teryt:sym_ul": 22659,
                "phone": "+48 226193486",
                "email": "zs33@zs33.pl",
                "website": "http:\/\/zs33.pl",
                "ref:regon": "000196115",
                "ref:vatin": "PL5241016637",
                "operator": "Praga-P\u00f3\u0142noc",
                "operator:type": "government",
                "landuse": "education",
                "fixme": "amenity=school, amenity=college albo landuse=education w zale\u017cno\u015bci od tego, jakie plac\u00f3wki wchodz\u0105 w sk\u0142ad zespo\u0142u. Sprawd\u017a, kiedy stosowa\u0107 amenity=* a kiedy landuse=education.",
                "note": "Children RSPO: 42427;42428;42430;122432"
            }
        },
        {
            "id": 62426,
            "type": "Feature",
            "geometry": {
                "type": "Point",
                "coordinates": [
                    21.03258,
                    52.25748
                ]
            },
            "properties": {
                "isced:level": "4",
                "ref:rspo": 62426,
                "official_name": "Policealna Szko\u0142a Kszta\u0142c\u0105ca w Niekt\u00f3rych Zawodach Medycznych I Spo\u0142ecznych w Warszawie",
                "name": "Policealna Szko\u0142a Kszta\u0142c\u0105ca w Niekt\u00f3rych Zawodach Medycznych I Spo\u0142ecznych w Warszawie",
                "addr:postcode": "03-448",
                "addr:city": "Warszawa",
                "addr:street": "Targowa",
                "addr:housenumber": "86",
                "addr:teryt:simc": 919298,
                "addr:teryt:sym_ul": 22659,
                "phone": "+48 602514352",
                "email": "medszkola@gmail.com",
                "website": "http:\/\/www.edu-szkola.pl",
                "ref:regon": "146441142",
                "operator": "Barbara Boda-Le\u015bniak",
                "operator:type": "private",
                "amenity": "college"
            }
        },
        {
            "id": 42427,
            "type": "Feature",
            "geometry": {
                "type": "Point",
                "coordinates": [
                    21.03258,
                    52.257450000000006
                ]
            },
            "properties": {
                "isced:level": "3",
                "ref:rspo": 42427,
                "official_name": "Technikum Nr 6 w Warszawie",
                "name": "Technikum Nr 6 w Warszawie",
                "addr:postcode": "03-448",
                "addr:city": "Warszawa",
                "addr:street": "Targowa",
                "addr:housenumber": "86",
                "addr:teryt:simc": 919298,
                "addr:teryt:sym_ul": 22659,
                "phone": "+48 226193486",
                "email": "zs33@zs33.pl",
                "website": "http:\/\/zs33.pl\/",
                "ref:regon": "140072904",
                "operator": "Praga-P\u00f3\u0142noc",
                "operator:type": "government",
                "amenity": "school",
                "note": "Parent RSPO: 28199"
            }
        },
        {
            "id": 42428,
            "type": "Feature",
            "geometry": {
                "type": "Point",
                "coordinates": [
                    21.03258,
                    52.25742
                ]
            },
            "properties": {
                "isced:level": "3",
                "ref:rspo": 42428,
                "official_name": "Bran\u017cowa Szko\u0142a I Stopnia Nr 7 w Warszawie",
                "name": "Bran\u017cowa Szko\u0142a I Stopnia Nr 7 w Warszawie",
                "addr:postcode": "03-448",
                "addr:city": "Warszawa",
                "addr:street": "Targowa",
                "addr:housenumber": "86",
                "addr:teryt:simc": 919298,
                "addr:teryt:sym_ul": 22659,
                "phone": "+48 226193486",
                "email": "zs33@zs33.pl",
                "website": "http:\/\/zs33.pl\/",
                "ref:regon": "015781141",
                "operator": "Praga-P\u00f3\u0142noc",
                "operator:type": "government",
                "amenity": "school",
                "note": "Parent RSPO: 28199"
            }
        },
        {
            "id": 42430,
            "type": "Feature",
            "geometry": {
                "type": "Point",
                "coordinates": [
                    21.03258,
                    52.25739
                ]
            },
            "properties": {
                "isced:level": "4",
                "ref:rspo": 42430,
                "official_name": "Szko\u0142a Policealna Nr 21 w Warszawie",
                "name": "Szko\u0142a Policealna Nr 21 w Warszawie",
                "addr:postcode": "03-448",
                "addr:city": "Warszawa",
                "addr:street": "Targowa",
                "addr:housenumber": "86",
                "addr:teryt:simc": 919298,
                "addr:teryt:sym_ul": 22659,
                "phone": "+48 226193486",
                "email": "zs33@zs33.pl",
                "website": "http:\/\/zs33.pl\/",
                "ref:regon": "140340279",
                "operator": "Praga-P\u00f3\u0142noc",
                "operator:type": "government",
                "amenity": "college",
                "note": "Parent RSPO: 28199"
            }
        },
        {
            "id": 122432,
            "type": "Feature",
            "geometry": {
                "type": "Point",
                "coordinates": [
                    21.03258,
                    52.257360000000006
                ]
            },
            "properties": {
                "isced:level": "3",
                "ref:rspo": 122432,
                "official_name": "Cxlvi Liceum Og\u00f3lnokszta\u0142c\u0105ce dla Doros\u0142ych w Warszawie",
                "name": "Cxlvi Liceum Og\u00f3lnokszta\u0142c\u0105ce dla Doros\u0142ych w Warszawie",
                "addr:postcode": "03-448",
                "addr:city": "Warszawa",
                "addr:street": "Targowa",
                "addr:housenumber": "86",
                "addr:teryt:simc": 919298,
                "addr:teryt:sym_ul": 22659,
                "phone": "+48 226193486",
                "email": "zs33@zs33.pl",
                "ref:regon": "147143263",
                "operator": "Praga-P\u00f3\u0142noc",
                "operator:type": "government",
                "amenity": "school",
                "note": "Parent RSPO: 28199"
            }
        },
        {
            "id": 19083,
            "type": "Feature",
            "geometry": {
                "type": "Point",
                "coordinates": [
                    21.06117,
                    52.2577659
                ]
            },
            "properties": {
                "ref:rspo": 19083,
                "official_name": "Zesp\u00f3\u0142 Szk\u00f3\u0142 Nr 40 im. Stefana Starzy\u0144skiego w Warszawie",
                "name": "Zesp\u00f3\u0142 Szk\u00f3\u0142 Nr 40",
                "addr:postcode": "03-771",
                "addr:city": "Warszawa",
                "addr:street": "Objazdowa",
                "addr:housenumber": "3",
                "addr:teryt:simc": 919298,
                "addr:teryt:sym_ul": 14575,
                "phone": "+48 226194540",
                "email": "szkola@zs40.pl",
                "website": "http:\/\/zs40.pl\/",
                "ref:regon": "000183495",
                "ref:vatin": "PL1131335285",
                "operator": "Praga-P\u00f3\u0142noc",
                "operator:type": "government",
                "landuse": "education",
                "fixme": "amenity=school, amenity=college albo landuse=education w zale\u017cno\u015bci od tego, jakie plac\u00f3wki wchodz\u0105 w sk\u0142ad zespo\u0142u. Sprawd\u017a, kiedy stosowa\u0107 amenity=* a kiedy landuse=education.",
                "note": "Children RSPO: 20379;20395;20436"
            }
        },
        {
            "id": 278550,
            "type": "Feature",
            "geometry": {
                "type": "Point",
                "coordinates": [
                    21.06117,
                    52.2577359
                ]
            },
            "properties": {
                "ref:rspo": 278550,
                "official_name": "Centrum Strzelecko-Treningowe",
                "name": "Centrum Strzelecko-Treningowe",
                "addr:postcode": "03-771",
                "addr:city": "Warszawa",
                "addr:street": "Objazdowa",
                "addr:housenumber": "3",
                "addr:teryt:simc": 919298,
                "addr:teryt:sym_ul": 14575,
                "phone": "+48 668161961",
                "email": "kontakt@centrumst.com",
                "ref:regon": "389969604",
                "operator": "Kamil Skwierczy\u0144ski",
                "operator:type": "private",
                "fixme": "w zale\u017cno\u015bci od przedmiotu dzia\u0142alno\u015bci (np. amenity=training + training=*, amenity=dancing_school, amenity=language_school, amenity=music_school)"
            }
        },
        {
            "id": 20379,
            "type": "Feature",
            "geometry": {
                "type": "Point",
                "coordinates": [
                    21.06117,
                    52.257705900000005
                ]
            },
            "properties": {
                "isced:level": "3",
                "ref:rspo": 20379,
                "official_name": "Technikum Mechaniczne Nr 5 im. Stefana Starzy\u0144skiego w Warszawie",
                "name": "Technikum Mechaniczne Nr 5",
                "addr:postcode": "03-771",
                "addr:city": "Warszawa",
                "addr:street": "Objazdowa",
                "addr:housenumber": "3",
                "addr:teryt:simc": 919298,
                "addr:teryt:sym_ul": 14575,
                "phone": "+48 226194540",
                "email": "szkola@zs40.pl",
                "website": "http:\/\/zs40.pl",
                "ref:regon": "015788284",
                "ref:vatin": "PL1131335285",
                "operator": "Praga-P\u00f3\u0142noc",
                "operator:type": "government",
                "amenity": "school",
                "note": "Parent RSPO: 19083"
            }
        },
        {
            "id": 20395,
            "type": "Feature",
            "geometry": {
                "type": "Point",
                "coordinates": [
                    21.06117,
                    52.2576759
                ]
            },
            "properties": {
                "isced:level": "3",
                "ref:rspo": 20395,
                "official_name": "Xx Liceum Og\u00f3lnokszta\u0142c\u0105ce im. Boles\u0142awa Chrobrego w Warszawie",
                "name": "Xx Liceum Og\u00f3lnokszta\u0142c\u0105ce",
                "addr:postcode": "03-771",
                "addr:city": "Warszawa",
                "addr:street": "Objazdowa",
                "addr:housenumber": "3",
                "addr:teryt:simc": 919298,
                "addr:teryt:sym_ul": 14575,
                "phone": "+48 226194540",
                "email": "szkola@zs40.pl",
                "website": "http:\/\/zs40.pl",
                "ref:regon": "000799032",
                "ref:vatin": "PL1131335285",
                "operator": "Praga-P\u00f3\u0142noc",
                "operator:type": "government",
                "amenity": "school",
                "note": "Parent RSPO: 19083"
            }
        },
        {
            "id": 20436,
            "type": "Feature",
            "geometry": {
                "type": "Point",
                "coordinates": [
                    21.06117,
                    52.2576459
                ]
            },
            "properties": {
                "isced:level": "3",
                "ref:rspo": 20436,
                "official_name": "Bran\u017cowa Szko\u0142a I Stopnia Nr 12 im. Stefana Starzy\u0144skiego",
                "name": "Bran\u017cowa Szko\u0142a I Stopnia Nr 12",
                "addr:postcode": "03-771",
                "addr:city": "Warszawa",
                "addr:street": "Objazdowa",
                "addr:housenumber": "3",
                "addr:teryt:simc": 919298,
                "addr:teryt:sym_ul": 14575,
                "phone": "+48 226194540",
                "email": "szkola@zs40.pl",
                "website": "http:\/\/zs40.pl\/",
                "ref:regon": "146319286",
                "ref:vatin": "PL1131335285",
                "operator": "Praga-P\u00f3\u0142noc",
                "operator:type": "government",
                "amenity": "school",
                "note": "Parent RSPO: 19083"
            }
        },
        {
            "id": 20113,
            "type": "Feature",
            "geometry": {
                "type": "Point",
                "coordinates": [
                    21.052884,
                    52.2578759
                ]
            },
            "properties": {
                "ref:rspo": 20113,
                "official_name": "Przedszkole Nr 186",
                "name": "Przedszkole Nr 186",
                "addr:postcode": "03-755",
                "addr:city": "Warszawa",
                "addr:street": "Wo\u0142omi\u0144ska",
                "addr:housenumber": "12\/18",
                "addr:teryt:simc": 919298,
                "addr:teryt:sym_ul": 24722,
                "phone": "+48 226190605",
                "email": "p186@edu.um.warszawa.pl",
                "website": "http:\/\/www.przedszkole186.pl",
                "ref:regon": "013001498",
                "ref:vatin": "PL1132398856",
                "operator": "Praga-P\u00f3\u0142noc",
                "operator:type": "government",
                "amenity": "kindergarten"
            }
        },
        {
            "id": 81774,
            "type": "Feature",
            "geometry": {
                "type": "Point",
                "coordinates": [
                    21.05749,
                    52.25792
                ]
            },
            "properties": {
                "ref:rspo": 81774,
                "official_name": "Specjalny O\u015brodek Wychowawczy Caritas Diecezji Warszawsko-Praskiej",
                "name": "Specjalny O\u015brodek Wychowawczy Caritas Diecezji Warszawsko-Praskiej",
                "addr:postcode": "03-775",
                "addr:city": "Warszawa",
                "addr:street": "Kaw\u0119czy\u0144ska",
                "addr:housenumber": "49",
                "addr:teryt:simc": 919298,
                "addr:teryt:sym_ul": 8227,
                "phone": "+48 228188149",
                "email": "sow.warszawa@caritas.pl",
                "website": "http:\/\/www.warszawa-praga.pl",
                "ref:regon": "146444488",
                "ref:vatin": "PL1131079818",
                "operator": "Caritas Diecezji Warszawsko-Praskiej",
                "operator:type": "religious",
                "amenity": "social_facility",
                "social_facility": "group_home",
                "social_facility:for": "child;juvenile"
            }
        },
        {
            "id": 120577,
            "type": "Feature",
            "geometry": {
                "type": "Point",
                "coordinates": [
                    21.03162,
                    52.25799
                ]
            },
            "properties": {
                "isced:level": "3",
                "ref:rspo": 120577,
                "official_name": "Liceum Og\u00f3lnokszta\u0142c\u0105ce dla Doros\u0142ych",
                "name": "Liceum Og\u00f3lnokszta\u0142c\u0105ce dla Doros\u0142ych",
                "addr:postcode": "03-450",
                "addr:city": "Warszawa",
                "addr:street": "Ratuszowa",
                "addr:housenumber": "11",
                "addr:teryt:simc": 919298,
                "addr:teryt:sym_ul": 18489,
                "phone": "+48 693809073",
                "email": "jola.blus@interia.pl",
                "website": "http:\/\/www.szkolyparva.pl",
                "ref:regon": "146921333",
                "operator": "Jolanta B\u0142u\u015b",
                "operator:type": "private",
                "amenity": "school"
            }
        },
        {
            "id": 267951,
            "type": "Feature",
            "geometry": {
                "type": "Point",
                "coordinates": [
                    21.03162,
                    52.25796
                ]
            },
            "properties": {
                "ref:rspo": 267951,
                "official_name": "Diamond Plac\u00f3wka Kszta\u0142cenia Ustawicznego w Warszawie",
                "name": "Diamond Plac\u00f3wka Kszta\u0142cenia Ustawicznego w Warszawie",
                "addr:postcode": "03-450",
                "addr:city": "Warszawa",
                "addr:street": "Ratuszowa",
                "addr:housenumber": "11",
                "addr:door": "341",
                "addr:teryt:simc": 919298,
                "addr:teryt:sym_ul": 18489,
                "phone": "+48 795732851",
                "email": "warszawa@diamond.edu.pl",
                "ref:regon": "380784375",
                "operator": "Iwona Miernicka",
                "operator:type": "private",
                "fixme": "w zale\u017cno\u015bci od przedmiotu dzia\u0142alno\u015bci (np. amenity=training + training=*, amenity=dancing_school, amenity=language_school, amenity=music_school)"
            }
        },
        {
            "id": 25135,
            "type": "Feature",
            "geometry": {
                "type": "Point",
                "coordinates": [
                    21.03314,
                    52.25891
                ]
            },
            "properties": {
                "ref:rspo": 25135,
                "official_name": "Zesp\u00f3\u0142 Szk\u00f3\u0142 Nr 11 im. W\u0142adys\u0142awa Grabskiego",
                "name": "Zesp\u00f3\u0142 Szk\u00f3\u0142 Nr 11",
                "addr:postcode": "03-450",
                "addr:city": "Warszawa",
                "addr:street": "Ratuszowa",
                "addr:housenumber": "13",
                "addr:teryt:simc": 919298,
                "addr:teryt:sym_ul": 18489,
                "phone": "+48 226193058",
                "email": "sekretariat@zs-11.edu.pl",
                "website": "http:\/\/www.zs-11.edu.pl",
                "ref:regon": "000829780",
                "ref:vatin": "PL1130819791",
                "operator": "Praga-P\u00f3\u0142noc",
                "operator:type": "government",
                "landuse": "education",
                "fixme": "amenity=school, amenity=college albo landuse=education w zale\u017cno\u015bci od tego, jakie plac\u00f3wki wchodz\u0105 w sk\u0142ad zespo\u0142u. Sprawd\u017a, kiedy stosowa\u0107 amenity=* a kiedy landuse=education.",
                "note": "Children RSPO: 42035;42036"
            }
        },
        {
            "id": 273819,
            "type": "Feature",
            "geometry": {
                "type": "Point",
                "coordinates": [
                    21.03314,
                    52.25888
                ]
            },
            "properties": {
                "ref:rspo": 273819,
                "official_name": "Niepubliczne Centrum Kszta\u0142cenia Ustawicznego Kadry Turystyki",
                "name": "Niepubliczne Centrum Kszta\u0142cenia Ustawicznego Kadry Turystyki",
                "addr:postcode": "03-450",
                "addr:city": "Warszawa",
                "addr:street": "Ratuszowa",
                "addr:housenumber": "13",
                "addr:teryt:simc": 919298,
                "addr:teryt:sym_ul": 18489,
                "email": "biuro@kadryturystyki.pl",
                "ref:regon": "384681100",
                "operator": "Kadry Turystyki Sp\u00f3\u0142ka Z Ograniczon\u0105 Odpowiedzialno\u015bci\u0105",
                "operator:type": "private",
                "fixme": "w zale\u017cno\u015bci od przedmiotu dzia\u0142alno\u015bci (np. amenity=training + training=*, amenity=dancing_school, amenity=language_school, amenity=music_school)"
            }
        },
        {
            "id": 42035,
            "type": "Feature",
            "geometry": {
                "type": "Point",
                "coordinates": [
                    21.03314,
                    52.25885
                ]
            },
            "properties": {
                "isced:level": "3",
                "ref:rspo": 42035,
                "official_name": "Technikum Nr 20 w Warszawie",
                "name": "Technikum Nr 20 w Warszawie",
                "addr:postcode": "03-450",
                "addr:city": "Warszawa",
                "addr:street": "Ratuszowa",
                "addr:housenumber": "13",
                "addr:teryt:simc": 919298,
                "addr:teryt:sym_ul": 18489,
                "phone": "+48 226199491",
                "email": "sekretariat@zs-11.edu.pl",
                "website": "http:\/\/www.zs-11.edu.pl",
                "ref:regon": "015779902",
                "operator": "Praga-P\u00f3\u0142noc",
                "operator:type": "government",
                "amenity": "school",
                "note": "Parent RSPO: 25135"
            }
        },
        {
            "id": 42036,
            "type": "Feature",
            "geometry": {
                "type": "Point",
                "coordinates": [
                    21.03314,
                    52.25882
                ]
            },
            "properties": {
                "isced:level": "4",
                "ref:rspo": 42036,
                "official_name": "Szko\u0142a Policealna Nr 53",
                "name": "Szko\u0142a Policealna Nr 53",
                "addr:postcode": "03-450",
                "addr:city": "Warszawa",
                "addr:street": "Ratuszowa",
                "addr:housenumber": "13",
                "addr:teryt:simc": 919298,
                "addr:teryt:sym_ul": 18489,
                "phone": "+48 226193058",
                "email": "zs-11@wp.pl",
                "ref:regon": "142598332",
                "operator": "Praga-P\u00f3\u0142noc",
                "operator:type": "government",
                "amenity": "college",
                "note": "Parent RSPO: 25135"
            }
        },
        {
            "id": 19491,
            "type": "Feature",
            "geometry": {
                "type": "Point",
                "coordinates": [
                    21.05756,
                    52.25942
                ]
            },
            "properties": {
                "isced:level": "1;2",
                "ref:rspo": 19491,
                "official_name": "Szko\u0142a Podstawowa Z Oddzia\u0142ami Integracyjnymi Nr 354 im. Adama Asnyka",
                "name": "Szko\u0142a Podstawowa Z Oddzia\u0142ami Integracyjnymi Nr 354",
                "addr:postcode": "03-759",
                "addr:city": "Warszawa",
                "addr:street": "Otwocka",
                "addr:housenumber": "3",
                "addr:teryt:simc": 919298,
                "addr:teryt:sym_ul": 15465,
                "phone": "+48 226190266",
                "email": "sp354@edu.um.warszawa.pl",
                "website": "http:\/\/sp354warszawa.superszkolna.pl",
                "ref:regon": "146315762",
                "ref:vatin": "PL1132949598",
                "operator": "Praga-P\u00f3\u0142noc",
                "operator:type": "government",
                "amenity": "school"
            }
        },
        {
            "id": 25137,
            "type": "Feature",
            "geometry": {
                "type": "Point",
                "coordinates": [
                    21.05756,
                    52.259389999999996
                ]
            },
            "properties": {
                "ref:rspo": 25137,
                "official_name": "Poradnia Psychologiczno-Pedagogiczna Nr 5",
                "name": "Poradnia Psychologiczno-Pedagogiczna Nr 5",
                "addr:postcode": "03-759",
                "addr:city": "Warszawa",
                "addr:street": "Otwocka",
                "addr:housenumber": "3",
                "addr:teryt:simc": 919298,
                "addr:teryt:sym_ul": 15465,
                "phone": "+48 226190194",
                "email": "ppp5@edu.um.warszawa.pl",
                "website": "http:\/\/www.ppp5.pl",
                "ref:regon": "000838192",
                "ref:vatin": "PL1132745275",
                "operator": "Praga-P\u00f3\u0142noc",
                "operator:type": "government",
                "healthcare": "counselling",
                "counselling_type": "education",
                "fixme": "w zale\u017cno\u015bci od przedmiotu dzia\u0142alno\u015bci (np. healthcare=counselling + counselling_type=education albo healthcare=psychotherapist)"
            }
        },
        {
            "id": 130835,
            "type": "Feature",
            "geometry": {
                "type": "Point",
                "coordinates": [
                    21.04529,
                    52.25962
                ]
            },
            "properties": {
                "ref:rspo": 130835,
                "official_name": "Szko\u0142a Walki I Ochrony",
                "name": "Szko\u0142a Walki I Ochrony",
                "addr:postcode": "03-416",
                "addr:city": "Warszawa",
                "addr:street": "Wile\u0144ska",
                "addr:housenumber": "18",
                "addr:door": "180",
                "addr:teryt:simc": 919298,
                "addr:teryt:sym_ul": 24289,
                "email": "peswiotalar@gmail.com",
                "ref:regon": "364609199",
                "operator": "Marek Talarek",
                "operator:type": "private",
                "fixme": "w zale\u017cno\u015bci od przedmiotu dzia\u0142alno\u015bci (np. amenity=training + training=*, amenity=dancing_school, amenity=language_school, amenity=music_school)"
            }
        },
        {
            "id": 267635,
            "type": "Feature",
            "geometry": {
                "type": "Point",
                "coordinates": [
                    21.04529,
                    52.259589999999996
                ]
            },
            "properties": {
                "isced:level": "1;2",
                "ref:rspo": 267635,
                "official_name": "Niepubliczna Szko\u0142a Podstawowa Promitis",
                "name": "Niepubliczna Szko\u0142a Podstawowa Promitis",
                "addr:postcode": "03-416",
                "addr:city": "Warszawa",
                "addr:street": "Wile\u0144ska",
                "addr:housenumber": "18",
                "addr:door": "U7",
                "addr:teryt:simc": 919298,
                "addr:teryt:sym_ul": 24289,
                "phone": "+48 790090762",
                "email": "warszawa@autyzm-szkola.pl",
                "ref:regon": "380453069",
                "operator": "Piotr Langiewicz",
                "operator:type": "private",
                "amenity": "school"
            }
        },
        {
            "id": 266643,
            "type": "Feature",
            "geometry": {
                "type": "Point",
                "coordinates": [
                    21.0305198,
                    52.2599941
                ]
            },
            "properties": {
                "ref:rspo": 266643,
                "official_name": "Human Progress Polska",
                "name": "Human Progress Polska",
                "addr:postcode": "03-475",
                "addr:city": "Warszawa",
                "addr:street": "Janusza Groszkowskiego",
                "addr:housenumber": "5",
                "addr:door": "59",
                "addr:teryt:simc": 919298,
                "addr:teryt:sym_ul": 32810,
                "phone": "+48 228797377",
                "ref:regon": "369634747",
                "operator": "Andrzej W\u00f3jcikiewicz",
                "operator:type": "private",
                "fixme": "w zale\u017cno\u015bci od przedmiotu dzia\u0142alno\u015bci (np. amenity=training + training=*, amenity=dancing_school, amenity=language_school, amenity=music_school)"
            }
        },
        {
            "id": 20102,
            "type": "Feature",
            "geometry": {
                "type": "Point",
                "coordinates": [
                    21.0435681,
                    52.2602588
                ]
            },
            "properties": {
                "ref:rspo": 20102,
                "official_name": "Przedszkole Nr 171 w Warszawie",
                "name": "Przedszkole Nr 171 w Warszawie",
                "addr:postcode": "03-418",
                "addr:city": "Warszawa",
                "addr:street": "R\u00f3wna",
                "addr:housenumber": "2",
                "addr:teryt:simc": 919298,
                "addr:teryt:sym_ul": 18985,
                "phone": "+48 226198263",
                "email": "p171@edu.um.warszawa.pl",
                "website": "http:\/\/przedszkole171.eprzedszkola.pl",
                "ref:regon": "013001564",
                "ref:vatin": "PL1132399838",
                "operator": "Praga-P\u00f3\u0142noc",
                "operator:type": "government",
                "amenity": "kindergarten"
            }
        },
        {
            "id": 20109,
            "type": "Feature",
            "geometry": {
                "type": "Point",
                "coordinates": [
                    21.034986,
                    52.260562
                ]
            },
            "properties": {
                "ref:rspo": 20109,
                "official_name": "Przedszkole Nr 184 w Warszawie",
                "name": "Przedszkole Nr 184 w Warszawie",
                "addr:postcode": "03-451",
                "addr:city": "Warszawa",
                "addr:street": "Ratuszowa",
                "addr:housenumber": "21",
                "addr:teryt:simc": 919298,
                "addr:teryt:sym_ul": 18489,
                "phone": "+48 226198196",
                "email": "p184@edu.um.warszawa.pl",
                "website": "https:\/\/przedszkole184.waw.pl\/",
                "ref:regon": "013000978",
                "ref:vatin": "PL1132398810",
                "operator": "Praga-P\u00f3\u0142noc",
                "operator:type": "government",
                "amenity": "kindergarten"
            }
        },
        {
            "id": 122436,
            "type": "Feature",
            "geometry": {
                "type": "Point",
                "coordinates": [
                    21.03602,
                    52.26136
                ]
            },
            "properties": {
                "isced:level": "1;2",
                "ref:rspo": 122436,
                "official_name": "Filia Szko\u0142y Podstawowej Nr 258 w Warszawie",
                "name": "Filia Szko\u0142y Podstawowej Nr 258 w Warszawie",
                "addr:postcode": "03-451",
                "addr:city": "Warszawa",
                "addr:street": "Namys\u0142owska",
                "addr:housenumber": "1",
                "addr:teryt:simc": 919298,
                "addr:teryt:sym_ul": 13972,
                "phone": "+48 226192370",
                "email": "sekretariat@sp258.edu.pl",
                "website": "http:\/\/www.sp258.edu.pl",
                "ref:regon": "801616000",
                "operator": "Praga-P\u00f3\u0142noc",
                "operator:type": "government",
                "amenity": "school",
                "note": "Parent RSPO: 21312"
            }
        },
        {
            "id": 20108,
            "type": "Feature",
            "geometry": {
                "type": "Point",
                "coordinates": [
                    21.04119,
                    52.2615399
                ]
            },
            "properties": {
                "ref:rspo": 20108,
                "official_name": "Przedszkole Nr 167 w Warszawie",
                "name": "Przedszkole Nr 167 w Warszawie",
                "addr:postcode": "03-433",
                "addr:city": "Warszawa",
                "addr:street": "Strzelecka",
                "addr:housenumber": "16",
                "addr:teryt:simc": 919298,
                "addr:teryt:sym_ul": 21381,
                "phone": "+48 226191109",
                "email": "p167@edu.um.warszawa.pl",
                "website": "http:\/\/pd167.przedszkola.net.pl",
                "ref:regon": "013001386",
                "ref:vatin": "PL1132398804",
                "operator": "Praga-P\u00f3\u0142noc",
                "operator:type": "government",
                "amenity": "kindergarten"
            }
        },
        {
            "id": 20104,
            "type": "Feature",
            "geometry": {
                "type": "Point",
                "coordinates": [
                    21.03309,
                    52.26164
                ]
            },
            "properties": {
                "ref:rspo": 20104,
                "official_name": "Przedszkole Nr 217 w Warszawie",
                "name": "Przedszkole Nr 217 w Warszawie",
                "addr:postcode": "03-477",
                "addr:city": "Warszawa",
                "addr:street": "Karola Szymanowskiego",
                "addr:housenumber": "4a",
                "addr:teryt:simc": 919298,
                "addr:teryt:sym_ul": 22238,
                "phone": "+48 226194169",
                "email": "p217@edu.um.warszawa.pl",
                "website": "http:\/\/www.przedszkole.217.waw.pl\/",
                "ref:regon": "013001558",
                "ref:vatin": "PL1132399867",
                "operator": "Praga-P\u00f3\u0142noc",
                "operator:type": "government",
                "amenity": "kindergarten"
            }
        },
        {
            "id": 20112,
            "type": "Feature",
            "geometry": {
                "type": "Point",
                "coordinates": [
                    21.05617,
                    52.2618099
                ]
            },
            "properties": {
                "ref:rspo": 20112,
                "official_name": "Przedszkole Nr 185 Z Oddzia\u0142ami Integracyjnymi w Warszawie",
                "name": "Przedszkole Nr 185 Z Oddzia\u0142ami Integracyjnymi w Warszawie",
                "addr:postcode": "03-755",
                "addr:city": "Warszawa",
                "addr:street": "Wo\u0142omi\u0144ska",
                "addr:housenumber": "56",
                "addr:teryt:simc": 919298,
                "addr:teryt:sym_ul": 24722,
                "phone": "+48 226198700",
                "email": "p185@edu.um.warszawa.pl",
                "website": "http:\/\/www.185przedszkole.pl\/",
                "ref:regon": "013001446",
                "ref:vatin": "PL1132398862",
                "operator": "Praga-P\u00f3\u0142noc",
                "operator:type": "government",
                "amenity": "kindergarten"
            }
        },
        {
            "id": 20107,
            "type": "Feature",
            "geometry": {
                "type": "Point",
                "coordinates": [
                    21.0274478,
                    52.2619717
                ]
            },
            "properties": {
                "ref:rspo": 20107,
                "official_name": "Przedszkole Nr 164 w Warszawie",
                "name": "Przedszkole Nr 164 w Warszawie",
                "addr:postcode": "03-481",
                "addr:city": "Warszawa",
                "addr:street": "J\u00f3zefa Szanajcy",
                "addr:housenumber": "12",
                "addr:teryt:simc": 919298,
                "addr:teryt:sym_ul": 21755,
                "phone": "+48 226197879",
                "email": "p164@edu.um.warszawa.pl",
                "website": "http:\/\/p164.przedszkola.net.pl\/",
                "ref:regon": "013001423",
                "ref:vatin": "PL1132398796",
                "operator": "Praga-P\u00f3\u0142noc",
                "operator:type": "government",
                "amenity": "kindergarten"
            }
        },
        {
            "id": 25134,
            "type": "Feature",
            "geometry": {
                "type": "Point",
                "coordinates": [
                    21.0265099,
                    52.26199
                ]
            },
            "properties": {
                "ref:rspo": 25134,
                "official_name": "Zesp\u00f3\u0142 Szk\u00f3\u0142 Nr 14 w Warszawie",
                "name": "Zesp\u00f3\u0142 Szk\u00f3\u0142 Nr 14 w Warszawie",
                "addr:postcode": "03-481",
                "addr:city": "Warszawa",
                "addr:street": "J\u00f3zefa Szanajcy",
                "addr:housenumber": "5",
                "addr:teryt:simc": 919298,
                "addr:teryt:sym_ul": 21755,
                "phone": "+48 226194713",
                "email": "zs14@zs14.edu.pl",
                "website": "http:\/\/www.zs14.pl",
                "ref:regon": "000183199",
                "ref:vatin": "PL1130799456",
                "operator": "Praga-P\u00f3\u0142noc",
                "operator:type": "government",
                "landuse": "education",
                "fixme": "amenity=school, amenity=college albo landuse=education w zale\u017cno\u015bci od tego, jakie plac\u00f3wki wchodz\u0105 w sk\u0142ad zespo\u0142u. Sprawd\u017a, kiedy stosowa\u0107 amenity=* a kiedy landuse=education.",
                "note": "Children RSPO: 42033;42034"
            }
        },
        {
            "id": 42033,
            "type": "Feature",
            "geometry": {
                "type": "Point",
                "coordinates": [
                    21.0265099,
                    52.261959999999995
                ]
            },
            "properties": {
                "isced:level": "3",
                "ref:rspo": 42033,
                "official_name": "Technikum Geologiczno-Geodezyjno-Drogowe im. Prof. Dr. Stanis\u0142awa Klu\u017aniaka",
                "name": "Technikum Geologiczno-Geodezyjno-Drogowe",
                "addr:postcode": "03-481",
                "addr:city": "Warszawa",
                "addr:street": "J\u00f3zefa Szanajcy",
                "addr:housenumber": "5",
                "addr:teryt:simc": 919298,
                "addr:teryt:sym_ul": 21755,
                "phone": "+48 226194713",
                "email": "zs14@zs14.edu.pl",
                "website": "http:\/\/www.zs14.pl\/",
                "ref:regon": "015780650",
                "operator": "Praga-P\u00f3\u0142noc",
                "operator:type": "government",
                "amenity": "school",
                "note": "Parent RSPO: 25134"
            }
        },
        {
            "id": 42034,
            "type": "Feature",
            "geometry": {
                "type": "Point",
                "coordinates": [
                    21.0265099,
                    52.26193
                ]
            },
            "properties": {
                "isced:level": "4",
                "ref:rspo": 42034,
                "official_name": "Szko\u0142a Policealna Nr 20 w Warszawie",
                "name": "Szko\u0142a Policealna Nr 20 w Warszawie",
                "addr:postcode": "03-481",
                "addr:city": "Warszawa",
                "addr:street": "J\u00f3zefa Szanajcy",
                "addr:housenumber": "5",
                "addr:teryt:simc": 919298,
                "addr:teryt:sym_ul": 21755,
                "phone": "+48 226194713",
                "email": "zs14@zs14.edu.pl",
                "website": "http:\/\/www.zs14.pl\/",
                "ref:regon": "015780762",
                "operator": "Praga-P\u00f3\u0142noc",
                "operator:type": "government",
                "amenity": "college",
                "note": "Parent RSPO: 25134"
            }
        },
        {
            "id": 21092,
            "type": "Feature",
            "geometry": {
                "type": "Point",
                "coordinates": [
                    21.03999,
                    52.26232
                ]
            },
            "properties": {
                "isced:level": "3",
                "ref:rspo": 21092,
                "official_name": "Lxxvi Liceum Og\u00f3lnokszta\u0142c\u0105ce im. Marsza\u0142ka J\u00f3zefa Pi\u0142sudskiego",
                "name": "Lxxvi Liceum Og\u00f3lnokszta\u0142c\u0105ce",
                "addr:postcode": "03-432",
                "addr:city": "Warszawa",
                "addr:street": "Kowelska",
                "addr:housenumber": "1",
                "addr:teryt:simc": 919298,
                "addr:teryt:sym_ul": 9690,
                "phone": "+48 226193083",
                "email": "pilsudski@pilsudski.edu.pl",
                "website": "http:\/\/www.pilsudski.edu.pl",
                "ref:regon": "010854160",
                "ref:vatin": "PL1130487136",
                "operator": "Praga-P\u00f3\u0142noc",
                "operator:type": "government",
                "amenity": "school"
            }
        },
        {
            "id": 125087,
            "type": "Feature",
            "geometry": {
                "type": "Point",
                "coordinates": [
                    21.03999,
                    52.26229
                ]
            },
            "properties": {
                "isced:level": "3",
                "ref:rspo": 125087,
                "official_name": "Liceum Og\u00f3lnokszta\u0142c\u0105ce dla Doros\u0142ych",
                "name": "Liceum Og\u00f3lnokszta\u0142c\u0105ce dla Doros\u0142ych",
                "addr:postcode": "03-432",
                "addr:city": "Warszawa",
                "addr:street": "Kowelska",
                "addr:housenumber": "1",
                "addr:teryt:simc": 919298,
                "addr:teryt:sym_ul": 9690,
                "phone": "+48 791254064",
                "email": "szkolylod@vp.pl",
                "website": "http:\/\/www.szklylod.edu.pl",
                "ref:regon": "147424967",
                "operator": "Bautechnik Polska Sp\u00f3\u0142ka Z Ograniczon\u0105 Odpowiedzialno\u015bci\u0105",
                "operator:type": "private",
                "amenity": "school"
            }
        },
        {
            "id": 25136,
            "type": "Feature",
            "geometry": {
                "type": "Point",
                "coordinates": [
                    21.02512,
                    52.26243
                ]
            },
            "properties": {
                "ref:rspo": 25136,
                "official_name": "Zesp\u00f3\u0142 Szk\u00f3\u0142 Nr 73 w Warszawie",
                "name": "Zesp\u00f3\u0142 Szk\u00f3\u0142 Nr 73 w Warszawie",
                "addr:postcode": "03-480",
                "addr:city": "Warszawa",
                "addr:street": "Wenantego Burdzi\u0144skiego",
                "addr:housenumber": "4",
                "addr:teryt:simc": 919298,
                "addr:teryt:sym_ul": 2444,
                "phone": "+48 226192371",
                "email": "lo50@lo50.edu.pl",
                "website": "http:\/\/www.lo50.edu.pl",
                "ref:regon": "000799055",
                "ref:vatin": "PL1131336238",
                "operator": "Praga-P\u00f3\u0142noc",
                "operator:type": "government",
                "landuse": "education",
                "fixme": "amenity=school, amenity=college albo landuse=education w zale\u017cno\u015bci od tego, jakie plac\u00f3wki wchodz\u0105 w sk\u0142ad zespo\u0142u. Sprawd\u017a, kiedy stosowa\u0107 amenity=* a kiedy landuse=education.",
                "note": "Children RSPO: 41946;41947"
            }
        },
        {
            "id": 41946,
            "type": "Feature",
            "geometry": {
                "type": "Point",
                "coordinates": [
                    21.02512,
                    52.2624
                ]
            },
            "properties": {
                "isced:level": "3",
                "ref:rspo": 41946,
                "official_name": "L Liceum Og\u00f3lnokszta\u0142c\u0105ce Z Oddzia\u0142ami Integracyjnymi im. Ruy Barbosy",
                "name": "L Liceum Og\u00f3lnokszta\u0142c\u0105ce Z Oddzia\u0142ami Integracyjnymi",
                "addr:postcode": "03-480",
                "addr:city": "Warszawa",
                "addr:street": "Wenantego Burdzi\u0144skiego",
                "addr:housenumber": "4",
                "addr:teryt:simc": 919298,
                "addr:teryt:sym_ul": 2444,
                "phone": "+48 226192371",
                "email": "lo50@lo50.edu.pl",
                "website": "http:\/\/www.lo50.edu.pl\/",
                "ref:regon": "015780035",
                "operator": "Praga-P\u00f3\u0142noc",
                "operator:type": "government",
                "amenity": "school",
                "note": "Parent RSPO: 25136"
            }
        },
        {
            "id": 41947,
            "type": "Feature",
            "geometry": {
                "type": "Point",
                "coordinates": [
                    21.02512,
                    52.262370000000004
                ]
            },
            "properties": {
                "isced:level": "3",
                "ref:rspo": 41947,
                "official_name": "Cxxx Liceum Og\u00f3lnokszta\u0142c\u0105ce dla Doros\u0142ych w Warszawie",
                "name": "Cxxx Liceum Og\u00f3lnokszta\u0142c\u0105ce dla Doros\u0142ych w Warszawie",
                "addr:postcode": "03-480",
                "addr:city": "Warszawa",
                "addr:street": "Wenantego Burdzi\u0144skiego",
                "addr:housenumber": "4",
                "addr:teryt:simc": 919298,
                "addr:teryt:sym_ul": 2444,
                "phone": "+48 226192371",
                "email": "lo50@lo50.edu.pl",
                "website": "http:\/\/www.lo50.edu.pl\/",
                "ref:regon": "140246327",
                "operator": "Praga-P\u00f3\u0142noc",
                "operator:type": "government",
                "amenity": "school",
                "note": "Parent RSPO: 25136"
            }
        },
        {
            "id": 16143,
            "type": "Feature",
            "geometry": {
                "type": "Point",
                "coordinates": [
                    21.0353299,
                    52.26263
                ]
            },
            "properties": {
                "ref:rspo": 16143,
                "official_name": "Prywatna Poradnia Psychologiczno-Pedagogiczna Paw\u0142a I Marzeny Zakrzewskich",
                "name": "Prywatna Poradnia Psychologiczno-Pedagogiczna Paw\u0142a I Marzeny Zakrzewskich",
                "addr:postcode": "03-454",
                "addr:city": "Warszawa",
                "addr:street": "Namys\u0142owska",
                "addr:housenumber": "4",
                "addr:teryt:simc": 919298,
                "addr:teryt:sym_ul": 13972,
                "phone": "+48 690822690",
                "website": "http:\/\/www.salomon.pl",
                "ref:regon": "146306160",
                "operator": "Mi\u0119dzynarodowa Fundacja Rozwoju Edukacji I Sportu W Likwidacji",
                "operator:type": "ngo",
                "healthcare": "counselling",
                "counselling_type": "education",
                "fixme": "w zale\u017cno\u015bci od przedmiotu dzia\u0142alno\u015bci (np. healthcare=counselling + counselling_type=education albo healthcare=psychotherapist)"
            }
        },
        {
            "id": 56152,
            "type": "Feature",
            "geometry": {
                "type": "Point",
                "coordinates": [
                    21.0353299,
                    52.2626
                ]
            },
            "properties": {
                "ref:rspo": 56152,
                "official_name": "Pa\u0144stwowa Szko\u0142a Muzyczna I St. Nr 2 im. Fryderyka Chopina w Warszawie",
                "name": "Pa\u0144stwowa Szko\u0142a Muzyczna I St. Nr 2",
                "addr:postcode": "03-454",
                "addr:city": "Warszawa",
                "addr:street": "Namys\u0142owska",
                "addr:housenumber": "4",
                "addr:teryt:simc": 919298,
                "addr:teryt:sym_ul": 13972,
                "phone": "+48 226192154",
                "email": "sekretariat@psm2chopin.pl",
                "website": "http:\/\/www.psm2chopin.art.pl",
                "ref:regon": "000276920",
                "operator": "Ministerstwo Kultury I Dziedzictwa Narodowego",
                "operator:type": "public",
                "amenity": "music_school"
            }
        },
        {
            "id": 122732,
            "type": "Feature",
            "geometry": {
                "type": "Point",
                "coordinates": [
                    21.0353299,
                    52.262570000000004
                ]
            },
            "properties": {
                "ref:rspo": 122732,
                "official_name": "Studium Nauczania Muzycznego",
                "name": "Studium Nauczania Muzycznego",
                "addr:postcode": "03-454",
                "addr:city": "Warszawa",
                "addr:street": "Namys\u0142owska",
                "addr:housenumber": "4",
                "addr:teryt:simc": 919298,
                "addr:teryt:sym_ul": 13972,
                "phone": "+48 226192154",
                "email": "klawikord@poczta.onet.pl",
                "website": "http:\/\/www.klawikord.art.pl",
                "ref:regon": "147181329",
                "operator": "Fundacja Pomocy Pa\u0144stwowej Szkole Muzycznej I St. Nr 2 Im. Fr. Chopina W Warszawie \"Klawikord\"",
                "operator:type": "ngo",
                "fixme": "w zale\u017cno\u015bci od przedmiotu dzia\u0142alno\u015bci (np. amenity=training + training=*, amenity=dancing_school, amenity=language_school, amenity=music_school)"
            }
        },
        {
            "id": 20103,
            "type": "Feature",
            "geometry": {
                "type": "Point",
                "coordinates": [
                    21.03159,
                    52.26278
                ]
            },
            "properties": {
                "ref:rspo": 20103,
                "official_name": "Przedszkole Nr 173 w Warszawie",
                "name": "Przedszkole Nr 173 w Warszawie",
                "addr:postcode": "03-477",
                "addr:city": "Warszawa",
                "addr:street": "Karola Szymanowskiego",
                "addr:housenumber": "5a",
                "addr:teryt:simc": 919298,
                "addr:teryt:sym_ul": 22238,
                "phone": "+48 226193986",
                "email": "p173@edu.um.warszawa.pl",
                "website": "http:\/\/przedszkole173.pl\/",
                "ref:regon": "013001512",
                "ref:vatin": "PL1132398767",
                "operator": "Praga-P\u00f3\u0142noc",
                "operator:type": "government",
                "amenity": "kindergarten"
            }
        },
        {
            "id": 21344,
            "type": "Feature",
            "geometry": {
                "type": "Point",
                "coordinates": [
                    21.04177,
                    52.2634
                ]
            },
            "properties": {
                "isced:level": "1;2",
                "ref:rspo": 21344,
                "official_name": "Szko\u0142a Podstawowa Nr 127 im. Henryka Sienkiewicza w Warszawie",
                "name": "Szko\u0142a Podstawowa Nr 127",
                "addr:postcode": "03-438",
                "addr:city": "Warszawa",
                "addr:street": "Kowie\u0144ska",
                "addr:housenumber": "12\/20",
                "addr:teryt:simc": 919298,
                "addr:teryt:sym_ul": 9691,
                "phone": "+48 226193088",
                "email": "sekretariat@sp127.edu.pl",
                "website": "https:\/\/sp127.edu.pl",
                "ref:regon": "000801757",
                "ref:vatin": "PL1132398721",
                "operator": "Praga-P\u00f3\u0142noc",
                "operator:type": "government",
                "amenity": "school"
            }
        },
        {
            "id": 20105,
            "type": "Feature",
            "geometry": {
                "type": "Point",
                "coordinates": [
                    21.03314,
                    52.2638
                ]
            },
            "properties": {
                "ref:rspo": 20105,
                "official_name": "Przedszkole Nr 169 w Warszawie",
                "name": "Przedszkole Nr 169 w Warszawie",
                "addr:postcode": "03-455",
                "addr:city": "Warszawa",
                "addr:street": "Namys\u0142owska",
                "addr:housenumber": "11",
                "addr:teryt:simc": 919298,
                "addr:teryt:sym_ul": 13972,
                "phone": "+48 226197961",
                "email": "p169@edu.um.warszawa.pl",
                "website": "http:\/\/www.przedszkole169.pl",
                "ref:regon": "013001506",
                "ref:vatin": "PL1132399844",
                "operator": "Praga-P\u00f3\u0142noc",
                "operator:type": "government",
                "amenity": "kindergarten"
            }
        },
        {
            "id": 277611,
            "type": "Feature",
            "geometry": {
                "type": "Point",
                "coordinates": [
                    21.04264,
                    52.26389
                ]
            },
            "properties": {
                "ref:rspo": 277611,
                "official_name": "Niepubliczna Plac\u00f3wka Doskonalenia Nauczycieli Fundacji Pomoc Autyzm",
                "name": "Niepubliczna Plac\u00f3wka Doskonalenia Nauczycieli Fundacji Pomoc Autyzm",
                "addr:postcode": "03-438",
                "addr:city": "Warszawa",
                "addr:street": "Kowie\u0144ska",
                "addr:housenumber": "24",
                "addr:teryt:simc": 919298,
                "addr:teryt:sym_ul": 9691,
                "phone": "+48 223086633",
                "email": "szkolenia@pomocautyzm.org",
                "website": "http:\/\/www.pomocautyzm.org",
                "ref:regon": "389197018",
                "operator": "\"Fundacja Pomoc Autyzm\"",
                "operator:type": "ngo",
                "amenity": "training"
            }
        },
        {
            "id": 105391,
            "type": "Feature",
            "geometry": {
                "type": "Point",
                "coordinates": [
                    21.03171,
                    52.26552
                ]
            },
            "properties": {
                "ref:rspo": 105391,
                "official_name": "Szko\u0142a Specjalna Przysposabiaj\u0105ca Do Pracy Nr 2",
                "name": "Szko\u0142a Specjalna Przysposabiaj\u0105ca Do Pracy Nr 2",
                "addr:postcode": "03-455",
                "addr:city": "Warszawa",
                "addr:street": "Namys\u0142owska",
                "addr:housenumber": "10",
                "addr:teryt:simc": 919298,
                "addr:teryt:sym_ul": 13972,
                "phone": "+48 226197234",
                "email": "sekretariat@zs38.edu.pl",
                "website": "http:\/\/www.zs38.edu.pl",
                "ref:regon": "015842687",
                "operator": "Miasto Sto\u0142eczne Warszawa",
                "operator:type": "government",
                "amenity": "school",
                "note": "Parent RSPO: 12332"
            }
        },
        {
            "id": 105392,
            "type": "Feature",
            "geometry": {
                "type": "Point",
                "coordinates": [
                    21.03171,
                    52.26549
                ]
            },
            "properties": {
                "isced:level": "3",
                "ref:rspo": 105392,
                "official_name": "Bran\u017cowa Szko\u0142a I Stopnia Specjalna Nr 51",
                "name": "Bran\u017cowa Szko\u0142a I Stopnia Specjalna Nr 51",
                "addr:postcode": "03-455",
                "addr:city": "Warszawa",
                "addr:street": "Namys\u0142owska",
                "addr:housenumber": "10",
                "addr:teryt:simc": 919298,
                "addr:teryt:sym_ul": 13972,
                "phone": "+48 226197234",
                "email": "sekretariat@zs38.edu.pl",
                "website": "http:\/\/www.zs38.edu.pl",
                "ref:regon": "015842693",
                "operator": "Miasto Sto\u0142eczne Warszawa",
                "operator:type": "government",
                "amenity": "school",
                "note": "Parent RSPO: 12332"
            }
        },
        {
            "id": 25132,
            "type": "Feature",
            "geometry": {
                "type": "Point",
                "coordinates": [
                    21.0304,
                    52.26594
                ]
            },
            "properties": {
                "ref:rspo": 25132,
                "official_name": "Vii Ogr\u00f3d Jordanowski w Warszawie",
                "name": "Vii Ogr\u00f3d Jordanowski w Warszawie",
                "addr:postcode": "03-455",
                "addr:city": "Warszawa",
                "addr:street": "Namys\u0142owska",
                "addr:housenumber": "21",
                "addr:teryt:simc": 919298,
                "addr:teryt:sym_ul": 13972,
                "phone": "+48 226198993",
                "email": "oj7@edu.um.warszawa.pl",
                "website": "http:\/\/www.oj7.edu.pl\/",
                "ref:regon": "012967320",
                "ref:vatin": "PL1132787753",
                "operator": "Praga-P\u00f3\u0142noc",
                "operator:type": "government",
                "amenity": "community_centre",
                "community_centre:for": "child;juvenile"
            }
        },
        {
            "id": 279251,
            "type": "Feature",
            "geometry": {
                "type": "Point",
                "coordinates": [
                    21.04103,
                    52.2662
                ]
            },
            "properties": {
                "ref:rspo": 279251,
                "official_name": "Kidsfirst Przedszkole Niepubliczne",
                "name": "Kidsfirst Przedszkole Niepubliczne",
                "addr:postcode": "03-420",
                "addr:city": "Warszawa",
                "addr:street": "Szwedzka",
                "addr:housenumber": "30",
                "addr:door": "K.A.u1",
                "addr:teryt:simc": 919298,
                "addr:teryt:sym_ul": 22179,
                "phone": "+48 531644577",
                "email": "katarzyna.szulc@kidsfirst.edu.pl",
                "ref:regon": "521007102",
                "operator": "Katarzyna Szulc",
                "operator:type": "private",
                "amenity": "kindergarten"
            }
        },
        {
            "id": 104537,
            "type": "Feature",
            "geometry": {
                "type": "Point",
                "coordinates": [
                    21.00595,
                    52.28798
                ]
            },
            "properties": {
                "isced:level": "3",
                "ref:rspo": 104537,
                "official_name": "Sportowe Liceum Og\u00f3lnokszta\u0142c\u0105ce Nr 67 \"M.g.m.\"",
                "name": "Sportowe Liceum Og\u00f3lnokszta\u0142c\u0105ce Nr 67 \"M.g.m.\"",
                "addr:postcode": "00-992",
                "addr:city": "Warszawa",
                "addr:street": "Jagiello\u0144ska",
                "addr:housenumber": "88",
                "addr:teryt:simc": 919298,
                "addr:teryt:sym_ul": 7029,
                "phone": "+48 223929634",
                "email": "szkolymgm@wp.pl",
                "website": "http:\/\/www.mgm.edu.pl",
                "ref:regon": "146490146",
                "operator": "Maciej S\u0142owak",
                "operator:type": "private",
                "amenity": "school"
            }
        },
        {
            "id": 133630,
            "type": "Feature",
            "geometry": {
                "type": "Point",
                "coordinates": [
                    21.00595,
                    52.287949999999995
                ]
            },
            "properties": {
                "isced:level": "1;2",
                "ref:rspo": 133630,
                "official_name": "Szko\u0142a Podstawowa Mgm",
                "name": "Szko\u0142a Podstawowa Mgm",
                "addr:postcode": "00-992",
                "addr:city": "Warszawa",
                "addr:street": "Jagiello\u0144ska",
                "addr:housenumber": "88",
                "addr:teryt:simc": 919298,
                "addr:teryt:sym_ul": 7029,
                "phone": "+48 697728693",
                "email": "szkolymgm@wp.pl",
                "ref:regon": "367510892",
                "operator": "Maciej S\u0142owak",
                "operator:type": "private",
                "amenity": "school"
            }
        },
        {
            "id": 276695,
            "type": "Feature",
            "geometry": {
                "type": "Point",
                "coordinates": [
                    21.00595,
                    52.28792
                ]
            },
            "properties": {
                "ref:rspo": 276695,
                "official_name": "Tarbonus Niepubliczna Plac\u00f3wka Kszta\u0142cenia Ustawicznego",
                "name": "Tarbonus Niepubliczna Plac\u00f3wka Kszta\u0142cenia Ustawicznego",
                "addr:postcode": "00-992",
                "addr:city": "Warszawa",
                "addr:street": "Jagiello\u0144ska",
                "addr:housenumber": "88",
                "addr:teryt:simc": 919298,
                "addr:teryt:sym_ul": 7029,
                "phone": "+48 226701203",
                "email": "info.warszawa@tarbonus.pl",
                "ref:regon": "387367539",
                "operator": "\"Tarbonus\" Sp\u00f3\u0142ka Z Ograniczon\u0105 Odpowiedzialno\u015bci\u0105",
                "operator:type": "private",
                "fixme": "w zale\u017cno\u015bci od przedmiotu dzia\u0142alno\u015bci (np. amenity=training + training=*, amenity=dancing_school, amenity=language_school, amenity=music_school)"
            }
        }
    ]
}