{
    "type": "FeatureCollection",
    "features": [
        {
            "id": 266190,
            "type": "Feature",
            "geometry": {
                "type": "Point",
                "coordinates": [
                    21.06942,
                    52.26103
                ]
            },
            "properties": {
                "ref:rspo": 266190,
                "official_name": "Seka Oddzia\u0142 w Warszawie-Plac\u00f3wka Kszta\u0142cenia Ustawicznego",
                "name": "Seka Oddzia\u0142 w Warszawie-Plac\u00f3wka Kszta\u0142cenia Ustawicznego",
                "addr:postcode": "03-787",
                "addr:city": "Warszawa",
                "addr:street": "Zabraniecka",
                "addr:housenumber": "80",
                "addr:city:simc": 988827,
                "addr:street:sym_ul": 25279,
                "phone": "+48 225178850",
                "email": "warszawa@seka.pl",
                "ref:regon": "369347901",
                "operator": "\"Seka\" Sp\u00f3\u0142ka Akcyjna",
                "operator:type": "private",
                "fixme": "w zale\u017cno\u015bci od przedmiotu dzia\u0142alno\u015bci (np. amenity=training + training=*, amenity=dancing_school, amenity=language_school, amenity=music_school)"
            }
        },
        {
            "id": 274589,
            "type": "Feature",
            "geometry": {
                "type": "Point",
                "coordinates": [
                    21.06942,
                    52.260999999999996
                ]
            },
            "properties": {
                "ref:rspo": 274589,
                "official_name": "Seka.edu Sp. z o.o.",
                "name": "Seka.edu Sp. z o.o.",
                "addr:postcode": "03-787",
                "addr:city": "Warszawa",
                "addr:street": "Zabraniecka",
                "addr:housenumber": "80",
                "addr:city:simc": 988827,
                "addr:street:sym_ul": 25279,
                "phone": "+48 512024060",
                "ref:regon": "386007566",
                "operator": "Seka.edu Sp\u00f3\u0142ka Z Ograniczon\u0105 Odpowiedzialno\u015bci\u0105",
                "operator:type": "private",
                "fixme": "w zale\u017cno\u015bci od przedmiotu dzia\u0142alno\u015bci (np. amenity=training + training=*, amenity=dancing_school, amenity=language_school, amenity=music_school)"
            }
        },
        {
            "id": 13008,
            "type": "Feature",
            "geometry": {
                "type": "Point",
                "coordinates": [
                    21.08458,
                    52.26126
                ]
            },
            "properties": {
                "isced:level": "3",
                "ref:rspo": 13008,
                "official_name": "Polonijne Liceum Og\u00f3lnokszta\u0142c\u0105ce Niepubliczne \u201eKlasyk\u201d",
                "name": "Polonijne Liceum Og\u00f3lnokszta\u0142c\u0105ce Niepubliczne \u201eKlasyk\u201d",
                "addr:postcode": "03-876",
                "addr:city": "Warszawa",
                "addr:street": "Matuszewska",
                "addr:housenumber": "20",
                "addr:city:simc": 988827,
                "addr:street:sym_ul": 12512,
                "phone": "+48 227434964",
                "email": "sekretariatplon@gmail.com",
                "website": "http:\/\/www.loklasyk.pl",
                "ref:regon": "146294907",
                "operator": "\"Fundacja - Mi\u0119dzynarodowy Instytut Edukacji\"",
                "operator:type": "ngo",
                "amenity": "school"
            }
        },
        {
            "id": 70686,
            "type": "Feature",
            "geometry": {
                "type": "Point",
                "coordinates": [
                    21.08458,
                    52.26123
                ]
            },
            "properties": {
                "ref:rspo": 70686,
                "official_name": "Bursa \"Inter\"",
                "name": "Bursa \"Inter\"",
                "addr:postcode": "03-876",
                "addr:city": "Warszawa",
                "addr:street": "Matuszewska",
                "addr:housenumber": "20",
                "addr:city:simc": 988827,
                "addr:street:sym_ul": 12512,
                "phone": "+48 602512869",
                "email": "bursainter@op.pl",
                "ref:regon": "146399530",
                "operator": "\"Fundacja - Mi\u0119dzynarodowy Instytut Edukacji\"",
                "operator:type": "ngo",
                "building": "dormitory"
            }
        },
        {
            "id": 106839,
            "type": "Feature",
            "geometry": {
                "type": "Point",
                "coordinates": [
                    21.06834,
                    52.26618
                ]
            },
            "properties": {
                "ref:rspo": 106839,
                "official_name": "Niepubliczne Przedszkole Integracyjne \"Iskierka\"",
                "name": "Niepubliczne Przedszkole Integracyjne \"Iskierka\"",
                "addr:postcode": "03-788",
                "addr:city": "Warszawa",
                "addr:street": "Ksi\u0119cia Ziemowita",
                "addr:housenumber": "39",
                "addr:city:simc": 988827,
                "addr:street:sym_ul": 26130,
                "phone": "+48 535968049",
                "email": "iskierka@ognik.edu.pl",
                "website": "http:\/\/www.iskierka.edu.pl",
                "ref:regon": "146486707",
                "operator": "Parafia Rzymsko-Katolicka Zmartwychstania Pa\u0144skiego",
                "operator:type": "religious",
                "amenity": "kindergarten"
            }
        },
        {
            "id": 129946,
            "type": "Feature",
            "geometry": {
                "type": "Point",
                "coordinates": [
                    21.06834,
                    52.266149999999996
                ]
            },
            "properties": {
                "isced:level": "1;2",
                "ref:rspo": 129946,
                "official_name": "Niepubliczna Integracyjna Szko\u0142a Podstawowa im. Achillesa Ratti",
                "name": "Niepubliczna Integracyjna Szko\u0142a Podstawowa",
                "addr:postcode": "03-788",
                "addr:city": "Warszawa",
                "addr:street": "Ksi\u0119cia Ziemowita",
                "addr:housenumber": "39",
                "addr:city:simc": 988827,
                "addr:street:sym_ul": 26130,
                "phone": "+48 661218367",
                "email": "sekretariat@nispar.edu.pl",
                "ref:regon": "363155738",
                "operator": "Fundacja Edukacyjna \"Non Verba\"",
                "operator:type": "ngo",
                "amenity": "school"
            }
        },
        {
            "id": 44250,
            "type": "Feature",
            "geometry": {
                "type": "Point",
                "coordinates": [
                    21.06912,
                    52.26793
                ]
            },
            "properties": {
                "isced:level": "1;2",
                "ref:rspo": 44250,
                "official_name": "Szko\u0142a Podstawowa nr 58 im. Tadeusza Gajcego w Warszawie",
                "name": "Szko\u0142a Podstawowa nr 58",
                "addr:postcode": "03-886",
                "addr:city": "Warszawa",
                "addr:street": "Mieszka I",
                "addr:housenumber": "7",
                "addr:city:simc": 988827,
                "addr:street:sym_ul": 12832,
                "phone": "+48 226790343",
                "email": "sp58@edu.um.warszawa.pl",
                "website": "http:\/\/sp58.pl",
                "ref:regon": "000801869",
                "ref:vatin": "PL5242405128",
                "operator": "Targ\u00f3wek",
                "operator:type": "government",
                "amenity": "school"
            }
        },
        {
            "id": 11946,
            "type": "Feature",
            "geometry": {
                "type": "Point",
                "coordinates": [
                    21.04728,
                    52.26822
                ]
            },
            "properties": {
                "ref:rspo": 11946,
                "official_name": "Przedszkole nr 94 \"Kraina S\u0142onecznych Marze\u0144\"",
                "name": "Przedszkole nr 94 \"Kraina S\u0142onecznych Marze\u0144\"",
                "addr:postcode": "03-526",
                "addr:city": "Warszawa",
                "addr:street": "Smole\u0144ska",
                "addr:housenumber": "64",
                "addr:city:simc": 988827,
                "addr:street:sym_ul": 20353,
                "phone": "+48 226799194",
                "email": "p94@edu.um.warszawa.pl",
                "website": "http:\/\/www.przedszkole94.pl",
                "ref:regon": "013001280",
                "ref:vatin": "PL5242088248",
                "operator": "Targ\u00f3wek",
                "operator:type": "government",
                "amenity": "kindergarten"
            }
        },
        {
            "id": 59665,
            "type": "Feature",
            "geometry": {
                "type": "Point",
                "coordinates": [
                    21.0422,
                    52.26873
                ]
            },
            "properties": {
                "isced:level": "3",
                "ref:rspo": 59665,
                "official_name": "Xiii Liceum Og\u00f3lnokszta\u0142c\u0105ce z Oddzia\u0142ami Dwuj\u0119zycznymi \nIm. P\u0142k. Leopolda Lisa-Kuli",
                "name": "Xiii Liceum Og\u00f3lnokszta\u0142c\u0105ce z Oddzia\u0142ami Dwuj\u0119zycznymi \nIm. P\u0142k. Leopolda Lisa-Kuli",
                "addr:postcode": "03-503",
                "addr:city": "Warszawa",
                "addr:street": "Oszmia\u0144ska",
                "addr:housenumber": "23",
                "addr:door": "25",
                "addr:city:simc": 988827,
                "addr:street:sym_ul": 15427,
                "phone": "+48 226793862",
                "email": "lo13@edu.um.warszawa.pl",
                "website": "http:\/\/www.liceum13.edupage.org",
                "ref:regon": "000799049",
                "ref:vatin": "PL5242510960",
                "operator": "Targ\u00f3wek",
                "operator:type": "government",
                "amenity": "school"
            }
        },
        {
            "id": 11945,
            "type": "Feature",
            "geometry": {
                "type": "Point",
                "coordinates": [
                    21.0547,
                    52.26893
                ]
            },
            "properties": {
                "ref:rspo": 11945,
                "official_name": "Przedszkole nr 81",
                "name": "Przedszkole nr 81",
                "addr:postcode": "03-543",
                "addr:city": "Warszawa",
                "addr:street": "Barkoci\u0144ska",
                "addr:housenumber": "19\/21",
                "addr:city:simc": 988827,
                "addr:street:sym_ul": 758,
                "phone": "+48 226790235",
                "email": "p81@edu.um.warszawa.pl",
                "website": "http:\/\/przedszkole81waw.szkolnastrona.pl",
                "ref:regon": "013001601",
                "ref:vatin": "PL5242088165",
                "operator": "Targ\u00f3wek",
                "operator:type": "government",
                "amenity": "kindergarten"
            }
        },
        {
            "id": 133572,
            "type": "Feature",
            "geometry": {
                "type": "Point",
                "coordinates": [
                    21.06117,
                    52.26917
                ]
            },
            "properties": {
                "isced:level": "1;2",
                "ref:rspo": 133572,
                "official_name": "Niepubliczna Szko\u0142a Podstawowa Wyspa Jp2",
                "name": "Niepubliczna Szko\u0142a Podstawowa Wyspa Jp2",
                "addr:postcode": "03-574",
                "addr:city": "Warszawa",
                "addr:street": "Radzymi\u0144ska",
                "addr:housenumber": "118a",
                "addr:city:simc": 988827,
                "addr:street:sym_ul": 18373,
                "phone": "+48 789340135",
                "email": "szkola@wyspajp2.pl",
                "website": "http:\/\/www.wyspajp2.pl",
                "ref:regon": "367419186",
                "operator": "Dobra Wyspa Sp\u00f3\u0142ka Z Ograniczon\u0105 Odpowiedzialno\u015bci\u0105",
                "operator:type": "private",
                "amenity": "school"
            }
        },
        {
            "id": 270503,
            "type": "Feature",
            "geometry": {
                "type": "Point",
                "coordinates": [
                    21.06117,
                    52.26914
                ]
            },
            "properties": {
                "isced:level": "3",
                "ref:rspo": 270503,
                "official_name": "Dwuj\u0119zyczne Liceum Og\u00f3lnokszta\u0142c\u0105ce Wyspa Jp2",
                "name": "Dwuj\u0119zyczne Liceum Og\u00f3lnokszta\u0142c\u0105ce Wyspa Jp2",
                "addr:postcode": "03-574",
                "addr:city": "Warszawa",
                "addr:street": "Radzymi\u0144ska",
                "addr:housenumber": "118a",
                "addr:city:simc": 988827,
                "addr:street:sym_ul": 18373,
                "phone": "+48 789340135",
                "email": "szkola@wyspajp2.pl",
                "ref:regon": "382670888",
                "operator": "Dobra Wyspa Sp\u00f3\u0142ka Z Ograniczon\u0105 Odpowiedzialno\u015bci\u0105",
                "operator:type": "private",
                "amenity": "school"
            }
        },
        {
            "id": 11947,
            "type": "Feature",
            "geometry": {
                "type": "Point",
                "coordinates": [
                    21.04933,
                    52.27065
                ]
            },
            "properties": {
                "ref:rspo": 11947,
                "official_name": "Przedszkole nr 150 \"Przystanek U\u015bmiech\"",
                "name": "Przedszkole nr 150 \"Przystanek U\u015bmiech\"",
                "addr:postcode": "03-510",
                "addr:city": "Warszawa",
                "addr:street": "Pra\u0142atowska",
                "addr:housenumber": "12",
                "addr:city:simc": 988827,
                "addr:street:sym_ul": 17439,
                "phone": "+48 226795112",
                "email": "p150@edu.um.warszawa.pl",
                "website": "http:\/\/www.przedszkole150.szkolnastrona.pl",
                "ref:regon": "013000949",
                "ref:vatin": "PL5242085758",
                "operator": "Targ\u00f3wek",
                "operator:type": "government",
                "amenity": "kindergarten"
            }
        },
        {
            "id": 48848,
            "type": "Feature",
            "geometry": {
                "type": "Point",
                "coordinates": [
                    21.05389,
                    52.27214
                ]
            },
            "properties": {
                "isced:level": "1;2",
                "ref:rspo": 48848,
                "official_name": "Szko\u0142a Podstawowa nr 114 z Oddzia\u0142ami Integracyjnymi im. J\u0119drzeja Cierniaka",
                "name": "Szko\u0142a Podstawowa nr 114 z Oddzia\u0142ami Integracyjnymi",
                "addr:postcode": "03-550",
                "addr:city": "Warszawa",
                "addr:street": "Remiszewska",
                "addr:housenumber": "40",
                "addr:city:simc": 988827,
                "addr:street:sym_ul": 18596,
                "phone": "+48 226794692",
                "email": "sekretariat@sp114.edu.pl",
                "website": "http:\/\/www.sp114.edu.pl",
                "ref:regon": "000801728",
                "ref:vatin": "PL5242338751",
                "operator": "Targ\u00f3wek",
                "operator:type": "government",
                "amenity": "school"
            }
        },
        {
            "id": 44248,
            "type": "Feature",
            "geometry": {
                "type": "Point",
                "coordinates": [
                    21.04508,
                    52.27259
                ]
            },
            "properties": {
                "isced:level": "3",
                "ref:rspo": 44248,
                "official_name": "Cxxxvii Liceum Og\u00f3lnokszta\u0142c\u0105ce z Oddzia\u0142ami Dwuj\u0119zycznymi im. Roberta Schumana",
                "name": "Cxxxvii Liceum Og\u00f3lnokszta\u0142c\u0105ce z Oddzia\u0142ami Dwuj\u0119zycznymi",
                "addr:postcode": "03-536",
                "addr:city": "Warszawa",
                "addr:street": "Olgierda",
                "addr:housenumber": "35",
                "addr:door": "41",
                "addr:city:simc": 988827,
                "addr:street:sym_ul": 14985,
                "phone": "+48 225119500",
                "email": "lo137@edu.um.warszawa.pl",
                "website": "http:\/\/lo137edu.pl",
                "ref:regon": "142394606",
                "ref:vatin": "PL5242837023",
                "operator": "Targ\u00f3wek",
                "operator:type": "government",
                "amenity": "school"
            }
        },
        {
            "id": 133616,
            "type": "Feature",
            "geometry": {
                "type": "Point",
                "coordinates": [
                    21.03995,
                    52.27304
                ]
            },
            "properties": {
                "ref:rspo": 133616,
                "official_name": "Przedszkole nr 432",
                "name": "Przedszkole nr 432",
                "addr:postcode": "03-522",
                "addr:city": "Warszawa",
                "addr:street": "Kuniecka",
                "addr:housenumber": "8",
                "addr:city:simc": 988827,
                "addr:street:sym_ul": 10406,
                "phone": "+48 511177270",
                "email": "p432@edu.um.warszawa.pl",
                "website": "http:\/\/przedszkole432.pl",
                "ref:regon": "367492473",
                "ref:vatin": "PL5242835691",
                "operator": "Targ\u00f3wek",
                "operator:type": "government",
                "amenity": "kindergarten"
            }
        },
        {
            "id": 11951,
            "type": "Feature",
            "geometry": {
                "type": "Point",
                "coordinates": [
                    21.05897,
                    52.2731
                ]
            },
            "properties": {
                "ref:rspo": 11951,
                "official_name": "Przedszkole nr 103",
                "name": "Przedszkole nr 103",
                "addr:postcode": "03-562",
                "addr:city": "Warszawa",
                "addr:street": "Mokra",
                "addr:housenumber": "25",
                "addr:city:simc": 988827,
                "addr:street:sym_ul": 13211,
                "phone": "+48 226791827",
                "email": "ewosk@edu.um.warszawa.pl",
                "website": "http:\/\/www.przedszkole103.waw.pl",
                "ref:regon": "013001481",
                "ref:vatin": "PL5242086769",
                "operator": "Targ\u00f3wek",
                "operator:type": "government",
                "amenity": "kindergarten"
            }
        },
        {
            "id": 25901,
            "type": "Feature",
            "geometry": {
                "type": "Point",
                "coordinates": [
                    21.03963,
                    52.27356
                ]
            },
            "properties": {
                "ref:rspo": 25901,
                "official_name": "Punkt Przedszkolny Promitis",
                "name": "Punkt Przedszkolny Promitis",
                "addr:postcode": "03-524",
                "addr:city": "Warszawa",
                "addr:street": "Cmentarna",
                "addr:housenumber": "17",
                "addr:city:simc": 988827,
                "addr:street:sym_ul": 3114,
                "phone": "+48 796090762",
                "email": "warszawa@autyzm-przedszkole.pl",
                "website": "http:\/\/www.autyzm-przedszkole.pl",
                "ref:regon": "146339308",
                "operator": "Piotr Langiewicz",
                "operator:type": "private",
                "amenity": "kindergarten"
            }
        },
        {
            "id": 269454,
            "type": "Feature",
            "geometry": {
                "type": "Point",
                "coordinates": [
                    21.0772,
                    52.2737
                ]
            },
            "properties": {
                "ref:rspo": 269454,
                "official_name": "Przedszkole Niepubliczne Baje I Psoty",
                "name": "Przedszkole Niepubliczne Baje I Psoty",
                "addr:postcode": "03-890",
                "addr:city": "Warszawa",
                "addr:street": "Bukowiecka",
                "addr:housenumber": "37",
                "addr:city:simc": 988827,
                "addr:street:sym_ul": 2390,
                "phone": "+48 882089878",
                "email": "kontakt@bajeipsoty.edu.pl",
                "website": "http:\/\/www.bajeipsoty.edu.pl",
                "ref:regon": "381495259",
                "operator": "Baje I Psoty Sp\u00f3\u0142ka Z Ograniczon\u0105 Odpowiedzialno\u015bci\u0105",
                "operator:type": "private",
                "amenity": "kindergarten"
            }
        },
        {
            "id": 11490,
            "type": "Feature",
            "geometry": {
                "type": "Point",
                "coordinates": [
                    21.04486,
                    52.2744
                ]
            },
            "properties": {
                "isced:level": "1;2",
                "ref:rspo": 11490,
                "official_name": "Szko\u0142a Podstawowa nr 28 im. Stefana \u017beromskiego",
                "name": "Szko\u0142a Podstawowa nr 28",
                "addr:postcode": "03-535",
                "addr:city": "Warszawa",
                "addr:street": "Go\u015bcieradowska",
                "addr:housenumber": "18\/20",
                "addr:city:simc": 988827,
                "addr:street:sym_ul": 5870,
                "phone": "+48 226796533",
                "email": "sp28@edu.um.warszawa.pl",
                "website": "https:\/\/sp28warszawa.edupage.org\/",
                "ref:regon": "000848434",
                "ref:vatin": "PL5242307288",
                "operator": "Targ\u00f3wek",
                "operator:type": "government",
                "amenity": "school"
            }
        },
        {
            "id": 11564,
            "type": "Feature",
            "geometry": {
                "type": "Point",
                "coordinates": [
                    21.0595,
                    52.27466
                ]
            },
            "properties": {
                "ref:rspo": 11564,
                "official_name": "Przedszkole nr 106",
                "name": "Przedszkole nr 106",
                "addr:postcode": "03-563",
                "addr:city": "Warszawa",
                "addr:street": "Trocka",
                "addr:housenumber": "4",
                "addr:city:simc": 988827,
                "addr:street:sym_ul": 22996,
                "phone": "+48 226796799",
                "email": "sekretariat@przedszkole106.pl",
                "website": "http:\/\/przedszkole106.pl\/",
                "ref:regon": "013000961",
                "ref:vatin": "PL5242409988",
                "operator": "Targ\u00f3wek",
                "operator:type": "government",
                "amenity": "kindergarten"
            }
        },
        {
            "id": 124810,
            "type": "Feature",
            "geometry": {
                "type": "Point",
                "coordinates": [
                    21.0595,
                    52.274629999999995
                ]
            },
            "properties": {
                "isced:level": "4",
                "ref:rspo": 124810,
                "official_name": "Zaoczna Policealna Szko\u0142a Zawodowa Logos",
                "name": "Zaoczna Policealna Szko\u0142a Zawodowa Logos",
                "addr:postcode": "03-563",
                "addr:city": "Warszawa",
                "addr:street": "Trocka",
                "addr:housenumber": "4",
                "addr:city:simc": 988827,
                "addr:street:sym_ul": 22996,
                "phone": "+48 691371037",
                "email": "szkolylogos@gmail.com",
                "website": "http:\/\/www.szkola-logos.pl",
                "ref:regon": "147420308",
                "operator": "Dorota Rogozi\u0144ska",
                "operator:type": "private",
                "amenity": "college"
            }
        },
        {
            "id": 133612,
            "type": "Feature",
            "geometry": {
                "type": "Point",
                "coordinates": [
                    21.0595,
                    52.2746
                ]
            },
            "properties": {
                "isced:level": "1;2",
                "ref:rspo": 133612,
                "official_name": "Szko\u0142a Podstawowa nr 377 im. Majora Henryka Dobrza\u0144skiego \"Hubala\" w Warszawie",
                "name": "Szko\u0142a Podstawowa nr 377",
                "addr:postcode": "03-563",
                "addr:city": "Warszawa",
                "addr:street": "Trocka",
                "addr:housenumber": "4",
                "addr:city:simc": 988827,
                "addr:street:sym_ul": 22996,
                "phone": "+48 226780180",
                "email": "sp377@edu.um.warszawa.pl",
                "website": "http:\/\/www.sp377.waw.pl\/",
                "ref:regon": "367485160",
                "operator": "Targ\u00f3wek",
                "operator:type": "government",
                "amenity": "school"
            }
        },
        {
            "id": 266182,
            "type": "Feature",
            "geometry": {
                "type": "Point",
                "coordinates": [
                    21.0595,
                    52.27457
                ]
            },
            "properties": {
                "isced:level": "4",
                "ref:rspo": 266182,
                "official_name": "Policealna Szko\u0142a Zawodowa Edicus w Warszawie",
                "name": "Policealna Szko\u0142a Zawodowa Edicus w Warszawie",
                "addr:postcode": "03-563",
                "addr:city": "Warszawa",
                "addr:street": "Trocka",
                "addr:housenumber": "4",
                "addr:city:simc": 988827,
                "addr:street:sym_ul": 22996,
                "phone": "+48 725777725",
                "email": "edicusdyrektor@gmail.com",
                "ref:regon": "369338300",
                "operator": "Iwona Poteralska",
                "operator:type": "private",
                "amenity": "college"
            }
        },
        {
            "id": 268404,
            "type": "Feature",
            "geometry": {
                "type": "Point",
                "coordinates": [
                    21.0595,
                    52.274539999999995
                ]
            },
            "properties": {
                "isced:level": "4",
                "ref:rspo": 268404,
                "official_name": "Policealna Szko\u0142a Zawodowa Start",
                "name": "Policealna Szko\u0142a Zawodowa Start",
                "addr:postcode": "03-563",
                "addr:city": "Warszawa",
                "addr:street": "Trocka",
                "addr:housenumber": "4",
                "addr:city:simc": 988827,
                "addr:street:sym_ul": 22996,
                "phone": "+48 505531151",
                "email": "dyrektorstart@gmail.com",
                "ref:regon": "381142124",
                "operator": "Policealna Szko\u0142a Zawodowa Start Sp\u00f3\u0142ka Z Ograniczon\u0105 Odpowiedzialno\u015bci\u0105",
                "operator:type": "private",
                "amenity": "college"
            }
        },
        {
            "id": 269293,
            "type": "Feature",
            "geometry": {
                "type": "Point",
                "coordinates": [
                    21.0595,
                    52.27451
                ]
            },
            "properties": {
                "isced:level": "4",
                "ref:rspo": 269293,
                "official_name": "Policealna Szko\u0142a Zawodowa Edicus Ii",
                "name": "Policealna Szko\u0142a Zawodowa Edicus Ii",
                "addr:postcode": "03-563",
                "addr:city": "Warszawa",
                "addr:street": "Trocka",
                "addr:housenumber": "4",
                "addr:city:simc": 988827,
                "addr:street:sym_ul": 22996,
                "phone": "+48 692354668",
                "email": "b.molikedicus@gmail.com",
                "ref:regon": "381426643",
                "operator": "Iwona Poteralska",
                "operator:type": "private",
                "amenity": "college"
            }
        },
        {
            "id": 125134,
            "type": "Feature",
            "geometry": {
                "type": "Point",
                "coordinates": [
                    21.05108,
                    52.27476
                ]
            },
            "properties": {
                "ref:rspo": 125134,
                "official_name": "Przedszkole Niepubliczne Amo 81",
                "name": "Przedszkole Niepubliczne Amo 81",
                "addr:postcode": "03-567",
                "addr:city": "Warszawa",
                "addr:street": "Z\u0142otopolska",
                "addr:housenumber": "1",
                "addr:door": "81",
                "addr:city:simc": 988827,
                "addr:street:sym_ul": 26210,
                "phone": "+48 602366811",
                "email": "biuro@amo.edu.pl",
                "website": "http:\/\/amo.edu.pl",
                "ref:regon": "147427701",
                "operator": "Amo & Friends Sp\u00f3\u0142ka Z Ograniczon\u0105 Odpowiedzialno\u015bci\u0105",
                "operator:type": "private",
                "amenity": "kindergarten"
            }
        },
        {
            "id": 263155,
            "type": "Feature",
            "geometry": {
                "type": "Point",
                "coordinates": [
                    21.02814,
                    52.27493
                ]
            },
            "properties": {
                "ref:rspo": 263155,
                "official_name": "Delphi O\u015brodek Szkoleniowy",
                "name": "Delphi O\u015brodek Szkoleniowy",
                "addr:postcode": "03-310",
                "addr:city": "Warszawa",
                "addr:street": "Staniewicka",
                "addr:housenumber": "14",
                "addr:city:simc": 988827,
                "addr:street:sym_ul": 20821,
                "ref:regon": "368111680",
                "operator": "Joanna Dymowska",
                "operator:type": "private",
                "fixme": "w zale\u017cno\u015bci od przedmiotu dzia\u0142alno\u015bci (np. amenity=training + training=*, amenity=dancing_school, amenity=language_school, amenity=music_school)"
            }
        },
        {
            "id": 83452,
            "type": "Feature",
            "geometry": {
                "type": "Point",
                "coordinates": [
                    21.04642,
                    52.27531
                ]
            },
            "properties": {
                "ref:rspo": 83452,
                "official_name": "T\u0119czowe Przedszkole",
                "name": "T\u0119czowe Przedszkole",
                "addr:postcode": "03-566",
                "addr:city": "Warszawa",
                "addr:street": "Motycka",
                "addr:housenumber": "17",
                "addr:city:simc": 988827,
                "addr:street:sym_ul": 13400,
                "phone": "+48 734426751",
                "email": "info@teczoweprzedszkole.pl",
                "website": "http:\/\/www.teczoweprzedszkole.pl",
                "ref:regon": "146432054",
                "operator": "Anita Pyssa",
                "operator:type": "private",
                "amenity": "kindergarten"
            }
        },
        {
            "id": 11952,
            "type": "Feature",
            "geometry": {
                "type": "Point",
                "coordinates": [
                    21.05188,
                    52.2756
                ]
            },
            "properties": {
                "ref:rspo": 11952,
                "official_name": "Przedszkole nr 95 z Oddzia\u0142ami Integracyjnymi im. Kr\u00f3la Maciusia I",
                "name": "Przedszkole nr 95 z Oddzia\u0142ami Integracyjnymi",
                "addr:postcode": "03-571",
                "addr:city": "Warszawa",
                "addr:street": "Tadeusza Korzona",
                "addr:housenumber": "2",
                "addr:city:simc": 988827,
                "addr:street:sym_ul": 9414,
                "phone": "+48 226790808",
                "email": "p95@edu.um.warszawa.pl",
                "website": "http:\/\/www.p95.przedszkola.net.pl",
                "ref:regon": "013001245",
                "ref:vatin": "PL5242086717",
                "operator": "Targ\u00f3wek",
                "operator:type": "government",
                "amenity": "kindergarten"
            }
        },
        {
            "id": 263727,
            "type": "Feature",
            "geometry": {
                "type": "Point",
                "coordinates": [
                    21.0824399,
                    52.27597
                ]
            },
            "properties": {
                "ref:rspo": 263727,
                "official_name": "Przedszkole Niepubliczne \"Marzenia do Spe\u0142nienia\"",
                "name": "Przedszkole Niepubliczne \"Marzenia do Spe\u0142nienia\"",
                "addr:postcode": "03-890",
                "addr:city": "Warszawa",
                "addr:street": "Wierna",
                "addr:housenumber": "24",
                "addr:door": "U6,U7,u8",
                "addr:city:simc": 988827,
                "addr:street:sym_ul": 24143,
                "phone": "+48 608296245",
                "email": "anna.krupinska@gmail.com",
                "website": "http:\/\/marzeniadospelnienia.com.pl",
                "ref:regon": "368217786",
                "operator": "\"Marzenia Do Spe\u0142nienia\" Sp\u00f3\u0142ka Z Ograniczon\u0105 Odpowiedzialno\u015bci\u0105",
                "operator:type": "private",
                "amenity": "kindergarten"
            }
        },
        {
            "id": 276600,
            "type": "Feature",
            "geometry": {
                "type": "Point",
                "coordinates": [
                    21.0824399,
                    52.27594
                ]
            },
            "properties": {
                "ref:rspo": 276600,
                "official_name": "Publiczne Przedszkole Marzenia do Spe\u0142nienia",
                "name": "Publiczne Przedszkole Marzenia do Spe\u0142nienia",
                "addr:postcode": "05-091",
                "addr:city": "Warszawa",
                "addr:street": "Wierna",
                "addr:housenumber": "24",
                "addr:door": "U8",
                "addr:city:simc": 988827,
                "addr:street:sym_ul": 24143,
                "phone": "+48 608294245",
                "email": "mojeprzedszkola@gmail.com",
                "ref:regon": "387262303",
                "operator": "\"Marzenia Do Spe\u0142nienia\" Sp\u00f3\u0142ka Z Ograniczon\u0105 Odpowiedzialno\u015bci\u0105",
                "operator:type": "private",
                "amenity": "kindergarten"
            }
        },
        {
            "id": 276788,
            "type": "Feature",
            "geometry": {
                "type": "Point",
                "coordinates": [
                    21.02741,
                    52.27823
                ]
            },
            "properties": {
                "ref:rspo": 276788,
                "official_name": "Przedszkole z Oddzia\u0142ami Integracyjnymi nr 442",
                "name": "Przedszkole z Oddzia\u0142ami Integracyjnymi nr 442",
                "addr:postcode": "03-310",
                "addr:city": "Warszawa",
                "addr:street": "\u015bw. Jacka Odrow\u0105\u017ca",
                "addr:housenumber": "23",
                "addr:city:simc": 988827,
                "addr:street:sym_ul": 14766,
                "phone": "+48 222902420",
                "email": "p442@edu.um.warszawa.pl",
                "website": "http:\/\/przedszkole442.pl",
                "ref:regon": "387577389",
                "operator": "Targ\u00f3wek",
                "operator:type": "government",
                "amenity": "kindergarten"
            }
        },
        {
            "id": 120956,
            "type": "Feature",
            "geometry": {
                "type": "Point",
                "coordinates": [
                    21.0597299,
                    52.27857
                ]
            },
            "properties": {
                "ref:rspo": 120956,
                "official_name": "Niepubliczne Przedszkola Ciuchcia Puch Puch Agata Wawer",
                "name": "Niepubliczne Przedszkola Ciuchcia Puch Puch Agata Wawer",
                "addr:postcode": "03-586",
                "addr:city": "Warszawa",
                "addr:street": "Uranowa",
                "addr:housenumber": "24",
                "addr:city:simc": 988827,
                "addr:street:sym_ul": 23386,
                "phone": "+48 226782051",
                "ref:regon": "146366877",
                "operator": "Agata Wawer",
                "operator:type": "private",
                "amenity": "kindergarten"
            }
        },
        {
            "id": 48055,
            "type": "Feature",
            "geometry": {
                "type": "Point",
                "coordinates": [
                    21.05999,
                    52.27882
                ]
            },
            "properties": {
                "ref:rspo": 48055,
                "official_name": "Niepubliczne Przedszkola Ciuchcia Puch Puch Agata Wawer",
                "name": "Niepubliczne Przedszkola Ciuchcia Puch Puch Agata Wawer",
                "addr:postcode": "03-586",
                "addr:city": "Warszawa",
                "addr:street": "W\u0142adys\u0142awa \u0141okietka",
                "addr:housenumber": "7",
                "addr:city:simc": 988827,
                "addr:street:sym_ul": 11653,
                "phone": "+48 226772844",
                "email": "przedszkole@puchpuch.pl",
                "ref:regon": "146366883",
                "operator": "Agata Wawer",
                "operator:type": "private",
                "amenity": "kindergarten"
            }
        },
        {
            "id": 22588,
            "type": "Feature",
            "geometry": {
                "type": "Point",
                "coordinates": [
                    21.0451799,
                    52.2793
                ]
            },
            "properties": {
                "ref:rspo": 22588,
                "official_name": "Niepubliczne Przedszkole \"Kolorowy Balonik\"",
                "name": "Niepubliczne Przedszkole \"Kolorowy Balonik\"",
                "addr:postcode": "03-291",
                "addr:city": "Warszawa",
                "addr:street": "\u015bw. Wincentego",
                "addr:housenumber": "130",
                "addr:door": "54",
                "addr:city:simc": 988827,
                "addr:street:sym_ul": 24330,
                "phone": "+48 227430013",
                "email": "przedszkole.szydlowska@gmail.com",
                "website": "http:\/\/kolorowybalonik.pl",
                "ref:regon": "146327794",
                "operator": "\"Kolorowy Balonik\" Sp\u00f3\u0142ka Z Ograniczon\u0105 Odpowiedzialno\u015bci\u0105",
                "operator:type": "private",
                "amenity": "kindergarten"
            }
        },
        {
            "id": 266433,
            "type": "Feature",
            "geometry": {
                "type": "Point",
                "coordinates": [
                    21.07406,
                    52.27951
                ]
            },
            "properties": {
                "ref:rspo": 266433,
                "official_name": "Ad Security O\u015brodek Kszta\u0142cenia",
                "name": "Ad Security O\u015brodek Kszta\u0142cenia",
                "addr:postcode": "03-679",
                "addr:city": "Warszawa",
                "addr:street": "Tarnog\u00f3rska",
                "addr:housenumber": "16",
                "addr:city:simc": 988827,
                "addr:street:sym_ul": 22677,
                "phone": "+48 226790901",
                "email": "jacek.lesko@grupa.dsf.pl",
                "ref:regon": "369497687",
                "operator": "S\u0142awomir Duba",
                "operator:type": "private",
                "fixme": "w zale\u017cno\u015bci od przedmiotu dzia\u0142alno\u015bci (np. amenity=training + training=*, amenity=dancing_school, amenity=language_school, amenity=music_school)"
            }
        },
        {
            "id": 83324,
            "type": "Feature",
            "geometry": {
                "type": "Point",
                "coordinates": [
                    21.0746499,
                    52.27977
                ]
            },
            "properties": {
                "ref:rspo": 83324,
                "official_name": "Przedszkole Niepubliczne Mikiland",
                "name": "Przedszkole Niepubliczne Mikiland",
                "addr:postcode": "03-680",
                "addr:city": "Warszawa",
                "addr:street": "Wolbromska",
                "addr:housenumber": "2",
                "addr:city:simc": 988827,
                "addr:street:sym_ul": 24664,
                "phone": "+48 508410066",
                "email": "targowek@mikiland.pl",
                "ref:regon": "146423262",
                "operator": "Mikiland Sp\u00f3\u0142ka Z Ograniczon\u0105 Odpowiedzialno\u015bci\u0105",
                "operator:type": "private",
                "amenity": "kindergarten"
            }
        },
        {
            "id": 48842,
            "type": "Feature",
            "geometry": {
                "type": "Point",
                "coordinates": [
                    21.05754,
                    52.28032
                ]
            },
            "properties": {
                "isced:level": "1;2",
                "ref:rspo": 48842,
                "official_name": "Szko\u0142a Podstawowa nr 52 im. Macieja Aleksego Dawidowskiego \u201cAlka\u201d",
                "name": "Szko\u0142a Podstawowa nr 52",
                "addr:postcode": "03-592",
                "addr:city": "Warszawa",
                "addr:street": "Samarytanka",
                "addr:housenumber": "11a",
                "addr:city:simc": 988827,
                "addr:street:sym_ul": 19451,
                "phone": "+48 226791445",
                "email": "sp52@edu.um.warszawa.pl",
                "website": "http:\/\/sp52.pl\/",
                "ref:regon": "000801852",
                "ref:vatin": "PL5242330637",
                "operator": "Targ\u00f3wek",
                "operator:type": "government",
                "amenity": "school",
                "note": "Children RSPO: 131059"
            }
        },
        {
            "id": 131059,
            "type": "Feature",
            "geometry": {
                "type": "Point",
                "coordinates": [
                    21.05754,
                    52.28029
                ]
            },
            "properties": {
                "isced:level": "1;2",
                "ref:rspo": 131059,
                "official_name": "Szko\u0142a Podstawowa nr 52 im. Macieja Aleksego Dawidowskiego \"Alka\", Szko\u0142a Filialna Gilarska",
                "name": "Szko\u0142a Podstawowa nr 52",
                "addr:postcode": "03-592",
                "addr:city": "Warszawa",
                "addr:street": "Samarytanka",
                "addr:housenumber": "11A",
                "addr:city:simc": 988827,
                "addr:street:sym_ul": 19451,
                "phone": "+48 226791445",
                "email": "sp52@edu.um.warszawa.pl",
                "ref:regon": "801852000",
                "operator": "Targ\u00f3wek",
                "operator:type": "government",
                "amenity": "school",
                "note": "Parent RSPO: 48842"
            }
        },
        {
            "id": 125505,
            "type": "Feature",
            "geometry": {
                "type": "Point",
                "coordinates": [
                    21.07333,
                    52.28039
                ]
            },
            "properties": {
                "ref:rspo": 125505,
                "official_name": "Integracyjne Przedszkole Niepubliczne \"Kids World\"",
                "name": "Integracyjne Przedszkole Niepubliczne \"Kids World\"",
                "addr:postcode": "03-681",
                "addr:city": "Warszawa",
                "addr:street": "Wyborna",
                "addr:housenumber": "4",
                "addr:city:simc": 988827,
                "addr:street:sym_ul": 24911,
                "phone": "+48 517218077",
                "email": "kidsworld.przedszkole@gmail.com",
                "ref:regon": "147450166",
                "operator": "Marta Szczepa\u0144ska",
                "operator:type": "private",
                "amenity": "kindergarten"
            }
        },
        {
            "id": 274382,
            "type": "Feature",
            "geometry": {
                "type": "Point",
                "coordinates": [
                    21.04866,
                    52.28055
                ]
            },
            "properties": {
                "isced:level": "1;2",
                "ref:rspo": 274382,
                "official_name": "Szko\u0142a Podstawowa nr 398",
                "name": "Szko\u0142a Podstawowa nr 398",
                "addr:postcode": "03-531",
                "addr:city": "Warszawa",
                "addr:street": "Rembrandta",
                "addr:housenumber": "8",
                "addr:city:simc": 988827,
                "addr:street:sym_ul": 36335,
                "phone": "+48 225703640",
                "email": "sp398@edu.um.warszawa.pl",
                "ref:regon": "385662270",
                "operator": "Targ\u00f3wek",
                "operator:type": "government",
                "amenity": "school"
            }
        },
        {
            "id": 105811,
            "type": "Feature",
            "geometry": {
                "type": "Point",
                "coordinates": [
                    21.07688,
                    52.28215
                ]
            },
            "properties": {
                "ref:rspo": 105811,
                "official_name": "Publiczne Przedszkole Integracyjne nr 22 Zgromadzenia Si\u00f3str Misjonarek Apostolstwa Katolickiego",
                "name": "Publiczne Przedszkole Integracyjne nr 22 Zgromadzenia Si\u00f3str Misjonarek Apostolstwa Katolickiego",
                "addr:postcode": "03-680",
                "addr:city": "Warszawa",
                "addr:street": "Wolbromska",
                "addr:housenumber": "31",
                "addr:city:simc": 988827,
                "addr:street:sym_ul": 24664,
                "phone": "+48 227615700",
                "email": "integracja22@onet.pl",
                "ref:regon": "146461831",
                "operator": "Zgromadzenie Si\u00f3str Misjonarek Apostolstwa Katolickiego Prowincja Polska",
                "operator:type": "religious",
                "amenity": "kindergarten"
            }
        },
        {
            "id": 269142,
            "type": "Feature",
            "geometry": {
                "type": "Point",
                "coordinates": [
                    21.07428,
                    52.28239
                ]
            },
            "properties": {
                "ref:rspo": 269142,
                "official_name": "Niepubliczny Terapeutyczny Punkt Przedszkolny Kids World",
                "name": "Niepubliczny Terapeutyczny Punkt Przedszkolny Kids World",
                "addr:postcode": "03-683",
                "addr:city": "Warszawa",
                "addr:street": "Tu\u017cycka",
                "addr:housenumber": "8",
                "addr:city:simc": 988827,
                "addr:street:sym_ul": 23199,
                "phone": "+48 517203017",
                "email": "kidsworld.przedszkole@gmail.com",
                "ref:regon": "381384689",
                "operator": "Marta Szczepa\u0144ska",
                "operator:type": "private",
                "amenity": "kindergarten"
            }
        },
        {
            "id": 276355,
            "type": "Feature",
            "geometry": {
                "type": "Point",
                "coordinates": [
                    21.0245456,
                    52.2841544
                ]
            },
            "properties": {
                "ref:rspo": 276355,
                "official_name": "Terapeutyczny Punkt Przedszkolny \"M\u00f3wi Si\u0119\"",
                "name": "Terapeutyczny Punkt Przedszkolny \"M\u00f3wi Si\u0119\"",
                "addr:postcode": "03-335",
                "addr:city": "Warszawa",
                "addr:street": "W\u0142adys\u0142awa Syrokomli",
                "addr:housenumber": "6",
                "addr:city:simc": 988827,
                "addr:street:sym_ul": 21683,
                "phone": "+48 223002480",
                "email": "biuro@pogadaj-my.pl",
                "website": "http:\/\/www.pogadaj-my.pl",
                "ref:regon": "387105236",
                "operator": "Fundacja Pogadajmy",
                "operator:type": "ngo",
                "amenity": "kindergarten"
            }
        },
        {
            "id": 114719,
            "type": "Feature",
            "geometry": {
                "type": "Point",
                "coordinates": [
                    21.0781,
                    52.28418
                ]
            },
            "properties": {
                "ref:rspo": 114719,
                "official_name": "Integracyjne Przedszkole Niepubliczne \"T\u0119czowy K\u0105cik\"",
                "name": "Integracyjne Przedszkole Niepubliczne \"T\u0119czowy K\u0105cik\"",
                "addr:postcode": "03-684",
                "addr:city": "Warszawa",
                "addr:street": "Lewinowska",
                "addr:housenumber": "30",
                "addr:city:simc": 988827,
                "addr:street:sym_ul": 10994,
                "phone": "+48 602346997",
                "email": "teczowykacik@wp.pl",
                "website": "http:\/\/teczowykacik.pl",
                "ref:regon": "146687950",
                "operator": "Micha\u0142 B\u0105czyk",
                "operator:type": "private",
                "amenity": "kindergarten"
            }
        },
        {
            "id": 52372,
            "type": "Feature",
            "geometry": {
                "type": "Point",
                "coordinates": [
                    21.07242,
                    52.28429
                ]
            },
            "properties": {
                "isced:level": "1;2",
                "ref:rspo": 52372,
                "official_name": "Szko\u0142a Podstawowa nr 84 im. Waleriana \u0141ukasi\u0144skiego",
                "name": "Szko\u0142a Podstawowa nr 84",
                "addr:postcode": "03-611",
                "addr:city": "Warszawa",
                "addr:street": "Radzymi\u0144ska",
                "addr:housenumber": "227",
                "addr:city:simc": 988827,
                "addr:street:sym_ul": 18373,
                "phone": "+48 226797895",
                "email": "sekretariat@sp84.waw.pl",
                "website": "http:\/\/www.sp84.waw.pl",
                "ref:regon": "000801898",
                "ref:vatin": "PL5242324594",
                "operator": "Targ\u00f3wek",
                "operator:type": "government",
                "amenity": "school",
                "note": "Children RSPO: 131061"
            }
        },
        {
            "id": 131061,
            "type": "Feature",
            "geometry": {
                "type": "Point",
                "coordinates": [
                    21.0807499,
                    52.28435
                ]
            },
            "properties": {
                "isced:level": "1;2",
                "ref:rspo": 131061,
                "official_name": "Szko\u0142a Podstawowa nr 84 im. Waleriana \u0141ukasi\u0144skiego Szko\u0142a Filialna - Topazowa",
                "name": "Szko\u0142a Podstawowa nr 84",
                "addr:postcode": "03-686",
                "addr:city": "Warszawa",
                "addr:street": "Topazowa",
                "addr:housenumber": "26",
                "addr:city:simc": 988827,
                "addr:street:sym_ul": 22871,
                "phone": "+48 226797895",
                "email": "sekretariat@sp84.waw.pl",
                "ref:regon": "801898000",
                "operator": "Targ\u00f3wek",
                "operator:type": "government",
                "amenity": "school",
                "note": "Parent RSPO: 52372"
            }
        },
        {
            "id": 124178,
            "type": "Feature",
            "geometry": {
                "type": "Point",
                "coordinates": [
                    21.06243,
                    52.28464
                ]
            },
            "properties": {
                "ref:rspo": 124178,
                "official_name": "Technika I Bezpiecze\u0144stwo",
                "name": "Technika I Bezpiecze\u0144stwo",
                "addr:postcode": "03-604",
                "addr:city": "Warszawa",
                "addr:street": "Sp\u00f3jni",
                "addr:housenumber": "37",
                "addr:city:simc": 988827,
                "addr:street:sym_ul": 20692,
                "phone": "+48 501306304",
                "email": "szkolenia@tip.net.pl",
                "website": "http:\/\/tib.net.pl",
                "ref:regon": "147379480",
                "operator": "Technika I Bezpiecze\u0144stwo Sp\u00f3\u0142ka Z Ograniczon\u0105 Odpowiedzialno\u015bci\u0105",
                "operator:type": "private",
                "fixme": "w zale\u017cno\u015bci od przedmiotu dzia\u0142alno\u015bci (np. amenity=training + training=*, amenity=dancing_school, amenity=language_school, amenity=music_school)"
            }
        },
        {
            "id": 122932,
            "type": "Feature",
            "geometry": {
                "type": "Point",
                "coordinates": [
                    21.07398,
                    52.28468
                ]
            },
            "properties": {
                "ref:rspo": 122932,
                "official_name": "Europejskie Centrum Sportu",
                "name": "Europejskie Centrum Sportu",
                "addr:postcode": "03-674",
                "addr:city": "Warszawa",
                "addr:street": "Radzymi\u0144ska",
                "addr:housenumber": "234",
                "addr:door": "236",
                "addr:city:simc": 988827,
                "addr:street:sym_ul": 18373,
                "phone": "+48 530333350",
                "email": "biuro@kursyecs.edu.pl",
                "website": "http:\/\/www.kursyecs.edu.pl",
                "ref:regon": "147215413",
                "operator": "Jaros\u0142aw Jarosz",
                "operator:type": "private",
                "fixme": "w zale\u017cno\u015bci od przedmiotu dzia\u0142alno\u015bci (np. amenity=training + training=*, amenity=dancing_school, amenity=language_school, amenity=music_school)"
            }
        },
        {
            "id": 11959,
            "type": "Feature",
            "geometry": {
                "type": "Point",
                "coordinates": [
                    21.02778,
                    52.28503
                ]
            },
            "properties": {
                "ref:rspo": 11959,
                "official_name": "Przedszkole nr 123 \"Ocean Marze\u0144\"",
                "name": "Przedszkole nr 123 \"Ocean Marze\u0144\"",
                "addr:postcode": "03-335",
                "addr:city": "Warszawa",
                "addr:street": "W\u0142adys\u0142awa Syrokomli",
                "addr:housenumber": "26",
                "addr:city:simc": 988827,
                "addr:street:sym_ul": 21683,
                "phone": "+48 228115178",
                "email": "p123@edu.um.warszawa.pl",
                "website": "http:\/\/www.przedszkolenr123.pl",
                "ref:regon": "013001239",
                "ref:vatin": "PL5242330028",
                "operator": "Targ\u00f3wek",
                "operator:type": "government",
                "amenity": "kindergarten"
            }
        },
        {
            "id": 11950,
            "type": "Feature",
            "geometry": {
                "type": "Point",
                "coordinates": [
                    21.0565863,
                    52.285103
                ]
            },
            "properties": {
                "ref:rspo": 11950,
                "official_name": "Przedszkole nr 128 \"Kraina Magicznych Liczb\"",
                "name": "Przedszkole nr 128 \"Kraina Magicznych Liczb\"",
                "addr:postcode": "03-597",
                "addr:city": "Warszawa",
                "addr:street": "Henryka Sternhela",
                "addr:housenumber": "40",
                "addr:city:simc": 988827,
                "addr:street:sym_ul": 21149,
                "phone": "+48 607840683",
                "email": "p128@edu.um.warszawa.pl",
                "ref:regon": "013001618",
                "ref:vatin": "PL5242124056",
                "operator": "Targ\u00f3wek",
                "operator:type": "government",
                "amenity": "kindergarten"
            }
        },
        {
            "id": 108683,
            "type": "Feature",
            "geometry": {
                "type": "Point",
                "coordinates": [
                    21.0744,
                    52.28516
                ]
            },
            "properties": {
                "isced:level": "4",
                "ref:rspo": 108683,
                "official_name": "Policealna Szko\u0142a Zawodowa Zacisze",
                "name": "Policealna Szko\u0142a Zawodowa Zacisze",
                "addr:postcode": "03-674",
                "addr:city": "Warszawa",
                "addr:street": "Radzymi\u0144ska",
                "addr:housenumber": "242",
                "addr:city:simc": 988827,
                "addr:street:sym_ul": 18373,
                "phone": "+48 226786056",
                "email": "sekretariat@ck-zacisze.edu.pl",
                "website": "http:\/\/www.ck-zacisze.edu.pl",
                "ref:regon": "146509963",
                "operator": "Centrum Kszta\u0142cenia Zacisze Sp\u00f3\u0142ka Z Ograniczon\u0105 Odpowiedzialno\u015bci\u0105",
                "operator:type": "private",
                "amenity": "college"
            }
        },
        {
            "id": 120872,
            "type": "Feature",
            "geometry": {
                "type": "Point",
                "coordinates": [
                    21.0744,
                    52.285129999999995
                ]
            },
            "properties": {
                "isced:level": "3",
                "ref:rspo": 120872,
                "official_name": "Liceum Og\u00f3lnokszta\u0142c\u0105ce dla Doros\u0142ych Zacisze",
                "name": "Liceum Og\u00f3lnokszta\u0142c\u0105ce dla Doros\u0142ych Zacisze",
                "addr:postcode": "03-674",
                "addr:city": "Warszawa",
                "addr:street": "Radzymi\u0144ska",
                "addr:housenumber": "242",
                "addr:city:simc": 988827,
                "addr:street:sym_ul": 18373,
                "phone": "+48 226786056",
                "email": "sekretariat@ck-zacisze.edu.pl",
                "website": "http:\/\/www.ck-zacisze.edu.pl",
                "ref:regon": "146973778",
                "operator": "Centrum Kszta\u0142cenia Zacisze Sp\u00f3\u0142ka Z Ograniczon\u0105 Odpowiedzialno\u015bci\u0105",
                "operator:type": "private",
                "amenity": "school"
            }
        },
        {
            "id": 121769,
            "type": "Feature",
            "geometry": {
                "type": "Point",
                "coordinates": [
                    21.0744,
                    52.2851
                ]
            },
            "properties": {
                "ref:rspo": 121769,
                "official_name": "Centrum Kwalifikacji Zawodowych Zacisze",
                "name": "Centrum Kwalifikacji Zawodowych Zacisze",
                "addr:postcode": "03-674",
                "addr:city": "Warszawa",
                "addr:street": "Radzymi\u0144ska",
                "addr:housenumber": "242",
                "addr:city:simc": 988827,
                "addr:street:sym_ul": 18373,
                "phone": "+48 226786056",
                "email": "sekretariat@ckzacisze.edu.pl",
                "website": "http:\/\/www.ckzacisze.edu.pl",
                "ref:regon": "147088245",
                "operator": "Centrum Kszta\u0142cenia Zacisze Sp\u00f3\u0142ka Z Ograniczon\u0105 Odpowiedzialno\u015bci\u0105",
                "operator:type": "private",
                "fixme": "w zale\u017cno\u015bci od przedmiotu dzia\u0142alno\u015bci (np. amenity=training + training=*, amenity=dancing_school, amenity=language_school, amenity=music_school)"
            }
        },
        {
            "id": 84950,
            "type": "Feature",
            "geometry": {
                "type": "Point",
                "coordinates": [
                    21.02731,
                    52.28517
                ]
            },
            "properties": {
                "ref:rspo": 84950,
                "official_name": "Niepubliczne Przedszkole Zgromadzenia Ss Pocieszycielek Naj\u015bwi\u0119tszego Serca Jezusowego",
                "name": "Niepubliczne Przedszkole Zgromadzenia Ss Pocieszycielek Naj\u015bwi\u0119tszego Serca Jezusowego",
                "addr:postcode": "03-335",
                "addr:city": "Warszawa",
                "addr:street": "W\u0142adys\u0142awa Syrokomli",
                "addr:housenumber": "23",
                "addr:city:simc": 988827,
                "addr:street:sym_ul": 21683,
                "phone": "+48 228111760",
                "email": "kontakt@przedszkolesp.pl",
                "website": "http:\/\/www.przedszkolesp.pl",
                "ref:regon": "146416144",
                "operator": "Zg.ss.pocieszycielek Naj\u015bwi\u0119tszego Serca Jezusowego,Dom Zakonny",
                "operator:type": "religious",
                "amenity": "kindergarten"
            }
        },
        {
            "id": 48841,
            "type": "Feature",
            "geometry": {
                "type": "Point",
                "coordinates": [
                    21.03881,
                    52.28568
                ]
            },
            "properties": {
                "isced:level": "1;2",
                "ref:rspo": 48841,
                "official_name": "Szko\u0142a Podstawowa nr 42 z Oddzia\u0142ami Integracyjnymi im. Konstantego Ildefonsa Ga\u0142czy\u0144skiego",
                "name": "Szko\u0142a Podstawowa nr 42 z Oddzia\u0142ami Integracyjnymi",
                "addr:postcode": "03-329",
                "addr:city": "Warszawa",
                "addr:street": "Balkonowa",
                "addr:housenumber": "4",
                "addr:city:simc": 988827,
                "addr:street:sym_ul": 638,
                "phone": "+48 228115843",
                "email": "sp42@edu.um.warszawa.pl",
                "website": "http:\/\/www.sp42.waw.pl",
                "ref:regon": "000801800",
                "ref:vatin": "PL5242383711",
                "operator": "Targ\u00f3wek",
                "operator:type": "government",
                "amenity": "school"
            }
        },
        {
            "id": 34622,
            "type": "Feature",
            "geometry": {
                "type": "Point",
                "coordinates": [
                    21.02374,
                    52.28619
                ]
            },
            "properties": {
                "ref:rspo": 34622,
                "official_name": "Zesp\u00f3\u0142 Szk\u00f3\u0142 z Oddzia\u0142ami Integracyjnymi nr 41",
                "name": "Zesp\u00f3\u0142 Szk\u00f3\u0142 z Oddzia\u0142ami Integracyjnymi nr 41",
                "addr:postcode": "03-358",
                "addr:city": "Warszawa",
                "addr:street": "Bartnicza",
                "addr:housenumber": "2",
                "addr:city:simc": 988827,
                "addr:street:sym_ul": 801,
                "phone": "+48 228111820",
                "email": "zs41@edu.um.warszawa.pl",
                "website": "http:\/\/www.zs41.edu.pl",
                "ref:regon": "140082386",
                "ref:vatin": "PL5242655204",
                "operator": "Targ\u00f3wek",
                "operator:type": "government",
                "landuse": "education",
                "fixme": "amenity=school, amenity=college albo landuse=education w zale\u017cno\u015bci od tego, jakie plac\u00f3wki wchodz\u0105 w sk\u0142ad zespo\u0142u. Sprawd\u017a, kiedy stosowa\u0107 amenity=* a kiedy landuse=education.",
                "note": "Children RSPO: 56368;56463"
            }
        },
        {
            "id": 105669,
            "type": "Feature",
            "geometry": {
                "type": "Point",
                "coordinates": [
                    21.02374,
                    52.286159999999995
                ]
            },
            "properties": {
                "isced:level": "1;2",
                "ref:rspo": 105669,
                "official_name": "Szko\u0142a Podstawowa Specjalna nr 99 Im Ma\u0142ego Powsta\u0144ca",
                "name": "Szko\u0142a Podstawowa Specjalna nr 99 Im Ma\u0142ego Powsta\u0144ca",
                "addr:postcode": "03-358",
                "addr:city": "Warszawa",
                "addr:street": "Bartnicza",
                "addr:housenumber": "2",
                "addr:city:simc": 988827,
                "addr:street:sym_ul": 801,
                "phone": "+48 228110306",
                "email": "sekretariat@sps99.waw.pl",
                "website": "http:\/\/www.sps99.waw.pl",
                "ref:regon": "000959027",
                "operator": "Miasto Sto\u0142eczne Warszawa",
                "operator:type": "government",
                "amenity": "school"
            }
        },
        {
            "id": 56368,
            "type": "Feature",
            "geometry": {
                "type": "Point",
                "coordinates": [
                    21.02374,
                    52.28613
                ]
            },
            "properties": {
                "isced:level": "1;2",
                "ref:rspo": 56368,
                "official_name": "Szko\u0142a Podstawowa nr 206 z Oddzia\u0142ami Integracyjnymi im. W\u0142adys\u0142awa Reymonta",
                "name": "Szko\u0142a Podstawowa nr 206 z Oddzia\u0142ami Integracyjnymi",
                "addr:postcode": "03-358",
                "addr:city": "Warszawa",
                "addr:street": "Bartnicza",
                "addr:housenumber": "2",
                "addr:city:simc": 988827,
                "addr:street:sym_ul": 801,
                "phone": "+48 228111820",
                "email": "zs41@edu.um.warszawa.pl",
                "website": "http:\/\/www.zs41.edu.pl",
                "ref:regon": "000849043",
                "ref:vatin": "PL5242355979",
                "operator": "Targ\u00f3wek",
                "operator:type": "government",
                "amenity": "school",
                "note": "Parent RSPO: 34622"
            }
        },
        {
            "id": 56463,
            "type": "Feature",
            "geometry": {
                "type": "Point",
                "coordinates": [
                    21.02374,
                    52.2861
                ]
            },
            "properties": {
                "isced:level": "3",
                "ref:rspo": 56463,
                "official_name": "Cii Liceum Og\u00f3lnokszta\u0142c\u0105ce z Oddzia\u0142ami Integracyjnymi im. Ksi\u0119dza J\u00f3zefa Wo\u017aniaka",
                "name": "Cii Liceum Og\u00f3lnokszta\u0142c\u0105ce z Oddzia\u0142ami Integracyjnymi",
                "addr:postcode": "03-358",
                "addr:city": "Warszawa",
                "addr:street": "Bartnicza",
                "addr:housenumber": "2",
                "addr:city:simc": 988827,
                "addr:street:sym_ul": 801,
                "phone": "+48 228111820",
                "email": "zs41@edu.um.warszawa.pl",
                "ref:regon": "015198281",
                "ref:vatin": "PL5242529735",
                "operator": "Targ\u00f3wek",
                "operator:type": "government",
                "amenity": "school",
                "note": "Parent RSPO: 34622"
            }
        },
        {
            "id": 11954,
            "type": "Feature",
            "geometry": {
                "type": "Point",
                "coordinates": [
                    21.04316,
                    52.2865899
                ]
            },
            "properties": {
                "ref:rspo": 11954,
                "official_name": "Przedszkole nr 156",
                "name": "Przedszkole nr 156",
                "addr:postcode": "03-341",
                "addr:city": "Warszawa",
                "addr:street": "\u017buromi\u0144ska",
                "addr:housenumber": "2a",
                "addr:city:simc": 988827,
                "addr:street:sym_ul": 26591,
                "phone": "+48 228114252",
                "email": "p156@edu.um.warszawa.pl",
                "website": "http:\/\/przedszkole156.waw.pl",
                "ref:regon": "013001392",
                "ref:vatin": "PL5242087326",
                "operator": "Targ\u00f3wek",
                "operator:type": "government",
                "amenity": "kindergarten"
            }
        },
        {
            "id": 34621,
            "type": "Feature",
            "geometry": {
                "type": "Point",
                "coordinates": [
                    21.0446199,
                    52.28691
                ]
            },
            "properties": {
                "isced:level": "3",
                "ref:rspo": 34621,
                "official_name": "Xlvi Liceum Og\u00f3lnokszta\u0142c\u0105ce z Oddzia\u0142ami Dwuj\u0119zycznymi im. Stefana Czarnieckiego w Warszawie",
                "name": "Xlvi Liceum Og\u00f3lnokszta\u0142c\u0105ce z Oddzia\u0142ami Dwuj\u0119zycznymi",
                "addr:postcode": "03-341",
                "addr:city": "Warszawa",
                "addr:street": "\u017buromi\u0144ska",
                "addr:housenumber": "4",
                "addr:city:simc": 988827,
                "addr:street:sym_ul": 26591,
                "phone": "+48 228110263",
                "email": "liceum@czarniecki.edu.pl",
                "website": "http:\/\/www.czarniecki.edu.pl",
                "ref:regon": "010768727",
                "ref:vatin": "PL5242510954",
                "operator": "Targ\u00f3wek",
                "operator:type": "government",
                "amenity": "school"
            }
        },
        {
            "id": 88401,
            "type": "Feature",
            "geometry": {
                "type": "Point",
                "coordinates": [
                    21.0446199,
                    52.28688
                ]
            },
            "properties": {
                "isced:level": "3",
                "ref:rspo": 88401,
                "official_name": "As-Liceum Og\u00f3lnokszta\u0142c\u0105ce dla Doros\u0142ych",
                "name": "As-Liceum Og\u00f3lnokszta\u0142c\u0105ce dla Doros\u0142ych",
                "addr:postcode": "03-341",
                "addr:city": "Warszawa",
                "addr:street": "\u017buromi\u0144ska",
                "addr:housenumber": "4",
                "addr:city:simc": 988827,
                "addr:street:sym_ul": 26591,
                "phone": "+48 221100099",
                "email": "dariusz.myszkowski@aschools.pl",
                "ref:regon": "146445000",
                "operator": "A Schools Sp\u00f3\u0142ka Z Ograniczon\u0105 Odpowiedzialno\u015bci\u0105",
                "operator:type": "private",
                "amenity": "school"
            }
        },
        {
            "id": 11577,
            "type": "Feature",
            "geometry": {
                "type": "Point",
                "coordinates": [
                    21.02708,
                    52.2870599
                ]
            },
            "properties": {
                "ref:rspo": 11577,
                "official_name": "Przedszkole nr 155 \"Rozta\u0144czona Kraina\"",
                "name": "Przedszkole nr 155 \"Rozta\u0144czona Kraina\"",
                "addr:postcode": "03-358",
                "addr:city": "Warszawa",
                "addr:street": "Bartnicza",
                "addr:housenumber": "6",
                "addr:city:simc": 988827,
                "addr:street:sym_ul": 801,
                "phone": "+48 228114349",
                "email": "p155@edu.um.warszawa.pl",
                "website": "http:\/\/www.roztanczonakraina-p155.waw.pl",
                "ref:regon": "013001251",
                "ref:vatin": "PL5242378667",
                "operator": "Targ\u00f3wek",
                "operator:type": "government",
                "amenity": "kindergarten"
            }
        },
        {
            "id": 42487,
            "type": "Feature",
            "geometry": {
                "type": "Point",
                "coordinates": [
                    21.02448,
                    52.28722
                ]
            },
            "properties": {
                "ref:rspo": 42487,
                "official_name": "Niepubliczne Przedszkole Zgromadzenia Si\u00f3str Loretanek",
                "name": "Niepubliczne Przedszkole Zgromadzenia Si\u00f3str Loretanek",
                "addr:postcode": "03-318",
                "addr:city": "Warszawa",
                "addr:street": "Micha\u0142a Kleofasa Ogi\u0144skiego",
                "addr:housenumber": "7A",
                "addr:city:simc": 988827,
                "addr:street:sym_ul": 14812,
                "phone": "+48 228113829",
                "email": "przedszkole.csl@gmail.com",
                "website": "http:\/\/www.loretanki.edu.pl",
                "ref:regon": "146399523",
                "operator": "Zgromadzenie Si\u00f3str Matki Bo\u017cej Loreta\u0144skiej, Dom Generalny",
                "operator:type": "religious",
                "amenity": "kindergarten"
            }
        },
        {
            "id": 133613,
            "type": "Feature",
            "geometry": {
                "type": "Point",
                "coordinates": [
                    21.02915,
                    52.28765
                ]
            },
            "properties": {
                "isced:level": "1;2",
                "ref:rspo": 133613,
                "official_name": "Szko\u0142a Podstawowa nr 378 im. Ignacego Jana Paderewskiego w Warszawie",
                "name": "Szko\u0142a Podstawowa nr 378",
                "addr:postcode": "03-358",
                "addr:city": "Warszawa",
                "addr:street": "Bartnicza",
                "addr:housenumber": "8",
                "addr:city:simc": 988827,
                "addr:street:sym_ul": 801,
                "phone": "+48 228111912",
                "email": "sp378@edu.um.warszawa.pl",
                "website": "http:\/\/www.sp378.waw.pl",
                "ref:regon": "367485208",
                "operator": "Targ\u00f3wek",
                "operator:type": "government",
                "amenity": "school"
            }
        },
        {
            "id": 124586,
            "type": "Feature",
            "geometry": {
                "type": "Point",
                "coordinates": [
                    21.07525,
                    52.28832
                ]
            },
            "properties": {
                "ref:rspo": 124586,
                "official_name": "Terapeutyczny Punkt Przedszkolny \"Ma\u0142y Cz\u0142owiek\"",
                "name": "Terapeutyczny Punkt Przedszkolny \"Ma\u0142y Cz\u0142owiek\"",
                "addr:postcode": "03-646",
                "addr:city": "Warszawa",
                "addr:street": "\u0141asi\u0144ska",
                "addr:housenumber": "7",
                "addr:city:simc": 988827,
                "addr:street:sym_ul": 11526,
                "phone": "+48 600220272",
                "email": "biuro@osrodekmalyczlowiek.pl",
                "website": "http:\/\/osrodekmalyczlowiek.pl",
                "ref:regon": "147400620",
                "operator": "Ma\u0142gorzata Wronowska-Gniady",
                "operator:type": "private",
                "amenity": "kindergarten"
            }
        },
        {
            "id": 264002,
            "type": "Feature",
            "geometry": {
                "type": "Point",
                "coordinates": [
                    21.04916,
                    52.28855
                ]
            },
            "properties": {
                "ref:rspo": 264002,
                "official_name": "Zielone Przedszkole w Folwarku",
                "name": "Zielone Przedszkole w Folwarku",
                "addr:postcode": "03-291",
                "addr:city": "Warszawa",
                "addr:street": "\u015bw. Wincentego",
                "addr:housenumber": "92",
                "addr:city:simc": 988827,
                "addr:street:sym_ul": 24330,
                "phone": "+48 519052511",
                "email": "dyrektor@zieloneprzedszkole.edu.pl",
                "website": "http:\/\/www.zieloneprzedszkole.edu.pl",
                "ref:regon": "368251056",
                "operator": "\"Pgr Br\u00f3dno\" Sp\u00f3\u0142ka Z Ograniczon\u0105 Odpowiedzialno\u015bci\u0105",
                "operator:type": "private",
                "amenity": "kindergarten"
            }
        },
        {
            "id": 278191,
            "type": "Feature",
            "geometry": {
                "type": "Point",
                "coordinates": [
                    21.04916,
                    52.28852
                ]
            },
            "properties": {
                "isced:level": "1;2",
                "ref:rspo": 278191,
                "official_name": "Szko\u0142a Podstawowa Zielona Szko\u0142a w Folwarku",
                "name": "Szko\u0142a Podstawowa Zielona Szko\u0142a w Folwarku",
                "addr:postcode": "03-291",
                "addr:city": "Warszawa",
                "addr:street": "\u015bw. Wincentego",
                "addr:housenumber": "92",
                "addr:city:simc": 988827,
                "addr:street:sym_ul": 24330,
                "phone": "+48 519052505",
                "email": "dyrektor@zielonaszkola.edu.pl",
                "ref:regon": "389855208",
                "operator": "\"Pgr Br\u00f3dno\" Sp\u00f3\u0142ka Z Ograniczon\u0105 Odpowiedzialno\u015bci\u0105",
                "operator:type": "private",
                "amenity": "school"
            }
        },
        {
            "id": 83215,
            "type": "Feature",
            "geometry": {
                "type": "Point",
                "coordinates": [
                    21.06696,
                    52.28893
                ]
            },
            "properties": {
                "ref:rspo": 83215,
                "official_name": "Niepubliczne Przedszkole \"Akademia Krasnoludk\u00f3w\"",
                "name": "Niepubliczne Przedszkole \"Akademia Krasnoludk\u00f3w\"",
                "addr:postcode": "03-657",
                "addr:city": "Warszawa",
                "addr:street": "Ignacego \u0141ukasiewicza",
                "addr:housenumber": "4",
                "addr:city:simc": 988827,
                "addr:street:sym_ul": 11749,
                "phone": "+48 226789216",
                "email": "akademia_krasnoludkow@poczta.onet.pl",
                "website": "http:\/\/akademiakrasnoludkow.com",
                "ref:regon": "146432657",
                "operator": "Agnieszka Pre\u015b",
                "operator:type": "private",
                "amenity": "kindergarten"
            }
        },
        {
            "id": 11955,
            "type": "Feature",
            "geometry": {
                "type": "Point",
                "coordinates": [
                    21.02526,
                    52.28898
                ]
            },
            "properties": {
                "ref:rspo": 11955,
                "official_name": "Przedszkole nr 88 \u201ePod Zielonym Listkiem\u201d",
                "name": "Przedszkole nr 88 \u201ePod Zielonym Listkiem\u201d",
                "addr:postcode": "03-368",
                "addr:city": "Warszawa",
                "addr:street": "Poborza\u0144ska",
                "addr:housenumber": "19",
                "addr:city:simc": 988827,
                "addr:street:sym_ul": 16561,
                "phone": "+48 228112101",
                "email": "p88@edu.um.warszawa.pl",
                "website": "http:\/\/www.podzielonymlistkiem.waw.pl",
                "ref:regon": "013001570",
                "ref:vatin": "PL5242144685",
                "operator": "Targ\u00f3wek",
                "operator:type": "government",
                "amenity": "kindergarten"
            }
        },
        {
            "id": 80521,
            "type": "Feature",
            "geometry": {
                "type": "Point",
                "coordinates": [
                    21.02526,
                    52.28895
                ]
            },
            "properties": {
                "ref:rspo": 80521,
                "official_name": "Niepubliczne Przedszkole Integracyjne Artystyczno-J\u0119zykowe \"Bystrzaki\"",
                "name": "Niepubliczne Przedszkole Integracyjne Artystyczno-J\u0119zykowe \"Bystrzaki\"",
                "addr:postcode": "03-368",
                "addr:city": "Warszawa",
                "addr:street": "Poborza\u0144ska",
                "addr:housenumber": "8",
                "addr:city:simc": 988827,
                "addr:street:sym_ul": 16561,
                "phone": "+48 603635555",
                "email": "przedszkolewarszawa@wp.pl",
                "website": "http:\/\/www.bystrzaki.com.pl",
                "ref:regon": "146412206",
                "operator": "Kanet 7 Sp\u00f3\u0142ka Z Ograniczon\u0105 Odpowiedzialno\u015bci\u0105",
                "operator:type": "private",
                "amenity": "kindergarten"
            }
        },
        {
            "id": 92411,
            "type": "Feature",
            "geometry": {
                "type": "Point",
                "coordinates": [
                    21.02526,
                    52.288920000000005
                ]
            },
            "properties": {
                "ref:rspo": 92411,
                "official_name": "Niepubliczna Poradnia Psychologiczno-Pedagogiczna Centrum Terapii Promitis",
                "name": "Niepubliczna Poradnia Psychologiczno-Pedagogiczna Centrum Terapii Promitis",
                "addr:postcode": "03-368",
                "addr:city": "Warszawa",
                "addr:street": "Poborza\u0144ska",
                "addr:housenumber": "8",
                "addr:door": "U1",
                "addr:city:simc": 988827,
                "addr:street:sym_ul": 16561,
                "phone": "+48 791769069",
                "email": "biuro@centrum-terapii.pl",
                "ref:regon": "146413980",
                "operator": "Piotr Langiewicz",
                "operator:type": "private",
                "healthcare": "counselling",
                "counselling_type": "education",
                "fixme": "w zale\u017cno\u015bci od przedmiotu dzia\u0142alno\u015bci (np. healthcare=counselling + counselling_type=education albo healthcare=psychotherapist)"
            }
        },
        {
            "id": 92417,
            "type": "Feature",
            "geometry": {
                "type": "Point",
                "coordinates": [
                    21.02526,
                    52.28889
                ]
            },
            "properties": {
                "ref:rspo": 92417,
                "official_name": "Niepubliczny Punkt Przedszkolny Promitis",
                "name": "Niepubliczny Punkt Przedszkolny Promitis",
                "addr:postcode": "03-368",
                "addr:city": "Warszawa",
                "addr:street": "Poborza\u0144ska",
                "addr:housenumber": "8",
                "addr:door": "U1",
                "addr:city:simc": 988827,
                "addr:street:sym_ul": 16561,
                "email": "warszawa@autyzm-przedszkole.pl",
                "website": "http:\/\/www.autyzm-przedszkole.pl",
                "ref:regon": "146413967",
                "operator": "Piotr Langiewicz",
                "operator:type": "private",
                "amenity": "kindergarten"
            }
        },
        {
            "id": 266592,
            "type": "Feature",
            "geometry": {
                "type": "Point",
                "coordinates": [
                    21.02526,
                    52.28886
                ]
            },
            "properties": {
                "ref:rspo": 266592,
                "official_name": "Niepubliczna Poradnia Psychologiczno-Pedagogiczna Centrum Terapii I Rozwoju Terapeutika",
                "name": "Niepubliczna Poradnia Psychologiczno-Pedagogiczna Centrum Terapii I Rozwoju Terapeutika",
                "addr:postcode": "03-368",
                "addr:city": "Warszawa",
                "addr:street": "Poborza\u0144ska",
                "addr:housenumber": "8",
                "addr:door": "110",
                "addr:city:simc": 988827,
                "addr:street:sym_ul": 16561,
                "phone": "+48 603635555",
                "email": "poradniaterapeutika@gmail.com",
                "ref:regon": "369593698",
                "operator": "Kanet 7 Sp\u00f3\u0142ka Z Ograniczon\u0105 Odpowiedzialno\u015bci\u0105",
                "operator:type": "private",
                "healthcare": "counselling",
                "counselling_type": "education",
                "fixme": "w zale\u017cno\u015bci od przedmiotu dzia\u0142alno\u015bci (np. healthcare=counselling + counselling_type=education albo healthcare=psychotherapist)"
            }
        },
        {
            "id": 14841,
            "type": "Feature",
            "geometry": {
                "type": "Point",
                "coordinates": [
                    21.04453,
                    52.28945
                ]
            },
            "properties": {
                "ref:rspo": 14841,
                "official_name": "Przedszkole nr 18",
                "name": "Przedszkole nr 18",
                "addr:postcode": "03-340",
                "addr:city": "Warszawa",
                "addr:street": "Sim\u00f3na Bol\u00edvara",
                "addr:housenumber": "6",
                "addr:city:simc": 988827,
                "addr:street:sym_ul": 44505,
                "phone": "+48 228112441",
                "email": "p18@edu.um.warszawa.pl",
                "website": "http:\/\/www.przedszkolenr18.waw.pl",
                "ref:regon": "013001305",
                "ref:vatin": "PL5242160626",
                "operator": "Targ\u00f3wek",
                "operator:type": "government",
                "amenity": "kindergarten"
            }
        },
        {
            "id": 123121,
            "type": "Feature",
            "geometry": {
                "type": "Point",
                "coordinates": [
                    21.05462,
                    52.29007
                ]
            },
            "properties": {
                "ref:rspo": 123121,
                "official_name": "Integracyjne Przedszkole Tukan",
                "name": "Integracyjne Przedszkole Tukan",
                "addr:postcode": "03-284",
                "addr:city": "Warszawa",
                "addr:street": "Porannej Bryzy",
                "addr:housenumber": "19",
                "addr:city:simc": 988827,
                "addr:street:sym_ul": 26659,
                "phone": "+48 226750772",
                "email": "biuro@tukan24h.pl",
                "ref:regon": "147256429",
                "operator": "Wojciech Os\u00f3wniak",
                "operator:type": "private",
                "amenity": "kindergarten"
            }
        },
        {
            "id": 83486,
            "type": "Feature",
            "geometry": {
                "type": "Point",
                "coordinates": [
                    21.07648,
                    52.29009
                ]
            },
            "properties": {
                "ref:rspo": 83486,
                "official_name": "Akademia Maluch\u00f3w-Zacisze Niepubliczne Angloj\u0119zyczne Przedszkole Integracyjne",
                "name": "Akademia Maluch\u00f3w-Zacisze Niepubliczne Angloj\u0119zyczne Przedszkole Integracyjne",
                "addr:postcode": "03-645",
                "addr:city": "Warszawa",
                "addr:street": "Wiewi\u00f3rki",
                "addr:housenumber": "1",
                "addr:city:simc": 988827,
                "addr:street:sym_ul": 24210,
                "phone": "+48 227435210",
                "email": "zacisze@akademiamaluchow.pl",
                "website": "http:\/\/www.zacisze.akademiamaluchow.pl",
                "ref:regon": "146428153",
                "operator": "\"Akademia Maluch\u00f3w\" Sp\u00f3\u0142ka Z Ograniczon\u0105 Odpowiedzialno\u015bci\u0105",
                "operator:type": "private",
                "amenity": "kindergarten"
            }
        },
        {
            "id": 126211,
            "type": "Feature",
            "geometry": {
                "type": "Point",
                "coordinates": [
                    21.07648,
                    52.29006
                ]
            },
            "properties": {
                "ref:rspo": 126211,
                "official_name": "Niepubliczna Poradnia Psychologiczno-Pedagogiczna I Centrum Edukacyjno-Terapeutyczne Heiwa",
                "name": "Niepubliczna Poradnia Psychologiczno-Pedagogiczna I Centrum Edukacyjno-Terapeutyczne Heiwa",
                "addr:postcode": "03-645",
                "addr:city": "Warszawa",
                "addr:street": "Wiewi\u00f3rki",
                "addr:housenumber": "1",
                "addr:city:simc": 988827,
                "addr:street:sym_ul": 24210,
                "phone": "+48 669333300",
                "email": "biuro@heiwa.pl",
                "ref:regon": "360175456",
                "operator": "Lerno Sp\u00f3\u0142ka Z Ograniczon\u0105 Odpowiedzialno\u015bci\u0105",
                "operator:type": "private",
                "healthcare": "counselling",
                "counselling_type": "education",
                "fixme": "w zale\u017cno\u015bci od przedmiotu dzia\u0142alno\u015bci (np. healthcare=counselling + counselling_type=education albo healthcare=psychotherapist)"
            }
        },
        {
            "id": 268197,
            "type": "Feature",
            "geometry": {
                "type": "Point",
                "coordinates": [
                    21.02605,
                    52.29093
                ]
            },
            "properties": {
                "ref:rspo": 268197,
                "official_name": "Przedszkole Niepubliczne \"Ale Frajda\"",
                "name": "Przedszkole Niepubliczne \"Ale Frajda\"",
                "addr:postcode": "03-352",
                "addr:city": "Warszawa",
                "addr:street": "Boles\u0142awicka",
                "addr:housenumber": "40",
                "addr:city:simc": 988827,
                "addr:street:sym_ul": 1760,
                "phone": "+48 501200030",
                "ref:regon": "381012947",
                "operator": "Urszula Dzido",
                "operator:type": "private",
                "amenity": "kindergarten"
            }
        },
        {
            "id": 31812,
            "type": "Feature",
            "geometry": {
                "type": "Point",
                "coordinates": [
                    21.07916,
                    52.29094
                ]
            },
            "properties": {
                "isced:level": "1;2",
                "ref:rspo": 31812,
                "official_name": "Prywatna Szko\u0142a Podstawowa nr 108 im. Matki Boskiej Nieustaj\u0105cej Pomocy",
                "name": "Prywatna Szko\u0142a Podstawowa nr 108",
                "addr:postcode": "03-699",
                "addr:city": "Warszawa",
                "addr:street": "Krynoliny",
                "addr:housenumber": "9\/11",
                "addr:city:simc": 988827,
                "addr:street:sym_ul": 10068,
                "phone": "+48 226790108",
                "email": "psp108@o2.pl",
                "website": "http:\/\/www.psp108.pl",
                "ref:regon": "146351373",
                "ref:vatin": "PL1130572847",
                "operator": "Zg.oo.oblat\u00f3w \u015awi\u0119tego J\u00f3zefa",
                "operator:type": "religious",
                "amenity": "school"
            }
        },
        {
            "id": 123962,
            "type": "Feature",
            "geometry": {
                "type": "Point",
                "coordinates": [
                    21.05206,
                    52.29146
                ]
            },
            "properties": {
                "ref:rspo": 123962,
                "official_name": "Terapeutyczny Punkt Przedszkolny Logos",
                "name": "Terapeutyczny Punkt Przedszkolny Logos",
                "addr:postcode": "03-921",
                "addr:city": "Warszawa",
                "addr:street": "\u015bw. Wincentego",
                "addr:housenumber": "114",
                "addr:door": "u5",
                "addr:city:simc": 988827,
                "addr:street:sym_ul": 24330,
                "phone": "+48 503015884",
                "email": "logos@logos-dtr.pl",
                "website": "http:\/\/logos-dtr.pl",
                "ref:regon": "147366075",
                "operator": "Logos-Dzieci\u0119ca Terapia Rozwojowa Fundacja Na Rzecz Dzieci Niepe\u0142nosprawnych I Ich Rodzic\u00f3w",
                "operator:type": "ngo",
                "amenity": "kindergarten"
            }
        },
        {
            "id": 275497,
            "type": "Feature",
            "geometry": {
                "type": "Point",
                "coordinates": [
                    21.05206,
                    52.29143
                ]
            },
            "properties": {
                "ref:rspo": 275497,
                "official_name": "Niepubliczna Poradnia Psychologiczno-Pedagogiczna Logos - Dzieci\u0119ca Terapia Rozwojowa",
                "name": "Niepubliczna Poradnia Psychologiczno-Pedagogiczna Logos - Dzieci\u0119ca Terapia Rozwojowa",
                "addr:postcode": "03-291",
                "addr:city": "Warszawa",
                "addr:street": "\u015bw. Wincentego",
                "addr:housenumber": "114",
                "addr:door": "u5",
                "addr:city:simc": 988827,
                "addr:street:sym_ul": 24330,
                "phone": "+48 535588343",
                "email": "logos@logos-dtr.pl",
                "ref:regon": "386926066",
                "operator": "Magdalena Kietli\u0144ska",
                "operator:type": "private",
                "healthcare": "counselling",
                "counselling_type": "education",
                "fixme": "w zale\u017cno\u015bci od przedmiotu dzia\u0142alno\u015bci (np. healthcare=counselling + counselling_type=education albo healthcare=psychotherapist)"
            }
        },
        {
            "id": 121306,
            "type": "Feature",
            "geometry": {
                "type": "Point",
                "coordinates": [
                    21.05799,
                    52.29155
                ]
            },
            "properties": {
                "ref:rspo": 121306,
                "official_name": "Przedszkole Niepubliczne \"Elfiki\"",
                "name": "Przedszkole Niepubliczne \"Elfiki\"",
                "addr:postcode": "03-642",
                "addr:city": "Warszawa",
                "addr:street": "Safony",
                "addr:housenumber": "1",
                "addr:city:simc": 988827,
                "addr:street:sym_ul": 19423,
                "phone": "+48 697170220",
                "email": "cmelfiki@gmail.com",
                "website": "http:\/\/www.elfiki.edu.pl",
                "ref:regon": "147030903",
                "operator": "Ewa Korzybska",
                "operator:type": "private",
                "amenity": "kindergarten"
            }
        },
        {
            "id": 11956,
            "type": "Feature",
            "geometry": {
                "type": "Point",
                "coordinates": [
                    21.02199,
                    52.29168
                ]
            },
            "properties": {
                "ref:rspo": 11956,
                "official_name": "Przedszkole nr 157 \"Przedszkole z Serduszkiem\"",
                "name": "Przedszkole nr 157 \"Przedszkole z Serduszkiem\"",
                "addr:postcode": "03-203",
                "addr:city": "Warszawa",
                "addr:street": "Bazylia\u0144ska",
                "addr:housenumber": "10",
                "addr:city:simc": 988827,
                "addr:street:sym_ul": 917,
                "phone": "+48 228110648",
                "email": "p157@edu.um.warszawa.pl",
                "website": "http:\/\/www.przedszkole157.waw.pl",
                "ref:regon": "013001311",
                "ref:vatin": "PL5242077977",
                "operator": "Targ\u00f3wek",
                "operator:type": "government",
                "amenity": "kindergarten"
            }
        },
        {
            "id": 106742,
            "type": "Feature",
            "geometry": {
                "type": "Point",
                "coordinates": [
                    21.04713,
                    52.29186
                ]
            },
            "properties": {
                "ref:rspo": 106742,
                "official_name": "Przedszkole Niepubliczne \"Bajka\"",
                "name": "Przedszkole Niepubliczne \"Bajka\"",
                "addr:postcode": "03-285",
                "addr:city": "Warszawa",
                "addr:street": "Ludwika Kondratowicza",
                "addr:housenumber": "18",
                "addr:door": "417",
                "addr:city:simc": 988827,
                "addr:street:sym_ul": 9123,
                "phone": "+48 224356632",
                "email": "dyrektor@przedszkole-bajka.eu",
                "ref:regon": "146488505",
                "operator": "Agata Moskal",
                "operator:type": "private",
                "amenity": "kindergarten"
            }
        },
        {
            "id": 48846,
            "type": "Feature",
            "geometry": {
                "type": "Point",
                "coordinates": [
                    21.02565,
                    52.2919399
                ]
            },
            "properties": {
                "isced:level": "1;2",
                "ref:rspo": 48846,
                "official_name": "Szko\u0142a Podstawowa nr 298 im. Jana Kasprowicza",
                "name": "Szko\u0142a Podstawowa nr 298",
                "addr:postcode": "03-390",
                "addr:city": "Warszawa",
                "addr:street": "Krakusa",
                "addr:housenumber": "2",
                "addr:city:simc": 988827,
                "addr:street:sym_ul": 9808,
                "phone": "+48 228113682",
                "email": "sp298@edu.um.warszawa.pl",
                "website": "http:\/\/www.sp298.edupage.org",
                "ref:regon": "000801651",
                "ref:vatin": "PL5242377857",
                "operator": "Targ\u00f3wek",
                "operator:type": "government",
                "amenity": "school"
            }
        },
        {
            "id": 7036,
            "type": "Feature",
            "geometry": {
                "type": "Point",
                "coordinates": [
                    21.0153966,
                    52.2922905
                ]
            },
            "properties": {
                "ref:rspo": 7036,
                "official_name": "Zesp\u00f3\u0142 Szk\u00f3\u0142 nr 34 im. Mieszka I w Warszawie",
                "name": "Zesp\u00f3\u0142 Szk\u00f3\u0142 nr 34",
                "addr:postcode": "03-202",
                "addr:city": "Warszawa",
                "addr:street": "Piotra Wysockiego",
                "addr:housenumber": "51",
                "addr:city:simc": 988827,
                "addr:street:sym_ul": 25061,
                "phone": "+48 227442415",
                "email": "zs34@edu.um.warszawa.pl",
                "website": "http:\/\/www.zs34.pl",
                "ref:regon": "140072672",
                "ref:vatin": "PL5242189742",
                "operator": "Targ\u00f3wek",
                "operator:type": "government",
                "landuse": "education",
                "fixme": "amenity=school, amenity=college albo landuse=education w zale\u017cno\u015bci od tego, jakie plac\u00f3wki wchodz\u0105 w sk\u0142ad zespo\u0142u. Sprawd\u017a, kiedy stosowa\u0107 amenity=* a kiedy landuse=education.",
                "note": "Children RSPO: 8336;8337;44239;44241;44242;275303"
            }
        },
        {
            "id": 8336,
            "type": "Feature",
            "geometry": {
                "type": "Point",
                "coordinates": [
                    21.0153966,
                    52.2922605
                ]
            },
            "properties": {
                "isced:level": "3",
                "ref:rspo": 8336,
                "official_name": "Cxl Liceum Og\u00f3lnokszta\u0142c\u0105ce dla Doros\u0142ych",
                "name": "Cxl Liceum Og\u00f3lnokszta\u0142c\u0105ce dla Doros\u0142ych",
                "addr:postcode": "03-202",
                "addr:city": "Warszawa",
                "addr:street": "Piotra Wysockiego",
                "addr:housenumber": "51",
                "addr:city:simc": 988827,
                "addr:street:sym_ul": 25061,
                "phone": "+48 226791669",
                "email": "zs34@edu.um.warszawa.pl",
                "website": "http:\/\/www.zs34.pl",
                "ref:regon": "146279026",
                "ref:vatin": "PL5242189742",
                "operator": "Targ\u00f3wek",
                "operator:type": "government",
                "amenity": "school",
                "note": "Parent RSPO: 7036"
            }
        },
        {
            "id": 8337,
            "type": "Feature",
            "geometry": {
                "type": "Point",
                "coordinates": [
                    21.0153966,
                    52.2922305
                ]
            },
            "properties": {
                "isced:level": "3",
                "ref:rspo": 8337,
                "official_name": "Technikum nr 30",
                "name": "Technikum nr 30",
                "addr:postcode": "03-202",
                "addr:city": "Warszawa",
                "addr:street": "Piotra Wysockiego",
                "addr:housenumber": "51",
                "addr:city:simc": 988827,
                "addr:street:sym_ul": 25061,
                "phone": "+48 226791669",
                "email": "zs34@edu.um.warszawa.pl",
                "website": "http:\/\/www.zs34.pl",
                "ref:regon": "146279061",
                "ref:vatin": "PL5242189742",
                "operator": "Targ\u00f3wek",
                "operator:type": "government",
                "amenity": "school",
                "note": "Parent RSPO: 7036"
            }
        },
        {
            "id": 44239,
            "type": "Feature",
            "geometry": {
                "type": "Point",
                "coordinates": [
                    21.0153966,
                    52.2922005
                ]
            },
            "properties": {
                "isced:level": "3",
                "ref:rspo": 44239,
                "official_name": "Bran\u017cowa Szko\u0142a I Stopnia nr 41",
                "name": "Bran\u017cowa Szko\u0142a I Stopnia nr 41",
                "addr:postcode": "03-202",
                "addr:city": "Warszawa",
                "addr:street": "Piotra Wysockiego",
                "addr:housenumber": "51",
                "addr:city:simc": 988827,
                "addr:street:sym_ul": 25061,
                "phone": "+48 226791669",
                "email": "zs34@edu.um.warszawa.pl",
                "ref:regon": "015764467",
                "ref:vatin": "PL5242530945",
                "operator": "Targ\u00f3wek",
                "operator:type": "government",
                "amenity": "school",
                "note": "Parent RSPO: 7036"
            }
        },
        {
            "id": 44241,
            "type": "Feature",
            "geometry": {
                "type": "Point",
                "coordinates": [
                    21.0153966,
                    52.2921705
                ]
            },
            "properties": {
                "isced:level": "4",
                "ref:rspo": 44241,
                "official_name": "Szko\u0142a Policealna nr 36",
                "name": "Szko\u0142a Policealna nr 36",
                "addr:postcode": "03-202",
                "addr:city": "Warszawa",
                "addr:street": "Piotra Wysockiego",
                "addr:housenumber": "51",
                "addr:city:simc": 988827,
                "addr:street:sym_ul": 25061,
                "phone": "+48 226791669",
                "email": "zs34@edu.um.warszawa.pl",
                "ref:regon": "140072666",
                "ref:vatin": "PL5242189742",
                "operator": "Targ\u00f3wek",
                "operator:type": "government",
                "amenity": "college",
                "note": "Parent RSPO: 7036"
            }
        },
        {
            "id": 44242,
            "type": "Feature",
            "geometry": {
                "type": "Point",
                "coordinates": [
                    21.0153966,
                    52.2921405
                ]
            },
            "properties": {
                "ref:rspo": 44242,
                "official_name": "Centrum Kszta\u0142cenia Zawodowego nr 3",
                "name": "Centrum Kszta\u0142cenia Zawodowego nr 3",
                "addr:postcode": "03-202",
                "addr:city": "Warszawa",
                "addr:street": "Piotra Wysockiego",
                "addr:housenumber": "51",
                "addr:city:simc": 988827,
                "addr:street:sym_ul": 25061,
                "phone": "+48 226791669",
                "ref:regon": "141552279",
                "ref:vatin": "PL5242189742",
                "operator": "Targ\u00f3wek",
                "operator:type": "government",
                "fixme": "w zale\u017cno\u015bci od przedmiotu dzia\u0142alno\u015bci (np. amenity=training + training=*, amenity=dancing_school, amenity=language_school, amenity=music_school) albo amenity=school, amenity=college, albo landuse=education w zale\u017cno\u015bci od tego, jakie plac\u00f3wki wchodz\u0105 w sk\u0142ad zespo\u0142u. Sprawd\u017a, kiedy stosowa\u0107 amenity=* a kiedy landuse=education.",
                "note": "Parent RSPO: 7036"
            }
        },
        {
            "id": 275303,
            "type": "Feature",
            "geometry": {
                "type": "Point",
                "coordinates": [
                    21.0153966,
                    52.2921105
                ]
            },
            "properties": {
                "isced:level": "3",
                "ref:rspo": 275303,
                "official_name": "Bran\u017cowa Szko\u0142a II Stopnia nr 1",
                "name": "Bran\u017cowa Szko\u0142a II Stopnia nr 1",
                "addr:postcode": "03-202",
                "addr:city": "Warszawa",
                "addr:street": "Piotra Wysockiego",
                "addr:housenumber": "51",
                "addr:city:simc": 988827,
                "addr:street:sym_ul": 25061,
                "phone": "+48 226791669",
                "email": "zs34@edu.um.warszawa.pl",
                "website": "http:\/\/www.zs34.pl",
                "ref:regon": "386800158",
                "operator": "Targ\u00f3wek",
                "operator:type": "government",
                "amenity": "school",
                "note": "Parent RSPO: 7036"
            }
        },
        {
            "id": 48844,
            "type": "Feature",
            "geometry": {
                "type": "Point",
                "coordinates": [
                    21.02342,
                    52.29365
                ]
            },
            "properties": {
                "isced:level": "1;2",
                "ref:rspo": 48844,
                "official_name": "Szko\u0142a Podstawowa z Oddzia\u0142ami Integracyjnymi nr 275 im. Artura Oppmana",
                "name": "Szko\u0142a Podstawowa z Oddzia\u0142ami Integracyjnymi nr 275",
                "addr:postcode": "03-243",
                "addr:city": "Warszawa",
                "addr:street": "\u015bw. Hieronima",
                "addr:housenumber": "2",
                "addr:city:simc": 988827,
                "addr:street:sym_ul": 6656,
                "phone": "+48 228111144",
                "email": "sp275@edu.um.warszawa.pl",
                "website": "http:\/\/sp275.waw.pl\/",
                "ref:regon": "000801622",
                "ref:vatin": "PL5242324192",
                "operator": "Targ\u00f3wek",
                "operator:type": "government",
                "amenity": "school"
            }
        },
        {
            "id": 11944,
            "type": "Feature",
            "geometry": {
                "type": "Point",
                "coordinates": [
                    21.02245,
                    52.29387
                ]
            },
            "properties": {
                "ref:rspo": 11944,
                "official_name": "Przedszkole nr 154 \u201ePod Weso\u0142\u0105 Truskaweczk\u0105\u201d",
                "name": "Przedszkole nr 154 \u201ePod Weso\u0142\u0105 Truskaweczk\u0105\u201d",
                "addr:postcode": "03-243",
                "addr:city": "Warszawa",
                "addr:street": "\u015bw. Hieronima",
                "addr:housenumber": "5",
                "addr:city:simc": 988827,
                "addr:street:sym_ul": 6656,
                "phone": "+48 228112464",
                "email": "przedszkole154@interia.pl",
                "ref:regon": "013000990",
                "ref:vatin": "PL5241882234",
                "operator": "Targ\u00f3wek",
                "operator:type": "government",
                "amenity": "kindergarten"
            }
        },
        {
            "id": 119791,
            "type": "Feature",
            "geometry": {
                "type": "Point",
                "coordinates": [
                    21.02028,
                    52.29409
                ]
            },
            "properties": {
                "isced:level": "1;2",
                "ref:rspo": 119791,
                "official_name": "Prywatna Szko\u0142a Podstawowa nr 62 im. Joanny Kolasi\u0144skiej",
                "name": "Prywatna Szko\u0142a Podstawowa nr 62",
                "addr:postcode": "03-209",
                "addr:city": "Warszawa",
                "addr:street": "Skrajna",
                "addr:housenumber": "10",
                "addr:city:simc": 988827,
                "addr:street:sym_ul": 20137,
                "phone": "+48 228119721",
                "email": "szkola@psp62.pl",
                "website": "http:\/\/www.psp62.pl",
                "ref:regon": "146432002",
                "ref:vatin": "PL5241067764",
                "operator": "Teresa Borowska",
                "operator:type": "private",
                "amenity": "school"
            }
        },
        {
            "id": 262848,
            "type": "Feature",
            "geometry": {
                "type": "Point",
                "coordinates": [
                    21.02028,
                    52.294059999999995
                ]
            },
            "properties": {
                "isced:level": "1;2",
                "ref:rspo": 262848,
                "official_name": "Niepubliczna Szko\u0142a Podstawowa nr 38 z Oddzia\u0142ami Integracyjnymi im. Ireny Sendlerowej",
                "name": "Niepubliczna Szko\u0142a Podstawowa nr 38 z Oddzia\u0142ami Integracyjnymi",
                "addr:postcode": "03-209",
                "addr:city": "Warszawa",
                "addr:street": "Skrajna",
                "addr:housenumber": "10",
                "addr:city:simc": 988827,
                "addr:street:sym_ul": 20137,
                "phone": "+48 226140701",
                "email": "poczta@nsp38.edu.pl",
                "ref:regon": "368075530",
                "operator": "Doza Sp\u00f3\u0142ka Z Ograniczon\u0105 Odpowiedzialno\u015bci\u0105",
                "operator:type": "private",
                "amenity": "school"
            }
        },
        {
            "id": 11943,
            "type": "Feature",
            "geometry": {
                "type": "Point",
                "coordinates": [
                    21.03876,
                    52.29451
                ]
            },
            "properties": {
                "ref:rspo": 11943,
                "official_name": "Przedszkole nr 91 \u201eZaczarowany Ogr\u00f3d\u201d",
                "name": "Przedszkole nr 91 \u201eZaczarowany Ogr\u00f3d\u201d",
                "addr:postcode": "03-252",
                "addr:city": "Warszawa",
                "addr:street": "Suwalska",
                "addr:housenumber": "34",
                "addr:city:simc": 988827,
                "addr:street:sym_ul": 21614,
                "phone": "+48 228112304",
                "email": "p91@edu.um.warszawa.pl",
                "website": "http:\/\/www.p91warszawa.szkolnastrona.pl",
                "ref:regon": "013001593",
                "ref:vatin": "PL5242377840",
                "operator": "Targ\u00f3wek",
                "operator:type": "government",
                "amenity": "kindergarten"
            }
        },
        {
            "id": 11948,
            "type": "Feature",
            "geometry": {
                "type": "Point",
                "coordinates": [
                    21.04636,
                    52.2946
                ]
            },
            "properties": {
                "ref:rspo": 11948,
                "official_name": "Przedszkole nr 113 \u201ePrzedszkole w T\u0119czowym Kr\u0119gu\u201d",
                "name": "Przedszkole nr 113 \u201ePrzedszkole w T\u0119czowym Kr\u0119gu\u201d",
                "addr:postcode": "03-379",
                "addr:city": "Warszawa",
                "addr:street": "Krasiczy\u0144ska",
                "addr:housenumber": "4\/6",
                "addr:city:simc": 988827,
                "addr:street:sym_ul": 9839,
                "phone": "+48 226743075",
                "email": "przedszkole113@gazeta.pl",
                "website": "http:\/\/przedszkole113.edu.pl\/",
                "ref:regon": "013001009",
                "ref:vatin": "PL5242124317",
                "operator": "Targ\u00f3wek",
                "operator:type": "government",
                "amenity": "kindergarten"
            }
        },
        {
            "id": 111248,
            "type": "Feature",
            "geometry": {
                "type": "Point",
                "coordinates": [
                    21.04636,
                    52.29457
                ]
            },
            "properties": {
                "ref:rspo": 111248,
                "official_name": "Szko\u0142a Artystyczna Teatr Sztuk Wielu Sp. z o.o.",
                "name": "Szko\u0142a Artystyczna Teatr Sztuk Wielu Sp. z o.o.",
                "addr:postcode": "00-835",
                "addr:city": "Warszawa",
                "addr:street": "Krasiczy\u0144ska",
                "addr:housenumber": "4\/6",
                "addr:city:simc": 988827,
                "addr:street:sym_ul": 9839,
                "phone": "+48 226756303",
                "email": "biuro@teatrsztukwielu.pl",
                "ref:regon": "146570968",
                "operator": "Teatr Sztuk Wielu Sp\u00f3\u0142ka Z Ograniczon\u0105 Odpowiedzialno\u015bci\u0105",
                "operator:type": "private",
                "fixme": "w zale\u017cno\u015bci od przedmiotu dzia\u0142alno\u015bci (np. amenity=training + training=*, amenity=dancing_school, amenity=language_school, amenity=music_school)"
            }
        },
        {
            "id": 133615,
            "type": "Feature",
            "geometry": {
                "type": "Point",
                "coordinates": [
                    21.04636,
                    52.294540000000005
                ]
            },
            "properties": {
                "isced:level": "1;2",
                "ref:rspo": 133615,
                "official_name": "Szko\u0142a Podstawowa nr 380 im. Jana Paw\u0142a II w Warszawie",
                "name": "Szko\u0142a Podstawowa nr 380",
                "addr:postcode": "03-379",
                "addr:city": "Warszawa",
                "addr:street": "Krasiczy\u0144ska",
                "addr:housenumber": "4\/6",
                "addr:city:simc": 988827,
                "addr:street:sym_ul": 9839,
                "phone": "+48 226756303",
                "email": "sp380@edu.um.warszawa.pl",
                "website": "http:\/\/szkolanakrasiczynskiej.pl\/",
                "ref:regon": "367486656",
                "operator": "Targ\u00f3wek",
                "operator:type": "government",
                "amenity": "school"
            }
        },
        {
            "id": 11957,
            "type": "Feature",
            "geometry": {
                "type": "Point",
                "coordinates": [
                    21.03497,
                    52.29475
                ]
            },
            "properties": {
                "ref:rspo": 11957,
                "official_name": "Przedszkole nr 115 \"Przedszkole Pod Klonem\"",
                "name": "Przedszkole nr 115 \"Przedszkole Pod Klonem\"",
                "addr:postcode": "03-252",
                "addr:city": "Warszawa",
                "addr:street": "Suwalska",
                "addr:housenumber": "26",
                "addr:city:simc": 988827,
                "addr:street:sym_ul": 21614,
                "phone": "+48 228112574",
                "email": "p115@edu.um.warszawa.pl",
                "website": "https:\/\/przedszkole115.edupage.org\/",
                "ref:regon": "013001400",
                "ref:vatin": "PL5242124004",
                "operator": "Targ\u00f3wek",
                "operator:type": "government",
                "amenity": "kindergarten"
            }
        },
        {
            "id": 48845,
            "type": "Feature",
            "geometry": {
                "type": "Point",
                "coordinates": [
                    21.0372,
                    52.29506
                ]
            },
            "properties": {
                "isced:level": "1;2",
                "ref:rspo": 48845,
                "official_name": "Szko\u0142a Podstawowa nr 277 im. Elizy Orzeszkowej",
                "name": "Szko\u0142a Podstawowa nr 277",
                "addr:postcode": "03-252",
                "addr:city": "Warszawa",
                "addr:street": "Suwalska",
                "addr:housenumber": "29",
                "addr:city:simc": 988827,
                "addr:street:sym_ul": 21614,
                "phone": "+48 228114940",
                "email": "sp277@wp.pl",
                "website": "https:\/\/sp277.edupage.org\/",
                "ref:regon": "000801639",
                "ref:vatin": "PL5242324648",
                "operator": "Targ\u00f3wek",
                "operator:type": "government",
                "amenity": "school"
            }
        },
        {
            "id": 52989,
            "type": "Feature",
            "geometry": {
                "type": "Point",
                "coordinates": [
                    21.01676,
                    52.29539
                ]
            },
            "properties": {
                "isced:level": "1;2",
                "ref:rspo": 52989,
                "official_name": "Szko\u0142a Podstawowa Wspierania Rozwoju",
                "name": "Szko\u0142a Podstawowa Wspierania Rozwoju",
                "addr:postcode": "03-226",
                "addr:city": "Warszawa",
                "addr:street": "Toru\u0144ska",
                "addr:housenumber": "23",
                "addr:city:simc": 988827,
                "addr:street:sym_ul": 22902,
                "phone": "+48 224976706",
                "email": "sekretariat@szkolawspierania.edu.pl",
                "website": "http:\/\/www.szkolawspierania.edu.pl",
                "ref:regon": "146372820",
                "operator": "Fundacja Wspierania Rozwoju Dziecka",
                "operator:type": "ngo",
                "amenity": "school"
            }
        },
        {
            "id": 82710,
            "type": "Feature",
            "geometry": {
                "type": "Point",
                "coordinates": [
                    21.01676,
                    52.295359999999995
                ]
            },
            "properties": {
                "isced:level": "1;2",
                "ref:rspo": 82710,
                "official_name": "Spo\u0142eczna Szko\u0142a Podstawowa nr 11 Spo\u0142ecznego Towarzystwa O\u015bwiatowego",
                "name": "Spo\u0142eczna Szko\u0142a Podstawowa nr 11 Spo\u0142ecznego Towarzystwa O\u015bwiatowego",
                "addr:postcode": "03-226",
                "addr:city": "Warszawa",
                "addr:street": "Toru\u0144ska",
                "addr:housenumber": "23",
                "addr:city:simc": 988827,
                "addr:street:sym_ul": 22902,
                "phone": "+48 228112416",
                "email": "sekretariat@torunska.edu.pl",
                "website": "http:\/\/www.torunska.edu.pl",
                "ref:regon": "146412525",
                "operator": "Samodzielne Ko\u0142o Nr 141 Spo\u0142ecznego Towarzystwa O\u015bwiatowego",
                "operator:type": "ngo",
                "amenity": "school"
            }
        },
        {
            "id": 11958,
            "type": "Feature",
            "geometry": {
                "type": "Point",
                "coordinates": [
                    21.03088,
                    52.29561
                ]
            },
            "properties": {
                "ref:rspo": 11958,
                "official_name": "Przedszkole nr 125 \"Pod Z\u0142otym Promykiem\"",
                "name": "Przedszkole nr 125 \"Pod Z\u0142otym Promykiem\"",
                "addr:postcode": "03-252",
                "addr:city": "Warszawa",
                "addr:street": "Suwalska",
                "addr:housenumber": "15",
                "addr:city:simc": 988827,
                "addr:street:sym_ul": 21614,
                "phone": "+48 228112323",
                "email": "p125@edu.um.warszawa.pl",
                "website": "http:\/\/www.zlotypromyk.pl",
                "ref:regon": "013001430",
                "ref:vatin": "PL5242409971",
                "operator": "Targ\u00f3wek",
                "operator:type": "government",
                "amenity": "kindergarten"
            }
        },
        {
            "id": 48847,
            "type": "Feature",
            "geometry": {
                "type": "Point",
                "coordinates": [
                    21.02919,
                    52.2959699
                ]
            },
            "properties": {
                "ref:rspo": 48847,
                "official_name": "Viii Ogr\u00f3d Jordanowski",
                "name": "Viii Ogr\u00f3d Jordanowski",
                "addr:postcode": "03-252",
                "addr:city": "Warszawa",
                "addr:street": "Suwalska",
                "addr:housenumber": "13",
                "addr:city:simc": 988827,
                "addr:street:sym_ul": 21614,
                "phone": "+48 228113988",
                "email": "oj8@edu.um.warszawa.pl",
                "website": "http:\/\/www.oj8.edu.pl",
                "ref:regon": "012767301",
                "ref:vatin": "PL5242530939",
                "operator": "Targ\u00f3wek",
                "operator:type": "government",
                "amenity": "community_centre",
                "community_centre:for": "child;juvenile"
            }
        },
        {
            "id": 14840,
            "type": "Feature",
            "geometry": {
                "type": "Point",
                "coordinates": [
                    21.04729,
                    52.29629
                ]
            },
            "properties": {
                "ref:rspo": 14840,
                "official_name": "Przedszkole Integracyjne nr 120",
                "name": "Przedszkole Integracyjne nr 120",
                "addr:postcode": "03-379",
                "addr:city": "Warszawa",
                "addr:street": "Wac\u0142awa Tokarza",
                "addr:housenumber": "2",
                "addr:city:simc": 988827,
                "addr:street:sym_ul": 29861,
                "phone": "+48 228116246",
                "email": "p120@edu.um.warszawa.pl",
                "website": "http:\/\/www.przedszkoleintegracyjne.edupage.org",
                "ref:regon": "013001222",
                "ref:vatin": "PL5242124292",
                "operator": "Targ\u00f3wek",
                "operator:type": "government",
                "amenity": "kindergarten"
            }
        },
        {
            "id": 271758,
            "type": "Feature",
            "geometry": {
                "type": "Point",
                "coordinates": [
                    21.03022,
                    52.29649
                ]
            },
            "properties": {
                "ref:rspo": 271758,
                "official_name": "Zesp\u00f3\u0142 Szk\u00f3\u0142 nr 128",
                "name": "Zesp\u00f3\u0142 Szk\u00f3\u0142 nr 128",
                "addr:postcode": "03-254",
                "addr:city": "Warszawa",
                "addr:street": "Turmoncka",
                "addr:housenumber": "2",
                "addr:city:simc": 988827,
                "addr:street:sym_ul": 23162,
                "phone": "+48 228111908",
                "email": "sekretariat@szkolyszareszeregi.edu.pl",
                "website": "http:\/\/szkolyszareszeregi.edu.pl\/",
                "ref:regon": "383602883",
                "operator": "Targ\u00f3wek",
                "operator:type": "government",
                "landuse": "education",
                "fixme": "amenity=school, amenity=college albo landuse=education w zale\u017cno\u015bci od tego, jakie plac\u00f3wki wchodz\u0105 w sk\u0142ad zespo\u0142u. Sprawd\u017a, kiedy stosowa\u0107 amenity=* a kiedy landuse=education.",
                "note": "Children RSPO: 133614;267034"
            }
        },
        {
            "id": 133614,
            "type": "Feature",
            "geometry": {
                "type": "Point",
                "coordinates": [
                    21.03022,
                    52.296459999999996
                ]
            },
            "properties": {
                "isced:level": "1;2",
                "ref:rspo": 133614,
                "official_name": "Szko\u0142a Podstawowa nr 379 im. Szarych Szereg\u00f3w w Warszawie",
                "name": "Szko\u0142a Podstawowa nr 379",
                "addr:postcode": "03-254",
                "addr:city": "Warszawa",
                "addr:street": "Turmoncka",
                "addr:housenumber": "2",
                "addr:city:simc": 988827,
                "addr:street:sym_ul": 23162,
                "phone": "+48 228111908",
                "email": "sekretariat@szkolyszareszeregi.edu.pl",
                "website": "https:\/\/zs128.edupage.org",
                "ref:regon": "367486640",
                "operator": "Targ\u00f3wek",
                "operator:type": "government",
                "amenity": "school",
                "note": "Parent RSPO: 271758"
            }
        },
        {
            "id": 267034,
            "type": "Feature",
            "geometry": {
                "type": "Point",
                "coordinates": [
                    21.03022,
                    52.29643
                ]
            },
            "properties": {
                "isced:level": "3",
                "ref:rspo": 267034,
                "official_name": "Clxii Liceum Og\u00f3lnokszta\u0142c\u0105ce im. Szarych Szereg\u00f3w",
                "name": "Clxii Liceum Og\u00f3lnokszta\u0142c\u0105ce",
                "addr:postcode": "03-254",
                "addr:city": "Warszawa",
                "addr:street": "Turmoncka",
                "addr:housenumber": "2",
                "addr:city:simc": 988827,
                "addr:street:sym_ul": 23162,
                "phone": "+48 228111908",
                "email": "sekretariat@szkolyszareszeregi.edu.pl",
                "website": "http:\/\/zs128.edupage.org",
                "ref:regon": "369808549",
                "operator": "Targ\u00f3wek",
                "operator:type": "government",
                "amenity": "school",
                "note": "Parent RSPO: 271758"
            }
        },
        {
            "id": 127008,
            "type": "Feature",
            "geometry": {
                "type": "Point",
                "coordinates": [
                    21.05144,
                    52.29733
                ]
            },
            "properties": {
                "ref:rspo": 127008,
                "official_name": "Przedszkole Niepubliczne Ba\u015bniowy Ogr\u00f3d",
                "name": "Przedszkole Niepubliczne Ba\u015bniowy Ogr\u00f3d",
                "addr:postcode": "03-289",
                "addr:city": "Warszawa",
                "addr:street": "Ostr\u00f3dzka",
                "addr:housenumber": "10",
                "addr:city:simc": 988827,
                "addr:street:sym_ul": 15398,
                "phone": "+48 502705433",
                "email": "przedszkole@basniowyogrod.pl",
                "ref:regon": "146412235",
                "operator": "Magdalena Kalek",
                "operator:type": "private",
                "amenity": "kindergarten"
            }
        },
        {
            "id": 11949,
            "type": "Feature",
            "geometry": {
                "type": "Point",
                "coordinates": [
                    21.0303847,
                    52.297387
                ]
            },
            "properties": {
                "ref:rspo": 11949,
                "official_name": "Przedszkole nr 90 \"Entliczek Pentliczek\"",
                "name": "Przedszkole nr 90 \"Entliczek Pentliczek\"",
                "addr:postcode": "03-254",
                "addr:city": "Warszawa",
                "addr:street": "Turmoncka",
                "addr:housenumber": "7",
                "addr:city:simc": 988827,
                "addr:street:sym_ul": 23162,
                "phone": "+48 228111060",
                "email": "p90@edu.um.warszawa.pl",
                "website": "http:\/\/www.p90.szkolnastrona.pl",
                "ref:regon": "013001274",
                "ref:vatin": "PL5242124323",
                "operator": "Targ\u00f3wek",
                "operator:type": "government",
                "amenity": "kindergarten"
            }
        },
        {
            "id": 11953,
            "type": "Feature",
            "geometry": {
                "type": "Point",
                "coordinates": [
                    21.0396,
                    52.29825
                ]
            },
            "properties": {
                "ref:rspo": 11953,
                "official_name": "Przedszkole nr 119 \"W Zielonym Ogrodzie\"",
                "name": "Przedszkole nr 119 \"W Zielonym Ogrodzie\"",
                "addr:postcode": "03-254",
                "addr:city": "Warszawa",
                "addr:street": "Turmoncka",
                "addr:housenumber": "18",
                "addr:city:simc": 988827,
                "addr:street:sym_ul": 23162,
                "phone": "+48 228113589",
                "email": "p119@edu.um.warszawa.pl",
                "website": "http:\/\/www.p119.przedszkola.net.pl",
                "ref:regon": "013001297",
                "ref:vatin": "PL5242111734",
                "operator": "Targ\u00f3wek",
                "operator:type": "government",
                "amenity": "kindergarten"
            }
        },
        {
            "id": 48843,
            "type": "Feature",
            "geometry": {
                "type": "Point",
                "coordinates": [
                    21.04114,
                    52.29858
                ]
            },
            "properties": {
                "isced:level": "1;2",
                "ref:rspo": 48843,
                "official_name": "Szko\u0142a Podstawowa nr 285 im. Jana Marcina Szancera",
                "name": "Szko\u0142a Podstawowa nr 285",
                "addr:postcode": "03-254",
                "addr:city": "Warszawa",
                "addr:street": "Turmoncka",
                "addr:housenumber": "20",
                "addr:city:simc": 988827,
                "addr:street:sym_ul": 23162,
                "phone": "+48 228114055",
                "email": "sp285@edu.um.warszawa.pl",
                "website": "http:\/\/www.sp285waw.edupage.org",
                "ref:regon": "000801645",
                "ref:vatin": "PL5242322891",
                "operator": "Targ\u00f3wek",
                "operator:type": "government",
                "amenity": "school"
            }
        },
        {
            "id": 52943,
            "type": "Feature",
            "geometry": {
                "type": "Point",
                "coordinates": [
                    21.07986,
                    52.3024
                ]
            },
            "properties": {
                "ref:rspo": 52943,
                "official_name": "Niepubliczny Punkt Przedszkolny Akademia Harmonika",
                "name": "Niepubliczny Punkt Przedszkolny Akademia Harmonika",
                "addr:postcode": "03-286",
                "addr:city": "Warszawa",
                "addr:street": "Malborska",
                "addr:housenumber": "41",
                "addr:city:simc": 988827,
                "addr:street:sym_ul": 12031,
                "phone": "+48 502296085",
                "email": "kontakt@akademiaharmonika.pl",
                "website": "http:\/\/www.akademiaharmonika.pl",
                "ref:regon": "146367552",
                "operator": "Klaudia Nag\u00f3rka",
                "operator:type": "private",
                "amenity": "kindergarten"
            }
        },
        {
            "id": 10551,
            "type": "Feature",
            "geometry": {
                "type": "Point",
                "coordinates": [
                    21.115975,
                    52.344942
                ]
            },
            "properties": {
                "ref:rspo": 10551,
                "official_name": "Zesp\u00f3\u0142 Szk\u00f3\u0142 im. Piotra Wysockiego",
                "name": "Zesp\u00f3\u0142 Szk\u00f3\u0142",
                "addr:postcode": "03-310",
                "addr:city": "Warszawa",
                "addr:street": "\u015bw. Jacka Odrow\u0105\u017ca",
                "addr:housenumber": "19",
                "addr:city:simc": 988827,
                "addr:street:sym_ul": 14766,
                "phone": "+48 228110113",
                "email": "poczta@wysocki.edu.pl",
                "website": "http:\/\/www.wysocki.edu.pl",
                "ref:regon": "140064891",
                "ref:vatin": "PL5241541639",
                "operator": "Targ\u00f3wek",
                "operator:type": "government",
                "landuse": "education",
                "fixme": "amenity=school, amenity=college albo landuse=education w zale\u017cno\u015bci od tego, jakie plac\u00f3wki wchodz\u0105 w sk\u0142ad zespo\u0142u. Sprawd\u017a, kiedy stosowa\u0107 amenity=* a kiedy landuse=education.",
                "note": "Children RSPO: 44243;131002"
            }
        },
        {
            "id": 48849,
            "type": "Feature",
            "geometry": {
                "type": "Point",
                "coordinates": [
                    21.115975,
                    52.344912
                ]
            },
            "properties": {
                "ref:rspo": 48849,
                "official_name": "Poradnia Psychologiczno-Pedagogiczna nr 13",
                "name": "Poradnia Psychologiczno-Pedagogiczna nr 13",
                "addr:postcode": "03-310",
                "addr:city": "Warszawa",
                "addr:street": "\u015bw. Jacka Odrow\u0105\u017ca",
                "addr:housenumber": "19",
                "addr:city:simc": 988827,
                "addr:street:sym_ul": 14766,
                "phone": "+48 228110522",
                "email": "ppp13@edu.um.warszawa.pl",
                "website": "http:\/\/www.poradnia13.waw.pl",
                "ref:regon": "000838200",
                "ref:vatin": "PL5242528664",
                "operator": "Targ\u00f3wek",
                "operator:type": "government",
                "healthcare": "counselling",
                "counselling_type": "education",
                "fixme": "w zale\u017cno\u015bci od przedmiotu dzia\u0142alno\u015bci (np. healthcare=counselling + counselling_type=education albo healthcare=psychotherapist)"
            }
        },
        {
            "id": 44243,
            "type": "Feature",
            "geometry": {
                "type": "Point",
                "coordinates": [
                    21.115975,
                    52.344882000000005
                ]
            },
            "properties": {
                "isced:level": "3",
                "ref:rspo": 44243,
                "official_name": "Technikum nr 11 im. Piotra Wysockiego",
                "name": "Technikum nr 11",
                "addr:postcode": "03-310",
                "addr:city": "Warszawa",
                "addr:street": "\u015bw. Jacka Odrow\u0105\u017ca",
                "addr:housenumber": "19",
                "addr:city:simc": 988827,
                "addr:street:sym_ul": 14766,
                "phone": "+48 228111579",
                "email": "poczta@wysocki.edu.pl",
                "ref:regon": "015764421",
                "ref:vatin": "PL5242528575",
                "operator": "Targ\u00f3wek",
                "operator:type": "government",
                "amenity": "school",
                "note": "Parent RSPO: 10551"
            }
        },
        {
            "id": 131002,
            "type": "Feature",
            "geometry": {
                "type": "Point",
                "coordinates": [
                    21.115975,
                    52.344852
                ]
            },
            "properties": {
                "isced:level": "4",
                "ref:rspo": 131002,
                "official_name": "Szko\u0142a Policealna nr 45 dla Doros\u0142ych",
                "name": "Szko\u0142a Policealna nr 45 dla Doros\u0142ych",
                "addr:postcode": "03-310",
                "addr:city": "Warszawa",
                "addr:street": "\u015bw. Jacka Odrow\u0105\u017ca",
                "addr:housenumber": "19",
                "addr:city:simc": 988827,
                "addr:street:sym_ul": 14766,
                "phone": "+48 228110113",
                "email": "poczta@wysocki.edu.pl",
                "ref:regon": "364857448",
                "operator": "Targ\u00f3wek",
                "operator:type": "government",
                "amenity": "college",
                "note": "Parent RSPO: 10551"
            }
        }
    ]
}