{
    "type": "FeatureCollection",
    "features": [
        {
            "id": 5776,
            "type": "Feature",
            "geometry": {
                "type": "Point",
                "coordinates": [
                    21.10218,
                    52.12073
                ]
            },
            "properties": {
                "ref:rspo": 5776,
                "official_name": "Zesp\u00f3\u0142 Szkolno Przedszkolny Nr 3",
                "name": "Zesp\u00f3\u0142 Szkolno Przedszkolny Nr 3",
                "addr:country": "PL",
                "addr:postcode": "02-968",
                "addr:city": "Warszawa",
                "addr:street": "ul. Przycz\u00f3\u0142kowa",
                "addr:housenumber": "27",
                "addr:teryt:simc": 17903,
                "addr:teryt:sym_ul": 988856,
                "contact:phone": "+48 226484935",
                "contact:email": "sekretariat@zsp3wilanow.pl",
                "ref:regon": "015798130",
                "ref:vatin": "PL9512120083",
                "operator": "Wilan\u00f3w",
                "operator:type": "government",
                "landuse": "education",
                "fixme": "amenity=school, amenity=college albo landuse=education w zale\u017cno\u015bci od tego, jakie plac\u00f3wki wchodz\u0105 w sk\u0142ad zespo\u0142u. Sprawd\u017a, kiedy stosowa\u0107 amenity=* a kiedy landuse=education.",
                "note": "Children RSPO: 8437;8472"
            }
        },
        {
            "id": 8437,
            "type": "Feature",
            "geometry": {
                "type": "Point",
                "coordinates": [
                    21.10218,
                    52.1207
                ]
            },
            "properties": {
                "ref:rspo": 8437,
                "official_name": "Przedszkole Nr 223 \"Skarby Powsina\"",
                "name": "Przedszkole Nr 223 \"Skarby Powsina\"",
                "addr:country": "PL",
                "addr:postcode": "02-968",
                "addr:city": "Warszawa",
                "addr:street": "ul. Przycz\u00f3\u0142kowa",
                "addr:housenumber": "27",
                "addr:teryt:simc": 17903,
                "addr:teryt:sym_ul": 988856,
                "contact:phone": "+48 226484935",
                "contact:email": "sekretariat@zsp3wilanow.pl",
                "ref:regon": "013002061",
                "ref:vatin": "PL9511367692",
                "operator": "Wilan\u00f3w",
                "operator:type": "government",
                "amenity": "kindergarten",
                "note": "Parent RSPO: 5776"
            }
        },
        {
            "id": 8472,
            "type": "Feature",
            "geometry": {
                "type": "Point",
                "coordinates": [
                    21.10218,
                    52.120670000000004
                ]
            },
            "properties": {
                "isced:level": "1;2",
                "ref:rspo": 8472,
                "official_name": "Szko\u0142a Podstawowa Nr 104 im. Macieja Rataja",
                "name": "Szko\u0142a Podstawowa Nr 104",
                "addr:country": "PL",
                "addr:postcode": "02-968",
                "addr:city": "Warszawa",
                "addr:street": "ul. Przycz\u00f3\u0142kowa",
                "addr:housenumber": "27",
                "addr:teryt:simc": 17903,
                "addr:teryt:sym_ul": 988856,
                "contact:phone": "+48 226484935",
                "contact:email": "sekretariat@zsp3wilanow.pl",
                "ref:regon": "000802165",
                "ref:vatin": "PL9511367752",
                "operator": "Wilan\u00f3w",
                "operator:type": "government",
                "amenity": "school",
                "note": "Parent RSPO: 5776"
            }
        },
        {
            "id": 277231,
            "type": "Feature",
            "geometry": {
                "type": "Point",
                "coordinates": [
                    21.09658,
                    52.1225
                ]
            },
            "properties": {
                "ref:rspo": 277231,
                "official_name": "\"Ethoplanet\" Etologiczne Centrum Szkoleniowo-Doradcze",
                "name": "\"Ethoplanet\" Etologiczne Centrum Szkoleniowo-Doradcze",
                "addr:country": "PL",
                "addr:postcode": "02-971",
                "addr:city": "Warszawa",
                "addr:street": "ul. Przekorna",
                "addr:housenumber": "33",
                "addr:teryt:simc": 17712,
                "addr:teryt:sym_ul": 988856,
                "contact:phone": "+48 515631055",
                "contact:email": "akokocinska@ethoplanet.com",
                "ref:regon": "388419356",
                "operator": "Agata Kokoci\u0144ska-Kusiak",
                "operator:type": "private",
                "fixme": "w zale\u017cno\u015bci od przedmiotu dzia\u0142alno\u015bci (np. amenity=training + training=*, amenity=dancing_school, amenity=language_school, amenity=music_school)"
            }
        },
        {
            "id": 279045,
            "type": "Feature",
            "geometry": {
                "type": "Point",
                "coordinates": [
                    21.09658,
                    52.12247
                ]
            },
            "properties": {
                "ref:rspo": 279045,
                "official_name": "Osteon Dariusz Skrzypek",
                "name": "Osteon Dariusz Skrzypek",
                "addr:country": "PL",
                "addr:postcode": "02-971",
                "addr:city": "Warszawa",
                "addr:street": "ul. Przekorna",
                "addr:housenumber": "33",
                "addr:teryt:simc": 17712,
                "addr:teryt:sym_ul": 988856,
                "contact:phone": "+48 605330766",
                "contact:email": "sekretariat@osteopatia.pl",
                "ref:regon": "520477225",
                "operator": "Dariusz Skrzypek",
                "operator:type": "private",
                "fixme": "w zale\u017cno\u015bci od przedmiotu dzia\u0142alno\u015bci (np. amenity=training + training=*, amenity=dancing_school, amenity=language_school, amenity=music_school)"
            }
        },
        {
            "id": 83332,
            "type": "Feature",
            "geometry": {
                "type": "Point",
                "coordinates": [
                    21.08381,
                    52.13007
                ]
            },
            "properties": {
                "ref:rspo": 83332,
                "official_name": "Niepubliczne Przedszkole Moje Cudowne Lata",
                "name": "Niepubliczne Przedszkole Moje Cudowne Lata",
                "addr:country": "PL",
                "addr:postcode": "02-796",
                "addr:city": "Warszawa",
                "addr:street": "ul. G\u0105sek",
                "addr:housenumber": "74A",
                "addr:teryt:simc": 5411,
                "addr:teryt:sym_ul": 988856,
                "contact:phone": "+48 600091234",
                "contact:email": "dyrektor@cudownelata.edu.pl",
                "contact:website": "http:\/\/www.cudownelata.edu.pl",
                "ref:regon": "146416256",
                "operator": "Mcl Edu Sp\u00f3\u0142ka Z Ograniczon\u0105 Odpowiedzialno\u015bci\u0105",
                "operator:type": "private",
                "amenity": "kindergarten"
            }
        },
        {
            "id": 266179,
            "type": "Feature",
            "geometry": {
                "type": "Point",
                "coordinates": [
                    21.10151,
                    52.13296
                ]
            },
            "properties": {
                "ref:rspo": 266179,
                "official_name": "Punkt Przedszkolny Montessori Stepping Stones",
                "name": "Punkt Przedszkolny Montessori Stepping Stones",
                "addr:country": "PL",
                "addr:postcode": "02-968",
                "addr:city": "Warszawa",
                "addr:street": "ul. Przycz\u00f3\u0142kowa",
                "addr:housenumber": "140",
                "addr:teryt:simc": 17903,
                "addr:teryt:sym_ul": 988856,
                "contact:phone": "+48 728939582",
                "contact:email": "office@montessoristeppingstones.pl",
                "ref:regon": "369338291",
                "operator": "Karolina Czarnecka",
                "operator:type": "private",
                "amenity": "kindergarten"
            }
        },
        {
            "id": 271296,
            "type": "Feature",
            "geometry": {
                "type": "Point",
                "coordinates": [
                    21.12709,
                    52.1334
                ]
            },
            "properties": {
                "ref:rspo": 271296,
                "official_name": "Przedszkole Nr 440 w Warszawie, Ul. Latoszki 24",
                "name": "Przedszkole Nr 440 w Warszawie, Ul. Latoszki 24",
                "addr:country": "PL",
                "addr:postcode": "02-998",
                "addr:city": "Warszawa",
                "addr:street": "ul. Latoszki",
                "addr:housenumber": "24",
                "addr:teryt:simc": 10706,
                "addr:teryt:sym_ul": 988856,
                "contact:phone": "+48 225065037",
                "contact:email": "p440@edu.um.warszawa.pl",
                "contact:website": "http:\/\/www.przedszkole440.edupage.org",
                "ref:regon": "383266801",
                "operator": "Wilan\u00f3w",
                "operator:type": "government",
                "amenity": "kindergarten"
            }
        },
        {
            "id": 113539,
            "type": "Feature",
            "geometry": {
                "type": "Point",
                "coordinates": [
                    21.13541,
                    52.15245
                ]
            },
            "properties": {
                "ref:rspo": 113539,
                "official_name": "Niepubliczne Przedszkole \"Bruzdowa 22C\"",
                "name": "Niepubliczne Przedszkole \"Bruzdowa 22C\"",
                "addr:country": "PL",
                "addr:postcode": "02-991",
                "addr:city": "Warszawa",
                "addr:street": "ul. Bruzdowa",
                "addr:housenumber": "22c",
                "addr:teryt:simc": 2192,
                "addr:teryt:sym_ul": 988856,
                "contact:phone": "+48 601325862",
                "contact:email": "bruzdowa2020@gmail.com",
                "ref:regon": "146621080",
                "operator": "El\u017cbieta Wojnowska",
                "operator:type": "private",
                "amenity": "kindergarten"
            }
        },
        {
            "id": 64399,
            "type": "Feature",
            "geometry": {
                "type": "Point",
                "coordinates": [
                    21.06314,
                    52.15247
                ]
            },
            "properties": {
                "isced:level": "1;2",
                "ref:rspo": 64399,
                "official_name": "Niepubliczna Specjalna Szko\u0142a Podstawowa \"Krok Po Kroku\" im. Bl. Edmunda Bojanowskiego",
                "name": "Niepubliczna Specjalna Szko\u0142a Podstawowa \"Krok Po Kroku\"",
                "addr:country": "PL",
                "addr:postcode": "02-797",
                "addr:city": "Warszawa",
                "addr:street": "ul. Orszady",
                "addr:housenumber": "10",
                "addr:teryt:simc": 15194,
                "addr:teryt:sym_ul": 988856,
                "contact:phone": "+48 535393000",
                "contact:email": "sekretariat@szkolakpk.edu.pl",
                "contact:website": "http:\/\/szkolakpk.edu.pl",
                "ref:regon": "146439843",
                "ref:vatin": "PL9512030204",
                "operator": "Rzymsko-Katolicka Parafia B\u0142ogos\u0142awionego Edmunda Bojanowskiego",
                "operator:type": "religious",
                "amenity": "school"
            }
        },
        {
            "id": 131111,
            "type": "Feature",
            "geometry": {
                "type": "Point",
                "coordinates": [
                    21.06314,
                    52.15244
                ]
            },
            "properties": {
                "ref:rspo": 131111,
                "official_name": "Niepubliczne Przedszkole Integracyjne \"Ziarenko\"",
                "name": "Niepubliczne Przedszkole Integracyjne \"Ziarenko\"",
                "addr:country": "PL",
                "addr:postcode": "02-797",
                "addr:city": "Warszawa",
                "addr:street": "ul. Orszady",
                "addr:housenumber": "10",
                "addr:teryt:simc": 15194,
                "addr:teryt:sym_ul": 988856,
                "contact:phone": "+48 535393000",
                "contact:email": "sekretariat@ziarenkomontessori.edu.pl",
                "ref:regon": "364947737",
                "operator": "Rzymsko-Katolicka Parafia B\u0142ogos\u0142awionego Edmunda Bojanowskiego",
                "operator:type": "religious",
                "amenity": "kindergarten"
            }
        },
        {
            "id": 275494,
            "type": "Feature",
            "geometry": {
                "type": "Point",
                "coordinates": [
                    21.08181,
                    52.15411
                ]
            },
            "properties": {
                "ref:rspo": 275494,
                "official_name": "Hero!Poradnia Psychologiczno-Pedagogiczna",
                "name": "Hero!Poradnia Psychologiczno-Pedagogiczna",
                "addr:country": "PL",
                "addr:postcode": "02-972",
                "addr:city": "Warszawa",
                "addr:street": "al. Aleja Rzeczypospolitej",
                "addr:housenumber": "1",
                "addr:teryt:simc": 45565,
                "addr:teryt:sym_ul": 988856,
                "contact:phone": "+48 501804960",
                "contact:email": "s.laskowska@hero.edu.pl",
                "ref:regon": "386926037",
                "operator": "Hero Academy Sp\u00f3\u0142ka Z Ograniczon\u0105 Odpowiedzialno\u015bci\u0105",
                "operator:type": "private",
                "healthcare": "counselling",
                "counselling_type": "education",
                "fixme": "w zale\u017cno\u015bci od przedmiotu dzia\u0142alno\u015bci (np. healthcare=counselling + counselling_type=education albo healthcare=psychotherapist)"
            }
        },
        {
            "id": 84928,
            "type": "Feature",
            "geometry": {
                "type": "Point",
                "coordinates": [
                    21.0746499,
                    52.1556
                ]
            },
            "properties": {
                "ref:rspo": 84928,
                "official_name": "Academy International Wilan\u00f3w",
                "name": "Academy International Wilan\u00f3w",
                "addr:country": "PL",
                "addr:postcode": "02-972",
                "addr:city": "Warszawa",
                "addr:street": "ul. Adama Branickiego",
                "addr:housenumber": "15",
                "addr:teryt:simc": 41242,
                "addr:teryt:sym_ul": 988856,
                "contact:phone": "+48 228420888",
                "contact:email": "dyrektor.wilanow@academyinternational.pl",
                "ref:regon": "146423084",
                "operator": "Academy International Sp\u00f3\u0142ka Z Ograniczon\u0105 Odpowiedzialno\u015bci\u0105",
                "operator:type": "private",
                "amenity": "kindergarten"
            }
        },
        {
            "id": 121311,
            "type": "Feature",
            "geometry": {
                "type": "Point",
                "coordinates": [
                    21.0737099,
                    52.15603
                ]
            },
            "properties": {
                "ref:rspo": 121311,
                "official_name": "Przedszkole Niepubliczne Hero!Academy",
                "name": "Przedszkole Niepubliczne Hero!Academy",
                "addr:country": "PL",
                "addr:postcode": "02-972",
                "addr:city": "Warszawa",
                "addr:street": "ul. Adama Branickiego",
                "addr:housenumber": "16",
                "addr:teryt:simc": 41242,
                "addr:teryt:sym_ul": 988856,
                "contact:phone": "+48 606611422",
                "contact:email": "m.swierkula@hero.edu.pl",
                "ref:regon": "147031067",
                "operator": "Hero Academy Sp\u00f3\u0142ka Z Ograniczon\u0105 Odpowiedzialno\u015bci\u0105",
                "operator:type": "private",
                "amenity": "kindergarten"
            }
        },
        {
            "id": 130612,
            "type": "Feature",
            "geometry": {
                "type": "Point",
                "coordinates": [
                    21.06889,
                    52.15642
                ]
            },
            "properties": {
                "isced:level": "1;2",
                "ref:rspo": 130612,
                "official_name": "Szko\u0142a Podstawowa Nr 358 im. Hetmana Jana Zamoyskiego w Warszawie, Przy Ul. \u015aw. Urszuli Led\u00f3chowskiej 10",
                "name": "Szko\u0142a Podstawowa Nr 358",
                "addr:country": "PL",
                "addr:postcode": "02-972",
                "addr:city": "Warszawa",
                "addr:street": "ul. \u015bw. Urszuli Led\u00f3chowskiej",
                "addr:housenumber": "10",
                "addr:teryt:simc": 36367,
                "addr:teryt:sym_ul": 988856,
                "contact:phone": "+48 226516311",
                "contact:email": "sp358@edu.um.warszawa.pl",
                "ref:regon": "364251332",
                "ref:vatin": "PL9512417096",
                "operator": "Wilan\u00f3w",
                "operator:type": "government",
                "amenity": "school"
            }
        },
        {
            "id": 7056,
            "type": "Feature",
            "geometry": {
                "type": "Point",
                "coordinates": [
                    21.09251,
                    52.15677
                ]
            },
            "properties": {
                "isced:level": "1;2",
                "ref:rspo": 7056,
                "official_name": "Szko\u0142a Podstawowa Nr 169 im. Or\u0142a Bia\u0142ego",
                "name": "Szko\u0142a Podstawowa Nr 169",
                "addr:country": "PL",
                "addr:postcode": "02-967",
                "addr:city": "Warszawa",
                "addr:street": "ul. Uprawna",
                "addr:housenumber": "9\/17",
                "addr:teryt:simc": 23384,
                "addr:teryt:sym_ul": 988856,
                "contact:phone": "+48 228429989",
                "contact:email": "sp169@edu.um.warszawa.pl",
                "contact:website": "http:\/\/sp169.edupage.org",
                "ref:regon": "000802060",
                "ref:vatin": "PL9512368481",
                "operator": "Wilan\u00f3w",
                "operator:type": "government",
                "amenity": "school"
            }
        },
        {
            "id": 262819,
            "type": "Feature",
            "geometry": {
                "type": "Point",
                "coordinates": [
                    21.0694,
                    52.15678
                ]
            },
            "properties": {
                "isced:level": "3",
                "ref:rspo": 262819,
                "official_name": "Liceum Akademeia High School",
                "name": "Liceum Akademeia High School",
                "addr:country": "PL",
                "addr:postcode": "02-972",
                "addr:city": "Warszawa",
                "addr:street": "ul. \u015bw. Urszuli Led\u00f3chowskiej",
                "addr:housenumber": "2",
                "addr:teryt:simc": 36367,
                "addr:teryt:sym_ul": 988856,
                "contact:phone": "+48 223987125",
                "contact:email": "office@akademeia.edu.pl",
                "ref:regon": "368065974",
                "operator": "Akademeia High School Sp\u00f3\u0142ka Z Ograniczon\u0105 Odpowiedzialno\u015bci\u0105",
                "operator:type": "private",
                "amenity": "school"
            }
        },
        {
            "id": 268011,
            "type": "Feature",
            "geometry": {
                "type": "Point",
                "coordinates": [
                    21.0694,
                    52.156749999999995
                ]
            },
            "properties": {
                "ref:rspo": 268011,
                "official_name": "Music Hub-Niepubliczna Plac\u00f3wka Kszta\u0142cenia Ustawicznego",
                "name": "Music Hub-Niepubliczna Plac\u00f3wka Kszta\u0142cenia Ustawicznego",
                "addr:country": "PL",
                "addr:postcode": "02-972",
                "addr:city": "Warszawa",
                "addr:street": "ul. \u015bw. Urszuli Led\u00f3chowskiej",
                "addr:housenumber": "2",
                "addr:teryt:simc": 36367,
                "addr:teryt:sym_ul": 988856,
                "contact:email": "kontakt@musichub.pl",
                "contact:website": "http:\/\/www.musichub.pl",
                "ref:regon": "380859699",
                "operator": "Olga Szy\u0142ejko",
                "operator:type": "private",
                "fixme": "w zale\u017cno\u015bci od przedmiotu dzia\u0142alno\u015bci (np. amenity=training + training=*, amenity=dancing_school, amenity=language_school, amenity=music_school)"
            }
        },
        {
            "id": 268012,
            "type": "Feature",
            "geometry": {
                "type": "Point",
                "coordinates": [
                    21.0694,
                    52.15672
                ]
            },
            "properties": {
                "ref:rspo": 268012,
                "official_name": "Music Hub - Plac\u00f3wka O\u015bwiatowo - Wychowawcza",
                "name": "Music Hub - Plac\u00f3wka O\u015bwiatowo - Wychowawcza",
                "addr:country": "PL",
                "addr:postcode": "02-792",
                "addr:city": "Warszawa",
                "addr:street": "ul. \u015bw. Urszuli Led\u00f3chowskiej",
                "addr:housenumber": "2",
                "addr:teryt:simc": 36367,
                "addr:teryt:sym_ul": 988856,
                "contact:phone": "+48 535440250",
                "contact:email": "kontakt@musichub.pl",
                "contact:website": "http:\/\/www.musichub.pl",
                "ref:regon": "380961475",
                "operator": "Olga Szy\u0142ejko",
                "operator:type": "private",
                "fixme": "w zale\u017cno\u015bci od przedmiotu dzia\u0142alno\u015bci (np. amenity=training + training=*, amenity=dancing_school, amenity=language_school, amenity=music_school)"
            }
        },
        {
            "id": 271935,
            "type": "Feature",
            "geometry": {
                "type": "Point",
                "coordinates": [
                    21.0694,
                    52.15669
                ]
            },
            "properties": {
                "ref:rspo": 271935,
                "official_name": "Akademeia Prep School",
                "name": "Akademeia Prep School",
                "addr:country": "PL",
                "addr:postcode": "02-972",
                "addr:city": "Warszawa",
                "addr:street": "ul. \u015bw. Urszuli Led\u00f3chowskiej",
                "addr:housenumber": "2",
                "addr:teryt:simc": 36367,
                "addr:teryt:sym_ul": 988856,
                "contact:phone": "+48 222998787",
                "contact:email": "office@akademeia.edu.pl",
                "ref:regon": "383809331",
                "operator": "Akademeia High School Sp\u00f3\u0142ka Z Ograniczon\u0105 Odpowiedzialno\u015bci\u0105",
                "operator:type": "private",
                "fixme": "w zale\u017cno\u015bci od przedmiotu dzia\u0142alno\u015bci (np. amenity=training + training=*, amenity=dancing_school, amenity=language_school, amenity=music_school)"
            }
        },
        {
            "id": 123616,
            "type": "Feature",
            "geometry": {
                "type": "Point",
                "coordinates": [
                    21.0684,
                    52.15716
                ]
            },
            "properties": {
                "ref:rspo": 123616,
                "official_name": "Przedszkole Nr 420 \"Nasza Bajka\" w Warszawie Ul.\u015bw.urszuli Led\u00f3chowskiej 8",
                "name": "Przedszkole Nr 420 \"Nasza Bajka\" w Warszawie Ul.\u015bw.urszuli Led\u00f3chowskiej 8",
                "addr:country": "PL",
                "addr:postcode": "02-972",
                "addr:city": "Warszawa",
                "addr:street": "ul. \u015bw. Urszuli Led\u00f3chowskiej",
                "addr:housenumber": "8",
                "addr:teryt:simc": 36367,
                "addr:teryt:sym_ul": 988856,
                "contact:phone": "+48 225131774",
                "contact:email": "dyrektor@przedszkole420.waw.pl",
                "ref:regon": "147331295",
                "ref:vatin": "PL9512381613",
                "operator": "Wilan\u00f3w",
                "operator:type": "government",
                "amenity": "kindergarten"
            }
        },
        {
            "id": 126522,
            "type": "Feature",
            "geometry": {
                "type": "Point",
                "coordinates": [
                    21.08173,
                    52.15728
                ]
            },
            "properties": {
                "ref:rspo": 126522,
                "official_name": "Akademia Dietetycznie Poprawni",
                "name": "Akademia Dietetycznie Poprawni",
                "addr:country": "PL",
                "addr:postcode": "02-972",
                "addr:city": "Warszawa",
                "addr:street": "ul. Sarmacka",
                "addr:housenumber": "19",
                "addr:door": "154",
                "addr:teryt:simc": 19532,
                "addr:teryt:sym_ul": 988856,
                "contact:phone": "+48 884802160",
                "contact:email": "kamila@dietetyczniepoprawni.pl",
                "ref:regon": "360424215",
                "operator": "Kamila Jachacy-Turecka",
                "operator:type": "private",
                "fixme": "w zale\u017cno\u015bci od przedmiotu dzia\u0142alno\u015bci (np. amenity=training + training=*, amenity=dancing_school, amenity=language_school, amenity=music_school)"
            }
        },
        {
            "id": 114245,
            "type": "Feature",
            "geometry": {
                "type": "Point",
                "coordinates": [
                    21.06897,
                    52.15751
                ]
            },
            "properties": {
                "ref:rspo": 114245,
                "official_name": "Polsko-Niemiecka Szko\u0142a Spotka\u0144 I Dialogu im. Willy'ego Brandta",
                "name": "Polsko-Niemiecka Szko\u0142a Spotka\u0144 I Dialogu",
                "addr:country": "PL",
                "addr:postcode": "02-972",
                "addr:city": "Warszawa",
                "addr:street": "ul. \u015bw. Urszuli Led\u00f3chowskiej",
                "addr:housenumber": "3",
                "addr:teryt:simc": 36367,
                "addr:teryt:sym_ul": 988856,
                "contact:phone": "+48 226422705",
                "contact:email": "sekretariat2@wbs.pl",
                "ref:regon": "146648127",
                "operator": "Niemieckie Towarzystwo Szkolne W Warszawie",
                "operator:type": "ngo",
                "landuse": "education",
                "fixme": "amenity=school, amenity=college albo landuse=education w zale\u017cno\u015bci od tego, jakie plac\u00f3wki wchodz\u0105 w sk\u0142ad zespo\u0142u. Sprawd\u017a, kiedy stosowa\u0107 amenity=* a kiedy landuse=education.",
                "note": "Children RSPO: 52998;106173"
            }
        },
        {
            "id": 52998,
            "type": "Feature",
            "geometry": {
                "type": "Point",
                "coordinates": [
                    21.06897,
                    52.15748
                ]
            },
            "properties": {
                "isced:level": "1;2",
                "ref:rspo": 52998,
                "official_name": "Polsko-Niemiecka Szko\u0142a Spotka\u0144 I Dialogu im. Willy'ego Brandta w Warszawie - Szko\u0142a Podstawowa",
                "name": "Polsko-Niemiecka Szko\u0142a Spotka\u0144 I Dialogu",
                "addr:country": "PL",
                "addr:postcode": "02-972",
                "addr:city": "Warszawa",
                "addr:street": "ul. \u015bw. Urszuli Led\u00f3chowskiej",
                "addr:housenumber": "3",
                "addr:teryt:simc": 36367,
                "addr:teryt:sym_ul": 988856,
                "contact:phone": "+48 226422705",
                "contact:email": "sekretariat2@wbs.pl",
                "contact:website": "http:\/\/www.wbs.pl",
                "ref:regon": "146372926",
                "operator": "Niemieckie Towarzystwo Szkolne W Warszawie",
                "operator:type": "ngo",
                "amenity": "school",
                "note": "Parent RSPO: 114245"
            }
        },
        {
            "id": 106173,
            "type": "Feature",
            "geometry": {
                "type": "Point",
                "coordinates": [
                    21.06897,
                    52.157450000000004
                ]
            },
            "properties": {
                "isced:level": "3",
                "ref:rspo": 106173,
                "official_name": "Polsko-Niemiecka Szko\u0142a Spotka\u0144 I Dialogu im. Willy'ego Brandta w Warszawie - Liceum Og\u00f3lnokszta\u0142c\u0105ce",
                "name": "Polsko-Niemiecka Szko\u0142a Spotka\u0144 I Dialogu",
                "addr:country": "PL",
                "addr:postcode": "02-972",
                "addr:city": "Warszawa",
                "addr:street": "ul. \u015bw. Urszuli Led\u00f3chowskiej",
                "addr:housenumber": "3",
                "addr:teryt:simc": 36367,
                "addr:teryt:sym_ul": 988856,
                "contact:phone": "+48 226422705",
                "contact:email": "sekretariat2@wbs.pl",
                "contact:website": "http:\/\/wbs.pl",
                "ref:regon": "146468690",
                "operator": "Niemieckie Towarzystwo Szkolne W Warszawie",
                "operator:type": "ngo",
                "amenity": "school",
                "note": "Parent RSPO: 114245"
            }
        },
        {
            "id": 121189,
            "type": "Feature",
            "geometry": {
                "type": "Point",
                "coordinates": [
                    21.09027,
                    52.15995
                ]
            },
            "properties": {
                "ref:rspo": 121189,
                "official_name": "Niepubliczne Przedszkole \"Elemelki\"",
                "name": "Niepubliczne Przedszkole \"Elemelki\"",
                "addr:country": "PL",
                "addr:postcode": "02-963",
                "addr:city": "Warszawa",
                "addr:street": "ul. Zygmunta Vogla",
                "addr:housenumber": "10",
                "addr:teryt:simc": 23466,
                "addr:teryt:sym_ul": 988856,
                "contact:phone": "+48 503101297",
                "contact:email": "elemelki@elemelki.pl",
                "ref:regon": "147009547",
                "operator": "Katarzyna Fiejkowska",
                "operator:type": "private",
                "amenity": "kindergarten"
            }
        },
        {
            "id": 83681,
            "type": "Feature",
            "geometry": {
                "type": "Point",
                "coordinates": [
                    21.08893,
                    52.16008
                ]
            },
            "properties": {
                "ref:rspo": 83681,
                "official_name": "Przedszkole Niepubliczne \"Radosne Przedszkole\"",
                "name": "Przedszkole Niepubliczne \"Radosne Przedszkole\"",
                "addr:country": "PL",
                "addr:postcode": "02-963",
                "addr:city": "Warszawa",
                "addr:street": "ul. Zygmunta Vogla",
                "addr:housenumber": "9",
                "addr:teryt:simc": 23466,
                "addr:teryt:sym_ul": 988856,
                "contact:phone": "+48 664134620",
                "contact:email": "aneta.chociej@radosne-przedszkole.pl",
                "ref:regon": "146417379",
                "operator": "Ma\u0142gorzata Iwanowska",
                "operator:type": "private",
                "amenity": "kindergarten"
            }
        },
        {
            "id": 269292,
            "type": "Feature",
            "geometry": {
                "type": "Point",
                "coordinates": [
                    21.08285,
                    52.1608
                ]
            },
            "properties": {
                "ref:rspo": 269292,
                "official_name": "Niepubliczne Przedszkole Big Little Steps",
                "name": "Niepubliczne Przedszkole Big Little Steps",
                "addr:country": "PL",
                "addr:postcode": "02-999",
                "addr:city": "Warszawa",
                "addr:street": "ul. Aleksandra Gieysztora",
                "addr:housenumber": "6",
                "addr:door": "u11,u12",
                "addr:teryt:simc": 41708,
                "addr:teryt:sym_ul": 988856,
                "contact:phone": "+48 508225432",
                "contact:email": "przedszkolebiglittlesteps@gmail.com",
                "ref:regon": "381426583",
                "operator": "Anna Jab\u0142o\u0144ska",
                "operator:type": "private",
                "amenity": "kindergarten"
            }
        },
        {
            "id": 84776,
            "type": "Feature",
            "geometry": {
                "type": "Point",
                "coordinates": [
                    21.0794,
                    52.16158
                ]
            },
            "properties": {
                "ref:rspo": 84776,
                "official_name": "Przedszkole Niepubliczne \"Happy Preschool\"",
                "name": "Przedszkole Niepubliczne \"Happy Preschool\"",
                "addr:country": "PL",
                "addr:postcode": "02-999",
                "addr:city": "Warszawa",
                "addr:street": "ul. Kazachska",
                "addr:housenumber": "1",
                "addr:teryt:simc": 38709,
                "addr:teryt:sym_ul": 988856,
                "contact:phone": "+48 728480519",
                "contact:email": "biuro@happypreschool.edu.pl",
                "contact:website": "http:\/\/happypreschool.edu.pl",
                "ref:regon": "146438401",
                "operator": "Justyna Edmondson",
                "operator:type": "private",
                "amenity": "kindergarten"
            }
        },
        {
            "id": 132339,
            "type": "Feature",
            "geometry": {
                "type": "Point",
                "coordinates": [
                    21.07135,
                    52.16205
                ]
            },
            "properties": {
                "ref:rspo": 132339,
                "official_name": "Creative Kids Preschool Niepubliczne Przedszkole",
                "name": "Creative Kids Preschool Niepubliczne Przedszkole",
                "addr:country": "PL",
                "addr:postcode": "02-972",
                "addr:city": "Warszawa",
                "addr:street": "al. Aleja Rzeczypospolitej",
                "addr:housenumber": "10",
                "addr:door": "60",
                "addr:teryt:simc": 45565,
                "addr:teryt:sym_ul": 988856,
                "contact:phone": "+48 730105101",
                "contact:email": "przedszkole@creativekids.edu.pl",
                "contact:website": "https:\/\/creativekids.edu.pl\/",
                "ref:regon": "365557435",
                "operator": "Alicja Jaworska",
                "operator:type": "private",
                "amenity": "kindergarten"
            }
        },
        {
            "id": 24966,
            "type": "Feature",
            "geometry": {
                "type": "Point",
                "coordinates": [
                    21.0783099,
                    52.16322
                ]
            },
            "properties": {
                "ref:rspo": 24966,
                "official_name": "Punkt Przedszkolny Baby English Academy",
                "name": "Punkt Przedszkolny Baby English Academy",
                "addr:country": "PL",
                "addr:postcode": "02-797",
                "addr:city": "Warszawa",
                "addr:street": "ul. Franciszka Klimczaka",
                "addr:housenumber": "8",
                "addr:door": "3",
                "addr:teryt:simc": 8542,
                "addr:teryt:sym_ul": 988856,
                "contact:phone": "+48 519401938",
                "contact:email": "info@babyenglish.edu.pl",
                "contact:website": "http:\/\/www.babyenglish.edu.pl",
                "ref:regon": "146333719",
                "operator": "Magdalena Fafi\u0144ska",
                "operator:type": "private",
                "amenity": "kindergarten"
            }
        },
        {
            "id": 266008,
            "type": "Feature",
            "geometry": {
                "type": "Point",
                "coordinates": [
                    21.0783099,
                    52.16319
                ]
            },
            "properties": {
                "ref:rspo": 266008,
                "official_name": "Przedszkole Niepubliczne Baby English Academy",
                "name": "Przedszkole Niepubliczne Baby English Academy",
                "addr:country": "PL",
                "addr:postcode": "02-797",
                "addr:city": "Warszawa",
                "addr:street": "ul. Franciszka Klimczaka",
                "addr:housenumber": "8",
                "addr:door": "2",
                "addr:teryt:simc": 8542,
                "addr:teryt:sym_ul": 988856,
                "contact:phone": "+48 602213804",
                "contact:email": "info@babyenglish.edu.pl",
                "contact:website": "http:\/\/www.babyenglish.edu.pl",
                "ref:regon": "369141447",
                "operator": "Magdalena Fafi\u0144ska",
                "operator:type": "private",
                "amenity": "kindergarten"
            }
        },
        {
            "id": 104084,
            "type": "Feature",
            "geometry": {
                "type": "Point",
                "coordinates": [
                    21.11633,
                    52.16355
                ]
            },
            "properties": {
                "ref:rspo": 104084,
                "official_name": "\"The English Playhouse\" Przedszkole Niepubliczne",
                "name": "\"The English Playhouse\" Przedszkole Niepubliczne",
                "addr:country": "PL",
                "addr:postcode": "02-993",
                "addr:city": "Warszawa",
                "addr:street": "ul. Syta",
                "addr:housenumber": "78",
                "addr:teryt:simc": 21687,
                "addr:teryt:sym_ul": 988856,
                "contact:phone": "+48 228439370",
                "contact:email": "office@theenglishplayhouse.com",
                "ref:regon": "146437666",
                "operator": "The English Playhouse Sp\u00f3\u0142ka Z Ograniczon\u0105 Odpowiedzialno\u015bci\u0105",
                "operator:type": "private",
                "amenity": "kindergarten"
            }
        },
        {
            "id": 128818,
            "type": "Feature",
            "geometry": {
                "type": "Point",
                "coordinates": [
                    21.11633,
                    52.16352
                ]
            },
            "properties": {
                "isced:level": "1;2",
                "ref:rspo": 128818,
                "official_name": "Niepubliczna Angloj\u0119zyczna Szko\u0142a Podstawowa \"The English Primary\"",
                "name": "Niepubliczna Angloj\u0119zyczna Szko\u0142a Podstawowa \"The English Primary\"",
                "addr:country": "PL",
                "addr:postcode": "02-993",
                "addr:city": "Warszawa",
                "addr:street": "ul. Syta",
                "addr:housenumber": "78",
                "addr:teryt:simc": 21687,
                "addr:teryt:sym_ul": 988856,
                "contact:phone": "+48 604464333",
                "contact:email": "office@tep.edu.pl",
                "ref:regon": "362398338",
                "operator": "The English Playhouse Sp\u00f3\u0142ka Z Ograniczon\u0105 Odpowiedzialno\u015bci\u0105",
                "operator:type": "private",
                "amenity": "school"
            }
        },
        {
            "id": 129865,
            "type": "Feature",
            "geometry": {
                "type": "Point",
                "coordinates": [
                    21.11633,
                    52.16349
                ]
            },
            "properties": {
                "ref:rspo": 129865,
                "official_name": "Niepubliczne Przedszkole \"Kids Project\"",
                "name": "Niepubliczne Przedszkole \"Kids Project\"",
                "addr:country": "PL",
                "addr:postcode": "02-993",
                "addr:city": "Warszawa",
                "addr:street": "ul. Syta",
                "addr:housenumber": "78",
                "addr:teryt:simc": 21687,
                "addr:teryt:sym_ul": 988856,
                "contact:phone": "+48 661833833",
                "contact:email": "info@kidsproject.eu",
                "contact:website": "http:\/\/kidsproject.eu",
                "ref:regon": "363027437",
                "operator": "Hanna Materzy\u0144ska",
                "operator:type": "private",
                "amenity": "kindergarten"
            }
        },
        {
            "id": 268365,
            "type": "Feature",
            "geometry": {
                "type": "Point",
                "coordinates": [
                    21.08276,
                    52.16362
                ]
            },
            "properties": {
                "ref:rspo": 268365,
                "official_name": "Przedszkole \"Ala Ma Kota\"",
                "name": "Przedszkole \"Ala Ma Kota\"",
                "addr:country": "PL",
                "addr:postcode": "02-797",
                "addr:city": "Warszawa",
                "addr:street": "ul. Franciszka Klimczaka",
                "addr:housenumber": "1",
                "addr:teryt:simc": 8542,
                "addr:teryt:sym_ul": 988856,
                "contact:phone": "+48 513679903",
                "contact:email": "klimczaka@alamakota.edu.pl",
                "ref:regon": "381113594",
                "operator": "Konrad Sadowski",
                "operator:type": "private",
                "amenity": "kindergarten"
            }
        },
        {
            "id": 272633,
            "type": "Feature",
            "geometry": {
                "type": "Point",
                "coordinates": [
                    21.07485,
                    52.16363
                ]
            },
            "properties": {
                "ref:rspo": 272633,
                "official_name": "Little Academy Dwuj\u0119zyczne Przedszkole Niepubliczne",
                "name": "Little Academy Dwuj\u0119zyczne Przedszkole Niepubliczne",
                "addr:country": "PL",
                "addr:postcode": "02-972",
                "addr:city": "Warszawa",
                "addr:street": "ul. Sarmacka",
                "addr:housenumber": "12",
                "addr:door": "2",
                "addr:teryt:simc": 19532,
                "addr:teryt:sym_ul": 988856,
                "contact:phone": "+48 695777314",
                "contact:email": "kontakt@littleacademy.pl",
                "ref:regon": "384271394",
                "operator": "Iwona Ferszter-Petz",
                "operator:type": "private",
                "amenity": "kindergarten"
            }
        },
        {
            "id": 131206,
            "type": "Feature",
            "geometry": {
                "type": "Point",
                "coordinates": [
                    21.07053,
                    52.16405
                ]
            },
            "properties": {
                "ref:rspo": 131206,
                "official_name": "Poradnia Psychologiczno - Pedagogiczna Nr 24 w Warszawie, Al. Rzeczypospolitej 14",
                "name": "Poradnia Psychologiczno - Pedagogiczna Nr 24 w Warszawie, Al. Rzeczypospolitej 14",
                "addr:country": "PL",
                "addr:postcode": "02-972",
                "addr:city": "Warszawa",
                "addr:street": "al. Aleja Rzeczypospolitej",
                "addr:housenumber": "14",
                "addr:teryt:simc": 45565,
                "addr:teryt:sym_ul": 988856,
                "contact:phone": "+48 228582029",
                "contact:email": "24@poradniawilanow.pl",
                "contact:website": "http:\/\/poradniawilanow.pl",
                "ref:regon": "365044730",
                "ref:vatin": "PL9512418055",
                "operator": "Wilan\u00f3w",
                "operator:type": "government",
                "healthcare": "counselling",
                "counselling_type": "education",
                "fixme": "w zale\u017cno\u015bci od przedmiotu dzia\u0142alno\u015bci (np. healthcare=counselling + counselling_type=education albo healthcare=psychotherapist)"
            }
        },
        {
            "id": 277439,
            "type": "Feature",
            "geometry": {
                "type": "Point",
                "coordinates": [
                    21.07053,
                    52.16402
                ]
            },
            "properties": {
                "ref:rspo": 277439,
                "official_name": "Centrum Edukacji Matematycznej I Programowania Matplaneta",
                "name": "Centrum Edukacji Matematycznej I Programowania Matplaneta",
                "addr:country": "PL",
                "addr:postcode": "02-972",
                "addr:city": "Warszawa",
                "addr:street": "al. Aleja Rzeczypospolitej",
                "addr:housenumber": "14",
                "addr:teryt:simc": 45565,
                "addr:teryt:sym_ul": 988856,
                "contact:phone": "+48 575085585",
                "contact:email": "wilanow@matplaneta.pl",
                "ref:regon": "388908233",
                "operator": "Barbara Krysze\u0144",
                "operator:type": "private",
                "fixme": "w zale\u017cno\u015bci od przedmiotu dzia\u0142alno\u015bci (np. amenity=training + training=*, amenity=dancing_school, amenity=language_school, amenity=music_school)"
            }
        },
        {
            "id": 274372,
            "type": "Feature",
            "geometry": {
                "type": "Point",
                "coordinates": [
                    21.07456,
                    52.16498
                ]
            },
            "properties": {
                "isced:level": "1;2",
                "ref:rspo": 274372,
                "official_name": "Szko\u0142a Podstawowa Nr 400 im. Marii Sk\u0142odowskiej-Curie w Warszawie, Ul. O\u015b Kr\u00f3lewska 25",
                "name": "Szko\u0142a Podstawowa Nr 400",
                "addr:country": "PL",
                "addr:postcode": "02-972",
                "addr:city": "Warszawa",
                "addr:street": "ul. O\u015b Kr\u00f3lewska",
                "addr:housenumber": "25",
                "addr:teryt:simc": 43411,
                "addr:teryt:sym_ul": 988856,
                "contact:phone": "+48 223004251",
                "contact:email": "sp400@edu.um.warszawa.pl",
                "contact:website": "http:\/\/www.sp400warszawa.edupage.org",
                "ref:regon": "385648323",
                "ref:vatin": "PL9512505133",
                "operator": "Wilan\u00f3w",
                "operator:type": "government",
                "amenity": "school"
            }
        },
        {
            "id": 130110,
            "type": "Feature",
            "geometry": {
                "type": "Point",
                "coordinates": [
                    21.07007,
                    52.16547
                ]
            },
            "properties": {
                "ref:rspo": 130110,
                "official_name": "Niepubliczne Przedszkole Karate Kids",
                "name": "Niepubliczne Przedszkole Karate Kids",
                "addr:country": "PL",
                "addr:postcode": "02-972",
                "addr:city": "Warszawa",
                "addr:street": "al. Aleja Rzeczypospolitej",
                "addr:housenumber": "18",
                "addr:door": "136",
                "addr:teryt:simc": 45565,
                "addr:teryt:sym_ul": 988856,
                "contact:phone": "+48 508757198",
                "contact:email": "biuro@karatekids.eu",
                "ref:regon": "363485097",
                "operator": "Anna Kurant",
                "operator:type": "private",
                "amenity": "kindergarten"
            }
        },
        {
            "id": 13222,
            "type": "Feature",
            "geometry": {
                "type": "Point",
                "coordinates": [
                    21.086490631104,
                    52.165660858154
                ]
            },
            "properties": {
                "ref:rspo": 13222,
                "official_name": "Deutscher Kindergarten Niepubliczne Przedszkole",
                "name": "Deutscher Kindergarten Niepubliczne Przedszkole",
                "addr:country": "PL",
                "addr:postcode": "02-972",
                "addr:city": "Warszawa",
                "addr:street": "ul. Prymasa Augusta Hlonda",
                "addr:housenumber": "3",
                "addr:teryt:simc": 36269,
                "addr:teryt:sym_ul": 988856,
                "contact:phone": "+48 512072579",
                "contact:email": "kindergarten@wbs.pl",
                "contact:website": "http:\/\/www.deutscherkindergarten.pl",
                "ref:regon": "146295090",
                "operator": "Niemieckie Towarzystwo Szkolne W Warszawie",
                "operator:type": "ngo",
                "amenity": "kindergarten"
            }
        },
        {
            "id": 16904,
            "type": "Feature",
            "geometry": {
                "type": "Point",
                "coordinates": [
                    21.086490631104,
                    52.165630858153996
                ]
            },
            "properties": {
                "ref:rspo": 16904,
                "official_name": "Niepubliczne Przedszkole \"Miniharvard\" Wilan\u00f3w",
                "name": "Niepubliczne Przedszkole \"Miniharvard\" Wilan\u00f3w",
                "addr:country": "PL",
                "addr:postcode": "02-972",
                "addr:city": "Warszawa",
                "addr:street": "ul. Prymasa Augusta Hlonda",
                "addr:housenumber": "10f",
                "addr:teryt:simc": 36269,
                "addr:teryt:sym_ul": 988856,
                "contact:phone": "+48 885147000",
                "contact:email": "wilanow@miniharward.pl",
                "contact:website": "http:\/\/www.miniharward.pl",
                "ref:regon": "146312278",
                "operator": "Kansas School System Sp\u00f3\u0142ka Z Ograniczon\u0105 Odpowiedzialno\u015bci\u0105",
                "operator:type": "private",
                "amenity": "kindergarten"
            }
        },
        {
            "id": 49928,
            "type": "Feature",
            "geometry": {
                "type": "Point",
                "coordinates": [
                    21.086490631104,
                    52.165600858154
                ]
            },
            "properties": {
                "ref:rspo": 49928,
                "official_name": "Polsko-Angielskie Przedszkole Artystyczne Magic Fish",
                "name": "Polsko-Angielskie Przedszkole Artystyczne Magic Fish",
                "addr:country": "PL",
                "addr:postcode": "02-956",
                "addr:city": "Warszawa",
                "addr:street": "ul. Kr\u00f3lewicza Jakuba",
                "addr:housenumber": "71",
                "addr:teryt:simc": 7077,
                "addr:teryt:sym_ul": 988856,
                "contact:phone": "+48 505975174",
                "contact:email": "aga.drabik@gmail.com",
                "ref:regon": "146367990",
                "operator": "Agnieszka Olszewska",
                "operator:type": "private",
                "amenity": "kindergarten"
            }
        },
        {
            "id": 114676,
            "type": "Feature",
            "geometry": {
                "type": "Point",
                "coordinates": [
                    21.086490631104,
                    52.165570858154
                ]
            },
            "properties": {
                "ref:rspo": 114676,
                "official_name": "Polsko-Angielski Punkt Przedszkolny Magic Fish O Profilu Artystycznym",
                "name": "Polsko-Angielski Punkt Przedszkolny Magic Fish O Profilu Artystycznym",
                "addr:country": "PL",
                "addr:postcode": "02-956",
                "addr:city": "Warszawa",
                "addr:street": "ul. Kr\u00f3lewicza Jakuba",
                "addr:housenumber": "71",
                "addr:teryt:simc": 7077,
                "addr:teryt:sym_ul": 988856,
                "contact:phone": "+48 505975174",
                "contact:email": "info@magicfish.pl",
                "ref:regon": "146685766",
                "operator": "Agnieszka Olszewska",
                "operator:type": "private",
                "amenity": "kindergarten"
            }
        },
        {
            "id": 121200,
            "type": "Feature",
            "geometry": {
                "type": "Point",
                "coordinates": [
                    21.086490631104,
                    52.165540858153996
                ]
            },
            "properties": {
                "isced:level": "1;2",
                "ref:rspo": 121200,
                "official_name": "Polsko-Angielska Szko\u0142a Podstawowa Edison",
                "name": "Polsko-Angielska Szko\u0142a Podstawowa Edison",
                "addr:country": "PL",
                "addr:postcode": "02-956",
                "addr:city": "Warszawa",
                "addr:street": "ul. Kr\u00f3lewicza Jakuba",
                "addr:housenumber": "69",
                "addr:teryt:simc": 7077,
                "addr:teryt:sym_ul": 988856,
                "contact:phone": "+48 228588160",
                "contact:email": "kontakt@szkola-edison.pl",
                "ref:regon": "147010266",
                "operator": "Edison School Sp\u00f3\u0142ka Z Ograniczon\u0105 Odpowiedzialno\u015bci\u0105",
                "operator:type": "private",
                "amenity": "school"
            }
        },
        {
            "id": 126433,
            "type": "Feature",
            "geometry": {
                "type": "Point",
                "coordinates": [
                    21.086490631104,
                    52.165510858154
                ]
            },
            "properties": {
                "ref:rspo": 126433,
                "official_name": "Przedszkole Brytyjskie",
                "name": "Przedszkole Brytyjskie",
                "addr:country": "PL",
                "addr:postcode": "02-972",
                "addr:city": "Warszawa",
                "addr:street": "ul. Prymasa Augusta Hlonda",
                "addr:housenumber": "12",
                "addr:teryt:simc": 36269,
                "addr:teryt:sym_ul": 988856,
                "contact:phone": "+48 221110062",
                "contact:email": "info@bswilanow.org",
                "contact:website": "http:\/\/bsw.com.pl",
                "ref:regon": "360321923",
                "operator": "British Nursery Of Wilanow Sp\u00f3\u0142ka Z Ograniczon\u0105 Odpowiedzialno\u015bci\u0105",
                "operator:type": "private",
                "amenity": "kindergarten"
            }
        },
        {
            "id": 128501,
            "type": "Feature",
            "geometry": {
                "type": "Point",
                "coordinates": [
                    21.086490631104,
                    52.165480858154
                ]
            },
            "properties": {
                "isced:level": "1;2",
                "ref:rspo": 128501,
                "official_name": "Szko\u0142a Podstawowa Hlonda 12",
                "name": "Szko\u0142a Podstawowa Hlonda 12",
                "addr:country": "PL",
                "addr:postcode": "02-972",
                "addr:city": "Warszawa",
                "addr:street": "ul. Prymasa Augusta Hlonda",
                "addr:housenumber": "12",
                "addr:teryt:simc": 36269,
                "addr:teryt:sym_ul": 988856,
                "contact:phone": "+48 221110062",
                "contact:email": "info@bswilanow.org",
                "contact:website": "http:\/\/bsw.com.pl",
                "ref:regon": "362302172",
                "operator": "British Primary School Of Wilanow Sp\u00f3\u0142ka Z Ograniczon\u0105 Odpowiedzialno\u015bci\u0105",
                "operator:type": "private",
                "amenity": "school"
            }
        },
        {
            "id": 133262,
            "type": "Feature",
            "geometry": {
                "type": "Point",
                "coordinates": [
                    21.086490631104,
                    52.165450858153996
                ]
            },
            "properties": {
                "ref:rspo": 133262,
                "official_name": "Przedszkole Nr 424 im. Kr\u00f3lowej Marysie\u0144ki w Warszawie , Ul. J.b. Flatta 7",
                "name": "Przedszkole Nr 424",
                "addr:country": "PL",
                "addr:postcode": "02-972",
                "addr:city": "Warszawa",
                "addr:street": "ul. Jerzego Beniamina Flatta",
                "addr:housenumber": "7",
                "addr:teryt:simc": 54552,
                "addr:teryt:sym_ul": 988856,
                "contact:phone": "+48 225065461",
                "contact:email": "p424@edu.um.warszawa.pl",
                "contact:website": "http:\/\/www.przedszkole424.pl",
                "ref:regon": "366900622",
                "operator": "Wilan\u00f3w",
                "operator:type": "government",
                "amenity": "kindergarten"
            }
        },
        {
            "id": 267771,
            "type": "Feature",
            "geometry": {
                "type": "Point",
                "coordinates": [
                    21.086490631104,
                    52.165420858154
                ]
            },
            "properties": {
                "isced:level": "1;2",
                "ref:rspo": 267771,
                "official_name": "Szko\u0142a Podstawowa im. A. Einsteina",
                "name": "Szko\u0142a Podstawowa",
                "addr:country": "PL",
                "addr:postcode": "02-972",
                "addr:city": "Warszawa",
                "addr:street": "ul. Prymasa Augusta Hlonda",
                "addr:housenumber": "20",
                "addr:teryt:simc": 36269,
                "addr:teryt:sym_ul": 988856,
                "contact:phone": "+48 885148000",
                "contact:email": "biuro@wilanow.edu.pl",
                "ref:regon": "380617861",
                "operator": "Nasza Szko\u0142a Sp\u00f3\u0142ka Z Ograniczon\u0105 Odpowiedzialno\u015bci\u0105",
                "operator:type": "private",
                "amenity": "school"
            }
        },
        {
            "id": 271701,
            "type": "Feature",
            "geometry": {
                "type": "Point",
                "coordinates": [
                    21.086490631104,
                    52.165390858154
                ]
            },
            "properties": {
                "ref:rspo": 271701,
                "official_name": "Kids Coder Lab",
                "name": "Kids Coder Lab",
                "addr:country": "PL",
                "addr:postcode": "02-972",
                "addr:city": "Warszawa",
                "addr:street": "ul. Prymasa Augusta Hlonda",
                "addr:housenumber": "10",
                "addr:door": "u9",
                "addr:teryt:simc": 36269,
                "addr:teryt:sym_ul": 988856,
                "contact:email": "info@kidscoderlab.pl",
                "ref:regon": "383549108",
                "operator": "Kids Coder Lab Sp\u00f3\u0142ka Z Ograniczon\u0105 Odpowiedzialno\u015bci\u0105",
                "operator:type": "private",
                "fixme": "w zale\u017cno\u015bci od przedmiotu dzia\u0142alno\u015bci (np. amenity=training + training=*, amenity=dancing_school, amenity=language_school, amenity=music_school)"
            }
        },
        {
            "id": 272246,
            "type": "Feature",
            "geometry": {
                "type": "Point",
                "coordinates": [
                    21.086490631104,
                    52.165360858153996
                ]
            },
            "properties": {
                "ref:rspo": 272246,
                "official_name": "Niepubliczne Przedszkole Zebra",
                "name": "Niepubliczne Przedszkole Zebra",
                "addr:country": "PL",
                "addr:postcode": "02-972",
                "addr:city": "Warszawa",
                "addr:street": "ul. Prymasa Augusta Hlonda",
                "addr:housenumber": "6",
                "addr:door": "u3",
                "addr:teryt:simc": 36269,
                "addr:teryt:sym_ul": 988856,
                "contact:phone": "+48 605999811",
                "contact:email": "olga.baca@przedszkole-zebra.pl",
                "ref:regon": "384065418",
                "operator": "Olga Baca",
                "operator:type": "private",
                "amenity": "kindergarten"
            }
        },
        {
            "id": 277772,
            "type": "Feature",
            "geometry": {
                "type": "Point",
                "coordinates": [
                    21.0743,
                    52.16587
                ]
            },
            "properties": {
                "ref:rspo": 277772,
                "official_name": "Przedszkole Niepubliczne Zielona \u017byrafa",
                "name": "Przedszkole Niepubliczne Zielona \u017byrafa",
                "addr:country": "PL",
                "addr:postcode": "02-972",
                "addr:city": "Warszawa",
                "addr:street": "ul. Sarmacka",
                "addr:housenumber": "6",
                "addr:door": "LNM1",
                "addr:teryt:simc": 19532,
                "addr:teryt:sym_ul": 988856,
                "contact:phone": "+48 533337220",
                "contact:email": "biuro@zielonazyrafa.edu.pl",
                "ref:regon": "389472039",
                "operator": "Aneta Muras",
                "operator:type": "private",
                "amenity": "kindergarten"
            }
        },
        {
            "id": 269356,
            "type": "Feature",
            "geometry": {
                "type": "Point",
                "coordinates": [
                    21.06974,
                    52.16614
                ]
            },
            "properties": {
                "ref:rspo": 269356,
                "official_name": "Niepubliczne Przedszkole Artystyczne Acoto",
                "name": "Niepubliczne Przedszkole Artystyczne Acoto",
                "addr:country": "PL",
                "addr:postcode": "02-972",
                "addr:city": "Warszawa",
                "addr:street": "al. Aleja Rzeczypospolitej",
                "addr:housenumber": "20",
                "addr:door": "u13",
                "addr:teryt:simc": 45565,
                "addr:teryt:sym_ul": 988856,
                "contact:phone": "+48 792941682",
                "contact:email": "info@przedszkole-acoto.pl",
                "ref:regon": "381448604",
                "operator": "Agata Gna\u015b",
                "operator:type": "private",
                "amenity": "kindergarten"
            }
        },
        {
            "id": 275346,
            "type": "Feature",
            "geometry": {
                "type": "Point",
                "coordinates": [
                    21.06974,
                    52.166109999999996
                ]
            },
            "properties": {
                "ref:rspo": 275346,
                "official_name": "Niepubliczne Przedszkole Reksio I Przyjaciele",
                "name": "Niepubliczne Przedszkole Reksio I Przyjaciele",
                "addr:country": "PL",
                "addr:postcode": "02-972",
                "addr:city": "Warszawa",
                "addr:street": "al. Aleja Rzeczypospolitej",
                "addr:housenumber": "20",
                "addr:door": "U4",
                "addr:teryt:simc": 45565,
                "addr:teryt:sym_ul": 988856,
                "contact:phone": "+48 690588530",
                "contact:email": "biuro@przedszkole-reksio.waw.pl",
                "ref:regon": "386825276",
                "operator": "Ilona Meyka",
                "operator:type": "private",
                "amenity": "kindergarten"
            }
        },
        {
            "id": 274643,
            "type": "Feature",
            "geometry": {
                "type": "Point",
                "coordinates": [
                    21.05422,
                    52.16664
                ]
            },
            "properties": {
                "ref:rspo": 274643,
                "official_name": "Brytyjskie Przedszkole\"The English Preschool & Nursery\"",
                "name": "Brytyjskie Przedszkole\"The English Preschool & Nursery\"",
                "addr:country": "PL",
                "addr:postcode": "02-959",
                "addr:city": "Warszawa",
                "addr:street": "ul. Rzodkiewki",
                "addr:housenumber": "18",
                "addr:teryt:simc": 19379,
                "addr:teryt:sym_ul": 988856,
                "contact:phone": "+48 537848484",
                "contact:email": "biuro.preschool@gmail.com",
                "contact:website": "http:\/\/theenglishpreschool.pl",
                "ref:regon": "386134833",
                "operator": "Katarzyna Obarzanek",
                "operator:type": "private",
                "amenity": "kindergarten"
            }
        },
        {
            "id": 112150,
            "type": "Feature",
            "geometry": {
                "type": "Point",
                "coordinates": [
                    21.11636,
                    52.16691
                ]
            },
            "properties": {
                "ref:rspo": 112150,
                "official_name": "Przedszkole Niepubliczne \"Ala Ma Kota\"",
                "name": "Przedszkole Niepubliczne \"Ala Ma Kota\"",
                "addr:country": "PL",
                "addr:postcode": "02-991",
                "addr:city": "Warszawa",
                "addr:street": "ul. Bruzdowa",
                "addr:housenumber": "95 G",
                "addr:teryt:simc": 2192,
                "addr:teryt:sym_ul": 988856,
                "contact:phone": "+48 224655693",
                "contact:email": "konrad@alamakota.edu.pl",
                "ref:regon": "146596420",
                "operator": "Konrad Sadowski",
                "operator:type": "private",
                "amenity": "kindergarten"
            }
        },
        {
            "id": 83323,
            "type": "Feature",
            "geometry": {
                "type": "Point",
                "coordinates": [
                    21.07515,
                    52.16695
                ]
            },
            "properties": {
                "ref:rspo": 83323,
                "official_name": "\"Wilanowskie Przedszkole\"",
                "name": "\"Wilanowskie Przedszkole\"",
                "addr:country": "PL",
                "addr:postcode": "02-972",
                "addr:city": "Warszawa",
                "addr:street": "ul. Sarmacka",
                "addr:housenumber": "1A",
                "addr:door": "2",
                "addr:teryt:simc": 19532,
                "addr:teryt:sym_ul": 988856,
                "contact:phone": "+48 781303401",
                "contact:email": "biuro@przedszkolewilanowskie.pl",
                "contact:website": "http:\/\/przedszkolewilanowskie.pl",
                "ref:regon": "146415950",
                "operator": "Monika Michalik",
                "operator:type": "private",
                "amenity": "kindergarten"
            }
        },
        {
            "id": 263955,
            "type": "Feature",
            "geometry": {
                "type": "Point",
                "coordinates": [
                    21.10979,
                    52.16717
                ]
            },
            "properties": {
                "ref:rspo": 263955,
                "official_name": "Krok Po Kroku Terapeutyczny Punkt Przedszkolny",
                "name": "Krok Po Kroku Terapeutyczny Punkt Przedszkolny",
                "addr:country": "PL",
                "addr:postcode": "02-989",
                "addr:city": "Warszawa",
                "addr:street": "ul. Za\u015bciankowa",
                "addr:housenumber": "92",
                "addr:door": "1 i 1A",
                "addr:teryt:simc": 25733,
                "addr:teryt:sym_ul": 988856,
                "contact:phone": "+48 603211119",
                "contact:email": "monika.suchowierska@gmail.com",
                "ref:regon": "368245469",
                "operator": "Monika Suchowierska-Stephany",
                "operator:type": "private",
                "amenity": "kindergarten"
            }
        },
        {
            "id": 123511,
            "type": "Feature",
            "geometry": {
                "type": "Point",
                "coordinates": [
                    21.08782,
                    52.1677
                ]
            },
            "properties": {
                "isced:level": "1;2",
                "ref:rspo": 123511,
                "official_name": "Szko\u0142a Podstawowa Niepubliczna im. \"Wiktorii Wiede\u0144skiej\" Fundacji Edukacyjnej \"Varsovia\"",
                "name": "Szko\u0142a Podstawowa Niepubliczna",
                "addr:country": "PL",
                "addr:postcode": "02-960",
                "addr:city": "Warszawa",
                "addr:street": "ul. Kolegiacka",
                "addr:housenumber": "1",
                "addr:teryt:simc": 8816,
                "addr:teryt:sym_ul": 988856,
                "contact:phone": "+48 228856504",
                "contact:email": "wilanow@varsovia.edu.pl",
                "contact:website": "http:\/\/wilanow.varsovia.edu.pl",
                "ref:regon": "147322712",
                "operator": "Fundacja Edukacyjna \"Varsovia\"",
                "operator:type": "ngo",
                "amenity": "school"
            }
        },
        {
            "id": 133069,
            "type": "Feature",
            "geometry": {
                "type": "Point",
                "coordinates": [
                    21.06821,
                    52.16785
                ]
            },
            "properties": {
                "ref:rspo": 133069,
                "official_name": "Przedszkole Numer Jeden",
                "name": "Przedszkole Numer Jeden",
                "addr:country": "PL",
                "addr:postcode": "02-972",
                "addr:city": "Warszawa",
                "addr:street": "al. Aleja Rzeczypospolitej",
                "addr:housenumber": "31",
                "addr:door": "AU1",
                "addr:teryt:simc": 45565,
                "addr:teryt:sym_ul": 988856,
                "contact:phone": "+48 780116115",
                "contact:email": "biuro@przedszkolenumerjeden.pl",
                "contact:website": "http:\/\/www.predszkolenumerjeden.pl",
                "ref:regon": "366592304",
                "operator": "Edyta Frejek",
                "operator:type": "private",
                "amenity": "kindergarten"
            }
        },
        {
            "id": 278314,
            "type": "Feature",
            "geometry": {
                "type": "Point",
                "coordinates": [
                    21.06789,
                    52.16858
                ]
            },
            "properties": {
                "isced:level": "1;2",
                "ref:rspo": 278314,
                "official_name": "Szko\u0142a Podstawowa Numer Jeden im. Benjamina Franklina",
                "name": "Szko\u0142a Podstawowa Numer Jeden",
                "addr:country": "PL",
                "addr:postcode": "02-097",
                "addr:city": "Warszawa",
                "addr:street": "al. Aleja Rzeczypospolitej",
                "addr:housenumber": "33",
                "addr:door": "u3",
                "addr:teryt:simc": 45565,
                "addr:teryt:sym_ul": 988856,
                "contact:phone": "+48 780116115",
                "contact:email": "biuro@szkolanumerjeden.pl",
                "ref:regon": "389858106",
                "operator": "Edyta Frejek",
                "operator:type": "private",
                "amenity": "school"
            }
        },
        {
            "id": 5626,
            "type": "Feature",
            "geometry": {
                "type": "Point",
                "coordinates": [
                    21.08483,
                    52.16892
                ]
            },
            "properties": {
                "ref:rspo": 5626,
                "official_name": "Zesp\u00f3\u0142 Szk\u00f3\u0142 Nr 79 im. St. Kostki Potockiego w Warszawie",
                "name": "Zesp\u00f3\u0142 Szk\u00f3\u0142 Nr 79",
                "addr:country": "PL",
                "addr:postcode": "02-952",
                "addr:city": "Warszawa",
                "addr:street": "ul. Wiertnicza",
                "addr:housenumber": "26",
                "addr:teryt:simc": 24147,
                "addr:teryt:sym_ul": 988856,
                "contact:phone": "+48 222771500",
                "contact:email": "sekretariat@kostka-potocki.edu.pl",
                "ref:regon": "017187376",
                "ref:vatin": "PL9511882796",
                "operator": "Wilan\u00f3w",
                "operator:type": "government",
                "landuse": "education",
                "fixme": "amenity=school, amenity=college albo landuse=education w zale\u017cno\u015bci od tego, jakie plac\u00f3wki wchodz\u0105 w sk\u0142ad zespo\u0142u. Sprawd\u017a, kiedy stosowa\u0107 amenity=* a kiedy landuse=education.",
                "note": "Children RSPO: 30461;41853"
            }
        },
        {
            "id": 30461,
            "type": "Feature",
            "geometry": {
                "type": "Point",
                "coordinates": [
                    21.08483,
                    52.16889
                ]
            },
            "properties": {
                "isced:level": "1;2",
                "ref:rspo": 30461,
                "official_name": "Szko\u0142a Podstawowa Nr 261 im. Stanis\u0142awa Kostki Potockiego w Warszawie",
                "name": "Szko\u0142a Podstawowa Nr 261",
                "addr:country": "PL",
                "addr:postcode": "02-952",
                "addr:city": "Warszawa",
                "addr:street": "ul. Wiertnicza",
                "addr:housenumber": "26",
                "addr:teryt:simc": 24147,
                "addr:teryt:sym_ul": 988856,
                "contact:phone": "+48 222771500",
                "contact:email": "sekretariat@kostka-potocki.edu.pl",
                "contact:website": "http:\/\/www.kostka-potocki.edu.pl",
                "ref:regon": "017187324",
                "operator": "Wilan\u00f3w",
                "operator:type": "government",
                "amenity": "school",
                "note": "Parent RSPO: 5626"
            }
        },
        {
            "id": 41853,
            "type": "Feature",
            "geometry": {
                "type": "Point",
                "coordinates": [
                    21.08483,
                    52.16886
                ]
            },
            "properties": {
                "isced:level": "3",
                "ref:rspo": 41853,
                "official_name": "Xxxviii Liceum Og\u00f3lnokszta\u0142c\u0105ce im. Stanis\u0142awa Kostki Potockiego w Warszawie",
                "name": "Xxxviii Liceum Og\u00f3lnokszta\u0142c\u0105ce",
                "addr:country": "PL",
                "addr:postcode": "02-952",
                "addr:city": "Warszawa",
                "addr:street": "ul. Wiertnicza",
                "addr:housenumber": "26",
                "addr:teryt:simc": 24147,
                "addr:teryt:sym_ul": 988856,
                "contact:phone": "+48 222771500",
                "contact:email": "sekretariat@kostka-potocki.edu.pl",
                "contact:website": "http:\/\/www.kostka-potocki.edu.pl",
                "ref:regon": "017187347",
                "operator": "Wilan\u00f3w",
                "operator:type": "government",
                "amenity": "school",
                "note": "Parent RSPO: 5626"
            }
        },
        {
            "id": 84763,
            "type": "Feature",
            "geometry": {
                "type": "Point",
                "coordinates": [
                    21.06186,
                    52.1698499
                ]
            },
            "properties": {
                "ref:rspo": 84763,
                "official_name": "Przedszkole Niepubliczne Kid's Academy",
                "name": "Przedszkole Niepubliczne Kid's Academy",
                "addr:country": "PL",
                "addr:postcode": "02-747",
                "addr:city": "Warszawa",
                "addr:street": "ul. Arbuzowa",
                "addr:housenumber": "33d",
                "addr:teryt:simc": 384,
                "addr:teryt:sym_ul": 988856,
                "contact:phone": "+48 603798297",
                "contact:email": "biuro@kidsacademy.com.pl",
                "contact:website": "http:\/\/www.kidsacademy.com.pl",
                "ref:regon": "146445631",
                "operator": "Monika Konieczna-Kowalczyk",
                "operator:type": "private",
                "amenity": "kindergarten"
            }
        },
        {
            "id": 129685,
            "type": "Feature",
            "geometry": {
                "type": "Point",
                "coordinates": [
                    21.0809399,
                    52.1698499
                ]
            },
            "properties": {
                "ref:rspo": 129685,
                "official_name": "Punkt Przedszkolny \"Zielony Latawiec\"",
                "name": "Punkt Przedszkolny \"Zielony Latawiec\"",
                "addr:country": "PL",
                "addr:postcode": "02-956",
                "addr:city": "Warszawa",
                "addr:street": "ul. Rumiana",
                "addr:housenumber": "14",
                "addr:teryt:simc": 19093,
                "addr:teryt:sym_ul": 988856,
                "contact:phone": "+48 502303354",
                "contact:email": "hmh@hmh.edu.pl",
                "ref:regon": "362761709",
                "operator": "Zofia Bia\u0142ek",
                "operator:type": "private",
                "amenity": "kindergarten"
            }
        },
        {
            "id": 129175,
            "type": "Feature",
            "geometry": {
                "type": "Point",
                "coordinates": [
                    21.0792,
                    52.16991
                ]
            },
            "properties": {
                "ref:rspo": 129175,
                "official_name": "Kolore Plac\u00f3wka O\u015bwiatowo Wychowawcza",
                "name": "Kolore Plac\u00f3wka O\u015bwiatowo Wychowawcza",
                "addr:country": "PL",
                "addr:postcode": "02-953",
                "addr:city": "Warszawa",
                "addr:street": "ul. Kosiarzy",
                "addr:housenumber": "21D",
                "addr:teryt:simc": 9419,
                "addr:teryt:sym_ul": 988856,
                "contact:phone": "+48 600011169",
                "contact:email": "kasprzyk.joanna@gmail.com",
                "ref:regon": "362522590",
                "operator": "Joanna Kasprzyk",
                "operator:type": "private",
                "fixme": "w zale\u017cno\u015bci od przedmiotu dzia\u0142alno\u015bci (np. amenity=training + training=*, amenity=dancing_school, amenity=language_school, amenity=music_school)"
            }
        },
        {
            "id": 121191,
            "type": "Feature",
            "geometry": {
                "type": "Point",
                "coordinates": [
                    21.0837,
                    52.16998
                ]
            },
            "properties": {
                "ref:rspo": 121191,
                "official_name": "Przedszkole Niepubliczne Beztroski \u015awiat",
                "name": "Przedszkole Niepubliczne Beztroski \u015awiat",
                "addr:country": "PL",
                "addr:postcode": "02-592",
                "addr:city": "Warszawa",
                "addr:street": "ul. Wiertnicza",
                "addr:housenumber": "36A",
                "addr:teryt:simc": 24147,
                "addr:teryt:sym_ul": 988856,
                "contact:phone": "+48 222218900",
                "contact:email": "sekretariat@beztroski-swiat.pl",
                "contact:website": "http:\/\/www.beztroski-swiat.pl",
                "ref:regon": "147009895",
                "operator": "Beztroski \u015awiat Sp\u00f3\u0142ka Z Ograniczon\u0105 Odpowiedzialno\u015bci\u0105",
                "operator:type": "private",
                "amenity": "kindergarten"
            }
        },
        {
            "id": 26402,
            "type": "Feature",
            "geometry": {
                "type": "Point",
                "coordinates": [
                    21.07853,
                    52.17052
                ]
            },
            "properties": {
                "ref:rspo": 26402,
                "official_name": "Przedszkole Niepubliczne \"Mini Przedszkole\"",
                "name": "Przedszkole Niepubliczne \"Mini Przedszkole\"",
                "addr:country": "PL",
                "addr:postcode": "02-953",
                "addr:city": "Warszawa",
                "addr:street": "ul. Kosiarzy",
                "addr:housenumber": "26",
                "addr:teryt:simc": 9419,
                "addr:teryt:sym_ul": 988856,
                "contact:phone": "+48 226425405",
                "contact:email": "malgorzata.kukula@gmail.com",
                "ref:regon": "146337143",
                "operator": "Ma\u0142gorzata Kuku\u0142a",
                "operator:type": "private",
                "amenity": "kindergarten"
            }
        },
        {
            "id": 121268,
            "type": "Feature",
            "geometry": {
                "type": "Point",
                "coordinates": [
                    21.0737,
                    52.17106
                ]
            },
            "properties": {
                "ref:rspo": 121268,
                "official_name": "Niepubliczny Punkt Przedszkolny Scolar",
                "name": "Niepubliczny Punkt Przedszkolny Scolar",
                "addr:country": "PL",
                "addr:postcode": "02-954",
                "addr:city": "Warszawa",
                "addr:street": "ul. Jakuba Kubickiego",
                "addr:housenumber": "9",
                "addr:door": "2",
                "addr:teryt:simc": 10298,
                "addr:teryt:sym_ul": 988856,
                "contact:phone": "+48 228484324",
                "contact:email": "scolar@scolar.pl",
                "contact:website": "http:\/\/www.scolar.pl",
                "ref:regon": "147024498",
                "operator": "Fundacja Scolar",
                "operator:type": "ngo",
                "amenity": "kindergarten"
            }
        },
        {
            "id": 123236,
            "type": "Feature",
            "geometry": {
                "type": "Point",
                "coordinates": [
                    21.0737,
                    52.171029999999995
                ]
            },
            "properties": {
                "ref:rspo": 123236,
                "official_name": "O\u015brodek Szkolenia Scolar",
                "name": "O\u015brodek Szkolenia Scolar",
                "addr:country": "PL",
                "addr:postcode": "02-954",
                "addr:city": "Warszawa",
                "addr:street": "ul. Jakuba Kubickiego",
                "addr:housenumber": "9",
                "addr:door": "1,2",
                "addr:teryt:simc": 10298,
                "addr:teryt:sym_ul": 988856,
                "contact:phone": "+48 228484324",
                "contact:email": "scolar@scolar.pl",
                "contact:website": "http:\/\/www.scolar.pl",
                "ref:regon": "147277779",
                "operator": "Fundacja Scolar",
                "operator:type": "ngo",
                "fixme": "w zale\u017cno\u015bci od przedmiotu dzia\u0142alno\u015bci (np. amenity=training + training=*, amenity=dancing_school, amenity=language_school, amenity=music_school)"
            }
        },
        {
            "id": 125512,
            "type": "Feature",
            "geometry": {
                "type": "Point",
                "coordinates": [
                    21.0737,
                    52.171
                ]
            },
            "properties": {
                "ref:rspo": 125512,
                "official_name": "Pozaszkolna Plac\u00f3wka Specjalistyczna Scolar",
                "name": "Pozaszkolna Plac\u00f3wka Specjalistyczna Scolar",
                "addr:country": "PL",
                "addr:postcode": "02-954",
                "addr:city": "Warszawa",
                "addr:street": "ul. Jakuba Kubickiego",
                "addr:housenumber": "9",
                "addr:door": "2",
                "addr:teryt:simc": 10298,
                "addr:teryt:sym_ul": 988856,
                "contact:phone": "+48 228484324",
                "contact:email": "scolar@scolar.pl",
                "contact:website": "http:\/\/scolar.pl",
                "ref:regon": "147450195",
                "operator": "Fundacja Scolar",
                "operator:type": "ngo",
                "fixme": "w zale\u017cno\u015bci od przedmiotu dzia\u0142alno\u015bci (np. amenity=training + training=*, amenity=dancing_school, amenity=language_school, amenity=music_school)"
            }
        },
        {
            "id": 264708,
            "type": "Feature",
            "geometry": {
                "type": "Point",
                "coordinates": [
                    21.08026,
                    52.17226
                ]
            },
            "properties": {
                "isced:level": "1;2",
                "ref:rspo": 264708,
                "official_name": "Polish British Academy Of Warsaw - Dwuj\u0119zyczna Szko\u0142a Podstawowa Z Oddzia\u0142ami Mi\u0119dzynarodowymi w Warszawie",
                "name": "Polish British Academy Of Warsaw - Dwuj\u0119zyczna Szko\u0142a Podstawowa Z Oddzia\u0142ami Mi\u0119dzynarodowymi w Warszawie",
                "addr:country": "PL",
                "addr:postcode": "02-952",
                "addr:city": "Warszawa",
                "addr:street": "ul. Wiertnicza",
                "addr:housenumber": "75",
                "addr:teryt:simc": 24147,
                "addr:teryt:sym_ul": 988856,
                "contact:phone": "+48 501115114",
                "contact:email": "magda.eysmont@pbaw.pl",
                "ref:regon": "368425480",
                "operator": "Magdalena Eysmont",
                "operator:type": "private",
                "amenity": "school"
            }
        },
        {
            "id": 85210,
            "type": "Feature",
            "geometry": {
                "type": "Point",
                "coordinates": [
                    21.06802,
                    52.1727
                ]
            },
            "properties": {
                "isced:level": "1;2",
                "ref:rspo": 85210,
                "official_name": "Polsko-Francuska Niepubliczna Szko\u0142a Podstawowa \"La Fontaine\"",
                "name": "Polsko-Francuska Niepubliczna Szko\u0142a Podstawowa \"La Fontaine\"",
                "addr:country": "PL",
                "addr:postcode": "02-956",
                "addr:city": "Warszawa",
                "addr:street": "ul. Wandy Rutkiewicz",
                "addr:housenumber": "2",
                "addr:teryt:simc": 19132,
                "addr:teryt:sym_ul": 988856,
                "contact:phone": "+48 228850020",
                "contact:email": "szkola@lafontaine.edu.pl",
                "contact:website": "http:\/\/www.lafontaine.edu.pl",
                "ref:regon": "146429477",
                "operator": "Anna Nowacka-Devillard",
                "operator:type": "private",
                "amenity": "school"
            }
        },
        {
            "id": 264959,
            "type": "Feature",
            "geometry": {
                "type": "Point",
                "coordinates": [
                    21.07963,
                    52.1728
                ]
            },
            "properties": {
                "ref:rspo": 264959,
                "official_name": "Niepubliczne Integracyjne Przedszkole Ba\u0142abajka",
                "name": "Niepubliczne Integracyjne Przedszkole Ba\u0142abajka",
                "addr:country": "PL",
                "addr:postcode": "02-952",
                "addr:city": "Warszawa",
                "addr:street": "ul. Wiertnicza",
                "addr:housenumber": "83",
                "addr:teryt:simc": 24147,
                "addr:teryt:sym_ul": 988856,
                "contact:phone": "+48 515174833",
                "contact:email": "cmc@cmc.edu.pl",
                "ref:regon": "368527736",
                "operator": "Edyta Kojder",
                "operator:type": "private",
                "amenity": "kindergarten"
            }
        },
        {
            "id": 278064,
            "type": "Feature",
            "geometry": {
                "type": "Point",
                "coordinates": [
                    21.054125896051,
                    52.172826910435
                ]
            },
            "properties": {
                "ref:rspo": 278064,
                "official_name": "Przedszkole Niepubliczne Zielona \u017byrafa",
                "name": "Przedszkole Niepubliczne Zielona \u017byrafa",
                "addr:country": "PL",
                "addr:postcode": "02-765",
                "addr:city": "Warszawa",
                "addr:street": "al. Aleja Wilanowska",
                "addr:housenumber": "7",
                "addr:door": "u1",
                "addr:teryt:simc": 45563,
                "addr:teryt:sym_ul": 988856,
                "contact:phone": "+48 533337220",
                "contact:email": "biuo@zielonazyrafa.edu.pl",
                "ref:regon": "389783331",
                "operator": "Aneta Muras",
                "operator:type": "private",
                "amenity": "kindergarten"
            }
        },
        {
            "id": 27423,
            "type": "Feature",
            "geometry": {
                "type": "Point",
                "coordinates": [
                    21.0803659,
                    52.1730632
                ]
            },
            "properties": {
                "ref:rspo": 27423,
                "official_name": "Przedszkole Niepubliczne \"Frajda\"",
                "name": "Przedszkole Niepubliczne \"Frajda\"",
                "addr:country": "PL",
                "addr:postcode": "02-952",
                "addr:city": "Warszawa",
                "addr:street": "ul. Wiertnicza",
                "addr:housenumber": "76",
                "addr:teryt:simc": 24147,
                "addr:teryt:sym_ul": 988856,
                "contact:phone": "+48 664700055",
                "contact:email": "info@przedszkole-frajda.pl",
                "contact:website": "http:\/\/www.przedszkole-frajda.pl",
                "ref:regon": "146339946",
                "operator": "Aneta Laskowska-Fabisiewicx",
                "operator:type": "private",
                "amenity": "kindergarten"
            }
        },
        {
            "id": 276966,
            "type": "Feature",
            "geometry": {
                "type": "Point",
                "coordinates": [
                    21.0754,
                    52.17309
                ]
            },
            "properties": {
                "ref:rspo": 276966,
                "official_name": "Niepubliczny Osrodek Doskonalenia Nauczycieli Przy Stowarzyszeniu Montessori Bez Granic",
                "name": "Niepubliczny Osrodek Doskonalenia Nauczycieli Przy Stowarzyszeniu Montessori Bez Granic",
                "addr:country": "PL",
                "addr:postcode": "02-956",
                "addr:city": "Warszawa",
                "addr:street": "ul. Kr\u00f3lewicza Jakuba",
                "addr:housenumber": "36",
                "addr:teryt:simc": 7077,
                "addr:teryt:sym_ul": 988856,
                "contact:email": "montessoribezgranic@gmail.com",
                "contact:website": "http:\/\/www.montessoribezgranic.edu.pl",
                "ref:regon": "387922580",
                "operator": "Stowarzyszenie \"Montessori Bez Granic\"",
                "operator:type": "ngo",
                "amenity": "training"
            }
        },
        {
            "id": 82682,
            "type": "Feature",
            "geometry": {
                "type": "Point",
                "coordinates": [
                    21.08352,
                    52.1731399
                ]
            },
            "properties": {
                "ref:rspo": 82682,
                "official_name": "Przedszkole Niepubliczne im. Jasia I Ma\u0142gosi",
                "name": "Przedszkole Niepubliczne",
                "addr:country": "PL",
                "addr:postcode": "02-951",
                "addr:city": "Warszawa",
                "addr:street": "ul. Husarii",
                "addr:housenumber": "34",
                "addr:teryt:simc": 6812,
                "addr:teryt:sym_ul": 988856,
                "contact:phone": "+48 226426507",
                "contact:email": "przedszkole@jas-i-malgosia.pl",
                "ref:regon": "146430084",
                "operator": "Joanna Bielowska",
                "operator:type": "private",
                "amenity": "kindergarten"
            }
        },
        {
            "id": 7608,
            "type": "Feature",
            "geometry": {
                "type": "Point",
                "coordinates": [
                    21.10773,
                    52.17358
                ]
            },
            "properties": {
                "ref:rspo": 7608,
                "official_name": "Przedszkole Nr 416 Im Unicef w Warszawie, Ul.syta 123",
                "name": "Przedszkole Nr 416 Im Unicef w Warszawie, Ul.syta 123",
                "addr:country": "PL",
                "addr:postcode": "02-987",
                "addr:city": "Warszawa",
                "addr:street": "ul. Syta",
                "addr:housenumber": "123",
                "addr:teryt:simc": 21687,
                "addr:teryt:sym_ul": 988856,
                "contact:phone": "+48 228580005",
                "contact:email": "p416@edu.um.warszawa.pl",
                "contact:website": "http:\/\/www.przedszkole416.waw.pl",
                "ref:regon": "142534119",
                "ref:vatin": "PL9512319318",
                "operator": "Wilan\u00f3w",
                "operator:type": "government",
                "amenity": "kindergarten"
            }
        },
        {
            "id": 132717,
            "type": "Feature",
            "geometry": {
                "type": "Point",
                "coordinates": [
                    21.0677999,
                    52.17378
                ]
            },
            "properties": {
                "ref:rspo": 132717,
                "official_name": "Przedszkole Nr 427 \"Kraina Rado\u015bci\" w Warszawie, Ul. Radosna 11",
                "name": "Przedszkole Nr 427 \"Kraina Rado\u015bci\" w Warszawie, Ul. Radosna 11",
                "addr:country": "PL",
                "addr:postcode": "02-956",
                "addr:city": "Warszawa",
                "addr:street": "ul. Radosna",
                "addr:housenumber": "11",
                "addr:teryt:simc": 18322,
                "addr:teryt:sym_ul": 988856,
                "contact:phone": "+48 226427761",
                "contact:email": "p427@edu.um.warszawa.pl",
                "contact:website": "https:\/\/przedszkole427.pl",
                "ref:regon": "366116673",
                "operator": "Wilan\u00f3w",
                "operator:type": "government",
                "amenity": "kindergarten"
            }
        },
        {
            "id": 6489,
            "type": "Feature",
            "geometry": {
                "type": "Point",
                "coordinates": [
                    21.0687,
                    52.1737899
                ]
            },
            "properties": {
                "isced:level": "1;2",
                "ref:rspo": 6489,
                "official_name": "Szko\u0142a Podstawowa Nr 300 im. Wandy Rutkiewicz",
                "name": "Szko\u0142a Podstawowa Nr 300",
                "addr:country": "PL",
                "addr:postcode": "02-956",
                "addr:city": "Warszawa",
                "addr:street": "ul. Gubinowska",
                "addr:housenumber": "28\/30",
                "addr:teryt:simc": 6358,
                "addr:teryt:sym_ul": 988856,
                "contact:phone": "+48 228429360",
                "contact:email": "sekretariat@sp300.edu.pl",
                "contact:website": "http:\/\/www.sp300warszawa.eupage.org",
                "ref:regon": "000835220",
                "ref:vatin": "PL9511540044",
                "operator": "Wilan\u00f3w",
                "operator:type": "government",
                "amenity": "school"
            }
        },
        {
            "id": 7151,
            "type": "Feature",
            "geometry": {
                "type": "Point",
                "coordinates": [
                    21.0687,
                    52.1737599
                ]
            },
            "properties": {
                "ref:rspo": 7151,
                "official_name": "Przedszkole Nr 56 \"Weso\u0142e Kubusie\"",
                "name": "Przedszkole Nr 56 \"Weso\u0142e Kubusie\"",
                "addr:country": "PL",
                "addr:postcode": "02-956",
                "addr:city": "Warszawa",
                "addr:street": "ul. Gubinowska",
                "addr:housenumber": "28\/30",
                "addr:teryt:simc": 6358,
                "addr:teryt:sym_ul": 988856,
                "contact:phone": "+48 228424841",
                "contact:email": "p56@edu.um.warszawa.pl",
                "contact:website": "http:\/\/www.wikom.pl\/p56w-wa\/",
                "ref:regon": "013002173",
                "ref:vatin": "PL9511517654",
                "operator": "Wilan\u00f3w",
                "operator:type": "government",
                "amenity": "kindergarten"
            }
        },
        {
            "id": 84701,
            "type": "Feature",
            "geometry": {
                "type": "Point",
                "coordinates": [
                    21.10929,
                    52.17416
                ]
            },
            "properties": {
                "ref:rspo": 84701,
                "official_name": "Kidscollege Niepubliczne Przedszkole Polsko-Angielskie",
                "name": "Kidscollege Niepubliczne Przedszkole Polsko-Angielskie",
                "addr:country": "PL",
                "addr:postcode": "02-988",
                "addr:city": "Warszawa",
                "addr:street": "ul. Jara",
                "addr:housenumber": "12A",
                "addr:teryt:simc": 7237,
                "addr:teryt:sym_ul": 988856,
                "contact:phone": "+48 722305333",
                "contact:email": "kinga.czaplinska@baby-care.pl",
                "contact:website": "http:\/\/www.kidscollege.pl",
                "ref:regon": "146422950",
                "operator": "Ejdys & Mazurkiewicz - Profesjonalna Opieka Nad Dzie\u0107mi Sp\u00f3\u0142ka Z Ograniczon\u0105 Odpowiedzialno\u015bci\u0105",
                "operator:type": "private",
                "amenity": "kindergarten"
            }
        },
        {
            "id": 278899,
            "type": "Feature",
            "geometry": {
                "type": "Point",
                "coordinates": [
                    21.07204,
                    52.17428
                ]
            },
            "properties": {
                "isced:level": "3",
                "ref:rspo": 278899,
                "official_name": "British International School Mi\u0119dzynarodowe Brytyjskie Liceum Og\u00f3lnokszta\u0142c\u0105ce",
                "name": "British International School Mi\u0119dzynarodowe Brytyjskie Liceum Og\u00f3lnokszta\u0142c\u0105ce",
                "addr:country": "PL",
                "addr:postcode": "02-954",
                "addr:city": "Warszawa",
                "addr:street": "ul. Kr\u00f3lowej Marysie\u0144ki",
                "addr:housenumber": "58",
                "addr:teryt:simc": 10007,
                "addr:teryt:sym_ul": 988856,
                "contact:phone": "+48 570707662",
                "contact:email": "office@bis.edu.pl",
                "ref:regon": "520167625",
                "operator": "British International School Sp\u00f3\u0142ka Z Ograniczon\u0105 Odpowiedzialno\u015bci\u0105",
                "operator:type": "private",
                "amenity": "school"
            }
        },
        {
            "id": 268328,
            "type": "Feature",
            "geometry": {
                "type": "Point",
                "coordinates": [
                    21.08353,
                    52.17477
                ]
            },
            "properties": {
                "ref:rspo": 268328,
                "official_name": "Punkt Przedszkolny \"Zielona Wie\u017ca\"",
                "name": "Punkt Przedszkolny \"Zielona Wie\u017ca\"",
                "addr:country": "PL",
                "addr:postcode": "02-951",
                "addr:city": "Warszawa",
                "addr:street": "ul. Piechoty \u0141anowej",
                "addr:housenumber": "50",
                "addr:teryt:simc": 16080,
                "addr:teryt:sym_ul": 988856,
                "contact:phone": "+48 798805848",
                "contact:email": "wilanow@zielonawieza.pl",
                "ref:regon": "381093354",
                "operator": "Szmaragdowa Wie\u017ca Sp\u00f3\u0142ka Z Ograniczon\u0105 Odpowiedzialno\u015bci\u0105",
                "operator:type": "private",
                "amenity": "kindergarten"
            }
        },
        {
            "id": 125561,
            "type": "Feature",
            "geometry": {
                "type": "Point",
                "coordinates": [
                    21.08456,
                    52.17485
                ]
            },
            "properties": {
                "ref:rspo": 125561,
                "official_name": "Maple Tree Montessori International Preschool",
                "name": "Maple Tree Montessori International Preschool",
                "addr:country": "PL",
                "addr:postcode": "02-951",
                "addr:city": "Warszawa",
                "addr:street": "ul. Piechoty \u0141anowej",
                "addr:housenumber": "46A",
                "addr:teryt:simc": 16080,
                "addr:teryt:sym_ul": 988856,
                "contact:phone": "+48 531599444",
                "contact:email": "office@mapletreemontessori.pl",
                "contact:website": "http:\/\/mapletreemontessori.pl",
                "ref:regon": "147455436",
                "operator": "Maple Tree Montessori Sp\u00f3\u0142ka Z Ograniczon\u0105 Odpowiedzialno\u015bci\u0105",
                "operator:type": "private",
                "amenity": "kindergarten"
            }
        },
        {
            "id": 277085,
            "type": "Feature",
            "geometry": {
                "type": "Point",
                "coordinates": [
                    21.07547,
                    52.1751
                ]
            },
            "properties": {
                "ref:rspo": 277085,
                "official_name": "Przedszkole Artystyczno-J\u0119zykowe Midori Pre-School",
                "name": "Przedszkole Artystyczno-J\u0119zykowe Midori Pre-School",
                "addr:country": "PL",
                "addr:postcode": "02-956",
                "addr:city": "Warszawa",
                "addr:street": "ul. Rumiana",
                "addr:housenumber": "86",
                "addr:teryt:simc": 19093,
                "addr:teryt:sym_ul": 988856,
                "contact:phone": "+48 605357576",
                "contact:email": "dyrekcja@midoripreschool.pl",
                "ref:regon": "388145166",
                "operator": "Anita Rywalska-Sosnowska",
                "operator:type": "private",
                "amenity": "kindergarten"
            }
        },
        {
            "id": 264715,
            "type": "Feature",
            "geometry": {
                "type": "Point",
                "coordinates": [
                    21.1067399,
                    52.17594
                ]
            },
            "properties": {
                "isced:level": "1;2",
                "ref:rspo": 264715,
                "official_name": "Joy Primary School",
                "name": "Joy Primary School",
                "addr:country": "PL",
                "addr:postcode": "02-987",
                "addr:city": "Warszawa",
                "addr:street": "ul. Syta",
                "addr:housenumber": "131A",
                "addr:teryt:simc": 21687,
                "addr:teryt:sym_ul": 988856,
                "contact:phone": "+48 608071418",
                "contact:email": "sekretariat@joyprimaryschool.pl",
                "contact:website": "http:\/\/joyprimaryschool.pl",
                "ref:regon": "368431261",
                "operator": "Totoro Sp\u00f3\u0142ka Z Ograniczon\u0105 Odpowiedzialno\u015bci\u0105",
                "operator:type": "private",
                "amenity": "school"
            }
        },
        {
            "id": 129681,
            "type": "Feature",
            "geometry": {
                "type": "Point",
                "coordinates": [
                    21.0697699,
                    52.1765
                ]
            },
            "properties": {
                "ref:rspo": 129681,
                "official_name": "Terapeutyczny Punkt Przedszkolny \"Szcz\u0119\u015bliwe Dzieci\"",
                "name": "Terapeutyczny Punkt Przedszkolny \"Szcz\u0119\u015bliwe Dzieci\"",
                "addr:country": "PL",
                "addr:postcode": "02-954",
                "addr:city": "Warszawa",
                "addr:street": "ul. Kr\u00f3lowej Marysie\u0144ki",
                "addr:housenumber": "104",
                "addr:teryt:simc": 10007,
                "addr:teryt:sym_ul": 988856,
                "contact:phone": "+48 510828616",
                "contact:email": "kontakt@szczesliwedzieci.pl",
                "contact:website": "http:\/\/szczesliwedzieci.pl",
                "ref:regon": "362761135",
                "operator": "Centrum Terapii B&J Sp\u00f3\u0142ka Z Ograniczon\u0105 Odpowiedzialno\u015bci\u0105",
                "operator:type": "private",
                "amenity": "kindergarten"
            }
        },
        {
            "id": 52982,
            "type": "Feature",
            "geometry": {
                "type": "Point",
                "coordinates": [
                    21.07546,
                    52.1772599
                ]
            },
            "properties": {
                "isced:level": "1;2",
                "ref:rspo": 52982,
                "official_name": "Mi\u0119dzynarodowa Europejska Szko\u0142a Podstawowa im. Jana Ku\u0142akowskiego w Warszawie - International European School *Warsaw",
                "name": "Mi\u0119dzynarodowa Europejska Szko\u0142a Podstawowa",
                "addr:country": "PL",
                "addr:postcode": "02-952",
                "addr:city": "Warszawa",
                "addr:street": "ul. Wiertnicza",
                "addr:housenumber": "140",
                "addr:teryt:simc": 24147,
                "addr:teryt:sym_ul": 988856,
                "contact:phone": "+48 228424448",
                "contact:email": "ies@ies-warsaw.pl",
                "contact:website": "http:\/\/www.ies-warsaw.pl",
                "ref:regon": "146407553",
                "ref:vatin": "PL5272374993",
                "operator": "\"International European School\" Sp\u00f3\u0142ka Z Ograniczon\u0105 Odpowiedzialno\u015bci\u0105",
                "operator:type": "private",
                "amenity": "school"
            }
        },
        {
            "id": 270480,
            "type": "Feature",
            "geometry": {
                "type": "Point",
                "coordinates": [
                    21.07546,
                    52.1772299
                ]
            },
            "properties": {
                "isced:level": "3",
                "ref:rspo": 270480,
                "official_name": "Mi\u0119dzynarodowe Europejskie Liceum Og\u00f3lnokszta\u0142c\u0105ce im. Jana Ku\u0142akowskiego w Warszawie - International European School*Warsaw",
                "name": "Mi\u0119dzynarodowe Europejskie Liceum Og\u00f3lnokszta\u0142c\u0105ce",
                "addr:country": "PL",
                "addr:postcode": "02-952",
                "addr:city": "Warszawa",
                "addr:street": "ul. Wiertnicza",
                "addr:housenumber": "140",
                "addr:teryt:simc": 24147,
                "addr:teryt:sym_ul": 988856,
                "contact:phone": "+48 228424448",
                "contact:email": "ies@ies-warsaw.pl",
                "ref:regon": "382617990",
                "operator": "\"International European School\" Sp\u00f3\u0142ka Z Ograniczon\u0105 Odpowiedzialno\u015bci\u0105",
                "operator:type": "private",
                "amenity": "school"
            }
        },
        {
            "id": 129838,
            "type": "Feature",
            "geometry": {
                "type": "Point",
                "coordinates": [
                    21.0755,
                    52.17749
                ]
            },
            "properties": {
                "ref:rspo": 129838,
                "official_name": "Ato Avioner",
                "name": "Ato Avioner",
                "addr:country": "PL",
                "addr:postcode": "02-952",
                "addr:city": "Warszawa",
                "addr:street": "ul. Wiertnicza",
                "addr:housenumber": "142",
                "addr:teryt:simc": 24147,
                "addr:teryt:sym_ul": 988856,
                "contact:phone": "+48 514097300",
                "contact:email": "biuro@avioner.pl",
                "ref:regon": "362973618",
                "operator": "Syntecode Sp\u00f3\u0142ka Z Ograniczon\u0105 Odpowiedzialno\u015bci\u0105",
                "operator:type": "private",
                "fixme": "w zale\u017cno\u015bci od przedmiotu dzia\u0142alno\u015bci (np. amenity=training + training=*, amenity=dancing_school, amenity=language_school, amenity=music_school)"
            }
        },
        {
            "id": 278520,
            "type": "Feature",
            "geometry": {
                "type": "Point",
                "coordinates": [
                    21.08028,
                    52.18343
                ]
            },
            "properties": {
                "ref:rspo": 278520,
                "official_name": "Niepubliczne Przedszkole Kids Joy",
                "name": "Niepubliczne Przedszkole Kids Joy",
                "addr:country": "PL",
                "addr:postcode": "02-981",
                "addr:city": "Warszawa",
                "addr:street": "ul. August\u00f3wka",
                "addr:housenumber": "8",
                "addr:door": "u2,3,4,5",
                "addr:teryt:simc": 495,
                "addr:teryt:sym_ul": 988856,
                "contact:phone": "+48 666644789",
                "contact:email": "kamil_arche@onet.pl",
                "ref:regon": "389947152",
                "operator": "Kids Joy Sp\u00f3\u0142ka Z Ograniczon\u0105 Odpowiedzialno\u015bci\u0105",
                "operator:type": "private",
                "amenity": "kindergarten"
            }
        },
        {
            "id": 276350,
            "type": "Feature",
            "geometry": {
                "type": "Point",
                "coordinates": [
                    20.99426,
                    52.26471
                ]
            },
            "properties": {
                "ref:rspo": 276350,
                "official_name": "J\u0119zykowe Niepubliczne Przedszkole Pastel Garden",
                "name": "J\u0119zykowe Niepubliczne Przedszkole Pastel Garden",
                "addr:country": "PL",
                "addr:postcode": "02-999",
                "addr:city": "Warszawa",
                "addr:street": "ul. Rycerstwa Polskiego",
                "addr:housenumber": "4",
                "addr:door": "u1\/u2\/u3",
                "addr:teryt:simc": 39954,
                "addr:teryt:sym_ul": 988856,
                "contact:phone": "+48 517444209",
                "contact:email": "biuro@pastelgarden.pl",
                "ref:regon": "387105153",
                "operator": "And\u017celika Stelmach",
                "operator:type": "private",
                "amenity": "kindergarten"
            }
        }
    ]
}