{
    "type": "FeatureCollection",
    "features": [
        {
            "id": 274335,
            "type": "Feature",
            "geometry": {
                "type": "Point",
                "coordinates": [
                    20.88126,
                    52.21975
                ]
            },
            "properties": {
                "ref:rspo": 274335,
                "official_name": "Centrum Pozytywnej Edukacji",
                "name": "Centrum Pozytywnej Edukacji",
                "addr:postcode": "01-327",
                "addr:city": "Warszawa",
                "addr:street": "Sochaczewska",
                "addr:housenumber": "31b",
                "addr:city:simc": 988780,
                "addr:street:sym_ul": 20463,
                "phone": "+48 608370777",
                "email": "info@pozytywnaedukacja.pl",
                "ref:regon": "385603645",
                "operator": "El\u017cbieta Nerwi\u0144ska",
                "operator:type": "private",
                "amenity": "training"
            }
        },
        {
            "id": 277456,
            "type": "Feature",
            "geometry": {
                "type": "Point",
                "coordinates": [
                    20.91148,
                    52.22027
                ]
            },
            "properties": {
                "ref:rspo": 277456,
                "official_name": "Akademia Sportowa w Warszawie - Niepubliczna Plac\u00f3wka Kszta\u0142cenia Ustawicznego",
                "name": "Akademia Sportowa w Warszawie - Niepubliczna Plac\u00f3wka Kszta\u0142cenia Ustawicznego",
                "addr:postcode": "01-348",
                "addr:city": "Warszawa",
                "addr:street": "Strzelc\u00f3w",
                "addr:housenumber": "1c",
                "addr:door": "3",
                "addr:city:simc": 988780,
                "addr:street:sym_ul": 21364,
                "phone": "+48 790320085",
                "email": "jaroslaw.kawecki@it-advance.pl",
                "ref:regon": "388950459",
                "operator": "It Advance Sp\u00f3\u0142ka Z Ograniczon\u0105 Odpowiedzialno\u015bci\u0105",
                "operator:type": "private",
                "fixme": "w zale\u017cno\u015bci od przedmiotu dzia\u0142alno\u015bci (np. amenity=training + training=*, amenity=dancing_school, amenity=language_school, amenity=music_school)"
            }
        },
        {
            "id": 269556,
            "type": "Feature",
            "geometry": {
                "type": "Point",
                "coordinates": [
                    20.916249,
                    52.2205851
                ]
            },
            "properties": {
                "ref:rspo": 269556,
                "official_name": "Przedszkole Publiczne Europejskie I",
                "name": "Przedszkole Publiczne Europejskie I",
                "addr:postcode": "01-381",
                "addr:city": "Warszawa",
                "addr:street": "Powsta\u0144c\u00f3w \u015al\u0105skich",
                "addr:housenumber": "3",
                "addr:door": "U0 2",
                "addr:city:simc": 988780,
                "addr:street:sym_ul": 17366,
                "phone": "+48 223002080",
                "email": "powstancow@przedszkole-europejskie.pl",
                "website": "http:\/\/www.przedszkole-europejskie.pl",
                "ref:regon": "381549392",
                "operator": "Publiczne Przedszkole Europejskie 1 Sp\u00f3\u0142ka Z Ograniczon\u0105 Odpowiedzialno\u015bci\u0105",
                "operator:type": "private",
                "amenity": "kindergarten"
            }
        },
        {
            "id": 274355,
            "type": "Feature",
            "geometry": {
                "type": "Point",
                "coordinates": [
                    20.89971,
                    52.22114
                ]
            },
            "properties": {
                "ref:rspo": 274355,
                "official_name": "Centrum Szkoleniowe Kraina Eduakcji",
                "name": "Centrum Szkoleniowe Kraina Eduakcji",
                "addr:postcode": "01-350",
                "addr:city": "Warszawa",
                "addr:street": "Sternicza",
                "addr:housenumber": "96",
                "addr:city:simc": 988780,
                "addr:street:sym_ul": 21150,
                "email": "centrumkrainaedukacji@gmail.com",
                "ref:regon": "385614910",
                "operator": "Karolina Szczerbakowska-Biniszewska",
                "operator:type": "private",
                "amenity": "training"
            }
        },
        {
            "id": 114104,
            "type": "Feature",
            "geometry": {
                "type": "Point",
                "coordinates": [
                    20.90908,
                    52.22158
                ]
            },
            "properties": {
                "ref:rspo": 114104,
                "official_name": "Niepubliczne Przedszkole \"Akacjowa Chatka\"",
                "name": "Niepubliczne Przedszkole \"Akacjowa Chatka\"",
                "addr:postcode": "01-350",
                "addr:city": "Warszawa",
                "addr:street": "Sternicza",
                "addr:housenumber": "97",
                "addr:city:simc": 988780,
                "addr:street:sym_ul": 21150,
                "phone": "+48 500521160",
                "email": "akacjowachatka@gmail.com",
                "website": "http:\/\/przedszkolebemowo.pl",
                "ref:regon": "146642840",
                "operator": "Akacjowa Chatka Sp\u00f3\u0142ka Z Ograniczon\u0105 Odpowiedzialno\u015bci\u0105",
                "operator:type": "private",
                "amenity": "kindergarten"
            }
        },
        {
            "id": 6364,
            "type": "Feature",
            "geometry": {
                "type": "Point",
                "coordinates": [
                    20.90175,
                    52.22228
                ]
            },
            "properties": {
                "ref:rspo": 6364,
                "official_name": "Przedszkole nr 75",
                "name": "Przedszkole nr 75",
                "addr:postcode": "01-310",
                "addr:city": "Warszawa",
                "addr:street": "Roz\u0142ogi",
                "addr:housenumber": "4a",
                "addr:city:simc": 988780,
                "addr:street:sym_ul": 18953,
                "phone": "+48 226642406",
                "email": "p75@edu.um.warszawa.pl",
                "website": "http:\/\/przedszkole-75.pl",
                "ref:regon": "013001067",
                "ref:vatin": "PL5222424312",
                "operator": "Urz\u0105d Dzielnicy Bemowo M.st.warszawy",
                "operator:type": "government",
                "amenity": "kindergarten"
            }
        },
        {
            "id": 16233,
            "type": "Feature",
            "geometry": {
                "type": "Point",
                "coordinates": [
                    20.9062899,
                    52.22308
                ]
            },
            "properties": {
                "isced:level": "1;2",
                "ref:rspo": 16233,
                "official_name": "Szko\u0142a Podstawowa nr 306 im. Ks. Jana Twardowskiego",
                "name": "Szko\u0142a Podstawowa nr 306",
                "addr:postcode": "01-346",
                "addr:city": "Warszawa",
                "addr:street": "Tkaczy",
                "addr:housenumber": "27",
                "addr:city:simc": 988780,
                "addr:street:sym_ul": 22798,
                "phone": "+48 226647313",
                "email": "sp306@edu.um.warszawa.pl",
                "website": "http:\/\/sp306.edu.pl",
                "ref:regon": "000849037",
                "ref:vatin": "PL5222448086",
                "operator": "Urz\u0105d Dzielnicy Bemowo M.st.warszawy",
                "operator:type": "government",
                "amenity": "school"
            }
        },
        {
            "id": 266720,
            "type": "Feature",
            "geometry": {
                "type": "Point",
                "coordinates": [
                    20.91656,
                    52.22335
                ]
            },
            "properties": {
                "ref:rspo": 266720,
                "official_name": "Europejska Akademia Refleksologii",
                "name": "Europejska Akademia Refleksologii",
                "addr:postcode": "01-381",
                "addr:city": "Warszawa",
                "addr:street": "Powsta\u0144c\u00f3w \u015al\u0105skich",
                "addr:housenumber": "5A",
                "addr:city:simc": 988780,
                "addr:street:sym_ul": 17366,
                "phone": "+48 228190932",
                "email": "biuro@refleksoterapia.pl",
                "ref:regon": "369667913",
                "operator": "Dariusz Ruder",
                "operator:type": "private",
                "fixme": "w zale\u017cno\u015bci od przedmiotu dzia\u0142alno\u015bci (np. amenity=training + training=*, amenity=dancing_school, amenity=language_school, amenity=music_school)"
            }
        },
        {
            "id": 134006,
            "type": "Feature",
            "geometry": {
                "type": "Point",
                "coordinates": [
                    20.90124,
                    52.22346
                ]
            },
            "properties": {
                "isced:level": "1;2",
                "ref:rspo": 134006,
                "official_name": "Szko\u0142a Podstawowa nr 363 im. Prof. Witolda Doroszewskiego",
                "name": "Szko\u0142a Podstawowa nr 363",
                "addr:postcode": "01-310",
                "addr:city": "Warszawa",
                "addr:street": "Roz\u0142ogi",
                "addr:housenumber": "10",
                "addr:city:simc": 988780,
                "addr:street:sym_ul": 18953,
                "phone": "+48 226665346",
                "email": "sp363.sekretariat@edu.um.warszawa.pl",
                "website": "http:\/\/sp363.pl",
                "ref:regon": "367777201",
                "operator": "Urz\u0105d Dzielnicy Bemowo M.st.warszawy",
                "operator:type": "government",
                "amenity": "school"
            }
        },
        {
            "id": 266504,
            "type": "Feature",
            "geometry": {
                "type": "Point",
                "coordinates": [
                    20.90124,
                    52.22343
                ]
            },
            "properties": {
                "ref:rspo": 266504,
                "official_name": "O\u015brodek Szkole\u0144 Bhp - Alfa",
                "name": "O\u015brodek Szkole\u0144 Bhp - Alfa",
                "addr:postcode": "01-310",
                "addr:city": "Warszawa",
                "addr:street": "Roz\u0142ogi",
                "addr:housenumber": "10",
                "addr:city:simc": 988780,
                "addr:street:sym_ul": 18953,
                "phone": "+48 600899559",
                "email": "biuro@bhp-alfa.pl",
                "website": "http:\/\/www.bhp-alfa.pl",
                "ref:regon": "369531728",
                "operator": "Krzysztof Buchwald",
                "operator:type": "private",
                "fixme": "w zale\u017cno\u015bci od przedmiotu dzia\u0142alno\u015bci (np. amenity=training + training=*, amenity=dancing_school, amenity=language_school, amenity=music_school)"
            }
        },
        {
            "id": 22953,
            "type": "Feature",
            "geometry": {
                "type": "Point",
                "coordinates": [
                    20.9037599,
                    52.2235
                ]
            },
            "properties": {
                "ref:rspo": 22953,
                "official_name": "Przedszkole \"Ma\u0142y Europejczyk\"",
                "name": "Przedszkole \"Ma\u0142y Europejczyk\"",
                "addr:postcode": "01-309",
                "addr:city": "Warszawa",
                "addr:street": "Okr\u0119towa",
                "addr:housenumber": "57\/59",
                "addr:city:simc": 988780,
                "addr:street:sym_ul": 14902,
                "phone": "+48 226661084",
                "email": "marzena.adamiec@malyeuropejczyk.com.pl",
                "website": "http:\/\/www.malyeuropejczyk.com.pl",
                "ref:regon": "146328121",
                "operator": "Marzena Adamiec",
                "operator:type": "private",
                "amenity": "kindergarten"
            }
        },
        {
            "id": 81529,
            "type": "Feature",
            "geometry": {
                "type": "Point",
                "coordinates": [
                    20.90286,
                    52.22395
                ]
            },
            "properties": {
                "ref:rspo": 81529,
                "official_name": "Przedszkole nr 336",
                "name": "Przedszkole nr 336",
                "addr:postcode": "01-312",
                "addr:city": "Warszawa",
                "addr:street": "Siemiatycka",
                "addr:housenumber": "2",
                "addr:city:simc": 988780,
                "addr:street:sym_ul": 19808,
                "phone": "+48 226653616",
                "email": "dbogucka@edu.um.warszawa.pl",
                "website": "http:\/\/www.przedszkole336.pl\/",
                "ref:regon": "013001736",
                "ref:vatin": "PL5222411404",
                "operator": "Urz\u0105d Dzielnicy Bemowo M.st.warszawy",
                "operator:type": "government",
                "amenity": "kindergarten"
            }
        },
        {
            "id": 130088,
            "type": "Feature",
            "geometry": {
                "type": "Point",
                "coordinates": [
                    20.91589,
                    52.22473
                ]
            },
            "properties": {
                "ref:rspo": 130088,
                "official_name": "Przedszkole Publiczne \"Nasze Ananasy\"",
                "name": "Przedszkole Publiczne \"Nasze Ananasy\"",
                "addr:postcode": "01-381",
                "addr:city": "Warszawa",
                "addr:street": "Powsta\u0144c\u00f3w \u015al\u0105skich",
                "addr:housenumber": "9",
                "addr:city:simc": 988780,
                "addr:street:sym_ul": 17366,
                "phone": "+48 575195897",
                "email": "dyrektor@naszeananasy.pl",
                "website": "http:\/\/www.naszeananasy.pl",
                "ref:regon": "363455788",
                "operator": "Kj3 Edukacja Sp\u00f3\u0142ka Z Ograniczon\u0105 Odpowiedzialno\u015bci\u0105",
                "operator:type": "private",
                "amenity": "kindergarten"
            }
        },
        {
            "id": 6847,
            "type": "Feature",
            "geometry": {
                "type": "Point",
                "coordinates": [
                    20.9167099,
                    52.22562
                ]
            },
            "properties": {
                "ref:rspo": 6847,
                "official_name": "Przedszkole nr 319",
                "name": "Przedszkole nr 319",
                "addr:postcode": "01-381",
                "addr:city": "Warszawa",
                "addr:street": "Powsta\u0144c\u00f3w \u015al\u0105skich",
                "addr:housenumber": "14",
                "addr:city:simc": 988780,
                "addr:street:sym_ul": 17366,
                "phone": "+48 226642100",
                "email": "p319@edu.um.warszawa.pl",
                "website": "http:\/\/przedszkole319.edupage.org",
                "ref:regon": "013001713",
                "ref:vatin": "PL5222424281",
                "operator": "Urz\u0105d Dzielnicy Bemowo M.st.warszawy",
                "operator:type": "government",
                "amenity": "kindergarten"
            }
        },
        {
            "id": 15234,
            "type": "Feature",
            "geometry": {
                "type": "Point",
                "coordinates": [
                    20.91208,
                    52.22569
                ]
            },
            "properties": {
                "ref:rspo": 15234,
                "official_name": "Zesp\u00f3\u0142 Szkolno-Przedszkolny nr 2",
                "name": "Zesp\u00f3\u0142 Szkolno-Przedszkolny nr 2",
                "addr:postcode": "01-384",
                "addr:city": "Warszawa",
                "addr:street": "Brygadzist\u00f3w",
                "addr:housenumber": "18",
                "addr:city:simc": 988780,
                "addr:street:sym_ul": 2206,
                "phone": "+48 226649246",
                "email": "sekretariat@zsp2.pl",
                "website": "http:\/\/www.zsp2.edupage.org",
                "ref:regon": "012889151",
                "ref:vatin": "PL5222396805",
                "operator": "Urz\u0105d Dzielnicy Bemowo M.st.warszawy",
                "operator:type": "government",
                "landuse": "education",
                "fixme": "amenity=school, amenity=college albo landuse=education w zale\u017cno\u015bci od tego, jakie plac\u00f3wki wchodz\u0105 w sk\u0142ad zespo\u0142u. Sprawd\u017a, kiedy stosowa\u0107 amenity=* a kiedy landuse=education.",
                "note": "Children RSPO: 42397;63416"
            }
        },
        {
            "id": 42397,
            "type": "Feature",
            "geometry": {
                "type": "Point",
                "coordinates": [
                    20.91208,
                    52.22566
                ]
            },
            "properties": {
                "ref:rspo": 42397,
                "official_name": "Przedszkole z Oddzia\u0142ami Integracyjnymi nr 345",
                "name": "Przedszkole z Oddzia\u0142ami Integracyjnymi nr 345",
                "addr:postcode": "01-384",
                "addr:city": "Warszawa",
                "addr:street": "Brygadzist\u00f3w",
                "addr:housenumber": "18",
                "addr:city:simc": 988780,
                "addr:street:sym_ul": 2206,
                "phone": "+48 226649246",
                "email": "sekretariat@zsp2.pl",
                "website": "http:\/\/www.zsp2.edupage.org",
                "ref:regon": "015852600",
                "ref:vatin": "PL5222396805",
                "operator": "Urz\u0105d Dzielnicy Bemowo M.st.warszawy",
                "operator:type": "government",
                "amenity": "kindergarten",
                "note": "Parent RSPO: 15234"
            }
        },
        {
            "id": 63416,
            "type": "Feature",
            "geometry": {
                "type": "Point",
                "coordinates": [
                    20.91208,
                    52.22563
                ]
            },
            "properties": {
                "isced:level": "1;2",
                "ref:rspo": 63416,
                "official_name": "Szko\u0142a Podstawowa z Oddzia\u0142ami Integracyjnymi nr 301 im. Janusza Korczaka",
                "name": "Szko\u0142a Podstawowa z Oddzia\u0142ami Integracyjnymi nr 301",
                "addr:postcode": "01-384",
                "addr:city": "Warszawa",
                "addr:street": "Brygadzist\u00f3w",
                "addr:housenumber": "18",
                "addr:city:simc": 988780,
                "addr:street:sym_ul": 2206,
                "phone": "+48 226649246",
                "email": "sekretariat@zsp2.pl",
                "website": "http:\/\/www.zsp2.edupage.org",
                "ref:regon": "015852591",
                "ref:vatin": "PL5222396805",
                "operator": "Urz\u0105d Dzielnicy Bemowo M.st.warszawy",
                "operator:type": "government",
                "amenity": "school",
                "note": "Parent RSPO: 15234"
            }
        },
        {
            "id": 6860,
            "type": "Feature",
            "geometry": {
                "type": "Point",
                "coordinates": [
                    20.91041,
                    52.22577
                ]
            },
            "properties": {
                "ref:rspo": 6860,
                "official_name": "Przedszkole nr 320",
                "name": "Przedszkole nr 320",
                "addr:postcode": "01-384",
                "addr:city": "Warszawa",
                "addr:street": "Coko\u0142owa",
                "addr:housenumber": "2",
                "addr:city:simc": 988780,
                "addr:street:sym_ul": 3118,
                "phone": "+48 226646173",
                "email": "p320@edu.um.warszawa.pl",
                "website": "http:\/\/przedszkole320.pl",
                "ref:regon": "013001720",
                "ref:vatin": "PL5222411350",
                "operator": "Urz\u0105d Dzielnicy Bemowo M.st.warszawy",
                "operator:type": "government",
                "amenity": "kindergarten"
            }
        },
        {
            "id": 6899,
            "type": "Feature",
            "geometry": {
                "type": "Point",
                "coordinates": [
                    20.90735,
                    52.22629
                ]
            },
            "properties": {
                "ref:rspo": 6899,
                "official_name": "Przedszkole nr 337",
                "name": "Przedszkole nr 337",
                "addr:postcode": "01-386",
                "addr:city": "Warszawa",
                "addr:street": "Re\u017cyserska",
                "addr:housenumber": "19",
                "addr:city:simc": 988780,
                "addr:street:sym_ul": 18660,
                "phone": "+48 226643927",
                "email": "p337@edu.um.warszawa.pl",
                "website": "http:\/\/www.przedszkole337.pl",
                "ref:regon": "013001742",
                "ref:vatin": "PL5222424275",
                "operator": "Urz\u0105d Dzielnicy Bemowo M.st.warszawy",
                "operator:type": "government",
                "amenity": "kindergarten"
            }
        },
        {
            "id": 16033,
            "type": "Feature",
            "geometry": {
                "type": "Point",
                "coordinates": [
                    20.91525,
                    52.22656
                ]
            },
            "properties": {
                "ref:rspo": 16033,
                "official_name": "Poradnia Psychologiczno-Pedagogiczna nr 20",
                "name": "Poradnia Psychologiczno-Pedagogiczna nr 20",
                "addr:postcode": "01-381",
                "addr:city": "Warszawa",
                "addr:street": "Powsta\u0144c\u00f3w \u015al\u0105skich",
                "addr:housenumber": "17",
                "addr:city:simc": 988780,
                "addr:street:sym_ul": 17366,
                "phone": "+48 226661774",
                "email": "ppp20@edu.um.warszawa.pl",
                "website": "http:\/\/ppp20.pl",
                "ref:regon": "012827026",
                "ref:vatin": "PL5222499586",
                "operator": "Urz\u0105d Dzielnicy Bemowo M.st.warszawy",
                "operator:type": "government",
                "healthcare": "counselling",
                "counselling_type": "education",
                "fixme": "w zale\u017cno\u015bci od przedmiotu dzia\u0142alno\u015bci (np. healthcare=counselling + counselling_type=education albo healthcare=psychotherapist)"
            }
        },
        {
            "id": 275576,
            "type": "Feature",
            "geometry": {
                "type": "Point",
                "coordinates": [
                    20.8858047,
                    52.2271374
                ]
            },
            "properties": {
                "ref:rspo": 275576,
                "official_name": "Przedszkole Publiczne Edulica 2",
                "name": "Przedszkole Publiczne Edulica 2",
                "addr:postcode": "01-320",
                "addr:city": "Warszawa",
                "addr:street": "Szeligowska",
                "addr:housenumber": "53",
                "addr:door": "lu1",
                "addr:city:simc": 988780,
                "addr:street:sym_ul": 21902,
                "phone": "+48 795011033",
                "email": "szeligowska@edulica.pl",
                "ref:regon": "386925552",
                "operator": "Edulica 2 Sp\u00f3\u0142ka Z Ograniczon\u0105 Odpowiedzialno\u015bci\u0105",
                "operator:type": "private",
                "amenity": "kindergarten"
            }
        },
        {
            "id": 53028,
            "type": "Feature",
            "geometry": {
                "type": "Point",
                "coordinates": [
                    20.8960336,
                    52.2286274
                ]
            },
            "properties": {
                "isced:level": "1;2",
                "ref:rspo": 53028,
                "official_name": "Niepubliczna Szko\u0142a Podstawowa Gaudeamus",
                "name": "Niepubliczna Szko\u0142a Podstawowa Gaudeamus",
                "addr:postcode": "01-314",
                "addr:city": "Warszawa",
                "addr:street": "Lazurowa",
                "addr:housenumber": "67",
                "addr:city:simc": 988780,
                "addr:street:sym_ul": 10726,
                "phone": "+48 733363303",
                "email": "bemowo@szkola-gaudeamus.pl",
                "website": "http:\/\/www.pomaranczowa-ciuchcia.pl",
                "ref:regon": "146373742",
                "operator": "Przedszkola Pomara\u0144czowa Ciuchcia Sp\u00f3\u0142ka Z Ograniczon\u0105 Odpowiedzialno\u015bci\u0105",
                "operator:type": "private",
                "amenity": "school"
            }
        },
        {
            "id": 75020,
            "type": "Feature",
            "geometry": {
                "type": "Point",
                "coordinates": [
                    20.8960336,
                    52.2285974
                ]
            },
            "properties": {
                "ref:rspo": 75020,
                "official_name": "Przedszkola Pomara\u0144czowa Ciuchcia Sp\u00f3\u0142ka z O.o. Sp\u00f3\u0142ka Komandytowa",
                "name": "Przedszkola Pomara\u0144czowa Ciuchcia Sp\u00f3\u0142ka z O.o. Sp\u00f3\u0142ka Komandytowa",
                "addr:postcode": "01-314",
                "addr:city": "Warszawa",
                "addr:street": "Lazurowa",
                "addr:housenumber": "67",
                "addr:city:simc": 988780,
                "addr:street:sym_ul": 10726,
                "phone": "+48 226669468",
                "email": "bemowo@pomaranczowa-ciuchcia.pl",
                "ref:regon": "146401250",
                "operator": "Przedszkola Pomara\u0144czowa Ciuchcia Sp\u00f3\u0142ka Z Ograniczon\u0105 Odpowiedzialno\u015bci\u0105",
                "operator:type": "private",
                "amenity": "kindergarten"
            }
        },
        {
            "id": 43385,
            "type": "Feature",
            "geometry": {
                "type": "Point",
                "coordinates": [
                    20.91642,
                    52.22872
                ]
            },
            "properties": {
                "isced:level": "3",
                "ref:rspo": 43385,
                "official_name": "Lxxviii Liceum Og\u00f3lnokszta\u0142c\u0105ce im. Marii Pawlikowskiej-Jasnorzewskiej",
                "name": "Lxxviii Liceum Og\u00f3lnokszta\u0142c\u0105ce",
                "addr:postcode": "01-391",
                "addr:city": "Warszawa",
                "addr:street": "Anieli Krzywo\u0144",
                "addr:housenumber": "3",
                "addr:city:simc": 988780,
                "addr:street:sym_ul": 10174,
                "phone": "+48 226644049",
                "email": "sekretariat@pawlikowska.edu.pl",
                "website": "http:\/\/www.pawlikowska.edu.pl",
                "ref:regon": "015289776",
                "ref:vatin": "PL5221986841",
                "operator": "Urz\u0105d Dzielnicy Bemowo M.st.warszawy",
                "operator:type": "government",
                "amenity": "school"
            }
        },
        {
            "id": 263301,
            "type": "Feature",
            "geometry": {
                "type": "Point",
                "coordinates": [
                    20.89047,
                    52.22947
                ]
            },
            "properties": {
                "ref:rspo": 263301,
                "official_name": "Terapeutyczny Punkt Przedszkolny Little Blue",
                "name": "Terapeutyczny Punkt Przedszkolny Little Blue",
                "addr:postcode": "01-307",
                "addr:city": "Warszawa",
                "addr:street": "gen. Ludomi\u0142a Rayskiego",
                "addr:housenumber": "9",
                "addr:door": "u4-u5",
                "addr:city:simc": 988780,
                "addr:street:sym_ul": 18499,
                "phone": "+48 797243722",
                "email": "przedszkolelittleblue.bemowo@gmail.com",
                "ref:regon": "368179761",
                "operator": "Katarzyna Wiesio\u0142ek",
                "operator:type": "private",
                "amenity": "kindergarten"
            }
        },
        {
            "id": 59641,
            "type": "Feature",
            "geometry": {
                "type": "Point",
                "coordinates": [
                    20.90359,
                    52.23072
                ]
            },
            "properties": {
                "isced:level": "1;2",
                "ref:rspo": 59641,
                "official_name": "Szko\u0142a Podstawowa nr 350 im. Armii Krajowej",
                "name": "Szko\u0142a Podstawowa nr 350",
                "addr:postcode": "01-317",
                "addr:city": "Warszawa",
                "addr:street": "Karola Irzykowskiego",
                "addr:housenumber": "1a",
                "addr:city:simc": 988780,
                "addr:street:sym_ul": 6935,
                "phone": "+48 226646193",
                "email": "sp350@edu.um.warszawa.pl",
                "website": "http:\/\/sp350.edupage.org",
                "ref:regon": "142803520",
                "ref:vatin": "PL5222427730",
                "operator": "Urz\u0105d Dzielnicy Bemowo M.st.warszawy",
                "operator:type": "government",
                "amenity": "school"
            }
        },
        {
            "id": 12598,
            "type": "Feature",
            "geometry": {
                "type": "Point",
                "coordinates": [
                    20.90446,
                    52.23091
                ]
            },
            "properties": {
                "ref:rspo": 12598,
                "official_name": "Przedszkole nr 205",
                "name": "Przedszkole nr 205",
                "addr:postcode": "01-317",
                "addr:city": "Warszawa",
                "addr:street": "Karola Irzykowskiego",
                "addr:housenumber": "1",
                "addr:city:simc": 988780,
                "addr:street:sym_ul": 6935,
                "phone": "+48 226651676",
                "email": "p205@edu.um.warszawa.pl",
                "website": "http:\/\/p205waw.szkolnastrona.pl",
                "ref:regon": "013001334",
                "ref:vatin": "PL5222424298",
                "operator": "Urz\u0105d Dzielnicy Bemowo M.st.warszawy",
                "operator:type": "government",
                "amenity": "kindergarten"
            }
        },
        {
            "id": 127076,
            "type": "Feature",
            "geometry": {
                "type": "Point",
                "coordinates": [
                    20.88934,
                    52.23176
                ]
            },
            "properties": {
                "ref:rspo": 127076,
                "official_name": "Przedszkole Niepubliczne Dzwoneczek",
                "name": "Przedszkole Niepubliczne Dzwoneczek",
                "addr:postcode": "01-307",
                "addr:city": "Warszawa",
                "addr:street": "Batalion\u00f3w Ch\u0142opskich",
                "addr:housenumber": "87",
                "addr:door": "87",
                "addr:city:simc": 988780,
                "addr:street:sym_ul": 868,
                "phone": "+48 504535311",
                "email": "kontakt@dzwoneczek.edu.pl",
                "ref:regon": "361085070",
                "operator": "Aleksandra Go\u0142\u0119biowska",
                "operator:type": "private",
                "amenity": "kindergarten"
            }
        },
        {
            "id": 262622,
            "type": "Feature",
            "geometry": {
                "type": "Point",
                "coordinates": [
                    20.88934,
                    52.23173
                ]
            },
            "properties": {
                "ref:rspo": 262622,
                "official_name": "Niepubliczna Poradnia Psychologiczno-Pedagogiczna \"Niebieska Spr\u0119\u017cynka\"",
                "name": "Niepubliczna Poradnia Psychologiczno-Pedagogiczna \"Niebieska Spr\u0119\u017cynka\"",
                "addr:postcode": "01-307",
                "addr:city": "Warszawa",
                "addr:street": "Batalion\u00f3w Ch\u0142opskich",
                "addr:housenumber": "87",
                "addr:door": "u8",
                "addr:city:simc": 988780,
                "addr:street:sym_ul": 868,
                "phone": "+48 224047227",
                "email": "kontakt@niebieskasprezynka.pl",
                "ref:regon": "368041896",
                "operator": "Katarzyna Wiesio\u0142ek",
                "operator:type": "private",
                "healthcare": "counselling",
                "counselling_type": "education",
                "fixme": "w zale\u017cno\u015bci od przedmiotu dzia\u0142alno\u015bci (np. healthcare=counselling + counselling_type=education albo healthcare=psychotherapist)"
            }
        },
        {
            "id": 6374,
            "type": "Feature",
            "geometry": {
                "type": "Point",
                "coordinates": [
                    20.9094,
                    52.23196
                ]
            },
            "properties": {
                "ref:rspo": 6374,
                "official_name": "Przedszkole nr 98",
                "name": "Przedszkole nr 98",
                "addr:postcode": "01-361",
                "addr:city": "Warszawa",
                "addr:street": "Legendy",
                "addr:housenumber": "12",
                "addr:city:simc": 988780,
                "addr:street:sym_ul": 10760,
                "phone": "+48 226657241",
                "email": "p98@edu.um.warszawa.pl",
                "website": "http:\/\/www.p98waw.szkolnastrona.pl",
                "ref:regon": "013001104",
                "ref:vatin": "PL5222424329",
                "operator": "Urz\u0105d Dzielnicy Bemowo M.st.warszawy",
                "operator:type": "government",
                "amenity": "kindergarten"
            }
        },
        {
            "id": 109086,
            "type": "Feature",
            "geometry": {
                "type": "Point",
                "coordinates": [
                    20.92221,
                    52.23218
                ]
            },
            "properties": {
                "ref:rspo": 109086,
                "official_name": "Przedszkole Niepubliczne Norlandia",
                "name": "Przedszkole Niepubliczne Norlandia",
                "addr:postcode": "01-367",
                "addr:city": "Warszawa",
                "addr:street": "Str\u0105kowa",
                "addr:housenumber": "26",
                "addr:city:simc": 988780,
                "addr:street:sym_ul": 21281,
                "phone": "+48 606219304",
                "email": "sekretariat@norlandia.pl",
                "ref:regon": "146520108",
                "operator": "Norlandia Polska Sp\u00f3\u0142ka Z Ograniczon\u0105 Odpowiedzialno\u015bci\u0105",
                "operator:type": "private",
                "amenity": "kindergarten"
            }
        },
        {
            "id": 83574,
            "type": "Feature",
            "geometry": {
                "type": "Point",
                "coordinates": [
                    20.89088,
                    52.23225
                ]
            },
            "properties": {
                "ref:rspo": 83574,
                "official_name": "Przedszkole Niepubliczne \"Weso\u0142y Mi\u015b\"",
                "name": "Przedszkole Niepubliczne \"Weso\u0142y Mi\u015b\"",
                "addr:postcode": "01-309",
                "addr:city": "Warszawa",
                "addr:street": "Batalion\u00f3w Ch\u0142opskich",
                "addr:housenumber": "84a",
                "addr:city:simc": 988780,
                "addr:street:sym_ul": 868,
                "phone": "+48 226660045",
                "ref:regon": "146428638",
                "operator": "Magdalena Rosa",
                "operator:type": "private",
                "amenity": "kindergarten"
            }
        },
        {
            "id": 276208,
            "type": "Feature",
            "geometry": {
                "type": "Point",
                "coordinates": [
                    20.89088,
                    52.23222
                ]
            },
            "properties": {
                "ref:rspo": 276208,
                "official_name": "Publiczne Przedszkole \"Weso\u0142y Mi\u015b\"",
                "name": "Publiczne Przedszkole \"Weso\u0142y Mi\u015b\"",
                "addr:postcode": "01-309",
                "addr:city": "Warszawa",
                "addr:street": "Batalion\u00f3w Ch\u0142opskich",
                "addr:housenumber": "84a",
                "addr:city:simc": 988780,
                "addr:street:sym_ul": 868,
                "phone": "+48 505058716",
                "email": "wesolymis@wesolymis.pl",
                "ref:regon": "387030343",
                "operator": "Magdalena Rosa",
                "operator:type": "private",
                "amenity": "kindergarten"
            }
        },
        {
            "id": 131739,
            "type": "Feature",
            "geometry": {
                "type": "Point",
                "coordinates": [
                    20.91979,
                    52.23281
                ]
            },
            "properties": {
                "ref:rspo": 131739,
                "official_name": "Niepubliczne Przedszkole \"Nasz Domek\"",
                "name": "Niepubliczne Przedszkole \"Nasz Domek\"",
                "addr:postcode": "01-366",
                "addr:city": "Warszawa",
                "addr:street": "O\u015bwiatowa",
                "addr:housenumber": "29",
                "addr:city:simc": 988780,
                "addr:street:sym_ul": 15436,
                "phone": "+48 882770720",
                "email": "kontakt@przedszkolenaszdomek.pl",
                "ref:regon": "365340517",
                "operator": "Sylwester Falkowski",
                "operator:type": "private",
                "amenity": "kindergarten"
            }
        },
        {
            "id": 7347,
            "type": "Feature",
            "geometry": {
                "type": "Point",
                "coordinates": [
                    20.89988,
                    52.2334
                ]
            },
            "properties": {
                "ref:rspo": 7347,
                "official_name": "Przedszkole nr 215",
                "name": "Przedszkole nr 215",
                "addr:postcode": "01-318",
                "addr:city": "Warszawa",
                "addr:street": "Eugeniusza Szwankowskiego",
                "addr:housenumber": "3",
                "addr:city:simc": 988780,
                "addr:street:sym_ul": 22174,
                "phone": "+48 226641601",
                "email": "p215@edu.um.warszawa.pl",
                "website": "https:\/\/przedszkole215.waw.pl",
                "ref:regon": "013000790",
                "ref:vatin": "PL5222424393",
                "operator": "Urz\u0105d Dzielnicy Bemowo M.st.warszawy",
                "operator:type": "government",
                "amenity": "kindergarten"
            }
        },
        {
            "id": 118553,
            "type": "Feature",
            "geometry": {
                "type": "Point",
                "coordinates": [
                    20.89988,
                    52.23337
                ]
            },
            "properties": {
                "ref:rspo": 118553,
                "official_name": "Zesp\u00f3\u0142 Szkolno-Przedszkolny nr 7 w Warszawie",
                "name": "Zesp\u00f3\u0142 Szkolno-Przedszkolny nr 7 w Warszawie",
                "addr:postcode": "01-493",
                "addr:city": "Warszawa",
                "addr:street": "pp\u0142k. Wac\u0142awa Szadkowskiego",
                "addr:housenumber": "3",
                "addr:city:simc": 988780,
                "addr:street:sym_ul": 44365,
                "phone": "+48 228363978",
                "email": "sekretariat@zsp7.warszawa.pl",
                "website": "http:\/\/zsp7.warszawa.pl",
                "ref:regon": "146807382",
                "ref:vatin": "PL5223008395",
                "operator": "Urz\u0105d Dzielnicy Bemowo M.st.warszawy",
                "operator:type": "government",
                "landuse": "education",
                "fixme": "amenity=school, amenity=college albo landuse=education w zale\u017cno\u015bci od tego, jakie plac\u00f3wki wchodz\u0105 w sk\u0142ad zespo\u0142u. Sprawd\u017a, kiedy stosowa\u0107 amenity=* a kiedy landuse=education.",
                "note": "Children RSPO: 7261;16905"
            }
        },
        {
            "id": 7261,
            "type": "Feature",
            "geometry": {
                "type": "Point",
                "coordinates": [
                    20.89988,
                    52.233340000000005
                ]
            },
            "properties": {
                "ref:rspo": 7261,
                "official_name": "Przedszkole nr 389",
                "name": "Przedszkole nr 389",
                "addr:postcode": "01-493",
                "addr:city": "Warszawa",
                "addr:street": "pp\u0142k. Wac\u0142awa Szadkowskiego",
                "addr:housenumber": "3",
                "addr:city:simc": 988780,
                "addr:street:sym_ul": 44365,
                "phone": "+48 228378251",
                "email": "p389@edu.um.warszawa.pl",
                "website": "http:\/\/przedszkole389.zsp7.warszawa.pl",
                "ref:regon": "013001802",
                "ref:vatin": "PL5222424335",
                "operator": "Urz\u0105d Dzielnicy Bemowo M.st.warszawy",
                "operator:type": "government",
                "amenity": "kindergarten",
                "note": "Parent RSPO: 118553"
            }
        },
        {
            "id": 16905,
            "type": "Feature",
            "geometry": {
                "type": "Point",
                "coordinates": [
                    20.89988,
                    52.23331
                ]
            },
            "properties": {
                "isced:level": "1;2",
                "ref:rspo": 16905,
                "official_name": "Szko\u0142a Podstawowa nr 321",
                "name": "Szko\u0142a Podstawowa nr 321",
                "addr:postcode": "01-493",
                "addr:city": "Warszawa",
                "addr:street": "pp\u0142k. Wac\u0142awa Szadkowskiego",
                "addr:housenumber": "3",
                "addr:city:simc": 988780,
                "addr:street:sym_ul": 44365,
                "phone": "+48 228363978",
                "email": "sekretariat@zsp7.warszawa.pl",
                "website": "http:\/\/zsp7.warszawa.pl",
                "ref:regon": "001095445",
                "ref:vatin": "PL5222412102",
                "operator": "Urz\u0105d Dzielnicy Bemowo M.st.warszawy",
                "operator:type": "government",
                "amenity": "school",
                "note": "Parent RSPO: 118553"
            }
        },
        {
            "id": 121719,
            "type": "Feature",
            "geometry": {
                "type": "Point",
                "coordinates": [
                    20.91081,
                    52.23409
                ]
            },
            "properties": {
                "ref:rspo": 121719,
                "official_name": "Zesp\u00f3\u0142 Szk\u00f3\u0142 Spo\u0142ecznego Towarzystwa O\u015bwiatowego",
                "name": "Zesp\u00f3\u0142 Szk\u00f3\u0142 Spo\u0142ecznego Towarzystwa O\u015bwiatowego",
                "addr:postcode": "01-355",
                "addr:city": "Warszawa",
                "addr:street": "Powsta\u0144c\u00f3w \u015al\u0105skich",
                "addr:housenumber": "67a",
                "addr:city:simc": 988780,
                "addr:street:sym_ul": 17366,
                "phone": "+48 226659242",
                "email": "sekretariat@stonabemowie.edu.pl",
                "website": "http:\/\/www.stonabemowie.edu.pl",
                "ref:regon": "147081852",
                "operator": "Samodzielne Ko\u0142o Terenowe Nr 69 Spo\u0142ecznego Towarzystwa O\u015bwiatowego",
                "operator:type": "ngo",
                "landuse": "education",
                "fixme": "amenity=school, amenity=college albo landuse=education w zale\u017cno\u015bci od tego, jakie plac\u00f3wki wchodz\u0105 w sk\u0142ad zespo\u0142u. Sprawd\u017a, kiedy stosowa\u0107 amenity=* a kiedy landuse=education.",
                "note": "Children RSPO: 25035;270506"
            }
        },
        {
            "id": 25035,
            "type": "Feature",
            "geometry": {
                "type": "Point",
                "coordinates": [
                    20.91081,
                    52.23406
                ]
            },
            "properties": {
                "isced:level": "1;2",
                "ref:rspo": 25035,
                "official_name": "Szko\u0142a Podstawowa nr 24 Spo\u0142ecznego Towarzystwa O\u015bwiatowego",
                "name": "Szko\u0142a Podstawowa nr 24 Spo\u0142ecznego Towarzystwa O\u015bwiatowego",
                "addr:postcode": "01-355",
                "addr:city": "Warszawa",
                "addr:street": "Powsta\u0144c\u00f3w \u015al\u0105skich",
                "addr:housenumber": "67a",
                "addr:city:simc": 988780,
                "addr:street:sym_ul": 17366,
                "phone": "+48 226659242",
                "email": "sekretariat@sp24sto.edu.pl",
                "website": "http:\/\/www.stonabemowie.edu.pl",
                "ref:regon": "146337522",
                "operator": "Samodzielne Ko\u0142o Terenowe Nr 69 Spo\u0142ecznego Towarzystwa O\u015bwiatowego",
                "operator:type": "ngo",
                "amenity": "school",
                "note": "Parent RSPO: 121719"
            }
        },
        {
            "id": 270506,
            "type": "Feature",
            "geometry": {
                "type": "Point",
                "coordinates": [
                    20.91081,
                    52.234030000000004
                ]
            },
            "properties": {
                "isced:level": "3",
                "ref:rspo": 270506,
                "official_name": "Spo\u0142eczne Liceum Og\u00f3lnokszta\u0142c\u0105ce nr 99 Spo\u0142ecznego Towarzystwa O\u015bwiatowego w Warszawie",
                "name": "Spo\u0142eczne Liceum Og\u00f3lnokszta\u0142c\u0105ce nr 99 Spo\u0142ecznego Towarzystwa O\u015bwiatowego w Warszawie",
                "addr:postcode": "01-355",
                "addr:city": "Warszawa",
                "addr:street": "Powsta\u0144c\u00f3w \u015al\u0105skich",
                "addr:housenumber": "67a",
                "addr:city:simc": 988780,
                "addr:street:sym_ul": 17366,
                "phone": "+48 226659242",
                "email": "sekretariat@sp24sto.edu.pl",
                "website": "http:\/\/stonabemowie.edu.pl",
                "ref:regon": "382672870",
                "operator": "Samodzielne Ko\u0142o Terenowe Nr 69 Spo\u0142ecznego Towarzystwa O\u015bwiatowego",
                "operator:type": "ngo",
                "amenity": "school",
                "note": "Parent RSPO: 121719"
            }
        },
        {
            "id": 7321,
            "type": "Feature",
            "geometry": {
                "type": "Point",
                "coordinates": [
                    20.91248,
                    52.23411
                ]
            },
            "properties": {
                "ref:rspo": 7321,
                "official_name": "Przedszkole nr 417",
                "name": "Przedszkole nr 417",
                "addr:postcode": "01-357",
                "addr:city": "Warszawa",
                "addr:street": "Muszlowa",
                "addr:housenumber": "17",
                "addr:city:simc": 988780,
                "addr:street:sym_ul": 13514,
                "phone": "+48 226646006",
                "email": "p417@edu.um.warszawa.pl",
                "website": "http:\/\/www.przedszkole417.waw.pl",
                "ref:regon": "142707962",
                "ref:vatin": "PL5222969402",
                "operator": "Urz\u0105d Dzielnicy Bemowo M.st.warszawy",
                "operator:type": "government",
                "amenity": "kindergarten"
            }
        },
        {
            "id": 83166,
            "type": "Feature",
            "geometry": {
                "type": "Point",
                "coordinates": [
                    20.91417,
                    52.2349
                ]
            },
            "properties": {
                "ref:rspo": 83166,
                "official_name": "Przedszkole Niepubliczne \"Mi\u015b Optymi\u015b\"",
                "name": "Przedszkole Niepubliczne \"Mi\u015b Optymi\u015b\"",
                "addr:postcode": "01-355",
                "addr:city": "Warszawa",
                "addr:street": "Powsta\u0144c\u00f3w \u015al\u0105skich",
                "addr:housenumber": "67B",
                "addr:city:simc": 988780,
                "addr:street:sym_ul": 17366,
                "phone": "+48 606615898",
                "email": "przedszkole@misoptymis.pl",
                "website": "http:\/\/www.misoptymis.pl",
                "ref:regon": "146439197",
                "operator": "Joanna Prejs",
                "operator:type": "private",
                "amenity": "kindergarten"
            }
        },
        {
            "id": 276382,
            "type": "Feature",
            "geometry": {
                "type": "Point",
                "coordinates": [
                    20.8962434,
                    52.2352242
                ]
            },
            "properties": {
                "ref:rspo": 276382,
                "official_name": "Niepubliczne Sportowo-J\u0119zykowe Przedszkole Fair Play",
                "name": "Niepubliczne Sportowo-J\u0119zykowe Przedszkole Fair Play",
                "addr:postcode": "01-479",
                "addr:city": "Warszawa",
                "addr:street": "Lazurowa",
                "addr:housenumber": "89",
                "addr:door": "u5",
                "addr:city:simc": 988780,
                "addr:street:sym_ul": 10726,
                "phone": "+48 511615608",
                "email": "biuro@przedszkolefairplay.info.pl",
                "ref:regon": "387114494",
                "operator": "Agnieszka Sieroci\u0144ska",
                "operator:type": "private",
                "amenity": "kindergarten"
            }
        },
        {
            "id": 118554,
            "type": "Feature",
            "geometry": {
                "type": "Point",
                "coordinates": [
                    20.90102,
                    52.2361
                ]
            },
            "properties": {
                "ref:rspo": 118554,
                "official_name": "Zesp\u00f3\u0142 Szkolno-Przedszkolny nr 6 w Warszawie",
                "name": "Zesp\u00f3\u0142 Szkolno-Przedszkolny nr 6 w Warszawie",
                "addr:postcode": "01-318",
                "addr:city": "Warszawa",
                "addr:street": "Stanis\u0142awa Szobera",
                "addr:housenumber": "1\/3",
                "addr:city:simc": 988780,
                "addr:street:sym_ul": 22012,
                "phone": "+48 226657275",
                "email": "sp316@edu.um.warszawa.pl",
                "website": "http:\/\/zsp6waw.szkolnastrona.pl\/",
                "ref:regon": "146807413",
                "ref:vatin": "PL5223008389",
                "operator": "Urz\u0105d Dzielnicy Bemowo M.st.warszawy",
                "operator:type": "government",
                "landuse": "education",
                "fixme": "amenity=school, amenity=college albo landuse=education w zale\u017cno\u015bci od tego, jakie plac\u00f3wki wchodz\u0105 w sk\u0142ad zespo\u0142u. Sprawd\u017a, kiedy stosowa\u0107 amenity=* a kiedy landuse=education.",
                "note": "Children RSPO: 7253;16899"
            }
        },
        {
            "id": 7253,
            "type": "Feature",
            "geometry": {
                "type": "Point",
                "coordinates": [
                    20.90102,
                    52.23607
                ]
            },
            "properties": {
                "ref:rspo": 7253,
                "official_name": "Przedszkole nr 381",
                "name": "Przedszkole nr 381",
                "addr:postcode": "01-318",
                "addr:city": "Warszawa",
                "addr:street": "Stanis\u0142awa Szobera",
                "addr:housenumber": "1\/3",
                "addr:city:simc": 988780,
                "addr:street:sym_ul": 22012,
                "phone": "+48 226646207",
                "email": "p381@edu.um.warszawa.pl",
                "website": "http:\/\/www.zsp6.edupage.org",
                "ref:regon": "013001794",
                "ref:vatin": "PL5222424418",
                "operator": "Urz\u0105d Dzielnicy Bemowo M.st.warszawy",
                "operator:type": "government",
                "amenity": "kindergarten",
                "note": "Parent RSPO: 118554"
            }
        },
        {
            "id": 16899,
            "type": "Feature",
            "geometry": {
                "type": "Point",
                "coordinates": [
                    20.90102,
                    52.23604
                ]
            },
            "properties": {
                "isced:level": "1;2",
                "ref:rspo": 16899,
                "official_name": "Szko\u0142a Podstawowa nr 316 im. Astrid Lindgren",
                "name": "Szko\u0142a Podstawowa nr 316",
                "addr:postcode": "01-318",
                "addr:city": "Warszawa",
                "addr:street": "Stanis\u0142awa Szobera",
                "addr:housenumber": "1\/3",
                "addr:city:simc": 988780,
                "addr:street:sym_ul": 22012,
                "phone": "+48 226646207",
                "email": "sp316@edu.um.warszawa.pl",
                "website": "http:\/\/www.zsp6.edupage.org",
                "ref:regon": "001061009",
                "ref:vatin": "PL5222405177",
                "operator": "Urz\u0105d Dzielnicy Bemowo M.st.warszawy",
                "operator:type": "government",
                "amenity": "school",
                "note": "Parent RSPO: 118554"
            }
        },
        {
            "id": 121303,
            "type": "Feature",
            "geometry": {
                "type": "Point",
                "coordinates": [
                    20.89993,
                    52.23995
                ]
            },
            "properties": {
                "ref:rspo": 121303,
                "official_name": "Terapeutyczny Punkt Przedszkolny Kleks",
                "name": "Terapeutyczny Punkt Przedszkolny Kleks",
                "addr:postcode": "01-460",
                "addr:city": "Warszawa",
                "addr:street": "G\u00f3rczewska",
                "addr:housenumber": "228",
                "addr:door": "83",
                "addr:city:simc": 988780,
                "addr:street:sym_ul": 5925,
                "phone": "+48 223741386",
                "email": "sekretariat@kleks.edu.pl",
                "website": "http:\/\/www.kleks.pl",
                "ref:regon": "147030748",
                "operator": "Agnieszka Lema\u0144ska",
                "operator:type": "private",
                "amenity": "kindergarten"
            }
        },
        {
            "id": 15297,
            "type": "Feature",
            "geometry": {
                "type": "Point",
                "coordinates": [
                    20.91844,
                    52.2401
                ]
            },
            "properties": {
                "isced:level": "1;2",
                "ref:rspo": 15297,
                "official_name": "Szko\u0142a Podstawowa z Oddzia\u0142ami Integracyjnymi nr 82 im. Jana Paw\u0142a Ii",
                "name": "Szko\u0142a Podstawowa z Oddzia\u0142ami Integracyjnymi nr 82",
                "addr:postcode": "01-459",
                "addr:city": "Warszawa",
                "addr:street": "G\u00f3rczewska",
                "addr:housenumber": "201",
                "addr:city:simc": 988780,
                "addr:street:sym_ul": 5925,
                "phone": "+48 226641098",
                "email": "sp82@edu.um.warszawa.pl",
                "website": "http:\/\/sp82.edupage.org",
                "ref:regon": "000800918",
                "ref:vatin": "PL5222423695",
                "operator": "Urz\u0105d Dzielnicy Bemowo M.st.warszawy",
                "operator:type": "government",
                "amenity": "school"
            }
        },
        {
            "id": 133787,
            "type": "Feature",
            "geometry": {
                "type": "Point",
                "coordinates": [
                    20.9038,
                    52.2421999
                ]
            },
            "properties": {
                "ref:rspo": 133787,
                "official_name": "Przedszkole nr 435",
                "name": "Przedszkole nr 435",
                "addr:postcode": "01-471",
                "addr:city": "Warszawa",
                "addr:street": "gen. Tadeusza Pe\u0142czy\u0144skiego",
                "addr:housenumber": "24",
                "addr:city:simc": 988780,
                "addr:street:sym_ul": 27800,
                "phone": "+48 723244861",
                "email": "p435@edu.um.warszawa.pl",
                "website": "http:\/\/www.przedszkole435.waw.pl\/",
                "ref:regon": "367629506",
                "ref:vatin": "PL5223098694",
                "operator": "Urz\u0105d Dzielnicy Bemowo M.st.warszawy",
                "operator:type": "government",
                "amenity": "kindergarten"
            }
        },
        {
            "id": 68603,
            "type": "Feature",
            "geometry": {
                "type": "Point",
                "coordinates": [
                    20.92304,
                    52.24239
                ]
            },
            "properties": {
                "ref:rspo": 68603,
                "official_name": "Przedszkole Niepubliczne \"Kangurek Hop\"",
                "name": "Przedszkole Niepubliczne \"Kangurek Hop\"",
                "addr:postcode": "02-464",
                "addr:city": "Warszawa",
                "addr:street": "Kluczborska",
                "addr:housenumber": "2",
                "addr:city:simc": 988780,
                "addr:street:sym_ul": 8587,
                "phone": "+48 784199556",
                "email": "przedszkole@kangurekhop.pl",
                "ref:regon": "146394603",
                "operator": "Monika Tomaszek",
                "operator:type": "private",
                "amenity": "kindergarten"
            }
        },
        {
            "id": 30718,
            "type": "Feature",
            "geometry": {
                "type": "Point",
                "coordinates": [
                    20.90192,
                    52.24326
                ]
            },
            "properties": {
                "ref:rspo": 30718,
                "official_name": "Przedszkole \"Puchatek\"",
                "name": "Przedszkole \"Puchatek\"",
                "addr:postcode": "01-471",
                "addr:city": "Warszawa",
                "addr:street": "gen. Tadeusza Pe\u0142czy\u0144skiego",
                "addr:housenumber": "28B",
                "addr:city:simc": 988780,
                "addr:street:sym_ul": 27800,
                "phone": "+48 223048969",
                "email": "biuro@przedszkolepuchatek.edu.pl",
                "website": "http:\/\/www.przedszkolepuchatek.edu.pl",
                "ref:regon": "146359430",
                "operator": "Agnieszka St\u0119pie\u0144",
                "operator:type": "private",
                "amenity": "kindergarten"
            }
        },
        {
            "id": 52747,
            "type": "Feature",
            "geometry": {
                "type": "Point",
                "coordinates": [
                    20.90736,
                    52.24631
                ]
            },
            "properties": {
                "ref:rspo": 52747,
                "official_name": "Przedszkole \"Dzieci \u015awiata\"",
                "name": "Przedszkole \"Dzieci \u015awiata\"",
                "addr:postcode": "01-470",
                "addr:city": "Warszawa",
                "addr:street": "Dywizjonu 303",
                "addr:housenumber": "125",
                "addr:city:simc": 988780,
                "addr:street:sym_ul": 4561,
                "phone": "+48 228618790",
                "email": "przedszkole@dzieciswiata.pl",
                "website": "http:\/\/www.dzieciswiata.pl",
                "ref:regon": "146368681",
                "operator": "Joanna Kant",
                "operator:type": "private",
                "amenity": "kindergarten"
            }
        },
        {
            "id": 276830,
            "type": "Feature",
            "geometry": {
                "type": "Point",
                "coordinates": [
                    20.90079,
                    52.24635
                ]
            },
            "properties": {
                "ref:rspo": 276830,
                "official_name": "Publiczne Przedszkole Ja\u015bkowo",
                "name": "Publiczne Przedszkole Ja\u015bkowo",
                "addr:postcode": "01-381",
                "addr:city": "Warszawa",
                "addr:street": "Dywizjonu 303",
                "addr:housenumber": "169",
                "addr:city:simc": 988780,
                "addr:street:sym_ul": 4561,
                "phone": "+48 696063850",
                "email": "jaskowo@jaskowo.waw.pl",
                "ref:regon": "387670031",
                "operator": "Iwona Kaczmarz",
                "operator:type": "private",
                "amenity": "kindergarten"
            }
        },
        {
            "id": 129176,
            "type": "Feature",
            "geometry": {
                "type": "Point",
                "coordinates": [
                    20.89731,
                    52.24686
                ]
            },
            "properties": {
                "ref:rspo": 129176,
                "official_name": "Niepubliczny Terapeutyczny Punkt Przedszkolny \"Qpsyche Kids\"",
                "name": "Niepubliczny Terapeutyczny Punkt Przedszkolny \"Qpsyche Kids\"",
                "addr:postcode": "01-479",
                "addr:city": "Warszawa",
                "addr:street": "Lazurowa",
                "addr:housenumber": "183",
                "addr:door": "90",
                "addr:city:simc": 988780,
                "addr:street:sym_ul": 10726,
                "phone": "+48 608528806",
                "email": "kontakt.qpsyche@gmail.com",
                "ref:regon": "362522809",
                "operator": "Agnieszka G\u0142ukowska-Sobol",
                "operator:type": "private",
                "amenity": "kindergarten"
            }
        },
        {
            "id": 129836,
            "type": "Feature",
            "geometry": {
                "type": "Point",
                "coordinates": [
                    20.89731,
                    52.246829999999996
                ]
            },
            "properties": {
                "ref:rspo": 129836,
                "official_name": "Niepubliczna Poradnia Psychologiczno-Pedagogiczna \"Qpsyche\"",
                "name": "Niepubliczna Poradnia Psychologiczno-Pedagogiczna \"Qpsyche\"",
                "addr:postcode": "01-479",
                "addr:city": "Warszawa",
                "addr:street": "Lazurowa",
                "addr:housenumber": "183",
                "addr:door": "90",
                "addr:city:simc": 988780,
                "addr:street:sym_ul": 10726,
                "phone": "+48 608528806",
                "email": "kontakt.qpsyche@gmail.com",
                "ref:regon": "362973720",
                "operator": "Agnieszka G\u0142ukowska-Sobol",
                "operator:type": "private",
                "healthcare": "counselling",
                "counselling_type": "education",
                "fixme": "w zale\u017cno\u015bci od przedmiotu dzia\u0142alno\u015bci (np. healthcare=counselling + counselling_type=education albo healthcare=psychotherapist)"
            }
        },
        {
            "id": 7264,
            "type": "Feature",
            "geometry": {
                "type": "Point",
                "coordinates": [
                    20.91778,
                    52.2489
                ]
            },
            "properties": {
                "ref:rspo": 7264,
                "official_name": "Przedszkole nr 390",
                "name": "Przedszkole nr 390",
                "addr:postcode": "01-495",
                "addr:city": "Warszawa",
                "addr:street": "Secemi\u0144ska",
                "addr:housenumber": "1",
                "addr:city:simc": 988780,
                "addr:street:sym_ul": 19636,
                "phone": "+48 226382026",
                "email": "p390@edu.um.warszawa.pl",
                "website": "http:\/\/www.przedszkole390.waw.pl",
                "ref:regon": "013001819",
                "ref:vatin": "PL5222424370",
                "operator": "Urz\u0105d Dzielnicy Bemowo M.st.warszawy",
                "operator:type": "government",
                "amenity": "kindergarten"
            }
        },
        {
            "id": 7269,
            "type": "Feature",
            "geometry": {
                "type": "Point",
                "coordinates": [
                    20.92546,
                    52.24958
                ]
            },
            "properties": {
                "ref:rspo": 7269,
                "official_name": "Przedszkole nr 406",
                "name": "Przedszkole nr 406",
                "addr:postcode": "01-494",
                "addr:city": "Warszawa",
                "addr:street": "Juliusza Kaden-Bandrowskiego",
                "addr:housenumber": "8",
                "addr:city:simc": 988780,
                "addr:street:sym_ul": 7751,
                "phone": "+48 226382424",
                "email": "p406@edu.um.warszawa.pl",
                "website": "https:\/\/przedszkole406.pl",
                "ref:regon": "013001848",
                "ref:vatin": "PL5222424358",
                "operator": "Urz\u0105d Dzielnicy Bemowo M.st.warszawy",
                "operator:type": "government",
                "amenity": "kindergarten"
            }
        },
        {
            "id": 278746,
            "type": "Feature",
            "geometry": {
                "type": "Point",
                "coordinates": [
                    20.87579,
                    52.25087
                ]
            },
            "properties": {
                "ref:rspo": 278746,
                "official_name": "Punkt Przedszkolny \"Wioska Pod Lasem\"",
                "name": "Punkt Przedszkolny \"Wioska Pod Lasem\"",
                "addr:postcode": "01-472",
                "addr:city": "Warszawa",
                "addr:street": "Spychowska",
                "addr:housenumber": "2b",
                "addr:door": "1",
                "addr:city:simc": 988780,
                "addr:street:sym_ul": 20723,
                "phone": "+48 602720822",
                "email": "aleksandra.pietrzak@wioski.co",
                "ref:regon": "520055872",
                "operator": "Aleksandra Kupis-Pietrzak",
                "operator:type": "private",
                "amenity": "kindergarten"
            }
        },
        {
            "id": 7265,
            "type": "Feature",
            "geometry": {
                "type": "Point",
                "coordinates": [
                    20.92715,
                    52.25088
                ]
            },
            "properties": {
                "ref:rspo": 7265,
                "official_name": "Przedszkole nr 402",
                "name": "Przedszkole nr 402",
                "addr:postcode": "01-494",
                "addr:city": "Warszawa",
                "addr:street": "Rosy Bailly",
                "addr:housenumber": "11",
                "addr:city:simc": 988780,
                "addr:street:sym_ul": 598,
                "phone": "+48 228379166",
                "email": "p402@edu.um.warszawa.pl",
                "website": "http:\/\/przedszkole402.waw.pl",
                "ref:regon": "013001825",
                "ref:vatin": "PL5222424387",
                "operator": "Urz\u0105d Dzielnicy Bemowo M.st.warszawy",
                "operator:type": "government",
                "amenity": "kindergarten"
            }
        },
        {
            "id": 6834,
            "type": "Feature",
            "geometry": {
                "type": "Point",
                "coordinates": [
                    20.92799,
                    52.25188
                ]
            },
            "properties": {
                "ref:rspo": 6834,
                "official_name": "Przedszkole nr 216",
                "name": "Przedszkole nr 216",
                "addr:postcode": "01-494",
                "addr:city": "Warszawa",
                "addr:street": "Micha\u0142a Elwira Andriollego",
                "addr:housenumber": "1",
                "addr:city:simc": 988780,
                "addr:street:sym_ul": 293,
                "phone": "+48 226381941",
                "email": "p216@edu.um.warszawa.pl",
                "website": "http:\/\/przedszkole216.pl",
                "ref:regon": "013001357",
                "ref:vatin": "PL5222424341",
                "operator": "Urz\u0105d Dzielnicy Bemowo M.st.warszawy",
                "operator:type": "government",
                "amenity": "kindergarten"
            }
        },
        {
            "id": 134007,
            "type": "Feature",
            "geometry": {
                "type": "Point",
                "coordinates": [
                    20.92799,
                    52.25185
                ]
            },
            "properties": {
                "isced:level": "1;2",
                "ref:rspo": 134007,
                "official_name": "Szko\u0142a Podstawowa nr 364 im. Konstancji Markiewicz",
                "name": "Szko\u0142a Podstawowa nr 364",
                "addr:postcode": "01-494",
                "addr:city": "Warszawa",
                "addr:street": "Micha\u0142a Elwira Andriollego",
                "addr:housenumber": "1",
                "addr:city:simc": 988780,
                "addr:street:sym_ul": 293,
                "phone": "+48 226382455",
                "email": "sp364@edu.um.warszawa.pl",
                "website": "http:\/\/www.sp364.edu.pl; https:\/\/sp364.bip.um.warszawa.pl",
                "ref:regon": "367777218",
                "ref:vatin": "PL5223097453",
                "operator": "Urz\u0105d Dzielnicy Bemowo M.st.warszawy",
                "operator:type": "government",
                "amenity": "school"
            }
        },
        {
            "id": 266389,
            "type": "Feature",
            "geometry": {
                "type": "Point",
                "coordinates": [
                    20.92799,
                    52.25182
                ]
            },
            "properties": {
                "ref:rspo": 266389,
                "official_name": "Polska Akademia Sportu",
                "name": "Polska Akademia Sportu",
                "addr:postcode": "01-494",
                "addr:city": "Warszawa",
                "addr:street": "Micha\u0142a Elwira Andriollego",
                "addr:housenumber": "1",
                "addr:city:simc": 988780,
                "addr:street:sym_ul": 293,
                "phone": "+48 504851311",
                "email": "kursy@pas.edu.pl",
                "ref:regon": "369468987",
                "operator": "Maciej Ryszkowski",
                "operator:type": "private",
                "fixme": "w zale\u017cno\u015bci od przedmiotu dzia\u0142alno\u015bci (np. amenity=training + training=*, amenity=dancing_school, amenity=language_school, amenity=music_school)"
            }
        },
        {
            "id": 50285,
            "type": "Feature",
            "geometry": {
                "type": "Point",
                "coordinates": [
                    20.89571,
                    52.25207
                ]
            },
            "properties": {
                "ref:rspo": 50285,
                "official_name": "Niepubliczna Poradnia Psychologiczno-Pedagogiczna Pro Futuro",
                "name": "Niepubliczna Poradnia Psychologiczno-Pedagogiczna Pro Futuro",
                "addr:postcode": "01-476",
                "addr:city": "Warszawa",
                "addr:street": "gen. Sylwestra Kaliskiego",
                "addr:housenumber": "29a",
                "addr:city:simc": 988780,
                "addr:street:sym_ul": 7827,
                "phone": "+48 228613130",
                "email": "sekretariat@profuturo.edu.pl",
                "website": "http:\/\/profuturo.pl",
                "ref:regon": "146396105",
                "operator": "Szko\u0142y I Przedszkola Pro Futuro Sp\u00f3\u0142ka Z Ograniczon\u0105 Odpowiedzialno\u015bci\u0105",
                "operator:type": "private",
                "healthcare": "counselling",
                "counselling_type": "education",
                "fixme": "w zale\u017cno\u015bci od przedmiotu dzia\u0142alno\u015bci (np. healthcare=counselling + counselling_type=education albo healthcare=psychotherapist)"
            }
        },
        {
            "id": 75098,
            "type": "Feature",
            "geometry": {
                "type": "Point",
                "coordinates": [
                    20.89571,
                    52.25204
                ]
            },
            "properties": {
                "ref:rspo": 75098,
                "official_name": "Przedszkola Pomara\u0144czowa Ciuchcia Sp\u00f3\u0142ka z O.o. Sp\u00f3\u0142ka Komandytowa",
                "name": "Przedszkola Pomara\u0144czowa Ciuchcia Sp\u00f3\u0142ka z O.o. Sp\u00f3\u0142ka Komandytowa",
                "addr:postcode": "01-476",
                "addr:city": "Warszawa",
                "addr:street": "gen. Sylwestra Kaliskiego",
                "addr:housenumber": "23B",
                "addr:city:simc": 988780,
                "addr:street:sym_ul": 7827,
                "phone": "+48 226838655",
                "email": "bemowo2@pomaranczowa-ciuchcia.pl",
                "ref:regon": "146456043",
                "operator": "Przedszkola Pomara\u0144czowa Ciuchcia Sp\u00f3\u0142ka Z Ograniczon\u0105 Odpowiedzialno\u015bci\u0105",
                "operator:type": "private",
                "amenity": "kindergarten"
            }
        },
        {
            "id": 122585,
            "type": "Feature",
            "geometry": {
                "type": "Point",
                "coordinates": [
                    20.89571,
                    52.252010000000006
                ]
            },
            "properties": {
                "ref:rspo": 122585,
                "official_name": "Przedszkole Publiczne \"Mi\u015b Krzy\u015b\"",
                "name": "Przedszkole Publiczne \"Mi\u015b Krzy\u015b\"",
                "addr:postcode": "01-476",
                "addr:city": "Warszawa",
                "addr:street": "gen. Sylwestra Kaliskiego",
                "addr:housenumber": "31",
                "addr:city:simc": 988780,
                "addr:street:sym_ul": 7827,
                "phone": "+48 512515567",
                "email": "przedszkolemiskrzys@gmail.com",
                "ref:regon": "147164727",
                "operator": "Ktsc Sp\u00f3\u0142ka Z Ograniczon\u0105 Odpowiedzialno\u015bci\u0105",
                "operator:type": "private",
                "amenity": "kindergarten"
            }
        },
        {
            "id": 12609,
            "type": "Feature",
            "geometry": {
                "type": "Point",
                "coordinates": [
                    20.912439346314,
                    52.252689361572
                ]
            },
            "properties": {
                "ref:rspo": 12609,
                "official_name": "Przedszkole nr 214 im. Janiny Krzemi\u0144skiej",
                "name": "Przedszkole nr 214",
                "addr:postcode": "01-355",
                "addr:city": "Warszawa",
                "addr:street": "gen. Waleriana Czumy",
                "addr:housenumber": "6",
                "addr:city:simc": 988780,
                "addr:street:sym_ul": 3489,
                "phone": "+48 226651758",
                "email": "p214@edu.um.warszawa.pl",
                "website": "http:\/\/www.p214.szkolnastrona.pl",
                "ref:regon": "013001340",
                "ref:vatin": "PL5222424269",
                "operator": "Urz\u0105d Dzielnicy Bemowo M.st.warszawy",
                "operator:type": "government",
                "amenity": "kindergarten"
            }
        },
        {
            "id": 12622,
            "type": "Feature",
            "geometry": {
                "type": "Point",
                "coordinates": [
                    20.912439346314,
                    52.252659361572
                ]
            },
            "properties": {
                "ref:rspo": 12622,
                "official_name": "Przedszkole nr 222",
                "name": "Przedszkole nr 222",
                "addr:postcode": "01-318",
                "addr:city": "Warszawa",
                "addr:street": "Kazimierza Wyki",
                "addr:housenumber": "17",
                "addr:city:simc": 988780,
                "addr:street:sym_ul": 24995,
                "phone": "+48 226651366",
                "email": "p222@edu.um.warszawa.pl",
                "website": "http:\/\/przedszkole222.pl",
                "ref:regon": "013000837",
                "ref:vatin": "PL5222424364",
                "operator": "Urz\u0105d Dzielnicy Bemowo M.st.warszawy",
                "operator:type": "government",
                "amenity": "kindergarten"
            }
        },
        {
            "id": 21463,
            "type": "Feature",
            "geometry": {
                "type": "Point",
                "coordinates": [
                    20.912439346314,
                    52.252629361572005
                ]
            },
            "properties": {
                "ref:rspo": 21463,
                "official_name": "Punkt Przedszkolny \"Ptasie Radio\"",
                "name": "Punkt Przedszkolny \"Ptasie Radio\"",
                "addr:postcode": "01-481",
                "addr:city": "Warszawa",
                "addr:street": "Gottfrieda Leibniza",
                "addr:housenumber": "1",
                "addr:city:simc": 988780,
                "addr:street:sym_ul": 40006,
                "phone": "+48 226669269",
                "email": "ptasieradio-przedszkole@home.pl",
                "ref:regon": "146323974",
                "operator": "Micha\u0142 Wr\u00f3bel",
                "operator:type": "private",
                "amenity": "kindergarten"
            }
        },
        {
            "id": 60578,
            "type": "Feature",
            "geometry": {
                "type": "Point",
                "coordinates": [
                    20.912439346314,
                    52.252599361572
                ]
            },
            "properties": {
                "isced:level": "1;2",
                "ref:rspo": 60578,
                "official_name": "Szko\u0142a Podstawowa nr 150 im. Walerego Wr\u00f3blewskiego",
                "name": "Szko\u0142a Podstawowa nr 150",
                "addr:postcode": "01-491",
                "addr:city": "Warszawa",
                "addr:street": "gen. Wiktora Thomm\u00e9ego",
                "addr:housenumber": "1",
                "addr:city:simc": 988780,
                "addr:street:sym_ul": 44930,
                "phone": "+48 226669404",
                "email": "sp150@edu.um.warszawa.pl",
                "website": "http:\/\/sp150bemowo.szkolnastrona.pl",
                "ref:regon": "000800982",
                "ref:vatin": "PL5222800264",
                "operator": "Urz\u0105d Dzielnicy Bemowo M.st.warszawy",
                "operator:type": "government",
                "amenity": "school"
            }
        },
        {
            "id": 134005,
            "type": "Feature",
            "geometry": {
                "type": "Point",
                "coordinates": [
                    20.912439346314,
                    52.252569361572
                ]
            },
            "properties": {
                "isced:level": "1;2",
                "ref:rspo": 134005,
                "official_name": "Szko\u0142a Podstawowa nr 362 im. Prof. Tadeusza Kotarbi\u0144skiego",
                "name": "Szko\u0142a Podstawowa nr 362",
                "addr:postcode": "01-355",
                "addr:city": "Warszawa",
                "addr:street": "gen. Waleriana Czumy",
                "addr:housenumber": "8",
                "addr:city:simc": 988780,
                "addr:street:sym_ul": 3489,
                "phone": "+48 226651438",
                "email": "sp362.sekretariat@edu.um.warszawa.pl",
                "website": "http:\/\/sp362bem.edupage.org",
                "ref:regon": "367777170",
                "operator": "Urz\u0105d Dzielnicy Bemowo M.st.warszawy",
                "operator:type": "government",
                "amenity": "school"
            }
        },
        {
            "id": 7029,
            "type": "Feature",
            "geometry": {
                "type": "Point",
                "coordinates": [
                    20.91809,
                    52.254
                ]
            },
            "properties": {
                "ref:rspo": 7029,
                "official_name": "Przedszkole nr 371",
                "name": "Przedszkole nr 371",
                "addr:postcode": "01-493",
                "addr:city": "Warszawa",
                "addr:street": "Stanis\u0142awa Lencewicza",
                "addr:housenumber": "5",
                "addr:city:simc": 988780,
                "addr:street:sym_ul": 10816,
                "phone": "+48 885858643",
                "email": "p371@edu.um.warszawa.pl",
                "website": "http:\/\/www.przedszkole371.waw.pl",
                "ref:regon": "013001788",
                "ref:vatin": "PL5222424306",
                "operator": "Urz\u0105d Dzielnicy Bemowo M.st.warszawy",
                "operator:type": "government",
                "amenity": "kindergarten"
            }
        },
        {
            "id": 122993,
            "type": "Feature",
            "geometry": {
                "type": "Point",
                "coordinates": [
                    20.89393,
                    52.25434
                ]
            },
            "properties": {
                "ref:rspo": 122993,
                "official_name": "Studium Bodyguard\u00f3w I Detektyw\u00f3w \"Sulima Security\"",
                "name": "Studium Bodyguard\u00f3w I Detektyw\u00f3w \"Sulima Security\"",
                "addr:postcode": "00-980",
                "addr:city": "Warszawa",
                "addr:street": "Kartezjusza",
                "addr:housenumber": "2",
                "addr:city:simc": 988780,
                "addr:street:sym_ul": 8121,
                "phone": "+48 602690506",
                "email": "sulimasecurity@wp.pl",
                "ref:regon": "147228901",
                "operator": "Andrzej Zab\u0142ocki",
                "operator:type": "private",
                "fixme": "w zale\u017cno\u015bci od przedmiotu dzia\u0142alno\u015bci (np. amenity=training + training=*, amenity=dancing_school, amenity=language_school, amenity=music_school)"
            }
        },
        {
            "id": 272229,
            "type": "Feature",
            "geometry": {
                "type": "Point",
                "coordinates": [
                    20.9313,
                    52.25434
                ]
            },
            "properties": {
                "ref:rspo": 272229,
                "official_name": "Przedszkole \"Jan Pawe\u0142ek\"",
                "name": "Przedszkole \"Jan Pawe\u0142ek\"",
                "addr:postcode": "01-494",
                "addr:city": "Warszawa",
                "addr:street": "Obro\u0144c\u00f3w Tobruku",
                "addr:housenumber": "48",
                "addr:city:simc": 988780,
                "addr:street:sym_ul": 14649,
                "phone": "+48 513027653",
                "email": "przedszkole@janpawelek.pl",
                "website": "http:\/\/janpawelek.pl",
                "ref:regon": "384054538",
                "operator": "Parafia Rzymskokatolicka  \u015awi\u0119tego Jana Paw\u0142a Ii W Warszawie",
                "operator:type": "religious",
                "amenity": "kindergarten"
            }
        },
        {
            "id": 127855,
            "type": "Feature",
            "geometry": {
                "type": "Point",
                "coordinates": [
                    20.91959,
                    52.25512
                ]
            },
            "properties": {
                "ref:rspo": 127855,
                "official_name": "Dzieci\u0119cy \u015awiat Przedszkole Niepubliczne",
                "name": "Dzieci\u0119cy \u015awiat Przedszkole Niepubliczne",
                "addr:postcode": "01-466",
                "addr:city": "Warszawa",
                "addr:street": "Powsta\u0144c\u00f3w \u015al\u0105skich",
                "addr:housenumber": "106D",
                "addr:door": "203",
                "addr:city:simc": 988780,
                "addr:street:sym_ul": 17366,
                "phone": "+48 793607554",
                "email": "biuro@dzieciecyswiat.edu.pl",
                "website": "http:\/\/www.dzieciecyswiat.edu.pl",
                "ref:regon": "361913330",
                "operator": "Natalia Kami\u0144ska",
                "operator:type": "private",
                "amenity": "kindergarten"
            }
        },
        {
            "id": 272876,
            "type": "Feature",
            "geometry": {
                "type": "Point",
                "coordinates": [
                    20.89569,
                    52.25521
                ]
            },
            "properties": {
                "isced:level": "3",
                "ref:rspo": 272876,
                "official_name": "Wojskowe Og\u00f3lnokszta\u0142c\u0105ce Liceum Informatyczne",
                "name": "Wojskowe Og\u00f3lnokszta\u0142c\u0105ce Liceum Informatyczne",
                "addr:postcode": "00-908",
                "addr:city": "Warszawa",
                "addr:street": "gen. Sylwestra Kaliskiego",
                "addr:housenumber": "25A",
                "addr:city:simc": 988780,
                "addr:street:sym_ul": 7827,
                "phone": "+48 261839511",
                "email": "sekretariat.woli@wat.edu.pl",
                "website": "http:\/\/woli.wat.edu.pl",
                "ref:regon": "384224986",
                "operator": "Ministerstwo Obrony Narodowej",
                "operator:type": "government",
                "amenity": "school"
            }
        },
        {
            "id": 7272,
            "type": "Feature",
            "geometry": {
                "type": "Point",
                "coordinates": [
                    20.933,
                    52.25574
                ]
            },
            "properties": {
                "ref:rspo": 7272,
                "official_name": "Przedszkole nr 415 im. Akademii Pana Kleksa",
                "name": "Przedszkole nr 415",
                "addr:postcode": "01-494",
                "addr:city": "Warszawa",
                "addr:street": "Obro\u0144c\u00f3w Tobruku",
                "addr:housenumber": "23",
                "addr:door": "112",
                "addr:city:simc": 988780,
                "addr:street:sym_ul": 14649,
                "phone": "+48 222522974",
                "email": "p415@edu.um.warszawa.pl",
                "website": "https:\/\/p415.edupage.org",
                "ref:regon": "142149491",
                "ref:vatin": "PL5222938382",
                "operator": "Urz\u0105d Dzielnicy Bemowo M.st.warszawy",
                "operator:type": "government",
                "amenity": "kindergarten"
            }
        },
        {
            "id": 14770,
            "type": "Feature",
            "geometry": {
                "type": "Point",
                "coordinates": [
                    20.933,
                    52.25571
                ]
            },
            "properties": {
                "ref:rspo": 14770,
                "official_name": "Niepubliczne Przedszkole \"Ma\u0142e Zuchy\"",
                "name": "Niepubliczne Przedszkole \"Ma\u0142e Zuchy\"",
                "addr:postcode": "01-494",
                "addr:city": "Warszawa",
                "addr:street": "Obro\u0144c\u00f3w Tobruku",
                "addr:housenumber": "23\/110-111",
                "addr:city:simc": 988780,
                "addr:street:sym_ul": 14649,
                "phone": "+48 222516140",
                "email": "bemowo@malezuchy.pl",
                "website": "http:\/\/www.malezuchy.pl",
                "ref:regon": "146302512",
                "operator": "Agnieszka Wojciechowska",
                "operator:type": "private",
                "amenity": "kindergarten"
            }
        },
        {
            "id": 87930,
            "type": "Feature",
            "geometry": {
                "type": "Point",
                "coordinates": [
                    20.9242743,
                    52.2557527
                ]
            },
            "properties": {
                "ref:rspo": 87930,
                "official_name": "Niepubliczne Przedszkole Integracyjne \"Zielony Latawiec\"",
                "name": "Niepubliczne Przedszkole Integracyjne \"Zielony Latawiec\"",
                "addr:postcode": "01-494",
                "addr:city": "Warszawa",
                "addr:street": "Andrzeja So\u0142tana",
                "addr:housenumber": "3",
                "addr:city:simc": 988780,
                "addr:street:sym_ul": 20558,
                "phone": "+48 222157778",
                "email": "zielony_latawiec@poczta.fm",
                "ref:regon": "146447469",
                "operator": "Zofia Bia\u0142ek",
                "operator:type": "private",
                "amenity": "kindergarten"
            }
        },
        {
            "id": 274287,
            "type": "Feature",
            "geometry": {
                "type": "Point",
                "coordinates": [
                    20.94186,
                    52.25597
                ]
            },
            "properties": {
                "ref:rspo": 274287,
                "official_name": "Publiczne Przedszkole \"Ma\u0142a Awangarda\"",
                "name": "Publiczne Przedszkole \"Ma\u0142a Awangarda\"",
                "addr:postcode": "01-494",
                "addr:city": "Warszawa",
                "addr:street": "Jerzego Waldorffa",
                "addr:housenumber": "41c",
                "addr:city:simc": 988780,
                "addr:street:sym_ul": 33027,
                "phone": "+48 537326805",
                "email": "sekretariat@mala-awangarda.pl",
                "ref:regon": "385534803",
                "operator": "Edupl Sp\u00f3\u0142ka Z Ograniczon\u0105 Odpowiedzialno\u015bci\u0105",
                "operator:type": "private",
                "amenity": "kindergarten"
            }
        },
        {
            "id": 132379,
            "type": "Feature",
            "geometry": {
                "type": "Point",
                "coordinates": [
                    20.92008,
                    52.25612
                ]
            },
            "properties": {
                "ref:rspo": 132379,
                "official_name": "Studio Ta\u0144ca Duet",
                "name": "Studio Ta\u0144ca Duet",
                "addr:postcode": "01-466",
                "addr:city": "Warszawa",
                "addr:street": "Powsta\u0144c\u00f3w \u015al\u0105skich",
                "addr:housenumber": "108a",
                "addr:door": "19",
                "addr:city:simc": 988780,
                "addr:street:sym_ul": 17366,
                "phone": "+48 600300304",
                "email": "duet@duetdance.pl",
                "ref:regon": "365574617",
                "operator": "Jaros\u0142aw Marzec",
                "operator:type": "private",
                "fixme": "w zale\u017cno\u015bci od przedmiotu dzia\u0142alno\u015bci (np. amenity=training + training=*, amenity=dancing_school, amenity=language_school, amenity=music_school)"
            }
        },
        {
            "id": 265683,
            "type": "Feature",
            "geometry": {
                "type": "Point",
                "coordinates": [
                    20.89039,
                    52.25655
                ]
            },
            "properties": {
                "ref:rspo": 265683,
                "official_name": "Punkt Przedszkolny Sto \u015awiat\u00f3w Dziecka",
                "name": "Punkt Przedszkolny Sto \u015awiat\u00f3w Dziecka",
                "addr:postcode": "01-482",
                "addr:city": "Warszawa",
                "addr:street": "Isaaca Newtona",
                "addr:housenumber": "23",
                "addr:city:simc": 988780,
                "addr:street:sym_ul": 44886,
                "phone": "+48 733771703",
                "email": "stoswiatowdziecka@gmail.com",
                "website": "http:\/\/www.stoswiatowdziecka.pl",
                "ref:regon": "368844840",
                "operator": "Michalina Wisniewska",
                "operator:type": "private",
                "amenity": "kindergarten"
            }
        },
        {
            "id": 121400,
            "type": "Feature",
            "geometry": {
                "type": "Point",
                "coordinates": [
                    20.94413,
                    52.25699
                ]
            },
            "properties": {
                "ref:rspo": 121400,
                "official_name": "Niepubliczna Bursa M\u0142odzie\u017cowa w Warszawie",
                "name": "Niepubliczna Bursa M\u0142odzie\u017cowa w Warszawie",
                "addr:postcode": "01-494",
                "addr:city": "Warszawa",
                "addr:street": "Jerzego Waldorffa",
                "addr:housenumber": "33",
                "addr:city:simc": 988780,
                "addr:street:sym_ul": 33027,
                "phone": "+48 228274979",
                "email": "dareksledziewski7@tlen.pl",
                "ref:regon": "147044147",
                "operator": "Stowarzyszenie Trener\u00f3w Pi\u0142ki No\u017cnej",
                "operator:type": "ngo",
                "building": "dormitory"
            }
        },
        {
            "id": 83569,
            "type": "Feature",
            "geometry": {
                "type": "Point",
                "coordinates": [
                    20.9326599,
                    52.25786
                ]
            },
            "properties": {
                "ref:rspo": 83569,
                "official_name": "Prywatne Przedszkole \"Jak U Mamy\"",
                "name": "Prywatne Przedszkole \"Jak U Mamy\"",
                "addr:postcode": "01-494",
                "addr:city": "Warszawa",
                "addr:street": "Obro\u0144c\u00f3w Tobruku",
                "addr:housenumber": "38",
                "addr:door": "5",
                "addr:city:simc": 988780,
                "addr:street:sym_ul": 14649,
                "phone": "+48 227461881",
                "email": "dyrekcja@jakumamy.edu.pl",
                "ref:regon": "146428615",
                "operator": "\"Albigan\" Sp\u00f3\u0142ka Z Ograniczon\u0105 Odpowiedzialno\u015bci\u0105",
                "operator:type": "private",
                "amenity": "kindergarten"
            }
        },
        {
            "id": 121333,
            "type": "Feature",
            "geometry": {
                "type": "Point",
                "coordinates": [
                    20.9326599,
                    52.25783
                ]
            },
            "properties": {
                "ref:rspo": 121333,
                "official_name": "Niepubliczne Przedszkole \"\u017byrafki\"",
                "name": "Niepubliczne Przedszkole \"\u017byrafki\"",
                "addr:postcode": "01-494",
                "addr:city": "Warszawa",
                "addr:street": "Obro\u0144c\u00f3w Tobruku",
                "addr:housenumber": "38",
                "addr:door": "U2",
                "addr:city:simc": 988780,
                "addr:street:sym_ul": 14649,
                "phone": "+48 690494795",
                "email": "zapasikora@interia.pl",
                "website": "http:\/\/www.zyrafki-bemowo.edu.pl",
                "ref:regon": "147035125",
                "operator": "Anna Sikora",
                "operator:type": "private",
                "amenity": "kindergarten"
            }
        },
        {
            "id": 132581,
            "type": "Feature",
            "geometry": {
                "type": "Point",
                "coordinates": [
                    20.9326599,
                    52.2578
                ]
            },
            "properties": {
                "ref:rspo": 132581,
                "official_name": "Przedszkole Publiczne \"Jak U Mamy\"",
                "name": "Przedszkole Publiczne \"Jak U Mamy\"",
                "addr:postcode": "01-494",
                "addr:city": "Warszawa",
                "addr:street": "Obro\u0144c\u00f3w Tobruku",
                "addr:housenumber": "38",
                "addr:door": "5",
                "addr:city:simc": 988780,
                "addr:street:sym_ul": 14649,
                "email": "krystyna.albigowska@op.pl",
                "ref:regon": "365844206",
                "operator": "\"Albigan\" Sp\u00f3\u0142ka Z Ograniczon\u0105 Odpowiedzialno\u015bci\u0105",
                "operator:type": "private",
                "amenity": "kindergarten"
            }
        },
        {
            "id": 273015,
            "type": "Feature",
            "geometry": {
                "type": "Point",
                "coordinates": [
                    20.9206,
                    52.2588
                ]
            },
            "properties": {
                "ref:rspo": 273015,
                "official_name": "Publiczne Przedszkole Integracyjne Bajka",
                "name": "Publiczne Przedszkole Integracyjne Bajka",
                "addr:postcode": "01-494",
                "addr:city": "Warszawa",
                "addr:street": "Gustawa Morcinka",
                "addr:housenumber": "14B",
                "addr:city:simc": 988780,
                "addr:street:sym_ul": 13279,
                "phone": "+48 501076360",
                "email": "laster@wp.pl",
                "ref:regon": "384353991",
                "operator": "Krzysztof Pejas",
                "operator:type": "private",
                "amenity": "kindergarten"
            }
        },
        {
            "id": 15808,
            "type": "Feature",
            "geometry": {
                "type": "Point",
                "coordinates": [
                    20.92545,
                    52.25924
                ]
            },
            "properties": {
                "isced:level": "1;2",
                "ref:rspo": 15808,
                "official_name": "Szko\u0142a Podstawowa z Oddzia\u0142ami Integracyjnymi nr 341 im. Tw\u00f3rc\u00f3w Literatury Dzieci\u0119cej",
                "name": "Szko\u0142a Podstawowa z Oddzia\u0142ami Integracyjnymi nr 341",
                "addr:postcode": "01-494",
                "addr:city": "Warszawa",
                "addr:street": "O\u0142awska",
                "addr:housenumber": "3",
                "addr:city:simc": 988780,
                "addr:street:sym_ul": 15031,
                "phone": "+48 226386128",
                "email": "sp341@edu.um.warszawa.pl",
                "website": "http:\/\/sp341.edupage.org",
                "ref:regon": "010066936",
                "ref:vatin": "PL5222432731",
                "operator": "Urz\u0105d Dzielnicy Bemowo M.st.warszawy",
                "operator:type": "government",
                "amenity": "school"
            }
        },
        {
            "id": 68552,
            "type": "Feature",
            "geometry": {
                "type": "Point",
                "coordinates": [
                    20.92545,
                    52.259209999999996
                ]
            },
            "properties": {
                "ref:rspo": 68552,
                "official_name": "Presto Szko\u0142a Muzyczna I St. w Warszawie",
                "name": "Presto Szko\u0142a Muzyczna I St. w Warszawie",
                "addr:postcode": "01-494",
                "addr:city": "Warszawa",
                "addr:street": "O\u0142awska",
                "addr:housenumber": "3",
                "addr:city:simc": 988780,
                "addr:street:sym_ul": 15031,
                "email": "wojtek-kozlowski@wp.pl",
                "website": "http:\/\/www.presto-muzyczna.pl",
                "ref:regon": "146433303",
                "operator": "Wojciech Koz\u0142owski",
                "operator:type": "private",
                "amenity": "music_school"
            }
        },
        {
            "id": 123456,
            "type": "Feature",
            "geometry": {
                "type": "Point",
                "coordinates": [
                    20.91633,
                    52.25978
                ]
            },
            "properties": {
                "isced:level": "1;2",
                "ref:rspo": 123456,
                "official_name": "Szko\u0142a Podstawowa nr 357",
                "name": "Szko\u0142a Podstawowa nr 357",
                "addr:postcode": "01-495",
                "addr:city": "Warszawa",
                "addr:street": "Zachodz\u0105cego S\u0142o\u0144ca",
                "addr:housenumber": "25",
                "addr:city:simc": 988780,
                "addr:street:sym_ul": 25308,
                "phone": "+48 224871212",
                "email": "sp357@edu.um.warszawa.pl",
                "website": "https:\/\/sp357.edupage.org\/",
                "ref:regon": "147315445",
                "ref:vatin": "PL5223017750",
                "operator": "Urz\u0105d Dzielnicy Bemowo M.st.warszawy",
                "operator:type": "government",
                "amenity": "school"
            }
        },
        {
            "id": 123055,
            "type": "Feature",
            "geometry": {
                "type": "Point",
                "coordinates": [
                    20.89865,
                    52.26019
                ]
            },
            "properties": {
                "ref:rspo": 123055,
                "official_name": "Przedszkole Le\u015bne",
                "name": "Przedszkole Le\u015bne",
                "addr:postcode": "01-492",
                "addr:city": "Warszawa",
                "addr:street": "Stanis\u0142awa Kunickiego",
                "addr:housenumber": "49",
                "addr:city:simc": 988780,
                "addr:street:sym_ul": 10402,
                "phone": "+48 884880680",
                "email": "bemowo@przedszkole-lesne.pl",
                "website": "http:\/\/www.przedszkole-lesne.pl",
                "ref:regon": "147240730",
                "operator": "\"Giga Teleservice\"Sp\u00f3\u0142ka Z O.o.",
                "operator:type": "private",
                "amenity": "kindergarten"
            }
        },
        {
            "id": 124566,
            "type": "Feature",
            "geometry": {
                "type": "Point",
                "coordinates": [
                    20.93185,
                    52.2603099
                ]
            },
            "properties": {
                "ref:rspo": 124566,
                "official_name": "Artystyczno-J\u0119zykowe \"Super Przedszkole\"",
                "name": "Artystyczno-J\u0119zykowe \"Super Przedszkole\"",
                "addr:postcode": "01-494",
                "addr:city": "Warszawa",
                "addr:street": "Edmunda Jana Osma\u0144czyka",
                "addr:housenumber": "22",
                "addr:door": "161",
                "addr:city:simc": 988780,
                "addr:street:sym_ul": 28371,
                "phone": "+48 606790484",
                "email": "super-przedszkole@outlook.com",
                "website": "http:\/\/www.super-przedszkole.info",
                "ref:regon": "147399287",
                "operator": "W\u0142odzimierz Paw\u0142owski",
                "operator:type": "private",
                "amenity": "kindergarten"
            }
        },
        {
            "id": 123802,
            "type": "Feature",
            "geometry": {
                "type": "Point",
                "coordinates": [
                    20.94097,
                    52.26143
                ]
            },
            "properties": {
                "ref:rspo": 123802,
                "official_name": "Academy Of International Sport Education",
                "name": "Academy Of International Sport Education",
                "addr:postcode": "01-494",
                "addr:city": "Warszawa",
                "addr:street": "Obro\u0144c\u00f3w Tobruku",
                "addr:housenumber": "11",
                "addr:city:simc": 988780,
                "addr:street:sym_ul": 14649,
                "phone": "+48 504694457",
                "email": "maksymgrabarzyk@gmail.com",
                "ref:regon": "147352989",
                "operator": "Adrian Miko\u0142ajczak",
                "operator:type": "private",
                "fixme": "w zale\u017cno\u015bci od przedmiotu dzia\u0142alno\u015bci (np. amenity=training + training=*, amenity=dancing_school, amenity=language_school, amenity=music_school)"
            }
        },
        {
            "id": 271713,
            "type": "Feature",
            "geometry": {
                "type": "Point",
                "coordinates": [
                    20.9542094,
                    52.2623871
                ]
            },
            "properties": {
                "isced:level": "3",
                "ref:rspo": 271713,
                "official_name": "Liceum Niepubliczne Og\u00f3lnokszta\u0142c\u0105ce Fundacji Amicus",
                "name": "Liceum Niepubliczne Og\u00f3lnokszta\u0142c\u0105ce Fundacji Amicus",
                "addr:postcode": "01-728",
                "addr:city": "Warszawa",
                "addr:street": "Pow\u0105zkowska",
                "addr:housenumber": "90",
                "addr:city:simc": 988780,
                "addr:street:sym_ul": 17323,
                "phone": "+48 535313333",
                "email": "fundacja.amicus@wp.pl",
                "ref:regon": "383567431",
                "operator": "Fundacja Amicus",
                "operator:type": "ngo",
                "amenity": "school"
            }
        },
        {
            "id": 266785,
            "type": "Feature",
            "geometry": {
                "type": "Point",
                "coordinates": [
                    20.9198999,
                    52.26285
                ]
            },
            "properties": {
                "ref:rspo": 266785,
                "official_name": "O\u015brodek Szkolenia Firmy \"Bihip\"",
                "name": "O\u015brodek Szkolenia Firmy \"Bihip\"",
                "addr:postcode": "01-496",
                "addr:city": "Warszawa",
                "addr:street": "Karola Miarki",
                "addr:housenumber": "7A",
                "addr:door": "2",
                "addr:city:simc": 988780,
                "addr:street:sym_ul": 12674,
                "phone": "+48 603123454",
                "ref:regon": "369692510",
                "operator": "Jerzy Tkaczyk",
                "operator:type": "private",
                "fixme": "w zale\u017cno\u015bci od przedmiotu dzia\u0142alno\u015bci (np. amenity=training + training=*, amenity=dancing_school, amenity=language_school, amenity=music_school)"
            }
        },
        {
            "id": 278174,
            "type": "Feature",
            "geometry": {
                "type": "Point",
                "coordinates": [
                    20.90427,
                    52.26465
                ]
            },
            "properties": {
                "ref:rspo": 278174,
                "official_name": "Goldwings Flight Academy",
                "name": "Goldwings Flight Academy",
                "addr:postcode": "01-492",
                "addr:city": "Warszawa",
                "addr:street": "Micha\u0142a Sobczaka",
                "addr:housenumber": "11",
                "addr:city:simc": 988780,
                "addr:street:sym_ul": 20408,
                "phone": "+48 662331222",
                "email": "goldwings@goldwings.pl",
                "ref:regon": "389855154",
                "operator": "Atsm Sp\u00f3\u0142ka Z Ograniczon\u0105 Odpowiedzialno\u015bci\u0105",
                "operator:type": "private",
                "fixme": "w zale\u017cno\u015bci od przedmiotu dzia\u0142alno\u015bci (np. amenity=training + training=*, amenity=dancing_school, amenity=language_school, amenity=music_school)"
            }
        }
    ]
}