{"type":"FeatureCollection","features":[{"id":26809,"type":"Feature","geometry":{"type":"Point","coordinates":[22.65461,49.40302]},"properties":{"isced:level":"1;2","ref:rspo":26809,"official_name":"Szko\u0142a Podstawowa w Hoszowie","name":"Szko\u0142a Podstawowa w Hoszowie","addr:country":"PL","addr:postcode":"38-700","addr:place":"Hosz\u00f3w","addr:housenumber":"31","addr:teryt:sym_ul":361554,"contact:phone":"+48 133075094","contact:email":"sphoszow@gmail.com","ref:regon":"370004451","ref:vatin":"PL6891099077","operator":"Gmina Ustrzyki Dolne","operator:type":"government","amenity":"school"}},{"id":23596,"type":"Feature","geometry":{"type":"Point","coordinates":[22.56334,49.41809]},"properties":{"ref:rspo":23596,"official_name":"Bieszczadzki Zesp\u00f3\u0142 Szk\u00f3\u0142 Zawodowych","name":"Bieszczadzki Zesp\u00f3\u0142 Szk\u00f3\u0142 Zawodowych","addr:country":"PL","addr:postcode":"38-700","addr:city":"Ustrzyki Dolne","addr:street":"ul. Przemys\u0142owa","addr:housenumber":"15","addr:teryt:simc":17742,"addr:teryt:sym_ul":953817,"contact:phone":"+48 134611447","contact:email":"bzszustrzyki@wp.pl","ref:regon":"371180581","ref:vatin":"PL6891094246","operator":"Powiat Bieszczadzki","operator:type":"government","landuse":"education","fixme":"amenity=school, amenity=college albo landuse=education w zale\u017cno\u015bci od tego, jakie plac\u00f3wki wchodz\u0105 w sk\u0142ad zespo\u0142u. Sprawd\u017a, kiedy stosowa\u0107 amenity=* a kiedy landuse=education.","note":"Children RSPO: 84207;84787;84790;133066"}},{"id":84207,"type":"Feature","geometry":{"type":"Point","coordinates":[22.56334,49.41806]},"properties":{"isced:level":"3","ref:rspo":84207,"official_name":"Technikum","name":"Technikum","addr:country":"PL","addr:postcode":"38-700","addr:city":"Ustrzyki Dolne","addr:street":"ul. Przemys\u0142owa","addr:housenumber":"15","addr:teryt:simc":17742,"addr:teryt:sym_ul":953817,"contact:phone":"+48 134611447","contact:email":"bzszustrzyki@wp.pl","ref:regon":"371014351","operator":"Powiat Bieszczadzki","operator:type":"government","amenity":"school","note":"Parent RSPO: 23596"}},{"id":84787,"type":"Feature","geometry":{"type":"Point","coordinates":[22.56334,49.41803]},"properties":{"isced:level":"3","ref:rspo":84787,"official_name":"Bran\u017cowa Szko\u0142a I Stopnia","name":"Bran\u017cowa Szko\u0142a I Stopnia","addr:country":"PL","addr:postcode":"38-700","addr:city":"Ustrzyki Dolne","addr:street":"ul. Przemys\u0142owa","addr:housenumber":"15","addr:teryt:simc":17742,"addr:teryt:sym_ul":953817,"contact:phone":"+48 134611447","contact:email":"bzszustrzyki@wp.pl","ref:regon":"371014380","operator":"Powiat Bieszczadzki","operator:type":"government","amenity":"school","note":"Parent RSPO: 23596"}},{"id":84790,"type":"Feature","geometry":{"type":"Point","coordinates":[22.56334,49.418]},"properties":{"isced:level":"4","ref:rspo":84790,"official_name":"Szko\u0142a Policealna","name":"Szko\u0142a Policealna","addr:country":"PL","addr:postcode":"38-700","addr:city":"Ustrzyki Dolne","addr:street":"ul. Przemys\u0142owa","addr:housenumber":"15","addr:teryt:simc":17742,"addr:teryt:sym_ul":953817,"contact:phone":"+48 134611447","contact:email":"bzszustrzyki@wp.pl","ref:regon":"371014397","operator":"Powiat Bieszczadzki","operator:type":"government","amenity":"college","note":"Parent RSPO: 23596"}},{"id":133066,"type":"Feature","geometry":{"type":"Point","coordinates":[22.56334,49.41797]},"properties":{"isced:level":"3","ref:rspo":133066,"official_name":"Ii Liceum Og\u00f3lnokszta\u0142c\u0105ce dla Doros\u0142ych w Ustrzykach Dolnych","name":"Ii Liceum Og\u00f3lnokszta\u0142c\u0105ce dla Doros\u0142ych w Ustrzykach Dolnych","addr:country":"PL","addr:postcode":"38-700","addr:city":"Ustrzyki Dolne","addr:street":"ul. Przemys\u0142owa","addr:housenumber":"15","addr:teryt:simc":17742,"addr:teryt:sym_ul":953817,"contact:phone":"+48 134611447","contact:email":"bzszustrzyki@wp.pl","ref:regon":"366580583","operator":"Powiat Bieszczadzki","operator:type":"government","amenity":"school","note":"Parent RSPO: 23596"}},{"id":26899,"type":"Feature","geometry":{"type":"Point","coordinates":[22.55614,49.42343]},"properties":{"isced:level":"1;2","ref:rspo":26899,"official_name":"Szko\u0142a Podstawowa im. Bohater\u00f3w Lotnictwa Polskiego w Ustjanowej G\u00f3rnej","name":"Szko\u0142a Podstawowa","addr:country":"PL","addr:postcode":"38-700","addr:place":"Ustjanowa G\u00f3rna","addr:housenumber":"84","addr:teryt:sym_ul":361749,"contact:phone":"+48 134613960","contact:email":"sekretariat@spustjanowa.pl","contact:website":"http:\/\/www.spustianowa.szkolnastrona.pl","ref:regon":"001200764","ref:vatin":"PL6891099060","operator":"Gmina Ustrzyki Dolne","operator:type":"government","amenity":"school"}},{"id":24351,"type":"Feature","geometry":{"type":"Point","coordinates":[22.59105,49.43076]},"properties":{"ref:rspo":24351,"official_name":"Zesp\u00f3\u0142 Szk\u00f3\u0142 Licealnych im. J\u00f3zefa Pi\u0142sudskiego","name":"Zesp\u00f3\u0142 Szk\u00f3\u0142 Licealnych","addr:country":"PL","addr:postcode":"38-700","addr:city":"Ustrzyki Dolne","addr:street":"ul. Miko\u0142aja Kopernika","addr:housenumber":"4","addr:teryt:simc":9282,"addr:teryt:sym_ul":953817,"contact:phone":"+48 134611306","contact:email":"lo_ustrzyki@poczta.onet.pl","contact:website":"http:\/\/www.loustrzyki.edu.pl","ref:regon":"000258543","ref:vatin":"PL6891097960","operator":"Powiat Bieszczadzki","operator:type":"government","landuse":"education","fixme":"amenity=school, amenity=college albo landuse=education w zale\u017cno\u015bci od tego, jakie plac\u00f3wki wchodz\u0105 w sk\u0142ad zespo\u0142u. Sprawd\u017a, kiedy stosowa\u0107 amenity=* a kiedy landuse=education.","note":"Children RSPO: 84206;84782;114082"}},{"id":84206,"type":"Feature","geometry":{"type":"Point","coordinates":[22.59105,49.43073]},"properties":{"isced:level":"3","ref:rspo":84206,"official_name":"I Liceum Og\u00f3lnokszta\u0142c\u0105ce dla Doros\u0142ych","name":"I Liceum Og\u00f3lnokszta\u0142c\u0105ce dla Doros\u0142ych","addr:country":"PL","addr:postcode":"38-700","addr:city":"Ustrzyki Dolne","addr:street":"ul. Miko\u0142aja Kopernika","addr:housenumber":"4","addr:teryt:simc":9282,"addr:teryt:sym_ul":953817,"contact:phone":"+48 134611306","contact:email":"lo_ustrzyki@poczta.onet.pl","contact:website":"http:\/\/www.loustrzyki.edu.pl","ref:regon":"371016255","operator":"Powiat Bieszczadzki","operator:type":"government","amenity":"school","note":"Parent RSPO: 24351"}},{"id":84782,"type":"Feature","geometry":{"type":"Point","coordinates":[22.59105,49.4307]},"properties":{"ref:rspo":84782,"official_name":"Ognisko Pracy Pozaszkolnej w Ustrzykach Dolnych","name":"Ognisko Pracy Pozaszkolnej w Ustrzykach Dolnych","addr:country":"PL","addr:postcode":"38-700","addr:city":"Ustrzyki Dolne","addr:street":"ul. Miko\u0142aja Kopernika","addr:housenumber":"4","addr:teryt:simc":9282,"addr:teryt:sym_ul":953817,"contact:phone":"+48 134611306","contact:email":"lo_ustrzyki@poczta.onet.pl","ref:regon":"371003413","ref:vatin":"PL6891170094","operator":"Powiat Bieszczadzki","operator:type":"government","amenity":"community_centre","community_centre:for":"child;juvenile","note":"Parent RSPO: 24351"}},{"id":114082,"type":"Feature","geometry":{"type":"Point","coordinates":[22.59105,49.43067]},"properties":{"isced:level":"3","ref:rspo":114082,"official_name":"Liceum Og\u00f3lnokszta\u0142c\u0105ce","name":"Liceum Og\u00f3lnokszta\u0142c\u0105ce","addr:country":"PL","addr:postcode":"38-700","addr:city":"Ustrzyki Dolne","addr:street":"ul. Miko\u0142aja Kopernika","addr:housenumber":"4","addr:teryt:simc":9282,"addr:teryt:sym_ul":953817,"contact:phone":"+48 134611306","contact:email":"lo_ustrzyki@poczta.onet.pl","contact:website":"http:\/\/www.loustrzyki.edu.pl","ref:regon":"371016249","operator":"Powiat Bieszczadzki","operator:type":"government","amenity":"school","note":"Parent RSPO: 24351"}},{"id":128402,"type":"Feature","geometry":{"type":"Point","coordinates":[22.58421,49.43094]},"properties":{"ref:rspo":128402,"official_name":"Pedagogiczna Biblioteka Wojew\u00f3dzka w Kro\u015bnie Filia w Ustrzykach Dolnych","name":"Pedagogiczna Biblioteka Wojew\u00f3dzka w Kro\u015bnie Filia w Ustrzykach Dolnych","addr:country":"PL","addr:postcode":"38-700","addr:city":"Ustrzyki Dolne","addr:street":"ul. Be\u0142ska","addr:housenumber":"22","addr:teryt:simc":1000,"addr:teryt:sym_ul":953817,"contact:email":"ustrzyki@pbw.org.pl","ref:regon":"402045900","operator":"Wojew\u00f3dztwo Podkarpackie","operator:type":"government","amenity":"library","note":"Parent RSPO: 92374"}},{"id":27707,"type":"Feature","geometry":{"type":"Point","coordinates":[22.59374,49.43108]},"properties":{"isced:level":"1;2","ref:rspo":27707,"official_name":"Szko\u0142a Podstawowa Nr 1 im. Miko\u0142aja Kopernika w Ustrzykach Dolnych","name":"Szko\u0142a Podstawowa Nr 1","addr:country":"PL","addr:postcode":"38-700","addr:city":"Ustrzyki Dolne","addr:street":"ul. 29 Listopada","addr:housenumber":"21","addr:teryt:simc":11208,"addr:teryt:sym_ul":953817,"contact:phone":"+48 134611421","contact:email":"sp1ustrzyki@sp1ustrzyki.pl","contact:website":"http:\/\/www.sp1ud.ustrzyki-dolne.pl","ref:regon":"001198292","operator":"Gmina Ustrzyki Dolne","operator:type":"government","amenity":"school"}},{"id":276828,"type":"Feature","geometry":{"type":"Point","coordinates":[22.59374,49.43105]},"properties":{"ref:rspo":276828,"official_name":"Samorz\u0105dowa Szko\u0142a Muzyczna I Stopnia w Ustrzykach Dolnych","name":"Samorz\u0105dowa Szko\u0142a Muzyczna I Stopnia w Ustrzykach Dolnych","addr:country":"PL","addr:postcode":"38-700","addr:city":"Ustrzyki Dolne","addr:street":"ul. 29 Listopada","addr:housenumber":"21","addr:teryt:simc":11208,"addr:teryt:sym_ul":953817,"contact:phone":"+48 134611421","contact:email":"j.nycz@ssm-ustrzyki.pl","contact:website":"http:\/\/ssmud.szkolnastrona.pl","ref:regon":"387666928","operator":"Gmina Ustrzyki Dolne","operator:type":"government","amenity":"music_school"}},{"id":15411,"type":"Feature","geometry":{"type":"Point","coordinates":[22.602,49.4322299]},"properties":{"ref:rspo":15411,"official_name":"Przedszkole Nr 2 w Ustrzykach Dolnych","name":"Przedszkole Nr 2 w Ustrzykach Dolnych","addr:country":"PL","addr:postcode":"38-700","addr:city":"Ustrzyki Dolne","addr:street":"ul. 29 Listopada","addr:housenumber":"49","addr:teryt:simc":11208,"addr:teryt:sym_ul":953817,"contact:phone":"+48 134927787","contact:email":"j.molek@przedszkolenr2-ustrzyki.pl","ref:regon":"180640895","ref:vatin":"PL6891230353","operator":"Gmina Ustrzyki Dolne","operator:type":"government","amenity":"kindergarten"}},{"id":26806,"type":"Feature","geometry":{"type":"Point","coordinates":[22.58634,49.43231]},"properties":{"ref:rspo":26806,"official_name":"Przedszkole Nr 1 w Ustrzykach Dolnych","name":"Przedszkole Nr 1 w Ustrzykach Dolnych","addr:country":"PL","addr:postcode":"38-700","addr:city":"Ustrzyki Dolne","addr:street":"ul. Pionierska","addr:housenumber":"8","addr:teryt:simc":16297,"addr:teryt:sym_ul":953817,"contact:phone":"+48 973915355","contact:email":"przedszkole1ud@gmail.com","ref:regon":"180640866","ref:vatin":"PL6891230376","operator":"Gmina Ustrzyki Dolne","operator:type":"government","amenity":"kindergarten"}},{"id":27705,"type":"Feature","geometry":{"type":"Point","coordinates":[22.58434,49.43251]},"properties":{"isced:level":"1;2","ref:rspo":27705,"official_name":"Szko\u0142a Podstawowa Nr 2 im. Tadeusza Ko\u015bciuszki Narciarska Szko\u0142a Sportowa w Ustrzykach Dolnych","name":"Szko\u0142a Podstawowa Nr 2","addr:country":"PL","addr:postcode":"38-700","addr:city":"Ustrzyki Dolne","addr:street":"ul. Dobra","addr:housenumber":"6","addr:teryt:simc":3928,"addr:teryt:sym_ul":953817,"contact:phone":"+48 134611605","contact:email":"sekretariat@zsp2nss.pl","contact:website":"http:\/\/www.zsp2ustrzyki.pl","ref:regon":"370474010","operator":"Gmina Ustrzyki Dolne","operator:type":"government","amenity":"school"}},{"id":275331,"type":"Feature","geometry":{"type":"Point","coordinates":[22.58434,49.43248]},"properties":{"ref:rspo":275331,"official_name":"Zesp\u00f3\u0142 Szk\u00f3\u0142 Sportowych w Ustrzykach Dolnych","name":"Zesp\u00f3\u0142 Szk\u00f3\u0142 Sportowych w Ustrzykach Dolnych","addr:country":"PL","addr:postcode":"38-700","addr:city":"Ustrzyki Dolne","addr:street":"ul. Dobra","addr:housenumber":"6","addr:teryt:simc":3928,"addr:teryt:sym_ul":953817,"contact:phone":"+48 134611605","contact:email":"dyrektor@zsp2nss.pl","contact:website":"http:\/\/smsustrzyki.pl","ref:regon":"386811185","operator":"Gmina Ustrzyki Dolne","operator:type":"government","landuse":"education","fixme":"amenity=school, amenity=college albo landuse=education w zale\u017cno\u015bci od tego, jakie plac\u00f3wki wchodz\u0105 w sk\u0142ad zespo\u0142u. Sprawd\u017a, kiedy stosowa\u0107 amenity=* a kiedy landuse=education.","note":"Children RSPO: 272383;275327"}},{"id":272383,"type":"Feature","geometry":{"type":"Point","coordinates":[22.58434,49.43245]},"properties":{"isced:level":"1;2","ref:rspo":272383,"official_name":"Szko\u0142a Mistrzostwa Sportowego w Ustrzykach Dolnych","name":"Szko\u0142a Mistrzostwa Sportowego w Ustrzykach Dolnych","addr:country":"PL","addr:postcode":"38-700","addr:city":"Ustrzyki Dolne","addr:street":"ul. Dobra","addr:housenumber":"6","addr:teryt:simc":3928,"addr:teryt:sym_ul":953817,"contact:phone":"+48 134611605","contact:email":"smsustrzyki@ustrzyki-dolne.pl","contact:website":"http:\/\/smsustrzyki.superszkolna.pl","ref:regon":"384157089","operator":"Gmina Ustrzyki Dolne","operator:type":"government","amenity":"school","note":"Parent RSPO: 275331"}},{"id":275327,"type":"Feature","geometry":{"type":"Point","coordinates":[22.58434,49.43242]},"properties":{"isced:level":"3","ref:rspo":275327,"official_name":"Liceum Og\u00f3lnokszta\u0142c\u0105ce Mistrzostwa Sportowego w Ustrzykch Dolnych","name":"Liceum Og\u00f3lnokszta\u0142c\u0105ce Mistrzostwa Sportowego w Ustrzykch Dolnych","addr:country":"PL","addr:postcode":"38-700","addr:city":"Ustrzyki Dolne","addr:street":"ul. Dobra","addr:housenumber":"6","addr:teryt:simc":3928,"addr:teryt:sym_ul":953817,"contact:phone":"+48 134611605","contact:email":"smsustrzyki@ustrzyki-dolne.pl","contact:website":"http:\/\/smsustrzyki.pl","ref:regon":"386810228","operator":"Gmina Ustrzyki Dolne","operator:type":"government","amenity":"school","note":"Parent RSPO: 275331"}},{"id":23597,"type":"Feature","geometry":{"type":"Point","coordinates":[22.58581,49.43283]},"properties":{"ref:rspo":23597,"official_name":"Poradnia Psychologiczno-Pedagogiczna w Ustrzykach Dolnych","name":"Poradnia Psychologiczno-Pedagogiczna w Ustrzykach Dolnych","addr:country":"PL","addr:postcode":"38-700","addr:city":"Ustrzyki Dolne","addr:street":"ul. Pionierska","addr:housenumber":"10","addr:teryt:simc":16297,"addr:teryt:sym_ul":953817,"contact:phone":"+48 134611291","contact:email":"sekretariatpppustrzyki@gmail.com","ref:regon":"370998434","ref:vatin":"PL6891183168","operator":"Powiat Bieszczadzki","operator:type":"government","healthcare":"councelling","counselling_type":"education","fixme":"w zale\u017cno\u015bci od przedmiotu dzia\u0142alno\u015bci (np. healthcare=councelling + counselling_type=education albo healthcare=psychotherapist)"}},{"id":19267,"type":"Feature","geometry":{"type":"Point","coordinates":[22.57618,49.43675]},"properties":{"ref:rspo":19267,"official_name":"Bieszczadzki Zesp\u00f3\u0142 Plac\u00f3wek Szkolno-Wychowawczych w Ustrzykach Dolnych","name":"Bieszczadzki Zesp\u00f3\u0142 Plac\u00f3wek Szkolno-Wychowawczych w Ustrzykach Dolnych","addr:country":"PL","addr:postcode":"38-700","addr:city":"Ustrzyki Dolne","addr:street":"ul. Witolda Gombrowicza","addr:housenumber":"37","addr:teryt:simc":5787,"addr:teryt:sym_ul":953817,"contact:phone":"+48 134611104","contact:email":"sosw_ud@poczta.onet.pl","contact:website":"http:\/\/www.bieszczadzkizespol.szkolnastrona.pl\/","ref:regon":"180869103","ref:vatin":"PL6891232843","operator":"Powiat Bieszczadzki","operator:type":"government","landuse":"education","fixme":"amenity=school, amenity=college albo landuse=education w zale\u017cno\u015bci od tego, jakie plac\u00f3wki wchodz\u0105 w sk\u0142ad zespo\u0142u. Sprawd\u017a, kiedy stosowa\u0107 amenity=* a kiedy landuse=education.","note":"Children RSPO: 20862;23590;23591;23593;23594;23595"}},{"id":20862,"type":"Feature","geometry":{"type":"Point","coordinates":[22.57618,49.43672]},"properties":{"ref:rspo":20862,"official_name":"Bieszczadzki Zesp\u00f3\u0142 Plac\u00f3wek Szkolno-Wychowawczych Szkolne Schronisko M\u0142odzierzowe w Ustrzykach Dolnych","name":"Bieszczadzki Zesp\u00f3\u0142 Plac\u00f3wek Szkolno-Wychowawczych Szkolne Schronisko M\u0142odzierzowe w Ustrzykach Dolnych","addr:country":"PL","addr:postcode":"38-700","addr:city":"Ustrzyki Dolne","addr:street":"ul. Witolda Gombrowicza","addr:housenumber":"37","addr:teryt:simc":5787,"addr:teryt:sym_ul":953817,"contact:phone":"+48 134611104","contact:email":"sosw_ud@poczta.onet.pl","ref:regon":"180892697","operator":"Powiat Bieszczadzki","operator:type":"government","tourism":"hostel","note":"Parent RSPO: 19267"}},{"id":23590,"type":"Feature","geometry":{"type":"Point","coordinates":[22.57618,49.436690000000006]},"properties":{"ref:rspo":23590,"official_name":"Specjalny O\u015brodek Szkolno-Wychowawczy","name":"Specjalny O\u015brodek Szkolno-Wychowawczy","addr:country":"PL","addr:postcode":"38-700","addr:city":"Ustrzyki Dolne","addr:street":"ul. Witolda Gombrowicza","addr:housenumber":"37","addr:teryt:simc":5787,"addr:teryt:sym_ul":953817,"contact:phone":"+48 134611104","contact:email":"sosw_ud@poczta.onet.pl","ref:regon":"000879535","operator":"Powiat Bieszczadzki","operator:type":"government","amenity":"social facility","social_facility":"group_home","social_facility:for":"child;juvenile","note":"Parent RSPO: 19267"}},{"id":23591,"type":"Feature","geometry":{"type":"Point","coordinates":[22.57618,49.43666]},"properties":{"isced:level":"1;2","ref:rspo":23591,"official_name":"Szko\u0142a Podstawowa Nr 3 Specjalna","name":"Szko\u0142a Podstawowa Nr 3 Specjalna","addr:country":"PL","addr:postcode":"38-700","addr:city":"Ustrzyki Dolne","addr:street":"ul. Witolda Gombrowicza","addr:housenumber":"37","addr:teryt:simc":5787,"addr:teryt:sym_ul":953817,"contact:phone":"+48 134611104","contact:email":"sosw_ud@poczta.onet.pl","ref:regon":"371012949","operator":"Powiat Bieszczadzki","operator:type":"government","amenity":"school","note":"Parent RSPO: 19267"}},{"id":23593,"type":"Feature","geometry":{"type":"Point","coordinates":[22.57618,49.43663]},"properties":{"isced:level":"3","ref:rspo":23593,"official_name":"Zasadnicza Szko\u0142a Zawodowa Nr 2","name":"Zasadnicza Szko\u0142a Zawodowa Nr 2","addr:country":"PL","addr:postcode":"38-700","addr:city":"Ustrzyki Dolne","addr:street":"ul. Witolda Gombrowicza","addr:housenumber":"37","addr:teryt:simc":5787,"addr:teryt:sym_ul":953817,"contact:phone":"+48 134611104","contact:email":"sosw_ud@poczta.onet.pl","ref:regon":"371012932","operator":"Powiat Bieszczadzki","operator:type":"government","amenity":"school","note":"Parent RSPO: 19267"}},{"id":23594,"type":"Feature","geometry":{"type":"Point","coordinates":[22.57618,49.436600000000006]},"properties":{"ref:rspo":23594,"official_name":"Szko\u0142a Specjalna Przysposabiaj\u0105ca Do Pracy","name":"Szko\u0142a Specjalna Przysposabiaj\u0105ca Do Pracy","addr:country":"PL","addr:postcode":"38-700","addr:city":"Ustrzyki Dolne","addr:street":"ul. Witolda Gombrowicza","addr:housenumber":"37","addr:teryt:simc":5787,"addr:teryt:sym_ul":953817,"contact:phone":"+48 134611104","contact:email":"sosw_ud@poczta.onet.pl","ref:regon":"180160712","operator":"Powiat Bieszczadzki","operator:type":"government","amenity":"school","note":"Parent RSPO: 19267"}},{"id":23595,"type":"Feature","geometry":{"type":"Point","coordinates":[22.57618,49.43657]},"properties":{"ref:rspo":23595,"official_name":"Bieszczadzka Bursa Szkolna","name":"Bieszczadzka Bursa Szkolna","addr:country":"PL","addr:postcode":"38-700","addr:city":"Ustrzyki Dolne","addr:street":"ul. Witolda Gombrowicza","addr:housenumber":"37","addr:teryt:simc":5787,"addr:teryt:sym_ul":953817,"contact:phone":"+48 134611104","contact:email":"sosw_ud@poczta.onet.pl","ref:regon":"180157118","operator":"Powiat Bieszczadzki","operator:type":"government","building":"dormitory","note":"Parent RSPO: 19267"}},{"id":27784,"type":"Feature","geometry":{"type":"Point","coordinates":[22.50591,49.53623]},"properties":{"isced:level":"1;2","ref:rspo":27784,"official_name":"Szko\u0142a Podstawowa im. Ignacego \u0141ukasiewicza w Ropience","name":"Szko\u0142a Podstawowa","addr:country":"PL","addr:postcode":"38-711","addr:place":"Ropienka","addr:housenumber":"111","addr:teryt:sym_ul":358339,"contact:phone":"+48 134601008","contact:email":"gimro@op.pl","contact:website":"http:\/\/www.spropienka.szkolnastrona.pl","ref:regon":"001214418","operator":"Gmina Ustrzyki Dolne","operator:type":"government","amenity":"school"}},{"id":26812,"type":"Feature","geometry":{"type":"Point","coordinates":[22.5527799,49.57371]},"properties":{"isced:level":"1;2","ref:rspo":26812,"official_name":"Szko\u0142a Podstawowa w Wojtkowej","name":"Szko\u0142a Podstawowa w Wojtkowej","addr:country":"PL","addr:postcode":"38-712","addr:place":"Wojtkowa","addr:housenumber":"40","addr:teryt:sym_ul":361761,"contact:phone":"+48 134612313","contact:email":"sekretariat@spwojtkowa.pl","contact:website":"http:\/\/www.spwojtkowa.szkolnastrona.pl","ref:regon":"001200758","ref:vatin":"PL6891099120","operator":"Gmina Ustrzyki Dolne","operator:type":"government","amenity":"school"}}]}