{
    "type": "FeatureCollection",
    "features": [
        {
            "id": 268384,
            "type": "Feature",
            "geometry": {
                "type": "Point",
                "coordinates": [
                    16.87876,
                    52.32741
                ]
            },
            "properties": {
                "ref:rspo": 268384,
                "official_name": "Przedszkole Specjalistyczne Emedea-Intuicja w Luboniu",
                "name": "Przedszkole Specjalistyczne Emedea-Intuicja w Luboniu",
                "addr:postcode": "62-030",
                "addr:city": "Lubo\u0144",
                "addr:street": "Jana III Sobieskiego",
                "addr:housenumber": "97A",
                "addr:city:simc": 970974,
                "addr:street:sym_ul": 20431,
                "phone": "+48 612220004",
                "email": "orewemedea@emedea.pl",
                "website": "http:\/\/orew.emedea.pl",
                "ref:regon": "381130569",
                "operator": "O\u015brodek Rehabilitacyjno Edukacyjno Wychowawczy Emedea Sp\u00f3\u0142ka Z Ograniczon\u0105 Odpowiedzialno\u015bci\u0105",
                "operator:type": "private",
                "amenity": "kindergarten"
            }
        },
        {
            "id": 268943,
            "type": "Feature",
            "geometry": {
                "type": "Point",
                "coordinates": [
                    16.87876,
                    52.32738
                ]
            },
            "properties": {
                "ref:rspo": 268943,
                "official_name": "O\u015brodek Rehabilitacyjno Edukacyjno Wychowawczy Emedea w Luboniu",
                "name": "O\u015brodek Rehabilitacyjno Edukacyjno Wychowawczy Emedea w Luboniu",
                "addr:postcode": "62-031",
                "addr:city": "Lubo\u0144",
                "addr:street": "Jana III Sobieskiego",
                "addr:housenumber": "97A",
                "addr:city:simc": 970974,
                "addr:street:sym_ul": 20431,
                "phone": "+48 612220004",
                "email": "orewemedea@emedea.pl",
                "ref:regon": "381301864",
                "operator": "O\u015brodek Rehabilitacyjno Edukacyjno Wychowawczy Emedea Sp\u00f3\u0142ka Z Ograniczon\u0105 Odpowiedzialno\u015bci\u0105",
                "operator:type": "private",
                "amenity": "school"
            }
        },
        {
            "id": 269391,
            "type": "Feature",
            "geometry": {
                "type": "Point",
                "coordinates": [
                    16.87876,
                    52.32735
                ]
            },
            "properties": {
                "ref:rspo": 269391,
                "official_name": "Przedszkole Niepubliczne Norlandia",
                "name": "Przedszkole Niepubliczne Norlandia",
                "addr:postcode": "62-030",
                "addr:city": "Lubo\u0144",
                "addr:street": "Jana III Sobieskiego",
                "addr:housenumber": "97A",
                "addr:city:simc": 970974,
                "addr:street:sym_ul": 20431,
                "phone": "+48 606219304",
                "email": "beata.standarska@norlandia.com",
                "website": "http:\/\/www.norlandiaprzedszkola.pl",
                "ref:regon": "381467843",
                "operator": "Norlandia Polska Sp\u00f3\u0142ka Z Ograniczon\u0105 Odpowiedzialno\u015bci\u0105",
                "operator:type": "private",
                "amenity": "kindergarten"
            }
        },
        {
            "id": 26716,
            "type": "Feature",
            "geometry": {
                "type": "Point",
                "coordinates": [
                    16.87649,
                    52.33276
                ]
            },
            "properties": {
                "ref:rspo": 26716,
                "official_name": "Przedszkole nr 1",
                "name": "Przedszkole nr 1",
                "addr:postcode": "62-030",
                "addr:city": "Lubo\u0144",
                "addr:street": "Jana III Sobieskiego",
                "addr:housenumber": "65",
                "addr:city:simc": 970974,
                "addr:street:sym_ul": 20431,
                "phone": "+48 618130102",
                "email": "przedszkole1@onet.pl",
                "website": "http:\/\/pogodneprzedszkolewluboniu.pl\/",
                "ref:regon": "301630567",
                "ref:vatin": "PL7831664982",
                "operator": "Miasto Lubo\u0144",
                "operator:type": "government",
                "amenity": "kindergarten"
            }
        },
        {
            "id": 26448,
            "type": "Feature",
            "geometry": {
                "type": "Point",
                "coordinates": [
                    16.87989,
                    52.33323
                ]
            },
            "properties": {
                "isced:level": "1;2",
                "ref:rspo": 26448,
                "official_name": "Szko\u0142a Podstawowa nr 4 im. Prof Adama Wodziczki",
                "name": "Szko\u0142a Podstawowa nr 4",
                "addr:postcode": "62-030",
                "addr:city": "Lubo\u0144",
                "addr:street": "1 Maja",
                "addr:housenumber": "10",
                "addr:city:simc": 970974,
                "addr:street:sym_ul": 11926,
                "phone": "+48 618130381",
                "email": "spnr4@lubon.pl",
                "website": "http:\/\/sp4lubon.szkolnastrona.pl",
                "ref:regon": "000717241",
                "ref:vatin": "PL7771407625",
                "operator": "Miasto Lubo\u0144",
                "operator:type": "government",
                "amenity": "school"
            }
        },
        {
            "id": 273521,
            "type": "Feature",
            "geometry": {
                "type": "Point",
                "coordinates": [
                    16.88597,
                    52.33928
                ]
            },
            "properties": {
                "ref:rspo": 273521,
                "official_name": "Przedszkole nr 7 Fantazja",
                "name": "Przedszkole nr 7 Fantazja",
                "addr:postcode": "62-030",
                "addr:city": "Lubo\u0144",
                "addr:street": "Chudzickiego",
                "addr:housenumber": "16",
                "addr:city:simc": 970974,
                "addr:street:sym_ul": 2927,
                "email": "biuro@fantazja-przedszkole.pl",
                "website": "http:\/\/www.przedszkolefantazja.pl",
                "ref:regon": "384487770",
                "operator": "Przedszkole Nr 7 Fantazja Sp\u00f3\u0142ka Z Ograniczon\u0105 Odpowiedzialno\u015bci\u0105",
                "operator:type": "private",
                "amenity": "kindergarten"
            }
        },
        {
            "id": 83695,
            "type": "Feature",
            "geometry": {
                "type": "Point",
                "coordinates": [
                    16.88708,
                    52.34077
                ]
            },
            "properties": {
                "ref:rspo": 83695,
                "official_name": "Przedszkole Publiczne Piasecka El\u017cbieta",
                "name": "Przedszkole Publiczne Piasecka El\u017cbieta",
                "addr:postcode": "62-030",
                "addr:city": "Lubo\u0144",
                "addr:street": "Konarzewskiego",
                "addr:housenumber": "10",
                "addr:city:simc": 970974,
                "addr:street:sym_ul": 9115,
                "phone": "+48 618102306",
                "email": "przedszkole.tiptopka@gmail.com",
                "ref:regon": "302266810",
                "ref:vatin": "PL7771547906",
                "operator": "El\u017cbieta Piasecka",
                "operator:type": "private",
                "amenity": "kindergarten"
            }
        },
        {
            "id": 71385,
            "type": "Feature",
            "geometry": {
                "type": "Point",
                "coordinates": [
                    16.87701,
                    52.34079
                ]
            },
            "properties": {
                "ref:rspo": 71385,
                "official_name": "Niepubliczne Przedszkole \"Tajemnicza Wyspa\"",
                "name": "Niepubliczne Przedszkole \"Tajemnicza Wyspa\"",
                "addr:postcode": "62-030",
                "addr:city": "Lubo\u0144",
                "addr:street": "Miko\u0142aja Kopernika",
                "addr:housenumber": "4",
                "addr:city:simc": 970974,
                "addr:street:sym_ul": 9282,
                "phone": "+48 618130950",
                "email": "przedszkole@tajemniczawyspa.com.pl",
                "ref:regon": "302258710",
                "operator": "Dane Do Uzupe\u0142nienia",
                "operator:type": "private",
                "amenity": "kindergarten"
            }
        },
        {
            "id": 276898,
            "type": "Feature",
            "geometry": {
                "type": "Point",
                "coordinates": [
                    16.88251,
                    52.34104
                ]
            },
            "properties": {
                "ref:rspo": 276898,
                "official_name": "Bajkowe Przedszkole",
                "name": "Bajkowe Przedszkole",
                "addr:postcode": "62-030",
                "addr:city": "Lubo\u0144",
                "addr:street": "Stefana \u017beromskiego",
                "addr:housenumber": "1A",
                "addr:city:simc": 970974,
                "addr:street:sym_ul": 26469,
                "phone": "+48 698078914",
                "email": "bajkoweprzedszkolelubon@gmail.com",
                "website": "https:\/\/www.bajkowe-przedszkole.com.pl",
                "ref:regon": "387796460",
                "operator": "Bajkowe Przedszkole Sp\u00f3\u0142ka Z Ograniczon\u0105 Odpowiedzialno\u015bci\u0105",
                "operator:type": "private",
                "amenity": "kindergarten"
            }
        },
        {
            "id": 132860,
            "type": "Feature",
            "geometry": {
                "type": "Point",
                "coordinates": [
                    16.89129,
                    52.34128
                ]
            },
            "properties": {
                "ref:rspo": 132860,
                "official_name": "Przedszkole Publiczne \"U 7 Krasnoludk\u00f3w\"",
                "name": "Przedszkole Publiczne \"U 7 Krasnoludk\u00f3w\"",
                "addr:postcode": "62-030",
                "addr:city": "Lubo\u0144",
                "addr:street": "Dworcowa",
                "addr:housenumber": "7",
                "addr:city:simc": 970974,
                "addr:street:sym_ul": 4434,
                "phone": "+48 665322262",
                "email": "przedszkole@u7krasnoludkow.edu.pl",
                "website": "http:\/\/www.u7krasnoludkow.edu.pl",
                "ref:regon": "366285401",
                "operator": "Przedszkole U 7 Krasnoludk\u00f3w Sp\u00f3\u0142ka Z Ograniczon\u0105 Odpowiedzialno\u015bci\u0105",
                "operator:type": "private",
                "amenity": "kindergarten"
            }
        },
        {
            "id": 265581,
            "type": "Feature",
            "geometry": {
                "type": "Point",
                "coordinates": [
                    16.87623,
                    52.34149
                ]
            },
            "properties": {
                "ref:rspo": 265581,
                "official_name": "Przedszkole Publiczne nr 10 \"Czarodziejscy.pl\"",
                "name": "Przedszkole Publiczne nr 10 \"Czarodziejscy.pl\"",
                "addr:postcode": "62-030",
                "addr:city": "Lubo\u0144",
                "addr:street": "Miko\u0142aja Kopernika",
                "addr:housenumber": "10A",
                "addr:city:simc": 970974,
                "addr:street:sym_ul": 9282,
                "phone": "+48 616395808",
                "email": "info@czarodziejscy.pl",
                "website": "http:\/\/www.czarodziejscy.pl",
                "ref:regon": "368794070",
                "operator": "Edugrana Sp\u00f3\u0142ka Z Ograniczon\u0105 Odpowiedzialno\u015bci\u0105",
                "operator:type": "private",
                "amenity": "kindergarten"
            }
        },
        {
            "id": 71684,
            "type": "Feature",
            "geometry": {
                "type": "Point",
                "coordinates": [
                    16.86731,
                    52.34235
                ]
            },
            "properties": {
                "ref:rspo": 71684,
                "official_name": "Niepubliczne Przedszkole \"Chatka Skrzatka\"",
                "name": "Niepubliczne Przedszkole \"Chatka Skrzatka\"",
                "addr:postcode": "62-030",
                "addr:city": "Lubo\u0144",
                "addr:street": "Szkolna",
                "addr:housenumber": "68",
                "addr:city:simc": 970974,
                "addr:street:sym_ul": 21970,
                "ref:regon": "302256220",
                "ref:vatin": "PL7792030999",
                "operator": "Hanna W\u0119grzyn",
                "operator:type": "private",
                "amenity": "kindergarten"
            }
        },
        {
            "id": 71557,
            "type": "Feature",
            "geometry": {
                "type": "Point",
                "coordinates": [
                    16.88327,
                    52.34292
                ]
            },
            "properties": {
                "ref:rspo": 71557,
                "official_name": "Poradnia Psychologiczno-Pedagogiczna w Luboniu",
                "name": "Poradnia Psychologiczno-Pedagogiczna w Luboniu",
                "addr:postcode": "62-030",
                "addr:city": "Lubo\u0144",
                "addr:street": "Wschodnia",
                "addr:housenumber": "26B",
                "addr:city:simc": 970974,
                "addr:street:sym_ul": 24879,
                "phone": "+48 618581979",
                "email": "ppplubon@powiat.poznan.pl",
                "website": "http:\/\/poradnie.powiat.poznan.pl\/lubon\/www\/",
                "ref:regon": "639694960",
                "ref:vatin": "PL7772426168",
                "operator": "Powiat Pozna\u0144ski",
                "operator:type": "government",
                "healthcare": "counselling",
                "counselling_type": "education",
                "fixme": "w zale\u017cno\u015bci od przedmiotu dzia\u0142alno\u015bci (np. healthcare=counselling + counselling_type=education albo healthcare=psychotherapist)",
                "note": "Children RSPO: 121387;121388;125343;125344"
            }
        },
        {
            "id": 196415,
            "type": "Feature",
            "geometry": {
                "type": "Point",
                "coordinates": [
                    16.86236,
                    52.34331
                ]
            },
            "properties": {
                "isced:level": "1;2",
                "ref:rspo": 196415,
                "official_name": "Szko\u0142a Podstawowa nr 5 im. \u015aw. Jana Paw\u0142a Ii",
                "name": "Szko\u0142a Podstawowa nr 5",
                "addr:postcode": "62-030",
                "addr:city": "Lubo\u0144",
                "addr:street": "Hugona Ko\u0142\u0142\u0105taja",
                "addr:housenumber": "1",
                "addr:city:simc": 970974,
                "addr:street:sym_ul": 9003,
                "phone": "+48 618932316",
                "email": "sekretariat@sp5.lubon.pl",
                "website": "http:\/\/sp5.lubon.pl",
                "ref:regon": "367992112",
                "operator": "Miasto Lubo\u0144",
                "operator:type": "government",
                "amenity": "school"
            }
        },
        {
            "id": 120491,
            "type": "Feature",
            "geometry": {
                "type": "Point",
                "coordinates": [
                    16.85551,
                    52.34337
                ]
            },
            "properties": {
                "ref:rspo": 120491,
                "official_name": "Przedszkole nr 4 \"Ma\u0142e Talenty\"",
                "name": "Przedszkole nr 4 \"Ma\u0142e Talenty\"",
                "addr:postcode": "62-030",
                "addr:city": "Lubo\u0144",
                "addr:street": "Klonowa",
                "addr:housenumber": "21A",
                "addr:city:simc": 970974,
                "addr:street:sym_ul": 8574,
                "phone": "+48 690193946",
                "email": "biuro@maletalenty.pl",
                "website": "http:\/\/www.maletalenty.pl",
                "ref:regon": "302547740",
                "ref:vatin": "PL7831828389",
                "operator": "Przedszkole Nr 4 Ma\u0142e Talenty Sp\u00f3\u0142ka Z Ograniczon\u0105 Odpowiedzialno\u015bci\u0105",
                "operator:type": "private",
                "amenity": "kindergarten"
            }
        },
        {
            "id": 71413,
            "type": "Feature",
            "geometry": {
                "type": "Point",
                "coordinates": [
                    16.88149,
                    52.34345
                ]
            },
            "properties": {
                "ref:rspo": 71413,
                "official_name": "Niepubliczne Przedszkole \"Domisie\"",
                "name": "Niepubliczne Przedszkole \"Domisie\"",
                "addr:postcode": "60-030",
                "addr:city": "Lubo\u0144",
                "addr:street": "Wschodnia",
                "addr:housenumber": "21",
                "addr:door": "65",
                "addr:city:simc": 970974,
                "addr:street:sym_ul": 24879,
                "phone": "+48 605081185",
                "ref:regon": "302258779",
                "operator": "Dane Do Uzupe\u0142nienia",
                "operator:type": "private",
                "amenity": "kindergarten"
            }
        },
        {
            "id": 122971,
            "type": "Feature",
            "geometry": {
                "type": "Point",
                "coordinates": [
                    16.88879,
                    52.3437399
                ]
            },
            "properties": {
                "ref:rspo": 122971,
                "official_name": "Przedszkole Publiczne \"T\u0119czowa Kraina\"",
                "name": "Przedszkole Publiczne \"T\u0119czowa Kraina\"",
                "addr:postcode": "62-030",
                "addr:city": "Lubo\u0144",
                "addr:street": "Stefana Okrzei",
                "addr:housenumber": "49",
                "addr:city:simc": 970974,
                "addr:street:sym_ul": 14914,
                "phone": "+48 618930359",
                "email": "biuro@teczowakraina.info.pl",
                "website": "http:\/\/www.teczowakraina.info.pl",
                "ref:regon": "302715716",
                "ref:vatin": "PL7831665102",
                "operator": "Dane Do Uzupe\u0142nienia",
                "operator:type": "private",
                "amenity": "kindergarten"
            }
        },
        {
            "id": 279220,
            "type": "Feature",
            "geometry": {
                "type": "Point",
                "coordinates": [
                    16.84985,
                    52.34478
                ]
            },
            "properties": {
                "ref:rspo": 279220,
                "official_name": "Niepubliczne Przedszkole Le\u015bny Domek",
                "name": "Niepubliczne Przedszkole Le\u015bny Domek",
                "addr:postcode": "62-030",
                "addr:city": "Lubo\u0144",
                "addr:street": "11 Listopada",
                "addr:housenumber": "158",
                "addr:city:simc": 970974,
                "addr:street:sym_ul": 11205,
                "email": "biuro@lesnydomek.edu.pl",
                "ref:regon": "520888900",
                "ref:vatin": "PL7882033582",
                "operator": "Apt Adan Sp\u00f3\u0142ka Z Ograniczon\u0105 Odpowiedzialno\u015bci\u0105",
                "operator:type": "private",
                "amenity": "kindergarten"
            }
        },
        {
            "id": 71333,
            "type": "Feature",
            "geometry": {
                "type": "Point",
                "coordinates": [
                    16.88914,
                    52.34565
                ]
            },
            "properties": {
                "ref:rspo": 71333,
                "official_name": "Niepubliczne Przedszkole \"Kubu\u015b Puchatek I Przyjaciele\" Magdalena Szyma\u0144ska",
                "name": "Niepubliczne Przedszkole \"Kubu\u015b Puchatek I Przyjaciele\" Magdalena Szyma\u0144ska",
                "addr:postcode": "62-030",
                "addr:city": "Lubo\u0144",
                "addr:street": "Marii Konopnickiej",
                "addr:housenumber": "14",
                "addr:city:simc": 970974,
                "addr:street:sym_ul": 9186,
                "phone": "+48 618301511",
                "email": "puchatek@przedszkolelubon.pl",
                "ref:regon": "302255640",
                "ref:vatin": "PL9720825650",
                "operator": "Dane Do Uzupe\u0142nienia",
                "operator:type": "private",
                "amenity": "kindergarten"
            }
        },
        {
            "id": 26344,
            "type": "Feature",
            "geometry": {
                "type": "Point",
                "coordinates": [
                    16.87847,
                    52.3471199
                ]
            },
            "properties": {
                "isced:level": "1;2",
                "ref:rspo": 26344,
                "official_name": "Szko\u0142a Podstawowa nr 2 im.augusta Hr.cieszkowskiego w Luboniu",
                "name": "Szko\u0142a Podstawowa nr 2 im.augusta Hr.cieszkowskiego w Luboniu",
                "addr:postcode": "62-030",
                "addr:city": "Lubo\u0144",
                "addr:street": "\u017babikowska",
                "addr:housenumber": "40",
                "addr:city:simc": 970974,
                "addr:street:sym_ul": 26375,
                "phone": "+48 618130392",
                "email": "sekretariat@sp2lubon.eu",
                "website": "http:\/\/sp2lubon.eu",
                "ref:regon": "000717229",
                "ref:vatin": "PL7771404147",
                "operator": "Miasto Lubo\u0144",
                "operator:type": "government",
                "amenity": "school"
            }
        },
        {
            "id": 71137,
            "type": "Feature",
            "geometry": {
                "type": "Point",
                "coordinates": [
                    16.8588099,
                    52.34793
                ]
            },
            "properties": {
                "ref:rspo": 71137,
                "official_name": "Niepubliczne Przedszkole \"Calineczka\"",
                "name": "Niepubliczne Przedszkole \"Calineczka\"",
                "addr:postcode": "62-030",
                "addr:city": "Lubo\u0144",
                "addr:street": "J\u00f3zefa Poniatowskiego",
                "addr:housenumber": "42",
                "addr:door": "A",
                "addr:city:simc": 970974,
                "addr:street:sym_ul": 17107,
                "email": "przedszkole@calineczka.net",
                "ref:regon": "302256993",
                "operator": "Liberi Sp\u00f3\u0142ka Z Ograniczon\u0105 Odpowiedzialno\u015bci\u0105",
                "operator:type": "private",
                "amenity": "kindergarten"
            }
        },
        {
            "id": 26388,
            "type": "Feature",
            "geometry": {
                "type": "Point",
                "coordinates": [
                    16.89753,
                    52.34802
                ]
            },
            "properties": {
                "isced:level": "1;2",
                "ref:rspo": 26388,
                "official_name": "Szko\u0142a Podstawowa nr 3 z Oddzia\u0142ami Dwuj\u0119zycznymi",
                "name": "Szko\u0142a Podstawowa nr 3 z Oddzia\u0142ami Dwuj\u0119zycznymi",
                "addr:postcode": "60-030",
                "addr:city": "Lubo\u0144",
                "addr:street": "Jana Henryka D\u0105browskiego",
                "addr:housenumber": "2a",
                "addr:city:simc": 970974,
                "addr:street:sym_ul": 3682,
                "phone": "+48 618102838",
                "email": "zswluboniu@gmail.com",
                "website": "http:\/\/sp3lubon.pl",
                "ref:regon": "000717235",
                "ref:vatin": "PL7773127031",
                "operator": "Miasto Lubo\u0144",
                "operator:type": "government",
                "amenity": "school",
                "note": "Parent RSPO: 267004"
            }
        },
        {
            "id": 267003,
            "type": "Feature",
            "geometry": {
                "type": "Point",
                "coordinates": [
                    16.89753,
                    52.347989999999996
                ]
            },
            "properties": {
                "isced:level": "3",
                "ref:rspo": 267003,
                "official_name": "Dwuj\u0119zyczne Liceum Og\u00f3lnokszta\u0142c\u0105ce",
                "name": "Dwuj\u0119zyczne Liceum Og\u00f3lnokszta\u0142c\u0105ce",
                "addr:postcode": "62-030",
                "addr:city": "Lubo\u0144",
                "addr:street": "Jana Henryka D\u0105browskiego",
                "addr:housenumber": "2a",
                "addr:city:simc": 970974,
                "addr:street:sym_ul": 3682,
                "phone": "+48 618102838",
                "email": "sekretariat@sp3lubon.pl",
                "website": "http:\/\/sp3lubon.pl",
                "ref:regon": "369783915",
                "ref:vatin": "PL7773127031",
                "operator": "Miasto Lubo\u0144",
                "operator:type": "government",
                "amenity": "school",
                "note": "Parent RSPO: 267004"
            }
        },
        {
            "id": 128236,
            "type": "Feature",
            "geometry": {
                "type": "Point",
                "coordinates": [
                    16.89669,
                    52.34808
                ]
            },
            "properties": {
                "isced:level": "1;2",
                "ref:rspo": 128236,
                "official_name": "Szko\u0142a Podstawowa im.\u015bw.filipa Neri",
                "name": "Szko\u0142a Podstawowa im.\u015bw.filipa Neri",
                "addr:postcode": "62-030",
                "addr:city": "Lubo\u0144",
                "addr:street": "Armii Pozna\u0144",
                "addr:housenumber": "27",
                "addr:city:simc": 970974,
                "addr:street:sym_ul": 31886,
                "phone": "+48 793130703",
                "email": "coradcor1890@gmail.com",
                "website": "http:\/\/szkolafilipaneri.pl",
                "ref:regon": "362191169",
                "operator": "Stowarzyszenie Cor Ad Cor Im.kardyna\u0142a J.h.newmana",
                "operator:type": "ngo",
                "amenity": "school"
            }
        },
        {
            "id": 267004,
            "type": "Feature",
            "geometry": {
                "type": "Point",
                "coordinates": [
                    16.89669,
                    52.34805
                ]
            },
            "properties": {
                "ref:rspo": 267004,
                "official_name": "Zesp\u00f3\u0142 Szk\u00f3\u0142 w Luboniu im. Kryptolog\u00f3w Pozna\u0144skich",
                "name": "Zesp\u00f3\u0142 Szk\u00f3\u0142 w Luboniu",
                "addr:postcode": "62-030",
                "addr:city": "Lubo\u0144",
                "addr:street": "Armii Pozna\u0144",
                "addr:housenumber": "27",
                "addr:city:simc": 970974,
                "addr:street:sym_ul": 31886,
                "phone": "+48 618102838",
                "email": "zswluboniu@gmail.com",
                "website": "http:\/\/sp3lubon.pl",
                "ref:regon": "369783938",
                "ref:vatin": "PL7773127031",
                "operator": "Miasto Lubo\u0144",
                "operator:type": "government",
                "landuse": "education",
                "fixme": "amenity=school, amenity=college albo landuse=education w zale\u017cno\u015bci od tego, jakie plac\u00f3wki wchodz\u0105 w sk\u0142ad zespo\u0142u. Sprawd\u017a, kiedy stosowa\u0107 amenity=* a kiedy landuse=education.",
                "note": "Children RSPO: 26388;267003"
            }
        },
        {
            "id": 131056,
            "type": "Feature",
            "geometry": {
                "type": "Point",
                "coordinates": [
                    16.85907,
                    52.34811
                ]
            },
            "properties": {
                "ref:rspo": 131056,
                "official_name": "Przedszkole Publiczne \"Calineczka\"",
                "name": "Przedszkole Publiczne \"Calineczka\"",
                "addr:postcode": "62-030",
                "addr:city": "Lubo\u0144",
                "addr:street": "J\u00f3zefa Poniatowskiego",
                "addr:housenumber": "42A",
                "addr:city:simc": 970974,
                "addr:street:sym_ul": 17107,
                "email": "przedszkole@calineczka.net",
                "website": "http:\/\/www.calineczka.net",
                "ref:regon": "364913164",
                "operator": "\"Jsc\" Sp\u00f3\u0142ka Z Ograniczon\u0105 Odpowiedzialno\u015bci\u0105",
                "operator:type": "private",
                "amenity": "kindergarten"
            }
        },
        {
            "id": 26665,
            "type": "Feature",
            "geometry": {
                "type": "Point",
                "coordinates": [
                    16.8755099,
                    52.34882
                ]
            },
            "properties": {
                "ref:rspo": 26665,
                "official_name": "Przedszkole nr 5 Weseli Sportowcy",
                "name": "Przedszkole nr 5 Weseli Sportowcy",
                "addr:postcode": "62-030",
                "addr:city": "Lubo\u0144",
                "addr:street": "Osiedlowa",
                "addr:housenumber": "19",
                "addr:city:simc": 970974,
                "addr:street:sym_ul": 15300,
                "phone": "+48 618130940",
                "email": "przedszkole@weselisportowcy.edu.pl",
                "website": "http:\/\/weselisportowcy.edu.pl",
                "ref:regon": "301629127",
                "ref:vatin": "PL7831664999",
                "operator": "Miasto Lubo\u0144",
                "operator:type": "government",
                "amenity": "kindergarten"
            }
        },
        {
            "id": 275163,
            "type": "Feature",
            "geometry": {
                "type": "Point",
                "coordinates": [
                    16.8605,
                    52.34981
                ]
            },
            "properties": {
                "isced:level": "1;2",
                "ref:rspo": 275163,
                "official_name": "Szko\u0142a Podstawowa Katolicka nr 6 w Luboniu",
                "name": "Szko\u0142a Podstawowa Katolicka nr 6 w Luboniu",
                "addr:postcode": "62-030",
                "addr:city": "Lubo\u0144",
                "addr:street": "Plac Edmunda Bojanowskiego",
                "addr:housenumber": "7a",
                "addr:city:simc": 970974,
                "addr:street:sym_ul": 47310,
                "email": "sekretariat@siewca.pl",
                "website": "http:\/\/www.szkola.siewca.pl",
                "ref:regon": "386650606",
                "operator": "Fundacja \"Siewca\" Im. B\u0142. Edmunda Bojanowskiego",
                "operator:type": "ngo",
                "amenity": "school"
            }
        },
        {
            "id": 277729,
            "type": "Feature",
            "geometry": {
                "type": "Point",
                "coordinates": [
                    16.8605,
                    52.349779999999996
                ]
            },
            "properties": {
                "ref:rspo": 277729,
                "official_name": "Katolicka Niepubliczna Szko\u0142a Muzyczna I Stopnia w Luboniu",
                "name": "Katolicka Niepubliczna Szko\u0142a Muzyczna I Stopnia w Luboniu",
                "addr:postcode": "62-030",
                "addr:city": "Lubo\u0144",
                "addr:street": "Plac Edmunda Bojanowskiego",
                "addr:housenumber": "7A",
                "addr:city:simc": 970974,
                "addr:street:sym_ul": 47310,
                "email": "muzyczna@siewca.pl",
                "website": "http:\/\/siewca.pl",
                "ref:regon": "389400560",
                "operator": "Fundacja \"Siewca\" Im. B\u0142. Edmunda Bojanowskiego",
                "operator:type": "ngo",
                "amenity": "music_school"
            }
        },
        {
            "id": 74964,
            "type": "Feature",
            "geometry": {
                "type": "Point",
                "coordinates": [
                    16.86058,
                    52.35004
                ]
            },
            "properties": {
                "ref:rspo": 74964,
                "official_name": "Przedszkole Niepubliczne \"Ochronka\" im.edmunda Bojanowskiego",
                "name": "Przedszkole Niepubliczne \"Ochronka\" im.edmunda Bojanowskiego",
                "addr:postcode": "62-030",
                "addr:city": "Lubo\u0144",
                "addr:street": "Plac Edmunda Bojanowskiego",
                "addr:housenumber": "6",
                "addr:city:simc": 970974,
                "addr:street:sym_ul": 47310,
                "phone": "+48 618130122",
                "ref:regon": "302263237",
                "operator": "Zgromadzenie Si\u00f3str S\u0142u\u017cebniczek Niepokalanego Pocz\u0119cia Naj\u015bwi\u0119tszej Maryi Panny",
                "operator:type": "religious",
                "amenity": "kindergarten"
            }
        },
        {
            "id": 26315,
            "type": "Feature",
            "geometry": {
                "type": "Point",
                "coordinates": [
                    16.8624699,
                    52.35014
                ]
            },
            "properties": {
                "isced:level": "1;2",
                "ref:rspo": 26315,
                "official_name": "Szko\u0142a Podstawowa nr 1 w Luboniu",
                "name": "Szko\u0142a Podstawowa nr 1 w Luboniu",
                "addr:postcode": "62-030",
                "addr:city": "Lubo\u0144",
                "addr:street": "J\u00f3zefa Poniatowskiego",
                "addr:housenumber": "16",
                "addr:city:simc": 970974,
                "addr:street:sym_ul": 17107,
                "phone": "+48 618130492",
                "email": "sekretariat.sp1@spnr1lubon.pl",
                "website": "http:\/\/sp1lubon.szkolnastrona.pl",
                "ref:regon": "000717212",
                "ref:vatin": "PL7771790914",
                "operator": "Miasto Lubo\u0144",
                "operator:type": "government",
                "amenity": "school"
            }
        },
        {
            "id": 277682,
            "type": "Feature",
            "geometry": {
                "type": "Point",
                "coordinates": [
                    16.86665,
                    52.35429
                ]
            },
            "properties": {
                "ref:rspo": 277682,
                "official_name": "Angloj\u0119zyczne Przedszkole Niepubliczne Peter Pan",
                "name": "Angloj\u0119zyczne Przedszkole Niepubliczne Peter Pan",
                "addr:postcode": "62-030",
                "addr:city": "Lubo\u0144",
                "addr:street": "Niez\u0142omnych",
                "addr:housenumber": "3B",
                "addr:city:simc": 970974,
                "addr:street:sym_ul": 14250,
                "phone": "+48 783718115",
                "email": "peterpanlubon@hotmail.com",
                "website": "http:\/\/www.peterpanlubon.pl",
                "ref:regon": "389327290",
                "ref:vatin": "PL7772266049",
                "operator": "Nina Gogolewska",
                "operator:type": "private",
                "amenity": "kindergarten"
            }
        }
    ]
}