{"type":"FeatureCollection","features":[{"id":274487,"type":"Feature","geometry":{"type":"Point","coordinates":[16.66956,52.40148]},"properties":{"ref:rspo":274487,"official_name":"Instytut Rakowskiego","name":"Instytut Rakowskiego","addr:country":"PL","addr:postcode":"62-080","addr:city":"Sieros\u0142aw","addr:street":"ul. Le\u015bna","addr:housenumber":"1","addr:teryt:simc":10898,"addr:teryt:sym_ul":597423,"contact:phone":"+48 618147900","contact:email":"instytut@ctmrakowski.pl","contact:website":"http:\/\/www.ctmrakowski.pl","ref:regon":"385836987","operator":"Danuta Soko\u0142owska","operator:type":"private","fixme":"w zale\u017cno\u015bci od przedmiotu dzia\u0142alno\u015bci (np. amenity=training + training=*, amenity=dancing_school, amenity=language_school, amenity=music_school)"}},{"id":273951,"type":"Feature","geometry":{"type":"Point","coordinates":[16.66844,52.40207]},"properties":{"ref:rspo":273951,"official_name":"Centrum Kszta\u0142cenia Fizjoterapii Weterynaryjnej Koni","name":"Centrum Kszta\u0142cenia Fizjoterapii Weterynaryjnej Koni","addr:country":"PL","addr:postcode":"62-080","addr:city":"Sieros\u0142aw","addr:street":"ul. Bukowska","addr:housenumber":"2A","addr:teryt:simc":2396,"addr:teryt:sym_ul":597423,"contact:phone":"+48 692276377","contact:email":"majabadura@wp.pl","ref:regon":"384910919","operator":"Maja Badura","operator:type":"private","fixme":"w zale\u017cno\u015bci od przedmiotu dzia\u0142alno\u015bci (np. amenity=training + training=*, amenity=dancing_school, amenity=language_school, amenity=music_school)"}},{"id":266650,"type":"Feature","geometry":{"type":"Point","coordinates":[16.78426,52.40593]},"properties":{"ref:rspo":266650,"official_name":"Niepubliczne Przedszkole La Lo Li","name":"Niepubliczne Przedszkole La Lo Li","addr:country":"PL","addr:postcode":"62-081","addr:city":"Wysogotowo","addr:street":"ul. Urocza","addr:housenumber":"11","addr:teryt:simc":23406,"addr:teryt:sym_ul":597452,"contact:phone":"+48 513513868","contact:email":"zanetastasikowska@gmail.com","contact:website":"http:\/\/www.laloli.pl","ref:regon":"369642770","ref:vatin":"PL9720947471","operator":"Jakub Stasikowski","operator:type":"private","amenity":"kindergarten"}},{"id":24534,"type":"Feature","geometry":{"type":"Point","coordinates":[16.78318,52.41939]},"properties":{"ref:rspo":24534,"official_name":"Przedszkole Niepubliczne Tajemniczy Ogr\u00f3d","name":"Przedszkole Niepubliczne Tajemniczy Ogr\u00f3d","addr:country":"PL","addr:postcode":"62-081","addr:city":"Prze\u017amierowo","addr:street":"ul. Kra\u0144cowa","addr:housenumber":"109","addr:teryt:simc":9819,"addr:teryt:sym_ul":597392,"contact:phone":"+48 696434293","contact:email":"biuro@przedszkoletajemniczyogrod.pl","contact:website":"http:\/\/www.przedszkoletajemniczyogrod.pl","ref:regon":"302236170","ref:vatin":"PL7773090457","operator":"Miwa Sp\u00f3\u0142ka Z Ograniczon\u0105 Odpowiedzialno\u015bci\u0105","operator:type":"private","amenity":"kindergarten"}},{"id":131749,"type":"Feature","geometry":{"type":"Point","coordinates":[16.77536,52.42209]},"properties":{"ref:rspo":131749,"official_name":"Publiczne Przedszkole \"Kaczuszka\"","name":"Publiczne Przedszkole \"Kaczuszka\"","addr:country":"PL","addr:postcode":"62-081","addr:city":"Prze\u017amierowo","addr:street":"ul. Po\u0142udniowa","addr:housenumber":"84","addr:teryt:simc":17070,"addr:teryt:sym_ul":597392,"contact:phone":"+48 616524056","contact:email":"biuro@przedszkole-kaczuszka.pl","contact:website":"http:\/\/www.przedszkole-kaczuszka.pl","ref:regon":"365339336","operator":"Pawe\u0142 Pawicki","operator:type":"private","amenity":"kindergarten"}},{"id":24763,"type":"Feature","geometry":{"type":"Point","coordinates":[16.64473,52.42448]},"properties":{"ref:rspo":24763,"official_name":"Przedszkole Na Zielonym Wzg\u00f3rzu w Lus\u00f3wku","name":"Przedszkole Na Zielonym Wzg\u00f3rzu w Lus\u00f3wku","addr:country":"PL","addr:postcode":"62-080","addr:city":"Lus\u00f3wko","addr:street":"ul. Dopiewska","addr:housenumber":"11","addr:teryt:simc":4122,"addr:teryt:sym_ul":597363,"contact:phone":"+48 618147956","contact:email":"dyrektor@przedszkole-lusowko.pl","contact:website":"http:\/\/www.przedszkole-lusowko.pl","ref:regon":"631576823","ref:vatin":"PL7771886583","operator":"Gmina Tarnowo Podg\u00f3rne","operator:type":"government","amenity":"kindergarten"}},{"id":272509,"type":"Feature","geometry":{"type":"Point","coordinates":[16.65509,52.42449]},"properties":{"ref:rspo":272509,"official_name":"Przedszkole Publiczne Bajkowa Akademia","name":"Przedszkole Publiczne Bajkowa Akademia","addr:country":"PL","addr:postcode":"62-080","addr:city":"Lus\u00f3wko","addr:street":"ul. Sieros\u0142awska","addr:housenumber":"76","addr:teryt:simc":19859,"addr:teryt:sym_ul":597363,"contact:phone":"+48 602557035","contact:email":"operator.przedszkola@gmail.pl","contact:website":"http:\/\/www.bajkowaakademia.com\/","ref:regon":"384285344","operator":"Natalia Aleksandrov","operator:type":"private","amenity":"kindergarten"}},{"id":24766,"type":"Feature","geometry":{"type":"Point","coordinates":[16.79294,52.42591]},"properties":{"ref:rspo":24766,"official_name":"Przedszkole \"Le\u015bne Skrzaty\" w Prze\u017amierowie","name":"Przedszkole \"Le\u015bne Skrzaty\" w Prze\u017amierowie","addr:country":"PL","addr:postcode":"62-081","addr:city":"Prze\u017amierowo","addr:street":"ul. Folwarczna","addr:housenumber":"85c","addr:teryt:simc":5109,"addr:teryt:sym_ul":597392,"contact:phone":"+48 618142121","contact:email":"lesneskrzaty@wp.pl","contact:website":"http:\/\/www.p-lesneskrzaty.pl","ref:regon":"631576800","ref:vatin":"PL7771973514","operator":"Gmina Tarnowo Podg\u00f3rne","operator:type":"government","amenity":"kindergarten"}},{"id":18821,"type":"Feature","geometry":{"type":"Point","coordinates":[16.78654,52.42593]},"properties":{"isced:level":"1;2","ref:rspo":18821,"official_name":"Szko\u0142a Podstawowa im. Arkadego Fiedlera w Prze\u017amierowie","name":"Szko\u0142a Podstawowa","addr:country":"PL","addr:postcode":"62-081","addr:city":"Prze\u017amierowo","addr:street":"ul. Ko\u015bcielna","addr:housenumber":"46\/48","addr:teryt:simc":9546,"addr:teryt:sym_ul":597392,"contact:phone":"+48 618142021","contact:email":"szkola@spprzezmierowo.pl","contact:website":"http:\/\/www.spprzezmierowo.pl","ref:regon":"001228030","ref:vatin":"PL7772445094","operator":"Gmina Tarnowo Podg\u00f3rne","operator:type":"government","amenity":"school"}},{"id":18876,"type":"Feature","geometry":{"type":"Point","coordinates":[16.64598,52.4266099]},"properties":{"isced:level":"1;2","ref:rspo":18876,"official_name":"Szko\u0142a Podstawowa im. Kawaler\u00f3w Orderu U\u015bmiechu w Lus\u00f3wku","name":"Szko\u0142a Podstawowa","addr:country":"PL","addr:postcode":"62-080","addr:city":"Lus\u00f3wko","addr:street":"ul. Dopiewska","addr:housenumber":"5","addr:teryt:simc":4122,"addr:teryt:sym_ul":597363,"contact:phone":"+48 618147731","contact:email":"szkola@splusowko.pl","contact:website":"http:\/\/www.gema.pl\/spltp","ref:regon":"632049110","ref:vatin":"PL7771898037","operator":"Gmina Tarnowo Podg\u00f3rne","operator:type":"government","amenity":"school"}},{"id":277795,"type":"Feature","geometry":{"type":"Point","coordinates":[16.712662777811,52.427335107333]},"properties":{"ref:rspo":277795,"official_name":"Zesp\u00f3\u0142 Szk\u00f3\u0142 Technicznych Tarnowo Podg\u00f3rne","name":"Zesp\u00f3\u0142 Szk\u00f3\u0142 Technicznych Tarnowo Podg\u00f3rne","addr:country":"PL","addr:postcode":"62-080","addr:city":"Tarnowo Podg\u00f3rne","addr:street":"ul. Nowa","addr:housenumber":"60","addr:teryt:simc":14330,"addr:teryt:sym_ul":597446,"contact:phone":"+48 517182685","contact:email":"sekretariat@zst-tp.pl","contact:website":"http:\/\/www.zst-tp.pl","ref:regon":"389512218","operator":"Gmina Tarnowo Podg\u00f3rne","operator:type":"government","landuse":"education","fixme":"amenity=school, amenity=college albo landuse=education w zale\u017cno\u015bci od tego, jakie plac\u00f3wki wchodz\u0105 w sk\u0142ad zespo\u0142u. Sprawd\u017a, kiedy stosowa\u0107 amenity=* a kiedy landuse=education.","note":"Children RSPO: 273992;273993"}},{"id":273992,"type":"Feature","geometry":{"type":"Point","coordinates":[16.712662777811,52.427305107333]},"properties":{"isced:level":"3","ref:rspo":273992,"official_name":"Technikum Tarnowo Podg\u00f3rne","name":"Technikum Tarnowo Podg\u00f3rne","addr:country":"PL","addr:postcode":"62-080","addr:city":"Tarnowo Podg\u00f3rne","addr:street":"ul. Nowa","addr:housenumber":"60","addr:teryt:simc":14330,"addr:teryt:sym_ul":597446,"contact:phone":"+48 517182685","contact:email":"sekretariat@zst-tp.pl","contact:website":"http:\/\/www.zst-tp.pl","ref:regon":"384988130","operator":"Gmina Tarnowo Podg\u00f3rne","operator:type":"government","amenity":"school","note":"Parent RSPO: 277795"}},{"id":273993,"type":"Feature","geometry":{"type":"Point","coordinates":[16.712662777811,52.427275107333]},"properties":{"isced:level":"3","ref:rspo":273993,"official_name":"Bran\u017cowa Szko\u0142a I Stopnia Tarnowo Podg\u00f3rne","name":"Bran\u017cowa Szko\u0142a I Stopnia Tarnowo Podg\u00f3rne","addr:country":"PL","addr:postcode":"62-080","addr:city":"Tarnowo Podg\u00f3rne","addr:street":"ul. Nowa","addr:housenumber":"60","addr:teryt:simc":14330,"addr:teryt:sym_ul":597446,"contact:phone":"+48 517182685","contact:email":"sekretariat@zst-tp.pl","contact:website":"http:\/\/www.zst-tp.pl","ref:regon":"384988198","operator":"Gmina Tarnowo Podg\u00f3rne","operator:type":"government","amenity":"school","note":"Parent RSPO: 277795"}},{"id":131264,"type":"Feature","geometry":{"type":"Point","coordinates":[16.6470999,52.42886]},"properties":{"isced:level":"1;2","ref:rspo":131264,"official_name":"Prywatna Szko\u0142a Podstawowa \"Ku\u017ania Talent\u00f3w\"","name":"Prywatna Szko\u0142a Podstawowa \"Ku\u017ania Talent\u00f3w\"","addr:country":"PL","addr:postcode":"62-080","addr:city":"Lus\u00f3wko","addr:street":"ul. Zespo\u0142owa","addr:housenumber":"1A","addr:teryt:simc":26010,"addr:teryt:sym_ul":597363,"contact:phone":"+48 660755765","contact:email":"sekretariat@psplusowko.pl","contact:website":"http:\/\/www.psplusowko.pl","ref:regon":"365076227","operator":"Beata Zygma\u0144ska","operator:type":"private","amenity":"school"}},{"id":268430,"type":"Feature","geometry":{"type":"Point","coordinates":[16.78704,52.43043]},"properties":{"ref:rspo":268430,"official_name":"Przedszkole Publiczne \"Chatka Kubusia Puchatka\" w Prze\u017amierowie","name":"Przedszkole Publiczne \"Chatka Kubusia Puchatka\" w Prze\u017amierowie","addr:country":"PL","addr:postcode":"62-081","addr:city":"Prze\u017amierowo","addr:street":"ul. Sk\u0142adowa","addr:housenumber":"45","addr:teryt:simc":20060,"addr:teryt:sym_ul":597392,"contact:phone":"+48 616523928","contact:email":"chatkakubusiapuchatka@op.pl","ref:regon":"381160398","operator":"Magdalena Tomczyk","operator:type":"private","amenity":"kindergarten"}},{"id":24533,"type":"Feature","geometry":{"type":"Point","coordinates":[16.78046,52.43074]},"properties":{"ref:rspo":24533,"official_name":"Prywatne Przedszkole \"Pod Muchomorkiem\"","name":"Prywatne Przedszkole \"Pod Muchomorkiem\"","addr:country":"PL","addr:postcode":"62-081","addr:city":"Prze\u017amierowo","addr:street":"ul. Dolina","addr:housenumber":"29","addr:teryt:simc":4016,"addr:teryt:sym_ul":597392,"contact:phone":"+48 501578608","contact:email":"aleksandra.sosnowska@pppm.pl","contact:website":"http:\/\/www.pppm.pl","ref:regon":"302236134","ref:vatin":"PL7771680462","operator":"Agnieszka Wojtyniak","operator:type":"private","amenity":"kindergarten"}},{"id":125954,"type":"Feature","geometry":{"type":"Point","coordinates":[16.77928,52.43183]},"properties":{"ref:rspo":125954,"official_name":"Przedszkole Publiczne Czarodziejski Zamek","name":"Przedszkole Publiczne Czarodziejski Zamek","addr:country":"PL","addr:postcode":"62-081","addr:city":"Prze\u017amierowo","addr:street":"ul. Le\u015bna","addr:housenumber":"62","addr:teryt:simc":10898,"addr:teryt:sym_ul":597392,"contact:phone":"+48 601443644","contact:email":"przezmierowo@przedszkole-zamek.pl","ref:regon":"360114383","ref:vatin":"PL7773128237","operator":"\"Smartplanet\" Sp\u00f3\u0142ka Z Ograniczon\u0105 Odpowiedzialno\u015bci\u0105","operator:type":"private","amenity":"kindergarten"}},{"id":269199,"type":"Feature","geometry":{"type":"Point","coordinates":[16.78931,52.43217]},"properties":{"ref:rspo":269199,"official_name":"Niepubliczny Punkt Przedszkolny \"Szk\u00f3\u0142ka Ma\u0142ego Dziecka\"","name":"Niepubliczny Punkt Przedszkolny \"Szk\u00f3\u0142ka Ma\u0142ego Dziecka\"","addr:country":"PL","addr:postcode":"62-081","addr:city":"Prze\u017amierowo","addr:street":"ul. Folwarczna","addr:housenumber":"23","addr:door":"B","addr:teryt:simc":5109,"addr:teryt:sym_ul":597392,"contact:phone":"+48 509445939","contact:email":"jbunk@wp.pl","contact:website":"http:\/\/www.szkolkamalegodziecka.eu","ref:regon":"381400483","operator":"Jolanta Bunk","operator:type":"private","amenity":"kindergarten"}},{"id":18935,"type":"Feature","geometry":{"type":"Point","coordinates":[16.70327,52.43238]},"properties":{"isced:level":"1;2","ref:rspo":18935,"official_name":"Szko\u0142a Podstawowa im. Gen. J\u00f3zefa Dowbora Mu\u015bnickiego w Lusowie","name":"Szko\u0142a Podstawowa","addr:country":"PL","addr:postcode":"62-080","addr:city":"Lusowo","addr:street":"ul. Nowa","addr:housenumber":"6","addr:teryt:simc":14330,"addr:teryt:sym_ul":597357,"contact:phone":"+48 618146129","contact:email":"sekretariat@splusowo.pl","contact:website":"http:\/\/www.splusowo.pl","ref:regon":"630700528","ref:vatin":"PL7771897693","operator":"Gmina Tarnowo Podg\u00f3rne","operator:type":"government","amenity":"school"}},{"id":75438,"type":"Feature","geometry":{"type":"Point","coordinates":[16.79354,52.43375]},"properties":{"ref:rspo":75438,"official_name":"Centrum Kszta\u0142cenia Ustawicznego Pozrobot","name":"Centrum Kszta\u0142cenia Ustawicznego Pozrobot","addr:country":"PL","addr:postcode":"62-081","addr:city":"Baranowo","addr:street":"ul. Graniczna","addr:housenumber":"7","addr:teryt:simc":6075,"addr:teryt:sym_ul":597280,"contact:phone":"+48 618142082","contact:email":"fundacja@pozrobot.pl","contact:website":"http:\/\/www.pozrobot.pl","ref:regon":"302260204","operator":"Fundacja Ale Nauczanie","operator:type":"ngo","fixme":"w zale\u017cno\u015bci od przedmiotu dzia\u0142alno\u015bci (np. amenity=training + training=*, amenity=dancing_school, amenity=language_school, amenity=music_school)"}},{"id":131428,"type":"Feature","geometry":{"type":"Point","coordinates":[16.6403,52.43452]},"properties":{"ref:rspo":131428,"official_name":"Przedszkole Niepubliczne \"Tenis\u00f3wka\"","name":"Przedszkole Niepubliczne \"Tenis\u00f3wka\"","addr:country":"PL","addr:postcode":"62-080","addr:city":"Lus\u00f3wko","addr:street":"ul. Grabowa","addr:housenumber":"56","addr:teryt:simc":6029,"addr:teryt:sym_ul":597363,"contact:phone":"+48 539968765","contact:email":"kontakt@przedszkole-tenisowka.pl","ref:regon":"365172304","ref:vatin":"PL7811905980","operator":"Przedszkole Tenis\u00f3wka Lus\u00f3wko Sp\u00f3\u0142ka Z Ograniczon\u0105 Odpowiedzialno\u015bci\u0105","operator:type":"private","amenity":"kindergarten"}},{"id":24762,"type":"Feature","geometry":{"type":"Point","coordinates":[16.7036,52.43519]},"properties":{"ref:rspo":24762,"official_name":"Przedszkole \"Chatka Misia Uszatka\" w Lusowie","name":"Przedszkole \"Chatka Misia Uszatka\" w Lusowie","addr:country":"PL","addr:postcode":"62-080","addr:city":"Lusowo","addr:street":"ul. Pozna\u0144ska","addr:housenumber":"4","addr:teryt:simc":17394,"addr:teryt:sym_ul":597357,"contact:phone":"+48 618146553","contact:email":"m.szablowska@interia.pl","ref:regon":"632048842","ref:vatin":"PL7771886703","operator":"Gmina Tarnowo Podg\u00f3rne","operator:type":"government","amenity":"kindergarten"}},{"id":128364,"type":"Feature","geometry":{"type":"Point","coordinates":[16.6953299,52.43606]},"properties":{"ref:rspo":128364,"official_name":"Przedszkole Publiczne \"Chatka Kubusia Puchatka\" w Lusowie","name":"Przedszkole Publiczne \"Chatka Kubusia Puchatka\" w Lusowie","addr:country":"PL","addr:postcode":"62-080","addr:city":"Lusowo","addr:street":"ul. Sko\u015bna","addr:housenumber":"9","addr:teryt:simc":20107,"addr:teryt:sym_ul":597357,"contact:phone":"+48 618963159","contact:email":"chatkakubusiapuchatka@op.pl","contact:website":"http:\/\/chatkakubusiapuchatka.pl","ref:regon":"362252801","operator":"Magdalena Tomczyk","operator:type":"private","amenity":"kindergarten"}},{"id":18841,"type":"Feature","geometry":{"type":"Point","coordinates":[16.59289,52.43892]},"properties":{"isced:level":"1;2","ref:rspo":18841,"official_name":"Szko\u0142a Podstawowa im. Janusza Korczaka w Ceradzu Ko\u015bcielnym","name":"Szko\u0142a Podstawowa","addr:country":"PL","addr:postcode":"62-080","addr:city":"Ceradz Ko\u015bcielny","addr:street":"ul. Jankowicka","addr:housenumber":"22a","addr:teryt:simc":7181,"addr:teryt:sym_ul":597305,"contact:phone":"+48 618147870","contact:email":"sekretariat@spceradzkoscielny.pl","contact:website":"http:\/\/spck.edupage.orgl","ref:regon":"001228047","ref:vatin":"PL7771897977","operator":"Gmina Tarnowo Podg\u00f3rne","operator:type":"government","amenity":"school"}},{"id":278106,"type":"Feature","geometry":{"type":"Point","coordinates":[16.79449,52.43896]},"properties":{"ref:rspo":278106,"official_name":"Przedszkole Nr 2 w Baranowie","name":"Przedszkole Nr 2 w Baranowie","addr:country":"PL","addr:postcode":"62-081","addr:city":"Baranowo","addr:street":"ul. Wypoczynkowa","addr:housenumber":"97","addr:teryt:simc":25028,"addr:teryt:sym_ul":597280,"contact:phone":"+48 691431997","contact:email":"biuro@malowaneslonie.pl","contact:website":"http:\/\/www.malowaneslonie.pl","ref:regon":"389768432","operator":"Natalia Aleksandrov","operator:type":"private","amenity":"kindergarten"}},{"id":196371,"type":"Feature","geometry":{"type":"Point","coordinates":[16.79317,52.43985]},"properties":{"isced:level":"1;2","ref:rspo":196371,"official_name":"Szko\u0142a Podstawowa im. Polskich Noblist\u00f3w w Baranowie","name":"Szko\u0142a Podstawowa","addr:country":"PL","addr:postcode":"62-081","addr:city":"Baranowo","addr:street":"ul. Wypoczynkowa","addr:housenumber":"93","addr:teryt:simc":25028,"addr:teryt:sym_ul":597280,"contact:phone":"+48 616527121","contact:email":"sekretariat@spbaranowo.pl","contact:website":"http:\/\/www.spbaranowo.edupage.org","ref:regon":"367991420","operator":"Gmina Tarnowo Podg\u00f3rne","operator:type":"government","amenity":"school"}},{"id":24764,"type":"Feature","geometry":{"type":"Point","coordinates":[16.7897597,52.4405083]},"properties":{"ref:rspo":24764,"official_name":"Przedszkole \"Mali Odkrywcy\" w Baranowie","name":"Przedszkole \"Mali Odkrywcy\" w Baranowie","addr:country":"PL","addr:postcode":"62-081","addr:city":"Baranowo","addr:street":"ul. Klonowa","addr:housenumber":"15","addr:teryt:simc":8574,"addr:teryt:sym_ul":597280,"contact:phone":"+48 616527120","contact:email":"dyrektor@baranowo-przedszkole.pl","contact:website":"http:\/\/www.baranowo-przedszkole.pl","ref:regon":"300343311","ref:vatin":"PL7772920158","operator":"Gmina Tarnowo Podg\u00f3rne","operator:type":"government","amenity":"kindergarten"}},{"id":20040,"type":"Feature","geometry":{"type":"Point","coordinates":[16.61031,52.44063]},"properties":{"ref:rspo":20040,"official_name":"Samorz\u0105dowa Szko\u0142a Muzyczna I Stopnia w Tarnowie Podg\u00f3rnym","name":"Samorz\u0105dowa Szko\u0142a Muzyczna I Stopnia w Tarnowie Podg\u00f3rnym","addr:country":"PL","addr:postcode":"62-080","addr:city":"Jankowice","addr:street":"ul. Ogrodowa","addr:housenumber":"2","addr:teryt:simc":14834,"addr:teryt:sym_ul":597334,"contact:phone":"+48 881458472","contact:email":"sekretariat@ssm-tp.pl","contact:website":"http:\/\/www.ssm-tp.pl","ref:regon":"301801069","ref:vatin":"PL7811870922","operator":"Gmina Tarnowo Podg\u00f3rne","operator:type":"government","amenity":"music_school"}},{"id":128936,"type":"Feature","geometry":{"type":"Point","coordinates":[16.77912,52.449]},"properties":{"isced:level":"1;2","ref:rspo":128936,"official_name":"\"Akademia Pitagorasa\" Publiczna Szko\u0142a Podstawowa w Baranowie","name":"\"Akademia Pitagorasa\" Publiczna Szko\u0142a Podstawowa w Baranowie","addr:country":"PL","addr:postcode":"62-081","addr:city":"Baranowo","addr:street":"ul. Platynowa","addr:housenumber":"1","addr:teryt:simc":16455,"addr:teryt:sym_ul":597280,"contact:phone":"+48 733186986","contact:email":"j.cebernik@gmail.com","ref:regon":"362439132","operator":"Joanna Cebernik","operator:type":"private","amenity":"school"}},{"id":128367,"type":"Feature","geometry":{"type":"Point","coordinates":[16.7264477,52.4514997]},"properties":{"ref:rspo":128367,"official_name":"Przedszkole Publiczne \"Bajkowy \u015awiat\" Z Siedzib\u0105 w Sadach, Ul. Kobylnicka 10C","name":"Przedszkole Publiczne \"Bajkowy \u015awiat\" Z Siedzib\u0105 w Sadach, Ul. Kobylnicka 10C","addr:country":"PL","addr:postcode":"62-080","addr:city":"Sady","addr:street":"ul. Kobylnicka","addr:housenumber":"10c","addr:teryt:simc":8706,"addr:teryt:sym_ul":597417,"contact:phone":"+48 782197769","contact:email":"biuro@przedszkole-bajkowyswiat.pl","contact:website":"http:\/\/www.przedszkole-bajkowyswiat.pl","ref:regon":"362252853","operator":"Kalina Ostrowicz","operator:type":"private","amenity":"kindergarten"}},{"id":268431,"type":"Feature","geometry":{"type":"Point","coordinates":[16.70835,52.4537]},"properties":{"ref:rspo":268431,"official_name":"Przedszkole Publiczne \"Chatka Kubusia Puchatka\" w Tarnowie Podg\u00f3rnym","name":"Przedszkole Publiczne \"Chatka Kubusia Puchatka\" w Tarnowie Podg\u00f3rnym","addr:country":"PL","addr:postcode":"62-080","addr:city":"Tarnowo Podg\u00f3rne","addr:street":"ul. Zbigniewa Romaszewskiego","addr:housenumber":"4","addr:teryt:simc":52563,"addr:teryt:sym_ul":597446,"contact:phone":"+48 618164988","contact:email":"chatkakubusiapuchatka@op.pl","ref:regon":"381160458","operator":"Magdalena Tomczyk","operator:type":"private","amenity":"kindergarten"}},{"id":268785,"type":"Feature","geometry":{"type":"Point","coordinates":[16.76464,52.45764]},"properties":{"ref:rspo":268785,"official_name":"Niepubliczne Przedszkole \"T\u0119czowa Kraina Sportowego Smyka\"","name":"Niepubliczne Przedszkole \"T\u0119czowa Kraina Sportowego Smyka\"","addr:country":"PL","addr:postcode":"62-081","addr:city":"Chyby","addr:street":"ul. Szamotulska","addr:housenumber":"47","addr:teryt:simc":21752,"addr:teryt:sym_ul":597311,"contact:email":"kontakt@bj-empatia.pl","ref:regon":"381248940","operator":"Bwj.empatia Sp\u00f3\u0142ka Z Ograniczon\u0105 Odpowiedzialno\u015bci\u0105","operator:type":"private","amenity":"kindergarten"}},{"id":18771,"type":"Feature","geometry":{"type":"Point","coordinates":[16.77296,52.45799]},"properties":{"isced:level":"1;2","ref:rspo":18771,"official_name":"Szko\u0142a Podstawowa Nr 1 im. Jana Paw\u0142a II w Tarnowie Podg\u00f3rnym","name":"Szko\u0142a Podstawowa Nr 1","addr:country":"PL","addr:postcode":"62-080","addr:city":"Tarnowo Podg\u00f3rne","addr:street":"ul. Szkolna","addr:housenumber":"5","addr:teryt:simc":21970,"addr:teryt:sym_ul":597446,"contact:phone":"+48 618146481","contact:email":"dyrektor@sp1tp.pl","contact:website":"http:\/\/www.sp1tp.pl","ref:regon":"000273689","ref:vatin":"PL7771898008","operator":"Gmina Tarnowo Podg\u00f3rne","operator:type":"government","amenity":"school"}},{"id":21322,"type":"Feature","geometry":{"type":"Point","coordinates":[16.6513389,52.4610616]},"properties":{"isced:level":"3","ref:rspo":21322,"official_name":"Liceum Og\u00f3lnokszta\u0142c\u0105ce im. Powsta\u0144c\u00f3w Wielkopolskich w Tarnowie Podg\u00f3rnym","name":"Liceum Og\u00f3lnokszta\u0142c\u0105ce","addr:country":"PL","addr:postcode":"62-080","addr:city":"Tarnowo Podg\u00f3rne","addr:street":"ul. Pozna\u0144ska","addr:housenumber":"118","addr:teryt:simc":17394,"addr:teryt:sym_ul":597446,"contact:phone":"+48 618147253","contact:email":"lotp@liceumtp.edu.pl","contact:website":"http:\/\/www.liceumtp.edu.pl","ref:regon":"634365742","ref:vatin":"PL7772654716","operator":"Gmina Tarnowo Podg\u00f3rne","operator:type":"government","amenity":"school"}},{"id":196378,"type":"Feature","geometry":{"type":"Point","coordinates":[16.6513389,52.4610316]},"properties":{"isced:level":"1;2","ref:rspo":196378,"official_name":"Szko\u0142a Podstawowa Nr 2 im. Integracji Europejskiej w Tarnowie Podg\u00f3rnym","name":"Szko\u0142a Podstawowa Nr 2","addr:country":"PL","addr:postcode":"62-080","addr:city":"Tarnowo Podg\u00f3rne","addr:street":"ul. Pozna\u0144ska","addr:housenumber":"118","addr:teryt:simc":17394,"addr:teryt:sym_ul":597446,"contact:phone":"+48 618146099","contact:email":"sekretariat@sp2tarnowopodgorne.pl","contact:website":"http:\/\/www.sp2tarnowopodgorne.pl","ref:regon":"367991325","operator":"Gmina Tarnowo Podg\u00f3rne","operator:type":"government","amenity":"school"}},{"id":278035,"type":"Feature","geometry":{"type":"Point","coordinates":[16.6547,52.4679]},"properties":{"ref:rspo":278035,"official_name":"Niepubliczne Przedszkole \"Akademia Ma\u0142ego Olimpijczyka\"","name":"Niepubliczne Przedszkole \"Akademia Ma\u0142ego Olimpijczyka\"","addr:country":"PL","addr:postcode":"62-080","addr:city":"Tarnowo Podg\u00f3rne","addr:street":"ul. 23 Pa\u017adziernika","addr:housenumber":"59","addr:door":"A","addr:teryt:simc":15896,"addr:teryt:sym_ul":597446,"contact:phone":"+48 510187680","contact:email":"hubertus.czarny@gmail.com","contact:website":"http:\/\/malyolimpijczyk-tarnowopodg.eprzedszkola.pl","ref:regon":"389753650","operator":"Hubert Czarny","operator:type":"private","amenity":"kindergarten"}},{"id":125344,"type":"Feature","geometry":{"type":"Point","coordinates":[16.66235,52.46847]},"properties":{"ref:rspo":125344,"official_name":"Poradnia Psychologiczno-Pedagogiczna w Luboniu Filia w Tarnowie Podg\u00f3rnym","name":"Poradnia Psychologiczno-Pedagogiczna w Luboniu Filia w Tarnowie Podg\u00f3rnym","addr:country":"PL","addr:postcode":"62-080","addr:city":"Tarnowo Podg\u00f3rne","addr:street":"ul. Sportowa","addr:housenumber":"1","addr:teryt:simc":20683,"addr:teryt:sym_ul":597446,"contact:phone":"+48 618130173","contact:email":"ppplubon@powiat.poznan.pl","ref:regon":"639694960","operator":"Powiat Pozna\u0144ski","operator:type":"government","healthcare":"councelling","counselling_type":"education","fixme":"w zale\u017cno\u015bci od przedmiotu dzia\u0142alno\u015bci (np. healthcare=councelling + counselling_type=education albo healthcare=psychotherapist)","note":"Parent RSPO: 71557"}},{"id":278105,"type":"Feature","geometry":{"type":"Point","coordinates":[16.66412,52.47083]},"properties":{"ref:rspo":278105,"official_name":"Przedszkole Nr 3 w Tarnowie Podg\u00f3rnym","name":"Przedszkole Nr 3 w Tarnowie Podg\u00f3rnym","addr:country":"PL","addr:postcode":"62-080","addr:city":"Tarnowo Podg\u00f3rne","addr:street":"ul. Szkolna","addr:housenumber":"42","addr:door":"B","addr:teryt:simc":21970,"addr:teryt:sym_ul":597446,"contact:phone":"+48 730127900","contact:email":"biuro@tarnowo.kryjowka.org","contact:website":"http:\/\/www.tarnowo.kryjowka.org","ref:regon":"389768395","operator":"Natalia Aleksandrov","operator:type":"private","amenity":"kindergarten"}},{"id":24765,"type":"Feature","geometry":{"type":"Point","coordinates":[16.65265,52.47382]},"properties":{"ref:rspo":24765,"official_name":"Przedszkole \"Pod Weso\u0142\u0105 Chmurk\u0105\" w Tarnowie Podg\u00f3rnym","name":"Przedszkole \"Pod Weso\u0142\u0105 Chmurk\u0105\" w Tarnowie Podg\u00f3rnym","addr:country":"PL","addr:postcode":"62-080","addr:city":"Tarnowo Podg\u00f3rne","addr:street":"ul. 27 Grudnia","addr:housenumber":"10","addr:teryt:simc":6226,"addr:teryt:sym_ul":597446,"contact:phone":"+48 618146478","contact:email":"dyrektor@podwesolachmurka.edu.pl","contact:website":"http:\/\/www.podwesolachmurka.edu.pl","ref:regon":"631576817","ref:vatin":"PL7772619306","operator":"Gmina Tarnowo Podg\u00f3rne","operator:type":"government","amenity":"kindergarten"}}]}