{
    "type": "FeatureCollection",
    "features": [
        {
            "id": 5911,
            "type": "Feature",
            "geometry": {
                "type": "Point",
                "coordinates": [
                    16.70514,
                    52.33344
                ]
            },
            "properties": {
                "ref:rspo": 5911,
                "official_name": "Przedszkole Publiczne \" M\u0105dra Sowa\" w Konarzewie",
                "name": "Przedszkole Publiczne \" M\u0105dra Sowa\" w Konarzewie",
                "addr:postcode": "62-070",
                "addr:city": "Konarzewo",
                "addr:street": "Ko\u015bcielna",
                "addr:housenumber": "37",
                "addr:city:simc": 582829,
                "addr:street:sym_ul": 9546,
                "phone": "+48 614157477",
                "email": "przedszkole.konarzewo@dopiewo.pl",
                "website": "http:\/\/www.przedszkolekonarzewo.pl\/",
                "ref:regon": "301825331",
                "ref:vatin": "PL7773216504",
                "operator": "Gmina Dopiewo",
                "operator:type": "government",
                "amenity": "kindergarten"
            }
        },
        {
            "id": 8408,
            "type": "Feature",
            "geometry": {
                "type": "Point",
                "coordinates": [
                    16.70504,
                    52.33525
                ]
            },
            "properties": {
                "ref:rspo": 8408,
                "official_name": "Zesp\u00f3\u0142 Szkolno-Przedszkolny im. Jana Brzechwy w Dopiewie",
                "name": "Zesp\u00f3\u0142 Szkolno-Przedszkolny",
                "addr:postcode": "62-070",
                "addr:city": "Dopiewo",
                "addr:street": "Bukowska",
                "addr:housenumber": "13",
                "addr:city:simc": 582806,
                "addr:street:sym_ul": 2396,
                "phone": "+48 618148356",
                "email": "spdop@poczta.onet.pl",
                "website": "http:\/\/spdop.edupage.org",
                "ref:regon": "634504988",
                "ref:vatin": "PL7772741384",
                "operator": "Gmina Dopiewo",
                "operator:type": "government",
                "landuse": "education",
                "fixme": "amenity=school, amenity=college albo landuse=education w zale\u017cno\u015bci od tego, jakie plac\u00f3wki wchodz\u0105 w sk\u0142ad zespo\u0142u. Sprawd\u017a, kiedy stosowa\u0107 amenity=* a kiedy landuse=education.",
                "note": "Children RSPO: 11606;58901"
            }
        },
        {
            "id": 11606,
            "type": "Feature",
            "geometry": {
                "type": "Point",
                "coordinates": [
                    16.70504,
                    52.33522
                ]
            },
            "properties": {
                "isced:level": "1;2",
                "ref:rspo": 11606,
                "official_name": "Zesp\u00f3\u0142 Szkolno-Przedszkolny im. Jana Brzechwy w Dopiewie- Szko\u0142a Podstawowa",
                "name": "Zesp\u00f3\u0142 Szkolno-Przedszkolny",
                "addr:postcode": "62-070",
                "addr:city": "Dopiewo",
                "addr:street": "Bukowska",
                "addr:housenumber": "13",
                "addr:city:simc": 582806,
                "addr:street:sym_ul": 2396,
                "phone": "+48 618148356",
                "email": "spdop@poczta.onet.pl",
                "website": "http:\/\/spdop.edupage.org",
                "ref:regon": "000600510",
                "ref:vatin": "PL7772741384",
                "operator": "Gmina Dopiewo",
                "operator:type": "government",
                "amenity": "school",
                "note": "Parent RSPO: 8408"
            }
        },
        {
            "id": 58901,
            "type": "Feature",
            "geometry": {
                "type": "Point",
                "coordinates": [
                    16.70504,
                    52.335190000000004
                ]
            },
            "properties": {
                "ref:rspo": 58901,
                "official_name": "Zesp\u00f3\u0142 Szkolno-Przedszkolny Im Jana Brzechwy w Dopiewie-Przedszkole Janka W\u0119drowniczka",
                "name": "Zesp\u00f3\u0142 Szkolno-Przedszkolny Im Jana Brzechwy w Dopiewie-Przedszkole Janka W\u0119drowniczka",
                "addr:postcode": "62-070",
                "addr:city": "Dopiewo",
                "addr:street": "Bukowska",
                "addr:housenumber": "13",
                "addr:city:simc": 582806,
                "addr:street:sym_ul": 2396,
                "phone": "+48 618148356",
                "email": "spdop@poczta.onet.pl",
                "website": "http:\/\/spdop.edupage.org",
                "ref:regon": "631024390",
                "ref:vatin": "PL7772741384",
                "operator": "Gmina Dopiewo",
                "operator:type": "government",
                "amenity": "kindergarten",
                "note": "Parent RSPO: 8408"
            }
        },
        {
            "id": 5976,
            "type": "Feature",
            "geometry": {
                "type": "Point",
                "coordinates": [
                    16.71907,
                    52.33659
                ]
            },
            "properties": {
                "isced:level": "1;2",
                "ref:rspo": 5976,
                "official_name": "Szko\u0142a Podstawowa im. Henryka Sienkiewicza w Konarzewie",
                "name": "Szko\u0142a Podstawowa",
                "addr:postcode": "62-070",
                "addr:city": "Konarzewo",
                "addr:street": "Szkolna",
                "addr:housenumber": "16",
                "addr:city:simc": 582829,
                "addr:street:sym_ul": 21970,
                "phone": "+48 618148342",
                "email": "sekretariat@szkolakonarzewo.pl",
                "website": "http:\/\/www.szkolakonarzewo.pl\/",
                "ref:regon": "001225037",
                "ref:vatin": "PL7772741409",
                "operator": "Gmina Dopiewo",
                "operator:type": "government",
                "amenity": "school"
            }
        },
        {
            "id": 3919,
            "type": "Feature",
            "geometry": {
                "type": "Point",
                "coordinates": [
                    16.71005,
                    52.3596
                ]
            },
            "properties": {
                "isced:level": "1;2",
                "ref:rspo": 3919,
                "official_name": "Szko\u0142a Podstawowa im. Marii Konopnickiej w Dopiewcu",
                "name": "Szko\u0142a Podstawowa",
                "addr:postcode": "62-070",
                "addr:city": "Dopiewiec",
                "addr:street": "Szkolna",
                "addr:housenumber": "7",
                "addr:city:simc": 582781,
                "addr:street:sym_ul": 21970,
                "phone": "+48 618148332",
                "email": "sekretariat@spdopiewiec.edu.pl",
                "website": "http:\/\/www.spdopiewiec.szkolnastrona.pl\/",
                "ref:regon": "001225014",
                "ref:vatin": "PL7772742082",
                "operator": "Gmina Dopiewo",
                "operator:type": "government",
                "amenity": "school"
            }
        },
        {
            "id": 272557,
            "type": "Feature",
            "geometry": {
                "type": "Point",
                "coordinates": [
                    16.705190658569,
                    52.362598419189
                ]
            },
            "properties": {
                "ref:rspo": 272557,
                "official_name": "Przedszkole Publiczne nr 1 Le\u015bna Polana w Dopiewcu",
                "name": "Przedszkole Publiczne nr 1 Le\u015bna Polana w Dopiewcu",
                "addr:postcode": "62-070",
                "addr:city": "Dopiewiec",
                "addr:street": "Ognik",
                "addr:housenumber": "1",
                "addr:city:simc": 582781,
                "addr:street:sym_ul": 14815,
                "phone": "+48 602557035",
                "email": "biuro@lesnapolana.eu",
                "website": "http:\/\/www.lesnapolana.eu",
                "ref:regon": "384285396",
                "operator": "Natalia Aleksandrov",
                "operator:type": "private",
                "amenity": "kindergarten"
            }
        },
        {
            "id": 119002,
            "type": "Feature",
            "geometry": {
                "type": "Point",
                "coordinates": [
                    16.7500399,
                    52.3754599
                ]
            },
            "properties": {
                "ref:rspo": 119002,
                "official_name": "Przedszkole Publczne \"Mali Odkrywcy\"",
                "name": "Przedszkole Publczne \"Mali Odkrywcy\"",
                "addr:postcode": "62-070",
                "addr:city": "D\u0105br\u00f3wka",
                "addr:street": "Herbowa",
                "addr:housenumber": "6",
                "addr:city:simc": 582775,
                "addr:street:sym_ul": 6613,
                "phone": "+48 535323735",
                "email": "info@maliodkrywcyprzedszkole.com",
                "website": "http:\/\/www.maliodkrywcyprzedszkole.com",
                "ref:regon": "302507952",
                "ref:vatin": "PL8133178190",
                "operator": "Katarzyna Szalacha",
                "operator:type": "private",
                "amenity": "kindergarten"
            }
        },
        {
            "id": 128342,
            "type": "Feature",
            "geometry": {
                "type": "Point",
                "coordinates": [
                    16.7327,
                    52.37569
                ]
            },
            "properties": {
                "ref:rspo": 128342,
                "official_name": "Przedszkole Publiczne Bajkowa Wyspa",
                "name": "Przedszkole Publiczne Bajkowa Wyspa",
                "addr:postcode": "62-069",
                "addr:city": "Pal\u0119dzie",
                "addr:street": "Malinowa",
                "addr:housenumber": "38",
                "addr:city:simc": 582841,
                "addr:street:sym_ul": 12065,
                "phone": "+48 510466802",
                "email": "biuro@bajkowawyspa.com.pl",
                "ref:regon": "362236305",
                "operator": "Kamila Kruszy\u0144ska",
                "operator:type": "private",
                "amenity": "kindergarten"
            }
        },
        {
            "id": 26331,
            "type": "Feature",
            "geometry": {
                "type": "Point",
                "coordinates": [
                    16.73898,
                    52.37576
                ]
            },
            "properties": {
                "isced:level": "1;2",
                "ref:rspo": 26331,
                "official_name": "Szko\u0142a Podstawowa im. Kawaler\u00f3w Orderu U\u015bmiechu w D\u0105br\u00f3wce",
                "name": "Szko\u0142a Podstawowa",
                "addr:postcode": "62-070",
                "addr:city": "D\u0105br\u00f3wka",
                "addr:street": "Malinowa",
                "addr:housenumber": "41",
                "addr:city:simc": 582775,
                "addr:street:sym_ul": 12065,
                "phone": "+48 616460891",
                "email": "sekretariat@dabrowka.edu.pl",
                "website": "http:\/\/www.dabrowka.edu.pl",
                "ref:regon": "302158368",
                "ref:vatin": "PL7773226299",
                "operator": "Gmina Dopiewo",
                "operator:type": "government",
                "amenity": "school"
            }
        },
        {
            "id": 11629,
            "type": "Feature",
            "geometry": {
                "type": "Point",
                "coordinates": [
                    16.7464799,
                    52.38417
                ]
            },
            "properties": {
                "isced:level": "1;2",
                "ref:rspo": 11629,
                "official_name": "Szko\u0142a Podstawowa",
                "name": "Szko\u0142a Podstawowa",
                "addr:postcode": "62-070",
                "addr:city": "D\u0105br\u00f3wka",
                "addr:street": "Parkowa",
                "addr:housenumber": "1",
                "addr:city:simc": 582775,
                "addr:street:sym_ul": 15710,
                "phone": "+48 618143117",
                "email": "szkoladabrowka@onet.pl",
                "ref:regon": "302211476",
                "ref:vatin": "PL7772736489",
                "operator": "Stowarzyszenie \"Dla Przysz\u0142o\u015bci\"",
                "operator:type": "ngo",
                "amenity": "school"
            }
        },
        {
            "id": 11749,
            "type": "Feature",
            "geometry": {
                "type": "Point",
                "coordinates": [
                    16.79667,
                    52.3860699
                ]
            },
            "properties": {
                "ref:rspo": 11749,
                "official_name": "Przedszkole Harmonijka",
                "name": "Przedszkole Harmonijka",
                "addr:postcode": "60-185",
                "addr:city": "Sk\u00f3rzewo",
                "addr:street": "Kolejowa",
                "addr:housenumber": "30",
                "addr:city:simc": 582870,
                "addr:street:sym_ul": 8828,
                "phone": "+48 604251770",
                "email": "info@przedszkole-skorzewo.pl",
                "ref:regon": "302207782",
                "ref:vatin": "PL7773149914",
                "operator": "Karolina Rudzi\u0144ska",
                "operator:type": "private",
                "amenity": "kindergarten"
            }
        },
        {
            "id": 27212,
            "type": "Feature",
            "geometry": {
                "type": "Point",
                "coordinates": [
                    16.78162,
                    52.38652
                ]
            },
            "properties": {
                "ref:rspo": 27212,
                "official_name": "Niepubliczne Przedszkole Skrzaty \"Politechnika Przedszkolaka\"",
                "name": "Niepubliczne Przedszkole Skrzaty \"Politechnika Przedszkolaka\"",
                "addr:postcode": "60-185",
                "addr:city": "Sk\u00f3rzewo",
                "addr:street": "Wa\u017cki",
                "addr:housenumber": "1",
                "addr:city:simc": 582870,
                "addr:street:sym_ul": 35550,
                "phone": "+48 618198140",
                "email": "skrzaty.skorzewo@op.pl",
                "ref:regon": "302239316",
                "ref:vatin": "PL7821006438",
                "operator": "Ma\u0142gorzata Dubisz-Piotrowska",
                "operator:type": "private",
                "amenity": "kindergarten"
            }
        },
        {
            "id": 3903,
            "type": "Feature",
            "geometry": {
                "type": "Point",
                "coordinates": [
                    16.79675,
                    52.38722
                ]
            },
            "properties": {
                "ref:rspo": 3903,
                "official_name": "Przedszkole Publiczne \" Iskierki\" w Sk\u00f3rzewie",
                "name": "Przedszkole Publiczne \" Iskierki\" w Sk\u00f3rzewie",
                "addr:postcode": "60-185",
                "addr:city": "Sk\u00f3rzewo",
                "addr:street": "Kolejowa",
                "addr:housenumber": "21",
                "addr:city:simc": 582870,
                "addr:street:sym_ul": 8828,
                "phone": "+48 513197300",
                "email": "alicjastudzinskaszychowiak@gmail.com",
                "ref:regon": "301830852",
                "ref:vatin": "PL7773216220",
                "operator": "Gmina Dopiewo",
                "operator:type": "government",
                "amenity": "kindergarten"
            }
        },
        {
            "id": 11762,
            "type": "Feature",
            "geometry": {
                "type": "Point",
                "coordinates": [
                    16.78239,
                    52.38816
                ]
            },
            "properties": {
                "ref:rspo": 11762,
                "official_name": "Przedszkole Czarodziejski Zamek",
                "name": "Przedszkole Czarodziejski Zamek",
                "addr:postcode": "61-185",
                "addr:city": "Sk\u00f3rzewo",
                "addr:street": "\u015awierszcza",
                "addr:housenumber": "1",
                "addr:city:simc": 582870,
                "addr:street:sym_ul": 22512,
                "phone": "+48 605880330",
                "email": "przedszkole@topfun.pl",
                "website": "http:\/\/www.topfun.pl\/zamek\/",
                "ref:regon": "302208735",
                "ref:vatin": "PL7773128237",
                "operator": "\"Smartplanet\" Sp\u00f3\u0142ka Z Ograniczon\u0105 Odpowiedzialno\u015bci\u0105",
                "operator:type": "private",
                "amenity": "kindergarten"
            }
        },
        {
            "id": 131509,
            "type": "Feature",
            "geometry": {
                "type": "Point",
                "coordinates": [
                    16.78287,
                    52.38842
                ]
            },
            "properties": {
                "ref:rspo": 131509,
                "official_name": "Przedszkole Publiczne Diamentowa Kraina",
                "name": "Przedszkole Publiczne Diamentowa Kraina",
                "addr:postcode": "60-185",
                "addr:city": "Sk\u00f3rzewo",
                "addr:street": "Grafitowa",
                "addr:housenumber": "4a",
                "addr:city:simc": 582870,
                "addr:street:sym_ul": 6062,
                "phone": "+48 508302533",
                "email": "biuro@diamentowa-kraina.com",
                "website": "http:\/\/www.diamentowa-kraina.com",
                "ref:regon": "365205475",
                "operator": "Natalia Aleksandrov",
                "operator:type": "private",
                "amenity": "kindergarten"
            }
        },
        {
            "id": 119003,
            "type": "Feature",
            "geometry": {
                "type": "Point",
                "coordinates": [
                    16.77233,
                    52.3896299
                ]
            },
            "properties": {
                "ref:rspo": 119003,
                "official_name": "Przedszkole Publiczne Kolorowa Wyspa w Sk\u00f3rzewie",
                "name": "Przedszkole Publiczne Kolorowa Wyspa w Sk\u00f3rzewie",
                "addr:postcode": "62-070",
                "addr:city": "Sk\u00f3rzewo",
                "addr:street": "Mi\u0142a",
                "addr:housenumber": "9",
                "addr:city:simc": 582870,
                "addr:street:sym_ul": 12947,
                "phone": "+48 515054642",
                "email": "kolorowawyspa@gmail.com",
                "website": "http:\/\/www.kolorowawyspa.edu.pl",
                "ref:regon": "302507981",
                "operator": "Remigiusz Stein",
                "operator:type": "private",
                "amenity": "kindergarten"
            }
        },
        {
            "id": 11722,
            "type": "Feature",
            "geometry": {
                "type": "Point",
                "coordinates": [
                    16.78252,
                    52.38987
                ]
            },
            "properties": {
                "ref:rspo": 11722,
                "official_name": "Prywatne Przedszkole \"Akademia Przeszkolaka\"",
                "name": "Prywatne Przedszkole \"Akademia Przeszkolaka\"",
                "addr:postcode": "60-185",
                "addr:city": "Sk\u00f3rzewo",
                "addr:street": "S\u0142oneczna",
                "addr:housenumber": "44",
                "addr:city:simc": 582870,
                "addr:street:sym_ul": 20254,
                "phone": "+48 612235898",
                "email": "akademiaprzedszkolaka@op.pl",
                "website": "http:\/\/www.akademiaprzedszkolaka-skorzewo.pl\/",
                "ref:regon": "302207753",
                "ref:vatin": "PL6170126364",
                "operator": "Adam Cholewa",
                "operator:type": "private",
                "amenity": "kindergarten"
            }
        },
        {
            "id": 120624,
            "type": "Feature",
            "geometry": {
                "type": "Point",
                "coordinates": [
                    16.74295,
                    52.39052
                ]
            },
            "properties": {
                "ref:rspo": 120624,
                "official_name": "Przedszkole \"Le\u015bna Chatka Puchatka\"",
                "name": "Przedszkole \"Le\u015bna Chatka Puchatka\"",
                "addr:postcode": "62-070",
                "addr:city": "Zakrzewo",
                "addr:street": "Zacisze",
                "addr:housenumber": "22",
                "addr:city:simc": 582976,
                "addr:street:sym_ul": 25314,
                "phone": "+48 602708970",
                "email": "sekretariat@lesnachatka.com",
                "ref:regon": "302557329",
                "operator": "Danuta Strzesak",
                "operator:type": "private",
                "amenity": "kindergarten"
            }
        },
        {
            "id": 133940,
            "type": "Feature",
            "geometry": {
                "type": "Point",
                "coordinates": [
                    16.7802544,
                    52.3906036
                ]
            },
            "properties": {
                "isced:level": "1;2",
                "ref:rspo": 133940,
                "official_name": "Szko\u0142a Podstawowa nr 2 im. Ignacego Jana Paderewskiego w Sk\u00f3rzewie",
                "name": "Szko\u0142a Podstawowa nr 2",
                "addr:postcode": "60-185",
                "addr:city": "Sk\u00f3rzewo",
                "addr:street": "Ksi\u0119dza Stanis\u0142awa Kozierowskiego",
                "addr:housenumber": "1",
                "addr:city:simc": 582870,
                "addr:street:sym_ul": 40552,
                "phone": "+48 618945270",
                "email": "sekretariat@skorzewo.edu.pl",
                "website": "http:\/\/www.skorzewo.edu.pl",
                "ref:regon": "367737118",
                "operator": "Gmina Dopiewo",
                "operator:type": "government",
                "amenity": "school"
            }
        },
        {
            "id": 4406,
            "type": "Feature",
            "geometry": {
                "type": "Point",
                "coordinates": [
                    16.79422,
                    52.39247
                ]
            },
            "properties": {
                "isced:level": "1;2",
                "ref:rspo": 4406,
                "official_name": "Szko\u0142a Podstawowa nr 1 im. Fryderyka Chopina",
                "name": "Szko\u0142a Podstawowa nr 1",
                "addr:postcode": "60-185",
                "addr:city": "Sk\u00f3rzewo",
                "addr:street": "Pozna\u0144ska",
                "addr:housenumber": "70",
                "addr:city:simc": 582870,
                "addr:street:sym_ul": 17394,
                "phone": "+48 618143771",
                "email": "dyrektor@sp-skorzewo.edu.pl",
                "website": "http:\/\/www.sp-skorzewo.edu.pl",
                "ref:regon": "001225066",
                "ref:vatin": "PL7773070762",
                "operator": "Gmina Dopiewo",
                "operator:type": "government",
                "amenity": "school"
            }
        },
        {
            "id": 3901,
            "type": "Feature",
            "geometry": {
                "type": "Point",
                "coordinates": [
                    16.72592,
                    52.3930999
                ]
            },
            "properties": {
                "ref:rspo": 3901,
                "official_name": "Przedszkole Le\u015bne Duszki w Zakrzewie",
                "name": "Przedszkole Le\u015bne Duszki w Zakrzewie",
                "addr:postcode": "62-070",
                "addr:city": "Zakrzewo",
                "addr:street": "D\u0142uga",
                "addr:housenumber": "57",
                "addr:city:simc": 582976,
                "addr:street:sym_ul": 3839,
                "phone": "+48 618143014",
                "email": "zakrzewoprzedszkole@interia.pl",
                "website": "http:\/\/www.zakrzewoprzedszkole.pl\/",
                "ref:regon": "634509135",
                "ref:vatin": "PL7773125049",
                "operator": "Gmina Dopiewo",
                "operator:type": "government",
                "amenity": "kindergarten"
            }
        },
        {
            "id": 128443,
            "type": "Feature",
            "geometry": {
                "type": "Point",
                "coordinates": [
                    16.75715,
                    52.39555
                ]
            },
            "properties": {
                "ref:rspo": 128443,
                "official_name": "Przedszkole Publiczne Akademia Arcymalce",
                "name": "Przedszkole Publiczne Akademia Arcymalce",
                "addr:postcode": "62-070",
                "addr:city": "D\u0105browa",
                "addr:street": "Szafirowa",
                "addr:housenumber": "6",
                "addr:city:simc": 582769,
                "addr:street:sym_ul": 21712,
                "phone": "+48 616700131",
                "email": "akademia@arcymalce.pl",
                "website": "http:\/\/www.arcymalce.pl",
                "ref:regon": "362278278",
                "operator": "\"Jp Group\" Sp\u00f3\u0142ka Z Ograniczon\u0105 Odpowiedzialno\u015bci\u0105",
                "operator:type": "private",
                "amenity": "kindergarten"
            }
        },
        {
            "id": 4161,
            "type": "Feature",
            "geometry": {
                "type": "Point",
                "coordinates": [
                    16.63827,
                    52.39694
                ]
            },
            "properties": {
                "ref:rspo": 4161,
                "official_name": "Zesp\u00f3\u0142 Szkolno-Przedszkolny w Wi\u0119ckowicach",
                "name": "Zesp\u00f3\u0142 Szkolno-Przedszkolny w Wi\u0119ckowicach",
                "addr:postcode": "62-070",
                "addr:city": "Wi\u0119ckowice",
                "addr:street": "Gromadzka",
                "addr:housenumber": "7",
                "addr:city:simc": 582924,
                "addr:street:sym_ul": 6169,
                "phone": "+48 618148351",
                "email": "kontakt@zspwieckowice.pl",
                "website": "https:\/\/www.zspwieckowice.pl\/",
                "ref:regon": "300900295",
                "ref:vatin": "PL7773069204",
                "operator": "Gmina Dopiewo",
                "operator:type": "government",
                "landuse": "education",
                "fixme": "amenity=school, amenity=college albo landuse=education w zale\u017cno\u015bci od tego, jakie plac\u00f3wki wchodz\u0105 w sk\u0142ad zespo\u0142u. Sprawd\u017a, kiedy stosowa\u0107 amenity=* a kiedy landuse=education.",
                "note": "Children RSPO: 8240;8242"
            }
        },
        {
            "id": 8240,
            "type": "Feature",
            "geometry": {
                "type": "Point",
                "coordinates": [
                    16.63827,
                    52.39691
                ]
            },
            "properties": {
                "isced:level": "1;2",
                "ref:rspo": 8240,
                "official_name": "Zesp\u00f3\u0142 Szkolno Przedszkolny w Wieckowicach-Szko\u0142a Podstawowa",
                "name": "Zesp\u00f3\u0142 Szkolno Przedszkolny w Wieckowicach-Szko\u0142a Podstawowa",
                "addr:postcode": "62-070",
                "addr:city": "Wi\u0119ckowice",
                "addr:street": "Gromadzka",
                "addr:housenumber": "7",
                "addr:city:simc": 582924,
                "addr:street:sym_ul": 6169,
                "phone": "+48 618148351",
                "email": "kontakt@zspwieckowice.pl",
                "website": "http:\/\/www.zspwieckowice.pl",
                "ref:regon": "001225020",
                "ref:vatin": "PL7772742136",
                "operator": "Gmina Dopiewo",
                "operator:type": "government",
                "amenity": "school",
                "note": "Parent RSPO: 4161"
            }
        },
        {
            "id": 8242,
            "type": "Feature",
            "geometry": {
                "type": "Point",
                "coordinates": [
                    16.63827,
                    52.39688
                ]
            },
            "properties": {
                "ref:rspo": 8242,
                "official_name": "Zesp\u00f3\u0142 Szkolno Przedszkolny w Wi\u0119ckowicach-Przedszkole",
                "name": "Zesp\u00f3\u0142 Szkolno Przedszkolny w Wi\u0119ckowicach-Przedszkole",
                "addr:postcode": "62-070",
                "addr:city": "Wi\u0119ckowice",
                "addr:street": "Gromadzka",
                "addr:housenumber": "7",
                "addr:city:simc": 582924,
                "addr:street:sym_ul": 6169,
                "phone": "+48 618148351",
                "email": "kontakt@zspwieckowice.pl",
                "website": "http:\/\/www.zspwieckowice.pl",
                "ref:regon": "300900303",
                "ref:vatin": "PL7773069196",
                "operator": "Gmina Dopiewo",
                "operator:type": "government",
                "amenity": "kindergarten",
                "note": "Parent RSPO: 4161"
            }
        },
        {
            "id": 3911,
            "type": "Feature",
            "geometry": {
                "type": "Point",
                "coordinates": [
                    16.74002,
                    52.40337
                ]
            },
            "properties": {
                "isced:level": "1;2",
                "ref:rspo": 3911,
                "official_name": "Szko\u0142a Podstawowa im. Astrid Lindgren w D\u0105browie",
                "name": "Szko\u0142a Podstawowa",
                "addr:postcode": "62-069",
                "addr:city": "D\u0105browa",
                "addr:street": "Szkolna",
                "addr:housenumber": "41",
                "addr:city:simc": 582769,
                "addr:street:sym_ul": 21970,
                "phone": "+48 618143106",
                "email": "swed_12@poczta.onet.pl",
                "website": "http:\/\/dabrowa.edu.pl\/index.php",
                "ref:regon": "632055316",
                "ref:vatin": "PL7773125055",
                "operator": "Gmina Dopiewo",
                "operator:type": "government",
                "amenity": "school"
            }
        }
    ]
}