{
    "type": "FeatureCollection",
    "features": [
        {
            "id": 48780,
            "type": "Feature",
            "geometry": {
                "type": "Point",
                "coordinates": [
                    16.79918,
                    52.42926
                ]
            },
            "properties": {
                "ref:rspo": 48780,
                "official_name": "Przedszkole w Zespole Szk\u00f3\u0142 im. 7 Pu\u0142ku Strzelc\u00f3w Konnych Wlkp w Biedrusku",
                "name": "Przedszkole w Zespole Szk\u00f3\u0142",
                "addr:country": "PL",
                "addr:postcode": "62-003",
                "addr:city": "Biedrusko",
                "addr:street": "Ametystowa",
                "addr:housenumber": "2",
                "addr:teryt:simc": 266,
                "addr:teryt:sym_ul": 595329,
                "contact:phone": "+48 618119527",
                "contact:email": "sekretariat@przedszkolebiedrusko.pl",
                "ref:regon": "634407966",
                "ref:vatin": "PL7771759554",
                "operator": "Gmina Suchy Las",
                "operator:type": "government",
                "amenity": "kindergarten",
                "note": "Parent RSPO: 15533"
            }
        },
        {
            "id": 273447,
            "type": "Feature",
            "geometry": {
                "type": "Point",
                "coordinates": [
                    16.8706975,
                    52.4687059
                ]
            },
            "properties": {
                "ref:rspo": 273447,
                "official_name": "Niepubliczny Punkt Przedszkolny \"Supe\u0142kowo\"",
                "name": "Niepubliczny Punkt Przedszkolny \"Supe\u0142kowo\"",
                "addr:country": "PL",
                "addr:postcode": "62-002",
                "addr:city": "Suchy Las",
                "addr:street": "Osiedle Osiedle Poziomkowe",
                "addr:housenumber": "5",
                "addr:door": "1",
                "addr:teryt:simc": 44793,
                "addr:teryt:sym_ul": 595370,
                "contact:phone": "+48 570840530",
                "contact:email": "info.supel@gmail.com",
                "contact:website": "http:\/\/www.supel.edu.pl",
                "ref:regon": "384472632",
                "operator": "Edubox Emilia Grz\u0119da",
                "operator:type": "private",
                "amenity": "kindergarten"
            }
        },
        {
            "id": 28202,
            "type": "Feature",
            "geometry": {
                "type": "Point",
                "coordinates": [
                    16.8706,
                    52.47057
                ]
            },
            "properties": {
                "ref:rspo": 28202,
                "official_name": "Prywatne Przedszkole \"Natura\"",
                "name": "Prywatne Przedszkole \"Natura\"",
                "addr:country": "PL",
                "addr:postcode": "62-002",
                "addr:city": "Suchy Las",
                "addr:street": "Powsta\u0144c\u00f3w Wielkopolskich",
                "addr:housenumber": "16",
                "addr:teryt:simc": 17377,
                "addr:teryt:sym_ul": 595370,
                "contact:phone": "+48 505249291",
                "contact:email": "info@przedszkolenatura.pl",
                "ref:regon": "302239055",
                "ref:vatin": "PL7771392349",
                "operator": "Anna Kurasz",
                "operator:type": "private",
                "amenity": "kindergarten"
            }
        },
        {
            "id": 276520,
            "type": "Feature",
            "geometry": {
                "type": "Point",
                "coordinates": [
                    16.86896,
                    52.47174
                ]
            },
            "properties": {
                "ref:rspo": 276520,
                "official_name": "Studio Edukacji Romy Jakubowskiej",
                "name": "Studio Edukacji Romy Jakubowskiej",
                "addr:country": "PL",
                "addr:postcode": "62-002",
                "addr:city": "Suchy Las",
                "addr:street": "Powsta\u0144c\u00f3w Wielkopolskich",
                "addr:housenumber": "30a",
                "addr:door": "4",
                "addr:teryt:simc": 17377,
                "addr:teryt:sym_ul": 595370,
                "contact:phone": "+48 601181761",
                "ref:regon": "387176302",
                "operator": "Roma Jakubowska",
                "operator:type": "private",
                "amenity": "training"
            }
        },
        {
            "id": 262281,
            "type": "Feature",
            "geometry": {
                "type": "Point",
                "coordinates": [
                    16.8717599,
                    52.47248
                ]
            },
            "properties": {
                "isced:level": "1;2",
                "ref:rspo": 262281,
                "official_name": "Szko\u0142a Podstawowa Nr 2 im. Jana Paw\u0142a Ii",
                "name": "Szko\u0142a Podstawowa Nr 2",
                "addr:country": "PL",
                "addr:postcode": "62-002",
                "addr:city": "Suchy Las",
                "addr:street": "Poziomkowa",
                "addr:housenumber": "11",
                "addr:teryt:simc": 17390,
                "addr:teryt:sym_ul": 595370,
                "contact:phone": "+48 618117162",
                "contact:email": "sp2@suchy-las.com",
                "contact:website": "http:\/\/www.suchy-las.com",
                "ref:regon": "367994128",
                "operator": "Gmina Suchy Las",
                "operator:type": "government",
                "amenity": "school"
            }
        },
        {
            "id": 28205,
            "type": "Feature",
            "geometry": {
                "type": "Point",
                "coordinates": [
                    16.89331,
                    52.47311
                ]
            },
            "properties": {
                "ref:rspo": 28205,
                "official_name": "Niepubliczne Przedszkole Angloj\u0119zyczne \"Kraina Elmo\"",
                "name": "Niepubliczne Przedszkole Angloj\u0119zyczne \"Kraina Elmo\"",
                "addr:country": "PL",
                "addr:postcode": "62-002",
                "addr:city": "Suchy Las",
                "addr:street": "Sprzeczna",
                "addr:housenumber": "20",
                "addr:teryt:simc": 20711,
                "addr:teryt:sym_ul": 595370,
                "contact:phone": "+48 608506301",
                "contact:email": "kraina.elmo@gmail.com",
                "contact:website": "http:\/\/www.krainaelmo.pl",
                "ref:regon": "302239078",
                "ref:vatin": "PL9720946980",
                "operator": "Kraina Elmo Natalia Kowalczyk",
                "operator:type": "consortium",
                "amenity": "kindergarten"
            }
        },
        {
            "id": 34294,
            "type": "Feature",
            "geometry": {
                "type": "Point",
                "coordinates": [
                    16.8621,
                    52.47424
                ]
            },
            "properties": {
                "ref:rspo": 34294,
                "official_name": "Prywatne Przedszkole \"Weso\u0142y Delfinek\"",
                "name": "Prywatne Przedszkole \"Weso\u0142y Delfinek\"",
                "addr:country": "PL",
                "addr:postcode": "62-002",
                "addr:city": "Suchy Las",
                "addr:street": "Powsta\u0144c\u00f3w Wielkopolskich",
                "addr:housenumber": "81",
                "addr:teryt:simc": 17377,
                "addr:teryt:sym_ul": 595370,
                "contact:phone": "+48 669307407",
                "contact:email": "przedszkole@wesolydelfinak.pl",
                "ref:regon": "302244599",
                "ref:vatin": "PL5961304270",
                "operator": "Ma\u0142gorzata Ceg\u0142owska",
                "operator:type": "consortium",
                "amenity": "kindergarten"
            }
        },
        {
            "id": 15701,
            "type": "Feature",
            "geometry": {
                "type": "Point",
                "coordinates": [
                    16.87144,
                    52.47462
                ]
            },
            "properties": {
                "isced:level": "1;2",
                "ref:rspo": 15701,
                "official_name": "Szko\u0142a Podstawowa Nr 1 im. Wojciecha Bogus\u0142awskiego",
                "name": "Szko\u0142a Podstawowa Nr 1",
                "addr:country": "PL",
                "addr:postcode": "62-002",
                "addr:city": "Suchy Las",
                "addr:street": "Szkolna",
                "addr:housenumber": "15",
                "addr:teryt:simc": 21970,
                "addr:teryt:sym_ul": 595370,
                "contact:phone": "+48 618125191",
                "contact:email": "antas.marysia@wp.pl",
                "contact:website": "http:\/\/sp1.suchylas.pl",
                "ref:regon": "630194605",
                "ref:vatin": "PL7771757905",
                "operator": "Gmina Suchy Las",
                "operator:type": "government",
                "amenity": "school"
            }
        },
        {
            "id": 125343,
            "type": "Feature",
            "geometry": {
                "type": "Point",
                "coordinates": [
                    16.87144,
                    52.47459
                ]
            },
            "properties": {
                "ref:rspo": 125343,
                "official_name": "Poradnia Psychologiczno-Pedagogiczna w Luboniu Filia w Suchym Lesie",
                "name": "Poradnia Psychologiczno-Pedagogiczna w Luboniu Filia w Suchym Lesie",
                "addr:country": "PL",
                "addr:postcode": "62-002",
                "addr:city": "Suchy Las",
                "addr:street": "Szkolna",
                "addr:housenumber": "15",
                "addr:teryt:simc": 21970,
                "addr:teryt:sym_ul": 595370,
                "contact:phone": "+48 618130173",
                "contact:email": "ppplubon@powiat.poznan.pl",
                "ref:regon": "639694960",
                "operator": "Powiat Pozna\u0144ski",
                "operator:type": "government",
                "healthcare": "counselling",
                "counselling_type": "education",
                "fixme": "w zale\u017cno\u015bci od przedmiotu dzia\u0142alno\u015bci (np. healthcare=counselling + counselling_type=education albo healthcare=psychotherapist)",
                "note": "Parent RSPO: 71557"
            }
        },
        {
            "id": 28236,
            "type": "Feature",
            "geometry": {
                "type": "Point",
                "coordinates": [
                    16.8671,
                    52.47521
                ]
            },
            "properties": {
                "ref:rspo": 28236,
                "official_name": "Przedszkole \" Le\u015bnych Ludk\u00f3w\"",
                "name": "Przedszkole \" Le\u015bnych Ludk\u00f3w\"",
                "addr:country": "PL",
                "addr:postcode": "62-002",
                "addr:city": "Suchy Las",
                "addr:street": "Promienista",
                "addr:housenumber": "33",
                "addr:teryt:simc": 17531,
                "addr:teryt:sym_ul": 595370,
                "contact:phone": "+48 618125300",
                "contact:email": "przedszkole@przedszkole.suchylas.pl",
                "contact:website": "http:\/\/przedszkole.suchylas.pl",
                "ref:regon": "632009144",
                "ref:vatin": "PL7771447240",
                "operator": "Gmina Suchy Las",
                "operator:type": "government",
                "amenity": "kindergarten"
            }
        },
        {
            "id": 277895,
            "type": "Feature",
            "geometry": {
                "type": "Point",
                "coordinates": [
                    16.87283,
                    52.47635
                ]
            },
            "properties": {
                "ref:rspo": 277895,
                "official_name": "Zesp\u00f3\u0142 World School w Suchym Lesie",
                "name": "Zesp\u00f3\u0142 World School w Suchym Lesie",
                "addr:country": "PL",
                "addr:postcode": "62-002",
                "addr:city": "Suchy Las",
                "addr:street": "Obornicka",
                "addr:housenumber": "124",
                "addr:teryt:simc": 14593,
                "addr:teryt:sym_ul": 595370,
                "contact:phone": "+48 515789269",
                "contact:email": "kontakt@world-school.pl",
                "contact:website": "http:\/\/world-school.pl",
                "ref:regon": "389627424",
                "operator": "World School Sp\u00f3\u0142ka Z Ograniczon\u0105 Odpowiedzialno\u015bci\u0105",
                "operator:type": "private",
                "landuse": "education",
                "fixme": "amenity=school, amenity=college albo landuse=education w zale\u017cno\u015bci od tego, jakie plac\u00f3wki wchodz\u0105 w sk\u0142ad zespo\u0142u. Sprawd\u017a, kiedy stosowa\u0107 amenity=* a kiedy landuse=education.",
                "note": "Children RSPO: 277898;277899"
            }
        },
        {
            "id": 278940,
            "type": "Feature",
            "geometry": {
                "type": "Point",
                "coordinates": [
                    16.87283,
                    52.476319999999994
                ]
            },
            "properties": {
                "ref:rspo": 278940,
                "official_name": "Niepubliczna Szko\u0142a Muzyczna I Stopnia Music World w Suchym Lesie",
                "name": "Niepubliczna Szko\u0142a Muzyczna I Stopnia Music World w Suchym Lesie",
                "addr:country": "PL",
                "addr:postcode": "62-002",
                "addr:city": "Suchy Las",
                "addr:street": "Obornicka",
                "addr:housenumber": "124",
                "addr:teryt:simc": 14593,
                "addr:teryt:sym_ul": 595370,
                "contact:email": "kontakt@world-school.pl",
                "contact:website": "http:\/\/world-school.pl",
                "ref:regon": "520239610",
                "operator": "World School Sp\u00f3\u0142ka Z Ograniczon\u0105 Odpowiedzialno\u015bci\u0105",
                "operator:type": "private",
                "amenity": "music_school"
            }
        },
        {
            "id": 277898,
            "type": "Feature",
            "geometry": {
                "type": "Point",
                "coordinates": [
                    16.87283,
                    52.47629
                ]
            },
            "properties": {
                "isced:level": "1;2",
                "ref:rspo": 277898,
                "official_name": "World Primary School Niepubliczna Szko\u0142a Podstawowa Z Oddzia\u0142ami Dwuj\u0119zycznymi",
                "name": "World Primary School Niepubliczna Szko\u0142a Podstawowa Z Oddzia\u0142ami Dwuj\u0119zycznymi",
                "addr:country": "PL",
                "addr:postcode": "62-002",
                "addr:city": "Suchy Las",
                "addr:street": "Obornicka",
                "addr:housenumber": "124",
                "addr:teryt:simc": 14593,
                "addr:teryt:sym_ul": 595370,
                "contact:phone": "+48 515789269",
                "contact:email": "kontakt@world-school.pl",
                "contact:website": "http:\/\/world-school.pl",
                "ref:regon": "389635990",
                "operator": "World School Sp\u00f3\u0142ka Z Ograniczon\u0105 Odpowiedzialno\u015bci\u0105",
                "operator:type": "private",
                "amenity": "school",
                "note": "Parent RSPO: 277895"
            }
        },
        {
            "id": 277899,
            "type": "Feature",
            "geometry": {
                "type": "Point",
                "coordinates": [
                    16.87283,
                    52.476259999999996
                ]
            },
            "properties": {
                "ref:rspo": 277899,
                "official_name": "Magic World Preschool Dwuj\u0119zyczne Niepubliczne Przedszkole",
                "name": "Magic World Preschool Dwuj\u0119zyczne Niepubliczne Przedszkole",
                "addr:country": "PL",
                "addr:postcode": "62-002",
                "addr:city": "Suchy Las",
                "addr:street": "Obornicka",
                "addr:housenumber": "124",
                "addr:teryt:simc": 14593,
                "addr:teryt:sym_ul": 595370,
                "contact:phone": "+48 515789269",
                "contact:email": "kontakt@world-school.pl",
                "contact:website": "http:\/\/world-school.pl",
                "ref:regon": "389636021",
                "operator": "World School Sp\u00f3\u0142ka Z Ograniczon\u0105 Odpowiedzialno\u015bci\u0105",
                "operator:type": "private",
                "amenity": "kindergarten",
                "note": "Parent RSPO: 277895"
            }
        },
        {
            "id": 28200,
            "type": "Feature",
            "geometry": {
                "type": "Point",
                "coordinates": [
                    16.87974,
                    52.47981
                ]
            },
            "properties": {
                "ref:rspo": 28200,
                "official_name": "Prywatne Przedszkole \"Piraciki\"",
                "name": "Prywatne Przedszkole \"Piraciki\"",
                "addr:country": "PL",
                "addr:postcode": "62-002",
                "addr:city": "Suchy Las",
                "addr:street": "Wojciecha Bogus\u0142awskiego",
                "addr:housenumber": "58",
                "addr:teryt:simc": 1608,
                "addr:teryt:sym_ul": 595370,
                "contact:phone": "+48 618115170",
                "contact:email": "piraciki@piraciki.pl",
                "contact:website": "http:\/\/www.piraciki.pl",
                "ref:regon": "302239010",
                "ref:vatin": "PL7771696693",
                "operator": "Niepubliczny \u017b\u0142obek Piraciki Maria Baraniak Prywatne Przedszkole Piraciki Maria Baraniak",
                "operator:type": "consortium",
                "amenity": "kindergarten"
            }
        },
        {
            "id": 34358,
            "type": "Feature",
            "geometry": {
                "type": "Point",
                "coordinates": [
                    16.84927,
                    52.4873199
                ]
            },
            "properties": {
                "ref:rspo": 34358,
                "official_name": "Niepubliczne Przedszkole Kompetencyjne Ul",
                "name": "Niepubliczne Przedszkole Kompetencyjne Ul",
                "addr:country": "PL",
                "addr:postcode": "62-002",
                "addr:city": "Z\u0142otniki",
                "addr:street": "Krzemowa",
                "addr:housenumber": "1",
                "addr:teryt:simc": 10107,
                "addr:teryt:sym_ul": 595401,
                "contact:phone": "+48 616585520",
                "contact:email": "biuro@ulprzedszkole.pl",
                "ref:regon": "302242867",
                "ref:vatin": "PL7773102120",
                "operator": "Nickel Edu Sp\u00f3\u0142ka Z Ograniczon\u0105 Odpowiedzialno\u015bci\u0105",
                "operator:type": "private",
                "amenity": "kindergarten"
            }
        },
        {
            "id": 269010,
            "type": "Feature",
            "geometry": {
                "type": "Point",
                "coordinates": [
                    16.84448,
                    52.49056
                ]
            },
            "properties": {
                "ref:rspo": 269010,
                "official_name": "Publiczne Przedszkole \"Akademos\" w Z\u0142otnikach",
                "name": "Publiczne Przedszkole \"Akademos\" w Z\u0142otnikach",
                "addr:country": "PL",
                "addr:postcode": "62-002",
                "addr:city": "Z\u0142otniki",
                "addr:street": "Lazurytowa",
                "addr:housenumber": "3",
                "addr:teryt:simc": 28037,
                "addr:teryt:sym_ul": 595401,
                "contact:phone": "+48 669888014",
                "contact:email": "sekretariat@akademosprzedszkole.pl",
                "contact:website": "http:\/\/www.akademosprzedszkole.pl",
                "ref:regon": "381329615",
                "operator": "Edu Dydaktyka Sp\u00f3\u0142ka Z Ograniczon\u0105 Odpowiedzialno\u015bci\u0105",
                "operator:type": "private",
                "amenity": "kindergarten"
            }
        },
        {
            "id": 64507,
            "type": "Feature",
            "geometry": {
                "type": "Point",
                "coordinates": [
                    16.81839,
                    52.53468
                ]
            },
            "properties": {
                "isced:level": "1;2",
                "ref:rspo": 64507,
                "official_name": "Szko\u0142a Podstawowa Filia w Gol\u0119czewie",
                "name": "Szko\u0142a Podstawowa Filia w Gol\u0119czewie",
                "addr:country": "PL",
                "addr:postcode": "62-001",
                "addr:city": "Gol\u0119czewo",
                "addr:street": "Dworcowa",
                "addr:housenumber": "59",
                "addr:teryt:simc": 4434,
                "addr:teryt:sym_ul": 595364,
                "contact:phone": "+48 612500303",
                "contact:email": "filia@chludowo.pl",
                "contact:website": "http:\/\/www.chludowo",
                "ref:regon": "122801800",
                "ref:vatin": "PL7771031249",
                "operator": "Gmina Suchy Las",
                "operator:type": "government",
                "amenity": "school",
                "note": "Parent RSPO: 48631"
            }
        },
        {
            "id": 15533,
            "type": "Feature",
            "geometry": {
                "type": "Point",
                "coordinates": [
                    16.94426,
                    52.53582
                ]
            },
            "properties": {
                "ref:rspo": 15533,
                "official_name": "Zesp\u00f3\u0142 Szk\u00f3\u0142 im. 7 Pu\u0142ku Strzelc\u00f3w Konnych Wielkopolskich",
                "name": "Zesp\u00f3\u0142 Szk\u00f3\u0142",
                "addr:country": "PL",
                "addr:postcode": "62-003",
                "addr:city": "Biedrusko",
                "addr:street": "Wojskowa",
                "addr:housenumber": "5",
                "addr:teryt:simc": 24634,
                "addr:teryt:sym_ul": 595329,
                "contact:phone": "+48 618123080",
                "contact:email": "sekretariat@spbiedrusko.edu.pl",
                "ref:regon": "639641750",
                "ref:vatin": "PL7771759554",
                "operator": "Gmina Suchy Las",
                "operator:type": "government",
                "landuse": "education",
                "fixme": "amenity=school, amenity=college albo landuse=education w zale\u017cno\u015bci od tego, jakie plac\u00f3wki wchodz\u0105 w sk\u0142ad zespo\u0142u. Sprawd\u017a, kiedy stosowa\u0107 amenity=* a kiedy landuse=education.",
                "note": "Children RSPO: 48774;48780"
            }
        },
        {
            "id": 48774,
            "type": "Feature",
            "geometry": {
                "type": "Point",
                "coordinates": [
                    16.94426,
                    52.53579
                ]
            },
            "properties": {
                "isced:level": "1;2",
                "ref:rspo": 48774,
                "official_name": "Szko\u0142a Podstawowa w Zespole Szk\u00f3\u0142 im. 7 Pu\u0142ku Strzelc\u00f3w Konnych Wlkp. w Biedruski",
                "name": "Szko\u0142a Podstawowa w Zespole Szk\u00f3\u0142",
                "addr:country": "PL",
                "addr:postcode": "62-003",
                "addr:city": "Biedrusko",
                "addr:street": "Wojskowa",
                "addr:housenumber": "5",
                "addr:teryt:simc": 24634,
                "addr:teryt:sym_ul": 595329,
                "contact:phone": "+48 618123080",
                "contact:email": "sekretariat@spbiedrusko.edu.pl",
                "ref:regon": "001228001",
                "ref:vatin": "PL7771759554",
                "operator": "Gmina Suchy Las",
                "operator:type": "government",
                "amenity": "school",
                "note": "Parent RSPO: 15533"
            }
        },
        {
            "id": 28227,
            "type": "Feature",
            "geometry": {
                "type": "Point",
                "coordinates": [
                    16.94333,
                    52.54093
                ]
            },
            "properties": {
                "isced:level": "1;2",
                "ref:rspo": 28227,
                "official_name": "Prywatna Szko\u0142a Podstawowa Nr 1 w Biedrusku",
                "name": "Prywatna Szko\u0142a Podstawowa Nr 1 w Biedrusku",
                "addr:country": "PL",
                "addr:postcode": "62-003",
                "addr:city": "Biedrusko",
                "addr:street": "7 Pu\u0142ku Strzelc\u00f3w Konnych",
                "addr:housenumber": "35",
                "addr:teryt:simc": 29971,
                "addr:teryt:sym_ul": 595329,
                "contact:phone": "+48 618119225",
                "contact:email": "sekretariat@dobraszkola.poznan.pl",
                "contact:website": "http:\/\/www.dobraszkola.poznan.pl",
                "ref:regon": "302240779",
                "ref:vatin": "PL7780156909",
                "operator": "\"Verum\" Sp\u00f3\u0142ka Z Ograniczon\u0105 Odpowiedzialno\u015bci\u0105",
                "operator:type": "private",
                "amenity": "school"
            }
        },
        {
            "id": 278736,
            "type": "Feature",
            "geometry": {
                "type": "Point",
                "coordinates": [
                    16.94753,
                    52.54264
                ]
            },
            "properties": {
                "ref:rspo": 278736,
                "official_name": "Punkt Przedszkolny \"Terapeutyczne Senso Szkraby\"",
                "name": "Punkt Przedszkolny \"Terapeutyczne Senso Szkraby\"",
                "addr:country": "PL",
                "addr:postcode": "62-003",
                "addr:city": "Biedrusko",
                "addr:street": "1 Maja",
                "addr:housenumber": "88",
                "addr:teryt:simc": 11926,
                "addr:teryt:sym_ul": 595329,
                "contact:email": "biedrusko@senso-szkraby.pl",
                "contact:website": "http:\/\/senso-szkraby.pl",
                "ref:regon": "520047915",
                "operator": "Iwona Kami\u0144ska",
                "operator:type": "consortium",
                "amenity": "kindergarten"
            }
        },
        {
            "id": 272041,
            "type": "Feature",
            "geometry": {
                "type": "Point",
                "coordinates": [
                    16.94191,
                    52.54285
                ]
            },
            "properties": {
                "isced:level": "1;2",
                "ref:rspo": 272041,
                "official_name": "Prywatna Szko\u0142a Podstawowa \"Harmonia\"",
                "name": "Prywatna Szko\u0142a Podstawowa \"Harmonia\"",
                "addr:country": "PL",
                "addr:postcode": "62-002",
                "addr:city": "Suchy Las",
                "addr:street": "Akacjowa",
                "addr:housenumber": "3",
                "addr:teryt:simc": 157,
                "addr:teryt:sym_ul": 595370,
                "contact:phone": "+48 618475386",
                "contact:email": "joanna@wci.pl",
                "ref:regon": "383887064",
                "ref:vatin": "PL7780048261",
                "operator": "Jaros\u0142aw \u015awito\u0144",
                "operator:type": "private",
                "amenity": "school"
            }
        },
        {
            "id": 15534,
            "type": "Feature",
            "geometry": {
                "type": "Point",
                "coordinates": [
                    16.84558,
                    52.55557
                ]
            },
            "properties": {
                "ref:rspo": 15534,
                "official_name": "Zesp\u00f3\u0142 Szk\u00f3\u0142 im. O. Mariana \u017belazka",
                "name": "Zesp\u00f3\u0142 Szk\u00f3\u0142",
                "addr:country": "PL",
                "addr:postcode": "62-001",
                "addr:city": "Chludowo",
                "addr:street": "Szkolna",
                "addr:housenumber": "3",
                "addr:teryt:simc": 21970,
                "addr:teryt:sym_ul": 595358,
                "contact:phone": "+48 612500300",
                "contact:email": "sekretariat@chludowo.pl",
                "ref:regon": "634454345",
                "ref:vatin": "PL7771031249",
                "operator": "Gmina Suchy Las",
                "operator:type": "government",
                "landuse": "education",
                "fixme": "amenity=school, amenity=college albo landuse=education w zale\u017cno\u015bci od tego, jakie plac\u00f3wki wchodz\u0105 w sk\u0142ad zespo\u0142u. Sprawd\u017a, kiedy stosowa\u0107 amenity=* a kiedy landuse=education.",
                "note": "Children RSPO: 48631;48632"
            }
        },
        {
            "id": 48631,
            "type": "Feature",
            "geometry": {
                "type": "Point",
                "coordinates": [
                    16.84558,
                    52.55554
                ]
            },
            "properties": {
                "isced:level": "1;2",
                "ref:rspo": 48631,
                "official_name": "Szko\u0142a Podstawowa w Zespole Szk\u00f3L im. O. Mariana \u017belazka w Chludowie",
                "name": "Szko\u0142a Podstawowa w Zespole Szk\u00f3L",
                "addr:country": "PL",
                "addr:postcode": "62-001",
                "addr:city": "Chludowo",
                "addr:street": "Szkolna",
                "addr:housenumber": "3",
                "addr:teryt:simc": 21970,
                "addr:teryt:sym_ul": 595358,
                "contact:phone": "+48 612500300",
                "contact:email": "sekretariat@chludowo.pl",
                "contact:website": "http:\/\/www.chludowo.pl",
                "ref:regon": "001228018",
                "ref:vatin": "PL7771031249",
                "operator": "Gmina Suchy Las",
                "operator:type": "government",
                "amenity": "school",
                "note": "Children RSPO: 64507Parent RSPO: 15534"
            }
        },
        {
            "id": 48632,
            "type": "Feature",
            "geometry": {
                "type": "Point",
                "coordinates": [
                    16.84673,
                    52.55679
                ]
            },
            "properties": {
                "ref:rspo": 48632,
                "official_name": "Przedszkole w Zespole Szk\u00f3\u0142 im. O. Mariana \u017belazka w Chludowie",
                "name": "Przedszkole w Zespole Szk\u00f3\u0142",
                "addr:country": "PL",
                "addr:postcode": "62-001",
                "addr:city": "Chludowo",
                "addr:street": "Ko\u015bcielna",
                "addr:housenumber": "12",
                "addr:teryt:simc": 9546,
                "addr:teryt:sym_ul": 595358,
                "contact:phone": "+48 612500305",
                "contact:email": "przedszkole@chludowo.pl",
                "contact:website": "http:\/\/www.chludowo",
                "ref:regon": "634454368",
                "ref:vatin": "PL7771031249",
                "operator": "Gmina Suchy Las",
                "operator:type": "government",
                "amenity": "kindergarten",
                "note": "Parent RSPO: 15534"
            }
        }
    ]
}