{
    "type": "FeatureCollection",
    "features": [
        {
            "id": 106331,
            "type": "Feature",
            "geometry": {
                "type": "Point",
                "coordinates": [
                    17.33082,
                    52.35086
                ]
            },
            "properties": {
                "isced:level": "1;2",
                "ref:rspo": 106331,
                "official_name": "Szko\u0142a Podstawowa im. Arkadego Fiedlera w Gu\u0142towach",
                "name": "Szko\u0142a Podstawowa",
                "addr:country": "PL",
                "addr:postcode": "62-025",
                "addr:city": "Gu\u0142towy",
                "addr:street": "\u015aredzka",
                "addr:housenumber": "8",
                "addr:teryt:simc": 22414,
                "addr:teryt:sym_ul": 586069,
                "contact:phone": "+48 618180344",
                "contact:email": "spgultowy@kostrzyn.wlkp.pl",
                "contact:website": "http:\/\/www.szkola-gultowy.pl",
                "ref:regon": "001226396",
                "ref:vatin": "PL7772725356",
                "operator": "Gmina Kostrzyn",
                "operator:type": "government",
                "amenity": "school"
            }
        },
        {
            "id": 106428,
            "type": "Feature",
            "geometry": {
                "type": "Point",
                "coordinates": [
                    17.21487,
                    52.35336
                ]
            },
            "properties": {
                "isced:level": "1;2",
                "ref:rspo": 106428,
                "official_name": "Szko\u0142a Podstawowa im. Wincentego Witosa w Czerlejnie",
                "name": "Szko\u0142a Podstawowa",
                "addr:country": "PL",
                "addr:postcode": "62-025",
                "addr:city": "Czerlejno",
                "addr:street": "Kostrzy\u0144ska",
                "addr:housenumber": "4",
                "addr:teryt:simc": 9495,
                "addr:teryt:sym_ul": 585992,
                "contact:phone": "+48 618178586",
                "contact:email": "spczerlejno@kostrzyn.wlkp.pl",
                "contact:website": "http:\/\/www.zsczerlejno.pl",
                "ref:regon": "001226404",
                "ref:vatin": "PL7772725391",
                "operator": "Gmina Kostrzyn",
                "operator:type": "government",
                "amenity": "school"
            }
        },
        {
            "id": 115137,
            "type": "Feature",
            "geometry": {
                "type": "Point",
                "coordinates": [
                    17.22398,
                    52.3628799
                ]
            },
            "properties": {
                "ref:rspo": 115137,
                "official_name": "Niepubliczne Przedszkole Z Oddzia\u0142ami Integracyjnymi \"Zielony Zak\u0105tek\"",
                "name": "Niepubliczne Przedszkole Z Oddzia\u0142ami Integracyjnymi \"Zielony Zak\u0105tek\"",
                "addr:country": "PL",
                "addr:postcode": "62-025",
                "addr:city": "Czerlejnko",
                "addr:street": "Jesionowa",
                "addr:housenumber": "17",
                "addr:teryt:simc": 7506,
                "addr:teryt:sym_ul": 585986,
                "contact:phone": "+48 609474012",
                "contact:email": "przedszkole_zakatek@wp.pl",
                "contact:website": "http:\/\/www.przedszkolezakatek.pl",
                "ref:regon": "302456700",
                "operator": "\"Zielony Zak\u0105tek\" Magdalena Urba\u0144ska",
                "operator:type": "consortium",
                "amenity": "kindergarten"
            }
        },
        {
            "id": 106362,
            "type": "Feature",
            "geometry": {
                "type": "Point",
                "coordinates": [
                    17.34338,
                    52.37745
                ]
            },
            "properties": {
                "isced:level": "1;2",
                "ref:rspo": 106362,
                "official_name": "Szko\u0142a Podstawowa im. Jana Brzechwy w Brze\u017anie",
                "name": "Szko\u0142a Podstawowa",
                "addr:country": "PL",
                "addr:postcode": "62-025",
                "addr:city": "Brze\u017ano",
                "addr:street": "D\u0142uga",
                "addr:housenumber": "5",
                "addr:teryt:simc": 3839,
                "addr:teryt:sym_ul": 585970,
                "contact:phone": "+48 618180480",
                "contact:email": "spbrzezno@kostrzyn.wlkp.pl",
                "contact:website": "http:\/\/www.zsbrzezno.pl",
                "ref:regon": "001247694",
                "ref:vatin": "PL7772850044",
                "operator": "Gmina Kostrzyn",
                "operator:type": "government",
                "amenity": "school"
            }
        },
        {
            "id": 270766,
            "type": "Feature",
            "geometry": {
                "type": "Point",
                "coordinates": [
                    17.15318,
                    52.37793
                ]
            },
            "properties": {
                "ref:rspo": 270766,
                "official_name": "Niepubliczna Poradnia Psychologiczo-Pedagogiczna \"S\u0142oneczko\" w Siekierkach Wielkich",
                "name": "Niepubliczna Poradnia Psychologiczo-Pedagogiczna \"S\u0142oneczko\" w Siekierkach Wielkich",
                "addr:country": "PL",
                "addr:postcode": "62-025",
                "addr:city": "Siekierki Wielkie",
                "addr:street": "Klonowa",
                "addr:housenumber": "10",
                "addr:teryt:simc": 8574,
                "addr:teryt:sym_ul": 586218,
                "contact:phone": "+48 516616011",
                "contact:email": "poradniasiekierki@gmail.com",
                "ref:regon": "382905179",
                "operator": "Natalia Krzywicka",
                "operator:type": "private",
                "healthcare": "counselling",
                "counselling_type": "education",
                "fixme": "w zale\u017cno\u015bci od przedmiotu dzia\u0142alno\u015bci (np. healthcare=counselling + counselling_type=education albo healthcare=psychotherapist)"
            }
        },
        {
            "id": 106432,
            "type": "Feature",
            "geometry": {
                "type": "Point",
                "coordinates": [
                    17.16167,
                    52.38182
                ]
            },
            "properties": {
                "isced:level": "1;2",
                "ref:rspo": 106432,
                "official_name": "Szko\u0142a Podstawowa im. Pauliny I Augusta Wilko\u0144skich w Siekierkach Wielkich",
                "name": "Szko\u0142a Podstawowa",
                "addr:country": "PL",
                "addr:postcode": "62-025",
                "addr:city": "Siekierki Wielkie",
                "addr:street": "Stanis\u0142awa Karalusa",
                "addr:housenumber": "1",
                "addr:teryt:simc": 27237,
                "addr:teryt:sym_ul": 586218,
                "contact:phone": "+48 618978316",
                "contact:email": "spsiekierki@kostrzyn.wlkp.pl",
                "contact:website": "http:\/\/www.spsiekierki.pl",
                "ref:regon": "001226410",
                "ref:vatin": "PL7772789758",
                "operator": "Gmina Kostrzyn",
                "operator:type": "government",
                "amenity": "school"
            }
        },
        {
            "id": 278345,
            "type": "Feature",
            "geometry": {
                "type": "Point",
                "coordinates": [
                    17.22362,
                    52.39257
                ]
            },
            "properties": {
                "ref:rspo": 278345,
                "official_name": "Niepubliczny Specjalny Punkt Przedszkolny \"Pi\u0119kny Umys\u0142\"",
                "name": "Niepubliczny Specjalny Punkt Przedszkolny \"Pi\u0119kny Umys\u0142\"",
                "addr:country": "PL",
                "addr:postcode": "62-025",
                "addr:city": "Kostrzyn",
                "addr:street": "Wiosny Lud\u00f3w",
                "addr:housenumber": "36",
                "addr:teryt:simc": 24369,
                "addr:teryt:sym_ul": 970885,
                "contact:email": "pieknyumysl.przedszkole@gmail.com",
                "contact:website": "http:\/\/www.przedszkolepieknyumysl.pl",
                "ref:regon": "389873695",
                "operator": "Pi\u0119kny Umys\u0142 Sp\u00f3\u0142ka Z Ograniczon\u0105 Odpowiedzialno\u015bci\u0105",
                "operator:type": "private",
                "amenity": "kindergarten"
            }
        },
        {
            "id": 124442,
            "type": "Feature",
            "geometry": {
                "type": "Point",
                "coordinates": [
                    17.22805,
                    52.39383
                ]
            },
            "properties": {
                "ref:rspo": 124442,
                "official_name": "Przedszkole Niepubliczne Z Oddzia\u0142ami Integracyjnymi Labado \u015awiat Dziecka",
                "name": "Przedszkole Niepubliczne Z Oddzia\u0142ami Integracyjnymi Labado \u015awiat Dziecka",
                "addr:country": "PL",
                "addr:postcode": "62-025",
                "addr:city": "Kostrzyn",
                "addr:street": "Warszawska",
                "addr:housenumber": "4a",
                "addr:door": "97",
                "addr:teryt:simc": 23682,
                "addr:teryt:sym_ul": 970885,
                "contact:phone": "+48 606953226",
                "contact:email": "labado.swiatdziecka@o2.pl",
                "contact:website": "http:\/\/www.labadoswiatdziecka.pl",
                "ref:regon": "302810024",
                "operator": "Labado \u015awiat Dziecka Sp\u00f3\u0142ka Z Ograniczon\u0105 Odpowiedzialno\u015bci\u0105",
                "operator:type": "consortium",
                "amenity": "kindergarten"
            }
        },
        {
            "id": 275449,
            "type": "Feature",
            "geometry": {
                "type": "Point",
                "coordinates": [
                    17.23569,
                    52.3942
                ]
            },
            "properties": {
                "ref:rspo": 275449,
                "official_name": "Przedszkole Nr 2 w Kostrzynie",
                "name": "Przedszkole Nr 2 w Kostrzynie",
                "addr:country": "PL",
                "addr:postcode": "62-025",
                "addr:city": "Kostrzyn",
                "addr:street": "Powsta\u0144c\u00f3w Wielkopolskich",
                "addr:housenumber": "28c",
                "addr:teryt:simc": 17379,
                "addr:teryt:sym_ul": 970885,
                "contact:email": "biuro@bajkowa-kraina.edu.pl",
                "contact:website": "http:\/\/www.bajkowa-kraina.edu.p",
                "ref:regon": "386922430",
                "operator": "Adrian Wr\u00f3bel",
                "operator:type": "private",
                "amenity": "kindergarten"
            }
        },
        {
            "id": 106220,
            "type": "Feature",
            "geometry": {
                "type": "Point",
                "coordinates": [
                    17.22022,
                    52.39575
                ]
            },
            "properties": {
                "ref:rspo": 106220,
                "official_name": "Niepubliczne Przedszkole Z Oddzia\u0142ami Intergacyjnymi \"S\u0142oneczko\"",
                "name": "Niepubliczne Przedszkole Z Oddzia\u0142ami Intergacyjnymi \"S\u0142oneczko\"",
                "addr:country": "PL",
                "addr:postcode": "62-025",
                "addr:city": "Kostrzyn",
                "addr:street": "\u015al\u0105ska",
                "addr:housenumber": "8",
                "addr:teryt:simc": 22308,
                "addr:teryt:sym_ul": 970885,
                "contact:phone": "+48 618551539",
                "contact:email": "janina.krzywicka@wp.pl",
                "contact:website": "http:\/\/www.naszeprzedszkole.net",
                "ref:regon": "302319848",
                "operator": "Janina Krzywicka",
                "operator:type": "private",
                "amenity": "kindergarten"
            }
        },
        {
            "id": 72667,
            "type": "Feature",
            "geometry": {
                "type": "Point",
                "coordinates": [
                    17.22553062439,
                    52.396030426025
                ]
            },
            "properties": {
                "isced:level": "3",
                "ref:rspo": 72667,
                "official_name": "Liceum Og\u00f3lnokszta\u0142c\u0105ce dla Doros\u0142ych w Kostrzynie Wlkp",
                "name": "Liceum Og\u00f3lnokszta\u0142c\u0105ce dla Doros\u0142ych w Kostrzynie Wlkp",
                "addr:country": "PL",
                "addr:postcode": "62-025",
                "addr:city": "Kostrzyn",
                "addr:street": "Powsta\u0144c\u00f3w Wielkopolskich",
                "addr:housenumber": "28a",
                "addr:teryt:simc": 17379,
                "addr:teryt:sym_ul": 970885,
                "contact:phone": "+48 618189104",
                "contact:email": "akademik@agrointernet.pl",
                "ref:regon": "302260180",
                "operator": "Fundacja \"Pro Vobis\"",
                "operator:type": "ngo",
                "amenity": "school"
            }
        },
        {
            "id": 262553,
            "type": "Feature",
            "geometry": {
                "type": "Point",
                "coordinates": [
                    17.22553062439,
                    52.396000426025
                ]
            },
            "properties": {
                "isced:level": "1;2",
                "ref:rspo": 262553,
                "official_name": "Szko\u0142a Podstawowa Nr 2 im. Rady Europy w Kostrzynie",
                "name": "Szko\u0142a Podstawowa Nr 2",
                "addr:country": "PL",
                "addr:postcode": "62-025",
                "addr:city": "Kostrzyn",
                "addr:street": "Powsta\u0144c\u00f3w Wielkopolskich",
                "addr:housenumber": "28a",
                "addr:teryt:simc": 17379,
                "addr:teryt:sym_ul": 970885,
                "contact:phone": "+48 618189104",
                "contact:email": "sp2kostrzyn@kostrzyn.wlkp.pl",
                "ref:regon": "368035312",
                "ref:vatin": "PL7773292161",
                "operator": "Gmina Kostrzyn",
                "operator:type": "government",
                "amenity": "school"
            }
        },
        {
            "id": 124439,
            "type": "Feature",
            "geometry": {
                "type": "Point",
                "coordinates": [
                    17.24375,
                    52.39629
                ]
            },
            "properties": {
                "ref:rspo": 124439,
                "official_name": "Niepubliczne Przedszkole Akademia Pomys\u0142\u00f3w",
                "name": "Niepubliczne Przedszkole Akademia Pomys\u0142\u00f3w",
                "addr:country": "PL",
                "addr:postcode": "62-025",
                "addr:city": "Kostrzyn",
                "addr:street": "Jadwigi",
                "addr:housenumber": "5",
                "addr:teryt:simc": 7012,
                "addr:teryt:sym_ul": 970885,
                "contact:phone": "+48 515770279",
                "contact:email": "15agnes@wp.pl",
                "ref:regon": "302809995",
                "operator": "Agnieszka Wasilewska",
                "operator:type": "private",
                "amenity": "kindergarten"
            }
        },
        {
            "id": 106122,
            "type": "Feature",
            "geometry": {
                "type": "Point",
                "coordinates": [
                    17.22389,
                    52.3966
                ]
            },
            "properties": {
                "isced:level": "1;2",
                "ref:rspo": 106122,
                "official_name": "Szko\u0142a Podstawowa Nr 1 im. Ewarysta Estkowskiego w Kostrzynie",
                "name": "Szko\u0142a Podstawowa Nr 1",
                "addr:country": "PL",
                "addr:postcode": "62-025",
                "addr:city": "Kostrzyn",
                "addr:street": "Piasta",
                "addr:housenumber": "1",
                "addr:teryt:simc": 16041,
                "addr:teryt:sym_ul": 970885,
                "contact:phone": "+48 618178517",
                "contact:email": "sp1kostrzyn@kostrzyn.wlkp.pl",
                "contact:website": "http:\/\/www.spkostrzyn.pl",
                "ref:regon": "000261769",
                "ref:vatin": "PL7861086254",
                "operator": "Gmina Kostrzyn",
                "operator:type": "government",
                "amenity": "school"
            }
        },
        {
            "id": 106121,
            "type": "Feature",
            "geometry": {
                "type": "Point",
                "coordinates": [
                    17.22812,
                    52.39673
                ]
            },
            "properties": {
                "ref:rspo": 106121,
                "official_name": "Przedszkole Nr 1 w Kostrzynie",
                "name": "Przedszkole Nr 1 w Kostrzynie",
                "addr:country": "PL",
                "addr:postcode": "62-025",
                "addr:city": "Kostrzyn",
                "addr:street": "\u015aredzka",
                "addr:housenumber": "9",
                "addr:teryt:simc": 22414,
                "addr:teryt:sym_ul": 970885,
                "contact:phone": "+48 618178354",
                "contact:email": "przedszkole@kostrzyn.wlkp.pl",
                "contact:website": "http:\/\/www.przedszkole-kostrzyn.pl",
                "ref:regon": "630504968",
                "ref:vatin": "PL7861086478",
                "operator": "Gmina Kostrzyn",
                "operator:type": "government",
                "amenity": "kindergarten"
            }
        },
        {
            "id": 106229,
            "type": "Feature",
            "geometry": {
                "type": "Point",
                "coordinates": [
                    17.22829,
                    52.39779
                ]
            },
            "properties": {
                "ref:rspo": 106229,
                "official_name": "Przedszkole Niepubliczne \"Kubu\u015b Puchatek\"",
                "name": "Przedszkole Niepubliczne \"Kubu\u015b Puchatek\"",
                "addr:country": "PL",
                "addr:postcode": "62-025",
                "addr:city": "Kostrzyn",
                "addr:street": "\u015aredzka",
                "addr:housenumber": "2",
                "addr:teryt:simc": 22414,
                "addr:teryt:sym_ul": 970885,
                "contact:phone": "+48 618178396",
                "contact:email": "puchatek.kostrzyn@wp.pl",
                "ref:regon": "302319854",
                "operator": "Barbara Brze\u017ai\u0144ska",
                "operator:type": "private",
                "amenity": "kindergarten"
            }
        },
        {
            "id": 121384,
            "type": "Feature",
            "geometry": {
                "type": "Point",
                "coordinates": [
                    17.22351,
                    52.39976
                ]
            },
            "properties": {
                "ref:rspo": 121384,
                "official_name": "Filia w Kostrzynie",
                "name": "Filia w Kostrzynie",
                "addr:country": "PL",
                "addr:postcode": "62-025",
                "addr:city": "Kostrzyn",
                "addr:street": "Braci Drzewieckich",
                "addr:housenumber": "1",
                "addr:teryt:simc": 1966,
                "addr:teryt:sym_ul": 970885,
                "contact:phone": "+48 618189819",
                "contact:email": "sekretariat.kostrzyn@pppswarzedz.pl",
                "contact:website": "http:\/\/www.poradnie.powiat.poznan.pl",
                "ref:regon": "639695622",
                "operator": "Powiat Pozna\u0144ski",
                "operator:type": "government",
                "healthcare": "counselling",
                "counselling_type": "education",
                "fixme": "w zale\u017cno\u015bci od przedmiotu dzia\u0142alno\u015bci (np. healthcare=counselling + counselling_type=education albo healthcare=psychotherapist)",
                "note": "Parent RSPO: 71556"
            }
        },
        {
            "id": 106433,
            "type": "Feature",
            "geometry": {
                "type": "Point",
                "coordinates": [
                    17.26977,
                    52.4048299
                ]
            },
            "properties": {
                "isced:level": "1;2",
                "ref:rspo": 106433,
                "official_name": "Szko\u0142a Podstawowa im.miko\u0142aja Kopernika w Iwnie",
                "name": "Szko\u0142a Podstawowa im.miko\u0142aja Kopernika w Iwnie",
                "addr:country": "PL",
                "addr:postcode": "62-025",
                "addr:city": "Iwno",
                "addr:street": "Szkolna",
                "addr:housenumber": "11",
                "addr:teryt:simc": 21970,
                "addr:teryt:sym_ul": 586106,
                "contact:phone": "+48 618178254",
                "contact:email": "spiwno@wp.pl",
                "ref:regon": "001226380",
                "ref:vatin": "PL7772725422",
                "operator": "Gmina Kostrzyn",
                "operator:type": "government",
                "amenity": "school"
            }
        }
    ]
}