{
    "type": "FeatureCollection",
    "features": [
        {
            "id": 274374,
            "type": "Feature",
            "geometry": {
                "type": "Point",
                "coordinates": [
                    17.03363,
                    52.55753
                ]
            },
            "properties": {
                "ref:rspo": 274374,
                "official_name": "Przedszkole Niepubliczne Le\u015bna Gromada",
                "name": "Przedszkole Niepubliczne Le\u015bna Gromada",
                "addr:postcode": "62-095",
                "addr:city": "Rakownia",
                "addr:street": "Go\u015bli\u0144ska",
                "addr:housenumber": "56",
                "addr:city:simc": 590013,
                "addr:street:sym_ul": 5882,
                "email": "rafal.licznerski@gmail.com",
                "ref:regon": "385650113",
                "operator": "Br Studio Sp\u00f3\u0142ka Z Ograniczon\u0105 Odpowiedzialno\u015bci\u0105",
                "operator:type": "private",
                "amenity": "kindergarten"
            }
        },
        {
            "id": 120288,
            "type": "Feature",
            "geometry": {
                "type": "Point",
                "coordinates": [
                    17.0309141,
                    52.5598481
                ]
            },
            "properties": {
                "ref:rspo": 120288,
                "official_name": "Centrum Szkole\u0144 Specjalistycznych Atj.s.c. Arkadiusz Tomczak, Tomasz Jelonek",
                "name": "Centrum Szkole\u0144 Specjalistycznych Atj.s.c. Arkadiusz Tomczak, Tomasz Jelonek",
                "addr:postcode": "62-095",
                "addr:city": "Rakownia",
                "addr:street": "Wr\u00f3bla",
                "addr:housenumber": "16",
                "addr:city:simc": 590013,
                "addr:street:sym_ul": 24824,
                "phone": "+48 603526915",
                "ref:regon": "302538020",
                "operator": "Tomasz Jelonek",
                "operator:type": "private",
                "fixme": "w zale\u017cno\u015bci od przedmiotu dzia\u0142alno\u015bci (np. amenity=training + training=*, amenity=dancing_school, amenity=language_school, amenity=music_school)"
            }
        },
        {
            "id": 80024,
            "type": "Feature",
            "geometry": {
                "type": "Point",
                "coordinates": [
                    16.99513,
                    52.56489
                ]
            },
            "properties": {
                "ref:rspo": 80024,
                "official_name": "Przedszkole \"S\u0142oneczko\"",
                "name": "Przedszkole \"S\u0142oneczko\"",
                "addr:postcode": "62-095",
                "addr:city": "Murowana Go\u015blina",
                "addr:street": "Le\u015bna",
                "addr:housenumber": "9",
                "addr:city:simc": 971152,
                "addr:street:sym_ul": 10898,
                "phone": "+48 618122804",
                "email": "sloneczko@napisz.net",
                "website": "http:\/\/www.sloneczko.edu.pl",
                "ref:regon": "302266069",
                "ref:vatin": "PL7771845549",
                "operator": "Ma\u0142gorzata Migas",
                "operator:type": "private",
                "amenity": "kindergarten"
            }
        },
        {
            "id": 80018,
            "type": "Feature",
            "geometry": {
                "type": "Point",
                "coordinates": [
                    16.99335,
                    52.56644
                ]
            },
            "properties": {
                "isced:level": "1;2",
                "ref:rspo": 80018,
                "official_name": "Szko\u0142a Podstawowa nr 2 im. Henryka Sienkiewicza w Murowanej Goslinie",
                "name": "Szko\u0142a Podstawowa nr 2",
                "addr:postcode": "62-095",
                "addr:city": "Murowana Go\u015blina",
                "addr:street": "Genera\u0142a Tadeusza Kutrzeby",
                "addr:housenumber": "3",
                "addr:city:simc": 971152,
                "addr:street:sym_ul": 51145,
                "phone": "+48 618122977",
                "email": "sp2@murowana-goslina.pl",
                "website": "http:\/\/www.sp2.murowana-goslina.pl",
                "ref:regon": "631576711",
                "ref:vatin": "PL7772398124",
                "operator": "Gmina Murowana Go\u015blina",
                "operator:type": "government",
                "amenity": "school"
            }
        },
        {
            "id": 81263,
            "type": "Feature",
            "geometry": {
                "type": "Point",
                "coordinates": [
                    16.99335,
                    52.56641
                ]
            },
            "properties": {
                "ref:rspo": 81263,
                "official_name": "Przedszkole Niepubliczne Klub Przedszkolaka",
                "name": "Przedszkole Niepubliczne Klub Przedszkolaka",
                "addr:postcode": "62-095",
                "addr:city": "Murowana Go\u015blina",
                "addr:street": "Genera\u0142a Tadeusza Kutrzeby",
                "addr:housenumber": "3",
                "addr:city:simc": 971152,
                "addr:street:sym_ul": 51145,
                "phone": "+48 618114569",
                "ref:regon": "302269375",
                "ref:vatin": "PL7771385378",
                "operator": "Beata Wawrzyniak",
                "operator:type": "private",
                "amenity": "kindergarten"
            }
        },
        {
            "id": 81292,
            "type": "Feature",
            "geometry": {
                "type": "Point",
                "coordinates": [
                    17.01592,
                    52.57298
                ]
            },
            "properties": {
                "ref:rspo": 81292,
                "official_name": "Przedszkole Niepubliczne Groszek",
                "name": "Przedszkole Niepubliczne Groszek",
                "addr:postcode": "62-095",
                "addr:city": "Murowana Go\u015blina",
                "addr:street": "Gnie\u017anie\u0144ska",
                "addr:housenumber": "7",
                "addr:city:simc": 971152,
                "addr:street:sym_ul": 5670,
                "phone": "+48 618122191",
                "ref:regon": "302269381",
                "ref:vatin": "PL7661771577",
                "operator": "Magdalena P\u0119dzi\u0144ska",
                "operator:type": "private",
                "amenity": "kindergarten"
            }
        },
        {
            "id": 80025,
            "type": "Feature",
            "geometry": {
                "type": "Point",
                "coordinates": [
                    17.00759,
                    52.57388
                ]
            },
            "properties": {
                "ref:rspo": 80025,
                "official_name": "Przedszkole \"Promyk\"",
                "name": "Przedszkole \"Promyk\"",
                "addr:postcode": "62-095",
                "addr:city": "Murowana Go\u015blina",
                "addr:street": "Pozna\u0144ska",
                "addr:housenumber": "20",
                "addr:city:simc": 971152,
                "addr:street:sym_ul": 17394,
                "phone": "+48 618122166",
                "email": "promyk20@interia.eu",
                "ref:regon": "302264685",
                "ref:vatin": "PL7771145154",
                "operator": "Iwona Nowak",
                "operator:type": "private",
                "amenity": "kindergarten"
            }
        },
        {
            "id": 80010,
            "type": "Feature",
            "geometry": {
                "type": "Point",
                "coordinates": [
                    17.00191,
                    52.57597
                ]
            },
            "properties": {
                "isced:level": "1;2",
                "ref:rspo": 80010,
                "official_name": "Szko\u0142a Podstawowa nr 1 im. Karola Marcinkowskiego w Murowanej Go\u015blinie",
                "name": "Szko\u0142a Podstawowa nr 1",
                "addr:postcode": "62-095",
                "addr:city": "Murowana Go\u015blina",
                "addr:street": "M\u015bciszewska",
                "addr:housenumber": "10",
                "addr:door": "-",
                "addr:city:simc": 971152,
                "addr:street:sym_ul": 13460,
                "phone": "+48 618112779",
                "email": "sp1@murowana-goslina.pl",
                "ref:regon": "000261717",
                "ref:vatin": "PL7772394267",
                "operator": "Gmina Murowana Go\u015blina",
                "operator:type": "government",
                "amenity": "school"
            }
        },
        {
            "id": 80032,
            "type": "Feature",
            "geometry": {
                "type": "Point",
                "coordinates": [
                    17.00191,
                    52.575939999999996
                ]
            },
            "properties": {
                "ref:rspo": 80032,
                "official_name": "Przedszkole Niepubliczne Smocze Wzg\u00f3rze",
                "name": "Przedszkole Niepubliczne Smocze Wzg\u00f3rze",
                "addr:postcode": "62-095",
                "addr:city": "Murowana Go\u015blina",
                "addr:street": "M\u015bciszewska",
                "addr:housenumber": "10",
                "addr:city:simc": 971152,
                "addr:street:sym_ul": 13460,
                "phone": "+48 502501168",
                "email": "przedszkole@smoczewzgorze.pl",
                "website": "http:\/\/www.smoczewzgorze.pl",
                "ref:regon": "302264780",
                "ref:vatin": "PL7772654917",
                "operator": "Sara G\u0119bu\u015b",
                "operator:type": "private",
                "amenity": "kindergarten"
            }
        },
        {
            "id": 121382,
            "type": "Feature",
            "geometry": {
                "type": "Point",
                "coordinates": [
                    17.00191,
                    52.57591
                ]
            },
            "properties": {
                "ref:rspo": 121382,
                "official_name": "Filia w Murowanej Go\u015blinie",
                "name": "Filia w Murowanej Go\u015blinie",
                "addr:postcode": "62-095",
                "addr:city": "Murowana Go\u015blina",
                "addr:street": "M\u015bciszewska",
                "addr:housenumber": "10",
                "addr:city:simc": 971152,
                "addr:street:sym_ul": 13460,
                "phone": "+48 618123621",
                "email": "sekretariat.murowanag@pppswarzedz.pl",
                "website": "http:\/\/www.poradnie.powiat.poznan.pl",
                "ref:regon": "639695622",
                "operator": "Powiat Pozna\u0144ski",
                "operator:type": "government",
                "healthcare": "counselling",
                "counselling_type": "education",
                "fixme": "w zale\u017cno\u015bci od przedmiotu dzia\u0142alno\u015bci (np. healthcare=counselling + counselling_type=education albo healthcare=psychotherapist)",
                "note": "Parent RSPO: 71556"
            }
        },
        {
            "id": 69869,
            "type": "Feature",
            "geometry": {
                "type": "Point",
                "coordinates": [
                    17.01225,
                    52.57766
                ]
            },
            "properties": {
                "ref:rspo": 69869,
                "official_name": "Niepubliczna Szko\u0142a Muzyczna I St. im. Miklosza Deki Czureji w Poznaniu",
                "name": "Niepubliczna Szko\u0142a Muzyczna I St.",
                "addr:postcode": "62-095",
                "addr:city": "Murowana Go\u015blina",
                "addr:street": "Szkolna",
                "addr:housenumber": "1",
                "addr:city:simc": 971152,
                "addr:street:sym_ul": 21970,
                "phone": "+48 663099099",
                "email": "fundacja.biuro@wp.pl",
                "website": "http:\/\/fundacjaszkoly.pl",
                "ref:regon": "302256272",
                "operator": "\"Bahta\u0142e Roma\"",
                "operator:type": "ngo",
                "amenity": "music_school"
            }
        },
        {
            "id": 70693,
            "type": "Feature",
            "geometry": {
                "type": "Point",
                "coordinates": [
                    17.01225,
                    52.57763
                ]
            },
            "properties": {
                "isced:level": "3",
                "ref:rspo": 70693,
                "official_name": "Liceum Og\u00f3lnokszta\u0142c\u0105ce dla Doros\u0142ych w Murowanej Go\u015blinie",
                "name": "Liceum Og\u00f3lnokszta\u0142c\u0105ce dla Doros\u0142ych w Murowanej Go\u015blinie",
                "addr:postcode": "62-095",
                "addr:city": "Murowana Go\u015blina",
                "addr:street": "Szkolna",
                "addr:housenumber": "1",
                "addr:city:simc": 971152,
                "addr:street:sym_ul": 21970,
                "phone": "+48 618126040",
                "email": "zsbolechowo@powiat.poznan.pl",
                "website": "http:\/\/www.zsbolechowo.edu.pl",
                "ref:regon": "300648631",
                "operator": "Powiat Pozna\u0144ski",
                "operator:type": "government",
                "amenity": "school",
                "note": "Parent RSPO: 11866"
            }
        },
        {
            "id": 70695,
            "type": "Feature",
            "geometry": {
                "type": "Point",
                "coordinates": [
                    17.01225,
                    52.577600000000004
                ]
            },
            "properties": {
                "isced:level": "3",
                "ref:rspo": 70695,
                "official_name": "Bran\u017cowa Szko\u0142a I Stopnia w Murowanej Go\u015blinie",
                "name": "Bran\u017cowa Szko\u0142a I Stopnia w Murowanej Go\u015blinie",
                "addr:postcode": "62-095",
                "addr:city": "Murowana Go\u015blina",
                "addr:street": "Szkolna",
                "addr:housenumber": "1",
                "addr:city:simc": 971152,
                "addr:street:sym_ul": 21970,
                "phone": "+48 618122491",
                "email": "murowana.goslina@zsbolechowo.pl",
                "website": "http:\/\/www.zsbolechowo.edu.pl",
                "ref:regon": "634503813",
                "operator": "Powiat Pozna\u0144ski",
                "operator:type": "government",
                "amenity": "school",
                "note": "Parent RSPO: 11866"
            }
        },
        {
            "id": 91466,
            "type": "Feature",
            "geometry": {
                "type": "Point",
                "coordinates": [
                    16.97121,
                    52.58438
                ]
            },
            "properties": {
                "ref:rspo": 91466,
                "official_name": "Koniki Polne - M\u015bciszewo",
                "name": "Koniki Polne - M\u015bciszewo",
                "addr:postcode": "62-095",
                "addr:place": "M\u015bciszewo",
                "addr:housenumber": "31",
                "addr:city:simc": 589955,
                "phone": "+48 669494065",
                "email": "malejestpiekne@onet.pl",
                "ref:regon": "302281927",
                "ref:vatin": "PL7773121407",
                "operator": "Stowarzyszenie \" Ma\u0142e Jest Pi\u0119kne \"",
                "operator:type": "ngo",
                "amenity": "kindergarten"
            }
        },
        {
            "id": 81262,
            "type": "Feature",
            "geometry": {
                "type": "Point",
                "coordinates": [
                    17.01213,
                    52.58452
                ]
            },
            "properties": {
                "ref:rspo": 81262,
                "official_name": "Przedszkole \"Le\u015bne Skrzaty\"",
                "name": "Przedszkole \"Le\u015bne Skrzaty\"",
                "addr:postcode": "62-095",
                "addr:place": "Przeb\u0119dowo",
                "addr:housenumber": "1",
                "addr:city:simc": 590007,
                "phone": "+48 616707597",
                "email": "lenardkasia@wp.pl",
                "ref:regon": "302269352",
                "ref:vatin": "PL7771482934",
                "operator": "Katarzyna Lenard",
                "operator:type": "private",
                "amenity": "kindergarten"
            }
        },
        {
            "id": 128416,
            "type": "Feature",
            "geometry": {
                "type": "Point",
                "coordinates": [
                    17.0885399,
                    52.61489
                ]
            },
            "properties": {
                "isced:level": "1;2",
                "ref:rspo": 128416,
                "official_name": "Szko\u0142a Podstawowa w \u0141opuchowie",
                "name": "Szko\u0142a Podstawowa w \u0141opuchowie",
                "addr:postcode": "62-028",
                "addr:place": "\u0141opuchowo",
                "addr:housenumber": "15",
                "addr:city:simc": 589932,
                "phone": "+48 618590437",
                "email": "przyjacielelopuchowa@wp.pl",
                "website": "http:\/\/www.przyjacielelopuchowa.pl",
                "ref:regon": "362276687",
                "operator": "Stowarzyszenie Przyjaciele \u0141opuchowa",
                "operator:type": "ngo",
                "amenity": "school"
            }
        },
        {
            "id": 128488,
            "type": "Feature",
            "geometry": {
                "type": "Point",
                "coordinates": [
                    17.0885399,
                    52.61486
                ]
            },
            "properties": {
                "ref:rspo": 128488,
                "official_name": "Przedszkole w \u0141opuchowie",
                "name": "Przedszkole w \u0141opuchowie",
                "addr:postcode": "62-095",
                "addr:place": "\u0141opuchowo",
                "addr:housenumber": "15",
                "addr:city:simc": 589932,
                "phone": "+48 618590437",
                "email": "przyjacielelopuchowa@wp.pl",
                "website": "http:\/\/www.przyjacielelopuchowa.pl",
                "ref:regon": "362315690",
                "operator": "Stowarzyszenie Przyjaciele \u0141opuchowa",
                "operator:type": "ngo",
                "amenity": "kindergarten"
            }
        },
        {
            "id": 80717,
            "type": "Feature",
            "geometry": {
                "type": "Point",
                "coordinates": [
                    16.97717,
                    52.62947
                ]
            },
            "properties": {
                "isced:level": "1;2",
                "ref:rspo": 80717,
                "official_name": "Szko\u0142a Podstawowa im. Leona Masiakowskiego w Bia\u0142\u0119\u017cynie",
                "name": "Szko\u0142a Podstawowa",
                "addr:postcode": "62-095",
                "addr:place": "Bia\u0142\u0119\u017cyn",
                "addr:housenumber": "11A",
                "addr:city:simc": 589783,
                "phone": "+48 618122291",
                "email": "spbialezyn@murowana-goslina.pl",
                "website": "http:\/\/www.spbialezyn.szkolnastrona.pl",
                "ref:regon": "001225675",
                "ref:vatin": "PL7772394304",
                "operator": "Gmina Murowana Go\u015blina",
                "operator:type": "government",
                "amenity": "school"
            }
        },
        {
            "id": 80020,
            "type": "Feature",
            "geometry": {
                "type": "Point",
                "coordinates": [
                    17.0325,
                    52.6326899
                ]
            },
            "properties": {
                "isced:level": "1;2",
                "ref:rspo": 80020,
                "official_name": "Szko\u0142a Podstawowa im. Powsta\u0144c\u00f3w Wielkopolskich w D\u0142ugiej Go\u015blinie",
                "name": "Szko\u0142a Podstawowa",
                "addr:postcode": "62-095",
                "addr:place": "D\u0142uga Go\u015blina",
                "addr:housenumber": "22",
                "addr:city:simc": 590059,
                "phone": "+48 618122003",
                "email": "sp_dluga_goslina@op.pl",
                "website": "http:\/\/spdlugagoslina.edupage.org",
                "ref:regon": "001225698",
                "ref:vatin": "PL7772394333",
                "operator": "Gmina Murowana Go\u015blina",
                "operator:type": "government",
                "amenity": "school"
            }
        },
        {
            "id": 82587,
            "type": "Feature",
            "geometry": {
                "type": "Point",
                "coordinates": [
                    17.0325,
                    52.6326599
                ]
            },
            "properties": {
                "ref:rspo": 82587,
                "official_name": "Przedszkole Publiczne Koniki Polne",
                "name": "Przedszkole Publiczne Koniki Polne",
                "addr:postcode": "62-095",
                "addr:place": "D\u0142uga Go\u015blina",
                "addr:housenumber": "22",
                "addr:city:simc": 590059,
                "phone": "+48 669494065",
                "email": "malejestpiekne@onet.pl",
                "ref:regon": "302266230",
                "ref:vatin": "PL7773121407",
                "operator": "Stowarzyszenie \" Ma\u0142e Jest Pi\u0119kne \"",
                "operator:type": "ngo",
                "amenity": "kindergarten"
            }
        }
    ]
}