{
    "type": "FeatureCollection",
    "features": [
        {
            "id": 64825,
            "type": "Feature",
            "geometry": {
                "type": "Point",
                "coordinates": [
                    17.07394,
                    52.3816599
                ]
            },
            "properties": {
                "ref:rspo": 64825,
                "official_name": "Przedszkole Publiczne \"Zaczarowana Podkowa\" w Zalasewie",
                "name": "Przedszkole Publiczne \"Zaczarowana Podkowa\" w Zalasewie",
                "addr:postcode": "62-020",
                "addr:city": "Zalasewo",
                "addr:street": "Spacerowa",
                "addr:housenumber": "4",
                "addr:city:simc": 595683,
                "addr:street:sym_ul": 20641,
                "phone": "+48 618551079",
                "email": "biuro@zaczarowanapodkowa.pl",
                "website": "http:\/\/www.zaczarowanapodkowa.pl",
                "ref:regon": "302258124",
                "ref:vatin": "PL7773250085",
                "operator": "Krzysztof Matuszak",
                "operator:type": "private",
                "amenity": "kindergarten"
            }
        },
        {
            "id": 270154,
            "type": "Feature",
            "geometry": {
                "type": "Point",
                "coordinates": [
                    17.07394,
                    52.3816299
                ]
            },
            "properties": {
                "ref:rspo": 270154,
                "official_name": "Przedszkole Nr 1 \"Malowany Konik\" w Zalasewie",
                "name": "Przedszkole Nr 1 \"Malowany Konik\" w Zalasewie",
                "addr:postcode": "62-020",
                "addr:city": "Zalasewo",
                "addr:street": "Spacerowa",
                "addr:housenumber": "4",
                "addr:city:simc": 595683,
                "addr:street:sym_ul": 20641,
                "email": "biuro@malowany-konik.pl",
                "ref:regon": "382106863",
                "operator": "Krzysztof Matuszak",
                "operator:type": "private",
                "amenity": "kindergarten"
            }
        },
        {
            "id": 275842,
            "type": "Feature",
            "geometry": {
                "type": "Point",
                "coordinates": [
                    17.0740206,
                    52.3834681
                ]
            },
            "properties": {
                "ref:rspo": 275842,
                "official_name": "Niepubliczne Przedszkole Akuku",
                "name": "Niepubliczne Przedszkole Akuku",
                "addr:postcode": "62-020",
                "addr:city": "Zalasewo",
                "addr:street": "K\u00f3rnicka",
                "addr:housenumber": "228",
                "addr:city:simc": 595683,
                "addr:street:sym_ul": 9769,
                "email": "akademiaakuku@gmail.com",
                "website": "http:\/\/www.akademiaakuku.pl",
                "ref:regon": "386942993",
                "operator": "Joanna Wr\u00f3blewska",
                "operator:type": "private",
                "amenity": "kindergarten"
            }
        },
        {
            "id": 270497,
            "type": "Feature",
            "geometry": {
                "type": "Point",
                "coordinates": [
                    17.06032,
                    52.38381
                ]
            },
            "properties": {
                "ref:rspo": 270497,
                "official_name": "Przedszkole \"Kolorowe Kredki\"",
                "name": "Przedszkole \"Kolorowe Kredki\"",
                "addr:postcode": "62-020",
                "addr:city": "Zalasewo",
                "addr:street": "Transportowa",
                "addr:housenumber": "8",
                "addr:city:simc": 595683,
                "addr:street:sym_ul": 22947,
                "email": "kontakt@kolorowekredki.info",
                "website": "http:\/\/www.kolorowekredki.info",
                "ref:regon": "382663724",
                "operator": "\u017b\u0142obek I Przedszkole Kolorowe Kredki Sp\u00f3\u0142ka Z Ograniczon\u0105 Odpowiedzialno\u015bci\u0105",
                "operator:type": "private",
                "amenity": "kindergarten"
            }
        },
        {
            "id": 128991,
            "type": "Feature",
            "geometry": {
                "type": "Point",
                "coordinates": [
                    17.06186,
                    52.38415
                ]
            },
            "properties": {
                "ref:rspo": 128991,
                "official_name": "Niepubliczne Przedszkole \"Ma\u0142y Skaut\" w Zalasewie Z Oddzia\u0142ami Zamiejscowymi w Swarz\u0119dzu",
                "name": "Niepubliczne Przedszkole \"Ma\u0142y Skaut\" w Zalasewie Z Oddzia\u0142ami Zamiejscowymi w Swarz\u0119dzu",
                "addr:postcode": "62-020",
                "addr:city": "Zalasewo",
                "addr:street": "Osiedle Osiedle U\u0142a\u0144skie",
                "addr:housenumber": "26",
                "addr:city:simc": 595683,
                "addr:street:sym_ul": 46049,
                "phone": "+48 662616160",
                "email": "biuro@malyskaut.pl",
                "website": "http:\/\/www.malyskaut.pl",
                "ref:regon": "362442803",
                "ref:vatin": "PL7773239801",
                "operator": "Lupetti Sp\u00f3\u0142ka Z Ograniczon\u0105 Odpowiedzialno\u015bci\u0105",
                "operator:type": "private",
                "amenity": "kindergarten"
            }
        },
        {
            "id": 127608,
            "type": "Feature",
            "geometry": {
                "type": "Point",
                "coordinates": [
                    17.074550628662,
                    52.386291503906
                ]
            },
            "properties": {
                "isced:level": "1;2",
                "ref:rspo": 127608,
                "official_name": "Szko\u0142a Podstawowa Nr 2 w Zalasewie",
                "name": "Szko\u0142a Podstawowa Nr 2 w Zalasewie",
                "addr:postcode": "62-020",
                "addr:city": "Zalasewo",
                "addr:street": "Jana Heweliusza",
                "addr:housenumber": "26",
                "addr:city:simc": 595683,
                "addr:street:sym_ul": 6643,
                "phone": "+48 612263232",
                "email": "sekretariat@spzalasewo.pl",
                "website": "http:\/\/www.spzalasewo.pl",
                "ref:regon": "361764232",
                "operator": "Gmina Swarz\u0119dz",
                "operator:type": "government",
                "amenity": "school"
            }
        },
        {
            "id": 129913,
            "type": "Feature",
            "geometry": {
                "type": "Point",
                "coordinates": [
                    17.074550628662,
                    52.386261503906
                ]
            },
            "properties": {
                "ref:rspo": 129913,
                "official_name": "Przedszkole Niepubliczne \"Za Lasem\"",
                "name": "Przedszkole Niepubliczne \"Za Lasem\"",
                "addr:postcode": "62-020",
                "addr:city": "Zalasewo",
                "addr:street": "Astronomiczna",
                "addr:housenumber": "1",
                "addr:city:simc": 595683,
                "addr:street:sym_ul": 473,
                "phone": "+48 730907788",
                "email": "kontakt@za-lasem.eu",
                "website": "http:\/\/www.za-lasem.eu",
                "ref:regon": "363079983",
                "ref:vatin": "PL7773253706",
                "operator": "\u017b\u0142obek I Przedszkole Za Lasem Sp\u00f3\u0142ka Z Ograniczon\u0105 Odpowiedzialno\u015bci\u0105",
                "operator:type": "private",
                "amenity": "kindergarten"
            }
        },
        {
            "id": 130847,
            "type": "Feature",
            "geometry": {
                "type": "Point",
                "coordinates": [
                    17.07415,
                    52.38647
                ]
            },
            "properties": {
                "ref:rspo": 130847,
                "official_name": "Niepubliczne Przedszkole Angloj\u0119zyczne Us Academy For Kids",
                "name": "Niepubliczne Przedszkole Angloj\u0119zyczne Us Academy For Kids",
                "addr:postcode": "62-020",
                "addr:city": "Zalasewo",
                "addr:street": "Mokra",
                "addr:housenumber": "36",
                "addr:city:simc": 595683,
                "addr:street:sym_ul": 13211,
                "phone": "+48 609730790",
                "email": "usacademy4kids@yahoo.com",
                "website": "http:\/\/www.usacademy4kids.com",
                "ref:regon": "364604925",
                "operator": "Artur Michalak",
                "operator:type": "private",
                "amenity": "kindergarten"
            }
        },
        {
            "id": 273877,
            "type": "Feature",
            "geometry": {
                "type": "Point",
                "coordinates": [
                    17.11698,
                    52.38653
                ]
            },
            "properties": {
                "ref:rspo": 273877,
                "official_name": "Przedszkole \"Misiaki\"",
                "name": "Przedszkole \"Misiaki\"",
                "addr:postcode": "62-020",
                "addr:city": "Rabowice",
                "addr:street": "Bukowa",
                "addr:housenumber": "2",
                "addr:city:simc": 595594,
                "addr:street:sym_ul": 2387,
                "email": "monika.guzik@vp.pl",
                "ref:regon": "384800220",
                "operator": "Monika Guzik",
                "operator:type": "private",
                "amenity": "kindergarten"
            }
        },
        {
            "id": 133217,
            "type": "Feature",
            "geometry": {
                "type": "Point",
                "coordinates": [
                    17.06948,
                    52.39211
                ]
            },
            "properties": {
                "ref:rspo": 133217,
                "official_name": "Niepubliczna Szko\u0142a Muzyczna I St. Zbigniewa Wodeckiego w Zalasewie",
                "name": "Niepubliczna Szko\u0142a Muzyczna I St. Zbigniewa Wodeckiego w Zalasewie",
                "addr:postcode": "62-020",
                "addr:city": "Zalasewo",
                "addr:street": "Planetarna",
                "addr:housenumber": "7",
                "addr:city:simc": 595683,
                "addr:street:sym_ul": 16425,
                "phone": "+48 604519916",
                "email": "ad.doman@wp.pl",
                "ref:regon": "366818955",
                "operator": "Agata Doma\u0144ska",
                "operator:type": "private",
                "amenity": "music_school"
            }
        },
        {
            "id": 262631,
            "type": "Feature",
            "geometry": {
                "type": "Point",
                "coordinates": [
                    17.06948,
                    52.39208
                ]
            },
            "properties": {
                "isced:level": "1;2",
                "ref:rspo": 262631,
                "official_name": "Szko\u0142a Podstawowa Nr 1 im. Miko\u0142aja Kopernika w Zalasewie",
                "name": "Szko\u0142a Podstawowa Nr 1",
                "addr:postcode": "62-020",
                "addr:city": "Zalasewo",
                "addr:street": "Planetarna",
                "addr:housenumber": "7",
                "addr:city:simc": 595683,
                "addr:street:sym_ul": 16425,
                "phone": "+48 618175450",
                "email": "sekretariat@spoko.edu.pl",
                "website": "http:\/\/www.spoko.edu.pl",
                "ref:regon": "368042418",
                "operator": "Gmina Swarz\u0119dz",
                "operator:type": "government",
                "amenity": "school"
            }
        },
        {
            "id": 66375,
            "type": "Feature",
            "geometry": {
                "type": "Point",
                "coordinates": [
                    17.06579,
                    52.3954
                ]
            },
            "properties": {
                "ref:rspo": 66375,
                "official_name": "Prywatne Przedszkole \"Lisek Urwisek\" w Swarz\u0119dzu",
                "name": "Prywatne Przedszkole \"Lisek Urwisek\" w Swarz\u0119dzu",
                "addr:postcode": "62-020",
                "addr:city": "Swarz\u0119dz",
                "addr:street": "Armii Pozna\u0144",
                "addr:housenumber": "62",
                "addr:city:simc": 971502,
                "addr:street:sym_ul": 31886,
                "email": "biuro@lisekurwisek.pl",
                "website": "http:\/\/www.lisekurwisek.pl",
                "ref:regon": "302256177",
                "ref:vatin": "PL6731457705",
                "operator": "Prywatne Przedszkole \"Lisek Urwisek\" Sp\u00f3\u0142ka Z Ograniczon\u0105 Odpowiedzialno\u015bci\u0105",
                "operator:type": "private",
                "amenity": "kindergarten"
            }
        },
        {
            "id": 278777,
            "type": "Feature",
            "geometry": {
                "type": "Point",
                "coordinates": [
                    17.07699,
                    52.39596
                ]
            },
            "properties": {
                "ref:rspo": 278777,
                "official_name": "Przedszkole Nauki I Sztuki 123",
                "name": "Przedszkole Nauki I Sztuki 123",
                "addr:postcode": "62-020",
                "addr:city": "Swarz\u0119dz",
                "addr:street": "K\u00f3rnicka",
                "addr:housenumber": "123",
                "addr:city:simc": 971502,
                "addr:street:sym_ul": 9769,
                "email": "przedszkolenaukiisztuki@interia.pl",
                "website": "http:\/\/www.przedszkoleswarzedz.pl",
                "ref:regon": "520065050",
                "operator": "Ejs Sp\u00f3\u0142ka Z Ograniczon\u0105 Odpowiedzialno\u015bci\u0105",
                "operator:type": "private",
                "amenity": "kindergarten"
            }
        },
        {
            "id": 270788,
            "type": "Feature",
            "geometry": {
                "type": "Point",
                "coordinates": [
                    17.08377,
                    52.39629
                ]
            },
            "properties": {
                "ref:rspo": 270788,
                "official_name": "Wielkopolski Instytut Kszta\u0142cenia Przedmedycznego Paab Niepubliczna Plac\u00f3wka Kszta\u0142cenia Ustawicznego",
                "name": "Wielkopolski Instytut Kszta\u0142cenia Przedmedycznego Paab Niepubliczna Plac\u00f3wka Kszta\u0142cenia Ustawicznego",
                "addr:postcode": "62-020",
                "addr:city": "Swarz\u0119dz",
                "addr:street": "Szmaragdowa",
                "addr:housenumber": "8",
                "addr:city:simc": 971502,
                "addr:street:sym_ul": 22003,
                "phone": "+48 515400001",
                "email": "biuro@paab.pl",
                "website": "http:\/\/www.paab.pl",
                "ref:regon": "382937831",
                "operator": "Pawe\u0142 Pawlik",
                "operator:type": "private",
                "fixme": "w zale\u017cno\u015bci od przedmiotu dzia\u0142alno\u015bci (np. amenity=training + training=*, amenity=dancing_school, amenity=language_school, amenity=music_school)"
            }
        },
        {
            "id": 80963,
            "type": "Feature",
            "geometry": {
                "type": "Point",
                "coordinates": [
                    17.05088,
                    52.3975099
                ]
            },
            "properties": {
                "ref:rspo": 80963,
                "official_name": "Przedszkole Publiczne Nr 6",
                "name": "Przedszkole Publiczne Nr 6",
                "addr:postcode": "62-020",
                "addr:city": "Swarz\u0119dz",
                "addr:street": "Plac Handlowy",
                "addr:housenumber": "11",
                "addr:city:simc": 971502,
                "addr:street:sym_ul": 6509,
                "phone": "+48 517313137",
                "email": "przedszkole@swarzedzkie-pszczolki.pl",
                "website": "http:\/\/www.przedszkole-swarzedz.pl",
                "ref:regon": "302268453",
                "ref:vatin": "PL7773015289",
                "operator": "Remigiusz Stein",
                "operator:type": "private",
                "amenity": "kindergarten"
            }
        },
        {
            "id": 71555,
            "type": "Feature",
            "geometry": {
                "type": "Point",
                "coordinates": [
                    17.06601,
                    52.39819
                ]
            },
            "properties": {
                "ref:rspo": 71555,
                "official_name": "Zesp\u00f3\u0142 Szk\u00f3\u0142 Nr 1 im. Powsta\u0144c\u00f3w Wielkopolskich w Swarz\u0119dzu",
                "name": "Zesp\u00f3\u0142 Szk\u00f3\u0142 Nr 1",
                "addr:postcode": "62-020",
                "addr:city": "Swarz\u0119dz",
                "addr:street": "Osiedle Macieja Miel\u017cy\u0144skiego",
                "addr:housenumber": "5a",
                "addr:city:simc": 971502,
                "addr:street:sym_ul": 29059,
                "phone": "+48 618172281",
                "email": "sekretariat@zs1-swarzedz.pl",
                "website": "http:\/\/zs1-swarzedz.pl",
                "ref:regon": "000688054",
                "ref:vatin": "PL7771757874",
                "operator": "Powiat Pozna\u0144ski",
                "operator:type": "government",
                "landuse": "education",
                "fixme": "amenity=school, amenity=college albo landuse=education w zale\u017cno\u015bci od tego, jakie plac\u00f3wki wchodz\u0105 w sk\u0142ad zespo\u0142u. Sprawd\u017a, kiedy stosowa\u0107 amenity=* a kiedy landuse=education.",
                "note": "Children RSPO: 76278;86773;86776;86779;86781;132918;133275"
            }
        },
        {
            "id": 76278,
            "type": "Feature",
            "geometry": {
                "type": "Point",
                "coordinates": [
                    17.06601,
                    52.39816
                ]
            },
            "properties": {
                "isced:level": "3",
                "ref:rspo": 76278,
                "official_name": "Technikum w Swarz\u0119dzu",
                "name": "Technikum w Swarz\u0119dzu",
                "addr:postcode": "62-020",
                "addr:city": "Swarz\u0119dz",
                "addr:street": "Osiedle Macieja Miel\u017cy\u0144skiego",
                "addr:housenumber": "5a",
                "addr:city:simc": 971502,
                "addr:street:sym_ul": 29059,
                "phone": "+48 618172281",
                "email": "sekretariat@zs1-swarzedz.pl",
                "website": "http:\/\/zs1swarzedz.powiat.poznan.pl",
                "ref:regon": "300036075",
                "operator": "Powiat Pozna\u0144ski",
                "operator:type": "government",
                "amenity": "school",
                "note": "Parent RSPO: 71555"
            }
        },
        {
            "id": 86773,
            "type": "Feature",
            "geometry": {
                "type": "Point",
                "coordinates": [
                    17.06601,
                    52.39813
                ]
            },
            "properties": {
                "isced:level": "3",
                "ref:rspo": 86773,
                "official_name": "Iii Liceum Og\u00f3lnokszta\u0142c\u0105ce w Swarz\u0119dzu",
                "name": "Iii Liceum Og\u00f3lnokszta\u0142c\u0105ce w Swarz\u0119dzu",
                "addr:postcode": "62-020",
                "addr:city": "Swarz\u0119dz",
                "addr:street": "Osiedle Macieja Miel\u017cy\u0144skiego",
                "addr:housenumber": "5a",
                "addr:city:simc": 971502,
                "addr:street:sym_ul": 29059,
                "phone": "+48 618172281",
                "email": "sekretariat@zs1-swarzedz.pl",
                "website": "http:\/\/zs1-swarzedz.pl",
                "ref:regon": "300036046",
                "operator": "Powiat Pozna\u0144ski",
                "operator:type": "government",
                "amenity": "school",
                "note": "Parent RSPO: 71555"
            }
        },
        {
            "id": 86776,
            "type": "Feature",
            "geometry": {
                "type": "Point",
                "coordinates": [
                    17.06601,
                    52.3981
                ]
            },
            "properties": {
                "isced:level": "3",
                "ref:rspo": 86776,
                "official_name": "I Liceum Og\u00f3lnokszta\u0142c\u0105ce dla Doros\u0142ych w Swarz\u0119dzu",
                "name": "I Liceum Og\u00f3lnokszta\u0142c\u0105ce dla Doros\u0142ych w Swarz\u0119dzu",
                "addr:postcode": "62-020",
                "addr:city": "Swarz\u0119dz",
                "addr:street": "Osiedle Macieja Miel\u017cy\u0144skiego",
                "addr:housenumber": "5a",
                "addr:city:simc": 971502,
                "addr:street:sym_ul": 29059,
                "phone": "+48 618172281",
                "email": "sekretariat@zs1-swarzedz.pl",
                "website": "http:\/\/zs1-swarzedz.pl",
                "ref:regon": "300036135",
                "operator": "Powiat Pozna\u0144ski",
                "operator:type": "government",
                "amenity": "school",
                "note": "Parent RSPO: 71555"
            }
        },
        {
            "id": 86779,
            "type": "Feature",
            "geometry": {
                "type": "Point",
                "coordinates": [
                    17.06601,
                    52.39807
                ]
            },
            "properties": {
                "isced:level": "4",
                "ref:rspo": 86779,
                "official_name": "Policealna Szko\u0142a Nr 1 w Swarz\u0119dzu",
                "name": "Policealna Szko\u0142a Nr 1 w Swarz\u0119dzu",
                "addr:postcode": "62-020",
                "addr:city": "Swarz\u0119dz",
                "addr:street": "Osiedle Macieja Miel\u017cy\u0144skiego",
                "addr:housenumber": "5a",
                "addr:city:simc": 971502,
                "addr:street:sym_ul": 29059,
                "phone": "+48 618172281",
                "email": "sekretariat@zs1-swarzedz.pl",
                "website": "http:\/\/zs1-swarzedz.pl",
                "ref:regon": "300823531",
                "operator": "Powiat Pozna\u0144ski",
                "operator:type": "government",
                "amenity": "college",
                "note": "Parent RSPO: 71555"
            }
        },
        {
            "id": 86781,
            "type": "Feature",
            "geometry": {
                "type": "Point",
                "coordinates": [
                    17.06601,
                    52.39804
                ]
            },
            "properties": {
                "isced:level": "3",
                "ref:rspo": 86781,
                "official_name": "Bran\u017cowa Szko\u0142a I Stopnia w Swarz\u0119dzu",
                "name": "Bran\u017cowa Szko\u0142a I Stopnia w Swarz\u0119dzu",
                "addr:postcode": "62-020",
                "addr:city": "Swarz\u0119dz",
                "addr:street": "Osiedle Macieja Miel\u017cy\u0144skiego",
                "addr:housenumber": "5a",
                "addr:city:simc": 971502,
                "addr:street:sym_ul": 29059,
                "phone": "+48 618172281",
                "email": "sekretariat@zs1-swarzedz.pl",
                "website": "http:\/\/zs1-swarzedz.pl",
                "ref:regon": "300036260",
                "operator": "Powiat Pozna\u0144ski",
                "operator:type": "government",
                "amenity": "school",
                "note": "Parent RSPO: 71555"
            }
        },
        {
            "id": 132918,
            "type": "Feature",
            "geometry": {
                "type": "Point",
                "coordinates": [
                    17.06601,
                    52.39801
                ]
            },
            "properties": {
                "ref:rspo": 132918,
                "official_name": "Centrum Kszta\u0142cenia Zawodowego w Swarz\u0119dzu",
                "name": "Centrum Kszta\u0142cenia Zawodowego w Swarz\u0119dzu",
                "addr:postcode": "60-020",
                "addr:city": "Swarz\u0119dz",
                "addr:street": "Osiedle Macieja Miel\u017cy\u0144skiego",
                "addr:housenumber": "5a",
                "addr:city:simc": 971502,
                "addr:street:sym_ul": 29059,
                "phone": "+48 618172281",
                "email": "sekretariat@zs1-swarzedz.pl",
                "website": "http:\/\/zs1-swarzedz.pl",
                "ref:regon": "366324673",
                "operator": "Powiat Pozna\u0144ski",
                "operator:type": "government",
                "fixme": "w zale\u017cno\u015bci od przedmiotu dzia\u0142alno\u015bci (np. amenity=training + training=*, amenity=dancing_school, amenity=language_school, amenity=music_school) albo amenity=school, amenity=college, albo landuse=education w zale\u017cno\u015bci od tego, jakie plac\u00f3wki wchodz\u0105 w sk\u0142ad zespo\u0142u. Sprawd\u017a, kiedy stosowa\u0107 amenity=* a kiedy landuse=education.",
                "note": "Parent RSPO: 71555"
            }
        },
        {
            "id": 133275,
            "type": "Feature",
            "geometry": {
                "type": "Point",
                "coordinates": [
                    17.06601,
                    52.39798
                ]
            },
            "properties": {
                "isced:level": "3",
                "ref:rspo": 133275,
                "official_name": "Bran\u017cowa Szko\u0142a I Stopnia Specjlna w Swarz\u0119dzu",
                "name": "Bran\u017cowa Szko\u0142a I Stopnia Specjlna w Swarz\u0119dzu",
                "addr:postcode": "62-020",
                "addr:city": "Swarz\u0119dz",
                "addr:street": "Osiedle Macieja Miel\u017cy\u0144skiego",
                "addr:housenumber": "5a",
                "addr:city:simc": 971502,
                "addr:street:sym_ul": 29059,
                "phone": "+48 618172281",
                "email": "sekretariat@zs1-swarzedz.pl",
                "website": "http:\/\/zs1-swarzedz.pl",
                "ref:regon": "300036069",
                "operator": "Powiat Pozna\u0144ski",
                "operator:type": "government",
                "amenity": "school",
                "note": "Parent RSPO: 71555"
            }
        },
        {
            "id": 62117,
            "type": "Feature",
            "geometry": {
                "type": "Point",
                "coordinates": [
                    17.06606,
                    52.39825
                ]
            },
            "properties": {
                "ref:rspo": 62117,
                "official_name": "Przedszkole Nr 4 \"Bajkowy \u015awiat\" w Swarz\u0119dzu",
                "name": "Przedszkole Nr 4 \"Bajkowy \u015awiat\" w Swarz\u0119dzu",
                "addr:postcode": "62-020",
                "addr:city": "Swarz\u0119dz",
                "addr:street": "Osiedle Macieja Miel\u017cy\u0144skiego",
                "addr:housenumber": "4a",
                "addr:city:simc": 971502,
                "addr:street:sym_ul": 29059,
                "phone": "+48 618159073",
                "email": "p4swa@interia.pl",
                "website": "http:\/\/www.przedszkole4.pl",
                "ref:regon": "639798724",
                "ref:vatin": "PL7772516285",
                "operator": "Gmina Swarz\u0119dz",
                "operator:type": "government",
                "amenity": "kindergarten"
            }
        },
        {
            "id": 62606,
            "type": "Feature",
            "geometry": {
                "type": "Point",
                "coordinates": [
                    17.06607,
                    52.39833
                ]
            },
            "properties": {
                "isced:level": "1;2",
                "ref:rspo": 62606,
                "official_name": "Szko\u0142a Podstawowa Nr 5 im.prof.adama Wodziczki w Swarz\u0119dzu",
                "name": "Szko\u0142a Podstawowa Nr 5 im.prof.adama Wodziczki w Swarz\u0119dzu",
                "addr:postcode": "62-020",
                "addr:city": "Swarz\u0119dz",
                "addr:street": "Osiedle Macieja Miel\u017cy\u0144skiego",
                "addr:housenumber": "3a",
                "addr:city:simc": 971502,
                "addr:street:sym_ul": 29059,
                "phone": "+48 618175303",
                "email": "sekretariat@sp5szkola.pl",
                "website": "http:\/\/www.sp5szkola.pl",
                "ref:regon": "630151866",
                "ref:vatin": "PL7771804929",
                "operator": "Gmina Swarz\u0119dz",
                "operator:type": "government",
                "amenity": "school"
            }
        },
        {
            "id": 64728,
            "type": "Feature",
            "geometry": {
                "type": "Point",
                "coordinates": [
                    17.07505,
                    52.39903
                ]
            },
            "properties": {
                "ref:rspo": 64728,
                "official_name": "Przedszkole Publiczne \"T\u0119czowy Port\" w Swarz\u0119dzu",
                "name": "Przedszkole Publiczne \"T\u0119czowy Port\" w Swarz\u0119dzu",
                "addr:postcode": "62-020",
                "addr:city": "Swarz\u0119dz",
                "addr:street": "Okr\u0119\u017cna",
                "addr:housenumber": "32",
                "addr:city:simc": 971502,
                "addr:street:sym_ul": 14907,
                "email": "okrezna32@interia.pl",
                "website": "https:\/\/teczowyport.wixsite.com\/teczowyportswarzedz",
                "ref:regon": "302258070",
                "ref:vatin": "PL7773250079",
                "operator": "Krzysztof Matuszak",
                "operator:type": "private",
                "amenity": "kindergarten"
            }
        },
        {
            "id": 67834,
            "type": "Feature",
            "geometry": {
                "type": "Point",
                "coordinates": [
                    17.05246,
                    52.40086
                ]
            },
            "properties": {
                "ref:rspo": 67834,
                "official_name": "Przedszkole Niepubliczne \"Mali Arty\u015bci\" w Swarz\u0119dzu",
                "name": "Przedszkole Niepubliczne \"Mali Arty\u015bci\" w Swarz\u0119dzu",
                "addr:postcode": "62-020",
                "addr:city": "Swarz\u0119dz",
                "addr:street": "Piaskowa",
                "addr:housenumber": "20",
                "addr:city:simc": 971502,
                "addr:street:sym_ul": 16033,
                "phone": "+48 505999985",
                "email": "mali.artysci@op.pl",
                "website": "http:\/\/www.maliartysci.com.pl",
                "ref:regon": "302256190",
                "ref:vatin": "PL7771601215",
                "operator": "Aleksandra Potrzebowska",
                "operator:type": "private",
                "amenity": "kindergarten"
            }
        },
        {
            "id": 65276,
            "type": "Feature",
            "geometry": {
                "type": "Point",
                "coordinates": [
                    17.05199,
                    52.40102
                ]
            },
            "properties": {
                "ref:rspo": 65276,
                "official_name": "Przedszkole Publiczne \"Kompas\" w Swarz\u0119dzu",
                "name": "Przedszkole Publiczne \"Kompas\" w Swarz\u0119dzu",
                "addr:postcode": "62-020",
                "addr:city": "Swarz\u0119dz",
                "addr:street": "Henryka Szumana",
                "addr:housenumber": "37",
                "addr:city:simc": 971502,
                "addr:street:sym_ul": 22146,
                "phone": "+48 504044640",
                "email": "kompas37@wp.pl",
                "website": "http:\/\/www.przedszkolekompas.pl",
                "ref:regon": "302257047",
                "ref:vatin": "PL7772204522",
                "operator": "Wojciech P\u0142onkowski",
                "operator:type": "private",
                "amenity": "kindergarten"
            }
        },
        {
            "id": 65019,
            "type": "Feature",
            "geometry": {
                "type": "Point",
                "coordinates": [
                    17.07799,
                    52.40148
                ]
            },
            "properties": {
                "ref:rspo": 65019,
                "official_name": "Przedszkole Nr 7 \"Jarz\u0119binka\" w Swarz\u0119dzu",
                "name": "Przedszkole Nr 7 \"Jarz\u0119binka\" w Swarz\u0119dzu",
                "addr:postcode": "62-020",
                "addr:city": "Swarz\u0119dz",
                "addr:street": "K\u00f3rnicka",
                "addr:housenumber": "61",
                "addr:city:simc": 971502,
                "addr:street:sym_ul": 9769,
                "phone": "+48 616511868",
                "email": "biuro@przedszkolejarzebinka.pl",
                "website": "http:\/\/www.przedszkolejarzebinka.pl",
                "ref:regon": "302258153",
                "ref:vatin": "PL6731457705",
                "operator": "Publiczne Przedszkole \"Jarz\u0119binka\"  Sp\u00f3\u0142ka Z Ograniczon\u0105 Odpowiedzialno\u015bci\u0105",
                "operator:type": "private",
                "amenity": "kindergarten"
            }
        },
        {
            "id": 83668,
            "type": "Feature",
            "geometry": {
                "type": "Point",
                "coordinates": [
                    17.16102,
                    52.40164
                ]
            },
            "properties": {
                "isced:level": "1;2",
                "ref:rspo": 83668,
                "official_name": "Szko\u0142a Podstawowa im. \u015aw. Jana Paw\u0142a II w Paczkowie",
                "name": "Szko\u0142a Podstawowa",
                "addr:postcode": "62-021",
                "addr:city": "Paczkowo",
                "addr:street": "Szkolna",
                "addr:housenumber": "16",
                "addr:city:simc": 595571,
                "addr:street:sym_ul": 21970,
                "phone": "+48 618157445",
                "email": "szkolapaczkowo@gmail.com",
                "website": "http:\/\/www.szkolapaczkowo.pl",
                "ref:regon": "001225652",
                "ref:vatin": "PL7771804970",
                "operator": "Gmina Swarz\u0119dz",
                "operator:type": "government",
                "amenity": "school"
            }
        },
        {
            "id": 125731,
            "type": "Feature",
            "geometry": {
                "type": "Point",
                "coordinates": [
                    17.06541,
                    52.40175
                ]
            },
            "properties": {
                "ref:rspo": 125731,
                "official_name": "Przedszkole Publiczne \"Chatka Puchatka\" w Swarz\u0119dzu",
                "name": "Przedszkole Publiczne \"Chatka Puchatka\" w Swarz\u0119dzu",
                "addr:postcode": "62-020",
                "addr:city": "Swarz\u0119dz",
                "addr:street": "Osiedle Hipolita Cegielskiego",
                "addr:housenumber": "36",
                "addr:city:simc": 971502,
                "addr:street:sym_ul": 2583,
                "phone": "+48 605845845",
                "email": "info@chatkapuchatka-swarzedz.pl",
                "website": "http:\/\/www.chatkapuchatka-swarzedz.pl",
                "ref:regon": "302850510",
                "ref:vatin": "PL9542292015",
                "operator": "Aida Stec",
                "operator:type": "private",
                "amenity": "kindergarten"
            }
        },
        {
            "id": 270158,
            "type": "Feature",
            "geometry": {
                "type": "Point",
                "coordinates": [
                    17.16291,
                    52.40201
                ]
            },
            "properties": {
                "ref:rspo": 270158,
                "official_name": "Przedszkole \"Jarz\u0119binka Paczkowo\" w Paczkowie",
                "name": "Przedszkole \"Jarz\u0119binka Paczkowo\" w Paczkowie",
                "addr:postcode": "62-021",
                "addr:city": "Paczkowo",
                "addr:street": "Sokolnicka",
                "addr:housenumber": "31",
                "addr:city:simc": 595571,
                "addr:street:sym_ul": 20486,
                "email": "biuro@jarzebinkapaczkowo.pl",
                "website": "https:\/\/jarzebinkapaczkowo.pl\/",
                "ref:regon": "382106917",
                "operator": "Publiczne Przedszkole  \"Jarz\u0119binka Paczkowo\" Sp\u00f3\u0142ka Z Ograniczon\u0105 Odpowiedzialno\u015bci\u0105",
                "operator:type": "private",
                "amenity": "kindergarten"
            }
        },
        {
            "id": 271308,
            "type": "Feature",
            "geometry": {
                "type": "Point",
                "coordinates": [
                    17.07074,
                    52.4047
                ]
            },
            "properties": {
                "ref:rspo": 271308,
                "official_name": "Przedszkole Kolorowe Motylki w Swarz\u0119dzu",
                "name": "Przedszkole Kolorowe Motylki w Swarz\u0119dzu",
                "addr:postcode": "62-020",
                "addr:city": "Swarz\u0119dz",
                "addr:street": "Piotra Skargi",
                "addr:housenumber": "17",
                "addr:city:simc": 971502,
                "addr:street:sym_ul": 20012,
                "phone": "+48 616537864",
                "email": "kontakt@kolorowemotylki.pl",
                "website": "http:\/\/www.kolorowemotylki.pl",
                "ref:regon": "383288317",
                "operator": "Jagoda Wa\u017cna",
                "operator:type": "private",
                "amenity": "kindergarten"
            }
        },
        {
            "id": 71556,
            "type": "Feature",
            "geometry": {
                "type": "Point",
                "coordinates": [
                    17.07458,
                    52.40526
                ]
            },
            "properties": {
                "ref:rspo": 71556,
                "official_name": "Poradnia Psychologiczno-Pedagogiczna w Swarz\u0119dzu",
                "name": "Poradnia Psychologiczno-Pedagogiczna w Swarz\u0119dzu",
                "addr:postcode": "62-020",
                "addr:city": "Swarz\u0119dz",
                "addr:street": "Dworcowa",
                "addr:housenumber": "7",
                "addr:city:simc": 971502,
                "addr:street:sym_ul": 4434,
                "phone": "+48 618174951",
                "email": "sekretariat.swarzedz@pppswarzedz.pl",
                "website": "http:\/\/www.poradnie.powiat.poznan.pl",
                "ref:regon": "639695622",
                "ref:vatin": "PL7772412775",
                "operator": "Powiat Pozna\u0144ski",
                "operator:type": "government",
                "healthcare": "counselling",
                "counselling_type": "education",
                "fixme": "w zale\u017cno\u015bci od przedmiotu dzia\u0142alno\u015bci (np. healthcare=counselling + counselling_type=education albo healthcare=psychotherapist)",
                "note": "Children RSPO: 121381;121382;121383;121384"
            }
        },
        {
            "id": 262633,
            "type": "Feature",
            "geometry": {
                "type": "Point",
                "coordinates": [
                    17.08364,
                    52.4062399
                ]
            },
            "properties": {
                "isced:level": "1;2",
                "ref:rspo": 262633,
                "official_name": "Szko\u0142a Podstawowa Nr 2 im. Kr\u00f3lowej Jadwigi w Swarz\u0119dzu",
                "name": "Szko\u0142a Podstawowa Nr 2",
                "addr:postcode": "62-020",
                "addr:city": "Swarz\u0119dz",
                "addr:street": "Polna",
                "addr:housenumber": "21",
                "addr:city:simc": 971502,
                "addr:street:sym_ul": 17011,
                "phone": "+48 618172574",
                "email": "sekretariatsp2swarzedz@poczta.fm",
                "website": "http:\/\/www.sp2swarzedz.com",
                "ref:regon": "368042513",
                "operator": "Gmina Swarz\u0119dz",
                "operator:type": "government",
                "amenity": "school"
            }
        },
        {
            "id": 80962,
            "type": "Feature",
            "geometry": {
                "type": "Point",
                "coordinates": [
                    17.07785,
                    52.40692
                ]
            },
            "properties": {
                "ref:rspo": 80962,
                "official_name": "Przedszkole Nr 3 \"Pod Kasztanami\" w Swarz\u0119dzu",
                "name": "Przedszkole Nr 3 \"Pod Kasztanami\" w Swarz\u0119dzu",
                "addr:postcode": "62-020",
                "addr:city": "Swarz\u0119dz",
                "addr:street": "K\u00f3rnicka",
                "addr:housenumber": "21",
                "addr:city:simc": 971502,
                "addr:street:sym_ul": 9769,
                "phone": "+48 618172556",
                "email": "przedszkole.3.swarzedz@op.pl",
                "website": "http:\/\/www.pod-kasztanami.swarzedz.pl",
                "ref:regon": "632049362",
                "ref:vatin": "PL7771821715",
                "operator": "Gmina Swarz\u0119dz",
                "operator:type": "government",
                "amenity": "kindergarten"
            }
        },
        {
            "id": 47777,
            "type": "Feature",
            "geometry": {
                "type": "Point",
                "coordinates": [
                    17.07357,
                    52.4105
                ]
            },
            "properties": {
                "ref:rspo": 47777,
                "official_name": "Zesp\u00f3\u0142 Szk\u00f3\u0142 Nr 2 w Swarz\u0119dzu",
                "name": "Zesp\u00f3\u0142 Szk\u00f3\u0142 Nr 2 w Swarz\u0119dzu",
                "addr:postcode": "62-020",
                "addr:city": "Swarz\u0119dz",
                "addr:street": "Podg\u00f3rna",
                "addr:housenumber": "12",
                "addr:city:simc": 971502,
                "addr:street:sym_ul": 16742,
                "phone": "+48 618172026",
                "email": "wojciech.hoffmann@swarzedz.edu.pl",
                "website": "http:\/\/zs2swarzedz.powiat.poznan.pl",
                "ref:regon": "632029610",
                "ref:vatin": "PL7771419232",
                "operator": "Powiat Pozna\u0144ski",
                "operator:type": "government",
                "landuse": "education",
                "fixme": "amenity=school, amenity=college albo landuse=education w zale\u017cno\u015bci od tego, jakie plac\u00f3wki wchodz\u0105 w sk\u0142ad zespo\u0142u. Sprawd\u017a, kiedy stosowa\u0107 amenity=* a kiedy landuse=education.",
                "note": "Children RSPO: 70689;70690"
            }
        },
        {
            "id": 70689,
            "type": "Feature",
            "geometry": {
                "type": "Point",
                "coordinates": [
                    17.07357,
                    52.41047
                ]
            },
            "properties": {
                "isced:level": "3",
                "ref:rspo": 70689,
                "official_name": "Ii Liceum Og\u00f3lnokszta\u0142c\u0105ce im. Tadeusza Staniewskiego w Swarz\u0119dzu",
                "name": "Ii Liceum Og\u00f3lnokszta\u0142c\u0105ce",
                "addr:postcode": "62-020",
                "addr:city": "Swarz\u0119dz",
                "addr:street": "Podg\u00f3rna",
                "addr:housenumber": "12",
                "addr:city:simc": 971502,
                "addr:street:sym_ul": 16742,
                "phone": "+48 618172026",
                "email": "zs2swarzedz@powiat.poznan.pl",
                "website": "http:\/\/zs2swarzedz.powiat.poznan.pl",
                "ref:regon": "634427526",
                "operator": "Powiat Pozna\u0144ski",
                "operator:type": "government",
                "amenity": "school",
                "note": "Parent RSPO: 47777"
            }
        },
        {
            "id": 70690,
            "type": "Feature",
            "geometry": {
                "type": "Point",
                "coordinates": [
                    17.07357,
                    52.41044
                ]
            },
            "properties": {
                "isced:level": "4",
                "ref:rspo": 70690,
                "official_name": "Szko\u0142a Policealna Nr 2 w Swarz\u0119dzu",
                "name": "Szko\u0142a Policealna Nr 2 w Swarz\u0119dzu",
                "addr:postcode": "62-020",
                "addr:city": "Swarz\u0119dz",
                "addr:street": "Podg\u00f3rna",
                "addr:housenumber": "12",
                "addr:city:simc": 971502,
                "addr:street:sym_ul": 16742,
                "phone": "+48 618172026",
                "email": "zs2swarzedz@powiat.poznan.pl",
                "ref:regon": "634427532",
                "operator": "Powiat Pozna\u0144ski",
                "operator:type": "government",
                "amenity": "college",
                "note": "Parent RSPO: 47777"
            }
        },
        {
            "id": 270157,
            "type": "Feature",
            "geometry": {
                "type": "Point",
                "coordinates": [
                    17.07637,
                    52.41093
                ]
            },
            "properties": {
                "ref:rspo": 270157,
                "official_name": "Przedszkole Nr 8 \"Jarz\u0119binka Planty\" w Swarz\u0119dzu",
                "name": "Przedszkole Nr 8 \"Jarz\u0119binka Planty\" w Swarz\u0119dzu",
                "addr:postcode": "62-020",
                "addr:city": "Swarz\u0119dz",
                "addr:street": "Plac Niez\u0142omnych",
                "addr:housenumber": "1A",
                "addr:city:simc": 971502,
                "addr:street:sym_ul": 14249,
                "phone": "+48 616511868",
                "email": "biuro@jarzebinkaplanty.pl",
                "website": "http:\/\/www.jarzebinkaplanty.pl",
                "ref:regon": "382106892",
                "operator": "Publiczne Przedszkole \"Jarz\u0119binka Planty\" Sp\u00f3\u0142ka Z Ograniczon\u0105 Odpowiedzialno\u015bci\u0105",
                "operator:type": "private",
                "amenity": "kindergarten"
            }
        },
        {
            "id": 60883,
            "type": "Feature",
            "geometry": {
                "type": "Point",
                "coordinates": [
                    17.07747,
                    52.41231
                ]
            },
            "properties": {
                "isced:level": "1;2",
                "ref:rspo": 60883,
                "official_name": "Szko\u0142a Podstawowa Nr 1 im.stanis\u0142awa Staszica w Swarz\u0119dzu",
                "name": "Szko\u0142a Podstawowa Nr 1 im.stanis\u0142awa Staszica w Swarz\u0119dzu",
                "addr:postcode": "62-020",
                "addr:city": "Swarz\u0119dz",
                "addr:street": "Zamkowa",
                "addr:housenumber": "20",
                "addr:city:simc": 971502,
                "addr:street:sym_ul": 25547,
                "phone": "+48 618174971",
                "email": "sp_jeden@op.pl",
                "website": "http:\/\/sp1swarzedz.pl\/",
                "ref:regon": "001225592",
                "operator": "Gmina Swarz\u0119dz",
                "operator:type": "government",
                "amenity": "school"
            }
        },
        {
            "id": 269110,
            "type": "Feature",
            "geometry": {
                "type": "Point",
                "coordinates": [
                    17.08303,
                    52.41237
                ]
            },
            "properties": {
                "ref:rspo": 269110,
                "official_name": "Przedszkole \"Na G\u00f3rce\"",
                "name": "Przedszkole \"Na G\u00f3rce\"",
                "addr:postcode": "62-020",
                "addr:city": "Swarz\u0119dz",
                "addr:street": "G\u00f3rk\u00f3w",
                "addr:housenumber": "11",
                "addr:city:simc": 971502,
                "addr:street:sym_ul": 5946,
                "phone": "+48 535235245",
                "email": "kontakt@akademianagorce.pl",
                "website": "http:\/\/www.akademianagorce.pl",
                "ref:regon": "381371741",
                "operator": "Janusz Pr\u0119tkiewicz",
                "operator:type": "private",
                "amenity": "kindergarten"
            }
        },
        {
            "id": 85024,
            "type": "Feature",
            "geometry": {
                "type": "Point",
                "coordinates": [
                    17.0756799,
                    52.41269
                ]
            },
            "properties": {
                "ref:rspo": 85024,
                "official_name": "Przedszkole Niepubliczne P.w. Dzieci\u0105tka Jezus w Swarz\u0119dzu",
                "name": "Przedszkole Niepubliczne P.w. Dzieci\u0105tka Jezus w Swarz\u0119dzu",
                "addr:postcode": "62-020",
                "addr:city": "Swarz\u0119dz",
                "addr:street": "\u015awi\u0119tego Marcina",
                "addr:housenumber": "38",
                "addr:city:simc": 971502,
                "addr:street:sym_ul": 12284,
                "phone": "+48 618974593",
                "email": "przedszkoleswarzedz@caritaspoznan.pl",
                "ref:regon": "302270585",
                "ref:vatin": "PL7773096359",
                "operator": "\"Caritas Pozna\u0144ska - Zak\u0142ad Charytatywno - Opieku\u0144czy\"",
                "operator:type": "cooperative",
                "amenity": "kindergarten"
            }
        },
        {
            "id": 80961,
            "type": "Feature",
            "geometry": {
                "type": "Point",
                "coordinates": [
                    17.07745,
                    52.41374
                ]
            },
            "properties": {
                "ref:rspo": 80961,
                "official_name": "Przedszkole Nr 1 \"\u017bo\u0142\u0119dziowe Skrzaty\" w Swarz\u0119dzu",
                "name": "Przedszkole Nr 1 \"\u017bo\u0142\u0119dziowe Skrzaty\" w Swarz\u0119dzu",
                "addr:postcode": "62-020",
                "addr:city": "Swarz\u0119dz",
                "addr:street": "Zamkowa",
                "addr:housenumber": "21",
                "addr:city:simc": 971502,
                "addr:street:sym_ul": 25547,
                "phone": "+48 618174928",
                "email": "przedszkole1swarzedz@interia.pl",
                "website": "http:\/\/www.przedszkole1swarzedz.pl",
                "ref:regon": "632049451",
                "ref:vatin": "PL7771886287",
                "operator": "Gmina Swarz\u0119dz",
                "operator:type": "government",
                "amenity": "kindergarten"
            }
        },
        {
            "id": 275866,
            "type": "Feature",
            "geometry": {
                "type": "Point",
                "coordinates": [
                    17.07613,
                    52.4151
                ]
            },
            "properties": {
                "ref:rspo": 275866,
                "official_name": "Przedszkole Specjalne Ahoj w Swarz\u0119dzu",
                "name": "Przedszkole Specjalne Ahoj w Swarz\u0119dzu",
                "addr:postcode": "62-020",
                "addr:city": "Swarz\u0119dz",
                "addr:street": "Zamkowa",
                "addr:housenumber": "30A",
                "addr:city:simc": 971502,
                "addr:street:sym_ul": 25547,
                "email": "przedszkole@ahoj.org.pl",
                "website": "http:\/\/www.ahoj.org.pl",
                "ref:regon": "386946583",
                "operator": "Anna Wieczorek-Baranowska",
                "operator:type": "private",
                "amenity": "kindergarten"
            }
        },
        {
            "id": 262627,
            "type": "Feature",
            "geometry": {
                "type": "Point",
                "coordinates": [
                    17.07892,
                    52.4156
                ]
            },
            "properties": {
                "isced:level": "1;2",
                "ref:rspo": 262627,
                "official_name": "Szko\u0142a Podstawowa Nr 3 im. Polskich Noblist\u00f3w w Swarz\u0119dzu",
                "name": "Szko\u0142a Podstawowa Nr 3",
                "addr:postcode": "62-020",
                "addr:city": "Swarz\u0119dz",
                "addr:street": "Osiedle Czwartak\u00f3w",
                "addr:housenumber": "1",
                "addr:city:simc": 971502,
                "addr:street:sym_ul": 3495,
                "phone": "+48 618174950",
                "email": "sekretariat@3swarzedz.pl",
                "website": "http:\/\/www.3swarzedz.pl",
                "ref:regon": "368042329",
                "operator": "Gmina Swarz\u0119dz",
                "operator:type": "government",
                "amenity": "school"
            }
        },
        {
            "id": 115163,
            "type": "Feature",
            "geometry": {
                "type": "Point",
                "coordinates": [
                    17.07892,
                    52.415569999999995
                ]
            },
            "properties": {
                "ref:rspo": 115163,
                "official_name": "Publiczna Biblioteka Pedagogiczna w Poznaniu Filia w Swarz\u0119dzu",
                "name": "Publiczna Biblioteka Pedagogiczna w Poznaniu Filia w Swarz\u0119dzu",
                "addr:postcode": "62-020",
                "addr:city": "Swarz\u0119dz",
                "addr:street": "Osiedle Czwartak\u00f3w",
                "addr:housenumber": "1",
                "addr:city:simc": 971502,
                "addr:street:sym_ul": 3495,
                "phone": "+48 577001347",
                "email": "biblioteka@swarzedz.pbp.poznan.pl",
                "website": "http:\/\/swarzedz.pbp.poznan.pl",
                "ref:regon": "639810550",
                "operator": "Wojew\u00f3dztwo Wielkopolskie",
                "operator:type": "government",
                "amenity": "library",
                "note": "Parent RSPO: 30977"
            }
        },
        {
            "id": 61857,
            "type": "Feature",
            "geometry": {
                "type": "Point",
                "coordinates": [
                    17.0805599,
                    52.4157
                ]
            },
            "properties": {
                "ref:rspo": 61857,
                "official_name": "Przedszkole Nr 2 \"Mi\u015b Uszatek\" w Swarz\u0119dzu",
                "name": "Przedszkole Nr 2 \"Mi\u015b Uszatek\" w Swarz\u0119dzu",
                "addr:postcode": "62-020",
                "addr:city": "Swarz\u0119dz",
                "addr:street": "Osiedle Czwartak\u00f3w",
                "addr:housenumber": "8",
                "addr:city:simc": 971502,
                "addr:street:sym_ul": 3495,
                "phone": "+48 618174233",
                "email": "przedszkole2swarzedz@onet.pl",
                "website": "http:\/\/www.misuszatek.swarzedz.pl",
                "ref:regon": "632049400",
                "ref:vatin": "PL7771790920",
                "operator": "Gmina Swarz\u0119dz",
                "operator:type": "government",
                "amenity": "kindergarten"
            }
        },
        {
            "id": 62392,
            "type": "Feature",
            "geometry": {
                "type": "Point",
                "coordinates": [
                    17.07944,
                    52.41878
                ]
            },
            "properties": {
                "ref:rspo": 62392,
                "official_name": "Przedszkole Nr 5 \"Zielona P\u00f3\u0142nutka\" w Swarz\u0119dzu",
                "name": "Przedszkole Nr 5 \"Zielona P\u00f3\u0142nutka\" w Swarz\u0119dzu",
                "addr:postcode": "62-020",
                "addr:city": "Swarz\u0119dz",
                "addr:street": "Osiedle Ko\u015bciuszkowc\u00f3w",
                "addr:housenumber": "2",
                "addr:city:simc": 971502,
                "addr:street:sym_ul": 9585,
                "phone": "+48 618186355",
                "email": "zielonapolnutka@op.pl",
                "website": "http:\/\/www.zielonapolnutka.pl",
                "ref:regon": "632049385",
                "ref:vatin": "PL7771898238",
                "operator": "Gmina Swarz\u0119dz",
                "operator:type": "government",
                "amenity": "kindergarten"
            }
        },
        {
            "id": 278328,
            "type": "Feature",
            "geometry": {
                "type": "Point",
                "coordinates": [
                    17.08466,
                    52.41927
                ]
            },
            "properties": {
                "ref:rspo": 278328,
                "official_name": "Przedszkole Niepubliczne \"Magiczne Elfy\" Akademia Kreatywnego Przedszkolaka",
                "name": "Przedszkole Niepubliczne \"Magiczne Elfy\" Akademia Kreatywnego Przedszkolaka",
                "addr:postcode": "62-020",
                "addr:city": "Swarz\u0119dz",
                "addr:street": "Augusta Cieszkowskiego",
                "addr:housenumber": "92",
                "addr:city:simc": 971502,
                "addr:street:sym_ul": 3055,
                "email": "przedszkole@magiczne-elfy.pl",
                "website": "http:\/\/www.magiczne-elfy.pl",
                "ref:regon": "389863194",
                "operator": "Anna Sobaszkiewicz-Lesi\u0144ska",
                "operator:type": "private",
                "amenity": "kindergarten"
            }
        },
        {
            "id": 127637,
            "type": "Feature",
            "geometry": {
                "type": "Point",
                "coordinates": [
                    17.085,
                    52.42039
                ]
            },
            "properties": {
                "ref:rspo": 127637,
                "official_name": "Niepubliczne Specjalne Przedszkole Familia",
                "name": "Niepubliczne Specjalne Przedszkole Familia",
                "addr:postcode": "62-020",
                "addr:city": "Swarz\u0119dz",
                "addr:street": "Juliusza S\u0142owackiego",
                "addr:housenumber": "41",
                "addr:city:simc": 971502,
                "addr:street:sym_ul": 20291,
                "phone": "+48 604061026",
                "email": "drbeataurbaniak@gmail.com",
                "ref:regon": "361786305",
                "operator": "Beata Urbaniak",
                "operator:type": "private",
                "amenity": "kindergarten"
            }
        },
        {
            "id": 70355,
            "type": "Feature",
            "geometry": {
                "type": "Point",
                "coordinates": [
                    17.08116,
                    52.42085
                ]
            },
            "properties": {
                "ref:rspo": 70355,
                "official_name": "\"Ekos\" Centrum Doskonalenia Nauczycieli",
                "name": "\"Ekos\" Centrum Doskonalenia Nauczycieli",
                "addr:postcode": "62-020",
                "addr:city": "Swarz\u0119dz",
                "addr:street": "Stanis\u0142awa Kwa\u015bniewskiego",
                "addr:housenumber": "2",
                "addr:city:simc": 971502,
                "addr:street:sym_ul": 28098,
                "phone": "+48 618173849",
                "ref:regon": "302256355",
                "ref:vatin": "PL7820010188",
                "operator": "Dane Do Uzupe\u0142nienia",
                "operator:type": "private",
                "amenity": "training"
            }
        },
        {
            "id": 71548,
            "type": "Feature",
            "geometry": {
                "type": "Point",
                "coordinates": [
                    17.08116,
                    52.42082
                ]
            },
            "properties": {
                "isced:level": "3",
                "ref:rspo": 71548,
                "official_name": "I Liceum Og\u00f3lnokszta\u0142c\u0105ce Z Oddzia\u0142ami Dwuj\u0119zycznymi Fundacji Ekos w Swarz\u0119dzu",
                "name": "I Liceum Og\u00f3lnokszta\u0142c\u0105ce Z Oddzia\u0142ami Dwuj\u0119zycznymi Fundacji Ekos w Swarz\u0119dzu",
                "addr:postcode": "62-020",
                "addr:city": "Swarz\u0119dz",
                "addr:street": "Stanis\u0142awa Kwa\u015bniewskiego",
                "addr:housenumber": "2",
                "addr:city:simc": 971502,
                "addr:street:sym_ul": 28098,
                "phone": "+48 618173849",
                "email": "liceum@ekos.edu.pl",
                "website": "http:\/\/www.ekos.edu.pl",
                "ref:regon": "302258733",
                "operator": "Fundacja Edukacji Spo\u0142ecznej Ekos",
                "operator:type": "ngo",
                "amenity": "school"
            }
        },
        {
            "id": 263451,
            "type": "Feature",
            "geometry": {
                "type": "Point",
                "coordinates": [
                    17.08116,
                    52.420790000000004
                ]
            },
            "properties": {
                "isced:level": "1;2",
                "ref:rspo": 263451,
                "official_name": "Szko\u0142a Podstawowa Z Oddzia\u0142ami Dwuj\u0119zycznymi Fundacji Ekos w Swarz\u0119dzu",
                "name": "Szko\u0142a Podstawowa Z Oddzia\u0142ami Dwuj\u0119zycznymi Fundacji Ekos w Swarz\u0119dzu",
                "addr:postcode": "62-020",
                "addr:city": "Swarz\u0119dz",
                "addr:street": "Stanis\u0142awa Kwa\u015bniewskiego",
                "addr:housenumber": "2",
                "addr:city:simc": 971502,
                "addr:street:sym_ul": 28098,
                "phone": "+48 618173849",
                "email": "sp@ekos.edu.pl",
                "website": "http:\/\/www.ekos.edu.pl",
                "ref:regon": "368191390",
                "operator": "Fundacja Edukacji Spo\u0142ecznej Ekos",
                "operator:type": "ngo",
                "amenity": "school"
            }
        },
        {
            "id": 278669,
            "type": "Feature",
            "geometry": {
                "type": "Point",
                "coordinates": [
                    17.08468,
                    52.42265
                ]
            },
            "properties": {
                "ref:rspo": 278669,
                "official_name": "O\u015brodek Rehabilitacyjno -Edukacyjno -Wychowawczy",
                "name": "O\u015brodek Rehabilitacyjno -Edukacyjno -Wychowawczy",
                "addr:postcode": "62-020",
                "addr:city": "Swarz\u0119dz",
                "addr:street": "Juliusza S\u0142owackiego",
                "addr:housenumber": "67",
                "addr:city:simc": 971502,
                "addr:street:sym_ul": 20291,
                "email": "a.skraburska@fundacjalinka.pl",
                "website": "http:\/\/www.poczatekswiata.org",
                "ref:regon": "520026296",
                "operator": "Fundacja Linka",
                "operator:type": "ngo",
                "amenity": "school"
            }
        },
        {
            "id": 44642,
            "type": "Feature",
            "geometry": {
                "type": "Point",
                "coordinates": [
                    17.08034,
                    52.4227599
                ]
            },
            "properties": {
                "ref:rspo": 44642,
                "official_name": "Prywatna Szko\u0142a Muzyczna I St. w Swarz\u0119dzu",
                "name": "Prywatna Szko\u0142a Muzyczna I St. w Swarz\u0119dzu",
                "addr:postcode": "62-020",
                "addr:city": "Swarz\u0119dz",
                "addr:street": "Osiedle Ko\u015bciuszkowc\u00f3w",
                "addr:housenumber": "4",
                "addr:city:simc": 971502,
                "addr:street:sym_ul": 9585,
                "phone": "+48 618173511",
                "ref:regon": "302256243",
                "operator": "Julia Bie\u0144kowska",
                "operator:type": "private",
                "amenity": "music_school"
            }
        },
        {
            "id": 83665,
            "type": "Feature",
            "geometry": {
                "type": "Point",
                "coordinates": [
                    17.08034,
                    52.4227299
                ]
            },
            "properties": {
                "isced:level": "1;2",
                "ref:rspo": 83665,
                "official_name": "Szko\u0142a Podstawowa Nr 4 im. Jana Brzechwy w Swarz\u0119dzu",
                "name": "Szko\u0142a Podstawowa Nr 4",
                "addr:postcode": "62-020",
                "addr:city": "Swarz\u0119dz",
                "addr:street": "Osiedle Ko\u015bciuszkowc\u00f3w",
                "addr:housenumber": "4",
                "addr:city:simc": 971502,
                "addr:street:sym_ul": 9585,
                "phone": "+48 618174326",
                "email": "sekretariat@czworka.edu.pl",
                "website": "http:\/\/www.czworka.edu.pl",
                "ref:regon": "001392090",
                "ref:vatin": "PL7772274830",
                "operator": "Gmina Swarz\u0119dz",
                "operator:type": "government",
                "amenity": "school"
            }
        },
        {
            "id": 274476,
            "type": "Feature",
            "geometry": {
                "type": "Point",
                "coordinates": [
                    17.10053,
                    52.42326
                ]
            },
            "properties": {
                "ref:rspo": 274476,
                "official_name": "Przedszkole Nr 1 w Gortatowie",
                "name": "Przedszkole Nr 1 w Gortatowie",
                "addr:postcode": "62-020",
                "addr:city": "Gortatowo",
                "addr:street": "Swarz\u0119dzka",
                "addr:housenumber": "6",
                "addr:city:simc": 595453,
                "addr:street:sym_ul": 21621,
                "email": "przedszkole1.gortatowo@gmail.com",
                "ref:regon": "385831470",
                "operator": "Justyna Matuszak",
                "operator:type": "private",
                "amenity": "kindergarten"
            }
        },
        {
            "id": 80966,
            "type": "Feature",
            "geometry": {
                "type": "Point",
                "coordinates": [
                    17.102398,
                    52.4249654
                ]
            },
            "properties": {
                "ref:rspo": 80966,
                "official_name": "Przedszkole Publiczne \"Weso\u0142a Kraina\" w Gortatowie",
                "name": "Przedszkole Publiczne \"Weso\u0142a Kraina\" w Gortatowie",
                "addr:postcode": "62-020",
                "addr:city": "Gortatowo",
                "addr:street": "Swarz\u0119dzka",
                "addr:housenumber": "4",
                "addr:city:simc": 595453,
                "addr:street:sym_ul": 21621,
                "phone": "+48 618174509",
                "email": "wkraina.gortatowo@gmail.com",
                "website": "http:\/\/www.wesolakraina.com",
                "ref:regon": "302268499",
                "ref:vatin": "PL7771770277",
                "operator": "Justyna Matuszak",
                "operator:type": "private",
                "amenity": "kindergarten"
            }
        },
        {
            "id": 126080,
            "type": "Feature",
            "geometry": {
                "type": "Point",
                "coordinates": [
                    17.07477,
                    52.42939
                ]
            },
            "properties": {
                "ref:rspo": 126080,
                "official_name": "Niepubliczne Przedszkole \"Tygryski\"",
                "name": "Niepubliczne Przedszkole \"Tygryski\"",
                "addr:postcode": "62-006",
                "addr:city": "Gruszczyn",
                "addr:street": "Swarz\u0119dzka",
                "addr:housenumber": "33-35",
                "addr:city:simc": 595476,
                "addr:street:sym_ul": 21621,
                "phone": "+48 601200812",
                "email": "zapisy@zlobektygryski.pl",
                "website": "http:\/\/www.zlobektygryski.pl",
                "ref:regon": "360145751",
                "ref:vatin": "PL7792316862",
                "operator": "Magda Koszarska",
                "operator:type": "private",
                "amenity": "kindergarten"
            }
        },
        {
            "id": 264823,
            "type": "Feature",
            "geometry": {
                "type": "Point",
                "coordinates": [
                    17.07332,
                    52.43407
                ]
            },
            "properties": {
                "ref:rspo": 264823,
                "official_name": "Niepubliczne Przedszkole S\u0142oniki",
                "name": "Niepubliczne Przedszkole S\u0142oniki",
                "addr:postcode": "62-006",
                "addr:city": "Gruszczyn",
                "addr:street": "Swarz\u0119dzka",
                "addr:housenumber": "59",
                "addr:city:simc": 595476,
                "addr:street:sym_ul": 21621,
                "email": "info@zlobeksloniki.pl",
                "website": "http:\/\/www.zlobeksloniki.pl",
                "ref:regon": "368480532",
                "operator": "Magda Koszarska",
                "operator:type": "private",
                "amenity": "kindergarten"
            }
        },
        {
            "id": 81079,
            "type": "Feature",
            "geometry": {
                "type": "Point",
                "coordinates": [
                    17.08031,
                    52.44789
                ]
            },
            "properties": {
                "ref:rspo": 81079,
                "official_name": "Szkolne Schronisko M\u0142odzie\u017cowe \"Sarenka\" w Kobylnicy",
                "name": "Szkolne Schronisko M\u0142odzie\u017cowe \"Sarenka\" w Kobylnicy",
                "addr:postcode": "62-006",
                "addr:city": "Kobylnica",
                "addr:street": "Pozna\u0144ska",
                "addr:housenumber": "50",
                "addr:city:simc": 595536,
                "addr:street:sym_ul": 17394,
                "phone": "+48 618150002",
                "email": "info@ssmkobylnica.pl",
                "website": "http:\/\/www.ssmkobylnica.pl",
                "ref:regon": "000940625",
                "ref:vatin": "PL7772451054",
                "operator": "Gmina Swarz\u0119dz",
                "operator:type": "government",
                "tourism": "hostel"
            }
        },
        {
            "id": 83667,
            "type": "Feature",
            "geometry": {
                "type": "Point",
                "coordinates": [
                    17.08031,
                    52.44786
                ]
            },
            "properties": {
                "isced:level": "1;2",
                "ref:rspo": 83667,
                "official_name": "Szko\u0142a Podstawowa im.kawaler\u00f3w Orderu U\u015bmiechu w Kobylnicy",
                "name": "Szko\u0142a Podstawowa im.kawaler\u00f3w Orderu U\u015bmiechu w Kobylnicy",
                "addr:postcode": "62-006",
                "addr:city": "Kobylnica",
                "addr:street": "Pozna\u0144ska",
                "addr:housenumber": "50",
                "addr:city:simc": 595536,
                "addr:street:sym_ul": 17394,
                "phone": "+48 618150103",
                "email": "spkobylnica@poczta.fm",
                "website": "http:\/\/www.spkobylnica.szkolnastrona.pl",
                "ref:regon": "001225623",
                "ref:vatin": "PL7771805001",
                "operator": "Gmina Swarz\u0119dz",
                "operator:type": "government",
                "amenity": "school"
            }
        },
        {
            "id": 80965,
            "type": "Feature",
            "geometry": {
                "type": "Point",
                "coordinates": [
                    17.0910699,
                    52.45057
                ]
            },
            "properties": {
                "ref:rspo": 80965,
                "official_name": "Przedszkole w Kobylnicy",
                "name": "Przedszkole w Kobylnicy",
                "addr:postcode": "62-006",
                "addr:city": "Kobylnica",
                "addr:street": "Pozna\u0144ska",
                "addr:housenumber": "55",
                "addr:city:simc": 595536,
                "addr:street:sym_ul": 17394,
                "phone": "+48 618150141",
                "email": "koszalek55@wp.pl",
                "website": "http:\/\/www.koszalek55.pl",
                "ref:regon": "632049422",
                "ref:vatin": "PL7772149527",
                "operator": "Gmina Swarz\u0119dz",
                "operator:type": "government",
                "amenity": "kindergarten"
            }
        },
        {
            "id": 85154,
            "type": "Feature",
            "geometry": {
                "type": "Point",
                "coordinates": [
                    17.09402,
                    52.48032
                ]
            },
            "properties": {
                "isced:level": "1;2",
                "ref:rspo": 85154,
                "official_name": "Szko\u0142a Podstawowa w Wierzonce",
                "name": "Szko\u0142a Podstawowa w Wierzonce",
                "addr:postcode": "62-006",
                "addr:city": "Wierzonka",
                "addr:street": "Kar\u0142owicka",
                "addr:housenumber": "3",
                "addr:city:simc": 595677,
                "addr:street:sym_ul": 8055,
                "phone": "+48 618150113",
                "email": "szkola.wierzonka@gmail.com",
                "website": "http:\/\/www.spwierzonka.pl",
                "ref:regon": "001225646",
                "ref:vatin": "PL7771804958",
                "operator": "Gmina Swarz\u0119dz",
                "operator:type": "government",
                "amenity": "school"
            }
        }
    ]
}