{
    "type": "FeatureCollection",
    "features": [
        {
            "id": 276132,
            "type": "Feature",
            "geometry": {
                "type": "Point",
                "coordinates": [
                    17.05578,
                    52.18658
                ]
            },
            "properties": {
                "ref:rspo": 276132,
                "official_name": "Niepubliczne Przedszkole Czarodziejski Zamek",
                "name": "Niepubliczne Przedszkole Czarodziejski Zamek",
                "addr:postcode": "62-035",
                "addr:city": "Czmo\u0144",
                "addr:street": "\u0141agodna",
                "addr:housenumber": "22\/24",
                "addr:city:simc": 586419,
                "addr:street:sym_ul": 11501,
                "email": "skorzewo@przedszkole-zamek.pl",
                "ref:regon": "387000610",
                "operator": "\"Smartplanet\" Sp\u00f3\u0142ka Z Ograniczon\u0105 Odpowiedzialno\u015bci\u0105",
                "operator:type": "private",
                "amenity": "kindergarten"
            }
        },
        {
            "id": 268357,
            "type": "Feature",
            "geometry": {
                "type": "Point",
                "coordinates": [
                    17.100950241089,
                    52.210781097412
                ]
            },
            "properties": {
                "ref:rspo": 268357,
                "official_name": "Przedszkole \"Owocowy Zau\u0142ek\" w B\u0142a\u017cejewie",
                "name": "Przedszkole \"Owocowy Zau\u0142ek\" w B\u0142a\u017cejewie",
                "addr:postcode": "62-035",
                "addr:city": "B\u0142a\u017cejewo",
                "addr:street": "Osiedle Gruszkowe",
                "addr:housenumber": "1",
                "addr:city:simc": 586359,
                "addr:street:sym_ul": 49140,
                "email": "owocowyzaulek@wp.pl",
                "website": "http:\/\/www.owocowyzaulek.pl",
                "ref:regon": "381111477",
                "operator": "Remigiusz Stein",
                "operator:type": "private",
                "amenity": "kindergarten"
            }
        },
        {
            "id": 70070,
            "type": "Feature",
            "geometry": {
                "type": "Point",
                "coordinates": [
                    17.02001,
                    52.21444
                ]
            },
            "properties": {
                "isced:level": "1;2",
                "ref:rspo": 70070,
                "official_name": "Szko\u0142a Podstawowa im. Jana W\u00f3jkiewicza w Radzewie",
                "name": "Szko\u0142a Podstawowa",
                "addr:postcode": "62-035",
                "addr:city": "Radzewo",
                "addr:street": "Dworzyskowa",
                "addr:housenumber": "3",
                "addr:city:simc": 586649,
                "addr:street:sym_ul": 44392,
                "phone": "+48 618170310",
                "email": "sp_radzewo@op.pl",
                "website": "http:\/\/www.szkolaradzewo.pl",
                "ref:regon": "001226479",
                "ref:vatin": "PL7772553257",
                "operator": "Miasto I Gmina K\u00f3rnik",
                "operator:type": "government",
                "amenity": "school"
            }
        },
        {
            "id": 271520,
            "type": "Feature",
            "geometry": {
                "type": "Point",
                "coordinates": [
                    17.08901,
                    52.22507
                ]
            },
            "properties": {
                "ref:rspo": 271520,
                "official_name": "Zaczarowana Kraina",
                "name": "Zaczarowana Kraina",
                "addr:postcode": "62-035",
                "addr:city": "K\u00f3rnik",
                "addr:street": "Jakuba Krauthofera",
                "addr:housenumber": "9A",
                "addr:city:simc": 970922,
                "addr:street:sym_ul": 9881,
                "email": "biuro@zaczarowanakraina.pl",
                "website": "http:\/\/zaczarowanakraina.pl",
                "ref:regon": "383378032",
                "operator": "Karolina Chadzypanagiotis - Jurkiewicz",
                "operator:type": "private",
                "amenity": "kindergarten"
            }
        },
        {
            "id": 70077,
            "type": "Feature",
            "geometry": {
                "type": "Point",
                "coordinates": [
                    17.09527,
                    52.2325
                ]
            },
            "properties": {
                "isced:level": "1;2",
                "ref:rspo": 70077,
                "official_name": "Szko\u0142a Podstawowa nr 2 im. Teofili z Dzia\u0142y\u0144skich Szo\u0142drskiej-Potulickiej w K\u00f3rniku",
                "name": "Szko\u0142a Podstawowa nr 2",
                "addr:postcode": "62-035",
                "addr:city": "K\u00f3rnik",
                "addr:street": "Armii Krajowej",
                "addr:housenumber": "11",
                "addr:city:simc": 970922,
                "addr:street:sym_ul": 432,
                "phone": "+48 618170470",
                "email": "sekretariat@sp2kornik.pl",
                "website": "http:\/\/www.sp2k\u00f3rnik.eu",
                "ref:regon": "001226440",
                "ref:vatin": "PL7772548368",
                "operator": "Miasto I Gmina K\u00f3rnik",
                "operator:type": "government",
                "amenity": "school"
            }
        },
        {
            "id": 105576,
            "type": "Feature",
            "geometry": {
                "type": "Point",
                "coordinates": [
                    17.09527,
                    52.23247
                ]
            },
            "properties": {
                "ref:rspo": 105576,
                "official_name": "Sezonowe Schronisko M\u0142odzie\u017cowe Przy Szkole Podstawowej nr 2 im. Teofili z Dzia\u0142y\u0144skich Szo\u0142drskiej-Potulickiej",
                "name": "Sezonowe Schronisko M\u0142odzie\u017cowe Przy Szkole Podstawowej nr 2",
                "addr:postcode": "62-035",
                "addr:city": "K\u00f3rnik",
                "addr:street": "Armii Krajowej",
                "addr:housenumber": "11",
                "addr:city:simc": 970922,
                "addr:street:sym_ul": 432,
                "phone": "+48 618170470",
                "email": "sekretariat@sp2kornik.pl",
                "ref:regon": "302307740",
                "operator": "Miasto I Gmina K\u00f3rnik",
                "operator:type": "government",
                "tourism": "hostel"
            }
        },
        {
            "id": 70076,
            "type": "Feature",
            "geometry": {
                "type": "Point",
                "coordinates": [
                    17.09296,
                    52.23281
                ]
            },
            "properties": {
                "ref:rspo": 70076,
                "official_name": "Przedszkole nr 2 \"Cztery Pory Roku\"",
                "name": "Przedszkole nr 2 \"Cztery Pory Roku\"",
                "addr:postcode": "62-035",
                "addr:city": "K\u00f3rnik",
                "addr:street": "Jeziorna",
                "addr:housenumber": "16",
                "addr:city:simc": 970922,
                "addr:street:sym_ul": 7535,
                "phone": "+48 618170168",
                "email": "poryroku@p2kornik.pl",
                "website": "http:\/\/www.przedszkole.mawe.pl",
                "ref:regon": "301643104",
                "ref:vatin": "PL7773195794",
                "operator": "Miasto I Gmina K\u00f3rnik",
                "operator:type": "government",
                "amenity": "kindergarten"
            }
        },
        {
            "id": 262897,
            "type": "Feature",
            "geometry": {
                "type": "Point",
                "coordinates": [
                    17.09186,
                    52.23359
                ]
            },
            "properties": {
                "ref:rspo": 262897,
                "official_name": "Przedszkole Kolumb Kraina Ma\u0142ego Odkrywcy",
                "name": "Przedszkole Kolumb Kraina Ma\u0142ego Odkrywcy",
                "addr:postcode": "62-035",
                "addr:city": "K\u00f3rnik",
                "addr:street": "Jeziorna",
                "addr:housenumber": "26A",
                "addr:city:simc": 970922,
                "addr:street:sym_ul": 7535,
                "email": "kolumbkraina@gmail.com",
                "website": "http:\/\/www.kolumb.com.pl",
                "ref:regon": "368067051",
                "operator": "Joanna Grobelna",
                "operator:type": "private",
                "amenity": "kindergarten"
            }
        },
        {
            "id": 263318,
            "type": "Feature",
            "geometry": {
                "type": "Point",
                "coordinates": [
                    17.10022,
                    52.23913
                ]
            },
            "properties": {
                "ref:rspo": 263318,
                "official_name": "Przedszkole Niepubliczne \"Truskawkowa Polanka\"",
                "name": "Przedszkole Niepubliczne \"Truskawkowa Polanka\"",
                "addr:postcode": "62-035",
                "addr:city": "K\u00f3rnik",
                "addr:street": "Aleja Flensa",
                "addr:housenumber": "24a",
                "addr:door": "7",
                "addr:city:simc": 970922,
                "addr:street:sym_ul": 48417,
                "email": "sekretariat.kornik@truskawkowapolanka.pl",
                "website": "http:\/\/www.truskawkowapolanka.pl",
                "ref:regon": "368181781",
                "operator": "Kreatywna Edukacja Sp\u00f3\u0142ka Z Ograniczon\u0105 Odpowiedzialno\u015bci\u0105",
                "operator:type": "private",
                "amenity": "kindergarten"
            }
        },
        {
            "id": 277993,
            "type": "Feature",
            "geometry": {
                "type": "Point",
                "coordinates": [
                    17.03787,
                    52.24126
                ]
            },
            "properties": {
                "ref:rspo": 277993,
                "official_name": "Przedszkole w Czo\u0142owie",
                "name": "Przedszkole w Czo\u0142owie",
                "addr:postcode": "62-035",
                "addr:city": "Czo\u0142owo",
                "addr:street": "Czo\u0142owska",
                "addr:housenumber": "13",
                "addr:city:simc": 586431,
                "addr:street:sym_ul": 34120,
                "email": "biuro@rumiane-jabluszko.pl",
                "website": "http:\/\/www.rumiane-jabluszko.pl",
                "ref:regon": "389733540",
                "operator": "Remigiusz Stein",
                "operator:type": "private",
                "amenity": "kindergarten"
            }
        },
        {
            "id": 273857,
            "type": "Feature",
            "geometry": {
                "type": "Point",
                "coordinates": [
                    17.09152,
                    52.24848
                ]
            },
            "properties": {
                "ref:rspo": 273857,
                "official_name": "Przedszkole Pozytywka",
                "name": "Przedszkole Pozytywka",
                "addr:postcode": "62-035",
                "addr:city": "K\u00f3rnik",
                "addr:street": "20 Pa\u017adziernika",
                "addr:housenumber": "54",
                "addr:city:simc": 970922,
                "addr:street:sym_ul": 15892,
                "email": "biuro@przedszkole-pozytywka.pl",
                "website": "http:\/\/www.przedszkole-pozytywka.pl",
                "ref:regon": "384760785",
                "operator": "Marzena Andrukonis",
                "operator:type": "private",
                "amenity": "kindergarten"
            }
        },
        {
            "id": 70075,
            "type": "Feature",
            "geometry": {
                "type": "Point",
                "coordinates": [
                    17.09585,
                    52.24883
                ]
            },
            "properties": {
                "ref:rspo": 70075,
                "official_name": "Przedszkole nr 1 im. Misia Uszatka",
                "name": "Przedszkole nr 1",
                "addr:postcode": "62-035",
                "addr:city": "K\u00f3rnik",
                "addr:street": "Profesora Zbigniewa Steckiego",
                "addr:housenumber": "11",
                "addr:city:simc": 970922,
                "addr:street:sym_ul": 34123,
                "phone": "+48 618170248",
                "email": "misuszatek@mawe.pl",
                "website": "http:\/\/www.p1kornik.pl",
                "ref:regon": "301638600",
                "ref:vatin": "PL7773195802",
                "operator": "Miasto I Gmina K\u00f3rnik",
                "operator:type": "government",
                "amenity": "kindergarten"
            }
        },
        {
            "id": 80841,
            "type": "Feature",
            "geometry": {
                "type": "Point",
                "coordinates": [
                    17.0998899,
                    52.2497
                ]
            },
            "properties": {
                "ref:rspo": 80841,
                "official_name": "Przedszkole \"Ba\u015bniowa Le\u015bnicz\u00f3wka\"",
                "name": "Przedszkole \"Ba\u015bniowa Le\u015bnicz\u00f3wka\"",
                "addr:postcode": "62-035",
                "addr:city": "K\u00f3rnik",
                "addr:street": "M\u0142y\u0144ska",
                "addr:housenumber": "39",
                "addr:city:simc": 970922,
                "addr:street:sym_ul": 13132,
                "email": "basniowa.lesniczowka@gmail.com",
                "website": "http:\/\/www.basniowalesniczowka.pl",
                "ref:regon": "302268387",
                "operator": "Marta Ma\u0142ecka",
                "operator:type": "private",
                "amenity": "kindergarten"
            }
        },
        {
            "id": 70079,
            "type": "Feature",
            "geometry": {
                "type": "Point",
                "coordinates": [
                    17.0955,
                    52.25792
                ]
            },
            "properties": {
                "isced:level": "1;2",
                "ref:rspo": 70079,
                "official_name": "Szko\u0142a Podstawowa nr 1 im. Tytusa Dzia\u0142y\u0144skiego w K\u00f3rniku",
                "name": "Szko\u0142a Podstawowa nr 1",
                "addr:postcode": "62-035",
                "addr:city": "K\u00f3rnik",
                "addr:street": "Dworcowa",
                "addr:housenumber": "11",
                "addr:city:simc": 970922,
                "addr:street:sym_ul": 4434,
                "phone": "+48 618170196",
                "email": "sekretariat@sp1kornik.pl",
                "website": "http:\/\/www.sp1kornik.pl",
                "ref:regon": "000262958",
                "ref:vatin": "PL7772551198",
                "operator": "Miasto I Gmina K\u00f3rnik",
                "operator:type": "government",
                "amenity": "school"
            }
        },
        {
            "id": 274019,
            "type": "Feature",
            "geometry": {
                "type": "Point",
                "coordinates": [
                    17.01734,
                    52.27829
                ]
            },
            "properties": {
                "ref:rspo": 274019,
                "official_name": "Centrum Pigmentacji Paulina Majkowska",
                "name": "Centrum Pigmentacji Paulina Majkowska",
                "addr:postcode": "62-023",
                "addr:city": "Bor\u00f3wiec",
                "addr:street": "Podgrzybkowa",
                "addr:housenumber": "1",
                "addr:city:simc": 586371,
                "addr:street:sym_ul": 32590,
                "phone": "+48 733301118",
                "email": "centrumpigmentacji@gmail.com",
                "website": "http:\/\/www.permanentnypoznan.com",
                "ref:regon": "385016451",
                "operator": "Paulina Majkowska",
                "operator:type": "private",
                "fixme": "w zale\u017cno\u015bci od przedmiotu dzia\u0142alno\u015bci (np. amenity=training + training=*, amenity=dancing_school, amenity=language_school, amenity=music_school)"
            }
        },
        {
            "id": 196383,
            "type": "Feature",
            "geometry": {
                "type": "Point",
                "coordinates": [
                    16.98445,
                    52.27912
                ]
            },
            "properties": {
                "ref:rspo": 196383,
                "official_name": "Przedszkole Le\u015bna Dru\u017cyna w Kamionkach",
                "name": "Przedszkole Le\u015bna Dru\u017cyna w Kamionkach",
                "addr:postcode": "62-023",
                "addr:city": "Kamionki",
                "addr:street": "Porannej Rosy",
                "addr:housenumber": "2",
                "addr:city:simc": 586520,
                "addr:street:sym_ul": 35554,
                "phone": "+48 612276021",
                "email": "dyrektor@przedszkolekamionki.kornik.pl",
                "ref:regon": "367991360",
                "operator": "Miasto I Gmina K\u00f3rnik",
                "operator:type": "government",
                "amenity": "kindergarten"
            }
        },
        {
            "id": 270769,
            "type": "Feature",
            "geometry": {
                "type": "Point",
                "coordinates": [
                    17.02973,
                    52.27971
                ]
            },
            "properties": {
                "ref:rspo": 270769,
                "official_name": "Gretaflowers",
                "name": "Gretaflowers",
                "addr:postcode": "62-023",
                "addr:city": "Bor\u00f3wiec",
                "addr:street": "Skwer Brzozowy",
                "addr:housenumber": "9",
                "addr:city:simc": 586371,
                "addr:street:sym_ul": 47090,
                "phone": "+48 608033745",
                "email": "biuro@gretaflowers.pl",
                "ref:regon": "382906109",
                "operator": "Katarzyna Szymkowiak",
                "operator:type": "private",
                "fixme": "w zale\u017cno\u015bci od przedmiotu dzia\u0142alno\u015bci (np. amenity=training + training=*, amenity=dancing_school, amenity=language_school, amenity=music_school)"
            }
        },
        {
            "id": 70087,
            "type": "Feature",
            "geometry": {
                "type": "Point",
                "coordinates": [
                    17.01902,
                    52.28211
                ]
            },
            "properties": {
                "ref:rspo": 70087,
                "official_name": "Niepubliczne Przedszkole \"Skrzaty\"",
                "name": "Niepubliczne Przedszkole \"Skrzaty\"",
                "addr:postcode": "62-023",
                "addr:city": "Bor\u00f3wiec",
                "addr:street": "R\u00f3\u017cana",
                "addr:housenumber": "2",
                "addr:city:simc": 586371,
                "addr:street:sym_ul": 19000,
                "phone": "+48 618198140",
                "email": "skrzaty.borowiec@op.pl",
                "website": "http:\/\/www.skrzaty.cal.pl",
                "ref:regon": "302255611",
                "ref:vatin": "PL7821006438",
                "operator": "Ma\u0142gorzata Dubisz-Piotrowska",
                "operator:type": "private",
                "amenity": "kindergarten"
            }
        },
        {
            "id": 127841,
            "type": "Feature",
            "geometry": {
                "type": "Point",
                "coordinates": [
                    16.99381,
                    52.2835899
                ]
            },
            "properties": {
                "isced:level": "1;2",
                "ref:rspo": 127841,
                "official_name": "Szko\u0142a Podstawowa im. Sprawiedliwych W\u015br\u00f3d Narod\u00f3w \u015awiata w Kamionkach",
                "name": "Szko\u0142a Podstawowa",
                "addr:postcode": "62-023",
                "addr:city": "Kamionki",
                "addr:street": "Mieczewska",
                "addr:housenumber": "36",
                "addr:city:simc": 586520,
                "addr:street:sym_ul": 29754,
                "phone": "+48 612276040",
                "email": "dyrektor@spkamionki.pl",
                "website": "http:\/\/www.spkamionki.pl",
                "ref:regon": "361880903",
                "operator": "Miasto I Gmina K\u00f3rnik",
                "operator:type": "government",
                "amenity": "school"
            }
        },
        {
            "id": 70074,
            "type": "Feature",
            "geometry": {
                "type": "Point",
                "coordinates": [
                    17.10634,
                    52.28366
                ]
            },
            "properties": {
                "ref:rspo": 70074,
                "official_name": "Przedszkole Kolorowy \u015awiat w Szczodrzykowie",
                "name": "Przedszkole Kolorowy \u015awiat w Szczodrzykowie",
                "addr:postcode": "62-035",
                "addr:city": "Szczodrzykowo",
                "addr:street": "Dworcowa",
                "addr:housenumber": "11",
                "addr:city:simc": 586773,
                "addr:street:sym_ul": 4434,
                "email": "przedszkole@szczodrzykowo.com",
                "website": "http:\/\/www.szczodrzykowo.com",
                "ref:regon": "301646433",
                "ref:vatin": "PL7773196368",
                "operator": "Miasto I Gmina K\u00f3rnik",
                "operator:type": "government",
                "amenity": "kindergarten"
            }
        },
        {
            "id": 11865,
            "type": "Feature",
            "geometry": {
                "type": "Point",
                "coordinates": [
                    17.00615,
                    52.28387
                ]
            },
            "properties": {
                "ref:rspo": 11865,
                "official_name": "Zesp\u00f3\u0142 Szk\u00f3\u0142 w K\u00f3rniku",
                "name": "Zesp\u00f3\u0142 Szk\u00f3\u0142 w K\u00f3rniku",
                "addr:postcode": "62-035",
                "addr:city": "K\u00f3rnik",
                "addr:street": "Pozna\u0144ska",
                "addr:housenumber": "2",
                "addr:city:simc": 970922,
                "addr:street:sym_ul": 17394,
                "phone": "+48 618170256",
                "email": "sekretariat@kornik.edu.pl",
                "website": "http:\/\/www.kornik.edu.pl",
                "ref:regon": "301802703",
                "ref:vatin": "PL7773217403",
                "operator": "Powiat Pozna\u0144ski",
                "operator:type": "government",
                "landuse": "education",
                "fixme": "amenity=school, amenity=college albo landuse=education w zale\u017cno\u015bci od tego, jakie plac\u00f3wki wchodz\u0105 w sk\u0142ad zespo\u0142u. Sprawd\u017a, kiedy stosowa\u0107 amenity=* a kiedy landuse=education.",
                "note": "Children RSPO: 71560;71561"
            }
        },
        {
            "id": 71560,
            "type": "Feature",
            "geometry": {
                "type": "Point",
                "coordinates": [
                    17.00615,
                    52.28384
                ]
            },
            "properties": {
                "isced:level": "3",
                "ref:rspo": 71560,
                "official_name": "Liceum Og\u00f3lnokszta\u0142c\u0105ce im. Genera\u0142owej Zamoyskiej w K\u00f3rniku",
                "name": "Liceum Og\u00f3lnokszta\u0142c\u0105ce",
                "addr:postcode": "62-035",
                "addr:city": "K\u00f3rnik",
                "addr:street": "Pozna\u0144ska",
                "addr:housenumber": "2",
                "addr:city:simc": 970922,
                "addr:street:sym_ul": 17394,
                "phone": "+48 618170256",
                "email": "sekretariat@kornik.edu.pl",
                "website": "http:\/\/www.kornik.edu.pl",
                "ref:regon": "000229174",
                "operator": "Powiat Pozna\u0144ski",
                "operator:type": "government",
                "amenity": "school",
                "note": "Parent RSPO: 11865"
            }
        },
        {
            "id": 71561,
            "type": "Feature",
            "geometry": {
                "type": "Point",
                "coordinates": [
                    17.00615,
                    52.28381
                ]
            },
            "properties": {
                "isced:level": "3",
                "ref:rspo": 71561,
                "official_name": "Technikum w K\u00f3rniku",
                "name": "Technikum w K\u00f3rniku",
                "addr:postcode": "62-035",
                "addr:city": "K\u00f3rnik",
                "addr:street": "Pozna\u0144ska",
                "addr:housenumber": "2",
                "addr:city:simc": 970922,
                "addr:street:sym_ul": 17394,
                "phone": "+48 618170256",
                "email": "sekretariat@kornik.edu.pl",
                "website": "http:\/\/www.kornik.edu.pl",
                "ref:regon": "301805239",
                "operator": "Powiat Pozna\u0144ski",
                "operator:type": "government",
                "amenity": "school",
                "note": "Parent RSPO: 11865"
            }
        },
        {
            "id": 121390,
            "type": "Feature",
            "geometry": {
                "type": "Point",
                "coordinates": [
                    17.00593,
                    52.28425
                ]
            },
            "properties": {
                "ref:rspo": 121390,
                "official_name": "Filia w K\u00f3rniku",
                "name": "Filia w K\u00f3rniku",
                "addr:postcode": "62-035",
                "addr:city": "K\u00f3rnik",
                "addr:street": "Pozna\u0144ska",
                "addr:housenumber": "34A",
                "addr:city:simc": 970922,
                "addr:street:sym_ul": 17394,
                "phone": "+48 618170907",
                "email": "pppfiliakornik@powiat.poznan.pl",
                "website": "http:\/\/poradnie.powiat.poznan.pl",
                "ref:regon": "708265000",
                "operator": "Powiat Pozna\u0144ski",
                "operator:type": "government",
                "healthcare": "counselling",
                "counselling_type": "education",
                "fixme": "w zale\u017cno\u015bci od przedmiotu dzia\u0142alno\u015bci (np. healthcare=counselling + counselling_type=education albo healthcare=psychotherapist)",
                "note": "Parent RSPO: 71558"
            }
        },
        {
            "id": 272750,
            "type": "Feature",
            "geometry": {
                "type": "Point",
                "coordinates": [
                    17.02648,
                    52.2849
                ]
            },
            "properties": {
                "ref:rspo": 272750,
                "official_name": "Przedszkole w Bor\u00f3wcu Tajemnicza Wyspa",
                "name": "Przedszkole w Bor\u00f3wcu Tajemnicza Wyspa",
                "addr:postcode": "62-023",
                "addr:city": "Bor\u00f3wiec",
                "addr:street": "Nad Potokiem",
                "addr:housenumber": "2",
                "addr:city:simc": 586371,
                "addr:street:sym_ul": 13797,
                "email": "borowiec@tajemniczawyspa.com.pl",
                "website": "http:\/\/www.tajemniczawyspa.com.pl",
                "ref:regon": "384299642",
                "operator": "Marcin Cha\u0142upka",
                "operator:type": "private",
                "amenity": "kindergarten"
            }
        },
        {
            "id": 70064,
            "type": "Feature",
            "geometry": {
                "type": "Point",
                "coordinates": [
                    17.10256,
                    52.28512
                ]
            },
            "properties": {
                "isced:level": "1;2",
                "ref:rspo": 70064,
                "official_name": "Szko\u0142a Podstawowa im. Jana Paw\u0142a II w Szczodrzykowie",
                "name": "Szko\u0142a Podstawowa",
                "addr:postcode": "62-035",
                "addr:city": "Szczodrzykowo",
                "addr:street": "Ogrodowa",
                "addr:housenumber": "21",
                "addr:city:simc": 586773,
                "addr:street:sym_ul": 14834,
                "phone": "+48 618190542",
                "email": "sp@szczodrzykowo.pl",
                "website": "http:\/\/www.spsz.ehost.pl",
                "ref:regon": "639809669",
                "ref:vatin": "PL7772553122",
                "operator": "Miasto I Gmina K\u00f3rnik",
                "operator:type": "government",
                "amenity": "school"
            }
        },
        {
            "id": 264618,
            "type": "Feature",
            "geometry": {
                "type": "Point",
                "coordinates": [
                    16.99885,
                    52.28741
                ]
            },
            "properties": {
                "ref:rspo": 264618,
                "official_name": "Niepubliczna Poradnia Psychologiczno - Pedagogiczna \"Centrum Zdrowia Rodziny\"",
                "name": "Niepubliczna Poradnia Psychologiczno - Pedagogiczna \"Centrum Zdrowia Rodziny\"",
                "addr:postcode": "62-023",
                "addr:city": "Kamionki",
                "addr:street": "Mostowa",
                "addr:housenumber": "12",
                "addr:city:simc": 586520,
                "addr:street:sym_ul": 13379,
                "email": "robert.borkiewicz@gmail.com",
                "ref:regon": "368398813",
                "operator": "Centrum Zdrowia Rodziny Sp\u00f3\u0142ka Z Ograniczon\u0105 Odpowiedzialno\u015bci\u0105",
                "operator:type": "private",
                "healthcare": "counselling",
                "counselling_type": "education",
                "fixme": "w zale\u017cno\u015bci od przedmiotu dzia\u0142alno\u015bci (np. healthcare=counselling + counselling_type=education albo healthcare=psychotherapist)"
            }
        },
        {
            "id": 81057,
            "type": "Feature",
            "geometry": {
                "type": "Point",
                "coordinates": [
                    17.04761,
                    52.29063
                ]
            },
            "properties": {
                "ref:rspo": 81057,
                "official_name": "Przedszkole \"Spiewaj\u0105cy W\u0142\u00f3czykije\"",
                "name": "Przedszkole \"Spiewaj\u0105cy W\u0142\u00f3czykije\"",
                "addr:postcode": "62-023",
                "addr:city": "Bor\u00f3wiec",
                "addr:street": "Le\u015bna",
                "addr:housenumber": "12B",
                "addr:city:simc": 586371,
                "addr:street:sym_ul": 10898,
                "email": "wloczykije@poczta.onet.pl",
                "website": "http:\/\/www.spiewajacywloczykije.pl",
                "ref:regon": "302268542",
                "operator": "Fundacja \u015apiewaj\u0105cy W\u0142\u00f3czykije",
                "operator:type": "ngo",
                "amenity": "kindergarten"
            }
        },
        {
            "id": 70090,
            "type": "Feature",
            "geometry": {
                "type": "Point",
                "coordinates": [
                    17.00119,
                    52.29215
                ]
            },
            "properties": {
                "ref:rspo": 70090,
                "official_name": "Punkt Przedszkolny \"Skrzaty\"",
                "name": "Punkt Przedszkolny \"Skrzaty\"",
                "addr:postcode": "62-023",
                "addr:city": "Kamionki",
                "addr:street": "Lisia",
                "addr:housenumber": "6",
                "addr:city:simc": 586520,
                "addr:street:sym_ul": 11174,
                "phone": "+48 618198140",
                "email": "skrzaty.kamionki@op.pl",
                "website": "http:\/\/www.skrzaty.cal.pl",
                "ref:regon": "302254758",
                "operator": "Ma\u0142gorzata Dubisz-Piotrowska",
                "operator:type": "private",
                "amenity": "kindergarten"
            }
        },
        {
            "id": 272746,
            "type": "Feature",
            "geometry": {
                "type": "Point",
                "coordinates": [
                    17.07494,
                    52.29393
                ]
            },
            "properties": {
                "ref:rspo": 272746,
                "official_name": "Przedszkole Kolorowe Pole",
                "name": "Przedszkole Kolorowe Pole",
                "addr:postcode": "62-023",
                "addr:city": "Dachowa",
                "addr:street": "Nowina",
                "addr:housenumber": "37",
                "addr:city:simc": 586448,
                "addr:street:sym_ul": 14397,
                "email": "kolorowepole.dachowa@gmail.com",
                "website": "http:\/\/www.kolorowepole.pl",
                "ref:regon": "384299599",
                "operator": "Piotr Swoboda",
                "operator:type": "private",
                "amenity": "kindergarten"
            }
        },
        {
            "id": 270628,
            "type": "Feature",
            "geometry": {
                "type": "Point",
                "coordinates": [
                    17.01295,
                    52.29997
                ]
            },
            "properties": {
                "ref:rspo": 270628,
                "official_name": "Przedszkole Akademia Malucha",
                "name": "Przedszkole Akademia Malucha",
                "addr:postcode": "62-023",
                "addr:city": "Szczytniki",
                "addr:street": "Jeziorna",
                "addr:housenumber": "33",
                "addr:city:simc": 586780,
                "addr:street:sym_ul": 7535,
                "email": "akademiamalucha@interia.eu",
                "ref:regon": "382823620",
                "operator": "El\u017cbieta Andrzejewska-Lehmann",
                "operator:type": "private",
                "amenity": "kindergarten"
            }
        },
        {
            "id": 272648,
            "type": "Feature",
            "geometry": {
                "type": "Point",
                "coordinates": [
                    17.01558,
                    52.30165
                ]
            },
            "properties": {
                "ref:rspo": 272648,
                "official_name": "Przedszkole \"Wodnik Szuwarek\" w Szczytnikach",
                "name": "Przedszkole \"Wodnik Szuwarek\" w Szczytnikach",
                "addr:postcode": "62-023",
                "addr:city": "Szczytniki",
                "addr:street": "Jeziorna",
                "addr:housenumber": "4b",
                "addr:city:simc": 586780,
                "addr:street:sym_ul": 7535,
                "email": "biuro@wodnik-szuwarek.com.pl",
                "ref:regon": "384295265",
                "operator": "Remigiusz Stein",
                "operator:type": "private",
                "amenity": "kindergarten"
            }
        },
        {
            "id": 277992,
            "type": "Feature",
            "geometry": {
                "type": "Point",
                "coordinates": [
                    17.01558,
                    52.30162
                ]
            },
            "properties": {
                "ref:rspo": 277992,
                "official_name": "Przedszkole nr 2 w Szczytnikach",
                "name": "Przedszkole nr 2 w Szczytnikach",
                "addr:postcode": "62-023",
                "addr:city": "Szczytniki",
                "addr:street": "Jeziorna",
                "addr:housenumber": "4D",
                "addr:city:simc": 586780,
                "addr:street:sym_ul": 7535,
                "email": "biuro@szmaragdowe-oczko.pl",
                "website": "http:\/\/www.szmaragdowe-oczko.pl",
                "ref:regon": "389733669",
                "operator": "Remigiusz Stein",
                "operator:type": "private",
                "amenity": "kindergarten"
            }
        },
        {
            "id": 262842,
            "type": "Feature",
            "geometry": {
                "type": "Point",
                "coordinates": [
                    17.05727,
                    52.30168
                ]
            },
            "properties": {
                "isced:level": "1;2",
                "ref:rspo": 262842,
                "official_name": "Szko\u0142a Podstawowa im. Powsta\u0144c\u00f3w Wielkopolskich w Robakowie",
                "name": "Szko\u0142a Podstawowa",
                "addr:postcode": "62-023",
                "addr:city": "Robakowo",
                "addr:street": "Szkolna",
                "addr:housenumber": "3",
                "addr:city:simc": 586655,
                "addr:street:sym_ul": 21970,
                "phone": "+48 618171172",
                "email": "sekretariat@sprobakowo.kornik.pl",
                "website": "http:\/\/www.sprobakowo.kornik.pl",
                "ref:regon": "368063633",
                "operator": "Miasto I Gmina K\u00f3rnik",
                "operator:type": "government",
                "amenity": "school"
            }
        },
        {
            "id": 277994,
            "type": "Feature",
            "geometry": {
                "type": "Point",
                "coordinates": [
                    17.06243,
                    52.30576
                ]
            },
            "properties": {
                "ref:rspo": 277994,
                "official_name": "Przedszkole w Robakowie",
                "name": "Przedszkole w Robakowie",
                "addr:postcode": "62-023",
                "addr:city": "Robakowo",
                "addr:street": "Szkolna",
                "addr:housenumber": "13",
                "addr:city:simc": 586655,
                "addr:street:sym_ul": 21970,
                "email": "robakowo@przedszkolezlobek.gmail.com",
                "website": "http:\/\/www.wesolerobaczki.com.pl",
                "ref:regon": "389734321",
                "operator": "Piotr Swoboda",
                "operator:type": "private",
                "amenity": "kindergarten"
            }
        }
    ]
}