{
    "type": "FeatureCollection",
    "features": [
        {
            "id": 274566,
            "type": "Feature",
            "geometry": {
                "type": "Point",
                "coordinates": [
                    16.73006,
                    52.48402
                ]
            },
            "properties": {
                "ref:rspo": 274566,
                "official_name": "Zesp\u00f3\u0142 Szkolno-Przedszkolny w Napachaniu",
                "name": "Zesp\u00f3\u0142 Szkolno-Przedszkolny w Napachaniu",
                "addr:postcode": "62-090",
                "addr:city": "Napachanie",
                "addr:street": "Pozna\u0144ska",
                "addr:housenumber": "26",
                "addr:city:simc": 594057,
                "addr:street:sym_ul": 17394,
                "phone": "+48 618145274",
                "email": "sekretariat.napachanie@zsp-napachanie.pl",
                "ref:regon": "385967459",
                "ref:vatin": "PL7812008679",
                "operator": "Gmina Rokietnica",
                "operator:type": "government",
                "landuse": "education",
                "fixme": "amenity=school, amenity=college albo landuse=education w zale\u017cno\u015bci od tego, jakie plac\u00f3wki wchodz\u0105 w sk\u0142ad zespo\u0142u. Sprawd\u017a, kiedy stosowa\u0107 amenity=* a kiedy landuse=education.",
                "note": "Children RSPO: 274549;274550"
            }
        },
        {
            "id": 274549,
            "type": "Feature",
            "geometry": {
                "type": "Point",
                "coordinates": [
                    16.73006,
                    52.48399
                ]
            },
            "properties": {
                "isced:level": "1;2",
                "ref:rspo": 274549,
                "official_name": "Szko\u0142a Podstawowa w Napachaniu",
                "name": "Szko\u0142a Podstawowa w Napachaniu",
                "addr:postcode": "62-090",
                "addr:city": "Napachanie",
                "addr:street": "Pozna\u0144ska",
                "addr:housenumber": "26",
                "addr:city:simc": 594057,
                "addr:street:sym_ul": 17394,
                "phone": "+48 618145274",
                "email": "sekretariat.napachanie@zsp-napachanie.pl",
                "website": "http:\/\/www.zsp-napachanie.pl",
                "ref:regon": "385944100",
                "ref:vatin": "PL7812008550",
                "operator": "Gmina Rokietnica",
                "operator:type": "government",
                "amenity": "school",
                "note": "Parent RSPO: 274566"
            }
        },
        {
            "id": 274550,
            "type": "Feature",
            "geometry": {
                "type": "Point",
                "coordinates": [
                    16.73006,
                    52.48396
                ]
            },
            "properties": {
                "ref:rspo": 274550,
                "official_name": "Przedszkole w Napachaniu",
                "name": "Przedszkole w Napachaniu",
                "addr:postcode": "62-090",
                "addr:city": "Napachanie",
                "addr:street": "Pozna\u0144ska",
                "addr:housenumber": "26",
                "addr:city:simc": 594057,
                "addr:street:sym_ul": 17394,
                "phone": "+48 618145274",
                "email": "sekretariat.napachanie@zsp-napachanie.pl",
                "website": "http:\/\/www.zsp-napachanie.pl",
                "ref:regon": "385943714",
                "ref:vatin": "PL7812008509",
                "operator": "Gmina Rokietnica",
                "operator:type": "government",
                "amenity": "kindergarten",
                "note": "Parent RSPO: 274566"
            }
        },
        {
            "id": 22898,
            "type": "Feature",
            "geometry": {
                "type": "Point",
                "coordinates": [
                    16.77483,
                    52.4903199
                ]
            },
            "properties": {
                "ref:rspo": 22898,
                "official_name": "Przedszkole Niepubliczne \"Pty\u015b\"",
                "name": "Przedszkole Niepubliczne \"Pty\u015b\"",
                "addr:postcode": "62-090",
                "addr:city": "Kiekrz",
                "addr:street": "Kasztanowa",
                "addr:housenumber": "4",
                "addr:city:simc": 593997,
                "addr:street:sym_ul": 8171,
                "phone": "+48 605408206",
                "email": "zapisy@przedszkoleptys.pl",
                "website": "http:\/\/przedszkoleptys.pl",
                "ref:regon": "302231711",
                "ref:vatin": "PL7781114712",
                "operator": "Jolanta Effenberg",
                "operator:type": "private",
                "amenity": "kindergarten"
            }
        },
        {
            "id": 22520,
            "type": "Feature",
            "geometry": {
                "type": "Point",
                "coordinates": [
                    16.74147,
                    52.50411
                ]
            },
            "properties": {
                "ref:rspo": 22520,
                "official_name": "Przedszkole Niepubliczne Mumula",
                "name": "Przedszkole Niepubliczne Mumula",
                "addr:postcode": "62-090",
                "addr:city": "Rokietnica",
                "addr:street": "Osiedle Osiedle Kalinowe",
                "addr:housenumber": "13b\/9",
                "addr:city:simc": 594117,
                "addr:street:sym_ul": 40654,
                "website": "http:\/\/www.mumula.pl",
                "ref:regon": "302231705",
                "ref:vatin": "PL7831595399",
                "operator": "Wy\u017csza Szko\u0142a Pedagogiki I Administracji Im. Mieszka I Z Siedzib\u0105 W Poznaniu",
                "operator:type": "private",
                "amenity": "kindergarten"
            }
        },
        {
            "id": 16383,
            "type": "Feature",
            "geometry": {
                "type": "Point",
                "coordinates": [
                    16.73725,
                    52.50963
                ]
            },
            "properties": {
                "ref:rspo": 16383,
                "official_name": "Przedszkole \"Bajeczka\"",
                "name": "Przedszkole \"Bajeczka\"",
                "addr:postcode": "62-090",
                "addr:city": "Rokietnica",
                "addr:street": "Noblist\u00f3w",
                "addr:housenumber": "1",
                "addr:city:simc": 594117,
                "addr:street:sym_ul": 29531,
                "phone": "+48 618145451",
                "email": "bajeczkarok@wp.pl",
                "website": "http:\/\/www.przedszkolebajeczka.pl",
                "ref:regon": "632049296",
                "ref:vatin": "PL7771407364",
                "operator": "Gmina Rokietnica",
                "operator:type": "government",
                "amenity": "kindergarten"
            }
        },
        {
            "id": 16750,
            "type": "Feature",
            "geometry": {
                "type": "Point",
                "coordinates": [
                    16.73971,
                    52.51023
                ]
            },
            "properties": {
                "isced:level": "1;2",
                "ref:rspo": 16750,
                "official_name": "Szko\u0142a Podstawowa im. Jana Brzechwy w Rokietnicy",
                "name": "Szko\u0142a Podstawowa",
                "addr:postcode": "62-090",
                "addr:city": "Rokietnica",
                "addr:street": "Szkolna",
                "addr:housenumber": "3c",
                "addr:city:simc": 594117,
                "addr:street:sym_ul": 21970,
                "phone": "+48 618145257",
                "email": "sekretariat@sp.rokietnica.pl",
                "ref:regon": "000645783",
                "operator": "Gmina Rokietnica",
                "operator:type": "government",
                "amenity": "school"
            }
        },
        {
            "id": 272493,
            "type": "Feature",
            "geometry": {
                "type": "Point",
                "coordinates": [
                    16.70631,
                    52.51027
                ]
            },
            "properties": {
                "ref:rspo": 272493,
                "official_name": "\"Le\u015bna Chatka\" w Mrowinie",
                "name": "\"Le\u015bna Chatka\" w Mrowinie",
                "addr:postcode": "62-090",
                "addr:city": "Mrowino",
                "addr:street": "Po\u0142udniowa",
                "addr:housenumber": "25",
                "addr:city:simc": 594028,
                "addr:street:sym_ul": 17070,
                "email": "lesna.chatka@op.pl",
                "website": "http:\/\/www.le\u015bnachatka.pl",
                "ref:regon": "384285315",
                "operator": "Karina Czy\u017c",
                "operator:type": "private",
                "amenity": "kindergarten"
            }
        },
        {
            "id": 268577,
            "type": "Feature",
            "geometry": {
                "type": "Point",
                "coordinates": [
                    16.7470399,
                    52.5120099
                ]
            },
            "properties": {
                "ref:rspo": 268577,
                "official_name": "Przedszkole Niepubliczne \"Mali Arty\u015bci\"",
                "name": "Przedszkole Niepubliczne \"Mali Arty\u015bci\"",
                "addr:postcode": "62-090",
                "addr:city": "Rokietnica",
                "addr:street": "Szamotulska",
                "addr:housenumber": "12b",
                "addr:city:simc": 594117,
                "addr:street:sym_ul": 21752,
                "email": "biuro@mali-artysci.com",
                "website": "http:\/\/www.mali-artysci.com",
                "ref:regon": "381208231",
                "ref:vatin": "PL7773099665",
                "operator": "Katarzyna Stachowiak",
                "operator:type": "private",
                "amenity": "kindergarten"
            }
        },
        {
            "id": 47778,
            "type": "Feature",
            "geometry": {
                "type": "Point",
                "coordinates": [
                    16.74287,
                    52.51217
                ]
            },
            "properties": {
                "ref:rspo": 47778,
                "official_name": "Zesp\u00f3\u0142 Szk\u00f3\u0142 im. Jadwigi I W\u0142adys\u0142awa Zamoyskich w Rokietnicy",
                "name": "Zesp\u00f3\u0142 Szk\u00f3\u0142",
                "addr:postcode": "62-090",
                "addr:city": "Rokietnica",
                "addr:street": "Szamotulska",
                "addr:housenumber": "24",
                "addr:city:simc": 594117,
                "addr:street:sym_ul": 21752,
                "phone": "+48 618145234",
                "email": "zsrokietnica@powiat.poznan.pl",
                "website": "http:\/\/www.zsrokietnica.powiat.poznan.pl",
                "ref:regon": "639702871",
                "ref:vatin": "PL7771759560",
                "operator": "Powiat Pozna\u0144ski",
                "operator:type": "government",
                "landuse": "education",
                "fixme": "amenity=school, amenity=college albo landuse=education w zale\u017cno\u015bci od tego, jakie plac\u00f3wki wchodz\u0105 w sk\u0142ad zespo\u0142u. Sprawd\u017a, kiedy stosowa\u0107 amenity=* a kiedy landuse=education.",
                "note": "Children RSPO: 73902;73918;74732;74828;74904"
            }
        },
        {
            "id": 73902,
            "type": "Feature",
            "geometry": {
                "type": "Point",
                "coordinates": [
                    16.74287,
                    52.512139999999995
                ]
            },
            "properties": {
                "isced:level": "3",
                "ref:rspo": 73902,
                "official_name": "Liceum Og\u00f3lnokszta\u0142c\u0105ce w Rokietnicy",
                "name": "Liceum Og\u00f3lnokszta\u0142c\u0105ce w Rokietnicy",
                "addr:postcode": "62-090",
                "addr:city": "Rokietnica",
                "addr:street": "Szamotulska",
                "addr:housenumber": "24",
                "addr:city:simc": 594117,
                "addr:street:sym_ul": 21752,
                "phone": "+48 618145234",
                "email": "zsrokietnica@powiat.poznan.pl",
                "website": "http:\/\/www.zsrokietnica.powiat.poznan.pl",
                "ref:regon": "634378800",
                "operator": "Powiat Pozna\u0144ski",
                "operator:type": "government",
                "amenity": "school",
                "note": "Parent RSPO: 47778"
            }
        },
        {
            "id": 73918,
            "type": "Feature",
            "geometry": {
                "type": "Point",
                "coordinates": [
                    16.74287,
                    52.51211
                ]
            },
            "properties": {
                "isced:level": "3",
                "ref:rspo": 73918,
                "official_name": "Technikum w Rokietnicy",
                "name": "Technikum w Rokietnicy",
                "addr:postcode": "62-090",
                "addr:city": "Rokietnica",
                "addr:street": "Szamotulska",
                "addr:housenumber": "24",
                "addr:city:simc": 594117,
                "addr:street:sym_ul": 21752,
                "phone": "+48 618145234",
                "email": "zsrokietnica@powiat.poznan.pl",
                "website": "http:\/\/www.zsrokietnica.powiat.poznan.pl",
                "ref:regon": "300840340",
                "operator": "Powiat Pozna\u0144ski",
                "operator:type": "government",
                "amenity": "school",
                "note": "Parent RSPO: 47778"
            }
        },
        {
            "id": 74732,
            "type": "Feature",
            "geometry": {
                "type": "Point",
                "coordinates": [
                    16.74287,
                    52.51208
                ]
            },
            "properties": {
                "isced:level": "3",
                "ref:rspo": 74732,
                "official_name": "Bran\u017cowa Szko\u0142a I Stopnia w Rokietnicy",
                "name": "Bran\u017cowa Szko\u0142a I Stopnia w Rokietnicy",
                "addr:postcode": "62-090",
                "addr:city": "Rokietnica",
                "addr:street": "Szamotulska",
                "addr:housenumber": "24",
                "addr:city:simc": 594117,
                "addr:street:sym_ul": 21752,
                "phone": "+48 618145234",
                "email": "zsrokietnica@powiat.poznan.pl",
                "website": "http:\/\/www.zsrokietnica.powiat.poznan.pl",
                "ref:regon": "300840305",
                "operator": "Powiat Pozna\u0144ski",
                "operator:type": "government",
                "amenity": "school",
                "note": "Parent RSPO: 47778"
            }
        },
        {
            "id": 74828,
            "type": "Feature",
            "geometry": {
                "type": "Point",
                "coordinates": [
                    16.74287,
                    52.512049999999995
                ]
            },
            "properties": {
                "isced:level": "4",
                "ref:rspo": 74828,
                "official_name": "Szko\u0142a Policealna w Rokietnicy",
                "name": "Szko\u0142a Policealna w Rokietnicy",
                "addr:postcode": "62-090",
                "addr:city": "Rokietnica",
                "addr:street": "Szamotulska",
                "addr:housenumber": "24",
                "addr:city:simc": 594117,
                "addr:street:sym_ul": 21752,
                "phone": "+48 618145234",
                "email": "zsrokietnica@powiat.poznan.pl",
                "website": "http:\/\/www.zsrokietnica.powiat.poznan.pl",
                "ref:regon": "300840268",
                "operator": "Powiat Pozna\u0144ski",
                "operator:type": "government",
                "amenity": "college",
                "note": "Parent RSPO: 47778"
            }
        },
        {
            "id": 124637,
            "type": "Feature",
            "geometry": {
                "type": "Point",
                "coordinates": [
                    16.7429,
                    52.5124799
                ]
            },
            "properties": {
                "ref:rspo": 124637,
                "official_name": "Publiczne Przedszkole Logicus",
                "name": "Publiczne Przedszkole Logicus",
                "addr:postcode": "62-090",
                "addr:city": "Rokietnica",
                "addr:street": "Szamotulska",
                "addr:housenumber": "29",
                "addr:city:simc": 594117,
                "addr:street:sym_ul": 21752,
                "phone": "+48 533317980",
                "email": "logicus.rokietnica@operator.edu.pl",
                "ref:regon": "302815116",
                "ref:vatin": "PL7781395875",
                "operator": "Og\u00f3lnopolski Operator O\u015bwiaty",
                "operator:type": "ngo",
                "amenity": "kindergarten"
            }
        },
        {
            "id": 274548,
            "type": "Feature",
            "geometry": {
                "type": "Point",
                "coordinates": [
                    16.69875,
                    52.51423
                ]
            },
            "properties": {
                "ref:rspo": 274548,
                "official_name": "Przedszkole w Mrowinie",
                "name": "Przedszkole w Mrowinie",
                "addr:postcode": "62-090",
                "addr:city": "Mrowino",
                "addr:street": "Szkolna",
                "addr:housenumber": "2",
                "addr:city:simc": 594028,
                "addr:street:sym_ul": 21970,
                "phone": "+48 618144898",
                "email": "dyrektor@zsp-cerekwica.pl",
                "website": "http:\/\/www.zsp-cerekwica.pl",
                "ref:regon": "385944085",
                "ref:vatin": "PL7812008538",
                "operator": "Gmina Rokietnica",
                "operator:type": "government",
                "amenity": "kindergarten",
                "note": "Parent RSPO: 274565"
            }
        },
        {
            "id": 272486,
            "type": "Feature",
            "geometry": {
                "type": "Point",
                "coordinates": [
                    16.73047,
                    52.51427
                ]
            },
            "properties": {
                "ref:rspo": 272486,
                "official_name": "\"Ptasie Radio\" w Rokietnicy",
                "name": "\"Ptasie Radio\" w Rokietnicy",
                "addr:postcode": "62-090",
                "addr:city": "Rokietnica",
                "addr:street": "Trakt Napoleo\u0144ski",
                "addr:housenumber": "20",
                "addr:city:simc": 594117,
                "addr:street:sym_ul": 27438,
                "email": "biuro@ptasie-radio.com.pl",
                "website": "http:\/\/www.ptasie-radio.com.pl",
                "ref:regon": "384285284",
                "operator": "Remigiusz Stein",
                "operator:type": "private",
                "amenity": "kindergarten"
            }
        },
        {
            "id": 271351,
            "type": "Feature",
            "geometry": {
                "type": "Point",
                "coordinates": [
                    16.74383,
                    52.51628
                ]
            },
            "properties": {
                "ref:rspo": 271351,
                "official_name": "Przedszkole Cztery Pory Roku",
                "name": "Przedszkole Cztery Pory Roku",
                "addr:postcode": "62-090",
                "addr:city": "Rokietnica",
                "addr:street": "\u015awit",
                "addr:housenumber": "2",
                "addr:city:simc": 594117,
                "addr:street:sym_ul": 22576,
                "phone": "+48 618145088",
                "email": "przedszkole@czteryporyroku.edu.pl",
                "ref:regon": "383300202",
                "operator": "Justyna Konieczna",
                "operator:type": "private",
                "amenity": "kindergarten"
            }
        },
        {
            "id": 274565,
            "type": "Feature",
            "geometry": {
                "type": "Point",
                "coordinates": [
                    16.692,
                    52.51894
                ]
            },
            "properties": {
                "ref:rspo": 274565,
                "official_name": "Zesp\u00f3\u0142 Szkolno-Przedszkolny w Cerekwicy",
                "name": "Zesp\u00f3\u0142 Szkolno-Przedszkolny w Cerekwicy",
                "addr:postcode": "62-090",
                "addr:city": "Cerekwica",
                "addr:street": "Przybrodzka",
                "addr:housenumber": "1",
                "addr:city:simc": 593980,
                "addr:street:sym_ul": 17867,
                "phone": "+48 611020420",
                "email": "dyrektor@zsp-cerekwica.pl",
                "website": "http:\/\/www.zsp-cerekwica.pl",
                "ref:regon": "385967471",
                "operator": "Gmina Rokietnica",
                "operator:type": "government",
                "landuse": "education",
                "fixme": "amenity=school, amenity=college albo landuse=education w zale\u017cno\u015bci od tego, jakie plac\u00f3wki wchodz\u0105 w sk\u0142ad zespo\u0142u. Sprawd\u017a, kiedy stosowa\u0107 amenity=* a kiedy landuse=education.",
                "note": "Children RSPO: 274547;274548"
            }
        },
        {
            "id": 274547,
            "type": "Feature",
            "geometry": {
                "type": "Point",
                "coordinates": [
                    16.692,
                    52.51891
                ]
            },
            "properties": {
                "isced:level": "1;2",
                "ref:rspo": 274547,
                "official_name": "Szko\u0142a Podstawowa w Cerekwicy",
                "name": "Szko\u0142a Podstawowa w Cerekwicy",
                "addr:postcode": "62-090",
                "addr:city": "Cerekwica",
                "addr:street": "Przybrodzka",
                "addr:housenumber": "1",
                "addr:city:simc": 593980,
                "addr:street:sym_ul": 17867,
                "phone": "+48 611020420",
                "email": "dyrektor@zsp-cerekwica.pl",
                "website": "http:\/\/www.zsp-cerekwica.pl",
                "ref:regon": "385944056",
                "ref:vatin": "PL7812008515",
                "operator": "Gmina Rokietnica",
                "operator:type": "government",
                "amenity": "school",
                "note": "Parent RSPO: 274565"
            }
        }
    ]
}