{
    "type": "FeatureCollection",
    "features": [
        {
            "id": 82401,
            "type": "Feature",
            "geometry": {
                "type": "Point",
                "coordinates": [
                    16.7673,
                    52.30054
                ]
            },
            "properties": {
                "ref:rspo": 82401,
                "official_name": "Przedszkole Samorz\u0105dowe \u201eS\u0142oneczko\u201d w Rosn\u00f3wku",
                "name": "Przedszkole Samorz\u0105dowe \u201eS\u0142oneczko\u201d w Rosn\u00f3wku",
                "addr:country": "PL",
                "addr:postcode": "62-052",
                "addr:city": "Rosn\u00f3wko",
                "addr:street": "ul. 1 Maja",
                "addr:housenumber": "39",
                "addr:teryt:simc": 11926,
                "addr:teryt:sym_ul": 585911,
                "contact:phone": "+48 618301873",
                "contact:email": "sekretariat@przedszkolerosnowko.pl",
                "contact:website": "http:\/\/www.przedszkolerosnowko.pl",
                "ref:regon": "301150873",
                "ref:vatin": "PL7773122134",
                "operator": "Gmina Komorniki",
                "operator:type": "government",
                "amenity": "kindergarten"
            }
        },
        {
            "id": 82418,
            "type": "Feature",
            "geometry": {
                "type": "Point",
                "coordinates": [
                    16.85245,
                    52.31746
                ]
            },
            "properties": {
                "isced:level": "1;2",
                "ref:rspo": 82418,
                "official_name": "Szko\u0142a Podstawowa im.powsta\u0144c\u00f3w Wielkopolskich w Wirach",
                "name": "Szko\u0142a Podstawowa im.powsta\u0144c\u00f3w Wielkopolskich w Wirach",
                "addr:country": "PL",
                "addr:postcode": "62-051",
                "addr:city": "Wiry",
                "addr:street": "ul. Zespo\u0142owa",
                "addr:housenumber": "23",
                "addr:teryt:simc": 26010,
                "addr:teryt:sym_ul": 585957,
                "contact:phone": "+48 611025300",
                "contact:email": "spwiry@op.pl",
                "ref:regon": "001228142",
                "ref:vatin": "PL7771793479",
                "operator": "Gmina Komorniki",
                "operator:type": "government",
                "amenity": "school"
            }
        },
        {
            "id": 82452,
            "type": "Feature",
            "geometry": {
                "type": "Point",
                "coordinates": [
                    16.8485,
                    52.31769
                ]
            },
            "properties": {
                "ref:rspo": 82452,
                "official_name": "Przedszkole Weso\u0142a Kraina w Wirach",
                "name": "Przedszkole Weso\u0142a Kraina w Wirach",
                "addr:country": "PL",
                "addr:postcode": "62-051",
                "addr:city": "Wiry",
                "addr:street": "ul. Szreniawska",
                "addr:housenumber": "4",
                "addr:teryt:simc": 22091,
                "addr:teryt:sym_ul": 585957,
                "contact:phone": "+48 618106537",
                "contact:email": "przedszkole@wesolakraina.pl",
                "contact:website": "http:\/\/www.wesolakraina.pl",
                "ref:regon": "631576792",
                "ref:vatin": "PL7771793982",
                "operator": "Gmina Komorniki",
                "operator:type": "government",
                "amenity": "kindergarten"
            }
        },
        {
            "id": 278163,
            "type": "Feature",
            "geometry": {
                "type": "Point",
                "coordinates": [
                    16.84664,
                    52.31818
                ]
            },
            "properties": {
                "isced:level": "1;2",
                "ref:rspo": 278163,
                "official_name": "Spo\u0142eczna Waldorfska Szko\u0142a Podstawowa",
                "name": "Spo\u0142eczna Waldorfska Szko\u0142a Podstawowa",
                "addr:country": "PL",
                "addr:postcode": "62-051",
                "addr:city": "Wiry",
                "addr:street": "ul. Szreniawska",
                "addr:housenumber": "6",
                "addr:teryt:simc": 22091,
                "addr:teryt:sym_ul": 585957,
                "contact:email": "szkola@waldorfska.org",
                "contact:website": "http:\/\/www.waldorfska.org",
                "ref:regon": "389859146",
                "operator": "Stowarzyszenie Edukacyjne Wolna Szko\u0142a Waldorfska",
                "operator:type": "cooperative",
                "amenity": "school"
            }
        },
        {
            "id": 278630,
            "type": "Feature",
            "geometry": {
                "type": "Point",
                "coordinates": [
                    16.84664,
                    52.318149999999996
                ]
            },
            "properties": {
                "isced:level": "3",
                "ref:rspo": 278630,
                "official_name": "Spo\u0142eczne Licuem Og\u00f3lnokszta\u0142c\u0105ce",
                "name": "Spo\u0142eczne Licuem Og\u00f3lnokszta\u0142c\u0105ce",
                "addr:country": "PL",
                "addr:postcode": "62-051",
                "addr:city": "Wiry",
                "addr:street": "ul. Szreniawska",
                "addr:housenumber": "6",
                "addr:teryt:simc": 22091,
                "addr:teryt:sym_ul": 585957,
                "contact:email": "szkola@waldorfska.org",
                "contact:website": "http:\/\/www.waldorfska.org",
                "ref:regon": "520005070",
                "operator": "Stowarzyszenie Edukacyjne Wolna Szko\u0142a Waldorfska",
                "operator:type": "cooperative",
                "amenity": "school"
            }
        },
        {
            "id": 128578,
            "type": "Feature",
            "geometry": {
                "type": "Point",
                "coordinates": [
                    16.80946,
                    52.33373
                ]
            },
            "properties": {
                "ref:rspo": 128578,
                "official_name": "Publiczne Przedszkole Raz Dwa Trzy w Komornikach",
                "name": "Publiczne Przedszkole Raz Dwa Trzy w Komornikach",
                "addr:country": "PL",
                "addr:postcode": "62-052",
                "addr:city": "Komorniki",
                "addr:street": "ul. M\u0142y\u0144ska",
                "addr:housenumber": "12a",
                "addr:teryt:simc": 13132,
                "addr:teryt:sym_ul": 585868,
                "contact:phone": "+48 539789123",
                "contact:email": "kontakt@przedszkolerazdwatrzy.pl",
                "contact:website": "http:\/\/www.przedszkolerazdwatrzy.pl",
                "ref:regon": "362327143",
                "operator": "Pawe\u0142 Olewi\u0144ski",
                "operator:type": "private",
                "amenity": "kindergarten"
            }
        },
        {
            "id": 32085,
            "type": "Feature",
            "geometry": {
                "type": "Point",
                "coordinates": [
                    16.74157,
                    52.33375
                ]
            },
            "properties": {
                "isced:level": "1;2",
                "ref:rspo": 32085,
                "official_name": "Szko\u0142a Podstawowa im. Arkadego Fiedlera w Chom\u0119cicach",
                "name": "Szko\u0142a Podstawowa",
                "addr:country": "PL",
                "addr:postcode": "62-052",
                "addr:city": "Chom\u0119cice",
                "addr:street": "ul. Pozna\u0144ska",
                "addr:housenumber": "112",
                "addr:teryt:simc": 17394,
                "addr:teryt:sym_ul": 585839,
                "contact:phone": "+48 618107641",
                "contact:email": "sekretariat@spchomecice.pl",
                "ref:regon": "001228120",
                "ref:vatin": "PL7771790908",
                "operator": "Gmina Komorniki",
                "operator:type": "government",
                "amenity": "school"
            }
        },
        {
            "id": 129189,
            "type": "Feature",
            "geometry": {
                "type": "Point",
                "coordinates": [
                    16.83232,
                    52.33464
                ]
            },
            "properties": {
                "ref:rspo": 129189,
                "official_name": "Centrum Szkoleniowe Trigger Krzysztof Stefaniak",
                "name": "Centrum Szkoleniowe Trigger Krzysztof Stefaniak",
                "addr:country": "PL",
                "addr:postcode": "62-052",
                "addr:city": "Komorniki",
                "addr:street": "ul. Ognikowa",
                "addr:housenumber": "12",
                "addr:teryt:simc": 35473,
                "addr:teryt:sym_ul": 585868,
                "contact:phone": "+48 693574232",
                "contact:email": "szkola-masazu@home.pl",
                "ref:regon": "362504220",
                "operator": "Krzysztof Stefaniak",
                "operator:type": "private",
                "fixme": "w zale\u017cno\u015bci od przedmiotu dzia\u0142alno\u015bci (np. amenity=training + training=*, amenity=dancing_school, amenity=language_school, amenity=music_school)"
            }
        },
        {
            "id": 123796,
            "type": "Feature",
            "geometry": {
                "type": "Point",
                "coordinates": [
                    16.80346,
                    52.3372699
                ]
            },
            "properties": {
                "ref:rspo": 123796,
                "official_name": "Z Innej Bajki",
                "name": "Z Innej Bajki",
                "addr:country": "PL",
                "addr:postcode": "62-052",
                "addr:city": "Komorniki",
                "addr:street": "ul. Pocztowa",
                "addr:housenumber": "33",
                "addr:teryt:simc": 16579,
                "addr:teryt:sym_ul": 585868,
                "contact:email": "kontakt@zinnejbajki.com.pl",
                "contact:website": "http:\/\/www.zinnejbajki.com.pl",
                "ref:regon": "302787934",
                "ref:vatin": "PL7321325287",
                "operator": "Ewa Pu\u0144ko",
                "operator:type": "private",
                "amenity": "kindergarten"
            }
        },
        {
            "id": 131507,
            "type": "Feature",
            "geometry": {
                "type": "Point",
                "coordinates": [
                    16.81188,
                    52.33769
                ]
            },
            "properties": {
                "ref:rspo": 131507,
                "official_name": "Przedszkole Niepubliczne Kulka",
                "name": "Przedszkole Niepubliczne Kulka",
                "addr:country": "PL",
                "addr:postcode": "62-051",
                "addr:city": "Wiry",
                "addr:street": "ul. Pozna\u0144ska",
                "addr:housenumber": "43",
                "addr:teryt:simc": 17394,
                "addr:teryt:sym_ul": 585957,
                "contact:phone": "+48 575667513",
                "contact:email": "wiry@przedszkolekulka.pl",
                "ref:regon": "365205446",
                "ref:vatin": "PL7791989518",
                "operator": "Ewa Olewi\u0144ska",
                "operator:type": "private",
                "amenity": "kindergarten"
            }
        },
        {
            "id": 275416,
            "type": "Feature",
            "geometry": {
                "type": "Point",
                "coordinates": [
                    16.81056,
                    52.33776
                ]
            },
            "properties": {
                "ref:rspo": 275416,
                "official_name": "Przedszkole Publiczne Nr 1 Z Oddzia\u0142ami Integracyjnymi I Oddzia\u0142ami Specjalnymi \"Szk\u00f3\u0142ka Ma\u0142ego Dziecka\" w Komornikach",
                "name": "Przedszkole Publiczne Nr 1 Z Oddzia\u0142ami Integracyjnymi I Oddzia\u0142ami Specjalnymi \"Szk\u00f3\u0142ka Ma\u0142ego Dziecka\" w Komornikach",
                "addr:country": "PL",
                "addr:postcode": "62-052",
                "addr:city": "Komorniki",
                "addr:street": "ul. Staszica",
                "addr:housenumber": "18",
                "addr:teryt:simc": 21065,
                "addr:teryt:sym_ul": 585868,
                "contact:email": "publiczneprzedszkole.smd@gmail.com",
                "contact:website": "http:\/\/www.szkolkamalegodziecka.eu",
                "ref:regon": "386917280",
                "operator": "Jolanta Bunk",
                "operator:type": "private",
                "amenity": "kindergarten"
            }
        },
        {
            "id": 133863,
            "type": "Feature",
            "geometry": {
                "type": "Point",
                "coordinates": [
                    16.8031,
                    52.338
                ]
            },
            "properties": {
                "isced:level": "1;2",
                "ref:rspo": 133863,
                "official_name": "Szko\u0142a Podstawowa Nr 2 im. Edwarda Hr. Raczy\u0144skiego w Komornikach",
                "name": "Szko\u0142a Podstawowa Nr 2",
                "addr:country": "PL",
                "addr:postcode": "62-052",
                "addr:city": "Komorniki",
                "addr:street": "ul. Pocztowa",
                "addr:housenumber": "30",
                "addr:teryt:simc": 16579,
                "addr:teryt:sym_ul": 585868,
                "contact:phone": "+48 618107726",
                "contact:email": "sekretariat@sp2k.pl",
                "contact:website": "http:\/\/www.sp2k.pl",
                "ref:regon": "367702999",
                "operator": "Gmina Komorniki",
                "operator:type": "government",
                "amenity": "school"
            }
        },
        {
            "id": 123793,
            "type": "Feature",
            "geometry": {
                "type": "Point",
                "coordinates": [
                    16.83023,
                    52.33814
                ]
            },
            "properties": {
                "ref:rspo": 123793,
                "official_name": "Punkt Przedszkolny Balonik",
                "name": "Punkt Przedszkolny Balonik",
                "addr:country": "PL",
                "addr:postcode": "62-052",
                "addr:city": "Komorniki",
                "addr:street": "ul. \u017babikowska",
                "addr:housenumber": "21",
                "addr:teryt:simc": 26375,
                "addr:teryt:sym_ul": 585868,
                "contact:website": "http:\/\/wwww.balonik.com.pl",
                "ref:regon": "302787874",
                "ref:vatin": "PL7822271473",
                "operator": "Centrum Edukacji Dziecka Balonik Karolina Ciesielska",
                "operator:type": "consortium",
                "amenity": "kindergarten"
            }
        },
        {
            "id": 62432,
            "type": "Feature",
            "geometry": {
                "type": "Point",
                "coordinates": [
                    16.81074,
                    52.33846
                ]
            },
            "properties": {
                "isced:level": "1;2",
                "ref:rspo": 62432,
                "official_name": "Szko\u0142a Podstawowa Nr 1 im. Janusza Korczaka w Komornikach",
                "name": "Szko\u0142a Podstawowa Nr 1",
                "addr:country": "PL",
                "addr:postcode": "62-052",
                "addr:city": "Komorniki",
                "addr:street": "ul. Staszica",
                "addr:housenumber": "25",
                "addr:teryt:simc": 21065,
                "addr:teryt:sym_ul": 585868,
                "contact:phone": "+48 618107669",
                "contact:email": "sp-komorniki@wp.pl",
                "ref:regon": "000657533",
                "ref:vatin": "PL7771790877",
                "operator": "Gmina Komorniki",
                "operator:type": "government",
                "amenity": "school"
            }
        },
        {
            "id": 29559,
            "type": "Feature",
            "geometry": {
                "type": "Point",
                "coordinates": [
                    16.81051,
                    52.33998
                ]
            },
            "properties": {
                "ref:rspo": 29559,
                "official_name": "Przedszkole Kr\u00f3la Maciusia I w Komornikach",
                "name": "Przedszkole Kr\u00f3la Maciusia I w Komornikach",
                "addr:country": "PL",
                "addr:postcode": "62-052",
                "addr:city": "Komorniki",
                "addr:street": "ul. Korczaka",
                "addr:housenumber": "5",
                "addr:teryt:simc": 9325,
                "addr:teryt:sym_ul": 585868,
                "contact:phone": "+48 618107760",
                "contact:email": "przedszkole.komorniki@gmail.com",
                "contact:website": "http:\/\/www.przedszkolekomorniki.pl",
                "ref:regon": "631576786",
                "ref:vatin": "PL7771793485",
                "operator": "Gmina Komorniki",
                "operator:type": "government",
                "amenity": "kindergarten"
            }
        },
        {
            "id": 123797,
            "type": "Feature",
            "geometry": {
                "type": "Point",
                "coordinates": [
                    16.8176,
                    52.34079
                ]
            },
            "properties": {
                "ref:rspo": 123797,
                "official_name": "Przedszkole Angloj\u0119zyczne Kraina Talent\u00f3w",
                "name": "Przedszkole Angloj\u0119zyczne Kraina Talent\u00f3w",
                "addr:country": "PL",
                "addr:postcode": "62-052",
                "addr:city": "Komorniki",
                "addr:street": "ul. Pozna\u0144ska",
                "addr:housenumber": "89",
                "addr:teryt:simc": 17394,
                "addr:teryt:sym_ul": 585868,
                "contact:phone": "+48 505133981",
                "contact:email": "krainatalentow89@gmail.com",
                "contact:website": "http:\/\/www.krainatalentow.pl",
                "ref:regon": "302790971",
                "ref:vatin": "PL7773010659",
                "operator": "El\u017cbieta Matyjaszczyk",
                "operator:type": "private",
                "amenity": "kindergarten"
            }
        },
        {
            "id": 118988,
            "type": "Feature",
            "geometry": {
                "type": "Point",
                "coordinates": [
                    16.7963999,
                    52.3422399
                ]
            },
            "properties": {
                "ref:rspo": 118988,
                "official_name": "Przedszkole Publiczne Zielone G\u0105ski",
                "name": "Przedszkole Publiczne Zielone G\u0105ski",
                "addr:country": "PL",
                "addr:postcode": "62-052",
                "addr:city": "Komorniki",
                "addr:street": "ul. Ignacego D. Kaczmarka",
                "addr:housenumber": "16",
                "addr:teryt:simc": 38970,
                "addr:teryt:sym_ul": 585868,
                "contact:phone": "+48 789183155",
                "contact:email": "zielone.gaski@gmail.com",
                "contact:website": "http:\/\/www.zielonegaski.pl",
                "ref:regon": "302507751",
                "operator": "Remigiusz Stein",
                "operator:type": "private",
                "amenity": "kindergarten"
            }
        },
        {
            "id": 123805,
            "type": "Feature",
            "geometry": {
                "type": "Point",
                "coordinates": [
                    16.76823,
                    52.34607
                ]
            },
            "properties": {
                "ref:rspo": 123805,
                "official_name": "Przedszkole Publiczne Zielone \u017babki w Komornikach",
                "name": "Przedszkole Publiczne Zielone \u017babki w Komornikach",
                "addr:country": "PL",
                "addr:postcode": "62-052",
                "addr:city": "Komorniki",
                "addr:street": "ul. Stawna",
                "addr:housenumber": "17",
                "addr:teryt:simc": 21099,
                "addr:teryt:sym_ul": 585868,
                "contact:phone": "+48 618107440",
                "contact:email": "przedszkole_stawna@onet.pl",
                "contact:website": "http:\/\/zielone-zabki.pl",
                "ref:regon": "302829182",
                "ref:vatin": "PL7773214847",
                "operator": "Remigiusz Stein",
                "operator:type": "private",
                "amenity": "kindergarten"
            }
        },
        {
            "id": 104500,
            "type": "Feature",
            "geometry": {
                "type": "Point",
                "coordinates": [
                    16.77387,
                    52.3477
                ]
            },
            "properties": {
                "ref:rspo": 104500,
                "official_name": "Przedszkole Artystyczne Picasso",
                "name": "Przedszkole Artystyczne Picasso",
                "addr:country": "PL",
                "addr:postcode": "62-052",
                "addr:city": "G\u0142uchowo",
                "addr:street": "ul. Pogodna",
                "addr:housenumber": "18",
                "addr:teryt:simc": 16900,
                "addr:teryt:sym_ul": 585851,
                "contact:email": "komorniki@przedszkolaartystyczne.pl",
                "contact:website": "http:\/\/www.przedszkoleartystyczne.pl",
                "ref:regon": "302297064",
                "operator": "Marcin Przybylski",
                "operator:type": "private",
                "amenity": "kindergarten"
            }
        },
        {
            "id": 268747,
            "type": "Feature",
            "geometry": {
                "type": "Point",
                "coordinates": [
                    16.8171631,
                    52.3628221
                ]
            },
            "properties": {
                "ref:rspo": 268747,
                "official_name": "Przedszkole Publiczne Naszych Dzieci Z Oddzia\u0142ami Integracyjnymi w Plewiskach",
                "name": "Przedszkole Publiczne Naszych Dzieci Z Oddzia\u0142ami Integracyjnymi w Plewiskach",
                "addr:country": "PL",
                "addr:postcode": "62-064",
                "addr:city": "Plewiska",
                "addr:street": "ul. Czarna Droga",
                "addr:housenumber": "45",
                "addr:teryt:simc": 3268,
                "addr:teryt:sym_ul": 585897,
                "contact:phone": "+48 601293532",
                "contact:email": "plewiskaprzedszkole@gmail.com",
                "contact:website": "http:\/\/www.przedszkolenaszychdzieci.pl",
                "ref:regon": "381241027",
                "operator": "Esrp Sp\u00f3\u0142ka Z Ograniczon\u0105 Odpowiedzialno\u015bci\u0105",
                "operator:type": "private",
                "amenity": "kindergarten"
            }
        },
        {
            "id": 82419,
            "type": "Feature",
            "geometry": {
                "type": "Point",
                "coordinates": [
                    16.80806,
                    52.36284
                ]
            },
            "properties": {
                "isced:level": "1;2",
                "ref:rspo": 82419,
                "official_name": "Szko\u0142a Podstawowa Nr 1 im. Tytusa I Jana Dzia\u0142y\u0144skich w Plewiskach",
                "name": "Szko\u0142a Podstawowa Nr 1",
                "addr:country": "PL",
                "addr:postcode": "62-064",
                "addr:city": "Plewiska",
                "addr:street": "ul. Szkolna",
                "addr:housenumber": "64",
                "addr:teryt:simc": 21970,
                "addr:teryt:sym_ul": 585897,
                "contact:phone": "+48 618677537",
                "contact:email": "sp_plewiska@wp.pl",
                "contact:website": "http:\/\/spplewiska.pl",
                "ref:regon": "001228136",
                "ref:vatin": "PL7772499210",
                "operator": "Gmina Komorniki",
                "operator:type": "government",
                "amenity": "school"
            }
        },
        {
            "id": 268738,
            "type": "Feature",
            "geometry": {
                "type": "Point",
                "coordinates": [
                    16.80538,
                    52.36354
                ]
            },
            "properties": {
                "ref:rspo": 268738,
                "official_name": "Publiczne Przedszkole Ekoludki",
                "name": "Publiczne Przedszkole Ekoludki",
                "addr:country": "PL",
                "addr:postcode": "62-064",
                "addr:city": "Plewiska",
                "addr:street": "ul. Grunwaldzka",
                "addr:housenumber": "638",
                "addr:teryt:simc": 6260,
                "addr:teryt:sym_ul": 585897,
                "contact:email": "biuro@przedszkole-ekoludki.pl",
                "ref:regon": "381247254",
                "operator": "Krzysztof Bia\u0142ek",
                "operator:type": "private",
                "amenity": "kindergarten"
            }
        },
        {
            "id": 268028,
            "type": "Feature",
            "geometry": {
                "type": "Point",
                "coordinates": [
                    16.8249,
                    52.36534
                ]
            },
            "properties": {
                "ref:rspo": 268028,
                "official_name": "Publiczne Przedszkole T\u0119czowe Kredki w Plewiskach",
                "name": "Publiczne Przedszkole T\u0119czowe Kredki w Plewiskach",
                "addr:country": "PL",
                "addr:postcode": "62-064",
                "addr:city": "Plewiska",
                "addr:street": "ul. Fabianowska",
                "addr:housenumber": "100",
                "addr:teryt:simc": 4858,
                "addr:teryt:sym_ul": 585897,
                "contact:email": "przedszkole@teczowekredki.pl",
                "contact:website": "http:\/\/www.teczowekredki.pl",
                "ref:regon": "380872560",
                "ref:vatin": "PL7821265513",
                "operator": "Karolina Pieterwas",
                "operator:type": "private",
                "amenity": "kindergarten"
            }
        },
        {
            "id": 9291,
            "type": "Feature",
            "geometry": {
                "type": "Point",
                "coordinates": [
                    16.81166,
                    52.36774
                ]
            },
            "properties": {
                "ref:rspo": 9291,
                "official_name": "Publiczne Przedszkole Ma\u0142e Talenty",
                "name": "Publiczne Przedszkole Ma\u0142e Talenty",
                "addr:country": "PL",
                "addr:postcode": "62-064",
                "addr:city": "Plewiska",
                "addr:street": "ul. Grunwaldzka",
                "addr:housenumber": "562",
                "addr:teryt:simc": 6260,
                "addr:teryt:sym_ul": 585897,
                "contact:phone": "+48 508562000",
                "contact:email": "plewiska@maletalenty.pl",
                "contact:website": "http:\/\/www.maletalenty.pl",
                "ref:regon": "302203488",
                "ref:vatin": "PL7773226046",
                "operator": "Dane Do Uzupe\u0142nienia",
                "operator:type": "private",
                "amenity": "kindergarten"
            }
        },
        {
            "id": 123792,
            "type": "Feature",
            "geometry": {
                "type": "Point",
                "coordinates": [
                    16.8274899,
                    52.368034
                ]
            },
            "properties": {
                "ref:rspo": 123792,
                "official_name": "Przedszkole Niepubliczne \u017babulinki",
                "name": "Przedszkole Niepubliczne \u017babulinki",
                "addr:country": "PL",
                "addr:postcode": "62-064",
                "addr:city": "Plewiska",
                "addr:street": "ul. Po\u0142udniowa",
                "addr:housenumber": "81",
                "addr:teryt:simc": 17070,
                "addr:teryt:sym_ul": 585897,
                "contact:phone": "+48 663916587",
                "contact:email": "zabulinki@zabulinki.pl",
                "contact:website": "http:\/\/www.zabulinki.pl",
                "ref:regon": "302786981",
                "ref:vatin": "PL7773061510",
                "operator": "Katarzyna Reinholz",
                "operator:type": "private",
                "amenity": "kindergarten"
            }
        },
        {
            "id": 267835,
            "type": "Feature",
            "geometry": {
                "type": "Point",
                "coordinates": [
                    16.81229,
                    52.36873
                ]
            },
            "properties": {
                "ref:rspo": 267835,
                "official_name": "Music Laboratory",
                "name": "Music Laboratory",
                "addr:country": "PL",
                "addr:postcode": "62-064",
                "addr:city": "Plewiska",
                "addr:street": "ul. Grunwaldzka",
                "addr:housenumber": "515C",
                "addr:door": "23",
                "addr:teryt:simc": 6260,
                "addr:teryt:sym_ul": 585897,
                "contact:email": "info@musiclaboratory.pl",
                "ref:regon": "380715285",
                "operator": "Music Laboratory Sp\u00f3\u0142ka Z Ograniczon\u0105 Odpowiedzialno\u015bci\u0105",
                "operator:type": "private",
                "fixme": "w zale\u017cno\u015bci od przedmiotu dzia\u0142alno\u015bci (np. amenity=training + training=*, amenity=dancing_school, amenity=language_school, amenity=music_school)"
            }
        },
        {
            "id": 16584,
            "type": "Feature",
            "geometry": {
                "type": "Point",
                "coordinates": [
                    16.82543,
                    52.36901
                ]
            },
            "properties": {
                "ref:rspo": 16584,
                "official_name": "Niepublicznye Przedszkole Szk\u00f3\u0142ka Ma\u0142ego Dziecka Z Oddzia\u0142ami Integracyjnymi I Oddzia\u0142ami Specjalnymi",
                "name": "Niepublicznye Przedszkole Szk\u00f3\u0142ka Ma\u0142ego Dziecka Z Oddzia\u0142ami Integracyjnymi I Oddzia\u0142ami Specjalnymi",
                "addr:country": "PL",
                "addr:postcode": "62-064",
                "addr:city": "Plewiska",
                "addr:street": "ul. Po\u0142udniowa",
                "addr:housenumber": "60",
                "addr:teryt:simc": 17070,
                "addr:teryt:sym_ul": 585897,
                "contact:phone": "+48 509445939",
                "contact:email": "jbunk@wp.pl",
                "contact:website": "http:\/\/www.szkolkamalegodziecka.eu",
                "ref:regon": "302217250",
                "operator": "Jolanta Bunk",
                "operator:type": "private",
                "amenity": "kindergarten"
            }
        },
        {
            "id": 268741,
            "type": "Feature",
            "geometry": {
                "type": "Point",
                "coordinates": [
                    16.82358,
                    52.3699
                ]
            },
            "properties": {
                "ref:rspo": 268741,
                "official_name": "Przedszkole Stumilowy Las w Plewiskach",
                "name": "Przedszkole Stumilowy Las w Plewiskach",
                "addr:country": "PL",
                "addr:postcode": "62-064",
                "addr:city": "Plewiska",
                "addr:street": "ul. Po\u0142udniowa",
                "addr:housenumber": "48",
                "addr:teryt:simc": 17070,
                "addr:teryt:sym_ul": 585897,
                "contact:email": "przedszkole@stumilowy.com",
                "contact:website": "http:\/\/www.stumilowy.com",
                "ref:regon": "381246496",
                "operator": "Monika Garczarek",
                "operator:type": "private",
                "amenity": "kindergarten"
            }
        },
        {
            "id": 82390,
            "type": "Feature",
            "geometry": {
                "type": "Point",
                "coordinates": [
                    16.80697,
                    52.3699299
                ]
            },
            "properties": {
                "ref:rspo": 82390,
                "official_name": "Przedszkole Samorz\u0105dowe Zielony Zak\u0105tek w Plewiskach",
                "name": "Przedszkole Samorz\u0105dowe Zielony Zak\u0105tek w Plewiskach",
                "addr:country": "PL",
                "addr:postcode": "62-064",
                "addr:city": "Plewiska",
                "addr:street": "ul. Zielarska",
                "addr:housenumber": "2",
                "addr:teryt:simc": 26051,
                "addr:teryt:sym_ul": 585897,
                "contact:phone": "+48 618906982",
                "contact:email": "przedszkole.plewiska@op.pl",
                "ref:regon": "300325135",
                "ref:vatin": "PL7772915619",
                "operator": "Gmina Komorniki",
                "operator:type": "government",
                "amenity": "kindergarten"
            }
        },
        {
            "id": 271984,
            "type": "Feature",
            "geometry": {
                "type": "Point",
                "coordinates": [
                    16.81522,
                    52.37077
                ]
            },
            "properties": {
                "ref:rspo": 271984,
                "official_name": "Publiczne Przedszkole Cztery Pory Roku",
                "name": "Publiczne Przedszkole Cztery Pory Roku",
                "addr:country": "PL",
                "addr:postcode": "62-064",
                "addr:city": "Plewiska",
                "addr:street": "ul. Grunwaldzka",
                "addr:housenumber": "493",
                "addr:teryt:simc": 6260,
                "addr:teryt:sym_ul": 585897,
                "contact:phone": "+48 618638106",
                "contact:email": "biuro@czteryporyroku.edu.pl",
                "contact:website": "http:\/\/www.czteryporyroku.edu.pl",
                "ref:regon": "383853792",
                "operator": "Justyna Konieczna",
                "operator:type": "private",
                "amenity": "kindergarten"
            }
        },
        {
            "id": 130884,
            "type": "Feature",
            "geometry": {
                "type": "Point",
                "coordinates": [
                    16.80913,
                    52.37257
                ]
            },
            "properties": {
                "isced:level": "1;2",
                "ref:rspo": 130884,
                "official_name": "Szko\u0142a Podstawowa Nr 2 im. Marii Sk\u0142odowskiej - Curie w Plewiskach",
                "name": "Szko\u0142a Podstawowa Nr 2",
                "addr:country": "PL",
                "addr:postcode": "62-064",
                "addr:city": "Plewiska",
                "addr:street": "ul. prof. Wac\u0142awa Stra\u017cewicza",
                "addr:housenumber": "1",
                "addr:teryt:simc": 39264,
                "addr:teryt:sym_ul": 585897,
                "contact:phone": "+48 618317450",
                "contact:email": "sekretariat@sp2plewiska.edu.pl",
                "contact:website": "http:\/\/www.sp2plewiska.edu.pl",
                "ref:regon": "364652864",
                "operator": "Gmina Komorniki",
                "operator:type": "government",
                "amenity": "school"
            }
        },
        {
            "id": 128197,
            "type": "Feature",
            "geometry": {
                "type": "Point",
                "coordinates": [
                    16.8276979,
                    52.3738829
                ]
            },
            "properties": {
                "ref:rspo": 128197,
                "official_name": "Publiczne Przedszkole Niebieski Balonik",
                "name": "Publiczne Przedszkole Niebieski Balonik",
                "addr:country": "PL",
                "addr:postcode": "62-064",
                "addr:city": "Plewiska",
                "addr:street": "ul. Pasterska",
                "addr:housenumber": "36",
                "addr:teryt:simc": 15776,
                "addr:teryt:sym_ul": 585897,
                "contact:phone": "+48 790841200",
                "contact:email": "plewiska@niebieskibalonik.pl",
                "contact:website": "http:\/\/www.niebieskibalonik.pl",
                "ref:regon": "362168041",
                "operator": "Karolina Pieterwas",
                "operator:type": "private",
                "amenity": "kindergarten"
            }
        }
    ]
}