{
    "type": "FeatureCollection",
    "features": [
        {
            "id": 30728,
            "type": "Feature",
            "geometry": {
                "type": "Point",
                "coordinates": [
                    16.63365,
                    52.21277
                ]
            },
            "properties": {
                "ref:rspo": 30728,
                "official_name": "Zesp\u00f3\u0142 Szkolno - Przedszkolny w Modrzu - Przedszkole",
                "name": "Zesp\u00f3\u0142 Szkolno - Przedszkolny w Modrzu - Przedszkole",
                "addr:country": "PL",
                "addr:postcode": "62-060",
                "addr:city": "Modrze",
                "addr:street": "Tadeusza Ko\u015bciuszki",
                "addr:housenumber": "36",
                "addr:teryt:simc": 595039,
                "addr:teryt:sym_ul": 9582,
                "contact:phone": "+48 618195875",
                "contact:email": "zsp.modrze@steszew.pl",
                "contact:website": "http:\/\/www.szkola-modrze.pl",
                "ref:regon": "634503931",
                "operator": "Gmina St\u0119szew",
                "operator:type": "government",
                "amenity": "kindergarten",
                "note": "Parent RSPO: 20893"
            }
        },
        {
            "id": 20893,
            "type": "Feature",
            "geometry": {
                "type": "Point",
                "coordinates": [
                    16.63233,
                    52.21467
                ]
            },
            "properties": {
                "ref:rspo": 20893,
                "official_name": "Zesp\u00f3\u0142 Szkolno - Przedszkolny w Modrzu",
                "name": "Zesp\u00f3\u0142 Szkolno - Przedszkolny w Modrzu",
                "addr:country": "PL",
                "addr:postcode": "62-060",
                "addr:city": "Modrze",
                "addr:street": "Tadeusza Ko\u015bciuszki",
                "addr:housenumber": "14",
                "addr:teryt:simc": 595039,
                "addr:teryt:sym_ul": 9582,
                "contact:phone": "+48 618195772",
                "contact:email": "zsp.modrze@steszew.pl",
                "contact:website": "http:\/\/www.szkola-modrze.pl",
                "ref:regon": "001225356",
                "ref:vatin": "PL7772742194",
                "operator": "Gmina St\u0119szew",
                "operator:type": "government",
                "landuse": "education",
                "fixme": "amenity=school, amenity=college albo landuse=education w zale\u017cno\u015bci od tego, jakie plac\u00f3wki wchodz\u0105 w sk\u0142ad zespo\u0142u. Sprawd\u017a, kiedy stosowa\u0107 amenity=* a kiedy landuse=education.",
                "note": "Children RSPO: 30660;30728"
            }
        },
        {
            "id": 30660,
            "type": "Feature",
            "geometry": {
                "type": "Point",
                "coordinates": [
                    16.63233,
                    52.214639999999996
                ]
            },
            "properties": {
                "isced:level": "1;2",
                "ref:rspo": 30660,
                "official_name": "Zesp\u00f3\u0142 Szkolno - Przedszkolny w Modrzu - Szko\u0142a Podstawowa",
                "name": "Zesp\u00f3\u0142 Szkolno - Przedszkolny w Modrzu - Szko\u0142a Podstawowa",
                "addr:country": "PL",
                "addr:postcode": "62-060",
                "addr:city": "Modrze",
                "addr:street": "Tadeusza Ko\u015bciuszki",
                "addr:housenumber": "14",
                "addr:teryt:simc": 595039,
                "addr:teryt:sym_ul": 9582,
                "contact:phone": "+48 618195772",
                "contact:email": "zsp.modrze@steszew.pl",
                "contact:website": "http:\/\/www.szkola-modrze.pl",
                "ref:regon": "634503919",
                "operator": "Gmina St\u0119szew",
                "operator:type": "government",
                "amenity": "school",
                "note": "Parent RSPO: 20893"
            }
        },
        {
            "id": 4384,
            "type": "Feature",
            "geometry": {
                "type": "Point",
                "coordinates": [
                    16.62995,
                    52.21629
                ]
            },
            "properties": {
                "isced:level": "1;2",
                "ref:rspo": 4384,
                "official_name": "Szko\u0142a Podstawowa w St\u0119szewie",
                "name": "Szko\u0142a Podstawowa w St\u0119szewie",
                "addr:country": "PL",
                "addr:postcode": "62-060",
                "addr:city": "St\u0119szew",
                "addr:street": "Pozna\u0144ska",
                "addr:housenumber": "25",
                "addr:teryt:simc": 971494,
                "addr:teryt:sym_ul": 17394,
                "contact:phone": "+48 618134192",
                "contact:email": "sp.steszew@steszew.pl",
                "contact:website": "https:\/\/sp.steszew.pl",
                "ref:regon": "000265046",
                "ref:vatin": "PL7772742159",
                "operator": "Gmina St\u0119szew",
                "operator:type": "government",
                "amenity": "school",
                "note": "Children RSPO: 104906"
            }
        },
        {
            "id": 276264,
            "type": "Feature",
            "geometry": {
                "type": "Point",
                "coordinates": [
                    16.72691,
                    52.23498
                ]
            },
            "properties": {
                "ref:rspo": 276264,
                "official_name": "Przedszkole Niepubliczne \"Biotula\"",
                "name": "Przedszkole Niepubliczne \"Biotula\"",
                "addr:country": "PL",
                "addr:postcode": "62-060",
                "addr:city": "St\u0119szew",
                "addr:street": "Mosi\u0144ska",
                "addr:housenumber": "12",
                "addr:teryt:simc": 971494,
                "addr:teryt:sym_ul": 13325,
                "contact:email": "biotula@onet.pl",
                "ref:regon": "387063934",
                "ref:vatin": "PL9720810246",
                "operator": "Anna Czarnecka-Dybizba\u0144ska",
                "operator:type": "private",
                "amenity": "kindergarten"
            }
        },
        {
            "id": 130827,
            "type": "Feature",
            "geometry": {
                "type": "Point",
                "coordinates": [
                    16.72722,
                    52.23501
                ]
            },
            "properties": {
                "ref:rspo": 130827,
                "official_name": "Przedszkole Niepubliczne \"Chatka Puchatka\"",
                "name": "Przedszkole Niepubliczne \"Chatka Puchatka\"",
                "addr:country": "PL",
                "addr:postcode": "62-060",
                "addr:city": "St\u0119szew",
                "addr:street": "Mosi\u0144ska",
                "addr:housenumber": "14",
                "addr:teryt:simc": 971494,
                "addr:teryt:sym_ul": 13325,
                "contact:phone": "+48 577025848",
                "contact:email": "steszew.chatkapuchatka@gmail.com",
                "ref:regon": "364559870",
                "ref:vatin": "PL9720988501",
                "operator": "Marta Le\u015bniewska",
                "operator:type": "private",
                "amenity": "kindergarten"
            }
        },
        {
            "id": 21143,
            "type": "Feature",
            "geometry": {
                "type": "Point",
                "coordinates": [
                    16.6149999,
                    52.2472
                ]
            },
            "properties": {
                "ref:rspo": 21143,
                "official_name": "Zesp\u00f3\u0142 Szkolno - Przedszkolny w Strykowie",
                "name": "Zesp\u00f3\u0142 Szkolno - Przedszkolny w Strykowie",
                "addr:country": "PL",
                "addr:postcode": "62-060",
                "addr:city": "Strykowo",
                "addr:street": "Bukowska",
                "addr:housenumber": "2",
                "addr:teryt:simc": 595128,
                "addr:teryt:sym_ul": 2396,
                "contact:phone": "+48 618134052",
                "contact:email": "zsp.strykowo@steszew.pl",
                "contact:website": "https:\/\/zspstrykowo.edu.pl",
                "ref:regon": "301888171",
                "ref:vatin": "PL7772742283",
                "operator": "Gmina St\u0119szew",
                "operator:type": "government",
                "landuse": "education",
                "fixme": "amenity=school, amenity=college albo landuse=education w zale\u017cno\u015bci od tego, jakie plac\u00f3wki wchodz\u0105 w sk\u0142ad zespo\u0142u. Sprawd\u017a, kiedy stosowa\u0107 amenity=* a kiedy landuse=education.",
                "note": "Children RSPO: 34624;34625"
            }
        },
        {
            "id": 34624,
            "type": "Feature",
            "geometry": {
                "type": "Point",
                "coordinates": [
                    16.6149999,
                    52.24717
                ]
            },
            "properties": {
                "isced:level": "1;2",
                "ref:rspo": 34624,
                "official_name": "Zesp\u00f3\u0142 Szkolno - Przedszkolny w Strykowie - Szko\u0142a Podstawowa im. Janusza Korczaka",
                "name": "Zesp\u00f3\u0142 Szkolno - Przedszkolny w Strykowie - Szko\u0142a Podstawowa",
                "addr:country": "PL",
                "addr:postcode": "62-060",
                "addr:city": "Strykowo",
                "addr:street": "Bukowska",
                "addr:housenumber": "2",
                "addr:teryt:simc": 595128,
                "addr:teryt:sym_ul": 2396,
                "contact:phone": "+48 618134052",
                "contact:email": "zsp.strykowo@steszew.pl",
                "contact:website": "https:\/\/zspstrykowo.edu.pl",
                "ref:regon": "001225570",
                "ref:vatin": "PL7772742283",
                "operator": "Gmina St\u0119szew",
                "operator:type": "government",
                "amenity": "school",
                "note": "Parent RSPO: 21143"
            }
        },
        {
            "id": 34625,
            "type": "Feature",
            "geometry": {
                "type": "Point",
                "coordinates": [
                    16.6149999,
                    52.24714
                ]
            },
            "properties": {
                "ref:rspo": 34625,
                "official_name": "Zesp\u00f3\u0142 Szkolno - Przedszkolny w Strykowie - Przedszkole w Strykowie",
                "name": "Zesp\u00f3\u0142 Szkolno - Przedszkolny w Strykowie - Przedszkole w Strykowie",
                "addr:country": "PL",
                "addr:postcode": "62-060",
                "addr:city": "Strykowo",
                "addr:street": "Bukowska",
                "addr:housenumber": "2",
                "addr:teryt:simc": 595128,
                "addr:teryt:sym_ul": 2396,
                "contact:phone": "+48 618134052",
                "contact:email": "zsp.strykowo@steszew.pl",
                "contact:website": "https:\/\/zspstrykowo.edu.pl",
                "ref:regon": "301888188",
                "ref:vatin": "PL7772742283",
                "operator": "Gmina St\u0119szew",
                "operator:type": "government",
                "amenity": "kindergarten",
                "note": "Parent RSPO: 21143"
            }
        },
        {
            "id": 104906,
            "type": "Feature",
            "geometry": {
                "type": "Point",
                "coordinates": [
                    16.76689,
                    52.2733599
                ]
            },
            "properties": {
                "isced:level": "1;2",
                "ref:rspo": 104906,
                "official_name": "Szko\u0142a Filialna w Trzebawiu",
                "name": "Szko\u0142a Filialna w Trzebawiu",
                "addr:country": "PL",
                "addr:postcode": "62-060",
                "addr:city": "Trzebaw",
                "addr:street": "Mosi\u0144ska",
                "addr:housenumber": "1",
                "addr:teryt:simc": 595170,
                "addr:teryt:sym_ul": 13325,
                "contact:phone": "+48 618135209",
                "contact:email": "sp.steszew@steszew.pl",
                "contact:website": "https:\/\/sp.steszew.pl",
                "ref:regon": "265046000",
                "ref:vatin": "PL7772742159",
                "operator": "Gmina St\u0119szew",
                "operator:type": "government",
                "amenity": "school",
                "note": "Parent RSPO: 4384"
            }
        },
        {
            "id": 34626,
            "type": "Feature",
            "geometry": {
                "type": "Point",
                "coordinates": [
                    16.70195,
                    52.2827399
                ]
            },
            "properties": {
                "isced:level": "1;2",
                "ref:rspo": 34626,
                "official_name": "Szko\u0142a Podstawowa Specjalna w St\u0119szewie",
                "name": "Szko\u0142a Podstawowa Specjalna w St\u0119szewie",
                "addr:country": "PL",
                "addr:postcode": "62-060",
                "addr:city": "St\u0119szew",
                "addr:street": "Wojska Polskiego",
                "addr:housenumber": "18",
                "addr:teryt:simc": 971494,
                "addr:teryt:sym_ul": 24628,
                "contact:phone": "+48 618134096",
                "contact:email": "sp.specjalna@steszew.pl",
                "contact:website": "http:\/\/www.zsssteszew.szkolna.net",
                "ref:regon": "634393419",
                "ref:vatin": "PL7772742165",
                "operator": "Gmina St\u0119szew",
                "operator:type": "government",
                "amenity": "school"
            }
        },
        {
            "id": 30915,
            "type": "Feature",
            "geometry": {
                "type": "Point",
                "coordinates": [
                    16.70795,
                    52.2838
                ]
            },
            "properties": {
                "ref:rspo": 30915,
                "official_name": "Przedszkole w St\u0119szewie",
                "name": "Przedszkole w St\u0119szewie",
                "addr:country": "PL",
                "addr:postcode": "62-060",
                "addr:city": "St\u0119szew",
                "addr:street": "Janusza Korczaka",
                "addr:housenumber": "2",
                "addr:teryt:simc": 971494,
                "addr:teryt:sym_ul": 9329,
                "contact:phone": "+48 618134345",
                "contact:email": "przedszkole@steszew.pl",
                "contact:website": "https:\/\/przedszkole-steszew.pl",
                "ref:regon": "630032759",
                "ref:vatin": "PL7772742277",
                "operator": "Gmina St\u0119szew",
                "operator:type": "government",
                "amenity": "kindergarten"
            }
        },
        {
            "id": 121387,
            "type": "Feature",
            "geometry": {
                "type": "Point",
                "coordinates": [
                    16.70795,
                    52.28377
                ]
            },
            "properties": {
                "ref:rspo": 121387,
                "official_name": "Filia w St\u0119szewie",
                "name": "Filia w St\u0119szewie",
                "addr:country": "PL",
                "addr:postcode": "62-060",
                "addr:city": "St\u0119szew",
                "addr:street": "Janusza Korczaka",
                "addr:housenumber": "2",
                "addr:teryt:simc": 971494,
                "addr:teryt:sym_ul": 9329,
                "contact:phone": "+48 618134832",
                "contact:email": "ppplubon@powiat.poznan.pl",
                "ref:regon": "639694960",
                "operator": "Powiat Pozna\u0144ski",
                "operator:type": "government",
                "healthcare": "counselling",
                "counselling_type": "education",
                "fixme": "w zale\u017cno\u015bci od przedmiotu dzia\u0142alno\u015bci (np. healthcare=counselling + counselling_type=education albo healthcare=psychotherapist)",
                "note": "Parent RSPO: 71557"
            }
        },
        {
            "id": 20864,
            "type": "Feature",
            "geometry": {
                "type": "Point",
                "coordinates": [
                    16.5921997,
                    52.3152176
                ]
            },
            "properties": {
                "ref:rspo": 20864,
                "official_name": "Zesp\u00f3\u0142 Szkolno - Przedszkolny w Jeziorkach",
                "name": "Zesp\u00f3\u0142 Szkolno - Przedszkolny w Jeziorkach",
                "addr:country": "PL",
                "addr:postcode": "62-060",
                "addr:city": "Jeziorki",
                "addr:street": "Pocztowa",
                "addr:housenumber": "12",
                "addr:teryt:simc": 595000,
                "addr:teryt:sym_ul": 16579,
                "contact:phone": "+48 618196087",
                "contact:email": "zsp.jeziorki@steszew.pl",
                "contact:website": "http:\/\/szkolajeziorki.edupage.org",
                "ref:regon": "634537373",
                "ref:vatin": "PL7772746996",
                "operator": "Gmina St\u0119szew",
                "operator:type": "government",
                "landuse": "education",
                "fixme": "amenity=school, amenity=college albo landuse=education w zale\u017cno\u015bci od tego, jakie plac\u00f3wki wchodz\u0105 w sk\u0142ad zespo\u0142u. Sprawd\u017a, kiedy stosowa\u0107 amenity=* a kiedy landuse=education.",
                "note": "Children RSPO: 34711;34758"
            }
        },
        {
            "id": 34711,
            "type": "Feature",
            "geometry": {
                "type": "Point",
                "coordinates": [
                    16.5921997,
                    52.315187599999994
                ]
            },
            "properties": {
                "isced:level": "1;2",
                "ref:rspo": 34711,
                "official_name": "Zesp\u00f3\u0142 Szkolno - Przedszkolny w Jeziorkach - Szko\u0142a Podstawowa",
                "name": "Zesp\u00f3\u0142 Szkolno - Przedszkolny w Jeziorkach - Szko\u0142a Podstawowa",
                "addr:country": "PL",
                "addr:postcode": "62-060",
                "addr:city": "Jeziorki",
                "addr:street": "Pocztowa",
                "addr:housenumber": "12",
                "addr:teryt:simc": 595000,
                "addr:teryt:sym_ul": 16579,
                "contact:email": "zsp.jeziorki@steszew.pl",
                "contact:website": "https:\/\/szkolajeziorki.edupage.org",
                "ref:regon": "001225340",
                "ref:vatin": "PL7772746996",
                "operator": "Gmina St\u0119szew",
                "operator:type": "government",
                "amenity": "school",
                "note": "Parent RSPO: 20864"
            }
        },
        {
            "id": 34758,
            "type": "Feature",
            "geometry": {
                "type": "Point",
                "coordinates": [
                    16.5921997,
                    52.3151576
                ]
            },
            "properties": {
                "ref:rspo": 34758,
                "official_name": "Zesp\u00f3\u0142 Szkolno - Przedszkolny w Jeziorkach - Przedszkole",
                "name": "Zesp\u00f3\u0142 Szkolno - Przedszkolny w Jeziorkach - Przedszkole",
                "addr:country": "PL",
                "addr:postcode": "62-060",
                "addr:city": "Jeziorki",
                "addr:street": "Pocztowa",
                "addr:housenumber": "12",
                "addr:teryt:simc": 595000,
                "addr:teryt:sym_ul": 16579,
                "contact:phone": "+48 505764297",
                "contact:email": "zsp.jeziorki@steszew.pl",
                "contact:website": "https:\/\/szkolajeziorki.edupage.org",
                "ref:regon": "630032742",
                "ref:vatin": "PL7772746996",
                "operator": "Gmina St\u0119szew",
                "operator:type": "government",
                "amenity": "kindergarten",
                "note": "Parent RSPO: 20864"
            }
        },
        {
            "id": 277114,
            "type": "Feature",
            "geometry": {
                "type": "Point",
                "coordinates": [
                    17.07006,
                    52.40118
                ]
            },
            "properties": {
                "ref:rspo": 277114,
                "official_name": "Zesp\u00f3\u0142 Wychowania Przedszkolnego \"Le\u015bne Skrzaty\"",
                "name": "Zesp\u00f3\u0142 Wychowania Przedszkolnego \"Le\u015bne Skrzaty\"",
                "addr:country": "PL",
                "addr:postcode": "62-060",
                "addr:city": "Trzebaw",
                "addr:street": "Spokojna",
                "addr:housenumber": "12a",
                "addr:teryt:simc": 595170,
                "addr:teryt:sym_ul": 20677,
                "contact:phone": "+48 506566227",
                "ref:regon": "388194526",
                "ref:vatin": "PL7773280784",
                "operator": "Fundacja Podarujmoc",
                "operator:type": "ngo",
                "amenity": "kindergarten"
            }
        }
    ]
}