{
    "type": "FeatureCollection",
    "features": [
        {
            "id": 11437,
            "type": "Feature",
            "geometry": {
                "type": "Point",
                "coordinates": [
                    17.18559,
                    52.45924
                ]
            },
            "properties": {
                "ref:rspo": 11437,
                "official_name": "Niepubliczne Przedszkole \"Krasnal\"",
                "name": "Niepubliczne Przedszkole \"Krasnal\"",
                "addr:postcode": "62-007",
                "addr:city": "Biskupice",
                "addr:street": "Wincentego Witosa",
                "addr:housenumber": "4a",
                "addr:teryt:simc": 592897,
                "addr:teryt:sym_ul": 24459,
                "phone": "+48 506003170",
                "email": "biuro@krasnalbiskupice.pl",
                "website": "http:\/\/www.krasnalbiskupice.pl",
                "ref:regon": "302207121",
                "ref:vatin": "PL7772612310",
                "operator": "Alicja Patalas",
                "operator:type": "private",
                "amenity": "kindergarten"
            }
        },
        {
            "id": 127552,
            "type": "Feature",
            "geometry": {
                "type": "Point",
                "coordinates": [
                    17.18559,
                    52.45921
                ]
            },
            "properties": {
                "ref:rspo": 127552,
                "official_name": "Publiczne Przedszkole \"Krasnal\" w Biskupicach",
                "name": "Publiczne Przedszkole \"Krasnal\" w Biskupicach",
                "addr:postcode": "62-007",
                "addr:city": "Biskupice",
                "addr:street": "Wincentego Witosa",
                "addr:housenumber": "4a",
                "addr:teryt:simc": 592897,
                "addr:teryt:sym_ul": 24459,
                "phone": "+48 506003170",
                "email": "biuro@krasnalbiskupice.pl",
                "website": "http:\/\/www.krasnalbiskupice.pl",
                "ref:regon": "361669137",
                "ref:vatin": "PL7772612310",
                "operator": "Alicja Patalas",
                "operator:type": "private",
                "amenity": "kindergarten"
            }
        },
        {
            "id": 22224,
            "type": "Feature",
            "geometry": {
                "type": "Point",
                "coordinates": [
                    17.17292,
                    52.45988
                ]
            },
            "properties": {
                "ref:rspo": 22224,
                "official_name": "Zesp\u00f3\u0142 Szko\u0142a Podstawowa I Przedszkole im. Boles\u0142awa Chrobrego w Biskupicach",
                "name": "Zesp\u00f3\u0142 Szko\u0142a Podstawowa I Przedszkole",
                "addr:postcode": "62-007",
                "addr:city": "Biskupice",
                "addr:street": "Szkolna",
                "addr:housenumber": "2",
                "addr:teryt:simc": 592897,
                "addr:teryt:sym_ul": 21970,
                "phone": "+48 619152111",
                "email": "sp.biskupice@wp.pl",
                "website": "http:\/\/www.biskup.vot.pl",
                "ref:regon": "300700840",
                "ref:vatin": "PL7841759477",
                "operator": "Gmina Pobiedziska",
                "operator:type": "government",
                "landuse": "education",
                "fixme": "amenity=school, amenity=college albo landuse=education w zale\u017cno\u015bci od tego, jakie plac\u00f3wki wchodz\u0105 w sk\u0142ad zespo\u0142u. Sprawd\u017a, kiedy stosowa\u0107 amenity=* a kiedy landuse=education.",
                "note": "Children RSPO: 59655;59657"
            }
        },
        {
            "id": 59655,
            "type": "Feature",
            "geometry": {
                "type": "Point",
                "coordinates": [
                    17.17292,
                    52.459849999999996
                ]
            },
            "properties": {
                "ref:rspo": 59655,
                "official_name": "Przedszkole w Zespole Szko\u0142a Podstawowa I Przedszkole im. Boles\u0142awa Chrobrego w Biskupicach",
                "name": "Przedszkole w Zespole Szko\u0142a Podstawowa I Przedszkole",
                "addr:postcode": "62-007",
                "addr:city": "Biskupice",
                "addr:street": "Szkolna",
                "addr:housenumber": "2",
                "addr:teryt:simc": 592897,
                "addr:teryt:sym_ul": 21970,
                "phone": "+48 618152111",
                "email": "sp.biskupice@wp.pl",
                "website": "http:\/\/www.szkola-biskupice.edu.pl",
                "ref:regon": "300700863",
                "operator": "Gmina Pobiedziska",
                "operator:type": "government",
                "amenity": "kindergarten",
                "note": "Parent RSPO: 22224"
            }
        },
        {
            "id": 59657,
            "type": "Feature",
            "geometry": {
                "type": "Point",
                "coordinates": [
                    17.17292,
                    52.45982
                ]
            },
            "properties": {
                "isced:level": "1;2",
                "ref:rspo": 59657,
                "official_name": "Szko\u0142a Podstawowa w Biskupicach",
                "name": "Szko\u0142a Podstawowa w Biskupicach",
                "addr:postcode": "62-007",
                "addr:city": "Biskupice",
                "addr:street": "Szkolna",
                "addr:housenumber": "2",
                "addr:teryt:simc": 592897,
                "addr:teryt:sym_ul": 21970,
                "phone": "+48 618152111",
                "email": "sp.biskupice@wp.pl",
                "website": "http:\/\/www.biskup.vot.pl",
                "ref:regon": "001225422",
                "operator": "Gmina Pobiedziska",
                "operator:type": "government",
                "amenity": "school",
                "note": "Parent RSPO: 22224"
            }
        },
        {
            "id": 8658,
            "type": "Feature",
            "geometry": {
                "type": "Point",
                "coordinates": [
                    17.1710299,
                    52.46581
                ]
            },
            "properties": {
                "ref:rspo": 8658,
                "official_name": "Przedszkole Publiczne \"Pod \u015awierkiem\"",
                "name": "Przedszkole Publiczne \"Pod \u015awierkiem\"",
                "addr:postcode": "62-007",
                "addr:city": "Biskupice",
                "addr:street": "Polna",
                "addr:housenumber": "10",
                "addr:teryt:simc": 592897,
                "addr:teryt:sym_ul": 17011,
                "phone": "+48 618155135",
                "email": "biuro@podswierkiem.pl",
                "website": "http:\/\/www.podswierkiem.pl",
                "ref:regon": "302202810",
                "ref:vatin": "PL7831665102",
                "operator": "Katarzyna Wr\u00f3bel",
                "operator:type": "private",
                "amenity": "kindergarten"
            }
        },
        {
            "id": 22229,
            "type": "Feature",
            "geometry": {
                "type": "Point",
                "coordinates": [
                    17.16989,
                    52.46991
                ]
            },
            "properties": {
                "ref:rspo": 22229,
                "official_name": "Przedszkole Niepubliczne \"Junior\"",
                "name": "Przedszkole Niepubliczne \"Junior\"",
                "addr:postcode": "62-007",
                "addr:city": "Bugaj",
                "addr:street": "Sosnowa",
                "addr:housenumber": "6",
                "addr:teryt:simc": 592928,
                "addr:teryt:sym_ul": 20598,
                "phone": "+48 607593049",
                "email": "info@przedszkole-junior.pl",
                "website": "http:\/\/www.przedszkole-junior.pl",
                "ref:regon": "302231674",
                "ref:vatin": "PL7642058499",
                "operator": "Joanna Mazur",
                "operator:type": "private",
                "amenity": "kindergarten"
            }
        },
        {
            "id": 59650,
            "type": "Feature",
            "geometry": {
                "type": "Point",
                "coordinates": [
                    17.17171,
                    52.47082
                ]
            },
            "properties": {
                "isced:level": "1;2",
                "ref:rspo": 59650,
                "official_name": "Szko\u0142a Podstawowa im. Kr\u00f3lowej Jadwigi w Jerzykowie",
                "name": "Szko\u0142a Podstawowa",
                "addr:postcode": "62-007",
                "addr:city": "Jerzykowo",
                "addr:street": "Spokojna",
                "addr:housenumber": "3",
                "addr:teryt:simc": 593023,
                "addr:teryt:sym_ul": 20677,
                "phone": "+48 618152410",
                "email": "dyrektor@spjerzykowo.pl",
                "website": "http:\/\/www.zsjerzykowo.internetdsl.pl",
                "ref:regon": "001225439",
                "ref:vatin": "PL7841760210",
                "operator": "Gmina Pobiedziska",
                "operator:type": "government",
                "amenity": "school"
            }
        },
        {
            "id": 22227,
            "type": "Feature",
            "geometry": {
                "type": "Point",
                "coordinates": [
                    17.23806,
                    52.47187
                ]
            },
            "properties": {
                "ref:rspo": 22227,
                "official_name": "Zesp\u00f3\u0142 Szk\u00f3\u0142 im. Konstytucji 3 Maja w Pobiedziskach Letnisku",
                "name": "Zesp\u00f3\u0142 Szk\u00f3\u0142",
                "addr:postcode": "62-010",
                "addr:city": "Pobiedziska",
                "addr:street": "Gajowa",
                "addr:housenumber": "22",
                "addr:teryt:simc": 971287,
                "addr:teryt:sym_ul": 5265,
                "phone": "+48 618153445",
                "email": "letnisko_zs@wp.pl",
                "website": "http:\/\/www.letnisko.superszkolna.pl",
                "ref:regon": "630723736",
                "ref:vatin": "PL7841761273",
                "operator": "Gmina Pobiedziska",
                "operator:type": "government",
                "landuse": "education",
                "fixme": "amenity=school, amenity=college albo landuse=education w zale\u017cno\u015bci od tego, jakie plac\u00f3wki wchodz\u0105 w sk\u0142ad zespo\u0142u. Sprawd\u017a, kiedy stosowa\u0107 amenity=* a kiedy landuse=education.",
                "note": "Children RSPO: 110419;110422"
            }
        },
        {
            "id": 110419,
            "type": "Feature",
            "geometry": {
                "type": "Point",
                "coordinates": [
                    17.23806,
                    52.47184
                ]
            },
            "properties": {
                "isced:level": "1;2",
                "ref:rspo": 110419,
                "official_name": "Szko\u0142a Podstawowa w Zespole im. Konstytucji 3 Maja w Pobiedziskach Letnisku",
                "name": "Szko\u0142a Podstawowa w Zespole",
                "addr:postcode": "62-010",
                "addr:city": "Pobiedziska",
                "addr:street": "Gajowa",
                "addr:housenumber": "22",
                "addr:teryt:simc": 971287,
                "addr:teryt:sym_ul": 5265,
                "phone": "+48 618153445",
                "email": "letnisko_zs@wp.pl",
                "website": "http:\/\/letnisko.scholaris.pl",
                "ref:regon": "630723742",
                "operator": "Gmina Pobiedziska",
                "operator:type": "government",
                "amenity": "school",
                "note": "Parent RSPO: 22227"
            }
        },
        {
            "id": 110422,
            "type": "Feature",
            "geometry": {
                "type": "Point",
                "coordinates": [
                    17.23806,
                    52.471810000000005
                ]
            },
            "properties": {
                "isced:level": "3",
                "ref:rspo": 110422,
                "official_name": "Liceum Og\u00f3lnokszta\u0142c\u0105ce w Zespole im. Konstytucji 3 Maja w Pobiedziskach Letnisku",
                "name": "Liceum Og\u00f3lnokszta\u0142c\u0105ce w Zespole",
                "addr:postcode": "62-010",
                "addr:city": "Pobiedziska",
                "addr:street": "Gajowa",
                "addr:housenumber": "22",
                "addr:teryt:simc": 971287,
                "addr:teryt:sym_ul": 5265,
                "phone": "+48 618153445",
                "email": "letnisko_zs@wp.pl",
                "website": "http:\/\/letnisko.scholaris.pl",
                "ref:regon": "634528635",
                "operator": "Gmina Pobiedziska",
                "operator:type": "government",
                "amenity": "school",
                "note": "Parent RSPO: 22227"
            }
        },
        {
            "id": 270087,
            "type": "Feature",
            "geometry": {
                "type": "Point",
                "coordinates": [
                    17.27918,
                    52.47324
                ]
            },
            "properties": {
                "ref:rspo": 270087,
                "official_name": "Przedszkole Nr 6 \"Pastelowy \u015awiat\" w Pobiedziskach",
                "name": "Przedszkole Nr 6 \"Pastelowy \u015awiat\" w Pobiedziskach",
                "addr:postcode": "62-010",
                "addr:city": "Pobiedziska",
                "addr:street": "Genera\u0142a Tadeusza Kutrzeby",
                "addr:housenumber": "6B",
                "addr:teryt:simc": 971287,
                "addr:teryt:sym_ul": 10507,
                "phone": "+48 575505406",
                "email": "biuro@pastelowyswiat.pl",
                "website": "http:\/\/www.pastelowyswiat.pl",
                "ref:regon": "382013475",
                "operator": "Publiczne Przedszkole \"Pastelowy \u015awiat\" Sp\u00f3\u0142ka Z Ograniczon\u0105 Odpowiedzialno\u015bci\u0105",
                "operator:type": "private",
                "amenity": "kindergarten"
            }
        },
        {
            "id": 22222,
            "type": "Feature",
            "geometry": {
                "type": "Point",
                "coordinates": [
                    17.2836,
                    52.47405
                ]
            },
            "properties": {
                "ref:rspo": 22222,
                "official_name": "Przedszkole \"Weso\u0142e Skrzaty\" w Pobiedziskach",
                "name": "Przedszkole \"Weso\u0142e Skrzaty\" w Pobiedziskach",
                "addr:postcode": "62-010",
                "addr:city": "Pobiedziska",
                "addr:street": "R\u00f3\u017cana",
                "addr:housenumber": "4",
                "addr:teryt:simc": 971287,
                "addr:teryt:sym_ul": 19000,
                "phone": "+48 618177962",
                "email": "przedszkolaki@wp.pl",
                "website": "http:\/\/www.przedszkolepobiedziska.pl",
                "ref:regon": "000939912",
                "ref:vatin": "PL7841872541",
                "operator": "Gmina Pobiedziska",
                "operator:type": "government",
                "amenity": "kindergarten"
            }
        },
        {
            "id": 59645,
            "type": "Feature",
            "geometry": {
                "type": "Point",
                "coordinates": [
                    17.28847,
                    52.47497
                ]
            },
            "properties": {
                "isced:level": "1;2",
                "ref:rspo": 59645,
                "official_name": "Szko\u0142a Podstawowa im. Kazimierza Odnowiciela w Pobiedziskach",
                "name": "Szko\u0142a Podstawowa",
                "addr:postcode": "62-010",
                "addr:city": "Pobiedziska",
                "addr:street": "Kostrzy\u0144ska",
                "addr:housenumber": "23",
                "addr:teryt:simc": 971287,
                "addr:teryt:sym_ul": 9495,
                "phone": "+48 618177142",
                "email": "sekretariat@pobiedziska.szkola.pl",
                "website": "http:\/\/www.pobiedziska.szkola.pl",
                "ref:regon": "000264130",
                "ref:vatin": "PL7841760842",
                "operator": "Gmina Pobiedziska",
                "operator:type": "government",
                "amenity": "school"
            }
        },
        {
            "id": 72671,
            "type": "Feature",
            "geometry": {
                "type": "Point",
                "coordinates": [
                    17.28847,
                    52.47494
                ]
            },
            "properties": {
                "isced:level": "3",
                "ref:rspo": 72671,
                "official_name": "Liceum Og\u00f3lnokszta\u0142c\u0105ce dla Doros\u0142ych Lider w Pobiedziskach",
                "name": "Liceum Og\u00f3lnokszta\u0142c\u0105ce dla Doros\u0142ych Lider w Pobiedziskach",
                "addr:postcode": "62-010",
                "addr:city": "Pobiedziska",
                "addr:street": "Kostrzy\u0144ska",
                "addr:housenumber": "23",
                "addr:teryt:simc": 971287,
                "addr:teryt:sym_ul": 9495,
                "phone": "+48 618177142",
                "email": "sekretariat@pobiedziska.szkola.pl",
                "ref:regon": "302260196",
                "operator": "Ma\u0142gorzata Szl\u0105zak",
                "operator:type": "private",
                "amenity": "school"
            }
        },
        {
            "id": 121383,
            "type": "Feature",
            "geometry": {
                "type": "Point",
                "coordinates": [
                    17.2846699,
                    52.47856
                ]
            },
            "properties": {
                "ref:rspo": 121383,
                "official_name": "Filia w Pobiedziskach",
                "name": "Filia w Pobiedziskach",
                "addr:postcode": "62-010",
                "addr:city": "Pobiedziska",
                "addr:street": "Kazimierza Odnowiciela",
                "addr:housenumber": "16",
                "addr:teryt:simc": 971287,
                "addr:teryt:sym_ul": 8260,
                "phone": "+48 618154574",
                "email": "sekretariat.pobiedziska@pppswarzedz.pl",
                "ref:regon": "639695622",
                "operator": "Powiat Pozna\u0144ski",
                "operator:type": "government",
                "healthcare": "counselling",
                "counselling_type": "education",
                "fixme": "w zale\u017cno\u015bci od przedmiotu dzia\u0142alno\u015bci (np. healthcare=counselling + counselling_type=education albo healthcare=psychotherapist)",
                "note": "Parent RSPO: 71556"
            }
        },
        {
            "id": 8696,
            "type": "Feature",
            "geometry": {
                "type": "Point",
                "coordinates": [
                    17.28249,
                    52.47893
                ]
            },
            "properties": {
                "isced:level": "1;2",
                "ref:rspo": 8696,
                "official_name": "Niepubliczna Szko\u0142a Podstawowa Montessori",
                "name": "Niepubliczna Szko\u0142a Podstawowa Montessori",
                "addr:postcode": "62-010",
                "addr:city": "Pobiedziska",
                "addr:street": "Tysi\u0105clecia",
                "addr:housenumber": "2",
                "addr:teryt:simc": 971287,
                "addr:teryt:sym_ul": 23270,
                "phone": "+48 618177079",
                "email": "michal.napierala@mterm.pl",
                "website": "http:\/\/www.pobiedziska.edu.pl",
                "ref:regon": "302202833",
                "ref:vatin": "PL7841189057",
                "operator": "Micha\u0142 Napiera\u0142a",
                "operator:type": "private",
                "amenity": "school"
            }
        },
        {
            "id": 22228,
            "type": "Feature",
            "geometry": {
                "type": "Point",
                "coordinates": [
                    17.28249,
                    52.478899999999996
                ]
            },
            "properties": {
                "ref:rspo": 22228,
                "official_name": "Przedszkole Montessori",
                "name": "Przedszkole Montessori",
                "addr:postcode": "62-010",
                "addr:city": "Pobiedziska",
                "addr:street": "Tysi\u0105clecia",
                "addr:housenumber": "2",
                "addr:teryt:simc": 971287,
                "addr:teryt:sym_ul": 23270,
                "phone": "+48 618152083",
                "email": "michal.napierala@mterm.pl",
                "website": "http:\/\/www.pobiedziska.edu.pl",
                "ref:regon": "302231645",
                "ref:vatin": "PL7841189057",
                "operator": "Micha\u0142 Napiera\u0142a",
                "operator:type": "private",
                "amenity": "kindergarten"
            }
        },
        {
            "id": 125368,
            "type": "Feature",
            "geometry": {
                "type": "Point",
                "coordinates": [
                    17.28249,
                    52.47887
                ]
            },
            "properties": {
                "ref:rspo": 125368,
                "official_name": "Przedszkole Publiczne \u015alimaczek",
                "name": "Przedszkole Publiczne \u015alimaczek",
                "addr:postcode": "62-010",
                "addr:city": "Pobiedziska",
                "addr:street": "Tysi\u0105clecia",
                "addr:housenumber": "2",
                "addr:teryt:simc": 971287,
                "addr:teryt:sym_ul": 23270,
                "phone": "+48 618152083",
                "email": "michal.napierala@mterm.pl",
                "website": "http:\/\/www.pobiedziska.edu.pl",
                "ref:regon": "302832540",
                "operator": "Micha\u0142 Napiera\u0142a",
                "operator:type": "private",
                "amenity": "kindergarten"
            }
        },
        {
            "id": 8657,
            "type": "Feature",
            "geometry": {
                "type": "Point",
                "coordinates": [
                    17.2768799,
                    52.50507
                ]
            },
            "properties": {
                "ref:rspo": 8657,
                "official_name": "Przedszkole \"Niezapominajka\" w Pomarzanowicach",
                "name": "Przedszkole \"Niezapominajka\" w Pomarzanowicach",
                "addr:postcode": "62-010",
                "addr:place": "Pomarzanowice",
                "addr:housenumber": "7a",
                "addr:teryt:simc": 593170,
                "phone": "+48 618153423",
                "email": "przedszkolepomarzanowice@wp.pl",
                "website": "http:\/\/www.przedszkolepomarzanowice.edupage.org",
                "ref:regon": "302202827",
                "ref:vatin": "PL7773226626",
                "operator": "Gmina Pobiedziska",
                "operator:type": "government",
                "amenity": "kindergarten"
            }
        },
        {
            "id": 59656,
            "type": "Feature",
            "geometry": {
                "type": "Point",
                "coordinates": [
                    17.21617,
                    52.50686
                ]
            },
            "properties": {
                "isced:level": "1;2",
                "ref:rspo": 59656,
                "official_name": "Szko\u0142a Podstawowa im. Maksymiliana Jackowskiego we Wronczynie",
                "name": "Szko\u0142a Podstawowa",
                "addr:postcode": "62-010",
                "addr:place": "Wronczyn",
                "addr:housenumber": "1a",
                "addr:teryt:simc": 593454,
                "phone": "+48 618177239",
                "email": "szkolawronczyn@wp.pl",
                "website": "http:\/\/www.zswronczyn.edupage.org",
                "ref:regon": "001225445",
                "ref:vatin": "PL7772453691",
                "operator": "Gmina Pobiedziska",
                "operator:type": "government",
                "amenity": "school"
            }
        },
        {
            "id": 34540,
            "type": "Feature",
            "geometry": {
                "type": "Point",
                "coordinates": [
                    17.3057,
                    52.5150999
                ]
            },
            "properties": {
                "isced:level": "1;2",
                "ref:rspo": 34540,
                "official_name": "Szko\u0142a Podstawowa im. Prof. J. Kostrzewskiego w W\u0119glewie",
                "name": "Szko\u0142a Podstawowa",
                "addr:postcode": "62-010",
                "addr:place": "W\u0119glewo",
                "addr:housenumber": "16",
                "addr:teryt:simc": 593394,
                "phone": "+48 618177046",
                "email": "szkolaweglewo@wp.pl",
                "website": "http:\/\/www.spweglewo.edupage.org",
                "ref:regon": "001225416",
                "ref:vatin": "PL7841760204",
                "operator": "Gmina Pobiedziska",
                "operator:type": "government",
                "amenity": "school"
            }
        }
    ]
}