{
    "type": "FeatureCollection",
    "features": [
        {
            "id": 4106,
            "type": "Feature",
            "geometry": {
                "type": "Point",
                "coordinates": [
                    16.98842,
                    52.44305
                ]
            },
            "properties": {
                "isced:level": "1;2",
                "ref:rspo": 4106,
                "official_name": "Szko\u0142a Podstawowa im. Gen. Stefana Roweckiego \"Grota\" w Kozieg\u0142owach",
                "name": "Szko\u0142a Podstawowa",
                "addr:postcode": "62-028",
                "addr:city": "Kozieg\u0142owy",
                "addr:street": "Pozna\u0144ska",
                "addr:housenumber": "17",
                "addr:city:simc": 582048,
                "addr:street:sym_ul": 17394,
                "phone": "+48 618127082",
                "email": "sp_rowecki@o2.pl",
                "website": "http:\/\/sprowecki.superszkolna.pl",
                "ref:regon": "004820119",
                "ref:vatin": "PL7772668339",
                "operator": "Gmina Czerwonak",
                "operator:type": "government",
                "amenity": "school"
            }
        },
        {
            "id": 121381,
            "type": "Feature",
            "geometry": {
                "type": "Point",
                "coordinates": [
                    16.9909,
                    52.4432199
                ]
            },
            "properties": {
                "ref:rspo": 121381,
                "official_name": "Filia w Czerwonaku",
                "name": "Filia w Czerwonaku",
                "addr:postcode": "62-028",
                "addr:city": "Kozieg\u0142owy",
                "addr:street": "Pozna\u0144ska",
                "addr:housenumber": "15 d",
                "addr:door": "83",
                "addr:city:simc": 582048,
                "addr:street:sym_ul": 17394,
                "phone": "+48 618121454",
                "email": "sekretariat.czerwonak@pppswarzedz.pl",
                "website": "http:\/\/www.poradnie.powiat.poznan.pl",
                "ref:regon": "639695622",
                "operator": "Powiat Pozna\u0144ski",
                "operator:type": "government",
                "healthcare": "counselling",
                "counselling_type": "education",
                "fixme": "w zale\u017cno\u015bci od przedmiotu dzia\u0142alno\u015bci (np. healthcare=counselling + counselling_type=education albo healthcare=psychotherapist)",
                "note": "Parent RSPO: 71556"
            }
        },
        {
            "id": 4102,
            "type": "Feature",
            "geometry": {
                "type": "Point",
                "coordinates": [
                    16.99542,
                    52.44564
                ]
            },
            "properties": {
                "isced:level": "1;2",
                "ref:rspo": 4102,
                "official_name": "Szko\u0142a Podstawowa im. J\u00f3zefa Wybickiego w Czerwonaku",
                "name": "Szko\u0142a Podstawowa",
                "addr:postcode": "62-004",
                "addr:city": "Czerwonak",
                "addr:street": "Rolna",
                "addr:housenumber": "8",
                "addr:city:simc": 581971,
                "addr:street:sym_ul": 18819,
                "phone": "+48 618120250",
                "email": "poczta@spczerwonak.pl",
                "website": "http:\/\/www.spczerwonak.pl",
                "ref:regon": "000655280",
                "ref:vatin": "PL7772668322",
                "operator": "Gmina Czerwonak",
                "operator:type": "government",
                "amenity": "school"
            }
        },
        {
            "id": 4123,
            "type": "Feature",
            "geometry": {
                "type": "Point",
                "coordinates": [
                    16.99317,
                    52.44643
                ]
            },
            "properties": {
                "ref:rspo": 4123,
                "official_name": "Gminne Przedszkole Nr 1 \"Bajkowe Ludki\" w Kozieg\u0142owach",
                "name": "Gminne Przedszkole Nr 1 \"Bajkowe Ludki\" w Kozieg\u0142owach",
                "addr:postcode": "62-028",
                "addr:city": "Kozieg\u0142owy",
                "addr:street": "Kana\u0142owa",
                "addr:housenumber": "7",
                "addr:city:simc": 582048,
                "addr:street:sym_ul": 7928,
                "phone": "+48 616416504",
                "email": "bajkowe.ludki@p1kozieglowy.pl",
                "website": "http:\/\/bajkoweludki.mawe.pl",
                "ref:regon": "632048948",
                "ref:vatin": "PL7772668374",
                "operator": "Gmina Czerwonak",
                "operator:type": "government",
                "amenity": "kindergarten"
            }
        },
        {
            "id": 271751,
            "type": "Feature",
            "geometry": {
                "type": "Point",
                "coordinates": [
                    16.99585,
                    52.44882
                ]
            },
            "properties": {
                "ref:rspo": 271751,
                "official_name": "Przedszkole Akademia Maluch\u00f3w",
                "name": "Przedszkole Akademia Maluch\u00f3w",
                "addr:postcode": "62-028",
                "addr:city": "Kozieg\u0142owy",
                "addr:street": "Osiedle Le\u015bne",
                "addr:housenumber": "16",
                "addr:city:simc": 582048,
                "addr:street:sym_ul": 10909,
                "phone": "+48 602657897",
                "email": "swasbn@wp.pl",
                "ref:regon": "383599106",
                "operator": "Edyta Stachowiak",
                "operator:type": "private",
                "amenity": "kindergarten"
            }
        },
        {
            "id": 4138,
            "type": "Feature",
            "geometry": {
                "type": "Point",
                "coordinates": [
                    16.99768,
                    52.4491299
                ]
            },
            "properties": {
                "ref:rspo": 4138,
                "official_name": "Przedszkole Niepubliczne \"Skrzat\" w Kozieg\u0142owach",
                "name": "Przedszkole Niepubliczne \"Skrzat\" w Kozieg\u0142owach",
                "addr:postcode": "62-028",
                "addr:city": "Kozieg\u0142owy",
                "addr:street": "Osiedle Le\u015bne",
                "addr:housenumber": "23",
                "addr:door": "L12",
                "addr:city:simc": 582048,
                "addr:street:sym_ul": 10909,
                "phone": "+48 604966972",
                "email": "skrzat@przedszkole-skrzat.eu",
                "website": "http:\/\/www.przedszkole-skrzat.eu",
                "ref:regon": "302199108",
                "ref:vatin": "PL6661474985",
                "operator": "Renata Wilusz",
                "operator:type": "private",
                "amenity": "kindergarten"
            }
        },
        {
            "id": 4132,
            "type": "Feature",
            "geometry": {
                "type": "Point",
                "coordinates": [
                    16.99881,
                    52.44929
                ]
            },
            "properties": {
                "ref:rspo": 4132,
                "official_name": "Gminne Przedszkole Nr 2 im. \"Krasnala Ha\u0142aba\u0142y\" w Kozieg\u0142owach",
                "name": "Gminne Przedszkole Nr 2",
                "addr:postcode": "62-028",
                "addr:city": "Kozieg\u0142owy",
                "addr:street": "Osiedle Le\u015bne",
                "addr:housenumber": "22",
                "addr:city:simc": 582048,
                "addr:street:sym_ul": 10909,
                "phone": "+48 616416793",
                "email": "przedszkole102@wp.pl",
                "website": "http:\/\/przedszkole2.mawe.pl",
                "ref:regon": "632048983",
                "ref:vatin": "PL7772668380",
                "operator": "Gmina Czerwonak",
                "operator:type": "government",
                "amenity": "kindergarten"
            }
        },
        {
            "id": 269666,
            "type": "Feature",
            "geometry": {
                "type": "Point",
                "coordinates": [
                    16.9936,
                    52.4579
                ]
            },
            "properties": {
                "ref:rspo": 269666,
                "official_name": "Przedszkole Rubi w Czerwonaku",
                "name": "Przedszkole Rubi w Czerwonaku",
                "addr:postcode": "62-004",
                "addr:city": "Czerwonak",
                "addr:street": "\u015awi\u0119tego Wojciecha",
                "addr:housenumber": "44",
                "addr:city:simc": 581971,
                "addr:street:sym_ul": 24581,
                "email": "rubi@operator.edu.pl",
                "website": "http:\/\/rubi-czerwonak.operator.edu.pl",
                "ref:regon": "381651469",
                "operator": "Og\u00f3lnopolski Operator O\u015bwiaty",
                "operator:type": "ngo",
                "amenity": "kindergarten"
            }
        },
        {
            "id": 4107,
            "type": "Feature",
            "geometry": {
                "type": "Point",
                "coordinates": [
                    17.02081,
                    52.46273
                ]
            },
            "properties": {
                "isced:level": "1;2",
                "ref:rspo": 4107,
                "official_name": "Szko\u0142a Podstawowa im. Augusta Cieszkowskiego w Kicinie",
                "name": "Szko\u0142a Podstawowa",
                "addr:postcode": "62-004",
                "addr:city": "Kicin",
                "addr:street": "Gwarna",
                "addr:housenumber": "1",
                "addr:city:simc": 582025,
                "addr:street:sym_ul": 6415,
                "phone": "+48 618127041",
                "email": "dartanian_darek@poczta.onet.pl",
                "website": "http:\/\/spkicin.edupage.org",
                "ref:regon": "001224983",
                "ref:vatin": "PL7772668345",
                "operator": "Gmina Czerwonak",
                "operator:type": "government",
                "amenity": "school"
            }
        },
        {
            "id": 4140,
            "type": "Feature",
            "geometry": {
                "type": "Point",
                "coordinates": [
                    17.03493,
                    52.4720299
                ]
            },
            "properties": {
                "ref:rspo": 4140,
                "official_name": "Niepubliczne Przedszkole Artystyczne im. \u015aw. Cecylii w Kicinie",
                "name": "Niepubliczne Przedszkole Artystyczne",
                "addr:postcode": "62-004",
                "addr:city": "Kicin",
                "addr:street": "Rolna",
                "addr:housenumber": "24",
                "addr:city:simc": 582025,
                "addr:street:sym_ul": 18819,
                "phone": "+48 182976756",
                "email": "kapiso@op.pl",
                "website": "http:\/\/www.cecylaki.pl",
                "ref:regon": "302190886",
                "ref:vatin": "PL7771997207",
                "operator": "Karolina Piotrowska-Sobczak",
                "operator:type": "private",
                "amenity": "kindergarten"
            }
        },
        {
            "id": 124285,
            "type": "Feature",
            "geometry": {
                "type": "Point",
                "coordinates": [
                    16.9794899,
                    52.47439
                ]
            },
            "properties": {
                "ref:rspo": 124285,
                "official_name": "Publiczne Przedszkole Ba\u0144ka Mydlana",
                "name": "Publiczne Przedszkole Ba\u0144ka Mydlana",
                "addr:postcode": "62-004",
                "addr:city": "Czerwonak",
                "addr:street": "Gdy\u0144ska",
                "addr:housenumber": "139",
                "addr:city:simc": 581971,
                "addr:street:sym_ul": 5441,
                "phone": "+48 606680141",
                "email": "biuro@bankamydlana.com.pl",
                "website": "http:\/\/bankamydlana.com.pl",
                "ref:regon": "302805342",
                "ref:vatin": "PL9720393305",
                "operator": "Anna Melewska",
                "operator:type": "private",
                "amenity": "kindergarten"
            }
        },
        {
            "id": 4114,
            "type": "Feature",
            "geometry": {
                "type": "Point",
                "coordinates": [
                    16.98443,
                    52.47846
                ]
            },
            "properties": {
                "ref:rspo": 4114,
                "official_name": "Gminne Przedszkole im. \"Dzieci Z Leszczynowej G\u00f3rki\" w Czerwonaku",
                "name": "Gminne Przedszkole",
                "addr:postcode": "62-004",
                "addr:city": "Czerwonak",
                "addr:street": "Plac Zielony",
                "addr:housenumber": "4",
                "addr:city:simc": 581971,
                "addr:street:sym_ul": 26103,
                "phone": "+48 618120021",
                "email": "leszczynowa@interia.pl",
                "website": "http:\/\/www.gpczerwonak.przedszkolna.net",
                "ref:regon": "632049008",
                "ref:vatin": "PL7772668368",
                "operator": "Gmina Czerwonak",
                "operator:type": "government",
                "amenity": "kindergarten"
            }
        },
        {
            "id": 263857,
            "type": "Feature",
            "geometry": {
                "type": "Point",
                "coordinates": [
                    16.9879,
                    52.49148
                ]
            },
            "properties": {
                "ref:rspo": 263857,
                "official_name": "Przedszkole Niepubliczne Educandi",
                "name": "Przedszkole Niepubliczne Educandi",
                "addr:postcode": "62-005",
                "addr:city": "Mi\u0119kowo",
                "addr:street": "Ogrodowa",
                "addr:housenumber": "36A",
                "addr:city:simc": 582060,
                "addr:street:sym_ul": 14834,
                "phone": "+48 793407333",
                "email": "kontakt@educandi.pl",
                "website": "http:\/\/www.educandi.pl",
                "ref:regon": "368230893",
                "operator": "El\u017cbieta Rosi\u0144ska",
                "operator:type": "private",
                "amenity": "kindergarten"
            }
        },
        {
            "id": 4139,
            "type": "Feature",
            "geometry": {
                "type": "Point",
                "coordinates": [
                    16.98363,
                    52.49702
                ]
            },
            "properties": {
                "ref:rspo": 4139,
                "official_name": "Niepubliczne Przedszkole \"Weso\u0142e Smyki\"",
                "name": "Niepubliczne Przedszkole \"Weso\u0142e Smyki\"",
                "addr:postcode": "62-005",
                "addr:city": "Mi\u0119kowo",
                "addr:street": "Ogrodowa",
                "addr:housenumber": "2",
                "addr:city:simc": 582060,
                "addr:street:sym_ul": 14834,
                "email": "wesolesmyki@interia.pl",
                "website": "http:\/\/smyki-czerwonak.pl",
                "ref:regon": "302187714",
                "ref:vatin": "PL7771002584",
                "operator": "Anna Czerniak",
                "operator:type": "private",
                "amenity": "kindergarten"
            }
        },
        {
            "id": 16789,
            "type": "Feature",
            "geometry": {
                "type": "Point",
                "coordinates": [
                    16.97578,
                    52.50853
                ]
            },
            "properties": {
                "ref:rspo": 16789,
                "official_name": "Przedszkole Niepubliczne Czarodziejski Zamek",
                "name": "Przedszkole Niepubliczne Czarodziejski Zamek",
                "addr:postcode": "62-005",
                "addr:city": "Owi\u0144ska",
                "addr:street": "Pozna\u0144ska",
                "addr:housenumber": "15",
                "addr:city:simc": 582083,
                "addr:street:sym_ul": 17394,
                "phone": "+48 788880330",
                "email": "owinska@przedszkole-zamek.pl",
                "website": "http:\/\/przedszkole-zamek.pl",
                "ref:regon": "302220400",
                "operator": "Fundacja Dzieci\u0119ce Marzenie",
                "operator:type": "ngo",
                "amenity": "kindergarten"
            }
        },
        {
            "id": 277764,
            "type": "Feature",
            "geometry": {
                "type": "Point",
                "coordinates": [
                    16.98345,
                    52.51191
                ]
            },
            "properties": {
                "ref:rspo": 277764,
                "official_name": "Zesp\u00f3\u0142 Szkolno-Przedszkolny w Owi\u0144skach",
                "name": "Zesp\u00f3\u0142 Szkolno-Przedszkolny w Owi\u0144skach",
                "addr:postcode": "62-005",
                "addr:city": "Owi\u0144ska",
                "addr:street": "Poprzeczna",
                "addr:housenumber": "10",
                "addr:city:simc": 582083,
                "addr:street:sym_ul": 17171,
                "phone": "+48 618126511",
                "email": "sekretariat@spowinska.edu.pl",
                "website": "http:\/\/www.spowinska.edu.pl",
                "ref:regon": "389453415",
                "operator": "Gmina Czerwonak",
                "operator:type": "government",
                "landuse": "education",
                "fixme": "amenity=school, amenity=college albo landuse=education w zale\u017cno\u015bci od tego, jakie plac\u00f3wki wchodz\u0105 w sk\u0142ad zespo\u0142u. Sprawd\u017a, kiedy stosowa\u0107 amenity=* a kiedy landuse=education.",
                "note": "Children RSPO: 4108;4110"
            }
        },
        {
            "id": 4108,
            "type": "Feature",
            "geometry": {
                "type": "Point",
                "coordinates": [
                    16.98345,
                    52.51188
                ]
            },
            "properties": {
                "isced:level": "1;2",
                "ref:rspo": 4108,
                "official_name": "Szko\u0142a Podstawowa im. J\u00f3zefa Wybickiego w Owi\u0144skach",
                "name": "Szko\u0142a Podstawowa",
                "addr:postcode": "62-005",
                "addr:city": "Owi\u0144ska",
                "addr:street": "Poprzeczna",
                "addr:housenumber": "10",
                "addr:city:simc": 582083,
                "addr:street:sym_ul": 17171,
                "phone": "+48 618126511",
                "email": "sekretariat@spowinska.edu.pl",
                "website": "http:\/\/spowinska.edupage.org",
                "ref:regon": "001224990",
                "ref:vatin": "PL7772668316",
                "operator": "Gmina Czerwonak",
                "operator:type": "government",
                "amenity": "school",
                "note": "Parent RSPO: 277764"
            }
        },
        {
            "id": 4110,
            "type": "Feature",
            "geometry": {
                "type": "Point",
                "coordinates": [
                    16.98313,
                    52.5128
                ]
            },
            "properties": {
                "ref:rspo": 4110,
                "official_name": "Gminne Przedszkole w Owi\u0144skach",
                "name": "Gminne Przedszkole w Owi\u0144skach",
                "addr:postcode": "62-005",
                "addr:city": "Owi\u0144ska",
                "addr:street": "Poprzeczna",
                "addr:housenumber": "5",
                "addr:city:simc": 582083,
                "addr:street:sym_ul": 17171,
                "phone": "+48 618126511",
                "email": "sekretariat@spowinska.edu.pl",
                "website": "http:\/\/spowinska.edu.pl",
                "ref:regon": "632048919",
                "ref:vatin": "PL7772668351",
                "operator": "Gmina Czerwonak",
                "operator:type": "government",
                "amenity": "kindergarten",
                "note": "Parent RSPO: 277764"
            }
        },
        {
            "id": 47780,
            "type": "Feature",
            "geometry": {
                "type": "Point",
                "coordinates": [
                    16.97369,
                    52.51376
                ]
            },
            "properties": {
                "ref:rspo": 47780,
                "official_name": "Specjalny O\u015brodek Szkolno-Wychowawczy dla Dzieci Niewidomych im. Syn\u00f3w Pu\u0142ku w Owi\u0144skach",
                "name": "Specjalny O\u015brodek Szkolno-Wychowawczy dla Dzieci Niewidomych",
                "addr:postcode": "62-005",
                "addr:city": "Owi\u0144ska",
                "addr:street": "Plac Przemys\u0142awa",
                "addr:housenumber": "9",
                "addr:city:simc": 582083,
                "addr:street:sym_ul": 17737,
                "phone": "+48 618120486",
                "email": "biuro@niewidomi.edu.pl",
                "website": "http:\/\/www.niewidomi.edu.pl",
                "ref:regon": "639787985",
                "ref:vatin": "PL7771790972",
                "operator": "Powiat Pozna\u0144ski",
                "operator:type": "government",
                "amenity": "school",
                "note": "Children RSPO: 79020;79145;79302;86790"
            }
        },
        {
            "id": 79020,
            "type": "Feature",
            "geometry": {
                "type": "Point",
                "coordinates": [
                    16.97369,
                    52.513729999999995
                ]
            },
            "properties": {
                "isced:level": "1;2",
                "ref:rspo": 79020,
                "official_name": "Szko\u0142a Podstawowa Specjalna Nr 2 w Owi\u0144skach",
                "name": "Szko\u0142a Podstawowa Specjalna Nr 2 w Owi\u0144skach",
                "addr:postcode": "62-005",
                "addr:city": "Owi\u0144ska",
                "addr:street": "Plac Przemys\u0142awa",
                "addr:housenumber": "9",
                "addr:city:simc": 582083,
                "addr:street:sym_ul": 17737,
                "phone": "+48 618126737",
                "email": "biuro@niewidomi.edu.pl",
                "ref:regon": "639788051",
                "operator": "Powiat Pozna\u0144ski",
                "operator:type": "government",
                "amenity": "school",
                "note": "Parent RSPO: 47780"
            }
        },
        {
            "id": 79145,
            "type": "Feature",
            "geometry": {
                "type": "Point",
                "coordinates": [
                    16.97369,
                    52.5137
                ]
            },
            "properties": {
                "isced:level": "3",
                "ref:rspo": 79145,
                "official_name": "Bran\u017cowa Szko\u0142a I Stopnia Specjalna w Owi\u0144skach",
                "name": "Bran\u017cowa Szko\u0142a I Stopnia Specjalna w Owi\u0144skach",
                "addr:postcode": "62-005",
                "addr:city": "Owi\u0144ska",
                "addr:street": "Plac Przemys\u0142awa",
                "addr:housenumber": "9",
                "addr:city:simc": 582083,
                "addr:street:sym_ul": 17737,
                "phone": "+48 618126737",
                "email": "biuro@niewidomi.edu.pl",
                "ref:regon": "639788022",
                "operator": "Powiat Pozna\u0144ski",
                "operator:type": "government",
                "amenity": "school",
                "note": "Parent RSPO: 47780"
            }
        },
        {
            "id": 79302,
            "type": "Feature",
            "geometry": {
                "type": "Point",
                "coordinates": [
                    16.97369,
                    52.51367
                ]
            },
            "properties": {
                "isced:level": "3",
                "ref:rspo": 79302,
                "official_name": "Liceum Og\u00f3lnokszta\u0142c\u0105ce w Owi\u0144skach",
                "name": "Liceum Og\u00f3lnokszta\u0142c\u0105ce w Owi\u0144skach",
                "addr:postcode": "62-005",
                "addr:city": "Owi\u0144ska",
                "addr:street": "Plac Przemys\u0142awa",
                "addr:housenumber": "9",
                "addr:city:simc": 582083,
                "addr:street:sym_ul": 17737,
                "phone": "+48 618126737",
                "email": "biuro@niewidomi.edu.pl",
                "ref:regon": "639788045",
                "operator": "Powiat Pozna\u0144ski",
                "operator:type": "government",
                "amenity": "school",
                "note": "Parent RSPO: 47780"
            }
        },
        {
            "id": 86790,
            "type": "Feature",
            "geometry": {
                "type": "Point",
                "coordinates": [
                    16.97369,
                    52.513639999999995
                ]
            },
            "properties": {
                "ref:rspo": 86790,
                "official_name": "Szko\u0142a Specjalna Przysposabiaj\u0105ca Do Pracy w Owi\u0144skach",
                "name": "Szko\u0142a Specjalna Przysposabiaj\u0105ca Do Pracy w Owi\u0144skach",
                "addr:postcode": "62-005",
                "addr:city": "Owi\u0144ska",
                "addr:street": "Plac Przemys\u0142awa",
                "addr:housenumber": "9",
                "addr:city:simc": 582083,
                "addr:street:sym_ul": 17737,
                "phone": "+48 618126737",
                "email": "biuro@niewidomi.edu.pl",
                "ref:regon": "300929821",
                "operator": "Powiat Pozna\u0144ski",
                "operator:type": "government",
                "amenity": "school",
                "note": "Parent RSPO: 47780"
            }
        },
        {
            "id": 11866,
            "type": "Feature",
            "geometry": {
                "type": "Point",
                "coordinates": [
                    16.97804,
                    52.5316
                ]
            },
            "properties": {
                "ref:rspo": 11866,
                "official_name": "Zesp\u00f3\u0142 Szk\u00f3\u0142 im. Gen. Dezyderego Ch\u0142apowskiego w Bolechowie",
                "name": "Zesp\u00f3\u0142 Szk\u00f3\u0142",
                "addr:postcode": "62-005",
                "addr:city": "Bolechowo-Osiedle",
                "addr:street": "Obornicka",
                "addr:housenumber": "1",
                "addr:city:simc": 581942,
                "addr:street:sym_ul": 14593,
                "phone": "+48 618126040",
                "email": "zsbolechowo@powiat.poznan.pl",
                "website": "http:\/\/www.zsbolechowo.edu.pl",
                "ref:regon": "632501684",
                "ref:vatin": "PL7771793462",
                "operator": "Powiat Pozna\u0144ski",
                "operator:type": "government",
                "landuse": "education",
                "fixme": "amenity=school, amenity=college albo landuse=education w zale\u017cno\u015bci od tego, jakie plac\u00f3wki wchodz\u0105 w sk\u0142ad zespo\u0142u. Sprawd\u017a, kiedy stosowa\u0107 amenity=* a kiedy landuse=education.",
                "note": "Children RSPO: 70691;70693;70695;70696;70697"
            }
        },
        {
            "id": 70691,
            "type": "Feature",
            "geometry": {
                "type": "Point",
                "coordinates": [
                    16.97804,
                    52.531569999999995
                ]
            },
            "properties": {
                "isced:level": "3",
                "ref:rspo": 70691,
                "official_name": "Liceum Og\u00f3lnokszta\u0142c\u0105ce w Bolechowie",
                "name": "Liceum Og\u00f3lnokszta\u0142c\u0105ce w Bolechowie",
                "addr:postcode": "62-005",
                "addr:city": "Bolechowo-Osiedle",
                "addr:street": "Obornicka",
                "addr:housenumber": "1",
                "addr:city:simc": 581942,
                "addr:street:sym_ul": 14593,
                "phone": "+48 618126040",
                "email": "zsbolechowo@powiat.poznan.pl",
                "website": "http:\/\/www.zsbolechowo.edu.pl",
                "ref:regon": "634503693",
                "operator": "Powiat Pozna\u0144ski",
                "operator:type": "government",
                "amenity": "school",
                "note": "Parent RSPO: 11866"
            }
        },
        {
            "id": 70696,
            "type": "Feature",
            "geometry": {
                "type": "Point",
                "coordinates": [
                    16.97804,
                    52.53154
                ]
            },
            "properties": {
                "isced:level": "3",
                "ref:rspo": 70696,
                "official_name": "Technikum w Bolechowie",
                "name": "Technikum w Bolechowie",
                "addr:postcode": "62-005",
                "addr:city": "Bolechowo-Osiedle",
                "addr:street": "Obornicka",
                "addr:housenumber": "1",
                "addr:city:simc": 581942,
                "addr:street:sym_ul": 14593,
                "phone": "+48 618126040",
                "email": "zsbolechowo@powiat.poznan.pl",
                "website": "http:\/\/www.zsbolechowo.edu.pl",
                "ref:regon": "300901828",
                "operator": "Powiat Pozna\u0144ski",
                "operator:type": "government",
                "amenity": "school",
                "note": "Parent RSPO: 11866"
            }
        },
        {
            "id": 70697,
            "type": "Feature",
            "geometry": {
                "type": "Point",
                "coordinates": [
                    16.97804,
                    52.53151
                ]
            },
            "properties": {
                "isced:level": "4",
                "ref:rspo": 70697,
                "official_name": "Szko\u0142a Policealna w Bolechowie",
                "name": "Szko\u0142a Policealna w Bolechowie",
                "addr:postcode": "62-005",
                "addr:city": "Bolechowo-Osiedle",
                "addr:street": "Obornicka",
                "addr:housenumber": "1",
                "addr:city:simc": 581942,
                "addr:street:sym_ul": 14593,
                "phone": "+48 618126040",
                "email": "zsbolechowo@powiat.poznan.pl",
                "ref:regon": "300391557",
                "operator": "Powiat Pozna\u0144ski",
                "operator:type": "government",
                "amenity": "college",
                "note": "Parent RSPO: 11866"
            }
        },
        {
            "id": 4105,
            "type": "Feature",
            "geometry": {
                "type": "Point",
                "coordinates": [
                    16.97651,
                    52.54183
                ]
            },
            "properties": {
                "isced:level": "1;2",
                "ref:rspo": 4105,
                "official_name": "Szko\u0142a Podstawowa im. Hansa Christiana Andersena w Bolechowie-Osiedlu",
                "name": "Szko\u0142a Podstawowa",
                "addr:postcode": "62-005",
                "addr:city": "Bolechowo-Osiedle",
                "addr:street": "Wojska Polskiego",
                "addr:housenumber": "6",
                "addr:city:simc": 581942,
                "addr:street:sym_ul": 24628,
                "phone": "+48 618126070",
                "email": "szkola_bolechowo@poczta.onet.pl",
                "website": "http:\/\/spbolechowo.edupage.org",
                "ref:regon": "001224977",
                "ref:vatin": "PL7772668291",
                "operator": "Gmina Czerwonak",
                "operator:type": "government",
                "amenity": "school"
            }
        },
        {
            "id": 263646,
            "type": "Feature",
            "geometry": {
                "type": "Point",
                "coordinates": [
                    16.99054,
                    52.54518
                ]
            },
            "properties": {
                "ref:rspo": 263646,
                "official_name": "Przedszkole Publiczne Akademia Odkrywc\u00f3w",
                "name": "Przedszkole Publiczne Akademia Odkrywc\u00f3w",
                "addr:postcode": "62-005",
                "addr:city": "Bolechowo",
                "addr:street": "Szkolna",
                "addr:housenumber": "20",
                "addr:city:simc": 581913,
                "addr:street:sym_ul": 21970,
                "phone": "+48 515703896",
                "email": "biuro@akademiaodkrywcow.edu.pl",
                "website": "http:\/\/www.bolechowo.akademiaodkrywcow.edu.pl",
                "ref:regon": "368210494",
                "operator": "Agnieszka Ciszewska-Przebieracz",
                "operator:type": "private",
                "amenity": "kindergarten"
            }
        }
    ]
}