{
    "type": "FeatureCollection",
    "features": [
        {
            "id": 24028,
            "type": "Feature",
            "geometry": {
                "type": "Point",
                "coordinates": [
                    16.50523,
                    52.3031999
                ]
            },
            "properties": {
                "isced:level": "1;2",
                "ref:rspo": 24028,
                "official_name": "Szko\u0142a Podstawowa im. Dr Lecha Siudy w Szewcach",
                "name": "Szko\u0142a Podstawowa",
                "addr:postcode": "64-320",
                "addr:city": "Szewce",
                "addr:street": "Bukowska",
                "addr:housenumber": "151",
                "addr:city:simc": 581072,
                "addr:street:sym_ul": 2396,
                "phone": "+48 618140872",
                "email": "szp_szewce@wp.pl",
                "website": "http:\/\/www.spszewce.edupage.org",
                "ref:regon": "001226781",
                "ref:vatin": "PL7772845505",
                "operator": "Miasto I Gmina Buk",
                "operator:type": "government",
                "amenity": "school"
            }
        },
        {
            "id": 24031,
            "type": "Feature",
            "geometry": {
                "type": "Point",
                "coordinates": [
                    16.538110733032,
                    52.32666015625
                ]
            },
            "properties": {
                "isced:level": "1;2",
                "ref:rspo": 24031,
                "official_name": "Szko\u0142a Podstawowa im. O. Ignacego Cie\u015blaka w Dobie\u017cynie",
                "name": "Szko\u0142a Podstawowa",
                "addr:postcode": "64-320",
                "addr:city": "Dobie\u017cyn",
                "addr:street": "Powsta\u0144c\u00f3w Wielkopolskich",
                "addr:housenumber": "3",
                "addr:city:simc": 580990,
                "addr:street:sym_ul": 17379,
                "phone": "+48 618140941",
                "email": "sekretariat@spdobiezyn.pl",
                "website": "https:\/\/spdobiezyn.pl\/",
                "ref:regon": "001226769",
                "ref:vatin": "PL7772836647",
                "operator": "Miasto I Gmina Buk",
                "operator:type": "government",
                "amenity": "school"
            }
        },
        {
            "id": 24112,
            "type": "Feature",
            "geometry": {
                "type": "Point",
                "coordinates": [
                    16.52543,
                    52.35221
                ]
            },
            "properties": {
                "ref:rspo": 24112,
                "official_name": "Niepubliczne Przedszkole Pluszak",
                "name": "Niepubliczne Przedszkole Pluszak",
                "addr:postcode": "64-320",
                "addr:city": "Buk",
                "addr:street": "Dobie\u017cy\u0144ska",
                "addr:housenumber": "35D",
                "addr:city:simc": 970520,
                "addr:street:sym_ul": 3918,
                "phone": "+48 530362757",
                "email": "przedszkole@pluszak-buk.pl",
                "website": "http:\/\/www.pluszak-buk.pl",
                "ref:regon": "302236281",
                "ref:vatin": "PL7772802915",
                "operator": "Tomasz Strzelewicz",
                "operator:type": "private",
                "amenity": "kindergarten"
            }
        },
        {
            "id": 27309,
            "type": "Feature",
            "geometry": {
                "type": "Point",
                "coordinates": [
                    16.5204989,
                    52.3534496
                ]
            },
            "properties": {
                "isced:level": "3",
                "ref:rspo": 27309,
                "official_name": "Bran\u017cowa Szko\u0142a I Stopnia w Buku",
                "name": "Bran\u017cowa Szko\u0142a I Stopnia w Buku",
                "addr:postcode": "64-320",
                "addr:city": "Buk",
                "addr:street": "Dworcowa",
                "addr:housenumber": "44",
                "addr:city:simc": 970520,
                "addr:street:sym_ul": 4434,
                "phone": "+48 618301001",
                "email": "sekretariat@zspgbuk.pl",
                "website": "http:\/\/www.zspgbuk.pl",
                "ref:regon": "631047332",
                "ref:vatin": "PL7772833011",
                "operator": "Miasto I Gmina Buk",
                "operator:type": "government",
                "amenity": "school"
            }
        },
        {
            "id": 24032,
            "type": "Feature",
            "geometry": {
                "type": "Point",
                "coordinates": [
                    16.5180599,
                    52.35449
                ]
            },
            "properties": {
                "ref:rspo": 24032,
                "official_name": "Przedszkole im. Krasnala Ha\u0142aba\u0142y w Buku",
                "name": "Przedszkole",
                "addr:postcode": "64-320",
                "addr:city": "Buk",
                "addr:street": "Kapitana Witolda Wegnera",
                "addr:housenumber": "10",
                "addr:city:simc": 970520,
                "addr:street:sym_ul": 23831,
                "phone": "+48 618140871",
                "email": "dyrektor@przedszkole-halabala.pl",
                "website": "http:\/\/przedszkole-halabala.pl",
                "ref:regon": "631577722",
                "ref:vatin": "PL7772836630",
                "operator": "Miasto I Gmina Buk",
                "operator:type": "government",
                "amenity": "kindergarten"
            }
        },
        {
            "id": 121388,
            "type": "Feature",
            "geometry": {
                "type": "Point",
                "coordinates": [
                    16.5216,
                    52.35499
                ]
            },
            "properties": {
                "ref:rspo": 121388,
                "official_name": "Filia w Buku",
                "name": "Filia w Buku",
                "addr:postcode": "64-320",
                "addr:city": "Buk",
                "addr:street": "Szarych Szereg\u00f3w",
                "addr:housenumber": "8",
                "addr:city:simc": 970520,
                "addr:street:sym_ul": 21787,
                "phone": "+48 618140241",
                "email": "ppplubon.buk@powiat.poznan.pl",
                "ref:regon": "639694960",
                "operator": "Powiat Pozna\u0144ski",
                "operator:type": "government",
                "healthcare": "counselling",
                "counselling_type": "education",
                "fixme": "w zale\u017cno\u015bci od przedmiotu dzia\u0142alno\u015bci (np. healthcare=counselling + counselling_type=education albo healthcare=psychotherapist)",
                "note": "Parent RSPO: 71557"
            }
        },
        {
            "id": 24027,
            "type": "Feature",
            "geometry": {
                "type": "Point",
                "coordinates": [
                    16.52267,
                    52.35654
                ]
            },
            "properties": {
                "isced:level": "1;2",
                "ref:rspo": 24027,
                "official_name": "Szko\u0142a Podstawowa im. Bohater\u00f3w Bukowskich w Buku",
                "name": "Szko\u0142a Podstawowa",
                "addr:postcode": "64-320",
                "addr:city": "Buk",
                "addr:street": "Szkolna",
                "addr:housenumber": "12",
                "addr:city:simc": 970520,
                "addr:street:sym_ul": 21970,
                "phone": "+48 618140182",
                "email": "sekretariat@spbuk.pl",
                "website": "http:\/\/www.spbuk.pl",
                "ref:regon": "000600504",
                "ref:vatin": "PL7772832974",
                "operator": "Miasto I Gmina Buk",
                "operator:type": "government",
                "amenity": "school"
            }
        },
        {
            "id": 24061,
            "type": "Feature",
            "geometry": {
                "type": "Point",
                "coordinates": [
                    16.52036,
                    52.35725
                ]
            },
            "properties": {
                "ref:rspo": 24061,
                "official_name": "Przedszkole Si\u00f3str Mi\u0142osierdzia \u015aw. Wincentego A'paulo w Buku",
                "name": "Przedszkole Si\u00f3str Mi\u0142osierdzia \u015aw. Wincentego A'paulo w Buku",
                "addr:postcode": "64-320",
                "addr:city": "Buk",
                "addr:street": "Plac Stanis\u0142awa Reszki",
                "addr:housenumber": "26",
                "addr:city:simc": 970520,
                "addr:street:sym_ul": 18624,
                "phone": "+48 618140240",
                "email": "przedbuk@archpoznan.org.pl",
                "website": "http:\/\/przedbuk.archpoznan.org.pl",
                "ref:regon": "302236542",
                "ref:vatin": "PL7881277709",
                "operator": "Zgromadzenie Si\u00f3str Mi\u0142osierdzia \u015aw. Wincentego A Paulo Prowincja Che\u0142mi\u0144sko-Pozna\u0144ska",
                "operator:type": "religious",
                "amenity": "kindergarten"
            }
        },
        {
            "id": 72673,
            "type": "Feature",
            "geometry": {
                "type": "Point",
                "coordinates": [
                    16.50796,
                    52.35944
                ]
            },
            "properties": {
                "isced:level": "4",
                "ref:rspo": 72673,
                "official_name": "Szko\u0142a Policealna \"Lider\" w Buku",
                "name": "Szko\u0142a Policealna \"Lider\" w Buku",
                "addr:postcode": "64-320",
                "addr:city": "Buk",
                "addr:street": "Andrzeja i W\u0142adys\u0142awa Niegolewskich",
                "addr:housenumber": "11A",
                "addr:city:simc": 970520,
                "addr:street:sym_ul": 14158,
                "phone": "+48 618149399",
                "ref:regon": "302260210",
                "operator": "Ma\u0142gorzata Szl\u0105zak",
                "operator:type": "private",
                "amenity": "college"
            }
        },
        {
            "id": 80192,
            "type": "Feature",
            "geometry": {
                "type": "Point",
                "coordinates": [
                    16.50796,
                    52.35941
                ]
            },
            "properties": {
                "isced:level": "3",
                "ref:rspo": 80192,
                "official_name": "Liceum Og\u00f3lnoksztac\u0105ce dla Doros\u0142ych \"Lider\" w Buku",
                "name": "Liceum Og\u00f3lnoksztac\u0105ce dla Doros\u0142ych \"Lider\" w Buku",
                "addr:postcode": "64-320",
                "addr:city": "Buk",
                "addr:street": "Andrzeja i W\u0142adys\u0142awa Niegolewskich",
                "addr:housenumber": "11A",
                "addr:city:simc": 970520,
                "addr:street:sym_ul": 14158,
                "phone": "+48 618149399",
                "email": "biuro@cds-lider.com.pl",
                "ref:regon": "302269145",
                "operator": "Ma\u0142gorzata Szl\u0105zak",
                "operator:type": "private",
                "amenity": "school"
            }
        },
        {
            "id": 80193,
            "type": "Feature",
            "geometry": {
                "type": "Point",
                "coordinates": [
                    16.50796,
                    52.35938
                ]
            },
            "properties": {
                "ref:rspo": 80193,
                "official_name": "Plac\u00f3wka Kszta\u0142cenia Ustawicznego Cds-Lider",
                "name": "Plac\u00f3wka Kszta\u0142cenia Ustawicznego Cds-Lider",
                "addr:postcode": "64-320",
                "addr:city": "Buk",
                "addr:street": "Andrzeja i W\u0142adys\u0142awa Niegolewskich",
                "addr:housenumber": "11A",
                "addr:city:simc": 970520,
                "addr:street:sym_ul": 14158,
                "phone": "+48 618149399",
                "email": "cds-lider@o2.pl",
                "website": "http:\/\/www.cds-lider.com.pl",
                "ref:regon": "302264840",
                "operator": "Ma\u0142gorzata Szl\u0105zak",
                "operator:type": "private",
                "fixme": "w zale\u017cno\u015bci od przedmiotu dzia\u0142alno\u015bci (np. amenity=training + training=*, amenity=dancing_school, amenity=language_school, amenity=music_school)"
            }
        },
        {
            "id": 124582,
            "type": "Feature",
            "geometry": {
                "type": "Point",
                "coordinates": [
                    16.50796,
                    52.35935
                ]
            },
            "properties": {
                "isced:level": "4",
                "ref:rspo": 124582,
                "official_name": "Szko\u0142a Policealna - Studium Medyczne Lider w Buku",
                "name": "Szko\u0142a Policealna - Studium Medyczne Lider w Buku",
                "addr:postcode": "64-320",
                "addr:city": "Buk",
                "addr:street": "Andrzeja i W\u0142adys\u0142awa Niegolewskich",
                "addr:housenumber": "11A",
                "addr:city:simc": 970520,
                "addr:street:sym_ul": 14158,
                "phone": "+48 618149399",
                "email": "biuro@cds-lider.com.pl",
                "ref:regon": "302813650",
                "operator": "Ma\u0142gorzata Szl\u0105zak",
                "operator:type": "private",
                "amenity": "college"
            }
        },
        {
            "id": 126713,
            "type": "Feature",
            "geometry": {
                "type": "Point",
                "coordinates": [
                    16.50796,
                    52.35932
                ]
            },
            "properties": {
                "isced:level": "3",
                "ref:rspo": 126713,
                "official_name": "Technikum Lider w Buku",
                "name": "Technikum Lider w Buku",
                "addr:postcode": "64-320",
                "addr:city": "Buk",
                "addr:street": "Andrzeja i W\u0142adys\u0142awa Niegolewskich",
                "addr:housenumber": "11A",
                "addr:city:simc": 970520,
                "addr:street:sym_ul": 14158,
                "phone": "+48 618140360",
                "email": "cds-lider@o2.pl",
                "ref:regon": "360646803",
                "operator": "Ma\u0142gorzata Szl\u0105zak",
                "operator:type": "private",
                "amenity": "school"
            }
        },
        {
            "id": 268000,
            "type": "Feature",
            "geometry": {
                "type": "Point",
                "coordinates": [
                    16.50796,
                    52.35929
                ]
            },
            "properties": {
                "isced:level": "3",
                "ref:rspo": 268000,
                "official_name": "Szko\u0142a Bran\u017cowa I Stopnia Lider w Buku",
                "name": "Szko\u0142a Bran\u017cowa I Stopnia Lider w Buku",
                "addr:postcode": "64-320",
                "addr:city": "Buk",
                "addr:street": "Andrzeja i W\u0142adys\u0142awa Niegolewskich",
                "addr:housenumber": "11a",
                "addr:city:simc": 970520,
                "addr:street:sym_ul": 14158,
                "email": "biuro@cds-lider.com.pl",
                "ref:regon": "380837746",
                "operator": "Ma\u0142gorzata Szl\u0105zak",
                "operator:type": "private",
                "amenity": "school"
            }
        },
        {
            "id": 268320,
            "type": "Feature",
            "geometry": {
                "type": "Point",
                "coordinates": [
                    16.50796,
                    52.35926
                ]
            },
            "properties": {
                "isced:level": "3",
                "ref:rspo": 268320,
                "official_name": "Liceum Og\u00f3lnokszta\u0142c\u0105ce w Buku",
                "name": "Liceum Og\u00f3lnokszta\u0142c\u0105ce w Buku",
                "addr:postcode": "64-320",
                "addr:city": "Buk",
                "addr:street": "Andrzeja i W\u0142adys\u0142awa Niegolewskich",
                "addr:housenumber": "11a",
                "addr:city:simc": 970520,
                "addr:street:sym_ul": 14158,
                "phone": "+48 618149399",
                "ref:regon": "381088376",
                "operator": "Ma\u0142gorzata Szl\u0105zak",
                "operator:type": "private",
                "amenity": "school"
            }
        },
        {
            "id": 278051,
            "type": "Feature",
            "geometry": {
                "type": "Point",
                "coordinates": [
                    16.50796,
                    52.35923
                ]
            },
            "properties": {
                "isced:level": "3",
                "ref:rspo": 278051,
                "official_name": "Szko\u0142a Bran\u017cowa II Stopnia Lider w Buku",
                "name": "Szko\u0142a Bran\u017cowa II Stopnia Lider w Buku",
                "addr:postcode": "64-320",
                "addr:city": "Buk",
                "addr:street": "Andrzeja i W\u0142adys\u0142awa Niegolewskich",
                "addr:housenumber": "11a",
                "addr:city:simc": 970520,
                "addr:street:sym_ul": 14158,
                "phone": "+48 618149399",
                "email": "biuro@cds-lider.com.pl",
                "ref:regon": "389753761",
                "operator": "Ma\u0142gorzata Szl\u0105zak",
                "operator:type": "private",
                "amenity": "school"
            }
        },
        {
            "id": 277931,
            "type": "Feature",
            "geometry": {
                "type": "Point",
                "coordinates": [
                    16.59864,
                    52.38207
                ]
            },
            "properties": {
                "ref:rspo": 277931,
                "official_name": "Przedszkole nr 2 \"Z\u0142oty Kogucik\" w Niepruszewie",
                "name": "Przedszkole nr 2 \"Z\u0142oty Kogucik\" w Niepruszewie",
                "addr:postcode": "64-320",
                "addr:city": "Niepruszewo",
                "addr:street": "\u017bytnia",
                "addr:housenumber": "32",
                "addr:city:simc": 581037,
                "addr:street:sym_ul": 26635,
                "phone": "+48 663587206",
                "email": "niepruszewoprzedszkole@gmail.com",
                "website": "https:\/\/www.zloty-kogucik.pl\/",
                "ref:regon": "389673192",
                "operator": "Kamila Kruszy\u0144ska",
                "operator:type": "private",
                "amenity": "kindergarten"
            }
        },
        {
            "id": 24026,
            "type": "Feature",
            "geometry": {
                "type": "Point",
                "coordinates": [
                    16.60511,
                    52.38327
                ]
            },
            "properties": {
                "ref:rspo": 24026,
                "official_name": "Zesp\u00f3\u0142 Szkolno-Przedszkolny im. Dr Wandy B\u0142e\u0144skiej w Niepruszewie",
                "name": "Zesp\u00f3\u0142 Szkolno-Przedszkolny",
                "addr:postcode": "64-320",
                "addr:city": "Niepruszewo",
                "addr:street": "Starowiejska",
                "addr:housenumber": "26",
                "addr:city:simc": 581037,
                "addr:street:sym_ul": 20998,
                "phone": "+48 618140030",
                "email": "sekretariat@zsp-niepruszewo.pl",
                "website": "http:\/\/zsp-niepruszewo.pl",
                "ref:regon": "300066165",
                "ref:vatin": "PL7772845362",
                "operator": "Miasto I Gmina Buk",
                "operator:type": "government",
                "landuse": "education",
                "fixme": "amenity=school, amenity=college albo landuse=education w zale\u017cno\u015bci od tego, jakie plac\u00f3wki wchodz\u0105 w sk\u0142ad zespo\u0142u. Sprawd\u017a, kiedy stosowa\u0107 amenity=* a kiedy landuse=education.",
                "note": "Children RSPO: 27184;27216"
            }
        },
        {
            "id": 27184,
            "type": "Feature",
            "geometry": {
                "type": "Point",
                "coordinates": [
                    16.60511,
                    52.38324
                ]
            },
            "properties": {
                "ref:rspo": 27184,
                "official_name": "Przedszkole w Niepruszewie",
                "name": "Przedszkole w Niepruszewie",
                "addr:postcode": "64-320",
                "addr:city": "Niepruszewo",
                "addr:street": "Starowiejska",
                "addr:housenumber": "26",
                "addr:city:simc": 581037,
                "addr:street:sym_ul": 20998,
                "phone": "+48 618140030",
                "email": "sekretariat@zsp-niepruszewo.pl",
                "website": "http:\/\/zsp-niepruszewo.pl",
                "ref:regon": "631577716",
                "operator": "Miasto I Gmina Buk",
                "operator:type": "government",
                "amenity": "kindergarten",
                "note": "Parent RSPO: 24026"
            }
        },
        {
            "id": 27216,
            "type": "Feature",
            "geometry": {
                "type": "Point",
                "coordinates": [
                    16.60511,
                    52.383210000000005
                ]
            },
            "properties": {
                "isced:level": "1;2",
                "ref:rspo": 27216,
                "official_name": "Szko\u0142a Podstawowa im. Dr Wandy B\u0142e\u0144skiej w Niepruszewie",
                "name": "Szko\u0142a Podstawowa",
                "addr:postcode": "64-320",
                "addr:city": "Niepruszewo",
                "addr:street": "Starowiejska",
                "addr:housenumber": "26",
                "addr:city:simc": 581037,
                "addr:street:sym_ul": 20998,
                "phone": "+48 618140030",
                "email": "sekretariat@zsp-niepruszewo.pl",
                "website": "http:\/\/zsp-niepruszewo.pl",
                "ref:regon": "001226775",
                "operator": "Miasto I Gmina Buk",
                "operator:type": "government",
                "amenity": "school",
                "note": "Parent RSPO: 24026"
            }
        }
    ]
}