{
    "type": "FeatureCollection",
    "features": [
        {
            "id": 85530,
            "type": "Feature",
            "geometry": {
                "type": "Point",
                "coordinates": [
                    22.24963,
                    50.2900599
                ]
            },
            "properties": {
                "isced:level": "1;2",
                "ref:rspo": 85530,
                "official_name": "Szko\u0142a Podstawowa im. Prymasa Tysi\u0105clecia w Woli Zarczyckiej",
                "name": "Szko\u0142a Podstawowa",
                "addr:postcode": "37-311",
                "addr:place": "Wola Zarczycka",
                "addr:housenumber": "128",
                "addr:city:simc": 657680,
                "phone": "+48 172417002",
                "email": "sp_wola_zarczycka@op.pl",
                "website": "http:\/\/www.spwolazarczycka.edupage.org",
                "ref:regon": "001132318",
                "ref:vatin": "PL8161523457",
                "operator": "Gmina Nowa Sarzyna",
                "operator:type": "government",
                "amenity": "school"
            }
        },
        {
            "id": 85535,
            "type": "Feature",
            "geometry": {
                "type": "Point",
                "coordinates": [
                    22.2485399,
                    50.29121
                ]
            },
            "properties": {
                "ref:rspo": 85535,
                "official_name": "Przedszkole Samorz\u0105dowe w Woli Zarczyckiej",
                "name": "Przedszkole Samorz\u0105dowe w Woli Zarczyckiej",
                "addr:postcode": "37-311",
                "addr:place": "Wola Zarczycka",
                "addr:housenumber": "147a",
                "addr:city:simc": 657680,
                "phone": "+48 172417015",
                "email": "p_wz@nowasarzyna.eu",
                "website": "http:\/\/www.pwz.eprzedszkola.pl",
                "ref:regon": "180643273",
                "ref:vatin": "PL8161692510",
                "operator": "Gmina Nowa Sarzyna",
                "operator:type": "government",
                "amenity": "kindergarten"
            }
        },
        {
            "id": 85533,
            "type": "Feature",
            "geometry": {
                "type": "Point",
                "coordinates": [
                    22.35161,
                    50.29611
                ]
            },
            "properties": {
                "isced:level": "1;2",
                "ref:rspo": 85533,
                "official_name": "Szko\u0142a Podstawowa im. \u015aw. Franciszka z Asy\u017cu w Jelnej",
                "name": "Szko\u0142a Podstawowa",
                "addr:postcode": "37-310",
                "addr:place": "Jelna",
                "addr:housenumber": "142a",
                "addr:city:simc": 657409,
                "phone": "+48 172418372",
                "email": "sp_j@nowasarzyna.eu",
                "website": "http:\/\/www.spj.nowasarzyna.pl",
                "ref:regon": "001132258",
                "ref:vatin": "PL8161523428",
                "operator": "Gmina Nowa Sarzyna",
                "operator:type": "government",
                "amenity": "school"
            }
        },
        {
            "id": 262576,
            "type": "Feature",
            "geometry": {
                "type": "Point",
                "coordinates": [
                    22.3409799,
                    50.3177
                ]
            },
            "properties": {
                "ref:rspo": 262576,
                "official_name": "Niepubliczna Plac\u00f3wka Kszta\u0142cenia Artystycznego w Nowej Sarzynie",
                "name": "Niepubliczna Plac\u00f3wka Kszta\u0142cenia Artystycznego w Nowej Sarzynie",
                "addr:postcode": "37-310",
                "addr:city": "Nowa Sarzyna",
                "addr:street": "Marii Konopnickiej",
                "addr:housenumber": "2",
                "addr:city:simc": 974788,
                "addr:street:sym_ul": 9186,
                "phone": "+48 604873505",
                "ref:regon": "368037920",
                "operator": "Marta Marczak",
                "operator:type": "private",
                "fixme": "w zale\u017cno\u015bci od przedmiotu dzia\u0142alno\u015bci (np. amenity=community_centre + community_centre:for=child;juvenile, amenity=training + training=*, amenity=dancing_school, amenity=music_school),"
            }
        },
        {
            "id": 267765,
            "type": "Feature",
            "geometry": {
                "type": "Point",
                "coordinates": [
                    22.34232,
                    50.31892
                ]
            },
            "properties": {
                "ref:rspo": 267765,
                "official_name": "Zesp\u00f3\u0142 Szk\u00f3\u0142 w Nowej Sarzynie",
                "name": "Zesp\u00f3\u0142 Szk\u00f3\u0142 w Nowej Sarzynie",
                "addr:postcode": "37-310",
                "addr:city": "Nowa Sarzyna",
                "addr:street": "Komisji Edukacji Narodowej",
                "addr:housenumber": "5",
                "addr:city:simc": 974788,
                "addr:street:sym_ul": 9066,
                "phone": "+48 172413852",
                "email": "spnssekretariat@wp.pl",
                "website": "http:\/\/sp.nowasarzyna.eu, szkola-nowasarzyna.pl",
                "ref:regon": "380612119",
                "ref:vatin": "PL8161706896",
                "operator": "Gmina Nowa Sarzyna",
                "operator:type": "government",
                "landuse": "education",
                "fixme": "amenity=school, amenity=college albo landuse=education w zale\u017cno\u015bci od tego, jakie plac\u00f3wki wchodz\u0105 w sk\u0142ad zespo\u0142u. Sprawd\u017a, kiedy stosowa\u0107 amenity=* a kiedy landuse=education.",
                "note": "Children RSPO: 85531;262978"
            }
        },
        {
            "id": 85531,
            "type": "Feature",
            "geometry": {
                "type": "Point",
                "coordinates": [
                    22.34232,
                    50.318889999999996
                ]
            },
            "properties": {
                "isced:level": "1;2",
                "ref:rspo": 85531,
                "official_name": "Szko\u0142a Podstawowa im. Marii Sk\u0142odowskiej-Curie w Nowej Sarzynie",
                "name": "Szko\u0142a Podstawowa",
                "addr:postcode": "37-310",
                "addr:city": "Nowa Sarzyna",
                "addr:street": "Komisji Edukacji Narodowej",
                "addr:housenumber": "5",
                "addr:city:simc": 974788,
                "addr:street:sym_ul": 9066,
                "phone": "+48 172413852",
                "email": "sp_ns@nowasarzyna.eu",
                "website": "http:\/\/sp.nowasarzyna.eu",
                "ref:regon": "000555459",
                "ref:vatin": "PL8161523486",
                "operator": "Gmina Nowa Sarzyna",
                "operator:type": "government",
                "amenity": "school",
                "note": "Parent RSPO: 267765"
            }
        },
        {
            "id": 262978,
            "type": "Feature",
            "geometry": {
                "type": "Point",
                "coordinates": [
                    22.3421,
                    50.319
                ]
            },
            "properties": {
                "isced:level": "3",
                "ref:rspo": 262978,
                "official_name": "I Liceum Og\u00f3lnokszta\u0142c\u0105ce w Nowej Sarzynie",
                "name": "I Liceum Og\u00f3lnokszta\u0142c\u0105ce w Nowej Sarzynie",
                "addr:postcode": "37-310",
                "addr:city": "Nowa Sarzyna",
                "addr:street": "Komisji Edukacji Narodowej",
                "addr:housenumber": "3",
                "addr:city:simc": 974788,
                "addr:street:sym_ul": 9066,
                "phone": "+48 882433580",
                "email": "lo_ns@nowasarzyna.eu",
                "website": "http:\/\/szkola-nowasarzyna.pl",
                "ref:regon": "368082346",
                "ref:vatin": "PL8161705744",
                "operator": "Gmina Nowa Sarzyna",
                "operator:type": "government",
                "amenity": "school",
                "note": "Parent RSPO: 267765"
            }
        },
        {
            "id": 85562,
            "type": "Feature",
            "geometry": {
                "type": "Point",
                "coordinates": [
                    22.34625,
                    50.3193
                ]
            },
            "properties": {
                "ref:rspo": 85562,
                "official_name": "Przedszkole Samorz\u0105dowe Jedyneczka w Nowej Sarzynie",
                "name": "Przedszkole Samorz\u0105dowe Jedyneczka w Nowej Sarzynie",
                "addr:postcode": "37-310",
                "addr:city": "Nowa Sarzyna",
                "addr:street": "Janusza Korczaka",
                "addr:housenumber": "3",
                "addr:city:simc": 974788,
                "addr:street:sym_ul": 9329,
                "phone": "+48 172413832",
                "email": "p_ns1@nowasarzyna.eu",
                "website": "http:\/\/www.p1nsarzyna.edupage.org",
                "ref:regon": "180643008",
                "ref:vatin": "PL8161692728",
                "operator": "Gmina Nowa Sarzyna",
                "operator:type": "government",
                "amenity": "kindergarten"
            }
        },
        {
            "id": 85536,
            "type": "Feature",
            "geometry": {
                "type": "Point",
                "coordinates": [
                    22.3414,
                    50.32116
                ]
            },
            "properties": {
                "ref:rspo": 85536,
                "official_name": "Przedszkole Samorz\u0105dowe Niezapominajka w Nowej Sarzynie",
                "name": "Przedszkole Samorz\u0105dowe Niezapominajka w Nowej Sarzynie",
                "addr:postcode": "37-310",
                "addr:city": "Nowa Sarzyna",
                "addr:street": "Komisji Edukacji Narodowej",
                "addr:housenumber": "1",
                "addr:city:simc": 974788,
                "addr:street:sym_ul": 9066,
                "phone": "+48 172413613",
                "email": "p_nsn@nowasarzyna.eu",
                "website": "http:\/\/www.niezapominajka.edupage.org",
                "ref:regon": "180643020",
                "ref:vatin": "PL8161692800",
                "operator": "Gmina Nowa Sarzyna",
                "operator:type": "government",
                "amenity": "kindergarten"
            }
        },
        {
            "id": 85534,
            "type": "Feature",
            "geometry": {
                "type": "Point",
                "coordinates": [
                    22.20867,
                    50.32381
                ]
            },
            "properties": {
                "isced:level": "1;2",
                "ref:rspo": 85534,
                "official_name": "Szkola Podstawowa w W\u00f3lce \u0141\u0119towskiej",
                "name": "Szkola Podstawowa w W\u00f3lce \u0141\u0119towskiej",
                "addr:postcode": "37-312",
                "addr:place": "W\u00f3lka \u0141\u0119towska",
                "addr:housenumber": "4",
                "addr:city:simc": 657906,
                "phone": "+48 172417045",
                "email": "wolkalet@op.pl",
                "website": "http:\/\/www.spwl.nowasarzyna.pl",
                "ref:regon": "001132324",
                "ref:vatin": "PL8161523397",
                "operator": "Gmina Nowa Sarzyna",
                "operator:type": "government",
                "amenity": "school"
            }
        },
        {
            "id": 85538,
            "type": "Feature",
            "geometry": {
                "type": "Point",
                "coordinates": [
                    22.354,
                    50.32392
                ]
            },
            "properties": {
                "isced:level": "1;2",
                "ref:rspo": 85538,
                "official_name": "Szko\u0142a Podstawowa w Rudzie \u0141a\u0144cuckiej",
                "name": "Szko\u0142a Podstawowa w Rudzie \u0141a\u0144cuckiej",
                "addr:postcode": "37-310",
                "addr:place": "Ruda \u0141a\u0144cucka",
                "addr:housenumber": "99",
                "addr:city:simc": 657591,
                "phone": "+48 172413838",
                "email": "sp_rl@nowasarzyna.eu",
                "website": "http:\/\/www.sprl.nowasarzyna.eu",
                "ref:regon": "001132287",
                "ref:vatin": "PL8161523434",
                "operator": "Gmina Nowa Sarzyna",
                "operator:type": "government",
                "amenity": "school"
            }
        },
        {
            "id": 85537,
            "type": "Feature",
            "geometry": {
                "type": "Point",
                "coordinates": [
                    22.2335,
                    50.32395
                ]
            },
            "properties": {
                "ref:rspo": 85537,
                "official_name": "Przedszkole Samorz\u0105dowe w \u0141\u0119towni",
                "name": "Przedszkole Samorz\u0105dowe w \u0141\u0119towni",
                "addr:postcode": "37-312",
                "addr:place": "\u0141\u0119townia",
                "addr:housenumber": "305a",
                "addr:city:simc": 657480,
                "phone": "+48 172416426",
                "email": "p_l@nowasarzyna.eu",
                "ref:regon": "180646053",
                "ref:vatin": "PL8161692792",
                "operator": "Gmina Nowa Sarzyna",
                "operator:type": "government",
                "amenity": "kindergarten"
            }
        },
        {
            "id": 85532,
            "type": "Feature",
            "geometry": {
                "type": "Point",
                "coordinates": [
                    22.23964,
                    50.32665
                ]
            },
            "properties": {
                "isced:level": "1;2",
                "ref:rspo": 85532,
                "official_name": "Szko\u0142a Podstawowa im. \u015aw. Jana Paw\u0142a II w \u0141\u0119towni",
                "name": "Szko\u0142a Podstawowa",
                "addr:postcode": "37-312",
                "addr:place": "\u0141\u0119townia",
                "addr:housenumber": "286",
                "addr:city:simc": 657480,
                "phone": "+48 172416430",
                "email": "sp_l@nowasarzyna.eu",
                "website": "http:\/\/www.spletownia.vdl.pl",
                "ref:regon": "001132264",
                "ref:vatin": "PL8161523440",
                "operator": "Gmina Nowa Sarzyna",
                "operator:type": "government",
                "amenity": "school"
            }
        },
        {
            "id": 69505,
            "type": "Feature",
            "geometry": {
                "type": "Point",
                "coordinates": [
                    22.33092,
                    50.33168
                ]
            },
            "properties": {
                "ref:rspo": 69505,
                "official_name": "Niepubliczny O\u015brodek Rewalidacyjno - Wychowawczy w Nowej Sarzynie",
                "name": "Niepubliczny O\u015brodek Rewalidacyjno - Wychowawczy w Nowej Sarzynie",
                "addr:postcode": "37-310",
                "addr:city": "Nowa Sarzyna",
                "addr:street": "Ignacego \u0141ukasiewicza",
                "addr:housenumber": "2",
                "addr:city:simc": 974788,
                "addr:street:sym_ul": 11749,
                "phone": "+48 172415357",
                "email": "stibg@o2.pl",
                "website": "http:\/\/www.stibg.pl",
                "ref:regon": "180902190",
                "operator": "Stowarzyszenie \"Integracja Bez Granic\"",
                "operator:type": "ngo",
                "amenity": "school"
            }
        },
        {
            "id": 264445,
            "type": "Feature",
            "geometry": {
                "type": "Point",
                "coordinates": [
                    22.33092,
                    50.331649999999996
                ]
            },
            "properties": {
                "ref:rspo": 264445,
                "official_name": "Niepubliczne Przedszkole Specjalne Przy Stowarzyszeniu \"Integracja Bez Granic\"",
                "name": "Niepubliczne Przedszkole Specjalne Przy Stowarzyszeniu \"Integracja Bez Granic\"",
                "addr:postcode": "37-310",
                "addr:city": "Nowa Sarzyna",
                "addr:street": "Ignacego \u0141ukasiewicza",
                "addr:housenumber": "2",
                "addr:city:simc": 974788,
                "addr:street:sym_ul": 11749,
                "phone": "+48 172415357",
                "email": "stibg@o2.pl",
                "ref:regon": "368346443",
                "ref:vatin": "PL8161515860",
                "operator": "Stowarzyszenie \"Integracja Bez Granic\"",
                "operator:type": "ngo",
                "amenity": "kindergarten"
            }
        },
        {
            "id": 86767,
            "type": "Feature",
            "geometry": {
                "type": "Point",
                "coordinates": [
                    22.34518,
                    50.3451
                ]
            },
            "properties": {
                "isced:level": "1;2",
                "ref:rspo": 86767,
                "official_name": "Szko\u0142a Podstawowa im. Ks. Stefana Kardyna\u0142a Wyszy\u0144skiego w Sarzynie",
                "name": "Szko\u0142a Podstawowa",
                "addr:postcode": "37-310",
                "addr:place": "Sarzyna",
                "addr:housenumber": "1265",
                "addr:city:simc": 657616,
                "phone": "+48 172413859",
                "email": "sp_s@nowasarzyna.eu",
                "website": "http:\/\/www.gsasarzyna.pl",
                "ref:regon": "001132293",
                "ref:vatin": "PL8161592234",
                "operator": "Gmina Nowa Sarzyna",
                "operator:type": "government",
                "amenity": "school"
            }
        },
        {
            "id": 85539,
            "type": "Feature",
            "geometry": {
                "type": "Point",
                "coordinates": [
                    22.31739,
                    50.36854
                ]
            },
            "properties": {
                "isced:level": "1;2",
                "ref:rspo": 85539,
                "official_name": "Szko\u0142a Podstawowa w Tarnog\u00f3rze",
                "name": "Szko\u0142a Podstawowa w Tarnog\u00f3rze",
                "addr:postcode": "37-310",
                "addr:place": "Tarnog\u00f3ra",
                "addr:housenumber": "212",
                "addr:city:simc": 657668,
                "phone": "+48 172413823",
                "email": "sp_t@nowasarzyna.eu",
                "website": "http:\/\/sptarnogora.edu.pl",
                "ref:regon": "001132301",
                "ref:vatin": "PL8161523411",
                "operator": "Gmina Nowa Sarzyna",
                "operator:type": "government",
                "amenity": "school"
            }
        }
    ]
}