{
    "type": "FeatureCollection",
    "features": [
        {
            "id": 69865,
            "type": "Feature",
            "geometry": {
                "type": "Point",
                "coordinates": [
                    22.51208,
                    50.17196
                ]
            },
            "properties": {
                "isced:level": "1;2",
                "ref:rspo": 69865,
                "official_name": "Szko\u0142a Podstawowa Cha\u0142upki D\u0119bnia\u0144skie",
                "name": "Szko\u0142a Podstawowa Cha\u0142upki D\u0119bnia\u0144skie",
                "addr:postcode": "37-305",
                "addr:place": "Cha\u0142upki D\u0119bnia\u0144skie",
                "addr:housenumber": "105",
                "addr:city:simc": 653618,
                "phone": "+48 172436039",
                "email": "spchalupkideb@gmail.com",
                "website": "http:\/\/www.spchalupkidebnianskie.edu.pl",
                "ref:regon": "001131276",
                "ref:vatin": "PL8161523606",
                "operator": "Gmina Le\u017cajsk",
                "operator:type": "government",
                "amenity": "school"
            }
        },
        {
            "id": 61487,
            "type": "Feature",
            "geometry": {
                "type": "Point",
                "coordinates": [
                    22.5187,
                    50.20067
                ]
            },
            "properties": {
                "ref:rspo": 61487,
                "official_name": "Zesp\u00f3\u0142 Szk\u00f3\u0142 D\u0119bno",
                "name": "Zesp\u00f3\u0142 Szk\u00f3\u0142 D\u0119bno",
                "addr:postcode": "37-300",
                "addr:place": "D\u0119bno",
                "addr:housenumber": "200a",
                "addr:city:simc": 653630,
                "phone": "+48 172429041",
                "email": "zsdebno@poczta.gminalezajsk.pl",
                "website": "http:\/\/www.zsdebno.edu.pl",
                "ref:regon": "691755950",
                "ref:vatin": "PL8161574578",
                "operator": "Gmina Le\u017cajsk",
                "operator:type": "government",
                "landuse": "education",
                "fixme": "amenity=school, amenity=college albo landuse=education w zale\u017cno\u015bci od tego, jakie plac\u00f3wki wchodz\u0105 w sk\u0142ad zespo\u0142u. Sprawd\u017a, kiedy stosowa\u0107 amenity=* a kiedy landuse=education.",
                "note": "Children RSPO: 92555;126053"
            }
        },
        {
            "id": 266333,
            "type": "Feature",
            "geometry": {
                "type": "Point",
                "coordinates": [
                    22.5187,
                    50.20064
                ]
            },
            "properties": {
                "isced:level": "1;2",
                "ref:rspo": 266333,
                "official_name": "Niepubliczna Szko\u0142a Podstawowa w D\u0119bnie",
                "name": "Niepubliczna Szko\u0142a Podstawowa w D\u0119bnie",
                "addr:postcode": "37-305",
                "addr:place": "D\u0119bno",
                "addr:housenumber": "200a",
                "addr:city:simc": 653630,
                "email": "niepublicznegimnazjumdebno@op.pl",
                "ref:regon": "369433859",
                "ref:vatin": "PL8161645775",
                "operator": "\"Stowarzyszenie Rozwoju Wsi D\u0119bno\"",
                "operator:type": "ngo",
                "amenity": "school"
            }
        },
        {
            "id": 92555,
            "type": "Feature",
            "geometry": {
                "type": "Point",
                "coordinates": [
                    22.5187,
                    50.200610000000005
                ]
            },
            "properties": {
                "isced:level": "1;2",
                "ref:rspo": 92555,
                "official_name": "Szko\u0142a Podstawowa D\u0119bno",
                "name": "Szko\u0142a Podstawowa D\u0119bno",
                "addr:postcode": "37-305",
                "addr:place": "D\u0119bno",
                "addr:housenumber": "200a",
                "addr:city:simc": 653630,
                "phone": "+48 172429041",
                "email": "zsdebno@poczta.gminalezajsk.pl",
                "website": "http:\/\/zsdebno.edu.pl",
                "ref:regon": "001131282",
                "ref:vatin": "PL8161525516",
                "operator": "Gmina Le\u017cajsk",
                "operator:type": "government",
                "amenity": "school",
                "note": "Parent RSPO: 61487"
            }
        },
        {
            "id": 126053,
            "type": "Feature",
            "geometry": {
                "type": "Point",
                "coordinates": [
                    22.5187,
                    50.20058
                ]
            },
            "properties": {
                "ref:rspo": 126053,
                "official_name": "Zesp\u00f3\u0142 Szk\u00f3\u0142 Przedszkole w D\u0119bnie",
                "name": "Zesp\u00f3\u0142 Szk\u00f3\u0142 Przedszkole w D\u0119bnie",
                "addr:postcode": "37-305",
                "addr:place": "D\u0119bno",
                "addr:housenumber": "200A",
                "addr:city:simc": 653630,
                "phone": "+48 172429041",
                "email": "zsdebno@poczta.gminalezajsk.pl",
                "website": "http:\/\/www.zsdebno.edu.pl",
                "ref:regon": "690354373",
                "ref:vatin": "PL8161523374",
                "operator": "Gmina Le\u017cajsk",
                "operator:type": "government",
                "amenity": "kindergarten",
                "note": "Parent RSPO: 61487"
            }
        },
        {
            "id": 68667,
            "type": "Feature",
            "geometry": {
                "type": "Point",
                "coordinates": [
                    22.3000009,
                    50.2087849
                ]
            },
            "properties": {
                "isced:level": "1;2",
                "ref:rspo": 68667,
                "official_name": "Szko\u0142a Podstawowa Biedacz\u00f3w",
                "name": "Szko\u0142a Podstawowa Biedacz\u00f3w",
                "addr:postcode": "37-110",
                "addr:place": "Biedacz\u00f3w",
                "addr:housenumber": "72",
                "addr:city:simc": 653392,
                "phone": "+48 172420541",
                "email": "spbiedaczow@poczta.gminalezajsk.pl",
                "website": "http:\/\/www.spbiedaczow.edu.pl",
                "ref:regon": "001131253",
                "ref:vatin": "PL8161523322",
                "operator": "Gmina Le\u017cajsk",
                "operator:type": "government",
                "amenity": "school"
            }
        },
        {
            "id": 66499,
            "type": "Feature",
            "geometry": {
                "type": "Point",
                "coordinates": [
                    22.4022,
                    50.22726
                ]
            },
            "properties": {
                "ref:rspo": 66499,
                "official_name": "Zesp\u00f3\u0142 Szk\u00f3\u0142 Giedlarowa",
                "name": "Zesp\u00f3\u0142 Szk\u00f3\u0142 Giedlarowa",
                "addr:postcode": "37-300",
                "addr:place": "Giedlarowa",
                "addr:housenumber": "320",
                "addr:city:simc": 653682,
                "phone": "+48 172425166",
                "email": "giedlarowagim@interia.pl",
                "website": "http:\/\/www.zsgiedlarowa.pl",
                "ref:regon": "001131299",
                "ref:vatin": "PL8161525479",
                "operator": "Gmina Le\u017cajsk",
                "operator:type": "government",
                "landuse": "education",
                "fixme": "amenity=school, amenity=college albo landuse=education w zale\u017cno\u015bci od tego, jakie plac\u00f3wki wchodz\u0105 w sk\u0142ad zespo\u0142u. Sprawd\u017a, kiedy stosowa\u0107 amenity=* a kiedy landuse=education.",
                "note": "Children RSPO: 92460;126069"
            }
        },
        {
            "id": 266368,
            "type": "Feature",
            "geometry": {
                "type": "Point",
                "coordinates": [
                    22.4022,
                    50.22723
                ]
            },
            "properties": {
                "ref:rspo": 266368,
                "official_name": "Centrum Edukacji Nauczycieli",
                "name": "Centrum Edukacji Nauczycieli",
                "addr:postcode": "37-300",
                "addr:place": "Giedlarowa",
                "addr:housenumber": "320",
                "addr:city:simc": 653682,
                "phone": "+48 172425166",
                "email": "cen@poczta.gminalezajsk.pl",
                "website": "http:\/\/www.cen.schoolpage,pl",
                "ref:regon": "369443504",
                "operator": "Gmina Le\u017cajsk",
                "operator:type": "government",
                "fixme": "w zale\u017cno\u015bci od przedmiotu dzia\u0142alno\u015bci (np. amenity=training + training=*, amenity=dancing_school, amenity=language_school, amenity=music_school) albo amenity=school, amenity=college, albo landuse=education w zale\u017cno\u015bci od tego, jakie plac\u00f3wki wchodz\u0105 w sk\u0142ad zespo\u0142u. Sprawd\u017a, kiedy stosowa\u0107 amenity=* a kiedy landuse=education."
            }
        },
        {
            "id": 92460,
            "type": "Feature",
            "geometry": {
                "type": "Point",
                "coordinates": [
                    22.4022,
                    50.2272
                ]
            },
            "properties": {
                "isced:level": "1;2",
                "ref:rspo": 92460,
                "official_name": "Szko\u0142a Podstawowa Giedlarowa",
                "name": "Szko\u0142a Podstawowa Giedlarowa",
                "addr:postcode": "37-300",
                "addr:place": "Giedlarowa",
                "addr:housenumber": "320",
                "addr:city:simc": 653682,
                "phone": "+48 172425166",
                "email": "zsgiedlarowa@poczta.gminalezajsk.pl",
                "website": "http:\/\/www.zsgiedlarowa.pl",
                "ref:regon": "691677670",
                "operator": "Gmina Le\u017cajsk",
                "operator:type": "government",
                "amenity": "school",
                "note": "Parent RSPO: 66499"
            }
        },
        {
            "id": 126069,
            "type": "Feature",
            "geometry": {
                "type": "Point",
                "coordinates": [
                    22.4022,
                    50.22717
                ]
            },
            "properties": {
                "ref:rspo": 126069,
                "official_name": "Zesp\u00f3\u0142 Szk\u00f3\u0142 Giedlarowa Przedszkole",
                "name": "Zesp\u00f3\u0142 Szk\u00f3\u0142 Giedlarowa Przedszkole",
                "addr:postcode": "37-300",
                "addr:place": "Giedlarowa",
                "addr:housenumber": "320",
                "addr:city:simc": 653682,
                "phone": "+48 172425166",
                "email": "zsgiedlarowa@poczta.gminalezajsk.pl",
                "website": "http:\/\/www.zsgiedlarowa.pl",
                "ref:regon": "691677664",
                "operator": "Gmina Le\u017cajsk",
                "operator:type": "government",
                "amenity": "kindergarten",
                "note": "Parent RSPO: 66499"
            }
        },
        {
            "id": 92462,
            "type": "Feature",
            "geometry": {
                "type": "Point",
                "coordinates": [
                    22.51513,
                    50.23315
                ]
            },
            "properties": {
                "isced:level": "1;2",
                "ref:rspo": 92462,
                "official_name": "Szko\u0142a Podstawowa w Piskorowicach",
                "name": "Szko\u0142a Podstawowa w Piskorowicach",
                "addr:postcode": "37-300",
                "addr:place": "Piskorowice",
                "addr:housenumber": "106",
                "addr:city:simc": 653860,
                "phone": "+48 172420779",
                "email": "piskorowice_zsp@poczta.onet.pl",
                "website": "http:\/\/sppiskorowice.pl",
                "ref:regon": "001131313",
                "ref:vatin": "PL8161525491",
                "operator": "Gmina Le\u017cajsk",
                "operator:type": "government",
                "amenity": "school"
            }
        },
        {
            "id": 69237,
            "type": "Feature",
            "geometry": {
                "type": "Point",
                "coordinates": [
                    22.45317,
                    50.2348799
                ]
            },
            "properties": {
                "ref:rspo": 69237,
                "official_name": "Zesp\u00f3\u0142 Szk\u00f3\u0142 Wierzawice",
                "name": "Zesp\u00f3\u0142 Szk\u00f3\u0142 Wierzawice",
                "addr:postcode": "37-300",
                "addr:place": "Wierzawice",
                "addr:housenumber": "396",
                "addr:city:simc": 654078,
                "phone": "+48 172424139",
                "email": "zswierzawice@interia.pl",
                "website": "http:\/\/www.zswierzawice.pl",
                "ref:regon": "691757104",
                "ref:vatin": "PL8161574590",
                "operator": "Gmina Le\u017cajsk",
                "operator:type": "government",
                "landuse": "education",
                "fixme": "amenity=school, amenity=college albo landuse=education w zale\u017cno\u015bci od tego, jakie plac\u00f3wki wchodz\u0105 w sk\u0142ad zespo\u0142u. Sprawd\u017a, kiedy stosowa\u0107 amenity=* a kiedy landuse=education.",
                "note": "Children RSPO: 92463;126059"
            }
        },
        {
            "id": 92463,
            "type": "Feature",
            "geometry": {
                "type": "Point",
                "coordinates": [
                    22.45317,
                    50.2348499
                ]
            },
            "properties": {
                "isced:level": "1;2",
                "ref:rspo": 92463,
                "official_name": "Szko\u0142a Postawowa Wierzawice",
                "name": "Szko\u0142a Postawowa Wierzawice",
                "addr:postcode": "37-300",
                "addr:place": "Wierzawice",
                "addr:housenumber": "396",
                "addr:city:simc": 654078,
                "phone": "+48 172424139",
                "email": "zswierzawice@interia.pl",
                "website": "http:\/\/zswierzawice.pl",
                "ref:regon": "001133393",
                "ref:vatin": "PL8161525522",
                "operator": "Gmina Le\u017cajsk",
                "operator:type": "government",
                "amenity": "school",
                "note": "Parent RSPO: 69237"
            }
        },
        {
            "id": 126059,
            "type": "Feature",
            "geometry": {
                "type": "Point",
                "coordinates": [
                    22.45317,
                    50.234819900000005
                ]
            },
            "properties": {
                "ref:rspo": 126059,
                "official_name": "Zesp\u00f3\u0142 Szk\u00f3\u0142 Wierzawice Przedszkole",
                "name": "Zesp\u00f3\u0142 Szk\u00f3\u0142 Wierzawice Przedszkole",
                "addr:postcode": "37-300",
                "addr:place": "Wierzawice",
                "addr:housenumber": "396",
                "addr:city:simc": 654078,
                "phone": "+48 172424139",
                "email": "zswierzawice@interia.pl",
                "ref:regon": "690354396",
                "ref:vatin": "PL8161522825",
                "operator": "Gmina Le\u017cajsk",
                "operator:type": "government",
                "amenity": "kindergarten",
                "note": "Parent RSPO: 69237"
            }
        },
        {
            "id": 69454,
            "type": "Feature",
            "geometry": {
                "type": "Point",
                "coordinates": [
                    22.32021,
                    50.24288
                ]
            },
            "properties": {
                "ref:rspo": 69454,
                "official_name": "Zesp\u00f3\u0142 Szk\u00f3\u0142 Brz\u00f3za Kr\u00f3lewska",
                "name": "Zesp\u00f3\u0142 Szk\u00f3\u0142 Brz\u00f3za Kr\u00f3lewska",
                "addr:postcode": "37-300",
                "addr:place": "Brz\u00f3za Kr\u00f3lewska",
                "addr:housenumber": "484",
                "addr:city:simc": 653430,
                "phone": "+48 172401212",
                "email": "zsbrzozak@op.pl",
                "website": "http:\/\/zsbrzozakrolewska.gminalezajsk.pl",
                "ref:regon": "691756116",
                "ref:vatin": "PL8161574584",
                "operator": "Gmina Le\u017cajsk",
                "operator:type": "government",
                "landuse": "education",
                "fixme": "amenity=school, amenity=college albo landuse=education w zale\u017cno\u015bci od tego, jakie plac\u00f3wki wchodz\u0105 w sk\u0142ad zespo\u0142u. Sprawd\u017a, kiedy stosowa\u0107 amenity=* a kiedy landuse=education.",
                "note": "Children RSPO: 92464;124976;126073;127880"
            }
        },
        {
            "id": 92464,
            "type": "Feature",
            "geometry": {
                "type": "Point",
                "coordinates": [
                    22.32021,
                    50.24285
                ]
            },
            "properties": {
                "isced:level": "1;2",
                "ref:rspo": 92464,
                "official_name": "Szko\u0142a Podstawowa Brz\u00f3za Kr\u00f3lewska",
                "name": "Szko\u0142a Podstawowa Brz\u00f3za Kr\u00f3lewska",
                "addr:postcode": "37-307",
                "addr:place": "Brz\u00f3za Kr\u00f3lewska",
                "addr:housenumber": "484",
                "addr:city:simc": 653430,
                "phone": "+48 172401212",
                "email": "zsbrzozak@op.pl",
                "website": "http:\/\/zsbrzozakrolewska.gminalezajsk.pl",
                "ref:regon": "001131260",
                "ref:vatin": "PL8161523291",
                "operator": "Gmina Le\u017cajsk",
                "operator:type": "government",
                "amenity": "school",
                "note": "Parent RSPO: 69454"
            }
        },
        {
            "id": 124976,
            "type": "Feature",
            "geometry": {
                "type": "Point",
                "coordinates": [
                    22.32021,
                    50.24282
                ]
            },
            "properties": {
                "ref:rspo": 124976,
                "official_name": "Szkolne Schronisko M\u0142odzie\u017cowe ' Jutrzenka\"",
                "name": "Szkolne Schronisko M\u0142odzie\u017cowe ' Jutrzenka\"",
                "addr:postcode": "37-307",
                "addr:place": "Brz\u00f3za Kr\u00f3lewska",
                "addr:housenumber": "484",
                "addr:city:simc": 653430,
                "phone": "+48 172401212",
                "email": "zsbrzozak@op.pl",
                "website": "http:\/\/zsbrzozakrolewska.gminalezajsk.pl",
                "ref:regon": "181152867",
                "operator": "Gmina Le\u017cajsk",
                "operator:type": "government",
                "tourism": "hostel",
                "note": "Parent RSPO: 69454"
            }
        },
        {
            "id": 126073,
            "type": "Feature",
            "geometry": {
                "type": "Point",
                "coordinates": [
                    22.32184,
                    50.24487
                ]
            },
            "properties": {
                "ref:rspo": 126073,
                "official_name": "Zesp\u00f3\u0142 Szk\u00f3\u0142 Brz\u00f3za Kr\u00f3lewska - Przedszkole",
                "name": "Zesp\u00f3\u0142 Szk\u00f3\u0142 Brz\u00f3za Kr\u00f3lewska - Przedszkole",
                "addr:postcode": "37-307",
                "addr:place": "Brz\u00f3za Kr\u00f3lewska",
                "addr:housenumber": "499",
                "addr:city:simc": 653430,
                "phone": "+48 172429083",
                "email": "zsbrzozak@op.pl",
                "website": "http:\/\/zsbrzozakrolewska.gminalezajsk.pl",
                "ref:regon": "690354380",
                "operator": "Gmina Le\u017cajsk",
                "operator:type": "government",
                "amenity": "kindergarten",
                "note": "Parent RSPO: 69454"
            }
        },
        {
            "id": 127880,
            "type": "Feature",
            "geometry": {
                "type": "Point",
                "coordinates": [
                    22.34162,
                    50.26773
                ]
            },
            "properties": {
                "isced:level": "1;2",
                "ref:rspo": 127880,
                "official_name": "Zesp\u00f3\u0142 Szk\u00f3\u0142 Szko\u0142a Podstawowa w Brz\u00f3zie Kr\u00f3lewskiej Filia w Maleniskach",
                "name": "Zesp\u00f3\u0142 Szk\u00f3\u0142 Szko\u0142a Podstawowa w Brz\u00f3zie Kr\u00f3lewskiej Filia w Maleniskach",
                "addr:postcode": "37-307",
                "addr:place": "Maleniska",
                "addr:housenumber": "95",
                "addr:city:simc": 653854,
                "phone": "+48 172418351",
                "email": "zsbrzozak@op.pl",
                "website": "http:\/\/zsbrzozakrolewska.gminalezajsk.pl",
                "ref:regon": "361938672",
                "operator": "Gmina Le\u017cajsk",
                "operator:type": "government",
                "amenity": "school",
                "note": "Parent RSPO: 69454"
            }
        },
        {
            "id": 69780,
            "type": "Feature",
            "geometry": {
                "type": "Point",
                "coordinates": [
                    22.2986725,
                    50.2783186
                ]
            },
            "properties": {
                "isced:level": "1;2",
                "ref:rspo": 69780,
                "official_name": "Szko\u0142a Podstawowa Hucisko",
                "name": "Szko\u0142a Podstawowa Hucisko",
                "addr:postcode": "37-311",
                "addr:place": "Hucisko",
                "addr:housenumber": "153",
                "addr:city:simc": 653825,
                "phone": "+48 172429077",
                "email": "sp_huciskol@interia.pl",
                "website": "http:\/\/www.sphucisko.gminalezajsk.pl",
                "ref:regon": "001131307",
                "ref:vatin": "PL8161523612",
                "operator": "Gmina Le\u017cajsk",
                "operator:type": "government",
                "amenity": "school"
            }
        },
        {
            "id": 92461,
            "type": "Feature",
            "geometry": {
                "type": "Point",
                "coordinates": [
                    22.43184,
                    50.29068
                ]
            },
            "properties": {
                "isced:level": "1;2",
                "ref:rspo": 92461,
                "official_name": "Szko\u0142a Podstawowa Stare Miasto",
                "name": "Szko\u0142a Podstawowa Stare Miasto",
                "addr:postcode": "37-300",
                "addr:place": "Stare Miasto",
                "addr:housenumber": "177a",
                "addr:city:simc": 654010,
                "phone": "+48 172420695",
                "email": "spstarem@poczta.gminalezajsk.pl",
                "website": "http:\/\/www.spstaremiasto.gminalezajsk.pl",
                "ref:regon": "001131336",
                "ref:vatin": "PL8161574012",
                "operator": "Gmina Le\u017cajsk",
                "operator:type": "government",
                "amenity": "school"
            }
        },
        {
            "id": 69569,
            "type": "Feature",
            "geometry": {
                "type": "Point",
                "coordinates": [
                    22.39928,
                    50.30432
                ]
            },
            "properties": {
                "isced:level": "1;2",
                "ref:rspo": 69569,
                "official_name": "Szko\u0142a Podstawowa Przychojec",
                "name": "Szko\u0142a Podstawowa Przychojec",
                "addr:postcode": "37-300",
                "addr:place": "Przychojec",
                "addr:housenumber": "159",
                "addr:city:simc": 653920,
                "phone": "+48 172421138",
                "email": "spprzychojec@interia.pl",
                "website": "http:\/\/www.spprzychojec.edupage.org",
                "ref:regon": "001131320",
                "ref:vatin": "PL8161522819",
                "operator": "Gmina Le\u017cajsk",
                "operator:type": "government",
                "amenity": "school"
            }
        }
    ]
}