{"type":"FeatureCollection","features":[{"id":69485,"type":"Feature","geometry":{"type":"Point","coordinates":[22.47613,50.13602]},"properties":{"ref:rspo":69485,"official_name":"O\u015brodek Rewalidacyjno - Wychowawczy w Laszczynach","name":"O\u015brodek Rewalidacyjno - Wychowawczy w Laszczynach","addr:country":"PL","addr:postcode":"37-306","addr:place":"Laszczyny","addr:housenumber":"75a","addr:teryt:sym_ul":650761,"contact:phone":"+48 172436926","contact:email":"orewlaszczyny@onet.eu","contact:website":"http:\/\/www.orew.com.pl","ref:regon":"180902208","operator":"Stowarzyszenie Rodzic\u00f3w Dzieci Niepe\u0142nosprawnych W Grodzisku Dolnym","operator:type":"ngo","amenity":"school"}},{"id":105741,"type":"Feature","geometry":{"type":"Point","coordinates":[22.47613,50.13599]},"properties":{"isced:level":"1;2","ref:rspo":105741,"official_name":"Szko\u0142a Podstawowa w Laszczynach","name":"Szko\u0142a Podstawowa w Laszczynach","addr:country":"PL","addr:postcode":"37-306","addr:place":"Laszczyny","addr:housenumber":"75A","addr:teryt:sym_ul":650761,"contact:phone":"+48 172436012","contact:email":"splaszczyny@onet.eu","ref:regon":"180930995","ref:vatin":"PL8161024211","operator":"Stowarzyszenie Rozwoju Wsi Laszczyny","operator:type":"ngo","amenity":"school"}},{"id":105740,"type":"Feature","geometry":{"type":"Point","coordinates":[22.51735,50.14102]},"properties":{"isced:level":"1;2","ref:rspo":105740,"official_name":"Szko\u0142a Podstawowa w Chodaczowie","name":"Szko\u0142a Podstawowa w Chodaczowie","addr:country":"PL","addr:postcode":"37-306","addr:place":"Chodacz\u00f3w","addr:housenumber":"59A","addr:teryt:sym_ul":650525,"contact:phone":"+48 172436027","contact:email":"spchodaczow@wp.pl","ref:regon":"180930989","ref:vatin":"PL8161024168","operator":"Stowarzyszenie Rozwoju Wsi Chodacz\u00f3w","operator:type":"ngo","amenity":"school"}},{"id":53317,"type":"Feature","geometry":{"type":"Point","coordinates":[22.40738,50.15002]},"properties":{"isced:level":"1;2","ref:rspo":53317,"official_name":"Szko\u0142a Podstawowa im. Gen. Bryg. Wito\u0142da Nowiny-Sawickiego w Opaleniskach","name":"Szko\u0142a Podstawowa","addr:country":"PL","addr:postcode":"37-306","addr:place":"Opaleniska","addr:housenumber":"82a","addr:teryt:sym_ul":650790,"contact:phone":"+48 172436011","contact:email":"spopal@poczta.onet.pl","contact:website":"http:\/\/www.spopaleniska.grodziskodolne.pl","ref:regon":"180904012","ref:vatin":"PL8161024234","operator":"\"Stowarzyszenie Rozwoju Wiosek Opaleniska, Podlesie, Zmys\u0142\u00f3wka\"","operator:type":"ngo","amenity":"school"}},{"id":54346,"type":"Feature","geometry":{"type":"Point","coordinates":[22.46102,50.1638]},"properties":{"ref:rspo":54346,"official_name":"Zesp\u00f3\u0142 Szk\u00f3\u0142 im. Jana Paw\u0142a II w Grodzisku Dolnym","name":"Zesp\u00f3\u0142 Szk\u00f3\u0142","addr:country":"PL","addr:postcode":"37-306","addr:place":"Grodzisko Dolne","addr:housenumber":"150","addr:teryt:sym_ul":650590,"contact:phone":"+48 172436001","contact:email":"gimdol@go2.pl","ref:regon":"690723824","ref:vatin":"PL8161523285","operator":"Gmina Grodzisko Dolne","operator:type":"government","landuse":"education","fixme":"amenity=school, amenity=college albo landuse=education w zale\u017cno\u015bci od tego, jakie plac\u00f3wki wchodz\u0105 w sk\u0142ad zespo\u0142u. Sprawd\u017a, kiedy stosowa\u0107 amenity=* a kiedy landuse=education.","note":"Children RSPO: 86412;86416"}},{"id":86412,"type":"Feature","geometry":{"type":"Point","coordinates":[22.46102,50.16377]},"properties":{"isced:level":"1;2","ref:rspo":86412,"official_name":"Szko\u0142a Podstawowa w Grodzisku Dolnym","name":"Szko\u0142a Podstawowa w Grodzisku Dolnym","addr:country":"PL","addr:postcode":"37-306","addr:place":"Grodzisko Dolne","addr:housenumber":"150","addr:teryt:sym_ul":650590,"contact:phone":"+48 172436001","contact:email":"gdzs@op.pl","ref:regon":"000559842","operator":"Gmina Grodzisko Dolne","operator:type":"government","amenity":"school","note":"Parent RSPO: 54346"}},{"id":86416,"type":"Feature","geometry":{"type":"Point","coordinates":[22.46102,50.163740000000004]},"properties":{"ref:rspo":86416,"official_name":"Przedszkole Samorz\u0105dowe w Grodzisku Dolnym","name":"Przedszkole Samorz\u0105dowe w Grodzisku Dolnym","addr:country":"PL","addr:postcode":"37-306","addr:place":"Grodzisko Dolne","addr:housenumber":"150","addr:teryt:sym_ul":650590,"contact:phone":"+48 172436001","contact:email":"gimdol@o2.pl","ref:regon":"690010490","operator":"Gmina Grodzisko Dolne","operator:type":"government","amenity":"kindergarten","note":"Parent RSPO: 54346"}},{"id":53320,"type":"Feature","geometry":{"type":"Point","coordinates":[22.4497455,50.1783407]},"properties":{"ref:rspo":53320,"official_name":"Przedszkole Niepubliczne Pn. \"Ochronka \u015awi\u0119tego J\u00f3zefa\"","name":"Przedszkole Niepubliczne Pn. \"Ochronka \u015awi\u0119tego J\u00f3zefa\"","addr:country":"PL","addr:postcode":"37-306","addr:place":"Grodzisko Dolne","addr:housenumber":"288A","addr:teryt:sym_ul":650590,"contact:phone":"+48 172436218","contact:email":"ochronka.grodzisko@op.pl","ref:regon":"180900310","operator":"Zg. Ss. S\u0142u\u017cebniczek Nmp Niepokalanie Pocz\u0119tej, Prowincja Przemyska","operator:type":"religious","amenity":"kindergarten"}},{"id":55711,"type":"Feature","geometry":{"type":"Point","coordinates":[22.43619,50.18612]},"properties":{"ref:rspo":55711,"official_name":"Zesp\u00f3\u0142 Szk\u00f3\u0142 im. Prof. Franciszka Leji w Grodzisku G\u00f3rnym","name":"Zesp\u00f3\u0142 Szk\u00f3\u0142","addr:country":"PL","addr:postcode":"37-306","addr:place":"Grodzisko G\u00f3rne","addr:housenumber":"503","addr:teryt:sym_ul":650703,"contact:phone":"+48 172436023","contact:email":"sekretariat@zsleji.pl","ref:regon":"690723801","ref:vatin":"PL8161523279","operator":"Gmina Grodzisko Dolne","operator:type":"government","landuse":"education","fixme":"amenity=school, amenity=college albo landuse=education w zale\u017cno\u015bci od tego, jakie plac\u00f3wki wchodz\u0105 w sk\u0142ad zespo\u0142u. Sprawd\u017a, kiedy stosowa\u0107 amenity=* a kiedy landuse=education.","note":"Children RSPO: 86420;86425"}},{"id":86420,"type":"Feature","geometry":{"type":"Point","coordinates":[22.43619,50.18609]},"properties":{"isced:level":"1;2","ref:rspo":86420,"official_name":"Szko\u0142a Podstawowa w Grodzisku G\u00f3rnym","name":"Szko\u0142a Podstawowa w Grodzisku G\u00f3rnym","addr:country":"PL","addr:postcode":"37-306","addr:place":"Grodzisko G\u00f3rne","addr:housenumber":"503","addr:teryt:sym_ul":650703,"contact:phone":"+48 172436023","contact:email":"sekretariat@zsleji.pl","ref:regon":"001131218","operator":"Gmina Grodzisko Dolne","operator:type":"government","amenity":"school","note":"Parent RSPO: 55711"}},{"id":86425,"type":"Feature","geometry":{"type":"Point","coordinates":[22.43619,50.186060000000005]},"properties":{"ref:rspo":86425,"official_name":"Przedszkole Samorz\u0105dowe w Grodzisku G\u00f3rnym","name":"Przedszkole Samorz\u0105dowe w Grodzisku G\u00f3rnym","addr:country":"PL","addr:postcode":"37-306","addr:place":"Grodzisko G\u00f3rne","addr:housenumber":"503","addr:teryt:sym_ul":650703,"contact:phone":"+48 172436023","contact:email":"sekretariat@zsleji.pl","ref:regon":"690723818","operator":"Gmina Grodzisko Dolne","operator:type":"government","amenity":"kindergarten","note":"Parent RSPO: 55711"}},{"id":275896,"type":"Feature","geometry":{"type":"Point","coordinates":[22.39558,50.18951]},"properties":{"ref:rspo":275896,"official_name":"Przedszkole w W\u00f3lce Grodziskiej","name":"Przedszkole w W\u00f3lce Grodziskiej","addr:country":"PL","addr:postcode":"37-306","addr:place":"W\u00f3lka Grodziska","addr:housenumber":"116b","addr:teryt:sym_ul":650844,"contact:phone":"+48 172436022","contact:email":"ssp.wolka@interia.pl","contact:website":"http:\/\/www.spwolka.grodziskodolne.pl","ref:regon":"386954482","operator":"Stowarzyszenie Rozwoju Wsi W\u00f3lka Grodziska","operator:type":"ngo","amenity":"kindergarten"}},{"id":275897,"type":"Feature","geometry":{"type":"Point","coordinates":[22.39558,50.189479999999996]},"properties":{"isced:level":"1;2","ref:rspo":275897,"official_name":"Szko\u0142a Podstawowa w W\u00f3lce Grodziskiej","name":"Szko\u0142a Podstawowa w W\u00f3lce Grodziskiej","addr:country":"PL","addr:postcode":"37-306","addr:place":"W\u00f3lka Grodziska","addr:housenumber":"116b","addr:teryt:sym_ul":650844,"contact:phone":"+48 172436022","contact:email":"sekretariat@spwolka.pl","contact:website":"http:\/\/www.spwolka.grodziskodolne.pl","ref:regon":"386954499","operator":"Stowarzyszenie Rozwoju Wsi W\u00f3lka Grodziska","operator:type":"ngo","amenity":"school"}}]}