{"type":"FeatureCollection","features":[{"id":43621,"type":"Feature","geometry":{"type":"Point","coordinates":[22.56518,50.29045]},"properties":{"isced:level":"1;2","ref:rspo":43621,"official_name":"Szko\u0142a Podstawowa w D\u0105browicy","name":"Szko\u0142a Podstawowa w D\u0105browicy","addr:country":"PL","addr:postcode":"37-303","addr:place":"D\u0105browica","addr:housenumber":"6a","addr:teryt:sym_ul":653067,"contact:phone":"+48 172438029","contact:email":"sp_dabrowica@wp.pl","ref:regon":"001131247","ref:vatin":"PL8161523670","operator":"Gmina Kury\u0142\u00f3wka","operator:type":"government","amenity":"school"}},{"id":41916,"type":"Feature","geometry":{"type":"Point","coordinates":[22.46535,50.29822]},"properties":{"isced:level":"1;2","ref:rspo":41916,"official_name":"Szko\u0142a Podstawowa im. Franciszka Kyci w Kury\u0142\u00f3wce","name":"Szko\u0142a Podstawowa","addr:country":"PL","addr:postcode":"37-303","addr:place":"Kury\u0142\u00f3wka","addr:housenumber":"431","addr:teryt:sym_ul":653222,"contact:phone":"+48 172403000","contact:email":"zskurylowka@wp.pl","contact:website":"http:\/\/zskurylowka.pl","ref:regon":"000593773","ref:vatin":"PL8161523664","operator":"Gmina Kury\u0142\u00f3wka","operator:type":"government","amenity":"school"}},{"id":43634,"type":"Feature","geometry":{"type":"Point","coordinates":[22.56948,50.33352]},"properties":{"isced:level":"1;2","ref:rspo":43634,"official_name":"Szko\u0142a Podstawowa im. J\u00f3zefa \u015awi\u0105toniowskiego w Brzyskiej Woli","name":"Szko\u0142a Podstawowa","addr:country":"PL","addr:postcode":"37-304","addr:place":"Brzyska Wola","addr:housenumber":"169","addr:teryt:sym_ul":652990,"contact:phone":"+48 172429136","contact:email":"spbrzyskawola@op.pl","contact:website":"http:\/\/www.spbrzyskawola.edupage.org","ref:regon":"001131431","ref:vatin":"PL8161523658","operator":"Gmina Kury\u0142\u00f3wka","operator:type":"government","amenity":"school"}}]}