{
    "type": "FeatureCollection",
    "features": [
        {
            "id": 69494,
            "type": "Feature",
            "geometry": {
                "type": "Point",
                "coordinates": [
                    22.42188,
                    50.25202
                ]
            },
            "properties": {
                "ref:rspo": 69494,
                "official_name": "Le\u017cajskie Stowarzyszenie Rozwoju",
                "name": "Le\u017cajskie Stowarzyszenie Rozwoju",
                "addr:country": "PL",
                "addr:postcode": "37-300",
                "addr:city": "Le\u017cajsk",
                "addr:street": "Targowa",
                "addr:housenumber": "9",
                "addr:teryt:simc": 22659,
                "addr:teryt:sym_ul": 974400,
                "contact:phone": "+48 172427908",
                "contact:email": "lsr@lsr.pl",
                "contact:website": "http:\/\/www.lsr.pl",
                "ref:regon": "180904124",
                "operator": "Le\u017cajskie Stowarzyszenie Rozwoju",
                "operator:type": "ngo"
            }
        },
        {
            "id": 196427,
            "type": "Feature",
            "geometry": {
                "type": "Point",
                "coordinates": [
                    22.41946,
                    50.25334
                ]
            },
            "properties": {
                "ref:rspo": 196427,
                "official_name": "Zesp\u00f3\u0142 Szkolno-Przedszkolny Nr 1 w Le\u017cajsku",
                "name": "Zesp\u00f3\u0142 Szkolno-Przedszkolny Nr 1 w Le\u017cajsku",
                "addr:country": "PL",
                "addr:postcode": "37-300",
                "addr:city": "Le\u017cajsk",
                "addr:street": "Grunwaldzka",
                "addr:housenumber": "1",
                "addr:teryt:simc": 6260,
                "addr:teryt:sym_ul": 974400,
                "contact:phone": "+48 172420033",
                "contact:email": "kopernik@pro.onet.pl",
                "contact:website": "http:\/\/sp1.lezajsk.pl",
                "ref:regon": "367991727",
                "operator": "Miasto Le\u017cajsk",
                "operator:type": "government",
                "landuse": "education",
                "fixme": "amenity=school, amenity=college albo landuse=education w zale\u017cno\u015bci od tego, jakie plac\u00f3wki wchodz\u0105 w sk\u0142ad zespo\u0142u. Sprawd\u017a, kiedy stosowa\u0107 amenity=* a kiedy landuse=education.",
                "note": "Children RSPO: 88043;88366"
            }
        },
        {
            "id": 88043,
            "type": "Feature",
            "geometry": {
                "type": "Point",
                "coordinates": [
                    22.41946,
                    50.25331
                ]
            },
            "properties": {
                "isced:level": "1;2",
                "ref:rspo": 88043,
                "official_name": "Szko\u0142a Podstawowa Nr 1 im. Miko\u0142aja Kopernika w Le\u017cajsku",
                "name": "Szko\u0142a Podstawowa Nr 1",
                "addr:country": "PL",
                "addr:postcode": "37-300",
                "addr:city": "Le\u017cajsk",
                "addr:street": "Grunwaldzka",
                "addr:housenumber": "1",
                "addr:teryt:simc": 6260,
                "addr:teryt:sym_ul": 974400,
                "contact:phone": "+48 172420033",
                "contact:email": "kopernik@pro.onet.pl",
                "contact:website": "http:\/\/www.sp1lezajsk.pl",
                "ref:regon": "000803035",
                "ref:vatin": "PL8161523701",
                "operator": "Miasto Le\u017cajsk",
                "operator:type": "government",
                "amenity": "school",
                "note": "Parent RSPO: 196427"
            }
        },
        {
            "id": 89364,
            "type": "Feature",
            "geometry": {
                "type": "Point",
                "coordinates": [
                    22.42126,
                    50.25485
                ]
            },
            "properties": {
                "ref:rspo": 89364,
                "official_name": "Przedszkole Niepubliczne im.b\u0142ogos\u0142awionego Edmunda Bojanowskiego Prowadzone Przez Zgromadzenie Si\u00f3str S\u0142u\u017cebniczek Nmp Np w Le\u017cajsku",
                "name": "Przedszkole Niepubliczne im.b\u0142ogos\u0142awionego Edmunda Bojanowskiego Prowadzone Przez Zgromadzenie Si\u00f3str S\u0142u\u017cebniczek Nmp Np w Le\u017cajsku",
                "addr:country": "PL",
                "addr:postcode": "37-300",
                "addr:city": "Le\u017cajsk",
                "addr:street": "\"Majora Tadeusza \"\"Wyrwy\"\" Furgalskiego\"",
                "addr:housenumber": "4",
                "addr:teryt:simc": 34489,
                "addr:teryt:sym_ul": 974400,
                "contact:phone": "+48 172421589",
                "contact:email": "ochronka.04@onet.pl",
                "ref:regon": "180913790",
                "operator": "Dane Do Uzupe\u0142nienia",
                "operator:type": "private",
                "amenity": "kindergarten"
            }
        },
        {
            "id": 88366,
            "type": "Feature",
            "geometry": {
                "type": "Point",
                "coordinates": [
                    22.42125,
                    50.25548
                ]
            },
            "properties": {
                "ref:rspo": 88366,
                "official_name": "Przedszkole Miejskie Nr 2 Promyczek w Le\u017cajsku",
                "name": "Przedszkole Miejskie Nr 2 Promyczek w Le\u017cajsku",
                "addr:country": "PL",
                "addr:postcode": "37-300",
                "addr:city": "Le\u017cajsk",
                "addr:street": "Adama Mickiewicza",
                "addr:housenumber": "27",
                "addr:teryt:simc": 12740,
                "addr:teryt:sym_ul": 974400,
                "contact:phone": "+48 172420499",
                "contact:email": "przedszkole2lezajsk@op.pl",
                "ref:regon": "690035567",
                "ref:vatin": "PL8161524818",
                "operator": "Miasto Le\u017cajsk",
                "operator:type": "government",
                "amenity": "kindergarten",
                "note": "Parent RSPO: 196427"
            }
        },
        {
            "id": 68489,
            "type": "Feature",
            "geometry": {
                "type": "Point",
                "coordinates": [
                    22.42096,
                    50.25632
                ]
            },
            "properties": {
                "ref:rspo": 68489,
                "official_name": "Pa\u0144stwowa Szko\u0142a Muzyczna I St. w Le\u017cajsku",
                "name": "Pa\u0144stwowa Szko\u0142a Muzyczna I St. w Le\u017cajsku",
                "addr:country": "PL",
                "addr:postcode": "37-300",
                "addr:city": "Le\u017cajsk",
                "addr:street": "Adama Mickiewicza",
                "addr:housenumber": "31",
                "addr:teryt:simc": 12740,
                "addr:teryt:sym_ul": 974400,
                "contact:phone": "+48 172420222",
                "contact:email": "sekretariat@psmlezajsk.pl",
                "contact:website": "http:\/\/www.lezajsk.muzyczna.com.pl",
                "ref:regon": "000586218",
                "operator": "Ministerstwo Kultury I Dziedzictwa Narodowego",
                "operator:type": "public",
                "amenity": "music_school"
            }
        },
        {
            "id": 114913,
            "type": "Feature",
            "geometry": {
                "type": "Point",
                "coordinates": [
                    22.42096,
                    50.25629
                ]
            },
            "properties": {
                "ref:rspo": 114913,
                "official_name": "Niepa\u0144stwowa Szko\u0142a Muzyczna II St. w Le\u017cajsku",
                "name": "Niepa\u0144stwowa Szko\u0142a Muzyczna II St. w Le\u017cajsku",
                "addr:country": "PL",
                "addr:postcode": "37-300",
                "addr:city": "Le\u017cajsk",
                "addr:street": "Adama Mickiewicza",
                "addr:housenumber": "31",
                "addr:teryt:simc": 12740,
                "addr:teryt:sym_ul": 974400,
                "contact:email": "szkola@muzyczna.com.pl",
                "ref:regon": "180949210",
                "operator": "Agw Sp\u00f3\u0142ka Z Ograniczon\u0105 Odpowiedzialno\u015bci\u0105",
                "operator:type": "private",
                "amenity": "music_school"
            }
        },
        {
            "id": 68557,
            "type": "Feature",
            "geometry": {
                "type": "Point",
                "coordinates": [
                    22.42096,
                    50.256260000000005
                ]
            },
            "properties": {
                "ref:rspo": 68557,
                "official_name": "Niepa\u0144stwowa Szko\u0142a Muzyczna I St.w Le\u017cajsku",
                "name": "Niepa\u0144stwowa Szko\u0142a Muzyczna I St.w Le\u017cajsku",
                "addr:country": "PL",
                "addr:postcode": "37-300",
                "addr:city": "Le\u017cajsk",
                "addr:street": "Adama Mickiewicza",
                "addr:housenumber": "31",
                "addr:teryt:simc": 12740,
                "addr:teryt:sym_ul": 974400,
                "ref:regon": "180902119",
                "operator": "Grzegorz W\u00f3jcikiewicz",
                "operator:type": "private",
                "amenity": "music_school",
                "note": "Parent RSPO: 119161"
            }
        },
        {
            "id": 196428,
            "type": "Feature",
            "geometry": {
                "type": "Point",
                "coordinates": [
                    22.41947,
                    50.25907
                ]
            },
            "properties": {
                "ref:rspo": 196428,
                "official_name": "Zesp\u00f3\u0142 Szkolno-Przedszkolny Nr 2 w Le\u017cajsku",
                "name": "Zesp\u00f3\u0142 Szkolno-Przedszkolny Nr 2 w Le\u017cajsku",
                "addr:country": "PL",
                "addr:postcode": "37-300",
                "addr:city": "Le\u017cajsk",
                "addr:street": "Adama Mickiewicza",
                "addr:housenumber": "51",
                "addr:teryt:simc": 12740,
                "addr:teryt:sym_ul": 974400,
                "contact:phone": "+48 172427857",
                "contact:email": "sekretariat@zsp2-lezajsk.pl",
                "contact:website": "http:\/\/zsp2-lezajsk.pl",
                "ref:regon": "367991839",
                "operator": "Miasto Le\u017cajsk",
                "operator:type": "government",
                "landuse": "education",
                "fixme": "amenity=school, amenity=college albo landuse=education w zale\u017cno\u015bci od tego, jakie plac\u00f3wki wchodz\u0105 w sk\u0142ad zespo\u0142u. Sprawd\u017a, kiedy stosowa\u0107 amenity=* a kiedy landuse=education.",
                "note": "Children RSPO: 88161;88368"
            }
        },
        {
            "id": 88161,
            "type": "Feature",
            "geometry": {
                "type": "Point",
                "coordinates": [
                    22.41947,
                    50.25904
                ]
            },
            "properties": {
                "isced:level": "1;2",
                "ref:rspo": 88161,
                "official_name": "Szko\u0142a Podstawowa Nr 2 im. W\u0142adys\u0142awa Broniewskiego w Le\u017cajsku",
                "name": "Szko\u0142a Podstawowa Nr 2",
                "addr:country": "PL",
                "addr:postcode": "37-300",
                "addr:city": "Le\u017cajsk",
                "addr:street": "Adama Mickiewicza",
                "addr:housenumber": "51",
                "addr:teryt:simc": 12740,
                "addr:teryt:sym_ul": 974400,
                "contact:phone": "+48 172421754",
                "contact:email": "sp2@zsp2-lezajsk.pl",
                "contact:website": "http:\/\/zsp2-lezajsk.pl",
                "ref:regon": "000240187",
                "ref:vatin": "PL8161525427",
                "operator": "Miasto Le\u017cajsk",
                "operator:type": "government",
                "amenity": "school",
                "note": "Parent RSPO: 196428"
            }
        },
        {
            "id": 88367,
            "type": "Feature",
            "geometry": {
                "type": "Point",
                "coordinates": [
                    22.41578,
                    50.26054
                ]
            },
            "properties": {
                "ref:rspo": 88367,
                "official_name": "Przedszkole Miejskie Nr 3 \"Bajka\" w Le\u017cajsku",
                "name": "Przedszkole Miejskie Nr 3 \"Bajka\" w Le\u017cajsku",
                "addr:country": "PL",
                "addr:postcode": "37-300",
                "addr:city": "Le\u017cajsk",
                "addr:street": "Braci Jana i J\u0119drzeja \u015aniadeckich",
                "addr:housenumber": "8",
                "addr:teryt:simc": 34484,
                "addr:teryt:sym_ul": 974400,
                "contact:phone": "+48 172420143",
                "contact:email": "przedszkole3lezajsk@wp.pl",
                "contact:website": "http:\/\/www.bajka3lezajsk.edupage.org",
                "ref:regon": "690035550",
                "ref:vatin": "PL8161524793",
                "operator": "Miasto Le\u017cajsk",
                "operator:type": "government",
                "amenity": "kindergarten"
            }
        },
        {
            "id": 38982,
            "type": "Feature",
            "geometry": {
                "type": "Point",
                "coordinates": [
                    22.4121,
                    50.26103
                ]
            },
            "properties": {
                "ref:rspo": 38982,
                "official_name": "Poradnia Psychologiczno - Pedagogiczna w Le\u017cajsku",
                "name": "Poradnia Psychologiczno - Pedagogiczna w Le\u017cajsku",
                "addr:country": "PL",
                "addr:postcode": "37-300",
                "addr:city": "Le\u017cajsk",
                "addr:street": "Marii Curie-Sk\u0142odowskiej",
                "addr:housenumber": "8",
                "addr:teryt:simc": 3148,
                "addr:teryt:sym_ul": 974400,
                "contact:phone": "+48 172420799",
                "contact:email": "poradnialezajsk@o2.pl",
                "contact:website": "http:\/\/www.ppp.lezajsk.pl",
                "ref:regon": "001030180",
                "ref:vatin": "PL8161305370",
                "operator": "Powiat Le\u017cajski",
                "operator:type": "government",
                "healthcare": "counselling",
                "counselling_type": "education",
                "fixme": "w zale\u017cno\u015bci od przedmiotu dzia\u0142alno\u015bci (np. healthcare=counselling + counselling_type=education albo healthcare=psychotherapist)"
            }
        },
        {
            "id": 62568,
            "type": "Feature",
            "geometry": {
                "type": "Point",
                "coordinates": [
                    22.4121,
                    50.260999999999996
                ]
            },
            "properties": {
                "isced:level": "4",
                "ref:rspo": 62568,
                "official_name": "Szko\u0142a Policealna Meridum w Le\u017cajsku",
                "name": "Szko\u0142a Policealna Meridum w Le\u017cajsku",
                "addr:country": "PL",
                "addr:postcode": "37-300",
                "addr:city": "Le\u017cajsk",
                "addr:street": "Marii Curie-Sk\u0142odowskiej",
                "addr:housenumber": "8",
                "addr:teryt:simc": 3148,
                "addr:teryt:sym_ul": 974400,
                "contact:phone": "+48 172427673",
                "contact:email": "pszpodkarpacie@wp.pl",
                "contact:website": "http:\/\/www.nzs.edu.pl",
                "ref:regon": "180902036",
                "operator": "Krzysztof Leniart",
                "operator:type": "private",
                "amenity": "college"
            }
        },
        {
            "id": 69491,
            "type": "Feature",
            "geometry": {
                "type": "Point",
                "coordinates": [
                    22.4121,
                    50.26097
                ]
            },
            "properties": {
                "ref:rspo": 69491,
                "official_name": "O\u015brodek Kszta\u0142cenia Pozaszkolnego Meridum",
                "name": "O\u015brodek Kszta\u0142cenia Pozaszkolnego Meridum",
                "addr:country": "PL",
                "addr:postcode": "37-300",
                "addr:city": "Le\u017cajsk",
                "addr:street": "Marii Curie-Sk\u0142odowskiej",
                "addr:housenumber": "8",
                "addr:teryt:simc": 3148,
                "addr:teryt:sym_ul": 974400,
                "contact:phone": "+48 172427673",
                "contact:email": "pszpodkarpacie@wp.pl",
                "contact:website": "http:\/\/www.nzs.edu.pl",
                "ref:regon": "180904450",
                "operator": "Krzysztof Leniart",
                "operator:type": "private"
            }
        },
        {
            "id": 71388,
            "type": "Feature",
            "geometry": {
                "type": "Point",
                "coordinates": [
                    22.4121,
                    50.26094
                ]
            },
            "properties": {
                "ref:rspo": 71388,
                "official_name": "Internat",
                "name": "Internat",
                "addr:country": "PL",
                "addr:postcode": "37-300",
                "addr:city": "Le\u017cajsk",
                "addr:street": "Marii Curie-Sk\u0142odowskiej",
                "addr:housenumber": "8",
                "addr:teryt:simc": 3148,
                "addr:teryt:sym_ul": 974400,
                "contact:phone": "+48 172420742",
                "ref:regon": "691684003",
                "operator": "Powiat Le\u017cajski",
                "operator:type": "government",
                "building": "dormitory",
                "note": "Parent RSPO: 6903"
            }
        },
        {
            "id": 88368,
            "type": "Feature",
            "geometry": {
                "type": "Point",
                "coordinates": [
                    22.4121,
                    50.260909999999996
                ]
            },
            "properties": {
                "ref:rspo": 88368,
                "official_name": "Przedszkole Miejskie Nr 4 w Le\u017cajsku",
                "name": "Przedszkole Miejskie Nr 4 w Le\u017cajsku",
                "addr:country": "PL",
                "addr:postcode": "37-300",
                "addr:city": "Le\u017cajsk",
                "addr:street": "Marii Curie-Sk\u0142odowskiej",
                "addr:housenumber": "8",
                "addr:teryt:simc": 3148,
                "addr:teryt:sym_ul": 974400,
                "contact:phone": "+48 172420423",
                "contact:email": "pm4@zsp2-lezajsk.pl",
                "contact:website": "http:\/\/zsp2-lezajsk.pl",
                "ref:regon": "690035544",
                "ref:vatin": "PL8161524801",
                "operator": "Miasto Le\u017cajsk",
                "operator:type": "government",
                "amenity": "kindergarten",
                "note": "Parent RSPO: 196428"
            }
        },
        {
            "id": 6903,
            "type": "Feature",
            "geometry": {
                "type": "Point",
                "coordinates": [
                    22.41256,
                    50.26121
                ]
            },
            "properties": {
                "ref:rspo": 6903,
                "official_name": "Zesp\u00f3\u0142 Szk\u00f3\u0142 Licealnych im. Boles\u0142awa Chrobrego w Le\u017cajsku",
                "name": "Zesp\u00f3\u0142 Szk\u00f3\u0142 Licealnych",
                "addr:country": "PL",
                "addr:postcode": "37-300",
                "addr:city": "Le\u017cajsk",
                "addr:street": "Marii Curie-Sk\u0142odowskiej",
                "addr:housenumber": "6",
                "addr:teryt:simc": 3148,
                "addr:teryt:sym_ul": 974400,
                "contact:phone": "+48 172420019",
                "contact:email": "sekretariat@zslchrobry.lezajsk.pl",
                "contact:website": "http:\/\/www.zslchrobry.lezajsk.pl",
                "ref:regon": "000229270",
                "ref:vatin": "PL8161076679",
                "operator": "Powiat Le\u017cajski",
                "operator:type": "government",
                "landuse": "education",
                "fixme": "amenity=school, amenity=college albo landuse=education w zale\u017cno\u015bci od tego, jakie plac\u00f3wki wchodz\u0105 w sk\u0142ad zespo\u0142u. Sprawd\u017a, kiedy stosowa\u0107 amenity=* a kiedy landuse=education.",
                "note": "Children RSPO: 69871;69874;71388"
            }
        },
        {
            "id": 69871,
            "type": "Feature",
            "geometry": {
                "type": "Point",
                "coordinates": [
                    22.41256,
                    50.261179999999996
                ]
            },
            "properties": {
                "isced:level": "3",
                "ref:rspo": 69871,
                "official_name": "Liceum Og\u00f3lnokszta\u0142c\u0105ce Nr 1 w Le\u017cajsku",
                "name": "Liceum Og\u00f3lnokszta\u0142c\u0105ce Nr 1 w Le\u017cajsku",
                "addr:country": "PL",
                "addr:postcode": "37-300",
                "addr:city": "Le\u017cajsk",
                "addr:street": "Marii Curie-Sk\u0142odowskiej",
                "addr:housenumber": "6",
                "addr:teryt:simc": 3148,
                "addr:teryt:sym_ul": 974400,
                "contact:phone": "+48 172420019",
                "contact:email": "sekretariat@zslchrobry.lezajsk.pl",
                "contact:website": "http:\/\/www.zslchrobry.lezajsk.pl",
                "ref:regon": "691683972",
                "operator": "Powiat Le\u017cajski",
                "operator:type": "government",
                "amenity": "school",
                "note": "Parent RSPO: 6903"
            }
        },
        {
            "id": 69874,
            "type": "Feature",
            "geometry": {
                "type": "Point",
                "coordinates": [
                    22.41256,
                    50.26115
                ]
            },
            "properties": {
                "isced:level": "3",
                "ref:rspo": 69874,
                "official_name": "Technikum Nr 2 w Le\u017cajsku",
                "name": "Technikum Nr 2 w Le\u017cajsku",
                "addr:country": "PL",
                "addr:postcode": "37-300",
                "addr:city": "Le\u017cajsk",
                "addr:street": "Marii Curie-Sk\u0142odowskiej",
                "addr:housenumber": "6",
                "addr:teryt:simc": 3148,
                "addr:teryt:sym_ul": 974400,
                "contact:phone": "+48 172420019",
                "contact:email": "sekretariat@zslchrobry.lezajsk.pl",
                "contact:website": "http:\/\/www.zslchrobry.lezajsk.pl",
                "ref:regon": "691683995",
                "operator": "Powiat Le\u017cajski",
                "operator:type": "government",
                "amenity": "school",
                "note": "Parent RSPO: 6903"
            }
        },
        {
            "id": 38978,
            "type": "Feature",
            "geometry": {
                "type": "Point",
                "coordinates": [
                    22.41855,
                    50.26221
                ]
            },
            "properties": {
                "ref:rspo": 38978,
                "official_name": "Zesp\u00f3\u0142 Szk\u00f3\u0142 Technicznych im. Tadeusza Ko\u015bciuszki w Le\u017cajsku",
                "name": "Zesp\u00f3\u0142 Szk\u00f3\u0142 Technicznych",
                "addr:country": "PL",
                "addr:postcode": "37-300",
                "addr:city": "Le\u017cajsk",
                "addr:street": "Adama Mickiewicza",
                "addr:housenumber": "67",
                "addr:teryt:simc": 12740,
                "addr:teryt:sym_ul": 974400,
                "contact:phone": "+48 172406107",
                "contact:email": "szkola@zst.lezajsk.pl",
                "contact:website": "http:\/\/www.zst.lezajsk.pl",
                "ref:regon": "000187620",
                "ref:vatin": "PL8161119928",
                "operator": "Powiat Le\u017cajski",
                "operator:type": "government",
                "landuse": "education",
                "fixme": "amenity=school, amenity=college albo landuse=education w zale\u017cno\u015bci od tego, jakie plac\u00f3wki wchodz\u0105 w sk\u0142ad zespo\u0142u. Sprawd\u017a, kiedy stosowa\u0107 amenity=* a kiedy landuse=education.",
                "note": "Children RSPO: 71389;71391;75999;80997"
            }
        },
        {
            "id": 71389,
            "type": "Feature",
            "geometry": {
                "type": "Point",
                "coordinates": [
                    22.41855,
                    50.26218
                ]
            },
            "properties": {
                "isced:level": "3",
                "ref:rspo": 71389,
                "official_name": "Technikum Nr 1 w Le\u017cajsku",
                "name": "Technikum Nr 1 w Le\u017cajsku",
                "addr:country": "PL",
                "addr:postcode": "37-300",
                "addr:city": "Le\u017cajsk",
                "addr:street": "Adama Mickiewicza",
                "addr:housenumber": "67",
                "addr:teryt:simc": 12740,
                "addr:teryt:sym_ul": 974400,
                "contact:phone": "+48 172406107",
                "contact:email": "szkola@zst.lezajsk.pl",
                "contact:website": "http:\/\/www.zst.lezajsk.pl",
                "ref:regon": "691683920",
                "operator": "Powiat Le\u017cajski",
                "operator:type": "government",
                "amenity": "school",
                "note": "Parent RSPO: 38978"
            }
        },
        {
            "id": 71391,
            "type": "Feature",
            "geometry": {
                "type": "Point",
                "coordinates": [
                    22.41855,
                    50.262150000000005
                ]
            },
            "properties": {
                "isced:level": "3",
                "ref:rspo": 71391,
                "official_name": "Bran\u017cowa Szko\u0142a I Stopnia Nr 1 w Le\u017cajsku",
                "name": "Bran\u017cowa Szko\u0142a I Stopnia Nr 1 w Le\u017cajsku",
                "addr:country": "PL",
                "addr:postcode": "37-300",
                "addr:city": "Le\u017cajsk",
                "addr:street": "Adama Mickiewicza",
                "addr:housenumber": "67",
                "addr:teryt:simc": 12740,
                "addr:teryt:sym_ul": 974400,
                "contact:phone": "+48 172406107",
                "contact:email": "szkola@zst.lezajsk.pl",
                "contact:website": "http:\/\/www.zst.lezajsk.pl",
                "ref:regon": "691683908",
                "operator": "Powiat Le\u017cajski",
                "operator:type": "government",
                "amenity": "school",
                "note": "Parent RSPO: 38978"
            }
        },
        {
            "id": 75999,
            "type": "Feature",
            "geometry": {
                "type": "Point",
                "coordinates": [
                    22.41855,
                    50.26212
                ]
            },
            "properties": {
                "isced:level": "3",
                "ref:rspo": 75999,
                "official_name": "Liceum Og\u00f3lnokszta\u0142c\u0105ce dla Doros\u0142ych Nr 2 w Le\u017cajsku",
                "name": "Liceum Og\u00f3lnokszta\u0142c\u0105ce dla Doros\u0142ych Nr 2 w Le\u017cajsku",
                "addr:country": "PL",
                "addr:postcode": "37-300",
                "addr:city": "Le\u017cajsk",
                "addr:street": "Adama Mickiewicza",
                "addr:housenumber": "67",
                "addr:teryt:simc": 12740,
                "addr:teryt:sym_ul": 974400,
                "contact:phone": "+48 172406107",
                "contact:email": "szkola@zst.lezajsk.pl",
                "contact:website": "http:\/\/www.zst.lezajsk.pl",
                "ref:regon": "180907915",
                "operator": "Powiat Le\u017cajski",
                "operator:type": "government",
                "amenity": "school",
                "note": "Parent RSPO: 38978"
            }
        },
        {
            "id": 80997,
            "type": "Feature",
            "geometry": {
                "type": "Point",
                "coordinates": [
                    22.41855,
                    50.26209
                ]
            },
            "properties": {
                "ref:rspo": 80997,
                "official_name": "Centrum Kszta\u0142cenia Zawodowego w Le\u017cajsku",
                "name": "Centrum Kszta\u0142cenia Zawodowego w Le\u017cajsku",
                "addr:country": "PL",
                "addr:postcode": "37-300",
                "addr:city": "Le\u017cajsk",
                "addr:street": "Adama Mickiewicza",
                "addr:housenumber": "67",
                "addr:teryt:simc": 12740,
                "addr:teryt:sym_ul": 974400,
                "contact:phone": "+48 172406107",
                "contact:email": "szkola@zst.lezajsk.pl",
                "contact:website": "http:\/\/www.zst.lezajsk.pl",
                "ref:regon": "180909140",
                "operator": "Powiat Le\u017cajski",
                "operator:type": "government",
                "fixme": "w zale\u017cno\u015bci od przedmiotu dzia\u0142alno\u015bci (np. amenity=training + training=*, amenity=dancing_school, amenity=language_school, amenity=music_school) albo amenity=school, amenity=college, albo landuse=education w zale\u017cno\u015bci od tego, jakie plac\u00f3wki wchodz\u0105 w sk\u0142ad zespo\u0142u. Sprawd\u017a, kiedy stosowa\u0107 amenity=* a kiedy landuse=education.",
                "note": "Parent RSPO: 38978"
            }
        },
        {
            "id": 6904,
            "type": "Feature",
            "geometry": {
                "type": "Point",
                "coordinates": [
                    22.41848,
                    50.2631299
                ]
            },
            "properties": {
                "ref:rspo": 6904,
                "official_name": "Specjalny O\u015brodek Szkolno - Wychowawczy im. \u015aw. Jana Paw\u0142a II w Le\u017cajsku",
                "name": "Specjalny O\u015brodek Szkolno - Wychowawczy",
                "addr:country": "PL",
                "addr:postcode": "37-300",
                "addr:city": "Le\u017cajsk",
                "addr:street": "Adama Mickiewicza",
                "addr:housenumber": "76",
                "addr:teryt:simc": 12740,
                "addr:teryt:sym_ul": 974400,
                "contact:phone": "+48 172420254",
                "contact:email": "sosw@sosw.lezajsk.pl",
                "contact:website": "http:\/\/www.sosw.lezajsk.pl",
                "ref:regon": "000995402",
                "ref:vatin": "PL8161418157",
                "operator": "Powiat Le\u017cajski",
                "operator:type": "government",
                "amenity": "school",
                "note": "Children RSPO: 53321;53322;53323"
            }
        },
        {
            "id": 53321,
            "type": "Feature",
            "geometry": {
                "type": "Point",
                "coordinates": [
                    22.41848,
                    50.2630999
                ]
            },
            "properties": {
                "isced:level": "1;2",
                "ref:rspo": 53321,
                "official_name": "Szko\u0142a Podstawowa Nr 5 w Le\u017cajsku",
                "name": "Szko\u0142a Podstawowa Nr 5 w Le\u017cajsku",
                "addr:country": "PL",
                "addr:postcode": "37-300",
                "addr:city": "Le\u017cajsk",
                "addr:street": "Adama Mickiewicza",
                "addr:housenumber": "76",
                "addr:teryt:simc": 12740,
                "addr:teryt:sym_ul": 974400,
                "contact:phone": "+48 172420254",
                "contact:email": "sosw@sosw.lezajsk.pl",
                "contact:website": "http:\/\/www.sosw.lezajsk.pl",
                "ref:regon": "691683883",
                "operator": "Powiat Le\u017cajski",
                "operator:type": "government",
                "amenity": "school",
                "note": "Parent RSPO: 6904"
            }
        },
        {
            "id": 53322,
            "type": "Feature",
            "geometry": {
                "type": "Point",
                "coordinates": [
                    22.41848,
                    50.263069900000005
                ]
            },
            "properties": {
                "isced:level": "3",
                "ref:rspo": 53322,
                "official_name": "Bran\u017cowa Szko\u0142a I Stopnia Specjalna Nr 2 w Le\u017cajsku",
                "name": "Bran\u017cowa Szko\u0142a I Stopnia Specjalna Nr 2 w Le\u017cajsku",
                "addr:country": "PL",
                "addr:postcode": "37-300",
                "addr:city": "Le\u017cajsk",
                "addr:street": "Adama Mickiewicza",
                "addr:housenumber": "76",
                "addr:teryt:simc": 12740,
                "addr:teryt:sym_ul": 974400,
                "contact:phone": "+48 172420254",
                "contact:email": "sosw@sosw.lezajsk.pl",
                "contact:website": "http:\/\/www.sosw.lezajsk.pl",
                "ref:regon": "180052572",
                "operator": "Powiat Le\u017cajski",
                "operator:type": "government",
                "amenity": "school",
                "note": "Parent RSPO: 6904"
            }
        },
        {
            "id": 53323,
            "type": "Feature",
            "geometry": {
                "type": "Point",
                "coordinates": [
                    22.41848,
                    50.2630399
                ]
            },
            "properties": {
                "ref:rspo": 53323,
                "official_name": "Szko\u0142a Specjalna Przysposabiaj\u0105ca Do Pracy w Le\u017cajsku",
                "name": "Szko\u0142a Specjalna Przysposabiaj\u0105ca Do Pracy w Le\u017cajsku",
                "addr:country": "PL",
                "addr:postcode": "37-300",
                "addr:city": "Le\u017cajsk",
                "addr:street": "Adama Mickiewicza",
                "addr:housenumber": "76",
                "addr:teryt:simc": 12740,
                "addr:teryt:sym_ul": 974400,
                "contact:phone": "+48 172420254",
                "contact:email": "sosw@sosw.lezajsk.pl",
                "contact:website": "http:\/\/www.sosw.lezajsk.pl",
                "ref:regon": "180052589",
                "operator": "Powiat Le\u017cajski",
                "operator:type": "government",
                "amenity": "school",
                "note": "Parent RSPO: 6904"
            }
        },
        {
            "id": 128421,
            "type": "Feature",
            "geometry": {
                "type": "Point",
                "coordinates": [
                    22.41606,
                    50.26382
                ]
            },
            "properties": {
                "ref:rspo": 128421,
                "official_name": "Pedagogiczna Biblioteka Wojew\u00f3dzka w Rzeszowie Filia w Le\u017cajsku",
                "name": "Pedagogiczna Biblioteka Wojew\u00f3dzka w Rzeszowie Filia w Le\u017cajsku",
                "addr:country": "PL",
                "addr:postcode": "37-300",
                "addr:city": "Le\u017cajsk",
                "addr:street": "Adama Mickiewicza",
                "addr:housenumber": "79",
                "addr:teryt:simc": 12740,
                "addr:teryt:sym_ul": 974400,
                "contact:phone": "+48 172428352",
                "contact:email": "lezajsk@pbw.org.pl",
                "ref:regon": "691164717",
                "operator": "Wojew\u00f3dztwo Podkarpackie",
                "operator:type": "government",
                "amenity": "library",
                "note": "Parent RSPO: 92368"
            }
        },
        {
            "id": 265099,
            "type": "Feature",
            "geometry": {
                "type": "Point",
                "coordinates": [
                    22.43147,
                    50.26778
                ]
            },
            "properties": {
                "ref:rspo": 265099,
                "official_name": "Niepubliczne Przedszkole J\u0119zykowe Abc I Opieka Dzienna - Anna Kurzyp-Kocio\u0142ek",
                "name": "Niepubliczne Przedszkole J\u0119zykowe Abc I Opieka Dzienna - Anna Kurzyp-Kocio\u0142ek",
                "addr:country": "PL",
                "addr:postcode": "37-300",
                "addr:city": "Le\u017cajsk",
                "addr:street": "Podolszyny",
                "addr:housenumber": "39",
                "addr:teryt:simc": 16836,
                "addr:teryt:sym_ul": 974400,
                "contact:email": "kurzypkociolek@wp.pl",
                "ref:regon": "368599173",
                "operator": "Anna Kurzyp-Kocio\u0142ek",
                "operator:type": "private",
                "amenity": "kindergarten"
            }
        },
        {
            "id": 128004,
            "type": "Feature",
            "geometry": {
                "type": "Point",
                "coordinates": [
                    22.42109,
                    50.2708
                ]
            },
            "properties": {
                "ref:rspo": 128004,
                "official_name": "O\u015brodek Szkoleniowy Smart Projekt",
                "name": "O\u015brodek Szkoleniowy Smart Projekt",
                "addr:country": "PL",
                "addr:postcode": "37-300",
                "addr:city": "Le\u017cajsk",
                "addr:street": "Stefana \u017beromskiego",
                "addr:housenumber": "4",
                "addr:teryt:simc": 26469,
                "addr:teryt:sym_ul": 974400,
                "contact:phone": "+48 601297248",
                "contact:email": "daniel@szarkowicz.pl",
                "contact:website": "http:\/\/www.smartprojekt.pl",
                "ref:regon": "362020315",
                "operator": "Smart Projekt Sp\u00f3\u0142ka Z Ograniczon\u0105 Odpowiedzialno\u015bci\u0105",
                "operator:type": "private"
            }
        },
        {
            "id": 88218,
            "type": "Feature",
            "geometry": {
                "type": "Point",
                "coordinates": [
                    22.41299,
                    50.27109
                ]
            },
            "properties": {
                "isced:level": "1;2",
                "ref:rspo": 88218,
                "official_name": "Szko\u0142a Podstawowa Nr 3 im. Ks. Kardyna\u0142a Stefana Wyszy\u0144skiego w Le\u017cajsku",
                "name": "Szko\u0142a Podstawowa Nr 3",
                "addr:country": "PL",
                "addr:postcode": "37-300",
                "addr:city": "Le\u017cajsk",
                "addr:street": "11 Listopada",
                "addr:housenumber": "8",
                "addr:teryt:simc": 11205,
                "addr:teryt:sym_ul": 974400,
                "contact:phone": "+48 172421649",
                "contact:email": "sp3lezajsk@gmail.com",
                "ref:regon": "691556311",
                "ref:vatin": "PL8161538039",
                "operator": "Miasto Le\u017cajsk",
                "operator:type": "government",
                "amenity": "school"
            }
        }
    ]
}