{
    "type": "FeatureCollection",
    "features": [
        {
            "id": 115427,
            "type": "Feature",
            "geometry": {
                "type": "Point",
                "coordinates": [
                    18.848475,
                    54.215035
                ]
            },
            "properties": {
                "ref:rspo": 115427,
                "official_name": "O\u015brodek Rewalidacyjno-Wychowawczy ,,\u017bu\u0142awski S\u0142onecznik''",
                "name": "O\u015brodek Rewalidacyjno-Wychowawczy ,,\u017bu\u0142awski S\u0142onecznik''",
                "addr:postcode": "83-022",
                "addr:place": "Giemlice",
                "addr:housenumber": "1",
                "addr:teryt:simc": 159663,
                "phone": "+48 583054327",
                "email": "orw.giemlice@wp.pl",
                "ref:regon": "221082797",
                "ref:vatin": "PL6040136559",
                "operator": "Gmina Cedry Wielkie",
                "operator:type": "government",
                "amenity": "school"
            }
        },
        {
            "id": 53964,
            "type": "Feature",
            "geometry": {
                "type": "Point",
                "coordinates": [
                    18.79497,
                    54.23827
                ]
            },
            "properties": {
                "isced:level": "1;2",
                "ref:rspo": 53964,
                "official_name": "Szko\u0142a Podstawowa im. Obro\u0144c\u00f3w Ziem Polskich w Woc\u0142awach",
                "name": "Szko\u0142a Podstawowa",
                "addr:postcode": "83-020",
                "addr:city": "Woc\u0142awy",
                "addr:street": "W\u0142adys\u0142awa \u0141okietka",
                "addr:housenumber": "40",
                "addr:teryt:simc": 159806,
                "addr:teryt:sym_ul": 11653,
                "phone": "+48 586927499",
                "email": "sekretariat@woclawysp.pl",
                "website": "http:\/\/spwoclawy.edupage.org",
                "ref:regon": "001172217",
                "ref:vatin": "PL6040031375",
                "operator": "Gmina Cedry Wielkie",
                "operator:type": "government",
                "amenity": "school"
            }
        },
        {
            "id": 115608,
            "type": "Feature",
            "geometry": {
                "type": "Point",
                "coordinates": [
                    18.84552,
                    54.24875
                ]
            },
            "properties": {
                "isced:level": "1;2",
                "ref:rspo": 115608,
                "official_name": "Szko\u0142a Podstawowa im.henryka Sienkiewicza w Cedrach Wielkich",
                "name": "Szko\u0142a Podstawowa im.henryka Sienkiewicza w Cedrach Wielkich",
                "addr:postcode": "83-020",
                "addr:city": "Cedry Wielkie",
                "addr:street": "Osadnik\u00f3w Wojskowych",
                "addr:housenumber": "21",
                "addr:teryt:simc": 159640,
                "addr:teryt:sym_ul": 15229,
                "phone": "+48 586836128",
                "email": "gim.cedry.wlk@wp.pl",
                "ref:regon": "000265247",
                "operator": "Gmina Cedry Wielkie",
                "operator:type": "government",
                "amenity": "school"
            }
        },
        {
            "id": 115429,
            "type": "Feature",
            "geometry": {
                "type": "Point",
                "coordinates": [
                    18.84557,
                    54.25173
                ]
            },
            "properties": {
                "ref:rspo": 115429,
                "official_name": "Niepubliczny Zesp\u00f3\u0142 S\u0142onecznych Okienek Przedszkolnych (Nz-Sop)",
                "name": "Niepubliczny Zesp\u00f3\u0142 S\u0142onecznych Okienek Przedszkolnych (Nz-Sop)",
                "addr:postcode": "83-020",
                "addr:city": "Cedry Wielkie",
                "addr:street": "Osadnik\u00f3w Wojskowych",
                "addr:housenumber": "41",
                "addr:teryt:simc": 159640,
                "addr:teryt:sym_ul": 15229,
                "email": "jolak1976@o2.pl",
                "website": "http:\/\/sop-cedrywielkie.pl",
                "ref:regon": "221912260",
                "operator": "Gda\u0144skie Stowarzyszenie Pedagog\u00f3w Praktyk\u00f3w",
                "operator:type": "ngo",
                "amenity": "kindergarten"
            }
        },
        {
            "id": 264263,
            "type": "Feature",
            "geometry": {
                "type": "Point",
                "coordinates": [
                    18.8719,
                    54.27372
                ]
            },
            "properties": {
                "isced:level": "1;2",
                "ref:rspo": 264263,
                "official_name": "Szko\u0142a Podstawowa im.j.kraziewicza w Cedrach Ma\u0142ych",
                "name": "Szko\u0142a Podstawowa im.j.kraziewicza w Cedrach Ma\u0142ych",
                "addr:postcode": "83-020",
                "addr:city": "Cedry Ma\u0142e",
                "addr:street": "\u017bu\u0142awska",
                "addr:housenumber": "58",
                "addr:teryt:simc": 159628,
                "addr:teryt:sym_ul": 26567,
                "phone": "+48 586836126",
                "email": "szkola.cedrymale@wp.pl",
                "website": "http:\/\/www.zscm.pl",
                "ref:regon": "001172192",
                "operator": "Gmina Cedry Wielkie",
                "operator:type": "government",
                "amenity": "school"
            }
        },
        {
            "id": 53965,
            "type": "Feature",
            "geometry": {
                "type": "Point",
                "coordinates": [
                    18.87792,
                    54.27674
                ]
            },
            "properties": {
                "ref:rspo": 53965,
                "official_name": "Przedszkole Samorz\u0105dowe Nr 2 w Cedrach Ma\u0142ych",
                "name": "Przedszkole Samorz\u0105dowe Nr 2 w Cedrach Ma\u0142ych",
                "addr:postcode": "83-020",
                "addr:city": "Cedry Ma\u0142e",
                "addr:street": "Wi\u015blana",
                "addr:housenumber": "11",
                "addr:door": "4",
                "addr:teryt:simc": 159628,
                "addr:teryt:sym_ul": 24398,
                "phone": "+48 586836201",
                "email": "przedszkole.cedry@interia.pl",
                "ref:regon": "190581831",
                "ref:vatin": "PL6040031381",
                "operator": "Gmina Cedry Wielkie",
                "operator:type": "government",
                "amenity": "kindergarten"
            }
        }
    ]
}