{
    "type": "FeatureCollection",
    "features": [
        {
            "id": 275554,
            "type": "Feature",
            "geometry": {
                "type": "Point",
                "coordinates": [
                    18.64967,
                    54.21471
                ]
            },
            "properties": {
                "ref:rspo": 275554,
                "official_name": "Przedszkole Niepubliczne \"Chatka Puchatka\"",
                "name": "Przedszkole Niepubliczne \"Chatka Puchatka\"",
                "addr:postcode": "83-031",
                "addr:city": "\u0141\u0119gowo",
                "addr:street": "D\u0142uga",
                "addr:housenumber": "30",
                "addr:teryt:simc": 169236,
                "addr:teryt:sym_ul": 3839,
                "phone": "+48 782450300",
                "email": "l.sliwa@biw.gda.pl",
                "ref:regon": "386932948",
                "operator": "Bo\u017cena Dzidkowska",
                "operator:type": "private",
                "amenity": "kindergarten"
            }
        },
        {
            "id": 55115,
            "type": "Feature",
            "geometry": {
                "type": "Point",
                "coordinates": [
                    18.64427,
                    54.21488
                ]
            },
            "properties": {
                "ref:rspo": 55115,
                "official_name": "Niepubliczne Przedszkole \"Le\u015bny Zak\u0105tek\"",
                "name": "Niepubliczne Przedszkole \"Le\u015bny Zak\u0105tek\"",
                "addr:postcode": "83-031",
                "addr:city": "\u0141\u0119gowo",
                "addr:street": "Le\u015bna",
                "addr:housenumber": "19",
                "addr:teryt:simc": 169236,
                "addr:teryt:sym_ul": 10898,
                "phone": "+48 796166995",
                "email": "biuro@przedszkolelesnyzakatek.pl",
                "ref:regon": "221765970",
                "operator": "Katarzyna Mik",
                "operator:type": "private",
                "amenity": "kindergarten"
            }
        },
        {
            "id": 129840,
            "type": "Feature",
            "geometry": {
                "type": "Point",
                "coordinates": [
                    18.54917,
                    54.21636
                ]
            },
            "properties": {
                "ref:rspo": 129840,
                "official_name": "\"Morskie Opowie\u015bci\" - Niepubliczne Przedszkole Aleksanda Ko\u015bci\u0144ska",
                "name": "\"Morskie Opowie\u015bci\" - Niepubliczne Przedszkole Aleksanda Ko\u015bci\u0144ska",
                "addr:postcode": "83-010",
                "addr:city": "Jagatowo",
                "addr:street": "Wrzosowa",
                "addr:housenumber": "2",
                "addr:teryt:simc": 169147,
                "addr:teryt:sym_ul": 24870,
                "phone": "+48 696832760",
                "email": "morskieopowiesci.edu@gmail.com",
                "website": "http:\/\/morskieopowiesci.edu.pl",
                "ref:regon": "362977585",
                "operator": "Aleksandra Ko\u015bci\u0144ska",
                "operator:type": "private",
                "amenity": "kindergarten"
            }
        },
        {
            "id": 13496,
            "type": "Feature",
            "geometry": {
                "type": "Point",
                "coordinates": [
                    18.64912,
                    54.22327
                ]
            },
            "properties": {
                "isced:level": "1;2",
                "ref:rspo": 13496,
                "official_name": "Szko\u0142a Podstawowa im.bohater\u00f3w Grudnia'70 w \u0141\u0119gowie",
                "name": "Szko\u0142a Podstawowa im.bohater\u00f3w Grudnia'70 w \u0141\u0119gowie",
                "addr:postcode": "83-031",
                "addr:city": "\u0141\u0119gowo",
                "addr:street": "Szkolna",
                "addr:housenumber": "9",
                "addr:teryt:simc": 169236,
                "addr:teryt:sym_ul": 21970,
                "phone": "+48 586828524",
                "email": "sekretariat@splegowo.pl",
                "website": "http:\/\/www.splegowo.pl",
                "ref:regon": "000736557",
                "operator": "Gmina Pruszcz Gda\u0144ski",
                "operator:type": "government",
                "amenity": "school"
            }
        },
        {
            "id": 263536,
            "type": "Feature",
            "geometry": {
                "type": "Point",
                "coordinates": [
                    18.64014,
                    54.22476
                ]
            },
            "properties": {
                "ref:rspo": 263536,
                "official_name": "Przedszkole Publiczne S\u0142oneczna Kraina \"\u0141\u0119gowo\"",
                "name": "Przedszkole Publiczne S\u0142oneczna Kraina \"\u0141\u0119gowo\"",
                "addr:postcode": "83-031",
                "addr:city": "\u0141\u0119gowo",
                "addr:street": "Nowa",
                "addr:housenumber": "7",
                "addr:teryt:simc": 169236,
                "addr:teryt:sym_ul": 14330,
                "phone": "+48 506211871",
                "email": "joanna-gwizdala@wp.pl",
                "website": "http:\/\/www.slonecznakraina.pl",
                "ref:regon": "368200515",
                "operator": "S\u0142awomir Szymczak",
                "operator:type": "private",
                "amenity": "kindergarten"
            }
        },
        {
            "id": 70557,
            "type": "Feature",
            "geometry": {
                "type": "Point",
                "coordinates": [
                    18.6296,
                    54.23032
                ]
            },
            "properties": {
                "ref:rspo": 70557,
                "official_name": "Zesp\u00f3\u0142 Szk\u00f3\u0142 Rolniczych Centrum Kszta\u0142cenia Praktycznego im. Macieja Rataja w Rusocinie",
                "name": "Zesp\u00f3\u0142 Szk\u00f3\u0142 Rolniczych Centrum Kszta\u0142cenia Praktycznego",
                "addr:postcode": "83-031",
                "addr:city": "Rusocin",
                "addr:street": "Rataja",
                "addr:housenumber": "12",
                "addr:teryt:simc": 169242,
                "addr:teryt:sym_ul": 18468,
                "phone": "+48 583010061",
                "email": "sekretariat@zsrckp.edu.pl",
                "website": "http:\/\/www.zsrckp.edu.pl",
                "ref:regon": "000098625",
                "ref:vatin": "PL5931775361",
                "operator": "Powiat Gda\u0144ski",
                "operator:type": "government",
                "landuse": "education",
                "fixme": "amenity=school, amenity=college albo landuse=education w zale\u017cno\u015bci od tego, jakie plac\u00f3wki wchodz\u0105 w sk\u0142ad zespo\u0142u. Sprawd\u017a, kiedy stosowa\u0107 amenity=* a kiedy landuse=education.",
                "note": "Children RSPO: 92281;92283;92284;277191"
            }
        },
        {
            "id": 92281,
            "type": "Feature",
            "geometry": {
                "type": "Point",
                "coordinates": [
                    18.6296,
                    54.23029
                ]
            },
            "properties": {
                "isced:level": "3",
                "ref:rspo": 92281,
                "official_name": "Bran\u017cowa Szko\u0142a I Stopnia Nr 2 w Zespole Szk\u00f3\u0142 Rolniczych Centrum Kszta\u0142cenia Praktycznego w Rusocinie",
                "name": "Bran\u017cowa Szko\u0142a I Stopnia Nr 2 w Zespole Szk\u00f3\u0142 Rolniczych Centrum Kszta\u0142cenia Praktycznego w Rusocinie",
                "addr:postcode": "83-031",
                "addr:city": "Rusocin",
                "addr:street": "Rataja",
                "addr:housenumber": "12",
                "addr:teryt:simc": 169242,
                "addr:teryt:sym_ul": 18468,
                "phone": "+48 583010061",
                "email": "zsrckp@op.pl",
                "website": "http:\/\/www.zsrckp.edu.pl",
                "ref:regon": "192992544",
                "operator": "Powiat Gda\u0144ski",
                "operator:type": "government",
                "amenity": "school",
                "note": "Parent RSPO: 70557"
            }
        },
        {
            "id": 92283,
            "type": "Feature",
            "geometry": {
                "type": "Point",
                "coordinates": [
                    18.6296,
                    54.23026
                ]
            },
            "properties": {
                "isced:level": "3",
                "ref:rspo": 92283,
                "official_name": "Technikum Nr 2 w Rusocinie",
                "name": "Technikum Nr 2 w Rusocinie",
                "addr:postcode": "83-031",
                "addr:city": "Rusocin",
                "addr:street": "Rataja",
                "addr:housenumber": "12",
                "addr:teryt:simc": 169242,
                "addr:teryt:sym_ul": 18468,
                "phone": "+48 583010061",
                "email": "zsrckp@op.pl",
                "website": "http:\/\/www.zsrckp.edu.pl",
                "ref:regon": "192992521",
                "operator": "Powiat Gda\u0144ski",
                "operator:type": "government",
                "amenity": "school",
                "note": "Parent RSPO: 70557"
            }
        },
        {
            "id": 92284,
            "type": "Feature",
            "geometry": {
                "type": "Point",
                "coordinates": [
                    18.6296,
                    54.23023
                ]
            },
            "properties": {
                "isced:level": "3",
                "ref:rspo": 92284,
                "official_name": "Bran\u017cowa Szko\u0142a I Stopnia Specjalna w Zespole Szk\u00f3\u0142 Rolniczych Centrum Kszta\u0142cenia Praktycznego w Rusocinie",
                "name": "Bran\u017cowa Szko\u0142a I Stopnia Specjalna w Zespole Szk\u00f3\u0142 Rolniczych Centrum Kszta\u0142cenia Praktycznego w Rusocinie",
                "addr:postcode": "83-031",
                "addr:city": "Rusocin",
                "addr:street": "Rataja",
                "addr:housenumber": "12",
                "addr:teryt:simc": 169242,
                "addr:teryt:sym_ul": 18468,
                "phone": "+48 583010061",
                "email": "zsrckp@op.pl",
                "website": "http:\/\/www.zsrckp.edu.pl",
                "ref:regon": "192992550",
                "operator": "Powiat Gda\u0144ski",
                "operator:type": "government",
                "amenity": "school",
                "note": "Parent RSPO: 70557"
            }
        },
        {
            "id": 277191,
            "type": "Feature",
            "geometry": {
                "type": "Point",
                "coordinates": [
                    18.6296,
                    54.230199999999996
                ]
            },
            "properties": {
                "ref:rspo": 277191,
                "official_name": "Centrum Kszta\u0142cenia Zawodowego",
                "name": "Centrum Kszta\u0142cenia Zawodowego",
                "addr:postcode": "83-031",
                "addr:city": "Rusocin",
                "addr:street": "Rataja",
                "addr:housenumber": "12",
                "addr:teryt:simc": 169242,
                "addr:teryt:sym_ul": 18468,
                "phone": "+48 583010061",
                "email": "zsrckp@op.pl",
                "website": "http:\/\/www.zsrckp.edu.pl",
                "ref:regon": "192992573",
                "operator": "Powiat Gda\u0144ski",
                "operator:type": "government",
                "fixme": "w zale\u017cno\u015bci od przedmiotu dzia\u0142alno\u015bci (np. amenity=training + training=*, amenity=dancing_school, amenity=language_school, amenity=music_school) albo amenity=school, amenity=college, albo landuse=education w zale\u017cno\u015bci od tego, jakie plac\u00f3wki wchodz\u0105 w sk\u0142ad zespo\u0142u. Sprawd\u017a, kiedy stosowa\u0107 amenity=* a kiedy landuse=education.",
                "note": "Parent RSPO: 70557"
            }
        },
        {
            "id": 3678,
            "type": "Feature",
            "geometry": {
                "type": "Point",
                "coordinates": [
                    18.59977,
                    54.2325
                ]
            },
            "properties": {
                "isced:level": "1;2",
                "ref:rspo": 3678,
                "official_name": "Szko\u0142a Podstawowa im. Romualda Traugutta w Wojanowie",
                "name": "Szko\u0142a Podstawowa",
                "addr:postcode": "83-000",
                "addr:city": "Wojanowo",
                "addr:street": "Parkowa",
                "addr:housenumber": "4",
                "addr:teryt:simc": 169207,
                "addr:teryt:sym_ul": 15710,
                "phone": "+48 586822387",
                "email": "szkola@spwojanowo.pl",
                "website": "http:\/\/www.spwojanowo.szkolna.net",
                "ref:regon": "001172855",
                "ref:vatin": "PL6040061985",
                "operator": "Gmina Pruszcz Gda\u0144ski",
                "operator:type": "government",
                "amenity": "school"
            }
        },
        {
            "id": 106365,
            "type": "Feature",
            "geometry": {
                "type": "Point",
                "coordinates": [
                    18.61417,
                    54.25861
                ]
            },
            "properties": {
                "ref:rspo": 106365,
                "official_name": "Przedszkole Niepubliczne \"Artystyczne Wychowanie Przedszkolne Artu\u015b\"",
                "name": "Przedszkole Niepubliczne \"Artystyczne Wychowanie Przedszkolne Artu\u015b\"",
                "addr:postcode": "83-000",
                "addr:city": "Juszkowo",
                "addr:street": "\u0141\u0105kowa",
                "addr:housenumber": "10a",
                "addr:teryt:simc": 169160,
                "addr:teryt:sym_ul": 11596,
                "phone": "+48 535788158",
                "email": "biuro@artus.home.pl",
                "ref:regon": "221809124",
                "operator": "Dorota Rogowska",
                "operator:type": "private",
                "amenity": "kindergarten"
            }
        },
        {
            "id": 264625,
            "type": "Feature",
            "geometry": {
                "type": "Point",
                "coordinates": [
                    18.61535,
                    54.25992
                ]
            },
            "properties": {
                "ref:rspo": 264625,
                "official_name": "Przedszkole Niepubliczne \"Bajkowy Zak\u0105tek\"",
                "name": "Przedszkole Niepubliczne \"Bajkowy Zak\u0105tek\"",
                "addr:postcode": "83-000",
                "addr:city": "Juszkowo",
                "addr:street": "\u0141\u0105kowa",
                "addr:housenumber": "1",
                "addr:teryt:simc": 169160,
                "addr:teryt:sym_ul": 11596,
                "phone": "+48 660456075",
                "email": "bajeczkapaulinalazarek@o2.pl",
                "ref:regon": "368399362",
                "operator": "Bajkowy Zak\u0105tek Sp\u00f3\u0142ka Z Ograniczon\u0105 Odpowiedzialno\u015bci\u0105",
                "operator:type": "private",
                "amenity": "kindergarten"
            }
        },
        {
            "id": 123304,
            "type": "Feature",
            "geometry": {
                "type": "Point",
                "coordinates": [
                    18.67785,
                    54.26132
                ]
            },
            "properties": {
                "ref:rspo": 123304,
                "official_name": "\"Dzwoneczek\" Dorota Kelsz",
                "name": "\"Dzwoneczek\" Dorota Kelsz",
                "addr:postcode": "83-021",
                "addr:city": "Rokitnica",
                "addr:street": "Bursztynowa",
                "addr:housenumber": "2A",
                "addr:door": "1",
                "addr:teryt:simc": 169302,
                "addr:teryt:sym_ul": 2462,
                "email": "dzwoneczek.przedszkole@gmail.com",
                "ref:regon": "222110640",
                "operator": "Dorota Kelsz",
                "operator:type": "private",
                "amenity": "kindergarten"
            }
        },
        {
            "id": 41907,
            "type": "Feature",
            "geometry": {
                "type": "Point",
                "coordinates": [
                    18.67847,
                    54.2632
                ]
            },
            "properties": {
                "ref:rspo": 41907,
                "official_name": "Akademia Montessori - Przedszkole Niepubliczne",
                "name": "Akademia Montessori - Przedszkole Niepubliczne",
                "addr:postcode": "83-021",
                "addr:city": "Rokitnica",
                "addr:street": "Koralowa",
                "addr:housenumber": "18",
                "addr:teryt:simc": 169302,
                "addr:teryt:sym_ul": 9316,
                "phone": "+48 604802080",
                "email": "przedszkole@akademia-montessori.pl",
                "website": "http:\/\/www.akademia-montessori.pl",
                "ref:regon": "221764309",
                "ref:vatin": "PL5932099531",
                "operator": "Agnieszka Majchrzak",
                "operator:type": "private",
                "amenity": "kindergarten"
            }
        },
        {
            "id": 276139,
            "type": "Feature",
            "geometry": {
                "type": "Point",
                "coordinates": [
                    18.6674029,
                    54.264358
                ]
            },
            "properties": {
                "ref:rspo": 276139,
                "official_name": "Niepubliczne Przedszkole Megamocni Borkowo",
                "name": "Niepubliczne Przedszkole Megamocni Borkowo",
                "addr:postcode": "80-180",
                "addr:city": "Borkowo",
                "addr:street": "Lawendowa",
                "addr:housenumber": "1",
                "addr:teryt:simc": 169087,
                "addr:teryt:sym_ul": 10718,
                "phone": "+48 506562053",
                "email": "borkowo@megamocni.edu.pl",
                "ref:regon": "386999906",
                "operator": "Juneco Sp\u00f3\u0142ka Z Ograniczon\u0105 Odpowiedzialno\u015bci\u0105",
                "operator:type": "private",
                "amenity": "kindergarten"
            }
        },
        {
            "id": 278059,
            "type": "Feature",
            "geometry": {
                "type": "Point",
                "coordinates": [
                    18.56966,
                    54.26674
                ]
            },
            "properties": {
                "ref:rspo": 278059,
                "official_name": "Niepubliczny Punkt Przedszkolny \"Spektrum\"",
                "name": "Niepubliczny Punkt Przedszkolny \"Spektrum\"",
                "addr:postcode": "83-010",
                "addr:city": "Straszyn",
                "addr:street": "Starogardzka",
                "addr:housenumber": "107",
                "addr:door": "1",
                "addr:teryt:simc": 169331,
                "addr:teryt:sym_ul": 20935,
                "phone": "+48 513826321",
                "email": "terapiaspektrum@gmail.com",
                "website": "http:\/\/www.terapiaspektrum.pl",
                "ref:regon": "389755599",
                "operator": "Centrum Terapii Spektrum Sp\u00f3\u0142ka Z Ograniczon\u0105 Odpowiedzialno\u015bci\u0105",
                "operator:type": "private",
                "amenity": "kindergarten"
            }
        },
        {
            "id": 41439,
            "type": "Feature",
            "geometry": {
                "type": "Point",
                "coordinates": [
                    18.55247,
                    54.26746
                ]
            },
            "properties": {
                "ref:rspo": 41439,
                "official_name": "Niepubliczne Przedszkole im. \u015aw. Joanny Beretty Molla",
                "name": "Niepubliczne Przedszkole",
                "addr:postcode": "83-010",
                "addr:city": "Straszyn",
                "addr:street": "Jowisza",
                "addr:housenumber": "2",
                "addr:teryt:simc": 169331,
                "addr:teryt:sym_ul": 7620,
                "phone": "+48 586910787",
                "email": "przedszkole@przedszkolejoanny.pl",
                "website": "http:\/\/www.przedszkolejoanny.pl",
                "ref:regon": "221764344",
                "ref:vatin": "PL5932172618",
                "operator": "Maja M\u0105dra-Wo\u017aniak",
                "operator:type": "private",
                "amenity": "kindergarten"
            }
        },
        {
            "id": 57711,
            "type": "Feature",
            "geometry": {
                "type": "Point",
                "coordinates": [
                    18.61141,
                    54.26935
                ]
            },
            "properties": {
                "ref:rspo": 57711,
                "official_name": "Poradnia Psychologiczno-Pedagogiczna w Rotmance",
                "name": "Poradnia Psychologiczno-Pedagogiczna w Rotmance",
                "addr:postcode": "83-010",
                "addr:city": "Rotmanka",
                "addr:street": "Bor\u00f3wkowa",
                "addr:housenumber": "32",
                "addr:teryt:simc": 169360,
                "addr:teryt:sym_ul": 1874,
                "phone": "+48 570802569",
                "email": "biuro@poradniarotmanka.pl",
                "website": "http:\/\/www.poradniarotmanka.pl",
                "ref:regon": "221765065",
                "ref:vatin": "PL5841870848",
                "operator": "Anna Walerzak-Wi\u0119ckowska",
                "operator:type": "private",
                "healthcare": "counselling",
                "counselling_type": "education",
                "fixme": "w zale\u017cno\u015bci od przedmiotu dzia\u0142alno\u015bci (np. healthcare=counselling + counselling_type=education albo healthcare=psychotherapist)"
            }
        },
        {
            "id": 54326,
            "type": "Feature",
            "geometry": {
                "type": "Point",
                "coordinates": [
                    18.60604,
                    54.26947
                ]
            },
            "properties": {
                "ref:rspo": 54326,
                "official_name": "Przedszkole Niepubliczne \"Calineczka\"",
                "name": "Przedszkole Niepubliczne \"Calineczka\"",
                "addr:postcode": "83-010",
                "addr:city": "Rotmanka",
                "addr:street": "Topolowa",
                "addr:housenumber": "7",
                "addr:teryt:simc": 169360,
                "addr:teryt:sym_ul": 22880,
                "phone": "+48 586831507",
                "email": "calineczka2807@wp.pl",
                "ref:regon": "221765846",
                "ref:vatin": "PL5931352471",
                "operator": "Leontyna Dubiak",
                "operator:type": "private",
                "amenity": "kindergarten"
            }
        },
        {
            "id": 131720,
            "type": "Feature",
            "geometry": {
                "type": "Point",
                "coordinates": [
                    18.58974,
                    54.27027
                ]
            },
            "properties": {
                "ref:rspo": 131720,
                "official_name": "Publiczne Przedszkole \"Tik Tak\" w Straszynie Daniel Rydzewski",
                "name": "Publiczne Przedszkole \"Tik Tak\" w Straszynie Daniel Rydzewski",
                "addr:postcode": "83-010",
                "addr:city": "Straszyn",
                "addr:street": "Spokojna",
                "addr:housenumber": "54",
                "addr:teryt:simc": 169331,
                "addr:teryt:sym_ul": 20677,
                "phone": "+48 587350264",
                "email": "tiktakstraszyn@outlook.com",
                "website": "http:\/\/www.przedszkole-tiktak.pl",
                "ref:regon": "365338041",
                "ref:vatin": "PL9570122710",
                "operator": "Daniel Rydzewski",
                "operator:type": "private",
                "amenity": "kindergarten"
            }
        },
        {
            "id": 55093,
            "type": "Feature",
            "geometry": {
                "type": "Point",
                "coordinates": [
                    18.6042999,
                    54.27034
                ]
            },
            "properties": {
                "ref:rspo": 55093,
                "official_name": "Przedszkole Niepubliczne \"S\u0142oneczny Domek Ma\u0142ego Odkrywcy\" w Rotmance",
                "name": "Przedszkole Niepubliczne \"S\u0142oneczny Domek Ma\u0142ego Odkrywcy\" w Rotmance",
                "addr:postcode": "83-010",
                "addr:city": "Rotmanka",
                "addr:street": "\u015awierkowa",
                "addr:housenumber": "28",
                "addr:teryt:simc": 169360,
                "addr:teryt:sym_ul": 22508,
                "phone": "+48 512825512",
                "email": "sloneczny-domek@wp.pl",
                "website": "http:\/\/www.sloneczny-domek.pl",
                "ref:regon": "221765906",
                "ref:vatin": "PL9570954190",
                "operator": "Dominika Knyszy\u0144ska",
                "operator:type": "private",
                "amenity": "kindergarten"
            }
        },
        {
            "id": 54348,
            "type": "Feature",
            "geometry": {
                "type": "Point",
                "coordinates": [
                    18.61457,
                    54.27052
                ]
            },
            "properties": {
                "ref:rspo": 54348,
                "official_name": "Niepubliczne Przedszkole Integracyjne \"Weso\u0142a Nutka\"",
                "name": "Niepubliczne Przedszkole Integracyjne \"Weso\u0142a Nutka\"",
                "addr:postcode": "83-010",
                "addr:city": "Rotmanka",
                "addr:street": "Jarz\u0119binowa",
                "addr:housenumber": "30",
                "addr:teryt:simc": 169360,
                "addr:teryt:sym_ul": 7290,
                "phone": "+48 583000396",
                "email": "biuro@wesolanutka.pl",
                "website": "http:\/\/www.wesolanutka.pl",
                "ref:regon": "221765852",
                "ref:vatin": "PL5931727161",
                "operator": "Alina Chabowska",
                "operator:type": "private",
                "amenity": "kindergarten"
            }
        },
        {
            "id": 131751,
            "type": "Feature",
            "geometry": {
                "type": "Point",
                "coordinates": [
                    18.67802,
                    54.27097
                ]
            },
            "properties": {
                "ref:rspo": 131751,
                "official_name": "Publiczne Przedszkole Nibylandia",
                "name": "Publiczne Przedszkole Nibylandia",
                "addr:postcode": "83-021",
                "addr:city": "Rokitnica",
                "addr:street": "Topolowa",
                "addr:housenumber": "14",
                "addr:teryt:simc": 169302,
                "addr:teryt:sym_ul": 22880,
                "phone": "+48 662550799",
                "email": "kontakt@przedszkolenibylandia.pl",
                "website": "http:\/\/www.przedszkolenibylandia.pl",
                "ref:regon": "365343645",
                "operator": "Fundacja T\u0119czowy Latawiec",
                "operator:type": "ngo",
                "amenity": "kindergarten"
            }
        },
        {
            "id": 42173,
            "type": "Feature",
            "geometry": {
                "type": "Point",
                "coordinates": [
                    18.58207,
                    54.27324
                ]
            },
            "properties": {
                "isced:level": "1;2",
                "ref:rspo": 42173,
                "official_name": "Szko\u0142a Podstawowa im.ignacego Krasickiego w Straszynie",
                "name": "Szko\u0142a Podstawowa im.ignacego Krasickiego w Straszynie",
                "addr:postcode": "83-010",
                "addr:city": "Straszyn",
                "addr:street": "Starogardzka",
                "addr:housenumber": "48",
                "addr:teryt:simc": 169331,
                "addr:teryt:sym_ul": 20935,
                "phone": "+48 586828966",
                "email": "szkolastraszyn@gmail.com",
                "website": "http:\/\/szkolastraszyn.pruszczgdanski.pl",
                "ref:regon": "001172849",
                "operator": "Gmina Pruszcz Gda\u0144ski",
                "operator:type": "government",
                "amenity": "school"
            }
        },
        {
            "id": 42175,
            "type": "Feature",
            "geometry": {
                "type": "Point",
                "coordinates": [
                    18.603750228882,
                    54.273990631104
                ]
            },
            "properties": {
                "isced:level": "1;2",
                "ref:rspo": 42175,
                "official_name": "Szko\u0142a Podstawowa im. Karola Wojty\u0142y w Rotmance",
                "name": "Szko\u0142a Podstawowa",
                "addr:postcode": "83-010",
                "addr:city": "Rotmanka",
                "addr:street": "Aleja Pi\u0142sudskiego",
                "addr:housenumber": "37",
                "addr:teryt:simc": 169360,
                "addr:teryt:sym_ul": 34879,
                "phone": "+48 586821317",
                "email": "sekretariat@rotmanka.com.pl",
                "website": "http:\/\/szkolarot.edupage.org",
                "ref:regon": "190464210",
                "operator": "Gmina Pruszcz Gda\u0144ski",
                "operator:type": "government",
                "amenity": "school"
            }
        },
        {
            "id": 55113,
            "type": "Feature",
            "geometry": {
                "type": "Point",
                "coordinates": [
                    18.6089755,
                    54.2743891
                ]
            },
            "properties": {
                "ref:rspo": 55113,
                "official_name": "Integracyjny Punkt Przedszkolny Tuptusie",
                "name": "Integracyjny Punkt Przedszkolny Tuptusie",
                "addr:postcode": "83-010",
                "addr:city": "Rotmanka",
                "addr:street": "Bajki",
                "addr:housenumber": "76",
                "addr:teryt:simc": 169360,
                "addr:teryt:sym_ul": 607,
                "phone": "+48 506988335",
                "email": "szymon.rozegnal@tuptusie.pl",
                "website": "http:\/\/www.tuptusie.pl",
                "ref:regon": "221771479",
                "ref:vatin": "PL5832859936",
                "operator": "Szymon Rozegna\u0142",
                "operator:type": "private",
                "amenity": "kindergarten"
            }
        },
        {
            "id": 272788,
            "type": "Feature",
            "geometry": {
                "type": "Point",
                "coordinates": [
                    18.60539,
                    54.27481
                ]
            },
            "properties": {
                "ref:rspo": 272788,
                "official_name": "Publiczne Przedszkole Rodzinne Rotmanka w Rotmance",
                "name": "Publiczne Przedszkole Rodzinne Rotmanka w Rotmance",
                "addr:postcode": "83-010",
                "addr:city": "Rotmanka",
                "addr:street": "Ko\u015bcielna",
                "addr:housenumber": "11",
                "addr:teryt:simc": 169360,
                "addr:teryt:sym_ul": 9546,
                "phone": "+48 512037737",
                "email": "kontakt@przedszkolerotmanka.pl",
                "website": "http:\/\/www.przedszkolerotmanka.pl",
                "ref:regon": "384294461",
                "operator": "Ma\u0142gorzata Podg\u00f3rska",
                "operator:type": "private",
                "amenity": "kindergarten"
            }
        },
        {
            "id": 55095,
            "type": "Feature",
            "geometry": {
                "type": "Point",
                "coordinates": [
                    18.57601,
                    54.27543
                ]
            },
            "properties": {
                "ref:rspo": 55095,
                "official_name": "Przedszkole Niepubliczne Przy Parafii \u015aw. Jacka Odrow\u0105\u017ca w Straszynie",
                "name": "Przedszkole Niepubliczne Przy Parafii \u015aw. Jacka Odrow\u0105\u017ca w Straszynie",
                "addr:postcode": "83-010",
                "addr:city": "Straszyn",
                "addr:street": "Poprzeczna",
                "addr:housenumber": "24",
                "addr:teryt:simc": 169331,
                "addr:teryt:sym_ul": 17171,
                "phone": "+48 507700418",
                "email": "przedszkole@straszyn.org",
                "website": "http:\/\/www.przedszkole.straszyn.org",
                "ref:regon": "221771373",
                "ref:vatin": "PL5932299419",
                "operator": "Parafia Rzymsko-Katolicka Pw. \u015aw. Jacka Odrow\u0105\u017ca W Straszynie",
                "operator:type": "religious",
                "amenity": "kindergarten"
            }
        },
        {
            "id": 4601,
            "type": "Feature",
            "geometry": {
                "type": "Point",
                "coordinates": [
                    18.7197299,
                    54.29324
                ]
            },
            "properties": {
                "isced:level": "1;2",
                "ref:rspo": 4601,
                "official_name": "Szko\u0142a Podstawowa im. Danuty Siedzik\u00f3wny \"Inki\" w Wi\u015blinie",
                "name": "Szko\u0142a Podstawowa",
                "addr:postcode": "83-021",
                "addr:city": "Wi\u015blina",
                "addr:street": "Mostowa",
                "addr:housenumber": "5",
                "addr:teryt:simc": 169377,
                "addr:teryt:sym_ul": 13379,
                "phone": "+48 586828425",
                "email": "sekretariat@spwislina.pl",
                "website": "http:\/\/spwislina.pl",
                "ref:regon": "001172884",
                "ref:vatin": "PL6040062022",
                "operator": "Gmina Pruszcz Gda\u0144ski",
                "operator:type": "government",
                "amenity": "school"
            }
        },
        {
            "id": 14703,
            "type": "Feature",
            "geometry": {
                "type": "Point",
                "coordinates": [
                    18.7197299,
                    54.293209999999995
                ]
            },
            "properties": {
                "ref:rspo": 14703,
                "official_name": "Publiczny Punkt Przedszkolny Przy Szkole Podstawowej w Wi\u015blinie",
                "name": "Publiczny Punkt Przedszkolny Przy Szkole Podstawowej w Wi\u015blinie",
                "addr:postcode": "83-021",
                "addr:city": "Wi\u015blina",
                "addr:street": "Mostowa",
                "addr:housenumber": "5",
                "addr:teryt:simc": 169377,
                "addr:teryt:sym_ul": 13379,
                "phone": "+48 586828425",
                "email": "sekretariat@spwislina.pl",
                "website": "http:\/\/www.spwislina.pl",
                "ref:regon": "221742213",
                "ref:vatin": "PL6040062022",
                "operator": "Gmina Pruszcz Gda\u0144ski",
                "operator:type": "government",
                "amenity": "kindergarten"
            }
        },
        {
            "id": 4598,
            "type": "Feature",
            "geometry": {
                "type": "Point",
                "coordinates": [
                    18.59584,
                    54.29842
                ]
            },
            "properties": {
                "ref:rspo": 4598,
                "official_name": "Zesp\u00f3\u0142 Szkolno-Przedszkolny w Borkowie",
                "name": "Zesp\u00f3\u0142 Szkolno-Przedszkolny w Borkowie",
                "addr:postcode": "80-180",
                "addr:city": "Borkowo",
                "addr:street": "Akacjowa",
                "addr:housenumber": "2",
                "addr:teryt:simc": 169087,
                "addr:teryt:sym_ul": 157,
                "phone": "+48 583065271",
                "email": "sekretariat@spborkowo.pomorskie.pl",
                "website": "http:\/\/www.spborkowo.pomorskie.pl\/",
                "ref:regon": "220448227",
                "ref:vatin": "PL6040076461",
                "operator": "Gmina Pruszcz Gda\u0144ski",
                "operator:type": "government",
                "landuse": "education",
                "fixme": "amenity=school, amenity=college albo landuse=education w zale\u017cno\u015bci od tego, jakie plac\u00f3wki wchodz\u0105 w sk\u0142ad zespo\u0142u. Sprawd\u017a, kiedy stosowa\u0107 amenity=* a kiedy landuse=education.",
                "note": "Children RSPO: 21559;25928"
            }
        },
        {
            "id": 21559,
            "type": "Feature",
            "geometry": {
                "type": "Point",
                "coordinates": [
                    18.59584,
                    54.29839
                ]
            },
            "properties": {
                "ref:rspo": 21559,
                "official_name": "Zesp\u00f3\u0142 Szkolno-Przedszkolny w Borkowie - Publiczne Przedszkole w Borkowie",
                "name": "Zesp\u00f3\u0142 Szkolno-Przedszkolny w Borkowie - Publiczne Przedszkole w Borkowie",
                "addr:postcode": "80-180",
                "addr:city": "Borkowo",
                "addr:street": "Akacjowa",
                "addr:housenumber": "2",
                "addr:teryt:simc": 169087,
                "addr:teryt:sym_ul": 157,
                "phone": "+48 583065271",
                "email": "sekretariat@spborkowo.pomorskie.pl",
                "website": "http:\/\/www.spborkowo.pomorskie.pl",
                "ref:regon": "220448233",
                "operator": "Gmina Pruszcz Gda\u0144ski",
                "operator:type": "government",
                "amenity": "kindergarten",
                "note": "Parent RSPO: 4598"
            }
        },
        {
            "id": 25928,
            "type": "Feature",
            "geometry": {
                "type": "Point",
                "coordinates": [
                    18.59584,
                    54.29836
                ]
            },
            "properties": {
                "isced:level": "1;2",
                "ref:rspo": 25928,
                "official_name": "Zesp\u00f3\u0142 Szkolno-Przedszkolny w Borkowie - Szko\u0142a Podstawowa im.jana Brzechwy w Borkowie",
                "name": "Zesp\u00f3\u0142 Szkolno-Przedszkolny w Borkowie - Szko\u0142a Podstawowa im.jana Brzechwy w Borkowie",
                "addr:postcode": "80-180",
                "addr:city": "Borkowo",
                "addr:street": "Akacjowa",
                "addr:housenumber": "2",
                "addr:teryt:simc": 169087,
                "addr:teryt:sym_ul": 157,
                "phone": "+48 583065271",
                "email": "sekretariat@spborkowo.pomorskie.pl",
                "website": "http:\/\/www.spborkowo.pomorskie.pl",
                "ref:regon": "001172909",
                "operator": "Gmina Pruszcz Gda\u0144ski",
                "operator:type": "government",
                "amenity": "school",
                "note": "Parent RSPO: 4598"
            }
        },
        {
            "id": 54284,
            "type": "Feature",
            "geometry": {
                "type": "Point",
                "coordinates": [
                    18.57698,
                    54.3015
                ]
            },
            "properties": {
                "ref:rspo": 54284,
                "official_name": "Przedszkole Niepubliczne \"Horyzoncik\"",
                "name": "Przedszkole Niepubliczne \"Horyzoncik\"",
                "addr:postcode": "80-180",
                "addr:city": "Borkowo",
                "addr:street": "Klasyczna",
                "addr:housenumber": "4",
                "addr:teryt:simc": 169087,
                "addr:teryt:sym_ul": 8483,
                "phone": "+48 504772950",
                "email": "biuro@horyzoncik.pl",
                "website": "http:\/\/www.horyzoncik.pl",
                "ref:regon": "221765830",
                "ref:vatin": "PL6040120564",
                "operator": "Przedszkole Niepubliczne Horyzoncik Sp. Z O.o.",
                "operator:type": "private",
                "amenity": "kindergarten"
            }
        },
        {
            "id": 55104,
            "type": "Feature",
            "geometry": {
                "type": "Point",
                "coordinates": [
                    18.59124,
                    54.30174
                ]
            },
            "properties": {
                "ref:rspo": 55104,
                "official_name": "Niepubliczne Przedszkole \"Kasztanowe\"",
                "name": "Niepubliczne Przedszkole \"Kasztanowe\"",
                "addr:postcode": "80-180",
                "addr:city": "Borkowo",
                "addr:street": "Kasztanowa",
                "addr:housenumber": "55",
                "addr:teryt:simc": 169087,
                "addr:teryt:sym_ul": 8171,
                "phone": "+48 608324191",
                "email": "biuro@przedszkole-kasztanowe.pl",
                "ref:regon": "221771462",
                "ref:vatin": "PL5841028755",
                "operator": "Arleta Watkowska",
                "operator:type": "private",
                "amenity": "kindergarten"
            }
        },
        {
            "id": 55111,
            "type": "Feature",
            "geometry": {
                "type": "Point",
                "coordinates": [
                    18.58784,
                    54.30219
                ]
            },
            "properties": {
                "ref:rspo": 55111,
                "official_name": "Przedszkole Niepubliczne \"Przyjaciele Puchatka\"",
                "name": "Przedszkole Niepubliczne \"Przyjaciele Puchatka\"",
                "addr:postcode": "80-180",
                "addr:city": "Borkowo",
                "addr:street": "Poziomkowa",
                "addr:housenumber": "11",
                "addr:teryt:simc": 169087,
                "addr:teryt:sym_ul": 17390,
                "phone": "+48 513184045",
                "email": "biuro@przyjaciele-puchatka.pl",
                "website": "http:\/\/www.przyjaciele-puchatka.pl",
                "ref:regon": "221765929",
                "ref:vatin": "PL5831217348",
                "operator": "El\u017cbieta Suchecka",
                "operator:type": "private",
                "amenity": "kindergarten"
            }
        },
        {
            "id": 133475,
            "type": "Feature",
            "geometry": {
                "type": "Point",
                "coordinates": [
                    18.74268,
                    54.32387
                ]
            },
            "properties": {
                "isced:level": "1;2",
                "ref:rspo": 133475,
                "official_name": "Szko\u0142a Podstawowa w Przejazdowie",
                "name": "Szko\u0142a Podstawowa w Przejazdowie",
                "addr:postcode": "83-021",
                "addr:city": "Przejazdowo",
                "addr:street": "Jesionowa",
                "addr:housenumber": "8",
                "addr:teryt:simc": 169265,
                "addr:teryt:sym_ul": 7506,
                "phone": "+48 586828486",
                "email": "szkola@przejazdowo.pl",
                "website": "http:\/\/sp-przejazdowo.edupage.org",
                "ref:regon": "367343365",
                "operator": "Gmina Pruszcz Gda\u0144ski",
                "operator:type": "government",
                "amenity": "school"
            }
        },
        {
            "id": 4600,
            "type": "Feature",
            "geometry": {
                "type": "Point",
                "coordinates": [
                    18.80007,
                    54.33134
                ]
            },
            "properties": {
                "isced:level": "1;2",
                "ref:rspo": 4600,
                "official_name": "Szko\u0142a Podstawowa im. Or\u0142a Bia\u0142ego w Wi\u015blince",
                "name": "Szko\u0142a Podstawowa",
                "addr:postcode": "83-011",
                "addr:city": "Wi\u015blinka",
                "addr:street": "Szkolna",
                "addr:housenumber": "10",
                "addr:teryt:simc": 169390,
                "addr:teryt:sym_ul": 21970,
                "phone": "+48 586838924",
                "email": "sekretariat@spwislinka.pl",
                "website": "http:\/\/www.spwislinka.szkolnastrona.pl",
                "ref:regon": "001172878",
                "ref:vatin": "PL6040062039",
                "operator": "Gmina Pruszcz Gda\u0144ski",
                "operator:type": "government",
                "amenity": "school"
            }
        },
        {
            "id": 130887,
            "type": "Feature",
            "geometry": {
                "type": "Point",
                "coordinates": [
                    18.635824203491,
                    54.35945892334
                ]
            },
            "properties": {
                "ref:rspo": 130887,
                "official_name": "Gminne Przedszkole im. Juliana Tuwima w Straszynie",
                "name": "Gminne Przedszkole",
                "addr:postcode": "83-010",
                "addr:city": "Straszyn",
                "addr:street": "Pocztowa",
                "addr:housenumber": "19",
                "addr:teryt:simc": 169331,
                "addr:teryt:sym_ul": 16579,
                "phone": "+48 587350250",
                "email": "przedszkole_straszyn@wp.pl",
                "website": "http:\/\/przedszkolestraszyn.pruszczgdanski.pl",
                "ref:regon": "364662408",
                "operator": "Gmina Pruszcz Gda\u0144ski",
                "operator:type": "government",
                "amenity": "kindergarten"
            }
        }
    ]
}