{
    "type": "FeatureCollection",
    "features": [
        {
            "id": 110042,
            "type": "Feature",
            "geometry": {
                "type": "Point",
                "coordinates": [
                    18.29786,
                    54.16065
                ]
            },
            "properties": {
                "isced:level": "1;2",
                "ref:rspo": 110042,
                "official_name": "Szko\u0142a Podstawowa w Trzepowie",
                "name": "Szko\u0142a Podstawowa w Trzepowie",
                "addr:postcode": "83-047",
                "addr:city": "Borowina",
                "addr:street": "D\u0142uga",
                "addr:housenumber": "1",
                "addr:teryt:simc": 169897,
                "addr:teryt:sym_ul": 3839,
                "phone": "+48 586825148",
                "email": "sptrzepowo@przywidz.pl",
                "website": "http:\/\/www.sptrzepowo.szkolna.net",
                "ref:regon": "001173004",
                "ref:vatin": "PL6040018653",
                "operator": "Gmina Przywidz",
                "operator:type": "government",
                "amenity": "school"
            }
        },
        {
            "id": 113769,
            "type": "Feature",
            "geometry": {
                "type": "Point",
                "coordinates": [
                    18.3263399,
                    54.19653
                ]
            },
            "properties": {
                "isced:level": "1;2",
                "ref:rspo": 113769,
                "official_name": "Szko\u0142a Podstawowa im. Unii Europejskiej w Przywidzu",
                "name": "Szko\u0142a Podstawowa",
                "addr:postcode": "83-047",
                "addr:city": "Przywidz",
                "addr:street": "Szkolna",
                "addr:housenumber": "1",
                "addr:teryt:simc": 170110,
                "addr:teryt:sym_ul": 21970,
                "phone": "+48 586825418",
                "email": "zsprzywidz@wp.pl",
                "website": "http:\/\/www.spprzywidz.edu.pl",
                "ref:regon": "000270113",
                "ref:vatin": "PL6040078974",
                "operator": "Gmina Przywidz",
                "operator:type": "government",
                "amenity": "school"
            }
        },
        {
            "id": 118702,
            "type": "Feature",
            "geometry": {
                "type": "Point",
                "coordinates": [
                    18.31266,
                    54.19671
                ]
            },
            "properties": {
                "ref:rspo": 118702,
                "official_name": "Przedszkole Niepubliczne \"Wr\u00f3\u017ckolandia\" Agnieszka Hiller",
                "name": "Przedszkole Niepubliczne \"Wr\u00f3\u017ckolandia\" Agnieszka Hiller",
                "addr:postcode": "83-047",
                "addr:city": "Przywidz",
                "addr:street": "Egiertowska",
                "addr:housenumber": "6",
                "addr:teryt:simc": 170110,
                "addr:teryt:sym_ul": 37972,
                "phone": "+48 515140692",
                "email": "dyrektor@wrozkolandia.pl",
                "website": "http:\/\/www.wrozkolandia.pl",
                "ref:regon": "221862621",
                "ref:vatin": "PL5911554958",
                "operator": "Stowarzyszenie Wr\u00f3\u017ckolandia",
                "operator:type": "ngo",
                "amenity": "kindergarten"
            }
        },
        {
            "id": 110041,
            "type": "Feature",
            "geometry": {
                "type": "Point",
                "coordinates": [
                    18.36664,
                    54.22624
                ]
            },
            "properties": {
                "isced:level": "1;2",
                "ref:rspo": 110041,
                "official_name": "Szko\u0142a Podstawowa w Pomlewie im.b\u0142.ksi\u0119dza Jerzego Popie\u0142uszki",
                "name": "Szko\u0142a Podstawowa w Pomlewie im.b\u0142.ksi\u0119dza Jerzego Popie\u0142uszki",
                "addr:postcode": "83-047",
                "addr:city": "Pomlewo",
                "addr:street": "Szkolna",
                "addr:housenumber": "3",
                "addr:teryt:simc": 170104,
                "addr:teryt:sym_ul": 21970,
                "phone": "+48 586825113",
                "email": "szkolapomlewo@wp.pl",
                "website": "http:\/\/www.sppomlewo.przywidz.pl",
                "ref:regon": "190012843",
                "ref:vatin": "PL6040018630",
                "operator": "Gmina Przywidz",
                "operator:type": "government",
                "amenity": "school"
            }
        },
        {
            "id": 113999,
            "type": "Feature",
            "geometry": {
                "type": "Point",
                "coordinates": [
                    18.26973,
                    54.23264
                ]
            },
            "properties": {
                "isced:level": "1;2",
                "ref:rspo": 113999,
                "official_name": "Szko\u0142a Podstawowa w Nowej Wsi Przywidzkiej",
                "name": "Szko\u0142a Podstawowa w Nowej Wsi Przywidzkiej",
                "addr:postcode": "83-047",
                "addr:city": "Nowa Wie\u015b Przywidzka",
                "addr:street": "Szkolna",
                "addr:housenumber": "4",
                "addr:teryt:simc": 170044,
                "addr:teryt:sym_ul": 21970,
                "phone": "+48 583000294",
                "email": "sp.nowawiesprzywidzka@wp.pl",
                "ref:regon": "221867067",
                "ref:vatin": "PL6040017151",
                "operator": "Stowarzyszenie Rozwoju Nowej Wsi Przywidzkiej",
                "operator:type": "ngo",
                "amenity": "school"
            }
        }
    ]
}