{
    "type": "FeatureCollection",
    "features": [
        {
            "id": 106544,
            "type": "Feature",
            "geometry": {
                "type": "Point",
                "coordinates": [
                    18.60483,
                    54.14451
                ]
            },
            "properties": {
                "isced:level": "1;2",
                "ref:rspo": 106544,
                "official_name": "Szko\u0142a Podstawowa im. Tadeusza Ko\u015bciuszki w Sobowidzu",
                "name": "Szko\u0142a Podstawowa",
                "addr:country": "PL",
                "addr:postcode": "83-033",
                "addr:city": "Sobowidz",
                "addr:street": "Tadeusza Ko\u015bciuszki",
                "addr:housenumber": "18",
                "addr:teryt:simc": 9582,
                "addr:teryt:sym_ul": 176271,
                "contact:phone": "+48 586828260",
                "contact:email": "sp.sobowidz@wp.pl",
                "contact:website": "http:\/\/www.spsobowidz.edupage.org",
                "ref:regon": "190385691",
                "ref:vatin": "PL6040086577",
                "operator": "Gmina Tr\u0105bki Wielkie",
                "operator:type": "government",
                "amenity": "school"
            }
        },
        {
            "id": 68611,
            "type": "Feature",
            "geometry": {
                "type": "Point",
                "coordinates": [
                    18.5431,
                    54.17145
                ]
            },
            "properties": {
                "ref:rspo": 68611,
                "official_name": "Niepubliczna Szko\u0142a Muzyczna I St. w Tr\u0105bkach Wielkich",
                "name": "Niepubliczna Szko\u0142a Muzyczna I St. w Tr\u0105bkach Wielkich",
                "addr:country": "PL",
                "addr:postcode": "83-034",
                "addr:city": "Tr\u0105bki Wielkie",
                "addr:street": "Sportowa",
                "addr:housenumber": "3",
                "addr:teryt:simc": 20683,
                "addr:teryt:sym_ul": 176302,
                "contact:phone": "+48 586755753",
                "ref:regon": "221771539",
                "operator": "Anita Stolarska",
                "operator:type": "private",
                "amenity": "music_school"
            }
        },
        {
            "id": 57697,
            "type": "Feature",
            "geometry": {
                "type": "Point",
                "coordinates": [
                    18.5385199,
                    54.17183
                ]
            },
            "properties": {
                "ref:rspo": 57697,
                "official_name": "O\u015brodek Rehabilitacyjno-Edukacyjno-Wychowawczy w Tr\u0105bkach Wielkich",
                "name": "O\u015brodek Rehabilitacyjno-Edukacyjno-Wychowawczy w Tr\u0105bkach Wielkich",
                "addr:country": "PL",
                "addr:postcode": "83-034",
                "addr:city": "Tr\u0105bki Wielkie",
                "addr:street": "Ludwika Pasteura",
                "addr:housenumber": "1",
                "addr:teryt:simc": 15778,
                "addr:teryt:sym_ul": 176302,
                "contact:phone": "+48 583054560",
                "contact:email": "mjurkowska@caritas.pl",
                "ref:regon": "221771189",
                "ref:vatin": "PL9570657546",
                "operator": "Caritas Archidiecezji Gda\u0144skiej",
                "operator:type": "religious",
                "amenity": "school"
            }
        },
        {
            "id": 106545,
            "type": "Feature",
            "geometry": {
                "type": "Point",
                "coordinates": [
                    18.5375,
                    54.17217
                ]
            },
            "properties": {
                "ref:rspo": 106545,
                "official_name": "Przedszkole im. Jana Brzechwy w Tr\u0105bkach Wielkich",
                "name": "Przedszkole",
                "addr:country": "PL",
                "addr:postcode": "83-034",
                "addr:city": "Tr\u0105bki Wielkie",
                "addr:street": "Sportowa",
                "addr:housenumber": "19",
                "addr:teryt:simc": 20683,
                "addr:teryt:sym_ul": 176302,
                "contact:phone": "+48 532540860",
                "contact:email": "sekretariat@przedszkoletrabki.pl",
                "contact:website": "http:\/\/www.przedszkoletrabki.pl",
                "ref:regon": "190582641",
                "ref:vatin": "PL6040085767",
                "operator": "Gmina Tr\u0105bki Wielkie",
                "operator:type": "government",
                "amenity": "kindergarten"
            }
        },
        {
            "id": 106543,
            "type": "Feature",
            "geometry": {
                "type": "Point",
                "coordinates": [
                    18.53918,
                    54.17239
                ]
            },
            "properties": {
                "isced:level": "1;2",
                "ref:rspo": 106543,
                "official_name": "Szko\u0142a Podstawowa im. Kunegundy Paw\u0142owskiej w Tr\u0105bkach Wielkich",
                "name": "Szko\u0142a Podstawowa",
                "addr:country": "PL",
                "addr:postcode": "83-034",
                "addr:city": "Tr\u0105bki Wielkie",
                "addr:street": "Sportowa",
                "addr:housenumber": "2",
                "addr:teryt:simc": 20683,
                "addr:teryt:sym_ul": 176302,
                "contact:phone": "+48 586828730",
                "contact:email": "sp.trabkiwielkie@gmail.com",
                "contact:website": "http:\/\/www.sp.trabki.szkolna.net",
                "ref:regon": "190385745",
                "ref:vatin": "PL6040086554",
                "operator": "Gmina Tr\u0105bki Wielkie",
                "operator:type": "government",
                "amenity": "school"
            }
        },
        {
            "id": 90524,
            "type": "Feature",
            "geometry": {
                "type": "Point",
                "coordinates": [
                    18.4841379,
                    54.173791
                ]
            },
            "properties": {
                "isced:level": "1;2",
                "ref:rspo": 90524,
                "official_name": "Szko\u0142a Podstawowa im. Zygmunta Bukowskiego w Czerniewie",
                "name": "Szko\u0142a Podstawowa",
                "addr:country": "PL",
                "addr:postcode": "83-042",
                "addr:place": "Czerniewo",
                "addr:housenumber": "9",
                "addr:teryt:sym_ul": 176035,
                "contact:phone": "+48 586828382",
                "contact:email": "szkola_czerniewo@poczta.onet.pl",
                "contact:website": "http:\/\/sp-czerniewo.pl\/",
                "ref:regon": "190385700",
                "ref:vatin": "PL6040086206",
                "operator": "Gmina Tr\u0105bki Wielkie",
                "operator:type": "government",
                "amenity": "school"
            }
        },
        {
            "id": 277988,
            "type": "Feature",
            "geometry": {
                "type": "Point",
                "coordinates": [
                    18.42041,
                    54.19867
                ]
            },
            "properties": {
                "ref:rspo": 277988,
                "official_name": "Zesp\u00f3\u0142 Szkolno-Przedszkolny w Mierzeszynie",
                "name": "Zesp\u00f3\u0142 Szkolno-Przedszkolny w Mierzeszynie",
                "addr:country": "PL",
                "addr:postcode": "83-041",
                "addr:city": "Mierzeszyn",
                "addr:street": "Wolno\u015bci",
                "addr:housenumber": "19",
                "addr:teryt:simc": 24687,
                "addr:teryt:sym_ul": 176182,
                "contact:phone": "+48 586828128",
                "contact:email": "gimwarcz@wp.pl",
                "contact:website": "http:\/\/spmierzeszyn.edupage.org",
                "ref:regon": "389734440",
                "operator": "Gmina Tr\u0105bki Wielkie",
                "operator:type": "government",
                "landuse": "education",
                "fixme": "amenity=school, amenity=college albo landuse=education w zale\u017cno\u015bci od tego, jakie plac\u00f3wki wchodz\u0105 w sk\u0142ad zespo\u0142u. Sprawd\u017a, kiedy stosowa\u0107 amenity=* a kiedy landuse=education.",
                "note": "Children RSPO: 123874;277989"
            }
        },
        {
            "id": 123874,
            "type": "Feature",
            "geometry": {
                "type": "Point",
                "coordinates": [
                    18.42041,
                    54.19864
                ]
            },
            "properties": {
                "isced:level": "1;2",
                "ref:rspo": 123874,
                "official_name": "Szko\u0142a Podstawowa im. Ks. Jana Paw\u0142a Aeltermanna w Mierzeszynie",
                "name": "Szko\u0142a Podstawowa",
                "addr:country": "PL",
                "addr:postcode": "83-041",
                "addr:city": "Mierzeszyn",
                "addr:street": "Wolno\u015bci",
                "addr:housenumber": "19",
                "addr:teryt:simc": 24687,
                "addr:teryt:sym_ul": 176182,
                "contact:phone": "+48 586828128",
                "contact:email": "gimwarcz@wp.pl",
                "contact:website": "http:\/\/www.spmierzeszyn.edupage.org",
                "ref:regon": "190385774",
                "ref:vatin": "PL6040086086",
                "operator": "Gmina Tr\u0105bki Wielkie",
                "operator:type": "government",
                "amenity": "school",
                "note": "Parent RSPO: 277988"
            }
        },
        {
            "id": 277989,
            "type": "Feature",
            "geometry": {
                "type": "Point",
                "coordinates": [
                    18.42041,
                    54.19861
                ]
            },
            "properties": {
                "ref:rspo": 277989,
                "official_name": "Przedszkole Publiczne w Mierzeszynie",
                "name": "Przedszkole Publiczne w Mierzeszynie",
                "addr:country": "PL",
                "addr:postcode": "83-041",
                "addr:city": "Mierzeszyn",
                "addr:street": "Wolno\u015bci",
                "addr:housenumber": "19",
                "addr:teryt:simc": 24687,
                "addr:teryt:sym_ul": 176182,
                "contact:phone": "+48 586828128",
                "contact:email": "gimwarcz@wp.pl",
                "contact:website": "http:\/\/spmierzeszyn.edupage.org",
                "ref:regon": "389734479",
                "operator": "Gmina Tr\u0105bki Wielkie",
                "operator:type": "government",
                "amenity": "kindergarten",
                "note": "Parent RSPO: 277988"
            }
        },
        {
            "id": 106542,
            "type": "Feature",
            "geometry": {
                "type": "Point",
                "coordinates": [
                    18.58546,
                    54.20021
                ]
            },
            "properties": {
                "isced:level": "1;2",
                "ref:rspo": 106542,
                "official_name": "Szko\u0142a Podstawowa im. Marii Kownackiej\nW K\u0142odawie",
                "name": "Szko\u0142a Podstawowa",
                "addr:country": "PL",
                "addr:postcode": "83-035",
                "addr:city": "K\u0142odawa",
                "addr:street": "Szkolna",
                "addr:housenumber": "10",
                "addr:teryt:simc": 21970,
                "addr:teryt:sym_ul": 176176,
                "contact:phone": "+48 586828728",
                "contact:email": "spklodawa@wp.pl",
                "contact:website": "http:\/\/www.spklodawa.edupage.org",
                "ref:regon": "190385716",
                "ref:vatin": "PL6040086560",
                "operator": "Gmina Tr\u0105bki Wielkie",
                "operator:type": "government",
                "amenity": "school"
            }
        },
        {
            "id": 73771,
            "type": "Feature",
            "geometry": {
                "type": "Point",
                "coordinates": [
                    18.4930671,
                    54.212512
                ]
            },
            "properties": {
                "isced:level": "1;2",
                "ref:rspo": 73771,
                "official_name": "Szko\u0142a Podstawowa Specjalna w Warczu",
                "name": "Szko\u0142a Podstawowa Specjalna w Warczu",
                "addr:country": "PL",
                "addr:postcode": "83-041",
                "addr:place": "Warcz",
                "addr:housenumber": "6",
                "addr:teryt:sym_ul": 176325,
                "contact:phone": "+48 586828191",
                "contact:email": "zsswarcz@powiat-gdanski.pl",
                "contact:website": "http:\/\/www.zswarcz.pl",
                "ref:regon": "221076905",
                "ref:vatin": "PL6040136246",
                "operator": "Powiat Gda\u0144ski",
                "operator:type": "government",
                "amenity": "school"
            }
        }
    ]
}