{
    "type": "FeatureCollection",
    "features": [
        {
            "id": 272598,
            "type": "Feature",
            "geometry": {
                "type": "Point",
                "coordinates": [
                    18.67562,
                    54.25447
                ]
            },
            "properties": {
                "isced:level": "1;2",
                "ref:rspo": 272598,
                "official_name": "Niepubliczna Szko\u0142a Podstawowa Integracyjna \"Lawendowy Kr\u00f3L\"",
                "name": "Niepubliczna Szko\u0142a Podstawowa Integracyjna \"Lawendowy Kr\u00f3L\"",
                "addr:postcode": "83-000",
                "addr:city": "Pruszcz Gda\u0144ski",
                "addr:street": "Powsta\u0144c\u00f3w Warszawy",
                "addr:housenumber": "81D",
                "addr:teryt:simc": 934620,
                "addr:teryt:sym_ul": 17372,
                "phone": "+48 512109311",
                "email": "szkola.lawendowykrol@gmail.com",
                "ref:regon": "384283807",
                "operator": "Lawendowy Kr\u00f3l Sp\u00f3\u0142ka Z Ograniczon\u0105 Odpowiedzialno\u015bci\u0105",
                "operator:type": "private",
                "amenity": "school"
            }
        },
        {
            "id": 113806,
            "type": "Feature",
            "geometry": {
                "type": "Point",
                "coordinates": [
                    18.63371,
                    54.25529
                ]
            },
            "properties": {
                "ref:rspo": 113806,
                "official_name": "Integracyjny Punkt Przedszkolny Tuptusie",
                "name": "Integracyjny Punkt Przedszkolny Tuptusie",
                "addr:postcode": "83-000",
                "addr:city": "Pruszcz Gda\u0144ski",
                "addr:street": "Grunwaldzka",
                "addr:housenumber": "73",
                "addr:door": "1",
                "addr:teryt:simc": 934620,
                "addr:teryt:sym_ul": 6260,
                "phone": "+48 506988335",
                "email": "szymon.rozegnal@tuptusie.pl",
                "website": "http:\/\/www.tuptusie.pl",
                "ref:regon": "221863709",
                "operator": "Szymon Rozegna\u0142",
                "operator:type": "private",
                "amenity": "kindergarten"
            }
        },
        {
            "id": 5070,
            "type": "Feature",
            "geometry": {
                "type": "Point",
                "coordinates": [
                    18.63671,
                    54.25542
                ]
            },
            "properties": {
                "isced:level": "1;2",
                "ref:rspo": 5070,
                "official_name": "Szko\u0142a Podstawowa Nr 3 im. Jana Matejki w Pruszczu Gda\u0144skim",
                "name": "Szko\u0142a Podstawowa Nr 3",
                "addr:postcode": "83-000",
                "addr:city": "Pruszcz Gda\u0144ski",
                "addr:street": "Jana Matejki",
                "addr:housenumber": "1",
                "addr:teryt:simc": 934620,
                "addr:teryt:sym_ul": 12489,
                "phone": "+48 586822953",
                "email": "matejkosp3@gmail.com",
                "website": "https:\/\/matejkosp3.edupage.org\/",
                "ref:regon": "190954670",
                "ref:vatin": "PL5932258171",
                "operator": "Gmina Miejska Pruszcz Gda\u0144ski",
                "operator:type": "government",
                "amenity": "school"
            }
        },
        {
            "id": 60814,
            "type": "Feature",
            "geometry": {
                "type": "Point",
                "coordinates": [
                    18.63442,
                    54.25676
                ]
            },
            "properties": {
                "ref:rspo": 60814,
                "official_name": "O\u015brodek Rehabilitacyjno-Edukacyjno-Wychowawczy w Pruszczu Gda\u0144skim",
                "name": "O\u015brodek Rehabilitacyjno-Edukacyjno-Wychowawczy w Pruszczu Gda\u0144skim",
                "addr:postcode": "83-000",
                "addr:city": "Pruszcz Gda\u0144ski",
                "addr:street": "Grunwaldzka",
                "addr:housenumber": "71c",
                "addr:teryt:simc": 934620,
                "addr:teryt:sym_ul": 6260,
                "phone": "+48 587732100",
                "email": "biuro@psonipruszczgd.org.pl",
                "website": "http:\/\/www.psouupruszcz.org.pl",
                "ref:regon": "221774957",
                "ref:vatin": "PL5932167327",
                "operator": "Polskie Stowarzyszenie Na Rzecz Os\u00f3b Z Niepe\u0142nosprawno\u015bci\u0105 Intelektualn\u0105 Ko\u0142o W Pruszczu Gda\u0144skim",
                "operator:type": "ngo",
                "amenity": "school"
            }
        },
        {
            "id": 12918,
            "type": "Feature",
            "geometry": {
                "type": "Point",
                "coordinates": [
                    18.63089,
                    54.25786
                ]
            },
            "properties": {
                "ref:rspo": 12918,
                "official_name": "Przedszkole Publiczne Nr 3 im. Kubusia Puchatka w Pruszczu Gda\u0144skim",
                "name": "Przedszkole Publiczne Nr 3",
                "addr:postcode": "83-000",
                "addr:city": "Pruszcz Gda\u0144ski",
                "addr:street": "Niepodleg\u0142o\u015bci",
                "addr:housenumber": "10",
                "addr:teryt:simc": 934620,
                "addr:teryt:sym_ul": 14203,
                "phone": "+48 586823538",
                "email": "przedszkole3pg@wp.pl",
                "ref:regon": "221144280",
                "ref:vatin": "PL6040140615",
                "operator": "Gmina Miejska Pruszcz Gda\u0144ski",
                "operator:type": "government",
                "amenity": "kindergarten"
            }
        },
        {
            "id": 131502,
            "type": "Feature",
            "geometry": {
                "type": "Point",
                "coordinates": [
                    18.64315,
                    54.25816
                ]
            },
            "properties": {
                "ref:rspo": 131502,
                "official_name": "Przedszkole Publiczne \"Nad Rzeczk\u0105\"",
                "name": "Przedszkole Publiczne \"Nad Rzeczk\u0105\"",
                "addr:postcode": "83-000",
                "addr:city": "Pruszcz Gda\u0144ski",
                "addr:street": "Podkomorzego",
                "addr:housenumber": "20",
                "addr:teryt:simc": 934620,
                "addr:teryt:sym_ul": 16773,
                "phone": "+48 506771071",
                "email": "biuro@nadrzeczka.pl",
                "website": "http:\/\/www.nadrzeczka.pl",
                "ref:regon": "365205707",
                "operator": "\"Gaja\" Sp\u00f3\u0142ka Z Ograniczon\u0105 Odpowiedzialno\u015bci\u0105",
                "operator:type": "private",
                "amenity": "kindergarten"
            }
        },
        {
            "id": 268301,
            "type": "Feature",
            "geometry": {
                "type": "Point",
                "coordinates": [
                    18.6311,
                    54.25822
                ]
            },
            "properties": {
                "ref:rspo": 268301,
                "official_name": "Niepubliczny Integracyjno-Terapeutyczny Punkt Przedszkolny \"Lawendowy Kr\u00f3L\"",
                "name": "Niepubliczny Integracyjno-Terapeutyczny Punkt Przedszkolny \"Lawendowy Kr\u00f3L\"",
                "addr:postcode": "83-000",
                "addr:city": "Pruszcz Gda\u0144ski",
                "addr:street": "Niepodleg\u0142o\u015bci",
                "addr:housenumber": "10A",
                "addr:door": "1",
                "addr:teryt:simc": 934620,
                "addr:teryt:sym_ul": 14203,
                "email": "lawendowykrol@wp.pl",
                "ref:regon": "381072116",
                "operator": "Lawendowy Kr\u00f3l Sp\u00f3\u0142ka Z Ograniczon\u0105 Odpowiedzialno\u015bci\u0105",
                "operator:type": "private",
                "amenity": "kindergarten"
            }
        },
        {
            "id": 268299,
            "type": "Feature",
            "geometry": {
                "type": "Point",
                "coordinates": [
                    18.63143,
                    54.25845
                ]
            },
            "properties": {
                "ref:rspo": 268299,
                "official_name": "Przedszkole Publiczne \"Geniusz\"",
                "name": "Przedszkole Publiczne \"Geniusz\"",
                "addr:postcode": "83-000",
                "addr:city": "Pruszcz Gda\u0144ski",
                "addr:street": "Obro\u0144c\u00f3w Wybrze\u017ca",
                "addr:housenumber": "31",
                "addr:teryt:simc": 934620,
                "addr:teryt:sym_ul": 14663,
                "email": "geniusz-przedszkole@wp.pl",
                "ref:regon": "381074196",
                "operator": "El\u017cbieta Niew\u0119g\u0142owska",
                "operator:type": "private",
                "amenity": "kindergarten"
            }
        },
        {
            "id": 132295,
            "type": "Feature",
            "geometry": {
                "type": "Point",
                "coordinates": [
                    18.62421,
                    54.25878
                ]
            },
            "properties": {
                "ref:rspo": 132295,
                "official_name": "Niepubliczny Terapeutyczny Punkt Przedszkolny \"Niebieski Koralik\" w Pruszczu Gda\u0144skim",
                "name": "Niepubliczny Terapeutyczny Punkt Przedszkolny \"Niebieski Koralik\" w Pruszczu Gda\u0144skim",
                "addr:postcode": "83-000",
                "addr:city": "Pruszcz Gda\u0144ski",
                "addr:street": "Spokojna",
                "addr:housenumber": "2",
                "addr:teryt:simc": 934620,
                "addr:teryt:sym_ul": 20677,
                "phone": "+48 511627041",
                "email": "niebieskikoralikpruszcz@gmail.com",
                "website": "http:\/\/www.niebieskikoralik.pl",
                "ref:regon": "365534339",
                "operator": "Izabela Picheta",
                "operator:type": "private",
                "amenity": "kindergarten"
            }
        },
        {
            "id": 271304,
            "type": "Feature",
            "geometry": {
                "type": "Point",
                "coordinates": [
                    18.62421,
                    54.25875
                ]
            },
            "properties": {
                "ref:rspo": 271304,
                "official_name": "Niepubliczne Przedszkole Integracyjne \"Karolcia I Piotru\u015b\"",
                "name": "Niepubliczne Przedszkole Integracyjne \"Karolcia I Piotru\u015b\"",
                "addr:postcode": "83-000",
                "addr:city": "Pruszcz Gda\u0144ski",
                "addr:street": "Spokojna",
                "addr:housenumber": "2",
                "addr:teryt:simc": 934620,
                "addr:teryt:sym_ul": 20677,
                "phone": "+48 793444756",
                "email": "przedszkole@karolciaipiotrus.pl",
                "website": "http:\/\/www.karolciaipiotrus.pl",
                "ref:regon": "383281953",
                "operator": "Izabela Picheta",
                "operator:type": "private",
                "amenity": "kindergarten"
            }
        },
        {
            "id": 131672,
            "type": "Feature",
            "geometry": {
                "type": "Point",
                "coordinates": [
                    18.67332,
                    54.25985
                ]
            },
            "properties": {
                "ref:rspo": 131672,
                "official_name": "Niepubliczna Poradnia Psychologiczno-Pedagogiczna Akademia Rozwoju",
                "name": "Niepubliczna Poradnia Psychologiczno-Pedagogiczna Akademia Rozwoju",
                "addr:postcode": "83-000",
                "addr:city": "Pruszcz Gda\u0144ski",
                "addr:street": "J\u00f3zefa Konrada Korzeniowskiego",
                "addr:housenumber": "66",
                "addr:teryt:simc": 934620,
                "addr:teryt:sym_ul": 9410,
                "phone": "+48 572874875",
                "email": "a.szrubkowska@akademiarozwoju.com.pl",
                "ref:regon": "365338153",
                "operator": "Akademia Rozwoju Sp\u00f3\u0142ka Z Ograniczon\u0105 Odpowiedzialno\u015bci\u0105",
                "operator:type": "private",
                "healthcare": "counselling",
                "counselling_type": "education",
                "fixme": "w zale\u017cno\u015bci od przedmiotu dzia\u0142alno\u015bci (np. healthcare=counselling + counselling_type=education albo healthcare=psychotherapist)"
            }
        },
        {
            "id": 263685,
            "type": "Feature",
            "geometry": {
                "type": "Point",
                "coordinates": [
                    18.67332,
                    54.25982
                ]
            },
            "properties": {
                "ref:rspo": 263685,
                "official_name": "Integracyjny Punkt Przedszkolny \"Akademia Rozwoju\" w Pruszczu Gda\u0144skim",
                "name": "Integracyjny Punkt Przedszkolny \"Akademia Rozwoju\" w Pruszczu Gda\u0144skim",
                "addr:postcode": "83-000",
                "addr:city": "Pruszcz Gda\u0144ski",
                "addr:street": "J\u00f3zefa Konrada Korzeniowskiego",
                "addr:housenumber": "66",
                "addr:teryt:simc": 934620,
                "addr:teryt:sym_ul": 9410,
                "phone": "+48 572874875",
                "email": "a.szrubkowska@akademiarozwoju.com.pl",
                "ref:regon": "368215050",
                "operator": "Akademia Rozwoju Sp\u00f3\u0142ka Z Ograniczon\u0105 Odpowiedzialno\u015bci\u0105",
                "operator:type": "private",
                "amenity": "kindergarten"
            }
        },
        {
            "id": 13265,
            "type": "Feature",
            "geometry": {
                "type": "Point",
                "coordinates": [
                    18.6652099,
                    54.26042
                ]
            },
            "properties": {
                "ref:rspo": 13265,
                "official_name": "Przedszkole Prywatne \"Promyczek\"",
                "name": "Przedszkole Prywatne \"Promyczek\"",
                "addr:postcode": "83-000",
                "addr:city": "Pruszcz Gda\u0144ski",
                "addr:street": "W\u0142adys\u0142awa Jagie\u0142\u0142y",
                "addr:housenumber": "5",
                "addr:teryt:simc": 934620,
                "addr:teryt:sym_ul": 24494,
                "phone": "+48 586822131",
                "email": "promyczek2013@gmail.com",
                "website": "http:\/\/www.promyczek.info",
                "ref:regon": "221740160",
                "ref:vatin": "PL5931182649",
                "operator": "Barbara Galska",
                "operator:type": "private",
                "amenity": "kindergarten"
            }
        },
        {
            "id": 70524,
            "type": "Feature",
            "geometry": {
                "type": "Point",
                "coordinates": [
                    18.64711,
                    54.26044
                ]
            },
            "properties": {
                "ref:rspo": 70524,
                "official_name": "O\u015brodek Rewalidacji Dzieci I M\u0142odzie\u017cy Z Autyzmem Orda w Pruszczu Gda\u0144skim",
                "name": "O\u015brodek Rewalidacji Dzieci I M\u0142odzie\u017cy Z Autyzmem Orda w Pruszczu Gda\u0144skim",
                "addr:postcode": "83-000",
                "addr:city": "Pruszcz Gda\u0144ski",
                "addr:street": "Powsta\u0144c\u00f3w Warszawy",
                "addr:housenumber": "2",
                "addr:teryt:simc": 934620,
                "addr:teryt:sym_ul": 17372,
                "phone": "+48 660245779",
                "email": "beztabu@op.pl",
                "ref:regon": "221777051",
                "ref:vatin": "PL5833027178",
                "operator": "Fundacja \"Autyzm Bez Tabu\"",
                "operator:type": "ngo",
                "amenity": "school"
            }
        },
        {
            "id": 74942,
            "type": "Feature",
            "geometry": {
                "type": "Point",
                "coordinates": [
                    18.62828,
                    54.26071
                ]
            },
            "properties": {
                "isced:level": "1;2",
                "ref:rspo": 74942,
                "official_name": "Szko\u0142a Podstawowa Nr 2 im. Miko\u0142aja Kopernika w Pruszczu Gda\u0144skim",
                "name": "Szko\u0142a Podstawowa Nr 2",
                "addr:postcode": "83-000",
                "addr:city": "Pruszcz Gda\u0144ski",
                "addr:street": "Tysi\u0105clecia",
                "addr:housenumber": "5",
                "addr:teryt:simc": 934620,
                "addr:teryt:sym_ul": 23270,
                "phone": "+48 586823514",
                "email": "zs2@pruszcz-gda.pl",
                "website": "https:\/\/sp2.stronyzklasa.pl",
                "ref:regon": "190954663",
                "operator": "Gmina Miejska Pruszcz Gda\u0144ski",
                "operator:type": "government",
                "amenity": "school"
            }
        },
        {
            "id": 130145,
            "type": "Feature",
            "geometry": {
                "type": "Point",
                "coordinates": [
                    18.65143,
                    54.26085
                ]
            },
            "properties": {
                "ref:rspo": 130145,
                "official_name": "Pracownia Tw\u00f3rczego Rozwojuedukacyjny Zak\u0105tek",
                "name": "Pracownia Tw\u00f3rczego Rozwojuedukacyjny Zak\u0105tek",
                "addr:postcode": "83-000",
                "addr:city": "Pruszcz Gda\u0144ski",
                "addr:street": "Jana Kochanowskiego",
                "addr:housenumber": "2",
                "addr:door": "8",
                "addr:teryt:simc": 934620,
                "addr:teryt:sym_ul": 8728,
                "phone": "+48 507434414",
                "email": "kontakt@edukacyjnyzakatek.pl",
                "ref:regon": "363541980",
                "operator": "Fundacja Pomorski Instytut Edukacji",
                "operator:type": "ngo",
                "fixme": "w zale\u017cno\u015bci od przedmiotu dzia\u0142alno\u015bci (np. amenity=training + training=*, amenity=dancing_school, amenity=language_school, amenity=music_school)"
            }
        },
        {
            "id": 130395,
            "type": "Feature",
            "geometry": {
                "type": "Point",
                "coordinates": [
                    18.65143,
                    54.260819999999995
                ]
            },
            "properties": {
                "ref:rspo": 130395,
                "official_name": "Niepubliczna Poradnia Psychologiczno-Pedagogiczna Nr 1 w Pruszczu Gda\u0144skim",
                "name": "Niepubliczna Poradnia Psychologiczno-Pedagogiczna Nr 1 w Pruszczu Gda\u0144skim",
                "addr:postcode": "83-000",
                "addr:city": "Pruszcz Gda\u0144ski",
                "addr:street": "Jana Kochanowskiego",
                "addr:housenumber": "2",
                "addr:teryt:simc": 934620,
                "addr:teryt:sym_ul": 8728,
                "phone": "+48 796578944",
                "email": "kontakt@pie.org.pl",
                "ref:regon": "363961379",
                "operator": "Fundacja Pomorski Instytut Edukacji",
                "operator:type": "ngo",
                "healthcare": "counselling",
                "counselling_type": "education",
                "fixme": "w zale\u017cno\u015bci od przedmiotu dzia\u0142alno\u015bci (np. healthcare=counselling + counselling_type=education albo healthcare=psychotherapist)"
            }
        },
        {
            "id": 268014,
            "type": "Feature",
            "geometry": {
                "type": "Point",
                "coordinates": [
                    18.65143,
                    54.26079
                ]
            },
            "properties": {
                "isced:level": "1;2",
                "ref:rspo": 268014,
                "official_name": "Szko\u0142a Podstawowa Akademia Dobrej Edukacji w Pruszczu Gda\u0144skim",
                "name": "Szko\u0142a Podstawowa Akademia Dobrej Edukacji w Pruszczu Gda\u0144skim",
                "addr:postcode": "83-000",
                "addr:city": "Pruszcz Gda\u0144ski",
                "addr:street": "Jana Kochanowskiego",
                "addr:housenumber": "2",
                "addr:teryt:simc": 934620,
                "addr:teryt:sym_ul": 8728,
                "phone": "+48 669477685",
                "email": "ade.pruszcz@dobraedukacja.edu.pl",
                "website": "http:\/\/pruszcz.dobraedukacja.edu.pl",
                "ref:regon": "380862075",
                "operator": "Stowarzyszenie \"Dobra Edukacja\"",
                "operator:type": "ngo",
                "amenity": "school"
            }
        },
        {
            "id": 131495,
            "type": "Feature",
            "geometry": {
                "type": "Point",
                "coordinates": [
                    18.63715,
                    54.26095
                ]
            },
            "properties": {
                "ref:rspo": 131495,
                "official_name": "Przedszkole Publiczne im. Janusza Korczaka w Pruszczu Gda\u0144skim",
                "name": "Przedszkole Publiczne",
                "addr:postcode": "83-000",
                "addr:city": "Pruszcz Gda\u0144ski",
                "addr:street": "Wojciecha Kossaka",
                "addr:housenumber": "15",
                "addr:teryt:simc": 934620,
                "addr:teryt:sym_ul": 9464,
                "phone": "+48 586921356",
                "email": "sekretariat@przedszkolekorczak.pl",
                "website": "http:\/\/www.przedszkolekorczak.edupage.org",
                "ref:regon": "365205682",
                "operator": "Agnieszka Kucwaj-Janisz",
                "operator:type": "private",
                "amenity": "kindergarten"
            }
        },
        {
            "id": 129370,
            "type": "Feature",
            "geometry": {
                "type": "Point",
                "coordinates": [
                    18.64476,
                    54.26133
                ]
            },
            "properties": {
                "ref:rspo": 129370,
                "official_name": "Eur Consulting",
                "name": "Eur Consulting",
                "addr:postcode": "83-000",
                "addr:city": "Pruszcz Gda\u0144ski",
                "addr:street": "Fryderyka Chopina",
                "addr:housenumber": "19",
                "addr:teryt:simc": 934620,
                "addr:teryt:sym_ul": 2849,
                "phone": "+48 587282416",
                "email": "pruszcz@eur.org.pl",
                "ref:regon": "362571446",
                "operator": "Eur Consulting Sp\u00f3\u0142ka Z Ograniczon\u0105 Odpowiedzialno\u015bci\u0105",
                "operator:type": "private",
                "fixme": "w zale\u017cno\u015bci od przedmiotu dzia\u0142alno\u015bci (np. amenity=training + training=*, amenity=dancing_school, amenity=language_school, amenity=music_school)"
            }
        },
        {
            "id": 12915,
            "type": "Feature",
            "geometry": {
                "type": "Point",
                "coordinates": [
                    18.65055,
                    54.26178
                ]
            },
            "properties": {
                "ref:rspo": 12915,
                "official_name": "Zesp\u00f3\u0142 Szk\u00f3\u0142 Og\u00f3lnokszta\u0142c\u0105cych Nr 1 im. Marii Konopnickiej w Pruszczu Gda\u0144skim",
                "name": "Zesp\u00f3\u0142 Szk\u00f3\u0142 Og\u00f3lnokszta\u0142c\u0105cych Nr 1",
                "addr:postcode": "83-000",
                "addr:city": "Pruszcz Gda\u0144ski",
                "addr:street": "Juliana Ursyna Niemcewicza",
                "addr:housenumber": "1",
                "addr:teryt:simc": 934620,
                "addr:teryt:sym_ul": 14177,
                "phone": "+48 586823610",
                "email": "sekretariat@zso1.pl",
                "website": "http:\/\/zso1.pl",
                "ref:regon": "191471932",
                "ref:vatin": "PL5932070154",
                "operator": "Gmina Miejska Pruszcz Gda\u0144ski",
                "operator:type": "government",
                "landuse": "education",
                "fixme": "amenity=school, amenity=college albo landuse=education w zale\u017cno\u015bci od tego, jakie plac\u00f3wki wchodz\u0105 w sk\u0142ad zespo\u0142u. Sprawd\u017a, kiedy stosowa\u0107 amenity=* a kiedy landuse=education.",
                "note": "Children RSPO: 83567;263660"
            }
        },
        {
            "id": 83567,
            "type": "Feature",
            "geometry": {
                "type": "Point",
                "coordinates": [
                    18.65055,
                    54.26175
                ]
            },
            "properties": {
                "isced:level": "3",
                "ref:rspo": 83567,
                "official_name": "Zesp\u00f3\u0142 Szk\u00f3\u0142 Og\u00f3lnokszta\u0142c\u0105cych Nr 1 im. Marii Konopnickiej -Liceum Og\u00f3lnokszta\u0142c\u0105ce Nr 1 im. Marii Konopnickiej w Pruszczu Gda\u0144skim",
                "name": "Zesp\u00f3\u0142 Szk\u00f3\u0142 Og\u00f3lnokszta\u0142c\u0105cych Nr 1",
                "addr:postcode": "83-000",
                "addr:city": "Pruszcz Gda\u0144ski",
                "addr:street": "Juliana Ursyna Niemcewicza",
                "addr:housenumber": "1",
                "addr:teryt:simc": 934620,
                "addr:teryt:sym_ul": 14177,
                "phone": "+48 586823610",
                "email": "sekretariat@zso1.pl",
                "website": "http:\/\/zso1.pl",
                "ref:regon": "192947213",
                "operator": "Gmina Miejska Pruszcz Gda\u0144ski",
                "operator:type": "government",
                "amenity": "school",
                "note": "Parent RSPO: 12915"
            }
        },
        {
            "id": 263660,
            "type": "Feature",
            "geometry": {
                "type": "Point",
                "coordinates": [
                    18.65055,
                    54.261720000000004
                ]
            },
            "properties": {
                "isced:level": "1;2",
                "ref:rspo": 263660,
                "official_name": "Zesp\u00f3\u0142 Szk\u00f3\u0142 Og\u00f3lnokszta\u0142c\u0105cych Nr 1 im. Marii Konopnickiej -Szko\u0142a Podstawowa Nr 1 im. Marii Konopnickiej w Pruszczu Gda\u0144skim",
                "name": "Zesp\u00f3\u0142 Szk\u00f3\u0142 Og\u00f3lnokszta\u0142c\u0105cych Nr 1",
                "addr:postcode": "80-000",
                "addr:city": "Pruszcz Gda\u0144ski",
                "addr:street": "Juliana Ursyna Niemcewicza",
                "addr:housenumber": "1",
                "addr:teryt:simc": 934620,
                "addr:teryt:sym_ul": 14177,
                "phone": "+48 586823610",
                "email": "szkolapodstawowa@zso1.pl",
                "website": "http:\/\/zso1.pl",
                "ref:regon": "368211884",
                "operator": "Gmina Miejska Pruszcz Gda\u0144ski",
                "operator:type": "government",
                "amenity": "school",
                "note": "Parent RSPO: 12915"
            }
        },
        {
            "id": 131664,
            "type": "Feature",
            "geometry": {
                "type": "Point",
                "coordinates": [
                    18.638224,
                    54.2620402
                ]
            },
            "properties": {
                "isced:level": "4",
                "ref:rspo": 131664,
                "official_name": "Policealna Szko\u0142a Medyczna Remedium Nr 2",
                "name": "Policealna Szko\u0142a Medyczna Remedium Nr 2",
                "addr:postcode": "83-000",
                "addr:city": "Pruszcz Gda\u0144ski",
                "addr:street": "Fryderyka Chopina",
                "addr:housenumber": "3",
                "addr:teryt:simc": 934620,
                "addr:teryt:sym_ul": 2849,
                "phone": "+48 510941211",
                "email": "policealnaszkola.med@remedium.med.pl",
                "ref:regon": "365337900",
                "operator": "Centrum Us\u0142ug Medyczno-Opieku\u0144czych I Edukacyjnych \"Remedium\" Jolanta Urbanek",
                "operator:type": "consortium",
                "amenity": "college"
            }
        },
        {
            "id": 131667,
            "type": "Feature",
            "geometry": {
                "type": "Point",
                "coordinates": [
                    18.638224,
                    54.2620102
                ]
            },
            "properties": {
                "isced:level": "4",
                "ref:rspo": 131667,
                "official_name": "Policealna Szko\u0142a Medyczna Remedium Nr 1",
                "name": "Policealna Szko\u0142a Medyczna Remedium Nr 1",
                "addr:postcode": "83-000",
                "addr:city": "Pruszcz Gda\u0144ski",
                "addr:street": "Fryderyka Chopina",
                "addr:housenumber": "3",
                "addr:teryt:simc": 934620,
                "addr:teryt:sym_ul": 2849,
                "phone": "+48 510941211",
                "email": "policealnaszkola.med@remedium.med.pl",
                "ref:regon": "365338124",
                "operator": "Centrum Us\u0142ug Medyczno-Opieku\u0144czych I Edukacyjnych \"Remedium\" Jolanta Urbanek",
                "operator:type": "consortium",
                "amenity": "college"
            }
        },
        {
            "id": 276227,
            "type": "Feature",
            "geometry": {
                "type": "Point",
                "coordinates": [
                    18.638224,
                    54.2619802
                ]
            },
            "properties": {
                "isced:level": "3",
                "ref:rspo": 276227,
                "official_name": "Niepubliczna Bran\u017cowa Szko\u0142a I Stopnia \"Remedium\" w Pruszczu Gda\u0144skim",
                "name": "Niepubliczna Bran\u017cowa Szko\u0142a I Stopnia \"Remedium\" w Pruszczu Gda\u0144skim",
                "addr:postcode": "83-000",
                "addr:city": "Pruszcz Gda\u0144ski",
                "addr:street": "Fryderyka Chopina",
                "addr:housenumber": "3",
                "addr:teryt:simc": 934620,
                "addr:teryt:sym_ul": 2849,
                "phone": "+48 583800532",
                "email": "jolantaurbanek@o2.pl",
                "ref:regon": "387038600",
                "ref:vatin": "PL8361348378",
                "operator": "Centrum Us\u0142ug Medyczno-Opieku\u0144czych I Edukacyjnych \"Remedium\" Jolanta Urbanek",
                "operator:type": "consortium",
                "amenity": "school"
            }
        },
        {
            "id": 111376,
            "type": "Feature",
            "geometry": {
                "type": "Point",
                "coordinates": [
                    18.63224,
                    54.26209
                ]
            },
            "properties": {
                "ref:rspo": 111376,
                "official_name": "Pedagogiczna Biblioteka Wojew\u00f3dzka w Gda\u0144sku Filia w Pruszczu Gda\u0144skim",
                "name": "Pedagogiczna Biblioteka Wojew\u00f3dzka w Gda\u0144sku Filia w Pruszczu Gda\u0144skim",
                "addr:postcode": "83-000",
                "addr:city": "Pruszcz Gda\u0144ski",
                "addr:street": "Obro\u0144c\u00f3w Pokoju",
                "addr:housenumber": "6",
                "addr:teryt:simc": 934620,
                "addr:teryt:sym_ul": 14642,
                "phone": "+48 586823245",
                "email": "pbwpruszczgd@pbw.it.pl",
                "ref:regon": "191688264",
                "operator": "Wojew\u00f3dztwo Pomorskie",
                "operator:type": "government",
                "amenity": "library",
                "note": "Parent RSPO: 9619"
            }
        },
        {
            "id": 272314,
            "type": "Feature",
            "geometry": {
                "type": "Point",
                "coordinates": [
                    18.63376,
                    54.26266
                ]
            },
            "properties": {
                "ref:rspo": 272314,
                "official_name": "Katolickie Szko\u0142y Niepubliczne im. \u015aw. Jana Paw\u0142a Ii",
                "name": "Katolickie Szko\u0142y Niepubliczne",
                "addr:postcode": "83-000",
                "addr:city": "Pruszcz Gda\u0144ski",
                "addr:street": "Wojska Polskiego",
                "addr:housenumber": "8",
                "addr:teryt:simc": 934620,
                "addr:teryt:sym_ul": 24628,
                "phone": "+48 586917560",
                "email": "ksnp@katolicka.com.pl",
                "ref:regon": "384115270",
                "operator": "Fundacja Edukacji I Wspierania Rodziny Brama",
                "operator:type": "ngo",
                "landuse": "education",
                "fixme": "amenity=school, amenity=college albo landuse=education w zale\u017cno\u015bci od tego, jakie plac\u00f3wki wchodz\u0105 w sk\u0142ad zespo\u0142u. Sprawd\u017a, kiedy stosowa\u0107 amenity=* a kiedy landuse=education.",
                "note": "Children RSPO: 75105;269487"
            }
        },
        {
            "id": 75105,
            "type": "Feature",
            "geometry": {
                "type": "Point",
                "coordinates": [
                    18.63376,
                    54.262629999999994
                ]
            },
            "properties": {
                "isced:level": "1;2",
                "ref:rspo": 75105,
                "official_name": "Katolicka Niepubliczna Szko\u0142a Podstawowa im. \u015aw. Jana Paw\u0142a Ii",
                "name": "Katolicka Niepubliczna Szko\u0142a Podstawowa",
                "addr:postcode": "83-000",
                "addr:city": "Pruszcz Gda\u0144ski",
                "addr:street": "Wojska Polskiego",
                "addr:housenumber": "8",
                "addr:teryt:simc": 934620,
                "addr:teryt:sym_ul": 24628,
                "phone": "+48 586917560",
                "email": "knsp@katolicka.com.pl",
                "website": "http:\/\/katolicka.com.pl",
                "ref:regon": "221778910",
                "operator": "Fundacja Edukacji I Wspierania Rodziny Brama",
                "operator:type": "ngo",
                "amenity": "school",
                "note": "Parent RSPO: 272314"
            }
        },
        {
            "id": 269487,
            "type": "Feature",
            "geometry": {
                "type": "Point",
                "coordinates": [
                    18.63376,
                    54.2626
                ]
            },
            "properties": {
                "isced:level": "3",
                "ref:rspo": 269487,
                "official_name": "Katolickie Niepubliczne Liceum Og\u00f3lnokszta\u0142c\u0105ce im. \u015aw. Jana Paw\u0142a Ii",
                "name": "Katolickie Niepubliczne Liceum Og\u00f3lnokszta\u0142c\u0105ce",
                "addr:postcode": "83-000",
                "addr:city": "Pruszcz Gda\u0144ski",
                "addr:street": "Wojska Polskiego",
                "addr:housenumber": "8",
                "addr:teryt:simc": 934620,
                "addr:teryt:sym_ul": 24628,
                "phone": "+48 586917561",
                "email": "ksn@katolicka.com.pl",
                "website": "http:\/\/www.katolicka.com.pl",
                "ref:regon": "381516990",
                "operator": "Fundacja Edukacji I Wspierania Rodziny Brama",
                "operator:type": "ngo",
                "amenity": "school",
                "note": "Parent RSPO: 272314"
            }
        },
        {
            "id": 267315,
            "type": "Feature",
            "geometry": {
                "type": "Point",
                "coordinates": [
                    18.62592,
                    54.26334
                ]
            },
            "properties": {
                "ref:rspo": 267315,
                "official_name": "Niepubliczna Poradnia Psychologiczno-Pedagogiczna \"Ma\u0142y Kr\u00f3L\"",
                "name": "Niepubliczna Poradnia Psychologiczno-Pedagogiczna \"Ma\u0142y Kr\u00f3L\"",
                "addr:postcode": "83-000",
                "addr:city": "Pruszcz Gda\u0144ski",
                "addr:street": "Cicha",
                "addr:housenumber": "13",
                "addr:door": "1",
                "addr:teryt:simc": 934620,
                "addr:teryt:sym_ul": 2974,
                "phone": "+48 730365000",
                "email": "ed.wyspamalegokrola@wp.pl",
                "ref:regon": "380097700",
                "operator": "Przemys\u0142aw Kr\u00f3l",
                "operator:type": "private",
                "healthcare": "counselling",
                "counselling_type": "education",
                "fixme": "w zale\u017cno\u015bci od przedmiotu dzia\u0142alno\u015bci (np. healthcare=counselling + counselling_type=education albo healthcare=psychotherapist)"
            }
        },
        {
            "id": 119486,
            "type": "Feature",
            "geometry": {
                "type": "Point",
                "coordinates": [
                    18.66254,
                    54.2635
                ]
            },
            "properties": {
                "isced:level": "1;2",
                "ref:rspo": 119486,
                "official_name": "Niepubliczna Szko\u0142a Podstawowa Akademia Montessori w Pruszczu Gda\u0144skim",
                "name": "Niepubliczna Szko\u0142a Podstawowa Akademia Montessori w Pruszczu Gda\u0144skim",
                "addr:postcode": "83-000",
                "addr:city": "Pruszcz Gda\u0144ski",
                "addr:street": "Miko\u0142aja Kopernika",
                "addr:housenumber": "65",
                "addr:teryt:simc": 934620,
                "addr:teryt:sym_ul": 9282,
                "phone": "+48 604802080",
                "email": "sekretariat@szkolapruszcz.pl",
                "website": "http:\/\/szkolapruszcz.pl\/",
                "ref:regon": "221946677",
                "operator": "Niepubliczna Szko\u0142a Podstawowa Akademia Montessori Sp\u00f3\u0142ka Z Ograniczon\u0105 Odpowiedzialno\u015bci\u0105",
                "operator:type": "private",
                "amenity": "school"
            }
        },
        {
            "id": 72641,
            "type": "Feature",
            "geometry": {
                "type": "Point",
                "coordinates": [
                    18.63427,
                    54.26378
                ]
            },
            "properties": {
                "ref:rspo": 72641,
                "official_name": "Zesp\u00f3\u0142 Szk\u00f3\u0142 Ogrodniczych I Og\u00f3lnokszta\u0142c\u0105cych im. Mariana Raciborskiego w Pruszczu Gda\u0144skim",
                "name": "Zesp\u00f3\u0142 Szk\u00f3\u0142 Ogrodniczych I Og\u00f3lnokszta\u0142c\u0105cych",
                "addr:postcode": "83-000",
                "addr:city": "Pruszcz Gda\u0144ski",
                "addr:street": "Wojska Polskiego",
                "addr:housenumber": "4",
                "addr:teryt:simc": 934620,
                "addr:teryt:sym_ul": 24628,
                "phone": "+48 586823510",
                "email": "sekretariat@zsoio.pl",
                "website": "http:\/\/www.zsoio.pl",
                "ref:regon": "000096715",
                "ref:vatin": "PL5930208016",
                "operator": "Powiat Gda\u0144ski",
                "operator:type": "government",
                "landuse": "education",
                "fixme": "amenity=school, amenity=college albo landuse=education w zale\u017cno\u015bci od tego, jakie plac\u00f3wki wchodz\u0105 w sk\u0142ad zespo\u0142u. Sprawd\u017a, kiedy stosowa\u0107 amenity=* a kiedy landuse=education.",
                "note": "Children RSPO: 9496;89762;91848;91849;92055"
            }
        },
        {
            "id": 9496,
            "type": "Feature",
            "geometry": {
                "type": "Point",
                "coordinates": [
                    18.63427,
                    54.263749999999995
                ]
            },
            "properties": {
                "isced:level": "3",
                "ref:rspo": 9496,
                "official_name": "Liceum Og\u00f3lnokszta\u0142c\u0105ce dla Doros\u0142ych",
                "name": "Liceum Og\u00f3lnokszta\u0142c\u0105ce dla Doros\u0142ych",
                "addr:postcode": "83-000",
                "addr:city": "Pruszcz Gda\u0144ski",
                "addr:street": "Wojska Polskiego",
                "addr:housenumber": "4",
                "addr:teryt:simc": 934620,
                "addr:teryt:sym_ul": 24628,
                "phone": "+48 586823510",
                "email": "sekretariat@zsoio.pl",
                "website": "http:\/\/www.zsoio.pl",
                "ref:regon": "221735294",
                "operator": "Powiat Gda\u0144ski",
                "operator:type": "government",
                "amenity": "school",
                "note": "Parent RSPO: 72641"
            }
        },
        {
            "id": 89762,
            "type": "Feature",
            "geometry": {
                "type": "Point",
                "coordinates": [
                    18.63427,
                    54.26372
                ]
            },
            "properties": {
                "isced:level": "3",
                "ref:rspo": 89762,
                "official_name": "Ii Liceum Og\u00f3lnokszta\u0142c\u0105ce w Pruszczu Gda\u0144skim",
                "name": "Ii Liceum Og\u00f3lnokszta\u0142c\u0105ce w Pruszczu Gda\u0144skim",
                "addr:postcode": "83-000",
                "addr:city": "Pruszcz Gda\u0144ski",
                "addr:street": "Wojska Polskiego",
                "addr:housenumber": "4",
                "addr:teryt:simc": 934620,
                "addr:teryt:sym_ul": 24628,
                "phone": "+48 586823510",
                "email": "sekretariat@zsoio.pl",
                "website": "http:\/\/www.zsoio.pl",
                "ref:regon": "220049243",
                "operator": "Powiat Gda\u0144ski",
                "operator:type": "government",
                "amenity": "school",
                "note": "Parent RSPO: 72641"
            }
        },
        {
            "id": 91848,
            "type": "Feature",
            "geometry": {
                "type": "Point",
                "coordinates": [
                    18.63427,
                    54.26369
                ]
            },
            "properties": {
                "isced:level": "3",
                "ref:rspo": 91848,
                "official_name": "Bran\u017cowa Szko\u0142a I Stopnia Nr 1 w Zespole Szk\u00f3\u0142 Ogrodniczych I Og\u00f3lnokszta\u0142c\u0105cych w Pruszczu Gda\u0144skim",
                "name": "Bran\u017cowa Szko\u0142a I Stopnia Nr 1 w Zespole Szk\u00f3\u0142 Ogrodniczych I Og\u00f3lnokszta\u0142c\u0105cych w Pruszczu Gda\u0144skim",
                "addr:postcode": "83-000",
                "addr:city": "Pruszcz Gda\u0144ski",
                "addr:street": "Wojska Polskiego",
                "addr:housenumber": "4",
                "addr:teryt:simc": 934620,
                "addr:teryt:sym_ul": 24628,
                "phone": "+48 586823510",
                "email": "sekretariat@zsoio.pl",
                "website": "http:\/\/www.zsoio.pl",
                "ref:regon": "192968333",
                "operator": "Powiat Gda\u0144ski",
                "operator:type": "government",
                "amenity": "school",
                "note": "Parent RSPO: 72641"
            }
        },
        {
            "id": 91849,
            "type": "Feature",
            "geometry": {
                "type": "Point",
                "coordinates": [
                    18.63427,
                    54.263659999999994
                ]
            },
            "properties": {
                "isced:level": "3",
                "ref:rspo": 91849,
                "official_name": "Technikum Nr 1 w Pruszczu Gda\u0144skim",
                "name": "Technikum Nr 1 w Pruszczu Gda\u0144skim",
                "addr:postcode": "83-000",
                "addr:city": "Pruszcz Gda\u0144ski",
                "addr:street": "Wojska Polskiego",
                "addr:housenumber": "4",
                "addr:teryt:simc": 934620,
                "addr:teryt:sym_ul": 24628,
                "phone": "+48 586823510",
                "email": "sekretariat@zsoio.pl",
                "website": "http:\/\/www.zsoio.pl",
                "ref:regon": "192968310",
                "operator": "Powiat Gda\u0144ski",
                "operator:type": "government",
                "amenity": "school",
                "note": "Parent RSPO: 72641"
            }
        },
        {
            "id": 92055,
            "type": "Feature",
            "geometry": {
                "type": "Point",
                "coordinates": [
                    18.63427,
                    54.26363
                ]
            },
            "properties": {
                "isced:level": "4",
                "ref:rspo": 92055,
                "official_name": "Szko\u0142a Policealna Nr 1",
                "name": "Szko\u0142a Policealna Nr 1",
                "addr:postcode": "83-000",
                "addr:city": "Pruszcz Gda\u0144ski",
                "addr:street": "Wojska Polskiego",
                "addr:housenumber": "4",
                "addr:teryt:simc": 934620,
                "addr:teryt:sym_ul": 24628,
                "phone": "+48 586823510",
                "email": "sekretariat@zsoio.pl",
                "website": "http:\/\/www.zsoio.pl",
                "ref:regon": "220040561",
                "operator": "Powiat Gda\u0144ski",
                "operator:type": "government",
                "amenity": "college",
                "note": "Parent RSPO: 72641"
            }
        },
        {
            "id": 81172,
            "type": "Feature",
            "geometry": {
                "type": "Point",
                "coordinates": [
                    18.6698099,
                    54.26405
                ]
            },
            "properties": {
                "isced:level": "1;2",
                "ref:rspo": 81172,
                "official_name": "Szko\u0142a Podstawowa Nr 4 im. Ignacego Jana Paderewskiego w Pruszczu Gda\u0144skim",
                "name": "Szko\u0142a Podstawowa Nr 4",
                "addr:postcode": "83-000",
                "addr:city": "Pruszcz Gda\u0144ski",
                "addr:street": "Jana Kasprowicza",
                "addr:housenumber": "16",
                "addr:teryt:simc": 934620,
                "addr:teryt:sym_ul": 8153,
                "phone": "+48 586822024",
                "email": "sekretariat@sp4gda.pl",
                "website": "http:\/\/www.sp4gda.edupage.org",
                "ref:regon": "192943528",
                "operator": "Gmina Miejska Pruszcz Gda\u0144ski",
                "operator:type": "government",
                "amenity": "school"
            }
        },
        {
            "id": 56259,
            "type": "Feature",
            "geometry": {
                "type": "Point",
                "coordinates": [
                    18.6351,
                    54.26428
                ]
            },
            "properties": {
                "ref:rspo": 56259,
                "official_name": "Poradnia Psychologiczno-Pedagogiczna w Pruszczu Gda\u0144skim",
                "name": "Poradnia Psychologiczno-Pedagogiczna w Pruszczu Gda\u0144skim",
                "addr:postcode": "83-000",
                "addr:city": "Pruszcz Gda\u0144ski",
                "addr:street": "Wojska Polskiego",
                "addr:housenumber": "2",
                "addr:teryt:simc": 934620,
                "addr:teryt:sym_ul": 24628,
                "phone": "+48 586823304",
                "email": "sekretariat@poradniapruszcz.pl",
                "website": "http:\/\/www.poradniapruszcz.pl",
                "ref:regon": "000957844",
                "ref:vatin": "PL5932269938",
                "operator": "Powiat Gda\u0144ski",
                "operator:type": "government",
                "healthcare": "counselling",
                "counselling_type": "education",
                "fixme": "w zale\u017cno\u015bci od przedmiotu dzia\u0142alno\u015bci (np. healthcare=counselling + counselling_type=education albo healthcare=psychotherapist)"
            }
        },
        {
            "id": 133449,
            "type": "Feature",
            "geometry": {
                "type": "Point",
                "coordinates": [
                    18.67237,
                    54.26435
                ]
            },
            "properties": {
                "ref:rspo": 133449,
                "official_name": "Publiczne Przedszkole \"Czw\u00f3reczka\" w Pruszczu Gda\u0144skim",
                "name": "Publiczne Przedszkole \"Czw\u00f3reczka\" w Pruszczu Gda\u0144skim",
                "addr:postcode": "83-000",
                "addr:city": "Pruszcz Gda\u0144ski",
                "addr:street": "Jana Kasprowicza",
                "addr:housenumber": "25",
                "addr:teryt:simc": 934620,
                "addr:teryt:sym_ul": 8153,
                "phone": "+48 500045588",
                "email": "przedszkole@przedszkoleczworeczka.pl",
                "ref:regon": "367342928",
                "operator": "Monika Gierszon",
                "operator:type": "private",
                "amenity": "kindergarten"
            }
        },
        {
            "id": 270209,
            "type": "Feature",
            "geometry": {
                "type": "Point",
                "coordinates": [
                    18.67189,
                    54.26495
                ]
            },
            "properties": {
                "ref:rspo": 270209,
                "official_name": "Przedszkole Niepubliczne Radosna Iskierka",
                "name": "Przedszkole Niepubliczne Radosna Iskierka",
                "addr:postcode": "83-000",
                "addr:city": "Pruszcz Gda\u0144ski",
                "addr:street": "Czes\u0142awa Mi\u0142osza",
                "addr:housenumber": "21",
                "addr:teryt:simc": 934620,
                "addr:teryt:sym_ul": 12964,
                "phone": "+48 501018682",
                "email": "biuro@radosnaiskierka.pl",
                "website": "http:\/\/www.radosnaiskierka.pl",
                "ref:regon": "382195217",
                "operator": "Wanda Lazarska",
                "operator:type": "private",
                "amenity": "kindergarten"
            }
        },
        {
            "id": 14643,
            "type": "Feature",
            "geometry": {
                "type": "Point",
                "coordinates": [
                    18.62959,
                    54.26808
                ]
            },
            "properties": {
                "ref:rspo": 14643,
                "official_name": "Przedszkole Niepubliczne \"Bursztynek\"",
                "name": "Przedszkole Niepubliczne \"Bursztynek\"",
                "addr:postcode": "83-000",
                "addr:city": "Pruszcz Gda\u0144ski",
                "addr:street": "Paw\u0142a Edmunda Strzeleckiego",
                "addr:housenumber": "4",
                "addr:teryt:simc": 934620,
                "addr:teryt:sym_ul": 21386,
                "phone": "+48 782450500",
                "email": "m.piankowska@biw.gda.pl",
                "website": "http:\/\/www.bursztynek.gda.pl",
                "ref:regon": "221744413",
                "ref:vatin": "PL5930007192",
                "operator": "Bo\u017cena Dzidkowska",
                "operator:type": "private",
                "amenity": "kindergarten"
            }
        }
    ]
}