{"type":"FeatureCollection","features":[{"id":18303,"type":"Feature","geometry":{"type":"Point","coordinates":[21.46417,49.85912]},"properties":{"isced:level":"1;2","ref:rspo":18303,"official_name":"Szko\u0142a Podstawowa im. Adama Mickiewicza w Januszkowicach","name":"Szko\u0142a Podstawowa","addr:country":"PL","addr:postcode":"39-230","addr:place":"Januszkowice","addr:housenumber":"60","addr:teryt:sym_ul":814688,"contact:phone":"+48 146824591","contact:email":"jzso@poczta.onet.pl","contact:website":"http:\/\/www.zsjanuszkowice.pl","ref:regon":"691676713","ref:vatin":"PL8722229271","operator":"Gmina Brzostek","operator:type":"government","amenity":"school"}},{"id":7306,"type":"Feature","geometry":{"type":"Point","coordinates":[21.41003,49.86002]},"properties":{"ref:rspo":7306,"official_name":"Zesp\u00f3\u0142 Szk\u00f3\u0142 Centrum Kszta\u0142cenia Rolniczego im. Jana Paw\u0142a II w Brzostku","name":"Zesp\u00f3\u0142 Szk\u00f3\u0142 Centrum Kszta\u0142cenia Rolniczego","addr:country":"PL","addr:postcode":"39-230","addr:place":"Klecie","addr:housenumber":"125","addr:teryt:sym_ul":814783,"contact:phone":"+48 146830321","contact:email":"zsdyrekcja@poczta.onet.pl","contact:website":"http:\/\/www.zsbrzostek.pl","ref:regon":"000095064","ref:vatin":"PL8721052505","operator":"Ministerstwo Rolnictwa I Rozwoju Wsi","operator:type":"public","landuse":"education","fixme":"amenity=school, amenity=college albo landuse=education w zale\u017cno\u015bci od tego, jakie plac\u00f3wki wchodz\u0105 w sk\u0142ad zespo\u0142u. Sprawd\u017a, kiedy stosowa\u0107 amenity=* a kiedy landuse=education.","note":"Children RSPO: 8560;8570"}},{"id":8560,"type":"Feature","geometry":{"type":"Point","coordinates":[21.41003,49.859989999999996]},"properties":{"isced:level":"3","ref:rspo":8560,"official_name":"Technikum w Zespole Szk\u00f3\u0142 w Brzostku","name":"Technikum w Zespole Szk\u00f3\u0142 w Brzostku","addr:country":"PL","addr:postcode":"39-230","addr:place":"Klecie","addr:housenumber":"125","addr:teryt:sym_ul":814783,"contact:phone":"+48 146830321","contact:email":"zsdyrekcja@poczta.onet.pl","contact:website":"http:\/\/www.zsbrzostek.kw.pl","ref:regon":"691682530","operator":"Ministerstwo Rolnictwa I Rozwoju Wsi","operator:type":"public","amenity":"school","note":"Parent RSPO: 7306"}},{"id":8570,"type":"Feature","geometry":{"type":"Point","coordinates":[21.41003,49.85996]},"properties":{"isced:level":"3","ref:rspo":8570,"official_name":"Bran\u017cowa Szko\u0142a I Stopnia w Brzostku","name":"Bran\u017cowa Szko\u0142a I Stopnia w Brzostku","addr:country":"PL","addr:postcode":"39-230","addr:place":"Klecie","addr:housenumber":"125","addr:teryt:sym_ul":814783,"contact:phone":"+48 146830321","contact:email":"zsdyrekcja@poczta.onet.pl","contact:website":"http:\/\/www.zsbrzostek.kw.pl","ref:regon":"691682553","operator":"Ministerstwo Rolnictwa I Rozwoju Wsi","operator:type":"public","amenity":"school","note":"Parent RSPO: 7306"}},{"id":12490,"type":"Feature","geometry":{"type":"Point","coordinates":[21.41381,49.87917]},"properties":{"isced:level":"1;2","ref:rspo":12490,"official_name":"Szko\u0142a Podstawowa im. Komisji Edukacji Narodowej w Brzostku","name":"Szko\u0142a Podstawowa","addr:country":"PL","addr:postcode":"39-230","addr:city":"Brzostek","addr:street":"ul. Szkolna","addr:housenumber":"13","addr:teryt:simc":21970,"addr:teryt:sym_ul":814493,"contact:phone":"+48 146830312","contact:email":"spbrzostek@interia.eu","contact:website":"http:\/\/www.spbrzostek.pl","ref:regon":"000583148","ref:vatin":"PL8722014091","operator":"Gmina Brzostek","operator:type":"government","amenity":"school"}},{"id":31426,"type":"Feature","geometry":{"type":"Point","coordinates":[21.41281,49.87948]},"properties":{"ref:rspo":31426,"official_name":"Przedszkole w Brzostku","name":"Przedszkole w Brzostku","addr:country":"PL","addr:postcode":"39-230","addr:city":"Brzostek","addr:street":"ul. Szkolna","addr:housenumber":"9","addr:teryt:simc":21970,"addr:teryt:sym_ul":814493,"contact:phone":"+48 146398010","contact:email":"przedszkolebrzostek@interia.pl","contact:website":"http:\/\/przedszkolebrzostek.blizej.info","ref:regon":"690704324","ref:vatin":"PL8722014139","operator":"Gmina Brzostek","operator:type":"government","amenity":"kindergarten"}},{"id":18305,"type":"Feature","geometry":{"type":"Point","coordinates":[21.42969,49.88151]},"properties":{"isced:level":"1;2","ref:rspo":18305,"official_name":"Szko\u0142a Podstawowa im. Tadeusza Ko\u015bciuszki w Nawsiu Brzosteckim","name":"Szko\u0142a Podstawowa","addr:country":"PL","addr:postcode":"39-230","addr:place":"Nawsie Brzosteckie","addr:housenumber":"206","addr:teryt:sym_ul":814837,"contact:phone":"+48 146830352","contact:email":"dyrektor@spnawsiebrzosteckie.pl","contact:website":"http:\/\/spnawsiebrzosteckie.pl","ref:regon":"691676707","ref:vatin":"PL8722244230","operator":"Gmina Brzostek","operator:type":"government","amenity":"school"}},{"id":12514,"type":"Feature","geometry":{"type":"Point","coordinates":[21.36421,49.88612]},"properties":{"isced:level":"1;2","ref:rspo":12514,"official_name":"Szko\u0142a Podstawowa im. Ks. Dr. J\u00f3zefa Ja\u0142owego w Przeczycy","name":"Szko\u0142a Podstawowa","addr:country":"PL","addr:postcode":"39-230","addr:place":"Przeczyca","addr:housenumber":"84","addr:teryt:sym_ul":814872,"contact:phone":"+48 146830686","contact:email":"psp.przeczyca@gmail.com","contact:website":"http:\/\/www.przeczyca.pl","ref:regon":"001192355","ref:vatin":"PL8722014027","operator":"Gmina Brzostek","operator:type":"government","amenity":"school"}},{"id":12469,"type":"Feature","geometry":{"type":"Point","coordinates":[21.48358,49.90703]},"properties":{"isced:level":"1;2","ref:rspo":12469,"official_name":"Szko\u0142a Podstawowa im.grzegorza Piramowicza w Kamienicy G\u00f3rnej","name":"Szko\u0142a Podstawowa im.grzegorza Piramowicza w Kamienicy G\u00f3rnej","addr:country":"PL","addr:postcode":"39-232","addr:place":"Kamienica G\u00f3rna","addr:housenumber":"172","addr:teryt:sym_ul":814754,"contact:phone":"+48 146830684","contact:email":"szpkamienicag@poczta.fm","contact:website":"http:\/\/szpkamienicag.edupage.org","ref:regon":"001192332","ref:vatin":"PL8722014004","operator":"Gmina Brzostek","operator:type":"government","amenity":"school"}},{"id":12471,"type":"Feature","geometry":{"type":"Point","coordinates":[21.35388,49.9114]},"properties":{"isced:level":"1;2","ref:rspo":12471,"official_name":"Szko\u0142a Podstawowa im. J\u00f3zefa Berka w Kamienicy Dolnej","name":"Szko\u0142a Podstawowa","addr:country":"PL","addr:postcode":"39-230","addr:place":"Kamienica Dolna","addr:housenumber":"118","addr:teryt:sym_ul":814731,"contact:phone":"+48 146830690","contact:email":"sp.kam.dln@interia.pl","contact:website":"http:\/\/www.kamienicadolna.pl","ref:regon":"001192326","ref:vatin":"PL8722013996","operator":"Gmina Brzostek","operator:type":"government","amenity":"school"}},{"id":18307,"type":"Feature","geometry":{"type":"Point","coordinates":[21.41545,49.9124399]},"properties":{"isced:level":"1;2","ref:rspo":18307,"official_name":"Szko\u0142a Podstawowa w Siedliskach-Bogusz","name":"Szko\u0142a Podstawowa w Siedliskach-Bogusz","addr:country":"PL","addr:postcode":"39-231","addr:place":"Siedliska-Bogusz","addr:housenumber":"93A","addr:teryt:sym_ul":814910,"contact:phone":"+48 146835987","contact:email":"gimsiedliskab@op.pl","ref:regon":"691676682","ref:vatin":"PL8722244224","operator":"Gmina Brzostek","operator:type":"government","amenity":"school"}},{"id":12470,"type":"Feature","geometry":{"type":"Point","coordinates":[21.44514,49.91792]},"properties":{"isced:level":"1;2","ref:rspo":12470,"official_name":"Szko\u0142a Podstawowa w Smar\u017cowej","name":"Szko\u0142a Podstawowa w Smar\u017cowej","addr:country":"PL","addr:postcode":"39-231","addr:place":"Smar\u017cowa","addr:housenumber":"49","addr:teryt:sym_ul":815015,"contact:phone":"+48 146835930","contact:email":"sp_smarzowa@interia.pl","ref:regon":"001192378","ref:vatin":"PL8722014056","operator":"Gmina Brzostek","operator:type":"government","amenity":"school"}},{"id":12472,"type":"Feature","geometry":{"type":"Point","coordinates":[21.38351,49.92342]},"properties":{"isced:level":"1;2","ref:rspo":12472,"official_name":"Szko\u0142a Podstawowa w Gorzejowej","name":"Szko\u0142a Podstawowa w Gorzejowej","addr:country":"PL","addr:postcode":"39-231","addr:place":"Gorzejowa","addr:housenumber":"174A","addr:teryt:sym_ul":814582,"contact:phone":"+48 146833747","contact:email":"spgorzejowa@autograf.pl","contact:website":"http:\/\/www.spgorzejowa.pl","ref:regon":"001192295","ref:vatin":"PL8722013944","operator":"Gmina Brzostek","operator:type":"government","amenity":"school"}},{"id":12404,"type":"Feature","geometry":{"type":"Point","coordinates":[21.48075,49.93225]},"properties":{"isced:level":"1;2","ref:rspo":12404,"official_name":"Szko\u0142a Podstawowa im. Danuty Siedzik\u00f3wny \"Inki\" w Grudnej G\u00f3rnej","name":"Szko\u0142a Podstawowa","addr:country":"PL","addr:postcode":"39-232","addr:place":"Grudna G\u00f3rna","addr:housenumber":"85","addr:teryt:sym_ul":814636,"contact:phone":"+48 146835935","contact:email":"spgrudna@op.pl","contact:website":"http:\/\/www.spgrudna.cba.pl\/","ref:regon":"001192303","ref:vatin":"PL8722013967","operator":"Gmina Brzostek","operator:type":"government","amenity":"school"}}]}