{
    "type": "FeatureCollection",
    "features": [
        {
            "id": 62607,
            "type": "Feature",
            "geometry": {
                "type": "Point",
                "coordinates": [
                    21.2863165,
                    49.9432822
                ]
            },
            "properties": {
                "isced:level": "1;2",
                "ref:rspo": 62607,
                "official_name": "Publiczna Szko\u0142a Podstawowa w S\u0142otowej",
                "name": "Publiczna Szko\u0142a Podstawowa w S\u0142otowej",
                "addr:country": "PL",
                "addr:postcode": "39-223",
                "addr:place": "S\u0142otowa",
                "addr:housenumber": "159",
                "addr:teryt:sym_ul": 826415,
                "contact:phone": "+48 146724131",
                "contact:email": "pspslotowa@interia.pl",
                "contact:website": "http:\/\/www.pspslotowa.pl",
                "ref:regon": "001201551",
                "ref:vatin": "PL8722002998",
                "operator": "Gmina Pilzno",
                "operator:type": "government",
                "amenity": "school"
            }
        },
        {
            "id": 69418,
            "type": "Feature",
            "geometry": {
                "type": "Point",
                "coordinates": [
                    21.35419,
                    49.94513
                ]
            },
            "properties": {
                "isced:level": "1;2",
                "ref:rspo": 69418,
                "official_name": "Publiczna Szko\u0142a Podstawowa w Jaworzu G\u00f3rnym",
                "name": "Publiczna Szko\u0142a Podstawowa w Jaworzu G\u00f3rnym",
                "addr:country": "PL",
                "addr:postcode": "39-223",
                "addr:place": "Jaworze G\u00f3rne",
                "addr:housenumber": "81b",
                "addr:teryt:sym_ul": 825930,
                "contact:phone": "+48 146828628",
                "contact:email": "jaworze@op.pl",
                "contact:website": "http:\/\/jaworze.cba.pl",
                "ref:regon": "001277206",
                "ref:vatin": "PL8722002811",
                "operator": "Gmina Pilzno",
                "operator:type": "government",
                "amenity": "school"
            }
        },
        {
            "id": 59701,
            "type": "Feature",
            "geometry": {
                "type": "Point",
                "coordinates": [
                    21.2102334,
                    49.9454115
                ]
            },
            "properties": {
                "isced:level": "1;2",
                "ref:rspo": 59701,
                "official_name": "Publiczna Szko\u0142a Podstawowa w Zwierniku",
                "name": "Publiczna Szko\u0142a Podstawowa w Zwierniku",
                "addr:country": "PL",
                "addr:postcode": "39-221",
                "addr:place": "Zwiernik",
                "addr:housenumber": "256",
                "addr:teryt:sym_ul": 826527,
                "contact:phone": "+48 146665163",
                "contact:email": "zszwiernik@wp.pl",
                "contact:website": "http:\/\/zszwiernik.superszkolna.pl",
                "ref:regon": "001201670",
                "ref:vatin": "PL8722002892",
                "operator": "Gmina Pilzno",
                "operator:type": "government",
                "amenity": "school"
            }
        },
        {
            "id": 69741,
            "type": "Feature",
            "geometry": {
                "type": "Point",
                "coordinates": [
                    21.3167974,
                    49.9512866
                ]
            },
            "properties": {
                "isced:level": "1;2",
                "ref:rspo": 69741,
                "official_name": "Publiczna Szko\u0142a Podstawowa w Strzegocicach",
                "name": "Publiczna Szko\u0142a Podstawowa w Strzegocicach",
                "addr:country": "PL",
                "addr:postcode": "39-223",
                "addr:place": "Strzegocice",
                "addr:housenumber": "54",
                "addr:teryt:sym_ul": 826473,
                "contact:phone": "+48 146817347",
                "contact:email": "zsstrzegocice@wp.pl",
                "contact:website": "http:\/\/spstrzegocice.edupage.org",
                "ref:regon": "001201663",
                "ref:vatin": "PL8722002751",
                "operator": "Gmina Pilzno",
                "operator:type": "government",
                "amenity": "school"
            }
        },
        {
            "id": 52496,
            "type": "Feature",
            "geometry": {
                "type": "Point",
                "coordinates": [
                    21.19395,
                    49.97481
                ]
            },
            "properties": {
                "ref:rspo": 52496,
                "official_name": "Przedszkole Publiczne w \u0141\u0119kach G\u00f3rnych",
                "name": "Przedszkole Publiczne w \u0141\u0119kach G\u00f3rnych",
                "addr:country": "PL",
                "addr:postcode": "39-221",
                "addr:place": "\u0141\u0119ki G\u00f3rne",
                "addr:housenumber": "206",
                "addr:teryt:sym_ul": 826160,
                "contact:phone": "+48 146725234",
                "contact:email": "przedszkole.lekigorne@onet.pl",
                "ref:regon": "690676480",
                "ref:vatin": "PL8722006111",
                "operator": "Gmina Pilzno",
                "operator:type": "government",
                "amenity": "kindergarten"
            }
        },
        {
            "id": 68507,
            "type": "Feature",
            "geometry": {
                "type": "Point",
                "coordinates": [
                    21.18637,
                    49.9749399
                ]
            },
            "properties": {
                "isced:level": "1;2",
                "ref:rspo": 68507,
                "official_name": "Publiczna Szko\u0142a Podstawowa im. Kardyna\u0142a Stefana Wyszy\u0144skiego Prymasa Tysi\u0105clecia w \u0141\u0119kach G\u00f3rnych",
                "name": "Publiczna Szko\u0142a Podstawowa",
                "addr:country": "PL",
                "addr:postcode": "39-221",
                "addr:place": "\u0141\u0119ki G\u00f3rne",
                "addr:housenumber": "205",
                "addr:teryt:sym_ul": 826160,
                "contact:phone": "+48 146725235",
                "contact:email": "zslekigorne@op.pl",
                "contact:website": "http:\/\/www.zslekigorne.edupage.org",
                "ref:regon": "001201539",
                "ref:vatin": "PL8722002509",
                "operator": "Gmina Pilzno",
                "operator:type": "government",
                "amenity": "school"
            }
        },
        {
            "id": 52405,
            "type": "Feature",
            "geometry": {
                "type": "Point",
                "coordinates": [
                    21.2922,
                    49.97552
                ]
            },
            "properties": {
                "ref:rspo": 52405,
                "official_name": "Przedszkole Publiczne w Pil\u017anie",
                "name": "Przedszkole Publiczne w Pil\u017anie",
                "addr:country": "PL",
                "addr:postcode": "39-220",
                "addr:city": "Pilzno",
                "addr:street": "ul. W\u0119gierska",
                "addr:housenumber": "36",
                "addr:teryt:simc": 23923,
                "addr:teryt:sym_ul": 982345,
                "contact:phone": "+48 146721065",
                "contact:email": "przedszkole.pilzno@interia.pl",
                "ref:regon": "690676527",
                "ref:vatin": "PL8722012235",
                "operator": "Gmina Pilzno",
                "operator:type": "government",
                "amenity": "kindergarten"
            }
        },
        {
            "id": 69749,
            "type": "Feature",
            "geometry": {
                "type": "Point",
                "coordinates": [
                    21.23357,
                    49.97852
                ]
            },
            "properties": {
                "isced:level": "1;2",
                "ref:rspo": 69749,
                "official_name": "Publiczna Szko\u0142a Podstawowa w \u0141\u0119kach Dolnych",
                "name": "Publiczna Szko\u0142a Podstawowa w \u0141\u0119kach Dolnych",
                "addr:country": "PL",
                "addr:postcode": "39-221",
                "addr:place": "\u0141\u0119ki Dolne",
                "addr:housenumber": "122a",
                "addr:teryt:sym_ul": 826094,
                "contact:phone": "+48 146725007",
                "contact:email": "zslekidolne@wp.pl",
                "contact:website": "http:\/\/splekidolne.pl",
                "ref:regon": "001201522",
                "ref:vatin": "PL8722003064",
                "operator": "Gmina Pilzno",
                "operator:type": "government",
                "amenity": "school"
            }
        },
        {
            "id": 49664,
            "type": "Feature",
            "geometry": {
                "type": "Point",
                "coordinates": [
                    21.29066,
                    49.9793
                ]
            },
            "properties": {
                "isced:level": "1;2",
                "ref:rspo": 49664,
                "official_name": "Publiczna Szko\u0142a Podstawowa w Pil\u017anie",
                "name": "Publiczna Szko\u0142a Podstawowa w Pil\u017anie",
                "addr:country": "PL",
                "addr:postcode": "39-220",
                "addr:city": "Pilzno",
                "addr:street": "ul. Adama Mickiewicza",
                "addr:housenumber": "1",
                "addr:teryt:simc": 12740,
                "addr:teryt:sym_ul": 982345,
                "contact:phone": "+48 146807767",
                "contact:email": "psppilzno@wp.pl",
                "contact:website": "http:\/\/psppilzno.superszkolna.pl",
                "ref:regon": "000262964",
                "ref:vatin": "PL8722002337",
                "operator": "Gmina Pilzno",
                "operator:type": "government",
                "amenity": "school"
            }
        },
        {
            "id": 9915,
            "type": "Feature",
            "geometry": {
                "type": "Point",
                "coordinates": [
                    21.29482,
                    49.97947
                ]
            },
            "properties": {
                "isced:level": "3",
                "ref:rspo": 9915,
                "official_name": "Liceum Og\u00f3lnokszta\u0142c\u0105ce im. Sebastiana Petrycego w Pil\u017anie",
                "name": "Liceum Og\u00f3lnokszta\u0142c\u0105ce",
                "addr:country": "PL",
                "addr:postcode": "39-220",
                "addr:city": "Pilzno",
                "addr:street": "ul. Lwowska",
                "addr:housenumber": "14",
                "addr:teryt:simc": 11467,
                "addr:teryt:sym_ul": 982345,
                "contact:phone": "+48 146721004",
                "contact:email": "lopetrycy@interia.pl",
                "contact:website": "http:\/\/www.petrycy.pl",
                "ref:regon": "000263662",
                "ref:vatin": "PL8721213291",
                "operator": "Powiat D\u0119bicki",
                "operator:type": "government",
                "amenity": "school"
            }
        },
        {
            "id": 27606,
            "type": "Feature",
            "geometry": {
                "type": "Point",
                "coordinates": [
                    21.29482,
                    49.97944
                ]
            },
            "properties": {
                "isced:level": "3",
                "ref:rspo": 27606,
                "official_name": "Rzemie\u015blnicza Bran\u017cowa Szko\u0142a I Stopnia im. B\u0142. Karoliny K\u00f3zk\u00f3wny w Pil\u017anie",
                "name": "Rzemie\u015blnicza Bran\u017cowa Szko\u0142a I Stopnia",
                "addr:country": "PL",
                "addr:postcode": "39-220",
                "addr:city": "Pilzno",
                "addr:street": "ul. Lwowska",
                "addr:housenumber": "14",
                "addr:teryt:simc": 11467,
                "addr:teryt:sym_ul": 982345,
                "contact:phone": "+48 146722141",
                "contact:email": "sekretariat@szkolyrzemiosla-pilzno.pl",
                "contact:website": "http:\/\/www.rzsz-pilzno.pl",
                "ref:regon": "180896703",
                "operator": "Izba Rzemie\u015blnicza, Oraz Ma\u0142ej I \u015aredniej Przedsi\u0119biorczo\u015bci W Tarnowie",
                "operator:type": "cooperative",
                "amenity": "school"
            }
        },
        {
            "id": 122831,
            "type": "Feature",
            "geometry": {
                "type": "Point",
                "coordinates": [
                    21.29482,
                    49.97941
                ]
            },
            "properties": {
                "isced:level": "3",
                "ref:rspo": 122831,
                "official_name": "Niepubliczne Liceum Og\u00f3lnokszta\u0142c\u0105ce dla Doros\u0142ych w Pil\u017anie",
                "name": "Niepubliczne Liceum Og\u00f3lnokszta\u0142c\u0105ce dla Doros\u0142ych w Pil\u017anie",
                "addr:country": "PL",
                "addr:postcode": "39-220",
                "addr:city": "Pilzno",
                "addr:street": "ul. Lwowska",
                "addr:housenumber": "14",
                "addr:teryt:simc": 11467,
                "addr:teryt:sym_ul": 982345,
                "contact:phone": "+48 146722141",
                "contact:email": "sekretariat@szkolyrzemiosla-pilzno.pl",
                "contact:website": "http:\/\/www.rzsz-pilzno.pl",
                "ref:regon": "181098895",
                "operator": "Izba Rzemie\u015blnicza, Oraz Ma\u0142ej I \u015aredniej Przedsi\u0119biorczo\u015bci W Tarnowie",
                "operator:type": "cooperative",
                "amenity": "school"
            }
        },
        {
            "id": 278101,
            "type": "Feature",
            "geometry": {
                "type": "Point",
                "coordinates": [
                    21.29482,
                    49.97938
                ]
            },
            "properties": {
                "isced:level": "3",
                "ref:rspo": 278101,
                "official_name": "Rzemie\u015blnicza Bran\u017cowa Szko\u0142a II Stopnia w Pil\u017anie",
                "name": "Rzemie\u015blnicza Bran\u017cowa Szko\u0142a II Stopnia w Pil\u017anie",
                "addr:country": "PL",
                "addr:postcode": "39-220",
                "addr:city": "Pilzno",
                "addr:street": "ul. Lwowska",
                "addr:housenumber": "14",
                "addr:teryt:simc": 11467,
                "addr:teryt:sym_ul": 982345,
                "contact:phone": "+48 146722141",
                "contact:email": "sekretariat@szkolyrzemiosla-pilzno.pl",
                "contact:website": "http:\/\/www.rzsz-pilzno.pl",
                "ref:regon": "389767384",
                "operator": "Izba Rzemie\u015blnicza, Oraz Ma\u0142ej I \u015aredniej Przedsi\u0119biorczo\u015bci W Tarnowie",
                "operator:type": "cooperative",
                "amenity": "school"
            }
        },
        {
            "id": 57721,
            "type": "Feature",
            "geometry": {
                "type": "Point",
                "coordinates": [
                    21.29773,
                    49.98255
                ]
            },
            "properties": {
                "ref:rspo": 57721,
                "official_name": "Ochronka Zgromadzenia Si\u00f3str S\u0142u\u017cebniczek Bdnp Niepubliczne Przedszkole",
                "name": "Ochronka Zgromadzenia Si\u00f3str S\u0142u\u017cebniczek Bdnp Niepubliczne Przedszkole",
                "addr:country": "PL",
                "addr:postcode": "39-220",
                "addr:city": "Pilzno",
                "addr:street": "ul. Stefana \u017beromskiego",
                "addr:housenumber": "2",
                "addr:teryt:simc": 26469,
                "addr:teryt:sym_ul": 982345,
                "contact:phone": "+48 146721343",
                "contact:email": "ochronkapilzno@wp.pl",
                "ref:regon": "180901232",
                "ref:vatin": "PL8722025605",
                "operator": "Zgromadzenie Si\u00f3str S\u0142u\u017cebniczek Bdnp, Prowincja Tarnowska",
                "operator:type": "religious",
                "amenity": "kindergarten"
            }
        },
        {
            "id": 67855,
            "type": "Feature",
            "geometry": {
                "type": "Point",
                "coordinates": [
                    21.33813,
                    49.98388
                ]
            },
            "properties": {
                "isced:level": "1;2",
                "ref:rspo": 67855,
                "official_name": "Publiczna Szko\u0142a Podstawowa im.III Zgrupowania Armii Krajowej \"Pocisk\" w Dobrkowie",
                "name": "Publiczna Szko\u0142a Podstawowa im.III Zgrupowania Armii Krajowej \"Pocisk\" w Dobrkowie",
                "addr:country": "PL",
                "addr:postcode": "39-220",
                "addr:place": "Dobrk\u00f3w",
                "addr:housenumber": "68a",
                "addr:teryt:sym_ul": 825752,
                "contact:phone": "+48 146721080",
                "contact:email": "dobrkow@op.pl",
                "contact:website": "http:\/\/www.dobrkow.szkolnastrona.pl",
                "ref:regon": "001201500",
                "ref:vatin": "PL8722002449",
                "operator": "Gmina Pilzno",
                "operator:type": "government",
                "amenity": "school"
            }
        },
        {
            "id": 69743,
            "type": "Feature",
            "geometry": {
                "type": "Point",
                "coordinates": [
                    21.31322,
                    50.00094
                ]
            },
            "properties": {
                "isced:level": "1;2",
                "ref:rspo": 69743,
                "official_name": "Publiczna Szko\u0142a Podstawowa w Parkoszu",
                "name": "Publiczna Szko\u0142a Podstawowa w Parkoszu",
                "addr:country": "PL",
                "addr:postcode": "39-220",
                "addr:place": "Parkosz",
                "addr:housenumber": "60",
                "addr:teryt:sym_ul": 826289,
                "contact:phone": "+48 146721427",
                "contact:email": "zsparkosz@interia.pl",
                "ref:regon": "001277560",
                "ref:vatin": "PL8722002610",
                "operator": "Gmina Pilzno",
                "operator:type": "government",
                "amenity": "school"
            }
        },
        {
            "id": 274510,
            "type": "Feature",
            "geometry": {
                "type": "Point",
                "coordinates": [
                    21.31322,
                    50.00091
                ]
            },
            "properties": {
                "ref:rspo": 274510,
                "official_name": "Niepubliczna Poradnia Psychologiczno - Pedagogiczna w Parkoszu",
                "name": "Niepubliczna Poradnia Psychologiczno - Pedagogiczna w Parkoszu",
                "addr:country": "PL",
                "addr:postcode": "39-220",
                "addr:place": "Parkosz",
                "addr:housenumber": "60",
                "addr:teryt:sym_ul": 826289,
                "contact:email": "parkosz@ichlepszejutro.pl",
                "contact:website": "http:\/\/ichlepszejutro.pl",
                "ref:regon": "385876863",
                "operator": "Stowarzyszenie \"Ich Lepsze Jutro\"",
                "operator:type": "ngo",
                "healthcare": "counselling",
                "counselling_type": "education",
                "fixme": "w zale\u017cno\u015bci od przedmiotu dzia\u0142alno\u015bci (np. healthcare=counselling + counselling_type=education albo healthcare=psychotherapist)"
            }
        },
        {
            "id": 69746,
            "type": "Feature",
            "geometry": {
                "type": "Point",
                "coordinates": [
                    21.28056,
                    50.01192
                ]
            },
            "properties": {
                "isced:level": "1;2",
                "ref:rspo": 69746,
                "official_name": "Publiczna Szko\u0142a Podstawowa w Lipinach",
                "name": "Publiczna Szko\u0142a Podstawowa w Lipinach",
                "addr:country": "PL",
                "addr:postcode": "39-220",
                "addr:place": "Lipiny",
                "addr:housenumber": "1",
                "addr:teryt:sym_ul": 826007,
                "contact:phone": "+48 146721174",
                "contact:email": "zslipiny@op.pl",
                "ref:regon": "001201516",
                "ref:vatin": "PL8722003012",
                "operator": "Gmina Pilzno",
                "operator:type": "government",
                "amenity": "school"
            }
        },
        {
            "id": 69751,
            "type": "Feature",
            "geometry": {
                "type": "Point",
                "coordinates": [
                    21.2054699,
                    50.01608
                ]
            },
            "properties": {
                "isced:level": "1;2",
                "ref:rspo": 69751,
                "official_name": "Publiczna Szko\u0142a Podstawowa w Machowej",
                "name": "Publiczna Szko\u0142a Podstawowa w Machowej",
                "addr:country": "PL",
                "addr:postcode": "39-220",
                "addr:place": "Machowa",
                "addr:housenumber": "75",
                "addr:teryt:sym_ul": 826220,
                "contact:phone": "+48 146812115",
                "contact:email": "zsmachowa@poczta.onet.pl",
                "contact:website": "http:\/\/www.machowa.pl",
                "ref:regon": "001201545",
                "ref:vatin": "PL8722002828",
                "operator": "Gmina Pilzno",
                "operator:type": "government",
                "amenity": "school"
            }
        }
    ]
}