{
    "type": "FeatureCollection",
    "features": [
        {
            "id": 64438,
            "type": "Feature",
            "geometry": {
                "type": "Point",
                "coordinates": [
                    21.30077,
                    50.02744
                ]
            },
            "properties": {
                "isced:level": "1;2",
                "ref:rspo": 64438,
                "official_name": "Publiczna Szko\u0142a Podstawowa w Chotowej",
                "name": "Publiczna Szko\u0142a Podstawowa w Chotowej",
                "addr:postcode": "39-217",
                "addr:place": "Chotowa",
                "addr:housenumber": "59",
                "addr:city:simc": 816049,
                "phone": "+48 146701868",
                "email": "chotowasp@educzarna.pl",
                "ref:regon": "001278217",
                "ref:vatin": "PL8722408341",
                "operator": "Gmina Czarna",
                "operator:type": "government",
                "amenity": "school"
            }
        },
        {
            "id": 64450,
            "type": "Feature",
            "geometry": {
                "type": "Point",
                "coordinates": [
                    21.20694,
                    50.03516
                ]
            },
            "properties": {
                "isced:level": "1;2",
                "ref:rspo": 64450,
                "official_name": "Publiczna Szko\u0142a Podstawowa w \u017bd\u017carach",
                "name": "Publiczna Szko\u0142a Podstawowa w \u017bd\u017carach",
                "addr:postcode": "39-215",
                "addr:place": "\u017bd\u017cary",
                "addr:housenumber": "75a",
                "addr:city:simc": 816606,
                "phone": "+48 146395939",
                "email": "zdzarysp@educzarna.pl",
                "website": "http:\/\/www.zdzarysp.educzarna.pl",
                "ref:regon": "001191462",
                "ref:vatin": "PL8722408401",
                "operator": "Gmina Czarna",
                "operator:type": "government",
                "amenity": "school"
            }
        },
        {
            "id": 118830,
            "type": "Feature",
            "geometry": {
                "type": "Point",
                "coordinates": [
                    21.3246499,
                    50.03848
                ]
            },
            "properties": {
                "ref:rspo": 118830,
                "official_name": "Zesp\u00f3\u0142 Szkolno - Przedszkolny w Przyborowie",
                "name": "Zesp\u00f3\u0142 Szkolno - Przedszkolny w Przyborowie",
                "addr:postcode": "39-217",
                "addr:place": "Przybor\u00f3w",
                "addr:housenumber": "136",
                "addr:city:simc": 816500,
                "phone": "+48 146815207",
                "email": "przyborowzsp@educzarna.pl",
                "ref:regon": "181008923",
                "ref:vatin": "PL8722408329",
                "operator": "Gmina Czarna",
                "operator:type": "government",
                "landuse": "education",
                "fixme": "amenity=school, amenity=college albo landuse=education w zale\u017cno\u015bci od tego, jakie plac\u00f3wki wchodz\u0105 w sk\u0142ad zespo\u0142u. Sprawd\u017a, kiedy stosowa\u0107 amenity=* a kiedy landuse=education.",
                "note": "Children RSPO: 22472;22476"
            }
        },
        {
            "id": 22472,
            "type": "Feature",
            "geometry": {
                "type": "Point",
                "coordinates": [
                    21.3246499,
                    50.03845
                ]
            },
            "properties": {
                "isced:level": "1;2",
                "ref:rspo": 22472,
                "official_name": "Publiczna Szko\u0142a Podstawowa w Przyborowie",
                "name": "Publiczna Szko\u0142a Podstawowa w Przyborowie",
                "addr:postcode": "39-217",
                "addr:place": "Przybor\u00f3w",
                "addr:housenumber": "136",
                "addr:city:simc": 816500,
                "phone": "+48 146815207",
                "email": "przyborowzsp@educzarna.pl",
                "website": "http:\/\/przyborowzsp.educzarna.pl",
                "ref:regon": "001278230",
                "ref:vatin": "PL8722014984",
                "operator": "Gmina Czarna",
                "operator:type": "government",
                "amenity": "school",
                "note": "Parent RSPO: 118830"
            }
        },
        {
            "id": 64444,
            "type": "Feature",
            "geometry": {
                "type": "Point",
                "coordinates": [
                    21.34064,
                    50.04904
                ]
            },
            "properties": {
                "isced:level": "1;2",
                "ref:rspo": 64444,
                "official_name": "Publiczna Szko\u0142a Podstawowa w Grabinach",
                "name": "Publiczna Szko\u0142a Podstawowa w Grabinach",
                "addr:postcode": "39-217",
                "addr:place": "Grabiny",
                "addr:housenumber": "52c",
                "addr:city:simc": 816316,
                "phone": "+48 146813202",
                "email": "grabinysp@educzarna.pl",
                "website": "http:\/\/grabinysp.educzarna.pl",
                "ref:regon": "001191433",
                "ref:vatin": "PL8722408387",
                "operator": "Gmina Czarna",
                "operator:type": "government",
                "amenity": "school"
            }
        },
        {
            "id": 64442,
            "type": "Feature",
            "geometry": {
                "type": "Point",
                "coordinates": [
                    21.31486,
                    50.05707
                ]
            },
            "properties": {
                "isced:level": "1;2",
                "ref:rspo": 64442,
                "official_name": "Publiczna Szko\u0142a Podstawowa w G\u0142owaczowej",
                "name": "Publiczna Szko\u0142a Podstawowa w G\u0142owaczowej",
                "addr:postcode": "39-217",
                "addr:place": "G\u0142owaczowa",
                "addr:housenumber": "51c",
                "addr:city:simc": 816180,
                "phone": "+48 146817166",
                "email": "glowaczowasp@educzarna.pl",
                "website": "http:\/\/glowaczowasp.educzarna.pl",
                "ref:regon": "001278223",
                "ref:vatin": "PL8722408418",
                "operator": "Gmina Czarna",
                "operator:type": "government",
                "amenity": "school"
            }
        },
        {
            "id": 272942,
            "type": "Feature",
            "geometry": {
                "type": "Point",
                "coordinates": [
                    21.25142,
                    50.06072
                ]
            },
            "properties": {
                "ref:rspo": 272942,
                "official_name": "Niepubliczne Przedszkole Ecodziecko",
                "name": "Niepubliczne Przedszkole Ecodziecko",
                "addr:postcode": "39-215",
                "addr:city": "Czarna",
                "addr:street": "Sp\u00f3\u0142dzielcza",
                "addr:housenumber": "16",
                "addr:city:simc": 816109,
                "addr:street:sym_ul": 20696,
                "phone": "+48 695466730",
                "email": "info@ecodziecko.com",
                "ref:regon": "384331044",
                "ref:vatin": "PL6871631971",
                "operator": "El\u017cbieta Skubel",
                "operator:type": "private",
                "amenity": "kindergarten"
            }
        },
        {
            "id": 22475,
            "type": "Feature",
            "geometry": {
                "type": "Point",
                "coordinates": [
                    21.2502299,
                    50.06328
                ]
            },
            "properties": {
                "ref:rspo": 22475,
                "official_name": "Publiczne Przedszkole w Czarnej",
                "name": "Publiczne Przedszkole w Czarnej",
                "addr:postcode": "39-215",
                "addr:city": "Czarna",
                "addr:street": "Konarskiego",
                "addr:housenumber": "15",
                "addr:city:simc": 816109,
                "addr:street:sym_ul": 9106,
                "phone": "+48 146761041",
                "email": "czarnapp@educzarna.pl",
                "ref:regon": "851665539",
                "ref:vatin": "PL8722015096",
                "operator": "Gmina Czarna",
                "operator:type": "government",
                "amenity": "kindergarten"
            }
        },
        {
            "id": 64440,
            "type": "Feature",
            "geometry": {
                "type": "Point",
                "coordinates": [
                    21.2519237,
                    50.063552
                ]
            },
            "properties": {
                "isced:level": "1;2",
                "ref:rspo": 64440,
                "official_name": "Publiczna Szko\u0142a Podstawowa w Czarnej",
                "name": "Publiczna Szko\u0142a Podstawowa w Czarnej",
                "addr:postcode": "39-215",
                "addr:city": "Czarna",
                "addr:street": "Konarskiego",
                "addr:housenumber": "23",
                "addr:city:simc": 816109,
                "addr:street:sym_ul": 9106,
                "phone": "+48 146761011",
                "email": "czarnasp@educzarna.pl",
                "website": "http:\/\/www.czarnasp.educzarna.pl",
                "ref:regon": "000595631",
                "ref:vatin": "PL8722408358",
                "operator": "Gmina Czarna",
                "operator:type": "government",
                "amenity": "school"
            }
        },
        {
            "id": 22476,
            "type": "Feature",
            "geometry": {
                "type": "Point",
                "coordinates": [
                    21.32348,
                    50.0651
                ]
            },
            "properties": {
                "ref:rspo": 22476,
                "official_name": "Publiczne Przedszkole w Przyborowie",
                "name": "Publiczne Przedszkole w Przyborowie",
                "addr:postcode": "39-217",
                "addr:place": "G\u0142owaczowa",
                "addr:housenumber": "6c",
                "addr:city:simc": 816180,
                "phone": "+48 146815207",
                "email": "przyborowzsp@educzarna.pl",
                "website": "http:\/\/przyborowzsp.educzarna.pl",
                "ref:regon": "690686253",
                "ref:vatin": "PL8722015469",
                "operator": "Gmina Czarna",
                "operator:type": "government",
                "amenity": "kindergarten",
                "note": "Parent RSPO: 118830"
            }
        },
        {
            "id": 64436,
            "type": "Feature",
            "geometry": {
                "type": "Point",
                "coordinates": [
                    21.2841999,
                    50.08916
                ]
            },
            "properties": {
                "isced:level": "1;2",
                "ref:rspo": 64436,
                "official_name": "Publiczna Szko\u0142a Podstawowa w Borowej",
                "name": "Publiczna Szko\u0142a Podstawowa w Borowej",
                "addr:postcode": "39-215",
                "addr:place": "Borowa",
                "addr:housenumber": "106a",
                "addr:city:simc": 815995,
                "phone": "+48 146818199",
                "email": "borowasp@educzarna.pl",
                "ref:regon": "001191427",
                "ref:vatin": "PL8722408335",
                "operator": "Gmina Czarna",
                "operator:type": "government",
                "amenity": "school"
            }
        },
        {
            "id": 64446,
            "type": "Feature",
            "geometry": {
                "type": "Point",
                "coordinates": [
                    21.24928,
                    50.09024
                ]
            },
            "properties": {
                "isced:level": "1;2",
                "ref:rspo": 64446,
                "official_name": "Publiczna Szko\u0142a Podstawowa w Ja\u017awinach",
                "name": "Publiczna Szko\u0142a Podstawowa w Ja\u017awinach",
                "addr:postcode": "39-215",
                "addr:place": "Ja\u017awiny",
                "addr:housenumber": "72a",
                "addr:city:simc": 816405,
                "phone": "+48 146825224",
                "email": "jazwinysp@educzarna.pl",
                "website": "http:\/\/jazwinysp.educzarna.pl",
                "ref:regon": "001278200",
                "ref:vatin": "PL8722408370",
                "operator": "Gmina Czarna",
                "operator:type": "government",
                "amenity": "school"
            }
        },
        {
            "id": 64448,
            "type": "Feature",
            "geometry": {
                "type": "Point",
                "coordinates": [
                    21.23007,
                    50.10911
                ]
            },
            "properties": {
                "isced:level": "1;2",
                "ref:rspo": 64448,
                "official_name": "Publiczna Szko\u0142a Podstawowa im. W\u0142adys\u0142awa Broniewskiego w Starej Jastrz\u0105bce",
                "name": "Publiczna Szko\u0142a Podstawowa",
                "addr:postcode": "39-216",
                "addr:place": "Stara Jastrz\u0105bka",
                "addr:housenumber": "195",
                "addr:city:simc": 816569,
                "phone": "+48 146825506",
                "email": "jastrzabkasp@educzarna.pl",
                "ref:regon": "001191456",
                "ref:vatin": "PL8722408364",
                "operator": "Gmina Czarna",
                "operator:type": "government",
                "amenity": "school"
            }
        },
        {
            "id": 22473,
            "type": "Feature",
            "geometry": {
                "type": "Point",
                "coordinates": [
                    21.290308,
                    50.115126
                ]
            },
            "properties": {
                "isced:level": "1;2",
                "ref:rspo": 22473,
                "official_name": "Publiczna Szko\u0142a Podstawowa w R\u00f3\u017cy",
                "name": "Publiczna Szko\u0142a Podstawowa w R\u00f3\u017cy",
                "addr:postcode": "39-216",
                "addr:place": "R\u00f3\u017ca",
                "addr:housenumber": "69",
                "addr:city:simc": 816517,
                "phone": "+48 146821588",
                "email": "rozasp@educzarna.pl",
                "ref:regon": "001191440",
                "ref:vatin": "PL8722014895",
                "operator": "Gmina Czarna",
                "operator:type": "government",
                "amenity": "school"
            }
        }
    ]
}