{
    "type": "FeatureCollection",
    "features": [
        {
            "id": 34967,
            "type": "Feature",
            "geometry": {
                "type": "Point",
                "coordinates": [
                    21.44475,
                    49.96412
                ]
            },
            "properties": {
                "ref:rspo": 34967,
                "official_name": "Zesp\u00f3\u0142 Szk\u00f3\u0142 im. Konstantego Leliwy-S\u0142otwi\u0144skiego w G\u0142obikowej",
                "name": "Zesp\u00f3\u0142 Szk\u00f3\u0142",
                "addr:postcode": "39-200",
                "addr:place": "G\u0142obikowa",
                "addr:housenumber": "81",
                "addr:teryt:simc": 818090,
                "phone": "+48 146816769",
                "email": "zsglobikowa@gzeas.pl",
                "website": "http:\/\/www.globikowa.ugdebica.pl",
                "ref:regon": "691754732",
                "ref:vatin": "PL8722174653",
                "operator": "Gmina D\u0119bica",
                "operator:type": "government",
                "landuse": "education",
                "fixme": "amenity=school, amenity=college albo landuse=education w zale\u017cno\u015bci od tego, jakie plac\u00f3wki wchodz\u0105 w sk\u0142ad zespo\u0142u. Sprawd\u017a, kiedy stosowa\u0107 amenity=* a kiedy landuse=education.",
                "note": "Children RSPO: 55586;122318"
            }
        },
        {
            "id": 55586,
            "type": "Feature",
            "geometry": {
                "type": "Point",
                "coordinates": [
                    21.44475,
                    49.96409
                ]
            },
            "properties": {
                "isced:level": "1;2",
                "ref:rspo": 55586,
                "official_name": "Publiczna Szko\u0142a Podstawowa w G\u0142obikowej",
                "name": "Publiczna Szko\u0142a Podstawowa w G\u0142obikowej",
                "addr:postcode": "39-200",
                "addr:place": "G\u0142obikowa",
                "addr:housenumber": "81",
                "addr:teryt:simc": 818090,
                "phone": "+48 146816769",
                "email": "zsglobikowa@gzeas.pl",
                "website": "http:\/\/www.globikowa.ugdebica.pl",
                "ref:regon": "001191373",
                "ref:vatin": "PL8722093908",
                "operator": "Gmina D\u0119bica",
                "operator:type": "government",
                "amenity": "school",
                "note": "Parent RSPO: 34967"
            }
        },
        {
            "id": 122318,
            "type": "Feature",
            "geometry": {
                "type": "Point",
                "coordinates": [
                    21.44475,
                    49.96406
                ]
            },
            "properties": {
                "ref:rspo": 122318,
                "official_name": "Zesp\u00f3\u0142 Szk\u00f3\u0142 im. Konstantego Leliwy S\u0142otwi\u0144skiego. Szkolne Schronisko M\u0142odzie\u017cowe w G\u0142obikowej",
                "name": "Zesp\u00f3\u0142 Szk\u00f3\u0142",
                "addr:postcode": "39-200",
                "addr:place": "G\u0142obikowa",
                "addr:housenumber": "81 C",
                "addr:teryt:simc": 818090,
                "phone": "+48 146816769",
                "email": "zsglobikowa@gzeas.pl",
                "website": "http:\/\/www.globikowa.ugdebica.pl",
                "ref:regon": "180218222",
                "ref:vatin": "PL8722174653",
                "operator": "Gmina D\u0119bica",
                "operator:type": "government",
                "tourism": "hostel",
                "note": "Parent RSPO: 34967"
            }
        },
        {
            "id": 54406,
            "type": "Feature",
            "geometry": {
                "type": "Point",
                "coordinates": [
                    21.42331,
                    49.99813
                ]
            },
            "properties": {
                "isced:level": "1;2",
                "ref:rspo": 54406,
                "official_name": "Publiczna Szko\u0142a Podstawowa im. Adama Lazarowicza w Gumniskach",
                "name": "Publiczna Szko\u0142a Podstawowa",
                "addr:postcode": "39-200",
                "addr:place": "Gumniska",
                "addr:housenumber": "120",
                "addr:teryt:simc": 818150,
                "phone": "+48 146816679",
                "email": "zsgumniska@gzeas.pl",
                "website": "http:\/\/gumniska.ugdebica.pl",
                "ref:regon": "001191380",
                "ref:vatin": "PL8722093914",
                "operator": "Gmina D\u0119bica",
                "operator:type": "government",
                "amenity": "school"
            }
        },
        {
            "id": 34971,
            "type": "Feature",
            "geometry": {
                "type": "Point",
                "coordinates": [
                    21.34748,
                    50.01203
                ]
            },
            "properties": {
                "ref:rspo": 34971,
                "official_name": "Zesp\u00f3\u0142 Szk\u00f3\u0142 w Podgrodziu",
                "name": "Zesp\u00f3\u0142 Szk\u00f3\u0142 w Podgrodziu",
                "addr:postcode": "39-200",
                "addr:place": "Podgrodzie",
                "addr:housenumber": "56A",
                "addr:teryt:simc": 818440,
                "phone": "+48 146774119",
                "email": "zspodgrodzie@gzeas.pl",
                "website": "http:\/\/www.podgrodzie.ugdebica.pl",
                "ref:regon": "691754778",
                "ref:vatin": "PL8722174682",
                "operator": "Gmina D\u0119bica",
                "operator:type": "government",
                "landuse": "education",
                "fixme": "amenity=school, amenity=college albo landuse=education w zale\u017cno\u015bci od tego, jakie plac\u00f3wki wchodz\u0105 w sk\u0142ad zespo\u0142u. Sprawd\u017a, kiedy stosowa\u0107 amenity=* a kiedy landuse=education.",
                "note": "Children RSPO: 55813;55815"
            }
        },
        {
            "id": 55813,
            "type": "Feature",
            "geometry": {
                "type": "Point",
                "coordinates": [
                    21.34748,
                    50.012
                ]
            },
            "properties": {
                "isced:level": "1;2",
                "ref:rspo": 55813,
                "official_name": "Publiczna Szko\u0142a Podstawowa w Podgrodziu",
                "name": "Publiczna Szko\u0142a Podstawowa w Podgrodziu",
                "addr:postcode": "39-200",
                "addr:place": "Podgrodzie",
                "addr:housenumber": "56a",
                "addr:teryt:simc": 818440,
                "phone": "+48 146774119",
                "email": "zspodgrodzie@gzeas.pl",
                "website": "http:\/\/www.podgrodzie.ugdebica.pl",
                "ref:regon": "001190853",
                "ref:vatin": "PL8722093883",
                "operator": "Gmina D\u0119bica",
                "operator:type": "government",
                "amenity": "school",
                "note": "Parent RSPO: 34971"
            }
        },
        {
            "id": 55815,
            "type": "Feature",
            "geometry": {
                "type": "Point",
                "coordinates": [
                    21.34748,
                    50.011970000000005
                ]
            },
            "properties": {
                "ref:rspo": 55815,
                "official_name": "Publiczne Przedszkole w Podgrodziu",
                "name": "Publiczne Przedszkole w Podgrodziu",
                "addr:postcode": "39-200",
                "addr:place": "Podgrodzie",
                "addr:housenumber": "56a",
                "addr:teryt:simc": 818440,
                "phone": "+48 146774119",
                "email": "zspodgrodzie@gzeas.pl",
                "website": "http:\/\/www.podgrodzie.ugdebica.pl",
                "ref:regon": "691557032",
                "ref:vatin": "PL8722097527",
                "operator": "Gmina D\u0119bica",
                "operator:type": "government",
                "amenity": "kindergarten",
                "note": "Parent RSPO: 34971"
            }
        },
        {
            "id": 59624,
            "type": "Feature",
            "geometry": {
                "type": "Point",
                "coordinates": [
                    21.4655099,
                    50.01421
                ]
            },
            "properties": {
                "isced:level": "1;2",
                "ref:rspo": 59624,
                "official_name": "Publiczna Szko\u0142a Podstwowa im. Bohater\u00f3w Monte Cassino w Stasi\u00f3wce",
                "name": "Publiczna Szko\u0142a Podstwowa",
                "addr:postcode": "39-200",
                "addr:place": "Stasi\u00f3wka",
                "addr:housenumber": "130",
                "addr:teryt:simc": 818717,
                "phone": "+48 146825960",
                "email": "zsstasiowka@gzeas.pl",
                "website": "http:\/\/www.stasiowka.ugdebica.pl",
                "ref:regon": "001190899",
                "ref:vatin": "PL8722093920",
                "operator": "Gmina D\u0119bica",
                "operator:type": "government",
                "amenity": "school"
            }
        },
        {
            "id": 34970,
            "type": "Feature",
            "geometry": {
                "type": "Point",
                "coordinates": [
                    21.38454,
                    50.02651
                ]
            },
            "properties": {
                "ref:rspo": 34970,
                "official_name": "Zesp\u00f3\u0142 Szk\u00f3\u0142 w Latoszynie",
                "name": "Zesp\u00f3\u0142 Szk\u00f3\u0142 w Latoszynie",
                "addr:postcode": "39-200",
                "addr:place": "Latoszyn",
                "addr:housenumber": "23",
                "addr:teryt:simc": 818255,
                "phone": "+48 146815436",
                "email": "zslatoszyn@gzeas.pl",
                "website": "http:\/\/latoszyn.ugdebica.pl",
                "ref:regon": "691754755",
                "ref:vatin": "PL8722175954",
                "operator": "Gmina D\u0119bica",
                "operator:type": "government",
                "landuse": "education",
                "fixme": "amenity=school, amenity=college albo landuse=education w zale\u017cno\u015bci od tego, jakie plac\u00f3wki wchodz\u0105 w sk\u0142ad zespo\u0142u. Sprawd\u017a, kiedy stosowa\u0107 amenity=* a kiedy landuse=education.",
                "note": "Children RSPO: 59112;59623"
            }
        },
        {
            "id": 59112,
            "type": "Feature",
            "geometry": {
                "type": "Point",
                "coordinates": [
                    21.38454,
                    50.02648
                ]
            },
            "properties": {
                "isced:level": "1;2",
                "ref:rspo": 59112,
                "official_name": "Publiczna Szko\u0142a Podstawowa w Latoszynie",
                "name": "Publiczna Szko\u0142a Podstawowa w Latoszynie",
                "addr:postcode": "39-200",
                "addr:place": "Latoszyn",
                "addr:housenumber": "23",
                "addr:teryt:simc": 818255,
                "phone": "+48 146815436",
                "email": "zslatoszyn@gzeas.pl",
                "website": "http:\/\/latoszyn.ugdebica.pl",
                "ref:regon": "001191396",
                "ref:vatin": "PL8722093877",
                "operator": "Gmina D\u0119bica",
                "operator:type": "government",
                "amenity": "school",
                "note": "Parent RSPO: 34970"
            }
        },
        {
            "id": 59623,
            "type": "Feature",
            "geometry": {
                "type": "Point",
                "coordinates": [
                    21.38454,
                    50.026450000000004
                ]
            },
            "properties": {
                "ref:rspo": 59623,
                "official_name": "Publiczne Przedszkole w Latoszynie",
                "name": "Publiczne Przedszkole w Latoszynie",
                "addr:postcode": "39-200",
                "addr:place": "Latoszyn",
                "addr:housenumber": "23",
                "addr:teryt:simc": 818255,
                "phone": "+48 146815436",
                "email": "zslatoszyn@gzeas.pl",
                "website": "http:\/\/latoszyn.ugdebica.pl",
                "ref:regon": "691557061",
                "ref:vatin": "PL8722097562",
                "operator": "Gmina D\u0119bica",
                "operator:type": "government",
                "amenity": "kindergarten",
                "note": "Parent RSPO: 34970"
            }
        },
        {
            "id": 54006,
            "type": "Feature",
            "geometry": {
                "type": "Point",
                "coordinates": [
                    21.4860179,
                    50.033918
                ]
            },
            "properties": {
                "isced:level": "1;2",
                "ref:rspo": 54006,
                "official_name": "Publiczna Szko\u0142a Podstawowa im. Jana Paw\u0142a II w Stobiernej",
                "name": "Publiczna Szko\u0142a Podstawowa",
                "addr:postcode": "39-200",
                "addr:place": "Stobierna",
                "addr:housenumber": "38",
                "addr:teryt:simc": 818723,
                "phone": "+48 146817423",
                "email": "zsstobierna@gzeas.pl",
                "website": "http:\/\/www.stobierna.ugdebica.pl",
                "ref:regon": "001190882",
                "ref:vatin": "PL8722093937",
                "operator": "Gmina D\u0119bica",
                "operator:type": "government",
                "amenity": "school"
            }
        },
        {
            "id": 51255,
            "type": "Feature",
            "geometry": {
                "type": "Point",
                "coordinates": [
                    21.46669,
                    50.05353
                ]
            },
            "properties": {
                "isced:level": "1;2",
                "ref:rspo": 51255,
                "official_name": "Publiczna Szko\u0142a Podstawowa im. Kardyna\u0142a Stefana Wyszy\u0144skiego w Nagawczynie",
                "name": "Publiczna Szko\u0142a Podstawowa",
                "addr:postcode": "39-200",
                "addr:place": "Nagawczyna",
                "addr:housenumber": "109E",
                "addr:teryt:simc": 818309,
                "phone": "+48 146815427",
                "email": "zsnagawczyna@gzeas.pl",
                "website": "http:\/\/nagawczyna.ugdebica.pl",
                "ref:regon": "001191404",
                "ref:vatin": "PL8722093972",
                "operator": "Gmina D\u0119bica",
                "operator:type": "government",
                "amenity": "school"
            }
        },
        {
            "id": 123809,
            "type": "Feature",
            "geometry": {
                "type": "Point",
                "coordinates": [
                    21.46669,
                    50.0535
                ]
            },
            "properties": {
                "ref:rspo": 123809,
                "official_name": "Niepubliczne Przedszkole \" Akademia Maluszka\" Sylwia Chwistek",
                "name": "Niepubliczne Przedszkole \" Akademia Maluszka\" Sylwia Chwistek",
                "addr:postcode": "39-200",
                "addr:place": "Nagawczyna",
                "addr:housenumber": "109 E",
                "addr:teryt:simc": 818309,
                "phone": "+48 577402405",
                "email": "niepubliczne.przedszkole.nagawczyna@wp.pl",
                "website": "https:\/\/pl-pl.facebook.com\/akademiamaluszkanet\/",
                "ref:regon": "181137282",
                "ref:vatin": "PL6332067374",
                "operator": "Sylwia Chwistek",
                "operator:type": "private",
                "amenity": "kindergarten"
            }
        },
        {
            "id": 34963,
            "type": "Feature",
            "geometry": {
                "type": "Point",
                "coordinates": [
                    21.4826279,
                    50.0544487
                ]
            },
            "properties": {
                "ref:rspo": 34963,
                "official_name": "Zesp\u00f3\u0142 Szk\u00f3\u0142 w Zawadzie",
                "name": "Zesp\u00f3\u0142 Szk\u00f3\u0142 w Zawadzie",
                "addr:postcode": "39-200",
                "addr:place": "Zawada",
                "addr:housenumber": "154",
                "addr:teryt:simc": 818781,
                "phone": "+48 146828208",
                "email": "zszawada@gzeas.pl",
                "website": "http:\/\/zawada.ugdebica.pl",
                "ref:regon": "691754695",
                "ref:vatin": "PL8722174624",
                "operator": "Gmina D\u0119bica",
                "operator:type": "government",
                "landuse": "education",
                "fixme": "amenity=school, amenity=college albo landuse=education w zale\u017cno\u015bci od tego, jakie plac\u00f3wki wchodz\u0105 w sk\u0142ad zespo\u0142u. Sprawd\u017a, kiedy stosowa\u0107 amenity=* a kiedy landuse=education.",
                "note": "Children RSPO: 55575;55579"
            }
        },
        {
            "id": 55575,
            "type": "Feature",
            "geometry": {
                "type": "Point",
                "coordinates": [
                    21.4826279,
                    50.0544187
                ]
            },
            "properties": {
                "isced:level": "1;2",
                "ref:rspo": 55575,
                "official_name": "Publiczna Szko\u0142a Podstawowa im. Edwarda Raczy\u0144skiego w Zawadzie",
                "name": "Publiczna Szko\u0142a Podstawowa",
                "addr:postcode": "39-200",
                "addr:place": "Zawada",
                "addr:housenumber": "154",
                "addr:teryt:simc": 818781,
                "phone": "+48 146828208",
                "email": "zszawada@gzeas.pl",
                "website": "http:\/\/zawada.ugdebica.pl",
                "ref:regon": "001190907",
                "ref:vatin": "PL8722093943",
                "operator": "Gmina D\u0119bica",
                "operator:type": "government",
                "amenity": "school",
                "note": "Parent RSPO: 34963"
            }
        },
        {
            "id": 55579,
            "type": "Feature",
            "geometry": {
                "type": "Point",
                "coordinates": [
                    21.4826279,
                    50.054388700000004
                ]
            },
            "properties": {
                "ref:rspo": 55579,
                "official_name": "Publiczne Przedszkole w Zawadzie",
                "name": "Publiczne Przedszkole w Zawadzie",
                "addr:postcode": "39-200",
                "addr:place": "Zawada",
                "addr:housenumber": "154",
                "addr:teryt:simc": 818781,
                "phone": "+48 146828208",
                "email": "zszawada@gzeas.pl",
                "website": "http:\/\/www.zawada.ugdebica.pl",
                "ref:regon": "691557049",
                "ref:vatin": "PL8722097556",
                "operator": "Gmina D\u0119bica",
                "operator:type": "government",
                "amenity": "kindergarten",
                "note": "Parent RSPO: 34963"
            }
        },
        {
            "id": 34751,
            "type": "Feature",
            "geometry": {
                "type": "Point",
                "coordinates": [
                    21.45159,
                    50.07691
                ]
            },
            "properties": {
                "ref:rspo": 34751,
                "official_name": "Zesp\u00f3\u0142 Szk\u00f3\u0142 w Pustyni",
                "name": "Zesp\u00f3\u0142 Szk\u00f3\u0142 w Pustyni",
                "addr:postcode": "39-200",
                "addr:place": "Pustynia",
                "addr:housenumber": "160",
                "addr:teryt:simc": 818700,
                "phone": "+48 468154678",
                "email": "zspustynia@gzeas.pl",
                "website": "http:\/\/www.pustynia.ugdebica.pl",
                "ref:regon": "691754666",
                "ref:vatin": "PL8722174647",
                "operator": "Gmina D\u0119bica",
                "operator:type": "government",
                "landuse": "education",
                "fixme": "amenity=school, amenity=college albo landuse=education w zale\u017cno\u015bci od tego, jakie plac\u00f3wki wchodz\u0105 w sk\u0142ad zespo\u0142u. Sprawd\u017a, kiedy stosowa\u0107 amenity=* a kiedy landuse=education.",
                "note": "Children RSPO: 54276;58796"
            }
        },
        {
            "id": 118704,
            "type": "Feature",
            "geometry": {
                "type": "Point",
                "coordinates": [
                    21.45159,
                    50.076879999999996
                ]
            },
            "properties": {
                "ref:rspo": 118704,
                "official_name": "\"T\u0119czowa Kraina\" Niepubliczne Przedszkole",
                "name": "\"T\u0119czowa Kraina\" Niepubliczne Przedszkole",
                "addr:postcode": "39-200",
                "addr:place": "Pustynia",
                "addr:housenumber": "160",
                "addr:teryt:simc": 818700,
                "phone": "+48 146822064",
                "email": "teczowakraina@op.pl",
                "website": "https:\/\/www.facebook.com\/teczowakraina.pustynia\/",
                "ref:regon": "181006539",
                "ref:vatin": "PL8721374982",
                "operator": "Aneta Czarnota",
                "operator:type": "private",
                "amenity": "kindergarten"
            }
        },
        {
            "id": 54276,
            "type": "Feature",
            "geometry": {
                "type": "Point",
                "coordinates": [
                    21.45159,
                    50.07685
                ]
            },
            "properties": {
                "isced:level": "1;2",
                "ref:rspo": 54276,
                "official_name": "Publiczna Szko\u0142a Podstawowa im. Wandy Chotomskiej w Pustyni",
                "name": "Publiczna Szko\u0142a Podstawowa",
                "addr:postcode": "39-200",
                "addr:place": "Pustynia",
                "addr:housenumber": "160",
                "addr:teryt:simc": 818700,
                "phone": "+48 146815468",
                "email": "zspustynia@gzeas.pl",
                "website": "http:\/\/www.pustynia.ugdebica.pl",
                "ref:regon": "001190876",
                "ref:vatin": "PL8722094026",
                "operator": "Gmina D\u0119bica",
                "operator:type": "government",
                "amenity": "school",
                "note": "Parent RSPO: 34751"
            }
        },
        {
            "id": 58796,
            "type": "Feature",
            "geometry": {
                "type": "Point",
                "coordinates": [
                    21.45159,
                    50.07682
                ]
            },
            "properties": {
                "ref:rspo": 58796,
                "official_name": "Publiczne Przedszkole w Pustyni",
                "name": "Publiczne Przedszkole w Pustyni",
                "addr:postcode": "39-200",
                "addr:place": "Pustynia",
                "addr:housenumber": "160",
                "addr:teryt:simc": 818700,
                "phone": "+48 146815468",
                "email": "zspustynia@gzeas.pl",
                "website": "http:\/\/www.pustynia.ugdebica.pl",
                "ref:regon": "691557055",
                "ref:vatin": "PL8722097504",
                "operator": "Gmina D\u0119bica",
                "operator:type": "government",
                "amenity": "kindergarten",
                "note": "Parent RSPO: 34751"
            }
        },
        {
            "id": 51848,
            "type": "Feature",
            "geometry": {
                "type": "Point",
                "coordinates": [
                    21.53,
                    50.0889499
                ]
            },
            "properties": {
                "isced:level": "1;2",
                "ref:rspo": 51848,
                "official_name": "Publiczna Szko\u0142a Podstawowa im. Jana Pi\u0105tka w Paszczynie",
                "name": "Publiczna Szko\u0142a Podstawowa",
                "addr:postcode": "39-207",
                "addr:place": "Paszczyna",
                "addr:housenumber": "241",
                "addr:teryt:simc": 818338,
                "phone": "+48 146825689",
                "email": "zspaszczyna@gzeas.pl",
                "website": "http:\/\/www.paszczyna.ugdebica.pl",
                "ref:regon": "001191410",
                "ref:vatin": "PL8722094084",
                "operator": "Gmina D\u0119bica",
                "operator:type": "government",
                "amenity": "school"
            }
        },
        {
            "id": 130020,
            "type": "Feature",
            "geometry": {
                "type": "Point",
                "coordinates": [
                    21.53,
                    50.0889199
                ]
            },
            "properties": {
                "ref:rspo": 130020,
                "official_name": "Kr\u00f3lestwo Malucha Niepubliczne Przedszkole Ma\u0142gorzata Madej-Ciszek",
                "name": "Kr\u00f3lestwo Malucha Niepubliczne Przedszkole Ma\u0142gorzata Madej-Ciszek",
                "addr:postcode": "39-207",
                "addr:place": "Paszczyna",
                "addr:housenumber": "241",
                "addr:teryt:simc": 818338,
                "phone": "+48 783553717",
                "email": "madejka86@op.pl",
                "website": "https:\/\/www.facebook.com\/kr%c3%b3lestwo-malucha-niepubliczne-przedszkole-1604193743214084\/",
                "ref:regon": "363302926",
                "ref:vatin": "PL8722192674",
                "operator": "Ma\u0142gorzata Madej-Ciszek",
                "operator:type": "private",
                "amenity": "kindergarten"
            }
        },
        {
            "id": 59628,
            "type": "Feature",
            "geometry": {
                "type": "Point",
                "coordinates": [
                    21.48195,
                    50.10233
                ]
            },
            "properties": {
                "isced:level": "1;2",
                "ref:rspo": 59628,
                "official_name": "Publiczna Szko\u0142a Podstawowa im. Jana Paw\u0142a II w Brze\u017anicy",
                "name": "Publiczna Szko\u0142a Podstawowa",
                "addr:postcode": "39-207",
                "addr:city": "Brze\u017anica",
                "addr:street": "Szkolna",
                "addr:housenumber": "1",
                "addr:teryt:simc": 817994,
                "addr:teryt:sym_ul": 21970,
                "phone": "+48 146815263",
                "email": "zsbrzeznica@gzeas.pl",
                "website": "http:\/\/www.brzeznica.ugdebica.pl",
                "ref:regon": "001191367",
                "ref:vatin": "PL8722094090",
                "operator": "Gmina D\u0119bica",
                "operator:type": "government",
                "amenity": "school"
            }
        },
        {
            "id": 123953,
            "type": "Feature",
            "geometry": {
                "type": "Point",
                "coordinates": [
                    21.48195,
                    50.1023
                ]
            },
            "properties": {
                "ref:rspo": 123953,
                "official_name": "Niepubliczne Przedszkole \"Zak\u0105tek Malucha\"",
                "name": "Niepubliczne Przedszkole \"Zak\u0105tek Malucha\"",
                "addr:postcode": "39-207",
                "addr:city": "Brze\u017anica",
                "addr:street": "Szkolna",
                "addr:housenumber": "1",
                "addr:teryt:simc": 817994,
                "addr:teryt:sym_ul": 21970,
                "phone": "+48 660190856",
                "email": "eciurkot@onet.pl",
                "website": "http:\/\/www.zakatekmalucha.edu.pl",
                "ref:regon": "181139803",
                "ref:vatin": "PL8722282584",
                "operator": "Ewelina Siry",
                "operator:type": "private",
                "amenity": "kindergarten"
            }
        },
        {
            "id": 51274,
            "type": "Feature",
            "geometry": {
                "type": "Point",
                "coordinates": [
                    21.5065199,
                    50.1136
                ]
            },
            "properties": {
                "ref:rspo": 51274,
                "official_name": "Publiczne Przedszkole Z Oddzia\u0142ami Integracyjnymi w Pustkowie-Osiedlu",
                "name": "Publiczne Przedszkole Z Oddzia\u0142ami Integracyjnymi w Pustkowie-Osiedlu",
                "addr:postcode": "39-206",
                "addr:place": "Pustk\u00f3w-Osiedle",
                "addr:housenumber": "27C",
                "addr:teryt:simc": 818692,
                "phone": "+48 146815475",
                "email": "zspustkowosiedle@gzeas.pl",
                "website": "http:\/\/pustkow-osiedle.ugdebica.pl",
                "ref:regon": "691556140",
                "ref:vatin": "PL8722097533",
                "operator": "Gmina D\u0119bica",
                "operator:type": "government",
                "amenity": "kindergarten",
                "note": "Parent RSPO: 34639"
            }
        },
        {
            "id": 34639,
            "type": "Feature",
            "geometry": {
                "type": "Point",
                "coordinates": [
                    21.5063,
                    50.11473
                ]
            },
            "properties": {
                "ref:rspo": 34639,
                "official_name": "Zesp\u00f3\u0142 Szk\u00f3\u0142 Z Oddzia\u0142ami Integracyjnymi w Pustkowie-Osiedlu",
                "name": "Zesp\u00f3\u0142 Szk\u00f3\u0142 Z Oddzia\u0142ami Integracyjnymi w Pustkowie-Osiedlu",
                "addr:postcode": "39-206",
                "addr:place": "Pustk\u00f3w-Osiedle",
                "addr:housenumber": "34",
                "addr:teryt:simc": 818692,
                "phone": "+48 146818811",
                "email": "zspustkowosiedle@gzeas.pl",
                "website": "http:\/\/pustkow-osiedle.ugdebica.pl",
                "ref:regon": "691754620",
                "ref:vatin": "PL8722176020",
                "operator": "Gmina D\u0119bica",
                "operator:type": "government",
                "landuse": "education",
                "fixme": "amenity=school, amenity=college albo landuse=education w zale\u017cno\u015bci od tego, jakie plac\u00f3wki wchodz\u0105 w sk\u0142ad zespo\u0142u. Sprawd\u017a, kiedy stosowa\u0107 amenity=* a kiedy landuse=education.",
                "note": "Children RSPO: 51265;51274"
            }
        },
        {
            "id": 51265,
            "type": "Feature",
            "geometry": {
                "type": "Point",
                "coordinates": [
                    21.5063,
                    50.1147
                ]
            },
            "properties": {
                "isced:level": "1;2",
                "ref:rspo": 51265,
                "official_name": "Publiczna Szko\u0142a Podstawowa Z Oddzia\u0142ami Integracyjnymi im.marii Sk\u0142odowskiej-Curie w Pustkowie-Osiedlu",
                "name": "Publiczna Szko\u0142a Podstawowa Z Oddzia\u0142ami Integracyjnymi im.marii Sk\u0142odowskiej-Curie w Pustkowie-Osiedlu",
                "addr:postcode": "39-206",
                "addr:place": "Pustk\u00f3w-Osiedle",
                "addr:housenumber": "34",
                "addr:teryt:simc": 818692,
                "phone": "+48 146818811",
                "email": "zspustkowosiedle@gzeas.pl",
                "website": "http:\/\/pustkow-osiedle.ugdebica.pl",
                "ref:regon": "000677352",
                "ref:vatin": "PL8722094262",
                "operator": "Gmina D\u0119bica",
                "operator:type": "government",
                "amenity": "school",
                "note": "Parent RSPO: 34639"
            }
        },
        {
            "id": 18194,
            "type": "Feature",
            "geometry": {
                "type": "Point",
                "coordinates": [
                    21.50608,
                    50.11511
                ]
            },
            "properties": {
                "ref:rspo": 18194,
                "official_name": "Zesp\u00f3\u0142 Szk\u00f3\u0142 Zawodowych im. Marii Sk\u0142odowskiej-Curie w Pustkowie-Osiedlu",
                "name": "Zesp\u00f3\u0142 Szk\u00f3\u0142 Zawodowych",
                "addr:postcode": "39-206",
                "addr:place": "Pustk\u00f3w-Osiedle",
                "addr:housenumber": "34a",
                "addr:teryt:simc": 818692,
                "phone": "+48 146818739",
                "email": "dyrekcja@zszpustkow.edu.pl",
                "website": "http:\/\/www.zszpustkow.edu.pl",
                "ref:regon": "000179720",
                "ref:vatin": "PL8721496225",
                "operator": "Powiat D\u0119bicki",
                "operator:type": "government",
                "landuse": "education",
                "fixme": "amenity=school, amenity=college albo landuse=education w zale\u017cno\u015bci od tego, jakie plac\u00f3wki wchodz\u0105 w sk\u0142ad zespo\u0142u. Sprawd\u017a, kiedy stosowa\u0107 amenity=* a kiedy landuse=education.",
                "note": "Children RSPO: 19421;21534"
            }
        },
        {
            "id": 19421,
            "type": "Feature",
            "geometry": {
                "type": "Point",
                "coordinates": [
                    21.50608,
                    50.11508
                ]
            },
            "properties": {
                "isced:level": "3",
                "ref:rspo": 19421,
                "official_name": "Liceum Og\u00f3lnokszta\u0142c\u0105ce w Zespole Szk\u00f3\u0142 Zawodowych w Pustkowie-Osiedlu",
                "name": "Liceum Og\u00f3lnokszta\u0142c\u0105ce w Zespole Szk\u00f3\u0142 Zawodowych w Pustkowie-Osiedlu",
                "addr:postcode": "39-206",
                "addr:place": "Pustk\u00f3w-Osiedle",
                "addr:housenumber": "34a",
                "addr:teryt:simc": 818692,
                "phone": "+48 146818739",
                "email": "dyrekcja@zszpustkow.edu.pl",
                "website": "http:\/\/www.zszpustkow.edu.pl",
                "ref:regon": "691682582",
                "operator": "Powiat D\u0119bicki",
                "operator:type": "government",
                "amenity": "school",
                "note": "Parent RSPO: 18194"
            }
        },
        {
            "id": 21534,
            "type": "Feature",
            "geometry": {
                "type": "Point",
                "coordinates": [
                    21.50608,
                    50.115050000000004
                ]
            },
            "properties": {
                "isced:level": "3",
                "ref:rspo": 21534,
                "official_name": "Technikum w Zespole Szk\u00f3\u0142 Zawodowych w Pustkowie-Osiedlu",
                "name": "Technikum w Zespole Szk\u00f3\u0142 Zawodowych w Pustkowie-Osiedlu",
                "addr:postcode": "39-206",
                "addr:place": "Pustk\u00f3w-Osiedle",
                "addr:housenumber": "34a",
                "addr:teryt:simc": 818692,
                "phone": "+48 146818739",
                "email": "dyrekcja@zszpustkow.edu.pl",
                "website": "http:\/\/www.zszpustkow.edu.pl",
                "ref:regon": "691682576",
                "operator": "Powiat D\u0119bicki",
                "operator:type": "government",
                "amenity": "school",
                "note": "Parent RSPO: 18194"
            }
        },
        {
            "id": 34748,
            "type": "Feature",
            "geometry": {
                "type": "Point",
                "coordinates": [
                    21.4883,
                    50.14432
                ]
            },
            "properties": {
                "ref:rspo": 34748,
                "official_name": "Zesp\u00f3\u0142 Szk\u00f3\u0142 Z Oddzia\u0142ami Integracyjnymi w Pustkowie",
                "name": "Zesp\u00f3\u0142 Szk\u00f3\u0142 Z Oddzia\u0142ami Integracyjnymi w Pustkowie",
                "addr:postcode": "39-205",
                "addr:place": "Pustk\u00f3w",
                "addr:housenumber": "94",
                "addr:teryt:simc": 818539,
                "phone": "+48 146821060",
                "email": "zspustkow@gzeas.pl",
                "website": "http:\/\/www.pustkow.ugdebica.pl",
                "ref:regon": "691754614",
                "ref:vatin": "PL8722176014",
                "operator": "Gmina D\u0119bica",
                "operator:type": "government",
                "landuse": "education",
                "fixme": "amenity=school, amenity=college albo landuse=education w zale\u017cno\u015bci od tego, jakie plac\u00f3wki wchodz\u0105 w sk\u0142ad zespo\u0142u. Sprawd\u017a, kiedy stosowa\u0107 amenity=* a kiedy landuse=education.",
                "note": "Children RSPO: 59941;59943"
            }
        },
        {
            "id": 59941,
            "type": "Feature",
            "geometry": {
                "type": "Point",
                "coordinates": [
                    21.4883,
                    50.14429
                ]
            },
            "properties": {
                "isced:level": "1;2",
                "ref:rspo": 59941,
                "official_name": "Publiczna Szko\u0142a Podstwaowa Z Oddzia\u0142ami Integracyjnymi im. Marii Konopnickiej w Pustkowie",
                "name": "Publiczna Szko\u0142a Podstwaowa Z Oddzia\u0142ami Integracyjnymi",
                "addr:postcode": "39-205",
                "addr:place": "Pustk\u00f3w",
                "addr:housenumber": "94",
                "addr:teryt:simc": 818539,
                "phone": "+48 146821060",
                "email": "zspustkow@gzeas.pl",
                "website": "http:\/\/pustkow.ugdebica.pl",
                "ref:regon": "001190860",
                "ref:vatin": "PL8722094121",
                "operator": "Gmina D\u0119bica",
                "operator:type": "government",
                "amenity": "school",
                "note": "Parent RSPO: 34748"
            }
        },
        {
            "id": 59943,
            "type": "Feature",
            "geometry": {
                "type": "Point",
                "coordinates": [
                    21.4883,
                    50.14426
                ]
            },
            "properties": {
                "ref:rspo": 59943,
                "official_name": "Publiczne Przedszkole w Pustkowie",
                "name": "Publiczne Przedszkole w Pustkowie",
                "addr:postcode": "39-205",
                "addr:place": "Pustk\u00f3w",
                "addr:housenumber": "94",
                "addr:teryt:simc": 818539,
                "phone": "+48 146821060",
                "email": "zspustkow@gzeas.pl",
                "website": "http:\/\/pustkow.ugdebica.pl",
                "ref:regon": "691557078",
                "ref:vatin": "PL8722097510",
                "operator": "Gmina D\u0119bica",
                "operator:type": "government",
                "amenity": "kindergarten",
                "note": "Parent RSPO: 34748"
            }
        }
    ]
}