{"type":"FeatureCollection","features":[{"id":13403,"type":"Feature","geometry":{"type":"Point","coordinates":[21.36377,50.06254]},"properties":{"ref:rspo":13403,"official_name":"Zesp\u00f3\u0142 Szk\u00f3\u0142 w Strasz\u0119cinie","name":"Zesp\u00f3\u0142 Szk\u00f3\u0142 w Strasz\u0119cinie","addr:country":"PL","addr:postcode":"39-218","addr:place":"Strasz\u0119cin","addr:housenumber":"115","addr:teryt:sym_ul":839783,"contact:email":"zspstraszecin@interia.pl","ref:regon":"691751828","ref:vatin":"PL8722310665","operator":"Gmina \u017byrak\u00f3w","operator:type":"government","landuse":"education","fixme":"amenity=school, amenity=college albo landuse=education w zale\u017cno\u015bci od tego, jakie plac\u00f3wki wchodz\u0105 w sk\u0142ad zespo\u0142u. Sprawd\u017a, kiedy stosowa\u0107 amenity=* a kiedy landuse=education.","note":"Children RSPO: 41270;41273;41274"}},{"id":41270,"type":"Feature","geometry":{"type":"Point","coordinates":[21.36377,50.062509999999996]},"properties":{"isced:level":"1;2","ref:rspo":41270,"official_name":"Szko\u0142a Podstawowa im.henryka Sienkiewicza w Strasz\u0119cinie","name":"Szko\u0142a Podstawowa im.henryka Sienkiewicza w Strasz\u0119cinie","addr:country":"PL","addr:postcode":"39-218","addr:place":"Strasz\u0119cin","addr:housenumber":"115","addr:teryt:sym_ul":839783,"contact:phone":"+48 146811090","contact:email":"zspstraszecin@interia.pl","contact:website":"http:\/\/www.zspstraszecin.szkolnastrona.pl","ref:regon":"001204621","ref:vatin":"PL8721992154","operator":"Gmina \u017byrak\u00f3w","operator:type":"government","amenity":"school","note":"Parent RSPO: 13403"}},{"id":41273,"type":"Feature","geometry":{"type":"Point","coordinates":[21.36377,50.06248]},"properties":{"ref:rspo":41273,"official_name":"Przedszkole w Strasz\u0119cinie","name":"Przedszkole w Strasz\u0119cinie","addr:country":"PL","addr:postcode":"39-218","addr:place":"Strasz\u0119cin","addr:housenumber":"115","addr:teryt:sym_ul":839783,"contact:email":"zspstraszecin@interia.pl","ref:regon":"690676970","ref:vatin":"PL8722011572","operator":"Gmina \u017byrak\u00f3w","operator:type":"government","amenity":"kindergarten","note":"Parent RSPO: 13403"}},{"id":41274,"type":"Feature","geometry":{"type":"Point","coordinates":[21.36377,50.06245]},"properties":{"ref:rspo":41274,"official_name":"Szkolne Schronisko M\u0142odzie\u017cowe","name":"Szkolne Schronisko M\u0142odzie\u017cowe","addr:country":"PL","addr:postcode":"39-218","addr:place":"Strasz\u0119cin","addr:housenumber":"115","addr:teryt:sym_ul":839783,"contact:email":"zspstraszecin@interia.pl","ref:regon":"180366626","ref:vatin":"PL8722332974","operator":"Gmina \u017byrak\u00f3w","operator:type":"government","tourism":"hostel","note":"Parent RSPO: 13403"}},{"id":132430,"type":"Feature","geometry":{"type":"Point","coordinates":[21.39899,50.07878]},"properties":{"ref:rspo":132430,"official_name":"Niepubliczne Przedszkole Integracyjne im.\u015bw.j\u00f3zefa w \u017byrakowie","name":"Niepubliczne Przedszkole Integracyjne im.\u015bw.j\u00f3zefa w \u017byrakowie","addr:country":"PL","addr:postcode":"39-204","addr:place":"\u017byrak\u00f3w","addr:housenumber":"197b","addr:teryt:sym_ul":839955,"contact:phone":"+48 666997089","contact:email":"jurek0406@gmail.com","ref:regon":"365625088","operator":"Firma Edukacyjna \"Frajda\" Jerzy Rajski","operator:type":"consortium","amenity":"kindergarten"}},{"id":41264,"type":"Feature","geometry":{"type":"Point","coordinates":[21.38249,50.08093]},"properties":{"isced:level":"1;2","ref:rspo":41264,"official_name":"Szko\u0142a Podstawowa im.stanis\u0142awa Mroczki w G\u00f3rze Motycznej","name":"Szko\u0142a Podstawowa im.stanis\u0142awa Mroczki w G\u00f3rze Motycznej","addr:country":"PL","addr:postcode":"39-204","addr:place":"G\u00f3ra Motyczna","addr:housenumber":"31","addr:teryt:sym_ul":839659,"contact:phone":"+48 146834630","contact:email":"spggm@interia.pl","contact:website":"http:\/\/www.szkolagoramotyczna.szkolnastrona.pl","ref:regon":"001204590","ref:vatin":"PL8721994064","operator":"Gmina \u017byrak\u00f3w","operator:type":"government","amenity":"school"}},{"id":13405,"type":"Feature","geometry":{"type":"Point","coordinates":[21.34194,50.08166]},"properties":{"isced:level":"1;2","ref:rspo":13405,"official_name":"Szko\u0142a Podstawowa w Woli Wielkiej","name":"Szko\u0142a Podstawowa w Woli Wielkiej","addr:country":"PL","addr:postcode":"39-218","addr:place":"Wola Wielka","addr:housenumber":"31a","addr:teryt:sym_ul":839837,"contact:phone":"+48 146768673","contact:email":"pspwolawielka@poczta.fm","contact:website":"http:\/\/spwolawielka.szkolnastrona.pl","ref:regon":"690669131","ref:vatin":"PL8721993900","operator":"Gmina \u017byrak\u00f3w","operator:type":"government","amenity":"school"}},{"id":13407,"type":"Feature","geometry":{"type":"Point","coordinates":[21.40051,50.08788]},"properties":{"ref:rspo":13407,"official_name":"Zesp\u00f3\u0142 Szk\u00f3\u0142 w \u017byrakowie","name":"Zesp\u00f3\u0142 Szk\u00f3\u0142 w \u017byrakowie","addr:country":"PL","addr:postcode":"39-204","addr:place":"\u017byrak\u00f3w","addr:housenumber":"77","addr:teryt:sym_ul":839955,"contact:phone":"+48 146822877","contact:email":"zszpwz@op.pl","ref:regon":"691751811","ref:vatin":"PL8722310671","operator":"Gmina \u017byrak\u00f3w","operator:type":"government","landuse":"education","fixme":"amenity=school, amenity=college albo landuse=education w zale\u017cno\u015bci od tego, jakie plac\u00f3wki wchodz\u0105 w sk\u0142ad zespo\u0142u. Sprawd\u017a, kiedy stosowa\u0107 amenity=* a kiedy landuse=education.","note":"Children RSPO: 41278;58858"}},{"id":41278,"type":"Feature","geometry":{"type":"Point","coordinates":[21.40051,50.087849999999996]},"properties":{"isced:level":"1;2","ref:rspo":41278,"official_name":"Szko\u0142a Podstawowa w \u017byrakowie","name":"Szko\u0142a Podstawowa w \u017byrakowie","addr:country":"PL","addr:postcode":"39-204","addr:place":"\u017byrak\u00f3w","addr:housenumber":"77","addr:teryt:sym_ul":839955,"contact:phone":"+48 146822877","contact:email":"zszpwz@op.pl","contact:website":"http:\/\/www.zpzyrakow.edupage.org","ref:regon":"000631284","ref:vatin":"PL8721995106","operator":"Gmina \u017byrak\u00f3w","operator:type":"government","amenity":"school","note":"Parent RSPO: 13407"}},{"id":58858,"type":"Feature","geometry":{"type":"Point","coordinates":[21.40051,50.08782]},"properties":{"ref:rspo":58858,"official_name":"Przedszkole w \u017byrakowie","name":"Przedszkole w \u017byrakowie","addr:country":"PL","addr:postcode":"39-204","addr:place":"\u017byrak\u00f3w","addr:housenumber":"77","addr:teryt:sym_ul":839955,"contact:email":"zszpwz@op.pl","ref:regon":"180755813","ref:vatin":"PL8722399808","operator":"Gmina \u017byrak\u00f3w","operator:type":"government","amenity":"kindergarten","note":"Parent RSPO: 13407"}},{"id":43618,"type":"Feature","geometry":{"type":"Point","coordinates":[21.336,50.10802]},"properties":{"isced:level":"1;2","ref:rspo":43618,"official_name":"Szko\u0142a Podstawowa w Wiewi\u00f3rce","name":"Szko\u0142a Podstawowa w Wiewi\u00f3rce","addr:country":"PL","addr:postcode":"39-209","addr:place":"Wiewi\u00f3rka","addr:housenumber":"122","addr:teryt:sym_ul":839820,"contact:phone":"+48 146829112","contact:email":"zspwie@wp.pl","contact:website":"http:\/\/www.zspwiewiorka.pl","ref:regon":"001204638","ref:vatin":"PL8721993544","operator":"Gmina \u017byrak\u00f3w","operator:type":"government","amenity":"school"}},{"id":41263,"type":"Feature","geometry":{"type":"Point","coordinates":[21.4443299,50.1184612]},"properties":{"ref:rspo":41263,"official_name":"Przedszkole w Bobrowej","name":"Przedszkole w Bobrowej","addr:country":"PL","addr:postcode":"39-204","addr:place":"Bobrowa","addr:housenumber":"132","addr:teryt:sym_ul":839607,"contact:phone":"+48 146818099","contact:email":"dyrekcja@zspbobrowa.pl","contact:website":"http:\/\/ppbobrowa.itl.pl","ref:regon":"690676964","ref:vatin":"PL8722009380","operator":"Gmina \u017byrak\u00f3w","operator:type":"government","amenity":"kindergarten","note":"Parent RSPO: 13218"}},{"id":13218,"type":"Feature","geometry":{"type":"Point","coordinates":[21.4441065,50.118533]},"properties":{"ref:rspo":13218,"official_name":"Zesp\u00f3\u0142 Szk\u00f3\u0142 w Bobrowej","name":"Zesp\u00f3\u0142 Szk\u00f3\u0142 w Bobrowej","addr:country":"PL","addr:postcode":"39-203","addr:place":"Bobrowa","addr:housenumber":"131","addr:teryt:sym_ul":839607,"contact:phone":"+48 146818099","contact:email":"dyrekcja@zspbobrowa.pl","contact:website":"http:\/\/zspbobrowa.pl","ref:regon":"691751745","ref:vatin":"PL8722310613","operator":"Gmina \u017byrak\u00f3w","operator:type":"government","landuse":"education","fixme":"amenity=school, amenity=college albo landuse=education w zale\u017cno\u015bci od tego, jakie plac\u00f3wki wchodz\u0105 w sk\u0142ad zespo\u0142u. Sprawd\u017a, kiedy stosowa\u0107 amenity=* a kiedy landuse=education.","note":"Children RSPO: 41261;41263"}},{"id":41261,"type":"Feature","geometry":{"type":"Point","coordinates":[21.4441065,50.118503]},"properties":{"isced:level":"1;2","ref:rspo":41261,"official_name":"Szko\u0142a Podstawowa w Bobrowej","name":"Szko\u0142a Podstawowa w Bobrowej","addr:country":"PL","addr:postcode":"39-203","addr:place":"Bobrowa","addr:housenumber":"131","addr:teryt:sym_ul":839607,"contact:phone":"+48 146818099","contact:email":"dyrekcja@zspbobrowa.pl","contact:website":"http:\/\/www.zspbobrowa.pl","ref:regon":"001204584","ref:vatin":"PL8721993113","operator":"Gmina \u017byrak\u00f3w","operator:type":"government","amenity":"school","note":"Parent RSPO: 13218"}},{"id":13402,"type":"Feature","geometry":{"type":"Point","coordinates":[21.36316,50.13173]},"properties":{"isced:level":"1;2","ref:rspo":13402,"official_name":"Szko\u0142a Podstawowa Im Adama Mickiewicza w Mokrem","name":"Szko\u0142a Podstawowa Im Adama Mickiewicza w Mokrem","addr:country":"PL","addr:postcode":"39-209","addr:place":"Mokre","addr:housenumber":"136","addr:teryt:sym_ul":839725,"contact:phone":"+48 146824974","contact:email":"pspmokre@op.pl","contact:website":"http:\/\/www.pspmokre.szkolnastrona.pl","ref:regon":"001204609","ref:vatin":"PL8721995112","operator":"Gmina \u017byrak\u00f3w","operator:type":"government","amenity":"school"}},{"id":58863,"type":"Feature","geometry":{"type":"Point","coordinates":[21.34315,50.13258]},"properties":{"isced:level":"1;2","ref:rspo":58863,"official_name":"Szko\u0142a Podstawowa w Zasowie im. Rodziny \u0141ubie\u0144skich","name":"Szko\u0142a Podstawowa w Zasowie","addr:country":"PL","addr:postcode":"39-209","addr:place":"Zas\u00f3w","addr:housenumber":"207","addr:teryt:sym_ul":839903,"contact:phone":"+48 146831444","contact:email":"zspzasow207@op.pl","contact:website":"http:\/\/www.zspzasow.szkolnastrona.pl","ref:regon":"001204644","ref:vatin":"PL8721995129","operator":"Gmina \u017byrak\u00f3w","operator:type":"government","amenity":"school"}},{"id":267841,"type":"Feature","geometry":{"type":"Point","coordinates":[21.4055399,50.13986]},"properties":{"ref:rspo":267841,"official_name":"Zesp\u00f3\u0142 Szk\u00f3\u0142 w Nagoszynie","name":"Zesp\u00f3\u0142 Szk\u00f3\u0142 w Nagoszynie","addr:country":"PL","addr:postcode":"39-203","addr:place":"Nagoszyn","addr:housenumber":"93","addr:teryt:sym_ul":839731,"contact:phone":"+48 146823748","contact:email":"zspnagoszyn@interia.pl","ref:regon":"380693796","operator":"Gmina \u017byrak\u00f3w","operator:type":"government","landuse":"education","fixme":"amenity=school, amenity=college albo landuse=education w zale\u017cno\u015bci od tego, jakie plac\u00f3wki wchodz\u0105 w sk\u0142ad zespo\u0142u. Sprawd\u017a, kiedy stosowa\u0107 amenity=* a kiedy landuse=education.","note":"Children RSPO: 41259;41268"}},{"id":41259,"type":"Feature","geometry":{"type":"Point","coordinates":[21.4055399,50.139829999999996]},"properties":{"ref:rspo":41259,"official_name":"Przedszkole w Nagoszynie","name":"Przedszkole w Nagoszynie","addr:country":"PL","addr:postcode":"39-203","addr:place":"Nagoszyn","addr:housenumber":"93","addr:teryt:sym_ul":839731,"contact:email":"zspnagoszyn@interia.pl","contact:website":"http:\/\/www.przedszkole-nagoszyn.itl.pl","ref:regon":"690676941","ref:vatin":"PL8722011218","operator":"Gmina \u017byrak\u00f3w","operator:type":"government","amenity":"kindergarten","note":"Parent RSPO: 267841"}},{"id":41268,"type":"Feature","geometry":{"type":"Point","coordinates":[21.4055399,50.1398]},"properties":{"isced:level":"1;2","ref:rspo":41268,"official_name":"Szko\u0142a Podstawowa w Nagoszynie","name":"Szko\u0142a Podstawowa w Nagoszynie","addr:country":"PL","addr:postcode":"39-203","addr:place":"Nagoszyn","addr:housenumber":"93","addr:teryt:sym_ul":839731,"contact:phone":"+48 146823748","contact:email":"zspnagoszyn@interia.pl","contact:website":"http:\/\/www.zspnagoszyn.szkolnastrona.pl","ref:regon":"001204615","ref:vatin":"PL8721999216","operator":"Gmina \u017byrak\u00f3w","operator:type":"government","amenity":"school","note":"Parent RSPO: 267841"}},{"id":58805,"type":"Feature","geometry":{"type":"Point","coordinates":[21.45468,50.15097]},"properties":{"isced:level":"1;2","ref:rspo":58805,"official_name":"Szko\u0142a Podstawowa w Korzeniowie","name":"Szko\u0142a Podstawowa w Korzeniowie","addr:country":"PL","addr:postcode":"39-203","addr:place":"Korzeni\u00f3w","addr:housenumber":"77a","addr:teryt:sym_ul":839671,"contact:phone":"+48 146818923","contact:email":"dyrekcja@spkorzeniow.pl","contact:website":"http:\/\/www.spkorzeniow.pl","ref:regon":"850313778","ref:vatin":"PL8721993538","operator":"Gmina \u017byrak\u00f3w","operator:type":"government","amenity":"school"}}]}