{
    "type": "FeatureCollection",
    "features": [
        {
            "id": 268458,
            "type": "Feature",
            "geometry": {
                "type": "Point",
                "coordinates": [
                    21.39007,
                    50.02726
                ]
            },
            "properties": {
                "ref:rspo": 268458,
                "official_name": "Kolorowe Przedszkole Bernadetta Matusz, Miros\u0142aw \u017burowski Sp\u00f3\u0142ka Cywilna",
                "name": "Kolorowe Przedszkole Bernadetta Matusz, Miros\u0142aw \u017burowski Sp\u00f3\u0142ka Cywilna",
                "addr:country": "PL",
                "addr:postcode": "39-200",
                "addr:city": "D\u0119bica",
                "addr:street": "Skowronk\u00f3w",
                "addr:housenumber": "3 A",
                "addr:teryt:simc": 982233,
                "addr:teryt:sym_ul": 20124,
                "contact:phone": "+48 606613509",
                "contact:email": "biuro@kolorowe-przedszkole.pl",
                "contact:website": "http:\/\/www.kolorowe-przedszkole.pl",
                "ref:regon": "381168187",
                "operator": "Kolorowe Przedszkole Bernadetta Matusz, Miros\u0142aw \u017burowski Sp\u00f3\u0142ka Cywilna",
                "operator:type": "cooperative",
                "amenity": "kindergarten"
            }
        },
        {
            "id": 17993,
            "type": "Feature",
            "geometry": {
                "type": "Point",
                "coordinates": [
                    21.39637,
                    50.03073
                ]
            },
            "properties": {
                "isced:level": "1;2",
                "ref:rspo": 17993,
                "official_name": "Szko\u0142a Podstawowa Nr 12 im. Armii Krajowej w D\u0119bicy",
                "name": "Szko\u0142a Podstawowa Nr 12",
                "addr:country": "PL",
                "addr:postcode": "39-200",
                "addr:city": "D\u0119bica",
                "addr:street": "Gajowa",
                "addr:housenumber": "9",
                "addr:teryt:simc": 982233,
                "addr:teryt:sym_ul": 5265,
                "contact:phone": "+48 146778195",
                "contact:email": "sekretariat@sp12debica.pl",
                "contact:website": "http:\/\/sp12debica.edupage.org",
                "ref:regon": "690675960",
                "ref:vatin": "PL8722002001",
                "operator": "Gmina Miasta D\u0119bica",
                "operator:type": "government",
                "amenity": "school"
            }
        },
        {
            "id": 124348,
            "type": "Feature",
            "geometry": {
                "type": "Point",
                "coordinates": [
                    21.40313,
                    50.0332099
                ]
            },
            "properties": {
                "ref:rspo": 124348,
                "official_name": "Niepubliczne Przedszkole J\u0119zykowe Happy Kids",
                "name": "Niepubliczne Przedszkole J\u0119zykowe Happy Kids",
                "addr:country": "PL",
                "addr:postcode": "39-200",
                "addr:city": "D\u0119bica",
                "addr:street": "Marsza\u0142ka",
                "addr:housenumber": "24a",
                "addr:teryt:simc": 982233,
                "addr:teryt:sym_ul": 12396,
                "contact:phone": "+48 146700775",
                "contact:email": "info@happykids-debica.pl",
                "ref:regon": "181145235",
                "operator": "Apg Group G\u0105sior Sp\u00f3\u0142ka Komandytowa",
                "operator:type": "private",
                "amenity": "kindergarten"
            }
        },
        {
            "id": 8678,
            "type": "Feature",
            "geometry": {
                "type": "Point",
                "coordinates": [
                    21.39654,
                    50.0395899
                ]
            },
            "properties": {
                "ref:rspo": 8678,
                "official_name": "Zesp\u00f3\u0142 Szk\u00f3\u0142 Specjalnych w D\u0119bicy",
                "name": "Zesp\u00f3\u0142 Szk\u00f3\u0142 Specjalnych w D\u0119bicy",
                "addr:country": "PL",
                "addr:postcode": "39-200",
                "addr:city": "D\u0119bica",
                "addr:street": "Osiedle Matejki",
                "addr:housenumber": "22",
                "addr:teryt:simc": 982233,
                "addr:teryt:sym_ul": 27067,
                "contact:phone": "+48 146778598",
                "contact:email": "zss-debica@oswiata.org.pl",
                "contact:website": "http:\/\/www.zss-debica.oswiata.org.pl",
                "ref:regon": "850387570",
                "ref:vatin": "PL8722004193",
                "operator": "Powiat D\u0119bicki",
                "operator:type": "government",
                "landuse": "education",
                "fixme": "amenity=school, amenity=college albo landuse=education w zale\u017cno\u015bci od tego, jakie plac\u00f3wki wchodz\u0105 w sk\u0142ad zespo\u0142u. Sprawd\u017a, kiedy stosowa\u0107 amenity=* a kiedy landuse=education.",
                "note": "Children RSPO: 10549;10567"
            }
        },
        {
            "id": 10549,
            "type": "Feature",
            "geometry": {
                "type": "Point",
                "coordinates": [
                    21.39654,
                    50.0395599
                ]
            },
            "properties": {
                "isced:level": "1;2",
                "ref:rspo": 10549,
                "official_name": "Szko\u0142a Podstawowa Nr 7 Specjalna w D\u0119bicy",
                "name": "Szko\u0142a Podstawowa Nr 7 Specjalna w D\u0119bicy",
                "addr:country": "PL",
                "addr:postcode": "39-200",
                "addr:city": "D\u0119bica",
                "addr:street": "Osiedle Matejki",
                "addr:housenumber": "22",
                "addr:teryt:simc": 982233,
                "addr:teryt:sym_ul": 27067,
                "contact:phone": "+48 146778598",
                "contact:email": "zss-debica@oswiata.org.pl",
                "contact:website": "http:\/\/www.zss-debica.oswiata.org.pl",
                "ref:regon": "691682607",
                "operator": "Powiat D\u0119bicki",
                "operator:type": "government",
                "amenity": "school",
                "note": "Parent RSPO: 8678"
            }
        },
        {
            "id": 10567,
            "type": "Feature",
            "geometry": {
                "type": "Point",
                "coordinates": [
                    21.39654,
                    50.039529900000005
                ]
            },
            "properties": {
                "ref:rspo": 10567,
                "official_name": "Szko\u0142a Specjalna Przysposabiaj\u0105ca Do Pracy w D\u0119bicy",
                "name": "Szko\u0142a Specjalna Przysposabiaj\u0105ca Do Pracy w D\u0119bicy",
                "addr:country": "PL",
                "addr:postcode": "39-200",
                "addr:city": "D\u0119bica",
                "addr:street": "Osiedle Matejki",
                "addr:housenumber": "22",
                "addr:teryt:simc": 982233,
                "addr:teryt:sym_ul": 27067,
                "contact:phone": "+48 146778598",
                "contact:email": "zss-debica@oswiata.org.pl",
                "contact:website": "http:\/\/www.zss-debica.oswiata.org.pl",
                "ref:regon": "691790567",
                "operator": "Powiat D\u0119bicki",
                "operator:type": "government",
                "amenity": "school",
                "note": "Parent RSPO: 8678"
            }
        },
        {
            "id": 26456,
            "type": "Feature",
            "geometry": {
                "type": "Point",
                "coordinates": [
                    21.40429,
                    50.0403499
                ]
            },
            "properties": {
                "ref:rspo": 26456,
                "official_name": "Biuro Projekt\u00f3w Edukacyjnych Bipred",
                "name": "Biuro Projekt\u00f3w Edukacyjnych Bipred",
                "addr:country": "PL",
                "addr:postcode": "39-200",
                "addr:city": "D\u0119bica",
                "addr:street": "Klonowa",
                "addr:housenumber": "5",
                "addr:teryt:simc": 982233,
                "addr:teryt:sym_ul": 8574,
                "contact:phone": "+48 146776967",
                "contact:email": "biuro@bipred.pl",
                "ref:regon": "180896005",
                "operator": "Marek Ognisty",
                "operator:type": "private",
                "fixme": "w zale\u017cno\u015bci od przedmiotu dzia\u0142alno\u015bci (np. amenity=training + training=*, amenity=dancing_school, amenity=language_school, amenity=music_school)"
            }
        },
        {
            "id": 274296,
            "type": "Feature",
            "geometry": {
                "type": "Point",
                "coordinates": [
                    21.40429,
                    50.0403199
                ]
            },
            "properties": {
                "ref:rspo": 274296,
                "official_name": "Niepubliczna Plac\u00f3wka Doskonalenia Nauczycieli Bipred",
                "name": "Niepubliczna Plac\u00f3wka Doskonalenia Nauczycieli Bipred",
                "addr:country": "PL",
                "addr:postcode": "39-200",
                "addr:city": "D\u0119bica",
                "addr:street": "Klonowa",
                "addr:housenumber": "5",
                "addr:teryt:simc": 982233,
                "addr:teryt:sym_ul": 8574,
                "contact:phone": "+48 146969333",
                "contact:email": "biuro@bipred.pl",
                "contact:website": "http:\/\/www.bipred.pl",
                "ref:regon": "385532477",
                "operator": "Marek Ognisty",
                "operator:type": "private",
                "amenity": "training"
            }
        },
        {
            "id": 18663,
            "type": "Feature",
            "geometry": {
                "type": "Point",
                "coordinates": [
                    21.3968,
                    50.04104
                ]
            },
            "properties": {
                "ref:rspo": 18663,
                "official_name": "Przedszkole Miejskie Nr 6 im. Janiny Porazi\u0144skiej w D\u0119bicy",
                "name": "Przedszkole Miejskie Nr 6",
                "addr:country": "PL",
                "addr:postcode": "39-200",
                "addr:city": "D\u0119bica",
                "addr:street": "Osiedle Matejki",
                "addr:housenumber": "19",
                "addr:teryt:simc": 982233,
                "addr:teryt:sym_ul": 27067,
                "contact:phone": "+48 146812596",
                "contact:email": "przedszkole6debica@interia.pl",
                "ref:regon": "851654330",
                "ref:vatin": "PL8721992929",
                "operator": "Gmina Miasta D\u0119bica",
                "operator:type": "government",
                "amenity": "kindergarten"
            }
        },
        {
            "id": 17481,
            "type": "Feature",
            "geometry": {
                "type": "Point",
                "coordinates": [
                    21.43349,
                    50.04136
                ]
            },
            "properties": {
                "isced:level": "1;2",
                "ref:rspo": 17481,
                "official_name": "Szko\u0142a Podstawowa Nr 8 im. Jana Paw\u0142a II w D\u0119bicy",
                "name": "Szko\u0142a Podstawowa Nr 8",
                "addr:country": "PL",
                "addr:postcode": "39-200",
                "addr:city": "D\u0119bica",
                "addr:street": "Wielopolska",
                "addr:housenumber": "162",
                "addr:teryt:simc": 982233,
                "addr:teryt:sym_ul": 24112,
                "contact:phone": "+48 146702613",
                "contact:email": "sekretariat@sp8.com.pl",
                "contact:website": "http:\/\/sp8debica.edupage.org",
                "ref:regon": "001202243",
                "ref:vatin": "PL8721993107",
                "operator": "Gmina Miasta D\u0119bica",
                "operator:type": "government",
                "amenity": "school"
            }
        },
        {
            "id": 271003,
            "type": "Feature",
            "geometry": {
                "type": "Point",
                "coordinates": [
                    21.40189,
                    50.04278
                ]
            },
            "properties": {
                "isced:level": "1;2",
                "ref:rspo": 271003,
                "official_name": "Szko\u0142a Podstawowa Nr 6 w D\u0119bicy",
                "name": "Szko\u0142a Podstawowa Nr 6 w D\u0119bicy",
                "addr:country": "PL",
                "addr:postcode": "39-200",
                "addr:city": "D\u0119bica",
                "addr:street": "\u0141ysog\u00f3rska",
                "addr:housenumber": "25",
                "addr:teryt:simc": 982233,
                "addr:teryt:sym_ul": 11811,
                "contact:phone": "+48 146969171",
                "contact:email": "sekretariat@sp6debica.pl",
                "contact:website": "http:\/\/www.sp6debica.pl",
                "ref:regon": "383046821",
                "operator": "Gmina Miasta D\u0119bica",
                "operator:type": "government",
                "amenity": "school"
            }
        },
        {
            "id": 18662,
            "type": "Feature",
            "geometry": {
                "type": "Point",
                "coordinates": [
                    21.4043,
                    50.04358
                ]
            },
            "properties": {
                "ref:rspo": 18662,
                "official_name": "Przedszkole Miejskie Nr 5 w D\u0119bicy",
                "name": "Przedszkole Miejskie Nr 5 w D\u0119bicy",
                "addr:country": "PL",
                "addr:postcode": "39-200",
                "addr:city": "D\u0119bica",
                "addr:street": "\u0141ysog\u00f3rska",
                "addr:housenumber": "23",
                "addr:teryt:simc": 982233,
                "addr:teryt:sym_ul": 11811,
                "contact:phone": "+48 146812595",
                "contact:email": "przedszkolem5@vp.pl",
                "ref:regon": "851654317",
                "ref:vatin": "PL8721992941",
                "operator": "Gmina Miasta D\u0119bica",
                "operator:type": "government",
                "amenity": "kindergarten"
            }
        },
        {
            "id": 17992,
            "type": "Feature",
            "geometry": {
                "type": "Point",
                "coordinates": [
                    21.42233,
                    50.04534
                ]
            },
            "properties": {
                "isced:level": "1;2",
                "ref:rspo": 17992,
                "official_name": "Publiczna Szko\u0142a Podstawowa Nr 11 Z Oddzia\u0142ami Integracyjnymi im. 5 Pu\u0142ku Strzelc\u00f3w Konnych Armii Krajowej w D\u0119bicy",
                "name": "Publiczna Szko\u0142a Podstawowa Nr 11 Z Oddzia\u0142ami Integracyjnymi",
                "addr:country": "PL",
                "addr:postcode": "39-200",
                "addr:city": "D\u0119bica",
                "addr:street": "Szkotnia",
                "addr:housenumber": "14",
                "addr:teryt:simc": 982233,
                "addr:teryt:sym_ul": 21977,
                "contact:phone": "+48 146812603",
                "contact:email": "sekretariat@spi11debica.com",
                "contact:website": "http:\/\/www.spi11debica.webd.pl",
                "ref:regon": "850042842",
                "ref:vatin": "PL8721993001",
                "operator": "Gmina Miasta D\u0119bica",
                "operator:type": "government",
                "amenity": "school"
            }
        },
        {
            "id": 18359,
            "type": "Feature",
            "geometry": {
                "type": "Point",
                "coordinates": [
                    21.42165,
                    50.04646
                ]
            },
            "properties": {
                "ref:rspo": 18359,
                "official_name": "Przedszkole Miejskie Nr 1",
                "name": "Przedszkole Miejskie Nr 1",
                "addr:country": "PL",
                "addr:postcode": "39-200",
                "addr:city": "D\u0119bica",
                "addr:street": "Szkotnia",
                "addr:housenumber": "10",
                "addr:teryt:simc": 982233,
                "addr:teryt:sym_ul": 21977,
                "contact:phone": "+48 146812586",
                "contact:email": "przedszkole_nr1_debica@o2.pl",
                "ref:regon": "851654234",
                "ref:vatin": "PL8721992987",
                "operator": "Gmina Miasta D\u0119bica",
                "operator:type": "government",
                "amenity": "kindergarten"
            }
        },
        {
            "id": 120891,
            "type": "Feature",
            "geometry": {
                "type": "Point",
                "coordinates": [
                    21.40577,
                    50.04755
                ]
            },
            "properties": {
                "isced:level": "3",
                "ref:rspo": 120891,
                "official_name": "Szko\u0142a Us\u0142ug Hotelarskich, Sztuki Gotowania I Innych Zawod\u00f3w",
                "name": "Szko\u0142a Us\u0142ug Hotelarskich, Sztuki Gotowania I Innych Zawod\u00f3w",
                "addr:country": "PL",
                "addr:postcode": "39-200",
                "addr:city": "D\u0119bica",
                "addr:street": "Krakowska",
                "addr:housenumber": "25",
                "addr:teryt:simc": 982233,
                "addr:teryt:sym_ul": 9796,
                "contact:phone": "+48 146760802",
                "contact:email": "akaminski@educare.pl",
                "contact:website": "http:\/\/www.suh.edu.pl",
                "ref:regon": "181042883",
                "operator": "Educare Et Servire Fundacja Antoniego Kami\u0144skiego",
                "operator:type": "ngo",
                "amenity": "school"
            }
        },
        {
            "id": 126536,
            "type": "Feature",
            "geometry": {
                "type": "Point",
                "coordinates": [
                    21.40577,
                    50.04752
                ]
            },
            "properties": {
                "ref:rspo": 126536,
                "official_name": "Niepubliczna Szko\u0142a Przysposabiaj\u0105ca Do Pracy w D\u0119bicy",
                "name": "Niepubliczna Szko\u0142a Przysposabiaj\u0105ca Do Pracy w D\u0119bicy",
                "addr:country": "PL",
                "addr:postcode": "39-200",
                "addr:city": "D\u0119bica",
                "addr:street": "Krakowska",
                "addr:housenumber": "25",
                "addr:teryt:simc": 982233,
                "addr:teryt:sym_ul": 9796,
                "contact:phone": "+48 146760802",
                "contact:email": "fundacja@educare.pl",
                "ref:regon": "360458875",
                "operator": "Educare Et Servire Fundacja Antoniego Kami\u0144skiego",
                "operator:type": "ngo",
                "amenity": "school"
            }
        },
        {
            "id": 17218,
            "type": "Feature",
            "geometry": {
                "type": "Point",
                "coordinates": [
                    21.4011299,
                    50.04773
                ]
            },
            "properties": {
                "isced:level": "1;2",
                "ref:rspo": 17218,
                "official_name": "Publiczna Szko\u0142a Podstawowa Nr 3 im. Genera\u0142a Tadeusza Bora-Komorowskiego",
                "name": "Publiczna Szko\u0142a Podstawowa Nr 3",
                "addr:country": "PL",
                "addr:postcode": "39-200",
                "addr:city": "D\u0119bica",
                "addr:street": "Kraszewskiego",
                "addr:housenumber": "37",
                "addr:teryt:simc": 982233,
                "addr:teryt:sym_ul": 9869,
                "contact:phone": "+48 146813289",
                "contact:email": "sekretariat@sp3debica.pl",
                "contact:website": "http:\/\/www.sp3debica.pl",
                "ref:regon": "001202208",
                "ref:vatin": "PL8721993047",
                "operator": "Gmina Miasta D\u0119bica",
                "operator:type": "government",
                "amenity": "school"
            }
        },
        {
            "id": 17217,
            "type": "Feature",
            "geometry": {
                "type": "Point",
                "coordinates": [
                    21.40955,
                    50.0478
                ]
            },
            "properties": {
                "isced:level": "1;2",
                "ref:rspo": 17217,
                "official_name": "Szko\u0142a Podstawowa Nr 2 im. Kr\u00f3lowej Jadwigi w D\u0119bicy",
                "name": "Szko\u0142a Podstawowa Nr 2",
                "addr:country": "PL",
                "addr:postcode": "39-200",
                "addr:city": "D\u0119bica",
                "addr:street": "Ogrodowa",
                "addr:housenumber": "22",
                "addr:teryt:simc": 982233,
                "addr:teryt:sym_ul": 14834,
                "contact:phone": "+48 146813440",
                "contact:email": "sp2dca@poczta.onet.pl",
                "ref:regon": "001202190",
                "ref:vatin": "PL8721993030",
                "operator": "Gmina Miasta D\u0119bica",
                "operator:type": "government",
                "amenity": "school"
            }
        },
        {
            "id": 12758,
            "type": "Feature",
            "geometry": {
                "type": "Point",
                "coordinates": [
                    21.40968,
                    50.0481
                ]
            },
            "properties": {
                "ref:rspo": 12758,
                "official_name": "Zesp\u00f3\u0142 Szk\u00f3\u0142 Ekonomicznych im. Janusza Korczaka w D\u0119bicy",
                "name": "Zesp\u00f3\u0142 Szk\u00f3\u0142 Ekonomicznych",
                "addr:country": "PL",
                "addr:postcode": "39-200",
                "addr:city": "D\u0119bica",
                "addr:street": "Ogrodowa",
                "addr:housenumber": "20",
                "addr:teryt:simc": 982233,
                "addr:teryt:sym_ul": 14834,
                "contact:phone": "+48 146702574",
                "contact:email": "ekonomik@zsedebica.pl",
                "contact:website": "http:\/\/www.ekonomik.debica.pl",
                "ref:regon": "000229808",
                "ref:vatin": "PL8721252954",
                "operator": "Powiat D\u0119bicki",
                "operator:type": "government",
                "landuse": "education",
                "fixme": "amenity=school, amenity=college albo landuse=education w zale\u017cno\u015bci od tego, jakie plac\u00f3wki wchodz\u0105 w sk\u0142ad zespo\u0142u. Sprawd\u017a, kiedy stosowa\u0107 amenity=* a kiedy landuse=education.",
                "note": "Children RSPO: 16732;16746"
            }
        },
        {
            "id": 16732,
            "type": "Feature",
            "geometry": {
                "type": "Point",
                "coordinates": [
                    21.40968,
                    50.048069999999996
                ]
            },
            "properties": {
                "isced:level": "3",
                "ref:rspo": 16732,
                "official_name": "Technikum Nr 3 w Zespole Szk\u00f3\u0142 Ekonomicznych",
                "name": "Technikum Nr 3 w Zespole Szk\u00f3\u0142 Ekonomicznych",
                "addr:country": "PL",
                "addr:postcode": "39-200",
                "addr:city": "D\u0119bica",
                "addr:street": "Ogrodowa",
                "addr:housenumber": "20",
                "addr:teryt:simc": 982233,
                "addr:teryt:sym_ul": 14834,
                "contact:phone": "+48 146702574",
                "contact:email": "ekonomik@zsedebica.pl",
                "contact:website": "http:\/\/www.ekonomik.debica.pl",
                "ref:regon": "691682292",
                "operator": "Powiat D\u0119bicki",
                "operator:type": "government",
                "amenity": "school",
                "note": "Parent RSPO: 12758"
            }
        },
        {
            "id": 16746,
            "type": "Feature",
            "geometry": {
                "type": "Point",
                "coordinates": [
                    21.40968,
                    50.04804
                ]
            },
            "properties": {
                "isced:level": "3",
                "ref:rspo": 16746,
                "official_name": "Iv Liceum Og\u00f3lnokszta\u0142c\u0105ce w Zespole Szk\u00f3\u0142 Ekonomicznych",
                "name": "Iv Liceum Og\u00f3lnokszta\u0142c\u0105ce w Zespole Szk\u00f3\u0142 Ekonomicznych",
                "addr:country": "PL",
                "addr:postcode": "39-200",
                "addr:city": "D\u0119bica",
                "addr:street": "Ogrodowa",
                "addr:housenumber": "20",
                "addr:teryt:simc": 982233,
                "addr:teryt:sym_ul": 14834,
                "contact:phone": "+48 146702574",
                "contact:email": "ekonomik@zsedebica.pl",
                "contact:website": "http:\/\/www.ekonomik.debica.pl",
                "ref:regon": "691682323",
                "operator": "Powiat D\u0119bicki",
                "operator:type": "government",
                "amenity": "school",
                "note": "Parent RSPO: 12758"
            }
        },
        {
            "id": 128386,
            "type": "Feature",
            "geometry": {
                "type": "Point",
                "coordinates": [
                    21.41196,
                    50.04824
                ]
            },
            "properties": {
                "ref:rspo": 128386,
                "official_name": "Przedszkole \"Pa\u0142acyk Malucha\"",
                "name": "Przedszkole \"Pa\u0142acyk Malucha\"",
                "addr:country": "PL",
                "addr:postcode": "39-200",
                "addr:city": "D\u0119bica",
                "addr:street": "Profesora Gawrysia",
                "addr:housenumber": "12",
                "addr:teryt:simc": 982233,
                "addr:teryt:sym_ul": 51492,
                "contact:phone": "+48 603097886",
                "contact:email": "debica@palacykmalucha.com.pl",
                "ref:regon": "362259714",
                "operator": "Anna Mroszczyk",
                "operator:type": "private",
                "amenity": "kindergarten"
            }
        },
        {
            "id": 19282,
            "type": "Feature",
            "geometry": {
                "type": "Point",
                "coordinates": [
                    21.40706,
                    50.04856
                ]
            },
            "properties": {
                "ref:rspo": 19282,
                "official_name": "Ochronka Zgromadzenia Si\u00f3str S\u0142u\u017cebniczek Bdnp Publiczne Przedszkole Integracyjne w D\u0119bicy",
                "name": "Ochronka Zgromadzenia Si\u00f3str S\u0142u\u017cebniczek Bdnp Publiczne Przedszkole Integracyjne w D\u0119bicy",
                "addr:country": "PL",
                "addr:postcode": "39-200",
                "addr:city": "D\u0119bica",
                "addr:street": "Krakowska",
                "addr:housenumber": "15",
                "addr:teryt:simc": 982233,
                "addr:teryt:sym_ul": 9796,
                "contact:phone": "+48 146703682",
                "contact:email": "ochronka@siostry.net",
                "contact:website": "http:\/\/wychowanie.siostry.net",
                "ref:regon": "180892326",
                "ref:vatin": "PL8722064829",
                "operator": "Zgromadzenie Si\u00f3str S\u0142u\u017cebniczek Bdnp, Prowincja Tarnowska",
                "operator:type": "religious",
                "amenity": "kindergarten"
            }
        },
        {
            "id": 131792,
            "type": "Feature",
            "geometry": {
                "type": "Point",
                "coordinates": [
                    21.39974,
                    50.04881
                ]
            },
            "properties": {
                "ref:rspo": 131792,
                "official_name": "Przedszkole Terapeutyczne im. Ks. Stanis\u0142awa Fio\u0142ka Przy Stowarzyszeniu \"Rado\u015b\u0107\" w D\u0119bicy",
                "name": "Przedszkole Terapeutyczne",
                "addr:country": "PL",
                "addr:postcode": "39-200",
                "addr:city": "D\u0119bica",
                "addr:street": "Parkowa",
                "addr:housenumber": "10",
                "addr:teryt:simc": 982233,
                "addr:teryt:sym_ul": 15710,
                "contact:phone": "+48 143000333",
                "contact:email": "przedszkole@radosc.debica.pl",
                "contact:website": "http:\/\/www.radosc.debica.pl",
                "ref:regon": "365347063",
                "operator": "Stowarzyszenie \"Rado\u015b\u0107\" W D\u0119bicy",
                "operator:type": "ngo",
                "amenity": "kindergarten"
            }
        },
        {
            "id": 18903,
            "type": "Feature",
            "geometry": {
                "type": "Point",
                "coordinates": [
                    21.39769,
                    50.04903
                ]
            },
            "properties": {
                "ref:rspo": 18903,
                "official_name": "Przedszkole Miejskie Nr 10 w D\u0119bicy",
                "name": "Przedszkole Miejskie Nr 10 w D\u0119bicy",
                "addr:country": "PL",
                "addr:postcode": "39-200",
                "addr:city": "D\u0119bica",
                "addr:street": "ks. Ko\u0142\u0142\u0105taja",
                "addr:housenumber": "8",
                "addr:teryt:simc": 982233,
                "addr:teryt:sym_ul": 9004,
                "contact:phone": "+48 146812599",
                "contact:email": "przedszkole10debica@op.pl",
                "ref:regon": "851654381",
                "ref:vatin": "PL8721992881",
                "operator": "Gmina Miasta D\u0119bica",
                "operator:type": "government",
                "amenity": "kindergarten"
            }
        },
        {
            "id": 26271,
            "type": "Feature",
            "geometry": {
                "type": "Point",
                "coordinates": [
                    21.40951,
                    50.0491
                ]
            },
            "properties": {
                "ref:rspo": 26271,
                "official_name": "Brytania School Of English",
                "name": "Brytania School Of English",
                "addr:country": "PL",
                "addr:postcode": "39-200",
                "addr:city": "D\u0119bica",
                "addr:street": "Ogrodowa",
                "addr:housenumber": "12",
                "addr:teryt:simc": 982233,
                "addr:teryt:sym_ul": 14834,
                "contact:phone": "+48 146703811",
                "contact:email": "debica@brytania.com.pl",
                "ref:regon": "180895939",
                "operator": "Bo\u017cena Kula",
                "operator:type": "private",
                "fixme": "w zale\u017cno\u015bci od przedmiotu dzia\u0142alno\u015bci (np. amenity=training + training=*, amenity=dancing_school, amenity=language_school, amenity=music_school)"
            }
        },
        {
            "id": 6885,
            "type": "Feature",
            "geometry": {
                "type": "Point",
                "coordinates": [
                    21.41186,
                    50.04989
                ]
            },
            "properties": {
                "isced:level": "3",
                "ref:rspo": 6885,
                "official_name": "I Liceum Og\u00f3lnokszta\u0142c\u0105ce im. Kr\u00f3la W\u0142adys\u0142awa Jagie\u0142\u0142y w D\u0119bicy",
                "name": "I Liceum Og\u00f3lnokszta\u0142c\u0105ce",
                "addr:country": "PL",
                "addr:postcode": "39-200",
                "addr:city": "D\u0119bica",
                "addr:street": "Juliusza S\u0142owackiego",
                "addr:housenumber": "9",
                "addr:teryt:simc": 982233,
                "addr:teryt:sym_ul": 20286,
                "contact:phone": "+48 146702616",
                "contact:email": "liceum@jagiello-debica.edu.pl",
                "contact:website": "http:\/\/www.jagiello.debica.edu.pl",
                "ref:regon": "691682010",
                "ref:vatin": "PL8722209972",
                "operator": "Powiat D\u0119bicki",
                "operator:type": "government",
                "amenity": "school"
            }
        },
        {
            "id": 12747,
            "type": "Feature",
            "geometry": {
                "type": "Point",
                "coordinates": [
                    21.3988799,
                    50.05005
                ]
            },
            "properties": {
                "ref:rspo": 12747,
                "official_name": "Poradnia Psychologiczno-Pedagogiczna w D\u0119bicy",
                "name": "Poradnia Psychologiczno-Pedagogiczna w D\u0119bicy",
                "addr:country": "PL",
                "addr:postcode": "39-200",
                "addr:city": "D\u0119bica",
                "addr:street": "Parkowa",
                "addr:housenumber": "28",
                "addr:teryt:simc": 982233,
                "addr:teryt:sym_ul": 15710,
                "contact:phone": "+48 146702460",
                "contact:email": "sekretariat@poradniadebica.pl",
                "contact:website": "http:\/\/www.poradniadebica.pl",
                "ref:regon": "001053889",
                "ref:vatin": "PL8721961366",
                "operator": "Powiat D\u0119bicki",
                "operator:type": "government",
                "healthcare": "counselling",
                "counselling_type": "education",
                "fixme": "w zale\u017cno\u015bci od przedmiotu dzia\u0142alno\u015bci (np. healthcare=counselling + counselling_type=education albo healthcare=psychotherapist)"
            }
        },
        {
            "id": 18664,
            "type": "Feature",
            "geometry": {
                "type": "Point",
                "coordinates": [
                    21.41753,
                    50.0506
                ]
            },
            "properties": {
                "ref:rspo": 18664,
                "official_name": "Przedszkole Miejskie Nr 7 w D\u0119bicy",
                "name": "Przedszkole Miejskie Nr 7 w D\u0119bicy",
                "addr:country": "PL",
                "addr:postcode": "39-200",
                "addr:city": "D\u0119bica",
                "addr:street": "Kochanowskiego",
                "addr:housenumber": "4",
                "addr:teryt:simc": 982233,
                "addr:teryt:sym_ul": 8725,
                "contact:phone": "+48 146812597",
                "contact:email": "pm7.debica@op.pl",
                "ref:regon": "851654346",
                "ref:vatin": "PL8721992912",
                "operator": "Gmina Miasta D\u0119bica",
                "operator:type": "government",
                "amenity": "kindergarten"
            }
        },
        {
            "id": 55965,
            "type": "Feature",
            "geometry": {
                "type": "Point",
                "coordinates": [
                    21.40469,
                    50.05077
                ]
            },
            "properties": {
                "ref:rspo": 55965,
                "official_name": "O\u015brodek Szkoleniowy Biura Po\u015brednictwa Pracy, Doradztwa Personalnego, Kszta\u0142cenia Kadr \"Szansa\" w D\u0119bicy",
                "name": "O\u015brodek Szkoleniowy Biura Po\u015brednictwa Pracy, Doradztwa Personalnego, Kszta\u0142cenia Kadr \"Szansa\" w D\u0119bicy",
                "addr:country": "PL",
                "addr:postcode": "39-200",
                "addr:city": "D\u0119bica",
                "addr:street": "ks. Konarskiego",
                "addr:housenumber": "17a",
                "addr:teryt:simc": 982233,
                "addr:teryt:sym_ul": 9108,
                "contact:phone": "+48 146813637",
                "ref:regon": "180900391",
                "operator": "Irena Janeczko",
                "operator:type": "private",
                "fixme": "w zale\u017cno\u015bci od przedmiotu dzia\u0142alno\u015bci (np. amenity=training + training=*, amenity=dancing_school, amenity=language_school, amenity=music_school)"
            }
        },
        {
            "id": 27871,
            "type": "Feature",
            "geometry": {
                "type": "Point",
                "coordinates": [
                    21.40862,
                    50.05119
                ]
            },
            "properties": {
                "ref:rspo": 27871,
                "official_name": "Centrum Edukacyjne w D\u0119bicy",
                "name": "Centrum Edukacyjne w D\u0119bicy",
                "addr:country": "PL",
                "addr:postcode": "39-200",
                "addr:city": "D\u0119bica",
                "addr:street": "rynek Rynek",
                "addr:housenumber": "21",
                "addr:teryt:simc": 982233,
                "addr:teryt:sym_ul": 19252,
                "contact:phone": "+48 603103698",
                "contact:email": "akaminski@educare.pl",
                "ref:regon": "180896732",
                "operator": "Antoni Kami\u0144ski",
                "operator:type": "private",
                "fixme": "w zale\u017cno\u015bci od przedmiotu dzia\u0142alno\u015bci (np. amenity=training + training=*, amenity=dancing_school, amenity=language_school, amenity=music_school)"
            }
        },
        {
            "id": 27890,
            "type": "Feature",
            "geometry": {
                "type": "Point",
                "coordinates": [
                    21.40862,
                    50.051159999999996
                ]
            },
            "properties": {
                "ref:rspo": 27890,
                "official_name": "Centrum Przedsi\u0119biorczo\u015bci w D\u0119bicy",
                "name": "Centrum Przedsi\u0119biorczo\u015bci w D\u0119bicy",
                "addr:country": "PL",
                "addr:postcode": "39-200",
                "addr:city": "D\u0119bica",
                "addr:street": "rynek Rynek",
                "addr:housenumber": "21",
                "addr:teryt:simc": 982233,
                "addr:teryt:sym_ul": 19252,
                "contact:phone": "+48 146813603",
                "ref:regon": "180896749",
                "operator": "Educare Et Servire Fundacja Antoniego Kami\u0144skiego",
                "operator:type": "ngo",
                "fixme": "w zale\u017cno\u015bci od przedmiotu dzia\u0142alno\u015bci (np. amenity=training + training=*, amenity=dancing_school, amenity=language_school, amenity=music_school)"
            }
        },
        {
            "id": 271001,
            "type": "Feature",
            "geometry": {
                "type": "Point",
                "coordinates": [
                    21.42128,
                    50.05144
                ]
            },
            "properties": {
                "isced:level": "1;2",
                "ref:rspo": 271001,
                "official_name": "Szko\u0142a Podstawowa Nr 4 w D\u0119bicy",
                "name": "Szko\u0142a Podstawowa Nr 4 w D\u0119bicy",
                "addr:country": "PL",
                "addr:postcode": "39-200",
                "addr:city": "D\u0119bica",
                "addr:street": "Wyrobka",
                "addr:housenumber": "11",
                "addr:teryt:simc": 982233,
                "addr:teryt:sym_ul": 25040,
                "contact:phone": "+48 146812584",
                "contact:email": "sekretariat@sp4debica.szkolnastrona.pl",
                "ref:regon": "383046608",
                "operator": "Gmina Miasta D\u0119bica",
                "operator:type": "government",
                "amenity": "school"
            }
        },
        {
            "id": 123637,
            "type": "Feature",
            "geometry": {
                "type": "Point",
                "coordinates": [
                    21.41022,
                    50.05149
                ]
            },
            "properties": {
                "isced:level": "4",
                "ref:rspo": 123637,
                "official_name": "Policealna Szko\u0142a w D\u0119bicy",
                "name": "Policealna Szko\u0142a w D\u0119bicy",
                "addr:country": "PL",
                "addr:postcode": "39-200",
                "addr:city": "D\u0119bica",
                "addr:street": "rynek Rynek",
                "addr:housenumber": "5",
                "addr:teryt:simc": 982233,
                "addr:teryt:sym_ul": 19252,
                "contact:phone": "+48 146928391",
                "contact:email": "debica@medyk.net.pl",
                "contact:website": "https:\/\/www.medyk.net.pl",
                "ref:regon": "181132103",
                "operator": "Ratio Sp\u00f3\u0142ka Z Ograniczon\u0105 Odpowiedzialno\u015bci\u0105",
                "operator:type": "private",
                "amenity": "college"
            }
        },
        {
            "id": 128618,
            "type": "Feature",
            "geometry": {
                "type": "Point",
                "coordinates": [
                    21.41022,
                    50.05146
                ]
            },
            "properties": {
                "isced:level": "4",
                "ref:rspo": 128618,
                "official_name": "Medyczna Szko\u0142a Policealna w D\u0119bicy",
                "name": "Medyczna Szko\u0142a Policealna w D\u0119bicy",
                "addr:country": "PL",
                "addr:postcode": "39-200",
                "addr:city": "D\u0119bica",
                "addr:street": "rynek Rynek",
                "addr:housenumber": "5",
                "addr:teryt:simc": 982233,
                "addr:teryt:sym_ul": 19252,
                "contact:phone": "+48 146928391",
                "contact:email": "debica@medyk.net.pl",
                "contact:website": "https:\/\/www.medyk.net.pl\/",
                "ref:regon": "362334002",
                "operator": "Ratio Sp\u00f3\u0142ka Z Ograniczon\u0105 Odpowiedzialno\u015bci\u0105",
                "operator:type": "private",
                "amenity": "college"
            }
        },
        {
            "id": 18360,
            "type": "Feature",
            "geometry": {
                "type": "Point",
                "coordinates": [
                    21.40453,
                    50.05186
                ]
            },
            "properties": {
                "ref:rspo": 18360,
                "official_name": "Przedszkole Miejskie Nr 2 Integracyjne w D\u0119bicy",
                "name": "Przedszkole Miejskie Nr 2 Integracyjne w D\u0119bicy",
                "addr:country": "PL",
                "addr:postcode": "39-200",
                "addr:city": "D\u0119bica",
                "addr:street": "ks. Konarskiego",
                "addr:housenumber": "14",
                "addr:teryt:simc": 982233,
                "addr:teryt:sym_ul": 9108,
                "contact:phone": "+48 146813168",
                "contact:email": "mp2integracja@gmail.com",
                "ref:regon": "851654257",
                "ref:vatin": "PL8721992970",
                "operator": "Gmina Miasta D\u0119bica",
                "operator:type": "government",
                "amenity": "kindergarten"
            }
        },
        {
            "id": 28690,
            "type": "Feature",
            "geometry": {
                "type": "Point",
                "coordinates": [
                    21.40243,
                    50.05229
                ]
            },
            "properties": {
                "ref:rspo": 28690,
                "official_name": "O\u015brodek Szkolenia w Dziedzinie Bhp \"Alfa\"",
                "name": "O\u015brodek Szkolenia w Dziedzinie Bhp \"Alfa\"",
                "addr:country": "PL",
                "addr:postcode": "39-200",
                "addr:city": "D\u0119bica",
                "addr:street": "Sk\u0142adowa",
                "addr:housenumber": "8",
                "addr:teryt:simc": 982233,
                "addr:teryt:sym_ul": 20060,
                "contact:phone": "+48 146765175",
                "ref:regon": "180896761",
                "operator": "W\u0142adys\u0142aw Para",
                "operator:type": "private",
                "fixme": "w zale\u017cno\u015bci od przedmiotu dzia\u0142alno\u015bci (np. amenity=training + training=*, amenity=dancing_school, amenity=language_school, amenity=music_school)"
            }
        },
        {
            "id": 18902,
            "type": "Feature",
            "geometry": {
                "type": "Point",
                "coordinates": [
                    21.42491,
                    50.05236
                ]
            },
            "properties": {
                "ref:rspo": 18902,
                "official_name": "Przedszkole Miejskie Nr 9 w D\u0119bicy",
                "name": "Przedszkole Miejskie Nr 9 w D\u0119bicy",
                "addr:country": "PL",
                "addr:postcode": "39-200",
                "addr:city": "D\u0119bica",
                "addr:street": "Henryka Sienkiewicza",
                "addr:housenumber": "6B",
                "addr:teryt:simc": 982233,
                "addr:teryt:sym_ul": 19830,
                "contact:email": "pm9_debica@interia.pl",
                "ref:regon": "851654369",
                "ref:vatin": "PL8721992898",
                "operator": "Gmina Miasta D\u0119bica",
                "operator:type": "government",
                "amenity": "kindergarten"
            }
        },
        {
            "id": 18361,
            "type": "Feature",
            "geometry": {
                "type": "Point",
                "coordinates": [
                    21.40907,
                    50.053
                ]
            },
            "properties": {
                "ref:rspo": 18361,
                "official_name": "Przedszkole Miejskie Nr 4 w D\u0119bicy",
                "name": "Przedszkole Miejskie Nr 4 w D\u0119bicy",
                "addr:country": "PL",
                "addr:postcode": "39-200",
                "addr:city": "D\u0119bica",
                "addr:street": "Strumskiego",
                "addr:housenumber": "3",
                "addr:teryt:simc": 982233,
                "addr:teryt:sym_ul": 34748,
                "contact:phone": "+48 146813474",
                "contact:email": "kontakt@pm4debica.pl",
                "ref:regon": "851654270",
                "ref:vatin": "PL8721992958",
                "operator": "Gmina Miasta D\u0119bica",
                "operator:type": "government",
                "amenity": "kindergarten"
            }
        },
        {
            "id": 131214,
            "type": "Feature",
            "geometry": {
                "type": "Point",
                "coordinates": [
                    21.41457,
                    50.05303
                ]
            },
            "properties": {
                "ref:rspo": 131214,
                "official_name": "Biblioteka Pedagogiczna w D\u0119bicy",
                "name": "Biblioteka Pedagogiczna w D\u0119bicy",
                "addr:country": "PL",
                "addr:postcode": "39-200",
                "addr:city": "D\u0119bica",
                "addr:street": "Cmentarna",
                "addr:housenumber": "1",
                "addr:teryt:simc": 982233,
                "addr:teryt:sym_ul": 3114,
                "contact:phone": "+48 146395969",
                "contact:email": "bpdebica@gmail.com",
                "ref:regon": "365032661",
                "operator": "Gmina Miasta D\u0119bica",
                "operator:type": "government",
                "amenity": "library"
            }
        },
        {
            "id": 124357,
            "type": "Feature",
            "geometry": {
                "type": "Point",
                "coordinates": [
                    21.42269,
                    50.05315
                ]
            },
            "properties": {
                "ref:rspo": 124357,
                "official_name": "Niepubliczne Przedszkole \"Ukryty Dar\"",
                "name": "Niepubliczne Przedszkole \"Ukryty Dar\"",
                "addr:country": "PL",
                "addr:postcode": "39-200",
                "addr:city": "D\u0119bica",
                "addr:street": "Rzeszowska",
                "addr:housenumber": "76",
                "addr:teryt:simc": 982233,
                "addr:teryt:sym_ul": 19351,
                "contact:phone": "+48 791132080",
                "contact:email": "npukrytydar@onet.pl",
                "ref:regon": "181145643",
                "operator": "Stowarzyszenie Dla Os\u00f3b Autystycznych I Ze Spektrum Autyzmu \"Ukryty Dar\"",
                "operator:type": "ngo",
                "amenity": "kindergarten"
            }
        },
        {
            "id": 265741,
            "type": "Feature",
            "geometry": {
                "type": "Point",
                "coordinates": [
                    21.42269,
                    50.05312
                ]
            },
            "properties": {
                "isced:level": "1;2",
                "ref:rspo": 265741,
                "official_name": "Niepubliczna Szko\u0142a Podstawowa Specjalna \"Ukryty Dar\" w D\u0119bicy",
                "name": "Niepubliczna Szko\u0142a Podstawowa Specjalna \"Ukryty Dar\" w D\u0119bicy",
                "addr:country": "PL",
                "addr:postcode": "39-200",
                "addr:city": "D\u0119bica",
                "addr:street": "Rzeszowska",
                "addr:housenumber": "76",
                "addr:teryt:simc": 982233,
                "addr:teryt:sym_ul": 19351,
                "contact:email": "nsps.ukrytydar@gmail.com",
                "contact:website": "http:\/\/nsps-ukrytydar.pl",
                "ref:regon": "368876543",
                "operator": "Stowarzyszenie Dla Os\u00f3b Autystycznych I Ze Spektrum Autyzmu \"Ukryty Dar\"",
                "operator:type": "ngo",
                "amenity": "school"
            }
        },
        {
            "id": 133864,
            "type": "Feature",
            "geometry": {
                "type": "Point",
                "coordinates": [
                    21.41224,
                    50.05328
                ]
            },
            "properties": {
                "ref:rspo": 133864,
                "official_name": "Zesp\u00f3\u0142 Pa\u0144stwowych Szk\u00f3\u0142 Muzycznych im. Prof. Krzysztofa Pendereckiego w D\u0119bicy",
                "name": "Zesp\u00f3\u0142 Pa\u0144stwowych Szk\u00f3\u0142 Muzycznych",
                "addr:country": "PL",
                "addr:postcode": "39-200",
                "addr:city": "D\u0119bica",
                "addr:street": "Tadeusza Ko\u015bciuszki",
                "addr:housenumber": "8",
                "addr:teryt:simc": 982233,
                "addr:teryt:sym_ul": 9572,
                "contact:phone": "+48 146702080",
                "contact:email": "sekretariat@zpsmdebica.pl",
                "contact:website": "http:\/\/zpsmdebica.pl",
                "ref:regon": "367691385",
                "operator": "Ministerstwo Kultury I Dziedzictwa Narodowego",
                "operator:type": "public",
                "landuse": "education",
                "fixme": "amenity=school, amenity=college albo landuse=education w zale\u017cno\u015bci od tego, jakie plac\u00f3wki wchodz\u0105 w sk\u0142ad zespo\u0142u. Sprawd\u017a, kiedy stosowa\u0107 amenity=* a kiedy landuse=education.",
                "note": "Children RSPO: 72145;263817"
            }
        },
        {
            "id": 72145,
            "type": "Feature",
            "geometry": {
                "type": "Point",
                "coordinates": [
                    21.41224,
                    50.05325
                ]
            },
            "properties": {
                "ref:rspo": 72145,
                "official_name": "Pa\u0144stwowa Szko\u0142a Muzyczna I St. im. Krzysztofa Pendereckiego w D\u0119bicy",
                "name": "Pa\u0144stwowa Szko\u0142a Muzyczna I St.",
                "addr:country": "PL",
                "addr:postcode": "39-200",
                "addr:city": "D\u0119bica",
                "addr:street": "Tadeusza Ko\u015bciuszki",
                "addr:housenumber": "8",
                "addr:teryt:simc": 982233,
                "addr:teryt:sym_ul": 9572,
                "contact:phone": "+48 146702080",
                "contact:email": "sekretariat@zpsmdebica.pl",
                "contact:website": "http:\/\/zpsmdebica.pl",
                "ref:regon": "000284279",
                "operator": "Ministerstwo Kultury I Dziedzictwa Narodowego",
                "operator:type": "public",
                "amenity": "music_school",
                "note": "Parent RSPO: 133864"
            }
        },
        {
            "id": 263817,
            "type": "Feature",
            "geometry": {
                "type": "Point",
                "coordinates": [
                    21.41224,
                    50.05322
                ]
            },
            "properties": {
                "ref:rspo": 263817,
                "official_name": "Pa\u0144stwowa Szko\u0142a Muzyczna II St. w D\u0119bicy",
                "name": "Pa\u0144stwowa Szko\u0142a Muzyczna II St. w D\u0119bicy",
                "addr:country": "PL",
                "addr:postcode": "39-200",
                "addr:city": "D\u0119bica",
                "addr:street": "Tadeusza Ko\u015bciuszki",
                "addr:housenumber": "8",
                "addr:teryt:simc": 982233,
                "addr:teryt:sym_ul": 9572,
                "contact:phone": "+48 146702080",
                "contact:email": "sekretariat@zpsmdebica.pl",
                "contact:website": "http:\/\/zpsmdebica.pl",
                "ref:regon": "368229080",
                "operator": "Ministerstwo Kultury I Dziedzictwa Narodowego",
                "operator:type": "public",
                "amenity": "music_school",
                "note": "Parent RSPO: 133864"
            }
        },
        {
            "id": 23601,
            "type": "Feature",
            "geometry": {
                "type": "Point",
                "coordinates": [
                    21.40792,
                    50.05363
                ]
            },
            "properties": {
                "ref:rspo": 23601,
                "official_name": "Zesp\u00f3\u0142 Szk\u00f3\u0142 Nr 4 im. Miko\u0142aja Kopernika w D\u0119bicy",
                "name": "Zesp\u00f3\u0142 Szk\u00f3\u0142 Nr 4",
                "addr:country": "PL",
                "addr:postcode": "39-200",
                "addr:city": "D\u0119bica",
                "addr:street": "Strumskiego",
                "addr:housenumber": "1",
                "addr:teryt:simc": 982233,
                "addr:teryt:sym_ul": 34748,
                "contact:phone": "+48 146819955",
                "contact:email": "zs4.kopernik@gmail.com",
                "contact:website": "http:\/\/www.zsnr4.edu.pl",
                "ref:regon": "691792230",
                "operator": "Powiat D\u0119bicki",
                "operator:type": "government",
                "landuse": "education",
                "fixme": "amenity=school, amenity=college albo landuse=education w zale\u017cno\u015bci od tego, jakie plac\u00f3wki wchodz\u0105 w sk\u0142ad zespo\u0142u. Sprawd\u017a, kiedy stosowa\u0107 amenity=* a kiedy landuse=education.",
                "note": "Children RSPO: 25489;25539;75558;122836;275415"
            }
        },
        {
            "id": 25489,
            "type": "Feature",
            "geometry": {
                "type": "Point",
                "coordinates": [
                    21.40792,
                    50.053599999999996
                ]
            },
            "properties": {
                "isced:level": "3",
                "ref:rspo": 25489,
                "official_name": "Technikum Nr 4 w D\u0119bicy",
                "name": "Technikum Nr 4 w D\u0119bicy",
                "addr:country": "PL",
                "addr:postcode": "39-200",
                "addr:city": "D\u0119bica",
                "addr:street": "Strumskiego",
                "addr:housenumber": "1",
                "addr:teryt:simc": 982233,
                "addr:teryt:sym_ul": 34748,
                "contact:phone": "+48 146819955",
                "contact:email": "zs4.kopernik@gmail.com",
                "contact:website": "http:\/\/www.zsnr4.edu.pl",
                "ref:regon": "691682412",
                "operator": "Powiat D\u0119bicki",
                "operator:type": "government",
                "amenity": "school",
                "note": "Parent RSPO: 23601"
            }
        },
        {
            "id": 25539,
            "type": "Feature",
            "geometry": {
                "type": "Point",
                "coordinates": [
                    21.40792,
                    50.05357
                ]
            },
            "properties": {
                "isced:level": "3",
                "ref:rspo": 25539,
                "official_name": "Bran\u017cowa Szko\u0142a I Stopnia Nr 2 w D\u0119bicy",
                "name": "Bran\u017cowa Szko\u0142a I Stopnia Nr 2 w D\u0119bicy",
                "addr:country": "PL",
                "addr:postcode": "39-200",
                "addr:city": "D\u0119bica",
                "addr:street": "Strumskiego",
                "addr:housenumber": "1",
                "addr:teryt:simc": 982233,
                "addr:teryt:sym_ul": 34748,
                "contact:phone": "+48 146819955",
                "contact:email": "zs4.kopernik@gmail.com",
                "contact:website": "http:\/\/www.zsnr4.edu.pl",
                "ref:regon": "691682470",
                "operator": "Powiat D\u0119bicki",
                "operator:type": "government",
                "amenity": "school",
                "note": "Parent RSPO: 23601"
            }
        },
        {
            "id": 75558,
            "type": "Feature",
            "geometry": {
                "type": "Point",
                "coordinates": [
                    21.40792,
                    50.05354
                ]
            },
            "properties": {
                "ref:rspo": 75558,
                "official_name": "Centrum Kszta\u0142cenia Ustawicznego w Zespole Szk\u00f3\u0142 Nr 4 w D\u0119bicy",
                "name": "Centrum Kszta\u0142cenia Ustawicznego w Zespole Szk\u00f3\u0142 Nr 4 w D\u0119bicy",
                "addr:country": "PL",
                "addr:postcode": "39-200",
                "addr:city": "D\u0119bica",
                "addr:street": "Strumskiego",
                "addr:housenumber": "1",
                "addr:teryt:simc": 982233,
                "addr:teryt:sym_ul": 34748,
                "contact:phone": "+48 146819955",
                "contact:email": "zs4.kopernik@gmail.com",
                "contact:website": "http:\/\/www.zsnr4-debica.prv.pl",
                "ref:regon": "000029676",
                "operator": "Powiat D\u0119bicki",
                "operator:type": "government",
                "amenity": "school",
                "fixme": "amenity=school lub amenity=college",
                "note": "Children RSPO: 91917Parent RSPO: 23601"
            }
        },
        {
            "id": 122836,
            "type": "Feature",
            "geometry": {
                "type": "Point",
                "coordinates": [
                    21.40792,
                    50.053509999999996
                ]
            },
            "properties": {
                "ref:rspo": 122836,
                "official_name": "Centrum Kszta\u0142cenia Zawodowego Nr 2 w Zespole Szk\u00f3\u0142 Nr 4 im. Miko\u0142aja Kopernika w D\u0119bicy",
                "name": "Centrum Kszta\u0142cenia Zawodowego Nr 2 w Zespole Szk\u00f3\u0142 Nr 4",
                "addr:country": "PL",
                "addr:postcode": "39-200",
                "addr:city": "D\u0119bica",
                "addr:street": "Strumskiego",
                "addr:housenumber": "1",
                "addr:teryt:simc": 982233,
                "addr:teryt:sym_ul": 34748,
                "contact:phone": "+48 146819955",
                "contact:email": "zs4.kopernik@gmail.com",
                "contact:website": "http:\/\/www.zsnr4.edu.pl",
                "ref:regon": "181098903",
                "operator": "Powiat D\u0119bicki",
                "operator:type": "government",
                "fixme": "w zale\u017cno\u015bci od przedmiotu dzia\u0142alno\u015bci (np. amenity=training + training=*, amenity=dancing_school, amenity=language_school, amenity=music_school) albo amenity=school, amenity=college, albo landuse=education w zale\u017cno\u015bci od tego, jakie plac\u00f3wki wchodz\u0105 w sk\u0142ad zespo\u0142u. Sprawd\u017a, kiedy stosowa\u0107 amenity=* a kiedy landuse=education.",
                "note": "Parent RSPO: 23601"
            }
        },
        {
            "id": 275415,
            "type": "Feature",
            "geometry": {
                "type": "Point",
                "coordinates": [
                    21.40792,
                    50.05348
                ]
            },
            "properties": {
                "isced:level": "3",
                "ref:rspo": 275415,
                "official_name": "Bran\u017cowa Szko\u0142a II Stopnia Nr 1 w D\u0119bicy",
                "name": "Bran\u017cowa Szko\u0142a II Stopnia Nr 1 w D\u0119bicy",
                "addr:country": "PL",
                "addr:postcode": "39-200",
                "addr:city": "D\u0119bica",
                "addr:street": "Strumskiego",
                "addr:housenumber": "1",
                "addr:teryt:simc": 982233,
                "addr:teryt:sym_ul": 34748,
                "contact:phone": "+48 146819955",
                "contact:email": "zs4.kopernik@gmail.com",
                "contact:website": "http:\/\/www.zsnr4.edu.pl",
                "ref:regon": "386915795",
                "operator": "Powiat D\u0119bicki",
                "operator:type": "government",
                "amenity": "school",
                "note": "Parent RSPO: 23601"
            }
        },
        {
            "id": 91917,
            "type": "Feature",
            "geometry": {
                "type": "Point",
                "coordinates": [
                    21.40792,
                    50.05345
                ]
            },
            "properties": {
                "isced:level": "3",
                "ref:rspo": 91917,
                "official_name": "I Liceum Og\u00f3lnokszta\u0142c\u0105ce dla Doros\u0142ych w Zespole Szk\u00f3\u0142 Nr 4 w D\u0119bicy",
                "name": "I Liceum Og\u00f3lnokszta\u0142c\u0105ce dla Doros\u0142ych w Zespole Szk\u00f3\u0142 Nr 4 w D\u0119bicy",
                "addr:country": "PL",
                "addr:postcode": "39-200",
                "addr:city": "D\u0119bica",
                "addr:street": "Strumskiego",
                "addr:housenumber": "1",
                "addr:teryt:simc": 982233,
                "addr:teryt:sym_ul": 34748,
                "contact:phone": "+48 146819955",
                "contact:email": "zs4.kopernik@gmail.com",
                "contact:website": "http:\/\/www.zsnr4-debica.prv.pl",
                "ref:regon": "691792201",
                "operator": "Powiat D\u0119bicki",
                "operator:type": "government",
                "amenity": "school",
                "note": "Parent RSPO: 75558"
            }
        },
        {
            "id": 14851,
            "type": "Feature",
            "geometry": {
                "type": "Point",
                "coordinates": [
                    21.42583,
                    50.05363
                ]
            },
            "properties": {
                "ref:rspo": 14851,
                "official_name": "Zesp\u00f3\u0142 Szk\u00f3\u0142 Zawodowych Nr 1 im. Jana Paw\u0142a II w D\u0119bicy",
                "name": "Zesp\u00f3\u0142 Szk\u00f3\u0142 Zawodowych Nr 1",
                "addr:country": "PL",
                "addr:postcode": "39-200",
                "addr:city": "D\u0119bica",
                "addr:street": "Rzeszowska",
                "addr:housenumber": "78",
                "addr:teryt:simc": 982233,
                "addr:teryt:sym_ul": 19351,
                "contact:phone": "+48 146969280",
                "contact:email": "zsz1debica@gmail.com",
                "contact:website": "http:\/\/www.mechanikdebica.edu.pl",
                "ref:regon": "000179476",
                "ref:vatin": "PL8721032773",
                "operator": "Powiat D\u0119bicki",
                "operator:type": "government",
                "landuse": "education",
                "fixme": "amenity=school, amenity=college albo landuse=education w zale\u017cno\u015bci od tego, jakie plac\u00f3wki wchodz\u0105 w sk\u0142ad zespo\u0142u. Sprawd\u017a, kiedy stosowa\u0107 amenity=* a kiedy landuse=education.",
                "note": "Children RSPO: 17241;17288;132966"
            }
        },
        {
            "id": 278800,
            "type": "Feature",
            "geometry": {
                "type": "Point",
                "coordinates": [
                    21.42583,
                    50.053599999999996
                ]
            },
            "properties": {
                "ref:rspo": 278800,
                "official_name": "Centrum Kszta\u0142cenia Zawodowego w D\u0119bicy",
                "name": "Centrum Kszta\u0142cenia Zawodowego w D\u0119bicy",
                "addr:country": "PL",
                "addr:postcode": "39-200",
                "addr:city": "D\u0119bica",
                "addr:street": "Rzeszowska",
                "addr:housenumber": "78",
                "addr:teryt:simc": 982233,
                "addr:teryt:sym_ul": 19351,
                "contact:email": "pke.debica@gmail.pl",
                "ref:regon": "520077394",
                "operator": "Podkarpacki Klaster Edukacyjny",
                "operator:type": "ngo",
                "fixme": "w zale\u017cno\u015bci od przedmiotu dzia\u0142alno\u015bci (np. amenity=training + training=*, amenity=dancing_school, amenity=language_school, amenity=music_school) albo amenity=school, amenity=college, albo landuse=education w zale\u017cno\u015bci od tego, jakie plac\u00f3wki wchodz\u0105 w sk\u0142ad zespo\u0142u. Sprawd\u017a, kiedy stosowa\u0107 amenity=* a kiedy landuse=education."
            }
        },
        {
            "id": 17241,
            "type": "Feature",
            "geometry": {
                "type": "Point",
                "coordinates": [
                    21.42583,
                    50.05357
                ]
            },
            "properties": {
                "isced:level": "3",
                "ref:rspo": 17241,
                "official_name": "Bran\u017cowa Szko\u0142a I Stopnia Nr 1 w D\u0119bicy",
                "name": "Bran\u017cowa Szko\u0142a I Stopnia Nr 1 w D\u0119bicy",
                "addr:country": "PL",
                "addr:postcode": "39-200",
                "addr:city": "D\u0119bica",
                "addr:street": "Rzeszowska",
                "addr:housenumber": "78",
                "addr:teryt:simc": 982233,
                "addr:teryt:sym_ul": 19351,
                "contact:phone": "+48 146969280",
                "contact:email": "zsz1debica@gmail.com",
                "contact:website": "http:\/\/www.mechanikdebica.edu.pl",
                "ref:regon": "691682139",
                "operator": "Powiat D\u0119bicki",
                "operator:type": "government",
                "amenity": "school",
                "note": "Parent RSPO: 14851"
            }
        },
        {
            "id": 17288,
            "type": "Feature",
            "geometry": {
                "type": "Point",
                "coordinates": [
                    21.42583,
                    50.05354
                ]
            },
            "properties": {
                "isced:level": "3",
                "ref:rspo": 17288,
                "official_name": "Technikum Nr 1",
                "name": "Technikum Nr 1",
                "addr:country": "PL",
                "addr:postcode": "39-200",
                "addr:city": "D\u0119bica",
                "addr:street": "Rzeszowska",
                "addr:housenumber": "78",
                "addr:teryt:simc": 982233,
                "addr:teryt:sym_ul": 19351,
                "contact:phone": "+48 146969280",
                "contact:email": "zsz1debica@gmail.com",
                "contact:website": "http:\/\/www.mechanikdebica.edu.pl",
                "ref:regon": "691682079",
                "operator": "Powiat D\u0119bicki",
                "operator:type": "government",
                "amenity": "school",
                "note": "Parent RSPO: 14851"
            }
        },
        {
            "id": 132966,
            "type": "Feature",
            "geometry": {
                "type": "Point",
                "coordinates": [
                    21.42583,
                    50.053509999999996
                ]
            },
            "properties": {
                "isced:level": "3",
                "ref:rspo": 132966,
                "official_name": "V Liceum Og\u00f3lnokszta\u0142c\u0105ce w D\u0119bicy",
                "name": "V Liceum Og\u00f3lnokszta\u0142c\u0105ce w D\u0119bicy",
                "addr:country": "PL",
                "addr:postcode": "39-200",
                "addr:city": "D\u0119bica",
                "addr:street": "Rzeszowska",
                "addr:housenumber": "78",
                "addr:teryt:simc": 982233,
                "addr:teryt:sym_ul": 19351,
                "contact:phone": "+48 146969280",
                "contact:email": "zsz1debica@gmail.com",
                "contact:website": "http:\/\/www.mechanikdebica.edu.pl",
                "ref:regon": "366415625",
                "operator": "Powiat D\u0119bicki",
                "operator:type": "government",
                "amenity": "school",
                "note": "Parent RSPO: 14851"
            }
        },
        {
            "id": 17482,
            "type": "Feature",
            "geometry": {
                "type": "Point",
                "coordinates": [
                    21.41587,
                    50.05387
                ]
            },
            "properties": {
                "isced:level": "1;2",
                "ref:rspo": 17482,
                "official_name": "Publiczna Szko\u0142a Podstawowa Nr 9 im. D\u0119bickich Saper\u00f3w w D\u0119bicy",
                "name": "Publiczna Szko\u0142a Podstawowa Nr 9",
                "addr:country": "PL",
                "addr:postcode": "39-200",
                "addr:city": "D\u0119bica",
                "addr:street": "Grottgera",
                "addr:housenumber": "3",
                "addr:teryt:simc": 982233,
                "addr:teryt:sym_ul": 6203,
                "contact:phone": "+48 146812602",
                "contact:email": "szkolapodstawowanr9@interia.pl",
                "contact:website": "http:\/\/sp9.com.pl",
                "ref:regon": "001277301",
                "ref:vatin": "PL8721993018",
                "operator": "Gmina Miasta D\u0119bica",
                "operator:type": "government",
                "amenity": "school"
            }
        },
        {
            "id": 123633,
            "type": "Feature",
            "geometry": {
                "type": "Point",
                "coordinates": [
                    21.41587,
                    50.05384
                ]
            },
            "properties": {
                "isced:level": "4",
                "ref:rspo": 123633,
                "official_name": "Szko\u0142a Policealna Psz w D\u0119bicy",
                "name": "Szko\u0142a Policealna Psz w D\u0119bicy",
                "addr:country": "PL",
                "addr:postcode": "39-200",
                "addr:city": "D\u0119bica",
                "addr:street": "Grottgera",
                "addr:housenumber": "3",
                "addr:teryt:simc": 982233,
                "addr:teryt:sym_ul": 6203,
                "contact:phone": "+48 146814028",
                "contact:email": "sekretariat@lodebica.pl",
                "ref:regon": "181132095",
                "operator": "Micha\u0142 Pietraszek",
                "operator:type": "private",
                "amenity": "college"
            }
        },
        {
            "id": 127086,
            "type": "Feature",
            "geometry": {
                "type": "Point",
                "coordinates": [
                    21.41587,
                    50.053810000000006
                ]
            },
            "properties": {
                "ref:rspo": 127086,
                "official_name": "Zak\u0142ad Rozwoju Zawodowego w D\u0119bicy",
                "name": "Zak\u0142ad Rozwoju Zawodowego w D\u0119bicy",
                "addr:country": "PL",
                "addr:postcode": "39-200",
                "addr:city": "D\u0119bica",
                "addr:street": "Grottgera",
                "addr:housenumber": "3",
                "addr:teryt:simc": 982233,
                "addr:teryt:sym_ul": 6203,
                "contact:phone": "+48 606850822",
                "ref:regon": "361082640",
                "operator": "Zak\u0142ad Rozwoju Zawodowego Sp\u00f3\u0142ka Z Ograniczon\u0105 Odpowiedzialno\u015bci\u0105",
                "operator:type": "consortium",
                "fixme": "w zale\u017cno\u015bci od przedmiotu dzia\u0142alno\u015bci (np. amenity=training + training=*, amenity=dancing_school, amenity=language_school, amenity=music_school)"
            }
        },
        {
            "id": 132804,
            "type": "Feature",
            "geometry": {
                "type": "Point",
                "coordinates": [
                    21.41587,
                    50.05378
                ]
            },
            "properties": {
                "ref:rspo": 132804,
                "official_name": "Zesp\u00f3\u0142 Szk\u00f3\u0142 Sigma w D\u0119bicy",
                "name": "Zesp\u00f3\u0142 Szk\u00f3\u0142 Sigma w D\u0119bicy",
                "addr:country": "PL",
                "addr:postcode": "39-200",
                "addr:city": "D\u0119bica",
                "addr:street": "Grottgera",
                "addr:housenumber": "3",
                "addr:teryt:simc": 982233,
                "addr:teryt:sym_ul": 6203,
                "contact:phone": "+48 146564704",
                "contact:email": "debica@sigma.org.pl",
                "contact:website": "http:\/\/www.sigma.org.pl",
                "ref:regon": "366209699",
                "operator": "Centrum Edukacji Sigma Sp\u00f3\u0142ka Z Ograniczon\u0105 Odpowiedzialno\u015bci\u0105",
                "operator:type": "private",
                "landuse": "education",
                "fixme": "amenity=school, amenity=college albo landuse=education w zale\u017cno\u015bci od tego, jakie plac\u00f3wki wchodz\u0105 w sk\u0142ad zespo\u0142u. Sprawd\u017a, kiedy stosowa\u0107 amenity=* a kiedy landuse=education.",
                "note": "Children RSPO: 127729;130076"
            }
        },
        {
            "id": 127729,
            "type": "Feature",
            "geometry": {
                "type": "Point",
                "coordinates": [
                    21.41587,
                    50.05375
                ]
            },
            "properties": {
                "isced:level": "4",
                "ref:rspo": 127729,
                "official_name": "Policealna Szko\u0142a Zawodowa Sigma w D\u0119bicy",
                "name": "Policealna Szko\u0142a Zawodowa Sigma w D\u0119bicy",
                "addr:country": "PL",
                "addr:postcode": "39-200",
                "addr:city": "D\u0119bica",
                "addr:street": "Grottgera",
                "addr:housenumber": "3",
                "addr:teryt:simc": 982233,
                "addr:teryt:sym_ul": 6203,
                "contact:phone": "+48 146702616",
                "contact:email": "debica@sigma.org.pl",
                "contact:website": "http:\/\/www.sigma.org.pl",
                "ref:regon": "361813947",
                "operator": "Centrum Edukacji Sigma Sp\u00f3\u0142ka Z Ograniczon\u0105 Odpowiedzialno\u015bci\u0105",
                "operator:type": "private",
                "amenity": "college",
                "note": "Parent RSPO: 132804"
            }
        },
        {
            "id": 130076,
            "type": "Feature",
            "geometry": {
                "type": "Point",
                "coordinates": [
                    21.41587,
                    50.053720000000006
                ]
            },
            "properties": {
                "isced:level": "3",
                "ref:rspo": 130076,
                "official_name": "Liceum Og\u00f3lnokszta\u0142c\u0105ce dla Doros\u0142ych Sigma w D\u0119bicy",
                "name": "Liceum Og\u00f3lnokszta\u0142c\u0105ce dla Doros\u0142ych Sigma w D\u0119bicy",
                "addr:country": "PL",
                "addr:postcode": "39-200",
                "addr:city": "D\u0119bica",
                "addr:street": "Grottgera",
                "addr:housenumber": "3",
                "addr:teryt:simc": 982233,
                "addr:teryt:sym_ul": 6203,
                "contact:phone": "+48 146564704",
                "contact:email": "debica@sigma.org.pl",
                "contact:website": "http:\/\/www.sigma.org.pl",
                "ref:regon": "363423529",
                "operator": "Centrum Edukacji Sigma Sp\u00f3\u0142ka Z Ograniczon\u0105 Odpowiedzialno\u015bci\u0105",
                "operator:type": "private",
                "amenity": "school",
                "note": "Parent RSPO: 132804"
            }
        },
        {
            "id": 279109,
            "type": "Feature",
            "geometry": {
                "type": "Point",
                "coordinates": [
                    21.43615,
                    50.05391
                ]
            },
            "properties": {
                "ref:rspo": 279109,
                "official_name": "Giganci Programowania D\u0119bica",
                "name": "Giganci Programowania D\u0119bica",
                "addr:country": "PL",
                "addr:postcode": "39-200",
                "addr:city": "D\u0119bica",
                "addr:street": "Rzeszowska",
                "addr:housenumber": "114",
                "addr:teryt:simc": 982233,
                "addr:teryt:sym_ul": 19351,
                "contact:email": "debica@giganciprogramowania.edu.pl",
                "ref:regon": "520673707",
                "operator": "Tomasz Buff",
                "operator:type": "private",
                "fixme": "w zale\u017cno\u015bci od przedmiotu dzia\u0142alno\u015bci (np. amenity=training + training=*, amenity=dancing_school, amenity=language_school, amenity=music_school)"
            }
        },
        {
            "id": 275794,
            "type": "Feature",
            "geometry": {
                "type": "Point",
                "coordinates": [
                    21.43082,
                    50.05438
                ]
            },
            "properties": {
                "ref:rspo": 275794,
                "official_name": "Niepubliczne Przedszkole \"Akademia Maluszka\" Sylwia Chwistek",
                "name": "Niepubliczne Przedszkole \"Akademia Maluszka\" Sylwia Chwistek",
                "addr:country": "PL",
                "addr:postcode": "39-200",
                "addr:city": "D\u0119bica",
                "addr:street": "Rzeszowska",
                "addr:housenumber": "200",
                "addr:teryt:simc": 982233,
                "addr:teryt:sym_ul": 19351,
                "contact:phone": "+48 508134022",
                "contact:email": "biuro@akademiamaluszka.eu",
                "contact:website": "http:\/\/www.akademiamaluszka.eu",
                "ref:regon": "386940310",
                "operator": "Sylwia Chwistek",
                "operator:type": "private",
                "amenity": "kindergarten"
            }
        },
        {
            "id": 6881,
            "type": "Feature",
            "geometry": {
                "type": "Point",
                "coordinates": [
                    21.399099349976,
                    50.054401397705
                ]
            },
            "properties": {
                "ref:rspo": 6881,
                "official_name": "Centrum Kszta\u0142cenia Zawodowego Nr 1 w D\u0119bicy",
                "name": "Centrum Kszta\u0142cenia Zawodowego Nr 1 w D\u0119bicy",
                "addr:country": "PL",
                "addr:postcode": "39-200",
                "addr:city": "D\u0119bica",
                "addr:street": "Lisa",
                "addr:housenumber": "2",
                "addr:teryt:simc": 982233,
                "addr:teryt:sym_ul": 11162,
                "contact:phone": "+48 146813150",
                "contact:email": "sekretariat@ckp.debica.pl",
                "contact:website": "http:\/\/www.ckp.debica.pl",
                "ref:regon": "690725533",
                "ref:vatin": "PL8722064841",
                "operator": "Powiat D\u0119bicki",
                "operator:type": "government",
                "fixme": "w zale\u017cno\u015bci od przedmiotu dzia\u0142alno\u015bci (np. amenity=training + training=*, amenity=dancing_school, amenity=language_school, amenity=music_school) albo amenity=school, amenity=college, albo landuse=education w zale\u017cno\u015bci od tego, jakie plac\u00f3wki wchodz\u0105 w sk\u0142ad zespo\u0142u. Sprawd\u017a, kiedy stosowa\u0107 amenity=* a kiedy landuse=education."
            }
        },
        {
            "id": 6887,
            "type": "Feature",
            "geometry": {
                "type": "Point",
                "coordinates": [
                    21.399099349976,
                    50.054371397705
                ]
            },
            "properties": {
                "ref:rspo": 6887,
                "official_name": "Zesp\u00f3\u0142 Szk\u00f3\u0142 Nr 2 im. Eugeniusza Kwiatkowskiego w D\u0119bicy",
                "name": "Zesp\u00f3\u0142 Szk\u00f3\u0142 Nr 2",
                "addr:country": "PL",
                "addr:postcode": "39-200",
                "addr:city": "D\u0119bica",
                "addr:street": "Lisa",
                "addr:housenumber": "2",
                "addr:teryt:simc": 982233,
                "addr:teryt:sym_ul": 11162,
                "contact:phone": "+48 146813574",
                "contact:email": "dyrekcja@kwiatek.edu.pl",
                "contact:website": "http:\/\/www.kwiatek.edu.pl",
                "ref:regon": "000647701",
                "ref:vatin": "PL8721050742",
                "operator": "Powiat D\u0119bicki",
                "operator:type": "government",
                "landuse": "education",
                "fixme": "amenity=school, amenity=college albo landuse=education w zale\u017cno\u015bci od tego, jakie plac\u00f3wki wchodz\u0105 w sk\u0142ad zespo\u0142u. Sprawd\u017a, kiedy stosowa\u0107 amenity=* a kiedy landuse=education.",
                "note": "Children RSPO: 7844;7845"
            }
        },
        {
            "id": 17685,
            "type": "Feature",
            "geometry": {
                "type": "Point",
                "coordinates": [
                    21.399099349976,
                    50.054341397705
                ]
            },
            "properties": {
                "isced:level": "1;2",
                "ref:rspo": 17685,
                "official_name": "Szko\u0142a Podstawowa Nr 10 w D\u0119bicy",
                "name": "Szko\u0142a Podstawowa Nr 10 w D\u0119bicy",
                "addr:country": "PL",
                "addr:postcode": "39-200",
                "addr:city": "D\u0119bica",
                "addr:street": "Huberta Wagnera",
                "addr:housenumber": "4",
                "addr:teryt:simc": 982233,
                "addr:teryt:sym_ul": 35462,
                "contact:phone": "+48 146969990",
                "contact:email": "sekretariat@szkolasp10.nazwa.pl",
                "ref:regon": "005696762",
                "ref:vatin": "PL8721992993",
                "operator": "Gmina Miasta D\u0119bica",
                "operator:type": "government",
                "amenity": "school"
            }
        },
        {
            "id": 22619,
            "type": "Feature",
            "geometry": {
                "type": "Point",
                "coordinates": [
                    21.399099349976,
                    50.054311397705
                ]
            },
            "properties": {
                "isced:level": "3",
                "ref:rspo": 22619,
                "official_name": "Liceum Og\u00f3lnokszta\u0142c\u0105ce dla Doros\u0142ych w D\u0119bicy Zak\u0142adu Doskonalenia Zawodowego w Rzeszowie",
                "name": "Liceum Og\u00f3lnokszta\u0142c\u0105ce dla Doros\u0142ych w D\u0119bicy Zak\u0142adu Doskonalenia Zawodowego w Rzeszowie",
                "addr:country": "PL",
                "addr:postcode": "39-200",
                "addr:city": "D\u0119bica",
                "addr:street": "Huberta Wagnera",
                "addr:housenumber": "4",
                "addr:teryt:simc": 982233,
                "addr:teryt:sym_ul": 35462,
                "contact:phone": "+48 146813780",
                "contact:email": "debica@zdz.rzeszow.pl",
                "ref:regon": "180894124",
                "operator": "Zak\u0142ad Doskonalenia Zawodowego W Rzeszowie",
                "operator:type": "ngo",
                "amenity": "school"
            }
        },
        {
            "id": 26294,
            "type": "Feature",
            "geometry": {
                "type": "Point",
                "coordinates": [
                    21.399099349976,
                    50.054281397705
                ]
            },
            "properties": {
                "ref:rspo": 26294,
                "official_name": "Zak\u0142ad Doskonalenia Zawodowego w Rzeszowie O\u015brodek Kszta\u0142cenia Zawodowego w D\u0119bicy",
                "name": "Zak\u0142ad Doskonalenia Zawodowego w Rzeszowie O\u015brodek Kszta\u0142cenia Zawodowego w D\u0119bicy",
                "addr:country": "PL",
                "addr:postcode": "39-200",
                "addr:city": "D\u0119bica",
                "addr:street": "Huberta Wagnera",
                "addr:housenumber": "4",
                "addr:teryt:simc": 982233,
                "addr:teryt:sym_ul": 35462,
                "contact:phone": "+48 146813780",
                "contact:email": "debica@zdz.rzeszow.pl",
                "ref:regon": "180895951",
                "operator": "Zak\u0142ad Doskonalenia Zawodowego W Rzeszowie",
                "operator:type": "ngo",
                "fixme": "w zale\u017cno\u015bci od przedmiotu dzia\u0142alno\u015bci (np. amenity=training + training=*, amenity=dancing_school, amenity=language_school, amenity=music_school)"
            }
        },
        {
            "id": 120918,
            "type": "Feature",
            "geometry": {
                "type": "Point",
                "coordinates": [
                    21.399099349976,
                    50.054251397705
                ]
            },
            "properties": {
                "isced:level": "3",
                "ref:rspo": 120918,
                "official_name": "Bran\u017cowa Szko\u0142a I Stopnia w D\u0119bicy Zak\u0142adu Doskonalenia Zawodowego w Rzeszowie",
                "name": "Bran\u017cowa Szko\u0142a I Stopnia w D\u0119bicy Zak\u0142adu Doskonalenia Zawodowego w Rzeszowie",
                "addr:country": "PL",
                "addr:postcode": "39-200",
                "addr:city": "D\u0119bica",
                "addr:street": "Huberta Wagnera",
                "addr:housenumber": "4",
                "addr:teryt:simc": 982233,
                "addr:teryt:sym_ul": 35462,
                "contact:phone": "+48 146813780",
                "contact:email": "zszdebica@zdz.rzeszow.pl",
                "contact:website": "http:\/\/www.zdz.rzeszow.pl",
                "ref:regon": "181044209",
                "operator": "Zak\u0142ad Doskonalenia Zawodowego W Rzeszowie",
                "operator:type": "ngo",
                "amenity": "school"
            }
        },
        {
            "id": 277211,
            "type": "Feature",
            "geometry": {
                "type": "Point",
                "coordinates": [
                    21.399099349976,
                    50.054221397705
                ]
            },
            "properties": {
                "ref:rspo": 277211,
                "official_name": "O\u015brodek Szkoleniowy Sigma w D\u0119bicy",
                "name": "O\u015brodek Szkoleniowy Sigma w D\u0119bicy",
                "addr:country": "PL",
                "addr:postcode": "39-200",
                "addr:city": "D\u0119bica",
                "addr:street": "Raczy\u0144skich",
                "addr:housenumber": "12a",
                "addr:teryt:simc": 982233,
                "addr:teryt:sym_ul": 18284,
                "contact:email": "debica@sigma.org.pl",
                "contact:website": "http:\/\/www.sigma.org.pl",
                "ref:regon": "388370839",
                "operator": "Centrum Edukacji Sigma Sp\u00f3\u0142ka Z Ograniczon\u0105 Odpowiedzialno\u015bci\u0105",
                "operator:type": "private",
                "fixme": "w zale\u017cno\u015bci od przedmiotu dzia\u0142alno\u015bci (np. amenity=training + training=*, amenity=dancing_school, amenity=language_school, amenity=music_school)"
            }
        },
        {
            "id": 7844,
            "type": "Feature",
            "geometry": {
                "type": "Point",
                "coordinates": [
                    21.399099349976,
                    50.054191397705
                ]
            },
            "properties": {
                "isced:level": "3",
                "ref:rspo": 7844,
                "official_name": "Technikum Nr 2 w D\u0119bicy",
                "name": "Technikum Nr 2 w D\u0119bicy",
                "addr:country": "PL",
                "addr:postcode": "39-200",
                "addr:city": "D\u0119bica",
                "addr:street": "Lisa",
                "addr:housenumber": "2",
                "addr:teryt:simc": 982233,
                "addr:teryt:sym_ul": 11162,
                "contact:phone": "+48 146813574",
                "contact:email": "dyrekcja@kwiatek.edu.pl",
                "contact:website": "http:\/\/www.kwiatek.edu.pl",
                "ref:regon": "691682263",
                "operator": "Powiat D\u0119bicki",
                "operator:type": "government",
                "amenity": "school",
                "note": "Parent RSPO: 6887"
            }
        },
        {
            "id": 7845,
            "type": "Feature",
            "geometry": {
                "type": "Point",
                "coordinates": [
                    21.399099349976,
                    50.054161397705
                ]
            },
            "properties": {
                "isced:level": "3",
                "ref:rspo": 7845,
                "official_name": "Iii Liceum Og\u00f3lnokszta\u0142c\u0105ce w D\u0119bicy",
                "name": "Iii Liceum Og\u00f3lnokszta\u0142c\u0105ce w D\u0119bicy",
                "addr:country": "PL",
                "addr:postcode": "39-200",
                "addr:city": "D\u0119bica",
                "addr:street": "Lisa",
                "addr:housenumber": "2",
                "addr:teryt:simc": 982233,
                "addr:teryt:sym_ul": 11162,
                "contact:phone": "+48 146813574",
                "contact:email": "dyrekcja@kwiatek.edu.pl",
                "contact:website": "http:\/\/www.kwiatek.edu.pl",
                "ref:regon": "691682228",
                "operator": "Powiat D\u0119bicki",
                "operator:type": "government",
                "amenity": "school",
                "note": "Parent RSPO: 6887"
            }
        },
        {
            "id": 18899,
            "type": "Feature",
            "geometry": {
                "type": "Point",
                "coordinates": [
                    21.4043199,
                    50.05626
                ]
            },
            "properties": {
                "ref:rspo": 18899,
                "official_name": "Przedszkole Miejskie Nr 8 w D\u0119bicy",
                "name": "Przedszkole Miejskie Nr 8 w D\u0119bicy",
                "addr:country": "PL",
                "addr:postcode": "39-200",
                "addr:city": "D\u0119bica",
                "addr:street": "Szkolna",
                "addr:housenumber": "4",
                "addr:teryt:simc": 982233,
                "addr:teryt:sym_ul": 21970,
                "contact:phone": "+48 146814179",
                "contact:email": "przedszkolenr8@onet.eu",
                "ref:regon": "851654352",
                "ref:vatin": "PL8721992906",
                "operator": "Gmina Miasta D\u0119bica",
                "operator:type": "government",
                "amenity": "kindergarten"
            }
        },
        {
            "id": 18901,
            "type": "Feature",
            "geometry": {
                "type": "Point",
                "coordinates": [
                    21.42777,
                    50.05644
                ]
            },
            "properties": {
                "ref:rspo": 18901,
                "official_name": "Przedszkole Miejskie Nr 12 w D\u0119bicy",
                "name": "Przedszkole Miejskie Nr 12 w D\u0119bicy",
                "addr:country": "PL",
                "addr:postcode": "39-200",
                "addr:city": "D\u0119bica",
                "addr:street": "Cmentarna",
                "addr:housenumber": "56",
                "addr:teryt:simc": 982233,
                "addr:teryt:sym_ul": 3114,
                "contact:phone": "+48 146812594",
                "contact:email": "pm12.debica@op.pl",
                "ref:regon": "851654412",
                "ref:vatin": "PL8721992823",
                "operator": "Gmina Miasta D\u0119bica",
                "operator:type": "government",
                "amenity": "kindergarten"
            }
        },
        {
            "id": 17216,
            "type": "Feature",
            "geometry": {
                "type": "Point",
                "coordinates": [
                    21.4018799,
                    50.05678
                ]
            },
            "properties": {
                "isced:level": "1;2",
                "ref:rspo": 17216,
                "official_name": "Publiczna Szko\u0142a Podstawowa Nr 5 w D\u0119bicy",
                "name": "Publiczna Szko\u0142a Podstawowa Nr 5 w D\u0119bicy",
                "addr:country": "PL",
                "addr:postcode": "39-200",
                "addr:city": "D\u0119bica",
                "addr:street": "Ignacego Paderewskiego",
                "addr:housenumber": "4",
                "addr:teryt:simc": 982233,
                "addr:teryt:sym_ul": 15524,
                "contact:phone": "+48 146814180",
                "contact:email": "sp5debica@poczta.onet.pl",
                "ref:regon": "001202220",
                "ref:vatin": "PL8722274320",
                "operator": "Gmina Miasta D\u0119bica",
                "operator:type": "government",
                "amenity": "school"
            }
        },
        {
            "id": 264269,
            "type": "Feature",
            "geometry": {
                "type": "Point",
                "coordinates": [
                    21.4018799,
                    50.05675
                ]
            },
            "properties": {
                "isced:level": "1;2",
                "ref:rspo": 264269,
                "official_name": "Szko\u0142a Podstawowa Mistrzostwa Sportowego \"Lks Igloopol\" D\u0119bica",
                "name": "Szko\u0142a Podstawowa Mistrzostwa Sportowego \"Lks Igloopol\" D\u0119bica",
                "addr:country": "PL",
                "addr:postcode": "39-200",
                "addr:city": "D\u0119bica",
                "addr:street": "Ignacego Paderewskiego",
                "addr:housenumber": "4",
                "addr:teryt:simc": 982233,
                "addr:teryt:sym_ul": 15524,
                "contact:phone": "+48 509126544",
                "contact:email": "sekretariat.sms.debica@onet.pl",
                "ref:regon": "368297905",
                "operator": "Piotr Drobot",
                "operator:type": "private",
                "amenity": "school"
            }
        },
        {
            "id": 6880,
            "type": "Feature",
            "geometry": {
                "type": "Point",
                "coordinates": [
                    21.39697,
                    50.05845
                ]
            },
            "properties": {
                "isced:level": "3",
                "ref:rspo": 6880,
                "official_name": "Ii Liceum Og\u00f3lnokszta\u0142c\u0105ce im. Ksi\u0119dza Jana Twardowskiego",
                "name": "Ii Liceum Og\u00f3lnokszta\u0142c\u0105ce",
                "addr:country": "PL",
                "addr:postcode": "39-200",
                "addr:city": "D\u0119bica",
                "addr:street": "Sportowa",
                "addr:housenumber": "24",
                "addr:teryt:simc": 982233,
                "addr:teryt:sym_ul": 20683,
                "contact:phone": "+48 146819106",
                "contact:email": "2lo-debica@ppe.edu.pl",
                "contact:website": "http:\/\/twardowski.edu.pl",
                "ref:regon": "180128111",
                "ref:vatin": "PL8722261636",
                "operator": "Powiat D\u0119bicki",
                "operator:type": "government",
                "amenity": "school"
            }
        },
        {
            "id": 276748,
            "type": "Feature",
            "geometry": {
                "type": "Point",
                "coordinates": [
                    21.39697,
                    50.05842
                ]
            },
            "properties": {
                "isced:level": "3",
                "ref:rspo": 276748,
                "official_name": "Liceum Og\u00f3lnokszta\u0142c\u0105ce Mistrzostwa Sportowego Igloopol D\u0119bica",
                "name": "Liceum Og\u00f3lnokszta\u0142c\u0105ce Mistrzostwa Sportowego Igloopol D\u0119bica",
                "addr:country": "PL",
                "addr:postcode": "39-200",
                "addr:city": "D\u0119bica",
                "addr:street": "Sportowa",
                "addr:housenumber": "24",
                "addr:teryt:simc": 982233,
                "addr:teryt:sym_ul": 20683,
                "contact:email": "sekretariat@lomsdebica.edu.pl",
                "ref:regon": "387482447",
                "ref:vatin": "PL8722086914",
                "operator": "Bogdan Saletnik",
                "operator:type": "private",
                "amenity": "school"
            }
        },
        {
            "id": 120893,
            "type": "Feature",
            "geometry": {
                "type": "Point",
                "coordinates": [
                    21.3974,
                    50.0589
                ]
            },
            "properties": {
                "ref:rspo": 120893,
                "official_name": "Szko\u0142a J\u0119zyk\u00f3w \"Batrel\" w D\u0119bicy",
                "name": "Szko\u0142a J\u0119zyk\u00f3w \"Batrel\" w D\u0119bicy",
                "addr:country": "PL",
                "addr:postcode": "39-200",
                "addr:city": "D\u0119bica",
                "addr:street": "Sportowa",
                "addr:housenumber": "26",
                "addr:teryt:simc": 982233,
                "addr:teryt:sym_ul": 20683,
                "contact:phone": "+48 143070600",
                "contact:email": "batrel@vp.pl",
                "contact:website": "http:\/\/www.batrel.pl",
                "ref:regon": "181042860",
                "operator": "Andrzej Bartuzi",
                "operator:type": "private",
                "fixme": "w zale\u017cno\u015bci od przedmiotu dzia\u0142alno\u015bci (np. amenity=training + training=*, amenity=dancing_school, amenity=language_school, amenity=music_school)"
            }
        },
        {
            "id": 24265,
            "type": "Feature",
            "geometry": {
                "type": "Point",
                "coordinates": [
                    21.4113,
                    50.06004
                ]
            },
            "properties": {
                "ref:rspo": 24265,
                "official_name": "Niepubliczne Przedszkole Weldon Kids",
                "name": "Niepubliczne Przedszkole Weldon Kids",
                "addr:country": "PL",
                "addr:postcode": "39-200",
                "addr:city": "D\u0119bica",
                "addr:street": "Ratuszowa",
                "addr:housenumber": "9",
                "addr:teryt:simc": 982233,
                "addr:teryt:sym_ul": 18489,
                "contact:phone": "+48 146960121",
                "contact:email": "przedszkole@weldonkids.pl",
                "ref:regon": "180894762",
                "operator": "Weldon Sp\u00f3\u0142ka Z Ograniczon\u0105 Odpowiedzialno\u015bci\u0105",
                "operator:type": "private",
                "amenity": "kindergarten"
            }
        },
        {
            "id": 124356,
            "type": "Feature",
            "geometry": {
                "type": "Point",
                "coordinates": [
                    21.4113,
                    50.06001
                ]
            },
            "properties": {
                "isced:level": "1;2",
                "ref:rspo": 124356,
                "official_name": "Niepubliczna Szko\u0142a Podstawowa Weldon School",
                "name": "Niepubliczna Szko\u0142a Podstawowa Weldon School",
                "addr:country": "PL",
                "addr:postcode": "39-200",
                "addr:city": "D\u0119bica",
                "addr:street": "Ratuszowa",
                "addr:housenumber": "9",
                "addr:teryt:simc": 982233,
                "addr:teryt:sym_ul": 18489,
                "contact:phone": "+48 146960121",
                "contact:email": "szkola@weldonschool.pl",
                "contact:website": "http:\/\/www.weldonschool.pl",
                "ref:regon": "181145637",
                "operator": "Centrum Iq Sp\u00f3\u0142ka Z Ograniczon\u0105 Odpowiedzialno\u015bci\u0105",
                "operator:type": "private",
                "amenity": "school"
            }
        },
        {
            "id": 275874,
            "type": "Feature",
            "geometry": {
                "type": "Point",
                "coordinates": [
                    21.4113,
                    50.05998
                ]
            },
            "properties": {
                "ref:rspo": 275874,
                "official_name": "Niepubliczne Przedszkole Centrum Kids w D\u0119bicy",
                "name": "Niepubliczne Przedszkole Centrum Kids w D\u0119bicy",
                "addr:country": "PL",
                "addr:postcode": "39-200",
                "addr:city": "D\u0119bica",
                "addr:street": "Ratuszowa",
                "addr:housenumber": "9",
                "addr:teryt:simc": 982233,
                "addr:teryt:sym_ul": 18489,
                "contact:email": "centrumkids@biofeedback-pcb.pl",
                "contact:website": "http:\/\/www.biofeedback.pl",
                "ref:regon": "386947246",
                "operator": "Centrum Iq Sp\u00f3\u0142ka Z Ograniczon\u0105 Odpowiedzialno\u015bci\u0105",
                "operator:type": "private",
                "amenity": "kindergarten"
            }
        },
        {
            "id": 26499,
            "type": "Feature",
            "geometry": {
                "type": "Point",
                "coordinates": [
                    21.40644,
                    50.06013
                ]
            },
            "properties": {
                "ref:rspo": 26499,
                "official_name": "O\u015brodek Szkolenia Zawodowego Edukator",
                "name": "O\u015brodek Szkolenia Zawodowego Edukator",
                "addr:country": "PL",
                "addr:postcode": "39-200",
                "addr:city": "D\u0119bica",
                "addr:street": "Tadeusza Ko\u015bciuszki",
                "addr:housenumber": "73",
                "addr:teryt:simc": 982233,
                "addr:teryt:sym_ul": 9572,
                "contact:phone": "+48 146816006",
                "contact:email": "info@edukator.net",
                "contact:website": "http:\/\/www.edukator.net",
                "ref:regon": "180896028",
                "ref:vatin": "PL8181477737",
                "operator": "\u0141ukasz Rokosz",
                "operator:type": "private",
                "fixme": "w zale\u017cno\u015bci od przedmiotu dzia\u0142alno\u015bci (np. amenity=training + training=*, amenity=dancing_school, amenity=language_school, amenity=music_school)"
            }
        },
        {
            "id": 18900,
            "type": "Feature",
            "geometry": {
                "type": "Point",
                "coordinates": [
                    21.40466,
                    50.06122
                ]
            },
            "properties": {
                "ref:rspo": 18900,
                "official_name": "Przedszkole Miejskie Nr 11 w D\u0119bicy",
                "name": "Przedszkole Miejskie Nr 11 w D\u0119bicy",
                "addr:country": "PL",
                "addr:postcode": "39-200",
                "addr:city": "D\u0119bica",
                "addr:street": "3 Maja",
                "addr:housenumber": "14",
                "addr:teryt:simc": 982233,
                "addr:teryt:sym_ul": 11937,
                "contact:phone": "+48 146814191",
                "contact:email": "przedszkole_nr11@vp.pl",
                "ref:regon": "851654406",
                "ref:vatin": "PL8721992869",
                "operator": "Gmina Miasta D\u0119bica",
                "operator:type": "government",
                "amenity": "kindergarten"
            }
        },
        {
            "id": 268586,
            "type": "Feature",
            "geometry": {
                "type": "Point",
                "coordinates": [
                    21.44576,
                    50.06147
                ]
            },
            "properties": {
                "ref:rspo": 268586,
                "official_name": "Przedszkole Artystyczne Baltima Montessori w D\u0119bicy",
                "name": "Przedszkole Artystyczne Baltima Montessori w D\u0119bicy",
                "addr:country": "PL",
                "addr:postcode": "39-200",
                "addr:city": "D\u0119bica",
                "addr:street": "Przemys\u0142owa",
                "addr:housenumber": "1",
                "addr:teryt:simc": 982233,
                "addr:teryt:sym_ul": 17742,
                "contact:phone": "+48 692037591",
                "contact:email": "pietruszewskaanna034@gmail.com",
                "contact:website": "http:\/\/przedszkole-baltima.pl",
                "ref:regon": "381207993",
                "operator": "Edukacja Artystyczna \"Baltima\" Anna Pietruszewska-Sarama",
                "operator:type": "consortium",
                "amenity": "kindergarten"
            }
        },
        {
            "id": 55972,
            "type": "Feature",
            "geometry": {
                "type": "Point",
                "coordinates": [
                    21.43542,
                    50.06195
                ]
            },
            "properties": {
                "ref:rspo": 55972,
                "official_name": "Zak\u0142ad Szkolenia Zawodowego w D\u0119bicy",
                "name": "Zak\u0142ad Szkolenia Zawodowego w D\u0119bicy",
                "addr:country": "PL",
                "addr:postcode": "39-200",
                "addr:city": "D\u0119bica",
                "addr:street": "Sandomierska",
                "addr:housenumber": "39",
                "addr:teryt:simc": 982233,
                "addr:teryt:sym_ul": 19491,
                "contact:phone": "+48 146803700",
                "contact:email": "tabor@tabor-debica.pl",
                "contact:website": "http:\/\/www.tabor-debica.pl",
                "ref:regon": "180900445",
                "operator": "Tabor D\u0119bica Sp\u00f3\u0142ka Z Ograniczon\u0105 Odpowiedzialno\u015bci\u0105",
                "operator:type": "private",
                "fixme": "w zale\u017cno\u015bci od przedmiotu dzia\u0142alno\u015bci (np. amenity=training + training=*, amenity=dancing_school, amenity=language_school, amenity=music_school)"
            }
        },
        {
            "id": 55968,
            "type": "Feature",
            "geometry": {
                "type": "Point",
                "coordinates": [
                    21.44316,
                    50.07684
                ]
            },
            "properties": {
                "ref:rspo": 55968,
                "official_name": "Plac\u00f3wka Szkoleniowa Przy Wytw\u00f3rni Urz\u0105dze\u0144 Ch\u0142odniczych \"Pzl-D\u0119bica\"S.a.",
                "name": "Plac\u00f3wka Szkoleniowa Przy Wytw\u00f3rni Urz\u0105dze\u0144 Ch\u0142odniczych \"Pzl-D\u0119bica\"S.a.",
                "addr:country": "PL",
                "addr:postcode": "39-200",
                "addr:city": "D\u0119bica",
                "addr:street": "Metalowc\u00f3w",
                "addr:housenumber": "25",
                "addr:teryt:simc": 982233,
                "addr:teryt:sym_ul": 12632,
                "contact:phone": "+48 146807241",
                "contact:email": "kadry@pzl-debica.com.pl",
                "contact:website": "http:\/\/www.pzl-debica.com.pl",
                "ref:regon": "180900400",
                "operator": "Adam Pa\u0142ucha",
                "operator:type": "private",
                "fixme": "w zale\u017cno\u015bci od przedmiotu dzia\u0142alno\u015bci (np. amenity=training + training=*, amenity=dancing_school, amenity=language_school, amenity=music_school)"
            }
        }
    ]
}