{
    "type": "FeatureCollection",
    "features": [
        {
            "id": 21627,
            "type": "Feature",
            "geometry": {
                "type": "Point",
                "coordinates": [
                    18.29263,
                    54.5406
                ]
            },
            "properties": {
                "ref:rspo": 21627,
                "official_name": "Niepubliczne Przedszkole Pluszak w Nowym Dworze Wejherowskim",
                "name": "Niepubliczne Przedszkole Pluszak w Nowym Dworze Wejherowskim",
                "addr:country": "PL",
                "addr:postcode": "84-206",
                "addr:city": "Nowy Dw\u00f3r Wejherowski",
                "addr:street": "Zbychowska",
                "addr:housenumber": "1",
                "addr:teryt:simc": 25921,
                "addr:teryt:sym_ul": 176667,
                "contact:phone": "+48 794422227",
                "contact:email": "sekretariat@przedszkolepluszak.pl",
                "ref:regon": "221750974",
                "operator": "Mirela Fiedorowicz",
                "operator:type": "private",
                "amenity": "kindergarten"
            }
        },
        {
            "id": 4153,
            "type": "Feature",
            "geometry": {
                "type": "Point",
                "coordinates": [
                    18.28802,
                    54.54155
                ]
            },
            "properties": {
                "isced:level": "1;2",
                "ref:rspo": 4153,
                "official_name": "Szko\u0142a Podstawowa im. Alojzego Nagla w Nowym Dworze Wejherowskim",
                "name": "Szko\u0142a Podstawowa",
                "addr:country": "PL",
                "addr:postcode": "84-206",
                "addr:city": "Nowy Dw\u00f3r Wejherowski",
                "addr:street": "Szkolna",
                "addr:housenumber": "1",
                "addr:teryt:simc": 21970,
                "addr:teryt:sym_ul": 176667,
                "contact:phone": "+48 586728206",
                "contact:email": "sspnd@wp.pl",
                "ref:regon": "190403294",
                "ref:vatin": "PL5881842806",
                "operator": "Gmina Wejherowo",
                "operator:type": "government",
                "amenity": "school"
            }
        },
        {
            "id": 21758,
            "type": "Feature",
            "geometry": {
                "type": "Point",
                "coordinates": [
                    18.19963,
                    54.57572
                ]
            },
            "properties": {
                "isced:level": "1;2",
                "ref:rspo": 21758,
                "official_name": "Szko\u0142a Podstawowa im.por. Jana Penconka w Gowinie",
                "name": "Szko\u0142a Podstawowa im.por. Jana Penconka w Gowinie",
                "addr:country": "PL",
                "addr:postcode": "84-215",
                "addr:city": "Gowino",
                "addr:street": "Wejherowska",
                "addr:housenumber": "60",
                "addr:teryt:simc": 23842,
                "addr:teryt:sym_ul": 1066811,
                "contact:phone": "+48 585720629",
                "contact:email": "ssp-gowino@wp.pl",
                "ref:regon": "190403213",
                "ref:vatin": "PL5881842812",
                "operator": "Gmina Wejherowo",
                "operator:type": "government",
                "amenity": "school"
            }
        },
        {
            "id": 269653,
            "type": "Feature",
            "geometry": {
                "type": "Point",
                "coordinates": [
                    18.1542,
                    54.60141
                ]
            },
            "properties": {
                "ref:rspo": 269653,
                "official_name": "Niepubliczne Przedszkole Matematyczno-J\u0119zykowe \"Bajkowa Dolina\" w Go\u015bcicinie",
                "name": "Niepubliczne Przedszkole Matematyczno-J\u0119zykowe \"Bajkowa Dolina\" w Go\u015bcicinie",
                "addr:country": "PL",
                "addr:postcode": "84-241",
                "addr:city": "Go\u015bcicino",
                "addr:street": "Wiejska",
                "addr:housenumber": "8b",
                "addr:teryt:simc": 24048,
                "addr:teryt:sym_ul": 176503,
                "contact:phone": "+48 514471202",
                "contact:email": "przedszkole.bajkowadolina@wp.pl",
                "ref:regon": "381635714",
                "operator": "Sylwia Lewandowska",
                "operator:type": "private",
                "amenity": "kindergarten"
            }
        },
        {
            "id": 275401,
            "type": "Feature",
            "geometry": {
                "type": "Point",
                "coordinates": [
                    18.16241,
                    54.60488
                ]
            },
            "properties": {
                "ref:rspo": 275401,
                "official_name": "Publiczne Przedszkole Megamocni w Go\u015bcicinie",
                "name": "Publiczne Przedszkole Megamocni w Go\u015bcicinie",
                "addr:country": "PL",
                "addr:postcode": "84-241",
                "addr:city": "Go\u015bcicino",
                "addr:street": "Fabryczna",
                "addr:housenumber": "5",
                "addr:teryt:simc": 4863,
                "addr:teryt:sym_ul": 176503,
                "contact:phone": "+48 511034270",
                "contact:email": "goscicino@megamocni.edu.pl",
                "ref:regon": "386930412",
                "operator": "Juneco Sp\u00f3\u0142ka Z Ograniczon\u0105 Odpowiedzialno\u015bci\u0105",
                "operator:type": "private",
                "amenity": "kindergarten"
            }
        },
        {
            "id": 278674,
            "type": "Feature",
            "geometry": {
                "type": "Point",
                "coordinates": [
                    18.15373,
                    54.60595
                ]
            },
            "properties": {
                "ref:rspo": 278674,
                "official_name": "Niepubliczne Przedszkole Mamma Mia w Go\u015bcicinie",
                "name": "Niepubliczne Przedszkole Mamma Mia w Go\u015bcicinie",
                "addr:country": "PL",
                "addr:postcode": "84-241",
                "addr:city": "Go\u015bcicino",
                "addr:street": "Jarz\u0119binowa",
                "addr:housenumber": "5",
                "addr:teryt:simc": 7290,
                "addr:teryt:sym_ul": 176503,
                "contact:email": "przedszkolemammamia@gmail.com",
                "contact:website": "http:\/\/www.przedszkolemammamia.pl",
                "ref:regon": "520037868",
                "operator": "Gra\u017cyna Lessnau",
                "operator:type": "private",
                "amenity": "kindergarten"
            }
        },
        {
            "id": 22189,
            "type": "Feature",
            "geometry": {
                "type": "Point",
                "coordinates": [
                    18.162220001221,
                    54.606960296631
                ]
            },
            "properties": {
                "ref:rspo": 22189,
                "official_name": "O\u015brodek Szkolenia Kursowego",
                "name": "O\u015brodek Szkolenia Kursowego",
                "addr:country": "PL",
                "addr:postcode": "84-241",
                "addr:city": "Go\u015bcicino",
                "addr:street": "Miko\u0142aja",
                "addr:housenumber": "2",
                "addr:teryt:simc": 12883,
                "addr:teryt:sym_ul": 176503,
                "contact:phone": "+48 585723465",
                "contact:email": "biuro@uprawnieniaikursy.pl",
                "contact:website": "http:\/\/www.uprawnieniaikursy.pl",
                "ref:regon": "221751608",
                "ref:vatin": "PL5881114515",
                "operator": "Brunon Sychowski",
                "operator:type": "private",
                "fixme": "w zale\u017cno\u015bci od przedmiotu dzia\u0142alno\u015bci (np. amenity=training + training=*, amenity=dancing_school, amenity=language_school, amenity=music_school)"
            }
        },
        {
            "id": 263109,
            "type": "Feature",
            "geometry": {
                "type": "Point",
                "coordinates": [
                    18.162220001221,
                    54.606930296631
                ]
            },
            "properties": {
                "ref:rspo": 263109,
                "official_name": "Welders Factory",
                "name": "Welders Factory",
                "addr:country": "PL",
                "addr:postcode": "84-241",
                "addr:city": "Go\u015bcicino",
                "addr:street": "Miko\u0142aja",
                "addr:housenumber": "14",
                "addr:teryt:simc": 12883,
                "addr:teryt:sym_ul": 176503,
                "contact:phone": "+48 583514701",
                "contact:email": "korneljasinski@weldersfactory.com",
                "contact:website": "http:\/\/www.weldersfactory.com",
                "ref:regon": "368106880",
                "ref:vatin": "PL5832919791",
                "operator": "Kornel Jasi\u0144ski",
                "operator:type": "private",
                "fixme": "w zale\u017cno\u015bci od przedmiotu dzia\u0142alno\u015bci (np. amenity=training + training=*, amenity=dancing_school, amenity=language_school, amenity=music_school)"
            }
        },
        {
            "id": 4152,
            "type": "Feature",
            "geometry": {
                "type": "Point",
                "coordinates": [
                    18.16321,
                    54.60814
                ]
            },
            "properties": {
                "isced:level": "1;2",
                "ref:rspo": 4152,
                "official_name": "Szko\u0142a Podstawowa im.mjr.henryka Sucharskiego w Go\u015bcicinie",
                "name": "Szko\u0142a Podstawowa im.mjr.henryka Sucharskiego w Go\u015bcicinie",
                "addr:country": "PL",
                "addr:postcode": "84-241",
                "addr:city": "Go\u015bcicino",
                "addr:street": "Wejherowska",
                "addr:housenumber": "22",
                "addr:teryt:simc": 23842,
                "addr:teryt:sym_ul": 176503,
                "contact:phone": "+48 586728123",
                "contact:email": "sekretariat@sspgoscicino.pl",
                "contact:website": "http:\/\/www.spgoscicino.edu.pl",
                "ref:regon": "190403383",
                "ref:vatin": "PL5881842781",
                "operator": "Gmina Wejherowo",
                "operator:type": "government",
                "amenity": "school"
            }
        },
        {
            "id": 21679,
            "type": "Feature",
            "geometry": {
                "type": "Point",
                "coordinates": [
                    18.17961,
                    54.61272
                ]
            },
            "properties": {
                "ref:rspo": 21679,
                "official_name": "Bajkowe Przedszkole w Bolszewie",
                "name": "Bajkowe Przedszkole w Bolszewie",
                "addr:country": "PL",
                "addr:postcode": "84-239",
                "addr:city": "Bolszewo",
                "addr:street": "G\u0142\u00f3wna",
                "addr:housenumber": "5c",
                "addr:teryt:simc": 5635,
                "addr:teryt:sym_ul": 176437,
                "contact:phone": "+48 587362900",
                "contact:email": "biuro@przedszkole-bajkowe.eu",
                "ref:regon": "221750980",
                "ref:vatin": "PL5882169702",
                "operator": "Emanuela Kwidzi\u0144ska",
                "operator:type": "private",
                "amenity": "kindergarten"
            }
        },
        {
            "id": 264514,
            "type": "Feature",
            "geometry": {
                "type": "Point",
                "coordinates": [
                    18.34849,
                    54.61344
                ]
            },
            "properties": {
                "ref:rspo": 264514,
                "official_name": "Zielona S\u00f3wka Przedszkole Przyrodniczo-Ekologiczne w G\u00f3rze",
                "name": "Zielona S\u00f3wka Przedszkole Przyrodniczo-Ekologiczne w G\u00f3rze",
                "addr:country": "PL",
                "addr:postcode": "84-252",
                "addr:city": "G\u00f3ra",
                "addr:street": "Wiejska",
                "addr:housenumber": "2",
                "addr:teryt:simc": 24048,
                "addr:teryt:sym_ul": 176510,
                "contact:phone": "+48 512255186",
                "contact:email": "przedszkole@zielonasowka.pl",
                "contact:website": "http:\/\/www.zielonasowka.pl",
                "ref:regon": "368371100",
                "ref:vatin": "PL5881772431",
                "operator": "Olga Sobolska",
                "operator:type": "private",
                "amenity": "kindergarten"
            }
        },
        {
            "id": 103860,
            "type": "Feature",
            "geometry": {
                "type": "Point",
                "coordinates": [
                    18.1859499,
                    54.61412
                ]
            },
            "properties": {
                "isced:level": "1;2",
                "ref:rspo": 103860,
                "official_name": "Szko\u0142a Podstawowa im. Miko\u0142aja Kopernika w Bolszewie",
                "name": "Szko\u0142a Podstawowa",
                "addr:country": "PL",
                "addr:postcode": "84-239",
                "addr:city": "Bolszewo",
                "addr:street": "Szkolna",
                "addr:housenumber": "13",
                "addr:teryt:simc": 21970,
                "addr:teryt:sym_ul": 176437,
                "contact:phone": "+48 586722666",
                "contact:email": "ssp-bolszewo@wp.pl",
                "contact:website": "http:\/\/www.spbolszewo.szkolna.net\/",
                "ref:regon": "190403199",
                "ref:vatin": "PL5881842841",
                "operator": "Gmina Wejherowo",
                "operator:type": "government",
                "amenity": "school"
            }
        },
        {
            "id": 273546,
            "type": "Feature",
            "geometry": {
                "type": "Point",
                "coordinates": [
                    18.16184,
                    54.61559
                ]
            },
            "properties": {
                "ref:rspo": 273546,
                "official_name": "Punkt Przedszkolny Przyjaciele Kubusia Puchatka Bis w Bolszewie",
                "name": "Punkt Przedszkolny Przyjaciele Kubusia Puchatka Bis w Bolszewie",
                "addr:country": "PL",
                "addr:postcode": "84-239",
                "addr:city": "Bolszewo",
                "addr:street": "Le\u015bna",
                "addr:housenumber": "56",
                "addr:teryt:simc": 10898,
                "addr:teryt:sym_ul": 176437,
                "contact:email": "wejherowoppkp@gmail.com",
                "ref:regon": "384514030",
                "operator": "Romana Hasske",
                "operator:type": "private",
                "amenity": "kindergarten"
            }
        },
        {
            "id": 10505,
            "type": "Feature",
            "geometry": {
                "type": "Point",
                "coordinates": [
                    18.16303,
                    54.61604
                ]
            },
            "properties": {
                "ref:rspo": 10505,
                "official_name": "Przedszkole w Bolszewie",
                "name": "Przedszkole w Bolszewie",
                "addr:country": "PL",
                "addr:postcode": "84-239",
                "addr:city": "Bolszewo",
                "addr:street": "Le\u015bna",
                "addr:housenumber": "35",
                "addr:teryt:simc": 10898,
                "addr:teryt:sym_ul": 176437,
                "contact:phone": "+48 587382294",
                "contact:email": "przedszkole.goscicino@onet.pl",
                "contact:website": "http:\/\/www.goscicino.dlaprzedszkoli.eu",
                "ref:regon": "191870945",
                "ref:vatin": "PL5881842195",
                "operator": "Gmina Wejherowo",
                "operator:type": "government",
                "amenity": "kindergarten"
            }
        },
        {
            "id": 9982,
            "type": "Feature",
            "geometry": {
                "type": "Point",
                "coordinates": [
                    18.17699,
                    54.61731
                ]
            },
            "properties": {
                "ref:rspo": 9982,
                "official_name": "Przedszkole Niepubliczne Stefek Burczymucha w Bolszewie",
                "name": "Przedszkole Niepubliczne Stefek Burczymucha w Bolszewie",
                "addr:country": "PL",
                "addr:postcode": "84-239",
                "addr:city": "Bolszewo",
                "addr:street": "Polna",
                "addr:housenumber": "2",
                "addr:teryt:simc": 17011,
                "addr:teryt:sym_ul": 176437,
                "contact:phone": "+48 503759068",
                "contact:email": "przedszkole-stefek.b@wp.pl",
                "contact:website": "http:\/\/www.przedszkolebolszewo.pl",
                "ref:regon": "221736537",
                "operator": "\"Stalem\" S.c. Jaros\u0142aw Stani Piotr Protasiuk",
                "operator:type": "consortium",
                "amenity": "kindergarten"
            }
        },
        {
            "id": 276428,
            "type": "Feature",
            "geometry": {
                "type": "Point",
                "coordinates": [
                    18.16871,
                    54.61904
                ]
            },
            "properties": {
                "ref:rspo": 276428,
                "official_name": "Niepubliczne Przedszkole \"Mamma Mia\" w Bolszewie",
                "name": "Niepubliczne Przedszkole \"Mamma Mia\" w Bolszewie",
                "addr:country": "PL",
                "addr:postcode": "84-239",
                "addr:city": "Bolszewo",
                "addr:street": "Lucjana Cylkowskiego",
                "addr:housenumber": "10",
                "addr:teryt:simc": 3178,
                "addr:teryt:sym_ul": 176437,
                "contact:phone": "+48 504593073",
                "contact:email": "przedszkolemammamia@gmail.com",
                "contact:website": "http:\/\/www.przedszkolemammamia.pl",
                "ref:regon": "387130375",
                "operator": "Gra\u017cyna Lessnau",
                "operator:type": "private",
                "amenity": "kindergarten"
            }
        },
        {
            "id": 276483,
            "type": "Feature",
            "geometry": {
                "type": "Point",
                "coordinates": [
                    18.1758099,
                    54.62354
                ]
            },
            "properties": {
                "ref:rspo": 276483,
                "official_name": "Niepubliczne Przedszkole Edukacyjno-Sportowe Mapeciaki w Bolszewie",
                "name": "Niepubliczne Przedszkole Edukacyjno-Sportowe Mapeciaki w Bolszewie",
                "addr:country": "PL",
                "addr:postcode": "84-239",
                "addr:city": "Bolszewo",
                "addr:street": "Kardyna\u0142a Stefana Wyszy\u0144skiego",
                "addr:housenumber": "3",
                "addr:door": "1",
                "addr:teryt:simc": 25107,
                "addr:teryt:sym_ul": 176437,
                "contact:phone": "+48 506127000",
                "contact:email": "kontakt@mapeciaki.pl",
                "contact:website": "http:\/\/www.mapeciaki.pl",
                "ref:regon": "387156825",
                "operator": "Mapeciaki Reda Sp\u00f3\u0142ka Z Ograniczon\u0105 Odpowiedzialno\u015bci\u0105",
                "operator:type": "private",
                "amenity": "kindergarten"
            }
        },
        {
            "id": 4071,
            "type": "Feature",
            "geometry": {
                "type": "Point",
                "coordinates": [
                    18.10939,
                    54.63044
                ]
            },
            "properties": {
                "isced:level": "1;2",
                "ref:rspo": 4071,
                "official_name": "Szko\u0142a Podstawowa im. Jakuba Wejhera w G\u00f3rze",
                "name": "Szko\u0142a Podstawowa",
                "addr:country": "PL",
                "addr:postcode": "84-252",
                "addr:city": "G\u00f3ra",
                "addr:street": "Szkolna",
                "addr:housenumber": "4",
                "addr:teryt:simc": 21970,
                "addr:teryt:sym_ul": 176510,
                "contact:phone": "+48 586766393",
                "contact:email": "sekretariat@spgora.edu.pl",
                "ref:regon": "190403236",
                "ref:vatin": "PL5881842798",
                "operator": "Gmina Wejherowo",
                "operator:type": "government",
                "amenity": "school"
            }
        },
        {
            "id": 4151,
            "type": "Feature",
            "geometry": {
                "type": "Point",
                "coordinates": [
                    18.16472,
                    54.6399
                ]
            },
            "properties": {
                "isced:level": "1;2",
                "ref:rspo": 4151,
                "official_name": "Szko\u0142a Podstawowa im. Jana Brzechwy w Orlu",
                "name": "Szko\u0142a Podstawowa",
                "addr:country": "PL",
                "addr:postcode": "84-252",
                "addr:city": "Orle",
                "addr:street": "Nadrzeczna",
                "addr:housenumber": "19",
                "addr:teryt:simc": 13902,
                "addr:teryt:sym_ul": 176673,
                "contact:phone": "+48 585720289",
                "contact:email": "ssporle@post.pl",
                "contact:website": "http:\/\/ssporle.pl",
                "ref:regon": "190875290",
                "ref:vatin": "PL5881842746",
                "operator": "Gmina Wejherowo",
                "operator:type": "government",
                "amenity": "school"
            }
        },
        {
            "id": 132274,
            "type": "Feature",
            "geometry": {
                "type": "Point",
                "coordinates": [
                    18.11995,
                    54.66476
                ]
            },
            "properties": {
                "isced:level": "3",
                "ref:rspo": 132274,
                "official_name": "Bran\u017cowa Szko\u0142a I Stopnia Towarzystwa Salezja\u0144skiego im. Ks. Ignacego B\u0142a\u017cewskiego w Kniewie",
                "name": "Bran\u017cowa Szko\u0142a I Stopnia Towarzystwa Salezja\u0144skiego",
                "addr:country": "PL",
                "addr:postcode": "84-252",
                "addr:city": "Kniewo",
                "addr:street": "Aleja Lipowa",
                "addr:housenumber": "117",
                "addr:teryt:simc": 30312,
                "addr:teryt:sym_ul": 176561,
                "contact:phone": "+48 586766391",
                "contact:email": "dyrektor@szkolakniewo.pl",
                "ref:regon": "365526216",
                "operator": "Towarzystwo Salezja\u0144skie Inspektoria P.w. \u015aw. Wojciecha",
                "operator:type": "religious",
                "amenity": "school"
            }
        },
        {
            "id": 263522,
            "type": "Feature",
            "geometry": {
                "type": "Point",
                "coordinates": [
                    18.11995,
                    54.66473
                ]
            },
            "properties": {
                "isced:level": "1;2",
                "ref:rspo": 263522,
                "official_name": "Szko\u0142a Podstawowa Towarzystwa Salezja\u0144skiego im. Ks. Ignacego B\u0142a\u017cewskiego w Kniewie",
                "name": "Szko\u0142a Podstawowa Towarzystwa Salezja\u0144skiego",
                "addr:country": "PL",
                "addr:postcode": "84-252",
                "addr:city": "Kniewo",
                "addr:street": "Aleja Lipowa",
                "addr:housenumber": "117",
                "addr:teryt:simc": 30312,
                "addr:teryt:sym_ul": 176561,
                "contact:phone": "+48 586766391",
                "contact:email": "dyrektor@szkolakniewo.pl",
                "contact:website": "http:\/\/www.szkolakniewo.pl",
                "ref:regon": "368197256",
                "operator": "Towarzystwo Salezja\u0144skie Inspektoria P.w. \u015aw. Wojciecha",
                "operator:type": "religious",
                "amenity": "school"
            }
        }
    ]
}