{
    "type": "FeatureCollection",
    "features": [
        {
            "id": 13738,
            "type": "Feature",
            "geometry": {
                "type": "Point",
                "coordinates": [
                    17.9296,
                    54.42327
                ]
            },
            "properties": {
                "isced:level": "1;2",
                "ref:rspo": 13738,
                "official_name": "Szko\u0142a Podstawowa w Niepoczo\u0142owicach",
                "name": "Szko\u0142a Podstawowa w Niepoczo\u0142owicach",
                "addr:postcode": "84-223",
                "addr:city": "Niepoczo\u0142owice",
                "addr:street": "Szkolna",
                "addr:housenumber": "1",
                "addr:teryt:simc": 165586,
                "addr:teryt:sym_ul": 21970,
                "phone": "+48 586768595",
                "email": "sp.niepoczolowice@wp.pl",
                "website": "http:\/\/spniepoczolowice.gminalinia.com.pl",
                "ref:regon": "001172660",
                "ref:vatin": "PL5881993876",
                "operator": "Gmina Linia",
                "operator:type": "government",
                "amenity": "school"
            }
        },
        {
            "id": 271927,
            "type": "Feature",
            "geometry": {
                "type": "Point",
                "coordinates": [
                    17.88485,
                    54.43659
                ]
            },
            "properties": {
                "ref:rspo": 271927,
                "official_name": "Przedszkole Samorz\u0105dowe w Lini",
                "name": "Przedszkole Samorz\u0105dowe w Lini",
                "addr:postcode": "84-223",
                "addr:city": "Linia",
                "addr:street": "Kaszubska",
                "addr:housenumber": "15",
                "addr:teryt:simc": 165511,
                "addr:teryt:sym_ul": 8183,
                "phone": "+48 586768513",
                "email": "szkola@splinia.pl",
                "website": "http:\/\/www.splinia.pl",
                "ref:regon": "383800650",
                "operator": "Gmina Linia",
                "operator:type": "government",
                "amenity": "kindergarten",
                "note": "Parent RSPO: 276472"
            }
        },
        {
            "id": 13737,
            "type": "Feature",
            "geometry": {
                "type": "Point",
                "coordinates": [
                    18.017197,
                    54.437826
                ]
            },
            "properties": {
                "isced:level": "1;2",
                "ref:rspo": 13737,
                "official_name": "Szko\u0142a Podstawowa w Mi\u0142oszewie",
                "name": "Szko\u0142a Podstawowa w Mi\u0142oszewie",
                "addr:postcode": "84-223",
                "addr:place": "Mi\u0142oszewo",
                "addr:housenumber": "24",
                "addr:teryt:simc": 165534,
                "phone": "+48 586768215",
                "email": "spmiloszewo@op.pl",
                "website": "http:\/\/www.spmiloszewo.pl",
                "ref:regon": "001172631",
                "ref:vatin": "PL5881993899",
                "operator": "Gmina Linia",
                "operator:type": "government",
                "amenity": "school"
            }
        },
        {
            "id": 13892,
            "type": "Feature",
            "geometry": {
                "type": "Point",
                "coordinates": [
                    17.98928,
                    54.44078
                ]
            },
            "properties": {
                "isced:level": "1;2",
                "ref:rspo": 13892,
                "official_name": "O\u015brodek Edukacji Kaszubskiej - Szko\u0142a Podstawowa Na G\u0142odnicy",
                "name": "O\u015brodek Edukacji Kaszubskiej - Szko\u0142a Podstawowa Na G\u0142odnicy",
                "addr:postcode": "84-223",
                "addr:city": "Strzepcz",
                "addr:street": "G\u0142odnica",
                "addr:housenumber": "24",
                "addr:teryt:simc": 165681,
                "addr:teryt:sym_ul": 33633,
                "phone": "+48 586768417",
                "email": "glodnica@wp.pl",
                "ref:regon": "221741171",
                "ref:vatin": "PL5881957610",
                "operator": "Stowarzyszenie \"Akademia G\u0142odnica\"",
                "operator:type": "ngo",
                "amenity": "school"
            }
        },
        {
            "id": 108846,
            "type": "Feature",
            "geometry": {
                "type": "Point",
                "coordinates": [
                    18.03085,
                    54.4532
                ]
            },
            "properties": {
                "isced:level": "1;2",
                "ref:rspo": 108846,
                "official_name": "Szko\u0142a Podstawowa w Strzepczu",
                "name": "Szko\u0142a Podstawowa w Strzepczu",
                "addr:postcode": "84-223",
                "addr:city": "Strzepcz",
                "addr:street": "Hieronima Derdowskiego",
                "addr:housenumber": "3",
                "addr:teryt:simc": 165681,
                "addr:teryt:sym_ul": 3769,
                "phone": "+48 586768113",
                "email": "szkola@spstrzepcz.pl",
                "ref:regon": "192957111",
                "ref:vatin": "PL5881993764",
                "operator": "Gmina Linia",
                "operator:type": "government",
                "amenity": "school"
            }
        },
        {
            "id": 276472,
            "type": "Feature",
            "geometry": {
                "type": "Point",
                "coordinates": [
                    17.93263,
                    54.45349
                ]
            },
            "properties": {
                "ref:rspo": 276472,
                "official_name": "Zesp\u00f3\u0142 Szkolno - Przedszkolny w Lini",
                "name": "Zesp\u00f3\u0142 Szkolno - Przedszkolny w Lini",
                "addr:postcode": "84-223",
                "addr:city": "Linia",
                "addr:street": "Szkolna",
                "addr:housenumber": "1",
                "addr:teryt:simc": 165511,
                "addr:teryt:sym_ul": 21970,
                "phone": "+48 586768513",
                "email": "szkola@splinia.pl",
                "website": "http:\/\/www.splinia.pl",
                "ref:regon": "387154950",
                "operator": "Gmina Linia",
                "operator:type": "government",
                "landuse": "education",
                "fixme": "amenity=school, amenity=college albo landuse=education w zale\u017cno\u015bci od tego, jakie plac\u00f3wki wchodz\u0105 w sk\u0142ad zespo\u0142u. Sprawd\u017a, kiedy stosowa\u0107 amenity=* a kiedy landuse=education.",
                "note": "Children RSPO: 108844;271927"
            }
        },
        {
            "id": 108844,
            "type": "Feature",
            "geometry": {
                "type": "Point",
                "coordinates": [
                    17.93263,
                    54.45346
                ]
            },
            "properties": {
                "isced:level": "1;2",
                "ref:rspo": 108844,
                "official_name": "Szko\u0142a Podstawowa im. Leonida Teligi w Lini",
                "name": "Szko\u0142a Podstawowa",
                "addr:postcode": "84-223",
                "addr:city": "Linia",
                "addr:street": "Szkolna",
                "addr:housenumber": "1",
                "addr:teryt:simc": 165511,
                "addr:teryt:sym_ul": 21970,
                "phone": "+48 586768513",
                "email": "szkola@splinia.pl",
                "website": "http:\/\/www.splinia.pl",
                "ref:regon": "000602070",
                "ref:vatin": "PL5881993758",
                "operator": "Gmina Linia",
                "operator:type": "government",
                "amenity": "school",
                "note": "Parent RSPO: 276472"
            }
        },
        {
            "id": 32030,
            "type": "Feature",
            "geometry": {
                "type": "Point",
                "coordinates": [
                    18.03039,
                    54.45391
                ]
            },
            "properties": {
                "ref:rspo": 32030,
                "official_name": "O\u015brodek Rehabilitacyjno-Edukacyjno-Wychowawczy w Strzepczu",
                "name": "O\u015brodek Rehabilitacyjno-Edukacyjno-Wychowawczy w Strzepczu",
                "addr:postcode": "84-222",
                "addr:city": "Strzepcz",
                "addr:street": "Hieronima Derdowskiego",
                "addr:housenumber": "1",
                "addr:teryt:simc": 165681,
                "addr:teryt:sym_ul": 3769,
                "phone": "+48 586843699",
                "email": "kaszubskafundacja@interia.pl",
                "website": "http:\/\/www.kaszubskafundacja.owh.pl",
                "ref:regon": "221759455",
                "operator": "Kaszubska Fundacja Rehabilitacji Os\u00f3b Niepe\u0142nosprawnych \"Podaruj Troch\u0119 S\u0142o\u0144ca\"",
                "operator:type": "ngo",
                "amenity": "school"
            }
        },
        {
            "id": 13739,
            "type": "Feature",
            "geometry": {
                "type": "Point",
                "coordinates": [
                    18.07479,
                    54.46833
                ]
            },
            "properties": {
                "isced:level": "1;2",
                "ref:rspo": 13739,
                "official_name": "Szko\u0142a Podstawowa im. \u017bo\u0142nierzy Niez\u0142omnych w Pob\u0142ociu",
                "name": "Szko\u0142a Podstawowa",
                "addr:postcode": "84-223",
                "addr:city": "Pob\u0142ocie",
                "addr:street": "Szkolna",
                "addr:housenumber": "8",
                "addr:teryt:simc": 165617,
                "addr:teryt:sym_ul": 21970,
                "phone": "+48 586768277",
                "email": "sp.poblocie@wp.pl",
                "website": "http:\/\/www.sppoblocie.edupage.org",
                "ref:regon": "001172648",
                "ref:vatin": "PL5881993882",
                "operator": "Gmina Linia",
                "operator:type": "government",
                "amenity": "school"
            }
        },
        {
            "id": 13740,
            "type": "Feature",
            "geometry": {
                "type": "Point",
                "coordinates": [
                    17.9411989,
                    54.490447
                ]
            },
            "properties": {
                "isced:level": "1;2",
                "ref:rspo": 13740,
                "official_name": "Szko\u0142a Podstawowa w K\u0119trzynie",
                "name": "Szko\u0142a Podstawowa w K\u0119trzynie",
                "addr:postcode": "84-223",
                "addr:place": "K\u0119trzyno",
                "addr:housenumber": "9",
                "addr:teryt:simc": 165422,
                "phone": "+48 586768577",
                "email": "sp_ketrzyno@poczta.onet.pl",
                "website": "http:\/\/spketrzyno.gminalinia.com.pl",
                "ref:regon": "001172625",
                "ref:vatin": "PL5881993907",
                "operator": "Gmina Linia",
                "operator:type": "government",
                "amenity": "school"
            }
        }
    ]
}