{
    "type": "FeatureCollection",
    "features": [
        {
            "id": 43431,
            "type": "Feature",
            "geometry": {
                "type": "Point",
                "coordinates": [
                    17.89341,
                    54.73983
                ]
            },
            "properties": {
                "ref:rspo": 43431,
                "official_name": "Zesp\u00f3\u0142 Szkolno - Przedszkolny im. Unii Europejskiej w Choczewie",
                "name": "Zesp\u00f3\u0142 Szkolno - Przedszkolny",
                "addr:country": "PL",
                "addr:postcode": "84-210",
                "addr:city": "Choczewo",
                "addr:street": "ul. Szkolna",
                "addr:housenumber": "2",
                "addr:teryt:simc": 21970,
                "addr:teryt:sym_ul": 160235,
                "contact:phone": "+48 585723914",
                "contact:email": "szkolachoczewo@choczewo.com.pl",
                "contact:website": "http:\/\/www.szkola-choczewo.pev.pl",
                "ref:regon": "000558216",
                "ref:vatin": "PL5882422905",
                "operator": "Gmina Choczewo",
                "operator:type": "government",
                "landuse": "education",
                "fixme": "amenity=school, amenity=college albo landuse=education w zale\u017cno\u015bci od tego, jakie plac\u00f3wki wchodz\u0105 w sk\u0142ad zespo\u0142u. Sprawd\u017a, kiedy stosowa\u0107 amenity=* a kiedy landuse=education.",
                "note": "Children RSPO: 43439;52802"
            }
        },
        {
            "id": 43439,
            "type": "Feature",
            "geometry": {
                "type": "Point",
                "coordinates": [
                    17.89341,
                    54.739799999999995
                ]
            },
            "properties": {
                "ref:rspo": 43439,
                "official_name": "Zesp\u00f3\u0142 Szkolno - Przedszkolny im. Unii Europejskiej w Choczewie- Przedszkole w Choczewie",
                "name": "Zesp\u00f3\u0142 Szkolno - Przedszkolny",
                "addr:country": "PL",
                "addr:postcode": "84-210",
                "addr:city": "Choczewo",
                "addr:street": "ul. Szkolna",
                "addr:housenumber": "2",
                "addr:teryt:simc": 21970,
                "addr:teryt:sym_ul": 160235,
                "contact:phone": "+48 609801668",
                "contact:email": "sam.przed.choczewo@wp.pl",
                "ref:regon": "220667426",
                "ref:vatin": "PL5881832819",
                "operator": "Gmina Choczewo",
                "operator:type": "government",
                "amenity": "kindergarten",
                "note": "Parent RSPO: 43431"
            }
        },
        {
            "id": 52802,
            "type": "Feature",
            "geometry": {
                "type": "Point",
                "coordinates": [
                    17.89341,
                    54.73977
                ]
            },
            "properties": {
                "isced:level": "1;2",
                "ref:rspo": 52802,
                "official_name": "Zesp\u00f3\u0142 Szkolno - Przedszkolny im. Unii Europejskiej w Choczewie - Szko\u0142a Podstawowa w Choczewie",
                "name": "Zesp\u00f3\u0142 Szkolno - Przedszkolny",
                "addr:country": "PL",
                "addr:postcode": "84-210",
                "addr:city": "Choczewo",
                "addr:street": "ul. Szkolna",
                "addr:housenumber": "2",
                "addr:teryt:simc": 21970,
                "addr:teryt:sym_ul": 160235,
                "contact:phone": "+48 585723914",
                "contact:email": "szkolachoczewo@choczewo.com.pl",
                "contact:website": "http:\/\/www.szkolachoczewo.edupage.org",
                "ref:regon": "192945220",
                "ref:vatin": "PL5881832819",
                "operator": "Gmina Choczewo",
                "operator:type": "government",
                "amenity": "school",
                "note": "Parent RSPO: 43431"
            }
        },
        {
            "id": 131133,
            "type": "Feature",
            "geometry": {
                "type": "Point",
                "coordinates": [
                    17.788106,
                    54.756358
                ]
            },
            "properties": {
                "ref:rspo": 131133,
                "official_name": "Zesp\u00f3\u0142 Szkolno - Przedszkolny w Ciekocinie",
                "name": "Zesp\u00f3\u0142 Szkolno - Przedszkolny w Ciekocinie",
                "addr:country": "PL",
                "addr:postcode": "84-210",
                "addr:place": "Ciekocino",
                "addr:housenumber": "11",
                "addr:teryt:sym_ul": 160258,
                "contact:phone": "+48 585724411",
                "contact:email": "zspciekocino@choczewo.com.pl",
                "contact:website": "http:\/\/www.spciekocino.szkolna.net",
                "ref:regon": "364966730",
                "ref:vatin": "PL5882422897",
                "operator": "Gmina Choczewo",
                "operator:type": "government",
                "landuse": "education",
                "fixme": "amenity=school, amenity=college albo landuse=education w zale\u017cno\u015bci od tego, jakie plac\u00f3wki wchodz\u0105 w sk\u0142ad zespo\u0142u. Sprawd\u017a, kiedy stosowa\u0107 amenity=* a kiedy landuse=education.",
                "note": "Children RSPO: 43426;131333"
            }
        },
        {
            "id": 43426,
            "type": "Feature",
            "geometry": {
                "type": "Point",
                "coordinates": [
                    17.788106,
                    54.756327999999996
                ]
            },
            "properties": {
                "isced:level": "1;2",
                "ref:rspo": 43426,
                "official_name": "Zesp\u00f3\u0142 Szkolno - Przedszkolny w Ciekocinie - Szko\u0142a Podstawowa w Ciekocinie",
                "name": "Zesp\u00f3\u0142 Szkolno - Przedszkolny w Ciekocinie - Szko\u0142a Podstawowa w Ciekocinie",
                "addr:country": "PL",
                "addr:postcode": "84-210",
                "addr:place": "Ciekocino",
                "addr:housenumber": "11",
                "addr:teryt:sym_ul": 160258,
                "contact:phone": "+48 585724411",
                "contact:email": "zspciekocino@choczewo.com.pl",
                "contact:website": "http:\/\/spciekocino.szkolna.net\/",
                "ref:regon": "001172252",
                "ref:vatin": "PL5881832819",
                "operator": "Gmina Choczewo",
                "operator:type": "government",
                "amenity": "school",
                "note": "Parent RSPO: 131133"
            }
        },
        {
            "id": 131333,
            "type": "Feature",
            "geometry": {
                "type": "Point",
                "coordinates": [
                    17.788106,
                    54.756298
                ]
            },
            "properties": {
                "ref:rspo": 131333,
                "official_name": "Zesp\u00f3\u0142 Szkolno - Przedszkolny w Ciekocinie- Przedszkole w Ciekocinie",
                "name": "Zesp\u00f3\u0142 Szkolno - Przedszkolny w Ciekocinie- Przedszkole w Ciekocinie",
                "addr:country": "PL",
                "addr:postcode": "84-210",
                "addr:place": "Ciekocino",
                "addr:housenumber": "11",
                "addr:teryt:sym_ul": 160258,
                "contact:phone": "+48 585724411",
                "ref:regon": "365122128",
                "ref:vatin": "PL5881832819",
                "operator": "Gmina Choczewo",
                "operator:type": "government",
                "amenity": "kindergarten",
                "note": "Parent RSPO: 131133"
            }
        },
        {
            "id": 124306,
            "type": "Feature",
            "geometry": {
                "type": "Point",
                "coordinates": [
                    17.9281574,
                    54.7587453
                ]
            },
            "properties": {
                "ref:rspo": 124306,
                "official_name": "Przedszkole \"Ma\u0142y Geniusz\" Klaudia Borowiec",
                "name": "Przedszkole \"Ma\u0142y Geniusz\" Klaudia Borowiec",
                "addr:country": "PL",
                "addr:postcode": "84-210",
                "addr:place": "Lublewko",
                "addr:housenumber": "9b",
                "addr:teryt:sym_ul": 160382,
                "contact:phone": "+48 609475742",
                "contact:email": "klaudia.borowiec13@wp.pl",
                "ref:regon": "222146772",
                "operator": "Klaudia Borowiec",
                "operator:type": "private",
                "amenity": "kindergarten"
            }
        }
    ]
}