{
    "type": "FeatureCollection",
    "features": [
        {
            "id": 124464,
            "type": "Feature",
            "geometry": {
                "type": "Point",
                "coordinates": [
                    18.32292,
                    54.53926
                ]
            },
            "properties": {
                "ref:rspo": 124464,
                "official_name": "Przedszkole Niepubliczne Edukacyjno-Sportowe \"Mapeciaki\"",
                "name": "Przedszkole Niepubliczne Edukacyjno-Sportowe \"Mapeciaki\"",
                "addr:postcode": "84-200",
                "addr:city": "Wejherowo",
                "addr:street": "Pu\u0142kownika Stanis\u0142awa D\u0105bka",
                "addr:housenumber": "8",
                "addr:city:simc": 934984,
                "addr:street:sym_ul": 3653,
                "phone": "+48 506127000",
                "email": "kontakt@mapeciaki.pl",
                "website": "http:\/\/www.mapeciaki.pl",
                "ref:regon": "222149782",
                "operator": "Mapeciaki Sp\u00f3\u0142ka Z Ograniczon\u0105 Odpowiedzialno\u015bci\u0105 D\u0105bka Sp\u00f3\u0142ka Komandytowa",
                "operator:type": "consortium",
                "amenity": "kindergarten"
            }
        },
        {
            "id": 7738,
            "type": "Feature",
            "geometry": {
                "type": "Point",
                "coordinates": [
                    18.23253,
                    54.59723
                ]
            },
            "properties": {
                "ref:rspo": 7738,
                "official_name": "Powiatowy Zesp\u00f3\u0142 Plac\u00f3wek O\u015bwiatowo-Wychowawczych w Wejherowie",
                "name": "Powiatowy Zesp\u00f3\u0142 Plac\u00f3wek O\u015bwiatowo-Wychowawczych w Wejherowie",
                "addr:postcode": "84-200",
                "addr:city": "Wejherowo",
                "addr:street": "3 Maja",
                "addr:housenumber": "49",
                "addr:city:simc": 934984,
                "addr:street:sym_ul": 11937,
                "phone": "+48 586724592",
                "email": "pzpow@op.pl",
                "website": "http:\/\/www.pzpow.eu",
                "ref:regon": "220475342",
                "ref:vatin": "PL5882238691",
                "operator": "Powiat Wejherowski",
                "operator:type": "government",
                "landuse": "education",
                "fixme": "amenity=school, amenity=college albo landuse=education w zale\u017cno\u015bci od tego, jakie plac\u00f3wki wchodz\u0105 w sk\u0142ad zespo\u0142u. Sprawd\u017a, kiedy stosowa\u0107 amenity=* a kiedy landuse=education.",
                "note": "Children RSPO: 55527;55528;55537"
            }
        },
        {
            "id": 55527,
            "type": "Feature",
            "geometry": {
                "type": "Point",
                "coordinates": [
                    18.23253,
                    54.5972
                ]
            },
            "properties": {
                "ref:rspo": 55527,
                "official_name": "Ognisko Pracy Pozaszkolnej w Wejherowie",
                "name": "Ognisko Pracy Pozaszkolnej w Wejherowie",
                "addr:postcode": "84-200",
                "addr:city": "Wejherowo",
                "addr:street": "3 Maja",
                "addr:housenumber": "49",
                "addr:city:simc": 934984,
                "addr:street:sym_ul": 11937,
                "phone": "+48 586724592",
                "email": "pzpow@op.pl",
                "website": "http:\/\/www.pzpow.eu",
                "ref:regon": "221767302",
                "operator": "Powiat Wejherowski",
                "operator:type": "government",
                "amenity": "community_centre",
                "community_centre:for": "child;juvenile",
                "note": "Parent RSPO: 7738"
            }
        },
        {
            "id": 55537,
            "type": "Feature",
            "geometry": {
                "type": "Point",
                "coordinates": [
                    18.23253,
                    54.597170000000006
                ]
            },
            "properties": {
                "ref:rspo": 55537,
                "official_name": "Powiatowy Mi\u0119dzyszkolny O\u015brodek Sportu w Wejherowie",
                "name": "Powiatowy Mi\u0119dzyszkolny O\u015brodek Sportu w Wejherowie",
                "addr:postcode": "84-200",
                "addr:city": "Wejherowo",
                "addr:street": "3 Maja",
                "addr:housenumber": "49",
                "addr:city:simc": 934984,
                "addr:street:sym_ul": 11937,
                "phone": "+48 586724592",
                "email": "pzpow@op.pl",
                "website": "http:\/\/www.pzpow.eu",
                "ref:regon": "221767288",
                "operator": "Powiat Wejherowski",
                "operator:type": "government",
                "leisure": "sports_centre",
                "note": "Parent RSPO: 7738"
            }
        },
        {
            "id": 22186,
            "type": "Feature",
            "geometry": {
                "type": "Point",
                "coordinates": [
                    18.22988,
                    54.59856
                ]
            },
            "properties": {
                "isced:level": "3",
                "ref:rspo": 22186,
                "official_name": "Niepubliczna Szko\u0142a Rzemios\u0142a w Wejherowie im. \u015aw. J\u00f3zefa w Wejherowie - Bran\u017cowa Szko\u0142a I Stopnia",
                "name": "Niepubliczna Szko\u0142a Rzemios\u0142a w Wejherowie",
                "addr:postcode": "84-200",
                "addr:city": "Wejherowo",
                "addr:street": "Kalwaryjska",
                "addr:housenumber": "3",
                "addr:city:simc": 934984,
                "addr:street:sym_ul": 7842,
                "phone": "+48 586724487",
                "email": "szkola@cechwejherowo.pl",
                "website": "http:\/\/www.szkola.cechwejherowo.pl",
                "ref:regon": "221752832",
                "ref:vatin": "PL5881453944",
                "operator": "Powiatowy Cech Rzemios\u0142 Ma\u0142ych I \u015arednich Przedsi\u0119biorstw - Zwi\u0105zek Pracodawc\u00f3w",
                "operator:type": "ngo",
                "amenity": "school"
            }
        },
        {
            "id": 276901,
            "type": "Feature",
            "geometry": {
                "type": "Point",
                "coordinates": [
                    18.22988,
                    54.59853
                ]
            },
            "properties": {
                "isced:level": "3",
                "ref:rspo": 276901,
                "official_name": "Niepubliczna Szko\u0142a Rzemios\u0142a im. \u015aw. J\u00f3zefa w Wejherowie-Bran\u017cowa Szko\u0142a II Stopnia",
                "name": "Niepubliczna Szko\u0142a Rzemios\u0142a",
                "addr:postcode": "84-200",
                "addr:city": "Wejherowo",
                "addr:street": "Kalwaryjska",
                "addr:housenumber": "3",
                "addr:city:simc": 934984,
                "addr:street:sym_ul": 7842,
                "phone": "+48 586724487",
                "email": "szkola@cechwejherowo.pl",
                "ref:regon": "387810207",
                "operator": "Powiatowy Cech Rzemios\u0142 Ma\u0142ych I \u015arednich Przedsi\u0119biorstw - Zwi\u0105zek Pracodawc\u00f3w",
                "operator:type": "ngo",
                "amenity": "school"
            }
        },
        {
            "id": 22185,
            "type": "Feature",
            "geometry": {
                "type": "Point",
                "coordinates": [
                    18.22688,
                    54.59886
                ]
            },
            "properties": {
                "ref:rspo": 22185,
                "official_name": "Powiatowy Cech Rzemios\u0142 Ma\u0142ych I \u015arednich Przedsi\u0119biorstw - Zwi\u0105zek Pracodawc\u00f3w",
                "name": "Powiatowy Cech Rzemios\u0142 Ma\u0142ych I \u015arednich Przedsi\u0119biorstw - Zwi\u0105zek Pracodawc\u00f3w",
                "addr:postcode": "84-200",
                "addr:city": "Wejherowo",
                "addr:street": "Genera\u0142a J\u00f3zefa Hallera",
                "addr:housenumber": "18",
                "addr:city:simc": 934984,
                "addr:street:sym_ul": 6485,
                "phone": "+48 586722511",
                "email": "biuro@cechwejherowo.pl",
                "website": "http:\/\/www.cechwejherowo.pl",
                "ref:regon": "221751703",
                "ref:vatin": "PL5881453944",
                "operator": "Powiatowy Cech Rzemios\u0142 Ma\u0142ych I \u015arednich Przedsi\u0119biorstw - Zwi\u0105zek Pracodawc\u00f3w",
                "operator:type": "ngo",
                "fixme": "w zale\u017cno\u015bci od przedmiotu dzia\u0142alno\u015bci (np. amenity=training + training=*, amenity=dancing_school, amenity=language_school, amenity=music_school) albo amenity=school, amenity=college, albo landuse=education w zale\u017cno\u015bci od tego, jakie plac\u00f3wki wchodz\u0105 w sk\u0142ad zespo\u0142u. Sprawd\u017a, kiedy stosowa\u0107 amenity=* a kiedy landuse=education."
            }
        },
        {
            "id": 272770,
            "type": "Feature",
            "geometry": {
                "type": "Point",
                "coordinates": [
                    18.22688,
                    54.59883
                ]
            },
            "properties": {
                "ref:rspo": 272770,
                "official_name": "Centrum Kszta\u0142cenia Zawodowego w Wejherowie",
                "name": "Centrum Kszta\u0142cenia Zawodowego w Wejherowie",
                "addr:postcode": "84-200",
                "addr:city": "Wejherowo",
                "addr:street": "Genera\u0142a J\u00f3zefa Hallera",
                "addr:housenumber": "18",
                "addr:city:simc": 934984,
                "addr:street:sym_ul": 6485,
                "phone": "+48 586722511",
                "email": "biuro@cechwejherowo.pl",
                "website": "http:\/\/www.cechwejherowo.pl",
                "ref:regon": "384294320",
                "operator": "Powiatowy Cech Rzemios\u0142 Ma\u0142ych I \u015arednich Przedsi\u0119biorstw - Zwi\u0105zek Pracodawc\u00f3w",
                "operator:type": "ngo",
                "fixme": "w zale\u017cno\u015bci od przedmiotu dzia\u0142alno\u015bci (np. amenity=training + training=*, amenity=dancing_school, amenity=language_school, amenity=music_school) albo amenity=school, amenity=college, albo landuse=education w zale\u017cno\u015bci od tego, jakie plac\u00f3wki wchodz\u0105 w sk\u0142ad zespo\u0142u. Sprawd\u017a, kiedy stosowa\u0107 amenity=* a kiedy landuse=education."
            }
        },
        {
            "id": 8936,
            "type": "Feature",
            "geometry": {
                "type": "Point",
                "coordinates": [
                    18.22522,
                    54.5995
                ]
            },
            "properties": {
                "ref:rspo": 8936,
                "official_name": "Przedszkole Niepubliczne \"Przyjaciele Kubusia Puchatka\"",
                "name": "Przedszkole Niepubliczne \"Przyjaciele Kubusia Puchatka\"",
                "addr:postcode": "84-200",
                "addr:city": "Wejherowo",
                "addr:street": "Harcerska",
                "addr:housenumber": "23A",
                "addr:city:simc": 934984,
                "addr:street:sym_ul": 6523,
                "phone": "+48 506014463",
                "email": "wejherowoppkp@gmail.com",
                "website": "http:\/\/www.ppkp.org",
                "ref:regon": "221735319",
                "ref:vatin": "PL5882267793",
                "operator": "\"Przyjaciele Kubusia Puchatka\" Sp\u00f3\u0142ka Z Ograniczon\u0105 Odpowiedzialno\u015bci\u0105",
                "operator:type": "private",
                "amenity": "kindergarten"
            }
        },
        {
            "id": 6319,
            "type": "Feature",
            "geometry": {
                "type": "Point",
                "coordinates": [
                    18.22989,
                    54.59965
                ]
            },
            "properties": {
                "ref:rspo": 6319,
                "official_name": "Powiatowy Zesp\u00f3\u0142 Szk\u00f3\u0142 Nr 2 im. Bohaterskiej Za\u0142ogi Orp \"Orze\u0142\" w Wejherowie",
                "name": "Powiatowy Zesp\u00f3\u0142 Szk\u00f3\u0142 Nr 2",
                "addr:postcode": "84-200",
                "addr:city": "Wejherowo",
                "addr:street": "Strzelecka",
                "addr:housenumber": "9",
                "addr:city:simc": 934984,
                "addr:street:sym_ul": 21381,
                "phone": "+48 586722509",
                "email": "sekretariat@wejherowo-elektryk.pl",
                "website": "http:\/\/www.wejherowo-elektryk.pl",
                "ref:regon": "000198798",
                "ref:vatin": "PL5881509780",
                "operator": "Powiat Wejherowski",
                "operator:type": "government",
                "landuse": "education",
                "fixme": "amenity=school, amenity=college albo landuse=education w zale\u017cno\u015bci od tego, jakie plac\u00f3wki wchodz\u0105 w sk\u0142ad zespo\u0142u. Sprawd\u017a, kiedy stosowa\u0107 amenity=* a kiedy landuse=education.",
                "note": "Children RSPO: 12467;12646;12739;13469;275458"
            }
        },
        {
            "id": 12467,
            "type": "Feature",
            "geometry": {
                "type": "Point",
                "coordinates": [
                    18.22989,
                    54.599619999999994
                ]
            },
            "properties": {
                "isced:level": "3",
                "ref:rspo": 12467,
                "official_name": "Iii Liceum Og\u00f3lnokszta\u0142c\u0105ce w Wejherowie",
                "name": "Iii Liceum Og\u00f3lnokszta\u0142c\u0105ce w Wejherowie",
                "addr:postcode": "84-200",
                "addr:city": "Wejherowo",
                "addr:street": "Strzelecka",
                "addr:housenumber": "9",
                "addr:city:simc": 934984,
                "addr:street:sym_ul": 21381,
                "phone": "+48 586722509",
                "email": "sekretariat@wejherowo-elektryk.pl",
                "website": "http:\/\/www.wejherowo-elektryk.pl",
                "ref:regon": "192775841",
                "operator": "Powiat Wejherowski",
                "operator:type": "government",
                "amenity": "school",
                "note": "Parent RSPO: 6319"
            }
        },
        {
            "id": 12646,
            "type": "Feature",
            "geometry": {
                "type": "Point",
                "coordinates": [
                    18.22989,
                    54.59959
                ]
            },
            "properties": {
                "isced:level": "3",
                "ref:rspo": 12646,
                "official_name": "Bran\u017cowa Szko\u0142a I Stopnia Nr 3 im. Bohaterskiej Za\u0142ogi Orp \"Orze\u0142\" w Wejherowie",
                "name": "Bran\u017cowa Szko\u0142a I Stopnia Nr 3",
                "addr:postcode": "84-200",
                "addr:city": "Wejherowo",
                "addr:street": "Strzelecka",
                "addr:housenumber": "9",
                "addr:city:simc": 934984,
                "addr:street:sym_ul": 21381,
                "phone": "+48 586722509",
                "email": "sekretariat@wejherowo-elektryk.pl",
                "website": "http:\/\/www.wejherowo-elektryk.pl",
                "ref:regon": "192775930",
                "operator": "Powiat Wejherowski",
                "operator:type": "government",
                "amenity": "school",
                "note": "Parent RSPO: 6319"
            }
        },
        {
            "id": 12739,
            "type": "Feature",
            "geometry": {
                "type": "Point",
                "coordinates": [
                    18.22989,
                    54.59956
                ]
            },
            "properties": {
                "isced:level": "3",
                "ref:rspo": 12739,
                "official_name": "Technikum Nr 1 im. Bohaterskiej Za\u0142ogi Orp \"Orze\u0142\" w Wejherowie",
                "name": "Technikum Nr 1",
                "addr:postcode": "84-200",
                "addr:city": "Wejherowo",
                "addr:street": "Strzelecka",
                "addr:housenumber": "9",
                "addr:city:simc": 934984,
                "addr:street:sym_ul": 21381,
                "phone": "+48 586722509",
                "email": "sekretariat@wejherowo-elektryk.pl",
                "website": "http:\/\/www.wejherowo-elektryk.pl",
                "ref:regon": "192775953",
                "operator": "Powiat Wejherowski",
                "operator:type": "government",
                "amenity": "school",
                "note": "Parent RSPO: 6319"
            }
        },
        {
            "id": 13469,
            "type": "Feature",
            "geometry": {
                "type": "Point",
                "coordinates": [
                    18.22989,
                    54.599529999999994
                ]
            },
            "properties": {
                "isced:level": "4",
                "ref:rspo": 13469,
                "official_name": "Szko\u0142a Policealna Bezpiecze\u0144stwa Publicznego Nr 1 w Wejherowie",
                "name": "Szko\u0142a Policealna Bezpiecze\u0144stwa Publicznego Nr 1 w Wejherowie",
                "addr:postcode": "84-200",
                "addr:city": "Wejherowo",
                "addr:street": "Strzelecka",
                "addr:housenumber": "9",
                "addr:city:simc": 934984,
                "addr:street:sym_ul": 21381,
                "phone": "+48 586722509",
                "email": "sekretariat@wejherowo-elektryk.pl",
                "website": "http:\/\/www.wejherowo-elektryk.pl",
                "ref:regon": "220101096",
                "operator": "Powiat Wejherowski",
                "operator:type": "government",
                "amenity": "college",
                "note": "Parent RSPO: 6319"
            }
        },
        {
            "id": 275458,
            "type": "Feature",
            "geometry": {
                "type": "Point",
                "coordinates": [
                    18.22989,
                    54.5995
                ]
            },
            "properties": {
                "isced:level": "3",
                "ref:rspo": 275458,
                "official_name": "Bran\u017cowa Szko\u0142a II Stopnia Nr 3 w Wejherowie",
                "name": "Bran\u017cowa Szko\u0142a II Stopnia Nr 3 w Wejherowie",
                "addr:postcode": "84-200",
                "addr:city": "Wejherowo",
                "addr:street": "Strzelecka",
                "addr:housenumber": "9",
                "addr:city:simc": 934984,
                "addr:street:sym_ul": 21381,
                "phone": "+48 586722509",
                "email": "sekretariat@wejherowo-elektryk.pl",
                "website": "https:\/\/wejherowo-elektryk.pl\/",
                "ref:regon": "386932374",
                "operator": "Powiat Wejherowski",
                "operator:type": "government",
                "amenity": "school",
                "note": "Parent RSPO: 6319"
            }
        },
        {
            "id": 272781,
            "type": "Feature",
            "geometry": {
                "type": "Point",
                "coordinates": [
                    18.23299,
                    54.59967
                ]
            },
            "properties": {
                "ref:rspo": 272781,
                "official_name": "Melolandia Karolina Szczepa\u0144ska",
                "name": "Melolandia Karolina Szczepa\u0144ska",
                "addr:postcode": "84-200",
                "addr:city": "Wejherowo",
                "addr:street": "3 Maja",
                "addr:housenumber": "23D",
                "addr:city:simc": 934984,
                "addr:street:sym_ul": 11937,
                "phone": "+48 664171735",
                "email": "wejherowo@yamahaszkola.pl",
                "website": "http:\/\/www.melolandia.pl\/index.php",
                "ref:regon": "384294372",
                "operator": "Karolina Szczepa\u0144ska",
                "operator:type": "private",
                "fixme": "w zale\u017cno\u015bci od przedmiotu dzia\u0142alno\u015bci (np. amenity=training + training=*, amenity=dancing_school, amenity=language_school, amenity=music_school)"
            }
        },
        {
            "id": 8400,
            "type": "Feature",
            "geometry": {
                "type": "Point",
                "coordinates": [
                    18.25261,
                    54.59984
                ]
            },
            "properties": {
                "isced:level": "1;2",
                "ref:rspo": 8400,
                "official_name": "Szko\u0142a Podstawowa Nr 6 im. Tadeusza Ko\u015bciuszki",
                "name": "Szko\u0142a Podstawowa Nr 6",
                "addr:postcode": "84-200",
                "addr:city": "Wejherowo",
                "addr:street": "\u015amiechowska",
                "addr:housenumber": "36",
                "addr:city:simc": 934984,
                "addr:street:sym_ul": 22361,
                "phone": "+48 587386430",
                "email": "sekretariat@sp6wejherowo.pl",
                "website": "http:\/\/www.sp6wejherowo.pl",
                "ref:regon": "000783657",
                "ref:vatin": "PL5881584132",
                "operator": "Miasto Wejherowo",
                "operator:type": "government",
                "amenity": "school"
            }
        },
        {
            "id": 274170,
            "type": "Feature",
            "geometry": {
                "type": "Point",
                "coordinates": [
                    18.25261,
                    54.59981
                ]
            },
            "properties": {
                "ref:rspo": 274170,
                "official_name": "Instytut Edukacji Eduteam w Wejherowie",
                "name": "Instytut Edukacji Eduteam w Wejherowie",
                "addr:postcode": "84-200",
                "addr:city": "Wejherowo",
                "addr:street": "\u015amiechowska",
                "addr:housenumber": "36",
                "addr:city:simc": 934984,
                "addr:street:sym_ul": 22361,
                "email": "biuro@eduteam.pl",
                "ref:regon": "385359990",
                "operator": "Waldemar W\u0119grzynowski",
                "operator:type": "private",
                "amenity": "training"
            }
        },
        {
            "id": 5385,
            "type": "Feature",
            "geometry": {
                "type": "Point",
                "coordinates": [
                    18.22443,
                    54.59993
                ]
            },
            "properties": {
                "ref:rspo": 5385,
                "official_name": "Punkt Przedszkolny \"Bajkowy Dworek\"",
                "name": "Punkt Przedszkolny \"Bajkowy Dworek\"",
                "addr:postcode": "84-200",
                "addr:city": "Wejherowo",
                "addr:street": "Harcerska",
                "addr:housenumber": "22",
                "addr:city:simc": 934984,
                "addr:street:sym_ul": 6523,
                "phone": "+48 502087031",
                "email": "chodorowska.iwona@wp.pl",
                "website": "http:\/\/www.bajkowydworek.edu.pl",
                "ref:regon": "221728740",
                "ref:vatin": "PL5881508160",
                "operator": "Iwonna Chodorowska",
                "operator:type": "private",
                "amenity": "kindergarten"
            }
        },
        {
            "id": 6326,
            "type": "Feature",
            "geometry": {
                "type": "Point",
                "coordinates": [
                    18.24015,
                    54.60095
                ]
            },
            "properties": {
                "isced:level": "1;2",
                "ref:rspo": 6326,
                "official_name": "Szko\u0142a Podstawowa Zgromadzenia Si\u00f3str Zmartwychwstania Pa\u0144skiego im. B\u0142. Alicji Kotowskiej",
                "name": "Szko\u0142a Podstawowa Zgromadzenia Si\u00f3str Zmartwychwstania Pa\u0144skiego",
                "addr:postcode": "84-200",
                "addr:city": "Wejherowo",
                "addr:street": "Klasztorna",
                "addr:housenumber": "9",
                "addr:city:simc": 934984,
                "addr:street:sym_ul": 8485,
                "phone": "+48 586727643",
                "email": "szkola.podstawowa.cr@wp.pl",
                "website": "http:\/\/www.szkolazmartwychwstanek.pl",
                "ref:regon": "221734449",
                "ref:vatin": "PL5881946517",
                "operator": "Zg.ss.zmartwychwstania Pa\u0144skiego, Prowincja Pozna\u0144ska",
                "operator:type": "religious",
                "amenity": "school"
            }
        },
        {
            "id": 6604,
            "type": "Feature",
            "geometry": {
                "type": "Point",
                "coordinates": [
                    18.22682,
                    54.60175
                ]
            },
            "properties": {
                "ref:rspo": 6604,
                "official_name": "Przedszkole Zgromadzenia Si\u00f3str Zmartwychwstania Pa\u0144skiego im. B\u0142. Alicji Kotowskiej",
                "name": "Przedszkole Zgromadzenia Si\u00f3str Zmartwychwstania Pa\u0144skiego",
                "addr:postcode": "84-200",
                "addr:city": "Wejherowo",
                "addr:street": "Bukowa",
                "addr:housenumber": "1A",
                "addr:city:simc": 934984,
                "addr:street:sym_ul": 2387,
                "phone": "+48 586721134",
                "email": "przedszkolecr@wp.pl",
                "website": "http:\/\/przedszkolecr.pl\/",
                "ref:regon": "221732887",
                "ref:vatin": "PL5881461091",
                "operator": "Zg.ss.zmartwychwstania Pa\u0144skiego, Prowincja Pozna\u0144ska",
                "operator:type": "religious",
                "amenity": "kindergarten"
            }
        },
        {
            "id": 9230,
            "type": "Feature",
            "geometry": {
                "type": "Point",
                "coordinates": [
                    18.22682,
                    54.60172
                ]
            },
            "properties": {
                "isced:level": "3",
                "ref:rspo": 9230,
                "official_name": "I Liceum Og\u00f3lnokszta\u0142c\u0105ce dla Doros\u0142ych w Wejherowie",
                "name": "I Liceum Og\u00f3lnokszta\u0142c\u0105ce dla Doros\u0142ych w Wejherowie",
                "addr:postcode": "84-200",
                "addr:city": "Wejherowo",
                "addr:street": "Bukowa",
                "addr:housenumber": "1",
                "addr:city:simc": 934984,
                "addr:street:sym_ul": 2387,
                "phone": "+48 586722458",
                "email": "sekretariat@liceum1.pl",
                "website": "http:\/\/www.liceum1.pl",
                "ref:regon": "220031711",
                "operator": "Powiat Wejherowski",
                "operator:type": "government",
                "amenity": "school",
                "note": "Parent RSPO: 6148"
            }
        },
        {
            "id": 23579,
            "type": "Feature",
            "geometry": {
                "type": "Point",
                "coordinates": [
                    18.22682,
                    54.601690000000005
                ]
            },
            "properties": {
                "isced:level": "3",
                "ref:rspo": 23579,
                "official_name": "I Liceum Og\u00f3lnokszta\u0142c\u0105ce im. Jana III Sobieskiego w Wejherowie",
                "name": "I Liceum Og\u00f3lnokszta\u0142c\u0105ce",
                "addr:postcode": "84-200",
                "addr:city": "Wejherowo",
                "addr:street": "Bukowa",
                "addr:housenumber": "1",
                "addr:city:simc": 934984,
                "addr:street:sym_ul": 2387,
                "phone": "+48 586722458",
                "email": "sekretariat@liceum1.pl",
                "website": "http:\/\/www.liceum1.pl",
                "ref:regon": "192777202",
                "operator": "Powiat Wejherowski",
                "operator:type": "government",
                "amenity": "school",
                "note": "Parent RSPO: 6148"
            }
        },
        {
            "id": 6148,
            "type": "Feature",
            "geometry": {
                "type": "Point",
                "coordinates": [
                    18.22631,
                    54.60178
                ]
            },
            "properties": {
                "ref:rspo": 6148,
                "official_name": "Powiatowy Zesp\u00f3\u0142 Szk\u00f3\u0142 Nr 1 w Wejherowie",
                "name": "Powiatowy Zesp\u00f3\u0142 Szk\u00f3\u0142 Nr 1 w Wejherowie",
                "addr:postcode": "84-200",
                "addr:city": "Wejherowo",
                "addr:street": "Bukowa",
                "addr:housenumber": "2c",
                "addr:city:simc": 934984,
                "addr:street:sym_ul": 2387,
                "phone": "+48 586722458",
                "email": "sekretariat@liceum1.pl",
                "website": "http:\/\/www.liceum1.pl",
                "ref:regon": "000783700",
                "ref:vatin": "PL5881513238",
                "operator": "Powiat Wejherowski",
                "operator:type": "government",
                "landuse": "education",
                "fixme": "amenity=school, amenity=college albo landuse=education w zale\u017cno\u015bci od tego, jakie plac\u00f3wki wchodz\u0105 w sk\u0142ad zespo\u0142u. Sprawd\u017a, kiedy stosowa\u0107 amenity=* a kiedy landuse=education.",
                "note": "Children RSPO: 9230;23579"
            }
        },
        {
            "id": 22180,
            "type": "Feature",
            "geometry": {
                "type": "Point",
                "coordinates": [
                    18.23828,
                    54.6021
                ]
            },
            "properties": {
                "ref:rspo": 22180,
                "official_name": "O.k. O\u015brodek Kurs\u00f3w",
                "name": "O.k. O\u015brodek Kurs\u00f3w",
                "addr:postcode": "84-200",
                "addr:city": "Wejherowo",
                "addr:street": "Jana III Sobieskiego",
                "addr:housenumber": "217",
                "addr:city:simc": 934984,
                "addr:street:sym_ul": 20431,
                "phone": "+48 586722439",
                "email": "biuro@ok-kursy.pl",
                "website": "http:\/\/www.ok-kursy.pl",
                "ref:regon": "221751689",
                "ref:vatin": "PL5880002211",
                "operator": "Edmund Kwidzi\u0144ski",
                "operator:type": "private",
                "fixme": "w zale\u017cno\u015bci od przedmiotu dzia\u0142alno\u015bci (np. amenity=training + training=*, amenity=dancing_school, amenity=language_school, amenity=music_school)"
            }
        },
        {
            "id": 22886,
            "type": "Feature",
            "geometry": {
                "type": "Point",
                "coordinates": [
                    18.2372,
                    54.60225
                ]
            },
            "properties": {
                "ref:rspo": 22886,
                "official_name": "Centrum Psychologiczno-Pedagogiczne Trampolina",
                "name": "Centrum Psychologiczno-Pedagogiczne Trampolina",
                "addr:postcode": "84-200",
                "addr:city": "Wejherowo",
                "addr:street": "Jana III Sobieskiego",
                "addr:housenumber": "221",
                "addr:door": "3",
                "addr:city:simc": 934984,
                "addr:street:sym_ul": 20431,
                "phone": "+48 723002004",
                "email": "centrum-trampolina@wp.pl",
                "ref:regon": "221752980",
                "operator": "Trampolina Sp\u00f3\u0142ka Z Ograniczon\u0105 Odpowiedzialno\u015bci\u0105",
                "operator:type": "private",
                "healthcare": "counselling",
                "counselling_type": "education",
                "fixme": "w zale\u017cno\u015bci od przedmiotu dzia\u0142alno\u015bci (np. healthcare=counselling + counselling_type=education albo healthcare=psychotherapist)"
            }
        },
        {
            "id": 14619,
            "type": "Feature",
            "geometry": {
                "type": "Point",
                "coordinates": [
                    18.2399,
                    54.60271
                ]
            },
            "properties": {
                "ref:rspo": 14619,
                "official_name": "Niepubliczne Przedszkole \"Urwis\"",
                "name": "Niepubliczne Przedszkole \"Urwis\"",
                "addr:postcode": "84-200",
                "addr:city": "Wejherowo",
                "addr:street": "Wa\u0142owa",
                "addr:housenumber": "20",
                "addr:city:simc": 934984,
                "addr:street:sym_ul": 23586,
                "phone": "+48 586720635",
                "email": "info@przedszkoleurwis.pl",
                "website": "http:\/\/www.przedszkoleurwis.pl",
                "ref:regon": "221741811",
                "operator": "Marta Czoska",
                "operator:type": "private",
                "amenity": "kindergarten"
            }
        },
        {
            "id": 274517,
            "type": "Feature",
            "geometry": {
                "type": "Point",
                "coordinates": [
                    18.27739,
                    54.60286
                ]
            },
            "properties": {
                "ref:rspo": 274517,
                "official_name": "Przedszkole Niepubliczne \"Kraina Kubusia Puchatka - Starszaki\"",
                "name": "Przedszkole Niepubliczne \"Kraina Kubusia Puchatka - Starszaki\"",
                "addr:postcode": "84-200",
                "addr:city": "Wejherowo",
                "addr:street": "Gda\u0144ska",
                "addr:housenumber": "82",
                "addr:city:simc": 934984,
                "addr:street:sym_ul": 5431,
                "phone": "+48 510565237",
                "email": "karolinawojda@poczta.onet.pl",
                "ref:regon": "385889305",
                "operator": "Karolina Wojda",
                "operator:type": "private",
                "amenity": "kindergarten"
            }
        },
        {
            "id": 111382,
            "type": "Feature",
            "geometry": {
                "type": "Point",
                "coordinates": [
                    18.24497,
                    54.60313
                ]
            },
            "properties": {
                "ref:rspo": 111382,
                "official_name": "Pedagogiczna Biblioteka Wojew\u00f3dzka w Gda\u0144sku Filia w Wejherowie",
                "name": "Pedagogiczna Biblioteka Wojew\u00f3dzka w Gda\u0144sku Filia w Wejherowie",
                "addr:postcode": "84-200",
                "addr:city": "Wejherowo",
                "addr:street": "Rze\u017anicka",
                "addr:housenumber": "9",
                "addr:city:simc": 934984,
                "addr:street:sym_ul": 19365,
                "phone": "+48 586713287",
                "email": "pbwwejherowo@pbw.it.pl",
                "ref:regon": "191688264",
                "operator": "Wojew\u00f3dztwo Pomorskie",
                "operator:type": "government",
                "amenity": "library",
                "note": "Parent RSPO: 9619"
            }
        },
        {
            "id": 10586,
            "type": "Feature",
            "geometry": {
                "type": "Point",
                "coordinates": [
                    18.21678,
                    54.60315
                ]
            },
            "properties": {
                "ref:rspo": 10586,
                "official_name": "O\u015brodek Szkolno-Wychowawczy Nr 2 dla Nies\u0142ysz\u0105cych I S\u0142abos\u0142ysz\u0105cych w Wejherowie",
                "name": "O\u015brodek Szkolno-Wychowawczy Nr 2 dla Nies\u0142ysz\u0105cych I S\u0142abos\u0142ysz\u0105cych w Wejherowie",
                "addr:postcode": "84-200",
                "addr:city": "Wejherowo",
                "addr:street": "Jana III Sobieskiego",
                "addr:housenumber": "277c",
                "addr:city:simc": 934984,
                "addr:street:sym_ul": 20431,
                "phone": "+48 586722341",
                "email": "sekretariat@osw2wejherowo.pl",
                "website": "http:\/\/www.osw2wejherowo.pl",
                "ref:regon": "000207540",
                "ref:vatin": "PL5881739267",
                "operator": "Wojew\u00f3dztwo Pomorskie",
                "operator:type": "government",
                "amenity": "school",
                "note": "Children RSPO: 11927;11974;12076;12103;12135;196409;196414;275782"
            }
        },
        {
            "id": 11927,
            "type": "Feature",
            "geometry": {
                "type": "Point",
                "coordinates": [
                    18.21678,
                    54.60312
                ]
            },
            "properties": {
                "ref:rspo": 11927,
                "official_name": "O\u015brodek Szkolno-Wychowawczy Nr 2 dla Nies\u0142ysz\u0105cych I S\u0142abos\u0142ysz\u0105cych w Wejherowie Przedszkole dla Dzieci Nies\u0142ysz\u0105cych",
                "name": "O\u015brodek Szkolno-Wychowawczy Nr 2 dla Nies\u0142ysz\u0105cych I S\u0142abos\u0142ysz\u0105cych w Wejherowie Przedszkole dla Dzieci Nies\u0142ysz\u0105cych",
                "addr:postcode": "84-200",
                "addr:city": "Wejherowo",
                "addr:street": "Jana III Sobieskiego",
                "addr:housenumber": "277c",
                "addr:city:simc": 934984,
                "addr:street:sym_ul": 20431,
                "phone": "+48 586722341",
                "email": "sekretariat@osw2wejherowo.pl",
                "website": "http:\/\/www.osw2wejherowo.pl",
                "ref:regon": "192996594",
                "operator": "Wojew\u00f3dztwo Pomorskie",
                "operator:type": "government",
                "amenity": "kindergarten",
                "note": "Parent RSPO: 10586"
            }
        },
        {
            "id": 11974,
            "type": "Feature",
            "geometry": {
                "type": "Point",
                "coordinates": [
                    18.21678,
                    54.60309
                ]
            },
            "properties": {
                "isced:level": "1;2",
                "ref:rspo": 11974,
                "official_name": "Szko\u0142a Podstawowa Specjalna Nr 10 w Specjalnym O\u015brodku Szkolno - Wychowawczym Nr 2 dla Nies\u0142ysz\u0105cych I S\u0142abos\u0142ysz\u0105cych im. Jana Siestrzy\u0144skiego w Wejherowie",
                "name": "Szko\u0142a Podstawowa Specjalna Nr 10 w Specjalnym O\u015brodku Szkolno - Wychowawczym Nr 2 dla Nies\u0142ysz\u0105cych I S\u0142abos\u0142ysz\u0105cych",
                "addr:postcode": "84-200",
                "addr:city": "Wejherowo",
                "addr:street": "Jana III Sobieskiego",
                "addr:housenumber": "277c",
                "addr:city:simc": 934984,
                "addr:street:sym_ul": 20431,
                "phone": "+48 586722341",
                "email": "sekretariat@osw2wejherowo.pl",
                "website": "http:\/\/www.osw2wejherowo.pl",
                "ref:regon": "192996631",
                "operator": "Wojew\u00f3dztwo Pomorskie",
                "operator:type": "government",
                "amenity": "school",
                "note": "Parent RSPO: 10586"
            }
        },
        {
            "id": 12076,
            "type": "Feature",
            "geometry": {
                "type": "Point",
                "coordinates": [
                    18.21678,
                    54.60306
                ]
            },
            "properties": {
                "isced:level": "3",
                "ref:rspo": 12076,
                "official_name": "Bran\u017cowa Szko\u0142a Specjalna I Stopnia Nr 4 w Specjalnym O\u015brodku Szkolno-Wychowawczym Nr 2 dla Nies\u0142ysz\u0105cych I S\u0142abos\u0142ysz\u0105cych im. Jana Siestrzy\u0144skiego w Wejherowie",
                "name": "Bran\u017cowa Szko\u0142a Specjalna I Stopnia Nr 4 w Specjalnym O\u015brodku Szkolno-Wychowawczym Nr 2 dla Nies\u0142ysz\u0105cych I S\u0142abos\u0142ysz\u0105cych",
                "addr:postcode": "84-200",
                "addr:city": "Wejherowo",
                "addr:street": "Jana III Sobieskiego",
                "addr:housenumber": "277c",
                "addr:city:simc": 934984,
                "addr:street:sym_ul": 20431,
                "phone": "+48 586722341",
                "email": "sekretariat@osw2wejherowo.pl",
                "website": "http:\/\/www.osw2wejherowo.pl",
                "ref:regon": "192996648",
                "operator": "Wojew\u00f3dztwo Pomorskie",
                "operator:type": "government",
                "amenity": "school",
                "note": "Parent RSPO: 10586"
            }
        },
        {
            "id": 12103,
            "type": "Feature",
            "geometry": {
                "type": "Point",
                "coordinates": [
                    18.21678,
                    54.60303
                ]
            },
            "properties": {
                "isced:level": "3",
                "ref:rspo": 12103,
                "official_name": "Technikum Specjalne Nr 4 w Specjalnym O\u015brodku Szkolno - Wychowawczym Nr 2 dla Nies\u0142ysz\u0105cych I S\u0142abos\u0142ysz\u0105cych im. Jana Siestrzy\u0144skiego w Wejherowie",
                "name": "Technikum Specjalne Nr 4 w Specjalnym O\u015brodku Szkolno - Wychowawczym Nr 2 dla Nies\u0142ysz\u0105cych I S\u0142abos\u0142ysz\u0105cych",
                "addr:postcode": "84-200",
                "addr:city": "Wejherowo",
                "addr:street": "Jana III Sobieskiego",
                "addr:housenumber": "277c",
                "addr:city:simc": 934984,
                "addr:street:sym_ul": 20431,
                "phone": "+48 586722341",
                "email": "sekretariat@osw2wejherowo.pl",
                "website": "http:\/\/www.osw2wejherowo.pl",
                "ref:regon": "192996683",
                "operator": "Wojew\u00f3dztwo Pomorskie",
                "operator:type": "government",
                "amenity": "school",
                "note": "Parent RSPO: 10586"
            }
        },
        {
            "id": 12135,
            "type": "Feature",
            "geometry": {
                "type": "Point",
                "coordinates": [
                    18.21678,
                    54.603
                ]
            },
            "properties": {
                "isced:level": "4",
                "ref:rspo": 12135,
                "official_name": "Szko\u0142a Policealna Specjalna Nr 6 w Specjalnym O\u015brodku Szkolno - Wychowawczym Nr 2 dla Nies\u0142ysz\u0105cych I S\u0142abos\u0142ysz\u0105cych im. Jana Siestrzy\u0144skiego w Wejherowie",
                "name": "Szko\u0142a Policealna Specjalna Nr 6 w Specjalnym O\u015brodku Szkolno - Wychowawczym Nr 2 dla Nies\u0142ysz\u0105cych I S\u0142abos\u0142ysz\u0105cych",
                "addr:postcode": "84-200",
                "addr:city": "Wejherowo",
                "addr:street": "Jana III Sobieskiego",
                "addr:housenumber": "277c",
                "addr:city:simc": 934984,
                "addr:street:sym_ul": 20431,
                "phone": "+48 586722341",
                "email": "sekretariat@osw2wejherowo.pl",
                "website": "http:\/\/www.osw2wejherowo.pl",
                "ref:regon": "220356880",
                "operator": "Wojew\u00f3dztwo Pomorskie",
                "operator:type": "government",
                "amenity": "college",
                "note": "Parent RSPO: 10586"
            }
        },
        {
            "id": 196409,
            "type": "Feature",
            "geometry": {
                "type": "Point",
                "coordinates": [
                    18.21678,
                    54.60297
                ]
            },
            "properties": {
                "isced:level": "3",
                "ref:rspo": 196409,
                "official_name": "Vi Liceum Og\u00f3lnokszta\u0142c\u0105ce Specjalne w Specjalnym O\u015brodku Szkolno-Wychowawczym Nr 2 dla Nies\u0142ysz\u0105cych I S\u0142abos\u0142ysz\u0105cych im. Jana Siestrzy\u0144skiego w Wejherowie",
                "name": "Vi Liceum Og\u00f3lnokszta\u0142c\u0105ce Specjalne w Specjalnym O\u015brodku Szkolno-Wychowawczym Nr 2 dla Nies\u0142ysz\u0105cych I S\u0142abos\u0142ysz\u0105cych",
                "addr:postcode": "84-200",
                "addr:city": "Wejherowo",
                "addr:street": "Jana III Sobieskiego",
                "addr:housenumber": "277c",
                "addr:city:simc": 934984,
                "addr:street:sym_ul": 20431,
                "phone": "+48 586722341",
                "email": "sekretariat@osw2wejherowo.pl",
                "website": "http:\/\/www.osw2wejherowo.pl",
                "ref:regon": "367993726",
                "operator": "Wojew\u00f3dztwo Pomorskie",
                "operator:type": "government",
                "amenity": "school",
                "note": "Parent RSPO: 10586"
            }
        },
        {
            "id": 196414,
            "type": "Feature",
            "geometry": {
                "type": "Point",
                "coordinates": [
                    18.21678,
                    54.60294
                ]
            },
            "properties": {
                "ref:rspo": 196414,
                "official_name": "Szko\u0142a Specjalna Przysposabiaj\u0105ca Do Pracy Nr 2 w Specjalnym O\u015brodku Szkolno-Wychowawczym Nr 2 dla Nies\u0142ysz\u0105cych I S\u0142abos\u0142ysz\u0105cych im. Jana Siestrzy\u0144skiego w Wejherowie",
                "name": "Szko\u0142a Specjalna Przysposabiaj\u0105ca Do Pracy Nr 2 w Specjalnym O\u015brodku Szkolno-Wychowawczym Nr 2 dla Nies\u0142ysz\u0105cych I S\u0142abos\u0142ysz\u0105cych",
                "addr:postcode": "84-200",
                "addr:city": "Wejherowo",
                "addr:street": "Jana III Sobieskiego",
                "addr:housenumber": "277c",
                "addr:city:simc": 934984,
                "addr:street:sym_ul": 20431,
                "phone": "+48 586722341",
                "email": "sekretariat@osw2wejherowo.pl",
                "website": "http:\/\/www.osw2wejherowo.pl",
                "ref:regon": "367993904",
                "operator": "Wojew\u00f3dztwo Pomorskie",
                "operator:type": "government",
                "amenity": "school",
                "note": "Parent RSPO: 10586"
            }
        },
        {
            "id": 275782,
            "type": "Feature",
            "geometry": {
                "type": "Point",
                "coordinates": [
                    18.21678,
                    54.60291
                ]
            },
            "properties": {
                "isced:level": "3",
                "ref:rspo": 275782,
                "official_name": "Bran\u017cowa Szko\u0142a Specjalna II Stopnia Nr 4 w Specjalnym O\u015brodku Szkolno - Wychowawczym Nr 2 dla Nies\u0142ysz\u0105cych I S\u0142abos\u0142ysz\u0105cych im. Jana Siestrzy\u0144skiego w Wejherowie",
                "name": "Bran\u017cowa Szko\u0142a Specjalna II Stopnia Nr 4 w Specjalnym O\u015brodku Szkolno - Wychowawczym Nr 2 dla Nies\u0142ysz\u0105cych I S\u0142abos\u0142ysz\u0105cych",
                "addr:postcode": "84-200",
                "addr:city": "Wejherowo",
                "addr:street": "Jana III Sobieskiego",
                "addr:housenumber": "277c",
                "addr:city:simc": 934984,
                "addr:street:sym_ul": 20431,
                "phone": "+48 586722341",
                "email": "sekretariat@osw2wejherowo.pl",
                "website": "http:\/\/www.osw2wejherowo.pl",
                "ref:regon": "386940050",
                "operator": "Wojew\u00f3dztwo Pomorskie",
                "operator:type": "government",
                "amenity": "school",
                "note": "Parent RSPO: 10586"
            }
        },
        {
            "id": 115587,
            "type": "Feature",
            "geometry": {
                "type": "Point",
                "coordinates": [
                    18.2139,
                    54.60327
                ]
            },
            "properties": {
                "ref:rspo": 115587,
                "official_name": "Powiatowy Zesp\u00f3\u0142 Kszta\u0142cenia Specjalnego w Wejherowie",
                "name": "Powiatowy Zesp\u00f3\u0142 Kszta\u0142cenia Specjalnego w Wejherowie",
                "addr:postcode": "84-200",
                "addr:city": "Wejherowo",
                "addr:street": "Jana III Sobieskiego",
                "addr:housenumber": "279",
                "addr:city:simc": 934984,
                "addr:street:sym_ul": 20431,
                "phone": "+48 586722205",
                "email": "pzks.sekretariat@pzks.edu.pl",
                "website": "http:\/\/www.sosw-wejherowo.pl",
                "ref:regon": "221916216",
                "ref:vatin": "PL5882400476",
                "operator": "Powiat Wejherowski",
                "operator:type": "government",
                "landuse": "education",
                "fixme": "amenity=school, amenity=college albo landuse=education w zale\u017cno\u015bci od tego, jakie plac\u00f3wki wchodz\u0105 w sk\u0142ad zespo\u0142u. Sprawd\u017a, kiedy stosowa\u0107 amenity=* a kiedy landuse=education.",
                "note": "Children RSPO: 23918;24747;30199;263350"
            }
        },
        {
            "id": 111225,
            "type": "Feature",
            "geometry": {
                "type": "Point",
                "coordinates": [
                    18.2139,
                    54.60324
                ]
            },
            "properties": {
                "isced:level": "1;2",
                "ref:rspo": 111225,
                "official_name": "Szko\u0142a Podstawowa Nr 7 Specjalna w Wejherowie",
                "name": "Szko\u0142a Podstawowa Nr 7 Specjalna w Wejherowie",
                "addr:postcode": "84-200",
                "addr:city": "Wejherowo",
                "addr:street": "Jana III Sobieskiego",
                "addr:housenumber": "279",
                "addr:city:simc": 934984,
                "addr:street:sym_ul": 20431,
                "phone": "+48 586722932",
                "email": "pzks.sekretariat@pzks.edu.pl",
                "website": "http:\/\/www.sosw-wejherowo.pl",
                "ref:regon": "192986331",
                "operator": "Powiat Wejherowski",
                "operator:type": "government",
                "amenity": "school",
                "note": "Parent RSPO: 30199"
            }
        },
        {
            "id": 111227,
            "type": "Feature",
            "geometry": {
                "type": "Point",
                "coordinates": [
                    18.2139,
                    54.603210000000004
                ]
            },
            "properties": {
                "ref:rspo": 111227,
                "official_name": "Szko\u0142a Specjalna Przysposabiaj\u0105ca Do Pracy Nr 1 w Wejherowie",
                "name": "Szko\u0142a Specjalna Przysposabiaj\u0105ca Do Pracy Nr 1 w Wejherowie",
                "addr:postcode": "84-200",
                "addr:city": "Wejherowo",
                "addr:street": "Jana III Sobieskiego",
                "addr:housenumber": "279",
                "addr:city:simc": 934984,
                "addr:street:sym_ul": 20431,
                "phone": "+48 586722205",
                "email": "sosw@2com.pl",
                "website": "http:\/\/www.sosw-wejherowo.pl",
                "ref:regon": "193080390",
                "operator": "Powiat Wejherowski",
                "operator:type": "government",
                "amenity": "school",
                "note": "Parent RSPO: 30199"
            }
        },
        {
            "id": 111228,
            "type": "Feature",
            "geometry": {
                "type": "Point",
                "coordinates": [
                    18.2139,
                    54.60318
                ]
            },
            "properties": {
                "isced:level": "3",
                "ref:rspo": 111228,
                "official_name": "Bran\u017cowa Szko\u0142a I Stopnia Nr 5 Specjalna w Wejherowie",
                "name": "Bran\u017cowa Szko\u0142a I Stopnia Nr 5 Specjalna w Wejherowie",
                "addr:postcode": "84-200",
                "addr:city": "Wejherowo",
                "addr:street": "Jana III Sobieskiego",
                "addr:housenumber": "279",
                "addr:city:simc": 934984,
                "addr:street:sym_ul": 20431,
                "phone": "+48 586722205",
                "email": "sosw@2com.pl",
                "website": "http:\/\/www.sosw-wejherowo.pl",
                "ref:regon": "192986377",
                "operator": "Powiat Wejherowski",
                "operator:type": "government",
                "amenity": "school",
                "note": "Parent RSPO: 30199"
            }
        },
        {
            "id": 30199,
            "type": "Feature",
            "geometry": {
                "type": "Point",
                "coordinates": [
                    18.2139,
                    54.60315
                ]
            },
            "properties": {
                "ref:rspo": 30199,
                "official_name": "Specjalny O\u015brodek Szkolno-Wychowawczy Nr 1 im. Janusza Korczaka w Wejherowie",
                "name": "Specjalny O\u015brodek Szkolno-Wychowawczy Nr 1",
                "addr:postcode": "84-200",
                "addr:city": "Wejherowo",
                "addr:street": "Jana III Sobieskiego",
                "addr:housenumber": "279",
                "addr:city:simc": 934984,
                "addr:street:sym_ul": 20431,
                "phone": "+48 586722205",
                "email": "sosw@2com.pl",
                "website": "http:\/\/www.sosw-wejherowo.pl",
                "ref:regon": "000206753",
                "ref:vatin": "PL5880014651",
                "operator": "Powiat Wejherowski",
                "operator:type": "government",
                "amenity": "school",
                "note": "Children RSPO: 111225;111227;111228Parent RSPO: 115587"
            }
        },
        {
            "id": 263350,
            "type": "Feature",
            "geometry": {
                "type": "Point",
                "coordinates": [
                    18.2139,
                    54.603120000000004
                ]
            },
            "properties": {
                "ref:rspo": 263350,
                "official_name": "Przedszkole Specjalne w Wejherowie",
                "name": "Przedszkole Specjalne w Wejherowie",
                "addr:postcode": "84-200",
                "addr:city": "Wejherowo",
                "addr:street": "Jana III Sobieskiego",
                "addr:housenumber": "279",
                "addr:city:simc": 934984,
                "addr:street:sym_ul": 20431,
                "phone": "+48 586722932",
                "email": "sosw@2com.pl",
                "website": "http:\/\/www.sosw-wejherowo.pl\/",
                "ref:regon": "368181947",
                "operator": "Powiat Wejherowski",
                "operator:type": "government",
                "amenity": "kindergarten",
                "note": "Parent RSPO: 115587"
            }
        },
        {
            "id": 132222,
            "type": "Feature",
            "geometry": {
                "type": "Point",
                "coordinates": [
                    18.22542,
                    54.60345
                ]
            },
            "properties": {
                "ref:rspo": 132222,
                "official_name": "Punkt Przedszkolny \"Bajkowy Dworek 2\"",
                "name": "Punkt Przedszkolny \"Bajkowy Dworek 2\"",
                "addr:postcode": "84-200",
                "addr:city": "Wejherowo",
                "addr:street": "Jana III Sobieskiego",
                "addr:housenumber": "334",
                "addr:door": "2",
                "addr:city:simc": 934984,
                "addr:street:sym_ul": 20431,
                "phone": "+48 502087031",
                "email": "chodorowska.iwona@wp.pl",
                "ref:regon": "365512616",
                "operator": "Iwonna Chodorowska",
                "operator:type": "private",
                "amenity": "kindergarten"
            }
        },
        {
            "id": 8644,
            "type": "Feature",
            "geometry": {
                "type": "Point",
                "coordinates": [
                    18.27917,
                    54.60349
                ]
            },
            "properties": {
                "isced:level": "1;2",
                "ref:rspo": 8644,
                "official_name": "Szko\u0142a Podstawowa Nr 5 im. Fryderyka Chopina",
                "name": "Szko\u0142a Podstawowa Nr 5",
                "addr:postcode": "84-200",
                "addr:city": "Wejherowo",
                "addr:street": "Gda\u0144ska",
                "addr:housenumber": "30",
                "addr:city:simc": 934984,
                "addr:street:sym_ul": 5431,
                "phone": "+48 587386350",
                "email": "sekretariat@sp5wejherowo.pl",
                "website": "http:\/\/www.sp5wejherowo.com",
                "ref:regon": "000783663",
                "ref:vatin": "PL5882057311",
                "operator": "Miasto Wejherowo",
                "operator:type": "government",
                "amenity": "school"
            }
        },
        {
            "id": 6996,
            "type": "Feature",
            "geometry": {
                "type": "Point",
                "coordinates": [
                    18.2235,
                    54.60351
                ]
            },
            "properties": {
                "ref:rspo": 6996,
                "official_name": "Powiatowy Zesp\u00f3\u0142 Szk\u00f3\u0142 Nr 4 im. Jakuba Wejhera w Wejherowie",
                "name": "Powiatowy Zesp\u00f3\u0142 Szk\u00f3\u0142 Nr 4",
                "addr:postcode": "84-200",
                "addr:city": "Wejherowo",
                "addr:street": "Jana III Sobieskiego",
                "addr:housenumber": "344",
                "addr:city:simc": 934984,
                "addr:street:sym_ul": 20431,
                "phone": "+48 586722415",
                "email": "sekretariat@pzs4-samochodowka.pl",
                "website": "http:\/\/www.pzs4-samochodowka.pl",
                "ref:regon": "000198918",
                "ref:vatin": "PL5881661950",
                "operator": "Powiat Wejherowski",
                "operator:type": "government",
                "landuse": "education",
                "fixme": "amenity=school, amenity=college albo landuse=education w zale\u017cno\u015bci od tego, jakie plac\u00f3wki wchodz\u0105 w sk\u0142ad zespo\u0142u. Sprawd\u017a, kiedy stosowa\u0107 amenity=* a kiedy landuse=education.",
                "note": "Children RSPO: 17862;18253;18447;19371;124620;275450"
            }
        },
        {
            "id": 17862,
            "type": "Feature",
            "geometry": {
                "type": "Point",
                "coordinates": [
                    18.2235,
                    54.60348
                ]
            },
            "properties": {
                "isced:level": "3",
                "ref:rspo": 17862,
                "official_name": "V Liceum Og\u00f3lnokszta\u0142c\u0105ce w Wejherowie",
                "name": "V Liceum Og\u00f3lnokszta\u0142c\u0105ce w Wejherowie",
                "addr:postcode": "84-200",
                "addr:city": "Wejherowo",
                "addr:street": "Jana III Sobieskiego",
                "addr:housenumber": "344",
                "addr:city:simc": 934984,
                "addr:street:sym_ul": 20431,
                "phone": "+48 586722415",
                "email": "sekretariat@pzs4-samochodowka.pl",
                "website": "http:\/\/www.pzs4-samochodowka.pl",
                "ref:regon": "192781959",
                "operator": "Powiat Wejherowski",
                "operator:type": "government",
                "amenity": "school",
                "note": "Parent RSPO: 6996"
            }
        },
        {
            "id": 18253,
            "type": "Feature",
            "geometry": {
                "type": "Point",
                "coordinates": [
                    18.2235,
                    54.60345
                ]
            },
            "properties": {
                "isced:level": "3",
                "ref:rspo": 18253,
                "official_name": "Technikum Nr 3 w Wejherowie",
                "name": "Technikum Nr 3 w Wejherowie",
                "addr:postcode": "84-200",
                "addr:city": "Wejherowo",
                "addr:street": "Jana III Sobieskiego",
                "addr:housenumber": "344",
                "addr:city:simc": 934984,
                "addr:street:sym_ul": 20431,
                "phone": "+48 586722415",
                "email": "sekretariat@pzs4-samochodowka.pl",
                "website": "http:\/\/www.pzs4-samochodowka.pl",
                "ref:regon": "192782002",
                "operator": "Powiat Wejherowski",
                "operator:type": "government",
                "amenity": "school",
                "note": "Parent RSPO: 6996"
            }
        },
        {
            "id": 18447,
            "type": "Feature",
            "geometry": {
                "type": "Point",
                "coordinates": [
                    18.2235,
                    54.60342
                ]
            },
            "properties": {
                "isced:level": "3",
                "ref:rspo": 18447,
                "official_name": "Bran\u017cowa Szko\u0142a I Stopnia Nr 2 w Wejherowie",
                "name": "Bran\u017cowa Szko\u0142a I Stopnia Nr 2 w Wejherowie",
                "addr:postcode": "84-200",
                "addr:city": "Wejherowo",
                "addr:street": "Jana III Sobieskiego",
                "addr:housenumber": "344",
                "addr:city:simc": 934984,
                "addr:street:sym_ul": 20431,
                "phone": "+48 586722415",
                "email": "sekretariat@pzs4-samochodowka.pl",
                "website": "http:\/\/www.pzs4-samochodowka.pl",
                "ref:regon": "192781971",
                "operator": "Powiat Wejherowski",
                "operator:type": "government",
                "amenity": "school",
                "note": "Parent RSPO: 6996"
            }
        },
        {
            "id": 19371,
            "type": "Feature",
            "geometry": {
                "type": "Point",
                "coordinates": [
                    18.2235,
                    54.60339
                ]
            },
            "properties": {
                "isced:level": "4",
                "ref:rspo": 19371,
                "official_name": "Szko\u0142a Policealna Mechaniczna Nr 3 w Wejherowie",
                "name": "Szko\u0142a Policealna Mechaniczna Nr 3 w Wejherowie",
                "addr:postcode": "84-200",
                "addr:city": "Wejherowo",
                "addr:street": "Jana III Sobieskiego",
                "addr:housenumber": "344",
                "addr:city:simc": 934984,
                "addr:street:sym_ul": 20431,
                "phone": "+48 586722415",
                "email": "sekretariat@pzs4-samochodowka.pl",
                "website": "http:\/\/www.pzs4-samochodowka.pl",
                "ref:regon": "221748411",
                "operator": "Powiat Wejherowski",
                "operator:type": "government",
                "amenity": "college",
                "note": "Parent RSPO: 6996"
            }
        },
        {
            "id": 124620,
            "type": "Feature",
            "geometry": {
                "type": "Point",
                "coordinates": [
                    18.2235,
                    54.60336
                ]
            },
            "properties": {
                "isced:level": "3",
                "ref:rspo": 124620,
                "official_name": "Ii Liceum Og\u00f3lnokszta\u0142c\u0105ce dla Doros\u0142ych w Wejherowie",
                "name": "Ii Liceum Og\u00f3lnokszta\u0142c\u0105ce dla Doros\u0142ych w Wejherowie",
                "addr:postcode": "84-200",
                "addr:city": "Wejherowo",
                "addr:street": "Jana III Sobieskiego",
                "addr:housenumber": "344",
                "addr:city:simc": 934984,
                "addr:street:sym_ul": 20431,
                "phone": "+48 586722415",
                "email": "sekretariat@pzs4-samochodowka.pl",
                "website": "http:\/\/www.pzs4-samochodowka.pl",
                "ref:regon": "222152554",
                "operator": "Powiat Wejherowski",
                "operator:type": "government",
                "amenity": "school",
                "note": "Parent RSPO: 6996"
            }
        },
        {
            "id": 275450,
            "type": "Feature",
            "geometry": {
                "type": "Point",
                "coordinates": [
                    18.2235,
                    54.60333
                ]
            },
            "properties": {
                "isced:level": "3",
                "ref:rspo": 275450,
                "official_name": "Bran\u017cowa Szko\u0142a II Stopnia Nr 2 w Wejherowie",
                "name": "Bran\u017cowa Szko\u0142a II Stopnia Nr 2 w Wejherowie",
                "addr:postcode": "84-200",
                "addr:city": "Wejherowo",
                "addr:street": "Jana III Sobieskiego",
                "addr:housenumber": "344",
                "addr:city:simc": 934984,
                "addr:street:sym_ul": 20431,
                "phone": "+48 586722415",
                "email": "sekretariat@pzs4-samochodowka.pl",
                "website": "http:\/\/www.pzs4-samochodowka.pl\/",
                "ref:regon": "386932368",
                "operator": "Powiat Wejherowski",
                "operator:type": "government",
                "amenity": "school",
                "note": "Parent RSPO: 6996"
            }
        },
        {
            "id": 278709,
            "type": "Feature",
            "geometry": {
                "type": "Point",
                "coordinates": [
                    18.24117,
                    54.60362
                ]
            },
            "properties": {
                "ref:rspo": 278709,
                "official_name": "Niepubliczna Poradnia Psychologiczno-Pedagogiczna \"Neuronus\"",
                "name": "Niepubliczna Poradnia Psychologiczno-Pedagogiczna \"Neuronus\"",
                "addr:postcode": "84-200",
                "addr:city": "Wejherowo",
                "addr:street": "Pucka",
                "addr:housenumber": "11",
                "addr:door": "2",
                "addr:city:simc": 934984,
                "addr:street:sym_ul": 18079,
                "phone": "+48 789302506",
                "email": "neuronus.wejherowo@gmail.com",
                "ref:regon": "520045299",
                "operator": "Paulina Tarkowska",
                "operator:type": "private",
                "healthcare": "counselling",
                "counselling_type": "education",
                "fixme": "w zale\u017cno\u015bci od przedmiotu dzia\u0142alno\u015bci (np. healthcare=counselling + counselling_type=education albo healthcare=psychotherapist)"
            }
        },
        {
            "id": 23843,
            "type": "Feature",
            "geometry": {
                "type": "Point",
                "coordinates": [
                    18.22409,
                    54.60376
                ]
            },
            "properties": {
                "ref:rspo": 23843,
                "official_name": "Renata Kowalik \"S\u0142oneczne Przedszkole\"",
                "name": "Renata Kowalik \"S\u0142oneczne Przedszkole\"",
                "addr:postcode": "84-200",
                "addr:city": "Wejherowo",
                "addr:street": "Jana III Sobieskiego",
                "addr:housenumber": "340",
                "addr:city:simc": 934984,
                "addr:street:sym_ul": 20431,
                "phone": "+48 587361003",
                "email": "info@sloneczneprzedszkole.com.pl",
                "website": "http:\/\/www.sloneczneprzedszkole.com.pl",
                "ref:regon": "221753582",
                "ref:vatin": "PL5881191929",
                "operator": "Renata Kowalik",
                "operator:type": "private",
                "amenity": "kindergarten"
            }
        },
        {
            "id": 3743,
            "type": "Feature",
            "geometry": {
                "type": "Point",
                "coordinates": [
                    18.22514,
                    54.60379
                ]
            },
            "properties": {
                "ref:rspo": 3743,
                "official_name": "Przedszkole Niepubliczne \"Przygoda\"",
                "name": "Przedszkole Niepubliczne \"Przygoda\"",
                "addr:postcode": "84-200",
                "addr:city": "Wejherowo",
                "addr:street": "Osiedle 1000-lecia PP",
                "addr:housenumber": "7",
                "addr:city:simc": 934984,
                "addr:street:sym_ul": 13,
                "phone": "+48 586724077",
                "email": "przedszkole.przygoda@wp.pl",
                "ref:regon": "221723457",
                "ref:vatin": "PL5881082169",
                "operator": "Alicja Ratajczak",
                "operator:type": "private",
                "amenity": "kindergarten"
            }
        },
        {
            "id": 25348,
            "type": "Feature",
            "geometry": {
                "type": "Point",
                "coordinates": [
                    18.22879,
                    54.60394
                ]
            },
            "properties": {
                "ref:rspo": 25348,
                "official_name": "Pa\u0144stwowa Szko\u0142a Muzyczna I St. im. Fryderyka Chopina w Wejherowie",
                "name": "Pa\u0144stwowa Szko\u0142a Muzyczna I St.",
                "addr:postcode": "84-200",
                "addr:city": "Wejherowo",
                "addr:street": "Dworcowa",
                "addr:housenumber": "6",
                "addr:city:simc": 934984,
                "addr:street:sym_ul": 4434,
                "email": "psmwejher@data.pl",
                "website": "http:\/\/psm.wejher.pl",
                "ref:regon": "000278712",
                "operator": "Ministerstwo Kultury I Dziedzictwa Narodowego",
                "operator:type": "public",
                "amenity": "music_school"
            }
        },
        {
            "id": 119195,
            "type": "Feature",
            "geometry": {
                "type": "Point",
                "coordinates": [
                    18.22791,
                    54.604
                ]
            },
            "properties": {
                "ref:rspo": 119195,
                "official_name": "Powiatowy Zesp\u00f3\u0142 Szk\u00f3\u0142 Policealnych im. Zdzis\u0142awa Kieturakisa w Wejherowie",
                "name": "Powiatowy Zesp\u00f3\u0142 Szk\u00f3\u0142 Policealnych",
                "addr:postcode": "84-200",
                "addr:city": "Wejherowo",
                "addr:street": "Dworcowa",
                "addr:housenumber": "5",
                "addr:city:simc": 934984,
                "addr:street:sym_ul": 4434,
                "phone": "+48 586722544",
                "email": "sekretariat@medyk-wejherowo.pl",
                "website": "https:\/\/www.medyk-wejherowo.pl\/",
                "ref:regon": "221943390",
                "operator": "Powiat Wejherowski",
                "operator:type": "government",
                "landuse": "education",
                "fixme": "amenity=school, amenity=college albo landuse=education w zale\u017cno\u015bci od tego, jakie plac\u00f3wki wchodz\u0105 w sk\u0142ad zespo\u0142u. Sprawd\u017a, kiedy stosowa\u0107 amenity=* a kiedy landuse=education.",
                "note": "Children RSPO: 119570;119583"
            }
        },
        {
            "id": 119570,
            "type": "Feature",
            "geometry": {
                "type": "Point",
                "coordinates": [
                    18.22791,
                    54.60397
                ]
            },
            "properties": {
                "isced:level": "4",
                "ref:rspo": 119570,
                "official_name": "Szko\u0142a Policealna Wielobran\u017cowa Nr 5 w Wejherowie",
                "name": "Szko\u0142a Policealna Wielobran\u017cowa Nr 5 w Wejherowie",
                "addr:postcode": "84-200",
                "addr:city": "Wejherowo",
                "addr:street": "Dworcowa",
                "addr:housenumber": "5",
                "addr:city:simc": 934984,
                "addr:street:sym_ul": 4434,
                "phone": "+48 586722544",
                "email": "sekretariat@medyk-wejherowo.pl",
                "website": "http:\/\/www.medyk-wejherowo.pl",
                "ref:regon": "221947228",
                "operator": "Powiat Wejherowski",
                "operator:type": "government",
                "amenity": "college",
                "note": "Parent RSPO: 119195"
            }
        },
        {
            "id": 119583,
            "type": "Feature",
            "geometry": {
                "type": "Point",
                "coordinates": [
                    18.22791,
                    54.60394
                ]
            },
            "properties": {
                "isced:level": "4",
                "ref:rspo": 119583,
                "official_name": "Szko\u0142a Policealna Medyczno-Spo\u0142eczna Nr 4 w Wejherowie",
                "name": "Szko\u0142a Policealna Medyczno-Spo\u0142eczna Nr 4 w Wejherowie",
                "addr:postcode": "84-200",
                "addr:city": "Wejherowo",
                "addr:street": "Dworcowa",
                "addr:housenumber": "5",
                "addr:city:simc": 934984,
                "addr:street:sym_ul": 4434,
                "phone": "+48 586722544",
                "email": "sekretariat@medyk-wejherowo.pl",
                "website": "http:\/\/www.medyk-wejherowo.pl",
                "ref:regon": "221947240",
                "operator": "Powiat Wejherowski",
                "operator:type": "government",
                "amenity": "college",
                "note": "Parent RSPO: 119195"
            }
        },
        {
            "id": 278486,
            "type": "Feature",
            "geometry": {
                "type": "Point",
                "coordinates": [
                    18.23735,
                    54.6043
                ]
            },
            "properties": {
                "ref:rspo": 278486,
                "official_name": "Niepubliczna Poradnia Psychologiczno-Pedagogiczna \"Liberi\"",
                "name": "Niepubliczna Poradnia Psychologiczno-Pedagogiczna \"Liberi\"",
                "addr:postcode": "84-200",
                "addr:city": "Wejherowo",
                "addr:street": "\u015awi\u0119tego Jana",
                "addr:housenumber": "7B",
                "addr:city:simc": 934984,
                "addr:street:sym_ul": 7113,
                "phone": "+48 883240243",
                "email": "marekuzel@gmail.com",
                "ref:regon": "389925601",
                "operator": "M.j.i. Sp\u00f3\u0142ka Z Ograniczon\u0105 Odpowiedzialno\u015bci\u0105",
                "operator:type": "private",
                "healthcare": "counselling",
                "counselling_type": "education",
                "fixme": "w zale\u017cno\u015bci od przedmiotu dzia\u0142alno\u015bci (np. healthcare=counselling + counselling_type=education albo healthcare=psychotherapist)"
            }
        },
        {
            "id": 6908,
            "type": "Feature",
            "geometry": {
                "type": "Point",
                "coordinates": [
                    18.22685,
                    54.60446
                ]
            },
            "properties": {
                "isced:level": "1;2",
                "ref:rspo": 6908,
                "official_name": "Szko\u0142a Podstawowa Nr 9 im. J\u00f3zefa Wybickiego",
                "name": "Szko\u0142a Podstawowa Nr 9",
                "addr:postcode": "84-200",
                "addr:city": "Wejherowo",
                "addr:street": "Osiedle 1000-lecia PP",
                "addr:housenumber": "15",
                "addr:city:simc": 934984,
                "addr:street:sym_ul": 13,
                "phone": "+48 586722010",
                "email": "sp9.wejherowo@wp.pl",
                "website": "http:\/\/www.sp9.wejherowo.pl",
                "ref:regon": "000783775",
                "ref:vatin": "PL5881584356",
                "operator": "Miasto Wejherowo",
                "operator:type": "government",
                "amenity": "school"
            }
        },
        {
            "id": 8820,
            "type": "Feature",
            "geometry": {
                "type": "Point",
                "coordinates": [
                    18.25854,
                    54.60449
                ]
            },
            "properties": {
                "isced:level": "1;2",
                "ref:rspo": 8820,
                "official_name": "Szko\u0142a Podstawowa Nr 11 im. Teodora Bolduana",
                "name": "Szko\u0142a Podstawowa Nr 11",
                "addr:postcode": "84-200",
                "addr:city": "Wejherowo",
                "addr:street": "Osiedle Kaszubskie",
                "addr:housenumber": "27",
                "addr:city:simc": 934984,
                "addr:street:sym_ul": 8186,
                "phone": "+48 587386330",
                "email": "sekretariat@sp11wejherowo.pl",
                "website": "http:\/\/www.sp11wejherowo.pl",
                "ref:regon": "192946900",
                "operator": "Miasto Wejherowo",
                "operator:type": "government",
                "amenity": "school"
            }
        },
        {
            "id": 22181,
            "type": "Feature",
            "geometry": {
                "type": "Point",
                "coordinates": [
                    18.25854,
                    54.604459999999996
                ]
            },
            "properties": {
                "ref:rspo": 22181,
                "official_name": "Zesp\u00f3\u0142 Szk\u00f3\u0142 Niepublicznych w Wejherowie",
                "name": "Zesp\u00f3\u0142 Szk\u00f3\u0142 Niepublicznych w Wejherowie",
                "addr:postcode": "84-200",
                "addr:city": "Wejherowo",
                "addr:street": "Osiedle Kaszubskie",
                "addr:housenumber": "27",
                "addr:city:simc": 934984,
                "addr:street:sym_ul": 8186,
                "phone": "+48 586773035",
                "email": "zsnww@wp.pl",
                "website": "http:\/\/www.zsnwejherowo.pl",
                "ref:regon": "221751755",
                "ref:vatin": "PL7390108392",
                "operator": "Janusz R\u0105czkiewicz",
                "operator:type": "private",
                "landuse": "education",
                "fixme": "amenity=school, amenity=college albo landuse=education w zale\u017cno\u015bci od tego, jakie plac\u00f3wki wchodz\u0105 w sk\u0142ad zespo\u0142u. Sprawd\u017a, kiedy stosowa\u0107 amenity=* a kiedy landuse=education.",
                "note": "Children RSPO: 42077;42218"
            }
        },
        {
            "id": 42077,
            "type": "Feature",
            "geometry": {
                "type": "Point",
                "coordinates": [
                    18.25854,
                    54.60443
                ]
            },
            "properties": {
                "isced:level": "4",
                "ref:rspo": 42077,
                "official_name": "Niepubliczna Szko\u0142a Policealna w Wejherowie",
                "name": "Niepubliczna Szko\u0142a Policealna w Wejherowie",
                "addr:postcode": "84-200",
                "addr:city": "Wejherowo",
                "addr:street": "Osiedle Kaszubskie",
                "addr:housenumber": "27",
                "addr:city:simc": 934984,
                "addr:street:sym_ul": 8186,
                "phone": "+48 586773035",
                "email": "zsnww@wp.pl",
                "website": "http:\/\/www.zsnwejherowo.pl",
                "ref:regon": "221764321",
                "operator": "Janusz R\u0105czkiewicz",
                "operator:type": "private",
                "amenity": "college",
                "note": "Parent RSPO: 22181"
            }
        },
        {
            "id": 42218,
            "type": "Feature",
            "geometry": {
                "type": "Point",
                "coordinates": [
                    18.25854,
                    54.6044
                ]
            },
            "properties": {
                "isced:level": "3",
                "ref:rspo": 42218,
                "official_name": "Niepubliczne Liceum Og\u00f3lnokszta\u0142c\u0105ce dla Doros\u0142ych w Wejherowie",
                "name": "Niepubliczne Liceum Og\u00f3lnokszta\u0142c\u0105ce dla Doros\u0142ych w Wejherowie",
                "addr:postcode": "84-200",
                "addr:city": "Wejherowo",
                "addr:street": "Osiedle Kaszubskie",
                "addr:housenumber": "27",
                "addr:city:simc": 934984,
                "addr:street:sym_ul": 8186,
                "phone": "+48 586773035",
                "email": "zsnww@wp.pl",
                "website": "http:\/\/www.zsnwejherowo.pl",
                "ref:regon": "221764404",
                "operator": "Janusz R\u0105czkiewicz",
                "operator:type": "private",
                "amenity": "school",
                "note": "Parent RSPO: 22181"
            }
        },
        {
            "id": 270314,
            "type": "Feature",
            "geometry": {
                "type": "Point",
                "coordinates": [
                    18.2557,
                    54.60472
                ]
            },
            "properties": {
                "ref:rspo": 270314,
                "official_name": "Niepubliczne Przedszkole \"Akademia Krasnala\"",
                "name": "Niepubliczne Przedszkole \"Akademia Krasnala\"",
                "addr:postcode": "84-200",
                "addr:city": "Wejherowo",
                "addr:street": "Kaszubska",
                "addr:housenumber": "12A",
                "addr:city:simc": 934984,
                "addr:street:sym_ul": 8183,
                "phone": "+48 510910027",
                "email": "akademia.krasnala@onet.pl",
                "website": "http:\/\/www.akademiakrasnala.pl",
                "ref:regon": "382352958",
                "operator": "Alina Kliczykowska",
                "operator:type": "private",
                "amenity": "kindergarten"
            }
        },
        {
            "id": 264076,
            "type": "Feature",
            "geometry": {
                "type": "Point",
                "coordinates": [
                    18.29859,
                    54.605
                ]
            },
            "properties": {
                "ref:rspo": 264076,
                "official_name": "Niepubliczne Przedszkole \"Le\u015bna Kraina II'",
                "name": "Niepubliczne Przedszkole \"Le\u015bna Kraina II'",
                "addr:postcode": "84-200",
                "addr:city": "Wejherowo",
                "addr:street": "Elizy Orzeszkowej",
                "addr:housenumber": "5",
                "addr:city:simc": 934984,
                "addr:street:sym_ul": 15209,
                "phone": "+48 534271241",
                "email": "sychosci79@tlen.pl",
                "ref:regon": "368260003",
                "operator": "Dariusz Sychowski",
                "operator:type": "private",
                "amenity": "kindergarten"
            }
        },
        {
            "id": 122222,
            "type": "Feature",
            "geometry": {
                "type": "Point",
                "coordinates": [
                    18.1939199,
                    54.6062901
                ]
            },
            "properties": {
                "ref:rspo": 122222,
                "official_name": "Przedszkole Niepubliczne Edukacyjno-Sportowe \"Mapeciaki II\"",
                "name": "Przedszkole Niepubliczne Edukacyjno-Sportowe \"Mapeciaki II\"",
                "addr:postcode": "84-200",
                "addr:city": "Wejherowo",
                "addr:street": "Jana Kot\u0142owskiego",
                "addr:housenumber": "2A",
                "addr:city:simc": 934984,
                "addr:street:sym_ul": 9622,
                "phone": "+48 506127000",
                "email": "kontakt@mapeciaki.pl",
                "ref:regon": "222042191",
                "operator": "Mapeciaki Sp\u00f3\u0142ka Z Ograniczon\u0105 Odpowiedzialno\u015bci\u0105 Sucharskiego Sp\u00f3\u0142ka Komandytowa",
                "operator:type": "consortium",
                "amenity": "kindergarten"
            }
        },
        {
            "id": 125941,
            "type": "Feature",
            "geometry": {
                "type": "Point",
                "coordinates": [
                    18.24373,
                    54.60633
                ]
            },
            "properties": {
                "ref:rspo": 125941,
                "official_name": "Punkt Przedszkolny \"Mali - Arty\u015bci\"",
                "name": "Punkt Przedszkolny \"Mali - Arty\u015bci\"",
                "addr:postcode": "84-200",
                "addr:city": "Wejherowo",
                "addr:street": "Partyzant\u00f3w",
                "addr:housenumber": "2",
                "addr:door": "2",
                "addr:city:simc": 934984,
                "addr:street:sym_ul": 15733,
                "phone": "+48 692374321",
                "email": "poczta@maliartysci-wejherowo.pl",
                "website": "http:\/\/www.maliartysci-wejherowo.pl",
                "ref:regon": "360135043",
                "ref:vatin": "PL5881312534",
                "operator": "Ilona Rybakowska-Zaboklicka",
                "operator:type": "private",
                "amenity": "kindergarten"
            }
        },
        {
            "id": 125882,
            "type": "Feature",
            "geometry": {
                "type": "Point",
                "coordinates": [
                    18.2898,
                    54.60652
                ]
            },
            "properties": {
                "ref:rspo": 125882,
                "official_name": "Niepubliczne Przedszkole \"Le\u015bna Kraina Przedszkolaka\"",
                "name": "Niepubliczne Przedszkole \"Le\u015bna Kraina Przedszkolaka\"",
                "addr:postcode": "84-200",
                "addr:city": "Wejherowo",
                "addr:street": "Gryfa Pomorskiego",
                "addr:housenumber": "79",
                "addr:city:simc": 934984,
                "addr:street:sym_ul": 6285,
                "phone": "+48 883795997",
                "email": "sychosci79@tlen.pl",
                "ref:regon": "360063622",
                "ref:vatin": "PL5882035539",
                "operator": "Katarzyna Sychowska",
                "operator:type": "private",
                "amenity": "kindergarten"
            }
        },
        {
            "id": 279034,
            "type": "Feature",
            "geometry": {
                "type": "Point",
                "coordinates": [
                    18.2898,
                    54.60649
                ]
            },
            "properties": {
                "ref:rspo": 279034,
                "official_name": "Niepubliczne Przedszkole Sportowo-Edukacyjne \"Olimpijczyk\"",
                "name": "Niepubliczne Przedszkole Sportowo-Edukacyjne \"Olimpijczyk\"",
                "addr:postcode": "84-200",
                "addr:city": "Wejherowo",
                "addr:street": "Gryfa Pomorskiego",
                "addr:housenumber": "79",
                "addr:city:simc": 934984,
                "addr:street:sym_ul": 6285,
                "phone": "+48 500049535",
                "email": "przedszkolegryfa@gmail.com",
                "ref:regon": "520456016",
                "operator": "Joanna Perucka",
                "operator:type": "private",
                "amenity": "kindergarten"
            }
        },
        {
            "id": 279033,
            "type": "Feature",
            "geometry": {
                "type": "Point",
                "coordinates": [
                    18.29735,
                    54.60661
                ]
            },
            "properties": {
                "ref:rspo": 279033,
                "official_name": "Niepubliczne Przedszkole Sportowo-Edukacyjne \"Olimpijczyk II\"",
                "name": "Niepubliczne Przedszkole Sportowo-Edukacyjne \"Olimpijczyk II\"",
                "addr:postcode": "84-200",
                "addr:city": "Wejherowo",
                "addr:street": "Gryfa Pomorskiego",
                "addr:housenumber": "72",
                "addr:door": "s",
                "addr:city:simc": 934984,
                "addr:street:sym_ul": 6285,
                "phone": "+48 500049535",
                "email": "przedszkolegryfa@gmail.com",
                "ref:regon": "520455962",
                "operator": "Joanna Perucka",
                "operator:type": "private",
                "amenity": "kindergarten"
            }
        },
        {
            "id": 2893,
            "type": "Feature",
            "geometry": {
                "type": "Point",
                "coordinates": [
                    18.25029,
                    54.60713
                ]
            },
            "properties": {
                "isced:level": "1;2",
                "ref:rspo": 2893,
                "official_name": "Spo\u0142eczna Szko\u0142a Podstawowa Nr 1",
                "name": "Spo\u0142eczna Szko\u0142a Podstawowa Nr 1",
                "addr:postcode": "84-200",
                "addr:city": "Wejherowo",
                "addr:street": "Obro\u0144c\u00f3w Wybrze\u017ca",
                "addr:housenumber": "1",
                "addr:city:simc": 934984,
                "addr:street:sym_ul": 14663,
                "phone": "+48 586725544",
                "email": "spolwejherowo@wp.pl",
                "website": "http:\/\/spolecznawejherowo.pl",
                "ref:regon": "221718210",
                "ref:vatin": "PL5881008173",
                "operator": "Stowarzyszenie O\u015bwiatowe",
                "operator:type": "ngo",
                "amenity": "school"
            }
        },
        {
            "id": 267792,
            "type": "Feature",
            "geometry": {
                "type": "Point",
                "coordinates": [
                    18.23813,
                    54.60782
                ]
            },
            "properties": {
                "ref:rspo": 267792,
                "official_name": "Beta - Centrum Szkole\u0144",
                "name": "Beta - Centrum Szkole\u0144",
                "addr:postcode": "84-200",
                "addr:city": "Wejherowo",
                "addr:street": "Nanicka",
                "addr:housenumber": "18",
                "addr:city:simc": 934984,
                "addr:street:sym_ul": 13976,
                "phone": "+48 505268959",
                "email": "bhpbeta@gmail.com",
                "website": "https:\/\/bhpbeta.com\/",
                "ref:regon": "380646242",
                "operator": "Piotr Nowak",
                "operator:type": "private",
                "fixme": "w zale\u017cno\u015bci od przedmiotu dzia\u0142alno\u015bci (np. amenity=training + training=*, amenity=dancing_school, amenity=language_school, amenity=music_school)"
            }
        },
        {
            "id": 276900,
            "type": "Feature",
            "geometry": {
                "type": "Point",
                "coordinates": [
                    18.23813,
                    54.607789999999994
                ]
            },
            "properties": {
                "ref:rspo": 276900,
                "official_name": "Bpe Szkolenia",
                "name": "Bpe Szkolenia",
                "addr:postcode": "84-200",
                "addr:city": "Wejherowo",
                "addr:street": "Nanicka",
                "addr:housenumber": "18",
                "addr:city:simc": 934984,
                "addr:street:sym_ul": 13976,
                "phone": "+48 587135362",
                "email": "biuro@bpe.biz.pl",
                "website": "http:\/\/www.bpe.biz.pl",
                "ref:regon": "387810147",
                "operator": "Wojciech Mi\u0142osz",
                "operator:type": "private",
                "fixme": "w zale\u017cno\u015bci od przedmiotu dzia\u0142alno\u015bci (np. amenity=training + training=*, amenity=dancing_school, amenity=language_school, amenity=music_school)"
            }
        },
        {
            "id": 22187,
            "type": "Feature",
            "geometry": {
                "type": "Point",
                "coordinates": [
                    18.27117,
                    54.60811
                ]
            },
            "properties": {
                "ref:rspo": 22187,
                "official_name": "Biuro Us\u0142ug Bhp Anna Ha\u0107. Studium Bezpiecze\u0144stwa I Organizacji Pracy",
                "name": "Biuro Us\u0142ug Bhp Anna Ha\u0107. Studium Bezpiecze\u0144stwa I Organizacji Pracy",
                "addr:postcode": "84-200",
                "addr:city": "Wejherowo",
                "addr:street": "Adama Asnyka",
                "addr:housenumber": "20",
                "addr:city:simc": 934984,
                "addr:street:sym_ul": 470,
                "phone": "+48 586725203",
                "email": "annahac@wp.pl",
                "website": "http:\/\/www.bhpannahac.pl",
                "ref:regon": "221751695",
                "ref:vatin": "PL5881675113",
                "operator": "Anna Ha\u0107",
                "operator:type": "private",
                "fixme": "w zale\u017cno\u015bci od przedmiotu dzia\u0142alno\u015bci (np. amenity=training + training=*, amenity=dancing_school, amenity=language_school, amenity=music_school)"
            }
        },
        {
            "id": 7737,
            "type": "Feature",
            "geometry": {
                "type": "Point",
                "coordinates": [
                    18.23257,
                    54.60838
                ]
            },
            "properties": {
                "ref:rspo": 7737,
                "official_name": "Powiatowy Zesp\u00f3\u0142 Poradni Psychologiczno-Pedagogicznych w Wejherowie",
                "name": "Powiatowy Zesp\u00f3\u0142 Poradni Psychologiczno-Pedagogicznych w Wejherowie",
                "addr:postcode": "84-200",
                "addr:city": "Wejherowo",
                "addr:street": "Ofiar Pia\u015bnicy",
                "addr:housenumber": "22",
                "addr:city:simc": 934984,
                "addr:street:sym_ul": 14798,
                "phone": "+48 586721008",
                "email": "pzwejherowo@wp.pl",
                "website": "http:\/\/www.poradnia-wejherowo.pl",
                "ref:regon": "220475365",
                "ref:vatin": "PL5882238811",
                "operator": "Powiat Wejherowski",
                "operator:type": "government",
                "landuse": "education",
                "fixme": "amenity=school, amenity=college albo landuse=education w zale\u017cno\u015bci od tego, jakie plac\u00f3wki wchodz\u0105 w sk\u0142ad zespo\u0142u. Sprawd\u017a, kiedy stosowa\u0107 amenity=* a kiedy landuse=education.",
                "note": "Children RSPO: 30606;30638"
            }
        },
        {
            "id": 30606,
            "type": "Feature",
            "geometry": {
                "type": "Point",
                "coordinates": [
                    18.23257,
                    54.608349999999994
                ]
            },
            "properties": {
                "ref:rspo": 30606,
                "official_name": "Poradnia Psychologiczno-Pedagogiczna w Wejherowie",
                "name": "Poradnia Psychologiczno-Pedagogiczna w Wejherowie",
                "addr:postcode": "84-200",
                "addr:city": "Wejherowo",
                "addr:street": "Ofiar Pia\u015bnicy",
                "addr:housenumber": "22",
                "addr:city:simc": 934984,
                "addr:street:sym_ul": 14798,
                "phone": "+48 586721008",
                "email": "pzwejherowo@wp.pl",
                "website": "http:\/\/www.poradnia-wejherowo.pl",
                "ref:regon": "221759410",
                "operator": "Powiat Wejherowski",
                "operator:type": "government",
                "healthcare": "counselling",
                "counselling_type": "education",
                "fixme": "w zale\u017cno\u015bci od przedmiotu dzia\u0142alno\u015bci (np. healthcare=counselling + counselling_type=education albo healthcare=psychotherapist)",
                "note": "Parent RSPO: 7737"
            }
        },
        {
            "id": 7073,
            "type": "Feature",
            "geometry": {
                "type": "Point",
                "coordinates": [
                    18.23573,
                    54.60844
                ]
            },
            "properties": {
                "ref:rspo": 7073,
                "official_name": "Przedszkole Samorz\u0105dowe Nr 2 im. Kubusia Puchatka",
                "name": "Przedszkole Samorz\u0105dowe Nr 2",
                "addr:postcode": "84-200",
                "addr:city": "Wejherowo",
                "addr:street": "Hieronima Derdowskiego",
                "addr:housenumber": "1",
                "addr:city:simc": 934984,
                "addr:street:sym_ul": 3769,
                "phone": "+48 586721791",
                "email": "kancelaria@ps2wejherowo.pl",
                "website": "http:\/\/www.ps2wejherowo.pl",
                "ref:regon": "190486587",
                "ref:vatin": "PL5881587136",
                "operator": "Miasto Wejherowo",
                "operator:type": "government",
                "amenity": "kindergarten"
            }
        },
        {
            "id": 272220,
            "type": "Feature",
            "geometry": {
                "type": "Point",
                "coordinates": [
                    18.23786,
                    54.60882
                ]
            },
            "properties": {
                "ref:rspo": 272220,
                "official_name": "Zesp\u00f3\u0142 Szkolno-Przedszkolny Nr 2 w Wejherowie",
                "name": "Zesp\u00f3\u0142 Szkolno-Przedszkolny Nr 2 w Wejherowie",
                "addr:postcode": "84-200",
                "addr:city": "Wejherowo",
                "addr:street": "Nanicka",
                "addr:housenumber": "22",
                "addr:city:simc": 934984,
                "addr:street:sym_ul": 13976,
                "phone": "+48 586721715",
                "email": "zs3@zs3.edu.pl",
                "website": "http:\/\/www.osemka.edu.pl",
                "ref:regon": "384045769",
                "operator": "Miasto Wejherowo",
                "operator:type": "government",
                "landuse": "education",
                "fixme": "amenity=school, amenity=college albo landuse=education w zale\u017cno\u015bci od tego, jakie plac\u00f3wki wchodz\u0105 w sk\u0142ad zespo\u0142u. Sprawd\u017a, kiedy stosowa\u0107 amenity=* a kiedy landuse=education.",
                "note": "Children RSPO: 8723;272219"
            }
        },
        {
            "id": 8723,
            "type": "Feature",
            "geometry": {
                "type": "Point",
                "coordinates": [
                    18.23786,
                    54.60879
                ]
            },
            "properties": {
                "isced:level": "1;2",
                "ref:rspo": 8723,
                "official_name": "Szko\u0142a Podstawowa Nr 8 im. Martyrologii Pia\u015bnicy",
                "name": "Szko\u0142a Podstawowa Nr 8",
                "addr:postcode": "84-200",
                "addr:city": "Wejherowo",
                "addr:street": "Nanicka",
                "addr:housenumber": "22",
                "addr:city:simc": 934984,
                "addr:street:sym_ul": 13976,
                "phone": "+48 586721715",
                "email": "zs3@zs3.edu.pl",
                "website": "http:\/\/www.osemka.edu.pl",
                "ref:regon": "192946981",
                "operator": "Miasto Wejherowo",
                "operator:type": "government",
                "amenity": "school",
                "note": "Parent RSPO: 272220"
            }
        },
        {
            "id": 272219,
            "type": "Feature",
            "geometry": {
                "type": "Point",
                "coordinates": [
                    18.23786,
                    54.608760000000004
                ]
            },
            "properties": {
                "ref:rspo": 272219,
                "official_name": "Przedszkole Samorz\u0105dowe Nr 3 Imienia Weso\u0142ej \u00d3semki",
                "name": "Przedszkole Samorz\u0105dowe Nr 3 Imienia Weso\u0142ej \u00d3semki",
                "addr:postcode": "84-200",
                "addr:city": "Wejherowo",
                "addr:street": "Nanicka",
                "addr:housenumber": "22",
                "addr:city:simc": 934984,
                "addr:street:sym_ul": 13976,
                "phone": "+48 586721715",
                "email": "zs3@zs3.edu.pl",
                "website": "http:\/\/osemka.edu.pl",
                "ref:regon": "384045730",
                "operator": "Miasto Wejherowo",
                "operator:type": "government",
                "amenity": "kindergarten",
                "note": "Parent RSPO: 272220"
            }
        },
        {
            "id": 270313,
            "type": "Feature",
            "geometry": {
                "type": "Point",
                "coordinates": [
                    18.24525,
                    54.60945
                ]
            },
            "properties": {
                "ref:rspo": 270313,
                "official_name": "Niepubliczne Przedszkole \"Nad Rzeczk\u0105\"",
                "name": "Niepubliczne Przedszkole \"Nad Rzeczk\u0105\"",
                "addr:postcode": "84-200",
                "addr:city": "Wejherowo",
                "addr:street": "Fryderyka Chopina",
                "addr:housenumber": "24",
                "addr:city:simc": 934984,
                "addr:street:sym_ul": 2849,
                "phone": "+48 881779333",
                "email": "nad_rzeczka@wp.pl",
                "ref:regon": "382352817",
                "operator": "Punkt Przedszkolny Nad Rzeczk\u0105 Patrycja Fory\u015b, Ma\u0142gorzata Strzecka",
                "operator:type": "consortium",
                "amenity": "kindergarten"
            }
        },
        {
            "id": 120863,
            "type": "Feature",
            "geometry": {
                "type": "Point",
                "coordinates": [
                    18.22767,
                    54.60988
                ]
            },
            "properties": {
                "ref:rspo": 120863,
                "official_name": "Niepubliczne Przedszkole \"Kraina Smyka\"",
                "name": "Niepubliczne Przedszkole \"Kraina Smyka\"",
                "addr:postcode": "84-200",
                "addr:city": "Wejherowo",
                "addr:street": "Stefana \u017beromskiego",
                "addr:housenumber": "21",
                "addr:city:simc": 934984,
                "addr:street:sym_ul": 26469,
                "phone": "+48 788204178",
                "email": "ptaszki@autograf.pl",
                "ref:regon": "221989876",
                "operator": "Wioletta Ptak",
                "operator:type": "private",
                "amenity": "kindergarten"
            }
        },
        {
            "id": 277342,
            "type": "Feature",
            "geometry": {
                "type": "Point",
                "coordinates": [
                    18.24655,
                    54.60989
                ]
            },
            "properties": {
                "ref:rspo": 277342,
                "official_name": "Niepubliczne Przedszkole Artystyczno-J\u0119zykowe \"All About Kids\"",
                "name": "Niepubliczne Przedszkole Artystyczno-J\u0119zykowe \"All About Kids\"",
                "addr:postcode": "84-200",
                "addr:city": "Wejherowo",
                "addr:street": "Starom\u0142y\u0144ska",
                "addr:housenumber": "1C",
                "addr:city:simc": 934984,
                "addr:street:sym_ul": 20958,
                "phone": "+48 887685555",
                "email": "allaboutkids.kontakt@gmail.com",
                "website": "http:\/\/www.allaboutkids.pl",
                "ref:regon": "388660164",
                "operator": "Jolanta Forytta",
                "operator:type": "private",
                "amenity": "kindergarten"
            }
        },
        {
            "id": 6351,
            "type": "Feature",
            "geometry": {
                "type": "Point",
                "coordinates": [
                    18.2031199,
                    54.61127
                ]
            },
            "properties": {
                "ref:rspo": 6351,
                "official_name": "Powiatowy Zesp\u00f3\u0142 Szk\u00f3\u0142 Nr 3 im. Ks. Edmunda Roszczynialskiego w Wejherowie",
                "name": "Powiatowy Zesp\u00f3\u0142 Szk\u00f3\u0142 Nr 3",
                "addr:postcode": "84-200",
                "addr:city": "Wejherowo",
                "addr:street": "Budowlanych",
                "addr:housenumber": "2",
                "addr:city:simc": 934984,
                "addr:street:sym_ul": 2337,
                "phone": "+48 586724451",
                "email": "sekretariat@pzs3.info",
                "website": "http:\/\/www.pzs3.info",
                "ref:regon": "000199214",
                "ref:vatin": "PL5881525916",
                "operator": "Powiat Wejherowski",
                "operator:type": "government",
                "landuse": "education",
                "fixme": "amenity=school, amenity=college albo landuse=education w zale\u017cno\u015bci od tego, jakie plac\u00f3wki wchodz\u0105 w sk\u0142ad zespo\u0142u. Sprawd\u017a, kiedy stosowa\u0107 amenity=* a kiedy landuse=education.",
                "note": "Children RSPO: 13908;15055;17764;30200;128699;275447"
            }
        },
        {
            "id": 13908,
            "type": "Feature",
            "geometry": {
                "type": "Point",
                "coordinates": [
                    18.2031199,
                    54.611239999999995
                ]
            },
            "properties": {
                "isced:level": "3",
                "ref:rspo": 13908,
                "official_name": "Iv Liceum Og\u00f3lnokszta\u0142c\u0105ce w Wejherowie",
                "name": "Iv Liceum Og\u00f3lnokszta\u0142c\u0105ce w Wejherowie",
                "addr:postcode": "84-200",
                "addr:city": "Wejherowo",
                "addr:street": "Budowlanych",
                "addr:housenumber": "2",
                "addr:city:simc": 934984,
                "addr:street:sym_ul": 2337,
                "phone": "+48 586724451",
                "email": "sekretariat@pzs3.info",
                "website": "https:\/\/pzs3.info\/",
                "ref:regon": "192777277",
                "operator": "Powiat Wejherowski",
                "operator:type": "government",
                "amenity": "school",
                "note": "Parent RSPO: 6351"
            }
        },
        {
            "id": 15055,
            "type": "Feature",
            "geometry": {
                "type": "Point",
                "coordinates": [
                    18.2031199,
                    54.61121
                ]
            },
            "properties": {
                "isced:level": "3",
                "ref:rspo": 15055,
                "official_name": "Bran\u017cowa Szko\u0142a I Stopnia Nr 1 w Wejherowie",
                "name": "Bran\u017cowa Szko\u0142a I Stopnia Nr 1 w Wejherowie",
                "addr:postcode": "84-200",
                "addr:city": "Wejherowo",
                "addr:street": "Budowlanych",
                "addr:housenumber": "2",
                "addr:city:simc": 934984,
                "addr:street:sym_ul": 2337,
                "phone": "+48 586724451",
                "email": "sekretariat@pzs3.info",
                "website": "https:\/\/pzs3.info\/",
                "ref:regon": "192777194",
                "operator": "Powiat Wejherowski",
                "operator:type": "government",
                "amenity": "school",
                "note": "Parent RSPO: 6351"
            }
        },
        {
            "id": 17764,
            "type": "Feature",
            "geometry": {
                "type": "Point",
                "coordinates": [
                    18.2031199,
                    54.61118
                ]
            },
            "properties": {
                "isced:level": "4",
                "ref:rspo": 17764,
                "official_name": "Szko\u0142a Policealna Administracyjno-Finansowa Nr 2 w Wejherowie",
                "name": "Szko\u0142a Policealna Administracyjno-Finansowa Nr 2 w Wejherowie",
                "addr:postcode": "84-200",
                "addr:city": "Wejherowo",
                "addr:street": "Budowlanych",
                "addr:housenumber": "2",
                "addr:city:simc": 934984,
                "addr:street:sym_ul": 2337,
                "phone": "+48 586724451",
                "email": "sekretariat@pzs3.info",
                "website": "https:\/\/pzs3.info\/",
                "ref:regon": "220708964",
                "operator": "Powiat Wejherowski",
                "operator:type": "government",
                "amenity": "college",
                "note": "Parent RSPO: 6351"
            }
        },
        {
            "id": 30200,
            "type": "Feature",
            "geometry": {
                "type": "Point",
                "coordinates": [
                    18.2031199,
                    54.611149999999995
                ]
            },
            "properties": {
                "isced:level": "3",
                "ref:rspo": 30200,
                "official_name": "Technikum Nr 2 w Wejherowie",
                "name": "Technikum Nr 2 w Wejherowie",
                "addr:postcode": "84-200",
                "addr:city": "Wejherowo",
                "addr:street": "Budowlanych",
                "addr:housenumber": "2",
                "addr:city:simc": 934984,
                "addr:street:sym_ul": 2337,
                "phone": "+48 586724451",
                "email": "sekretariat@pzs3.info",
                "website": "http:\/\/www.pzs3.info",
                "ref:regon": "192777188",
                "operator": "Powiat Wejherowski",
                "operator:type": "government",
                "amenity": "school",
                "note": "Parent RSPO: 6351"
            }
        },
        {
            "id": 128699,
            "type": "Feature",
            "geometry": {
                "type": "Point",
                "coordinates": [
                    18.2031199,
                    54.61112
                ]
            },
            "properties": {
                "isced:level": "3",
                "ref:rspo": 128699,
                "official_name": "Iii Liceum Og\u00f3lnokszta\u0142c\u0105ce dla Doros\u0142ych w Wejherowie",
                "name": "Iii Liceum Og\u00f3lnokszta\u0142c\u0105ce dla Doros\u0142ych w Wejherowie",
                "addr:postcode": "84-200",
                "addr:city": "Wejherowo",
                "addr:street": "Budowlanych",
                "addr:housenumber": "2",
                "addr:city:simc": 934984,
                "addr:street:sym_ul": 2337,
                "phone": "+48 586724451",
                "email": "sekretariat@pzs3.info",
                "website": "https:\/\/pzs3.info\/",
                "ref:regon": "362375900",
                "operator": "Powiat Wejherowski",
                "operator:type": "government",
                "amenity": "school",
                "note": "Parent RSPO: 6351"
            }
        },
        {
            "id": 275447,
            "type": "Feature",
            "geometry": {
                "type": "Point",
                "coordinates": [
                    18.2031199,
                    54.61109
                ]
            },
            "properties": {
                "isced:level": "3",
                "ref:rspo": 275447,
                "official_name": "Bran\u017cowa Szko\u0142a II Stopnia Nr 1 w Wejherowie",
                "name": "Bran\u017cowa Szko\u0142a II Stopnia Nr 1 w Wejherowie",
                "addr:postcode": "84-200",
                "addr:city": "Wejherowo",
                "addr:street": "Budowlanych",
                "addr:housenumber": "2",
                "addr:city:simc": 934984,
                "addr:street:sym_ul": 2337,
                "phone": "+48 586724451",
                "email": "sekretariat@pzs3.info",
                "website": "https:\/\/pzs3.info\/",
                "ref:regon": "386932322",
                "operator": "Powiat Wejherowski",
                "operator:type": "government",
                "amenity": "school",
                "note": "Parent RSPO: 6351"
            }
        },
        {
            "id": 125883,
            "type": "Feature",
            "geometry": {
                "type": "Point",
                "coordinates": [
                    18.29279,
                    54.61128
                ]
            },
            "properties": {
                "ref:rspo": 125883,
                "official_name": "Niepubliczne Przedszkole \"Akuku\"",
                "name": "Niepubliczne Przedszkole \"Akuku\"",
                "addr:postcode": "84-200",
                "addr:city": "Wejherowo",
                "addr:street": "Franciszka Fenikowskiego",
                "addr:housenumber": "21",
                "addr:city:simc": 934984,
                "addr:street:sym_ul": 4948,
                "phone": "+48 665511504",
                "email": "akukuwejherowo@wp.pl",
                "ref:regon": "360063668",
                "operator": "Ma\u0142gorzata Rakowska",
                "operator:type": "private",
                "amenity": "kindergarten"
            }
        },
        {
            "id": 263081,
            "type": "Feature",
            "geometry": {
                "type": "Point",
                "coordinates": [
                    18.21813,
                    54.61296
                ]
            },
            "properties": {
                "isced:level": "1;2",
                "ref:rspo": 263081,
                "official_name": "Prywatna Szko\u0142a Podstawowa \"Naja Szko\u0142a\"",
                "name": "Prywatna Szko\u0142a Podstawowa \"Naja Szko\u0142a\"",
                "addr:postcode": "84-200",
                "addr:city": "Wejherowo",
                "addr:street": "Przemys\u0142owa",
                "addr:housenumber": "20A",
                "addr:city:simc": 934984,
                "addr:street:sym_ul": 17742,
                "phone": "+48 607155820",
                "email": "sekretariat@najaszkola.eu",
                "website": "http:\/\/www.najaszkola.eu",
                "ref:regon": "368104600",
                "operator": "Artur Jab\u0142o\u0144ski",
                "operator:type": "private",
                "amenity": "school"
            }
        },
        {
            "id": 5424,
            "type": "Feature",
            "geometry": {
                "type": "Point",
                "coordinates": [
                    18.25318,
                    54.61458
                ]
            },
            "properties": {
                "ref:rspo": 5424,
                "official_name": "Niepubliczne Przedszkole Specjalne \"U\u015bmiech Dziecka\"",
                "name": "Niepubliczne Przedszkole Specjalne \"U\u015bmiech Dziecka\"",
                "addr:postcode": "84-200",
                "addr:city": "Wejherowo",
                "addr:street": "Fryderyka Chopina",
                "addr:housenumber": "15",
                "addr:city:simc": 934984,
                "addr:street:sym_ul": 2849,
                "phone": "+48 585727897",
                "email": "fundacja@usmiechdziecka.org.pl",
                "website": "http:\/\/www.fundacjausmiechdziecka.org.pl",
                "ref:regon": "221729951",
                "ref:vatin": "PL5882004467",
                "operator": "Fundacja \"U\u015bmiech Dziecka\"",
                "operator:type": "ngo",
                "amenity": "kindergarten"
            }
        },
        {
            "id": 130932,
            "type": "Feature",
            "geometry": {
                "type": "Point",
                "coordinates": [
                    18.25318,
                    54.614549999999994
                ]
            },
            "properties": {
                "ref:rspo": 130932,
                "official_name": "Niepubliczny O\u015brodek Rewalidacyjno-Wychowawczy",
                "name": "Niepubliczny O\u015brodek Rewalidacyjno-Wychowawczy",
                "addr:postcode": "84-200",
                "addr:city": "Wejherowo",
                "addr:street": "Fryderyka Chopina",
                "addr:housenumber": "15",
                "addr:city:simc": 934984,
                "addr:street:sym_ul": 2849,
                "phone": "+48 585727897",
                "email": "fundacja@usmiechdziecka.org.pl",
                "website": "http:\/\/www.usmiechdziecka.org.pl",
                "ref:regon": "364737744",
                "ref:vatin": "PL5882004467",
                "operator": "Fundacja \"U\u015bmiech Dziecka\"",
                "operator:type": "ngo",
                "amenity": "school"
            }
        },
        {
            "id": 22178,
            "type": "Feature",
            "geometry": {
                "type": "Point",
                "coordinates": [
                    17.89548,
                    54.73882
                ]
            },
            "properties": {
                "ref:rspo": 22178,
                "official_name": "Biuro Us\u0142ug Bhp O\u015brodek Doskonalenia Zawodowego w Wejherowie",
                "name": "Biuro Us\u0142ug Bhp O\u015brodek Doskonalenia Zawodowego w Wejherowie",
                "addr:postcode": "84-200",
                "addr:city": "Wejherowo",
                "addr:street": "I Brygady Pancernej Wojska Polskiego",
                "addr:housenumber": "32",
                "addr:city:simc": 934984,
                "addr:street:sym_ul": 24630,
                "phone": "+48 586726750",
                "email": "biurobhp@poczta.onet.pl",
                "ref:regon": "221751620",
                "ref:vatin": "PL5881481018",
                "operator": "Joanna Hildebrandt",
                "operator:type": "private",
                "fixme": "w zale\u017cno\u015bci od przedmiotu dzia\u0142alno\u015bci (np. amenity=training + training=*, amenity=dancing_school, amenity=language_school, amenity=music_school) albo amenity=school, amenity=college, albo landuse=education w zale\u017cno\u015bci od tego, jakie plac\u00f3wki wchodz\u0105 w sk\u0142ad zespo\u0142u. Sprawd\u017a, kiedy stosowa\u0107 amenity=* a kiedy landuse=education."
            }
        },
        {
            "id": 122267,
            "type": "Feature",
            "geometry": {
                "type": "Point",
                "coordinates": [
                    17.89379,
                    54.7428
                ]
            },
            "properties": {
                "ref:rspo": 122267,
                "official_name": "Przedszkole Niepubliczne Prywatna Plac\u00f3wka Edukacyjna dla Dzieci w Wieku Przedszkolnym \"W\u0119drowniczek\"",
                "name": "Przedszkole Niepubliczne Prywatna Plac\u00f3wka Edukacyjna dla Dzieci w Wieku Przedszkolnym \"W\u0119drowniczek\"",
                "addr:postcode": "84-200",
                "addr:city": "Wejherowo",
                "addr:street": "I Brygady Pancernej Wojska Polskiego",
                "addr:housenumber": "4",
                "addr:city:simc": 934984,
                "addr:street:sym_ul": 24630,
                "phone": "+48 586720235",
                "email": "wedrowniczek4@op.pl",
                "website": "http:\/\/www.przedszkolewedrowniczek.pl",
                "ref:regon": "222044416",
                "ref:vatin": "PL5881097254",
                "operator": "Halina P\u0142o\u0144ska - Niklewska",
                "operator:type": "private",
                "amenity": "kindergarten"
            }
        }
    ]
}