{
    "type": "FeatureCollection",
    "features": [
        {
            "id": 83627,
            "type": "Feature",
            "geometry": {
                "type": "Point",
                "coordinates": [
                    18.36208,
                    54.59425
                ]
            },
            "properties": {
                "ref:rspo": 83627,
                "official_name": "Ptysiowe Przedszkole",
                "name": "Ptysiowe Przedszkole",
                "addr:country": "PL",
                "addr:postcode": "84-240",
                "addr:city": "Reda",
                "addr:street": "Obwodowa",
                "addr:housenumber": "26\/A1",
                "addr:teryt:simc": 934659,
                "addr:teryt:sym_ul": 14685,
                "contact:phone": "+48 697716659",
                "contact:email": "ptysioweprzedszkole@gmail.com",
                "contact:website": "http:\/\/www.ptysioweprzedszkole.pl",
                "ref:regon": "221778398",
                "operator": "Sylwia Stefa\u0144czyk",
                "operator:type": "private",
                "amenity": "kindergarten"
            }
        },
        {
            "id": 265795,
            "type": "Feature",
            "geometry": {
                "type": "Point",
                "coordinates": [
                    18.36501,
                    54.59491
                ]
            },
            "properties": {
                "ref:rspo": 265795,
                "official_name": "Centrum Edufun",
                "name": "Centrum Edufun",
                "addr:country": "PL",
                "addr:postcode": "84-240",
                "addr:city": "Reda",
                "addr:street": "Morska",
                "addr:housenumber": "5",
                "addr:teryt:simc": 934659,
                "addr:teryt:sym_ul": 13296,
                "contact:phone": "+48 792400514",
                "contact:email": "biuro@edufun.pl",
                "contact:website": "https:\/\/edufun.pl\/",
                "ref:regon": "368914479",
                "operator": "Dawid Kubacki",
                "operator:type": "private",
                "fixme": "w zale\u017cno\u015bci od przedmiotu dzia\u0142alno\u015bci (np. amenity=training + training=*, amenity=dancing_school, amenity=language_school, amenity=music_school)"
            }
        },
        {
            "id": 5284,
            "type": "Feature",
            "geometry": {
                "type": "Point",
                "coordinates": [
                    18.34415,
                    54.5962
                ]
            },
            "properties": {
                "isced:level": "1;2",
                "ref:rspo": 5284,
                "official_name": "Szko\u0142a Podstawowa Nr 6 im. Jana Paw\u0142a II w Redzie",
                "name": "Szko\u0142a Podstawowa Nr 6",
                "addr:country": "PL",
                "addr:postcode": "84-240",
                "addr:city": "Reda",
                "addr:street": "Gniewowska",
                "addr:housenumber": "33",
                "addr:teryt:simc": 934659,
                "addr:teryt:sym_ul": 5667,
                "contact:phone": "+48 586787131",
                "contact:email": "sp6reda@reda.pl",
                "contact:website": "http:\/\/www.sp6reda.szkolna.net.pl",
                "ref:regon": "191844468",
                "ref:vatin": "PL5881874781",
                "operator": "Gmina Miasto Reda",
                "operator:type": "government",
                "amenity": "school"
            }
        },
        {
            "id": 5321,
            "type": "Feature",
            "geometry": {
                "type": "Point",
                "coordinates": [
                    18.34315,
                    54.59638
                ]
            },
            "properties": {
                "ref:rspo": 5321,
                "official_name": "Niepubliczny Punkt Przedszkolny \"Chatka Puchatka\"",
                "name": "Niepubliczny Punkt Przedszkolny \"Chatka Puchatka\"",
                "addr:country": "PL",
                "addr:postcode": "84-240",
                "addr:city": "Reda",
                "addr:street": "Gniewowska",
                "addr:housenumber": "36",
                "addr:teryt:simc": 934659,
                "addr:teryt:sym_ul": 5667,
                "ref:regon": "221729112",
                "ref:vatin": "PL5882131817",
                "operator": "Katarzyna Sobczyk",
                "operator:type": "private",
                "amenity": "kindergarten"
            }
        },
        {
            "id": 5637,
            "type": "Feature",
            "geometry": {
                "type": "Point",
                "coordinates": [
                    18.36007,
                    54.59722
                ]
            },
            "properties": {
                "ref:rspo": 5637,
                "official_name": "Niepubliczne Przedszkole Calineczka",
                "name": "Niepubliczne Przedszkole Calineczka",
                "addr:country": "PL",
                "addr:postcode": "84-240",
                "addr:city": "Reda",
                "addr:street": "Jana Brzechwy",
                "addr:housenumber": "1b",
                "addr:door": "1",
                "addr:teryt:simc": 934659,
                "addr:teryt:sym_ul": 2225,
                "contact:phone": "+48 509579957",
                "contact:email": "biuro@calineczkareda.pl",
                "contact:website": "http:\/\/www.calineczkareda.pl",
                "ref:regon": "221730339",
                "ref:vatin": "PL5882182068",
                "operator": "Dagmara Dehling-Balmas",
                "operator:type": "private",
                "amenity": "kindergarten"
            }
        },
        {
            "id": 275005,
            "type": "Feature",
            "geometry": {
                "type": "Point",
                "coordinates": [
                    18.354282,
                    54.5977478
                ]
            },
            "properties": {
                "ref:rspo": 275005,
                "official_name": "Zesp\u00f3\u0142 Szkolno - Przedszkolny Nr 2 w Redzie",
                "name": "Zesp\u00f3\u0142 Szkolno - Przedszkolny Nr 2 w Redzie",
                "addr:country": "PL",
                "addr:postcode": "84-240",
                "addr:city": "Reda",
                "addr:street": "Aleksandra Zawadzkiego",
                "addr:housenumber": "12",
                "addr:teryt:simc": 934659,
                "addr:teryt:sym_ul": 25821,
                "contact:phone": "+48 586783066",
                "contact:email": "sp2reda@wp.pl",
                "ref:regon": "386500462",
                "operator": "Gmina Miasto Reda",
                "operator:type": "government",
                "landuse": "education",
                "fixme": "amenity=school, amenity=college albo landuse=education w zale\u017cno\u015bci od tego, jakie plac\u00f3wki wchodz\u0105 w sk\u0142ad zespo\u0142u. Sprawd\u017a, kiedy stosowa\u0107 amenity=* a kiedy landuse=education.",
                "note": "Children RSPO: 5213;277711"
            }
        },
        {
            "id": 5213,
            "type": "Feature",
            "geometry": {
                "type": "Point",
                "coordinates": [
                    18.354282,
                    54.5977178
                ]
            },
            "properties": {
                "isced:level": "1;2",
                "ref:rspo": 5213,
                "official_name": "Szko\u0142a Podstawowa Nr 2 im. Ma\u0142ego Tr\u00f3jmiasta Kaszubskiego w Redzie",
                "name": "Szko\u0142a Podstawowa Nr 2",
                "addr:country": "PL",
                "addr:postcode": "84-240",
                "addr:city": "Reda",
                "addr:street": "Aleksandra Zawadzkiego",
                "addr:housenumber": "12",
                "addr:teryt:simc": 934659,
                "addr:teryt:sym_ul": 25821,
                "contact:phone": "+48 586783066",
                "contact:email": "sp2reda@wp.pl",
                "ref:regon": "000737574",
                "ref:vatin": "PL5881142569",
                "operator": "Gmina Miasto Reda",
                "operator:type": "government",
                "amenity": "school",
                "note": "Parent RSPO: 275005"
            }
        },
        {
            "id": 277711,
            "type": "Feature",
            "geometry": {
                "type": "Point",
                "coordinates": [
                    18.354282,
                    54.5976878
                ]
            },
            "properties": {
                "ref:rspo": 277711,
                "official_name": "Przedszkole Nr 3 w Redzie",
                "name": "Przedszkole Nr 3 w Redzie",
                "addr:country": "PL",
                "addr:postcode": "84-240",
                "addr:city": "Reda",
                "addr:street": "Aleksandra Zawadzkiego",
                "addr:housenumber": "12",
                "addr:teryt:simc": 934659,
                "addr:teryt:sym_ul": 25821,
                "contact:phone": "+48 586783066",
                "contact:email": "sp2reda@wp.pl",
                "contact:website": "https:\/\/sp2reda.pl\/",
                "ref:regon": "389367650",
                "operator": "Gmina Miasto Reda",
                "operator:type": "government",
                "amenity": "kindergarten",
                "note": "Parent RSPO: 275005"
            }
        },
        {
            "id": 268219,
            "type": "Feature",
            "geometry": {
                "type": "Point",
                "coordinates": [
                    18.34864,
                    54.6014
                ]
            },
            "properties": {
                "ref:rspo": 268219,
                "official_name": "Przedszkole Nr 1 w Redzie",
                "name": "Przedszkole Nr 1 w Redzie",
                "addr:country": "PL",
                "addr:postcode": "84-240",
                "addr:city": "Reda",
                "addr:street": "Gniewowska",
                "addr:housenumber": "4",
                "addr:teryt:simc": 934659,
                "addr:teryt:sym_ul": 5667,
                "contact:phone": "+48 586783395",
                "contact:email": "dyrektor@przedszkole1.reda.pl",
                "contact:website": "http:\/\/przedszkole1.reda.pl",
                "ref:regon": "381031726",
                "operator": "Gmina Miasto Reda",
                "operator:type": "government",
                "amenity": "kindergarten"
            }
        },
        {
            "id": 278757,
            "type": "Feature",
            "geometry": {
                "type": "Point",
                "coordinates": [
                    18.34992,
                    54.60149
                ]
            },
            "properties": {
                "ref:rspo": 278757,
                "official_name": "Montessori House w Redzie",
                "name": "Montessori House w Redzie",
                "addr:country": "PL",
                "addr:postcode": "84-240",
                "addr:city": "Reda",
                "addr:street": "Gda\u0144ska",
                "addr:housenumber": "30",
                "addr:teryt:simc": 934659,
                "addr:teryt:sym_ul": 5431,
                "ref:regon": "520058110",
                "operator": "Janetta Charuta-Kojko\u0142",
                "operator:type": "private",
                "amenity": "kindergarten"
            }
        },
        {
            "id": 128710,
            "type": "Feature",
            "geometry": {
                "type": "Point",
                "coordinates": [
                    18.35171,
                    54.60156
                ]
            },
            "properties": {
                "ref:rspo": 128710,
                "official_name": "Niepubliczne Przedszkole Weso\u0142e Smyki",
                "name": "Niepubliczne Przedszkole Weso\u0142e Smyki",
                "addr:country": "PL",
                "addr:postcode": "84-240",
                "addr:city": "Reda",
                "addr:street": "Hieronima Derdowskiego",
                "addr:housenumber": "5",
                "addr:teryt:simc": 934659,
                "addr:teryt:sym_ul": 3769,
                "contact:phone": "+48 515037700",
                "contact:email": "wesolesmyki@gmail.com",
                "ref:regon": "362375107",
                "ref:vatin": "PL5882410724",
                "operator": "Weronika Ko\u0142odziejska",
                "operator:type": "private",
                "amenity": "kindergarten"
            }
        },
        {
            "id": 106167,
            "type": "Feature",
            "geometry": {
                "type": "Point",
                "coordinates": [
                    18.35225,
                    54.60213
                ]
            },
            "properties": {
                "ref:rspo": 106167,
                "official_name": "Przedszkole Milo Akademia Ma\u0142ego Cz\u0142owieka",
                "name": "Przedszkole Milo Akademia Ma\u0142ego Cz\u0142owieka",
                "addr:country": "PL",
                "addr:postcode": "84-240",
                "addr:city": "Reda",
                "addr:street": "Aleja Jana Paw\u0142a II",
                "addr:housenumber": "9",
                "addr:door": "C",
                "addr:teryt:simc": 934659,
                "addr:teryt:sym_ul": 7120,
                "contact:phone": "+48 500134387",
                "contact:email": "milo.amc@gmail.com",
                "contact:website": "http:\/\/przedszkolemilo.pl",
                "ref:regon": "221807183",
                "ref:vatin": "PL5882261750",
                "operator": "Iwona Palikot",
                "operator:type": "private",
                "amenity": "kindergarten"
            }
        },
        {
            "id": 275003,
            "type": "Feature",
            "geometry": {
                "type": "Point",
                "coordinates": [
                    18.35781,
                    54.60243
                ]
            },
            "properties": {
                "ref:rspo": 275003,
                "official_name": "Zesp\u00f3\u0142 Szkolno - Przedszkolny Nr 1 w Redzie",
                "name": "Zesp\u00f3\u0142 Szkolno - Przedszkolny Nr 1 w Redzie",
                "addr:country": "PL",
                "addr:postcode": "84-240",
                "addr:city": "Reda",
                "addr:street": "\u0141\u0105kowa",
                "addr:housenumber": "36",
                "addr:teryt:simc": 934659,
                "addr:teryt:sym_ul": 11596,
                "contact:phone": "+48 587386400",
                "contact:email": "sekretariat@sp4reda.pl",
                "ref:regon": "386500404",
                "operator": "Gmina Miasto Reda",
                "operator:type": "government",
                "landuse": "education",
                "fixme": "amenity=school, amenity=college albo landuse=education w zale\u017cno\u015bci od tego, jakie plac\u00f3wki wchodz\u0105 w sk\u0142ad zespo\u0142u. Sprawd\u017a, kiedy stosowa\u0107 amenity=* a kiedy landuse=education.",
                "note": "Children RSPO: 8496;275159"
            }
        },
        {
            "id": 8496,
            "type": "Feature",
            "geometry": {
                "type": "Point",
                "coordinates": [
                    18.35781,
                    54.602399999999996
                ]
            },
            "properties": {
                "isced:level": "1;2",
                "ref:rspo": 8496,
                "official_name": "Szko\u0142a Podstawowa Nr 4 im. P\u0142k. Kazimierza Pruszkowskiego w Redzie",
                "name": "Szko\u0142a Podstawowa Nr 4",
                "addr:country": "PL",
                "addr:postcode": "84-240",
                "addr:city": "Reda",
                "addr:street": "\u0141\u0105kowa",
                "addr:housenumber": "36",
                "addr:teryt:simc": 934659,
                "addr:teryt:sym_ul": 11596,
                "contact:phone": "+48 587386400",
                "contact:email": "sekretariat@sp4reda.pl",
                "contact:website": "http:\/\/sp4reda.pl",
                "ref:regon": "190956685",
                "ref:vatin": "PL5882140041",
                "operator": "Gmina Miasto Reda",
                "operator:type": "government",
                "amenity": "school",
                "note": "Parent RSPO: 275003"
            }
        },
        {
            "id": 275159,
            "type": "Feature",
            "geometry": {
                "type": "Point",
                "coordinates": [
                    18.35781,
                    54.60237
                ]
            },
            "properties": {
                "ref:rspo": 275159,
                "official_name": "Przedszkole Nr 4 w Redzie",
                "name": "Przedszkole Nr 4 w Redzie",
                "addr:country": "PL",
                "addr:postcode": "84-240",
                "addr:city": "Reda",
                "addr:street": "\u0141\u0105kowa",
                "addr:housenumber": "36",
                "addr:teryt:simc": 934659,
                "addr:teryt:sym_ul": 11596,
                "contact:phone": "+48 587386401",
                "contact:email": "sekretariat@sp4reda.pl",
                "ref:regon": "386674104",
                "operator": "Gmina Miasto Reda",
                "operator:type": "government",
                "amenity": "kindergarten",
                "note": "Parent RSPO: 275003"
            }
        },
        {
            "id": 5633,
            "type": "Feature",
            "geometry": {
                "type": "Point",
                "coordinates": [
                    18.36178,
                    54.60254
                ]
            },
            "properties": {
                "ref:rspo": 5633,
                "official_name": "Przedszkole Anio\u0142a Str\u00f3\u017ca",
                "name": "Przedszkole Anio\u0142a Str\u00f3\u017ca",
                "addr:country": "PL",
                "addr:postcode": "84-240",
                "addr:city": "Reda",
                "addr:street": "\u0141\u0105kowa",
                "addr:housenumber": "70",
                "addr:teryt:simc": 934659,
                "addr:teryt:sym_ul": 11596,
                "contact:phone": "+48 587784847",
                "contact:email": "przedszkole@dalech.com.pl",
                "contact:website": "http:\/\/przedszkoleaniolastroza.pl",
                "ref:regon": "221730291",
                "ref:vatin": "PL5881001797",
                "operator": "Danuta Michalska",
                "operator:type": "private",
                "amenity": "kindergarten"
            }
        },
        {
            "id": 7106,
            "type": "Feature",
            "geometry": {
                "type": "Point",
                "coordinates": [
                    18.357944435812,
                    54.602889193075
                ]
            },
            "properties": {
                "ref:rspo": 7106,
                "official_name": "Powiatowy Zesp\u00f3\u0142 Szk\u00f3\u0142 w Redzie",
                "name": "Powiatowy Zesp\u00f3\u0142 Szk\u00f3\u0142 w Redzie",
                "addr:country": "PL",
                "addr:postcode": "84-240",
                "addr:city": "Reda",
                "addr:street": "\u0141\u0105kowa",
                "addr:housenumber": "38",
                "addr:teryt:simc": 934659,
                "addr:teryt:sym_ul": 11596,
                "contact:phone": "+48 586787838",
                "contact:email": "szkola@zspreda.pl",
                "contact:website": "http:\/\/www.pzsreda.edu.pl",
                "ref:regon": "191828653",
                "ref:vatin": "PL5881874930",
                "operator": "Powiat Wejherowski",
                "operator:type": "government",
                "landuse": "education",
                "fixme": "amenity=school, amenity=college albo landuse=education w zale\u017cno\u015bci od tego, jakie plac\u00f3wki wchodz\u0105 w sk\u0142ad zespo\u0142u. Sprawd\u017a, kiedy stosowa\u0107 amenity=* a kiedy landuse=education.",
                "note": "Children RSPO: 29390;30203;30204;30318;31210"
            }
        },
        {
            "id": 29390,
            "type": "Feature",
            "geometry": {
                "type": "Point",
                "coordinates": [
                    18.357944435812,
                    54.602859193075
                ]
            },
            "properties": {
                "isced:level": "3",
                "ref:rspo": 29390,
                "official_name": "Technikum w Redzie",
                "name": "Technikum w Redzie",
                "addr:country": "PL",
                "addr:postcode": "84-240",
                "addr:city": "Reda",
                "addr:street": "\u0141\u0105kowa",
                "addr:housenumber": "38",
                "addr:teryt:simc": 934659,
                "addr:teryt:sym_ul": 11596,
                "contact:phone": "+48 586787838",
                "contact:email": "szkola@zspreda.pl",
                "contact:website": "http:\/\/pzsreda.edu.pl\/",
                "ref:regon": "221205283",
                "operator": "Powiat Wejherowski",
                "operator:type": "government",
                "amenity": "school",
                "note": "Parent RSPO: 7106"
            }
        },
        {
            "id": 30203,
            "type": "Feature",
            "geometry": {
                "type": "Point",
                "coordinates": [
                    18.357944435812,
                    54.602829193075
                ]
            },
            "properties": {
                "isced:level": "3",
                "ref:rspo": 30203,
                "official_name": "Liceum Og\u00f3lnokszta\u0142c\u0105ce w Redzie",
                "name": "Liceum Og\u00f3lnokszta\u0142c\u0105ce w Redzie",
                "addr:country": "PL",
                "addr:postcode": "84-240",
                "addr:city": "Reda",
                "addr:street": "\u0141\u0105kowa",
                "addr:housenumber": "38",
                "addr:teryt:simc": 934659,
                "addr:teryt:sym_ul": 11596,
                "contact:phone": "+48 586787838",
                "contact:email": "szkola@zspreda.pl",
                "contact:website": "http:\/\/pzsreda.edu.pl\/",
                "ref:regon": "192775491",
                "operator": "Powiat Wejherowski",
                "operator:type": "government",
                "amenity": "school",
                "note": "Parent RSPO: 7106"
            }
        },
        {
            "id": 30204,
            "type": "Feature",
            "geometry": {
                "type": "Point",
                "coordinates": [
                    18.357944435812,
                    54.602799193075
                ]
            },
            "properties": {
                "isced:level": "3",
                "ref:rspo": 30204,
                "official_name": "Liceum Og\u00f3lnokszta\u0142c\u0105ce dla Doros\u0142ych w Redzie",
                "name": "Liceum Og\u00f3lnokszta\u0142c\u0105ce dla Doros\u0142ych w Redzie",
                "addr:country": "PL",
                "addr:postcode": "84-240",
                "addr:city": "Reda",
                "addr:street": "\u0141\u0105kowa",
                "addr:housenumber": "38",
                "addr:teryt:simc": 934659,
                "addr:teryt:sym_ul": 11596,
                "contact:phone": "+48 586787838",
                "contact:email": "szkola@zspreda.pl",
                "contact:website": "http:\/\/pzsreda.edu.pl\/",
                "ref:regon": "193075749",
                "operator": "Powiat Wejherowski",
                "operator:type": "government",
                "amenity": "school",
                "note": "Parent RSPO: 7106"
            }
        },
        {
            "id": 30318,
            "type": "Feature",
            "geometry": {
                "type": "Point",
                "coordinates": [
                    18.357944435812,
                    54.602769193075
                ]
            },
            "properties": {
                "isced:level": "4",
                "ref:rspo": 30318,
                "official_name": "Szko\u0142a Policealna Wielobran\u017cowa w Redzie",
                "name": "Szko\u0142a Policealna Wielobran\u017cowa w Redzie",
                "addr:country": "PL",
                "addr:postcode": "84-240",
                "addr:city": "Reda",
                "addr:street": "\u0141\u0105kowa",
                "addr:housenumber": "38",
                "addr:teryt:simc": 934659,
                "addr:teryt:sym_ul": 11596,
                "contact:phone": "+48 586787838",
                "contact:email": "szkola@zspreda.pl",
                "contact:website": "http:\/\/pzsreda.edu.pl\/",
                "ref:regon": "220099092",
                "operator": "Powiat Wejherowski",
                "operator:type": "government",
                "amenity": "college",
                "note": "Parent RSPO: 7106"
            }
        },
        {
            "id": 31210,
            "type": "Feature",
            "geometry": {
                "type": "Point",
                "coordinates": [
                    18.357944435812,
                    54.602739193075
                ]
            },
            "properties": {
                "isced:level": "3",
                "ref:rspo": 31210,
                "official_name": "Bran\u017cowa Szko\u0142a I Stopnia im. Zas\u0142u\u017conych dla Ziemi Kaszubskiej w Redzie",
                "name": "Bran\u017cowa Szko\u0142a I Stopnia",
                "addr:country": "PL",
                "addr:postcode": "84-240",
                "addr:city": "Reda",
                "addr:street": "\u0141\u0105kowa",
                "addr:housenumber": "38",
                "addr:teryt:simc": 934659,
                "addr:teryt:sym_ul": 11596,
                "contact:phone": "+48 586787838",
                "contact:email": "szkola@zspreda.pl",
                "contact:website": "http:\/\/pzsreda.edu.pl\/",
                "ref:regon": "190561567",
                "operator": "Powiat Wejherowski",
                "operator:type": "government",
                "amenity": "school",
                "note": "Parent RSPO: 7106"
            }
        },
        {
            "id": 268220,
            "type": "Feature",
            "geometry": {
                "type": "Point",
                "coordinates": [
                    18.35505,
                    54.60486
                ]
            },
            "properties": {
                "ref:rspo": 268220,
                "official_name": "Przedszkole Nr 2 w Redzie",
                "name": "Przedszkole Nr 2 w Redzie",
                "addr:country": "PL",
                "addr:postcode": "84-240",
                "addr:city": "Reda",
                "addr:street": "\u0141\u0105kowa",
                "addr:housenumber": "27",
                "addr:teryt:simc": 934659,
                "addr:teryt:sym_ul": 11596,
                "contact:phone": "+48 586783151",
                "contact:email": "administracja@przedszkole2.reda.pl",
                "contact:website": "http:\/\/www.przedszkole2.reda.pl",
                "ref:regon": "381031695",
                "operator": "Gmina Miasto Reda",
                "operator:type": "government",
                "amenity": "kindergarten"
            }
        },
        {
            "id": 268854,
            "type": "Feature",
            "geometry": {
                "type": "Point",
                "coordinates": [
                    18.32036,
                    54.60496
                ]
            },
            "properties": {
                "isced:level": "1;2",
                "ref:rspo": 268854,
                "official_name": "Prywatna Szko\u0142a Podstawowa Deja Csb",
                "name": "Prywatna Szko\u0142a Podstawowa Deja Csb",
                "addr:country": "PL",
                "addr:postcode": "84-240",
                "addr:city": "Reda",
                "addr:street": "Wejherowska",
                "addr:housenumber": "58A",
                "addr:teryt:simc": 934659,
                "addr:teryt:sym_ul": 23842,
                "contact:phone": "+48 503007295",
                "contact:email": "dejacsb@dejacsb.com",
                "contact:website": "http:\/\/dejacsb.com",
                "ref:regon": "381264838",
                "operator": "Deja Csb Sp\u00f3\u0142ka Z Ograniczon\u0105 Odpowiedzialno\u015bci\u0105",
                "operator:type": "consortium",
                "amenity": "school"
            }
        },
        {
            "id": 269143,
            "type": "Feature",
            "geometry": {
                "type": "Point",
                "coordinates": [
                    18.32036,
                    54.604929999999996
                ]
            },
            "properties": {
                "ref:rspo": 269143,
                "official_name": "Prywatne Przedszkole Deja Csb",
                "name": "Prywatne Przedszkole Deja Csb",
                "addr:country": "PL",
                "addr:postcode": "84-240",
                "addr:city": "Reda",
                "addr:street": "Wejherowska",
                "addr:housenumber": "58A",
                "addr:teryt:simc": 934659,
                "addr:teryt:sym_ul": 23842,
                "contact:phone": "+48 503007295",
                "contact:email": "dejacsb@dejacsb.com",
                "contact:website": "http:\/\/www.dejacsb.com",
                "ref:regon": "381386398",
                "operator": "Deja Csb Sp\u00f3\u0142ka Z Ograniczon\u0105 Odpowiedzialno\u015bci\u0105",
                "operator:type": "consortium",
                "amenity": "kindergarten"
            }
        },
        {
            "id": 271887,
            "type": "Feature",
            "geometry": {
                "type": "Point",
                "coordinates": [
                    18.32036,
                    54.6049
                ]
            },
            "properties": {
                "ref:rspo": 271887,
                "official_name": "Niepubliczna Poradnia Psychologiczno-Pedagogiczna Deja Csb",
                "name": "Niepubliczna Poradnia Psychologiczno-Pedagogiczna Deja Csb",
                "addr:country": "PL",
                "addr:postcode": "84-240",
                "addr:city": "Reda",
                "addr:street": "Wejherowska",
                "addr:housenumber": "58A",
                "addr:teryt:simc": 934659,
                "addr:teryt:sym_ul": 23842,
                "contact:phone": "+48 503007295",
                "contact:email": "dejacsb@dejacsb.com",
                "contact:website": "http:\/\/dejacsb.com",
                "ref:regon": "383747334",
                "operator": "Deja Csb Sp\u00f3\u0142ka Z Ograniczon\u0105 Odpowiedzialno\u015bci\u0105",
                "operator:type": "consortium",
                "healthcare": "counselling",
                "counselling_type": "education",
                "fixme": "w zale\u017cno\u015bci od przedmiotu dzia\u0142alno\u015bci (np. healthcare=counselling + counselling_type=education albo healthcare=psychotherapist)"
            }
        },
        {
            "id": 21590,
            "type": "Feature",
            "geometry": {
                "type": "Point",
                "coordinates": [
                    18.347700119019,
                    54.60615158081
                ]
            },
            "properties": {
                "isced:level": "1;2",
                "ref:rspo": 21590,
                "official_name": "Prywatna Szko\u0142a Podstawowa w Redzie im. Tony Halika",
                "name": "Prywatna Szko\u0142a Podstawowa w Redzie",
                "addr:country": "PL",
                "addr:postcode": "84-240",
                "addr:city": "Reda",
                "addr:street": "Cypriana Kamila Norwida",
                "addr:housenumber": "59",
                "addr:teryt:simc": 934659,
                "addr:teryt:sym_ul": 14319,
                "contact:phone": "+48 586784732",
                "contact:email": "prywatna.szkola@edureda.pl",
                "contact:website": "http:\/\/www.edureda.pl",
                "ref:regon": "221751896",
                "ref:vatin": "PL5881011198",
                "operator": "Prywatna Szko\u0142a W Redzie Sp\u00f3\u0142ka Z Ograniczon\u0105 Odpowiedzialno\u015bci\u0105",
                "operator:type": "private",
                "amenity": "school"
            }
        },
        {
            "id": 21626,
            "type": "Feature",
            "geometry": {
                "type": "Point",
                "coordinates": [
                    18.347700119019,
                    54.60612158081
                ]
            },
            "properties": {
                "ref:rspo": 21626,
                "official_name": "Niepubliczne Przedszkole Przygoda",
                "name": "Niepubliczne Przedszkole Przygoda",
                "addr:country": "PL",
                "addr:postcode": "84-240",
                "addr:city": "Reda",
                "addr:street": "Cypriana Kamila Norwida",
                "addr:housenumber": "59",
                "addr:teryt:simc": 934659,
                "addr:teryt:sym_ul": 14319,
                "contact:phone": "+48 586784732",
                "contact:email": "admin@szkolawredzie.civ.pl",
                "contact:website": "http:\/\/szkolawredzie.civ.pl",
                "ref:regon": "221751904",
                "ref:vatin": "PL5881993942",
                "operator": "Nasza Szko\u0142a S.c.",
                "operator:type": "private",
                "amenity": "kindergarten"
            }
        },
        {
            "id": 42133,
            "type": "Feature",
            "geometry": {
                "type": "Point",
                "coordinates": [
                    18.347700119019,
                    54.60609158081
                ]
            },
            "properties": {
                "ref:rspo": 42133,
                "official_name": "Prywatna Szko\u0142a Muzyczna I St. w Redzie",
                "name": "Prywatna Szko\u0142a Muzyczna I St. w Redzie",
                "addr:country": "PL",
                "addr:postcode": "84-240",
                "addr:city": "Reda",
                "addr:street": "Cypriana Kamila Norwida",
                "addr:housenumber": "59",
                "addr:teryt:simc": 934659,
                "addr:teryt:sym_ul": 14319,
                "contact:phone": "+48 586784732",
                "ref:regon": "221764380",
                "operator": "Prywatna Szko\u0142a W Redzie Sp\u00f3\u0142ka Z Ograniczon\u0105 Odpowiedzialno\u015bci\u0105",
                "operator:type": "private",
                "amenity": "music_school"
            }
        },
        {
            "id": 133258,
            "type": "Feature",
            "geometry": {
                "type": "Point",
                "coordinates": [
                    18.347700119019,
                    54.60606158081
                ]
            },
            "properties": {
                "ref:rspo": 133258,
                "official_name": "Pomorska Poradnia Psychologiczno-Pedagogiczna",
                "name": "Pomorska Poradnia Psychologiczno-Pedagogiczna",
                "addr:country": "PL",
                "addr:postcode": "84-240",
                "addr:city": "Reda",
                "addr:street": "Cypriana Kamila Norwida",
                "addr:housenumber": "59",
                "addr:teryt:simc": 934659,
                "addr:teryt:sym_ul": 14319,
                "contact:phone": "+48 691611611",
                "contact:email": "malgorzatahebel@poradniapsychologiczna.edu.pl",
                "ref:regon": "366886425",
                "ref:vatin": "PL9581363044",
                "operator": "Ma\u0142gorzata Hebel",
                "operator:type": "private",
                "healthcare": "counselling",
                "counselling_type": "education",
                "fixme": "w zale\u017cno\u015bci od przedmiotu dzia\u0142alno\u015bci (np. healthcare=counselling + counselling_type=education albo healthcare=psychotherapist)"
            }
        },
        {
            "id": 268290,
            "type": "Feature",
            "geometry": {
                "type": "Point",
                "coordinates": [
                    18.32451,
                    54.61166
                ]
            },
            "properties": {
                "ref:rspo": 268290,
                "official_name": "Niepubliczne Przedszkole U Dziadka I Babci",
                "name": "Niepubliczne Przedszkole U Dziadka I Babci",
                "addr:country": "PL",
                "addr:postcode": "84-240",
                "addr:city": "Reda",
                "addr:street": "Czes\u0142awa Mi\u0142osza",
                "addr:housenumber": "13",
                "addr:teryt:simc": 934659,
                "addr:teryt:sym_ul": 12964,
                "contact:email": "kontakt@udziadkaibabci.pl",
                "contact:website": "http:\/\/www.udziadkaibabci.pl",
                "ref:regon": "381063360",
                "operator": "Teresa Wi\u015bniewska",
                "operator:type": "private",
                "amenity": "kindergarten"
            }
        },
        {
            "id": 7147,
            "type": "Feature",
            "geometry": {
                "type": "Point",
                "coordinates": [
                    18.35304,
                    54.6117
                ]
            },
            "properties": {
                "isced:level": "1;2",
                "ref:rspo": 7147,
                "official_name": "Szko\u0142a Podstawowa Nr 3 im. Stefana \u017beromskiego w Redzie",
                "name": "Szko\u0142a Podstawowa Nr 3",
                "addr:country": "PL",
                "addr:postcode": "84-240",
                "addr:city": "Reda",
                "addr:street": "Brzozowa",
                "addr:housenumber": "30",
                "addr:teryt:simc": 934659,
                "addr:teryt:sym_ul": 2276,
                "contact:phone": "+48 586783089",
                "contact:email": "sekretariat@sp3.reda.pl",
                "contact:website": "http:\/\/www.sp3reda.pl\/",
                "ref:regon": "000737580",
                "ref:vatin": "PL5882140058",
                "operator": "Gmina Miasto Reda",
                "operator:type": "government",
                "amenity": "school"
            }
        },
        {
            "id": 276403,
            "type": "Feature",
            "geometry": {
                "type": "Point",
                "coordinates": [
                    18.35602,
                    54.61273
                ]
            },
            "properties": {
                "ref:rspo": 276403,
                "official_name": "Niepubliczne Przedszkole 4Me Montessori",
                "name": "Niepubliczne Przedszkole 4Me Montessori",
                "addr:country": "PL",
                "addr:postcode": "84-240",
                "addr:city": "Reda",
                "addr:street": "Parkowa",
                "addr:housenumber": "7",
                "addr:teryt:simc": 934659,
                "addr:teryt:sym_ul": 15710,
                "contact:email": "biuro@formemontessori.pl",
                "contact:website": "http:\/\/formemontessori.pl",
                "ref:regon": "387122803",
                "operator": "\"A&M\" Sp\u00f3\u0142ka Z Ograniczon\u0105 Odpowiedzialno\u015bci\u0105",
                "operator:type": "private",
                "amenity": "kindergarten"
            }
        },
        {
            "id": 106163,
            "type": "Feature",
            "geometry": {
                "type": "Point",
                "coordinates": [
                    18.3518,
                    54.61341
                ]
            },
            "properties": {
                "ref:rspo": 106163,
                "official_name": "Niepubliczne Przedszkole Omnibusek",
                "name": "Niepubliczne Przedszkole Omnibusek",
                "addr:country": "PL",
                "addr:postcode": "84-240",
                "addr:city": "Reda",
                "addr:street": "Brzozowa",
                "addr:housenumber": "1",
                "addr:door": "c",
                "addr:teryt:simc": 934659,
                "addr:teryt:sym_ul": 2276,
                "contact:phone": "+48 601055273",
                "contact:email": "omnibusreda@wp.pl",
                "contact:website": "http:\/\/www.omnibus-reda.pl",
                "ref:regon": "221807214",
                "ref:vatin": "PL6121434781",
                "operator": "Urszula \u0141adanaj",
                "operator:type": "private",
                "amenity": "kindergarten"
            }
        },
        {
            "id": 128705,
            "type": "Feature",
            "geometry": {
                "type": "Point",
                "coordinates": [
                    18.35824,
                    54.61473
                ]
            },
            "properties": {
                "ref:rspo": 128705,
                "official_name": "Przedszkole Krasnoludki",
                "name": "Przedszkole Krasnoludki",
                "addr:country": "PL",
                "addr:postcode": "84-240",
                "addr:city": "Reda",
                "addr:street": "Wiejska",
                "addr:housenumber": "72",
                "addr:teryt:simc": 934659,
                "addr:teryt:sym_ul": 24048,
                "contact:phone": "+48 515152145",
                "contact:email": "krasnoludkireda@gmail.com",
                "contact:website": "http:\/\/www.krasnoludkireda.pl",
                "ref:regon": "362375604",
                "ref:vatin": "PL9580053815",
                "operator": "Beata Lademann",
                "operator:type": "private",
                "amenity": "kindergarten"
            }
        },
        {
            "id": 5119,
            "type": "Feature",
            "geometry": {
                "type": "Point",
                "coordinates": [
                    18.35505,
                    54.63388
                ]
            },
            "properties": {
                "isced:level": "1;2",
                "ref:rspo": 5119,
                "official_name": "Szko\u0142a Podstawowa Nr 5 im. Jana Drze\u017cd\u017cona w Redzie",
                "name": "Szko\u0142a Podstawowa Nr 5",
                "addr:country": "PL",
                "addr:postcode": "84-240",
                "addr:city": "Reda",
                "addr:street": "Rekowska",
                "addr:housenumber": "36",
                "addr:teryt:simc": 934659,
                "addr:teryt:sym_ul": 18581,
                "contact:phone": "+48 586738429",
                "contact:email": "sekretariat@sp5reda.pl",
                "contact:website": "http:\/\/www.sp5reda.pl\/",
                "ref:regon": "190292676",
                "ref:vatin": "PL5881770774",
                "operator": "Gmina Miasto Reda",
                "operator:type": "government",
                "amenity": "school"
            }
        },
        {
            "id": 268274,
            "type": "Feature",
            "geometry": {
                "type": "Point",
                "coordinates": [
                    17.85505,
                    54.79837
                ]
            },
            "properties": {
                "ref:rspo": 268274,
                "official_name": "Ekologiczne Przedszkole J\u0119zykowe Ekopuchatek",
                "name": "Ekologiczne Przedszkole J\u0119zykowe Ekopuchatek",
                "addr:country": "PL",
                "addr:postcode": "84-240",
                "addr:city": "Reda",
                "addr:street": "Tarasowa",
                "addr:housenumber": "2",
                "addr:teryt:simc": 934659,
                "addr:teryt:sym_ul": 22638,
                "contact:email": "ekopuchatekprzedszkole@gmail.com",
                "contact:website": "http:\/\/www.ekopuchatek.pl",
                "ref:regon": "381056488",
                "operator": "Wioletta Muszy\u0144ska",
                "operator:type": "private",
                "amenity": "kindergarten"
            }
        },
        {
            "id": 276012,
            "type": "Feature",
            "geometry": {
                "type": "Point",
                "coordinates": [
                    17.8489638,
                    54.7988744
                ]
            },
            "properties": {
                "ref:rspo": 276012,
                "official_name": "Przedszkole Niepubliczne Edukacyjno - Sportowe Mapeciaki",
                "name": "Przedszkole Niepubliczne Edukacyjno - Sportowe Mapeciaki",
                "addr:country": "PL",
                "addr:postcode": "84-240",
                "addr:city": "Reda",
                "addr:street": "Bukowa",
                "addr:housenumber": "1",
                "addr:teryt:simc": 934659,
                "addr:teryt:sym_ul": 2387,
                "contact:email": "kontakt@mapeciaki.pl",
                "contact:website": "http:\/\/www.mapeciaki.p",
                "ref:regon": "386975700",
                "operator": "Mapeciaki Reda Sp\u00f3\u0142ka Z Ograniczon\u0105 Odpowiedzialno\u015bci\u0105",
                "operator:type": "private",
                "amenity": "kindergarten"
            }
        }
    ]
}