{
    "type": "FeatureCollection",
    "features": [
        {
            "id": 9347,
            "type": "Feature",
            "geometry": {
                "type": "Point",
                "coordinates": [
                    18.1715899,
                    54.43616
                ]
            },
            "properties": {
                "isced:level": "1;2",
                "ref:rspo": 9347,
                "official_name": "Szko\u0142a Podstawowa w \u0141ebie\u0144skiej Hucie",
                "name": "Szko\u0142a Podstawowa w \u0141ebie\u0144skiej Hucie",
                "addr:postcode": "84-217",
                "addr:city": "\u0141ebie\u0144ska Huta",
                "addr:street": "Kartuska",
                "addr:housenumber": "25",
                "addr:city:simc": 175372,
                "addr:street:sym_ul": 8124,
                "phone": "+48 586761806",
                "email": "sekretariat@splebienskahuta.pl",
                "website": "http:\/\/www.splebienskahuta.pl",
                "ref:regon": "190940721",
                "ref:vatin": "PL5881323762",
                "operator": "Gmina Szemud",
                "operator:type": "government",
                "amenity": "school"
            }
        },
        {
            "id": 10242,
            "type": "Feature",
            "geometry": {
                "type": "Point",
                "coordinates": [
                    18.38669,
                    54.44549
                ]
            },
            "properties": {
                "isced:level": "1;2",
                "ref:rspo": 10242,
                "official_name": "Spo\u0142eczna Szko\u0142a Podstawowa Z Przedszkolem Dobrzewino-Karczemki w Karczemkach",
                "name": "Spo\u0142eczna Szko\u0142a Podstawowa Z Przedszkolem Dobrzewino-Karczemki w Karczemkach",
                "addr:postcode": "80-209",
                "addr:city": "Karczemki",
                "addr:street": "Gda\u0144ska",
                "addr:housenumber": "23",
                "addr:city:simc": 175202,
                "addr:street:sym_ul": 5431,
                "phone": "+48 586760812",
                "email": "sspzpdobkar@wp.pl",
                "website": "http:\/\/www.karczemki.edupage.org",
                "ref:regon": "221736833",
                "ref:vatin": "PL5881993014",
                "operator": "Stowarzyszenie \"Mieszka\u0144cy Dzieciom\"",
                "operator:type": "ngo",
                "amenity": "school"
            }
        },
        {
            "id": 9349,
            "type": "Feature",
            "geometry": {
                "type": "Point",
                "coordinates": [
                    18.22822,
                    54.4516
                ]
            },
            "properties": {
                "isced:level": "1;2",
                "ref:rspo": 9349,
                "official_name": "Szko\u0142a Podstawowa w Jele\u0144skiej Hucie",
                "name": "Szko\u0142a Podstawowa w Jele\u0144skiej Hucie",
                "addr:postcode": "84-217",
                "addr:city": "Jele\u0144ska Huta",
                "addr:street": "Szkolna",
                "addr:housenumber": "5",
                "addr:city:simc": 175231,
                "addr:street:sym_ul": 21970,
                "phone": "+48 586761196",
                "email": "jelenskahuta@gazeta.pl",
                "website": "http:\/\/jelenskahuta.edupage.org",
                "ref:regon": "190940804",
                "ref:vatin": "PL5881323868",
                "operator": "Gmina Szemud",
                "operator:type": "government",
                "amenity": "school"
            }
        },
        {
            "id": 278707,
            "type": "Feature",
            "geometry": {
                "type": "Point",
                "coordinates": [
                    18.34308,
                    54.45359
                ]
            },
            "properties": {
                "ref:rspo": 278707,
                "official_name": "O\u015brodek Rehabilitacyjno-Edukacyjno-Wychowawczy w Kielnie",
                "name": "O\u015brodek Rehabilitacyjno-Edukacyjno-Wychowawczy w Kielnie",
                "addr:postcode": "84-208",
                "addr:city": "Kielno",
                "addr:street": "Oliwska",
                "addr:housenumber": "41",
                "addr:city:simc": 175290,
                "addr:street:sym_ul": 14994,
                "phone": "+48 586843699",
                "email": "kaszubskafundacja@interia.pl",
                "website": "http:\/\/kaszubskafundacja.prv.pl\/",
                "ref:regon": "520045402",
                "operator": "Kaszubska Fundacja Rehabilitacji Os\u00f3b Niepe\u0142nosprawnych \"Podaruj Troch\u0119 S\u0142o\u0144ca\"",
                "operator:type": "ngo",
                "amenity": "school"
            }
        },
        {
            "id": 63314,
            "type": "Feature",
            "geometry": {
                "type": "Point",
                "coordinates": [
                    18.3356299,
                    54.45389
                ]
            },
            "properties": {
                "isced:level": "1;2",
                "ref:rspo": 63314,
                "official_name": "Szko\u0142a Podstawowa Z Oddzia\u0142ami Integracyjnymi im. Bohater\u00f3w Westerplatte w Kielnie",
                "name": "Szko\u0142a Podstawowa Z Oddzia\u0142ami Integracyjnymi",
                "addr:postcode": "84-208",
                "addr:city": "Kielno",
                "addr:street": "Szkolna",
                "addr:housenumber": "4",
                "addr:city:simc": 175290,
                "addr:street:sym_ul": 21970,
                "phone": "+48 586760714",
                "email": "sekretariat@spkielno.pl",
                "website": "http:\/\/www.spkielno.pl",
                "ref:regon": "190941146",
                "ref:vatin": "PL5882285118",
                "operator": "Gmina Szemud",
                "operator:type": "government",
                "amenity": "school"
            }
        },
        {
            "id": 10406,
            "type": "Feature",
            "geometry": {
                "type": "Point",
                "coordinates": [
                    18.33502,
                    54.45455
                ]
            },
            "properties": {
                "ref:rspo": 10406,
                "official_name": "Przedszkole Niepubliczne \"Weso\u0142a Kraina\" w Kielnie",
                "name": "Przedszkole Niepubliczne \"Weso\u0142a Kraina\" w Kielnie",
                "addr:postcode": "84-208",
                "addr:city": "Kielno",
                "addr:street": "Szkolna",
                "addr:housenumber": "5",
                "addr:city:simc": 175290,
                "addr:street:sym_ul": 21970,
                "phone": "+48 586761777",
                "email": "magdastuba@hotmail.com",
                "website": "http:\/\/www.przedszkolekielno.pl",
                "ref:regon": "221736951",
                "ref:vatin": "PL5882337499",
                "operator": "Magda Stuba-Cytryniak",
                "operator:type": "private",
                "amenity": "kindergarten"
            }
        },
        {
            "id": 9348,
            "type": "Feature",
            "geometry": {
                "type": "Point",
                "coordinates": [
                    18.14311,
                    54.46069
                ]
            },
            "properties": {
                "isced:level": "1;2",
                "ref:rspo": 9348,
                "official_name": "Szko\u0142a Podstawowa im. Jana Paw\u0142a II w \u0141ebnie",
                "name": "Szko\u0142a Podstawowa",
                "addr:postcode": "84-217",
                "addr:city": "\u0141ebno",
                "addr:street": "Szkolna",
                "addr:housenumber": "1",
                "addr:city:simc": 175395,
                "addr:street:sym_ul": 21970,
                "phone": "+48 586761804",
                "email": "sekretariat@szkolalebno.pl",
                "website": "http:\/\/www.szkolalebno.pl",
                "ref:regon": "190940780",
                "ref:vatin": "PL5881290459",
                "operator": "Gmina Szemud",
                "operator:type": "government",
                "amenity": "school"
            }
        },
        {
            "id": 30548,
            "type": "Feature",
            "geometry": {
                "type": "Point",
                "coordinates": [
                    18.38226,
                    54.46955
                ]
            },
            "properties": {
                "ref:rspo": 30548,
                "official_name": "Przedszkole Niepubliczne \"Promyczek\" w Bojanie",
                "name": "Przedszkole Niepubliczne \"Promyczek\" w Bojanie",
                "addr:postcode": "84-207",
                "addr:city": "Bojano",
                "addr:street": "Tartaczna",
                "addr:housenumber": "3",
                "addr:city:simc": 175120,
                "addr:street:sym_ul": 22690,
                "email": "biuro@promyczek-bojano.pl",
                "website": "http:\/\/www.promyczek-bojano.pl",
                "ref:regon": "221759254",
                "ref:vatin": "PL5891774845",
                "operator": "Aleksandra Hinz-Groth",
                "operator:type": "private",
                "amenity": "kindergarten"
            }
        },
        {
            "id": 271867,
            "type": "Feature",
            "geometry": {
                "type": "Point",
                "coordinates": [
                    18.3843,
                    54.47169
                ]
            },
            "properties": {
                "ref:rspo": 271867,
                "official_name": "Niepubliczne Przedszkole \"Zielony Zak\u0105tek\"",
                "name": "Niepubliczne Przedszkole \"Zielony Zak\u0105tek\"",
                "addr:postcode": "84-207",
                "addr:city": "Bojano",
                "addr:street": "J\u00f3zefa Wybickiego",
                "addr:housenumber": "18",
                "addr:city:simc": 175120,
                "addr:street:sym_ul": 24908,
                "email": "monika.dawidowska.poczta@wp.pl",
                "ref:regon": "383713625",
                "operator": "Monika Dawidowska",
                "operator:type": "private",
                "amenity": "kindergarten"
            }
        },
        {
            "id": 10508,
            "type": "Feature",
            "geometry": {
                "type": "Point",
                "coordinates": [
                    18.37739,
                    54.47346
                ]
            },
            "properties": {
                "ref:rspo": 10508,
                "official_name": "Przedszkole Niepubliczne im. Jana Paw\u0142a II w Bojanie",
                "name": "Przedszkole Niepubliczne",
                "addr:postcode": "84-207",
                "addr:city": "Bojano",
                "addr:street": "Wawelska",
                "addr:housenumber": "1A",
                "addr:city:simc": 175120,
                "addr:street:sym_ul": 23749,
                "phone": "+48 586760333",
                "email": "przedszkole.bojano@wp.pl",
                "ref:regon": "221737643",
                "ref:vatin": "PL5882190808",
                "operator": "Parafia Rzymsko-Katolicka P.w. \u015aw. Jadwigi Kr\u00f3lowej W Bojanie",
                "operator:type": "religious",
                "amenity": "kindergarten"
            }
        },
        {
            "id": 52436,
            "type": "Feature",
            "geometry": {
                "type": "Point",
                "coordinates": [
                    18.37846,
                    54.47505
                ]
            },
            "properties": {
                "isced:level": "1;2",
                "ref:rspo": 52436,
                "official_name": "Szko\u0142a Podstawowa w Bojanie",
                "name": "Szko\u0142a Podstawowa w Bojanie",
                "addr:postcode": "84-207",
                "addr:city": "Bojano",
                "addr:street": "J\u00f3zefa Wybickiego",
                "addr:housenumber": "38",
                "addr:city:simc": 175120,
                "addr:street:sym_ul": 24908,
                "phone": "+48 586760385",
                "email": "poczta@spbojano.pl",
                "website": "http:\/\/www.spbojano.pl",
                "ref:regon": "190956604",
                "ref:vatin": "PL5882395321",
                "operator": "Gmina Szemud",
                "operator:type": "government",
                "amenity": "school"
            }
        },
        {
            "id": 30550,
            "type": "Feature",
            "geometry": {
                "type": "Point",
                "coordinates": [
                    18.3348,
                    54.49203
                ]
            },
            "properties": {
                "ref:rspo": 30550,
                "official_name": "Ekologiczny Punkt Przedszkolny \"W Malinowym Chru\u015bniaku\" w Koleczkowie",
                "name": "Ekologiczny Punkt Przedszkolny \"W Malinowym Chru\u015bniaku\" w Koleczkowie",
                "addr:postcode": "84-207",
                "addr:city": "Koleczkowo",
                "addr:street": "Dolna",
                "addr:housenumber": "10",
                "addr:city:simc": 175308,
                "addr:street:sym_ul": 4034,
                "phone": "+48 609195866",
                "email": "malgorzatarydel@o2.pl",
                "website": "http:\/\/www.przedszkole-koleczkowo.pl",
                "ref:regon": "221759366",
                "operator": "Ma\u0142gorzata Rydel",
                "operator:type": "private",
                "amenity": "kindergarten"
            }
        },
        {
            "id": 270164,
            "type": "Feature",
            "geometry": {
                "type": "Point",
                "coordinates": [
                    18.33754,
                    54.49209
                ]
            },
            "properties": {
                "ref:rspo": 270164,
                "official_name": "Niepubliczne Centrum Kszta\u0142cenia Silva Lupus",
                "name": "Niepubliczne Centrum Kszta\u0142cenia Silva Lupus",
                "addr:postcode": "84-207",
                "addr:city": "Koleczkowo",
                "addr:street": "Wejherowska",
                "addr:housenumber": "5",
                "addr:city:simc": 175308,
                "addr:street:sym_ul": 23842,
                "phone": "+48 668623723",
                "email": "marta.lichnerowicz@gmail.com",
                "website": "http:\/\/silva-lupus.pl",
                "ref:regon": "382121590",
                "operator": "Fundacja Dobrych Zwierz\u0105t",
                "operator:type": "ngo",
                "fixme": "w zale\u017cno\u015bci od przedmiotu dzia\u0142alno\u015bci (np. amenity=training + training=*, amenity=dancing_school, amenity=language_school, amenity=music_school)"
            }
        },
        {
            "id": 3789,
            "type": "Feature",
            "geometry": {
                "type": "Point",
                "coordinates": [
                    18.33695,
                    54.49263
                ]
            },
            "properties": {
                "ref:rspo": 3789,
                "official_name": "Zesp\u00f3\u0142 Szkolno-Przedszkolny w Koleczkowie",
                "name": "Zesp\u00f3\u0142 Szkolno-Przedszkolny w Koleczkowie",
                "addr:postcode": "84-207",
                "addr:city": "Koleczkowo",
                "addr:street": "Wejherowska",
                "addr:housenumber": "24",
                "addr:city:simc": 175308,
                "addr:street:sym_ul": 23842,
                "phone": "+48 586760108",
                "email": "sekretariat@zspkoleczkowo.pl",
                "website": "http:\/\/www.spkoleczkowo.szemud.pl",
                "ref:regon": "221723470",
                "ref:vatin": "PL5882397366",
                "operator": "Gmina Szemud",
                "operator:type": "government",
                "landuse": "education",
                "fixme": "amenity=school, amenity=college albo landuse=education w zale\u017cno\u015bci od tego, jakie plac\u00f3wki wchodz\u0105 w sk\u0142ad zespo\u0142u. Sprawd\u017a, kiedy stosowa\u0107 amenity=* a kiedy landuse=education.",
                "note": "Children RSPO: 9340;9341"
            }
        },
        {
            "id": 9340,
            "type": "Feature",
            "geometry": {
                "type": "Point",
                "coordinates": [
                    18.33695,
                    54.492599999999996
                ]
            },
            "properties": {
                "isced:level": "1;2",
                "ref:rspo": 9340,
                "official_name": "Szko\u0142a Podstawowa im. Partyzant\u00f3w Kaszubskich w Koleczkowie",
                "name": "Szko\u0142a Podstawowa",
                "addr:postcode": "84-207",
                "addr:city": "Koleczkowo",
                "addr:street": "Wejherowska",
                "addr:housenumber": "24",
                "addr:city:simc": 175308,
                "addr:street:sym_ul": 23842,
                "phone": "+48 586760108",
                "email": "sekretariat@zspkoleczkowo.pl",
                "website": "http:\/\/zspkoleczkowo.pl",
                "ref:regon": "190956580",
                "ref:vatin": "PL5882397366",
                "operator": "Gmina Szemud",
                "operator:type": "government",
                "amenity": "school",
                "note": "Parent RSPO: 3789"
            }
        },
        {
            "id": 9341,
            "type": "Feature",
            "geometry": {
                "type": "Point",
                "coordinates": [
                    18.33695,
                    54.49257
                ]
            },
            "properties": {
                "ref:rspo": 9341,
                "official_name": "Przedszkole Samorz\u0105dowe w Koleczkowie",
                "name": "Przedszkole Samorz\u0105dowe w Koleczkowie",
                "addr:postcode": "84-207",
                "addr:city": "Koleczkowo",
                "addr:street": "Wejherowska",
                "addr:housenumber": "24",
                "addr:city:simc": 175308,
                "addr:street:sym_ul": 23842,
                "phone": "+48 586760108",
                "email": "sp.koleczkowo@interia.pl",
                "website": "http:\/\/www.spkoleczkowo.szemud.pl",
                "ref:regon": "221734969",
                "ref:vatin": "PL5882397366",
                "operator": "Gmina Szemud",
                "operator:type": "government",
                "amenity": "kindergarten",
                "note": "Parent RSPO: 3789"
            }
        },
        {
            "id": 9344,
            "type": "Feature",
            "geometry": {
                "type": "Point",
                "coordinates": [
                    18.14983,
                    54.50181
                ]
            },
            "properties": {
                "ref:rspo": 9344,
                "official_name": "Zesp\u00f3\u0142 Szkolno-Przedszkolny w Szemudzie",
                "name": "Zesp\u00f3\u0142 Szkolno-Przedszkolny w Szemudzie",
                "addr:postcode": "84-217",
                "addr:city": "Szemud",
                "addr:street": "Szkolna",
                "addr:housenumber": "4",
                "addr:city:simc": 175449,
                "addr:street:sym_ul": 21970,
                "phone": "+48 586761110",
                "email": "szkola@sp.szemud.pl",
                "website": "http:\/\/sp.szemud.pl",
                "ref:regon": "220093563",
                "ref:vatin": "PL5882143571",
                "operator": "Gmina Szemud",
                "operator:type": "government",
                "landuse": "education",
                "fixme": "amenity=school, amenity=college albo landuse=education w zale\u017cno\u015bci od tego, jakie plac\u00f3wki wchodz\u0105 w sk\u0142ad zespo\u0142u. Sprawd\u017a, kiedy stosowa\u0107 amenity=* a kiedy landuse=education.",
                "note": "Children RSPO: 30553;30555"
            }
        },
        {
            "id": 30553,
            "type": "Feature",
            "geometry": {
                "type": "Point",
                "coordinates": [
                    18.14983,
                    54.50178
                ]
            },
            "properties": {
                "isced:level": "1;2",
                "ref:rspo": 30553,
                "official_name": "Szko\u0142a Podstawowa im. Mjr Henryka Sucharskiego w Szemudzie",
                "name": "Szko\u0142a Podstawowa",
                "addr:postcode": "84-217",
                "addr:city": "Szemud",
                "addr:street": "Szkolna",
                "addr:housenumber": "4",
                "addr:city:simc": 175449,
                "addr:street:sym_ul": 21970,
                "phone": "+48 586764182",
                "email": "szkola@sp.szemud.pl",
                "website": "http:\/\/www.sp.szemud.pl",
                "ref:regon": "190940690",
                "ref:vatin": "PL5882143571",
                "operator": "Gmina Szemud",
                "operator:type": "government",
                "amenity": "school",
                "note": "Parent RSPO: 9344"
            }
        },
        {
            "id": 30555,
            "type": "Feature",
            "geometry": {
                "type": "Point",
                "coordinates": [
                    18.14983,
                    54.50175
                ]
            },
            "properties": {
                "ref:rspo": 30555,
                "official_name": "Przedszkole Publiczne w Szemudzie",
                "name": "Przedszkole Publiczne w Szemudzie",
                "addr:postcode": "84-217",
                "addr:city": "Szemud",
                "addr:street": "Szkolna",
                "addr:housenumber": "4",
                "addr:city:simc": 175449,
                "addr:street:sym_ul": 21970,
                "phone": "+48 586761110",
                "email": "szkola@sp.szemud.pl",
                "website": "http:\/\/www.sp.szemud.pl",
                "ref:regon": "220093617",
                "ref:vatin": "PL5882143571",
                "operator": "Gmina Szemud",
                "operator:type": "government",
                "amenity": "kindergarten",
                "note": "Parent RSPO: 9344"
            }
        },
        {
            "id": 9346,
            "type": "Feature",
            "geometry": {
                "type": "Point",
                "coordinates": [
                    18.15138,
                    54.50214
                ]
            },
            "properties": {
                "isced:level": "1;2",
                "ref:rspo": 9346,
                "official_name": "Szko\u0142a Podstawowa w Cz\u0119stkowie",
                "name": "Szko\u0142a Podstawowa w Cz\u0119stkowie",
                "addr:postcode": "84-217",
                "addr:city": "Cz\u0119stkowo",
                "addr:street": "Szkolna",
                "addr:housenumber": "9",
                "addr:city:simc": 175142,
                "addr:street:sym_ul": 21970,
                "phone": "+48 586761297",
                "email": "szkola_czestkowo@interia.pl",
                "website": "http:\/\/www.czestkowo.szkolna.net",
                "ref:regon": "190940767",
                "ref:vatin": "PL5881323880",
                "operator": "Gmina Szemud",
                "operator:type": "government",
                "amenity": "school"
            }
        }
    ]
}