{"type":"FeatureCollection","features":[{"id":13825,"type":"Feature","geometry":{"type":"Point","coordinates":[17.91384,54.52681]},"properties":{"ref:rspo":13825,"official_name":"Zesp\u00f3\u0142 Kszta\u0142cenia I Wychowania w Roz\u0142azinie","name":"Zesp\u00f3\u0142 Kszta\u0142cenia I Wychowania w Roz\u0142azinie","addr:country":"PL","addr:postcode":"84-218","addr:city":"Roz\u0142azino","addr:street":"ul. D\u0142uga","addr:housenumber":"21","addr:teryt:simc":3839,"addr:teryt:sym_ul":167361,"contact:phone":"+48 586789914","contact:email":"szkola@rozlazino.eu","contact:website":"http:\/\/www.rozlazino.szkolna.net","ref:regon":"190946050","ref:vatin":"PL5881443130","operator":"Gmina \u0141\u0119czyce","operator:type":"government","landuse":"education","fixme":"amenity=school, amenity=college albo landuse=education w zale\u017cno\u015bci od tego, jakie plac\u00f3wki wchodz\u0105 w sk\u0142ad zespo\u0142u. Sprawd\u017a, kiedy stosowa\u0107 amenity=* a kiedy landuse=education.","note":"Children RSPO: 64627;64837"}},{"id":64627,"type":"Feature","geometry":{"type":"Point","coordinates":[17.91384,54.526779999999995]},"properties":{"isced:level":"1;2","ref:rspo":64627,"official_name":"Szko\u0142a Podstawowa im. Bohater\u00f3w Stutthofu w Roz\u0142azinie","name":"Szko\u0142a Podstawowa","addr:country":"PL","addr:postcode":"84-218","addr:city":"Roz\u0142azino","addr:street":"ul. D\u0142uga","addr:housenumber":"21","addr:teryt:simc":3839,"addr:teryt:sym_ul":167361,"contact:phone":"+48 586789914","contact:email":"szkola@rozlazino.eu","contact:website":"http:\/\/www.szkolarozlazino.pl","ref:regon":"221769413","operator":"Gmina \u0141\u0119czyce","operator:type":"government","amenity":"school","note":"Parent RSPO: 13825"}},{"id":64837,"type":"Feature","geometry":{"type":"Point","coordinates":[17.91384,54.52675]},"properties":{"ref:rspo":64837,"official_name":"Przedszkole Publiczne \"Pinokio\" w Roz\u0142azinie","name":"Przedszkole Publiczne \"Pinokio\" w Roz\u0142azinie","addr:country":"PL","addr:postcode":"84-218","addr:city":"Roz\u0142azino","addr:street":"ul. D\u0142uga","addr:housenumber":"21","addr:teryt:simc":3839,"addr:teryt:sym_ul":167361,"contact:phone":"+48 586789914","contact:email":"szkola@rozlazino.eu","contact:website":"http:\/\/szkolarozlazino.pl","ref:regon":"221769933","operator":"Gmina \u0141\u0119czyce","operator:type":"government","amenity":"kindergarten","note":"Parent RSPO: 13825"}},{"id":129469,"type":"Feature","geometry":{"type":"Point","coordinates":[17.99073,54.56595]},"properties":{"ref:rspo":129469,"official_name":"Dorota Cho\u0142ody Przedszkole I Klub Dzieci\u0119cy \"Smyk\" w Bo\u017cympolu Ma\u0142ym","name":"Dorota Cho\u0142ody Przedszkole I Klub Dzieci\u0119cy \"Smyk\" w Bo\u017cympolu Ma\u0142ym","addr:country":"PL","addr:postcode":"84-214","addr:city":"Bo\u017cepole Ma\u0142e","addr:street":"ul. Wiejska","addr:housenumber":"14","addr:teryt:simc":24048,"addr:teryt:sym_ul":167094,"contact:phone":"+48 692292862","contact:email":"dorotacholody@wp.pl","ref:regon":"362632283","operator":"Dorota Cho\u0142ody","operator:type":"private","amenity":"kindergarten"}},{"id":279125,"type":"Feature","geometry":{"type":"Point","coordinates":[18.0383,54.56843]},"properties":{"ref:rspo":279125,"official_name":"Niepubliczne Przedszkole \"Celineczka\" Beata Bieszke","name":"Niepubliczne Przedszkole \"Celineczka\" Beata Bieszke","addr:country":"PL","addr:postcode":"84-220","addr:city":"Strzebielino","addr:street":"ul. Wejherowska","addr:housenumber":"23","addr:teryt:simc":23842,"addr:teryt:sym_ul":167450,"contact:email":"beatabieszke@wp.pl","contact:website":"http:\/\/przedszkolecelineczka.pl","ref:regon":"520728791","operator":"Beata Bieszke","operator:type":"private","amenity":"kindergarten"}},{"id":128305,"type":"Feature","geometry":{"type":"Point","coordinates":[18.03612,54.56895]},"properties":{"ref:rspo":128305,"official_name":"Zesp\u00f3\u0142 Szkolno-Przedszkolny w Strzebielinie Osiedlu","name":"Zesp\u00f3\u0142 Szkolno-Przedszkolny w Strzebielinie Osiedlu","addr:country":"PL","addr:postcode":"84-220","addr:city":"Strzebielino-Osiedle","addr:street":"ul. Marii Curie-Sk\u0142odowskiej","addr:housenumber":"1","addr:teryt:simc":3148,"addr:teryt:sym_ul":167467,"contact:phone":"+48 586762591","contact:email":"zkiw@wp.pl","contact:website":"http:\/\/sp.strzebielino.pl","ref:regon":"362230596","operator":"Gmina \u0141\u0119czyce","operator:type":"government","landuse":"education","fixme":"amenity=school, amenity=college albo landuse=education w zale\u017cno\u015bci od tego, jakie plac\u00f3wki wchodz\u0105 w sk\u0142ad zespo\u0142u. Sprawd\u017a, kiedy stosowa\u0107 amenity=* a kiedy landuse=education.","note":"Children RSPO: 65002;65148"}},{"id":65002,"type":"Feature","geometry":{"type":"Point","coordinates":[18.03612,54.56892]},"properties":{"isced:level":"1;2","ref:rspo":65002,"official_name":"Szko\u0142a Podstawowa im. Kpt. \u017b. W. Karola Olgierda Borchardta w Strzebielinie Osiedlu","name":"Szko\u0142a Podstawowa","addr:country":"PL","addr:postcode":"84-220","addr:city":"Strzebielino-Osiedle","addr:street":"ul. Marii Curie-Sk\u0142odowskiej","addr:housenumber":"1","addr:teryt:simc":3148,"addr:teryt:sym_ul":167467,"contact:phone":"+48 586762591","contact:email":"zkiw@wp.pl","ref:regon":"221770095","operator":"Gmina \u0141\u0119czyce","operator:type":"government","amenity":"school","note":"Parent RSPO: 128305"}},{"id":65148,"type":"Feature","geometry":{"type":"Point","coordinates":[18.03612,54.56889]},"properties":{"ref:rspo":65148,"official_name":"Przedszkole Publiczne w Strzebielinie Osiedlu","name":"Przedszkole Publiczne w Strzebielinie Osiedlu","addr:country":"PL","addr:postcode":"84-220","addr:city":"Strzebielino-Osiedle","addr:street":"ul. Marii Curie-Sk\u0142odowskiej","addr:housenumber":"1","addr:teryt:simc":3148,"addr:teryt:sym_ul":167467,"contact:phone":"+48 586762591","contact:email":"zkiw@wp.pl","ref:regon":"221770050","operator":"Gmina \u0141\u0119czyce","operator:type":"government","amenity":"kindergarten","note":"Parent RSPO: 128305"}},{"id":66348,"type":"Feature","geometry":{"type":"Point","coordinates":[17.96492,54.57112]},"properties":{"ref:rspo":66348,"official_name":"Przedszkole Niepubliczne \"Bajka\" w Bo\u017cympolu Wielkim","name":"Przedszkole Niepubliczne \"Bajka\" w Bo\u017cympolu Wielkim","addr:country":"PL","addr:postcode":"84-214","addr:city":"Bo\u017cepole Wielkie","addr:street":"ul. Chmieleniecka","addr:housenumber":"3","addr:teryt:simc":2757,"addr:teryt:sym_ul":167102,"contact:phone":"+48 586789722","contact:email":"ewasamson8@wp.pl","contact:website":"http:\/\/przedszkolebozepole.pl","ref:regon":"221770221","ref:vatin":"PL8411115418","operator":"Ewa Samson","operator:type":"private","amenity":"kindergarten"}},{"id":268412,"type":"Feature","geometry":{"type":"Point","coordinates":[17.97682,54.57325]},"properties":{"ref:rspo":268412,"official_name":"Zesp\u00f3\u0142 Szkolno-Przedszkolny w \u0141\u0119czycach","name":"Zesp\u00f3\u0142 Szkolno-Przedszkolny w \u0141\u0119czycach","addr:country":"PL","addr:postcode":"84-218","addr:city":"\u0141\u0119czyce","addr:street":"ul. Topolowa","addr:housenumber":"1","addr:teryt:simc":22880,"addr:teryt:sym_ul":167272,"contact:phone":"+48 586780720","contact:email":"sekretariat@sp-leczyce.pl","contact:website":"http:\/\/sp-leczyce.pl","ref:regon":"381152387","operator":"Gmina \u0141\u0119czyce","operator:type":"government","landuse":"education","fixme":"amenity=school, amenity=college albo landuse=education w zale\u017cno\u015bci od tego, jakie plac\u00f3wki wchodz\u0105 w sk\u0142ad zespo\u0142u. Sprawd\u017a, kiedy stosowa\u0107 amenity=* a kiedy landuse=education.","note":"Children RSPO: 52704;268416"}},{"id":52704,"type":"Feature","geometry":{"type":"Point","coordinates":[17.97682,54.57322]},"properties":{"isced:level":"1;2","ref:rspo":52704,"official_name":"Szko\u0142a Podstawowa im. Adama Loreta w \u0141\u0119czycach","name":"Szko\u0142a Podstawowa","addr:country":"PL","addr:postcode":"84-218","addr:city":"\u0141\u0119czyce","addr:street":"ul. Topolowa","addr:housenumber":"1","addr:teryt:simc":22880,"addr:teryt:sym_ul":167272,"contact:phone":"+48 586780720","contact:email":"sekretariat@sp-leczyce.pl","contact:website":"http:\/\/www.sp-leczyce.pl","ref:regon":"190945990","ref:vatin":"PL5882387008","operator":"Gmina \u0141\u0119czyce","operator:type":"government","amenity":"school","note":"Children RSPO: 272860Parent RSPO: 268412"}},{"id":268416,"type":"Feature","geometry":{"type":"Point","coordinates":[17.97682,54.573190000000004]},"properties":{"ref:rspo":268416,"official_name":"Przedszkole Publiczne w \u0141\u0119czycach","name":"Przedszkole Publiczne w \u0141\u0119czycach","addr:country":"PL","addr:postcode":"84-218","addr:city":"\u0141\u0119czyce","addr:street":"ul. Topolowa","addr:housenumber":"1","addr:teryt:simc":22880,"addr:teryt:sym_ul":167272,"contact:phone":"+48 586780720","contact:email":"sekretariat@sp-leczyce.pl","contact:website":"http:\/\/sp-leczyce.pl","ref:regon":"381152401","operator":"Gmina \u0141\u0119czyce","operator:type":"government","amenity":"kindergarten","note":"Parent RSPO: 268412"}},{"id":14234,"type":"Feature","geometry":{"type":"Point","coordinates":[17.9707,54.57615]},"properties":{"isced:level":"1;2","ref:rspo":14234,"official_name":"Szko\u0142a Podstawowa im. Janusza Kusoci\u0144skiego w Bo\u017cympolu Wielkim","name":"Szko\u0142a Podstawowa","addr:country":"PL","addr:postcode":"84-214","addr:city":"Bo\u017cepole Wielkie","addr:street":"ul. Szkolna","addr:housenumber":"1","addr:teryt:simc":21970,"addr:teryt:sym_ul":167102,"contact:phone":"+48 586789798","contact:email":"kontakt@szkolabozepole.com","contact:website":"http:\/\/szkolabozepole.com","ref:regon":"190945925","ref:vatin":"PL5881323957","operator":"Gmina \u0141\u0119czyce","operator:type":"government","amenity":"school"}},{"id":126411,"type":"Feature","geometry":{"type":"Point","coordinates":[17.8512099,54.59541]},"properties":{"ref:rspo":126411,"official_name":"Cassubia Promocja Kultury Zbigniew Byczkowski","name":"Cassubia Promocja Kultury Zbigniew Byczkowski","addr:country":"PL","addr:postcode":"84-218","addr:city":"\u0141\u0119czyce","addr:street":"ul. Podg\u00f3rna","addr:housenumber":"29","addr:teryt:simc":16742,"addr:teryt:sym_ul":167272,"contact:phone":"+48 887306546","contact:email":"cassubia.promocja.kultury@gmail.com","ref:regon":"360296438","ref:vatin":"PL5881524609","operator":"Zbigniew Byczkowski","operator:type":"private","fixme":"w zale\u017cno\u015bci od przedmiotu dzia\u0142alno\u015bci (np. amenity=training + training=*, amenity=dancing_school, amenity=language_school, amenity=music_school)"}},{"id":272860,"type":"Feature","geometry":{"type":"Point","coordinates":[17.83141,54.62163]},"properties":{"isced:level":"1;2","ref:rspo":272860,"official_name":"Szko\u0142a Filialna Szko\u0142y Podstawowej w \u0141\u0119czycach","name":"Szko\u0142a Filialna Szko\u0142y Podstawowej w \u0141\u0119czycach","addr:country":"PL","addr:postcode":"84-213","addr:place":"Brze\u017ano L\u0119borskie","addr:housenumber":"14d","addr:teryt:sym_ul":167119,"contact:phone":"+48 586780720","contact:email":"sekretariat@sp-leczyce.pl","contact:website":"http:\/\/sp-leczyce.pl","ref:regon":"190945990","operator":"Gmina \u0141\u0119czyce","operator:type":"government","amenity":"school","note":"Parent RSPO: 52704"}},{"id":70330,"type":"Feature","geometry":{"type":"Point","coordinates":[17.8355361,54.6228536]},"properties":{"ref:rspo":70330,"official_name":"Punkt Przedszkolny \"S\u0142oneczko\" w Brze\u017anie L\u0119borskim","name":"Punkt Przedszkolny \"S\u0142oneczko\" w Brze\u017anie L\u0119borskim","addr:country":"PL","addr:postcode":"84-213","addr:place":"Brze\u017ano L\u0119borskie","addr:housenumber":"43","addr:teryt:sym_ul":167119,"contact:phone":"+48 586780720","contact:email":"sekretariat@sp-leczyce.pl","contact:website":"http:\/\/www.sp-leczyce.pl","ref:regon":"221770362","operator":"Gmina \u0141\u0119czyce","operator:type":"government","amenity":"kindergarten"}}]}