{
    "type": "FeatureCollection",
    "features": [
        {
            "id": 25862,
            "type": "Feature",
            "geometry": {
                "type": "Point",
                "coordinates": [
                    18.39435,
                    54.56013
                ]
            },
            "properties": {
                "isced:level": "1;2",
                "ref:rspo": 25862,
                "official_name": "Szko\u0142a Podstawowa Nr 10 w Rumi im. Jana Brzechwy",
                "name": "Szko\u0142a Podstawowa Nr 10 w Rumi",
                "addr:country": "PL",
                "addr:postcode": "84-230",
                "addr:city": "Rumia",
                "addr:street": "ul. G\u00f3rnicza",
                "addr:housenumber": "19",
                "addr:teryt:simc": 5962,
                "addr:teryt:sym_ul": 934694,
                "contact:phone": "+48 586713162",
                "contact:email": "sp10@rumia.edu.pl",
                "contact:website": "http:\/\/sp10.rumia.edu.pl",
                "ref:regon": "190892353",
                "operator": "Gmina Miejska Rumia",
                "operator:type": "government",
                "amenity": "school"
            }
        },
        {
            "id": 267908,
            "type": "Feature",
            "geometry": {
                "type": "Point",
                "coordinates": [
                    18.37654,
                    54.56038
                ]
            },
            "properties": {
                "isced:level": "1;2",
                "ref:rspo": 267908,
                "official_name": "Szko\u0142a Podstawowa Nr 7 im. Karola Wojty\u0142y",
                "name": "Szko\u0142a Podstawowa Nr 7",
                "addr:country": "PL",
                "addr:postcode": "84-230",
                "addr:city": "Rumia",
                "addr:street": "ul. Stefana Batorego",
                "addr:housenumber": "29",
                "addr:teryt:simc": 891,
                "addr:teryt:sym_ul": 934694,
                "contact:phone": "+48 586710140",
                "contact:email": "sp7@rumia.edu.pl",
                "ref:regon": "380748600",
                "operator": "Gmina Miejska Rumia",
                "operator:type": "government",
                "amenity": "school"
            }
        },
        {
            "id": 23563,
            "type": "Feature",
            "geometry": {
                "type": "Point",
                "coordinates": [
                    18.41149,
                    54.56057
                ]
            },
            "properties": {
                "ref:rspo": 23563,
                "official_name": "\u201eIskierka\u201d Przedszkole Niepubliczne w Rumi",
                "name": "\u201eIskierka\u201d Przedszkole Niepubliczne w Rumi",
                "addr:country": "PL",
                "addr:postcode": "84-230",
                "addr:city": "Rumia",
                "addr:street": "ul. Doker\u00f3w",
                "addr:housenumber": "5",
                "addr:teryt:simc": 4007,
                "addr:teryt:sym_ul": 934694,
                "contact:phone": "+48 586719334",
                "contact:email": "iskierka@internetdsl.pl",
                "contact:website": "http:\/\/iskierka.rumia.pl",
                "ref:regon": "221753180",
                "operator": "Ewa God\u0142owska-Fornalczyk",
                "operator:type": "private",
                "amenity": "kindergarten"
            }
        },
        {
            "id": 119407,
            "type": "Feature",
            "geometry": {
                "type": "Point",
                "coordinates": [
                    18.41149,
                    54.560539999999996
                ]
            },
            "properties": {
                "ref:rspo": 119407,
                "official_name": "Niepubliczna Poradnia Psychologiczno-Pedagogiczna Nr 2 \"Fundacji Dobroczy\u0144ca\"",
                "name": "Niepubliczna Poradnia Psychologiczno-Pedagogiczna Nr 2 \"Fundacji Dobroczy\u0144ca\"",
                "addr:country": "PL",
                "addr:postcode": "84-230",
                "addr:city": "Rumia",
                "addr:street": "ul. Doker\u00f3w",
                "addr:housenumber": "5",
                "addr:teryt:simc": 4007,
                "addr:teryt:sym_ul": 934694,
                "contact:phone": "+48 533256625",
                "contact:email": "fundacjadobroczynca@wp.pl",
                "contact:website": "http:\/\/www.fundacjadobroczynca.pl",
                "ref:regon": "221946559",
                "operator": "Fundacja Dobroczy\u0144ca",
                "operator:type": "ngo",
                "healthcare": "counselling",
                "counselling_type": "education",
                "fixme": "w zale\u017cno\u015bci od przedmiotu dzia\u0142alno\u015bci (np. healthcare=counselling + counselling_type=education albo healthcare=psychotherapist)"
            }
        },
        {
            "id": 271794,
            "type": "Feature",
            "geometry": {
                "type": "Point",
                "coordinates": [
                    18.41241,
                    54.56079
                ]
            },
            "properties": {
                "ref:rspo": 271794,
                "official_name": "Biuro Konsultingowo-Us\u0142ugowe Bhp Piotr Troka",
                "name": "Biuro Konsultingowo-Us\u0142ugowe Bhp Piotr Troka",
                "addr:country": "PL",
                "addr:postcode": "84-230",
                "addr:city": "Rumia",
                "addr:street": "ul. Stoczniowc\u00f3w",
                "addr:housenumber": "7B",
                "addr:teryt:simc": 21190,
                "addr:teryt:sym_ul": 934694,
                "contact:phone": "+48 586716007",
                "contact:email": "biuro@bhptroka.pl",
                "contact:website": "http:\/\/www.bhptroka.pl",
                "ref:regon": "383654704",
                "ref:vatin": "PL5881991133",
                "operator": "Piotr Troka",
                "operator:type": "private",
                "fixme": "w zale\u017cno\u015bci od przedmiotu dzia\u0142alno\u015bci (np. amenity=training + training=*, amenity=dancing_school, amenity=language_school, amenity=music_school)"
            }
        },
        {
            "id": 124320,
            "type": "Feature",
            "geometry": {
                "type": "Point",
                "coordinates": [
                    18.4083,
                    54.56297
                ]
            },
            "properties": {
                "ref:rspo": 124320,
                "official_name": "Niepubliczna Poradnia Psychologiczno-Pedagogiczna Nr 1",
                "name": "Niepubliczna Poradnia Psychologiczno-Pedagogiczna Nr 1",
                "addr:country": "PL",
                "addr:postcode": "84-230",
                "addr:city": "Rumia",
                "addr:street": "ul. Janowska",
                "addr:housenumber": "16",
                "addr:teryt:simc": 7205,
                "addr:teryt:sym_ul": 934694,
                "contact:phone": "+48 587362075",
                "contact:email": "fundacjadobroczynca@gmail.com",
                "contact:website": "http:\/\/fundacjadobroczynca.pl",
                "ref:regon": "222148297",
                "operator": "Marta Lichwa",
                "operator:type": "private",
                "healthcare": "counselling",
                "counselling_type": "education",
                "fixme": "w zale\u017cno\u015bci od przedmiotu dzia\u0142alno\u015bci (np. healthcare=counselling + counselling_type=education albo healthcare=psychotherapist)"
            }
        },
        {
            "id": 124324,
            "type": "Feature",
            "geometry": {
                "type": "Point",
                "coordinates": [
                    18.4083,
                    54.56294
                ]
            },
            "properties": {
                "ref:rspo": 124324,
                "official_name": "Niepubliczna Poradnia Psychologiczno-Pedagogiczna \"Doktor Logopeda\"",
                "name": "Niepubliczna Poradnia Psychologiczno-Pedagogiczna \"Doktor Logopeda\"",
                "addr:country": "PL",
                "addr:postcode": "84-230",
                "addr:city": "Rumia",
                "addr:street": "ul. Janowska",
                "addr:housenumber": "16",
                "addr:teryt:simc": 7205,
                "addr:teryt:sym_ul": 934694,
                "contact:phone": "+48 587362075",
                "contact:email": "edulider.biuro@gmail.com",
                "ref:regon": "222148334",
                "operator": "Marta Lichwa",
                "operator:type": "private",
                "healthcare": "counselling",
                "counselling_type": "education",
                "fixme": "w zale\u017cno\u015bci od przedmiotu dzia\u0142alno\u015bci (np. healthcare=counselling + counselling_type=education albo healthcare=psychotherapist)"
            }
        },
        {
            "id": 124609,
            "type": "Feature",
            "geometry": {
                "type": "Point",
                "coordinates": [
                    18.4083,
                    54.56291
                ]
            },
            "properties": {
                "ref:rspo": 124609,
                "official_name": "Niepubliczny Terapeutyczny Punkt Przedszkolny w Rumi",
                "name": "Niepubliczny Terapeutyczny Punkt Przedszkolny w Rumi",
                "addr:country": "PL",
                "addr:postcode": "84-230",
                "addr:city": "Rumia",
                "addr:street": "ul. Janowska",
                "addr:housenumber": "16",
                "addr:teryt:simc": 7205,
                "addr:teryt:sym_ul": 934694,
                "contact:phone": "+48 533999353",
                "contact:email": "doktor.logopeda@gmail.com",
                "ref:regon": "222152407",
                "operator": "Marta Lichwa",
                "operator:type": "private",
                "amenity": "kindergarten"
            }
        },
        {
            "id": 23918,
            "type": "Feature",
            "geometry": {
                "type": "Point",
                "coordinates": [
                    18.3878999,
                    54.56331
                ]
            },
            "properties": {
                "ref:rspo": 23918,
                "official_name": "O\u015brodek Rewalidacyjno-Wychowawczy w Rumi",
                "name": "O\u015brodek Rewalidacyjno-Wychowawczy w Rumi",
                "addr:country": "PL",
                "addr:postcode": "84-230",
                "addr:city": "Rumia",
                "addr:street": "ul. Sabata",
                "addr:housenumber": "12",
                "addr:teryt:simc": 19391,
                "addr:teryt:sym_ul": 934694,
                "contact:phone": "+48 586710719",
                "contact:email": "sosw@2com.pl",
                "contact:website": "http:\/\/www.orwrumia.pl",
                "ref:regon": "220861252",
                "operator": "Powiat Wejherowski",
                "operator:type": "government",
                "amenity": "school",
                "note": "Parent RSPO: 115587"
            }
        },
        {
            "id": 24747,
            "type": "Feature",
            "geometry": {
                "type": "Point",
                "coordinates": [
                    18.3878999,
                    54.56328
                ]
            },
            "properties": {
                "isced:level": "1;2",
                "ref:rspo": 24747,
                "official_name": "Szko\u0142a Podstawowa Nr 2 Specjalna w Rumi",
                "name": "Szko\u0142a Podstawowa Nr 2 Specjalna w Rumi",
                "addr:country": "PL",
                "addr:postcode": "84-230",
                "addr:city": "Rumia",
                "addr:street": "ul. Sabata",
                "addr:housenumber": "12",
                "addr:teryt:simc": 19391,
                "addr:teryt:sym_ul": 934694,
                "contact:phone": "+48 586710719",
                "contact:email": "sosw@2com.pl",
                "contact:website": "http:\/\/www.orwrumia.pl",
                "ref:regon": "192955796",
                "operator": "Powiat Wejherowski",
                "operator:type": "government",
                "amenity": "school",
                "note": "Parent RSPO: 115587"
            }
        },
        {
            "id": 124902,
            "type": "Feature",
            "geometry": {
                "type": "Point",
                "coordinates": [
                    18.40484,
                    54.56383
                ]
            },
            "properties": {
                "isced:level": "3",
                "ref:rspo": 124902,
                "official_name": "Liceum Og\u00f3lnokszta\u0142c\u0105ce dla Doros\u0142ych \"Edukator\" w Rumi",
                "name": "Liceum Og\u00f3lnokszta\u0142c\u0105ce dla Doros\u0142ych \"Edukator\" w Rumi",
                "addr:country": "PL",
                "addr:postcode": "84-230",
                "addr:city": "Rumia",
                "addr:street": "ul. \u015awi\u0119toja\u0144ska",
                "addr:housenumber": "11",
                "addr:teryt:simc": 22548,
                "addr:teryt:sym_ul": 934694,
                "contact:phone": "+48 585008733",
                "contact:email": "kontakt@edu-kreator.pl",
                "contact:website": "http:\/\/www.edu-kreator.pl",
                "ref:regon": "222157362",
                "operator": "Karolina Kucharska",
                "operator:type": "private",
                "amenity": "school"
            }
        },
        {
            "id": 124904,
            "type": "Feature",
            "geometry": {
                "type": "Point",
                "coordinates": [
                    18.40484,
                    54.5638
                ]
            },
            "properties": {
                "isced:level": "4",
                "ref:rspo": 124904,
                "official_name": "Policealna Szko\u0142a Zawodowa \"Edukator\" w Rumi",
                "name": "Policealna Szko\u0142a Zawodowa \"Edukator\" w Rumi",
                "addr:country": "PL",
                "addr:postcode": "84-230",
                "addr:city": "Rumia",
                "addr:street": "ul. \u015awi\u0119toja\u0144ska",
                "addr:housenumber": "11",
                "addr:teryt:simc": 22548,
                "addr:teryt:sym_ul": 934694,
                "contact:phone": "+48 585008733",
                "contact:email": "kontakt@edu-kreator.pl",
                "contact:website": "http:\/\/www.edu-kreator.pl",
                "ref:regon": "222157385",
                "operator": "Karolina Kucharska",
                "operator:type": "private",
                "amenity": "college"
            }
        },
        {
            "id": 267909,
            "type": "Feature",
            "geometry": {
                "type": "Point",
                "coordinates": [
                    18.40484,
                    54.563770000000005
                ]
            },
            "properties": {
                "isced:level": "1;2",
                "ref:rspo": 267909,
                "official_name": "Szko\u0142a Podstawowa Nr 4 im. Janusza Korczaka",
                "name": "Szko\u0142a Podstawowa Nr 4",
                "addr:country": "PL",
                "addr:postcode": "84-230",
                "addr:city": "Rumia",
                "addr:street": "ul. \u015awi\u0119toja\u0144ska",
                "addr:housenumber": "11",
                "addr:teryt:simc": 22548,
                "addr:teryt:sym_ul": 934694,
                "contact:phone": "+48 586710645",
                "contact:email": "sp4@rumia.edu.pl",
                "contact:website": "http:\/\/www.sp4.rumia.edu.pl",
                "ref:regon": "380748617",
                "operator": "Gmina Miejska Rumia",
                "operator:type": "government",
                "amenity": "school"
            }
        },
        {
            "id": 23555,
            "type": "Feature",
            "geometry": {
                "type": "Point",
                "coordinates": [
                    18.41304,
                    54.56391
                ]
            },
            "properties": {
                "ref:rspo": 23555,
                "official_name": "Przedszkole Niepubliczne \"Junior\"",
                "name": "Przedszkole Niepubliczne \"Junior\"",
                "addr:country": "PL",
                "addr:postcode": "84-230",
                "addr:city": "Rumia",
                "addr:street": "ul. Filtrowa",
                "addr:housenumber": "10",
                "addr:door": "19",
                "addr:teryt:simc": 5015,
                "addr:teryt:sym_ul": 934694,
                "contact:phone": "+48 697604970",
                "contact:email": "przedszkole-junior@wp.pl",
                "contact:website": "http:\/\/przedszkolejunior.pl",
                "ref:regon": "221753085",
                "operator": "Karolina Rychert",
                "operator:type": "private",
                "amenity": "kindergarten"
            }
        },
        {
            "id": 132557,
            "type": "Feature",
            "geometry": {
                "type": "Point",
                "coordinates": [
                    18.41566,
                    54.56452
                ]
            },
            "properties": {
                "isced:level": "1;2",
                "ref:rspo": 132557,
                "official_name": "Szko\u0142a Podstawowa Kreatywni w Rumi",
                "name": "Szko\u0142a Podstawowa Kreatywni w Rumi",
                "addr:country": "PL",
                "addr:postcode": "84-230",
                "addr:city": "Rumia",
                "addr:street": "ul. Stoczniowc\u00f3w",
                "addr:housenumber": "23",
                "addr:teryt:simc": 21190,
                "addr:teryt:sym_ul": 934694,
                "contact:phone": "+48 728717252",
                "contact:email": "szkola@kreatywnirumia.edu.pl",
                "contact:website": "http:\/\/www.kreatywnirumia.edu.pl",
                "ref:regon": "365770420",
                "ref:vatin": "PL5882418269",
                "operator": "Rafa\u0142 Herba",
                "operator:type": "private",
                "amenity": "school"
            }
        },
        {
            "id": 55512,
            "type": "Feature",
            "geometry": {
                "type": "Point",
                "coordinates": [
                    18.41673,
                    54.56473
                ]
            },
            "properties": {
                "ref:rspo": 55512,
                "official_name": "Zesp\u00f3\u0142 Szk\u00f3\u0142 Og\u00f3lnokszta\u0142c\u0105cych w Rumi",
                "name": "Zesp\u00f3\u0142 Szk\u00f3\u0142 Og\u00f3lnokszta\u0142c\u0105cych w Rumi",
                "addr:country": "PL",
                "addr:postcode": "84-230",
                "addr:city": "Rumia",
                "addr:street": "ul. Stoczniowc\u00f3w",
                "addr:housenumber": "6",
                "addr:teryt:simc": 21190,
                "addr:teryt:sym_ul": 934694,
                "contact:phone": "+48 586712917",
                "contact:email": "zso@rumia.edu.pl",
                "ref:regon": "191405740",
                "operator": "Gmina Miejska Rumia",
                "operator:type": "government",
                "landuse": "education",
                "fixme": "amenity=school, amenity=college albo landuse=education w zale\u017cno\u015bci od tego, jakie plac\u00f3wki wchodz\u0105 w sk\u0142ad zespo\u0142u. Sprawd\u017a, kiedy stosowa\u0107 amenity=* a kiedy landuse=education.",
                "note": "Children RSPO: 73137;73138"
            }
        },
        {
            "id": 73137,
            "type": "Feature",
            "geometry": {
                "type": "Point",
                "coordinates": [
                    18.41673,
                    54.564699999999995
                ]
            },
            "properties": {
                "isced:level": "1;2",
                "ref:rspo": 73137,
                "official_name": "Szko\u0142a Podstawowa Nr 9 im. Kpt. \u017b. W.k. O. Borchardta",
                "name": "Szko\u0142a Podstawowa Nr 9",
                "addr:country": "PL",
                "addr:postcode": "84-230",
                "addr:city": "Rumia",
                "addr:street": "ul. Stoczniowc\u00f3w",
                "addr:housenumber": "6",
                "addr:teryt:simc": 21190,
                "addr:teryt:sym_ul": 934694,
                "contact:phone": "+48 586712917",
                "contact:email": "sp9@rumia.edu.pl",
                "contact:website": "http:\/\/rumia.edu.pl\/sp9\/",
                "ref:regon": "192946410",
                "operator": "Gmina Miejska Rumia",
                "operator:type": "government",
                "amenity": "school",
                "note": "Parent RSPO: 55512"
            }
        },
        {
            "id": 73138,
            "type": "Feature",
            "geometry": {
                "type": "Point",
                "coordinates": [
                    18.41673,
                    54.56467
                ]
            },
            "properties": {
                "isced:level": "3",
                "ref:rspo": 73138,
                "official_name": "Ii Liceum Og\u00f3lnokszta\u0142c\u0105ce im. J. K. Korzeniowskiego",
                "name": "Ii Liceum Og\u00f3lnokszta\u0142c\u0105ce",
                "addr:country": "PL",
                "addr:postcode": "84-230",
                "addr:city": "Rumia",
                "addr:street": "ul. Stoczniowc\u00f3w",
                "addr:housenumber": "6",
                "addr:teryt:simc": 21190,
                "addr:teryt:sym_ul": 934694,
                "contact:phone": "+48 586718307",
                "contact:email": "2lo@rumia.edu.pl",
                "ref:regon": "192946403",
                "operator": "Gmina Miejska Rumia",
                "operator:type": "government",
                "amenity": "school",
                "note": "Parent RSPO: 55512"
            }
        },
        {
            "id": 30638,
            "type": "Feature",
            "geometry": {
                "type": "Point",
                "coordinates": [
                    18.42025,
                    54.56479
                ]
            },
            "properties": {
                "ref:rspo": 30638,
                "official_name": "Poradnia Psychologiczno-Pedagogiczna w Rumi",
                "name": "Poradnia Psychologiczno-Pedagogiczna w Rumi",
                "addr:country": "PL",
                "addr:postcode": "84-230",
                "addr:city": "Rumia",
                "addr:street": "ul. Pomorska",
                "addr:housenumber": "3",
                "addr:teryt:simc": 17088,
                "addr:teryt:sym_ul": 934694,
                "contact:phone": "+48 586710956",
                "contact:email": "poradniajanowo@wp.pl",
                "contact:website": "http:\/\/www.poradnia-wejherowo.pl",
                "ref:regon": "221759225",
                "operator": "Powiat Wejherowski",
                "operator:type": "government",
                "healthcare": "counselling",
                "counselling_type": "education",
                "fixme": "w zale\u017cno\u015bci od przedmiotu dzia\u0142alno\u015bci (np. healthcare=counselling + counselling_type=education albo healthcare=psychotherapist)",
                "note": "Parent RSPO: 7737"
            }
        },
        {
            "id": 29631,
            "type": "Feature",
            "geometry": {
                "type": "Point",
                "coordinates": [
                    18.4014099,
                    54.56495
                ]
            },
            "properties": {
                "ref:rspo": 29631,
                "official_name": "Niepubliczne Przedszkole Artystyczno-J\u0119zykowe \"Puchatek\" w Rumi",
                "name": "Niepubliczne Przedszkole Artystyczno-J\u0119zykowe \"Puchatek\" w Rumi",
                "addr:country": "PL",
                "addr:postcode": "84-230",
                "addr:city": "Rumia",
                "addr:street": "ul. \u015awi\u0119toja\u0144ska",
                "addr:housenumber": "5",
                "addr:teryt:simc": 22548,
                "addr:teryt:sym_ul": 934694,
                "contact:phone": "+48 510105119",
                "contact:email": "puchatekprzedszkole@wp.pl",
                "contact:website": "http:\/\/www.przedszkole-puchatka.pl",
                "ref:regon": "221758119",
                "operator": "El\u017cbieta Muszy\u0144ska",
                "operator:type": "private",
                "amenity": "kindergarten"
            }
        },
        {
            "id": 23568,
            "type": "Feature",
            "geometry": {
                "type": "Point",
                "coordinates": [
                    18.39824,
                    54.56601
                ]
            },
            "properties": {
                "ref:rspo": 23568,
                "official_name": "Zesp\u00f3\u0142 Szk\u00f3\u0142 Towarzystwa Salezja\u0144skiego",
                "name": "Zesp\u00f3\u0142 Szk\u00f3\u0142 Towarzystwa Salezja\u0144skiego",
                "addr:country": "PL",
                "addr:postcode": "84-230",
                "addr:city": "Rumia",
                "addr:street": "ul. \u015awi\u0119toja\u0144ska",
                "addr:housenumber": "1",
                "addr:teryt:simc": 22548,
                "addr:teryt:sym_ul": 934694,
                "contact:phone": "+48 587713122",
                "contact:email": "sekretariat.slo@onet.pl",
                "contact:website": "http:\/\/www.szkoly.salezjanskie.pl",
                "ref:regon": "221754340",
                "operator": "Towarzystwo Salezja\u0144skie Inspektoria P.w. \u015aw. Wojciecha",
                "operator:type": "religious",
                "landuse": "education",
                "fixme": "amenity=school, amenity=college albo landuse=education w zale\u017cno\u015bci od tego, jakie plac\u00f3wki wchodz\u0105 w sk\u0142ad zespo\u0142u. Sprawd\u017a, kiedy stosowa\u0107 amenity=* a kiedy landuse=education.",
                "note": "Children RSPO: 55531;264971"
            }
        },
        {
            "id": 55531,
            "type": "Feature",
            "geometry": {
                "type": "Point",
                "coordinates": [
                    18.39824,
                    54.565979999999996
                ]
            },
            "properties": {
                "isced:level": "3",
                "ref:rspo": 55531,
                "official_name": "Salezja\u0144skie Liceum Og\u00f3lnokszta\u0142c\u0105ce im. \u015aw. Jana Bosko w Rumi",
                "name": "Salezja\u0144skie Liceum Og\u00f3lnokszta\u0142c\u0105ce",
                "addr:country": "PL",
                "addr:postcode": "84-230",
                "addr:city": "Rumia",
                "addr:street": "ul. \u015awi\u0119toja\u0144ska",
                "addr:housenumber": "1",
                "addr:teryt:simc": 22548,
                "addr:teryt:sym_ul": 934694,
                "contact:phone": "+48 587713122",
                "contact:email": "sekretariat.slo@onet.pl",
                "contact:website": "http:\/\/www.liceum.salezjanskie.pl",
                "ref:regon": "221770267",
                "operator": "Towarzystwo Salezja\u0144skie Inspektoria P.w. \u015aw. Wojciecha",
                "operator:type": "religious",
                "amenity": "school",
                "note": "Parent RSPO: 23568"
            }
        },
        {
            "id": 264971,
            "type": "Feature",
            "geometry": {
                "type": "Point",
                "coordinates": [
                    18.39824,
                    54.56595
                ]
            },
            "properties": {
                "isced:level": "1;2",
                "ref:rspo": 264971,
                "official_name": "Salezja\u0144ska Szko\u0142a Podstawowa im. \u015aw Dominika Savio w Rumi",
                "name": "Salezja\u0144ska Szko\u0142a Podstawowa",
                "addr:country": "PL",
                "addr:postcode": "84-230",
                "addr:city": "Rumia",
                "addr:street": "ul. \u015awi\u0119toja\u0144ska",
                "addr:housenumber": "1",
                "addr:teryt:simc": 22548,
                "addr:teryt:sym_ul": 934694,
                "contact:phone": "+48 587713122",
                "contact:email": "sekretariat.slo@onet.pl",
                "contact:website": "http:\/\/www.gimnazjum.salezjanskie.pl",
                "ref:regon": "368537456",
                "operator": "Towarzystwo Salezja\u0144skie Inspektoria P.w. \u015aw. Wojciecha",
                "operator:type": "religious",
                "amenity": "school",
                "note": "Parent RSPO: 23568"
            }
        },
        {
            "id": 23558,
            "type": "Feature",
            "geometry": {
                "type": "Point",
                "coordinates": [
                    18.41695,
                    54.56656
                ]
            },
            "properties": {
                "isced:level": "1;2",
                "ref:rspo": 23558,
                "official_name": "Podstawowa Ekologiczna Szko\u0142a Spo\u0142eczna",
                "name": "Podstawowa Ekologiczna Szko\u0142a Spo\u0142eczna",
                "addr:country": "PL",
                "addr:postcode": "84-230",
                "addr:city": "Rumia",
                "addr:street": "ul. Kujawska",
                "addr:housenumber": "8A",
                "addr:teryt:simc": 10344,
                "addr:teryt:sym_ul": 934694,
                "contact:phone": "+48 586711392",
                "contact:email": "ess.rumia@wp.pl",
                "contact:website": "http:\/\/ess.rumia.pl",
                "ref:regon": "221754370",
                "operator": "Stowarzyszenie Przyjaci\u00f3\u0142 Ekologicznej Szko\u0142y Spo\u0142ecznej",
                "operator:type": "ngo",
                "amenity": "school"
            }
        },
        {
            "id": 276778,
            "type": "Feature",
            "geometry": {
                "type": "Point",
                "coordinates": [
                    18.40051,
                    54.56729
                ]
            },
            "properties": {
                "ref:rspo": 276778,
                "official_name": "Centrum Kszta\u0142cenia Bezpiecze\u0144stwa I Doskonalenia Zawodowego Pracownik\u00f3w Ochrony",
                "name": "Centrum Kszta\u0142cenia Bezpiecze\u0144stwa I Doskonalenia Zawodowego Pracownik\u00f3w Ochrony",
                "addr:country": "PL",
                "addr:postcode": "84-230",
                "addr:city": "Rumia",
                "addr:street": "ul. Henryka D\u0105browskiego",
                "addr:housenumber": "29",
                "addr:teryt:simc": 3678,
                "addr:teryt:sym_ul": 934694,
                "contact:phone": "+48 515042293",
                "contact:email": "szkolenia.ba-gs@wp.pl",
                "contact:website": "http:\/\/www.ba-gs.pl",
                "ref:regon": "387564091",
                "operator": "Ba-Gs Sp\u00f3\u0142ka Z Ograniczon\u0105 Odpowiedzialno\u015bci\u0105",
                "operator:type": "private",
                "fixme": "w zale\u017cno\u015bci od przedmiotu dzia\u0142alno\u015bci (np. amenity=training + training=*, amenity=dancing_school, amenity=language_school, amenity=music_school)"
            }
        },
        {
            "id": 47223,
            "type": "Feature",
            "geometry": {
                "type": "Point",
                "coordinates": [
                    18.38675,
                    54.56777
                ]
            },
            "properties": {
                "ref:rspo": 47223,
                "official_name": "Przedszkole Pod Topol\u0105",
                "name": "Przedszkole Pod Topol\u0105",
                "addr:country": "PL",
                "addr:postcode": "84-230",
                "addr:city": "Rumia",
                "addr:street": "ul. Le\u015bna",
                "addr:housenumber": "4",
                "addr:teryt:simc": 10898,
                "addr:teryt:sym_ul": 934694,
                "contact:phone": "+48 586710818",
                "contact:email": "pptopola@o2.pl",
                "contact:website": "http:\/\/przedszkolepodtopola.pl",
                "ref:regon": "190589092",
                "operator": "Gmina Miejska Rumia",
                "operator:type": "government",
                "amenity": "kindergarten"
            }
        },
        {
            "id": 23567,
            "type": "Feature",
            "geometry": {
                "type": "Point",
                "coordinates": [
                    18.41773,
                    54.5678
                ]
            },
            "properties": {
                "ref:rspo": 23567,
                "official_name": "Przedszkole Niepubliczne \u201eJanowiaczek\u201d S.c.",
                "name": "Przedszkole Niepubliczne \u201eJanowiaczek\u201d S.c.",
                "addr:country": "PL",
                "addr:postcode": "84-230",
                "addr:city": "Rumia",
                "addr:street": "ul. Pomorska",
                "addr:housenumber": "27",
                "addr:teryt:simc": 17088,
                "addr:teryt:sym_ul": 934694,
                "contact:phone": "+48 586712971",
                "contact:email": "janowiaczekdyrekcja@o2.pl",
                "ref:regon": "221753062",
                "operator": "Bogumi\u0142a Sikora",
                "operator:type": "private",
                "amenity": "kindergarten"
            }
        },
        {
            "id": 125382,
            "type": "Feature",
            "geometry": {
                "type": "Point",
                "coordinates": [
                    18.3863,
                    54.5683
                ]
            },
            "properties": {
                "ref:rspo": 125382,
                "official_name": "Niepubliczne Przedszkole Z Grup\u0105 Integracyjn\u0105 \"Kraina Bajek\" w Rumi",
                "name": "Niepubliczne Przedszkole Z Grup\u0105 Integracyjn\u0105 \"Kraina Bajek\" w Rumi",
                "addr:country": "PL",
                "addr:postcode": "84-230",
                "addr:city": "Rumia",
                "addr:street": "ul. Towarowa",
                "addr:housenumber": "21",
                "addr:teryt:simc": 22907,
                "addr:teryt:sym_ul": 934694,
                "contact:phone": "+48 600228551",
                "contact:email": "biuro@krainabajek.com.pl",
                "contact:website": "http:\/\/krainabajek.com.pl",
                "ref:regon": "222169371",
                "operator": "Angelika Pawlina",
                "operator:type": "private",
                "amenity": "kindergarten"
            }
        },
        {
            "id": 7038,
            "type": "Feature",
            "geometry": {
                "type": "Point",
                "coordinates": [
                    18.39163,
                    54.56881
                ]
            },
            "properties": {
                "ref:rspo": 7038,
                "official_name": "Powiatowy Zesp\u00f3\u0142 Szk\u00f3\u0142 Nr 1 w Rumi",
                "name": "Powiatowy Zesp\u00f3\u0142 Szk\u00f3\u0142 Nr 1 w Rumi",
                "addr:country": "PL",
                "addr:postcode": "84-230",
                "addr:city": "Rumia",
                "addr:street": "ul. Starowiejska",
                "addr:housenumber": "4",
                "addr:teryt:simc": 20998,
                "addr:teryt:sym_ul": 934694,
                "contact:phone": "+48 586710622",
                "contact:email": "1lo@rumia.edu.pl",
                "contact:website": "http:\/\/www.lo1.rumia.pl",
                "ref:regon": "000783717",
                "ref:vatin": "PL9581106873",
                "operator": "Powiat Wejherowski",
                "operator:type": "government",
                "landuse": "education",
                "fixme": "amenity=school, amenity=college albo landuse=education w zale\u017cno\u015bci od tego, jakie plac\u00f3wki wchodz\u0105 w sk\u0142ad zespo\u0142u. Sprawd\u017a, kiedy stosowa\u0107 amenity=* a kiedy landuse=education.",
                "note": "Children RSPO: 19202;19291"
            }
        },
        {
            "id": 19202,
            "type": "Feature",
            "geometry": {
                "type": "Point",
                "coordinates": [
                    18.39163,
                    54.56878
                ]
            },
            "properties": {
                "isced:level": "3",
                "ref:rspo": 19202,
                "official_name": "I Liceum Og\u00f3lnokszta\u0142c\u0105ce im. Ksi\u0105\u017c\u0105t Pomorskich w Rumi",
                "name": "I Liceum Og\u00f3lnokszta\u0142c\u0105ce",
                "addr:country": "PL",
                "addr:postcode": "84-230",
                "addr:city": "Rumia",
                "addr:street": "ul. Starowiejska",
                "addr:housenumber": "4",
                "addr:teryt:simc": 20998,
                "addr:teryt:sym_ul": 934694,
                "contact:phone": "+48 586710622",
                "contact:email": "1lo@rumia.edu.pl",
                "contact:website": "http:\/\/www.lo1.rumia.pl",
                "ref:regon": "192776556",
                "operator": "Powiat Wejherowski",
                "operator:type": "government",
                "amenity": "school",
                "note": "Parent RSPO: 7038"
            }
        },
        {
            "id": 19291,
            "type": "Feature",
            "geometry": {
                "type": "Point",
                "coordinates": [
                    18.39163,
                    54.56875
                ]
            },
            "properties": {
                "isced:level": "3",
                "ref:rspo": 19291,
                "official_name": "Liceum Og\u00f3lnokszta\u0142c\u0105ce dla Doros\u0142ych w Rumi",
                "name": "Liceum Og\u00f3lnokszta\u0142c\u0105ce dla Doros\u0142ych w Rumi",
                "addr:country": "PL",
                "addr:postcode": "84-230",
                "addr:city": "Rumia",
                "addr:street": "ul. Starowiejska",
                "addr:housenumber": "4",
                "addr:teryt:simc": 20998,
                "addr:teryt:sym_ul": 934694,
                "contact:phone": "+48 586710622",
                "contact:email": "1lo@rumia.edu.pl",
                "contact:website": "http:\/\/www.lo1.rumia.pl",
                "ref:regon": "221748339",
                "operator": "Powiat Wejherowski",
                "operator:type": "government",
                "amenity": "school",
                "note": "Parent RSPO: 7038"
            }
        },
        {
            "id": 55528,
            "type": "Feature",
            "geometry": {
                "type": "Point",
                "coordinates": [
                    18.39163,
                    54.56872
                ]
            },
            "properties": {
                "ref:rspo": 55528,
                "official_name": "Ognisko Pracy Pozaszkolnej w Rumi",
                "name": "Ognisko Pracy Pozaszkolnej w Rumi",
                "addr:country": "PL",
                "addr:postcode": "84-230",
                "addr:city": "Rumia",
                "addr:street": "ul. Starowiejska",
                "addr:housenumber": "4",
                "addr:teryt:simc": 20998,
                "addr:teryt:sym_ul": 934694,
                "contact:phone": "+48 586724592",
                "contact:email": "pzpow@op.pl",
                "contact:website": "http:\/\/www.pzpow.eu",
                "ref:regon": "221768141",
                "operator": "Powiat Wejherowski",
                "operator:type": "government",
                "amenity": "community_centre",
                "community_centre:for": "child;juvenile",
                "note": "Parent RSPO: 7738"
            }
        },
        {
            "id": 267349,
            "type": "Feature",
            "geometry": {
                "type": "Point",
                "coordinates": [
                    18.39981,
                    54.56962
                ]
            },
            "properties": {
                "ref:rspo": 267349,
                "official_name": "Niepubliczny Terapeutyczny Punkt Przedszkolny \"Elfik\" w Rumi",
                "name": "Niepubliczny Terapeutyczny Punkt Przedszkolny \"Elfik\" w Rumi",
                "addr:country": "PL",
                "addr:postcode": "84-230",
                "addr:city": "Rumia",
                "addr:street": "ul. Wybickiego",
                "addr:housenumber": "11",
                "addr:teryt:simc": 24903,
                "addr:teryt:sym_ul": 934694,
                "contact:email": "przedszkole@elfik-rumia.pl",
                "ref:regon": "380189098",
                "ref:vatin": "PL8741229740",
                "operator": "Anna Wodka",
                "operator:type": "private",
                "amenity": "kindergarten"
            }
        },
        {
            "id": 272230,
            "type": "Feature",
            "geometry": {
                "type": "Point",
                "coordinates": [
                    18.39981,
                    54.56959
                ]
            },
            "properties": {
                "ref:rspo": 272230,
                "official_name": "Niepubliczna Poradnia Psychologiczno-Pedagogiczna Elfik w Rumi",
                "name": "Niepubliczna Poradnia Psychologiczno-Pedagogiczna Elfik w Rumi",
                "addr:country": "PL",
                "addr:postcode": "84-230",
                "addr:city": "Rumia",
                "addr:street": "ul. Wybickiego",
                "addr:housenumber": "11",
                "addr:teryt:simc": 24903,
                "addr:teryt:sym_ul": 934694,
                "contact:phone": "+48 781787396",
                "contact:email": "przedszkole@elfik-rumia.pl",
                "contact:website": "http:\/\/elfik-rumia.pl\/index.php\/kontakt",
                "ref:regon": "384060094",
                "ref:vatin": "PL8741229740",
                "operator": "Anna Wodka",
                "operator:type": "private",
                "healthcare": "counselling",
                "counselling_type": "education",
                "fixme": "w zale\u017cno\u015bci od przedmiotu dzia\u0142alno\u015bci (np. healthcare=counselling + counselling_type=education albo healthcare=psychotherapist)"
            }
        },
        {
            "id": 267637,
            "type": "Feature",
            "geometry": {
                "type": "Point",
                "coordinates": [
                    18.39999,
                    54.56962
                ]
            },
            "properties": {
                "ref:rspo": 267637,
                "official_name": "Kid Poradnia Psychologiczno-Pedagogiczna",
                "name": "Kid Poradnia Psychologiczno-Pedagogiczna",
                "addr:country": "PL",
                "addr:postcode": "84-230",
                "addr:city": "Rumia",
                "addr:street": "ul. Marsza\u0142ka J\u00f3zefa Pi\u0142sudskiego",
                "addr:housenumber": "41F\/5",
                "addr:teryt:simc": 36029,
                "addr:teryt:sym_ul": 934694,
                "contact:phone": "+48 535456312",
                "contact:email": "poradnia@kidpsycholog.pl",
                "contact:website": "http:\/\/kidpsycholog.pl\/",
                "ref:regon": "380450071",
                "operator": "Dominika Regli\u0144ska",
                "operator:type": "private",
                "healthcare": "counselling",
                "counselling_type": "education",
                "fixme": "w zale\u017cno\u015bci od przedmiotu dzia\u0142alno\u015bci (np. healthcare=counselling + counselling_type=education albo healthcare=psychotherapist)"
            }
        },
        {
            "id": 267913,
            "type": "Feature",
            "geometry": {
                "type": "Point",
                "coordinates": [
                    18.39999,
                    54.56959
                ]
            },
            "properties": {
                "ref:rspo": 267913,
                "official_name": "Niepubliczny Terapeutyczny Punkt Przedszkolny Superkids",
                "name": "Niepubliczny Terapeutyczny Punkt Przedszkolny Superkids",
                "addr:country": "PL",
                "addr:postcode": "84-230",
                "addr:city": "Rumia",
                "addr:street": "ul. Marsza\u0142ka J\u00f3zefa Pi\u0142sudskiego",
                "addr:housenumber": "41f",
                "addr:door": "5",
                "addr:teryt:simc": 36029,
                "addr:teryt:sym_ul": 934694,
                "contact:email": "kontakt@superkids.edu.pl",
                "contact:website": "http:\/\/www.superkids.edu.pl",
                "ref:regon": "380748646",
                "ref:vatin": "PL5862135835",
                "operator": "Karolina Podra\u017cka",
                "operator:type": "private",
                "amenity": "kindergarten"
            }
        },
        {
            "id": 23560,
            "type": "Feature",
            "geometry": {
                "type": "Point",
                "coordinates": [
                    18.4065,
                    54.57048
                ]
            },
            "properties": {
                "ref:rspo": 23560,
                "official_name": "\u201eSkrzat\u201d Przedszkole Niepubliczne",
                "name": "\u201eSkrzat\u201d Przedszkole Niepubliczne",
                "addr:country": "PL",
                "addr:postcode": "84-230",
                "addr:city": "Rumia",
                "addr:street": "ul. Sopocka",
                "addr:housenumber": "6",
                "addr:teryt:simc": 20582,
                "addr:teryt:sym_ul": 934694,
                "contact:phone": "+48 605669873",
                "contact:email": "przedszkoleskrzatrumia@gmail.com",
                "contact:website": "http:\/\/przedszkole-skrzat.com",
                "ref:regon": "221753151",
                "operator": "Bo\u017cena J\u00f3zefczuk",
                "operator:type": "private",
                "amenity": "kindergarten"
            }
        },
        {
            "id": 125258,
            "type": "Feature",
            "geometry": {
                "type": "Point",
                "coordinates": [
                    18.4019,
                    54.57069
                ]
            },
            "properties": {
                "ref:rspo": 125258,
                "official_name": "Niepubliczne Przedszkole J\u0119zykowe M\u0105dry Maluch w Rumi",
                "name": "Niepubliczne Przedszkole J\u0119zykowe M\u0105dry Maluch w Rumi",
                "addr:country": "PL",
                "addr:postcode": "84-230",
                "addr:city": "Rumia",
                "addr:street": "ul. marsz. J\u00f3zefa Pi\u0142sudskiego",
                "addr:housenumber": "68",
                "addr:teryt:simc": 16274,
                "addr:teryt:sym_ul": 934694,
                "contact:phone": "+48 698719060",
                "contact:email": "przedszkole@madrymaluch.edu.pl",
                "contact:website": "http:\/\/madrymaluch.edu.pl",
                "ref:regon": "222164209",
                "operator": "Rafa\u0142 Herba",
                "operator:type": "private",
                "amenity": "kindergarten"
            }
        },
        {
            "id": 268656,
            "type": "Feature",
            "geometry": {
                "type": "Point",
                "coordinates": [
                    18.39637,
                    54.57077
                ]
            },
            "properties": {
                "ref:rspo": 268656,
                "official_name": "Niepubliczne Przedszkole \"Planeta U\u015bmiechu\"",
                "name": "Niepubliczne Przedszkole \"Planeta U\u015bmiechu\"",
                "addr:country": "PL",
                "addr:postcode": "84-230",
                "addr:city": "Rumia",
                "addr:street": "ul. Wybickiego",
                "addr:housenumber": "5",
                "addr:teryt:simc": 24903,
                "addr:teryt:sym_ul": 934694,
                "contact:phone": "+48 536707888",
                "contact:email": "przedszkole@planetausmiechu.eu",
                "contact:website": "http:\/\/www.planetausmiechu.eu",
                "ref:regon": "381225092",
                "operator": "Magdalena Szymikowska",
                "operator:type": "private",
                "amenity": "kindergarten"
            }
        },
        {
            "id": 23559,
            "type": "Feature",
            "geometry": {
                "type": "Point",
                "coordinates": [
                    18.39406,
                    54.57118
                ]
            },
            "properties": {
                "ref:rspo": 23559,
                "official_name": "Przedszkole Niepubliczne \u201eRezydencja Malucha\u201d w Rumi",
                "name": "Przedszkole Niepubliczne \u201eRezydencja Malucha\u201d w Rumi",
                "addr:country": "PL",
                "addr:postcode": "84-230",
                "addr:city": "Rumia",
                "addr:street": "ul. Wybickiego",
                "addr:housenumber": "2",
                "addr:teryt:simc": 24903,
                "addr:teryt:sym_ul": 934694,
                "contact:phone": "+48 585959777",
                "contact:email": "przedszkole@rezydencjamalucha.pl",
                "contact:website": "http:\/\/rezydencjamalucha.pl",
                "ref:regon": "221753145",
                "operator": "Barbara Tumi\u0144ska",
                "operator:type": "private",
                "amenity": "kindergarten"
            }
        },
        {
            "id": 68463,
            "type": "Feature",
            "geometry": {
                "type": "Point",
                "coordinates": [
                    18.39665,
                    54.57122
                ]
            },
            "properties": {
                "ref:rspo": 68463,
                "official_name": "\u201eS\u0142oneczna Jedynka\u201d Przedszkole Nr 1",
                "name": "\u201eS\u0142oneczna Jedynka\u201d Przedszkole Nr 1",
                "addr:country": "PL",
                "addr:postcode": "84-230",
                "addr:city": "Rumia",
                "addr:street": "ul. Rodziewicz\u00f3wny",
                "addr:housenumber": "4",
                "addr:teryt:simc": 18723,
                "addr:teryt:sym_ul": 934694,
                "contact:phone": "+48 586710568",
                "contact:email": "sloneczna1@rumia.edu.pl",
                "contact:website": "http:\/\/www.p1rumia.edupage.org",
                "ref:regon": "190589070",
                "operator": "Gmina Miejska Rumia",
                "operator:type": "government",
                "amenity": "kindergarten"
            }
        },
        {
            "id": 22188,
            "type": "Feature",
            "geometry": {
                "type": "Point",
                "coordinates": [
                    18.41209,
                    54.57197
                ]
            },
            "properties": {
                "ref:rspo": 22188,
                "official_name": "Bhpperitus",
                "name": "Bhpperitus",
                "addr:country": "PL",
                "addr:postcode": "84-230",
                "addr:city": "Rumia",
                "addr:street": "ul. Boles\u0142awa Krzywoustego",
                "addr:housenumber": "14",
                "addr:teryt:simc": 1749,
                "addr:teryt:sym_ul": 934694,
                "contact:phone": "+48 586717274",
                "contact:email": "biuro@bhpperitus.pl",
                "contact:website": "http:\/\/www.bhpperitus.pl",
                "ref:regon": "221751672",
                "ref:vatin": "PL5881874410",
                "operator": "Micha\u0142 Ch\u0142opecki",
                "operator:type": "private",
                "fixme": "w zale\u017cno\u015bci od przedmiotu dzia\u0142alno\u015bci (np. amenity=training + training=*, amenity=dancing_school, amenity=language_school, amenity=music_school)"
            }
        },
        {
            "id": 267906,
            "type": "Feature",
            "geometry": {
                "type": "Point",
                "coordinates": [
                    18.39762,
                    54.57223
                ]
            },
            "properties": {
                "isced:level": "1;2",
                "ref:rspo": 267906,
                "official_name": "Szko\u0142a Podstawowa Nr 8 im. Ks. Stanis\u0142awa Ormi\u0144skiego",
                "name": "Szko\u0142a Podstawowa Nr 8",
                "addr:country": "PL",
                "addr:postcode": "84-230",
                "addr:city": "Rumia",
                "addr:street": "ul. Rodziewicz\u00f3wny",
                "addr:housenumber": "10",
                "addr:teryt:simc": 18723,
                "addr:teryt:sym_ul": 934694,
                "contact:phone": "+48 586710790",
                "contact:email": "sp8@rumia.edu.pl",
                "contact:website": "http:\/\/sp8.rumia.edu.pl",
                "ref:regon": "380748592",
                "operator": "Gmina Miejska Rumia",
                "operator:type": "government",
                "amenity": "school"
            }
        },
        {
            "id": 275864,
            "type": "Feature",
            "geometry": {
                "type": "Point",
                "coordinates": [
                    18.3759,
                    54.57329
                ]
            },
            "properties": {
                "ref:rspo": 275864,
                "official_name": "Niepubliczny Integracyjny Logopedyczny Punkt Przedszkolny \"Le\u015bny Zak\u0105tek\"",
                "name": "Niepubliczny Integracyjny Logopedyczny Punkt Przedszkolny \"Le\u015bny Zak\u0105tek\"",
                "addr:country": "PL",
                "addr:postcode": "84-230",
                "addr:city": "Rumia",
                "addr:street": "ul. Kapita\u0144ska",
                "addr:housenumber": "42",
                "addr:teryt:simc": 7982,
                "addr:teryt:sym_ul": 934694,
                "contact:email": "lesnyzakatek.rumia@o2.pl",
                "contact:website": "http:\/\/www.lesnyzak\u0105tekrumia.pl",
                "ref:regon": "386954275",
                "operator": "Beata Bojanko",
                "operator:type": "private",
                "amenity": "kindergarten"
            }
        },
        {
            "id": 23561,
            "type": "Feature",
            "geometry": {
                "type": "Point",
                "coordinates": [
                    18.39285,
                    54.57447
                ]
            },
            "properties": {
                "ref:rspo": 23561,
                "official_name": "Przedszkole Prywatne \u201e\u017bagielek\u201d",
                "name": "Przedszkole Prywatne \u201e\u017bagielek\u201d",
                "addr:country": "PL",
                "addr:postcode": "84-230",
                "addr:city": "Rumia",
                "addr:street": "ul. \u017beromskiego",
                "addr:housenumber": "6",
                "addr:teryt:simc": 26464,
                "addr:teryt:sym_ul": 934694,
                "contact:phone": "+48 507154228",
                "contact:email": "krystyna.f.gd@op.pl",
                "contact:website": "http:\/\/przedszkole-zagielek.pl",
                "ref:regon": "221753174",
                "operator": "Krystyna Fale\u0144ska",
                "operator:type": "private",
                "amenity": "kindergarten"
            }
        },
        {
            "id": 23556,
            "type": "Feature",
            "geometry": {
                "type": "Point",
                "coordinates": [
                    18.40566,
                    54.57493
                ]
            },
            "properties": {
                "ref:rspo": 23556,
                "official_name": "Przedszkole Niepubliczne \u201dWioska Smerf\u00f3w\u201d",
                "name": "Przedszkole Niepubliczne \u201dWioska Smerf\u00f3w\u201d",
                "addr:country": "PL",
                "addr:postcode": "84-230",
                "addr:city": "Rumia",
                "addr:street": "ul. Gdy\u0144ska",
                "addr:housenumber": "13",
                "addr:teryt:simc": 5441,
                "addr:teryt:sym_ul": 934694,
                "contact:phone": "+48 609815261",
                "contact:email": "przedszkole@wioskasmerfow.pl",
                "contact:website": "http:\/\/wioskasmerfow.pl",
                "ref:regon": "221753116",
                "operator": "Sylwia Smagalska",
                "operator:type": "private",
                "amenity": "kindergarten"
            }
        },
        {
            "id": 42309,
            "type": "Feature",
            "geometry": {
                "type": "Point",
                "coordinates": [
                    18.38531,
                    54.57558
                ]
            },
            "properties": {
                "ref:rspo": 42309,
                "official_name": "Prywatna Szko\u0142a Muzyczna I St. w Rumi",
                "name": "Prywatna Szko\u0142a Muzyczna I St. w Rumi",
                "addr:country": "PL",
                "addr:postcode": "84-230",
                "addr:city": "Rumia",
                "addr:street": "ul. Sienkiewicza",
                "addr:housenumber": "30",
                "addr:teryt:simc": 19830,
                "addr:teryt:sym_ul": 934694,
                "ref:regon": "221760429",
                "operator": "Aleksandra Wieliczko",
                "operator:type": "private",
                "amenity": "music_school"
            }
        },
        {
            "id": 55810,
            "type": "Feature",
            "geometry": {
                "type": "Point",
                "coordinates": [
                    18.38531,
                    54.57555
                ]
            },
            "properties": {
                "isced:level": "1;2",
                "ref:rspo": 55810,
                "official_name": "Szko\u0142a Podstawowa Nr 6 im. Aleksandra Majkowskiego w Rumi",
                "name": "Szko\u0142a Podstawowa Nr 6",
                "addr:country": "PL",
                "addr:postcode": "84-230",
                "addr:city": "Rumia",
                "addr:street": "ul. Sienkiewicza",
                "addr:housenumber": "30",
                "addr:teryt:simc": 19830,
                "addr:teryt:sym_ul": 934694,
                "contact:phone": "+48 586710150",
                "contact:email": "szkola@sp6rumia.edu.pl",
                "contact:website": "http:\/\/sp6rumia.edu.pl",
                "ref:regon": "000736439",
                "operator": "Gmina Miejska Rumia",
                "operator:type": "government",
                "amenity": "school"
            }
        },
        {
            "id": 264838,
            "type": "Feature",
            "geometry": {
                "type": "Point",
                "coordinates": [
                    18.37761,
                    54.57614
                ]
            },
            "properties": {
                "ref:rspo": 264838,
                "official_name": "Niepubliczne Przedszkole \"Dobre Przedszkole\" w Rumi",
                "name": "Niepubliczne Przedszkole \"Dobre Przedszkole\" w Rumi",
                "addr:country": "PL",
                "addr:postcode": "84-230",
                "addr:city": "Rumia",
                "addr:street": "ul. Grunwaldzka",
                "addr:housenumber": "35",
                "addr:teryt:simc": 6260,
                "addr:teryt:sym_ul": 934694,
                "contact:email": "sekretariat@e-mc2.eu",
                "ref:regon": "368484694",
                "operator": "\"Atm Business Group\" Sp\u00f3\u0142ka Z Ograniczon\u0105 Odpowiedzialno\u015bci\u0105",
                "operator:type": "private",
                "amenity": "kindergarten"
            }
        },
        {
            "id": 120191,
            "type": "Feature",
            "geometry": {
                "type": "Point",
                "coordinates": [
                    18.4053,
                    54.57614
                ]
            },
            "properties": {
                "ref:rspo": 120191,
                "official_name": "Niepubliczne Przedszkole \"Bajkowa Kraina\"",
                "name": "Niepubliczne Przedszkole \"Bajkowa Kraina\"",
                "addr:country": "PL",
                "addr:postcode": "84-230",
                "addr:city": "Rumia",
                "addr:street": "ul. Kazimierza Wielkiego",
                "addr:housenumber": "3-5",
                "addr:teryt:simc": 8265,
                "addr:teryt:sym_ul": 934694,
                "contact:email": "moja.bajkowakraina@gmail.com",
                "contact:website": "http:\/\/moja-bajkowakraina.pl",
                "ref:regon": "221960565",
                "operator": "Beata Naskr\u0119t",
                "operator:type": "private",
                "amenity": "kindergarten"
            }
        },
        {
            "id": 30202,
            "type": "Feature",
            "geometry": {
                "type": "Point",
                "coordinates": [
                    18.37413,
                    54.57815
                ]
            },
            "properties": {
                "ref:rspo": 30202,
                "official_name": "Powiatowy Zesp\u00f3\u0142 Szk\u00f3\u0142 Nr 2 im. Hipolita Roszczynialskiego w Rumi",
                "name": "Powiatowy Zesp\u00f3\u0142 Szk\u00f3\u0142 Nr 2",
                "addr:country": "PL",
                "addr:postcode": "84-230",
                "addr:city": "Rumia",
                "addr:street": "ul. Grunwaldzka",
                "addr:housenumber": "57",
                "addr:teryt:simc": 6260,
                "addr:teryt:sym_ul": 934694,
                "contact:phone": "+48 586711336",
                "contact:email": "sekretariat@hipolit.info",
                "contact:website": "http:\/\/www.hipolit.info",
                "ref:regon": "192773612",
                "ref:vatin": "PL5882028189",
                "operator": "Powiat Wejherowski",
                "operator:type": "government",
                "landuse": "education",
                "fixme": "amenity=school, amenity=college albo landuse=education w zale\u017cno\u015bci od tego, jakie plac\u00f3wki wchodz\u0105 w sk\u0142ad zespo\u0142u. Sprawd\u017a, kiedy stosowa\u0107 amenity=* a kiedy landuse=education.",
                "note": "Children RSPO: 55521;55524;55525;275462"
            }
        },
        {
            "id": 55521,
            "type": "Feature",
            "geometry": {
                "type": "Point",
                "coordinates": [
                    18.37413,
                    54.57812
                ]
            },
            "properties": {
                "isced:level": "3",
                "ref:rspo": 55521,
                "official_name": "Technikum w Rumi",
                "name": "Technikum w Rumi",
                "addr:country": "PL",
                "addr:postcode": "84-230",
                "addr:city": "Rumia",
                "addr:street": "ul. Grunwaldzka",
                "addr:housenumber": "57",
                "addr:teryt:simc": 6260,
                "addr:teryt:sym_ul": 934694,
                "contact:phone": "+48 586711336",
                "contact:email": "sekretariat@hipolit.info",
                "contact:website": "http:\/\/www.hipolit.info",
                "ref:regon": "220436744",
                "operator": "Powiat Wejherowski",
                "operator:type": "government",
                "amenity": "school",
                "note": "Parent RSPO: 30202"
            }
        },
        {
            "id": 55524,
            "type": "Feature",
            "geometry": {
                "type": "Point",
                "coordinates": [
                    18.37413,
                    54.57809
                ]
            },
            "properties": {
                "isced:level": "4",
                "ref:rspo": 55524,
                "official_name": "Szko\u0142a Policealna Wielobran\u017cowa w Rumi",
                "name": "Szko\u0142a Policealna Wielobran\u017cowa w Rumi",
                "addr:country": "PL",
                "addr:postcode": "84-230",
                "addr:city": "Rumia",
                "addr:street": "ul. Grunwaldzka",
                "addr:housenumber": "57",
                "addr:teryt:simc": 6260,
                "addr:teryt:sym_ul": 934694,
                "contact:phone": "+48 586711336",
                "contact:email": "sekretariat@hipolit.info.pl",
                "contact:website": "http:\/\/www.hipolit.info",
                "ref:regon": "220098773",
                "operator": "Powiat Wejherowski",
                "operator:type": "government",
                "amenity": "college",
                "note": "Parent RSPO: 30202"
            }
        },
        {
            "id": 55525,
            "type": "Feature",
            "geometry": {
                "type": "Point",
                "coordinates": [
                    18.37413,
                    54.57806
                ]
            },
            "properties": {
                "isced:level": "3",
                "ref:rspo": 55525,
                "official_name": "Bran\u017cowa Szko\u0142a I Stopnia w Rumi",
                "name": "Bran\u017cowa Szko\u0142a I Stopnia w Rumi",
                "addr:country": "PL",
                "addr:postcode": "84-230",
                "addr:city": "Rumia",
                "addr:street": "ul. Grunwaldzka",
                "addr:housenumber": "57",
                "addr:teryt:simc": 6260,
                "addr:teryt:sym_ul": 934694,
                "contact:phone": "+48 586711336",
                "contact:email": "sekretariat@hipolit.info",
                "contact:website": "http:\/\/www.hipolit.info",
                "ref:regon": "000772435",
                "operator": "Powiat Wejherowski",
                "operator:type": "government",
                "amenity": "school",
                "note": "Parent RSPO: 30202"
            }
        },
        {
            "id": 275462,
            "type": "Feature",
            "geometry": {
                "type": "Point",
                "coordinates": [
                    18.37413,
                    54.57803
                ]
            },
            "properties": {
                "isced:level": "3",
                "ref:rspo": 275462,
                "official_name": "Bran\u017cowa Szko\u0142a II Stopnia w Rumi",
                "name": "Bran\u017cowa Szko\u0142a II Stopnia w Rumi",
                "addr:country": "PL",
                "addr:postcode": "84-230",
                "addr:city": "Rumia",
                "addr:street": "ul. Grunwaldzka",
                "addr:housenumber": "57",
                "addr:teryt:simc": 6260,
                "addr:teryt:sym_ul": 934694,
                "contact:phone": "+48 586711336",
                "contact:email": "sekretariat@hipolit.info",
                "contact:website": "http:\/\/www.hipolit.info\/",
                "ref:regon": "386932457",
                "operator": "Powiat Wejherowski",
                "operator:type": "government",
                "amenity": "school",
                "note": "Parent RSPO: 30202"
            }
        },
        {
            "id": 29200,
            "type": "Feature",
            "geometry": {
                "type": "Point",
                "coordinates": [
                    18.39229,
                    54.57832
                ]
            },
            "properties": {
                "ref:rspo": 29200,
                "official_name": "Niepubliczne Przedszkole Si\u00f3str Salezjanek im. \u015awi\u0119tej Rodziny",
                "name": "Niepubliczne Przedszkole Si\u00f3str Salezjanek",
                "addr:country": "PL",
                "addr:postcode": "84-230",
                "addr:city": "Rumia",
                "addr:street": "ul. Ceynowy",
                "addr:housenumber": "24",
                "addr:teryt:simc": 2646,
                "addr:teryt:sym_ul": 934694,
                "contact:phone": "+48 587712770",
                "contact:email": "rodzina@cmw.waw.pl",
                "contact:website": "http:\/\/nspssrumia.edupage.org",
                "ref:regon": "221759171",
                "operator": "Zgromadzenie C\u00f3rek Maryi Wspomo\u017cycielki (Siostry Salezjanki) Inspektoria Warszawska",
                "operator:type": "religious",
                "amenity": "kindergarten"
            }
        },
        {
            "id": 55510,
            "type": "Feature",
            "geometry": {
                "type": "Point",
                "coordinates": [
                    18.39229,
                    54.578289999999996
                ]
            },
            "properties": {
                "isced:level": "1;2",
                "ref:rspo": 55510,
                "official_name": "Publiczna Szko\u0142a Podstawowa Si\u00f3str Salezjanek im. \u015awi\u0119tej Rodziny",
                "name": "Publiczna Szko\u0142a Podstawowa Si\u00f3str Salezjanek",
                "addr:country": "PL",
                "addr:postcode": "84-230",
                "addr:city": "Rumia",
                "addr:street": "ul. Ceynowy",
                "addr:housenumber": "24",
                "addr:teryt:simc": 2646,
                "addr:teryt:sym_ul": 934694,
                "contact:phone": "+48 587712743",
                "contact:email": "sp_rodzina@op.pl",
                "contact:website": "http:\/\/salezjankirumia.pl",
                "ref:regon": "221767331",
                "ref:vatin": "PL5882176116",
                "operator": "Zgromadzenie C\u00f3rek Maryi Wspomo\u017cycielki (Siostry Salezjanki) Inspektoria Warszawska",
                "operator:type": "religious",
                "amenity": "school"
            }
        },
        {
            "id": 69859,
            "type": "Feature",
            "geometry": {
                "type": "Point",
                "coordinates": [
                    18.4014,
                    54.57953
                ]
            },
            "properties": {
                "isced:level": "1;2",
                "ref:rspo": 69859,
                "official_name": "Szko\u0142a Podstawowa Nr 1 im. J\u00f3zefa Wybickiego",
                "name": "Szko\u0142a Podstawowa Nr 1",
                "addr:country": "PL",
                "addr:postcode": "84-230",
                "addr:city": "Rumia",
                "addr:street": "ul. Ko\u015bcielna",
                "addr:housenumber": "6",
                "addr:teryt:simc": 9546,
                "addr:teryt:sym_ul": 934694,
                "contact:phone": "+48 586710848",
                "contact:email": "sp1@rumia.edu.pl",
                "contact:website": "http:\/\/rumia.edu.pl\/sp1",
                "ref:regon": "000736391",
                "operator": "Gmina Miejska Rumia",
                "operator:type": "government",
                "amenity": "school"
            }
        },
        {
            "id": 58205,
            "type": "Feature",
            "geometry": {
                "type": "Point",
                "coordinates": [
                    18.40159,
                    54.58034
                ]
            },
            "properties": {
                "ref:rspo": 58205,
                "official_name": "\u201eBajka\u201d Przedszkole Nr 2",
                "name": "\u201eBajka\u201d Przedszkole Nr 2",
                "addr:country": "PL",
                "addr:postcode": "84-230",
                "addr:city": "Rumia",
                "addr:street": "ul. Ko\u015bcielna",
                "addr:housenumber": "8",
                "addr:teryt:simc": 9546,
                "addr:teryt:sym_ul": 934694,
                "contact:phone": "+48 586710448",
                "contact:email": "bajka@bajkarumia.pl",
                "contact:website": "http:\/\/bajkarumia.pl",
                "ref:regon": "190589086",
                "operator": "Gmina Miejska Rumia",
                "operator:type": "government",
                "amenity": "kindergarten"
            }
        },
        {
            "id": 268778,
            "type": "Feature",
            "geometry": {
                "type": "Point",
                "coordinates": [
                    18.38787,
                    54.58182
                ]
            },
            "properties": {
                "ref:rspo": 268778,
                "official_name": "Niepubliczne Przedszkole Ptysiowe Przedszkole S.c. w Rumi",
                "name": "Niepubliczne Przedszkole Ptysiowe Przedszkole S.c. w Rumi",
                "addr:country": "PL",
                "addr:postcode": "84-230",
                "addr:city": "Rumia",
                "addr:street": "ul. Kosynier\u00f3w",
                "addr:housenumber": "108",
                "addr:door": "A17",
                "addr:teryt:simc": 9501,
                "addr:teryt:sym_ul": 934694,
                "contact:phone": "+48 608818384",
                "contact:email": "ptysioweprzedszkole@gmail.com",
                "ref:regon": "381250204",
                "operator": "Sylwia Stefa\u0144czyk",
                "operator:type": "private",
                "amenity": "kindergarten"
            }
        },
        {
            "id": 132378,
            "type": "Feature",
            "geometry": {
                "type": "Point",
                "coordinates": [
                    18.38622,
                    54.58208
                ]
            },
            "properties": {
                "ref:rspo": 132378,
                "official_name": "Niepubliczny Punkt Przedszkolny Akademia Mistrz\u00f3w Zabawy",
                "name": "Niepubliczny Punkt Przedszkolny Akademia Mistrz\u00f3w Zabawy",
                "addr:country": "PL",
                "addr:postcode": "84-230",
                "addr:city": "Rumia",
                "addr:street": "ul. \u017bwirki i Wigury",
                "addr:housenumber": "48",
                "addr:door": "3",
                "addr:teryt:simc": 26608,
                "addr:teryt:sym_ul": 934694,
                "contact:phone": "+48 663605106",
                "contact:email": "akademiarumia@gmail.com",
                "contact:website": "http:\/\/akademiamistrzow.wixsite.com\/akademiamistrzow",
                "ref:regon": "365572848",
                "operator": "Marta Dzikiewicz",
                "operator:type": "private",
                "amenity": "kindergarten"
            }
        },
        {
            "id": 278739,
            "type": "Feature",
            "geometry": {
                "type": "Point",
                "coordinates": [
                    18.38553,
                    54.58279
                ]
            },
            "properties": {
                "ref:rspo": 278739,
                "official_name": "Niepubliczny Punkt Przedszkolny \"Bzik\"",
                "name": "Niepubliczny Punkt Przedszkolny \"Bzik\"",
                "addr:country": "PL",
                "addr:postcode": "84-230",
                "addr:city": "Rumia",
                "addr:street": "ul. Kosynier\u00f3w",
                "addr:housenumber": "66",
                "addr:teryt:simc": 9501,
                "addr:teryt:sym_ul": 934694,
                "contact:email": "wiktoria.kobryn@gmail.com",
                "ref:regon": "520054571",
                "operator": "Wiktoria Kobry\u0144",
                "operator:type": "private",
                "amenity": "kindergarten"
            }
        },
        {
            "id": 120116,
            "type": "Feature",
            "geometry": {
                "type": "Point",
                "coordinates": [
                    18.37681,
                    54.58475
                ]
            },
            "properties": {
                "ref:rspo": 120116,
                "official_name": "Integracyjny Punkt Przedszkolny \"Tuptusie\" w Rumi",
                "name": "Integracyjny Punkt Przedszkolny \"Tuptusie\" w Rumi",
                "addr:country": "PL",
                "addr:postcode": "84-230",
                "addr:city": "Rumia",
                "addr:street": "ul. Kosynier\u00f3w",
                "addr:housenumber": "79 o",
                "addr:door": "215 i 216",
                "addr:teryt:simc": 9501,
                "addr:teryt:sym_ul": 934694,
                "contact:email": "aleksandraszabowska@tuptusie.pl",
                "contact:website": "http:\/\/tuptusie.pl",
                "ref:regon": "221958999",
                "operator": "Aleksandra Szabowska",
                "operator:type": "private",
                "amenity": "kindergarten"
            }
        },
        {
            "id": 55533,
            "type": "Feature",
            "geometry": {
                "type": "Point",
                "coordinates": [
                    18.40947,
                    54.58635
                ]
            },
            "properties": {
                "ref:rspo": 55533,
                "official_name": "Studium Szkolenia Specjalistycznego \"Teoria\"",
                "name": "Studium Szkolenia Specjalistycznego \"Teoria\"",
                "addr:country": "PL",
                "addr:postcode": "84-230",
                "addr:city": "Rumia",
                "addr:street": "ul. Kazimierska",
                "addr:housenumber": "32",
                "addr:teryt:simc": 8247,
                "addr:teryt:sym_ul": 934694,
                "contact:phone": "+48 603849746",
                "contact:email": "wlodzimierz.michalski@wp.pl",
                "ref:regon": "221766202",
                "operator": "W\u0142odzimierz Michalski",
                "operator:type": "private",
                "fixme": "w zale\u017cno\u015bci od przedmiotu dzia\u0142alno\u015bci (np. amenity=training + training=*, amenity=dancing_school, amenity=language_school, amenity=music_school)"
            }
        },
        {
            "id": 23566,
            "type": "Feature",
            "geometry": {
                "type": "Point",
                "coordinates": [
                    18.40062,
                    54.58662
                ]
            },
            "properties": {
                "ref:rspo": 23566,
                "official_name": "Niepubliczne Przedszkole \"Maluszkowo\"",
                "name": "Niepubliczne Przedszkole \"Maluszkowo\"",
                "addr:country": "PL",
                "addr:postcode": "84-230",
                "addr:city": "Rumia",
                "addr:street": "ul. \u017bo\u0142nierzy I Dywizji Wojska Polskiego",
                "addr:housenumber": "39A",
                "addr:teryt:simc": 53335,
                "addr:teryt:sym_ul": 934694,
                "contact:phone": "+48 501335946",
                "contact:email": "sekretariat@maluszkowo.eu",
                "contact:website": "http:\/\/maluszkowo.eu",
                "ref:regon": "221753257",
                "operator": "Magdalena Wietek",
                "operator:type": "private",
                "amenity": "kindergarten"
            }
        },
        {
            "id": 276700,
            "type": "Feature",
            "geometry": {
                "type": "Point",
                "coordinates": [
                    18.40815,
                    54.58784
                ]
            },
            "properties": {
                "ref:rspo": 276700,
                "official_name": "Niepubliczne Chrze\u015bcija\u0144skie Przedszkole Montessori \"Ptasie Radio\"",
                "name": "Niepubliczne Chrze\u015bcija\u0144skie Przedszkole Montessori \"Ptasie Radio\"",
                "addr:country": "PL",
                "addr:postcode": "84-230",
                "addr:city": "Rumia",
                "addr:street": "ul. \u015awi\u0119tope\u0142ka",
                "addr:housenumber": "92",
                "addr:teryt:simc": 22555,
                "addr:teryt:sym_ul": 934694,
                "contact:email": "k-lata@wp.pl",
                "ref:regon": "387373681",
                "operator": "Tadeusz \u0141ata",
                "operator:type": "private",
                "amenity": "kindergarten"
            }
        }
    ]
}