{
    "type": "FeatureCollection",
    "features": [
        {
            "id": 72060,
            "type": "Feature",
            "geometry": {
                "type": "Point",
                "coordinates": [
                    14.89988,
                    53.07305
                ]
            },
            "properties": {
                "isced:level": "1;2",
                "ref:rspo": 72060,
                "official_name": "Szko\u0142a Podstawowa im. W\u0142adys\u0142awa Broniewskiego w Miel\u0119cinie",
                "name": "Szko\u0142a Podstawowa",
                "addr:country": "PL",
                "addr:postcode": "74-230",
                "addr:city": "Miel\u0119cin",
                "addr:street": "G\u0142\u00f3wna",
                "addr:housenumber": "72",
                "addr:teryt:simc": 781925,
                "addr:teryt:sym_ul": 5635,
                "contact:phone": "+48 915630490",
                "contact:email": "szkola_mielecin@op.pl",
                "contact:website": "http:\/\/spmielecin.edupage.org",
                "ref:regon": "001222317",
                "ref:vatin": "PL8531113184",
                "operator": "Gmina Pyrzyce",
                "operator:type": "government",
                "amenity": "school"
            }
        },
        {
            "id": 82767,
            "type": "Feature",
            "geometry": {
                "type": "Point",
                "coordinates": [
                    14.89988,
                    53.07302
                ]
            },
            "properties": {
                "ref:rspo": 82767,
                "official_name": "Szko\u0142a Podstawowa w Miel\u0119cinie - Punkt Przedszkolny",
                "name": "Szko\u0142a Podstawowa w Miel\u0119cinie - Punkt Przedszkolny",
                "addr:country": "PL",
                "addr:postcode": "74-230",
                "addr:city": "Miel\u0119cin",
                "addr:street": "G\u0142\u00f3wna",
                "addr:housenumber": "72",
                "addr:teryt:simc": 781925,
                "addr:teryt:sym_ul": 5635,
                "contact:phone": "+48 915630490",
                "contact:email": "szkola_mielecin@op.pl",
                "contact:website": "http:\/\/www.spmielecin.edupage.org",
                "ref:regon": "321298643",
                "ref:vatin": "PL8531113184",
                "operator": "Gmina Pyrzyce",
                "operator:type": "government",
                "amenity": "kindergarten"
            }
        },
        {
            "id": 26542,
            "type": "Feature",
            "geometry": {
                "type": "Point",
                "coordinates": [
                    14.87625,
                    53.10551
                ]
            },
            "properties": {
                "ref:rspo": 26542,
                "official_name": "Polskie Stowarzyszenie Na Rzecz Os\u00f3b Z Upo\u015bledzniem Umys\u0142owym Ko\u0142o w Pyrzycach -O\u015brodek Rahabilitacyjno-Edukacyjno-Wychowawczy w Nowielinie",
                "name": "Polskie Stowarzyszenie Na Rzecz Os\u00f3b Z Upo\u015bledzniem Umys\u0142owym Ko\u0142o w Pyrzycach -O\u015brodek Rahabilitacyjno-Edukacyjno-Wychowawczy w Nowielinie",
                "addr:country": "PL",
                "addr:postcode": "74-230",
                "addr:place": "Nowielin",
                "addr:housenumber": "40",
                "addr:teryt:simc": 781954,
                "contact:phone": "+48 915700643",
                "contact:email": "orew.nowielin@wp.pl",
                "contact:website": "http:\/\/www.psoni-pyrzyce.pl",
                "ref:regon": "321284204",
                "operator": "Dane Do Uzupe\u0142nienia",
                "operator:type": "private",
                "amenity": "school"
            }
        },
        {
            "id": 72064,
            "type": "Feature",
            "geometry": {
                "type": "Point",
                "coordinates": [
                    14.87625,
                    53.10548
                ]
            },
            "properties": {
                "ref:rspo": 72064,
                "official_name": "Niepubliczne Przedszkole Specjalne \"Puchatek\" w Nowielinie",
                "name": "Niepubliczne Przedszkole Specjalne \"Puchatek\" w Nowielinie",
                "addr:country": "PL",
                "addr:postcode": "74-230",
                "addr:place": "Nowielin",
                "addr:housenumber": "40",
                "addr:teryt:simc": 781954,
                "contact:phone": "+48 918874131",
                "contact:email": "befico@post.pl",
                "ref:regon": "321293580",
                "operator": "Polskie Stowarzyszenie Na Rzecz Os\u00f3b Z Niepe\u0142nosprawno\u015bci\u0105 Intelektualn\u0105 Ko\u0142o W Pyrzycach",
                "operator:type": "ngo",
                "amenity": "kindergarten"
            }
        },
        {
            "id": 269470,
            "type": "Feature",
            "geometry": {
                "type": "Point",
                "coordinates": [
                    14.87625,
                    53.105450000000005
                ]
            },
            "properties": {
                "ref:rspo": 269470,
                "official_name": "Niepubliczna Szko\u0142a Przysposabiaj\u0105ca Do Pracy w Nowielinie",
                "name": "Niepubliczna Szko\u0142a Przysposabiaj\u0105ca Do Pracy w Nowielinie",
                "addr:country": "PL",
                "addr:postcode": "74-320",
                "addr:place": "Nowielin",
                "addr:housenumber": "40",
                "addr:teryt:simc": 781954,
                "contact:phone": "+48 915700643",
                "contact:email": "nspp.nowielin@wp.pl",
                "contact:website": "http:\/\/www.psoni-pyrzyce.pl",
                "ref:regon": "381502321",
                "operator": "Polskie Stowarzyszenie Na Rzecz Os\u00f3b Z Niepe\u0142nosprawno\u015bci\u0105 Intelektualn\u0105 Ko\u0142o W Pyrzycach",
                "operator:type": "ngo",
                "amenity": "school"
            }
        },
        {
            "id": 72051,
            "type": "Feature",
            "geometry": {
                "type": "Point",
                "coordinates": [
                    15.00926,
                    53.12457
                ]
            },
            "properties": {
                "isced:level": "1;2",
                "ref:rspo": 72051,
                "official_name": "Szko\u0142a Podstawowa w Brzesku",
                "name": "Szko\u0142a Podstawowa w Brzesku",
                "addr:country": "PL",
                "addr:postcode": "74-211",
                "addr:place": "Brzesko",
                "addr:housenumber": "125",
                "addr:teryt:simc": 781813,
                "contact:phone": "+48 915630025",
                "contact:email": "sp_brzesko@interia.pl",
                "contact:website": "http:\/\/spbrzesko.edupage.org",
                "ref:regon": "810490247",
                "ref:vatin": "PL8531113215",
                "operator": "Gmina Pyrzyce",
                "operator:type": "government",
                "amenity": "school"
            }
        },
        {
            "id": 119806,
            "type": "Feature",
            "geometry": {
                "type": "Point",
                "coordinates": [
                    15.00926,
                    53.124539999999996
                ]
            },
            "properties": {
                "ref:rspo": 119806,
                "official_name": "Szko\u0142a Podstawowa w Brzesku - Punkt Przedszkolny",
                "name": "Szko\u0142a Podstawowa w Brzesku - Punkt Przedszkolny",
                "addr:country": "PL",
                "addr:postcode": "74-211",
                "addr:place": "Brzesko",
                "addr:housenumber": "125",
                "addr:teryt:simc": 781813,
                "contact:phone": "+48 915630025",
                "contact:email": "sp_brzesko@interia.pl",
                "ref:regon": "321424332",
                "operator": "Gmina Pyrzyce",
                "operator:type": "government",
                "amenity": "kindergarten"
            }
        },
        {
            "id": 20929,
            "type": "Feature",
            "geometry": {
                "type": "Point",
                "coordinates": [
                    14.88713,
                    53.12981
                ]
            },
            "properties": {
                "ref:rspo": 20929,
                "official_name": "Zesp\u00f3\u0142 Szk\u00f3\u0142 Nr 2 Centrum Kszta\u0142cenia Ustawicznego",
                "name": "Zesp\u00f3\u0142 Szk\u00f3\u0142 Nr 2 Centrum Kszta\u0142cenia Ustawicznego",
                "addr:country": "PL",
                "addr:postcode": "74-200",
                "addr:city": "Pyrzyce",
                "addr:street": "M\u0142odych Technik\u00f3w",
                "addr:housenumber": "5",
                "addr:teryt:simc": 979515,
                "addr:teryt:sym_ul": 13090,
                "contact:phone": "+48 915701006",
                "contact:email": "sekretariat@zscku.pl",
                "contact:website": "http:\/\/www.zscku.pl",
                "ref:regon": "000097838",
                "operator": "Powiat Pyrzycki",
                "operator:type": "government",
                "landuse": "education",
                "fixme": "amenity=school, amenity=college albo landuse=education w zale\u017cno\u015bci od tego, jakie plac\u00f3wki wchodz\u0105 w sk\u0142ad zespo\u0142u. Sprawd\u017a, kiedy stosowa\u0107 amenity=* a kiedy landuse=education.",
                "note": "Children RSPO: 110181;110195;110203;121782;277052"
            }
        },
        {
            "id": 110181,
            "type": "Feature",
            "geometry": {
                "type": "Point",
                "coordinates": [
                    14.88713,
                    53.12978
                ]
            },
            "properties": {
                "isced:level": "3",
                "ref:rspo": 110181,
                "official_name": "Technikum Zawodowe w Zespole Szk\u00f3\u0142 Nr 2 Cku im. Tadeusza Ko\u015bciuszki Przy Ul. M\u0142odych Technik\u00f3w 5 w Pyrzycach",
                "name": "Technikum Zawodowe w Zespole Szk\u00f3\u0142 Nr 2 Cku",
                "addr:country": "PL",
                "addr:postcode": "74-200",
                "addr:city": "Pyrzyce",
                "addr:street": "M\u0142odych Technik\u00f3w",
                "addr:housenumber": "5",
                "addr:teryt:simc": 979515,
                "addr:teryt:sym_ul": 13090,
                "contact:phone": "+48 915701012",
                "contact:email": "sekretariat@zscku.pl",
                "ref:regon": "812635135",
                "operator": "Powiat Pyrzycki",
                "operator:type": "government",
                "amenity": "school",
                "note": "Parent RSPO: 20929"
            }
        },
        {
            "id": 110195,
            "type": "Feature",
            "geometry": {
                "type": "Point",
                "coordinates": [
                    14.88713,
                    53.12975
                ]
            },
            "properties": {
                "isced:level": "3",
                "ref:rspo": 110195,
                "official_name": "Bran\u017cowa Szko\u0142a I Stopnia w Zespole Szk\u00f3\u0142 Nr 2 Cku im. Tadeusza Ko\u015bciuski Przy Ul. M\u0142odych Technik\u00f3w 5 w Pyrzycach",
                "name": "Bran\u017cowa Szko\u0142a I Stopnia w Zespole Szk\u00f3\u0142 Nr 2 Cku",
                "addr:country": "PL",
                "addr:postcode": "74-200",
                "addr:city": "Pyrzyce",
                "addr:street": "M\u0142odych Technik\u00f3w",
                "addr:housenumber": "5",
                "addr:teryt:simc": 979515,
                "addr:teryt:sym_ul": 13090,
                "contact:phone": "+48 915701012",
                "contact:email": "sekretariat@zscku.pl",
                "contact:website": "http:\/\/www.zscku.pl",
                "ref:regon": "812635052",
                "operator": "Powiat Pyrzycki",
                "operator:type": "government",
                "amenity": "school",
                "note": "Parent RSPO: 20929"
            }
        },
        {
            "id": 110203,
            "type": "Feature",
            "geometry": {
                "type": "Point",
                "coordinates": [
                    14.88713,
                    53.12972
                ]
            },
            "properties": {
                "isced:level": "4",
                "ref:rspo": 110203,
                "official_name": "Szko\u0142a Policealna dla Doros\u0142ych w Zespole Szk\u00f3\u0142nr2 Cku im. Tadeusza Ko\u015bciuszki Przy Ul. M\u0142odych Technik\u00f3w 5 w Pyrzycach",
                "name": "Szko\u0142a Policealna dla Doros\u0142ych w Zespole Szk\u00f3\u0142nr2 Cku",
                "addr:country": "PL",
                "addr:postcode": "74-200",
                "addr:city": "Pyrzyce",
                "addr:street": "M\u0142odych Technik\u00f3w",
                "addr:housenumber": "5",
                "addr:teryt:simc": 979515,
                "addr:teryt:sym_ul": 13090,
                "contact:phone": "+48 915701012",
                "ref:regon": "320083337",
                "operator": "Powiat Pyrzycki",
                "operator:type": "government",
                "amenity": "college",
                "note": "Parent RSPO: 20929"
            }
        },
        {
            "id": 121782,
            "type": "Feature",
            "geometry": {
                "type": "Point",
                "coordinates": [
                    14.88713,
                    53.12969
                ]
            },
            "properties": {
                "isced:level": "3",
                "ref:rspo": 121782,
                "official_name": "Liceum Og\u00f3lnokszta\u0142c\u0105cde dla Doros\u0142ych - Zsnr2 Cku",
                "name": "Liceum Og\u00f3lnokszta\u0142c\u0105cde dla Doros\u0142ych - Zsnr2 Cku",
                "addr:country": "PL",
                "addr:postcode": "74-200",
                "addr:city": "Pyrzyce",
                "addr:street": "M\u0142odych Technik\u00f3w",
                "addr:housenumber": "5",
                "addr:teryt:simc": 979515,
                "addr:teryt:sym_ul": 13090,
                "contact:phone": "+48 915701012",
                "ref:regon": "321246735",
                "operator": "Powiat Pyrzycki",
                "operator:type": "government",
                "amenity": "school",
                "note": "Parent RSPO: 20929"
            }
        },
        {
            "id": 277052,
            "type": "Feature",
            "geometry": {
                "type": "Point",
                "coordinates": [
                    14.88713,
                    53.12966
                ]
            },
            "properties": {
                "isced:level": "3",
                "ref:rspo": 277052,
                "official_name": "Bran\u017cowa Szko\u0142a II Stopnia w Zespole Szk\u00f3\u0142 Nr 2 Centrum Kszta\u0142cenia Ustawicznego w Pyrzycach",
                "name": "Bran\u017cowa Szko\u0142a II Stopnia w Zespole Szk\u00f3\u0142 Nr 2 Centrum Kszta\u0142cenia Ustawicznego w Pyrzycach",
                "addr:country": "PL",
                "addr:postcode": "74-200",
                "addr:city": "Pyrzyce",
                "addr:street": "M\u0142odych Technik\u00f3w",
                "addr:housenumber": "5",
                "addr:teryt:simc": 979515,
                "addr:teryt:sym_ul": 13090,
                "contact:phone": "+48 915711012",
                "contact:email": "sekretariat@zscku.pl",
                "contact:website": "http:\/\/www.zscku.pl",
                "ref:regon": "388094300",
                "operator": "Powiat Pyrzycki",
                "operator:type": "government",
                "amenity": "school",
                "note": "Parent RSPO: 20929"
            }
        },
        {
            "id": 21005,
            "type": "Feature",
            "geometry": {
                "type": "Point",
                "coordinates": [
                    14.88827,
                    53.13734
                ]
            },
            "properties": {
                "ref:rspo": 21005,
                "official_name": "Specjalny O\u015brodek Szkolno-Wychowawczy w Pyrzycach",
                "name": "Specjalny O\u015brodek Szkolno-Wychowawczy w Pyrzycach",
                "addr:country": "PL",
                "addr:postcode": "74-200",
                "addr:city": "Pyrzyce",
                "addr:street": "Juliusza S\u0142owackiego",
                "addr:housenumber": "1",
                "addr:teryt:simc": 979515,
                "addr:teryt:sym_ul": 20291,
                "contact:phone": "+48 915701290",
                "contact:email": "sekretariatsosw@wp.pl",
                "contact:website": "https:\/\/soswpyrzyce.edupage.org\/",
                "ref:regon": "005442820",
                "operator": "Powiat Pyrzycki",
                "operator:type": "government",
                "amenity": "school",
                "note": "Children RSPO: 110146;110148;110149"
            }
        },
        {
            "id": 110146,
            "type": "Feature",
            "geometry": {
                "type": "Point",
                "coordinates": [
                    14.88827,
                    53.13731
                ]
            },
            "properties": {
                "isced:level": "1;2",
                "ref:rspo": 110146,
                "official_name": "Szko\u0142a Podstawowa Specjalna w Sosw im. Jana Brzechwy Przy Ul. S\u0142owackiego 1 w Pyrzycach",
                "name": "Szko\u0142a Podstawowa Specjalna w Sosw",
                "addr:country": "PL",
                "addr:postcode": "74-200",
                "addr:city": "Pyrzyce",
                "addr:street": "Juliusza S\u0142owackiego",
                "addr:housenumber": "1",
                "addr:teryt:simc": 979515,
                "addr:teryt:sym_ul": 20291,
                "contact:phone": "+48 915701290",
                "contact:email": "sekretariatsosw@wp.pl",
                "contact:website": "http:\/\/soswpyrzyce.edupage.org",
                "ref:regon": "005442837",
                "operator": "Powiat Pyrzycki",
                "operator:type": "government",
                "amenity": "school",
                "note": "Parent RSPO: 21005"
            }
        },
        {
            "id": 110148,
            "type": "Feature",
            "geometry": {
                "type": "Point",
                "coordinates": [
                    14.88827,
                    53.137280000000004
                ]
            },
            "properties": {
                "isced:level": "3",
                "ref:rspo": 110148,
                "official_name": "Bran\u017cowa Szko\u0142a I Stopnia",
                "name": "Bran\u017cowa Szko\u0142a I Stopnia",
                "addr:country": "PL",
                "addr:postcode": "74-200",
                "addr:city": "Pyrzyce",
                "addr:street": "Juliusza S\u0142owackiego",
                "addr:housenumber": "1",
                "addr:teryt:simc": 979515,
                "addr:teryt:sym_ul": 20291,
                "contact:phone": "+48 915701290",
                "contact:email": "sekretariatsosw@wp.pl",
                "contact:website": "http:\/\/soswpyrzyce.edupage.org",
                "ref:regon": "812712031",
                "operator": "Powiat Pyrzycki",
                "operator:type": "government",
                "amenity": "school",
                "note": "Parent RSPO: 21005"
            }
        },
        {
            "id": 110149,
            "type": "Feature",
            "geometry": {
                "type": "Point",
                "coordinates": [
                    14.88827,
                    53.13725
                ]
            },
            "properties": {
                "ref:rspo": 110149,
                "official_name": "Szko\u0142a Przysposabiaj\u0105ca Do Pracy w Specjalnym O\u015brodku Szkolno-Wychowawczym im. Jana Brzechwy Przy Ul. S\u0142owackiego 1 w Pyrzycach",
                "name": "Szko\u0142a Przysposabiaj\u0105ca Do Pracy w Specjalnym O\u015brodku Szkolno-Wychowawczym",
                "addr:country": "PL",
                "addr:postcode": "74-200",
                "addr:city": "Pyrzyce",
                "addr:street": "Juliusza S\u0142owackiego",
                "addr:housenumber": "1",
                "addr:teryt:simc": 979515,
                "addr:teryt:sym_ul": 20291,
                "contact:phone": "+48 915701290",
                "contact:email": "sekretariatsosw@wp.pl",
                "contact:website": "http:\/\/soswpyrzyce.edupage.org",
                "ref:regon": "320408680",
                "operator": "Powiat Pyrzycki",
                "operator:type": "government",
                "amenity": "school",
                "note": "Parent RSPO: 21005"
            }
        },
        {
            "id": 21023,
            "type": "Feature",
            "geometry": {
                "type": "Point",
                "coordinates": [
                    14.89258,
                    53.13801
                ]
            },
            "properties": {
                "ref:rspo": 21023,
                "official_name": "Poradnia Psychologiczno-Pedagogiczna",
                "name": "Poradnia Psychologiczno-Pedagogiczna",
                "addr:country": "PL",
                "addr:postcode": "74-200",
                "addr:city": "Pyrzyce",
                "addr:street": "Lipia\u0144ska",
                "addr:housenumber": "4",
                "addr:teryt:simc": 979515,
                "addr:teryt:sym_ul": 11112,
                "contact:phone": "+48 915700744",
                "contact:email": "sekretariat@poradniapyrzyce.pl",
                "ref:regon": "000703240",
                "operator": "Powiat Pyrzycki",
                "operator:type": "government",
                "healthcare": "counselling",
                "counselling_type": "education",
                "fixme": "w zale\u017cno\u015bci od przedmiotu dzia\u0142alno\u015bci (np. healthcare=counselling + counselling_type=education albo healthcare=psychotherapist)"
            }
        },
        {
            "id": 21069,
            "type": "Feature",
            "geometry": {
                "type": "Point",
                "coordinates": [
                    14.89258,
                    53.13798
                ]
            },
            "properties": {
                "ref:rspo": 21069,
                "official_name": "Powiatowy Mi\u0119dzyszkolny O\u015brodek Sportowy",
                "name": "Powiatowy Mi\u0119dzyszkolny O\u015brodek Sportowy",
                "addr:country": "PL",
                "addr:postcode": "74-200",
                "addr:city": "Pyrzyce",
                "addr:street": "Lipia\u0144ska",
                "addr:housenumber": "4",
                "addr:teryt:simc": 979515,
                "addr:teryt:sym_ul": 11112,
                "contact:phone": "+48 918811367",
                "contact:email": "pmospyrzyce@interia.pl",
                "contact:website": "http:\/\/www.pmos.pl",
                "ref:regon": "812084416",
                "operator": "Powiat Pyrzycki",
                "operator:type": "government",
                "leisure": "sports_centre"
            }
        },
        {
            "id": 20855,
            "type": "Feature",
            "geometry": {
                "type": "Point",
                "coordinates": [
                    14.89201,
                    53.13848
                ]
            },
            "properties": {
                "ref:rspo": 20855,
                "official_name": "Zesp\u00f3\u0142 Szk\u00f3\u0142 Nr 1",
                "name": "Zesp\u00f3\u0142 Szk\u00f3\u0142 Nr 1",
                "addr:country": "PL",
                "addr:postcode": "74-200",
                "addr:city": "Pyrzyce",
                "addr:street": "Lipia\u0144ska",
                "addr:housenumber": "2",
                "addr:teryt:simc": 979515,
                "addr:teryt:sym_ul": 11112,
                "contact:phone": "+48 915701321",
                "contact:email": "zspyrzyce@wp.pl",
                "contact:website": "http:\/\/www.lopyrzyce.pl",
                "ref:regon": "000703291",
                "operator": "Powiat Pyrzycki",
                "operator:type": "government",
                "landuse": "education",
                "fixme": "amenity=school, amenity=college albo landuse=education w zale\u017cno\u015bci od tego, jakie plac\u00f3wki wchodz\u0105 w sk\u0142ad zespo\u0142u. Sprawd\u017a, kiedy stosowa\u0107 amenity=* a kiedy landuse=education.",
                "note": "Children RSPO: 110206;121779"
            }
        },
        {
            "id": 263453,
            "type": "Feature",
            "geometry": {
                "type": "Point",
                "coordinates": [
                    14.89201,
                    53.13845
                ]
            },
            "properties": {
                "isced:level": "1;2",
                "ref:rspo": 263453,
                "official_name": "Niepubliczna Szko\u0142a Podstawowa w Pyrzycach Pyrzyckiego Stowarzyszenia O\u015bwiatowego",
                "name": "Niepubliczna Szko\u0142a Podstawowa w Pyrzycach Pyrzyckiego Stowarzyszenia O\u015bwiatowego",
                "addr:country": "PL",
                "addr:postcode": "74-200",
                "addr:city": "Pyrzyce",
                "addr:street": "Lipia\u0144ska",
                "addr:housenumber": "2",
                "addr:teryt:simc": 979515,
                "addr:teryt:sym_ul": 11112,
                "contact:phone": "+48 913070946",
                "contact:email": "psowpyrzycach@interia.pl",
                "contact:website": "http:\/\/psowpyrzycach.pl",
                "ref:regon": "368188814",
                "operator": "Pyrzyckie Stowarzyszenie O\u015bwiatowe",
                "operator:type": "ngo",
                "amenity": "school"
            }
        },
        {
            "id": 110206,
            "type": "Feature",
            "geometry": {
                "type": "Point",
                "coordinates": [
                    14.89201,
                    53.13842
                ]
            },
            "properties": {
                "isced:level": "3",
                "ref:rspo": 110206,
                "official_name": "Liceum Og\u00f3lnokszta\u0142\u0105ce w Zespole Szk\u00f3\u0142 Nr 1 im. Noblist\u00f3w Polskich Przy Ul. Lipia\u0144skiej 2 w Pyrzycach",
                "name": "Liceum Og\u00f3lnokszta\u0142\u0105ce w Zespole Szk\u00f3\u0142 Nr 1",
                "addr:country": "PL",
                "addr:postcode": "74-200",
                "addr:city": "Pyrzyce",
                "addr:street": "Lipia\u0144ska",
                "addr:housenumber": "2",
                "addr:teryt:simc": 979515,
                "addr:teryt:sym_ul": 11112,
                "contact:phone": "+48 915701321",
                "contact:email": "zspyrzyce@wp.pl",
                "contact:website": "http:\/\/www.lopyrzyce.pl",
                "ref:regon": "812625384",
                "operator": "Powiat Pyrzycki",
                "operator:type": "government",
                "amenity": "school",
                "note": "Parent RSPO: 20855"
            }
        },
        {
            "id": 121779,
            "type": "Feature",
            "geometry": {
                "type": "Point",
                "coordinates": [
                    14.89201,
                    53.13839
                ]
            },
            "properties": {
                "isced:level": "3",
                "ref:rspo": 121779,
                "official_name": "Liceum Og\u00f3lnokszta\u0142c\u0105ce dla Doros\u0142ych",
                "name": "Liceum Og\u00f3lnokszta\u0142c\u0105ce dla Doros\u0142ych",
                "addr:country": "PL",
                "addr:postcode": "74-200",
                "addr:city": "Pyrzyce",
                "addr:street": "Lipia\u0144ska",
                "addr:housenumber": "2",
                "addr:teryt:simc": 979515,
                "addr:teryt:sym_ul": 11112,
                "contact:phone": "+48 915701321",
                "ref:regon": "320892670",
                "operator": "Powiat Pyrzycki",
                "operator:type": "government",
                "amenity": "school",
                "note": "Parent RSPO: 20855"
            }
        },
        {
            "id": 72058,
            "type": "Feature",
            "geometry": {
                "type": "Point",
                "coordinates": [
                    14.88889,
                    53.14108
                ]
            },
            "properties": {
                "ref:rspo": 72058,
                "official_name": "Przedszkole Publiczne Nr 4 w Pyrzycach",
                "name": "Przedszkole Publiczne Nr 4 w Pyrzycach",
                "addr:country": "PL",
                "addr:postcode": "74-200",
                "addr:city": "Pyrzyce",
                "addr:street": "Zabytkowa",
                "addr:housenumber": "50",
                "addr:teryt:simc": 979515,
                "addr:teryt:sym_ul": 25294,
                "contact:phone": "+48 915701886",
                "contact:email": "pyrzycep4@wp.pl",
                "ref:regon": "320896626",
                "ref:vatin": "PL8531509953",
                "operator": "Gmina Pyrzyce",
                "operator:type": "government",
                "amenity": "kindergarten"
            }
        },
        {
            "id": 128363,
            "type": "Feature",
            "geometry": {
                "type": "Point",
                "coordinates": [
                    14.89731,
                    53.14361
                ]
            },
            "properties": {
                "ref:rspo": 128363,
                "official_name": "Przedszkole Niepubliczne \"B\u0105bel\" w Pyrzycach",
                "name": "Przedszkole Niepubliczne \"B\u0105bel\" w Pyrzycach",
                "addr:country": "PL",
                "addr:postcode": "74-200",
                "addr:city": "Pyrzyce",
                "addr:street": "Owocowa",
                "addr:housenumber": "10",
                "addr:teryt:simc": 979515,
                "addr:teryt:sym_ul": 15479,
                "contact:phone": "+48 721634881",
                "contact:email": "erutek@o2.pl",
                "ref:regon": "362255142",
                "operator": "Marta Lewandowska-Tryka",
                "operator:type": "private",
                "amenity": "kindergarten"
            }
        },
        {
            "id": 72054,
            "type": "Feature",
            "geometry": {
                "type": "Point",
                "coordinates": [
                    14.89781,
                    53.14482
                ]
            },
            "properties": {
                "isced:level": "1;2",
                "ref:rspo": 72054,
                "official_name": "Szko\u0142a Podstawowa Z Oddzia\u0142ami Integracyjnymi im. Leonida Teligi w Pyrzycach",
                "name": "Szko\u0142a Podstawowa Z Oddzia\u0142ami Integracyjnymi",
                "addr:country": "PL",
                "addr:postcode": "74-200",
                "addr:city": "Pyrzyce",
                "addr:street": "Pozna\u0144ska",
                "addr:housenumber": "2",
                "addr:teryt:simc": 979515,
                "addr:teryt:sym_ul": 17394,
                "contact:phone": "+48 915701130",
                "contact:email": "sp2pyrzyce@poczta.onet.pl",
                "ref:regon": "810490201",
                "ref:vatin": "PL8531113221",
                "operator": "Gmina Pyrzyce",
                "operator:type": "government",
                "amenity": "school"
            }
        },
        {
            "id": 129476,
            "type": "Feature",
            "geometry": {
                "type": "Point",
                "coordinates": [
                    14.89551,
                    53.1458299
                ]
            },
            "properties": {
                "ref:rspo": 129476,
                "official_name": "Niepubliczne Przedszkole Akademia Malucha Z Oddzia\u0142ami Og\u00f3lnodost\u0119pnymi I Specjalnymi w Pyrzycach",
                "name": "Niepubliczne Przedszkole Akademia Malucha Z Oddzia\u0142ami Og\u00f3lnodost\u0119pnymi I Specjalnymi w Pyrzycach",
                "addr:country": "PL",
                "addr:postcode": "74-200",
                "addr:city": "Pyrzyce",
                "addr:street": "Pozna\u0144ska",
                "addr:housenumber": "3",
                "addr:teryt:simc": 979515,
                "addr:teryt:sym_ul": 17394,
                "contact:email": "kurowska2@wp.pl",
                "contact:website": "http:\/\/marzenia.promocjone.com",
                "ref:regon": "362623752",
                "operator": "Fundacja O\u015bwiatowa \"Realizujmy Marzenia\"",
                "operator:type": "ngo",
                "amenity": "kindergarten"
            }
        },
        {
            "id": 129477,
            "type": "Feature",
            "geometry": {
                "type": "Point",
                "coordinates": [
                    14.89551,
                    53.1457999
                ]
            },
            "properties": {
                "isced:level": "1;2",
                "ref:rspo": 129477,
                "official_name": "Niepubliczna Szko\u0142a Podstawowa Nr 1 w Pyrzycach",
                "name": "Niepubliczna Szko\u0142a Podstawowa Nr 1 w Pyrzycach",
                "addr:country": "PL",
                "addr:postcode": "74-200",
                "addr:city": "Pyrzyce",
                "addr:street": "Pozna\u0144ska",
                "addr:housenumber": "3",
                "addr:teryt:simc": 979515,
                "addr:teryt:sym_ul": 17394,
                "contact:email": "kurowska2@wp.pl",
                "contact:website": "http:\/\/marzenia.promocjone.com",
                "ref:regon": "362624935",
                "ref:vatin": "PL8531519354",
                "operator": "Fundacja O\u015bwiatowa \"Realizujmy Marzenia\"",
                "operator:type": "ngo",
                "amenity": "school"
            }
        },
        {
            "id": 263238,
            "type": "Feature",
            "geometry": {
                "type": "Point",
                "coordinates": [
                    14.88695,
                    53.14667
                ]
            },
            "properties": {
                "isced:level": "1;2",
                "ref:rspo": 263238,
                "official_name": "Szko\u0142a Podstawowa im. Janusza Korczaka w Pyrzycach",
                "name": "Szko\u0142a Podstawowa",
                "addr:country": "PL",
                "addr:postcode": "74-200",
                "addr:city": "Pyrzyce",
                "addr:street": "Tadeusza Rejtana",
                "addr:housenumber": "6",
                "addr:teryt:simc": 979515,
                "addr:teryt:sym_ul": 18575,
                "contact:phone": "+48 915700355",
                "contact:email": "pyrzycegim@o2.pl",
                "contact:website": "http:\/\/pyrzycegim.com",
                "ref:regon": "368175504",
                "ref:vatin": "PL8531520699",
                "operator": "Gmina Pyrzyce",
                "operator:type": "government",
                "amenity": "school"
            }
        },
        {
            "id": 72049,
            "type": "Feature",
            "geometry": {
                "type": "Point",
                "coordinates": [
                    14.89434,
                    53.14734
                ]
            },
            "properties": {
                "ref:rspo": 72049,
                "official_name": "Pyrzycka Szko\u0142a Muzyczna I Stopnia w Pyrzycach",
                "name": "Pyrzycka Szko\u0142a Muzyczna I Stopnia w Pyrzycach",
                "addr:country": "PL",
                "addr:postcode": "74-200",
                "addr:city": "Pyrzyce",
                "addr:street": "Jana Paw\u0142a II",
                "addr:housenumber": "5",
                "addr:teryt:simc": 979515,
                "addr:teryt:sym_ul": 7123,
                "contact:phone": "+48 915704219",
                "contact:email": "psm1.pyrzyce@wp.pl",
                "contact:website": "http:\/\/www.psmwpyrzycach.pl",
                "ref:regon": "320248844",
                "ref:vatin": "PL8531477704",
                "operator": "Gmina Pyrzyce",
                "operator:type": "government",
                "amenity": "music_school"
            }
        },
        {
            "id": 72057,
            "type": "Feature",
            "geometry": {
                "type": "Point",
                "coordinates": [
                    14.89067,
                    53.14767
                ]
            },
            "properties": {
                "ref:rspo": 72057,
                "official_name": "Przedszkole Publiczne Nr 3 Z Oddzia\u0142em Integracyjnym w Pyrzycach",
                "name": "Przedszkole Publiczne Nr 3 Z Oddzia\u0142em Integracyjnym w Pyrzycach",
                "addr:country": "PL",
                "addr:postcode": "74-200",
                "addr:city": "Pyrzyce",
                "addr:street": "Gabriela Narutowicza",
                "addr:housenumber": "5",
                "addr:teryt:simc": 979515,
                "addr:teryt:sym_ul": 14018,
                "contact:phone": "+48 915700707",
                "contact:email": "pyrzycepp3@wp.pl",
                "ref:regon": "320892048",
                "ref:vatin": "PL8531509775",
                "operator": "Gmina Pyrzyce",
                "operator:type": "government",
                "amenity": "kindergarten"
            }
        },
        {
            "id": 72062,
            "type": "Feature",
            "geometry": {
                "type": "Point",
                "coordinates": [
                    14.89281,
                    53.14989
                ]
            },
            "properties": {
                "ref:rspo": 72062,
                "official_name": "Niepubliczne Przedszkole Z Oddzia\u0142ami Integracyjnymi Promyczek w Pyrzycach",
                "name": "Niepubliczne Przedszkole Z Oddzia\u0142ami Integracyjnymi Promyczek w Pyrzycach",
                "addr:country": "PL",
                "addr:postcode": "74-200",
                "addr:city": "Pyrzyce",
                "addr:street": "Stargardzka",
                "addr:housenumber": "34a",
                "addr:teryt:simc": 979515,
                "addr:teryt:sym_ul": 20908,
                "contact:phone": "+48 664940276",
                "contact:email": "mariolakosowska@wp.pl",
                "contact:website": "http:\/\/www.promyczek.org.pl",
                "ref:regon": "321293574",
                "ref:vatin": "PL8542363565",
                "operator": "Mariola Kosowska",
                "operator:type": "private",
                "amenity": "kindergarten"
            }
        },
        {
            "id": 125876,
            "type": "Feature",
            "geometry": {
                "type": "Point",
                "coordinates": [
                    14.88899,
                    53.15229
                ]
            },
            "properties": {
                "ref:rspo": 125876,
                "official_name": "Przedszkole Niepubliczne \"Piotru\u015b Pan\" w Pyrzycach",
                "name": "Przedszkole Niepubliczne \"Piotru\u015b Pan\" w Pyrzycach",
                "addr:country": "PL",
                "addr:postcode": "74-200",
                "addr:city": "Pyrzyce",
                "addr:street": "Wojciecha Bartosza G\u0142owackiego",
                "addr:housenumber": "18",
                "addr:teryt:simc": 979515,
                "addr:teryt:sym_ul": 31184,
                "contact:phone": "+48 666839411",
                "contact:email": "agnieszka1969@onet.pl",
                "ref:regon": "360051694",
                "operator": "Agnieszka Chodanowska",
                "operator:type": "private",
                "amenity": "kindergarten"
            }
        },
        {
            "id": 72059,
            "type": "Feature",
            "geometry": {
                "type": "Point",
                "coordinates": [
                    14.90203,
                    53.18228
                ]
            },
            "properties": {
                "ref:rspo": 72059,
                "official_name": "Przedszkole Publiczne w Brzezinie",
                "name": "Przedszkole Publiczne w Brzezinie",
                "addr:country": "PL",
                "addr:postcode": "74-200",
                "addr:place": "Brzezin",
                "addr:housenumber": "38",
                "addr:teryt:simc": 781820,
                "contact:phone": "+48 915700540",
                "contact:email": "ppbrzezin@wp.pl",
                "ref:regon": "320893763",
                "ref:vatin": "PL8531509769",
                "operator": "Gmina Pyrzyce",
                "operator:type": "government",
                "amenity": "kindergarten"
            }
        },
        {
            "id": 72056,
            "type": "Feature",
            "geometry": {
                "type": "Point",
                "coordinates": [
                    14.83976,
                    53.18235
                ]
            },
            "properties": {
                "ref:rspo": 72056,
                "official_name": "Przedszkole Publiczne w \u017babowie",
                "name": "Przedszkole Publiczne w \u017babowie",
                "addr:country": "PL",
                "addr:postcode": "74-200",
                "addr:place": "\u017bab\u00f3w",
                "addr:housenumber": "70",
                "addr:teryt:simc": 782050,
                "contact:phone": "+48 915630249",
                "contact:email": "przedszkolezabow@gmail.com",
                "ref:regon": "320892210",
                "ref:vatin": "PL8531509752",
                "operator": "Gmina Pyrzyce",
                "operator:type": "government",
                "amenity": "kindergarten"
            }
        },
        {
            "id": 72053,
            "type": "Feature",
            "geometry": {
                "type": "Point",
                "coordinates": [
                    14.83966,
                    53.18665
                ]
            },
            "properties": {
                "isced:level": "1;2",
                "ref:rspo": 72053,
                "official_name": "Szko\u0142a Podstawowa w \u017babowie",
                "name": "Szko\u0142a Podstawowa w \u017babowie",
                "addr:country": "PL",
                "addr:postcode": "74-200",
                "addr:place": "\u017bab\u00f3w",
                "addr:housenumber": "8",
                "addr:teryt:simc": 782050,
                "contact:phone": "+48 915630892",
                "contact:email": "infopracownia@wp.pl",
                "contact:website": "http:\/\/www.spzabow.szkolnastrona.pl\/",
                "ref:regon": "000702498",
                "ref:vatin": "PL8531113209",
                "operator": "Gmina Pyrzyce",
                "operator:type": "government",
                "amenity": "school"
            }
        },
        {
            "id": 72052,
            "type": "Feature",
            "geometry": {
                "type": "Point",
                "coordinates": [
                    14.92798,
                    53.1896
                ]
            },
            "properties": {
                "isced:level": "1;2",
                "ref:rspo": 72052,
                "official_name": "Szko\u0142a Podstawowa w Okunicy",
                "name": "Szko\u0142a Podstawowa w Okunicy",
                "addr:country": "PL",
                "addr:postcode": "74-200",
                "addr:place": "Okunica",
                "addr:housenumber": "23",
                "addr:teryt:simc": 781977,
                "contact:phone": "+48 915700807",
                "contact:email": "spokunica@interia.pl",
                "ref:regon": "810490224",
                "ref:vatin": "PL8531113178",
                "operator": "Gmina Pyrzyce",
                "operator:type": "government",
                "amenity": "school"
            }
        },
        {
            "id": 121697,
            "type": "Feature",
            "geometry": {
                "type": "Point",
                "coordinates": [
                    14.85265,
                    53.19324
                ]
            },
            "properties": {
                "ref:rspo": 121697,
                "official_name": "M\u0142odzie\u017cowy O\u015brodek Socjoterapii w Ryszewku",
                "name": "M\u0142odzie\u017cowy O\u015brodek Socjoterapii w Ryszewku",
                "addr:country": "PL",
                "addr:postcode": "74-200",
                "addr:place": "Ryszewko",
                "addr:housenumber": "44",
                "addr:teryt:simc": 781990,
                "contact:phone": "+48 957652996",
                "ref:regon": "321477966",
                "operator": "Dane Do Uzupe\u0142nienia",
                "operator:type": "private",
                "fixme": "amenity=social_facility + social_facility=group_home + social_facility:for=juvenile",
                "note": "Children RSPO: 263430"
            }
        },
        {
            "id": 263430,
            "type": "Feature",
            "geometry": {
                "type": "Point",
                "coordinates": [
                    14.85265,
                    53.19321
                ]
            },
            "properties": {
                "isced:level": "1;2",
                "ref:rspo": 263430,
                "official_name": "Szko\u0142a Podstawowa w Ryszewku",
                "name": "Szko\u0142a Podstawowa w Ryszewku",
                "addr:country": "PL",
                "addr:postcode": "74-200",
                "addr:place": "Ryszewko",
                "addr:housenumber": "44",
                "addr:teryt:simc": 781990,
                "contact:phone": "+48 915730447",
                "contact:email": "mosryszewko@gmail.com",
                "contact:website": "http:\/\/www.mosryszewko.pl",
                "ref:regon": "368188820",
                "operator": "S\u0142aw\u0119ci\u0144skie Stowarzyszenie Inicjatyw Lokalnych",
                "operator:type": "ngo",
                "amenity": "school",
                "note": "Parent RSPO: 121697"
            }
        }
    ]
}