{
    "type": "FeatureCollection",
    "features": [
        {
            "id": 34609,
            "type": "Feature",
            "geometry": {
                "type": "Point",
                "coordinates": [
                    15.10834,
                    53.05228
                ]
            },
            "properties": {
                "isced:level": "1;2",
                "ref:rspo": 34609,
                "official_name": "Publiczna Szko\u0142a Podstawowa im. Kornela Makuszy\u0144skiego w Jesionowie",
                "name": "Publiczna Szko\u0142a Podstawowa",
                "addr:country": "PL",
                "addr:postcode": "74-210",
                "addr:place": "Jesionowo",
                "addr:housenumber": "59",
                "addr:teryt:simc": 781300,
                "contact:phone": "+48 915643076",
                "contact:email": "pspjesionowo@gmail.com",
                "contact:website": "http:\/\/pspjesionowo.edupage.org",
                "ref:regon": "001223788",
                "ref:vatin": "PL8531426049",
                "operator": "Gmina Przelewice",
                "operator:type": "government",
                "amenity": "school"
            }
        },
        {
            "id": 113501,
            "type": "Feature",
            "geometry": {
                "type": "Point",
                "coordinates": [
                    15.07404,
                    53.10302
                ]
            },
            "properties": {
                "ref:rspo": 113501,
                "official_name": "Punkt Przedszkolny w Przelewicach",
                "name": "Punkt Przedszkolny w Przelewicach",
                "addr:country": "PL",
                "addr:postcode": "74-210",
                "addr:place": "Przelewice",
                "addr:housenumber": "95A",
                "addr:teryt:simc": 781440,
                "contact:phone": "+48 918171315",
                "contact:website": "http:\/\/www.przedszkole-przelewice.pl",
                "ref:regon": "321360684",
                "operator": "Gmina Przelewice",
                "operator:type": "government",
                "amenity": "kindergarten"
            }
        },
        {
            "id": 133888,
            "type": "Feature",
            "geometry": {
                "type": "Point",
                "coordinates": [
                    15.07404,
                    53.10299
                ]
            },
            "properties": {
                "isced:level": "1;2",
                "ref:rspo": 133888,
                "official_name": "Niepubliczna Szko\u0142a Podstawowa w Przelewicach",
                "name": "Niepubliczna Szko\u0142a Podstawowa w Przelewicach",
                "addr:country": "PL",
                "addr:postcode": "74-210",
                "addr:place": "Przelewice",
                "addr:housenumber": "95A",
                "addr:teryt:simc": 781440,
                "contact:phone": "+48 517368265",
                "contact:email": "kontakt@szkolaprzelewice.pl",
                "contact:website": "http:\/\/www.szkolaprzelewice.pl",
                "ref:regon": "367713224",
                "operator": "Stowarzyszenie \"Przelewice Dla Przysz\u0142o\u015bci\"",
                "operator:type": "ngo",
                "amenity": "school"
            }
        },
        {
            "id": 34610,
            "type": "Feature",
            "geometry": {
                "type": "Point",
                "coordinates": [
                    15.10668,
                    53.10961
                ]
            },
            "properties": {
                "isced:level": "1;2",
                "ref:rspo": 34610,
                "official_name": "Szko\u0142a Podstawowa im. Jana Brzechwy w K\u0142odzinie",
                "name": "Szko\u0142a Podstawowa",
                "addr:country": "PL",
                "addr:postcode": "74-210",
                "addr:place": "K\u0142odzino",
                "addr:housenumber": "37",
                "addr:teryt:simc": 781374,
                "contact:phone": "+48 915643111",
                "contact:email": "klodzinoefs@wp.pl",
                "contact:website": "http:\/\/www.szkolaklodzino.pl\/",
                "ref:regon": "811007135",
                "ref:vatin": "PL8531426291",
                "operator": "Gmina Przelewice",
                "operator:type": "government",
                "amenity": "school"
            }
        },
        {
            "id": 35246,
            "type": "Feature",
            "geometry": {
                "type": "Point",
                "coordinates": [
                    15.11103,
                    53.15541
                ]
            },
            "properties": {
                "isced:level": "1;2",
                "ref:rspo": 35246,
                "official_name": "Publiczna Szko\u0142a Podstawowa w \u017bukowie",
                "name": "Publiczna Szko\u0142a Podstawowa w \u017bukowie",
                "addr:country": "PL",
                "addr:postcode": "73-115",
                "addr:place": "\u017buk\u00f3w",
                "addr:housenumber": "38",
                "addr:teryt:simc": 781523,
                "contact:phone": "+48 915630125",
                "contact:email": "pspzukow@op.pl",
                "contact:website": "http:\/\/www.pspzukow.pl",
                "ref:regon": "001223771",
                "ref:vatin": "PL8531426061",
                "operator": "Gmina Przelewice",
                "operator:type": "government",
                "amenity": "school"
            }
        }
    ]
}